 2016  1 5 0627 37.6 L   6.807 -73.139144.5  RSN 22 0.4 2.3LRSN                1
 GAP= 71        0.94       2.4     2.5  4.2 -0.1107E+01  0.2352E+01  0.1323E+01E
 Epicentro: LOS SANTOS - SANTANDER                                             3
 ACTION:UPD 16-03-09 23:22 OP:cam  STATUS:               ID:20160105062737 L   I
 OLDACT:UP  16-01-05 15:38 OP:drio STATUS:               ID:20160105061748     3
 OLDACT:REG 16-01-05 12:33 OP:drio STATUS:               ID:20160105061748     3
 2016-01-05-0617-48M.COL___329                                                 6
 STAT SP IPHASW D HRMM SECON CODA AMPLIT PERI AZIMU VELO AIN AR TRES W  DIS CAZ7
 BAR2 EZ EP        627 57.18                             170    0.0910 24.2 191 
 BAR2 EZ ES        628 11.86                             170   -0.4410 24.2 191 
 BAR2 EZ I         628 13.15        58.8 0.14            167           24.2 191 
 BRR  HZ IP     C  627 59.00                             152    0.3810 71.5 298 
 BRR  HN ES        628 15.88                             152    0.8610 71.5 298 
 BRR  HZ I         628 19.10        40.7 0.16            150           71.5 298 
 PAM  EZ EP        628  0.07                             151    0.4610 76.3  39 
 PAM  EN ES        628 16.97                             151    0.1910 76.3  39 
 PAM  EZ I         628 18.73        36.3 0.56            156           76.3  39 
 RUS  HZ EP        628  1.19                             143   -0.0910  101 176 
 RUS  HE ES        628 19.37                             143   -0.3710  101 176 
 RUS  HZ I         628 20.67        16.1 0.20            143            101 176 
 PTB  HZ EP        628  4.26                             132   -0.28 9  149 259 
 PTB  HE ES        628 25.12                             132   -0.43 9  149 259 
 PTB  HZ I         628 30.45        25.4 0.18            130            149 259 
 TAM  HZ EP        628  5.36                             130    0.23 9  155 105 
 TAM  HN ES        628 26.70                             130    0.10 9  155 105 
 OCA  HZ EP        628  5.47                             129   -0.28 9  160 353 
 OCA  HE ES        628 27.11                             129   -0.59 9  160 353 
 OCA  HZ I         628 30.57        56.2 0.24            131            160 353 
 SPBC HZ EP        628  6.15                             129    0.05 9  164 219 
 SPBC HN ES        628 28.52                             129    0.19 9  164 219 
 SPBC HZ I         628 34.95        29.9 0.24            128            164 219 
 ZAR  HZ EP   4    628  8.84                             122   -1.16 0  204 292 
 ZAR  HN ES        628 35.50                             122    0.23 9  204 292 
 ZAR  HZ I         628 38.20        24.0 0.24            122            204 292 
 NOR  HZ EP        628 13.17                             118   -0.20 8  236 234 
 NOR  HE ES        628 41.10                             118   -0.16 8  236 234 
 NOR  HZ I         628 45.17        20.7 0.30            118            236 234 
 SML  HZ EP        628 13.55                             117   -0.56 8  243 335 
 SML  HE ES   4    628 40.47                             117   -2.12 0  243 335 
 SML  HZ I         628 44.91        30.8 0.10            118            243 335 
 CHI  HZ EP        628 15.81                             117    0.48 8  250 195 
 CHI  HN ES        628 44.14                             117   -0.62 8  250 195 
 CHI  HZ I         628 51.79         6.0 0.46            117            250 195 
 ROSC BZ EP   4    628 16.88                             116    1.12 0  254 211 
 ROSC BN ES   4    628 48.35                             116    2.82 0  254 211 
 ROSC BZ I         628 52.99        14.2 0.45            116            254 211 
 HEL  HZ EP   4    628 19.46                             114    1.61 0  273 256 
 HEL  HE ES        628 49.24                             114    0.00 8  273 256 
 HEL  HZ I         628 56.32        11.7 0.48            114            273 256 
 GUY2CHZ EP        628 22.22                             112    0.95 7  302 235 
 GUY2CHE ES   4    628 53.56                             112   -1.77 0  302 235 
 GUY2CHZ I         629  3.74        13.1 0.54                           302 235 
 PTGC HZ EP   4    628 20.35                             111   -1.10 0  309 159 
 PTGC HN ES   4    628 53.55                             111   -2.10 0  309 159 
 PTGC HZ I         628 55.94         7.9 0.36            112            309 159 
 LL6C HZ EP        628 22.62                             110   -0.54 7  324 357 
 LL6C HE ES   4    628 55.30                             110   -3.40 0  324 357 
 CBOC HZ EP   4    628 25.60                             110    1.03 0  335 252 
 CBOC HE ES        629  1.55                             110    0.35 7  335 252 
 CBOC HZ I         629 12.84         5.4 0.48            110            335 252 
 PRA  HZ EP        628 31.14                             106   -0.06 6  393 210 
 PRA  HN ES        629 12.64                             106   -0.36 6  393 210 
 PRA  HZ I         629 20.08         7.1 0.54            107            393 210 
 ORTC HZ EP        628 31.34                             106   -0.26 6  396 216 
 ORTC HE ES        629 14.21                             106    0.49 6  396 216 
 PAL  HZ EP        628 33.17                             106    0.33 6  407 239 
 PAL  HE ES        629 15.50                             106   -0.42 6  407 239 
 PAL  HZ I         629 30.19         2.2 0.16            106            407 239 
 SJC  HZ EP   4    628 31.21                             105   -1.88 0  409 327 
 SJC  HN ES   4    629 12.86                             105   -3.51 0  409 327 
 SJC  HZ I         629 17.05         3.7 0.48            106            409 327 
                                                                                
