 2013  2 5 0619  0.3 L   6.793 -73.132144.2  RSN  7 0.3 1.9LRSN                1
 GAP=139        0.70       2.9     3.5  5.4  0.1403E+01  0.2209E+01 -0.1230E+01E
 Epicentro: LOS SANTOS - SANTANDER                                             3
 ACTION:UPD 13-03-12 09:30 OP:ep   STATUS:               ID:20130205061900 L   I
 2013-02-05-0617-38M.COL___169                                                 6
 STAT SP IPHASW D HRMM SECON CODA AMPLIT PERI AZIMU VELO AIN AR TRES W  DIS CAZ7
 BAR2 SZ EP   1    619 19.70                             171   -0.07 7 22.8 194 
 BAR2 SZ ES        619 34.66                             171   -0.2710 22.8 194 
 BAR2 SZ I         619 36.12        26.7 0.20            170           22.8 194 
 BRR  HZ EP        619 21.70                             152    0.2810 72.9 299 
 BRR  HN ES        619 38.36                             152    0.5010 72.9 299 
 BRR  HN I         619 42.76        26.3 0.16            150           72.9 299 
 PAM  SZ EP        619 22.70                             151    0.3310 77.1  38 
 PAM  SN ES   1    619 39.50                             151   -0.05 7 77.1  38 
 PAM  SN I         619 40.59        10.5 0.48            154           77.1  38 
 RUS  HZ EP        619 23.80                             144   -0.0710 99.7 177 
 RUS  HN ES        619 42.22                             144   -0.0110 99.7 177 
 RUS  HN I         619 43.43         9.0 0.20            146           99.7 177 
 PTB  HZ EP   1    619 26.96                             131   -0.34 7  149 259 
 PTB  HN ES   1    619 48.15                             131   -0.18 7  149 259 
 PTB  HN I         619 50.51        10.1 0.22            132            149 259 
 OCA  HN ES        619 50.24                             129   -0.44 9  161 353 
 ZAR  HN ES        619 58.14                             122   -0.08 8  206 292 
 ZAR  HN I         620  3.93         9.5 0.22            122            206 292 
                                                                                
