 2015  6 5 0622 21.4 L   6.843 -73.109143.6  RSN 10 0.5 1.6LRSN                1
 GAP=139        1.16       3.7     5.0  7.1 -0.1254E+01  0.1343E+02  0.2741E+01E
 Epicentro: LOS SANTOS - SANTANDER                                             3
 ACTION:UPD 15-09-10 22:09 OP:cam  STATUS:               ID:20150605062221 L   I
 OLDACT:REG 15-06-05 13:09 OP:ak   STATUS:               ID:20150605061749     3
 2015-06-05-0617-49M.COL___297                                                 6
 STAT SP IPHASW D HRMM SECON CODA AMPLIT PERI AZIMU VELO AIN AR TRES W  DIS CAZ7
 BAR2 EZ EP   1    622 40.54                             168   -0.34 7 28.8 196 
 BAR2 EZ ES   1    622 55.68                             168   -0.40 7 28.8 196 
 BAR2 EZ I         622 57.48         9.1 0.16            166           28.8 196 
 PAM  SZ EP        622 43.87                             152    0.8710 71.2  39 
 PAM  SN ES        622 59.31                             152   -0.5610 71.2  39 
 PAM  SZ I         623  3.06         6.6 0.25            157           71.2  39 
 BRR  HZ EP        622 42.91                             152    0.5310 72.7 294 
 BRR  HE ES        622 59.64                             152    0.8810 72.7 294 
 RUS  HZ EP        622 45.35                             142    0.1010  105 178 
 RUS  HE ES        623  3.94                             142    0.0710  105 178 
 RUS  HZ I         623  4.63         5.7 0.20            144            105 178 
 SPBC HZ EP        622 49.78                             127   -0.53 9  169 219 
 SPBC HN ES        623 12.20                             127   -0.67 9  169 219 
 SPBC HZ I         623 18.91         8.0 0.20            128            169 219 
 ZAR  HZ EP   1    622 53.69                             122   -0.21 6  206 291 
 ZAR  HN ES        623 19.06                             122   -0.20 8  206 291 
 ZAR  HZ I         623 25.29         2.9 0.23            122            206 291 
 SML  HZ EP   1    622 57.18                             117   -0.43 6  241 334 
 SML  HN ES        623 25.19                             117   -0.68 8  241 334 
 HEL  HZ EP   1    623  1.83                             114   -0.22 6  277 255 
 HEL  HN ES        623 33.67                             114   -0.10 7  277 255 
 HEL  HZ I         623 40.49         2.6 0.42            115            277 255 
 GUY2CHZ EP   1    623  6.20                             111    0.63 5  307 234 
 GUY2CHE ES        623 40.65                             111    0.62 7  307 234 
 GUY2CHZ I         623 46.96         1.7 0.46                           307 234 
 PRA  HZ EP        623 15.42                             106   -0.12 6  398 210 
 PRA  HN ES        623 57.79                             106    0.01 6  398 210 
 PRA  HZ I         624  3.22         2.0 0.30            107            398 210 
                                                                                
