 2011  3 5 0324 11.1 L   7.036 -73.361  0.3  RSN  4 0.2 1.1LRSN                1
 GAP=173        0.52       3.0     8.3  9.5 -0.1200E+02  0.1676E+02 -0.1659E+02E
 Epicentro: BETULIA - SANTANDER                                                3
 *BAR2-GRA-OCA-CHI                                                             3
 ACTION:UP  11-06-16 14:31 OP:jfem STATUS:               ID:20110305032139 L   I
 2011-03-05-0321-39S.COL___135                                                 6
 STAT SP IPHASW D HRMM SECON CODA AMPLIT PERI AZIMU VELO SNR AR TRES W  DIS CAZ7
 BAR2 SZ EP   1    324 20.23                              47    -0.3 8   53 158 
 BAR2 SZ I         324 37.05         6.5 0.27                            53 158 
 GRA  SZ EP        324 29.46                              47     0.110  112  33 
 GRA  SZ ES   2    324 43.77                              47     0.1 5  112  33 
 GRA  SZ I         324 47.62         2.5 0.31                           112  33 
 OCA  SZ EP   3    324 32.54                              47     0.0 2  133   2 
 OCA  SZ ES   2    324 49.05                              47    -0.2 5  133   2 
 OCA  SZ I         324 54.13         4.1 0.21                           133   2 
 CHI  HZ EP   1    324 51.52                              37     0.4 6  269 189 
 CHI  HZ I         325 13.24         1.7 0.21                           269 189 
                                                                                
