 2010  8 5 0012 58.2 L   6.799 -73.118143.2  RSN 11 0.5 2.5LRSN                1
 GAP=167        0.97       3.9     7.1  6.4 -0.4538E+01  0.1438E+02  0.4626E+00E
 Epicentro: LOS SANTOS - SANTANDER                                             3
 ACTION:UP  10-09-07 10:52 OP:vdl  STATUS:               ID:20100805001258 L   I
 2010-08-05-0011-29S.COL___126                                                 6
 STAT SP IPHASW D HRMM SECON CODA AMPLIT PERI AZIMU VELO SNR AR TRES W  DIS CAZ7
 BAR2 SZ IP        013 17.61                             169     0.010   24 197 
 BAR2 SZ I         013 17.94        78.9 0.08                            24 197 
 BAR2 SZ ES   1    013 32.23                             169    -0.4 7   24 197 
 GIR2 SZ EP        013 17.71                             166     0.110   32 345 
 GIR2 SZ ES   2    013 32.70                             166     0.0 5   32 345 
 BRR  HZ IP     C  013 19.52                             150     0.310   74 297 
 BRR  HZ I         013 19.87        80.6 0.10                            74 297 
 BRR  HN ES   1    013 36.46                             150     0.8 7   74 297 
 RUS  HZ EP        013 21.57                             144    -0.110  100 178 
 RUS  HN ES   1    013 40.01                             144     0.0 7  100 178 
 RUS  HZ I         013 42.05        26.1 0.67                           100 178 
 GUE  SZ EP        013 22.56                             139    -0.110  116  11 
 OCA  SZ EP        013 26.14                             129    -0.2 9  161 352 
 OCA  SZ ES   2    013 47.23                             129    -1.1 5  161 352 
 OCA  SZ I         013 53.07        26.0 0.26                           161 352 
 CHI  HZ EP   2    013 35.41                             117    -0.5 4  249 196 
 CHI  HE ES   1    014  4.93                             117    -0.3 6  249 196 
 CHI  HZ I         014 13.44        12.2 0.33                           249 196 
 HEL  HZ EP        013 39.42                             114     0.8 8  275 256 
 HEL  HE ES   2    014  8.96                             114    -1.2 4  275 256 
 HEL  HZ I         014 16.83        20.0 0.29                           275 256 
 RREF HZ EP        013 45.17                             110     0.7 7  324 230 
 RREF HN ES   2    014 20.28                             110    -0.3 3  324 230 
 RREF HZ I         014 26.45        16.3 0.50                           324 230 
 DBB  SZ EP        013 45.56                             109    -0.4 7  342 274 
 PRA  HZ EP        013 51.65                             106    -0.2 6  393 210 
 PRA  HE ES   2    014 33.31                             106    -0.3 3  393 210 
 PRA  HZ I         014 40.96        14.2 0.43                           393 210 
                                                                                
