 2010  6 5 0859 41.6 L   6.782 -73.000144.5  RSN  8 0.5 2.0LRSN                1
 GAP=166        1.16       9.4    16.6 13.0 -0.7931E+02 -0.4840E+02  0.1231E+02E
 Epicentro: CEPITA - SANTANDER                                                 3
 ACTION:UP  10-08-24 10:08 OP:vdl  STATUS:               ID:20100605085941 L   I
 2010-06-05-0856-47S.COL___109                                                 6
 STAT SP IPHASW D HRMM SECON CODA AMPLIT PERI AZIMU VELO SNR AR TRES W  DIS CAZ7
 BAR2 SZ IP        9 0  1.28                             168     0.110   29 224 
 BAR2 SZ ES   2    9 0 16.49                             168     0.0 5   29 224 
 GIR2 SZ EP   2    9 0  1.41                             165     0.1 5   39 327 
 GUE  SZ IP        9 0  5.26                             140    -0.910  116   4 
 GRA  SZ IP        9 0  7.05                             138     0.510  124  10 
 GRA  SZ ES   1    9 0 26.27                             138     0.2 7  124  10 
 OCA  SZ EP   1    9 0  9.57                             129    -0.7 7  165 348 
 OCA  SZ ES   2    9 0 33.36                             129     0.8 5  165 348 
 OCA  SZ I         9 0 38.56        15.0 0.38                           165 348 
 ROSC BZ EP   2    9 0 21.21                             116     0.8 4  260 214 
 ROSC BZ I         9 0 57.79         8.0 0.39                           260 214 
 HEL  HZ EP   2    9 0 23.55                             114     0.1 4  287 257 
 HEL  HZ I         9 1  0.01         3.9 0.52                           287 257 
 SDV  BZ IP     D  9 0 30.62                             109     0.3 6  350  48 
 SDV  BZ I         9 0 31.41         2.4 0.14                           350  48 
                                                                                
