 2011  6 5 0950  0.2 L   6.769 -73.107145.0  RSN  5 0.2 1.4LRSN                1
 GAP=143        0.57       3.3     6.9  6.0  0.4848E+01 -0.8821E+01 -0.5125E+01E
 Epicentro: LOS SANTOS - SANTANDER                                             3
 ACTION:UP  11-07-14 19:03 OP:ep   STATUS:               ID:20110605095000 L   I
 2011-06-05-0948-34S.COL___132                                                 6
 STAT SP IPHASW D HRMM SECON CODA AMPLIT PERI AZIMU VELO SNR AR TRES W  DIS CAZ7
 BAR2 SZ EP   1    950 19.65                             171     0.0 7   21 203 
 BAR2 SZ ES   1    950 34.76                             171    -0.1 7   21 203 
 BAR2 SZ I         950 35.60         9.2 0.27                            21 203 
 BRR  HZ EP   1    950 21.77                             151     0.2 7   77 299 
 BRR  HZ I         950 27.01         3.6 0.13                            77 299 
 BRR  HE ES   1    950 38.36                             151     0.1 7   77 299 
 PAM  SZ EP   1    950 22.66                             151     0.3 7   77  36 
 PAM  SN ES   2    950 39.64                             151     0.0 5   77  36 
 RUS  HZ EP   1    950 23.78                             145     0.2 7   97 178 
 RUS  HZ I         950 24.71         2.1 0.17                            97 178 
 RUS  HN ES   1    950 41.73                             145    -0.2 7   97 178 
 OCA  SZ EP   1    950 28.24                             129    -0.6 7  164 352 
 OCA  SZ ES   1    950 51.15                             129     0.0 7  164 352 
 OCA  SZ I         950 53.89         3.3 0.46                           164 352 
                                                                                
