 2013  3 5 0535 25.4 L   6.747 -73.192144.7  RSN  4 0.3 1.4LRSN                1
 GAP=228        0.65       5.6     6.0  5.7  0.1762E+02  0.2788E+01 -0.1867E+01E
 Epicentro: VILLANUEVA - SANTANDER                                             3
 ACTION:UPD 13-04-09 13:59 OP:ep   STATUS:               ID:20130305053525 L   I
 2013-03-05-0530-00M.COL___228                                                 6
 STAT SP IPHASW D HRMM SECON CODA AMPLIT PERI AZIMU VELO AIN AR TRES W  DIS CAZ7
 BAR2 SZ EP        535 44.57                             173   -0.2210 17.2 177 
 BAR2 SZ ES        535 59.60                             173   -0.3110 17.2 177 
 BAR2 SZ I         536  1.22         5.5 0.19            171           17.2 177 
 BRR  HZ EP     D  535 46.42                             153    0.0610 69.9 305 
 BRR  HZ I         535 46.59         4.6 0.23            153           69.9 305 
 BRR  HN ES   1    536  3.20                             153    0.49 7 69.9 305 
 RUS  HZ EP        535 48.63                             145   -0.0410 95.3 173 
 RUS  HN ES        536  7.12                             145    0.3110 95.3 173 
 RUS  HN I         536  8.20         4.1 0.24            145           95.3 173 
 PTB  HZ EP   1    535 51.87                             133    0.13 7  142 261 
 PTB  HE ES   1    536 12.01                             133   -0.27 7  142 261 
 PTB  HZ I         536 14.44         2.5 0.47            132            142 261 
                                                                                
