 2015  3 5 0517 25.9 L   7.071 -73.180135.5  RSN  6 0.2 1.0LRSN                1
 GAP=147        0.44       3.1     2.7  3.8 -0.1903E+00  0.1649E+00  0.2418E+01E
 Epicentro: GIRON - SANTANDER                                                  3
 ACTION:UPD 15-04-30 16:23 OP:nd   STATUS:               ID:20150305051725 L   I
 OLDACT:DUP 15-03-05 16:19 OP:spq  STATUS:               ID:20150305050751d    3
 2015-03-05-0507-49M.COL___284                                                 6
 STAT SP IPHASW D HRMM SECON CODA AMPLIT PERI AZIMU VELO AIN AR TRES W  DIS CAZ7
 BAR2 EZ EP   1    517 45.28                             158   -0.05 7 52.9 180 
 BAR2 EZ ES   1    518  0.22                             158   -0.25 7 52.9 180 
 BAR2 EZ I         518  1.50         4.0 0.34            158           52.9 180 
 BRR  HZ EP        517 45.37                             155    0.1010 58.9 274 
 BRR  HN ES        518  0.56                             155    0.1910 58.9 274 
 BRR  HZ I         518  1.50         2.3 0.14            157           58.9 274 
 PAM  SZ EP   1    517 45.84                             155   -0.24 7 60.8  61 
 PAM  SN ES   1    518  1.82                             155   -0.00 7 60.8  61 
 PAM  SZ I         518  4.31         1.5 0.57            156           60.8  61 
 RUS  HZ EP        517 51.30                             134    0.1510  131 175 
 RUS  HN ES   1    518 10.96                             134    0.12 7  131 175 
 RUS  HZ I         518 12.32         0.5 0.20            135            131 175 
 PTB  HZ EP   1    517 52.47                             128   -0.07 7  153 247 
 PTB  HN ES   1    518 12.99                             128   -0.32 7  153 247 
 PTB  HZ I         518 14.80         1.7 0.16            131            153 247 
 SPBC HZ E         517 19.60                                            185 212 
                                                                                
