 2010  7 5 0024 15.1 L   6.761 -73.115157.0  RSN  5 0.4 1.3LRSN                1
 GAP=186        0.76       5.7    17.8  9.2  0.3820E+02 -0.2422E+02 -0.2248E+01E
 Epicentro: LOS SANTOS - SANTANDER                                             3
 ACTION:UPD 10-12-01 15:15 OP:pat  STATUS:               ID:20100705002415 L   I
 2010-07-05-0021-10S.COL___118                                                 6
 STAT SP IPHASW D HRMM SECON CODA AMPLIT PERI AZIMU VELO AIN AR TRES W  DIS CAZ7
 BAR2 SZ EP   1    024 35.87                             173    -0.1 7   20 202 
 BAR2 SZ ES   2    024 51.89                             173    -0.4 5   20 202 
 BRR  HZ EP   1    024 37.98                             153     0.3 7   76 300 
 BRR  HN ES   2    024 55.54                             153     0.2 5   76 300 
 RUS  HZ EP   1    024 39.99                             147     0.4 7   96 178 
 RUS  HN ES   2    024 59.02                             147     0.2 5   96 178 
 RUS  HZ I         025  0.42         1.6 1.01                            96 178 
 OCA  SZ EP   1    024 45.05                             131     0.3 7  165 352 
 OCA  SZ ES   2    025  7.00                             131    -0.8 5  165 352 
 OCA  SZ I         025 15.42         4.5 0.26                           165 352 
 CHI  HZ EP   1    024 52.34                             120    -0.7 6  245 196 
                                                                                
