 2010 12 5 0513 42.5 L   6.816 -73.164139.7  RSN  7 0.5 1.8LRSN                1
 GAP=166        1.08       6.2    12.6 11.0 -0.3769E+02  0.3987E+02 -0.1484E+02E
 Epicentro: LOS SANTOS - SANTANDER                                             3
 ACTION:UP  11-01-14 15:22 OP:pat  STATUS:               ID:20101205051342 L   I
 2010-12-05-0512-45S.COL___133                                                 6
 STAT SP IPHASW D HRMM SECON CODA AMPLIT PERI AZIMU VELO SNR AR TRES W  DIS CAZ7
 BAR2 SZ EP        514  1.33                             169    -0.110   25 185 
 BAR2 SZ ES   1    514 15.97                             169    -0.3 7   25 185 
 BAR2 SZ I         514 17.25        14.6 0.36                            25 185 
 GIR2 SZ EP        514  2.39                             168     1.010   29 354 
 GUE  SZ EP        514  6.66                             138     0.110  115  13 
 GRA  SZ EP        514  7.22                             136     0.110  125  19 
 GRA  SZ ES   1    514 25.86                             136    -0.5 7  125  19 
 GRA  SZ I         514 27.92        14.0 0.47                           125  19 
 OCA  SZ EP        514 10.06                             128    -0.1 9  158 354 
 OCA  SZ ES   1    514 31.30                             128    -0.5 7  158 354 
 CHI  HZ EP   2    514 19.02                             115    -1.0 4  250 195 
 CHI  HN ES   2    514 49.05                             115    -0.2 4  250 195 
 CHI  HZ I         514 54.91         3.1 0.21                           250 195 
 HEL  HZ EP   2    514 21.79                             113    -0.5 4  271 255 
 HEL  HE ES   2    514 53.40                             113     0.1 4  271 255 
 HEL  HZ I         514 59.79         4.1 0.33                           271 255 
                                                                                
