 2015  4 5 0120  7.6 L   6.790 -73.174139.9  RSN  8 0.3 1.8LRSN                1
 GAP=133        0.80       2.3     3.5  6.4 -0.2142E+01  0.8372E+01 -0.2317E+01E
 Epicentro: LOS SANTOS - SANTANDER                                             3
 ACTION:UPD 15-06-03 16:52 OP:cam  STATUS:               ID:20150405012007 L   I
 OLDACT:UP  15-04-05 15:15 OP:mh   STATUS:               ID:20150405011736     3
 OLDACT:UP  15-04-05 15:11 OP:mh   STATUS:               ID:20150405011736     3
 OLDACT:UP  15-04-05 15:11 OP:mh   STATUS:               ID:20150405011736     3
 OLDACT:REG 15-04-05 12:15 OP:mh   STATUS:               ID:20150405011736     3
 2015-04-05-0117-36M.COL___285                                                 6
 STAT SP IPHASW D HRMM SECON CODA AMPLIT PERI AZIMU VELO AIN AR TRES W  DIS CAZ7
 PAM  SZ EP        120 29.76                             149    0.3910 80.2  41 
 PAM  SN ES        120 46.41                             149    0.0610 80.2  41 
 PAM  SZ I         120 48.64        11.5 0.44            156           80.2  41 
 RUS  HZ EP        120 31.03                             143    0.3210 99.7 174 
 RUS  HN ES        120 48.66                             143   -0.0810 99.7 174 
 RUS  HZ I         120 50.24         5.3 0.34            146           99.7 174 
 PTB  HZ EP        120 33.79                             131   -0.00 9  144 259 
 PTB  HN ES   1    120 53.92                             131   -0.30 7  144 259 
 PTB  HZ I         120 56.77         5.5 0.16            132            144 259 
 SPBC HZ EP        120 35.31                             128   -0.07 9  160 218 
 SPBC HN ES        120 56.80                             128   -0.25 9  160 218 
 SPBC HZ I         121  6.36         7.5 0.20            130            160 218 
 OCA  HZ EP        120 35.55                             128    0.02 9  161 354 
 OCA  HN ES        120 56.73                             128   -0.59 9  161 354 
 OCA  HZ I         120 58.19        10.6 0.16            132            161 354 
 ZAR  HZ EP   4    120 40.55                             121    1.14 0  202 293 
 ZAR  HN ES        121  5.01                             121    0.79 9  202 293 
 ZAR  HZ I         121 11.47         6.0 0.30            123            202 293 
 NOR  HZ EP        120 42.43                             117   -0.22 8  232 234 
 NOR  HN ES        121  9.96                             117   -0.02 8  232 234 
 NOR  HZ I         121 17.94         4.0 0.20            120            232 234 
 SML  HZ EP        120 43.45                             116   -0.42 8  243 336 
 SML  HN ES        121 12.24                             116    0.08 8  243 336 
 SML  HZ I         121 14.35         6.4 0.28            120            243 336 
                                                                                
