 2013  1 5 0939 37.2 L   6.664 -73.188153.0  RSN  4 0.5 2.1LRSN                1
 GAP=222        1.27      10.1     9.6 10.2  0.4681E+02  0.1164E+02  0.3117E+01E
 Epicentro: VILLANUEVA - SANTANDER                                             3
 ACTION:UPD 13-02-15 09:12 OP:ep   STATUS:               ID:20130105093937 L   I
 2013-01-05-0929-49M.COL___192                                                 6
 STAT SP IPHASW D HRMM SECON CODA AMPLIT PERI AZIMU VELO AIN AR TRES W  DIS CAZ7
 BAR2 SZ EP        939 57.72                             177    0.2010 7.98 176 
 BAR2 SZ ES        940 12.56                             177   -0.8010 7.98 176 
 BAR2 SZ I         940 13.81        15.9 0.34            171           7.98 176 
 BRR  HZ EP        939 59.60                             152    0.1910 75.9 310 
 BRR  HZ I         939 59.81        20.9 0.23            149           75.9 310 
 BRR  HN ES        940 17.17                             152    0.4410 75.9 310 
 RUS  HZ EP        940  1.07                             149    0.3410 86.1 172 
 RUS  HN ES        940 19.32                             149    0.2410 86.1 172 
 PTB  HZ EP        940  3.28                             135   -0.91 9  141 264 
 PTB  HN ES        940 25.47                             135    0.24 9  141 264 
 PTB  HN I         940 31.14        21.3 0.38            132            141 264 
                                                                                
