 2012  3 5 0638 19.3 L   6.746 -73.182145.0  RSN  6 0.4 1.7LRSN                1
 GAP=179        0.90       7.1     6.6  9.0  0.2320E+02 -0.2232E+01 -0.1807E+02E
 ACTION:UP  12-03-31 23:17 OP:EP   STATUS:               ID:20120305063819 L   I
 2012-03-05-0636-46S.COL___148                                                 6
 STAT SP IPHASW D HRMM SECON CODA AMPLIT PERI AZIMU VELO SNR AR TRES W  DIS CAZ7
 BAR2 SZ EP   1    638 38.71                             173     0.0 9   17 180 
 BAR2 SZ ES   1    638 53.23                             173    -0.6 9   17 180 
 BAR2 SZ I         638 54.83         9.8 0.30                            17 180 
 BRR  HZ EP   1    638 40.49                             152     0.2 9   71 304 
 BRR  HN ES   1    638 57.49                             152     0.8 9   71 304 
 BRR  HZ I         639  1.00        18.9 0.15                            71 304 
 RUS  HZ EP   1    638 42.84                             145     0.3 9   95 173 
 RUS  HN ES   1    639  0.79                             145     0.1 9   95 173 
 RUS  HZ I         639  2.99         5.1 0.46                            95 173 
 PTB  HZ EP   1    638 45.78                             133     0.1 8  143 261 
 PTB  HN ES   1    639  5.93                             133    -0.4 8  143 261 
 PTB  HZ I         639 10.23         0.0 0.12                           143 261 
 OCA  SZ EP   1    638 47.61                             128    -0.4 8  166 355 
 ZAR  HE ES        639 16.65                             122     0.010  203 294 
                                                                                
