 2017  9 5 0550 31.9 L   6.711 -73.161146.0  RSN  5 0.4 1.1LRSN                1
 GAP=229        0.81       4.8     7.1  8.1  0.1513E+02  0.2425E+02  0.2027E+01E
 Epicentro: VILLANUEVA - SANTANDER                                             3
 ACTION:UPD 17-10-05 19:09 OP:rebc STATUS:               ID:20170905055031 L   I
 OLDACT:REG 17-09-05 13:22 OP:dnl  STATUS:               ID:20170905054743     3
 2017-09-05-0548-00M.COL___426                                                 6
 STAT SP IPHASW D HRMM SECON CODA AMPLIT PERI AZIMU VELO AIN AR TRES W  DIS CAZ7
 BAR2 EZ ES        551  6.14                             175   -0.5010 13.4 190 
 BAR2 EZ I         551  7.75         3.9 0.28            172           13.4 190 
 BRR  HZ EP        550 53.27                             151   -0.0510 75.0 306 
 BRR  HN ES        551 10.45                             151    0.4410 75.0 306 
 BRR  HZ I         551 11.28         2.6 0.62            149           75.0 306 
 RUS  HZ EP   2    550 54.66                             147   -0.37 5 91.0 175 
 RUS  HN ES        551 13.43                             147    0.3810 91.0 175 
 RUS  HZ I         551 14.76         1.1 0.36            147           91.0 175 
 SPBC HZ EP   2    550 59.38                             131   -0.26 5  155 221 
 SPBC HE ES        551 21.18                             131   -0.08 9  155 221 
 SPBC HZ I         551 23.28         1.5 0.20            130            155 221 
 ZAR  HZ EP   2    551  5.41                             122    0.78 4  206 295 
 ZAR  HE ES        551 29.87                             122   -0.27 8  206 295 
 ZAR  HZ I         551 35.79         1.9 0.28            122            206 295 
                                                                                
