 2015  3 5 0321 51.4 L   6.795 -73.114151.4  RSN  8 0.2 1.2LRSN                1
 GAP=141        0.58       2.6     3.0  3.9 -0.2513E+01  0.1478E+01  0.2439E+01E
 Epicentro: LOS SANTOS - SANTANDER                                             3
 ACTION:UPD 15-04-30 16:23 OP:nd   STATUS:               ID:20150305032151 L   I
 OLDACT:DUP 15-03-05 15:48 OP:spq  STATUS:               ID:20150305031743d    3
 2015-03-05-0317-42M.COL___284                                                 6
 STAT SP IPHASW D HRMM SECON CODA AMPLIT PERI AZIMU VELO AIN AR TRES W  DIS CAZ7
 BAR2 EZ EP   1    322 11.62                             171   -0.13 7 23.7 199 
 BAR2 EZ ES   1    322 27.18                             171   -0.42 7 23.7 199 
 BAR2 EZ I         322 29.32         2.7 0.19            169           23.7 199 
 BRR  HZ EP        322 13.54                             152    0.1610 74.5 298 
 BRR  HN ES        322 30.82                             152    0.3310 74.5 298 
 BRR  HZ I         322 34.17         2.7 0.36            152           74.5 298 
 PAM  SZ EP        322 14.36                             152    0.2110 75.6  37 
 PAM  SE ES        322 31.68                             152   -0.1910 75.6  37 
 PAM  SZ I         322 33.67         2.0 0.08            157           75.6  37 
 RUS  HZ EP        322 15.56                             145   -0.1310 99.9 178 
 RUS  HE ES        322 34.82                             145    0.2010 99.9 178 
 RUS  HZ I         322 36.91         0.9 0.40            147           99.9 178 
 PTB  HZ EP   1    322 18.92                             133   -0.24 7  151 259 
 PTB  HE ES   1    322 40.20                             133   -0.59 7  151 259 
 PTB  HZ I         322 45.44         2.3 0.16            133            151 259 
 SPBC HZ EP        322 20.46                             130   -0.07 9  165 220 
 SPBC HE ES        322 43.40                             130    0.16 9  165 220 
 SPBC HZ I         322 48.28         3.8 0.14            131            165 220 
 NOR  HZ EP   1    322 27.51                             119   -0.25 6  237 235 
 NOR  HN ES        322 56.27                             119    0.17 8  237 235 
 NOR  HZ I         322 59.65         1.7 0.24            121            237 235 
 CHI  HZ EP   1    322 29.68                             118    0.19 6  249 196 
 CHI  HN ES   1    322 59.10                             118   -0.08 6  249 196 
 CHI  HZ I         323  0.99         0.7 0.42            120            249 196 
                                                                                
