 2017  5 5 0933 26.0 L   6.822 -73.125144.8  RSN 14 0.5 1.9LRSN                1
 GAP=113        1.11       3.7     4.4  7.3  0.2307E+01  0.7483E+01  0.5860E+01E
 Epicentro: LOS SANTOS - SANTANDER                                             3
 ACTION:UPD 17-06-16 13:33 OP:jn   STATUS:               ID:20170505093326 L   I
 OLDACT:UP  17-05-05 18:26 OP:edw  STATUS:               ID:20170505092741     3
 OLDACT:UP  17-05-05 18:25 OP:edw  STATUS:               ID:20170505092741     3
 OLDACT:UP  17-05-05 18:25 OP:edw  STATUS:               ID:20170505092741     3
 OLDACT:UP  17-05-05 18:24 OP:edw  STATUS:               ID:20170505092741     3
 OLDACT:REG 17-05-05 13:18 OP:edw  STATUS:               ID:20170505092741     3
 2017-05-05-0928-00M.COL___349                                                 6
 STAT SP IPHASW D HRMM SECON CODA AMPLIT PERI AZIMU VELO AIN AR TRES W  DIS CAZ7
 BRR  HZ IP     C  933 47.03                             152   -0.0410 72.1 296 
 BRR  HN ES        934  4.31                             152    0.7910 72.1 296 
 BRR  HZ I         934  8.09        16.8 0.30            149           72.1 296 
 PAM  EZ EP     C  933 47.96                             151    0.0710 74.1  39 
 PAM  EN ES        934  4.98                             151   -0.0110 74.1  39 
 PAM  EZ I         934  6.74         9.9 0.18            158           74.1  39 
 RUS  HZ EP        933 49.53                             143   -0.2710  103 177 
 RUS  HN ES        934  7.88                             143   -0.4910  103 177 
 RUS  HZ I         934  9.47        13.0 0.26            142            103 177 
 PTB  HZ EP   9 D  933 52.01                             131   -1.10 0  150 258 
 PTB  HN ES        934 13.03                             131   -0.14 9  150 258 
 PTB  HZ I         934 18.33        10.6 0.44            129            150 258 
 SPBC HN ES   1    934 16.44                             128   -0.68 7  166 219 
 YPLC HN ES        934 19.68                             126    0.61 9  178 152 
 ZAR  HN EP        933 58.24                             122   -0.24 8  205 291 
 ZAR  HZ EP        933 58.58                             120            205 291 
 ZAR  HE ES        934 23.20                             122   -0.63 8  205 291 
 ZAR  HZ I         934 29.13        17.6 0.28            121            205 291 
 CHI  HZ EP        934  3.97                             117    0.03 8  252 196 
 CHI  HN ES        934 33.26                             117   -0.28 8  252 196 
 CHI  HZ I         934 38.52         3.4 0.30            117            252 196 
 ROSC BZ EP   4    934  5.83                             116    1.44 0  256 211 
 ROSC BN ES   4    934 36.55                             116    2.19 0  256 211 
 ROSC BZ I         934 46.85         8.7 0.35            116            256 211 
 HEL  HZ EP   4    934  9.04                             114    2.59 0  275 255 
 HEL  HE ES   4    934 39.89                             114    1.88 0  275 255 
 HEL  HZ I         934 43.88         4.0 0.24            114            275 255 
 PTGC HZ EP   9 D  934  8.74                             111   -1.21 0  310 159 
 PTGC HN ES        934 42.13                             111   -0.91 7  310 159 
 CBOC HZ EP   4    934 14.81                             109    1.63 0  336 252 
 CBOC HE ES        934 50.68                             109    0.68 7  336 252 
 CBOC HZ I         934 59.44         1.7 0.46            109            336 252 
 ORTC HN ES        935  3.36                             106    0.79 6  399 216 
 ORTC HZ I         935  9.48         2.4 0.56            106            399 216 
 SJC  HZ EP   4    934 19.63                             105   -1.79 0  408 327 
 SJC  HN ES   4    935  0.11                             105   -4.55 0  408 327 
 SJC  HZ I         935  4.31         3.3 0.66            106            408 327 
                                                                                
