 2010  9 5 0749  6.0 L   6.810 -72.981146.7  RSN  9 0.4 2.1LRSN                1
 GAP=200        0.73       3.4     7.2  6.9 -0.2601E+01  0.6754E+01  0.5691E+01E
 Epicentro: CEPITA - SANTANDER                                                 3
 ACTION:UP  11-02-18 11:00 OP:tino STATUS:               ID:20100905074906 L   I
 2010-09-05-0747-03S.COL___120                                                 6
 STAT SP IPHASW D HRMM SECON CODA AMPLIT PERI AZIMU VELO SNR AR TRES W  DIS CAZ7
 BAR2 SZ EP        749 26.15                             167     0.210   33 223 
 BAR2 SZ I         749 42.89        29.5 0.26                            33 223 
 BRR  HZ EP        749 28.05                             148    -0.210   87 292 
 BRR  HN ES   1    749 45.21                             148    -0.3 7   87 292 
 BRR  HZ I         749 50.21        23.7 0.04                            87 292 
 RUS  HZ EP   1    749 30.03                             143     0.1 7  102 186 
 RUS  HN ES   1    749 48.44                             143    -0.2 7  102 186 
 RUS  HZ I         749 49.99        10.9 0.41                           102 186 
 OCA  SZ EP   1    749 34.61                             129     0.0 7  162 347 
 OCA  SZ ES   1    749 57.20                             129     0.3 7  162 347 
 OCA  SZ I         750  2.65        19.2 0.18                           162 347 
 CHI  HZ EP   1    749 44.26                             116    -0.2 6  255 199 
 CHI  HZ I         750 22.22         6.1 0.45                           255 199 
 ROSC BZ EP   1    749 45.32                             116     0.0 6  264 214 
 ROSC BN ES   1    750 16.92                             116     0.9 6  264 214 
 ROSC BZ I         750 24.04        10.2 0.26                           264 214 
 HEL  HZ EP   1    749 48.03                             113    -0.2 5  290 256 
 HEL  HZ I         750 25.05         4.5 0.26                           290 256 
 RREF HZ EP   1    749 54.16                             110     0.3 5  337 231 
 RREF HN ES   1    750 31.32                             110     0.1 5  337 231 
 RREF HZ I         750 37.82         8.0 0.25                           337 231 
 PRA  HZ EP   1    750  0.20                             106    -0.5 4  402 212 
 PRA  HE ES   2    750 42.44                             106    -1.0 3  402 212 
 PRA  HZ I         750 47.48         9.0 0.29                           402 212 
                                                                                
