 2011 10 5 0537 45.0 L   6.791 -73.098145.8  RSN  5 0.2 1.3LRSN                1
 GAP=143        0.42       3.0     4.3  5.2  0.2728E+00  0.6319E+00  0.1431E+01E
 Epicentro: LOS SANTOS - SANTANDER                                             3
 ACTION:UPD 12-07-13 16:02 OP:ep   STATUS:               ID:20111005053745 L   I
 2011-10-05-0520-00M.COL___172                                                 6
 STAT SP IPHASW D HRMM SECON CODA AMPLIT PERI AZIMU VELO AIN AR TRES W  DIS CAZ7
 BAR2 SZ EP   1    538  4.62                             170   -0.06 7 23.8 203 
 BAR2 SZ I         538  4.80         5.6 0.16                          23.8 203 
 GIR2 SZ EP   1    538  4.66                             166   -0.11 7 33.5 342 
 PAM  SZ EP   1    538  7.50                             152    0.39 7 75.0  36 
 PAM  SZ I         538  7.68         3.1 0.17                          75.0  36 
 PAM  SN ES   1    538 24.15                             152   -0.18 7 75.0  36 
 BRR  HZ EP        538  6.41                             151   -0.0710 76.3 297 
 BRR  HZ I         538  6.89         7.1 0.12                          76.3 297 
 BRR  HN ES   1    538 23.32                             151    0.11 7 76.3 297 
 RUS  HZ EP   1    538  8.58                             144   -0.12 7 99.3 179 
 RUS  HZ I         538  9.37         1.7 0.21                          99.3 179 
 RUS  HN ES   1    538 27.25                             144    0.09 7 99.3 179 
                                                                                
