 2017  7 5 0353 47.7 L   6.803 -73.142149.3  RSN 18 0.5 2.2LRSN                1
 GAP= 66        1.23       3.5     3.3  6.6 -0.1161E+01  0.2833E+01  0.1151E+01E
 Epicentro: LOS SANTOS - SANTANDER                                             3
 ACTION:UPD 17-08-30 15:29 OP:rebc STATUS:               ID:20170705035347 L   I
 OLDACT:UP  17-07-05 16:30 OP:edw  STATUS:               ID:20170705034740     3
 OLDACT:REG 17-07-05 12:44 OP:edw  STATUS:               ID:20170705034740     3
 2017-07-05-0348-00M.COL___377                                                 6
 STAT SP IPHASW D HRMM SECON CODA AMPLIT PERI AZIMU VELO AIN AR TRES W  DIS CAZ7
 BAR2 EZ IP     D  354  7.59                             171   -0.2010 23.7 191 
 BAR2 EZ ES        354 22.51                             171   -0.9210 23.7 191 
 BAR2 EZ I         354 24.35        32.4 0.20            166           23.7 191 
 BRR  HZ IP     D  354  9.52                             153    0.2610 71.4 298 
 BRR  HN ES        354 26.99                             153    0.9310 71.4 298 
 BRR  HZ I         354 30.77        26.4 0.24            151           71.4 298 
 PAM  EZ IP     D  354 10.49                             151    0.2010 76.9  39 
 PAM  EN ES        354 27.90                             151    0.0210 76.9  39 
 PAM  EZ I         354 29.58        27.1 0.58            152           76.9  39 
 PTB  HZ EP        354 14.50                             133   -0.52 9  148 259 
 PTB  HN ES        354 35.69                             133   -0.62 9  148 259 
 PTB  HZ I         354 37.61         9.4 0.26            128            148 259 
 TAM  HZ IP     D  354 15.75                             131    0.09 9  155 105 
 TAM  HN ES        354 38.06                             131    0.62 9  155 105 
 SPBC HZ EP        354 16.55                             130    0.01 9  164 219 
 SPBC HN ES        354 38.65                             130   -0.37 9  164 219 
 SPBC HZ I         354 41.46        32.6 0.36            125            164 219 
 YPLC HZ IP     D  354 17.73                             127   -0.06 9  177 151 
 YPLC HN ES        354 41.11                             127   -0.12 9  177 151 
 YPLC HZ I         354 42.65        11.0 0.22            123            177 151 
 ZAR  HZ EP        354 20.59                             123    0.17 9  204 292 
 ZAR  HN ES        354 46.17                             123    0.24 9  204 292 
 ZAR  HZ I         354 54.44         9.7 0.18            120            204 292 
 TABC EZ EP   4    354 25.17                             120    1.43 0  230 211 
 TABC EZ ES        354 51.56                             120   -0.26 8  230 211 
 TABC EZ I         355  3.39        15.9 0.66            116            230 211 
 NOR  HZ EP   1    354 22.60                             119   -1.11 6  235 234 
 NOR  HN ES        354 51.79                             119    0.01 8  235 234 
 NOR  HZ I         354 57.05         9.1 0.24            115            235 234 
 ROSC BZ EP   4    354 28.06                             117    1.97 0  253 211 
 ROSC BN ES        354 57.18                             117    1.17 8  253 211 
 ROSC BZ I         355  4.42        11.8 0.35            113            253 211 
 HEL  HZ EP   4    354 29.27                             115    1.10 0  273 256 
 HEL  HN ES   4    354 58.35                             115   -1.36 0  273 256 
 HEL  HZ I         355  5.75         8.0 0.30            112            273 256 
 GUY2CHZ EP   4    354 32.77                             113    1.22 0  302 235 
 GUY2CHN ES   4    355  9.93                             113    4.19 0  302 235 
 GUY2CHZ I         355 15.46         8.2 0.50                           302 235 
 PTGC HZ EP   4    354 30.46                             112   -1.30 0  309 159 
 PTGC HZ I         355  2.04         9.4 0.44            109            309 159 
 PTGC HN ES   4    355  2.14                             112   -3.97 0  309 159 
 LL6C HZ EP        354 32.95                             111   -0.59 7  325 358 
 LL6C HN ES        355  9.17                             111   -0.11 7  325 358 
 CBOC HZ EP   4    354 36.00                             110    1.16 0  334 252 
 CBOC HN ES        355 12.53                             110    0.94 7  334 252 
 CBOC HZ I         355 14.34         2.9 0.38            107            334 252 
 PAL  HZ EP   2    354 43.21                             106    0.15 3  406 239 
 PAL  HN ES   4    355 24.33                             106   -1.89 0  406 239 
 SJC  HZ EP   4 C  354 41.74                             106   -1.66 0  409 327 
 SJC  HN ES   4    355 23.50                             106   -3.32 0  409 327 
 SJC  HZ I         355 27.46         2.7 0.48            104            409 327 
 CRJC HZ EP   4 C  354 47.78                             104   -2.50 0  467   4 
 CRJC HN ES   4    355 35.43                             104   -3.65 0  467   4 
                                                                                
