 2016  5 5 0045 48.5 L   6.795 -73.162148.7  RSN 15 0.4 1.9LRSN                1
 GAP=135        0.85       2.9     3.0  4.5 -0.2844E+00  0.4591E+01  0.3292E+01E
 Epicentro: LOS SANTOS - SANTANDER                                             3
 ACTION:UPD 16-08-18 17:42 OP:cam  STATUS:               ID:20160505004548 L   I
 OLDACT:DUP 16-05-05 15:00 OP:ak   STATUS:               ID:20160505003748d    3
 2016-05-05-0037-47M.COL___307                                                 6
 STAT SP IPHASW D HRMM SECON CODA AMPLIT PERI AZIMU VELO AIN AR TRES W  DIS CAZ7
 BAR2 EZ IP     D  046  8.39                             171   -0.0910 22.5 186 
 BAR2 EZ ES        046 23.80                             171   -0.2510 22.5 186 
 BAR2 EZ I         046 26.05        16.3 0.28            169           22.5 186 
 BRR  HZ EP        046 10.40                             153    0.4910 69.9 300 
 BRR  HN ES        046 27.38                             153    0.7810 69.9 300 
 BRR  HZ I         046 35.14        12.5 0.20            151           69.9 300 
 PAM  EZ EP        046 11.19                             151    0.0610 78.9  40 
 PAM  EN ES        046 28.50                             151   -0.2710 78.9  40 
 PAM  EZ I         046 30.52        19.2 0.50            157           78.9  40 
 RUS  HZ EP        046 12.32                             144   -0.2110  100 175 
 RUS  HN ES        046 31.12                             144   -0.1310  100 175 
 RUS  HZ I         046 32.42         4.7 0.34            147            100 175 
 PTB  HZ EP        046 15.29                             133   -0.27 9  146 259 
 PTB  HN ES        046 36.46                             133   -0.19 9  146 259 
 PTB  HZ I         046 42.34        10.4 0.20            132            146 259 
 SPBC HZ EP        046 17.32                             130    0.22 9  162 219 
 SPBC HN ES        046 39.05                             130   -0.34 9  162 219 
 SPBC HZ I         046 45.29        16.3 0.07            131            162 219 
 ZAR  HZ EP   2    046 21.05                             123    0.04 4  203 292 
 ZAR  HN ES        046 46.27                             123   -0.08 9  203 292 
 ZAR  HZ I         046 52.81         9.0 0.09            124            203 292 
 NOR  HZ EP        046 24.50                             119    0.27 8  233 234 
 NOR  HN ES        046 52.79                             119    0.70 8  233 234 
 NOR  HZ I         046 55.76         6.3 0.16            120            233 234 
 CHI  HZ EP        046 26.53                             118    0.26 8  248 195 
 CHI  HN ES        046 55.97                             118    0.25 8  248 195 
 CHI  HZ I         047  2.71         2.7 0.28            120            248 195 
 HEL  HZ EP        046 27.77                             115   -0.91 8  270 256 
 HEL  HN ES        046 59.23                             115   -0.77 8  270 256 
 HEL  HZ I         047  7.01         5.9 0.36            117            270 256 
 URE  HZ EP   2    046 30.16                             114    0.59 4  282 292 
 URE  HN ES   4    046 59.36                             114   -2.23 0  282 292 
 URE  HZ I         047 12.46         4.2 0.24            115            282 292 
 CBOC HZ EP   2    046 35.87                             110    0.53 3  332 252 
 CBOC HE ES   2    047 11.93                             110    0.06 3  332 252 
 DBB  SZ EP   2    046 35.23                             110   -0.69 3  338 274 
 DBB  SZ ES        047 12.72                             110   -0.17 7  338 274 
 PRA  HZ EP        046 42.23                             107    0.25 6  391 209 
 PRA  HN ES        047 23.97                             107    0.29 6  391 209 
 PRA  HZ I         047 30.18         3.9 0.64            109            391 209 
 ORTC HZ EP   2    046 42.22                             107   -0.14 3  394 216 
 ORTC HN ES        047 24.38                             107    0.02 6  394 216 
 ORTC HZ I         047 33.03         3.6 0.24            109            394 216 
                                                                                
