 2011  1 5 0302 48.4 L   7.299 -73.029161.5  RSN 11 0.3 2.2LRSN                1
 GAP=142        0.61       2.8     6.3  5.4 -0.4552E+01  0.7927E+01  0.4674E+01E
 Epicentro: MATANZA - SANTANDER                                                3
 ACTION:UP  11-02-08 08:38 OP:pat  STATUS:               ID:20110105030248 L   I
 2011-01-05-0300-12S.COL___135                                                 6
 STAT SP IPHASW D HRMM SECON CODA AMPLIT PERI AZIMU VELO SNR AR TRES W  DIS CAZ7
 GIR2 SZ EP   1    3 3 10.09                             169     0.2 7   30 217 
 GRA  SZ IP        3 3 11.33                             156     0.010   69  21 
 GRA  SZ ES   1    3 3 29.10                             156    -0.2 7   69  21 
 GRA  SZ I         3 3 32.41        34.1 0.26                            69  21 
 BAR2 SZ EP   1    3 3 12.16                             152     0.1 7   80 192 
 BAR2 SZ ES   1    3 3 30.65                             152     0.1 7   80 192 
 BAR2 SZ I         3 3 33.24        36.0 0.31                            80 192 
 OCA  SZ EP   1    3 3 13.45                             144    -0.3 7  109 343 
 OCA  SZ ES   1    3 3 33.99                             144     0.4 7  109 343 
 OCA  SZ I         3 3 36.63        27.2 0.24                           109 343 
 RUS  HZ EP   1    3 3 17.80                             134    -0.2 7  156 182 
 RUS  HE ES   1    3 3 40.80                             134    -0.3 7  156 182 
 RUS  HZ I         3 3 43.97        16.2 0.44                           156 182 
 YOP  SZ EP   2    3 3 24.09                             123    -0.1 4  225 163 
 YOP  SZ I         3 3 37.88         6.5 0.25                           225 163 
 NOR  SZ EP   2    3 3 30.07                             117     0.2 4  280 227 
 NOR  SN ES   2    3 4  1.57                             117    -0.7 4  280 227 
 HEL  HZ EP   2    3 3 32.46                             115    -0.3 4  302 246 
 HEL  HE ES   2    3 4  7.10                             115    -0.2 4  302 246 
 HEL  HZ I         3 4 16.60         8.0 0.40                           302 246 
 CHI  HZ EP        3 3 33.00                             115    -0.1 7  305 195 
 CHI  HZ I         3 3 34.86         4.9 0.22                           305 195 
 CHI  HE ES   1    3 4  8.88                             115     0.9 5  305 195 
 RREF HZ EP   2    3 3 41.23                             110     0.7 3  369 224 
 RREF HZ I         3 4 32.73         6.2 0.26                           369 224 
 PRA  HZ EP   1    3 3 49.19                             106     0.4 4  447 208 
 PRA  HN ES   2    3 4 35.77                             106    -0.2 3  447 208 
                                                                                
