 2015  3 5 0826 34.2 L   6.532 -73.784 91.1  RSN  4 0.4 1.2LRSN                1
 GAP=114        0.99       4.4     4.8 10.6 -0.4694E+01  0.9203E+01  0.1286E+02E
 Epicentro: SANTA HELENA DEL OPON - SANTANDER                                  3
 ACTION:UPD 15-04-30 16:23 OP:nd   STATUS:               ID:20150305082634 L   I
 OLDACT:REG 15-03-05 13:52 OP:spq  STATUS:               ID:20150305081742     3
 2015-03-05-0817-42M.COL___281                                                 6
 STAT SP IPHASW D HRMM SECON CODA AMPLIT PERI AZIMU VELO AIN AR TRES W  DIS CAZ7
 BRR  HZ EP        826 49.78                             142    0.5410 64.1   7 
 BRR  HN ES        827  0.42                             142   -0.5510 64.1   7 
 BAR2 EZ ES        827  2.14                             141    0.1910 66.9  84 
 BAR2 EZ I         827  3.39         6.2 0.50            144           66.9  84 
 PTB  HZ EP        826 50.14                             138    0.0610 74.3 271 
 PTB  HN ES        827  2.65                             138    0.1910 74.3 271 
 PTB  HZ I         827  3.70         5.0 0.26            140           74.3 271 
 SPBC HZ EP        826 52.19                             128   -0.5410  102 198 
 SPBC HN ES        827  7.30                             128    0.1210  102 198 
 SPBC HZ I         827 10.55         2.4 0.16            129            102 198 
                                                                                
