 2013  8 5 0639 55.7 L   6.806 -73.149147.6  RSN 12 0.5 2.2LRSN                1
 GAP= 71        1.17       3.5     4.1  5.8 -0.2005E+01  0.3609E+01  0.1455E+01E
 Epicentro: LOS SANTOS - SANTANDER                                             3
 ACTION:UPD 14-01-14 08:59 OP:ep   STATUS:               ID:20130805063955 L   I
 OLDACT:REG 13-08-05 08:13 OP:jn   STATUS:               ID:20130805063842     3
 2013-08-05-0638-42M.COL___226                                                 6
 STAT SP IPHASW D HRMM SECON CODA AMPLIT PERI AZIMU VELO AIN AR TRES W  DIS CAZ7
 BAR2 SZ EP        640 15.57                             170    0.0310 23.9 189 
 BAR2 SZ ES        640 30.78                             170   -0.2510 23.9 189 
 BAR2 SZ I         640 33.66        29.9 0.22            169           23.9 189 
 GIR2 SZ EP        640 15.61                             168    0.0610 30.6 351 
 GIR2 SZ ES        640 30.87                             168   -0.1810 30.6 351 
 BRR  HZ EP        640 17.39                             153    0.4010 70.6 298 
 BRR  HN ES        640 34.83                             153    1.2110 70.6 298 
 BRR  HZ I         640 41.05        15.8 0.14            152           70.6 298 
 PAM  SZ EP        640 18.43                             151    0.3610 77.1  40 
 PAM  SN ES        640 35.81                             151    0.2710 77.1  40 
 PAM  SZ I         640 37.80        17.2 0.48            156           77.1  40 
 RUS  HZ EP        640 19.43                             144   -0.2210  101 176 
 RUS  HN ES        640 37.65                             144   -0.7110  101 176 
 RUS  HZ I         640 39.86        12.1 0.40            147            101 176 
 PTB  HZ EP        640 22.44                             132   -0.34 9  148 259 
 PTB  HN ES        640 43.21                             132   -0.70 9  148 259 
 PTB  HZ I         640 50.88        22.1 0.52            133            148 259 
 TAM  HZ EP        640 23.69                             131    0.15 9  156 105 
 TAM  HN ES   1    640 45.41                             131    0.13 7  156 105 
 OCA  HN ES        640 45.78                             130   -0.43 9  160 353 
 SPBC HZ EP        640 24.47                             129    0.13 9  163 219 
 SPBC HN ES        640 46.71                             129    0.01 9  163 219 
 SPBC HZ I         640 52.33        21.8 0.16            131            163 219 
 NOR  HZ EP        640 31.55                             119    0.03 8  235 234 
 NOR  HE ES        641  0.13                             119    0.65 8  235 234 
 NOR  HZ I         641  3.37        14.2 0.34            121            235 234 
 SML  HZ EP        640 31.85                             118   -0.48 8  243 335 
 SML  HE ES        641  0.33                             118   -0.58 8  243 335 
 SML  HZ I         641  2.38        23.8 0.10            120            243 335 
 RREF HZ EP   1    640 42.73                             111    0.81 5  322 229 
 RREF HN ES   4    641 20.10                             111    2.12 0  322 229 
                                                                                
