 2013  1 5 0352  7.3 L   6.767 -73.156147.0  RSN  5 0.5 1.6LRSN                1
 GAP=234        1.21       6.9     8.6  8.7  0.2307E+02  0.1156E+02  0.1655E+02E
 Epicentro: LOS SANTOS - SANTANDER                                             3
 ACTION:UPD 13-02-15 09:12 OP:ep   STATUS:               ID:20130105035207 L   I
 2013-01-05-0349-48M.COL___196                                                 6
 STAT SP IPHASW D HRMM SECON CODA AMPLIT PERI AZIMU VELO AIN AR TRES W  DIS CAZ7
 BAR2 SZ EP        352 26.70                             172   -0.2910 19.6 189 
 BAR2 SZ I         352 26.98        12.5 0.22            167           19.6 189 
 BAR2 SZ ES        352 42.69                             172    0.3310 19.6 189 
 BRR  HZ EP        352 28.90                             152    0.2910 72.0 301 
 BRR  HN ES        352 45.77                             152    0.5310 72.0 301 
 BRR  HN I         352 46.25        12.7 0.28            151           72.0 301 
 RUS  HZ EP        352 30.81                             145   -0.0910 97.1 175 
 RUS  HZ I         352 31.71         2.5 0.48            142           97.1 175 
 RUS  HN ES        352 48.59                             145   -0.7310 97.1 175 
 PTB  HZ EP        352 33.76                             133   -0.43 9  146 260 
 PTB  HN ES        352 54.65                             133   -0.52 9  146 260 
 PTB  HN I         352 57.70         6.2 0.26            130            146 260 
 CHI  HZ EP        352 45.01                             118    0.38 8  245 195 
 CHI  HN ES        353 14.64                             118    0.87 8  245 195 
 CHI  HN I         353 20.08         3.0 0.40            117            245 195 
                                                                                
