 2017  9 5 0104 38.1 L   6.854 -73.483124.4  RSN  4 0.2 1.9LRSN                1
 GAP=285        0.45       3.9     4.2  4.1  0.3940E+00 -0.8093E+00  0.1844E+01E
 Epicentro: SAN VICENTE DE CHUCURI - SANTANDER                                 3
 ACTION:UPD 17-10-05 19:09 OP:rebc STATUS:               ID:20170905010438 L   I
 OLDACT:UP  17-09-05 15:31 OP:leo  STATUS:               ID:20170905005741     3
 OLDACT:REG 17-09-05 12:59 OP:dnl  STATUS:               ID:20170905005741     3
 2017-09-05-0058-00M.COL___429                                                 6
 STAT SP IPHASW D HRMM SECON CODA AMPLIT PERI AZIMU VELO AIN AR TRES W  DIS CAZ7
 BAR2 EZ EP     C  1 4 55.96                             159    0.1010 44.1 131 
 BAR2 EZ ES        1 5  9.74                             159    0.0310 44.1 131 
 BAR2 EZ I         1 5 10.20        52.3 0.22            154           44.1 131 
 RUS  HZ EP        1 5  1.02                             135   -0.0110  115 157 
 RUS  HN ES        1 5 18.68                             135   -0.2410  115 157 
 RUS  HZ I         1 5 24.02         4.0 0.40            130            115 157 
 SPBC HN ES   1    1 5 23.50                             127    0.11 7  148 206 
 SPBC HZ I         1 5 32.73         5.3 0.20            120            148 206 
 YPLC HZ EP        1 5  8.95                             118   -0.18 9  202 143 
 YPLC HE ES        1 5 33.58                             118    0.25 9  202 143 
 YPLC HZ I         1 5 35.18        15.1 0.38            117            202 143 
                                                                                
