 2013  2 5 0830 31.8 L   6.806 -73.152136.5  RSN  9 0.5 1.7LRSN                1
 GAP= 71        1.21       4.4     4.2  8.0  0.1282E+01  0.3225E+01  0.5907E+01E
 Epicentro: LOS SANTOS - SANTANDER                                             3
 ACTION:UPD 13-03-12 09:30 OP:ep   STATUS:               ID:20130205083031 L   I
 2013-02-05-0830-00M.COL___241                                                 6
 STAT SP IPHASW D HRMM SECON CODA AMPLIT PERI AZIMU VELO AIN AR TRES W  DIS CAZ7
 BAR2 SZ EP        830 50.36                             170    0.0210 23.9 188 
 BAR2 SZ ES        831  4.22                             170   -0.5710 23.9 188 
 BAR2 SZ I         831  5.80        20.8 0.34            170           23.9 188 
 BRR  HZ IP     C  830 52.15                             151    0.2410 70.3 298 
 BRR  HN ES   1    831  8.51                             151    0.92 7 70.3 298 
 BRR  HZ I         831 12.91        12.2 0.10            149           70.3 298 
 PAM  SZ IP     D  830 53.25                             149    0.2110 77.3  40 
 PAM  SZ I         830 53.41         9.2 0.18            151           77.3  40 
 PAM  SN ES        831 10.00                             149    0.4010 77.3  40 
 RUS  HZ EP        830 54.50                             142   -0.2110  101 176 
 RUS  HE ES   1    831 12.65                             142    0.07 7  101 176 
 PTB  HZ EP        830 57.29                             130   -0.69 9  147 259 
 PTB  HN ES        831 17.79                             130   -0.61 9  147 259 
 PTB  HZ I         831 20.67         6.0 0.24            130            147 259 
 TAM  HZ IP     D  830 58.72                             128   -0.13 9  156 105 
 TAM  HZ I         830 58.79         5.1 0.20            131            156 105 
 TAM  HN ES   1    831 20.17                             128    0.23 7  156 105 
 OCA  HN ES        831 20.04                             127   -0.78 9  160 353 
 OCA  HZ I         831 21.11         5.8 0.34            128            160 353 
 ZAR  HZ EP   2    831  3.58                             120    0.01 4  203 292 
 ZAR  HN ES        831 29.31                             120    0.96 9  203 292 
 ZAR  HZ I         831 34.47         6.6 0.42            121            203 292 
 CHI  HZ EP   1    831  9.49                             115    0.43 6  249 195 
 CHI  HN ES   1    831 38.95                             115    0.83 6  249 195 
                                                                                
