 2011  9 5 0114 38.8 L   6.766 -72.953141.8  RSN  5 0.3 1.3LRSN                1
 GAP=254        0.48       5.6     6.3  7.5  0.1671E+02  0.1234E+01 -0.2043E+01E
 Epicentro: CEPITA - SANTANDER                                                 3
 ACTION:UPD 12-07-13 15:55 OP:ep   STATUS:               ID:20110905011438 L   I
 2011-09-05-0100-00M.COL___172                                                 6
 STAT SP IPHASW D HRMM SECON CODA AMPLIT PERI AZIMU VELO AIN AR TRES W  DIS CAZ7
 BAR2 SZ EP   1    114 58.46                             167    0.26 7 31.8 233 
 BAR2 SZ ES   2    115 13.51                             167    0.20 5 31.8 233 
 BAR2 SZ I         115 15.48         4.3 0.47                          31.8 233 
 BRR  HZ EP   1    115  0.50                             145   -0.39 7 91.9 294 
 BRR  HN ES   2    115 18.07                             145   -0.02 5 91.9 294 
 BRR  HZ I         115 31.18         6.1 0.41                          91.9 294 
 RUS  HZ EP   1    115  2.17                             144    0.18 7 97.7 188 
 RUS  HZ I         115  3.86         1.4 0.43                          97.7 188 
 RUS  HN ES   2    115 19.63                             144   -0.42 5 97.7 188 
 ZAR  HE ES   2    115 40.26                             119    0.15 4  225 291 
 ZAR  HZ I         115 44.20         3.6 0.13                           225 291 
 NOR  SN ES   2    115 45.10                             116    0.04 4  250 238 
                                                                                
