 2016  7 5 0322 15.1 L   7.195 -73.346 25.3  RSN  7 0.5 1.7LRSN                1
 GAP=156        1.15       3.7     3.2  6.7  0.3854E+00  0.8994E+01  0.5605E+01E
 Epicentro: LEBRIJA - SANTANDER                                                3
 ACTION:UPD 17-03-29 16:47 OP:lp   STATUS:               ID:20160705032215 L   I
 OLDACT:UP  16-07-05 14:41 OP:dani STATUS:               ID:20160705031748d    3
 OLDACT:UP  16-07-05 14:40 OP:dani STATUS:               ID:20160705031748d    3
 OLDACT:UP  16-07-05 14:39 OP:dani STATUS:               ID:20160705031748d    3
 OLDACT:DUP 16-07-05 14:36 OP:dani STATUS:               ID:20160705031748d    3
 OLDACT:UP  16-07-05 14:36 OP:dani STATUS:               ID:20160705031747     3
 OLDACT:UP  16-07-05 14:35 OP:dani STATUS:               ID:20160705031747     3
 OLDACT:UP  16-07-05 14:35 OP:dani STATUS:               ID:20160705031747     3
 OLDACT:REG 16-07-05 12:40 OP:dani STATUS:               ID:20160705031747     3
 2016-07-05-0317-47M.COL___322                                                 6
 STAT SP IPHASW D HRMM SECON CODA AMPLIT PERI AZIMU VELO AIN AR TRES W  DIS CAZ7
 BRR  HZ EP        322 23.43                             113    0.5810 41.5 256 
 BAR2 EZ EP        322 26.88                              95   -0.0610 69.1 165 
 BAR2 EZ ES        322 35.61                              95   -0.5510 69.1 165 
 BAR2 EZ I         322 37.20        32.5 0.14             47           69.1 165 
 PAM  EZ EP        322 28.01                              93    0.2110 73.2  77 
 PAM  EE ES        322 37.51                              93   -0.1810 73.2  77 
 PAM  EZ I         322 38.99        37.8 0.22             47           73.2  77 
 PTB  HZ EP        322 35.49                              61   -0.89 9  142 239 
 PTB  HN ES   4    322 50.68                              61   -2.29 0  142 239 
 PTB  HZ I         322 57.53         5.3 0.24             47            142 239 
 RUS  HZ EP        322 38.06                              61    0.55 9  147 169 
 RUS  HE ES        322 55.29                              61    0.31 9  147 169 
 RUS  HZ I         322 56.37        18.8 0.52             47            147 169 
 ZAR  HN ES        322 58.88                              61   -0.22 9  170 281 
 SPBC HZ EP   4    322 44.41                              61    2.18 0  189 205 
 SPBC HN ES        323  3.66                              61    0.28 9  189 205 
 SPBC HZ I         323 14.19         9.1 0.12             37            189 205 
                                                                                
