 2017  2 5 0648 17.7 L   6.777 -73.157145.9  RSN 10 0.4 1.7LRSN                1
 GAP=234        0.76       4.4     4.2  5.7  0.7517E+01  0.1016E+02  0.8158E+01E
 Epicentro: LOS SANTOS - SANTANDER                                             3
 ACTION:UPD 17-05-24 15:32 OP:jn   STATUS:               ID:20170205064817 L   I
 OLDACT:UP  17-02-05 15:57 OP:dnl  STATUS:               ID:20170205063749d    3
 OLDACT:DUP 17-02-05 15:52 OP:dnl  STATUS:               ID:20170205063749d    3
 2017-02-05-0638-00M.COL___316                                                 6
 STAT SP IPHASW D HRMM SECON CODA AMPLIT PERI AZIMU VELO AIN AR TRES W  DIS CAZ7
 BAR2 EZ EP        648 37.02                             172   -0.2410 20.7 188 
 BAR2 EZ ES        648 52.03                             172   -0.5110 20.7 188 
 BAR2 EZ I         648 54.11        15.5 0.30            173           20.7 188 
 BRR  HZ EP   2    648 38.94                             152    0.10 5 71.3 301 
 BRR  HN ES        648 55.98                             152    0.6310 71.3 301 
 BRR  HZ I         648 56.93         8.9 0.14            148           71.3 301 
 RUS  HZ EP   2    648 41.58                             145    0.32 5 98.2 175 
 RUS  HN ES        648 59.76                             145    0.1010 98.2 175 
 RUS  HZ I         649  0.76        10.8 0.26            144           98.2 175 
 PTB  HZ EP   2    648 43.98                             132   -0.51 5  146 260 
 PTB  HE ES        649  5.64                             132    0.23 9  146 260 
 PTB  HZ I         649  8.41         6.4 0.18            129            146 260 
 ZAR  HZ EP   2    648 50.34                             122    0.24 4  204 293 
 ZAR  HE ES        649 15.04                             122   -0.35 9  204 293 
 ZAR  HZ I         649 23.85         5.5 0.26            119            204 293 
 NOR  HZ EP   2    648 53.08                             119   -0.06 4  232 235 
 NOR  HE ES        649 20.57                             119   -0.23 8  232 235 
 NOR  HZ I         649 23.56         4.8 0.20            116            232 235 
 CHI  HZ EP        648 55.31                             117    0.23 8  246 195 
 CHI  HN ES   2    649 24.84                             117    0.59 4  246 195 
 CHI  HE ES   4    649 26.38                             117    2.13 0  246 195 
 CHI  HZ I         649 28.02         3.5 0.50            116            246 195 
 PTGC HZ EP   4    649  0.51                             112   -0.81 0  307 158 
 PTGC HN ES   4    649 33.72                             112   -1.65 0  307 158 
 PTGC HZ I         649 37.12         5.3 0.36            110            307 158 
 CBOC HZ EP   2    649  5.23                             110    0.87 3  332 252 
 CBOC HE ES        649 40.48                             110   -0.30 7  332 252 
 CBOC HZ I         649 45.41         0.9 0.38            108            332 252 
 SJC  HZ EP   4    649 11.36                             106   -2.04 0  411 327 
 SJC  HN ES   4    649 52.18                             106   -4.69 0  411 327 
 SJC  HZ I         650  6.36         1.3 0.54            104            411 327 
                                                                                
