 2013 11 5 0514 14.2 L   6.713 -73.489111.1  RSN  5 0.4 1.6LRSN                1
 GAP=141        0.94       8.3    10.4  9.8  0.6622E+02  0.6074E+02  0.4558E+02E
 Epicentro: EL CARMEN DE CHUCURI - SANTANDER                                   3
 ACTION:UPD 14-01-09 16:25 OP:ep   STATUS:               ID:20131105051413 L   I
 OLDACT:UP  13-12-03 10:11 OP:ep   STATUS:               ID:20131105051413 L   3
 OLDACT:REG 13-11-05 08:32 OP:stll STATUS:               ID:20131105050848     3
 2013-11-05-0508-48M.COL___217                                                 6
 STAT SP IPHASW D HRMM SECON CODA AMPLIT PERI AZIMU VELO AIN AR TRES W  DIS CAZ7
 BAR2 SZ EP        514 30.07                             161   -0.0310 36.4 111 
 BAR2 SZ I         514 30.22        21.1 0.36            163           36.4 111 
 BAR2 SZ ES        514 42.07                             161   -0.4510 36.4 111 
 BRR  HZ EP        514 30.09                             154   -0.3110 50.1 331 
 BRR  HZ I         514 30.25        14.1 0.12            156           50.1 331 
 BRR  HN ES        514 43.56                             154    0.5210 50.1 331 
 RUS  HZ EP        514 35.26                             135    0.4910  101 154 
 RUS  HN ES        514 50.87                             135    0.0510  101 154 
 RUS  HZ I         514 55.65         1.4 0.30            135            101 154 
 PTB  HZ EP        514 34.50                             132   -0.2810  109 260 
 PTB  HN ES   4    514 50.37                             132   -0.47 0  109 260 
 PTB  HZ I         514 55.67         3.7 0.10            130            109 260 
 OCA  HN ES   4    514 58.52                             119   -3.52 0  170   6 
 OCA  HN I         514 59.34        25.3 0.44            125            170   6 
 ZAR  HN ES   4    515  3.60                             118    1.07 0  174 300 
                                                                                
