 2013  6 5 0828 40.3 L   6.693 -73.118148.5  RSN  4 0.4 1.9LRSN                1
 GAP=202        0.66       7.5     9.6 10.3  0.2045E+02  0.8916E+01 -0.4199E+02E
 Epicentro: JORDAN - SANTANDER                                                 3
 ACTION:UPD 14-01-08 09:52 OP:ep   STATUS:               ID:20130605082840 L   I
 OLDACT:REG 13-06-05 14:02 OP:mh   STATUS:               ID:20130605082750     3
 2013-06-05-0827-50M.COL___218                                                 6
 STAT SP IPHASW D HRMM SECON CODA AMPLIT PERI AZIMU VELO AIN AR TRES W  DIS CAZ7
 BRR  HZ EP   1    829  2.55                             150    0.26 8 80.0 305 
 BRR  HN ES   2    829 19.65                             150    0.23 5 80.0 305 
 BRR  HN I         829 21.21        10.6 0.22            143           80.0 305 
 RUS  HE ES   1    829 21.49                             148   -0.16 8 88.6 177 
 PTB  HZ EP        829  7.90                             132    0.2610  149 264 
 PTB  HN ES   2    829 28.25                             132   -0.68 5  149 264 
 PTB  HN I         829 34.09         6.8 0.28            130            149 264 
 SML  HZ EP   1    829 17.85                             117   -0.57 6  256 336 
 SML  HN ES   4    829 45.27                             117   -2.85 0  256 336 
 SML  HN I         829 54.81         8.6 0.28            116            256 336 
                                                                                
