 2011  4 5 0621 14.6 L   6.824 -73.117144.4  RSN 10 0.3 2.2LRSN                1
 GAP=204        0.60       3.2     5.4  5.1 -0.3827E+01  0.4053E+01  0.4709E+01E
 Epicentro: LOS SANTOS - SANTANDER                                             3
 ACTION:UP  11-06-22 15:28 OP:REBC STATUS:               ID:20110405062114 L   I
 2011-04-05-0618-02S.COL___122                                                 6
 STAT SP IPHASW D HRMM SECON CODA AMPLIT PERI AZIMU VELO SNR AR TRES W  DIS CAZ7
 BTL  SZ EP        621 34.25                             172     0.210   20 302 
 BAR2 SZ EP        621 34.12                             169    -0.110   27 196 
 BAR2 SZ I         621 34.67        27.8 0.18                            27 196 
 BAR2 SZ ES   1    621 48.92                             169    -0.5 7   27 196 
 BRR  HZ IP     C  621 35.87                             152     0.110   73 296 
 BRR  HZ I         621 36.13        47.7 0.14                            73 296 
 BRR  HN ES   1    621 52.59                             152     0.4 7   73 296 
 OCA  SZ EP   1    621 42.62                             130     0.0 7  158 352 
 OCA  SZ ES   1    622  4.18                             130    -0.3 7  158 352 
 OCA  SZ I         622  7.54        15.0 0.27                           158 352 
 NOR  SZ EP   1    621 50.43                             118    -0.3 6  239 234 
 NOR  SE ES   2    622 18.44                             118    -0.4 4  239 234 
 CHI  HZ EP        621 52.76                             116     0.1 8  252 196 
 CHI  HN ES   2    622 23.00                             116     0.7 4  252 196 
 CHI  HZ I         622 27.17         6.6 0.28                           252 196 
 HEL  HZ EP   2    621 55.27                             114     0.1 4  276 255 
 HEL  HN ES   2    622 26.77                             114    -0.1 4  276 255 
 HEL  HZ I         622 33.71         9.2 0.41                           276 255 
 RREF HZ EP   2    622  1.55                             110     0.4 3  326 229 
 RREF HE ES   2    622 37.64                             110     0.1 3  326 229 
 RREF HZ I         622 42.63         6.9 0.48                           326 229 
 DBB  SZ EP   2    622  1.79                             109    -0.6 3  342 274 
 PRA  HZ EP   2    622  7.89                             106    -0.7 3  396 210 
 PRA  HN ES   2    622 50.10                             106    -0.5 3  396 210 
                                                                                
