 2014  7 5 0210 18.6 L   6.828 -73.172140.4  RSN 14 0.4 2.2LRSN                1
 GAP= 69        0.98       3.4     3.7  5.9 -0.2196E+01  0.6711E+01 -0.4486E+01E
 Epicentro: ZAPATOCA - SANTANDER                                               3
 ACTION:UPD 15-03-16 20:41 OP:nd   STATUS:               ID:20140705021018 L   I
 OLDACT:UP  14-07-05 15:30 OP:cam  STATUS:               ID:20140705021000     3
 OLDACT:REG 14-07-05 14:13 OP:cam  STATUS:               ID:20140705021000     3
 2014-07-05-0210-00M.COL___279                                                 6
 STAT SP IPHASW D HRMM SECON CODA AMPLIT PERI AZIMU VELO AIN AR TRES W  DIS CAZ7
 BAR2 SZ IP     D  210 37.67                             169    0.0310 26.1 182 
 BAR2 SZ ES        210 52.29                             169   -0.2010 26.1 182 
 BAR2 SZ I         210 53.74        33.3 0.16            171           26.1 182 
 BRR  HZ IP     C  210 39.58                             153    0.6510 67.1 297 
 BRR  HN ES   4    210 56.31                             153    1.51 0 67.1 297 
 BRR  HZ I         211  0.35        30.8 0.30            150           67.1 297 
 PAM  SZ IP     C  210 40.68                             150    0.4610 77.0  43 
 PAM  SN ES        210 57.40                             150    0.3210 77.0  43 
 PAM  SZ I         211  1.83        23.3 0.44            153           77.0  43 
 RUS  HZ EP        210 41.69                             142   -0.3810  104 175 
 RUS  HN ES        211  0.05                             142   -0.3310  104 175 
 RUS  HZ I         211  0.97        11.7 0.22            148            104 175 
 PTB  HZ EP        210 44.37                             131   -0.55 9  146 257 
 PTB  HN ES        211  5.32                             131   -0.14 9  146 257 
 PTB  HZ I         211  9.01        17.6 0.10            132            146 257 
 TAM  HZ IP     D  210 46.04                             128   -0.16 9  159 106 
 SPBC HZ EP        210 46.66                             128   -0.09 9  164 217 
 SPBC HN ES        211  9.08                             128    0.37 9  164 217 
 SPBC HZ I         211 13.24        20.3 0.38            131            164 217 
 ZAR  HZ EP        210 51.05                             122    0.76 9  200 292 
 ZAR  HN ES   4    211 16.49                             122    1.48 0  200 292 
 ZAR  HZ I         211 22.56        18.6 0.44            123            200 292 
 SML  HZ EP        210 54.20                             117   -0.28 8  240 336 
 SML  HE ES        211 21.85                             117   -0.62 8  240 336 
 SML  HZ I         211 29.85        17.8 0.24            119            240 336 
 HEL  HZ EP   4    211  0.02                             114    1.71 0  270 255 
 HEL  HN ES        211 29.18                             114   -0.11 8  270 255 
 HEL  HZ I         211 36.53         9.1 0.28            116            270 255 
 GUY2CHZ EP   4    211  3.45                             111    1.55 0  301 234 
 GUY2CHZ I         211 42.93        10.7 0.24                           301 234 
 RREF HZ EP   4    211  5.92                             110    1.43 0  322 229 
 PRA  HZ EP   2    211 12.34                             105    0.25 3  393 209 
 ORTC HZ EP   1    211 13.22                             105    0.79 4  396 216 
 SJC  HZ EP   1    211 12.80                             105   -0.69 4  405 327 
 SJC  HN ES   4    211 54.24                             105   -2.06 0  405 327 
 SJC  HN I         211 56.11         3.2 0.20            107            405 327 
                                                                                
