 2016  6 5 0503 55.5 L   6.868 -73.180135.7  RSN  4 0.1 1.2LRSN                1
 GAP=279        0.44       3.8     2.8  3.8  0.1276E+01  0.2557E+01 -0.1771E+01E
 Epicentro: ZAPATOCA - SANTANDER                                               3
 ACTION:UPD 16-07-21 22:15 OP:rebc STATUS:               ID:20160605050355 L   I
 OLDACT:REG 16-06-05 13:04 OP:edw  STATUS:               ID:20160605045741     3
 2016-06-05-0457-41M.COL___325                                                 6
 STAT SP IPHASW D HRMM SECON CODA AMPLIT PERI AZIMU VELO AIN AR TRES W  DIS CAZ7
 BAR2 EZ EP        5 4 14.11                             167    0.0210 30.5 181 
 BAR2 EZ ES        5 4 28.52                             167   -0.0810 30.5 181 
 BAR2 EZ I         5 4 32.02         4.1 0.26                          30.5 181 
 RUS  HZ EP        5 4 18.75                             139   -0.1210  108 174 
 RUS  HE ES        5 4 37.27                             139    0.1610  108 174 
 RUS  HZ I         5 4 38.22         1.4 0.34                           108 174 
 PTB  HZ EP        5 4 21.75                             130    0.28 9  146 256 
 PTB  HN ES        5 4 41.65                             130   -0.08 9  146 256 
 SPBC HZ EP        5 4 23.40                             126   -0.20 9  167 216 
 SPBC HN ES        5 4 45.52                             126    0.00 9  167 216 
 SPBC HZ I         5 4 46.73         3.2 0.22                           167 216 
                                                                                
