 2015  6 5 0310  3.7 L   6.798 -73.064146.9  RSN  8 0.4 1.6LRSN                1
 GAP=208        0.92       3.5     5.1  5.8  0.3146E+01  0.7908E+01 -0.2336E+01E
 Epicentro: LOS SANTOS - SANTANDER                                             3
 ACTION:UPD 15-09-10 22:09 OP:cam  STATUS:               ID:20150605031003 L   I
 OLDACT:REG 15-06-05 12:44 OP:ak   STATUS:               ID:20150605030746     3
 2015-06-05-0307-46M.COL___306                                                 6
 STAT SP IPHASW D HRMM SECON CODA AMPLIT PERI AZIMU VELO AIN AR TRES W  DIS CAZ7
 BAR2 EZ EP        310 23.56                             170    0.0010 26.2 210 
 BAR2 EZ ES        310 39.43                             170    0.4110 26.2 210 
 BAR2 EZ I         310 42.92         3.9 0.15            166           26.2 210 
 BRR  HZ EP        310 25.55                             150    0.0710 79.3 296 
 BRR  HN ES        310 42.62                             150    0.1810 79.3 296 
 BRR  HZ I         310 45.90         8.1 0.28            148           79.3 296 
 RUS  HZ EP        310 27.74                             144    0.1810  100 181 
 RUS  HE ES        310 45.86                             144   -0.2910  100 181 
 RUS  HZ I         310 47.21         2.2 0.40            146            100 181 
 SPBC HZ EP        310 32.41                             128   -0.44 9  169 221 
 SPBC HE ES        310 55.06                             128   -0.51 9  169 221 
 SPBC HZ I         311  0.28         6.8 0.14            129            169 221 
 ZAR  HZ EP   1    310 36.94                             122   -0.18 6  213 291 
 ZAR  HN ES        311  2.42                             122   -0.75 8  213 291 
 ZAR  HZ I         311  8.18         8.2 0.36            123            213 291 
 SML  HZ EP        310 40.59                             117   -0.27 8  248 333 
 SML  HE ES        311  9.97                             117    0.14 8  248 333 
 HEL  HZ EP        310 45.88                             114    0.91 7  281 256 
 HEL  HN ES        311 17.65                             114    0.52 7  281 256 
 HEL  HZ I         311 22.83         3.4 0.42            116            281 256 
 GUY2CHZ EP   1    310 48.31                             112    0.10 5  308 236 
 GUY2CHN ES   1    311 23.18                             112    0.27 5  308 236 
 GUY2CHZ I         311 30.31         2.6 0.56                           308 236 
 MON  HZ EP   4    310 50.98                             108   -2.63 0  361 308 
 MON  HN ES   4    311 28.86                             108   -3.66 0  361 308 
                                                                                
