 2010  1 5 0157  2.5 L   6.872 -73.220120.2  RSN 10 0.3 2.2LRSN                1
 GAP=123        0.53       2.8     7.2  5.1 -0.6799E+01  0.1210E+02  0.1255E+01E
 Epicentro: LOS SANTOS - SANTANDER                                             3
 ACTION:UP  10-08-24 09:42 OP:vdl  STATUS:               ID:20100105015702 L   I
 2010-01-05-0155-13S.COL___097                                                 6
 STAT SP IPHASW D HRMM SECON CODA AMPLIT PERI AZIMU VELO SNR AR TRES W  DIS CAZ7
 GIR2 SZ IP        157 19.15                             169     0.310   23   7 
 GIR2 SZ ES   2    157 31.27                             169    -0.4 5   23   7 
 BAR2 SZ IP        157 19.57                             165     0.310   31 173 
 BAR2 SZ ES   2    157 32.28                             165    -0.1 5   31 173 
 RUS  BZ EP   1    157 24.50                             135     0.0 7  109 172 
 RUS  BN ES   3    157 41.28                             135    -0.5 2  109 172 
 OCA  SZ IP        157 27.93                             125    -0.1 9  152 356 
 OCA  SZ ES   2    157 47.71                             125    -0.3 5  152 356 
 CHI  HZ EP        157 39.51                             111     0.0 8  254 193 
 CHI  HN ES   2    158  7.73                             111    -0.7 4  254 193 
 CHI  HZ I         158 13.70         7.8 0.31                           254 193 
 GUY  HZ EP   2    157 44.83                             107     0.0 4  299 233 
 RREF BZ EP   2    157 47.78                             106     0.2 3  321 227 
 RREF BE ES   3    158 21.98                             106    -0.7 2  321 227 
 RREF BZ I         158 29.37         4.6 0.30                           321 227 
 TOL  SZ EP   2    157 49.15                             104    -0.7 3  344 223 
 SDV  BN ES   2    158 29.61                             103    -0.7 3  362  52 
 PRA  HZ EP   1    157 55.79                             102     0.2 4  395 208 
 PRA  HZ I         158 44.00         8.0 0.30                           395 208 
                                                                                
