 2011  5 5 0947  6.0 L   6.766 -73.121140.7  RSN 11 0.3 2.2LRSN                1
 GAP=141        0.58       3.0     4.1  4.3 -0.3638E+01  0.2731E+01  0.1645E+01E
 Epicentro: LOS SANTOS - SANTANDER                                             3
 ACTION:UP  11-06-29 08:51 OP:tino STATUS:               ID:20110505094706 L   I
 2011-05-05-0940-00M.COL___140                                                 6
 STAT SP IPHASW D HRMM SECON CODA AMPLIT PERI AZIMU VELO SNR AR TRES W  DIS CAZ7
 BAR2 SZ IP        947 24.85                             171    -0.110   20 199 
 BAR2 SZ ES   1    947 39.82                             171     0.1 7   20 199 
 BAR2 SZ I         947 40.83        41.4 0.23                            20 199 
 BTL  SZ IP        947 25.01                             170     0.010   23 316 
 BTL  SZ ES   2    947 39.44                             170    -0.4 5   23 316 
 BRR  HZ IP   1    947 26.75                             150    -0.1 7   75 300 
 BRR  HN ES   1    947 43.48                             150     0.3 7   75 300 
 BRR  HZ I         947 47.92        32.5 0.18                            75 300 
 PAM  SZ EP   1    947 27.73                             149     0.0 7   79  36 
 PAM  SN ES   2    947 44.66                             149    -0.1 5   79  36 
 RUS  HZ IP     D  947 28.87                             144    -0.110   97 178 
 RUS  HN ES   2    947 47.19                             144     0.3 5   97 178 
 RUS  HZ I         947 48.52        20.3 0.26                            97 178 
 BRI  SZ EP   1    947 30.40                             140     0.8 7  111  19 
 BRI  SZ I         947 49.95        21.5 0.42                           111  19 
 GRA  SZ ES   2    947 50.22                             135    -0.4 5  129  16 
 GRA  SZ I         947 52.34        22.3 0.26                           129  16 
 OCA  SZ EP   1    947 34.06                             128    -0.3 7  164 352 
 OCA  SZ ES   2    947 56.29                             128    -0.1 5  164 352 
 NOR  SZ EP   1    947 41.27                             117    -0.2 6  235 236 
 NOR  SN ES   2    948  8.94                             117    -0.2 4  235 236 
 HEL  HZ EP   1    947 46.39                             114     0.2 6  274 257 
 HEL  HN ES   2    948 17.22                             114    -0.3 4  274 257 
 HEL  HZ I         948 23.75         7.2 0.45                           274 257 
 PRA  HZ EP   1    947 59.19                             106     0.1 4  390 210 
 PRA  HE ES   2    948 41.10                             106     0.5 3  390 210 
                                                                                
