 2017  3 5 0335 46.8 L   6.605 -73.671 94.5  RSN  5 0.4 1.2LRSN                1
 GAP=145        0.96       4.5     3.9  9.7  0.5962E+01  0.1061E+02 -0.8370E+01E
 Epicentro: EL CARMEN - SANTANDER                                              3
 ACTION:UPD 17-05-25 18:36 OP:jn   STATUS:               ID:20170305033546 L   I
 OLDACT:UP  17-03-20 11:36 OP:and  STATUS:               ID:20170305033546 L   3
 OLDACT:DUP 17-03-05 13:13 OP:ar   STATUS:               ID:20170305032745d    3
 OLDACT:DUP 17-03-05 13:06 OP:ar   STATUS:               ID:20170305032744d    3
 OLDACT:REG 17-03-05 12:01 OP:ar   STATUS:               ID:20170305032742     3
 2017-03-05-0328-00M.COL___387                                                 6
 STAT SP IPHASW D HRMM SECON CODA AMPLIT PERI AZIMU VELO AIN AR TRES W  DIS CAZ7
 BAR2 EZ IP     D  336  1.65                             148   -0.1410 54.1  92 
 BAR2 EZ ES        336 13.56                             148    0.0610 54.1  92 
 BAR2 EZ I         336 14.74         7.2 0.16            149           54.1  92 
 PTB  HN ES   1    336 16.62                             134   -0.92 7 87.1 265 
 PTB  HZ I         336 18.45         4.3 0.12            136           87.1 265 
 RUS  HZ EP        336  5.81                             130   -0.2710  102 140 
 RUS  HN ES        336 21.28                             130    0.1310  102 140 
 RUS  HZ I         336 24.68         2.2 0.38            130            102 140 
 SPBC HE ES        336 22.70                             126    0.3810  114 203 
 ZAR  HZ EP        336 11.75                             116   -0.14 9  164 307 
 ZAR  HN ES        336 32.07                             116    0.58 9  164 307 
                                                                                
