 2011 11 5 0335  8.2 L   6.509 -73.385124.0  RSN  6 0.2 1.9LRSN                1
 GAP= 94        0.55       2.5     4.3  4.3  0.2426E+01  0.1441E+01 -0.1957E+01E
 Epicentro: SIMACOTA - SANTANDER                                               3
 ACTION:UPD 12-07-13 16:08 OP:ep   STATUS:               ID:20111105033508 L   I
 2011-11-05-0332-42S.COL___175                                                 6
 STAT SP IPHASW D HRMM SECON CODA AMPLIT PERI AZIMU VELO AIN AR TRES W  DIS CAZ7
 BAR2 SZ EP   1    335 24.75                             168   -0.50 7 24.2  68 
 BAR2 SZ ES        335 38.56                             168    0.0210 24.2  68 
 BAR2 SZ I         335 39.71        25.6 0.18                          24.2  68 
 BRR  HZ EP        335 27.20                             147   -0.1210 75.3 331 
 BRR  HZ I         335 27.43        33.8 0.08                          75.3 331 
 BRR  HN ES        335 42.35                             147    0.1210 75.3 331 
 RUS  HZ EP        335 27.89                             147   -0.1810 75.9 154 
 RUS  HZ I         335 28.39         7.2 0.24                          75.9 154 
 RUS  HN ES        335 43.74                             147    0.1810 75.9 154 
 PAM  SZ EP   1    335 31.86                             134    0.41 7  119  39 
 PAM  SN ES   2    335 49.41                             134   -0.16 5  119  39 
 OCA  SZ EP   1    335 38.49                             119    0.33 7  191   2 
 OCA  SZ ES   1    336  1.33                             119   -0.20 7  191   2 
 OCA  SZ I         336  7.86         7.5 0.19                           191   2 
 NOR  SN ES   2    336  2.09                             119    0.15 4  195 238 
                                                                                
