 2015  3 5 0947 36.5 L   6.818 -73.164140.1  RSN 10 0.5 1.7LRSN                1
 GAP= 69        1.24       3.7     4.5  6.9  0.2459E+00  0.3869E+01 -0.2116E+01E
 Epicentro: LOS SANTOS - SANTANDER                                             3
 ACTION:UPD 15-04-30 16:23 OP:nd   STATUS:               ID:20150305094736 L   I
 OLDACT:DUP 15-03-05 18:52 OP:stll STATUS:               ID:20150305093748d    3
 2015-03-05-0937-47M.COL___278                                                 6
 STAT SP IPHASW D HRMM SECON CODA AMPLIT PERI AZIMU VELO AIN AR TRES W  DIS CAZ7
 BAR2 EZ EP        947 55.61                             169    0.1210 25.1 185 
 BAR2 EZ ES        948  9.92                             169   -0.3810 25.1 185 
 BAR2 EZ I         948 11.79         9.9 0.22            165           25.1 185 
 BRR  HZ IP     D  947 57.65                             152    0.7710 68.4 298 
 BRR  HN ES        948 13.90                             152    1.1210 68.4 298 
 PAM  SZ EP        947 58.39                             150    0.2810 77.2  42 
 PAM  SN ES        948 14.26                             150   -0.7010 77.2  42 
 PAM  SZ I         948 17.70        11.5 0.46            154           77.2  42 
 RUS  HZ EP        947 59.98                             142    0.1210  103 175 
 RUS  HN ES        948 18.46                             142    0.3810  103 175 
 RUS  HZ I         948 19.31         5.3 0.26            146            103 175 
 PTB  HZ EP        948  2.36                             131   -0.51 9  146 258 
 PTB  HN ES        948 23.12                             131   -0.30 9  146 258 
 PTB  HZ I         948 25.39         3.7 0.18            127            146 258 
 OCA  HN ES        948 25.47                             129   -0.27 9  158 354 
 OCA  HZ I         948 28.96         4.6 0.32            128            158 354 
 TAM  HZ EP        948  3.99                             129    0.01 9  158 105 
 TAM  HZ I         948  4.24         6.9 0.36            138            158 105 
 SPBC HZ EP        948  4.60                             128   -0.00 9  163 218 
 SPBC HN ES        948 25.79                             128   -0.72 9  163 218 
 SPBC HZ I         948 28.98         9.5 0.28            127            163 218 
 ZAR  HZ EP        948  8.66                             121    0.35 9  201 292 
 ZAR  HN ES        948 32.92                             121   -0.19 9  201 292 
 ZAR  HZ I         948 40.81         3.7 0.50            119            201 292 
 SML  HZ EP        948 12.31                             116   -0.22 8  241 336 
 SML  HN ES        948 40.37                             116   -0.25 8  241 336 
 SML  HZ I         948 43.95         7.3 0.26            116            241 336 
                                                                                
