 2016  7 5 0445 40.0 L   6.854 -73.069151.2  RSN 14 0.5 2.0LRSN                1
 GAP=123        0.98       4.3     5.0  6.7  0.2469E+01  0.7870E+01 -0.1067E+01E
 Epicentro: LOS SANTOS - SANTANDER                                             3
 ACTION:UPD 17-03-29 16:47 OP:lp   STATUS:               ID:20160705044540 L   I
 OLDACT:UP  16-07-05 16:05 OP:dani STATUS:               ID:20160705043749d    3
 OLDACT:UP  16-07-05 16:05 OP:dani STATUS:               ID:20160705043749d    3
 OLDACT:UP  16-07-05 16:04 OP:dani STATUS:               ID:20160705043749d    3
 OLDACT:DUP 16-07-05 15:45 OP:dani STATUS:               ID:20160705043749d    3
 OLDACT:UP  16-07-05 15:45 OP:dani STATUS:               ID:20160705043748     3
 OLDACT:UP  16-07-05 15:44 OP:dani STATUS:               ID:20160705043748     3
 OLDACT:UP  16-07-05 15:42 OP:dani STATUS:               ID:20160705043748     3
 OLDACT:UP  16-07-05 15:42 OP:dani STATUS:               ID:20160705043748     3
 OLDACT:UP  16-07-05 15:42 OP:dani STATUS:               ID:20160705043748     3
 OLDACT:UP  16-07-05 15:42 OP:dani STATUS:               ID:20160705043748     3
 OLDACT:UP  16-07-05 15:41 OP:dani STATUS:               ID:20160705043748     3
 OLDACT:UP  16-07-05 15:41 OP:dani STATUS:               ID:20160705043748     3
 OLDACT:REG 16-07-05 12:48 OP:dani STATUS:               ID:20160705043748     3
 2016-07-05-0437-48M.COL___322                                                 6
 STAT SP IPHASW D HRMM SECON CODA AMPLIT PERI AZIMU VELO AIN AR TRES W  DIS CAZ7
 BAR2 EZ EP        446  0.81                             168    0.3910 31.5 203 
 BAR2 EZ ES   4    446 14.59                             168   -1.80 0 31.5 203 
 BAR2 EZ I         446 17.18        47.3 0.18            166           31.5 203 
 PAM  EZ EP   9    446  3.69                             155    1.49 0 67.4  37 
 PAM  EE ES        446 20.99                             153   -0.0610 67.4  37 
 PAM  EZ I         446 23.14        11.6 0.58            151           67.4  37 
 BRR  HZ EP        446  2.59                             152    0.6110 76.3 292 
 BRR  HE ES   4    446 19.78                             152    0.62 0 76.3 292 
 BRR  HZ I         446 22.19        14.9 0.16            154           76.3 292 
 RUS  HZ EP        446  4.74                             143    0.0910  106 181 
 RUS  HE ES        446 23.63                             143   -0.2910  106 181 
 RUS  HZ I         446 24.60        12.2 0.28            139            106 181 
 PTB  HZ EP        446  7.56                             131   -0.66 9  157 257 
 PTB  HN ES   4    446 28.72                             131   -1.56 0  157 257 
 PTB  HZ I         446 30.30        10.7 0.18            131            157 257 
 SPBC HZ EP        446  9.71                             128   -0.10 9  173 220 
 SPBC HN ES        446 32.59                             128   -0.52 9  173 220 
 SPBC HZ I         446 36.23        15.7 0.14            126            173 220 
 ZAR  HZ EP   4    446 12.06                             123   -1.28 0  210 290 
 ZAR  HN ES        446 39.20                             123   -0.19 8  210 290 
 NOR  HN ES   4    446 44.83                             118   -1.25 0  245 234 
 ROSC BZ EP   4    446 20.97                             117    1.57 0  262 212 
 ROSC BE ES        446 50.83                             117    0.65 8  262 212 
 ROSC BZ I         446 56.69        10.5 0.35            114            262 212 
 HEL  HZ EP        446 22.14                             115    0.63 7  282 255 
 HEL  HE ES   4    446 54.96                             115    1.03 0  282 255 
 HEL  HZ I         447  0.66         3.8 0.28            113            282 255 
 PTGC HZ EP        446 23.93                             112   -0.43 7  311 161 
 PTGC HZ I         446 49.84         7.1 0.44            109            311 161 
 PTGC HN ES   4    446 57.52                             112   -1.47 0  311 161 
 GUY2CHZ EP   4    446 26.27                             112    1.29 0  312 235 
 GUY2CHN ES        447  0.64                             112    0.54 7  312 235 
 GUY2CHZ I         447  7.12         7.7 0.30                           312 235 
 CBOC HZ EP        446 28.57                             110    0.35 7  343 252 
 CBOC HE ES        447  5.23                             110   -0.65 7  343 252 
 CBOC HZ I         447  7.15         1.1 0.56            108            343 252 
 PRA  HZ EP        446 34.51                             107   -0.25 6  401 210 
 PRA  HE ES        447 17.46                             107   -0.05 6  401 210 
 PRA  HZ I         447 23.30         5.7 0.38            105            401 210 
 SJC  HZ EP        446 35.08                             106   -0.58 6  409 326 
 SJC  HE ES   4    447 16.69                             106   -2.42 0  409 326 
 SJC  HZ I         447 19.41         2.1 0.60            105            409 326 
                                                                                
