 2017  3 5 0736 11.6 L   6.804 -73.073145.9  RSN  4 0.2 1.3LRSN                1
 GAP=245        0.47       3.0     6.3  3.7  0.9002E+01  0.2746E+00  0.2725E+01E
 Epicentro: LOS SANTOS - SANTANDER                                             3
 ACTION:UPD 17-05-25 18:36 OP:jn   STATUS:               ID:20170305073611 L   I
 OLDACT:REG 17-03-05 12:11 OP:ar   STATUS:               ID:20170305072746     3
 2017-03-05-0728-00M.COL___387                                                 6
 STAT SP IPHASW D HRMM SECON CODA AMPLIT PERI AZIMU VELO AIN AR TRES W  DIS CAZ7
 BAR2 EZ EP        736 31.38                             169    0.0710 26.3 207 
 BAR2 EZ ES        736 46.48                             169   -0.2010 26.3 207 
 BAR2 EZ I         736 47.75         8.2 0.24            163           26.3 207 
 BRR  HZ EP        736 32.95                             150   -0.2210 78.2 295 
 BRR  HN ES        736 50.18                             150    0.1910 78.2 295 
 BRR  HZ I         736 53.90         4.5 0.32            146           78.2 295 
 RUS  HZ EP        736 35.38                             144    0.0110  101 181 
 RUS  HN ES        736 54.08                             144    0.1610  101 181 
 RUS  HZ I         736 55.22         2.2 0.32            143            101 181 
 CHI  HZ EP        736 49.75                             117    0.16 8  251 197 
 CHI  HN ES        737 19.04                             117   -0.18 8  251 197 
 CHI  HZ I         737 22.13         1.1 0.58            117            251 197 
                                                                                
