 2016  4 5 0050 40.0 L   6.797 -73.171142.0  RSN  8 0.4 2.2LRSN                1
 GAP=134        0.90       4.0     4.0  6.3 -0.2079E+01  0.9803E+01 -0.2162E+01E
 Epicentro: LOS SANTOS - SANTANDER                                             3
 ACTION:UPD 16-05-05 14:18 OP:rebc STATUS:               ID:20160405005040 L   I
 OLDACT:REG 16-04-05 12:53 OP:mh   STATUS:               ID:20160405004749     3
 2016-04-05-0047-49M.COL___310                                                 6
 STAT SP IPHASW D HRMM SECON CODA AMPLIT PERI AZIMU VELO AIN AR TRES W  DIS CAZ7
 BAR2 EZ EP        050 58.86                             171   -0.3010 22.6 183 
 BAR2 EZ ES        051 14.30                             171    0.1910 22.6 183 
 BAR2 EZ I         051 15.69        20.7 0.10            173           22.6 183 
 PAM  EZ EP        051  1.93                             150   -0.0110 79.5  41 
 PAM  EE ES        051 19.13                             150    0.0710 79.5  41 
 PAM  EZ I         051 20.96        21.2 0.46            151           79.5  41 
 RUS  HZ EP        051  2.99                             143   -0.3810  100 174 
 RUS  HN ES        051 21.97                             143    0.3710  100 174 
 RUS  HZ I         051 22.47         8.0 0.28            148            100 174 
 PTB  HE EP        051  5.73                             132   -0.67 9  145 259 
 PTB  HN ES        051 26.86                             132   -0.14 9  145 259 
 PTB  HE I         051 30.97         8.4 0.28            132            145 259 
 SPBC HZ EP        051  7.91                             129   -0.10 9  161 218 
 SPBC HN ES        051 29.93                             129    0.06 9  161 218 
 SPBC HZ I         051 31.36         9.2 0.46            131            161 218 
 ZAR  HZ EP        051 12.57                             122    0.62 9  202 293 
 ZAR  HN ES        051 36.93                             122    0.06 9  202 293 
 ZAR  HZ I         051 42.74         8.0 0.24            123            202 293 
 URE  HZ EP   4    051 18.52                             113   -2.09 0  281 292 
 URE  HN ES   4    051 51.11                             113   -1.18 0  281 292 
 GUY2CHZ EP   1    051 24.16                             112    1.01 5  299 235 
 GUY2CHN ES   4    051 58.57                             112    1.76 0  299 235 
 LL5C HZ EP   4    051 43.37                             109   17.01 0  332 350 
 LL5C HN ES   4    052  1.69                             109   -0.83 0  332 350 
 LL5C HZ I         052  6.08       747.8 0.46            111            332 350 
 SJC  HZ EP   4    051 30.36                             105   -4.94 0  408 327 
 SJC  HN ES   4    052 14.26                             105   -4.17 0  408 327 
                                                                                
