 2016  7 5 0538  7.0 L   6.783 -73.117140.6  RSN 10 0.5 1.6LRSN                1
 GAP=122        1.22       5.6     5.2  8.1  0.2653E+01  0.4810E+01 -0.4571E+01E
 Epicentro: LOS SANTOS - SANTANDER                                             3
 ACTION:UPD 17-03-29 16:47 OP:lp   STATUS:               ID:20160705053807 L   I
 OLDACT:UP  16-07-05 16:55 OP:dani STATUS:               ID:20160705052742     3
 OLDACT:REG 16-07-05 12:57 OP:dani STATUS:               ID:20160705052742     3
 2016-07-05-0527-42M.COL___322                                                 6
 STAT SP IPHASW D HRMM SECON CODA AMPLIT PERI AZIMU VELO AIN AR TRES W  DIS CAZ7
 BAR2 EZ EP        538 25.83                             171   -0.1410 22.3 199 
 BAR2 EZ I         538 41.59        11.0 0.30            174           22.3 199 
 BRR  HZ EP     C  538 27.74                             150   -0.0510 74.8 299 
 BRR  HE ES        538 44.71                             150    0.6910 74.8 299 
 BRR  HZ I         538 49.37         7.5 0.12            152           74.8 299 
 RUS  HZ EP        538 30.00                             143   -0.0810 98.6 178 
 RUS  HN ES        538 48.20                             143    0.1010 98.6 178 
 RUS  HZ I         538 49.52         3.8 0.26            148           98.6 178 
 PTB  HZ EP        538 33.65                             130   -0.14 9  151 260 
 PTB  HN ES   4    538 52.38                             130   -2.32 0  151 260 
 SPBC HZ EP        538 34.85                             128   -0.30 9  164 220 
 SPBC HE ES        538 56.78                             128   -0.34 9  164 220 
 SPBC HZ I         539  0.47         5.3 0.22            132            164 220 
 ZAR  HZ EP        538 40.37                             121    0.89 8  208 292 
 ZAR  HN ES        539  3.74                             121   -1.08 8  208 292 
 ZAR  HZ I         539  8.14         7.0 0.26            124            208 292 
 HEL  HZ EP        538 47.99                             113    0.76 8  275 256 
 HEL  HN ES        539 18.18                             113   -0.44 8  275 256 
 HEL  HZ I         539 24.95         2.7 0.36            116            275 256 
 SOCV BZ EP        538 48.98                             111   -0.64 7  300  56 
 GUY2CHZ EP        538 51.45                             111    0.92 7  303 235 
 GUY2CHE ES   4    539 28.63                             111    4.13 0  303 235 
 GUY2CHZ I         539 31.21         2.3 0.26                           303 235 
 CBOC HZ EP        538 54.18                             109    0.21 7  336 253 
 CBOC HN ES        539 30.34                             109   -0.28 7  336 253 
 CBOC HZ I         539 33.58         1.0 0.22            111            336 253 
                                                                                
