 2010  9 5 0528 33.5 L   6.789 -73.067135.5  RSN  9 0.4 1.9LRSN                1
 GAP=168        0.85       3.5     6.3  6.7 -0.7190E+01  0.9263E+01 -0.7994E+00E
 Epicentro: LOS SANTOS - SANTANDER                                             3
 ACTION:UP  11-02-18 11:00 OP:tino STATUS:               ID:20100905052833 L   I
 2010-09-05-0526-05S.COL___120                                                 6
 STAT SP IPHASW D HRMM SECON CODA AMPLIT PERI AZIMU VELO SNR AR TRES W  DIS CAZ7
 BAR2 SZ EP        528 52.01                             169     0.010   25 211 
 BAR2 SZ ES   1    529  5.94                             169    -0.4 7   25 211 
 BAR2 SZ I         529  7.90        19.1 0.04                            25 211 
 BRR  HZ EP        528 54.00                             148    -0.110   80 296 
 BRR  HE ES   1    529 10.53                             148     0.4 7   80 296 
 BRR  HZ I         529 16.13        24.8 0.40                            80 296 
 RUS  HZ EP   1    528 55.84                             142    -0.3 7   99 181 
 RUS  HN ES   1    529 14.03                             142     0.2 7   99 181 
 RUS  HZ I         529 15.79         6.7 0.16                            99 181 
 GRA  SZ IP        528 58.18                             135     0.410  125  13 
 GRA  SZ ES   1    529 17.25                             135     0.5 7  125  13 
 OCA  SZ EP   1    529  0.90                             127    -0.4 7  163 350 
 OCA  SZ ES   1    529 22.20                             127    -0.8 7  163 350 
 OCA  SZ I         529 26.86        12.5 0.12                           163 350 
 CHI  HE ES   2    529 39.78                             115    -0.1 4  250 197 
 CHI  HZ I         529 45.71         2.6 0.20                           250 197 
 HEL  HZ EP   1    529 14.20                             112     0.0 6  280 256 
 HEL  HN ES   2    529 46.35                             112     0.5 4  280 256 
 HEL  HZ I         529 50.74         7.7 0.34                           280 256 
 RREF HZ EP   1    529 20.24                             108     0.3 5  328 231 
 RREF HE ES   1    529 56.01                             108    -0.1 5  328 231 
 RREF HZ I         530  4.11         3.9 0.53                           328 231 
 PRA  HN ES   2    530  8.89                             105     0.0 3  395 211 
 PRA  HZ I         530 16.64         4.0 0.34                           395 211 
                                                                                
