 2012  8 5 0838 59.5 L   6.753 -73.166149.2  RSN  6 0.4 1.4LRSN                1
 GAP=136        0.71       4.9     4.3  7.5  0.1825E+01  0.5046E+01  0.1825E+01E
 Epicentro: LOS SANTOS - SANTANDER                                             3
 ACTION:UPD 12-09-10 11:54 OP:ep   STATUS:               ID:20120805083859 L   I
 2012-08-05-0836-42M.COL___205                                                 6
 STAT SP IPHASW D HRMM SECON CODA AMPLIT PERI AZIMU VELO AIN AR TRES W  DIS CAZ7
 BAR2 SZ EP   1    839 19.43                             173    0.00 7 17.9 186 
 BAR2 SZ I         839 19.82         5.8 0.08                          17.9 186 
 BAR2 SZ ES   2    839 34.78                             173   -0.21 5 17.9 186 
 BRR  HZ EP   1    839 21.27                             153    0.23 7 71.9 303 
 BRR  HZ I         839 21.54        10.4 0.18                          71.9 303 
 BRR  HN ES   1    839 38.65                             153    0.79 7 71.9 303 
 PAM  SZ EP   1    839 22.26                             150   -0.13 7 82.9  38 
 PAM  SE ES   1    839 39.89                             150   -0.37 7 82.9  38 
 RUS  HZ EP   1    839 23.61                             146    0.39 7 95.6 174 
 RUS  HN ES   1    839 41.63                             146   -0.11 7 95.6 174 
 RUS  HZ I         839 43.23         3.2 0.35                          95.6 174 
 PTB  HZ EP   1    839 26.33                             133   -0.12 7  145 261 
 PTB  HN ES   1    839 47.00                             133   -0.48 7  145 261 
 PTB  HZ I         839 49.07         1.9 0.24                           145 261 
 ZAR  HN ES   1    839 57.36                             123   -0.26 6  204 294 
                                                                                
