 2010  3 5 0244 32.0 L   6.812 -73.055142.0  RSN  7 0.4 1.9LRSN                1
 GAP=248        0.70       4.5     6.6  6.9  0.7588E+01  0.1062E+02  0.7463E+01E
 Epicentro: LOS SANTOS - SANTANDER                                             3
 ACTION:UP  10-08-24 09:52 OP:vdl  STATUS:               ID:20100305024432 L   I
 2010-03-05-0243-03S.COL___101                                                 6
 STAT SP IPHASW D HRMM SECON CODA AMPLIT PERI AZIMU VELO SNR AR TRES W  DIS CAZ7
 BAR2 SZ EP   2    244 51.14                             168    -0.2 5   28 210 
 BAR2 SZ ES   3    245  5.68                             168    -0.7 2   28 210 
 BRR  HZ EP        244 53.05                             149    -0.210   80 294 
 BRR  HE ES   1    245  9.90                             149     0.1 7   80 294 
 RUS  BZ EP        244 55.69                             143     0.210  102 182 
 RUS  BN ES        245 13.95                             143     0.210  102 182 
 RUS  BZ I         245 15.26         9.8 0.16                           102 182 
 CHI  HZ EP        245  9.85                             116    -0.1 8  253 197 
 CHI  HN ES   2    245 38.46                             116    -1.1 4  253 197 
 CHI  HZ I         245 42.03         2.6 0.49                           253 197 
 HEL  HZ EP   2    245 13.51                             113     0.3 4  282 256 
 HEL  HZ I         245 51.12         4.3 0.08                           282 256 
 RREF BN ES        245 55.97                             110     0.4 7  330 230 
 RREF BZ I         246  4.06         4.0 0.46                           330 230 
 PRA  HE ES   2    246  7.52                             106    -0.8 3  398 211 
 PRA  HZ I         246 11.06         2.8 0.25                           398 211 
                                                                                
