 2017  4 5 0510 46.2 L   6.779 -73.366126.0  RSN  5 0.3 0.9LRSN                1
 GAP=182        0.60       4.3     3.8  5.3  0.7921E+01  0.5731E+01  0.2162E+01E
 Epicentro: ZAPATOCA - SANTANDER                                               3
 ACTION:UPD 17-05-30 21:08 OP:jn   STATUS:               ID:20170405051046 L   I
 OLDACT:UP  17-04-05 15:40 OP:and  STATUS:               ID:20170405050740     3
 OLDACT:UP  17-04-05 15:40 OP:and  STATUS:               ID:20170405050740     3
 OLDACT:REG 17-04-05 12:46 OP:and  STATUS:               ID:20170405050740     3
 2017-04-05-0508-00M.COL___365                                                 6
 STAT SP IPHASW D HRMM SECON CODA AMPLIT PERI AZIMU VELO AIN AR TRES W  DIS CAZ7
 BAR2 EZ EP        511  3.46                             167   -0.1010 29.0 135 
 BAR2 EZ ES        511 17.05                             167   -0.0810 29.0 135 
 BRR  HZ EP        511  3.99                             156   -0.1510 52.6 314 
 BRR  HN ES        511 18.35                             156    0.1810 52.6 314 
 BRR  HZ I         511 19.81         2.7 0.20            155           52.6 314 
 RUS  HZ EP   2    511  8.57                             139    0.37 5  103 162 
 RUS  HN ES        511 25.59                             139    0.1910  103 162 
 RUS  HZ I         511 28.83         0.8 0.31            139            103 162 
 PTB  HZ EP        511  8.97                             133   -0.3310  123 258 
 PTB  HN ES        511 27.32                             133   -0.0310  123 258 
 PTB  HZ I         511 31.15         1.3 0.14            131            123 258 
 ZAR  HZ EP   3    511 16.52                             121    1.41 2  183 296 
 ZAR  HN ES   2    511 38.45                             121    0.75 4  183 296 
 ZAR  HZ I         511 41.76         1.1 0.11            121            183 296 
                                                                                
