 2010  5 5 0805  1.8 L   7.139 -73.877 96.4  RSN  8 0.2 1.9LRSN                1
 GAP=147        0.50       2.9     2.7  4.3 -0.3822E+01  0.4598E+01 -0.4078E+01E
 Epicentro: BARRANCABERMEJA - SANTANDER                                        3
 ACTION:UP  10-08-24 10:02 OP:vdl  STATUS:               ID:20100505080501 L   I
 2010-05-05-0802-03S.COL___105                                                 6
 STAT SP IPHASW D HRMM SECON CODA AMPLIT PERI AZIMU VELO SNR AR TRES W  DIS CAZ7
 BRR  HZ IP        8 5 14.92                             168    -0.110   19 101 
 BRR  HE ES   1    8 5 25.32                             168    -0.1 7   19 101 
 BRR  HZ I         8 5 26.34       100.7 0.14                            19 101 
 GIR2 SZ EP   1    8 5 18.28                             139    -0.2 7   76  95 
 GIR2 SZ ES   1    8 5 31.28                             139    -0.2 7   76  95 
 BAR2 SZ EP   1    8 5 20.59                             131     0.1 7   98 128 
 BAR2 SZ ES   1    8 5 35.42                             131     0.3 7   98 128 
 GUE  SZ EP        8 5 23.56                             123    -0.310  130  54 
 BRI  SZ EP   1    8 5 24.35                             122     0.2 7  135  62 
 BRI  SZ ES   1    8 5 41.94                             122     0.3 7  135  62 
 OCA  SZ EP   2    8 5 24.26                             121     0.0 5  136  27 
 OCA  SZ ES   1    8 5 42.04                             121     0.3 7  136  27 
 OCA  SZ I         8 5 46.89         9.2 0.20                           136  27 
 GRA  SZ EP   1    8 5 24.94                             120    -0.2 7  144  55 
 HEL  HZ EP   1    8 5 33.07                             110     0.3 6  211 240 
 HEL  HN ES   1    8 5 57.05                             110     0.1 6  211 240 
 HEL  HZ I         8 5 59.41         5.0 0.29                           211 240 
                                                                                
