 2011  9 5 0327 26.7 L   6.806 -73.021144.0  RSN  8 0.3 1.7LRSN                1
 GAP=196        0.38       2.4     3.9  4.5  0.2181E+01 -0.3099E+00  0.1854E+01E
 Epicentro: CEPITA - SANTANDER                                                 3
 ACTION:UPD 12-07-13 15:55 OP:ep   STATUS:               ID:20110905032726 L   I
 2011-09-05-0326-58S.COL___170                                                 6
 STAT SP IPHASW D HRMM SECON CODA AMPLIT PERI AZIMU VELO AIN AR TRES W  DIS CAZ7
 BAR2 SZ EP   1    327 46.34                             168    0.05 7 29.6 217 
 BAR2 SZ ES   2    328  1.60                             168    0.05 5 29.6 217 
 BAR2 SZ I         328  4.24         8.9 0.35                          29.6 217 
 BRR  HZ EP   1    327 48.39                             148   -0.03 7 83.3 294 
 BRR  HE ES   1    328  5.42                             148    0.08 7 83.3 294 
 BRR  HZ I         328  9.48         9.8 0.20                          83.3 294 
 RUS  HZ EP   1    327 50.07                             143   -0.28 7  101 184 
 RUS  HN ES   2    328  8.88                             143    0.10 5  101 184 
 RUS  HZ I         328 10.41         3.9 0.29                           101 184 
 OCA  SZ EP   2    327 55.13                             129    0.07 5  162 348 
 OCA  SZ ES   2    328 17.33                             129    0.18 5  162 348 
 OCA  SZ I         328 23.23         5.3 0.32                           162 348 
 ZAR  HE ES   2    328 26.14                             120   -0.47 4  217 291 
 ZAR  HZ I         328 29.68         6.7 0.70                           217 291 
 CHI  HZ EP   2    328  5.21                             116    0.38 4  253 198 
 CHI  HN ES   2    328 34.31                             116   -0.23 4  253 198 
 CHI  HZ I         328 39.45         2.8 0.33                           253 198 
 HEL  HN ES   2    328 40.92                             113    0.09 4  286 256 
 HEL  HZ I         328 44.64         2.5 0.22                           286 256 
 PRA  HN ES   2    329  4.22                             106    0.77 3  400 211 
                                                                                
