 2012 11 5 0103 48.3 L   6.821 -73.113145.7  RSN  5 0.3 2.0LRSN                1
 GAP=140        0.59       3.2     4.7  5.1 -0.3520E+00 -0.1428E+01  0.2142E+01E
 Epicentro: LOS SANTOS - SANTANDER                                             3
 ACTION:UPD 12-12-05 15:31 OP:}ep  STATUS:               ID:20121105010348 L   I
 2012-11-05-0100-00M.COL___230                                                 6
 STAT SP IPHASW D HRMM SECON CODA AMPLIT PERI AZIMU VELO AIN AR TRES W  DIS CAZ7
 BAR2 SZ IP     D  1 4  7.91                             169   -0.0910 26.4 197 
 BAR2 SZ ES   2    1 4 23.28                             169   -0.08 5 26.4 197 
 BAR2 SZ I         1 4 24.03        14.8 0.36                          26.4 197 
 GIR2 SZ EP        1 4  7.85                             168   -0.0910 29.9 343 
 GIR2 SZ ES   2    1 4 22.48                             168   -0.78 5 29.9 343 
 PAM  SZ EP        1 4 10.62                             152    0.3310 73.3  38 
 PAM  SE ES        1 4 27.38                             152   -0.0510 73.3  38 
 PAM  SN I         1 4 28.54        22.5 0.48                          73.3  38 
 BRR  HZ IP     D  1 4  9.60                             152    0.0210 73.4 296 
 BRR  HN ES        1 4 26.31                             152    0.1410 73.4 296 
 BRR  HN I         1 4 26.95        51.6 0.30                          73.4 296 
 RUS  HZ EP        1 4 11.94                             143   -0.2710  103 178 
 RUS  HN ES        1 4 31.08                             143    0.2310  103 178 
 RUS  HN I         1 4 32.34         5.3 0.14                           103 178 
                                                                                
