 2012  3 5 0954 57.7 L   6.684 -73.164141.5  RSN  7 0.4 1.9LRSN                1
 GAP=197        0.87       6.5     5.7  7.7 -0.6483E+01  0.9309E+01  0.3099E+01E
 ACTION:UP  12-03-31 23:17 OP:EP   STATUS:               ID:20120305095457 L   I
 2012-03-05-0950-00M.COL___191                                                 6
 STAT SP IPHASW D HRMM SECON CODA AMPLIT PERI AZIMU VELO SNR AR TRES W  DIS CAZ7
 BAR2 SZ EP   1    955 16.47                             176    -0.2 7   10 192 
 BAR2 SZ ES   1    955 31.02                             176    -0.4 7   10 192 
 BAR2 SZ I         955 33.22        14.4 0.21                            10 192 
 BRR  HZ EP        955 19.08                             150     0.310   77 308 
 BRR  HN ES   1    955 35.78                             150     0.6 7   77 308 
 BRR  HZ I         955 41.29        14.6 0.15                            77 308 
 PTB  HZ EP   1    955 23.79                             132    -0.2 7  144 264 
 PTB  HN ES   1    955 44.25                             132    -0.2 7  144 264 
 PTB  HZ I         955 46.79         0.0 0.20                           144 264 
 OCA  SZ EP   1    955 26.54                             126    -0.4 7  173 354 
 ZAR  HE ES        955 55.52                             121    -0.1 8  207 296 
 ZAR  HZ I         956  1.46         7.0 0.33                           207 296 
 NOR  SZ EP   1    955 32.97                             119     0.7 6  226 237 
 NOR  SN ES   1    955 59.35                             119     0.2 6  226 237 
 HEL  HZ EP   1    955 37.02                             114    -0.2 6  267 258 
 HEL  HN ES   1    956  7.50                             114    -0.5 6  267 258 
 HEL  HZ I         956 15.96         5.4 0.33                           267 258 
                                                                                
