 2011 12 5 0812 52.9 L   6.774 -73.120139.7  RSN  5 0.1 1.5LRSN                1
 GAP=141        0.32       2.2     3.3  3.4 -0.1776E+00 -0.7900E+00  0.1153E+01E
 Epicentro: LOS SANTOS - SANTANDER                                             3
 ACTION:UPD 12-07-13 16:14 OP:ep   STATUS:               ID:20111205081252 L   I
 2011-12-05-0810-00M.COL___183                                                 6
 STAT SP IPHASW D HRMM SECON CODA AMPLIT PERI AZIMU VELO AIN AR TRES W  DIS CAZ7
 BAR2 SZ EP   2    813 11.76                             171   -0.02 5 21.2 199 
 BAR2 SZ I         813 24.40         7.8 0.38                          21.2 199 
 BAR2 SZ ES   2    813 26.64                             171    0.15 5 21.2 199 
 GIR2 SZ ES        813 26.66                             165   -0.1810 34.7 346 
 BRR  HZ EP   1    813 13.68                             150    0.02 7 75.1 299 
 BRR  HN ES   1    813 29.94                             150    0.12 7 75.1 299 
 BRR  HZ I         813 30.91        20.4 0.04                          75.1 299 
 PAM  SZ EP   1    813 14.50                             149   -0.03 7 77.9  37 
 PAM  SE ES   1    813 31.52                             149    0.14 7 77.9  37 
 RUS  HZ EP   2    813 15.88                             143    0.02 5 97.5 178 
 RUS  HN ES   1    813 33.74                             143    0.00 7 97.5 178 
 RUS  HZ I         813 36.55         1.6 0.38                          97.5 178 
                                                                                
