 2013  1 5 0556 55.1 L   7.287 -73.308124.7  RSN  4 0.3 1.9LRSN                1
 GAP=252        0.67       7.3     4.6  6.5  0.1712E+02  0.1626E+01 -0.8510E+01E
 Epicentro: RIONEGRO - SANTANDER                                               3
 ACTION:UPD 13-02-15 09:12 OP:ep   STATUS:               ID:20130105055655 L   I
 2013-01-05-0549-49M.COL___196                                                 6
 STAT SP IPHASW D HRMM SECON CODA AMPLIT PERI AZIMU VELO AIN AR TRES W  DIS CAZ7
 BRR  HZ EP        557 12.51                             157   -0.2910 48.8 246 
 BRR  HN ES        557 26.34                             157   -0.2310 48.8 246 
 BRR  HN I         557 26.81        54.7 0.18            152           48.8 246 
 BAR2 SZ EP        557 14.99                             146    0.1410 78.1 170 
 BAR2 SZ I         557 15.12        31.0 0.10            142           78.1 170 
 BAR2 SZ ES        557 30.49                             146    0.2710 78.1 170 
 PTB  HZ EP        557 20.73                             126   -0.11 9  151 237 
 PTB  HN ES        557 40.72                             126   -0.16 9  151 237 
 PTB  HN I         557 43.79         3.1 0.20            123            151 237 
 ZAR  HN ES        557 45.11                             122    0.43 9  173 278 
                                                                                
