 2011 12 5 0224 14.0 L   6.842 -73.338119.5  RSN  6 0.2 1.6LRSN                1
 GAP=140        0.49       2.3     3.5  4.3  0.4692E+00 -0.1459E+01 -0.7689E+00E
 Epicentro: ZAPATOCA - SANTANDER                                               3
 ACTION:UPD 12-07-13 16:14 OP:ep   STATUS:               ID:20111205022414 L   I
 2011-12-05-0220-00M.COL___183                                                 6
 STAT SP IPHASW D HRMM SECON CODA AMPLIT PERI AZIMU VELO AIN AR TRES W  DIS CAZ7
 GIR2 SZ EP   1    224 30.28                             165   -0.24 7 30.7  31 
 BAR2 SZ EP   1    224 30.78                             164    0.06 7 32.5 148 
 BAR2 SZ ES   1    224 43.68                             164   -0.11 7 32.5 148 
 BAR2 SZ I         224 45.18        17.4 0.31                          32.5 148 
 BRR  HZ EP   1    224 31.09                             156   -0.05 7 50.7 305 
 BRR  HN ES        224 44.57                             156    0.0410 50.7 305 
 BRR  HZ I         224 45.92         6.2 0.09                          50.7 305 
 PAM  SZ EP   1    224 33.88                             141   -0.47 7 89.5  52 
 PAM  SE ES        224 50.47                             141    0.2210 89.5  52 
 RUS  HZ EP   1    224 36.29                             135    0.36 7  109 165 
 RUS  HE ES   1    224 52.93                             135   -0.12 7  109 165 
 OCA  SZ EP   1    224 39.93                             124    0.13 7  155   1 
 OCA  SZ ES   1    224 59.96                             124    0.02 7  155   1 
 OCA  SZ I         225  0.53         4.7 0.33                           155   1 
                                                                                
