 2012  9 5 0458 48.3 L   6.736 -73.185150.3  RSN  5 0.2 1.3LRSN                1
 GAP=228        0.47       5.5     6.0  5.6  0.2268E+02 -0.6904E+00 -0.1786E+01E
 Epicentro: VILLANUEVA - SANTANDER                                             3
 ACTION:UPD 12-10-22 14:17 OP:ep   STATUS:               ID:20120905045848 L   I
 2012-09-05-0456-41M.COL___191                                                 6
 STAT SP IPHASW D HRMM SECON CODA AMPLIT PERI AZIMU VELO AIN AR TRES W  DIS CAZ7
 BAR2 SZ EP   1    459  7.98                             174   -0.33 7 15.9 179 
 BAR2 SZ ES   1    459 23.94                             174   -0.01 7 15.9 179 
 BAR2 SZ I         459 24.41         4.7 0.09                          15.9 179 
 BRR  HZ EP   1    459  9.92                             153    0.02 7 71.2 305 
 BRR  HZ I         459 10.18         6.7 0.14                          71.2 305 
 BRR  HN ES   1    459 26.97                             153    0.19 7 71.2 305 
 RUS  HZ EP   1    459 12.35                             147    0.35 7 94.0 173 
 RUS  HZ I         459 12.84         1.2 0.30                          94.0 173 
 RUS  HN ES   1    459 30.38                             147   -0.14 7 94.0 173 
 PTB  HN ES   2    459 36.11                             134    0.05 5  142 261 
 ZAR  HZ I         459 23.10         3.3 0.07                           203 294 
 ZAR  HE ES   2    459 45.98                             123   -0.34 4  203 294 
                                                                                
