 2013  8 5 0115 18.5 L   6.670 -73.284147.2  RSN  4 0.4 1.3LRSN                1
 GAP=210        0.79       7.8     8.3 12.1  0.3338E+02  0.7476E+01 -0.1525E+02E
 Epicentro: GALAN - SANTANDER                                                  3
 ACTION:UPD 14-01-14 08:59 OP:ep   STATUS:               ID:20130805011518 L   I
 OLDACT:REG 13-08-05 07:41 OP:jn   STATUS:               ID:20130805010959     3
 2013-08-05-0109-59M.COL___270                                                 6
 STAT SP IPHASW D HRMM SECON CODA AMPLIT PERI AZIMU VELO AIN AR TRES W  DIS CAZ7
 BRR  HZ EP        115 39.37                             154   -0.2110 67.6 316 
 BRR  HN ES        115 56.00                             154   -0.0410 67.6 316 
 BRR  HZ I         116  0.70         6.0 0.48            155           67.6 316 
 RUS  HN ES   1    115 59.86                             148    0.30 7 88.8 166 
 RUS  HZ I         116  1.89         1.7 0.18            153           88.8 166 
 PTB  HN ES   1    116  3.53                             136   -0.46 7  130 264 
 ZAR  HN ES   1    116 15.73                             124    0.76 6  196 298 
 ZAR  HZ I         116 18.83         2.0 0.30            127            196 298 
                                                                                
