 2016  7 5 0429 21.7 L   6.789 -73.120147.1  RSN 21 0.4 2.4LRSN                1
 GAP=103        0.94       3.1     3.2  4.5 -0.1962E+01  0.3180E+01  0.2615E+01E
 Epicentro: LOS SANTOS - SANTANDER                                             3
 ACTION:UPD 17-03-29 16:47 OP:lp   STATUS:               ID:20160705042921 L   I
 OLDACT:UP  16-07-05 15:27 OP:dani STATUS:               ID:20160705042748     3
 OLDACT:UP  16-07-05 15:26 OP:dani STATUS:               ID:20160705042748     3
 OLDACT:UP  16-07-05 15:26 OP:dani STATUS:               ID:20160705042748     3
 OLDACT:UP  16-07-05 15:26 OP:dani STATUS:               ID:20160705042748     3
 OLDACT:UP  16-07-05 15:23 OP:dani STATUS:               ID:20160705042748     3
 OLDACT:UP  16-07-05 15:22 OP:dani STATUS:               ID:20160705042748     3
 OLDACT:REG 16-07-05 12:47 OP:dani STATUS:               ID:20160705042748     3
 2016-07-05-0427-48M.COL___322                                                 6
 STAT SP IPHASW D HRMM SECON CODA AMPLIT PERI AZIMU VELO AIN AR TRES W  DIS CAZ7
 BAR2 EZ EP        429 41.52                             171   -0.0010 22.9 198 
 BAR2 EZ ES        429 56.38                             171   -0.5710 22.9 198 
 BAR2 EZ I         429 57.54       117.6 0.22            167           22.9 198 
 BRR  HZ IP     C  429 43.35                             152    0.1410 74.3 298 
 BRR  HZ I         429 58.18       325.2 0.48            149           74.3 298 
 BRR  HN ES        430  0.33                             152    0.3710 74.3 298 
 PAM  EZ EP        429 44.45                             151    0.4010 76.5  37 
 PAM  EN ES        430  1.58                             151    0.1310 76.5  37 
 PAM  EZ I         430  3.74        49.0 0.62            153           76.5  37 
 RUS  HZ EP        429 45.58                             144    0.0510 99.3 178 
 RUS  HE ES        430  4.09                             144    0.0110 99.3 178 
 RUS  HZ I         430  5.05        32.2 0.30            142           99.3 178 
 PTB  HZ EP        429 48.20                             132   -0.85 9  150 259 
 PTB  HN ES   4    430  9.01                             132   -1.35 0  150 259 
 PTB  HZ I         430 10.87        31.9 0.34            129            150 259 
 SPBC HZ EP        429 50.40                             129   -0.03 9  164 220 
 SPBC HE ES        430 13.31                             129    0.50 9  164 220 
 SPBC HZ I         430 17.41        45.7 0.22            126            164 220 
 ZAR  HZ EP        429 55.07                             122    0.48 8  207 292 
 ZAR  HN ES        430 20.02                             122   -0.20 8  207 292 
 ZAR  HZ I         430 28.12        23.2 0.22            120            207 292 
 NOR  HZ EP        429 57.77                             119    0.05 8  236 235 
 NOR  HE ES        430 25.35                             119   -0.45 8  236 235 
 NOR  HZ I         430 30.43        17.1 0.28            116            236 235 
 CHI  HN ES        430 28.95                             117    0.05 8  248 196 
 CHI  HZ I         430 39.04         7.7 0.58            116            248 196 
 ROSC BZ EP   4    430  2.11                             117    2.13 0  253 212 
 ROSC BE ES   4    430 31.31                             117    1.49 0  253 212 
 ROSC BZ I         430 37.08        17.4 0.35            115            253 212 
 HEL  HZ EP   4    430  3.34                             115    1.04 0  275 256 
 HEL  HN ES        430 33.95                             115    0.02 8  275 256 
 HEL  HZ I         430 41.17        12.9 0.34            113            275 256 
 SOCV BZ EP        430  4.31                             112   -0.34 7  300  56 
 SOCV BE ES   4    430 36.25                             112   -1.87 0  300  56 
 GUY2CHZ EP        430  6.01                             112    0.41 7  303 235 
 GUY2CHE ES        430 39.78                             112   -0.03 7  303 235 
 GUY2CHZ I         430 46.06        10.8 0.36                           303 235 
 PTGC HZ EP        430  4.75                             112   -0.66 7  307 159 
 PTGC HE ES   4    430 37.92                             112   -1.56 0  307 159 
 PTGC HZ I         430 46.81         8.1 0.48            111            307 159 
 ELA  HZ EP        430  8.72                             110   -0.09 7  331 230 
 ELA  HE ES   4    430 51.10                             110    5.57 0  331 230 
 ELA  HZ I         430 53.73        10.5 0.30            109            331 230 
 CBOC HZ EP   4    430 10.38                             110    1.40 0  336 252 
 CBOC HN ES        430 44.94                             110   -0.89 7  336 252 
 CBOC HZ I         430 56.95         4.7 0.42            108            336 252 
 ANIL HE ES   4    430 54.44                             109    3.71 0  359 225 
 ANIL HZ I         430 56.97        21.0 0.30            107            359 225 
 PRA  HZ EP        430 15.63                             107    0.28 6  392 210 
 PRA  HE ES        430 58.27                             107    1.10 6  392 210 
 PRA  HZ I         431  3.18         5.8 0.28            105            392 210 
 ORTC HE ES   4    430 59.24                             106    1.28 0  396 217 
 ORTC HZ I         431  2.47         5.6 0.16            105            396 217 
 PAL  HZ EP        430 17.50                             106    0.34 6  408 239 
 PAL  HE ES   4    430 58.88                             106   -1.51 0  408 239 
 PAL  HZ I         431  7.30         4.2 0.22            105            408 239 
 SJC  HZ EP   4    430 15.93                             106   -1.71 0  412 327 
 SJC  HN ES   4    430 57.79                             106   -3.46 0  412 327 
 SJC  HZ I         431  1.33         4.4 0.64            105            412 327 
                                                                                
