 2013  7 5 0514  8.1 L   6.824 -73.157144.4  RSN 20 0.5 2.4LRSN                1
 GAP= 54        1.29       2.8     3.3  5.6 -0.2288E+01  0.2471E+01  0.3636E+01E
 Epicentro: LOS SANTOS - SANTANDER                                             3
 ACTION:UPD 13-08-12 10:35 OP:ep   STATUS:               ID:20130705051408 L   I
 OLDACT:REG 13-07-05 08:57 OP:stll STATUS:               ID:20130705050847     3
 2013-07-05-0508-47M.COL___236                                                 6
 STAT SP IPHASW D HRMM SECON CODA AMPLIT PERI AZIMU VELO AIN AR TRES W  DIS CAZ7
 BAR2 SZ EP        514 27.61                             169   -0.0210 25.7 186 
 BAR2 SZ ES        514 42.38                             169   -0.4710 25.7 186 
 BAR2 SZ I         514 44.26        29.3 0.16            169           25.7 186 
 GIR2 SZ EP        514 27.66                             168    0.1110 28.5 352 
 BRR  HZ IP     C  514 29.39                             153    0.4110 68.9 297 
 BRR  HN ES        514 46.61                             153    1.3510 68.9 297 
 BRR  HN I         514 47.23       104.5 0.24            152           68.9 297 
 PAM  SZ EP        514 30.56                             151    0.4510 76.2  42 
 PAM  SN ES        514 47.22                             151   -0.0510 76.2  42 
 PAM  SN I         514 48.62        25.5 0.42            153           76.2  42 
 RUS  HZ EP        514 31.57                             143   -0.3510  103 175 
 RUS  HN ES        514 49.74                             143   -0.7610  103 175 
 RUS  HN I         514 51.02        16.4 0.24            144            103 175 
 GRA  SZ EP        514 33.30                             137    0.2410  124  18 
 GRA  SZ ES        514 52.77                             137    0.2610  124  18 
 PTB  HZ EP        514 34.25                             132   -0.65 9  147 258 
 PTB  HN ES        514 55.23                             132   -0.57 9  147 258 
 PTB  HN I         515  0.58        52.0 0.40            132            147 258 
 CAPV BZ EP        514 35.59                             132    0.31 9  148  39 
 CAPV BZ ES        514 56.44                             132   -0.03 9  148  39 
 TAM  HZ EP        514 36.04                             130    0.18 9  157 106 
 TAM  HE ES        514 57.66                             130    0.16 9  157 106 
 OCA  HN ES        514 57.46                             130   -0.39 9  158 353 
 OCA  HN I         515  0.40        55.3 0.30            131            158 353 
 ZAR  HZ EP        514 40.28                             122    0.03 9  202 292 
 ZAR  HE ES        515  5.15                             122   -0.16 9  202 292 
 AGZ  SZ EP        514 41.88                             120   -0.51 8  222 160 
 NOR  HZ EP        514 43.31                             118   -0.51 8  235 234 
 NOR  HN ES        515 11.15                             118   -0.52 8  235 234 
 NOR  HN I         515 17.18        36.8 0.18            119            235 234 
 SML  HN EP        514 44.10                             117   -0.24 8  241 335 
 SML  HE ES        515 11.77                             117   -0.84 8  241 335 
 CHI  HZ EP        514 46.04                             117    0.07 8  251 195 
 CHI  HN ES        515 15.20                             117   -0.30 8  251 195 
 ROSC BZ EP        514 47.81                             116    1.48 8  254 210 
 ROSC BN ES        515 17.10                             116    0.96 8  254 210 
 SOCV BZ EP        514 50.23                             112   -0.82 7  301  57 
 RREF HZ EP        514 55.15                             110    0.87 7  323 229 
 RREF HE ES        515 30.67                             110    0.38 7  323 229 
 RREF HZ I         515 34.88         7.9 0.24            111            323 229 
 PRA  HZ EP        515  1.53                             106   -0.25 6  394 209 
 PRA  HN ES        515 43.57                             106   -0.07 6  394 209 
 PRA  HN I         515 49.10         6.1 0.72            107            394 209 
 ORTC HZ EP        515  2.23                             106    0.09 6  397 216 
 ORTC HN ES        515 44.46                             106    0.17 6  397 216 
                                                                                
