 2012  7 5 0508 16.5 L   6.756 -73.144152.6  RSN  4 0.2 1.4LRSN                1
 GAP=234        0.54       7.2     6.3  8.3  0.1111E+02 -0.5332E+01  0.7742E+00E
 Epicentro: LOS SANTOS - SANTANDER                                             3
 ACTION:UPD 12-08-14 11:42 OP:ep   STATUS:               ID:20120705050816 L   I
 2012-07-05-0500-00M.COL___201                                                 6
 STAT SP IPHASW D HRMM SECON CODA AMPLIT PERI AZIMU VELO AIN AR TRES W  DIS CAZ7
 BAR2 SZ EP   1    5 8 36.98                             173     0.1 7   19 193 
 BAR2 SZ I         5 8 52.58         4.5 0.35            158             19 193 
 BRR  HZ EP   1    5 8 38.72                             153     0.2 7   74 302 
 BRR  HZ I         5 8 39.20         5.8 0.11            165             74 302 
 BRR  HN ES   1    5 8 55.54                             153    -0.2 7   74 302 
 RUS  HN ES   2    5 8 59.29                             146    -0.1 5   96 176 
 PTB  HZ EP   1    5 8 43.60                             134    -0.4 7  147 261 
 PTB  HN ES   1    5 9  5.61                             134     0.2 7  147 261 
 PTB  HZ I         5 9  6.91         1.9 0.07            135            147 261 
