 2010 10 5 0344 35.7 L   6.787 -73.096146.4  RSN 12 0.4 2.3LRSN                1
 GAP=164        0.74       3.1     5.4  5.4 -0.6782E+01  0.5133E+01  0.1365E+01E
 Epicentro: LOS SANTOS - SANTANDER                                             3
 ACTION:UP  11-02-18 11:07 OP:tino STATUS:               ID:20101005034435 L   I
 2010-10-05-0342-24S.COL___122                                                 6
 STAT SP IPHASW D HRMM SECON CODA AMPLIT PERI AZIMU VELO SNR AR TRES W  DIS CAZ7
 BAR2 SZ IP        344 55.48                             170     0.010   24 204 
 BAR2 SZ ES   1    345 10.39                             170    -0.4 7   24 204 
 BAR2 SZ I         345 12.22        77.6 0.18                            24 204 
 BRR  HZ IP     C  344 57.31                             151     0.010   77 298 
 BRR  HZ I         344 57.68        37.2 0.11                            77 298 
 BRR  HN ES   1    345 14.42                             151     0.4 7   77 298 
 RUS  HZ IP     D  344 59.35                             144    -0.110   99 179 
 RUS  HE ES   1    345 18.02                             144     0.1 7   99 179 
 RUS  HZ I         345 19.37        22.3 0.32                            99 179 
 GUE  SZ EP   2    345  0.23                             139    -0.3 5  117   9 
 GRA  SZ IP        345  1.24                             137     0.210  126  15 
 GRA  SZ ES   1    345 21.05                             137     0.3 7  126  15 
 GRA  SZ I         345 22.43        18.3 0.20                           126  15 
 OCA  SZ EP   1    345  3.50                             129    -0.8 7  162 351 
 OCA  SZ ES   1    345 26.43                             129    -0.1 7  162 351 
 OCA  SZ I         345 29.40        16.5 0.35                           162 351 
 NOR  SZ EP   2    345 11.50                             118    -0.4 4  238 236 
 NOR  SN ES   1    345 39.70                             118    -0.4 6  238 236 
 ROSC BZ EP   2    345 14.57                             117     0.5 4  254 212 
 ROSC BZ I         345 50.92        12.5 0.35                           254 212 
 HEL  HZ EP   2    345 16.45                             114    -0.1 4  277 256 
 HEL  HZ I         345 53.80         5.5 0.62                           277 256 
 RREF HZ EP   1    345 23.00                             111     0.7 5  325 230 
 RREF HN ES   1    345 58.73                             111     0.2 5  325 230 
 RREF HZ I         346  4.37         9.5 0.26                           325 230 
 TOL  SZ EP   2    345 24.99                             109     0.7 3  346 225 
 PRA  HZ EP   1    345 28.96                             106    -0.5 4  393 210 
 PRA  HN ES   1    346 11.32                             106     0.0 4  393 210 
 PRA  HZ I         346 16.76        23.0 0.28                           393 210 
                                                                                
