 2013  4 5 0020 41.6 L   6.747 -73.165146.7  RSN  7 0.4 1.6LRSN                1
 GAP=179        0.75       4.3     5.4  6.2  0.2774E+01  0.7436E+01  0.8784E+01E
 Epicentro: VILLANUEVA - SANTANDER                                             3
 ACTION:UPD 13-05-22 14:35 OP:EP   STATUS:               ID:20130405002041 L   I
 2013-04-05-0020-00M.COL___245                                                 6
 STAT SP IPHASW D HRMM SECON CODA AMPLIT PERI AZIMU VELO AIN AR TRES W  DIS CAZ7
 BAR2 SZ ES   1    021 16.84                             173    0.26 7 17.2 186 
 BAR2 SZ I         021 18.90        15.2 0.50            168           17.2 186 
 GIR2 SZ EP   1    021  1.22                             165   -0.35 7 36.9 355 
 GIR2 SZ ES   1    021 17.21                             165    0.08 7 36.9 355 
 BRR  HZ EP        021  3.14                             152    0.2010 72.4 303 
 BRR  HN ES   1    021 19.56                             152   -0.01 7 72.4 303 
 RUS  HZ EP        021  5.16                             146    0.0910 94.9 175 
 RUS  HN ES   1    021 23.22                             146   -0.13 7 94.9 175 
 RUS  HZ I         021 24.83         2.8 0.38            146           94.9 175 
 PTB  HZ EP        021  8.08                             133   -0.31 9  145 261 
 PTB  HN ES   1    021 28.88                             133   -0.38 7  145 261 
 PTB  HZ I         021 34.90         6.1 0.32            132            145 261 
 NOR  HN ES   1    021 45.10                             119    0.76 6  230 235 
 NOR  HZ I         021 48.80         2.7 0.44            120            230 235 
 CHI  HZ EP   1    021 19.36                             118    0.66 6  242 195 
 CHI  HN ES   1    021 46.88                             118   -0.73 6  242 195 
                                                                                
