 2012 12 5 0933 13.8 L   6.818 -73.166141.6  RSN 12 0.4 2.2LRSN                1
 GAP= 69        0.71       2.4     2.7  4.5  0.1378E+00  0.2936E+01  0.9789E+00E
 Epicentro: LOS SANTOS - SANTANDER                                             3
 ACTION:UPD 13-01-04 14:25 OP:ep   STATUS:               ID:20121205093313 L   I
 2012-12-05-0930-00M.COL___237                                                 6
 STAT SP IPHASW D HRMM SECON CODA AMPLIT PERI AZIMU VELO AIN AR TRES W  DIS CAZ7
 BAR2 SZ IP        933 33.08                             170    0.1210 25.0 184 
 BAR2 SZ ES   1    933 47.98                             170    0.07 7 25.0 184 
 BAR2 SZ I         933 49.32        49.6 0.28                          25.0 184 
 GIR2 SZ EP     C  933 33.06                             168    0.1510 29.0 354 
 GIR2 SZ ES   1    933 47.91                             168    0.08 7 29.0 354 
 GIR2 SZ I         933 50.01        20.6 0.34                          29.0 354 
 PAM  SZ IP        933 35.83                             150    0.2610 77.3  42 
 PAM  SN ES   1    933 52.88                             150    0.33 7 77.3  42 
 PAM  SZ I         933 54.92        21.6 0.46                          77.3  42 
 RUS  HZ EP   1    933 37.17                             142   -0.13 7  103 175 
 RUS  HN ES   1    933 55.03                             142   -0.60 7  103 175 
 RUS  HZ I         933 57.14        25.4 0.28                           103 175 
 PTB  HZ EP   1    933 39.71                             131   -0.55 7  146 258 
 PTB  HN ES   1    934  0.67                             131   -0.24 7  146 258 
 PTB  HZ I         934  3.05        16.1 0.28                           146 258 
 TAM  HZ I         934 18.27         8.4 0.38                           158 105 
 OCA  HZ EP   1    933 41.10                             129   -0.47 7  158 354 
 TAM  HZ IP     C  933 41.46                             129    0.06 9  158 105 
 OCA  HZ I         934  7.49        24.9 0.30                           158 354 
 TAM  HN ES   1    934  3.05                             129    0.12 7  158 105 
 OCA  HN ES   1    934  3.00                             129   -0.24 7  158 354 
 ZAR  HZ EP   1    933 45.82                             122    0.14 6  201 292 
 ZAR  HN ES   1    934 10.97                             122    0.42 6  201 292 
 ZAR  HZ I         934 17.42        26.6 0.34                           201 292 
 SML  HZ EP   1    933 49.29                             117   -0.60 6  241 336 
 SML  HE ES   1    934 17.66                             117   -0.39 6  241 336 
 SML  HZ I         934 21.36        21.5 0.10                           241 336 
 CHI  HZ EP   1    933 51.04                             116   -0.37 6  250 195 
 CHI  HN ES   1    934 20.53                             116   -0.22 6  250 195 
 CHI  HZ I         934 28.05         9.0 0.46                           250 195 
 HEL  HZ EP   1    933 54.78                             114    1.17 6  270 255 
 HEL  HE ES   1    934 24.70                             114    0.03 6  270 255 
 HEL  HZ I         934 32.29         7.9 0.32                           270 255 
 PRA  HZ EP   1    934  7.64                             106    0.39 4  393 209 
 PRA  HN ES   1    934 49.41                             106    0.47 4  393 209 
 PRA  HZ I         934 52.88         7.0 0.24                           393 209 
                                                                                
