 2012  3 5 0114 53.1 L   6.714 -73.189150.7  RSN  6 0.4 1.8LRSN                1
 GAP=226        0.87       5.9     5.9  8.2  0.1423E+02  0.1891E+02  0.1112E+02E
 ACTION:DUP 12-03-31 23:17 OP:EP   STATUS:               ID:20120305011453 L   I
 2012-03-05-0110-00M.COL___191                                                 6
 STAT SP IPHASW D HRMM SECON CODA AMPLIT PERI AZIMU VELO SNR AR TRES W  DIS CAZ7
 BRR  HZ EP   1    115 15.01                             153     0.1 7   72 307 
 BRR  HZ I         115 16.54        13.6 0.10                            72 307 
 BRR  HN ES        115 32.07                             153     0.210   72 307 
 RUS  HZ EP   1    115 16.78                             147     0.0 7   92 173 
 RUS  HN ES        115 35.07                             147    -0.110   92 173 
 RUS  HZ I         115 36.55         6.1 0.36                            92 173 
 PTB  HZ EP   1    115 19.72                             134    -0.2 7  142 262 
 PTB  HE ES   1    115 40.69                             134    -0.2 7  142 262 
 PTB  HZ I         115 44.43         0.0 0.17                           142 262 
 ZAR  HN ES   1    115 50.73                             123    -0.6 6  204 295 
 ZAR  HZ I         115 57.42         8.2 0.15                           204 295 
 NOR  SZ EP   1    115 27.57                             121    -0.6 6  225 236 
 NOR  SE ES   1    115 55.86                             121     0.4 6  225 236 
 HEL  HZ EP   1    115 33.79                             116     0.9 6  265 258 
 HEL  HN ES        116  3.90                             116     0.1 8  265 258 
 HEL  HZ I         116 12.07         5.3 0.41                           265 258 
                                                                                
