 2011 10 5 0444 25.2 L   6.809 -73.108149.5  RSN  5 0.3 1.1LRSN                1
 GAP=141        0.65       4.6     7.0  6.2 -0.5983E+00 -0.3385E+01  0.3061E+01E
 Epicentro: LOS SANTOS - SANTANDER                                             3
 ACTION:UPD 12-07-13 16:02 OP:ep   STATUS:               ID:20111005044425 L   I
 2011-10-05-0440-00M.COL___165                                                 6
 STAT SP IPHASW D HRMM SECON CODA AMPLIT PERI AZIMU VELO AIN AR TRES W  DIS CAZ7
 BAR2 SZ EP   1    444 44.92                             170   -0.37 7 25.4 199 
 BAR2 SZ ES   1    445  0.96                             170   -0.02 7 25.4 199 
 BAR2 SZ I         445  1.72         3.4 0.32                          25.4 199 
 GIR2 SZ EP   1    444 45.62                             168    0.33 7 31.3 342 
 GIR2 SZ ES   1    445  0.47                             168   -0.50 7 31.3 342 
 PAM  SZ EP   1    444 47.89                             153    0.30 7 74.0  38 
 PAM  SN ES   1    445  5.12                             153    0.05 7 74.0  38 
 PAM  SZ I         445  7.09         2.0 0.22                          74.0  38 
 BRR  HZ EP   1    444 46.85                             152   -0.06 7 74.4 296 
 BRR  HZ I         444 47.28         4.2 0.09                          74.4 296 
 BRR  HN ES   1    445  4.12                             152    0.26 7 74.4 296 
 RUS  HZ EP   1    444 48.98                             144   -0.37 7  101 178 
 RUS  HZ I         444 49.45         1.1 0.14                           101 178 
 RUS  HN ES   1    445  8.59                             144    0.38 7  101 178 
                                                                                
