 2010  7 5 0754 52.6 L   6.763 -73.148145.5  RSN  7 0.5 1.5LRSN                1
 GAP=156        0.83       5.6    12.0  9.9 -0.1339E+02 -0.1631E+02 -0.1209E+02E
 Epicentro: LOS SANTOS - SANTANDER                                             3
 ACTION:UPD 10-12-01 15:15 OP:pat  STATUS:               ID:20100705075452 L   I
 2010-07-05-0750-20S.COL___118                                                 6
 STAT SP IPHASW D HRMM SECON CODA AMPLIT PERI AZIMU VELO AIN AR TRES W  DIS CAZ7
 BAR2 SZ EP   1    755 11.89                             172    -0.2 7   19 192 
 BAR2 SZ ES   2    755 26.55                             172    -0.8 5   19 192 
 BRR  HZ EP   1    755 13.91                             152     0.1 7   73 301 
 BRR  HZ I         755 14.25         8.5 0.07                            73 301 
 BRR  HE ES   2    755 30.83                             152     0.5 5   73 301 
 RUS  HZ EP   1    755 16.18                             145     0.2 7   96 176 
 RUS  HN ES   2    755 34.38                             145     0.1 5   96 176 
 BRI  SZ EP   1    755 17.49                             140     0.8 7  112  20 
 BRI  SZ ES   2    755 36.35                             140     0.8 5  112  20 
 GUE  SZ EP   1    755 17.20                             138    -0.4 7  121  12 
 GRA  SZ EP   1    755 17.97                             136    -0.2 7  130  17 
 GRA  SZ ES   2    755 37.54                             136    -0.5 5  130  17 
 OCA  SZ EP   1    755 20.79                             129    -0.5 7  164 353 
 OCA  SZ I         755 47.91         2.6 0.28                           164 353 
                                                                                
