 2014 11 5 0133 21.1 L   6.770 -73.136148.5  RSN  8 0.3 1.8LRSN                1
 GAP=139        0.90       3.0     4.5  5.7 -0.2936E+01  0.2468E+01  0.3718E+01E
 Epicentro: LOS SANTOS - SANTANDER                                             3
 ACTION:UPD 14-12-19 15:39 OP:nd   STATUS:               ID:20141105013321 L   I
 OLDACT:REG 14-11-05 12:48 OP:cam  STATUS:               ID:20141105012817     3
 2014-11-05-0128-17M.COL___274                                                 6
 STAT SP IPHASW D HRMM SECON CODA AMPLIT PERI AZIMU VELO AIN AR TRES W  DIS CAZ7
 BAR2 SZ EP        133 40.91                             172   -0.0510 20.3 195 
 BAR2 SZ ES        133 56.66                             172    0.1710 20.3 195 
 BAR2 SZ I         133 56.67        16.9 0.28            169           20.3 195 
 BRR  HZ EP        133 42.60                             152   -0.0510 73.8 300 
 BRR  HN ES        133 59.78                             152    0.2910 73.8 300 
 BRR  HN I         134  3.79        30.2 0.20            152           73.8 300 
 PAM  SZ IP     D  133 43.84                             151    0.1610 79.3  37 
 PAM  SN ES        134  0.90                             151   -0.4310 79.3  37 
 PAM  SZ I         134  2.85        10.6 0.58            156           79.3  37 
 RUS  HZ EP        133 44.84                             145    0.0110 97.1 177 
 RUS  HE ES        134  3.12                             145   -0.2710 97.1 177 
 RUS  HE I         134  6.53         3.2 0.16            146           97.1 177 
 PTB  HZ EP        133 47.89                             132   -0.40 9  148 260 
 PTB  HN ES        134  8.81                             132   -0.72 9  148 260 
 PTB  HZ I         134 14.33         5.4 0.26            133            148 260 
 SPBC HZ EP        133 49.76                             130    0.17 9  161 220 
 SPBC HN ES        134 12.56                             130    0.72 9  161 220 
 SPBC HZ I         134 16.84         5.2 0.44            130            161 220 
 OCA  HN ES        134 12.85                             130    0.44 9  164 353 
 CHI  HZ EP        133 58.52                             118   -0.07 8  246 196 
 CHI  HN ES        134 27.98                             118    0.12 8  246 196 
 CHI  HN I         134 33.86         5.3 0.54            119            246 196 
                                                                                
