 2012 12 5 0837 16.7 L   6.804 -73.170150.0  RSN  5 0.4 1.5LRSN                1
 GAP=181        0.76       4.9     6.5 11.4  0.1110E+02 -0.4452E+01 -0.2500E+02E
 Epicentro: LOS SANTOS - SANTANDER                                             3
 ACTION:UPD 13-01-04 14:25 OP:ep   STATUS:               ID:20121205083716 L   I
 2012-12-05-0830-00M.COL___237                                                 6
 STAT SP IPHASW D HRMM SECON CODA AMPLIT PERI AZIMU VELO AIN AR TRES W  DIS CAZ7
 RUS  HZ EP   1    837 40.96                             144    0.06 7  101 175 
 RUS  HN ES   1    837 59.74                             144   -0.05 7  101 175 
 PTB  HZ EP   1    837 43.63                             133   -0.15 7  145 258 
 PTB  HN ES   1    838  4.61                             133   -0.30 7  145 258 
 PTB  HZ I         838 10.49         4.3 0.40                           145 258 
 OCA  HN ES   2    838  8.34                             131    0.79 5  160 354 
 ZAR  HZ EP   1    837 49.90                             123    0.76 6  201 292 
 ZAR  HE ES   1    838 14.78                             123    0.32 6  201 292 
 ZAR  HZ I         838 23.84         2.1 0.42                           201 292 
 SML  HZ EP   1    837 52.94                             118   -0.45 6  242 336 
 SML  HN ES   1    838 21.38                             118   -0.64 6  242 336 
 SML  HZ I         838 30.72         3.0 0.10                           242 336 
                                                                                
