 2012  4 5 0342 55.2 L   6.830 -73.170137.3  RSN  5 0.4 1.1LRSN                1
 GAP=132        0.87       8.0    10.0 10.4  0.4340E+02 -0.3080E+02 -0.2473E+02E
 Epicentro: LOS SANTOS - SANTANDER                                             3
 ACTION:UPD 12-07-05 11:50 OP:tino STATUS:               ID:20120405034255 L   I
 2012-04-05-0340-00M.COL___196                                                 6
 STAT SP IPHASW D HRMM SECON CODA AMPLIT PERI AZIMU VELO AIN AR TRES W  DIS CAZ7
 BAR2 SZ EP   1    343 13.59                             169    -0.3 7   26 183 
 BAR2 SZ ES   1    343 28.53                             169     0.0 7   26 183 
 BAR2 SZ I         343 30.49         3.6 0.24                            26 183 
 BRR  HZ EP   1    343 15.63                             152     0.4 7   67 297 
 BRR  HN ES   1    343 30.50                             152    -0.4 7   67 297 
 PAM  SZ EP   1    343 16.84                             149     0.3 7   77  43 
 PAM  SZ I         343 17.01         2.5 0.14                            77  43 
 RUS  HZ EP   1    343 17.88                             141    -0.6 7  104 175 
 RUS  HN ES   1    343 36.99                             141     0.4 7  104 175 
 RUS  HZ I         343 37.83         1.4 0.21                           104 175 
 ZAR  HN ES   2    343 51.79                             121     0.4 4  200 292 
                                                                                
