 2014  4 5 0717 52.6 L   6.916 -73.627 12.3  RSN 12 0.5 2.5LRSN                1
 GAP= 87        1.22       2.9     2.9  5.7 -0.4194E+01  0.9227E+01 -0.8532E+01E
 Epicentro: SAN VICENTE DE CHUCURI - SANTANDER                                 3
 ACTION:UPD 14-05-13 23:06 OP:nd   STATUS:               ID:20140405071752 L   I
 OLDACT:UP  14-04-05 17:29 OP:cam  STATUS:               ID:20140405071636     3
 OLDACT:UP  14-04-05 17:28 OP:cam  STATUS:               ID:20140405071636     3
 OLDACT:REG 14-04-05 16:59 OP:cam  STATUS:               ID:20140405071636     3
 2014-04-05-0716-36M.COL___250                                                 6
 STAT SP IPHASW D HRMM SECON CODA AMPLIT PERI AZIMU VELO AIN AR TRES W  DIS CAZ7
 PTB  HZ IP     C  718  8.52                              95    0.0010  101 246 
 PTB  HE ES        718 20.82                              95   -0.1210  101 246 
 PTB  HZ I         718 21.07       308.1 0.16             47            101 246 
 PAM  SZ EP        718 10.90                              95    0.1110  113  65 
 PAM  SN ES        718 24.38                              95   -0.6210  113  65 
 PAM  SZ I         718 25.36       124.8 0.16             47            113  65 
 RUS  HZ EP     D  718 12.96                              94   -0.2010  128 152 
 RUS  HN ES        718 28.69                              94   -0.5110  128 152 
 RUS  HZ I         718 29.59        77.9 0.16             47            128 152 
 SPBC HZ EP     D  718 16.43                              93    0.66 9  148 199 
 SPBC HN ES        718 34.34                              93    0.49 9  148 199 
 SPBC HZ I         718 36.16       154.4 0.22             47            148 199 
 OCA  HZ EP        718 16.55                              56    0.47 9  150  13 
 OCA  HN ES        718 34.79                              56    0.38 9  150  13 
 OCA  HZ I         718 40.21        51.7 0.46             47            150  13 
 ZAR  HZ EP        718 15.78                              56   -0.13 9  150 295 
 ZAR  HN ES        718 33.58                              56   -0.53 9  150 295 
 ZAR  HZ I         718 34.81        82.9 0.28             47            150 295 
 NOR  HZ EP        718 23.37                              56    0.77 9  203 223 
 NOR  HE ES        718 45.51                              56   -0.49 9  203 223 
 NOR  HZ I         718 50.59        29.7 0.36             37            203 223 
 TAM  HZ EP   4    718 25.03                              56    1.62 0  210 105 
 SML  HZ EP   4    718 22.82                              56   -1.07 0  214 347 
 SML  HE ES   4    718 49.68                              56    1.37 0  214 347 
 SML  HZ I         718 54.90        64.9 0.24             37            214 347 
 HEL  HZ EP        718 25.94                              56    0.22 8  225 249 
 HEL  HN ES        718 50.56                              56   -1.01 8  225 249 
 HEL  HZ I         718 52.90        22.4 0.16             37            225 249 
 ROSC BZ EP   4    718 32.46                              56    4.59 0  242 199 
 CHI  HZ EP   4    718 32.59                              56    3.32 0  253 183 
 CHI  HN ES   4    719  3.53                              56    5.64 0  253 183 
 CHI  HZ I         719  7.41        12.0 0.46             37            253 183 
 GUY2CHZ EP     C  718 32.13                              56    0.87 8  268 226 
 GUY2CHN ES        719  1.30                              56   -0.12 8  268 226 
 GUY2CHZ I         719 21.26        12.3 0.64                           268 226 
 DBB  SZ EP   4    718 35.37                              55    2.44 0  286 272 
 DBB  SZ ES   4    719 10.61                              55    6.21 0  286 272 
 DBB  SZ I         719 15.92        33.5 0.42             37            286 272 
 CBOC HZ EP   4    718 35.32                              55    1.94 0  288 246 
 RREF HZ EP   4    718 35.58                              55    1.05 0  293 221 
 PAL  HZ EP   4    718 45.94                              55    2.77 0  369 233 
 ORTC HZ EP   4    718 45.79                              55    1.53 0  378 208 
 PRA  HZ EP   4    718 47.09                              55    2.48 0  381 202 
 SDV  BZ EP   4    718 48.12                              55    1.50 0  395  56 
                                                                                
