 2017  5 5 0618 53.1 L   6.830 -73.114149.8  RSN 17 0.5 2.0LRSN                1
 GAP=114        1.07       3.8     3.7  5.9  0.1553E+01  0.3977E+01  0.6927E+01E
 Epicentro: LOS SANTOS - SANTANDER                                             3
 ACTION:UPD 17-06-16 13:33 OP:jn   STATUS:               ID:20170505061853 L   I
 OLDACT:UP  17-05-05 16:56 OP:edw  STATUS:               ID:20170505061740     3
 OLDACT:REG 17-05-05 13:04 OP:edw  STATUS:               ID:20170505061740     3
 2017-05-05-0618-00M.COL___349                                                 6
 STAT SP IPHASW D HRMM SECON CODA AMPLIT PERI AZIMU VELO AIN AR TRES W  DIS CAZ7
 PAM  EZ EP     D  619 15.76                             153    0.3010 72.6  39 
 PAM  EN ES        619 33.06                             153    0.1510 72.6  39 
 PAM  EZ I         619 36.22        11.0 0.52            157           72.6  39 
 BRR  HZ IP     C  619 14.80                             153    0.0410 72.8 295 
 BRR  HN ES        619 31.90                             153    0.2410 72.8 295 
 BRR  HZ I         619 35.81        21.3 0.28            148           72.8 295 
 RUS  HZ EP        619 16.99                             144   -0.4710  104 178 
 RUS  HN ES        619 35.99                             144   -0.4810  104 178 
 RUS  HZ I         619 36.93        15.4 0.38            144            104 178 
 PTB  HZ EP   9    619 19.72                             132   -1.03 0  152 258 
 PTB  HN ES        619 41.57                             133    0.27 9  152 258 
 PTB  HZ I         619 48.02        11.5 0.42            130            152 258 
 SPBC HZ EP   4    619 24.64                             129    2.29 0  168 219 
 SPBC HE ES        619 44.92                             129   -0.25 9  168 219 
 SPBC HZ I         619 50.00        21.9 0.32            128            168 219 
 YPLC HZ EP     C  619 23.45                             127    0.15 9  178 153 
 YPLC HN ES        619 47.49                             127    0.62 9  178 153 
 YPLC HZ I         619 48.39        12.4 0.28            130            178 153 
 ZAR  HZ EP        619 26.28                             123    0.28 8  206 291 
 ZAR  HN ES        619 50.62                             123   -1.05 8  206 291 
 ZAR  HZ I         619 56.22        12.1 0.26            122            206 291 
 NOR  HZ IP     D  619 29.57                             119    0.01 8  239 234 
 NOR  HN ES   4    619 56.86                             119   -1.15 0  239 234 
 NOR  HZ I         620  4.88         7.6 0.18            118            239 234 
 CHI  HZ EP        619 31.27                             117   -0.19 8  253 196 
 CHI  HN ES   4    620  0.55                             117   -0.84 0  253 196 
 CHI  HZ I         620  4.20         6.2 0.34            118            253 196 
 ROSC BZ EP   4    619 32.90                             117    0.97 0  257 211 
 ROSC BN ES   4    620  3.70                             117    1.47 0  257 211 
 ROSC BZ I         620  7.74        13.2 0.45            117            257 211 
 HEL  HZ EP   4    619 32.20                             115   -1.77 0  276 255 
 HEL  HN ES   4    620  7.13                             115    1.27 0  276 255 
 HEL  HZ I         620 13.32         5.3 0.36            114            276 255 
 PTGC HZ IP        619 36.26                             112   -1.08 7  311 159 
 PTGC HN ES   4    620  9.70                             112   -2.15 0  311 159 
 PTGC HZ I         620 11.02         3.8 0.46            113            311 159 
 LL6C HN EP   9    619 19.02                             111   -19.6 0  322 357 
 LL6C HN ES        619 54.58                                    0.06 7  322 357 
 ELA  HZ EP   4    619 36.34                             111   -4.32 0  334 229 
 ELA  HN ES        620 18.76                             111    1.00 7  334 229 
 ELA  HZ I         620 25.53         5.2 0.44            110            334 229 
 CBOC HZ EP        619 41.11                             110    0.44 7  338 252 
 CBOC HN ES        620 18.10                             110    0.32 7  338 252 
 CBOC HZ I         620 31.30         1.5 0.58            110            338 252 
 ORTC HZ EP        619 48.27                             107    0.57 6  400 216 
 ORTC HN ES        620 30.39                             107    0.09 6  400 216 
 ORTC HZ I         620 36.68         2.7 0.48            107            400 216 
 SJC  HZ EP   4    619 46.64                             106   -2.04 0  408 326 
 SJC  HN ES   4    620 27.50                             106   -4.54 0  408 326 
 SJC  HZ I         620 43.08         1.7 0.56            107            408 326 
                                                                                
