 2016 12 5 0701 27.6 L   6.641 -73.160146.6  RSN  4 0.1 1.1LRSN                1
 GAP=254        0.41       4.8     3.1  3.8  0.5341E+01  0.3171E+01  0.1720E+01E
 Epicentro: VILLANUEVA - SANTANDER                                             3
 ACTION:UPD 17-01-11 20:12 OP:rebc STATUS:               ID:20161205070127 L   I
 OLDACT:DUP 16-12-05 18:00 OP:lv   STATUS:               ID:20161205065742d    3
 2016-12-05-0658-00M.COL___339                                                 6
 STAT SP IPHASW D HRMM SECON CODA AMPLIT PERI AZIMU VELO AIN AR TRES W  DIS CAZ7
 BAR2 EZ EP        7 1 47.32                             178    0.2010 5.90 205 
 BAR2 EZ ES        7 2  2.18                             178   -0.1610 5.90 205 
 BAR2 EZ I         7 2  5.87         4.7 0.56            175           5.90 205 
 BRR  HZ EP        7 1 49.25                             150   -0.1110 79.9 310 
 BRR  HE ES        7 2  6.45                             150    0.1210 79.9 310 
 PTB  HZ EP        7 1 54.21                             133   -0.08 9  144 266 
 PTB  HN ES        7 2 15.17                             133    0.07 9  144 266 
 PTB  HZ I         7 2 17.37         0.8 0.10            134            144 266 
 ZAR  HZ EP   4    7 2  2.38                             122    1.67 0  210 297 
 ZAR  HN ES        7 2 26.46                             122   -0.07 8  210 297 
 ZAR  HZ I         7 2 33.69         0.9 0.23            122            210 297 
                                                                                
