 2010  5 5 0631 31.2 L   6.730 -73.066144.2  RSN  9 0.3 1.7LRSN                1
 GAP=182        0.55       4.6     6.8  5.2 -0.1417E+02 -0.7352E+01  0.2517E+01E
 Epicentro: JORDAN - SANTANDER                                                 3
 ACTION:UP  10-08-24 10:02 OP:vdl  STATUS:               ID:20100505063131 L   I
 2010-05-05-0629-44S.COL___105                                                 6
 STAT SP IPHASW D HRMM SECON CODA AMPLIT PERI AZIMU VELO SNR AR TRES W  DIS CAZ7
 BAR2 SZ EP   1    631 50.43                             172    -0.1 7   20 220 
 BAR2 SZ ES   1    632  5.56                             172    -0.1 7   20 220 
 BRR  HZ EP   1    631 52.87                             148     0.0 7   83 300 
 BRR  HE ES   1    632  9.94                             148     0.2 7   83 300 
 BRR  HZ I         632 11.94        10.6 0.13                            83 300 
 BRI  SZ EP   1    631 55.15                             140    -0.1 7  113  15 
 GUE  SZ EP   2    631 55.78                             137    -0.5 5  123   7 
 GRA  SZ EP   1    631 57.30                             135     0.6 7  131  13 
 GRA  SZ ES   1    632 16.68                             135     0.0 7  131  13 
 OCA  SZ EP   2    631 59.73                             128    -0.5 5  169 350 
 CHI  HZ EP   2    632  8.63                             117     0.4 4  244 198 
 CHI  HZ I         632 41.13         2.8 0.23                           244 198 
 HEL  HZ EP   2    632 11.88                             114    -0.2 4  279 258 
 HEL  HZ I         632 49.20         2.9 0.42                           279 258 
 PRA  HZ EP   2    632 24.72                             106     0.3 3  390 211 
                                                                                
