 2013 12 5 0134  2.0 L   6.813 -73.103152.2  RSN 11 0.5 1.9LRSN                1
 GAP=187        1.26       3.6     6.7  7.6 -0.2860E+01  0.1134E+02  0.9035E+00E
 Epicentro: LOS SANTOS - SANTANDER                                             3
 ACTION:UPD 14-01-13 10:15 OP:ep   STATUS:               ID:20131205013402 L   I
 OLDACT:REG 13-12-05 08:07 OP:carl STATUS:               ID:20131205013000     3
 2013-12-05-0130-00M.COL___285                                                 6
 STAT SP IPHASW D HRMM SECON CODA AMPLIT PERI AZIMU VELO AIN AR TRES W  DIS CAZ7
 BAR2 SZ IP     C  134 22.72                             170    0.2310 25.9 200 
 BAR2 SZ ES        134 38.32                             170   -0.1310 25.9 200 
 BAR2 SZ I         134 50.54        12.6 0.54            173           25.9 200 
 BRR  HZ EP        134 24.56                             153    0.4910 74.7 296 
 BRR  HN ES        134 42.32                             153    1.0510 74.7 296 
 RUS  HZ EP        134 26.60                             145    0.0910  102 179 
 RUS  HN ES        134 45.26                             145   -0.3410  102 179 
 RUS  HZ I         134 46.06         5.5 0.42            150            102 179 
 PTB  HZ EP        134 29.26                             132   -0.71 9  153 259 
 PTB  HN ES        134 51.00                             132   -0.76 9  153 259 
 PTB  HZ I         134 53.06         7.2 0.14            137            153 259 
 OCA  HN ES        134 52.93                             131   -0.26 9  159 351 
 OCA  HN I         135  1.92        56.4 0.34            135            159 351 
 SPBC HZ EP        134 31.71                             130    0.30 9  167 220 
 SPBC HE ES        134 54.21                             130   -0.12 9  167 220 
 SPBC HZ I         134 58.29         9.5 0.16            135            167 220 
 NOR  HZ EP        134 38.69                             119    0.05 8  239 235 
 NOR  HN ES        135  7.29                             119    0.10 8  239 235 
 NOR  HZ I         135 11.87         4.5 0.16            124            239 235 
 SML  HZ EP        134 39.55                             119    0.45 8  244 334 
 SML  HN ES        135  7.07                             119   -0.94 8  244 334 
 SML  HZ I         135 15.03         7.8 0.10            122            244 334 
 CHI  HN ES        135  9.95                             118   -0.34 8  251 196 
 CHI  HN I         135 14.79         5.7 0.34            123            251 196 
 GUY2CHN ES        135 22.06                             113    0.93 7  306 235 
 GUY2CHN I         135 26.84         3.8 0.44                           306 235 
 PRA  HE ES        135 38.09                             107   -0.36 6  396 210 
                                                                                
