 2013  8 5 0803 29.6 L   6.082 -73.905 20.6  RSN  4 0.4 1.1LRSN                1
 GAP=191        0.81       3.0     4.6  5.4  0.2562E+01 -0.9824E+01 -0.8249E+01E
 Epicentro: EL PEON - SANTANDER                                                3
 ACTION:UPD 14-01-14 08:59 OP:ep   STATUS:               ID:20130805080329 L   I
 OLDACT:REG 13-08-05 08:03 OP:jn   STATUS:               ID:20130805075959     3
 2013-08-05-0759-59M.COL___269                                                 6
 STAT SP IPHASW D HRMM SECON CODA AMPLIT PERI AZIMU VELO AIN AR TRES W  DIS CAZ7
 SPBC HZ EP   1    8 3 38.21                             110   -0.22 7 51.0 201 
 SPBC HN ES   1    8 3 45.62                             110    0.29 7 51.0 201 
 PTB  HN ES        8 3 52.46                             102   -0.0610 79.2 310 
 PTB  HZ I         8 3 52.94         6.0 0.10            100           79.2 310 
 BRR  HZ EP   1    8 3 47.15                              56   -0.68 7  115  11 
 BRR  HN ES   1    8 4  2.71                              56    0.64 7  115  11 
 HEL  HN ES   1    8 4 17.37                              56    0.09 7  180 274 
 HEL  HZ I         8 4 18.65         2.4 0.18             56            180 274 
                                                                                
