 2013 11 5 0541 44.8 L   6.698 -73.199146.8  RSN  4 0.2 1.0LRSN                1
 GAP=223        0.48       3.7     3.5  3.8  0.6367E+01  0.1735E+01  0.6307E+00E
 Epicentro: VILLANUEVA - SANTANDER                                             3
 ACTION:UPD 14-01-09 16:25 OP:ep   STATUS:               ID:20131105054144 L   I
 OLDACT:DUP 13-11-05 13:59 OP:stll STATUS:               ID:20131105053841d    3
 2013-11-05-0538-40M.COL___217                                                 6
 STAT SP IPHASW D HRMM SECON CODA AMPLIT PERI AZIMU VELO AIN AR TRES W  DIS CAZ7
 BAR2 SZ EP        542  4.43                             175    0.0310 11.8 171 
 BAR2 SZ ES        542 19.57                             175   -0.1010 11.8 171 
 BRR  HZ EP        542  5.90                             152   -0.2510 72.5 309 
 BRR  HN ES        542 23.01                             152    0.2110 72.5 309 
 BRR  HZ I         542 26.77         2.4 0.12            151           72.5 309 
 RUS  HZ EP        542  8.19                             147    0.2510 90.0 172 
 RUS  HZ I         542  9.38         0.8 0.28            149           90.0 172 
 RUS  HE ES        542 25.89                             147   -0.0910 90.0 172 
 PTB  HZ EP        542 11.14                             134   -0.05 9  140 263 
 PTB  HN ES        542 31.76                             134   -0.01 9  140 263 
 PTB  HZ I         542 33.97         2.0 0.30            134            140 263 
                                                                                
