 2011  9 5 0746 42.0 L   6.838 -73.283126.2  RSN  6 0.3 1.4LRSN                1
 GAP=137        0.51       3.4     5.5  5.7  0.6141E+01 -0.4377E+01 -0.4006E+01E
 Epicentro: ZAPATOCA - SANTANDER                                               3
 ACTION:UPD 12-07-13 15:55 OP:ep   STATUS:               ID:20110905074642 L   I
 2011-09-05-0743-20S.COL___171                                                 6
 STAT SP IPHASW D HRMM SECON CODA AMPLIT PERI AZIMU VELO AIN AR TRES W  DIS CAZ7
 GIR2 SZ EP   1    746 59.37                             167    0.13 7 28.4  20 
 GIR2 SZ ES   2    747 12.64                             167   -0.07 5 28.4  20 
 BAR2 SZ EP   1    746 59.59                             166    0.17 7 29.3 158 
 BAR2 SZ ES   2    747 12.76                             166   -0.26 5 29.3 158 
 BAR2 SZ I         747 13.86        15.1 0.33                          29.3 158 
 BRR  HZ EP   1    747  0.42                             154    0.26 7 56.0 302 
 BRR  HE ES   1    747 14.65                             154    0.31 7 56.0 302 
 BRR  HZ I         747 20.08         4.4 0.21                          56.0 302 
 RUS  HZ EP   2    747  4.35                             137   -0.01 5  107 168 
 RUS  HE ES   2    747 21.29                             137   -0.53 5  107 168 
 RUS  HZ I         747 23.57         1.9 0.64                           107 168 
 OCA  SZ EP   1    747  8.33                             126    0.01 7  155 359 
 OCA  SZ ES   1    747 28.56                             126   -0.30 7  155 359 
 OCA  SZ I         747 33.35         5.3 0.26                           155 359 
 ZAR  HE ES   2    747 33.95                             120   -0.68 4  188 293 
 ZAR  HZ I         747 40.71         3.4 0.13                           188 293 
                                                                                
