 2011  5 5 0536 14.5 L   6.793 -73.133142.3  RSN 14 0.3 2.4LRSN                1
 GAP=138        0.57       2.3     3.8  4.4 -0.3630E+01  0.4229E+01  0.2403E+01E
 Epicentro: LOS SANTOS - SANTANDER                                             3
 ACTION:UP  11-06-29 08:50 OP:tino STATUS:               ID:20110505053614 L   I
 2011-05-05-0533-00S.COL___133                                                 6
 STAT SP IPHASW D HRMM SECON CODA AMPLIT PERI AZIMU VELO SNR AR TRES W  DIS CAZ7
 BTL  SZ EP   1    536 34.01                             171     0.3 7   20 313 
 BTL  SZ ES   2    536 47.87                             171    -0.8 5   20 313 
 BAR2 SZ EP   1    536 33.68                             170    -0.1 7   23 194 
 BAR2 SZ ES   2    536 48.48                             170    -0.2 5   23 194 
 BRR  HZ IP     C  536 35.54                             151     0.110   73 299 
 BRR  HN ES   2    536 51.80                             151     0.1 5   73 299 
 BRR  HZ I         536 53.88        93.7 0.11                            73 299 
 PAM  SZ EP   1    536 36.63                             150     0.3 7   77  38 
 PAM  SN ES   2    536 53.32                             150    -0.1 5   77  38 
 RUS  HZ EP   1    536 37.73                             143    -0.2 7  100 177 
 RUS  HN ES   2    536 56.45                             143     0.4 5  100 177 
 RUS  HZ I         536 58.06        57.0 0.48                           100 177 
 BRI  SZ EP   1    536 38.32                             141     0.2 7  109  20 
 BRI  SZ ES   2    536 56.86                             141     0.4 5  109  20 
 BRI  SZ I         537  2.11        15.8 0.32                           109  20 
 GRA  SZ EP   1    536 39.50                             136     0.0 7  126  17 
 GRA  SZ ES   1    536 58.82                             136    -0.1 7  126  17 
 GRA  SZ I         537  0.62        20.8 0.35                           126  17 
 OCA  SZ EP   1    536 42.64                             129     0.0 7  161 353 
 OCA  SZ ES   2    537  4.19                             129    -0.4 5  161 353 
 OCA  SZ I         537 14.55        33.0 0.41                           161 353 
 NOR  SZ EP   1    536 49.69                             118    -0.5 6  235 235 
 NOR  SN ES   1    537 18.08                             118     0.2 6  235 235 
 HEL  HZ EP   1    536 54.96                             114     0.3 6  273 256 
 HEL  HN ES   2    537 26.22                             114     0.2 4  273 256 
 HEL  HZ I         537 31.88        19.5 0.30                           273 256 
 VIL  SZ EP        536 57.36                             111    -0.4 7  303 192 
 VIL  SN ES        537 31.50                             111     0.1 7  303 192 
 VIL  SZ I         537 41.39        15.2 0.48                           303 192 
 RREF HZ EP   1    537  1.02                             110     0.4 5  322 230 
 RREF HN ES   2    537 37.03                             110     0.5 3  322 230 
 RREF HZ I         537 43.11        27.5 0.28                           322 230 
 DBB  SZ EP   1    537  1.34                             109    -0.7 5  341 274 
 DBB  SZ I         537 40.03         7.0 0.33                           341 274 
 PRA  HZ EP   1    537  7.68                             106    -0.3 4  392 210 
 PRA  HE ES   2    537 49.47                             106    -0.1 3  392 210 
                                                                                
