 2011  5 5 0048 57.7 L   6.768 -73.102137.7  RSN 13 0.3 2.5LRSN                1
 GAP=144        0.64       3.0     4.8  5.5 -0.5911E+01  0.9475E+01  0.1294E+01E
 Epicentro: LOS SANTOS - SANTANDER                                             3
 ACTION:UP  11-06-29 08:50 OP:tino STATUS:               ID:20110505004857 L   I
 2011-05-05-0047-53S.COL___132                                                 6
 STAT SP IPHASW D HRMM SECON CODA AMPLIT PERI AZIMU VELO SNR AR TRES W  DIS CAZ7
 BAR2 SZ EP   1    049 16.49                             171     0.1 7   21 204 
 BAR2 SZ ES   2    049 30.76                             171    -0.1 5   21 204 
 BAR2 SZ I         049 32.61        64.1 0.30                            21 204 
 BRR  HZ IP     D  049 18.22                             149    -0.210   77 299 
 BRR  HN ES   2    049 33.95                             149    -0.5 5   77 299 
 BRR  HZ I         049 38.47        84.1 0.13                            77 299 
 PAM  SZ EP   1    049 19.29                             149     0.2 7   77  35 
 PAM  SN ES   1    049 35.76                             149     0.0 7   77  35 
 RUS  HZ EP   1    049 20.63                             143     0.2 7   97 179 
 RUS  HE ES   2    049 38.41                             143     0.3 5   97 179 
 RUS  HZ I         049 41.56        39.8 0.27                            97 179 
 BRI  SZ EP   1    049 20.81                             139    -0.2 7  110  18 
 BRI  SZ I         049 44.40        23.4 0.76                           110  18 
 GRA  SZ EP   1    049 22.08                             135    -0.4 7  128  15 
 GRA  SZ ES   2    049 42.06                             135     0.3 5  128  15 
 GRA  SZ I         049 48.71        15.1 0.23                           128  15 
 OCA  SZ EP        049 25.80                             127     0.0 9  164 352 
 OCA  SZ ES   1    049 48.22                             127     0.4 7  164 352 
 OCA  SZ I         049 53.34        48.0 0.25                           164 352 
 NOR  SZ EP   1    049 32.68                             116    -0.5 6  237 236 
 NOR  SN ES   2    050  0.53                             116    -0.4 4  237 236 
 HEL  HZ EP   1    049 38.34                             113     0.4 6  276 257 
 HEL  HN ES   2    050 10.06                             113     0.7 4  276 257 
 HEL  HZ I         050 16.11        21.9 0.31                           276 257 
 VIL  SN ES   2    050 13.80                             111    -0.1 4  301 193 
 VIL  SZ I         050 20.59        15.8 0.69                           301 193 
 GUY  SZ EP   2    049 42.10                             110     0.6 4  305 236 
 GUY  SZ I         050 22.23        22.3 0.44                           305 236 
 RREF HZ EP   1    049 44.24                             109     0.5 5  323 230 
 RREF HZ I         050 27.01        27.8 0.27                           323 230 
 PRA  HZ EP   1    049 50.50                             105    -0.4 4  391 210 
 PRA  HN ES   2    050 32.25                             105    -0.1 3  391 210 
                                                                                
