 2010  7 5 0341 28.4 L   6.785 -73.108149.5  RSN 15 0.4 3.2LRSN                1
 GAP=129        0.77       3.4     5.5  6.3 -0.9939E+01  0.4821E+01  0.2567E+01E
 Epicentro: LOS SANTOS - SANTANDER                                             3
 ACTION:UPD 10-12-01 15:15 OP:pat  STATUS:               ID:20100705034128 L   I
 2010-07-05-0337-53S.COL___118                                                 6
 STAT SP IPHASW D HRMM SECON CODA AMPLIT PERI AZIMU VELO AIN AR TRES W  DIS CAZ7
 BAR2 SZ IP     C  341 48.36                             171    -0.110   23 201 
 BAR2 SZ ES   2    342  3.61                             171    -0.5 5   23 201 
 BRR  HZ IP     C  341 50.19                             152     0.010   76 298 
 BRR  HE ES   2    342  7.34                             152     0.1 5   76 298 
 BRR  HZ I         342 11.37       222.5 0.41                            76 298 
 RUS  HZ IP     D  341 52.22                             145    -0.210   99 178 
 RUS  HE ES   2    342 11.19                             145     0.1 5   99 178 
 RUS  HZ I         342 12.23       111.6 0.42                            99 178 
 BRI  SZ IP     C  341 52.90                             142     0.210  109  18 
 BRI  SZ ES   2    342 12.24                             142     0.7 5  109  18 
 GUE  SZ EP   1    341 54.02                             140     0.5 7  117  10 
 GRA  SZ IP     C  341 54.15                             138     0.110  126  15 
 GRA  SZ ES   2    342 14.04                             138     0.0 5  126  15 
 OCA  SZ IP        341 56.66                             130    -0.6 9  162 352 
 OCA  SZ ES   2    342 19.37                             130    -0.3 5  162 352 
 OCA  SZ I         342 23.80       132.8 0.50                           162 352 
 CHI  HZ EP   1    342  6.31                             118     0.0 6  248 196 
 CHI  HE ES   2    342 35.77                             118     0.0 4  248 196 
 CHI  HZ I         342 39.32        95.2 0.51                           248 196 
 ROSC BZ EP   1    342  8.02                             117     1.2 6  254 212 
 ROSC BE ES   2    342 36.77                             117     0.0 4  254 212 
 ROSC BZ I         342 42.18       113.7 0.72                           254 212 
 HEL  HZ EP   1    342  9.15                             115    -0.1 6  276 256 
 HEL  HN ES   2    342 40.48                             115    -0.6 4  276 256 
 HEL  HZ I         342 47.37        61.1 0.35                           276 256 
 GUY  HZ EP   1    342 12.81                             113     0.3 5  304 236 
 GUY  HN ES   2    342 47.42                             113     0.6 4  304 236 
 RREF HZ EP   1    342 14.45                             111    -0.5 5  324 230 
 RREF HE ES   2    342 51.48                             111     0.2 3  324 230 
 RREF HZ I         343  0.37       100.7 0.73                           324 230 
 SDV  BZ EP   1    342 17.84                             109    -0.5 5  358  50 
 ANIL HZ EP   1    342 19.05                             109     0.5 5  359 225 
 ANIL HN ES   2    342 57.80                             109     0.1 3  359 225 
 PRA  HZ EP   1    342 21.35                             107    -0.8 4  393 210 
 PRA  HE ES   2    343  3.05                             107    -1.0 3  393 210 
 PRA  HZ I         343  8.98        69.5 0.30                           393 210 
                                                                                
