 2016  1 5 0753 50.2 L   6.860 -73.177145.5  RSN  8 0.4 1.5LRSN                1
 GAP=130        1.08       3.7     4.5  6.5  0.1884E+00  0.7241E+01 -0.3304E+01E
 Epicentro: ZAPATOCA - SANTANDER                                               3
 ACTION:UPD 16-03-09 23:23 OP:cam  STATUS:               ID:20160105075350 L   I
 OLDACT:REG 16-01-05 12:38 OP:drio STATUS:               ID:20160105074750     3
 2016-01-05-0747-50M.COL___329                                                 6
 STAT SP IPHASW D HRMM SECON CODA AMPLIT PERI AZIMU VELO AIN AR TRES W  DIS CAZ7
 BAR2 EZ EP        754  9.89                             168   -0.0510 29.6 181 
 BAR2 EZ ES        754 25.57                             168    0.2310 29.6 181 
 BAR2 EZ I         754 26.34         3.5 0.12            168           29.6 181 
 BRR  HZ EP        754 11.23                             155    0.2410 65.1 295 
 BRR  HN ES        754 27.69                             155    0.4910 65.1 295 
 BRR  HZ I         754 29.71         4.9 0.46            152           65.1 295 
 PAM  EZ EP        754 12.28                             152    0.0410 74.8  45 
 PAM  EE ES        754 28.95                             152   -0.4810 74.8  45 
 PAM  EZ I         754 30.13         8.0 0.24            156           74.8  45 
 RUS  HZ EP        754 14.13                             142   -0.3010  107 174 
 RUS  HE ES        754 33.74                             142    0.4010  107 174 
 RUS  HZ I         754 35.73         1.6 0.18            144            107 174 
 PTB  HZ EP        754 16.62                             132   -0.35 9  146 256 
 PTB  HN ES        754 36.99                             132   -0.86 9  146 256 
 PTB  HZ I         754 43.43         3.9 0.58            131            146 256 
 SPBC HZ EP        754 19.27                             128    0.30 9  166 217 
 SPBC HN ES        754 41.06                             128   -0.36 9  166 217 
 SPBC HZ I         754 47.74         4.6 0.34            129            166 217 
 ZAR  HZ EP        754 22.32                             123    0.28 9  198 291 
 ZAR  HE ES        754 47.48                             123    0.60 9  198 291 
 ZAR  HZ I         754 52.59         5.3 0.52            123            198 291 
 SML  HZ EP        754 26.48                             118    0.48 8  236 335 
 SML  HN ES        754 53.28                             118   -0.65 8  236 335 
 SML  HZ I         755  0.45         3.6 0.26            119            236 335 
                                                                                
