 2016  5 5 0704 47.6 L   7.191 -74.029 82.7  RSN  5 0.3 1.0LRSN                1
 GAP=230        0.68       4.3     3.3  5.0 -0.8825E+01 -0.6950E+00  0.1698E+01E
 Epicentro: PUERTO WILCHES - SANTANDER                                         3
 ACTION:UPD 16-08-18 17:42 OP:cam  STATUS:               ID:20160505070447 L   I
 OLDACT:REG 16-05-05 13:08 OP:ak   STATUS:               ID:20160505065744     3
 2016-05-05-0657-44M.COL___297                                                 6
 STAT SP IPHASW D HRMM SECON CODA AMPLIT PERI AZIMU VELO AIN AR TRES W  DIS CAZ7
 BRR  HZ EP        7 4 59.90                             154    0.0010 36.2 105 
 BRR  HE ES        7 5  9.54                             154    0.0310 36.2 105 
 BRR  HZ I         7 5 11.05                             154           36.2 105 
 PTB  HZ EP        7 5  3.66                             130   -0.1210 86.1 213 
 PTB  HN ES        7 5 16.47                             130    0.0410 86.1 213 
 PTB  HZ I         7 5 20.36         2.3 0.26            131           86.1 213 
 BAR2 EZ EP        7 5  7.25                             121    0.3010  115 125 
 BAR2 EZ ES        7 5 22.37                             121    0.3110  115 125 
 BAR2 EZ I         7 5 24.71         3.2 0.36            123            115 125 
 PAM  EZ EP        7 5 10.99                             114    0.10 9  148  84 
 PAM  EN ES        7 5 28.58                             114   -0.50 9  148  84 
 PAM  EZ I         7 5 30.63         2.3 0.07            117            148  84 
 SPBC HZ EP        7 5 13.15                             111    0.19 9  170 182 
 SPBC HN ES        7 5 32.33                             111   -0.42 9  170 182 
 SPBC HZ I         7 5 34.87         1.4 0.14            113            170 182 
                                                                                
