 2014  6 5 0927  6.7 L   6.805 -73.181146.0  RSN  5 0.4 1.4LRSN                1
 GAP=179        1.04       4.2     7.5  9.1  0.3913E+01  0.1561E+02 -0.1267E+02E
 Epicentro: LOS SANTOS - SANTANDER                                             3
 ACTION:UPD 14-07-01 22:51 OP:nd   STATUS:               ID:20140605092706 L   I
 OLDACT:REG 14-06-05 13:19 OP:fm   STATUS:               ID:20140605091815     3
 2014-06-05-0918-15M.COL___262                                                 6
 STAT SP IPHASW D HRMM SECON CODA AMPLIT PERI AZIMU VELO AIN AR TRES W  DIS CAZ7
 BAR2 SZ ES        927 41.83                             170    0.0910 23.5 180 
 BAR2 SZ I         927 43.34         9.6 0.32            170           23.5 180 
 RUS  HZ EP        927 31.21                             144    0.6310  102 174 
 RUS  HN ES        927 48.63                             144   -0.5410  102 174 
 RUS  HZ I         927 52.95         1.5 0.42            146            102 174 
 PTB  HZ EP        927 32.82                             133   -0.57 9  144 258 
 PTB  HN ES        927 54.58                             133    0.41 9  144 258 
 PTB  HZ I         928  0.25         1.8 0.54            132            144 258 
 OCA  HE ES        927 57.15                             130    0.15 9  159 355 
 SML  HZ EP        927 43.25                             118    0.10 8  242 336 
 SML  HN ES        928 11.18                             118   -0.36 8  242 336 
 SML  HZ I         928 18.50         3.4 0.26            119            242 336 
                                                                                
