 2014  3 5 0134 43.7 L   6.795 -73.120137.1  RSN  9 0.5 1.8LRSN                1
 GAP=140        1.35       5.3     5.8  7.8 -0.8448E+01  0.9914E+01  0.1115E+02E
 Epicentro: LOS SANTOS - SANTANDER                                             3
 ACTION:UPD 14-04-09 23:14 OP:nd   STATUS:               ID:20140305013443 L   I
 OLDACT:REG 14-03-05 08:49 OP:nd   STATUS:               ID:20140305013047     3
 2014-03-05-0130-47M.COL___238                                                 6
 STAT SP IPHASW D HRMM SECON CODA AMPLIT PERI AZIMU VELO AIN AR TRES W  DIS CAZ7
 BAR2 SZ EP        135  2.37                             170    0.0810 23.4 197 
 BAR2 SZ ES        135 15.84                             170   -0.9510 23.4 197 
 BAR2 SZ I         135 18.88        20.3 0.42            166           23.4 197 
 BRR  HZ EP        135  4.18                             150    0.1010 74.0 298 
 BRR  HN ES        135 20.93                             150    0.9510 74.0 298 
 BRR  HZ I         135 21.74        14.0 0.10            152           74.0 298 
 PAM  SZ EP        135  5.30                             150    0.3810 76.1  38 
 PAM  SN ES        135 21.51                             150    0.0410 76.1  38 
 PAM  SZ I         135 22.88         8.6 0.20            156           76.1  38 
 RUS  HZ EP        135  6.44                             142   -0.1110 99.8 178 
 RUS  HN ES        135 24.55                             142    0.1810 99.8 178 
 RUS  HZ I         135 27.41         4.1 0.22            142           99.8 178 
 PTB  HZ EP        135  9.13                             129   -1.09 9  150 259 
 PTB  HN ES        135 30.11                             129   -0.80 9  150 259 
 PTB  HZ I         135 35.20         9.8 0.12            131            150 259 
 SPBC HZ EP        135 11.69                             127    0.01 9  165 220 
 SPBC HN ES        135 34.04                             127    0.54 9  165 220 
 SPBC HZ I         135 40.73         8.0 0.28            127            165 220 
 NOR  HZ EP        135 18.92                             116   -0.23 8  237 235 
 NOR  HN ES        135 46.83                             116    0.02 8  237 235 
 NOR  HZ I         135 52.67         4.6 0.24            118            237 235 
 CHI  HZ EP        135 20.61                             115   -0.34 8  249 196 
 CHI  HN ES        135 50.31                             115    0.30 8  249 196 
 CHI  HZ I         135 58.21         2.8 0.44            117            249 196 
 GUY2CHZ EP        135 27.71                             110    0.57 7  303 235 
 GUY2CHN ES        136  1.74                             110    0.71 7  303 235 
 GUY2CHZ I         136 10.78         4.3 0.70                           303 235 
                                                                                
