 2013  7 5 0902 55.8 L   6.736 -73.180148.0  RSN  4 0.3 1.6LRSN                1
 GAP=183        0.84      10.6     6.1  7.3 -0.4001E+01  0.2537E+01  0.3063E+00E
 Epicentro: VILLANUEVA - SANTANDER                                             3
 ACTION:UPD 13-08-12 10:35 OP:ep   STATUS:               ID:20130705090255 L   I
 OLDACT:REG 13-07-05 09:02 OP:stll STATUS:               ID:20130705085836     3
 2013-07-05-0858-36M.COL___230                                                 6
 STAT SP IPHASW D HRMM SECON CODA AMPLIT PERI AZIMU VELO AIN AR TRES W  DIS CAZ7
 BAR2 SZ EP        9 3 15.87                             174    0.2810 15.9 181 
 BAR2 SZ ES        9 3 30.85                             174   -0.1610 15.9 181 
 GIR2 SZ EP        9 3 15.97                             165    0.0210 38.0 358 
 BRR  HZ EP        9 3 16.64                             153   -0.5910 71.7 305 
 BRR  HN ES        9 3 34.26                             153    0.3210 71.7 305 
 BRR  HN I         9 3 37.21         7.3 0.22            149           71.7 305 
 PTB  HZ EP        9 3 22.85                             134    0.33 9  143 261 
 PTB  HN ES        9 3 43.17                             134   -0.18 9  143 261 
 PTB  HN I         9 3 48.74         6.4 0.32            132            143 261 
                                                                                
