 2011 10 5 0720 16.3 L   6.836 -73.041144.0  RSN  5 0.3 1.5LRSN                1
 GAP=215        0.64       6.0     9.4  5.7  0.2956E+02  0.7959E+01  0.4141E+01E
 Epicentro: LOS SANTOS - SANTANDER                                             3
 ACTION:UPD 12-07-13 16:02 OP:ep   STATUS:               ID:20111005072016 L   I
 2011-10-05-0720-00M.COL___172                                                 6
 STAT SP IPHASW D HRMM SECON CODA AMPLIT PERI AZIMU VELO AIN AR TRES W  DIS CAZ7
 BAR2 SZ EP        720 35.79                             167   -0.1210 31.2 210 
 BAR2 SZ ES   1    720 51.11                             167   -0.10 7 31.2 210 
 BAR2 SZ I         720 53.34         5.9 0.26                          31.2 210 
 GIR2 SZ EP   1    720 35.78                             167   -0.01 7 31.7 328 
 GIR2 SZ ES   1    720 51.58                             167    0.61 7 31.7 328 
 BRR  HZ EP        720 37.53                             149   -0.2610 80.0 292 
 BRR  HE ES   1    720 54.32                             149   -0.23 7 80.0 292 
 BRR  HZ I         720 58.40         8.2 0.17                          80.0 292 
 RUS  HZ EP   1    720 40.22                             142    0.05 7  104 183 
 RUS  HN ES   1    720 58.78                             142    0.00 7  104 183 
 RUS  HZ I         720 59.54         2.3 0.26                           104 183 
 HEL  HZ EP   1    720 58.48                             113    0.68 6  284 256 
 HEL  HZ I         721 35.95         2.3 0.41                           284 256 
                                                                                
