 2010  4 5 0103 25.5 L   6.829 -73.072153.2  RSN  7 0.5 2.2LRSN                1
 GAP=207        1.07       3.9     8.8  7.2 -0.6623E+01  0.1091E+02  0.3279E+01E
 Epicentro: LOS SANTOS - SANTANDER                                             3
 ACTION:UPD 10-08-24 09:57 OP:vdl  STATUS:               ID:20100405010326 L   I
 2010-04-05-0059-11S.COL___098                                                 6
 STAT SP IPHASW D HRMM SECON CODA AMPLIT PERI AZIMU VELO AIN AR TRES W  DIS CAZ7
 BAR2 SZ EP        1 3 45.86                             169    -0.310   29 205 
 BAR2 SZ ES        1 4  1.77                             169    -0.510   29 205 
 BRR  HZ EP        1 3 47.93                             153     0.110   77 294 
 BRR  HZ I         1 3 48.22        45.3 0.13                            77 294 
 BRR  HE ES        1 4  5.38                             153     0.210   77 294 
 OCA  SZ EP        1 3 54.26                             132     0.0 9  158 350 
 OCA  SZ ES        1 4 17.07                             132     0.5 9  158 350 
 OCA  SZ I         1 4 22.04        28.3 0.26                           158 350 
 CHI  HZ EP        1 4  4.09                             118    -0.1 8  254 197 
 CHI  HE ES   1    1 4 34.08                             118    -0.3 6  254 197 
 CHI  HZ I         1 4 41.05         4.6 0.55                           254 197 
 ROSC BZ EP   2    1 4  5.91                             117     1.1 4  260 212 
 ROSC BN ES        1 4 36.04                             117     0.6 8  260 212 
 ROSC BZ I         1 4 43.58         7.4 0.21                           260 212 
 RREF BZ EP   2    1 4 13.81                             112     0.9 3  330 230 
 RREF BE ES        1 4 49.79                             112    -0.1 7  330 230 
 RREF BZ I         1 4 54.31         6.2 0.31                           330 230 
 MON  HZ EP        1 4 14.70                             110    -0.6 6  357 307 
 MON  HN ES   1    1 4 52.93                             110    -1.2 5  357 307 
 MON  HZ I         1 5  8.31         4.9 0.77                           357 307 
                                                                                
