 2016  5 5 0950  4.5 L   6.750 -73.128145.6  RSN  5 0.1 1.3LRSN                1
 GAP=141        0.34       1.7     1.7  3.5 -0.7648E+00  0.2678E+01 -0.1588E+01E
 Epicentro: LOS SANTOS - SANTANDER                                             3
 ACTION:UPD 16-08-18 17:42 OP:cam  STATUS:               ID:20160505095004 L   I
 OLDACT:REG 16-05-05 20:11 OP:ak   STATUS:               ID:20160505094749     3
 2016-05-05-0947-49M.COL___300                                                 6
 STAT SP IPHASW D HRMM SECON CODA AMPLIT PERI AZIMU VELO AIN AR TRES W  DIS CAZ7
 PAM  EZ EP        950 26.82                             150   -0.0710 80.6  36 
 PAM  EE ES        950 44.31                             150   -0.0510 80.6  36 
 PAM  EZ I         950 46.50         1.9 0.58            153           80.6  36 
 RUS  HZ EP   2    950 27.73                             145   -0.10 5 94.9 177 
 RUS  HN ES        950 46.22                             145    0.1810 94.9 177 
 RUS  HZ I         950 47.85         1.7 0.30            150           94.9 177 
 PTB  HZ EP        950 31.58                             132    0.05 9  149 261 
 PTB  HE ES        950 52.56                             132   -0.06 9  149 261 
 PTB  HZ I         950 54.41         3.0 0.16            133            149 261 
 SPBC HZ EP   2    950 32.78                             130    0.08 5  160 221 
 SPBC HE ES        950 54.50                             130   -0.19 9  160 221 
 SPBC HZ I         950 57.05         3.2 0.13            132            160 221 
 ZAR  HZ EP        950 37.40                             122    0.07 8  208 293 
 ZAR  HE ES        951  3.04                             122    0.09 8  208 293 
 ZAR  HZ I         951 10.48         2.3 0.16            124            208 293 
                                                                                
