 2016  2 5 0933 11.9 L   6.915 -73.493  0.0  RSN  4 0.5 0.8LRSN                1
 GAP=175        1.18       3.6     4.2  8.3  0.6000E+01  0.2714E+01 -0.1937E+01E
 Epicentro: SAN VICENTE DE CHUCURI - SANTANDER                                 3
 ACTION:UPD 16-03-04 21:23 OP:rebc STATUS:               ID:20160205093311 L   I
 OLDACT:UP  16-02-05 18:17 OP:mh   STATUS:               ID:20160205092737     3
 OLDACT:REG 16-02-05 14:10 OP:cara STATUS:               ID:20160205092737     3
 2016-02-05-0927-37M.COL___328                                                 6
 STAT SP IPHASW D HRMM SECON CODA AMPLIT PERI AZIMU VELO AIN AR TRES W  DIS CAZ7
 PTB  HZ EP        933 29.70                              47   -0.7310  114 249 
 PTB  HN ES        933 44.71                              47   -0.1510  114 249 
 PTB  HZ I         933 46.00         1.8 0.22            146            114 249 
 RUS  HZ EP   1    933 32.22                              47    0.16 7  122 158 
 RUS  HN ES        933 48.10                              47    0.3410  122 158 
 RUS  HZ I         933 49.96         1.0 0.20            143            122 158 
 ZAR  HZ EP   1    933 38.46                              47    0.56 7  164 293 
 ZAR  HN ES        933 58.87                              47    0.70 9  164 293 
 ZAR  HZ I         934  0.90         1.5 0.24            125            164 293 
 SML  HZ EP        933 44.35                              37   -0.75 8  218 343 
 SML  HN ES        934 11.15                              37    0.17 8  218 343 
 SML  HZ I         934 20.35         1.5 0.24            114            218 343 
                                                                                
