 2013  2 5 0442 45.1 L   6.730 -73.195142.7  RSN  5 0.3 1.6LRSN                1
 GAP=226        0.79       6.2     6.0  6.8  0.2413E+02  0.9515E+01  0.2931E+01E
 Epicentro: VILLANUEVA - SANTANDER                                             3
 ACTION:UPD 13-03-12 09:30 OP:ep   STATUS:               ID:20130205044245 L   I
 2013-02-05-0440-00M.COL___241                                                 6
 STAT SP IPHASW D HRMM SECON CODA AMPLIT PERI AZIMU VELO AIN AR TRES W  DIS CAZ7
 BAR2 SZ ES        443 18.84                             174   -0.3310 15.3 175 
 BAR2 SZ I         443 21.34         8.1 0.18            170           15.3 175 
 BRR  HZ EP        443  5.65                             152   -0.2810 70.7 306 
 BRR  HN ES        443 22.51                             152    0.3710 70.7 306 
 BRR  HN I         443 22.90        11.8 0.36            153           70.7 306 
 RUS  HZ EP        443  8.00                             145   -0.0810 93.4 172 
 RUS  HN ES        443 26.32                             145    0.3510 93.4 172 
 RUS  HN I         443 28.07         4.9 0.42            145           93.4 172 
 PTB  HZ EP   1    443 11.57                             133    0.32 7  141 261 
 PTB  HN ES        443 31.22                             133   -0.39 9  141 261 
 PTB  HN I         443 35.07         4.7 0.22            133            141 261 
 ZAR  HN ES        443 42.38                             122    0.20 9  202 295 
                                                                                
