 2017  5 5 0051 10.1 L   6.773 -73.157147.4  RSN  6 0.2 1.4LRSN                1
 GAP=136        0.95       4.1     4.5  8.0 -0.9686E+00 -0.1788E+01  0.1077E+01E
 Epicentro: LOS SANTOS - SANTANDER                                             3
 ACTION:UPD 17-06-16 13:33 OP:jn   STATUS:               ID:20170505005110 L   I
 OLDACT:UP  17-05-05 13:44 OP:edw  STATUS:               ID:20170505004741d    3
 OLDACT:UP  17-05-05 13:44 OP:edw  STATUS:               ID:20170505004741d    3
 OLDACT:DUP 17-05-05 13:40 OP:edw  STATUS:               ID:20170505004741d    3
 2017-05-05-0048-00M.COL___367                                                 6
 STAT SP IPHASW D HRMM SECON CODA AMPLIT PERI AZIMU VELO AIN AR TRES W  DIS CAZ7
 BRR  HZ IP     D  051 31.38                             152   -0.0610 71.6 301 
 BRR  HN ES        051 48.42                             152    0.3310 71.6 301 
 PAM  EZ EP     C  051 32.60                             149   -0.0710 80.5  39 
 PAM  EN ES        051 49.95                             149   -0.3310 80.5  39 
 PAM  EZ I         051 51.89         7.3 0.70            152           80.5  39 
 RUS  HZ EP        051 34.07                             144    0.2710 97.7 175 
 RUS  HN ES        051 52.23                             144   -0.0710 97.7 175 
 RUS  HZ I         051 53.84         3.9 0.58            145           97.7 175 
 PTB  HZ EP   9    051 36.47                             132   -0.56 0  146 260 
 PTB  HN ES        051 56.53                             132   -0.96 9  146 260 
 PTB  HZ I         052  4.64         2.3 0.38            132            146 260 
 SPBC HN ES        052  0.36                             129   -0.17 9  160 219 
 ZAR  HZ EP   4    051 44.09                             122    1.45 0  204 293 
 ZAR  HN ES        052  8.12                             122    0.09 9  204 293 
 ZAR  HZ I         052  9.04         2.3 0.12            123            204 293 
                                                                                
