 2012  4 5 0707 43.1 L   6.703 -73.162143.4  RSN  6 0.4 1.6LRSN                1
 GAP=138        0.92       6.6     5.8  9.1  0.8336E+01  0.5884E+01 -0.5048E+01E
 Epicentro: VILLANUEVA - SANTANDER                                             3
 ACTION:UPD 12-07-05 11:50 OP:tino STATUS:               ID:20120405070743 L   I
 2012-04-05-0700-00M.COL___196                                                 6
 STAT SP IPHASW D HRMM SECON CODA AMPLIT PERI AZIMU VELO AIN AR TRES W  DIS CAZ7
 BAR2 SZ EP   1    7 8  2.60                             175     0.3 7   13 190 
 BAR2 SZ ES   1    7 8 16.76                             175    -0.5 7   13 190 
 BAR2 SZ I         7 8 19.64         9.0 0.31                            13 190 
 BRR  HZ EP   1    7 8  4.57                             151     0.3 7   75 306 
 BRR  HZ I         7 8  6.16        12.1 0.12                            75 306 
 BRR  HN ES   1    7 8 21.48                             151     0.7 7   75 306 
 PAM  SZ EP   1    7 8  5.56                             147    -0.1 7   87  36 
 PAM  SZ I         7 8  5.78         8.0 0.13                            87  36 
 PAM  SN ES   2    7 8 22.79                             147    -0.5 5   87  36 
 RUS  HZ EP   1    7 8  5.83                             146    -0.1 7   90 174 
 RUS  HN ES   1    7 8 24.00                             146     0.3 7   90 174 
 RUS  HZ I         7 8 26.56         2.8 0.28                            90 174 
 PTB  HZ EP   1    7 8  9.45                             132    -0.1 7  144 263 
 PTB  HN ES   1    7 8 29.72                             132    -0.5 7  144 263 
 PTB  HZ I         7 8 31.57         4.1 0.19                           144 263 
 ZAR  HE ES   1    7 8 40.94                             121    -0.2 6  207 295 
 ZAR  HZ I         7 8 49.51         4.0 0.30                           207 295 
                                                                                
