 2015  4 5 0603  8.7 L   6.780 -73.169149.0  RSN  9 0.5 1.8LRSN                1
 GAP=134        1.07       3.4     4.4  7.0 -0.2797E+01  0.7986E+01 -0.2667E+01E
 Epicentro: LOS SANTOS - SANTANDER                                             3
 ACTION:UPD 15-06-03 16:52 OP:cam  STATUS:               ID:20150405060308 L   I
 OLDACT:UP  15-04-05 17:11 OP:mh   STATUS:               ID:20150405055746     3
 OLDACT:UP  15-04-05 17:11 OP:mh   STATUS:               ID:20150405055746     3
 OLDACT:UP  15-04-05 17:10 OP:mh   STATUS:               ID:20150405055746     3
 OLDACT:UP  15-04-05 17:09 OP:mh   STATUS:               ID:20150405055746     3
 OLDACT:REG 15-04-05 12:27 OP:mh   STATUS:               ID:20150405055746     3
 2015-04-05-0557-46M.COL___279                                                 6
 STAT SP IPHASW D HRMM SECON CODA AMPLIT PERI AZIMU VELO AIN AR TRES W  DIS CAZ7
 BRR  HZ EP        6 3 30.45                             153    0.3610 70.0 301 
 BRR  HN ES        6 3 47.63                             153    0.8210 70.0 301 
 PAM  SZ EP        6 3 31.58                             150    0.1610 80.7  40 
 PAM  SN ES        6 3 48.77                             150   -0.3910 80.7  40 
 PAM  SZ I         6 3 51.08         7.3 0.60            155           80.7  40 
 RUS  HZ EP   1    6 3 31.91                             145   -0.68 7 98.6 174 
 RUS  HN ES        6 3 51.36                             145    0.1010 98.6 174 
 RUS  HZ I         6 3 52.39         9.0 0.26            148           98.6 174 
 PTB  HZ EP        6 3 35.57                             133   -0.06 9  145 259 
 PTB  HN ES        6 3 56.03                             133   -0.63 9  145 259 
 PTB  HZ I         6 4  3.70         6.2 0.44            133            145 259 
 SPBC HZ EP        6 3 37.71                             130    0.61 9  160 219 
 SPBC HN ES        6 3 59.02                             130   -0.26 9  160 219 
 SPBC HZ I         6 4  2.30        12.3 0.26            132            160 219 
 OCA  HZ EP   1    6 3 37.30                             130   -0.10 7  162 354 
 OCA  HN ES        6 3 59.65                             130   -0.16 9  162 354 
 OCA  HZ I         6 4  2.43        11.5 0.24            132            162 354 
 ZAR  HZ EP        6 3 41.27                             123    0.11 9  202 293 
 ZAR  HN ES        6 4  6.03                             123   -0.47 9  202 293 
 ZAR  HZ I         6 4 11.92         5.8 0.34            124            202 293 
 SML  HZ EP        6 3 44.91                             118   -0.66 8  245 336 
 SML  HN ES        6 4 14.78                             118    0.43 8  245 336 
 SML  HZ I         6 4 17.69         7.5 0.10            120            245 336 
 HEL  HZ EP   1    6 3 49.50                             116    0.80 6  269 256 
 HEL  HN ES        6 4 19.87                             116   -0.07 8  269 256 
 HEL  HZ I         6 4 27.89         2.5 0.32            117            269 256 
                                                                                
