 2013  5 5 0846 40.5 L   6.790 -73.139151.9  RSN  6 0.5 1.8LRSN                1
 GAP=138        1.11       6.1     5.9  8.8 -0.4173E+01  0.4053E+01  0.1321E+02E
 Epicentro: LOS SANTOS - SANTANDER                                             3
 ACTION:UPD 13-06-20 09:48 OP:ep   STATUS:               ID:20130505084640 L   I
 2013-05-05-0838-48M.COL___215                                                 6
 STAT SP IPHASW D HRMM SECON CODA AMPLIT PERI AZIMU VELO AIN AR TRES W  DIS CAZ7
 BAR2 SZ EP        847  0.84                             171   -0.0510 22.4 192 
 BAR2 SZ I         847  1.16         6.8 0.30            170           22.4 192 
 BRR  HZ EP        847  2.60                             153    0.1810 72.3 299 
 BRR  HN ES        847 20.26                             153    0.7710 72.3 299 
 BRR  HN I         847 23.46        20.1 0.18            153           72.3 299 
 PAM  SZ EP        847  3.66                             152    0.2210 77.7  39 
 PAM  SN ES        847 20.85                             152   -0.4410 77.7  39 
 PAM  SN I         847 21.85         6.2 0.20            157           77.7  39 
 RUS  HZ EP        847  4.70                             145   -0.1210 99.5 176 
 RUS  HN ES        847 23.81                             145    0.0410 99.5 176 
 RUS  HE I         847 26.50         5.3 0.14            147           99.5 176 
 PTB  HZ EP        847  7.54                             133   -0.52 9  148 259 
 PTB  HE ES        847 28.98                             133   -0.55 9  148 259 
 PTB  HN I         847 34.06        18.4 0.34            134            148 259 
 PRA  HZ EP        847 35.18                             108    0.97 6  391 210 
                                                                                
