 2014  5 5 0904 28.0 L   6.820 -73.084135.7  RSN  7 0.4 1.7LRSN                1
 GAP=206        0.83       3.1     4.8  8.0  0.3882E+01 -0.4434E+00 -0.8480E+01E
 Epicentro: LOS SANTOS - SANTANDER                                             3
 ACTION:UPD 15-03-16 16:55 OP:nd   STATUS:               ID:20140505090428 L   I
 OLDACT:REG 14-05-05 14:20 OP:mh   STATUS:               ID:20140505090000     3
 2014-05-05-0900-00M.COL___273                                                 6
 STAT SP IPHASW D HRMM SECON CODA AMPLIT PERI AZIMU VELO AIN AR TRES W  DIS CAZ7
 RUS  HZ EP        9 4 51.20                             141    0.2710  103 180 
 RUS  HN ES        9 5  9.02                             141    0.2210  103 180 
 PTB  HZ EP        9 4 54.37                             128   -0.47 9  155 259 
 PTB  HN ES        9 5 15.30                             128   -0.47 9  155 259 
 PTB  HZ I         9 5 19.00         4.5 0.44            130            155 259 
 SPBC HN ES        9 5 18.29                             125   -0.16 9  169 220 
 SPBC HZ I         9 5 23.05         6.4 0.18            127            169 220 
 ZAR  HZ EP        9 5  0.55                             119    0.15 8  210 291 
 ZAR  HE ES        9 5 25.79                             119    0.13 8  210 291 
 ZAR  HZ I         9 5 28.37         4.3 0.10            121            210 291 
 SML  HZ EP        9 5  4.01                             115   -0.18 8  245 334 
 SML  HN ES        9 5 32.57                             115    0.15 8  245 334 
 SML  HZ I         9 5 37.27         5.6 0.22            117            245 334 
 CHI  HZ EP   1    9 5  5.00                             114   -0.60 6  253 197 
 CHI  HN ES        9 5 34.66                             114   -0.27 8  253 197 
 CHI  HZ I         9 5 38.70         2.0 0.42            117            253 197 
 GUY2CHZ EP        9 5 12.44                             110    0.49 7  308 235 
 GUY2CHN ES        9 5 47.02                             110    0.80 7  308 235 
 GUY2CHZ I         9 5 53.77         1.8 0.36                           308 235 
                                                                                
