 2011  7 5 0215 16.4 L   6.779 -73.137146.7  RSN 13 0.5 2.5LRSN                1
 GAP=139        0.86       3.8     5.2  5.6 -0.8359E+01  0.8194E+01  0.3478E+01E
 Epicentro: LOS SANTOS - SANTANDER                                             3
 ACTION:UPD 12-07-25 13:58 OP:epov STATUS:               ID:20110705021516 L   I
 2011-07-05-0214-11S.COL___140                                                 6
 STAT SP IPHASW D HRMM SECON CODA AMPLIT PERI AZIMU VELO AIN AR TRES W  DIS CAZ7
 BTL  SZ EP        215 36.21                             171    0.1010 21.1 317 
 BAR2 SZ EP        215 36.07                             171   -0.0410 21.3 194 
 BAR2 SZ ES   1    215 51.57                             171    0.09 7 21.3 194 
 BAR2 SZ I         215 52.62       116.9 0.21                          21.3 194 
 GIR2 SZ EP   1    215 36.15                             166   -0.11 7 33.7 349 
 GIR2 SZ ES   1    215 51.48                             166   -0.26 7 33.7 349 
 BRR  HZ EP   1    215 37.87                             152    0.10 7 73.2 300 
 BRR  HN ES   1    215 55.18                             152    0.75 7 73.2 300 
 BRR  HZ I         215 57.83        93.0 0.16                          73.2 300 
 PAM  SZ EP   1    215 38.83                             151    0.04 7 78.6  38 
 PAM  SN ES   1    215 55.99                             151   -0.26 7 78.6  38 
 PAM  SZ I         215 58.30        31.8 0.48                          78.6  38 
 RUS  HZ EP   1    215 39.78                             145   -0.30 7 98.2 177 
 RUS  HE ES   1    215 58.51                             145   -0.04 7 98.2 177 
 RUS  HZ I         216  0.45        50.6 0.33                          98.2 177 
 BRI  SZ EP   1    215 40.57                             141    0.05 7  110  20 
 BRI  SZ ES   1    215 59.02                             141   -0.31 7  110  20 
 BRI  SZ I         216  2.63        44.3 0.49                           110  20 
 GRA  SZ EP   1    215 41.84                             137   -0.05 7  128  17 
 GRA  SZ ES   1    216  1.96                             137    0.19 7  128  17 
 GRA  SZ I         216  2.75        59.9 0.50                           128  17 
 NOR  SZ EP   1    215 51.39                             119   -0.74 6  234 235 
 NOR  SN ES   1    216 19.27                             119   -0.73 6  234 235 
 CHI  HZ EP   1    215 53.92                             117   -0.02 6  247 196 
 CHI  HZ I         215 56.62        19.2 0.31                           247 196 
 CHI  HN ES   1    216 23.45                             117    0.23 6  247 196 
 HEL  HZ EP   1    215 57.48                             115    0.77 6  272 256 
 HEL  HN ES   1    216 27.72                             115   -0.42 6  272 256 
 HEL  HZ I         216 34.09        24.3 0.28                           272 256 
 DBB  SZ EP   1    216  3.09                             109   -0.96 5  341 275 
 TOL  SZ EP        216  5.95                             109    1.36 7  343 225 
                                                                                
