 2017  5 5 0349  3.6 L   6.780 -73.430135.1  RSN  4 0.3 1.2LRSN                1
 GAP=199        0.90       6.6     6.2  8.8  0.2613E+02  0.3726E+01  0.6330E+01E
 Epicentro: SAN VICENTE DE CHUCURI - SANTANDER                                 3
 ACTION:UPD 17-06-16 13:33 OP:jn   STATUS:               ID:20170505034903 L   I
 OLDACT:UP  17-05-05 15:16 OP:ed   STATUS:               ID:20170505034738     3
 OLDACT:UP  17-05-05 15:16 OP:ed   STATUS:               ID:20170505034738     3
 OLDACT:REG 17-05-05 12:09 OP:edw  STATUS:               ID:20170505034738     3
 2017-05-05-0348-00M.COL___364                                                 6
 STAT SP IPHASW D HRMM SECON CODA AMPLIT PERI AZIMU VELO AIN AR TRES W  DIS CAZ7
 BRR  HZ EP        349 21.94                             159   -0.4310 47.8 319 
 BRR  HN ES        349 37.11                             159    0.0810 47.8 319 
 BRR  HZ I         349 39.26         4.9 0.30            160           47.8 319 
 RUS  HZ EP        349 27.23                             140    0.5610  105 159 
 RUS  HN ES        349 44.54                             140   -0.1310  105 159 
 PTB  HZ EP        349 26.53                             137   -0.3910  117 257 
 PTB  HN ES        349 45.09                             137   -0.0210  117 257 
 PTB  HZ I         349 48.18         1.7 0.38            138            117 257 
 ZAR  HN ES        349 55.43                             124    0.40 9  176 297 
                                                                                
