 2015  9 5 0913  4.7 L   6.793 -73.071148.3  RSN 12 0.6 2.0LRSN                1
 GAP=190        1.40       3.8     6.7  7.2 -0.2490E+01  0.9504E+01  0.1028E+01E
 Epicentro: LOS SANTOS - SANTANDER                                             3
 ACTION:UPD 15-10-28 16:24 OP:cam  STATUS:               ID:20150905091304 L   I
 OLDACT:REG 15-09-05 12:44 OP:stll STATUS:               ID:20150905090748     3
 2015-09-05-0907-48M.COL___349                                                 6
 STAT SP IPHASW D HRMM SECON CODA AMPLIT PERI AZIMU VELO AIN AR TRES W  DIS CAZ7
 BAR2 EZ EP        913 24.97                             170    0.2610 25.4 209 
 BAR2 EZ ES        913 40.30                             170    0.0210 25.4 209 
 BAR2 EZ I         913 41.66        12.0 0.28            168           25.4 209 
 BRR  HZ EP        913 26.62                             150    0.0210 78.9 296 
 BRR  HN ES        913 44.36                             150    0.7110 78.9 296 
 BRR  HZ I         913 49.16        11.5 0.12            149           78.9 296 
 RUS  HZ EP        913 28.95                             145    0.2910 99.6 181 
 RUS  HN ES        913 47.71                             145    0.3910 99.6 181 
 RUS  HZ I         913 50.50         6.3 0.34            147           99.6 181 
 PTB  HZ EP        913 31.80                             131   -0.83 9  156 260 
 PTB  HN ES        913 53.12                             131   -1.27 9  156 260 
 PTB  HZ I         913 58.99        12.2 0.60            131            156 260 
 OCA  HZ EP        913 34.10                             130    0.68 9  162 350 
 OCA  HN ES        913 55.37                             130   -0.43 9  162 350 
 OCA  HZ I         914  0.80        14.0 0.38            132            162 350 
 SPBC HZ EP        913 33.91                             129    0.04 9  168 221 
 SPBC HN ES        913 56.13                             129   -0.47 9  168 221 
 SPBC HZ I         914  2.96        18.2 0.26            130            168 221 
 SML  HZ EP        913 41.69                             117   -0.27 8  248 334 
 SML  HN ES        914 10.33                             117   -0.67 8  248 334 
 SML  HZ I         914 14.62        13.2 0.10            119            248 334 
 CHI  HZ EP        913 42.24                             117   -0.50 8  250 197 
 CHI  HN ES        914 11.69                             117   -0.69 8  250 197 
 CHI  HZ I         914 18.24         3.7 0.22            119            250 197 
 HEL  HZ EP        913 46.68                             115    0.74 7  280 256 
 HEL  HE ES        914 19.33                             115    1.25 7  280 256 
 HEL  HZ I         914 23.69         5.9 0.32            116            280 256 
 GUY2CHZ EP        913 50.18                             112    1.01 7  308 236 
 GUY2CHE ES        914 24.16                             112    0.33 7  308 236 
 GUY2CHZ I         914 32.04         5.1 0.62                           308 236 
 CBOC HZ EP        913 52.68                             110    0.06 7  341 253 
 CBOC HZ I         913 55.21         2.0 0.38            111            341 253 
 PRA  HZ EP        913 58.35                             107   -0.39 6  395 211 
 PRA  HN ES        914 40.52                             107   -0.35 6  395 211 
 PRA  HZ I         914 44.22         3.2 0.22            108            395 211 
                                                                                
