 2016  5 5 0743 45.9 L   6.803 -73.151148.3  RSN 16 0.4 2.0LRSN                1
 GAP=136        0.97       2.6     3.3  4.8 -0.5001E+00  0.5186E+01  0.1919E+01E
 Epicentro: LOS SANTOS - SANTANDER                                             3
 ACTION:UPD 16-08-18 17:42 OP:cam  STATUS:               ID:20160505074345 L   I
 OLDACT:DUP 16-05-05 19:00 OP:ak   STATUS:               ID:20160505073743d    3
 OLDACT:DUP 16-05-05 18:52 OP:ak   STATUS:               ID:20160505073742d    3
 OLDACT:REG 16-05-05 13:11 OP:ak   STATUS:               ID:20160505073741     3
 2016-05-05-0737-41M.COL___291                                                 6
 STAT SP IPHASW D HRMM SECON CODA AMPLIT PERI AZIMU VELO AIN AR TRES W  DIS CAZ7
 BAR2 EZ EP        744  5.89                             171    0.1010 23.6 189 
 BAR2 EZ ES        744 21.25                             171   -0.0910 23.6 189 
 BAR2 EZ I         744 22.36        23.4 0.28            168           23.6 189 
 BRR  HZ IP     C  744  7.63                             153    0.3910 70.5 299 
 BRR  HN ES        744 24.60                             153    0.6810 70.5 299 
 BRR  HZ I         744 25.22        16.4 0.34            149           70.5 299 
 PAM  EZ EP     C  744  8.66                             151    0.3110 77.5  40 
 PAM  EN ES        744 26.00                             151    0.1210 77.5  40 
 PAM  EZ I         744 28.06         8.8 0.40            155           77.5  40 
 RUS  HZ EP        744  9.97                             144    0.0910  101 176 
 RUS  HN ES        744 28.55                             144   -0.0710  101 176 
 RUS  HZ I         744 29.29         6.9 0.24            145            101 176 
 PTB  HZ EP        744 12.25                             133   -0.73 9  147 259 
 PTB  HN ES        744 33.43                             133   -0.71 9  147 259 
 PTB  HZ I         744 39.22         9.8 0.66            130            147 259 
 OCA  HZ EP        744 13.80                             130   -0.53 9  160 353 
 OCA  HN ES        744 36.25                             130   -0.28 9  160 353 
 OCA  HZ I         744 39.65        27.4 0.20            131            160 353 
 SPBC HZ EP        744 14.65                             130    0.11 9  163 219 
 SPBC HN ES        744 36.48                             130   -0.43 9  163 219 
 SPBC HZ I         744 42.67                             129            163 219 
 ZAR  HZ EP        744 18.49                             123    0.09 9  203 292 
 ZAR  HN ES        744 44.17                             123    0.39 9  203 292 
 ZAR  HZ I         744 50.54        11.7 0.40            122            203 292 
 CHI  HZ EP        744 23.83                             118    0.12 8  249 195 
 CHI  HN ES        744 52.61                             118   -0.63 8  249 195 
 CHI  HZ I         744 56.78         4.6 0.62            118            249 195 
 HEL  HZ EP   2    744 27.15                             115    1.00 4  272 256 
 HEL  HN ES        744 57.42                             115   -0.15 8  272 256 
 HEL  HZ I         745  5.00         2.9 0.54            115            272 256 
 URE  HZ EP        744 26.43                             114   -0.55 7  283 292 
 URE  HN ES        744 58.85                             114   -0.20 7  283 292 
 URE  HZ I         745  9.52         6.6 0.28            114            283 292 
 CBOC HZ EP   2    744 33.48                             110    0.65 3  333 252 
 CBOC HN ES        745 10.20                             110    0.74 7  333 252 
 CBOC HZ I         745 21.20         2.5 0.88            110            333 252 
 PRA  HZ EP        744 39.52                             107    0.05 6  392 209 
 PRA  HN ES        745 22.21                             107    0.93 6  392 209 
 PRA  HZ I         745 27.01         6.0 0.30            107            392 209 
 ORTC HZ EP        744 40.13                             107    0.27 6  395 216 
 ORTC HN ES        745 22.45                             107    0.48 6  395 216 
 ORTC HZ I         745 27.18         2.4 0.26            107            395 216 
 SJC  HZ EP   4    744 39.36                             106   -2.07 0  409 327 
 SJC  HN ES   4    745 21.28                             106   -3.50 0  409 327 
 SJC  HZ I         745 29.77         2.4 0.77            106            409 327 
 CRJC HZ EP   9    744 46.27                             104   -2.12 0  467   4 
 CRJC HN ES        745 34.74                                   -0.31 5  467   4 
                                                                                
