 2013  8 5 0302  8.9 L   5.928 -73.766113.1  RSN  7 0.4 1.2LRSN                1
 GAP=135        0.76       4.2     4.0  8.2 -0.1025E+01 -0.4044E+01 -0.1398E+02E
 Epicentro: GUAVATA - SANTANDER                                                3
 ACTION:UPD 14-01-14 08:59 OP:ep   STATUS:               ID:20130805030208 L   I
 OLDACT:REG 13-08-05 07:49 OP:jn   STATUS:               ID:20130805025959     3
 2013-08-05-0259-59M.COL___269                                                 6
 STAT SP IPHASW D HRMM SECON CODA AMPLIT PERI AZIMU VELO AIN AR TRES W  DIS CAZ7
 SPBC HZ EP        3 2 25.40                             156    0.1310 45.6 228 
 RUS  HN ES   1    3 2 41.85                             144   -0.44 7 75.7  93 
 RUS  HZ I         3 2 43.88         3.1 0.34            145           75.7  93 
 PTB  HN ES        3 2 44.61                             134   -0.2410  102 312 
 PTB  HZ I         3 2 45.33         3.3 0.30            137            102 312 
 NOR  HE ES   1    3 2 49.42                             127    0.12 7  129 252 
 BRR  HZ EP        3 2 31.68                             127   -0.0410  131   3 
 BRR  HN ES   1    3 2 49.88                             127    0.39 7  131   3 
 BRR  HZ I         3 2 52.62         3.3 0.14            129            131   3 
 GIR2 SZ EP        3 2 33.55                             124    0.49 9  142  26 
 SML  HZ EP   1    3 2 51.95                             103   -0.87 5  320 354 
 SML  HE ES        3 3 26.88                             103   -0.17 7  320 354 
                                                                                
