 2013  6 5 0457 22.9 L   6.780 -73.172139.3  RSN  8 0.3 1.8LRSN                1
 GAP=134        0.64       2.8     4.5  5.4 -0.2655E+00 -0.5100E+00  0.2231E+01E
 Epicentro: LOS SANTOS - SANTANDER                                             3
 ACTION:UPD 14-01-08 09:52 OP:ep   STATUS:               ID:20130605045722 L   I
 2013-06-05-0450-00M.COL___257                                                 6
 STAT SP IPHASW D HRMM SECON CODA AMPLIT PERI AZIMU VELO AIN AR TRES W  DIS CAZ7
 BAR2 SZ EP   1    457 41.52                             171   -0.23 7 20.8 183 
 BAR2 SZ ES   1    457 56.51                             171    0.10 7 20.8 183 
 BAR2 SZ I         457 57.92         8.5 0.18            170           20.8 183 
 BRR  HZ EP   1    457 43.83                             152    0.52 7 69.8 301 
 BRR  HN ES        457 59.41                             152    0.2010 69.8 301 
 BRR  HN I         458  5.50        12.8 0.18            150           69.8 301 
 PAM  SZ EP   1    457 44.89                             149    0.20 7 80.9  40 
 RUS  HZ EP   1    457 45.71                             143   -0.21 7 98.7 174 
 RUS  HN ES   1    458  3.75                             143   -0.10 7 98.7 174 
 RUS  HN I         458  6.16         8.0 0.34            145           98.7 174 
 PTB  HZ EP   1    457 48.52                             131   -0.57 7  145 259 
 PTB  HN ES   1    458  9.23                             131   -0.26 7  145 259 
 PTB  HZ I         458 11.35         2.8 0.24            131            145 259 
 OCA  HN ES        458 12.58                             128   -0.19 9  162 354 
 OCA  HN I         458 14.27        20.5 0.26            130            162 354 
 SML  HN ES   4    458 25.63                             116   -2.03 0  245 336 
 SML  HN I         458 30.14        14.3 0.10            117            245 336 
 PRA  HZ EP   1    458 16.38                             106    0.52 4  389 209 
 PRA  HN ES   1    458 57.67                             106    0.54 4  389 209 
 PRA  HN I         459  3.53         2.1 0.34            107            389 209 
                                                                                
