 2011  9 5 0508 47.0 L   6.050 -73.778 95.1  RSN  6 0.2 1.3LRSN                1
 GAP=143        0.41       3.2     2.7  9.4 -0.5502E+00  0.1182E+02 -0.4932E+01E
 Epicentro: EL PEON - SANTANDER                                                3
 ACTION:UPD 12-07-13 15:55 OP:ep   STATUS:               ID:20110905050847 L   I
 2011-09-05-0504-51S.COL___171                                                 6
 STAT SP IPHASW D HRMM SECON CODA AMPLIT PERI AZIMU VELO AIN AR TRES W  DIS CAZ7
 RUS  HZ EP   1    5 9  4.10                             138   -0.20 7 78.9 103 
 RUS  HZ I         5 9  4.58         4.6 0.14                          78.9 103 
 RUS  HN ES   2    5 9 18.08                             138    0.30 5 78.9 103 
 BAR2 SZ ES   2    5 9 18.76                             134    0.04 5 89.1  48 
 BAR2 SZ I         5 9 20.46         9.8 0.48                          89.1  48 
 BRR  HZ EP   1    5 9  7.36                             125    0.17 7  117   4 
 BRR  HE ES   2    5 9 22.61                             125   -0.30 5  117   4 
 BRR  HZ I         5 9 27.99         4.5 0.15                           117   4 
 NOR  SN ES   2    5 9 25.60                             122   -0.23 5  132 246 
 HEL  HN ES   2    5 9 39.17                             112    0.39 4  194 275 
 HEL  HZ I         5 9 40.31         1.5 0.41                           194 275 
 ZAR  HN ES   2    5 9 38.88                             111   -0.07 4  199 323 
 ZAR  HZ I         5 9 40.06         2.8 0.17                           199 323 
                                                                                
