 2016  8 5 0449 50.7 L   6.552 -73.486113.3  RSN  5 0.2 1.4LRSN                1
 GAP=105        0.60       2.5     3.4  4.9  0.3144E+01  0.7926E+01  0.1811E+01E
 Epicentro: EL CARMEN - SANTANDER                                              3
 ACTION:UPD 16-10-29 15:32 OP:rebc STATUS:               ID:20160805044950 L   I
 OLDACT:UP  16-08-05 16:49 OP:edw  STATUS:               ID:20160805044737     3
 OLDACT:REG 16-08-05 13:05 OP:edw  STATUS:               ID:20160805044737     3
 2016-08-05-0448-00M.COL___344                                                 6
 STAT SP IPHASW D HRMM SECON CODA AMPLIT PERI AZIMU VELO AIN AR TRES W  DIS CAZ7
 BAR2 EZ EP        450  6.76                             162   -0.0110 33.8  83 
 BAR2 EZ ES        450 19.41                             162    0.1010 33.8  83 
 BRR  HZ EP        450  7.55                             147   -0.5610 66.2 338 
 BRR  HN ES        450 21.78                             147    0.0910 66.2 338 
 RUS  HZ EP        450 10.35                             141    0.1710 85.5 149 
 RUS  HN ES        450 25.38                             141   -0.0110 85.5 149 
 SPBC HZ EP        450 12.67                             130    0.1710  119 213 
 SPBC HE ES        450 29.32                             130   -0.1910  119 213 
 SPBC HZ I         450 31.99         2.8 0.10                           119 213 
 ZAR  HZ EP        450 19.16                             117    0.13 9  184 305 
 ZAR  HN ES        450 41.29                             117    0.16 9  184 305 
 ZAR  HZ I         450 43.26         4.1 0.53                           184 305 
                                                                                
