 2013  2 5 0146 36.3 L   6.666 -73.180143.0  RSN  4 0.1 1.2LRSN                1
 GAP=223        0.35       3.7     3.6  4.6  0.4249E+01 -0.1995E+01  0.3134E+01E
 Epicentro: VILLANUEVA - SANTANDER                                             3
 ACTION:UPD 13-03-12 09:30 OP:ep   STATUS:               ID:20130205014636 L   I
 2013-02-05-0140-00M.COL___240                                                 6
 STAT SP IPHASW D HRMM SECON CODA AMPLIT PERI AZIMU VELO AIN AR TRES W  DIS CAZ7
 BAR2 SZ EP   1    146 55.45                             177    0.02 7 8.22 182 
 BAR2 SZ I         147 13.10         3.9 0.16            168           8.22 182 
 BRR  HZ EP        146 57.40                             150   -0.1010 76.4 310 
 BRR  HN ES        147 14.05                             150    0.0510 76.4 310 
 BRR  HN I         147 15.04         4.6 0.18            152           76.4 310 
 RUS  HZ EP   2    146 58.72                             147   -0.11 5 86.2 173 
 RUS  HN ES   2    147 16.41                             147    0.04 5 86.2 173 
 RUS  HN I         147 19.76         1.5 0.20            139           86.2 173 
 PTB  HZ EP   1    147  2.78                             133    0.23 7  142 264 
 PTB  HN ES   1    147 22.87                             133   -0.12 7  142 264 
 PTB  HN I         147 28.47         3.2 0.50            131            142 264 
                                                                                
