 2012  6 5 0115  1.7 L   6.682 -73.481108.4  RSN  4 0.3 1.5LRSN                1
 GAP=166        0.63       6.2     5.0 10.3  0.1789E+02  0.2268E+02 -0.3209E+01E
 Epicentro: EL CARMEN DE CHUCURI - SANTANDER                                   3
 ACTION:UPD 12-08-06 17:47 OP:ep   STATUS:               ID:20120605011458 L   I
 2012-06-05-0110-00M.COL___201                                                 6
 STAT SP IPHASW D HRMM SECON CODA AMPLIT PERI AZIMU VELO AIN AR TRES W  DIS CAZ7
 BAR2 SZ EP   1    115 17.17                             161   -0.07 7 34.5 107 
 BAR2 SZ ES   1    115 29.14                             161   -0.22 7 34.5 107 
 BAR2 SZ I         115 30.95        20.2 0.18            169           34.5 107 
 RUS  HN ES        115 37.65                             135    0.2410 97.8 153 
 PTB  HZ EP   1    115 21.72                             131   -0.40 7  109 262 
 PTB  HN ES   1    115 37.90                             131   -0.14 7  109 262 
 PTB  HZ I         115 42.77         4.1 0.08            134            109 262 
 ZAR  HN ES   1    115 50.77                             117    0.51 7  177 301 
                                                                                
