 2012  7 5 0918 19.2 L   6.789 -73.181146.1  RSN  5 0.4 1.3LRSN                1
 GAP=233        1.01      10.7     9.8 12.1  0.5713E+02  0.2729E+02 -0.1040E+02E
 Epicentro: LOS SANTOS - SANTANDER                                             3
 ACTION:UPD 12-08-14 11:42 OP:ep   STATUS:               ID:20120705091819 L   I
 2012-07-05-0910-00M.COL___201                                                 6
 STAT SP IPHASW D HRMM SECON CODA AMPLIT PERI AZIMU VELO AIN AR TRES W  DIS CAZ7
 BAR2 SZ EP   1    918 38.85                             171     0.0 7   22 181 
 BAR2 SZ ES   1    918 53.33                             171    -0.8 7   22 181 
 BAR2 SZ I         918 55.22         6.0 0.23            168             22 181 
 BRR  HZ EP   1    918 40.36                             153     0.1 7   68 301 
 BRR  HZ I         918 41.07         4.9 0.31            154             68 301 
 BRR  HN ES   1    918 57.27                             153     0.6 7   68 301 
 RUS  HN ES   1    919  1.82                             144     0.4 7  100 174 
 RUS  HZ I         919  3.15         3.0 0.30            143            100 174 
 PTB  HZ EP   1    918 45.60                             133    -0.2 7  144 259 
 PTB  HN ES   1    919  6.57                             133     0.0 7  144 259 
 PTB  HZ I         919  8.64         2.0 0.18            132            144 259 
 ZAR  HN ES   1    919 16.12                             123    -0.3 6  201 293 
