 2011  4 5 0619 38.0 L   6.174 -73.832 32.0  RSN  5 0.4 1.8LRSN                1
 GAP=213        0.73       9.1     5.0 19.1 -0.2117E+02  0.2382E+02 -0.5278E+02E
 Epicentro: LANDAZURI - SANTANDER                                              3
 ACTION:UP  11-06-22 15:28 OP:REBC STATUS:               ID:20110405061938 L   I
 2011-04-05-0618-02S.COL___122                                                 6
 STAT SP IPHASW D HRMM SECON CODA AMPLIT PERI AZIMU VELO SNR AR TRES W  DIS CAZ7
 BAR2 SZ EP   1    619 51.79                              61     0.0 8   85  57 
 BAR2 SZ ES   2    620  1.71                              61    -0.9 5   85  57 
 BAR2 SZ I         620  6.83        16.8 0.42                            85  57 
 BTL  SZ EP        619 54.43                              61     0.410  103  37 
 BRR  HZ EP        619 53.93                              61     0.110  104   7 
 BRR  HZ I         619 54.30        34.9 0.12                           104   7 
 BRR  HN ES   2    620  6.03                              61    -0.2 5  104   7 
 HEL  HZ EP   2    620  4.59                              61    -0.2 4  188 271 
 HEL  HE ES   2    620 25.37                              61    -0.3 4  188 271 
 HEL  HZ I         620 26.96         7.0 0.25                           188 271 
 OCA  SZ EP   2    620 10.32                              61    -0.1 4  235  14 
                                                                                
