 2013  3 5 0507 48.6 L   6.731 -73.151146.9  RSN  4 0.4 1.4LRSN                1
 GAP=231        0.93       8.2     7.4  8.4  0.2797E+02  0.2840E+01  0.6772E+01E
 Epicentro: JORDAN - SANTANDER                                                 3
 ACTION:UPD 13-04-09 13:59 OP:ep   STATUS:               ID:20130305050748 L   I
 2013-03-05-0500-00M.COL___228                                                 6
 STAT SP IPHASW D HRMM SECON CODA AMPLIT PERI AZIMU VELO AIN AR TRES W  DIS CAZ7
 BAR2 SZ EP   1    5 8  8.11                             174   -0.14 7 15.7 193 
 BAR2 SZ ES   1    5 8 22.70                             174   -0.86 7 15.7 193 
 BAR2 SZ I         5 8 26.24         6.9 0.23            172           15.7 193 
 BRR  HZ EP        5 8  9.98                             152   -0.1010 74.6 304 
 BRR  HZ I         5 8 10.25         5.9 0.21            154           74.6 304 
 BRR  HE ES        5 8 27.32                             152    0.5010 74.6 304 
 RUS  HZ EP        5 8 12.28                             146    0.3410 93.0 175 
 RUS  HN ES   1    5 8 30.47                             146    0.33 7 93.0 175 
 RUS  HN I         5 8 32.41         4.4 0.28            146           93.0 175 
 PTB  HZ EP        5 8 15.18                             133   -0.32 9  146 262 
 PTB  HE ES        5 8 36.36                             133   -0.11 9  146 262 
 PTB  HZ I         5 8 38.19         3.0 0.13            135            146 262 
                                                                                
