 2016 10 5 0101 40.2 L   6.808 -73.540 26.3  RSN  5 0.3 0.9LRSN                1
 GAP=151        0.87       9.4     7.0 10.6  0.6155E+02  0.6775E+02  0.9354E+02E
 Epicentro: EL CARMEN - SANTANDER                                              3
 ACTION:UPD 16-11-09 19:16 OP:rebc STATUS:               ID:20161005010140 L   I
 OLDACT:UP  16-10-05 14:02 OP:dani STATUS:               ID:20161005005741     3
 OLDACT:UP  16-10-05 14:02 OP:dani STATUS:               ID:20161005005741     3
 OLDACT:UP  16-10-05 14:01 OP:dani STATUS:               ID:20161005005741     3
 OLDACT:REG 16-10-05 12:29 OP:dani STATUS:               ID:20161005005741     3
 2016-10-05-0058-00M.COL___366                                                 6
 STAT SP IPHASW D HRMM SECON CODA AMPLIT PERI AZIMU VELO AIN AR TRES W  DIS CAZ7
 BRR  HZ EP        1 1 48.02                             117    0.5010 38.1 330 
 BRR  HE ES        1 1 52.77                             117   -0.4810 38.1 330 
 BRR  HZ I         1 1 54.91         9.0 0.11             47           38.1 330 
 BAR2 EZ EP        1 1 48.69                             112   -0.1610 46.2 121 
 BAR2 EZ ES        1 1 55.70                             112    0.0910 46.2 121 
 BAR2 EZ I         1 1 56.48         7.7 0.27             47           46.2 121 
 PTB  HZ EP        1 1 56.96                              61    0.2010  106 254 
 PTB  HN ES        1 2  9.59                              61   -0.1010  106 254 
 PTB  HZ I         1 2 10.98         2.8 0.12             47            106 254 
 RUS  HZ EP        1 1 58.63                              61    0.3610  113 153 
 RUS  HE ES        1 2 11.99                              61   -0.4110  113 153 
 RUS  HZ I         1 2 12.92         2.6 0.15             47            113 153 
 ZAR  HZ EP   4    1 2  0.95                              61   -3.11 0  164 298 
 ZAR  HE ES   4    1 2 23.23                              61    0.54 0  164 298 
 ZAR  HZ I         1 2 27.32         1.2 0.11             47            164 298 
                                                                                
