 2016  3 5 0829 59.3 L   6.836 -73.152142.4  RSN 11 0.6 2.0LRSN                1
 GAP=134        1.26       3.6     5.4  7.5 -0.3891E+01  0.1221E+02  0.2803E+01E
 Epicentro: LOS SANTOS - SANTANDER                                             3
 ACTION:UPD 16-05-13 21:21 OP:cam  STATUS:               ID:20160305082959 L   I
 OLDACT:UP  16-03-05 14:52 OP:ar   STATUS:               ID:20160305082749     3
 OLDACT:UP  16-03-05 14:52 OP:ar   STATUS:               ID:20160305082749     3
 OLDACT:REG 16-03-05 13:11 OP:ar   STATUS:               ID:20160305082749     3
 2016-03-05-0827-49M.COL___315                                                 6
 STAT SP IPHASW D HRMM SECON CODA AMPLIT PERI AZIMU VELO AIN AR TRES W  DIS CAZ7
 BAR2 EZ EP        830 18.59                             169    0.0110 27.2 187 
 BAR2 EZ ES        830 33.65                             169    0.0110 27.2 187 
 BAR2 EZ I         830 35.17        33.6 0.36            167           27.2 187 
 PAM  EZ EP        830 21.44                             151    0.4710 74.8  42 
 PAM  EN ES        830 38.44                             151    0.5510 74.8  42 
 RUS  HZ EP        830 22.52                             142   -0.4710  105 176 
 RUS  HN ES        830 41.51                             142    0.0210  105 176 
 RUS  HZ I         830 42.07         7.4 0.22            145            105 176 
 PTB  HZ EP        830 25.54                             131   -0.44 9  148 257 
 PTB  HN ES        830 46.74                             131   -0.07 9  148 257 
 PTB  HZ I         830 52.35         7.6 0.36            129            148 257 
 OCA  HZ EP        830 26.37                             130   -0.56 9  156 353 
 OCA  HE ES        830 48.16                             130   -0.35 9  156 353 
 OCA  HZ I         830 55.03        12.2 0.14            129            156 353 
 SPBC HZ EP        830 27.44                             128   -0.33 9  166 218 
 SPBC HN ES        830 49.70                             128   -0.31 9  166 218 
 SPBC HZ I         830 54.28        20.6 0.20            128            166 218 
 ZAR  HZ EP   2    830 32.32                             122    1.05 4  202 291 
 ZAR  HN ES        830 56.22                             122   -0.02 9  202 291 
 ZAR  HZ I         831  3.08        10.4 0.40            121            202 291 
 CHI  HZ EP        830 36.57                             116   -0.62 8  252 195 
 CHI  HN ES        831  5.94                             116   -0.82 8  252 195 
 CHI  HZ I         831  9.38         6.2 0.62            118            252 195 
 ROSC BZ EP        830 38.55                             116    1.00 8  256 210 
 ROSC BN ES        831  8.25                             116    0.84 8  256 210 
 ROSC BZ I         831 13.14        13.2 0.45            117            256 210 
 URE  HZ EP   4    830 43.87                             113    3.93 0  282 291 
 URE  HN ES   4    831 10.51                             113   -1.15 0  282 291 
 URE  HZ I         831 22.34         5.0 0.18            113            282 291 
 GUY2CHZ EP        830 44.27                             111    1.35 7  303 234 
 GUY2CHN ES   2    831 17.41                             111    0.43 4  303 234 
 GUY2CHZ I         831 24.72         5.1 0.36                           303 234 
                                                                                
