 2013  5 5 1924 26.2 L   6.759 -73.112143.6  RSN  6 0.4 1.9LRSN                1
 GAP=143        0.89       5.1     6.0  8.5 -0.4787E+01  0.9497E+01  0.3564E+01E
 Epicentro: LOS SANTOS - SANTANDER                                             3
 ACTION:UPD 13-06-20 09:48 OP:ep   STATUS:               ID:20130505192426 L   I
 2013-05-05-1920-00M.COL___253                                                 6
 STAT SP IPHASW D HRMM SECON CODA AMPLIT PERI AZIMU VELO AIN AR TRES W  DIS CAZ7
 GIR2 SZ EP   1   1924 46.60                             165    0.80 7 36.5 346 
 BRR  HZ EP       1924 47.53                             150    0.0610 76.7 300 
 BRR  HE ES       1925  4.41                             150    0.3710 76.7 300 
 BRR  HE I        1925  5.14        34.5 0.20            150           76.7 300 
 PAM  SZ EP   1   1924 48.51                             150    0.21 7 78.7  35 
 PAM  SN ES       1925  5.11                             150   -0.4010 78.7  35 
 PAM  SN I        1925  7.13         7.3 0.40            151           78.7  35 
 RUS  HZ EP   1   1924 49.34                             145   -0.10 7 95.9 178 
 RUS  HE ES   2   1925  7.34                             145   -0.19 5 95.9 178 
 RUS  HE I        1925  8.81         7.1 0.22            145           95.9 178 
 NOR  HN ES   1   1925 29.01                             118   -0.70 6  235 236 
 NOR  HN I        1925 31.95         7.7 0.14            118            235 236 
 SML  HZ EP   1   1925  3.42                             116    0.06 6  249 335 
 SML  HE ES   1   1925 31.58                             116   -0.74 6  249 335 
 SML  HE I        1925 34.94         7.3 0.10            117            249 335 
                                                                                
