 2017  3 5 1544 50.5 L   7.375 -73.373114.3  RSN  5 0.2 1.6LRSN                1
 GAP=178        0.54       4.3     2.4  5.0  0.2260E+01  0.1159E+00 -0.8998E+01E
 Epicentro: SABANA DE TORRES - SANTANDER                                       3
 ACTION:UPD 17-05-25 18:36 OP:jn   STATUS:               ID:20170305154450 L   I
 OLDACT:UP  17-03-05 23:35 OP:dani STATUS:               ID:20170305153748     3
 OLDACT:REG 17-03-05 20:35 OP:dani STATUS:               ID:20170305153748     3
 2017-03-05-1538-00M.COL___387                                                 6
 STAT SP IPHASW D HRMM SECON CODA AMPLIT PERI AZIMU VELO AIN AR TRES W  DIS CAZ7
 BRR  HZ EP       1545  6.62                             156   -0.2910 47.7 232 
 BRR  HN ES       1545 19.53                             156   -0.2110 47.7 232 
 BRR  HZ I        1545 20.02        19.4 0.44            150           47.7 232 
 PAM  EZ EP       1545  9.35                             145    0.1210 74.4  93 
 BAR2 EZ EP     C 1545 10.07                             139    0.1010 89.0 166 
 BAR2 EZ ES       1545 25.36                             139    0.1710 89.0 166 
 BAR2 EZ I        1545 26.96         9.6 0.32            136           89.0 166 
 PTB  HZ EP       1545 15.20                             123   -0.22 9  151 232 
 PTB  HN ES       1545 34.95                             123    0.06 9  151 232 
 PTB  HZ I        1545 39.34         3.7 0.20            120            151 232 
 ZAR  HZ EP       1545 16.75                             120   -0.04 9  164 275 
 ZAR  HN ES       1545 37.65                             120    0.33 9  164 275 
 ZAR  HZ I        1545 39.95         7.1 0.16            119            164 275 
                                                                                
