 2010 12 5 1630 10.8 L   7.563 -73.563 93.7  RSN  5 0.4 1.8LRSN                1
 GAP=142        0.68       5.3     7.8 17.5  0.1039E+02  0.7892E+02  0.1314E+02E
 Epicentro: SABANA DE TORRES - SANTANDER                                       3
 ACTION:UP  11-01-14 15:22 OP:pat  STATUS:               ID:20101205163010 L   I
 2010-12-05-1628-37S.COL___133                                                 6
 STAT SP IPHASW D HRMM SECON CODA AMPLIT PERI AZIMU VELO SNR AR TRES W  DIS CAZ7
 GIR2 SZ EP   2   1630 27.14                             141     0.6 5   67 143 
 OCA  SZ EP   1   1630 27.08                             136    -0.5 7   79  20 
 OCA  SZ ES   2   1630 40.61                             136     0.0 5   79  20 
 OCA  SZ I        1630 42.93        14.5 0.34                            79  20 
 GRA  SZ EP   1   1630 28.83                             132     0.2 7   91  67 
 GRA  SZ ES   2   1630 42.65                             132     0.2 5   91  67 
 GRA  SZ I        1630 47.02        10.8 0.36                            91  67 
 BAR2 SZ ES   2   1630 46.39                             125    -0.4 5  115 159 
 BAR2 SZ I        1630 47.91        23.8 0.42                           115 159 
 MON  HZ EP   3   1630 47.26                             105    -0.7 2  267 300 
 MON  HE ES   2   1631 17.39                             105     0.5 4  267 300 
                                                                                
