 2012  9 5 1734 30.3 L   6.759 -73.152139.1  RSN  6 0.2 1.2LRSN                1
 GAP=138        0.36       3.6     5.7  4.9  0.1272E+02 -0.6940E+01 -0.1630E+01E
 Epicentro: LOS SANTOS - SANTANDER                                             3
 ACTION:UPD 12-10-22 14:17 OP:ep   STATUS:               ID:20120905173430 L   I
 2012-09-05-1730-00M.COL___218                                                 6
 STAT SP IPHASW D HRMM SECON CODA AMPLIT PERI AZIMU VELO AIN AR TRES W  DIS CAZ7
 BAR2 SZ EP       1734 49.06                             172   -0.0210 18.7 190 
 BAR2 SZ ES   3   1735  4.31                             172    0.62 2 18.7 190 
 GIR2 SZ ES   3   1735  4.15                             165   -0.03 2 35.7 353 
 BRR  HZ EP       1734 51.06                             151    0.1910 72.9 302 
 BRR  HN ES   1   1735  6.69                             151   -0.20 7 72.9 302 
 PAM  SZ EP   3   1734 52.21                             148    0.11 2 81.4  38 
 PAM  SN ES   3   1735  8.75                             148   -0.33 2 81.4  38 
 PAM  SZ I        1735 11.81         2.8 0.28                          81.4  38 
 RUS  HZ EP       1734 52.98                             144   -0.1310 96.1 175 
 RUS  HN ES   1   1735 10.97                             144    0.10 7 96.1 175 
 RUS  HZ I        1735 12.99         3.3 0.20                          96.1 175 
 PTB  HN ES   3   1735 17.07                             131   -0.07 2  146 261 
                                                                                
