 2010  6 5 1713 49.8 L   5.897 -73.629121.9  RSN  8 0.6 1.9LRSN                1
 GAP=152        1.29       7.9    11.0 17.1 -0.6951E+02  0.9981E+02 -0.5285E+02E
 Epicentro: BARBOSA - SANTANDER                                                3
 ACTION:UP  10-08-24 10:08 OP:vdl  STATUS:               ID:20100605171350 L   I
 2010-06-05-1708-41S.COL___109                                                 6
 STAT SP IPHASW D HRMM SECON CODA AMPLIT PERI AZIMU VELO SNR AR TRES W  DIS CAZ7
 BAR2 SZ EP       1714 10.39                             141     0.210   91  33 
 BAR2 SZ ES   1   1714 26.09                             141     0.0 7   91  33 
 GIR2 SZ ES   1   1714 32.88                             128    -0.5 7  139  20 
 CHI  HZ I        1714 15.31         9.6 0.28                           141 185 
 CHI  HN ES   1   1714 34.22                             128     0.0 7  141 185 
 HEL  HZ EP       1714 21.95                             116    -0.3 8  213 279 
 HEL  HZ I        1714 49.32        10.6 0.13                           213 279 
 RREF BN ES       1714 50.37                             115     0.8 8  220 240 
 RREF BZ I        1714 52.08         6.5 0.50                           220 240 
 GUE  SZ EP       1714 24.55                             114     0.7 8  227  20 
 GUE  SZ ES   1   1714 50.73                             114     0.4 6  227  20 
 TOL  SZ EP   1   1714 23.77                             113    -1.1 6  237 232 
 TOL  SZ ES   2   1714 51.09                             113    -1.2 4  237 232 
 GRA  SZ ES   1   1714 51.25                             113    -0.8 6  238  22 
                                                                                
