 2014  9 5 1308 19.8 L   6.805 -73.151144.4  RSN  9 0.4 1.8LRSN                1
 GAP=244        0.76       4.9     4.8  7.4  0.3618E+01  0.1549E+02  0.1156E+01E
 Epicentro: LOS SANTOS - SANTANDER                                             3
 ACTION:UPD 14-10-03 23:02 OP:nd   STATUS:               ID:20140905130819 L   I
 OLDACT:DUP 14-09-05 22:53 OP:fm   STATUS:               ID:20140905125820d    3
 OLDACT:DUP 14-09-05 22:44 OP:fm   STATUS:               ID:20140905125819d    3
 2014-09-05-1258-18M.COL___275                                                 6
 STAT SP IPHASW D HRMM SECON CODA AMPLIT PERI AZIMU VELO AIN AR TRES W  DIS CAZ7
 BAR2 SZ EP       13 8 39.38                             170    0.1310 23.7 188 
 BAR2 SZ ES   1   13 8 54.73                             170    0.29 7 23.7 188 
 BAR2 SZ I        13 8 55.76        13.3 0.12            169           23.7 188 
 RUS  HZ EP   1   13 8 42.88                             143   -0.55 7  101 176 
 RUS  HN ES       13 9  1.96                             143    0.0810  101 176 
 RUS  HZ I        13 9  3.68         5.4 0.20            144            101 176 
 PTB  HZ EP   1   13 8 46.12                             132   -0.47 7  147 259 
 PTB  HN ES   1   13 9  6.72                             132   -0.78 7  147 259 
 PTB  HZ I        13 9  9.58         6.9 0.40            130            147 259 
 SPBC HE ES   1   13 9 10.13                             129   -0.19 7  163 219 
 SPBC HZ I        13 9 16.05         9.1 0.20            128            163 219 
 ZAR  HZ EP   4   13 8 54.67                             122    2.61 0  203 292 
 ZAR  HN ES   1   13 9 17.70                             122    0.46 6  203 292 
 ZAR  HZ I        13 9 23.66         5.9 0.28            121            203 292 
 NOR  HE ES   1   13 9 23.24                             118    0.04 6  235 234 
 NOR  HZ I        13 9 28.78         4.9 0.14            117            235 234 
 SML  HN ES   4   13 9 24.19                             117   -0.51 0  243 335 
 SML  HZ I        13 9 29.55         6.5 0.26            117            243 335 
 CHI  HN ES   1   13 9 26.91                             117    0.10 6  249 195 
 CHI  HZ I        13 9 32.37         3.2 0.54            117            249 195 
 GUY2CHZ EP       13 9  3.71                             112    0.41 7  301 235 
 GUY2CHN ES       13 9 37.64                             112    0.39 7  301 235 
 GUY2CHZ I        13 9 46.11         3.8 0.74                           301 235 
                                                                                
