 2013  3 5 1002  5.5 L   6.779 -73.217145.8  RSN  5 0.4 1.2LRSN                1
 GAP=226        0.71       8.6     6.0  9.5  0.1357E+02  0.2076E+01 -0.1186E+02E
 Epicentro: ZAPATOCA - SANTANDER                                               3
 ACTION:UPD 13-04-09 14:00 OP:ep   STATUS:               ID:20130305100205 L   I
 2013-03-05-0958-49M.COL___193                                                 6
 STAT SP IPHASW D HRMM SECON CODA AMPLIT PERI AZIMU VELO AIN AR TRES W  DIS CAZ7
 BAR2 SZ EP   2   10 2 24.98                             171   -0.13 5 21.0 169 
 BAR2 SZ I        10 2 25.32         3.7 0.18            169           21.0 169 
 BAR2 SZ ES   2   10 2 39.79                             171   -0.60 5 21.0 169 
 BRR  HZ EP       10 2 26.73                             155    0.3610 65.7 304 
 BRR  HN ES   2   10 2 43.28                             155    0.65 5 65.7 304 
 RUS  HN ES   3   10 2 47.15                             144   -0.47 2 99.1 171 
 PTB  HZ EP       10 2 31.71                             134   -0.05 9  140 259 
 PTB  HN ES       10 2 52.34                             134    0.11 9  140 259 
 PTB  HE I        10 2 54.03         2.4 0.62            133            140 259 
 ZAR  HN ES       10 3  1.63                             123   -0.49 9  198 294 
                                                                                
