 2016  6 5 1002 29.0 L   6.795 -73.197135.6  RSN  5 0.3 1.5LRSN                1
 GAP=130        0.91       4.6     4.4  6.7 -0.1789E+01  0.3855E+01  0.1618E+01E
 Epicentro: ZAPATOCA - SANTANDER                                               3
 ACTION:UPD 16-07-21 22:15 OP:rebc STATUS:               ID:20160605100228 L   I
 OLDACT:UP  16-06-08 16:34 OP:nlst STATUS:               ID:20160605100228 L   3
 OLDACT:DUP 16-06-05 21:16 OP:ar   STATUS:               ID:20160605095741d    3
 2016-06-05-0957-40M.COL___319                                                 6
 STAT SP IPHASW D HRMM SECON CODA AMPLIT PERI AZIMU VELO AIN AR TRES W  DIS CAZ7
 BAR2 EZ EP       10 2 47.36                             170    0.0210 22.5 176 
 BAR2 EZ ES       10 3  1.33                             170   -0.3610 22.5 176 
 BAR2 EZ I        10 3  3.48         7.5 0.20                          22.5 176 
 BRR  HZ EP       10 2 49.39                             152    0.6510 66.5 301 
 BRR  HE ES       10 3  4.52                             152    0.3510 66.5 301 
 BRR  HZ I        10 3  9.14        13.3 0.30                          66.5 301 
 PAM  EZ EP       10 2 50.08                             147   -0.2810 81.5  42 
 PAM  EN ES       10 3  6.94                             147   -0.1210 81.5  42 
 PAM  EZ I        10 3  9.00         7.3 0.60                          81.5  42 
 RUS  HZ EP       10 2 51.61                             142   -0.1110  101 173 
 RUS  HN ES       10 3  9.86                             142    0.3810  101 173 
 RUS  HZ I        10 3 10.48         2.2 0.20                           101 173 
 PTB  HZ EP       10 2 54.44                             131   -0.14 9  142 259 
 PTB  HN ES       10 3 14.11                             131   -0.46 9  142 259 
 PTB  HZ I        10 3 22.24         3.1 0.38                           142 259 
                                                                                
