 2015  4 5 1745 17.7 L   7.433 -73.230127.9  RSN  7 0.4 1.5LRSN                1
 GAP=106        1.00       3.5     4.1  7.3 -0.4351E-01  0.1056E+02 -0.1161E+01E
 Epicentro: EL PLAYON - SANTANDER                                              3
 ACTION:UPD 15-06-03 16:52 OP:cam  STATUS:               ID:20150405174517 L   I
 OLDACT:DUP 15-04-05 23:48 OP:fm   STATUS:               ID:20150405173750d    3
 2015-04-05-1737-49M.COL___276                                                 6
 STAT SP IPHASW D HRMM SECON CODA AMPLIT PERI AZIMU VELO AIN AR TRES W  DIS CAZ7
 PAM  SZ EP       1745 36.93                             154   -0.0010 59.5 100 
 PAM  SN ES       1745 51.97                             154    0.0110 59.5 100 
 PAM  SZ I        1745 53.26         5.4 0.46            159           59.5 100 
 BRR  HZ EP       1745 36.94                             152    0.4510 64.3 236 
 BRR  HE ES       1745 51.59                             152    0.4110 64.3 236 
 BRR  HZ I        1745 54.05         6.7 0.18            152           64.3 236 
 OCA  HZ EP       1745 38.56                             143    0.1610 89.6 354 
 OCA  HE ES       1745 54.82                             143    0.2510 89.6 354 
 OCA  HZ I        1745 57.42         7.8 0.46            145           89.6 354 
 BAR2 EZ EP       1745 38.63                             142   -0.1510 93.1 177 
 BAR2 EZ ES       1745 54.74                             142   -0.5010 93.1 177 
 BAR2 EZ I        1745 56.80         5.8 0.16            145           93.1 177 
 PTB  HZ EP       1745 44.93                             124   -0.29 9  168 234 
 PTB  HN ES       1746  6.56                             124   -0.15 9  168 234 
 PTB  HZ I        1746  8.70         3.1 0.22            126            168 234 
 SML  HN ES       1746  7.53                             122   -0.90 9  177 329 
 SML  HZ I        1746 10.15         8.8 0.10            124            177 329 
 ZAR  HZ EP       1745 47.06                             122    0.61 9  180 272 
 ZAR  HN ES       1746  8.84                             122   -0.06 9  180 272 
 ZAR  HZ I        1746 13.47         4.7 0.34            124            180 272 
                                                                                
