 2014  6 5 1044 12.3 L   6.759 -73.448115.0  RSN  4 0.5 1.5LRSN                1
 GAP=139        1.23       8.0     6.4 12.5 -0.4312E+00  0.2491E+02 -0.5811E+02E
 Epicentro: EL CARMEN DE CHUCURI - SANTANDER                                   3
 ACTION:UPD 14-07-01 22:51 OP:nd   STATUS:               ID:20140605104412 L   I
 OLDACT:REG 14-06-05 20:40 OP:stll STATUS:               ID:20140605103809     3
 2014-06-05-1038-09M.COL___262                                                 6
 STAT SP IPHASW D HRMM SECON CODA AMPLIT PERI AZIMU VELO AIN AR TRES W  DIS CAZ7
 BAR2 SZ EP       1044 28.90                             162    0.3010 34.7 122 
 BAR2 SZ ES       1044 41.38                             162    0.0610 34.7 122 
 BAR2 SZ I        1044 42.43        16.4 0.46            170           34.7 122 
 PTB  HZ EP       1044 33.35                             132   -0.3510  114 258 
 PTB  HE ES       1044 49.83                             132   -0.5710  114 258 
 PTB  HZ I        1044 53.82         4.1 0.10            134            114 258 
 ZAR  HZ EP       1044 40.68                             119    0.84 9  176 298 
 ZAR  HN ES       1045  1.97                             119    0.65 9  176 298 
 ZAR  HZ I        1045  5.78         3.7 0.24            121            176 298 
 SML  HZ EP       1044 45.92                             111   -0.61 8  236 343 
 SML  HN ES       1045 12.82                             111   -0.40 8  236 343 
 SML  HZ I        1045 17.41         3.5 0.10            114            236 343 
                                                                                
