 2010  9 5 1836  1.3 L   6.767 -73.057148.9  RSN  5 0.3 1.9LRSN                1
 GAP=192        0.52       3.7     8.4  5.9  0.1375E+02 -0.8480E+01 -0.1514E+01E
 Epicentro: LOS SANTOS - SANTANDER                                             3
 ACTION:UP  11-02-18 11:00 OP:tino STATUS:               ID:20100905183601 L   I
 2010-09-05-1831-23S.COL___120                                                 6
 STAT SP IPHASW D HRMM SECON CODA AMPLIT PERI AZIMU VELO SNR AR TRES W  DIS CAZ7
 BAR2 SZ EP   1   1836 21.10                             171    -0.2 7   24 216 
 BAR2 SZ ES   2   1836 36.74                             171    -0.2 5   24 216 
 BAR2 SZ I        1836 38.02        13.7 0.38                            24 216 
 BRR  HZ IP     C 1836 23.22                             150    -0.210   82 298 
 BRR  HZ I        1836 23.46        22.1 0.13                            82 298 
 BRR  HE ES   1   1836 40.64                             150     0.0 7   82 298 
 RUS  HZ EP       1836 25.12                             146     0.010   97 182 
 RUS  HE ES   1   1836 43.78                             146     0.2 7   97 182 
 RUS  HZ I        1836 45.65         4.6 0.43                            97 182 
 OCA  SZ EP   2   1836 30.29                             129     0.0 5  165 350 
 OCA  SZ ES   2   1836 53.65                             129     0.7 5  165 350 
 OCA  SZ I        1836 57.57        12.6 0.39                           165 350 
 PRA  HZ EP   2   1836 54.82                             107    -0.3 3  394 211 
 PRA  HN ES   2   1837 37.75                             107     0.6 3  394 211 
 PRA  HZ I        1837 43.04         3.7 0.48                           394 211 
                                                                                
