 2015  4 5 1208  6.1 L   6.840 -73.165141.5  RSN 13 0.4 2.1LRSN                1
 GAP=132        0.99       2.8     3.6  5.5 -0.1904E+01  0.7107E+01  0.3456E+00E
 Epicentro: LOS SANTOS - SANTANDER                                             3
 ACTION:UPD 15-06-03 16:52 OP:cam  STATUS:               ID:20150405120806 L   I
 OLDACT:DUP 15-04-05 22:38 OP:fm   STATUS:               ID:20150405115752d    3
 OLDACT:REG 15-04-05 20:36 OP:fm   STATUS:               ID:20150405115750     3
 2015-04-05-1157-50M.COL___279                                                 6
 STAT SP IPHASW D HRMM SECON CODA AMPLIT PERI AZIMU VELO AIN AR TRES W  DIS CAZ7
 BAR2 EZ EP       12 8 25.48                             168    0.2110 27.5 184 
 BAR2 EZ ES   1   12 8 40.57                             168    0.32 7 27.5 184 
 BAR2 EZ I        12 8 42.09        19.8 0.18            168           27.5 184 
 BRR  HZ EP   1   12 8 26.66                             153    0.14 7 67.2 296 
 BRR  HN ES       12 8 42.84                             153    0.3510 67.2 296 
 PAM  SZ EP       12 8 28.32                             151    0.6210 75.5  43 
 PAM  SE ES       12 8 43.93                             151   -0.6610 75.5  43 
 PAM  SZ I        12 8 46.05        11.4 0.20            156           75.5  43 
 RUS  HZ EP       12 8 29.63                             142   -0.1010  105 175 
 RUS  HN ES       12 8 47.72                             142   -0.4810  105 175 
 RUS  HZ I        12 8 50.13         6.3 0.24            146            105 175 
 PTB  HZ EP       12 8 32.30                             131   -0.27 9  147 257 
 PTB  HE ES       12 8 53.23                             131   -0.02 9  147 257 
 PTB  HZ I        12 9  0.75        18.2 0.38            131            147 257 
 OCA  HN ES       12 8 55.64                             129    0.56 9  156 354 
 OCA  HZ I        12 9  1.00        31.9 0.22            131            156 354 
 SPBC HZ EP       12 8 34.47                             128    0.03 9  165 217 
 SPBC HN ES       12 8 56.73                             128    0.16 9  165 217 
 SPBC HZ I        12 9  3.82        16.4 0.22            129            165 217 
 ZAR  HZ EP       12 8 36.86                             122   -0.99 9  200 291 
 ZAR  HN ES       12 9  2.63                             122   -0.02 9  200 291 
 ZAR  HZ I        12 9  9.50        15.9 0.70            122            200 291 
 NOR  HZ EP       12 8 41.96                             117    0.33 8  236 233 
 NOR  HE ES       12 9  9.38                             117   -0.01 8  236 233 
 NOR  HZ I        12 9 15.76        10.4 0.20            119            236 233 
 SML  HZ EP       12 8 42.41                             117    0.50 8  239 335 
 SML  HE ES       12 9  9.17                             117   -0.70 8  239 335 
 SML  HZ I        12 9 14.63        12.8 0.10            119            239 335 
 HEL  HZ EP       12 8 45.92                             114   -0.03 8  271 255 
 HEL  HE ES       12 9 16.92                             114   -0.14 8  271 255 
 HEL  HZ I        12 9 25.21         8.7 0.58            115            271 255 
 URE  HE ES   4   12 9 15.92                             113   -2.15 0  280 291 
 URE  HZ I        12 9 29.42         6.0 0.16            114            280 291 
 GUY2CHZ EP       12 8 49.67                             111    0.11 7  302 234 
 GUY2CHN ES       12 9 23.74                             111    0.24 7  302 234 
 GUY2CHZ I        12 9 32.01         7.1 0.32                           302 234 
                                                                                
