 2012  5 5 1309  7.0 L   6.808 -73.102151.4  RSN  5 0.2 1.3LRSN                1
 GAP=142        0.59       4.4     4.2  6.8 -0.2021E+01  0.2099E+01  0.4565E+01E
 Epicentro: LOS SANTOS - SANTANDER                                             3
 ACTION:UP  12-07-05 12:02 OP:pat  STATUS:               ID:20120505130907 L   I
 2012-05-05-1306-48M.COL___181                                                 6
 STAT SP IPHASW D HRMM SECON CODA AMPLIT PERI AZIMU VELO SNR AR TRES W  DIS CAZ7
 BAR2 SZ EP   1   13 9 27.31                             170    -0.1 7   25 200 
 BAR2 SZ I        13 9 31.19         7.6 0.61                            25 200 
 PAM  SZ EP   1   13 9 29.57                             153    -0.1 7   74  37 
 PAM  SN ES   1   13 9 47.11                             153    -0.1 7   74  37 
 PAM  SZ I        13 9 49.15         3.3 0.66                            74  37 
 BRR  HZ EP   1   13 9 28.85                             152    -0.1 7   75 296 
 BRR  HN ES   1   13 9 46.54                             152     0.4 7   75 296 
 RUS  HZ EP   1   13 9 31.77                             145     0.4 7  101 179 
 RUS  HN ES   1   13 9 50.21                             145    -0.2 7  101 179 
 RUS  HZ I        13 9 51.61         1.8 0.42                           101 179 
 PTB  HZ EP   1   13 9 34.83                             132    -0.1 7  153 259 
 PTB  HN ES   1   13 9 56.35                             132    -0.3 7  153 259 
 PTB  HZ I        13 9 58.63         1.8 0.10                           153 259 
                                                                                
