 2015  5 5 1525 54.8 L   6.812 -73.134140.0  RSN 22 0.6 2.7LRSN                1
 GAP= 55        1.51       3.5     4.7  6.9 -0.2568E+01  0.8799E+01  0.3396E+01E
 Epicentro: LOS SANTOS - SANTANDER                                             3
 ACTION:UPD 15-09-10 22:01 OP:cam  STATUS:               ID:20150505152554 L   I
 OLDACT:REG 15-05-05 20:46 OP:stll STATUS:               ID:20150505151749     3
 2015-05-05-1517-49M.COL___273                                                 6
 STAT SP IPHASW D HRMM SECON CODA AMPLIT PERI AZIMU VELO AIN AR TRES W  DIS CAZ7
 BAR2 EZ IP     C 1526 13.97                             169    0.2210 24.8 192 
 BAR2 EZ ES       1526 28.58                             169    0.0310 24.8 192 
 BAR2 EZ I        1526 29.82       160.2 0.30            165           24.8 192 
 BRR  HZ IP     C 1526 15.84                             151    0.5010 71.7 297 
 BRR  HZ I        1526 16.02       177.4 0.24            146           71.7 297 
 BRR  HE ES       1526 32.72                             151    1.3510 71.7 297 
 PAM  SZ EP       1526 16.77                             150    0.4910 75.6  39 
 PAM  SN ES       1526 33.04                             150   -0.0010 75.6  39 
 PAM  SZ I        1526 35.60        88.6 0.54            152           75.6  39 
 RUS  HZ EP     C 1526 17.86                             142   -0.2010  102 177 
 RUS  HN ES       1526 35.23                             142   -0.9910  102 177 
 RUS  HZ I        1526 37.34        49.6 0.20            139            102 177 
 TAM  HZ IP     D 1526 22.29                             129    0.36 9  154 106 
 TAM  HZ I        1526 22.43        93.6 0.18            129            154 106 
 OCA  HZ EP       1526 22.36                             128   -0.18 9  159 353 
 OCA  HN ES       1526 43.71                             128   -0.48 9  159 353 
 OCA  HZ I        1526 47.37       160.6 0.24            126            159 353 
 SPBC HZ EP       1526 22.92                             127   -0.10 9  165 219 
 SPBC HE ES       1526 44.98                             127   -0.06 9  165 219 
 SPBC HZ I        1526 51.81        76.6 0.28            123            165 219 
 ZAR  HZ EP       1526 27.28                             121    0.35 9  205 292 
 ZAR  HN ES       1526 52.44                             121    0.44 9  205 292 
 ZAR  HZ I        1526 58.62        72.6 0.36            117            205 292 
 NOR  HZ EP       1526 30.01                             117   -0.36 8  236 234 
 NOR  HN ES       1526 57.42                             117   -0.72 8  236 234 
 NOR  HZ I        1527  2.97        38.8 0.18            114            236 234 
 SML  HZ EP       1526 30.18                             116   -0.84 8  243 335 
 SML  HN ES       1526 57.96                             116   -1.32 8  243 335 
 CHI  HZ EP       1526 32.31                             115   -0.03 8  250 195 
 CHI  HN ES       1527  1.07                             115   -0.56 8  250 195 
 CHI  HZ I        1527  8.30        14.2 0.48            113            250 195 
 HEL  HZ EP       1526 35.43                             113    0.55 8  274 256 
 HEL  HE ES       1527  5.86                             113   -0.29 8  274 256 
 HEL  HZ I        1527 14.77        18.7 0.22            110            274 256 
 URE  HZ EP   9   1526 34.89                             112   -0.76 0  285 292 
 URE  HN ES       1527  5.45                                   -1.32 7  285 292 
 URE  HZ I        1527 10.12        32.1 0.42            110            285 292 
 GUY2CHZ EP       1526 38.06                             111   -0.27 7  303 235 
 GUY2CHN ES       1527 11.78                             111   -0.52 7  303 235 
 GUY2CHZ I        1527 20.42        27.7 0.50                           303 235 
 PTGC HZ EP   9   1526 37.01                             110   -1.46 0  309 159 
 PTGC HE ES       1527 10.23                                   -0.86 7  309 159 
 RREF HN ES       1527 16.72                             109   -0.12 7  324 229 
 RREF HZ I        1527 26.48         6.6 0.24            107            324 229 
 CBOC HZ EP       1526 42.14                             108    0.49 7  335 252 
 CBOC HZ I        1527 29.61        10.9 0.48            106            335 252 
 MON  HZ EP   9   1526 41.44                             107   -2.14 0  354 308 
 MON  HN ES       1527 18.90                                   -0.61 6  354 308 
 MON  HZ I        1527 20.78        14.9 0.20            105            354 308 
 ANIL HZ EP       1526 45.30                             107    0.72 6  359 225 
 ANIL HN ES       1527 24.21                             107    0.79 6  359 225 
 ANIL HZ I        1527 32.44        36.1 0.48            105            359 225 
 SDV  BZ EP   9   1526 42.65                             107   -1.75 0  359  50 
 SDV  BN ES       1527 19.71                                   -1.64 6  359  50 
 ORTC HZ EP       1526 48.91                             105    0.19 6  397 216 
 ORTC HE ES       1527 31.55                             105    0.76 6  397 216 
 ORTC HZ I        1527 35.43         8.5 0.30            103            397 216 
 SJC  HZ EP   9   1526 48.12                             105   -1.99 0  409 327 
 SJC  HN ES       1527 29.42                                   -1.86 6  409 327 
 SJC  HZ I        1527 33.86         9.4 0.68            103            409 327 
                                                                                
