 2012  5 5 1254 37.3 L   6.764 -73.129144.0  RSN 10 0.5 2.1LRSN                1
 GAP=140        1.18       6.0     6.0  8.7  0.4850E+01  0.1115E+02  0.1937E+02E
 Epicentro: LOS SANTOS - SANTANDER                                             3
 ACTION:UP  12-07-05 12:02 OP:pat  STATUS:               ID:20120505125437 L   I
 2012-05-05-1250-00M.COL___192                                                 6
 STAT SP IPHASW D HRMM SECON CODA AMPLIT PERI AZIMU VELO SNR AR TRES W  DIS CAZ7
 OCA2 HZ EP   1   1255  5.72                             129                    
 OCA2 HZ I        1255 33.08        33.7 0.48                                   
 BAR2 SZ EP       1254 56.59                             172    -0.110   20 197 
 BAR2 SZ ES   1   1255 11.96                             172     0.2 7   20 197 
 BAR2 SZ I        1255 13.57        25.2 0.42                            20 197 
 BRR  HZ EP       1254 58.61                             151     0.110   75 301 
 BRR  HN ES       1255 15.57                             151     0.610   75 301 
 BRR  HZ I        1255 20.27        31.2 0.12                            75 301 
 PAM  SZ EP   1   1254 59.42                             150     0.0 7   79  37 
 PAM  SN ES   1   1255 16.27                             150    -0.5 7   79  37 
 RUS  HZ EP       1255  0.55                             145     0.010   96 177 
 RUS  HN ES   1   1255 19.26                             145     0.5 7   96 177 
 RUS  HZ I        1255 20.71        18.2 0.55                            96 177 
 PTB  HZ EP   1   1255  3.53                             132    -0.7 7  149 260 
 PTB  HN ES   1   1255 24.53                             132    -0.7 7  149 260 
 PTB  HZ I        1255 26.78        14.7 0.21                           149 260 
 ZAR  HN ES   1   1255 34.69                             122    -0.8 6  207 293 
 ZAR  HZ I        1255 40.67        16.4 0.27                           207 293 
 CHI  HZ EP       1255 14.61                             117     0.1 8  245 196 
 CHI  HN ES   1   1255 42.73                             117    -0.9 6  245 196 
 CHI  HZ I        1255 49.77         8.7 0.31                           245 196 
 HEL  HZ EP   1   1255 18.68                             115     1.1 6  273 257 
 HEL  HN ES   1   1255 49.53                             115     0.6 6  273 257 
 PRA  HZ EP   1   1255 30.64                             107     0.2 4  389 210 
                                                                                
