 2012  8 5 1043 16.1 L   6.775 -73.119148.0  RSN 12 0.4 2.0LRSN                1
 GAP=141        0.70       3.3     5.5  6.2 -0.2131E+01  0.1063E+02  0.4815E+01E
 Epicentro: LOS SANTOS - SANTANDER                                             3
 ACTION:UPD 12-09-10 11:54 OP:ep   STATUS:               ID:20120805104316 L   I
 2012-08-05-1040-00M.COL___216                                                 6
 STAT SP IPHASW D HRMM SECON CODA AMPLIT PERI AZIMU VELO AIN AR TRES W  DIS CAZ7
 BAR2 SZ EP       1043 35.79                             171   -0.1210 21.4 199 
 BAR2 SZ ES   2   1043 50.56                             171   -0.85 5 21.4 199 
 BAR2 SZ I        1043 52.73        20.9 0.40                          21.4 199 
 BRR  HZ IP       1043 37.77                             152    0.1010 75.1 299 
 BRR  HZ I        1043 37.98        26.5 0.16                          75.1 299 
 BRR  HN ES   1   1043 55.31                             152    0.79 7 75.1 299 
 PAM  SZ EP       1043 38.81                             151    0.2810 77.7  37 
 PAM  SE ES   1   1043 56.07                             151    0.02 7 77.7  37 
 PAM  SZ I        1043 58.15         5.1 0.48                          77.7  37 
 RUS  HZ EP       1043 39.71                             145   -0.1110 97.7 178 
 RUS  HN ES   1   1043 58.49                             145    0.13 7 97.7 178 
 RUS  HZ I        1044  0.10         9.5 0.38                          97.7 178 
 PTB  HZ EP   1   1043 42.66                             132   -0.76 7  150 260 
 PTB  HZ I        1044  6.13         7.4 0.44                           150 260 
 OCA  HN ES   1   1044  6.81                             130   -0.46 7  163 352 
 OCA  HZ I        1044 11.81        24.7 0.26                           163 352 
 ZAR  HZ EP   3   1043 49.01                             123   -0.02 2  208 293 
 ZAR  HZ I        1044 19.69        13.7 0.56                           208 293 
 NOR  SZ EP       1043 51.96                             119   -0.04 8  236 235 
 NOR  SN ES   3   1044 19.25                             119   -0.79 2  236 235 
 CHI  HZ EP   3   1043 53.22                             118   -0.46 2  247 196 
 CHI  HN ES   1   1044 23.21                             118    0.19 6  247 196 
 CHI  HZ I        1044 27.27         4.3 0.34                           247 196 
 HEL  HZ EP   3   1043 57.24                             115    0.61 2  274 257 
 HEL  HZ I        1044 34.57         4.1 0.40                           274 257 
 GUY  SN ES   3   1044 35.25                             113    0.75 2  304 236 
 GUY  SZ I        1044 41.15         6.4 0.36                           304 236 
 PRA  HZ EP   1   1044  9.97                             107    0.42 4  391 210 
 PRA  HZ I        1044 57.57         4.8 0.36                           391 210 
                                                                                
