 2011  5 5 1112 45.6 L   6.758 -73.128147.2  RSN  6 0.2 1.7LRSN                1
 GAP=141        0.65       3.8     4.2  5.3 -0.6267E+01  0.2998E+01  0.3055E+01E
 Epicentro: LOS SANTOS - SANTANDER                                             3
 ACTION:UP  11-06-29 08:51 OP:tino STATUS:               ID:20110505111245 L   I
 2011-05-05-1109-48S.COL___132                                                 6
 STAT SP IPHASW D HRMM SECON CODA AMPLIT PERI AZIMU VELO SNR AR TRES W  DIS CAZ7
 BAR2 SZ EP       1113  5.35                             172     0.010   19 198 
 BAR2 SZ ES   1   1113 20.47                             172    -0.3 7   19 198 
 BAR2 SZ I        1113 22.11        13.6 0.33                            19 198 
 BRR  HZ EP       1113  7.33                             151     0.210   75 301 
 BRR  HN ES       1113 24.20                             151     0.210   75 301 
 BRR  HZ I        1113 26.50        14.2 0.18                            75 301 
 PAM  SZ EP   1   1113  8.22                             150     0.1 7   80  36 
 PAM  SN ES       1113 25.42                             150    -0.310   80  36 
 PAM  SZ I        1113 27.46         4.5 0.22                            80  36 
 RUS  HZ EP   1   1113  9.20                             145     0.0 7   96 177 
 RUS  HN ES   1   1113 27.97                             145     0.4 7   96 177 
 RUS  HZ I        1113 29.30         6.0 0.27                            96 177 
 BRI  SZ EP   1   1113  9.91                             141     0.0 7  112  19 
 BRI  SZ I        1113 31.48         8.0 0.27                           112  19 
 NOR  SZ EP   1   1113 21.42                             119     0.1 6  234 236 
 NOR  SN ES       1113 48.79                             119    -0.4 8  234 236 
                                                                                
