 2010  9 5 1450 42.3 L   6.764 -73.056145.0  RSN  6 0.2 1.7LRSN                1
 GAP=169        0.46       3.6     6.3  4.9  0.2735E+01 -0.5435E+01 -0.2625E+01E
 Epicentro: LOS SANTOS - SANTANDER                                             3
 ACTION:UP  11-02-18 11:00 OP:tino STATUS:               ID:20100905145042 L   I
 2010-09-05-1446-44S.COL___120                                                 6
 STAT SP IPHASW D HRMM SECON CODA AMPLIT PERI AZIMU VELO SNR AR TRES W  DIS CAZ7
 BAR2 SZ IP       1451  2.00                             170     0.110   24 217 
 BAR2 SZ I        1451  2.32        11.6 0.09                            24 217 
 BAR2 SZ ES   1   1451 16.97                             170    -0.2 7   24 217 
 BRR  HZ IP     C 1451  3.89                             149    -0.210   82 298 
 BRR  HZ I        1451  4.12        17.9 0.13                            82 298 
 BRR  HN ES   1   1451 21.06                             149     0.1 7   82 298 
 RUS  HZ EP   2   1451  5.36                             145    -0.4 5   96 182 
 RUS  HN ES   2   1451 24.22                             145     0.3 5   96 182 
 RUS  HZ I        1451 25.45         4.6 0.44                            96 182 
 GRA  SZ EP   2   1451  7.46                             136    -0.2 5  127  13 
 GRA  SZ ES   2   1451 27.49                             136     0.1 5  127  13 
 GRA  SZ I        1451 28.93         4.0 0.56                           127  13 
 OCA  SZ EP   2   1451 11.41                             128     0.3 5  166 350 
 OCA  SZ I        1451 37.81         5.2 0.72                           166 350 
 PRA  HZ EP   2   1451 36.32                             106     0.3 3  394 211 
 PRA  HZ I        1452 22.38         1.9 0.33                           394 211 
                                                                                
