 2017  5 5 1914 51.7 L   6.787 -73.118142.9  RSN  7 0.4 1.7LRSN                1
 GAP=115        0.70       3.0     3.4  5.3  0.4466E+01  0.3843E+01  0.3669E+01E
 Epicentro: LOS SANTOS - SANTANDER                                             3
 ACTION:UPD 17-06-16 13:33 OP:jn   STATUS:               ID:20170505191451 L   I
 OLDACT:UP  17-05-05 23:33 OP:and  STATUS:               ID:20170505190746     3
 OLDACT:UP  17-05-05 23:32 OP:and  STATUS:               ID:20170505190746     3
 OLDACT:REG 17-05-05 21:16 OP:and  STATUS:               ID:20170505190746     3
 2017-05-05-1908-00M.COL___336                                                 6
 STAT SP IPHASW D HRMM SECON CODA AMPLIT PERI AZIMU VELO AIN AR TRES W  DIS CAZ7
 BRR  HZ IP     D 1915 12.75                             151    0.0310 74.6 298 
 BRR  HN ES       1915 29.41                             151    0.2810 74.6 298 
 BRR  HZ I        1915 34.03        10.2 0.18            150           74.6 298 
 PAM  EZ IP     C 1915 13.54                             151   -0.0110 76.5  37 
 PAM  EN ES       1915 30.54                             151   -0.0510 76.5  37 
 PAM  EZ I        1915 32.87        11.1 0.66            155           76.5  37 
 RUS  HZ EP       1915 14.66                             144   -0.3810 99.0 178 
 RUS  HN ES       1915 32.92                             144   -0.3410 99.0 178 
 RUS  HZ I        1915 34.21         6.6 0.36            145           99.0 178 
 PTB  HZ EP   2   1915 18.71                             131    0.03 5  151 260 
 PTB  HN ES   3   1915 38.00                             131   -1.73 2  151 260 
 PTB  HZ I        1915 40.96         6.8 0.28            131            151 260 
 YPLC HZ IP     D 1915 21.16                             126    0.15 9  174 152 
 YPLC HN ES       1915 44.26                             126    0.38 9  174 152 
 YPLC HZ I        1915 45.69         7.1 0.30            129            174 152 
 ZAR  HZ EP       1915 24.10                             121   -0.20 8  207 292 
 ZAR  HE ES       1915 49.88                             121    0.15 8  207 292 
 ZAR  HZ I        1915 58.18         6.5 0.28            122            207 292 
 CHI  HZ EP   2   1915 29.16                             117   -0.01 4  248 196 
 CHI  HN ES   2   1915 59.52                             117    1.11 4  248 196 
 CHI  HZ I        1916  3.37         1.9 0.26            118            248 196 
                                                                                
