 2012  7 5 1336 34.8 L   6.745 -73.141144.5  RSN  6 0.3 1.7LRSN                1
 GAP=140        0.79       4.2     4.1  5.7  0.3398E+00  0.6456E+01 -0.1859E+01E
 Epicentro: JORDAN - SANTANDER                                                 3
 ACTION:UPD 12-08-14 11:42 OP:ep   STATUS:               ID:20120705133634 L   I
 2012-07-05-1330-00M.COL___200                                                 6
 STAT SP IPHASW D HRMM SECON CODA AMPLIT PERI AZIMU VELO AIN AR TRES W  DIS CAZ7
 BAR2 SZ EP   1   1336 54.09                             173    -0.1 7   17 195 
 BAR2 SZ ES       1337  9.85                             173     0.510   17 195 
 BAR2 SZ I        1337 10.32        10.6 0.20            173             17 195 
 BRR  HZ EP       1336 56.26                             151     0.210   75 302 
 BRR  HZ I        1337 11.34        17.2 0.32            146             75 302 
 BRR  HN ES       1337 12.63                             151     0.010   75 302 
 PAM  SZ EP       1336 57.18                             149     0.010   82  37 
 PAM  SN ES       1337 14.31                             149    -0.310   82  37 
 RUS  HZ EP   1   1336 58.23                             145     0.2 7   94 176 
 RUS  HE ES       1337 15.84                             145    -0.310   94 176 
 RUS  HZ I        1337 17.73         5.8 0.34            143             94 176 
 PTB  HZ EP       1337  1.65                             132     0.0 9  147 261 
 PTB  HE ES   1   1337 21.99                             132    -0.6 7  147 261 
 PTB  HZ I        1337 24.54         3.9 0.15            127            147 261 
 ZAR  HZ EP   1   1337  7.62                             122     0.1 6  207 294 
 ZAR  HN ES   1   1337 32.96                             122     0.0 6  207 294 
 ZAR  HZ I        1337 38.47         7.2 0.34            117            207 294 
