 2012  5 5 1354 39.7 L   6.744 -73.173149.3  RSN  5 0.4 1.6LRSN                1
 GAP=135        0.97       6.0     6.4 10.3 -0.3173E+01  0.3454E+01 -0.5804E+01E
 Epicentro: VILLANUEVA - SANTANDER                                             3
 ACTION:UP  12-07-05 12:02 OP:pat  STATUS:               ID:20120505135439 L   I
 2012-05-05-1350-00M.COL___192                                                 6
 STAT SP IPHASW D HRMM SECON CODA AMPLIT PERI AZIMU VELO SNR AR TRES W  DIS CAZ7
 BAR2 SZ EP   1   1354 59.60                             173     0.0 7   17 183 
 BAR2 SZ I        1355  9.44        15.3 0.67                            17 183 
 BRR  HZ EP   1   1355  1.64                             153     0.4 7   72 304 
 BRR  HN ES   1   1355 18.71                             153     0.6 7   72 304 
 BRR  HZ I        1355 19.64         7.8 0.42                            72 304 
 PAM  SZ EP       1355  2.80                             149     0.110   84  38 
 PAM  SN ES   1   1355 19.97                             149    -0.6 7   84  38 
 RUS  HZ EP   1   1355  3.32                             146    -0.1 7   95 174 
 RUS  HN ES       1355 21.98                             146     0.110   95 174 
 RUS  HZ I        1355 23.37         4.4 0.30                            95 174 
 PTB  HZ EP   1   1355  6.36                             134    -0.2 7  144 261 
 PTB  HN ES   1   1355 26.92                             134    -0.6 7  144 261 
 PTB  HZ I        1355 29.45         2.5 0.11                           144 261 
                                                                                
