 2011  4 5 1837 50.3 L   6.750 -73.165148.2  RSN  6 0.3 1.8LRSN                1
 GAP=192        0.69       5.6     7.6  6.4 -0.2074E+02 -0.6656E+01  0.1312E+02E
 Epicentro: VILLANUEVA - SANTANDER                                             3
 ACTION:UP  11-06-22 15:29 OP:REBC STATUS:               ID:20110405183750 L   I
 2011-04-05-1835-31S.COL___122                                                 6
 STAT SP IPHASW D HRMM SECON CODA AMPLIT PERI AZIMU VELO SNR AR TRES W  DIS CAZ7
 BAR2 SZ EP       1838  9.87                             173    -0.310   18 186 
 BAR2 SZ I        1838 26.06        10.7 0.37                            18 186 
 BTL  SZ EP       1838 10.26                             171     0.010   22 329 
 BTL  SZ ES   1   1838 25.64                             171    -0.1 7   22 329 
 BRR  HZ EP   3   1838 11.64                             152    -0.2 2   72 303 
 BRR  HZ I        1838 22.59        27.3 0.27                            72 303 
 BRR  HN ES   1   1838 28.84                             152     0.3 7   72 303 
 OCA  SZ EP       1838 19.33                             129     0.0 9  166 354 
 NOR  SZ EP       1838 26.12                             119     0.4 8  230 235 
 NOR  SN ES   1   1838 52.58                             119    -0.7 6  230 235 
 CHI  HZ EP   1   1838 27.72                             118     0.2 6  243 195 
 CHI  HN ES   3   1838 57.32                             118     0.8 2  243 195 
 CHI  HZ I        1839  1.18         2.8 0.81                           243 195 
                                                                                
