 2015  6 5 1210 30.5 L   6.759 -73.162136.0  RSN 13 0.4 2.4LRSN                1
 GAP=199        1.00       2.8     4.7  5.6  0.2674E+01  0.1075E+02  0.2863E+01E
 Epicentro: LOS SANTOS - SANTANDER                                             3
 ACTION:UPD 15-09-10 22:10 OP:cam  STATUS:               ID:20150605121030 L   I
 OLDACT:UP  15-06-05 22:43 OP:ar   STATUS:               ID:20150605120750     3
 OLDACT:REG 15-06-05 20:50 OP:ar   STATUS:               ID:20150605120750     3
 2015-06-05-1207-50M.COL___303                                                 6
 STAT SP IPHASW D HRMM SECON CODA AMPLIT PERI AZIMU VELO AIN AR TRES W  DIS CAZ7
 BAR2 EZ EP     C 1210 48.87                             172   -0.0310 18.6 187 
 BAR2 EZ ES       1211  2.88                             172   -0.3410 18.6 187 
 BAR2 EZ I        1211  4.53        35.3 0.24            168           18.6 187 
 BRR  HZ EP       1210 50.78                             150    0.1010 72.0 302 
 BRR  HN ES       1211  7.32                             150    0.9210 72.0 302 
 BRR  HZ I        1211 11.68        63.1 0.12            148           72.0 302 
 RUS  HZ EP       1210 53.07                             143    0.0610 96.2 175 
 RUS  HN ES       1211 10.35                             143   -0.2010 96.2 175 
 RUS  HZ I        1211 11.97        27.4 0.24            145           96.2 175 
 SPBC HZ EP       1210 57.78                             128   -0.07 9  159 220 
 SPBC HN ES       1211 19.23                             128    0.07 9  159 220 
 SPBC HZ I        1211 26.88        31.7 0.28            128            159 220 
 ZAR  HZ EP       1211  1.98                             120   -0.40 9  204 293 
 ZAR  HN ES       1211 27.21                             120   -0.00 9  204 293 
 ZAR  HZ I        1211 32.81        33.4 0.34            121            204 293 
 NOR  HZ EP       1211  4.49                             117   -0.79 8  231 235 
 NOR  HN ES       1211 32.37                             117   -0.00 8  231 235 
 NOR  HZ I        1211 38.13        17.7 0.16            117            231 235 
 CHI  HZ EP       1211  7.73                             116    0.55 8  244 195 
 CHI  HN ES       1211 35.37                             116   -0.39 8  244 195 
 CHI  HZ I        1211 40.55         7.3 0.48            117            244 195 
 SML  HZ EP   4   1211  5.54                             115   -1.47 0  247 336 
 SML  HN ES       1211 35.32                             115   -0.13 8  247 336 
 SML  HZ I        1211 43.58        33.2 0.10            117            247 336 
 URE  HZ EP       1211 11.73                             112    0.57 7  284 293 
 URE  HE ES       1211 41.80                             112   -1.04 7  284 293 
 URE  HZ I        1211 42.20        15.6 0.38            113            284 293 
 GUY2CHZ EP   4   1211 14.82                             111    1.57 0  297 235 
 GUY2CHE ES       1211 46.92                             111    0.35 7  297 235 
 GUY2CHZ I        1211 54.17        12.0 0.22                           297 235 
 TOL  SZ EP       1211 18.04                             108    0.14 7  339 225 
 TOL  SN ES       1211 55.12                             108    0.28 7  339 225 
 TOL  SZ I        1212  0.99         8.8 0.22            109            339 225 
 ANIL HN ES       1211 57.20                             107   -0.42 6  353 225 
 ANIL HZ I        1212  4.82        27.3 0.34            108            353 225 
 ORTC HZ EP       1211 23.92                             105    0.33 6  391 216 
 ORTC HN ES       1212  5.67                             105    0.71 6  391 216 
 ORTC HZ I        1212 11.76         6.5 0.46            106            391 216 
                                                                                
