 2015  2 5 1515 36.7 L   6.812 -73.174142.7  RSN  8 0.4 1.9LRSN                1
 GAP=144        0.83       4.6     4.6  6.8 -0.1026E+02  0.7710E+01  0.2884E+01E
 Epicentro: LOS SANTOS - SANTANDER                                             3
 ACTION:UPD 15-04-30 21:22 OP:nd   STATUS:               ID:20150205151536 L   I
 OLDACT:UP  15-02-06 04:31 OP:spq  STATUS:               ID:20150205150752d    3
 OLDACT:DUP 15-02-06 04:26 OP:spq  STATUS:               ID:20150205150752d    3
 2015-02-05-1507-50M.COL___280                                                 6
 STAT SP IPHASW D HRMM SECON CODA AMPLIT PERI AZIMU VELO AIN AR TRES W  DIS CAZ7
 BAR2 EZ EP       1515 55.89                             170   -0.0510 24.4 182 
 BAR2 EZ ES   1   1516 10.69                             170   -0.29 7 24.4 182 
 BAR2 EZ I        1516 12.35        20.1 0.20            168           24.4 182 
 PAM  SZ EP       1515 58.95                             150    0.3410 78.4  42 
 PAM  SE ES       1516 15.88                             150    0.1510 78.4  42 
 PAM  SZ I        1516 17.83        15.1 0.52            156           78.4  42 
 RUS  HZ EP       1515 59.91                             143   -0.3210  102 174 
 RUS  HE ES   1   1516 18.54                             143   -0.07 7  102 174 
 RUS  HZ I        1516 20.19         5.0 0.42            144            102 174 
 PTB  HZ EP       1516  2.53                             132   -0.59 9  145 258 
 PTB  HN ES       1516 23.55                             132   -0.21 9  145 258 
 PTB  HZ I        1516 30.94         8.6 0.42            132            145 258 
 SPBC HZ EP       1516  4.89                             129    0.05 9  162 218 
 SPBC HE ES       1516 27.39                             129    0.57 9  162 218 
 SPBC HZ I        1516 31.94        12.5 0.22            129            162 218 
 NOR  HZ EP   1   1516 12.45                             118    0.43 6  233 234 
 NOR  HE ES   1   1516 40.28                             118    0.68 6  233 234 
 NOR  HZ I        1516 44.06         6.2 0.35            119            233 234 
 CHI  HN ES   1   1516 43.15                             116   -0.41 6  249 194 
 CHI  HZ I        1516 50.53         5.0 0.56            118            249 194 
 GUY2CHN ES   4   1516 56.97                             112    3.30 0  299 234 
 GUY2CHZ I        1517  2.52         4.8 0.54                           299 234 
                                                                                
