 2012  5 5 1437 44.7 L   6.810 -73.110152.4  RSN  5 0.5 1.7LRSN                1
 GAP=141        1.20       7.6     8.2 14.5  0.1960E+02  0.1958E+02 -0.4377E+01E
 Epicentro: LOS SANTOS - SANTANDER                                             3
 ACTION:UP  12-07-05 12:02 OP:pat  STATUS:               ID:20120505143744 L   I
 2012-05-05-1430-00M.COL___192                                                 6
 STAT SP IPHASW D HRMM SECON CODA AMPLIT PERI AZIMU VELO SNR AR TRES W  DIS CAZ7
 BAR2 SZ EP   1   1438  5.13                             170    -0.1 8   25 198 
 BAR2 SZ I        1438 22.98        16.6 0.91                            25 198 
 BRR  HZ EP   1   1438  6.58                             153    -0.2 8   74 296 
 BRR  HN ES   1   1438 25.00                             153     1.0 8   74 296 
 PAM  SZ EP   1   1438  7.83                             153     0.4 8   74  38 
 PAM  SN ES   1   1438 24.72                             153    -0.5 8   74  38 
 RUS  HZ EP   1   1438  9.66                             145     0.5 7  101 178 
 RUS  HN ES       1438 28.03                             145    -0.310  101 178 
 RUS  HZ I        1438 29.72         4.1 0.38                           101 178 
 ZAR  HN ES       1438 43.37                             123    -0.5 8  207 291 
 ZAR  HZ I        1438 46.19         4.3 0.19                           207 291 
                                                                                
