 2015  7 5 1211 24.1 L   6.847 -73.092142.7  RSN 10 0.5 2.1LRSN                1
 GAP=161        1.09       4.0     5.4  7.5 -0.5375E+01  0.2015E+02  0.2374E+01E
 Epicentro: LOS SANTOS - SANTANDER                                             3
 ACTION:UPD 15-09-08 21:47 OP:cam  STATUS:               ID:20150705121124 L   I
 OLDACT:UP  15-07-05 21:23 OP:mh   STATUS:               ID:20150705120747     3
 OLDACT:REG 15-07-05 20:33 OP:mh   STATUS:               ID:20150705120747     3
 2015-07-05-1207-47M.COL___334                                                 6
 STAT SP IPHASW D HRMM SECON CODA AMPLIT PERI AZIMU VELO AIN AR TRES W  DIS CAZ7
 BAR2 EZ EP       1211 43.22                             168   -0.2510 29.9 200 
 BAR2 EZ ES       1211 58.35                             168   -0.2610 29.9 200 
 BAR2 EZ I        1212  0.23        16.6 0.20            167           29.9 200 
 PAM  EZ EP       1211 45.86                             153    0.3710 69.6  38 
 PAM  EN ES       1212  2.60                             153    0.3910 69.6  38 
 PAM  EZ I        1212  4.46        32.2 0.52            157           69.6  38 
 OCA  HZ EP       1211 50.91                             130   -0.81 9  156 351 
 OCA  HN ES       1212 13.10                             130   -0.20 9  156 351 
 OCA  HZ I        1212 17.58        25.4 0.36            132            156 351 
 ZAR  HZ EP       1211 56.53                             121   -0.15 8  208 290 
 ZAR  HE ES       1212 21.70                             121   -0.43 8  208 290 
 ZAR  HZ I        1212 27.65        15.2 0.30            123            208 290 
 SML  HZ EP   4   1211 58.64                             117   -1.64 0  242 334 
 SML  HN ES       1212 29.17                             117    0.63 8  242 334 
 SML  HZ I        1212 29.97        15.3 0.10            119            242 334 
 NOR  HZ EP       1212  0.01                             117   -0.44 8  243 234 
 NOR  HN ES       1212 29.37                             117    0.52 8  243 234 
 NOR  HZ I        1212 34.07         4.8 0.18            119            243 234 
 HEL  HZ EP       1212  5.69                             113    0.79 7  279 255 
 HEL  HN ES       1212 36.62                             113   -0.14 7  279 255 
 HEL  HZ I        1212 41.60         4.7 0.40            115            279 255 
 GUY2CHZ EP       1212  9.29                             111    0.88 7  309 235 
 GUY2CHN ES   4   1212 46.61                             111    3.60 0  309 235 
 GUY2CHZ I        1212 51.45         5.0 0.32                           309 235 
 MON  HZ EP   4   1212 16.08                             108    2.97 0  355 307 
 MON  HN ES   4   1212 48.16                             108   -3.22 0  355 307 
 MON  HZ I        1212 49.20         3.1 0.26            110            355 307 
 PRA  HZ EP       1212 17.85                             106   -0.49 6  399 210 
 PRA  HN ES   1   1213  0.33                             106   -0.36 4  399 210 
 PRA  HZ I        1213  5.10         3.1 0.54            107            399 210 
                                                                                
