 2010  2 5 1114 51.7 L   6.780 -72.933147.5  RSN  5 0.4 1.0LRSN                1
 GAP=189        0.61       7.0    24.5 10.4 -0.1091E+03  0.2551E+02  0.1798E+02E
 Epicentro: SAN ANDRES - SANTANDER                                             3
 ACTION:UP  10-08-24 09:47 OP:vdl  STATUS:               ID:20100205111451 L   I
 2010-02-05-1059-50S.COL___092                                                 6
 STAT SP IPHASW D HRMM SECON CODA AMPLIT PERI AZIMU VELO SNR AR TRES W  DIS CAZ7
 BAR2 SZ EP   2   1115 11.02                             166    -0.8 5   35 233 
 BAR2 SZ ES   2   1115 27.18                             166    -0.4 5   35 233 
 RUS  HZ EP   2   1115 15.75                             144     0.2 5   99 190 
 RUS  HE ES   2   1115 34.48                             144     0.3 5   99 190 
 RUS  HZ I        1115 37.75         1.8 0.40                            99 190 
 GUE  SZ ES   2   1115 36.48                             140     0.5 5  116   0 
 CHI  HZ EP   2   1115 30.09                             117     0.0 4  254 200 
 CHI  HE ES   2   1116  0.14                             117     0.1 4  254 200 
 PRA  HE ES   2   1116 29.73                             106     0.5 3  402 213 
                                                                                
