 2015  6 5 1015 31.1 L   6.804 -73.137130.6  RSN  9 0.6 1.8LRSN                1
 GAP=137        1.17       3.4     5.6  8.1 -0.3118E+01  0.2294E+02 -0.5227E+01E
 Epicentro: LOS SANTOS - SANTANDER                                             3
 ACTION:UPD 15-09-10 22:09 OP:cam  STATUS:               ID:20150605101531 L   I
 OLDACT:UP  15-06-05 21:49 OP:ar   STATUS:               ID:20150605100750     3
 OLDACT:UP  15-06-05 21:47 OP:ar   STATUS:               ID:20150605100750     3
 OLDACT:REG 15-06-05 20:13 OP:ar   STATUS:               ID:20150605100750     3
 2015-06-05-1007-50M.COL___294                                                 6
 STAT SP IPHASW D HRMM SECON CODA AMPLIT PERI AZIMU VELO AIN AR TRES W  DIS CAZ7
 BAR2 EZ EP       1015 49.23                             169    0.3410 24.0 192 
 BAR2 EZ ES       1016  2.61                             169   -0.1810 24.0 192 
 BAR2 EZ I        1016  6.17         8.3 0.68            170           24.0 192 
 BRR  HZ EP       1015 50.99                             149    0.3610 71.8 298 
 BRR  HN ES   2   1016  7.87                             149    1.97 5 71.8 298 
 BRR  HZ I        1016 10.97        19.1 0.38            149           71.8 298 
 PAM  SZ EP       1015 52.12                             148    0.5010 76.4  39 
 PAM  SN ES       1016  7.24                             148   -0.4210 76.4  39 
 PAM  SZ I        1016 10.87         6.2 0.38            153           76.4  39 
 RUS  HZ EP       1015 53.11                             140   -0.2710  101 177 
 RUS  HN ES       1016 10.90                             140    0.1010  101 177 
 RUS  HZ I        1016 14.35         5.8 0.45            146            101 177 
 OCA  HN ES       1016 19.23                             126   -0.14 9  160 353 
 OCA  HZ I        1016 22.72        11.2 0.16            130            160 353 
 SPBC HE ES       1016 19.49                             125   -0.49 9  164 219 
 SPBC HZ I        1016 24.89        19.5 0.44            129            164 219 
 ZAR  HZ EP       1016  2.86                             119    0.22 9  205 292 
 ZAR  HN ES       1016 26.80                             119   -0.48 9  205 292 
 ZAR  HZ I        1016 32.42        10.9 0.36            122            205 292 
 SML  HZ EP       1016  6.07                             114   -0.81 8  244 335 
 SML  HN ES       1016 34.90                             114    0.08 8  244 335 
 SML  HZ I        1016 41.30        10.7 0.26            118            244 335 
 GUY2CHZ EP       1016 14.95                             109    0.81 7  302 235 
 GUY2CHN ES       1016 47.41                             109   -0.33 7  302 235 
 GUY2CHZ I        1016 57.05         3.1 0.52                           302 235 
                                                                                
