 2013  4 5 1027 33.7 L   6.774 -73.093151.8  RSN  7 0.3 1.8LRSN                1
 GAP=188        0.66       3.3     5.5  6.3  0.3716E+01  0.7040E+01 -0.4351E+01E
 Epicentro: LOS SANTOS - SANTANDER                                             3
 ACTION:UPD 13-05-22 14:36 OP:EP   STATUS:               ID:20130405102733 L   I
 2013-04-05-1020-00M.COL___245                                                 6
 STAT SP IPHASW D HRMM SECON CODA AMPLIT PERI AZIMU VELO AIN AR TRES W  DIS CAZ7
 BAR2 SZ EP   1   1027 54.32                             171    0.24 7 22.4 206 
 BAR2 SZ ES   1   1028  9.51                             171   -0.44 7 22.4 206 
 BAR2 SZ I        1028 10.27        15.4 0.16            170           22.4 206 
 BRR  HZ EP   1   1027 56.41                             151    0.50 7 77.7 298 
 BRR  HN ES   1   1028 13.74                             151    0.54 7 77.7 298 
 BRR  HZ I        1028 16.48         7.1 0.12            148           77.7 298 
 RUS  HZ EP   1   1027 57.83                             146   -0.05 7 97.5 179 
 RUS  HE ES   1   1028 16.77                             146    0.07 7 97.5 179 
 RUS  HZ I        1028 17.63         7.7 0.30            149           97.5 179 
 OCA  HN ES   1   1028 25.02                             130   -0.56 7  164 351 
 ZAR  HZ EP   1   1028  7.07                             123   -0.18 6  211 292 
 ZAR  HE ES   1   1028 33.28                             123   -0.10 6  211 292 
 ZAR  HZ I        1028 38.46         6.5 0.28            122            211 292 
 NOR  HN ES   1   1028 38.18                             119   -0.39 6  238 236 
 SML  HZ EP   1   1028 11.15                             118   -0.10 6  249 334 
 SML  HN ES   1   1028 40.69                             118    0.18 6  249 334 
 SML  HZ I        1028 46.88         8.0 0.10            118            249 334 
                                                                                
