 2017  9 5 1510 49.7 L   7.245 -73.378111.7  RSN  5 0.2 1.5LRSN                1
 GAP=162        0.50       2.6     2.4  5.1  0.1602E+01  0.5789E+01  0.3869E+00E
 Epicentro: SABANA DE TORRES - SANTANDER                                       3
 ACTION:UPD 17-10-05 19:09 OP:rebc STATUS:               ID:20170905151049 L   I
 OLDACT:REG 17-09-05 21:10 OP:lv   STATUS:               ID:20170905150742     3
 2017-09-05-1508-00M.COL___426                                                 6
 STAT SP IPHASW D HRMM SECON CODA AMPLIT PERI AZIMU VELO AIN AR TRES W  DIS CAZ7
 BAR2 EZ EP       1511  8.04                             144    0.1610 75.3 163 
 BAR2 EZ ES       1511 22.22                             144    0.1310 75.3 163 
 BAR2 EZ I        1511 23.39         7.1 0.19            144           75.3 163 
 PAM  EZ EP       1511  8.47                             144    0.2210 75.6  82 
 PAM  EE ES       1511 22.54                             144   -0.2110 75.6  82 
 PAM  EZ I        1511 24.08        12.4 0.24            147           75.6  82 
 RUS  HZ EP       1511 14.97                             122   -0.29 9  153 168 
 RUS  HN ES       1511 35.18                             122   -0.04 9  153 168 
 RUS  HZ I        1511 39.19         1.5 0.30            123            153 168 
 ZAR  HZ EP       1511 16.00                             119    0.05 9  166 280 
 ZAR  HE ES       1511 36.38                             119   -0.08 9  166 280 
 ZAR  HZ I        1511 38.30         6.7 0.14            121            166 280 
 GUY2CHZ EP   4   1511 34.96                             104    1.58 0  313 225 
 GUY2CHN ES   4   1512 10.80                             104    3.31 0  313 225 
 GUY2CHZ I        1512 15.35         3.6 0.40                           313 225 
                                                                                
