 2013  2 5 1921 14.2 L   6.754 -73.126145.5  RSN  7 0.3 2.0LRSN                1
 GAP=141        0.80       4.0     3.8  5.9  0.4907E+00  0.3242E+01  0.3507E+01E
 Epicentro: LOS SANTOS - SANTANDER                                             3
 ACTION:UPD 13-03-12 09:30 OP:ep   STATUS:               ID:20130205192114 L   I
 2013-02-05-1920-00M.COL___240                                                 6
 STAT SP IPHASW D HRMM SECON CODA AMPLIT PERI AZIMU VELO AIN AR TRES W  DIS CAZ7
 BAR2 SZ EP       1921 33.24                             172   -0.4510 19.0 199 
 BAR2 SZ ES   1   1921 48.95                             172    0.03 7 19.0 199 
 BAR2 SZ I        1921 50.80        22.8 0.41            162           19.0 199 
 BRR  HZ EP     C 1921 35.94                             151    0.3910 75.6 301 
 BRR  HE ES       1921 52.53                             151    0.3110 75.6 301 
 BRR  HE I        1921 53.28        63.5 0.26            143           75.6 301 
 PAM  SZ EP       1921 36.89                             150    0.3710 80.0  36 
 PAM  SN ES       1921 53.57                             150   -0.3810 80.0  36 
 PAM  SZ I        1921 56.03        22.8 0.43            142           80.0  36 
 RUS  HZ EP       1921 37.74                             145    0.2110 95.4 177 
 RUS  HE ES       1921 55.81                             145    0.0610 95.4 177 
 RUS  HE I        1921 57.31        12.1 0.32            130           95.4 177 
 PTB  HZ EP       1921 40.73                             132   -0.51 9  149 261 
 PTB  HN ES       1922  2.29                             132   -0.05 9  149 261 
 PTB  HN I        1922  6.99        19.7 0.42            119            149 261 
 ZAR  HE ES   1   1922 12.50                             122   -0.13 6  208 293 
 ZAR  HZ I        1922 18.70         7.9 0.22            112            208 293 
 CHI  HZ EP   1   1921 51.48                             117    0.08 6  244 196 
 CHI  HZ I        1922 25.38         2.1 0.30            107            244 196 
                                                                                
