 2015 12 5 1307 13.3 L   6.772 -73.144138.6  RSN 11 0.3 2.3LRSN                1
 GAP=138        0.81       2.9     3.2  4.5 -0.1439E+01  0.4630E+01  0.2449E+01E
 Epicentro: LOS SANTOS - SANTANDER                                             3
 ACTION:UPD 16-02-04 15:02 OP:cam  STATUS:               ID:20151205130713 L   I
 OLDACT:REG 15-12-05 19:43 OP:drio STATUS:               ID:20151205125748     3
 2015-12-05-1257-48M.COL___314                                                 6
 STAT SP IPHASW D HRMM SECON CODA AMPLIT PERI AZIMU VELO AIN AR TRES W  DIS CAZ7
 BAR2 EZ EP       13 7 31.86                             171   -0.1510 20.4 192 
 BAR2 EZ ES       13 7 46.18                             171   -0.4310 20.4 192 
 BAR2 EZ I        13 7 47.73        35.1 0.44            171           20.4 192 
 BRR  HZ EP       13 7 33.75                             151   -0.0310 72.9 301 
 BRR  HN ES       13 7 50.44                             151    0.6810 72.9 301 
 BRR  HZ I        13 7 54.72        36.8 0.32            150           72.9 301 
 PAM  EZ EP       13 7 34.88                             149   -0.0210 79.6  38 
 PAM  EN ES       13 7 51.68                             149   -0.0710 79.6  38 
 PAM  EZ I        13 7 54.00        74.8 0.64            152           79.6  38 
 RUS  HZ EP       13 7 36.53                             143    0.4010 97.5 176 
 RUS  HN ES       13 7 54.07                             143    0.1410 97.5 176 
 RUS  HZ I        13 7 55.38        22.8 0.38            146           97.5 176 
 PTB  HZ EP       13 7 39.88                             130    0.21 9  147 260 
 PTB  HN ES       13 7 59.60                             130   -0.63 9  147 260 
 PTB  HZ I        13 8  2.91        21.9 0.16            131            147 260 
 SPBC HZ EP       13 7 40.82                             128   -0.23 9  161 220 
 SPBC HN ES       13 8  2.80                             128    0.11 9  161 220 
 SPBC HZ I        13 8  8.45        31.0 0.26            129            161 220 
 ZAR  HZ EP       13 7 45.41                             120   -0.03 8  205 293 
 ZAR  HE ES       13 8 10.38                             120   -0.12 8  205 293 
 ZAR  HZ I        13 8 15.93        30.5 0.32            122            205 293 
 NOR  HZ EP       13 7 48.52                             117    0.07 8  233 235 
 NOR  HN ES       13 8 15.72                             117   -0.15 8  233 235 
 NOR  HZ I        13 8 17.79        12.7 0.14            119            233 235 
 SML  HZ EP   4   13 7 48.38                             116   -1.48 0  247 336 
 SML  HE ES   4   13 8 16.06                             116   -2.31 0  247 336 
 SML  HZ I        13 8 19.88        27.0 0.30            117            247 336 
 GUY2CHZ EP       13 7 56.11                             111   -0.30 7  300 235 
 GUY2CHN ES       13 8 30.81                             111    0.78 7  300 235 
 GUY2CHZ I        13 8 39.49         9.9 0.62                           300 235 
 SOCV BZ EP   4   13 7 54.06                             111   -2.14 0  303  56 
 SOCV BN ES   4   13 8 25.46                             111   -4.20 0  303  56 
 PRA  HZ EP       13 8  6.26                             105   -0.02 6  389 210 
 PRA  HN ES       13 8 47.25                             105   -0.36 6  389 210 
 PRA  HZ I        13 8 53.68         6.3 0.34            107            389 210 
                                                                                
