 2015 12 5 1007 45.9 L   6.796 -73.225143.7  RSN  5 0.4 1.4LRSN                1
 GAP=191        0.99       4.4     6.1  8.0  0.2433E+01  0.9186E+01 -0.1267E+02E
 Epicentro: ZAPATOCA - SANTANDER                                               3
 ACTION:UPD 16-02-04 15:02 OP:cam  STATUS:               ID:20151205100745 L   I
 OLDACT:REG 15-12-05 19:32 OP:drio STATUS:               ID:20151205095745     3
 2015-12-05-0957-45M.COL___316                                                 6
 STAT SP IPHASW D HRMM SECON CODA AMPLIT PERI AZIMU VELO AIN AR TRES W  DIS CAZ7
 BAR2 EZ EP       10 8  4.97                             170   -0.2610 23.0 168 
 BAR2 EZ ES       10 8 20.67                             170    0.3310 23.0 168 
 BAR2 EZ I        10 8 21.30         7.5 0.20            170           23.0 168 
 RUS  HZ EP       10 8  9.30                             143   -0.1510  101 171 
 RUS  HE ES       10 8 27.54                             143   -0.3110  101 171 
 RUS  HZ I        10 8 29.21         2.3 0.28            144            101 171 
 PTB  HZ EP       10 8 11.97                             133    0.09 9  139 258 
 PTB  HN ES       10 8 31.47                             133   -0.70 9  139 258 
 PTB  HZ I        10 8 35.05         2.3 0.14            132            139 258 
 SPBC HZ EP       10 8 13.70                             130    0.04 9  158 217 
 SPBC HN ES       10 8 36.16                             130    0.81 9  158 217 
 SPBC HZ I        10 8 40.70         4.5 0.12            130            158 217 
 SML  HZ EP       10 8 22.14                             117    0.11 8  241 337 
 SML  HN ES       10 8 50.46                             117    0.22 8  241 337 
 SML  HZ I        10 8 52.78         2.3 0.10            118            241 337 
                                                                                
