 2014  7 5 1112 19.0 L   6.232 -73.734 92.8  RSN  9 0.5 1.4LRSN                1
 GAP= 87        1.12       3.6     3.4  8.2 -0.1143E+01  0.7690E+01 -0.8868E+01E
 Epicentro: LANDAZURI - SANTANDER                                              3
 ACTION:UPD 15-03-16 20:41 OP:nd   STATUS:               ID:20140705111219 L   I
 OLDACT:REG 14-07-05 20:15 OP:spq  STATUS:               ID:20140705110812     3
 2014-07-05-1108-12M.COL___256                                                 6
 STAT SP IPHASW D HRMM SECON CODA AMPLIT PERI AZIMU VELO AIN AR TRES W  DIS CAZ7
 BAR2 SZ EP       1112 35.85                             139    0.6610 72.8  57 
 BAR2 SZ ES   1   1112 47.62                             139   -0.22 7 72.8  57 
 BAR2 SZ I        1112 50.29         7.2 0.12            139           72.8  57 
 SPBC HZ IP     C 1112 34.06                             138   -1.0510 74.3 210 
 SPBC HN ES       1112 48.15                             138    0.4610 74.3 210 
 SPBC HZ I        1112 51.76         6.3 0.16            138           74.3 210 
 RUS  HZ EP       1112 36.49                             136    0.2510 81.2 118 
 RUS  HE ES   1   1112 49.28                             136   -0.43 7 81.2 118 
 RUS  HZ I        1112 52.22         4.4 0.26            136           81.2 118 
 PTB  HZ EP       1112 35.87                             134   -0.2110 86.9 293 
 PTB  HN ES       1112 49.48                             134    0.0510 86.9 293 
 PTB  HZ I        1112 50.63         7.5 0.10            133           86.9 293 
 ZAR  HZ EP       1112 46.62                             112    0.02 9  187 318 
 ZAR  HE ES       1113  8.10                             112   -0.05 9  187 318 
 ZAR  HZ I        1113 13.05         7.0 0.32            111            187 318 
 HEL  HZ EP       1112 49.28                             111    0.84 9  199 269 
 HEL  HN ES       1113 11.41                             111   -0.01 9  199 269 
 HEL  HZ I        1113 15.27         3.5 0.48            110            199 269 
 GUY2CHE ES       1113 14.19                             109   -0.28 8  212 238 
 GUY2CHZ I        1113 22.39         2.4 0.19                           212 238 
 SML  HZ EP       1112 57.86                             104   -0.49 7  286 353 
 SML  HN ES       1113 29.04                             104   -0.02 7  286 353 
 SML  HZ I        1113 37.55         2.9 0.22            103            286 353 
 PRA  HE ES   1   1113 33.68                             103    0.25 5  306 205 
 PRA  HZ I        1113 41.87         1.1 0.40            102            306 205 
                                                                                
