 2014  1 5 1136 42.4 L   6.851 -73.073146.2  RSN  5 0.4 1.4LRSN                1
 GAP=208        0.70       6.6     6.3  9.3  0.5571E+01  0.1229E+02 -0.8025E+01E
 Epicentro: LOS SANTOS - SANTANDER                                             3
 ACTION:UPD 14-03-13 09:51 OP:ep   STATUS:               ID:20140105113642 L   I
 OLDACT:REG 14-01-05 14:39 OP:mh   STATUS:               ID:20140105113000     3
 2014-01-05-1130-00M.COL___285                                                 6
 STAT SP IPHASW D HRMM SECON CODA AMPLIT PERI AZIMU VELO AIN AR TRES W  DIS CAZ7
 BAR2 SZ EP       1137  2.05                             167   -0.1610 31.0 203 
 BAR2 SZ ES   2   1137 17.62                             167   -0.08 5 31.0 203 
 BAR2 SZ I        1137 20.76         7.7 0.30            163           31.0 203 
 RUS  HZ EP   1   1137  6.79                             142    0.26 7  106 181 
 RUS  HN ES   2   1137 25.85                             142    0.45 5  106 181 
 RUS  HZ I        1137 27.84         2.9 0.30            142            106 181 
 PTB  HZ EP       1137  9.76                             130   -0.42 9  157 257 
 PTB  HN ES   1   1137 31.61                             130   -0.28 7  157 257 
 PTB  HZ I        1137 33.74         3.3 0.11            132            157 257 
 SML  HN ES   2   1137 48.09                             118    0.80 4  242 333 
 NOR  HZ EP   1   1137 19.64                             117    0.48 6  245 234 
 NOR  HN ES   2   1137 48.62                             117    0.75 4  245 234 
 NOR  HZ I        1137 52.54         1.7 0.09            119            245 234 
 GUY2CHZ EP   4   1137 28.82                             111    1.73 0  311 235 
 GUY2CHN ES   4   1138  3.51                             111    1.53 0  311 235 
                                                                                
