 2014  2 5 1742 20.6 L   6.797 -73.185150.5  RSN  6 0.5 1.7LRSN                1
 GAP=197        1.23       4.8     8.5  7.8  0.1470E+02  0.2621E+01 -0.2231E+01E
 Epicentro: LOS SANTOS - SANTANDER                                             3
 ACTION:UPD 14-03-10 08:07 OP:ep   STATUS:               ID:20140205174220 L   I
 OLDACT:REG 14-02-05 15:19 OP:nd   STATUS:               ID:20140205174000     3
 2014-02-05-1740-00M.COL___288                                                 6
 STAT SP IPHASW D HRMM SECON CODA AMPLIT PERI AZIMU VELO AIN AR TRES W  DIS CAZ7
 BAR2 SZ EP       1742 40.89                             171    0.0910 22.7 179 
 BAR2 SZ ES       1742 56.26                             171   -0.2910 22.7 179 
 BAR2 SZ I        1742 57.19         9.9 0.10            169           22.7 179 
 BRR  HZ EP       1742 42.98                             155    0.8910 67.6 301 
 BRR  HN ES       1742 59.64                             155    0.8110 67.6 301 
 BRR  HZ I        1743  3.94        13.3 0.44            151           67.6 301 
 RUS  HZ EP       1742 44.74                             145   -0.1010  101 174 
 RUS  HN ES       1743  3.34                             145   -0.4010  101 174 
 RUS  HZ I        1743  4.68         4.0 0.26            145            101 174 
 PTB  HZ EP       1742 47.26                             134   -0.33 9  143 259 
 PTB  HN ES       1743  8.26                             134   -0.37 9  143 259 
 PTB  HZ I        1743 11.74         6.1 0.16            132            143 259 
 SML  HZ EP       1742 56.97                             119   -0.38 8  242 336 
 SML  HN ES       1743 25.30                             119   -0.70 8  242 336 
 SML  HZ I        1743 30.83         5.5 0.24            119            242 336 
 CHI  HZ EP       1742 58.94                             118    0.51 8  247 194 
 CHI  HN ES       1743 27.92                             118   -0.00 8  247 194 
 CHI  HZ I        1743 36.04         1.7 0.32            118            247 194 
                                                                                
