 2010  7 5 1351  5.5 L   6.800 -73.047147.2  RSN 15 0.4 2.9LRSN                1
 GAP=133        0.80       3.5     5.3  5.2 -0.8940E+01  0.7088E+00  0.2959E+01E
 Epicentro: LOS SANTOS - SANTANDER                                             3
 ACTION:UPD 10-12-01 15:15 OP:pat  STATUS:               ID:20100705135105 L   I
 2010-07-05-1349-19S.COL___118                                                 6
 STAT SP IPHASW D HRMM SECON CODA AMPLIT PERI AZIMU VELO AIN AR TRES W  DIS CAZ7
 BAR2 SZ IP       1351 25.28                             169    -0.110   28 213 
 BAR2 SZ ES   1   1351 40.89                             169     0.0 7   28 213 
 BRR  HZ IP     C 1351 27.13                             150    -0.310   81 295 
 BRR  HE ES   1   1351 44.11                             150    -0.3 7   81 295 
 BRR  HZ I        1351 46.50       124.6 0.27                            81 295 
 RUS  HZ EP       1351 29.17                             144    -0.210  100 182 
 RUS  HE ES   1   1351 48.18                             144     0.2 7  100 182 
 RUS  HZ I        1351 49.87       106.3 0.50                           100 182 
 GUE  SZ EP   1   1351 30.29                             140     0.1 7  115   7 
 GRA  SZ EP       1351 31.09                             138     0.410  123  13 
 GRA  SZ ES   2   1351 50.72                             138     0.5 5  123  13 
 OCA  SZ EP   2   1351 33.65                             130    -0.4 5  162 349 
 OCA  SZ ES   2   1351 56.45                             130     0.1 5  162 349 
 OCA  SZ I        1352  0.52        94.6 0.25                           162 349 
 CHI  HZ EP       1351 43.22                             117    -0.4 8  252 198 
 CHI  HZ I        1352 21.02        37.5 0.54                           252 198 
 ROSC BZ EP   1   1351 45.16                             116     0.8 6  259 213 
 ROSC BN ES   2   1352 15.17                             116     0.6 4  259 213 
 ROSC BZ I        1352 18.78        40.8 0.53                           259 213 
 HEL  HZ EP   2   1351 46.96                             114     0.0 4  283 256 
 HEL  HZ I        1352 23.36        39.7 0.25                           283 256 
 GUY  HZ EP   1   1351 49.97                             112    -0.2 5  310 236 
 GUY  HE ES   2   1352 25.74                             112     0.7 4  310 236 
 RREF HZ EP   1   1351 52.28                             110    -0.4 5  330 231 
 RREF HN ES   1   1352 30.07                             110     0.6 5  330 231 
 RREF HZ I        1352 36.91        43.7 0.55                           330 231 
 TOL  SZ EP   1   1351 55.42                             109     0.7 5  351 226 
 SDV  BZ EP   1   1351 54.68                             109     0.0 5  352  49 
 SDV  BE ES   2   1352 33.43                             109     0.5 3  352  49 
 SDV  BZ I        1352 34.23        15.3 0.34                           352  49 
 ANIL HZ EP   2   1351 56.80                             108     0.5 3  365 226 
 ANIL HN ES   1   1352 35.98                             108     0.1 5  365 226 
 ANIL HZ I        1352 41.55        77.6 0.36                           365 226 
 PRA  HZ EP       1351 58.76                             106    -0.9 6  397 211 
 PRA  HN ES   2   1352 41.55                             106    -0.4 3  397 211 
 PRA  HZ I        1352 47.11        44.2 0.26                           397 211 
                                                                                
