 2016  3 5 1337 21.5 L   6.810 -73.163144.1  RSN  7 0.4 1.7LRSN                1
 GAP=134        0.92       4.2     4.8  6.7  0.4616E+01  0.1226E+02  0.3328E+01E
 Epicentro: LOS SANTOS - SANTANDER                                             3
 ACTION:UPD 16-05-13 21:21 OP:cam  STATUS:               ID:20160305133721 L   I
 OLDACT:UP  16-03-05 22:38 OP:mh   STATUS:               ID:20160305132748     3
 OLDACT:UP  16-03-05 22:37 OP:mh   STATUS:               ID:20160305132748     3
 OLDACT:UP  16-03-05 22:37 OP:mh   STATUS:               ID:20160305132748     3
 OLDACT:UP  16-03-05 22:37 OP:mh   STATUS:               ID:20160305132748     3
 OLDACT:UP  16-03-05 22:37 OP:mh   STATUS:               ID:20160305132748     3
 OLDACT:REG 16-03-05 20:51 OP:mh   STATUS:               ID:20160305132748     3
 2016-03-05-1327-48M.COL___327                                                 6
 STAT SP IPHASW D HRMM SECON CODA AMPLIT PERI AZIMU VELO AIN AR TRES W  DIS CAZ7
 BAR2 EZ EP       1337 40.91                             170   -0.0410 24.1 185 
 BAR2 EZ ES       1337 56.09                             170   -0.0310 24.1 185 
 BAR2 EZ I        1337 56.63        12.0 0.24            167           24.1 185 
 PAM  EN ES   1   1338  0.37                             150   -0.41 7 77.8  41 
 RUS  HZ EP       1337 45.27                             143    0.0910  102 175 
 RUS  HN ES       1338  4.14                             143    0.4910  102 175 
 RUS  HZ I        1338  4.93         3.5 0.52            143            102 175 
 PTB  HZ EP       1337 47.72                             132   -0.47 9  146 258 
 PTB  HN ES       1338  8.49                             132   -0.51 9  146 258 
 PTB  HZ I        1338 10.50         5.7 0.14            130            146 258 
 SPBC HZ EP       1337 49.88                             129    0.04 9  163 218 
 SPBC HE ES   1   1338 12.50                             129    0.56 7  163 218 
 SPBC HZ I        1338 18.62         7.9 0.34            128            163 218 
 ZAR  HN EP       1337 54.32                             122    0.70 9  202 292 
 ZAR  HE ES       1338 18.88                             122    0.21 9  202 292 
 ZAR  HN I        1338 25.63        12.5 0.28            122            202 292 
 CHI  HZ EP   1   1337 58.91                             117   -0.26 6  249 195 
 CHI  HN ES       1338 28.06                             117   -0.49 8  249 195 
 CHI  HZ I        1338 30.71         2.3 0.30            117            249 195 
                                                                                
