 2012  8 5 1027 25.5 L   6.772 -73.142146.1  RSN  7 0.4 1.9LRSN                1
 GAP=138        0.81       4.9     5.1  6.4 -0.2683E+01  0.4469E+01  0.5310E+01E
 Epicentro: LOS SANTOS - SANTANDER                                             3
 ACTION:UP  12-09-10 11:54 OP:ep   STATUS:               ID:20120805102725 L   I
 2012-08-05-1020-00M.COL___216                                                 6
 STAT SP IPHASW D HRMM SECON CODA AMPLIT PERI AZIMU VELO AIN AR TRES W  DIS CAZ7
 BAR2 SZ EP       1027 45.13                             172    0.0110 20.4 193 
 BAR2 SZ ES   1   1028  0.27                             172   -0.14 7 20.4 193 
 BAR2 SZ I        1028  1.49        24.6 0.18                          20.4 193 
 BRR  HZ IP     C 1027 47.00                             152    0.2010 73.1 300 
 BRR  HZ I        1027 47.25        39.1 0.32            3.2           73.1 300 
 BRR  HN ES   1   1028  4.27                             152    0.87 7 73.1 300 
 PAM  SZ EP       1027 47.97                             150    0.0910 79.5  38 
 PAM  SZ I        1027 48.22         9.2 0.16                          79.5  38 
 PAM  SN ES   1   1028  4.77                             150   -0.56 7 79.5  38 
 RUS  HZ EP       1027 49.29                             145    0.2210 97.5 176 
 RUS  HN ES   1   1028  7.41                             145   -0.03 7 97.5 176 
 RUS  HZ I        1028  8.58         9.0 0.52                          97.5 176 
 PTB  HZ EP       1027 52.27                             132   -0.22 9  148 260 
 PTB  HN ES   1   1028 12.89                             132   -0.64 7  148 260 
 PTB  HZ I        1028 20.27         5.9 0.44                           148 260 
 OCA  HN ES   3   1028 15.19                             129   -1.27 2  163 353 
 OCA  HZ I        1028 25.27        15.5 0.28                           163 353 
 PRA  HZ EP       1028 18.67                             107   -0.08 6  390 210 
 PRA  HZ I        1029  6.85         1.9 0.26                           390 210 
                                                                                
