 2015  9 5 1203 47.3 L   6.831 -73.137141.4  RSN  6 0.4 1.7LRSN                1
 GAP=202        1.08       5.7     6.9  8.2  0.1374E+02  0.5475E+01 -0.1922E+02E
 Epicentro: LOS SANTOS - SANTANDER                                             3
 ACTION:UPD 15-10-28 16:24 OP:cam  STATUS:               ID:20150905120347 L   I
 OLDACT:DUP 15-09-05 22:26 OP:mh   STATUS:               ID:20150905115748d    3
 2015-09-05-1157-47M.COL___352                                                 6
 STAT SP IPHASW D HRMM SECON CODA AMPLIT PERI AZIMU VELO AIN AR TRES W  DIS CAZ7
 BAR2 EZ EP       12 4  6.69                             169    0.2110 26.9 191 
 BAR2 EZ ES       12 4 21.18                             169   -0.2610 26.9 191 
 BAR2 EZ I        12 4 22.76         9.9 0.47            174           26.9 191 
 BRR  HZ EP       12 4  8.26                             152    0.3310 70.5 296 
 BRR  HN ES       12 4 24.34                             152    0.3210 70.5 296 
 BRR  HZ I        12 4 47.19        10.3 0.36            153           70.5 296 
 RUS  HN ES       12 4 29.22                             142   -0.0410  104 177 
 PTB  HZ EP       12 4 13.17                             131   -0.89 9  149 258 
 PTB  HN ES       12 4 34.91                             131   -0.02 9  149 258 
 PTB  HZ I        12 4 36.99         4.1 0.14            139            149 258 
 ZAR  HZ EP       12 4 20.34                             121    0.93 9  204 291 
 ZAR  HN ES       12 4 44.38                             121   -0.09 9  204 291 
 ZAR  HZ I        12 4 49.76         4.8 0.28            129            204 291 
 SML  HZ EP       12 4 23.22                             117   -0.16 8  241 335 
 SML  HN ES       12 4 51.08                             117   -0.45 8  241 335 
 SML  HZ I        12 4 52.84         4.2 0.10            124            241 335 
                                                                                
