 2010  4 5 1731 24.2 L   6.787 -72.984139.8  RSN  9 0.4 2.4LRSN                1
 GAP=151        0.65       3.7     6.4  6.5 -0.1103E+02 -0.1005E+02  0.6374E+01E
 Epicentro: CEPITA - SANTANDER                                                 3
 ACTION:UP  10-08-24 09:57 OP:vdl  STATUS:               ID:20100405173124 L   I
 2010-04-05-1729-23S.COL___098                                                 6
 STAT SP IPHASW D HRMM SECON CODA AMPLIT PERI AZIMU VELO AIN AR TRES W  DIS CAZ7
 BAR2 SZ EP       1731 43.45                             167     0.210   31 226 
 BAR2 SZ ES   2   1731 57.87                             167    -0.3 5   31 226 
 BRR  HZ EP       1731 45.71                             146     0.010   88 294 
 BRR  HN ES   2   1732  3.03                             146     0.5 5   88 294 
 BRR  HZ I        1732  4.85        26.5 0.25                            88 294 
 OCA  SZ EP       1731 52.45                             127     0.0 9  165 347 
 OCA  SZ ES   1   1732 14.17                             127    -0.4 7  165 347 
 OCA  SZ I        1732 19.19        35.3 0.02                           165 347 
 CHI  HZ EP   2   1732  1.25                             115    -0.7 4  253 199 
 CHI  HN ES   2   1732 31.06                             115    -0.4 4  253 199 
 CHI  HZ I        1732 36.67         8.6 0.45                           253 199 
 HEL  HZ EP   2   1732  4.93                             112    -1.1 4  289 257 
 RREF BZ EP       1732 11.96                             109     0.4 7  335 232 
 RREF BE ES   2   1732 48.88                             109     0.4 3  335 232 
 RREF BZ I        1732 52.20        12.0 0.39                           335 232 
 SDV  BZ EP       1732 12.76                             108     0.2 6  348  48 
 SDV  BZ I        1732 13.77        14.5 0.19                           348  48 
 TOL  SZ EP   2   1732 13.85                             107     0.3 3  355 227 
 PRA  HZ EP   2   1732 17.88                             105    -0.5 3  400 212 
 PRA  HE ES   2   1733  0.76                             105     0.0 3  400 212 
 PRA  HZ I        1733  4.99        11.4 0.36                           400 212 
                                                                                
