 2017  7 5 1326 45.8 L   6.809 -73.159146.2  RSN 17 0.5 2.4LRSN                1
 GAP=102        1.08       3.8     2.8  5.8  0.5497E+00  0.3736E+01  0.5824E+01E
 Epicentro: LOS SANTOS - SANTANDER                                             3
 ACTION:UPD 17-08-30 15:30 OP:rebc STATUS:               ID:20170705132645 L   I
 OLDACT:UP  17-07-06 00:51 OP:ar   STATUS:               ID:20170705131741     3
 OLDACT:UP  17-07-06 00:48 OP:ar   STATUS:               ID:20170705131741     3
 OLDACT:UP  17-07-06 00:48 OP:ar   STATUS:               ID:20170705131741     3
 OLDACT:REG 17-07-05 21:28 OP:ar   STATUS:               ID:20170705131741     3
 2017-07-05-1318-00M.COL___374                                                 6
 STAT SP IPHASW D HRMM SECON CODA AMPLIT PERI AZIMU VELO AIN AR TRES W  DIS CAZ7
 BAR2 EZ IP     D 1327  5.20                             170   -0.3210 24.1 186 
 BAR2 EZ ES       1327 20.97                             170    0.0910 24.1 186 
 BAR2 EZ I        1327 21.38        68.7 0.18            168           24.1 186 
 BRR  HZ EP       1327  7.09                             153    0.1710 69.4 298 
 BRR  HN ES       1327 24.23                             153    0.8510 69.4 298 
 BRR  HZ I        1327 27.12        28.6 0.22            152           69.4 298 
 PAM  EZ EP       1327  8.20                             151    0.1110 77.6  41 
 PAM  EE ES       1327 25.26                             151   -0.2110 77.6  41 
 PAM  EZ I        1327 27.30        61.2 0.50            155           77.6  41 
 PTB  HZ EP       1327 11.96                             132   -0.75 9  147 258 
 PTB  HN ES       1327 32.84                             132   -0.84 9  147 258 
 PTB  HZ I        1327 39.15        18.0 0.22            132            147 258 
 TAM  HZ IP     D 1327 13.64                             130   -0.05 9  157 105 
 TAM  HN ES       1327 35.43                             130    0.01 9  157 105 
 SPBC HZ EP       1327 14.38                             129    0.04 9  163 218 
 SPBC HN ES       1327 36.35                             129   -0.23 9  163 218 
 SPBC HZ I        1327 40.32        51.3 0.42            129            163 218 
 YPLC HZ IP     D 1327 15.65                             126   -0.15 9  178 151 
 YPLC HE ES       1327 39.59                             126    0.41 9  178 151 
 YPLC HZ I        1327 42.31        25.2 0.24            128            178 151 
 ZAR  HZ EP       1327 17.95                             123   -0.16 9  202 292 
 ZAR  HN ES       1327 43.09                             123   -0.21 9  202 292 
 ZAR  HZ I        1327 48.10        28.4 0.34            123            202 292 
 TABC EZ EP   4   1327 23.54                             119    1.94 0  230 210 
 TABC EZ ES   4   1327 55.54                             119    6.02 0  230 210 
 TABC EZ I        1327 57.40        28.8 0.40            120            230 210 
 NOR  HZ EP       1327 21.29                             119   -0.22 8  234 234 
 NOR  HE ES       1327 49.68                             119    0.34 8  234 234 
 NOR  HZ I        1327 50.67        13.7 0.26            119            234 234 
 ROSC BZ EP   4   1327 25.95                             117    1.98 0  253 211 
 ROSC BN ES   4   1327 56.51                             117    2.78 0  253 211 
 ROSC BZ I        1327 59.70        39.8 0.40            117            253 211 
 HEL  HZ EP   4   1327 27.70                             115    1.78 0  271 256 
 HEL  HN ES       1327 56.92                             115   -0.28 8  271 256 
 HEL  HZ I        1328  3.27        16.5 0.28            115            271 256 
 URE  HZ EP   4   1327 29.96                             114    3.24 0  282 292 
 URE  HE ES   4   1327 56.84                             114   -1.78 0  282 292 
 URE  HZ I        1328  8.90        12.9 0.16            114            282 292 
 GUY2CHZ EP       1327 30.22                             112    0.84 7  301 234 
 GUY2CHN ES   4   1328  5.25                             112    1.90 0  301 234 
 GUY2CHZ I        1328 11.44        12.9 0.38                           301 234 
 VIL  EN ES       1328  2.93                             112   -0.34 7  304 191 
 PTGC HZ EP   9   1327 28.41                             111   -1.45 0  310 158 
 PTGC HN ES       1328  2.19                             111   -0.57 7  310 158 
 CBOC HZ EP       1327 33.49                             110    0.87 7  333 252 
 CBOC HN ES       1328 10.02                             110    0.89 7  333 252 
 CBOC HZ I        1328 14.75         4.8 0.40            110            333 252 
                                                                                
