 2011  4 5 1204 52.3 L   6.713 -73.141146.4  RSN  5 0.4 2.0LRSN                1
 GAP=204        0.96       7.9    15.1  8.6  0.1247E+02  0.5681E+00  0.3108E+02E
 Epicentro: JORDAN - SANTANDER                                                 3
 ACTION:UP  11-06-22 15:29 OP:REBC STATUS:               ID:20110405120452 L   I
 2011-04-05-1203-29S.COL___122                                                 6
 STAT SP IPHASW D HRMM SECON CODA AMPLIT PERI AZIMU VELO SNR AR TRES W  DIS CAZ7
 BAR2 SZ IP       12 5 11.51                             174    -0.310   14 199 
 BAR2 SZ ES   1   12 5 26.90                             174    -0.2 7   14 199 
 BAR2 SZ I        12 5 28.25        26.6 0.21                            14 199 
 BTL  SZ IP       12 5 11.92                             169    -0.210   27 328 
 BTL  SZ ES   1   12 5 27.30                             169    -0.2 7   27 328 
 GIR2 SZ IP       12 5 12.82                             164     0.510   41 352 
 GIR2 SZ ES   2   12 5 28.87                             164     0.9 5   41 352 
 BRR  HZ IP     C 12 5 13.40                             151    -0.410   77 305 
 BRR  HZ I        12 5 13.64        29.8 0.13                            77 305 
 BRR  HN ES   1   12 5 30.90                             151     0.3 7   77 305 
 CHI  HZ EP       12 5 29.47                             118     0.4 8  239 196 
 CHI  HN ES   2   12 5 57.60                             118    -0.1 4  239 196 
 CHI  HZ I        12 6  7.50         3.2 0.51                           239 196 
                                                                                
