 2011  6 5 1407 36.4 L   6.818 -73.139144.0  RSN 12 0.4 2.9LRSN                1
 GAP=136        0.92       3.6     5.2  6.1 -0.5459E+01  0.1106E+02  0.3308E+01E
 Epicentro: LOS SANTOS - SANTANDER                                             3
 ACTION:UP  11-07-14 19:03 OP:ep   STATUS:               ID:20110605140736 L   I
 2011-06-05-1406-01S.COL___126                                                 6
 STAT SP IPHASW D HRMM SECON CODA AMPLIT PERI AZIMU VELO SNR AR TRES W  DIS CAZ7
 BAR2 SZ IP       14 7 55.84                             169     0.010   25 191 
 BAR2 SZ ES   1   14 8 10.52                             169    -0.5 7   25 191 
 BAR2 SZ I        14 8 12.10       174.0 0.30                            25 191 
 BRR  HZ IP     C 14 7 57.64                             152     0.310   71 297 
 BRR  HN ES   1   14 8 14.36                             152     0.7 7   71 297 
 BRR  HZ I        14 8 18.43       234.2 0.15                            71 297 
 PAM  SZ EP       14 7 58.57                             151     0.310   75  40 
 PAM  SN ES   1   14 8 15.38                             151     0.0 7   75  40 
 PAM  SZ I        14 8 17.88        64.9 0.50                            75  40 
 RUS  HZ EP       14 7 59.78                             143    -0.310  103 177 
 RUS  HN ES   1   14 8 18.78                             143     0.2 7  103 177 
 RUS  HZ I        14 8 20.38        91.0 0.27                           103 177 
 OCA  SZ EP       14 8  3.70                             130    -0.7 9  158 353 
 OCA  SZ ES   1   14 8 26.22                             130     0.0 7  158 353 
 OCA  SZ I        14 8 29.45       136.6 0.21                           158 353 
 NOR  SZ EP   1   14 8 12.16                             118     0.0 6  236 234 
 NOR  SN ES   1   14 8 39.70                             118    -0.4 6  236 234 
 NOR  SZ I        14 8 43.73        13.9 0.34                           236 234 
 CHI  HZ EP   1   14 8 14.10                             117    -0.1 6  251 195 
 CHI  HN ES   1   14 8 43.80                             117     0.1 6  251 195 
 CHI  HZ I        14 8 48.79        49.6 0.27                           251 195 
 HEL  HZ EP       14 8 16.55                             114    -0.1 8  273 255 
 HEL  HN ES   1   14 8 47.39                             114    -0.6 6  273 255 
 HEL  HZ I        14 8 54.99        70.9 0.55                           273 255 
 GUY  SZ EP   1   14 8 20.19                             112    -0.2 5  305 235 
 GUY  SE ES   1   14 8 54.68                             112     0.0 5  305 235 
 RREF HZ EP   1   14 8 22.90                             110     0.3 5  324 229 
 TOL  SZ EP       14 8 25.74                             109     1.0 6  345 224 
 PRA  HZ EP   1   14 8 29.91                             106    -0.2 4  394 210 
 PRA  HN ES   1   14 9 12.01                             106     0.1 4  394 210 
 PRA  HZ I        14 9 18.69       163.9 0.18                           394 210 
                                                                                
