 2016 11 5 1017 47.7 L   6.712 -73.209144.0  RSN  4 0.4 1.5LRSN                1
 GAP=219        1.03      11.4     7.3  9.0  0.3101E+02  0.1760E+02  0.3556E+01E
 Epicentro: VILLANUEVA - SANTANDER                                             3
 ACTION:UPD 17-10-26 21:04 OP:lp   STATUS:               ID:20161105101747 L   I
 OLDACT:REG 16-11-05 19:38 OP:cog  STATUS:               ID:20161105100747     3
 2016-11-05-1008-00M.COL___337                                                 6
 STAT SP IPHASW D HRMM SECON CODA AMPLIT PERI AZIMU VELO AIN AR TRES W  DIS CAZ7
 BAR2 EZ EP       1018  6.68                             174   -0.3310 13.5 168 
 BAR2 EZ ES       1018 22.15                             174    0.1210 13.5 168 
 BAR2 EZ I        1018 26.00         4.5 0.43            176           13.5 168 
 BRR  HZ EP       1018  9.35                             152    0.6710 70.8 308 
 BRR  HZ I        1018 17.16        11.5 0.34            150           70.8 308 
 BRR  HN ES       1018 24.73                             152   -0.2810 70.8 308 
 PTB  HZ EP       1018 13.27                             133   -0.54 9  139 262 
 PTB  HN ES       1018 34.48                             133    0.34 9  139 262 
 PTB  HZ I        1018 36.59         2.9 0.14            134            139 262 
 ZAR  HZ EP   2   1018 20.73                             122    0.90 4  202 295 
 ZAR  HN ES       1018 44.61                             122   -0.24 9  202 295 
 ZAR  HZ I        1018 49.95         2.5 0.30            121            202 295 
                                                                                
