 2013  8 5 1323  5.2 L   6.806 -73.166146.8  RSN  6 0.4 1.7LRSN                1
 GAP=181        0.81       5.7     6.0  8.3  0.1507E+02  0.2604E+02  0.7275E+01E
 Epicentro: LOS SANTOS - SANTANDER                                             3
 ACTION:UPD 14-01-14 08:59 OP:ep   STATUS:               ID:20130805132305 L   I
 OLDACT:REG 13-08-05 17:41 OP:carl STATUS:               ID:20130805131959     3
 2013-08-05-1319-59M.COL___269                                                 6
 STAT SP IPHASW D HRMM SECON CODA AMPLIT PERI AZIMU VELO AIN AR TRES W  DIS CAZ7
 BAR2 SZ EP   1   1323 25.08                             170    0.09 7 23.7 184 
 BAR2 SZ ES       1323 40.29                             170   -0.1110 23.7 184 
 BAR2 SZ I        1323 42.01         9.3 0.20            169           23.7 184 
 GIR2 SZ ES       1323 40.04                             168   -0.3810 30.4 354 
 GIR2 SZ I        1323 41.99         7.0 0.40            169           30.4 354 
 BRR  HZ EP   1   1323 26.93                             153    0.57 7 69.0 299 
 BRR  HE ES   1   1323 43.61                             153    0.76 7 69.0 299 
 BRR  HE I        1323 44.29        25.3 0.18            154           69.0 299 
 RUS  HN ES       1323 47.79                             144    0.0010  101 175 
 RUS  HN I        1323 49.04         9.2 0.34            145            101 175 
 PTB  HZ EP   1   1323 31.78                             132   -0.32 7  146 258 
 PTB  HN ES       1323 53.13                             132    0.08 9  146 258 
 PTB  HZ I        1323 55.76         4.3 0.20            133            146 258 
 ZAR  HN ES       1324  2.38                             123   -0.30 9  202 292 
                                                                                
