 2015  7 5 1121 16.1 L   6.857 -73.113140.8  RSN  8 0.4 2.0LRSN                1
 GAP=138        0.98       3.2     4.8  7.1 -0.1309E+01  0.1827E+02 -0.2330E+01E
 Epicentro: LOS SANTOS - SANTANDER                                             3
 ACTION:UPD 15-09-08 21:47 OP:cam  STATUS:               ID:20150705112116 L   I
 OLDACT:REG 15-07-05 20:32 OP:mh   STATUS:               ID:20150705111748     3
 2015-07-05-1117-48M.COL___331                                                 6
 STAT SP IPHASW D HRMM SECON CODA AMPLIT PERI AZIMU VELO AIN AR TRES W  DIS CAZ7
 BAR2 EZ EP   1   1121 35.36                             167    0.02 7 30.3 195 
 BAR2 EZ ES       1121 50.24                             167   -0.0810 30.3 195 
 BAR2 EZ I        1121 55.50        11.4 0.26            168           30.3 195 
 PAM  EZ EP       1121 38.22                             152    0.8110 70.2  41 
 PAM  EN ES       1121 54.37                             152    0.3810 70.2  41 
 PAM  EZ I        1121 56.82        18.7 0.46            157           70.2  41 
 RUS  HZ EP       1121 39.52                             141   -0.3510  107 178 
 RUS  HN ES       1121 57.96                             141   -0.4210  107 178 
 RUS  HZ I        1122  1.15         6.2 0.48            147            107 178 
 OCA  HZ EP       1121 43.22                             130   -0.30 9  154 352 
 OCA  HN ES       1122  4.67                             130   -0.20 9  154 352 
 OCA  HZ I        1122 10.88        31.2 0.44            133            154 352 
 ZAR  HZ EP       1121 48.06                             121   -0.32 9  205 290 
 ZAR  HN ES       1122 13.97                             121    0.45 9  205 290 
 ZAR  HZ I        1122 18.59        25.4 0.26            124            205 290 
 SML  HZ EP   4   1121 50.37                             117   -1.67 0  239 334 
 SML  HN ES       1122 19.43                             117   -0.60 8  239 334 
 SML  HZ I        1122 23.37        16.1 0.10            120            239 334 
 HEL  HZ EP   1   1121 56.72                             113    0.05 6  277 255 
 HEL  HN ES       1122 28.12                             113   -0.17 7  277 255 
 HEL  HZ I        1122 34.38         5.5 0.36            117            277 255 
 GUY2CHZ EP       1122  0.71                             111    0.43 7  308 234 
 GUY2CHN ES   1   1122 35.49                             111    0.79 5  308 234 
 GUY2CHZ I        1122 42.64         4.1 0.32                           308 234 
                                                                                
