 2012  4 5 1005 58.7 L   5.898 -73.894116.8  RSN  4 0.4 1.0LRSN                1
 GAP=228        0.89      11.3     9.2 17.7  0.2437E+02  0.5511E+02  0.2963E+02E
 Epicentro: SUCRE - SANTANDER                                                  3
 ACTION:UPD 12-07-05 11:50 OP:tino STATUS:               ID:20120405100558 L   I
 2012-04-05-1000-00M.COL___196                                                 6
 STAT SP IPHASW D HRMM SECON CODA AMPLIT PERI AZIMU VELO AIN AR TRES W  DIS CAZ7
 RUS  HN ES   2   10 6 34.49                             142    -0.1 5   90  90 
 RUS  HZ I        10 6 36.00         1.7 0.24                            90  90 
 PTB  HZ EP       10 6 18.86                             139     0.310   94 319 
 PTB  HE ES   3   10 6 33.25                             139    -0.8 2   94 319 
 PTB  HZ I        10 6 35.22         1.3 0.10                            94 319 
 BAR2 SZ EP       10 6 20.33                             135     0.110  110  46 
 BAR2 SZ I        10 6 36.41         4.5 0.30                           110  46 
 BRR  HZ EP       10 6 21.67                             129    -0.5 9  135   9 
 BRR  HE ES   1   10 6 40.83                             129     0.3 7  135   9 
                                                                                
