 2012  8 5 1119 35.9 L   6.781 -73.124150.4  RSN 14 0.5 2.1LRSN                1
 GAP= 73        0.75       4.3     5.1  6.5 -0.1089E+01  0.1603E+02  0.6803E+01E
 Epicentro: LOS SANTOS - SANTANDER                                             3
 ACTION:UPD 12-09-10 11:54 OP:ep   STATUS:               ID:20120805111935 L   I
 2012-08-05-1117-44M.COL___205                                                 6
 STAT SP IPHASW D HRMM SECON CODA AMPLIT PERI AZIMU VELO AIN AR TRES W  DIS CAZ7
 BAR2 SZ EP       1119 56.13                             171    0.0410 21.8 197 
 BAR2 SZ I        1120 14.13        26.9 0.30                          21.8 197 
 BRR  HZ EP       1119 58.05                             152    0.2910 74.3 299 
 BRR  HN ES   1   1120 15.28                             152    0.50 7 74.3 299 
 BRR  HZ I        1120 19.91        29.3 0.62                          74.3 299 
 PAM  SZ EP       1119 58.93                             151    0.2710 77.6  37 
 PAM  SZ I        1119 59.13        14.5 0.42                          77.6  37 
 PAM  SN ES   1   1120 16.10                             151   -0.28 7 77.6  37 
 RUS  HZ EP       1119 60.00                             145    0.0110 98.3 177 
 RUS  HN ES   1   1120 18.28                             145   -0.47 7 98.3 177 
 RUS  HZ I        1120 19.93         8.6 0.40                          98.3 177 
 PTB  HZ EP       1120  2.84                             133   -0.62 9  150 260 
 PTB  HN ES   3   1120 23.83                             133   -1.09 2  150 260 
 PTB  HZ I        1120 27.43        11.1 0.14                           150 260 
 TAM  HN ES   3   1120 25.14                             132   -0.26 2  152 104 
 OCA  HZ EP   3   1120  4.15                             130   -0.68 2  163 352 
 OCA  HN ES   3   1120 26.31                             130   -1.06 2  163 352 
 OCA  HZ I        1120 31.45        33.2 0.12                           163 352 
 ZAR  HZ EP   3   1120  8.97                             123   -0.02 2  207 292 
 ZAR  HZ I        1120 39.56        14.9 0.26                           207 292 
 NOR  SZ EP       1120 12.15                             119    0.14 8  235 235 
 NOR  SN ES   3   1120 39.41                             119   -0.74 2  235 235 
 CHI  HZ EP   3   1120 13.72                             118   -0.02 2  247 196 
 CHI  HN ES   3   1120 44.50                             118    1.27 2  247 196 
 CHI  HZ I        1120 49.25         5.5 0.32                           247 196 
 HEL  HZ EP       1120 17.11                             115    0.53 8  274 256 
 HEL  HZ I        1120 54.97         4.6 0.38                           274 256 
 GUY  SZ EP   3   1120 20.44                             113    0.34 2  304 236 
 GUY  SE ES   3   1120 55.15                             113    0.60 2  304 236 
 GUY  SZ I        1121  3.59        11.7 0.28                           304 236 
 DBB  SZ EP       1120 23.00                             110   -0.89 7  342 275 
 PRA  HZ EP       1120 29.74                             107    0.20 6  391 210 
 PRA  HN ES   2   1121 12.45                             107    1.10 3  391 210 
 PRA  HZ I        1121 17.59         9.2 0.62                           391 210 
                                                                                
