 2016  8 5 1206 47.7 L   6.771 -73.191149.0  RSN  4 0.3 1.4LRSN                1
 GAP=230        0.90      10.1    11.3  8.1  0.9565E+02  0.3621E+01 -0.2090E+01E
 Epicentro: ZAPATOCA - SANTANDER                                               3
 ACTION:UPD 16-10-29 15:32 OP:rebc STATUS:               ID:20160805120647 L   I
 OLDACT:UP  16-08-05 21:55 OP:dani STATUS:               ID:20160805115759     3
 OLDACT:REG 16-08-05 20:02 OP:dani STATUS:               ID:20160805115759     3
 2016-08-05-1157-59S.COL___340                                                 6
 STAT SP IPHASW D HRMM SECON CODA AMPLIT PERI AZIMU VELO AIN AR TRES W  DIS CAZ7
 BAR2 EZ EP       12 7  7.00                             172   -0.6110 19.8 177 
 BAR2 EZ ES       12 7 23.06                             172   -0.1210 19.8 177 
 BAR2 EZ I        12 7 23.94         5.8 0.16                          19.8 177 
 BRR  HZ EP       12 7  9.24                             154    0.2310 68.5 303 
 BRR  HE ES       12 7 26.00                             154    0.3410 68.5 303 
 BRR  HZ I        12 7 26.66        14.1 0.35                          68.5 303 
 RUS  HZ EP       12 7 11.97                             145    0.4310 97.9 173 
 RUS  HN ES       12 7 30.11                             145   -0.0610 97.9 173 
 RUS  HZ I        12 7 31.29         2.3 0.25                          97.9 173 
 ZAR  HZ EP   4   12 7 21.87                             124    1.90 0  201 294 
 ZAR  HZ I        12 7 43.61         1.6 0.22                           201 294 
 ZAR  HE ES       12 7 44.88                             124   -0.29 9  201 294 
                                                                                
