 2017  1 5 1737 28.6 L   6.799 -73.150147.3  RSN  8 0.4 1.8LRSN                1
 GAP=136        1.04       3.9     4.3  6.2  0.2665E+00  0.7396E+01  0.4903E+01E
 Epicentro: LOS SANTOS - SANTANDER                                             3
 ACTION:UPD 17-05-22 15:55 OP:jn   STATUS:               ID:20170105173728 L   I
 OLDACT:UP  17-01-05 23:59 OP:dnl  STATUS:               ID:20170105172748     3
 OLDACT:REG 17-01-05 20:43 OP:dnl  STATUS:               ID:20170105172748     3
 2017-01-05-1728-00M.COL___375                                                 6
 STAT SP IPHASW D HRMM SECON CODA AMPLIT PERI AZIMU VELO AIN AR TRES W  DIS CAZ7
 BAR2 EZ EP       1737 48.34                             171   -0.0310 23.1 189 
 BAR2 EZ ES       1738  3.47                             171   -0.3510 23.1 189 
 BAR2 EZ I        1738  6.08        23.4 0.32            168           23.1 189 
 BRR  HZ EP       1737 50.21                             153    0.3610 70.8 299 
 BRR  HN ES       1738  7.19                             153    0.7310 70.8 299 
 BRR  HZ I        1738  9.66        14.3 0.20            152           70.8 299 
 PAM  EZ EP       1737 51.07                             151    0.1110 77.8  40 
 PAM  EN ES       1738  8.47                             151    0.0410 77.8  40 
 PAM  EZ I        1738 10.44        11.0 0.42            156           77.8  40 
 RUS  HZ EP       1737 52.24                             144   -0.2210  101 176 
 RUS  HN ES       1738 10.98                             144   -0.1110  101 176 
 RUS  HZ I        1738 12.18        11.7 0.34            144            101 176 
 PTB  HZ EP       1737 55.20                             132   -0.41 9  147 259 
 PTB  HE ES       1738 15.90                             132   -0.80 9  147 259 
 PTB  HZ I        1738 18.61         7.2 0.70            132            147 259 
 ZAR  HZ EP       1738  0.46                             123   -0.60 9  204 292 
 ZAR  HN ES       1738 26.39                             123   -0.02 9  204 292 
 ZAR  HZ I        1738 31.49         6.5 0.26            124            204 292 
 NOR  HZ EP       1738  4.85                             119    0.52 8  234 234 
 NOR  HE ES       1738 32.87                             119    0.65 8  234 234 
 NOR  HZ I        1738 40.14         5.7 0.16            119            234 234 
 CHI  HZ EP       1738  6.53                             117    0.21 8  248 195 
 CHI  HN ES       1738 35.91                             117    0.14 8  248 195 
 CHI  HZ I        1738 45.75         3.0 0.32            118            248 195 
                                                                                
