 2014 12 5 1336 37.3 L   6.383 -73.592115.3  RSN  5 0.4 1.3LRSN                1
 GAP=143        0.83       6.0     3.9  7.9  0.2440E+01  0.5644E+01  0.4863E+01E
 Epicentro: SANTA HELENA DEL OPON - SANTANDER                                  3
 ACTION:UPD 15-02-10 17:00 OP:nd   STATUS:               ID:20141205133637 L   I
 OLDACT:REG 14-12-05 20:42 OP:spq  STATUS:               ID:20141205132746     3
 2014-12-05-1327-46M.COL___300                                                 6
 STAT SP IPHASW D HRMM SECON CODA AMPLIT PERI AZIMU VELO AIN AR TRES W  DIS CAZ7
 BAR2 SZ EP       1336 54.68                             155    0.3010 50.8  63 
 BAR2 SZ ES   1   1337  8.11                             155    0.43 7 50.8  63 
 BAR2 SZ I        1337  9.15        14.6 0.44            157           50.8  63 
 RUS  HZ EP       1336 56.12                             144   -0.3310 78.1 134 
 RUS  HE ES   1   1337 10.78                             144   -0.59 7 78.1 134 
 RUS  HZ I        1337 13.77         1.5 0.36            144           78.1 134 
 SPBC HZ EP   1   1336 57.65                             137    0.32 7 96.7 213 
 SPBC HN ES   1   1337 13.49                             137    0.54 7 96.7 213 
 SPBC HZ I        1337 15.20         4.6 0.22            138           96.7 213 
 PTB  HZ EP       1336 57.23                             137   -0.0410 97.2 280 
 PTB  HN ES       1337 12.50                             137   -0.3410 97.2 280 
 PTB  HZ I        1337 13.06         6.3 0.38            140           97.2 280 
 GUY2CHZ EP   1   1337 12.02                             111    0.03 6  234 237 
                                                                                
