 2012 10 5 1700 54.7 L   6.759 -73.092141.6  RSN  5 0.2 1.4LRSN                1
 GAP=145        0.44       5.1     4.4  5.3 -0.4853E+01 -0.2177E+01  0.4633E+01E
 Epicentro: LOS SANTOS - SANTANDER                                             3
 ACTION:UPD 12-11-22 17:02 OP:ep   STATUS:               ID:20121005170054 L   I
 2012-10-05-1700-00M.COL___222                                                 6
 STAT SP IPHASW D HRMM SECON CODA AMPLIT PERI AZIMU VELO AIN AR TRES W  DIS CAZ7
 BAR2 SZ EP       17 1 13.81                             171    0.0310 21.0 208 
 BAR2 SZ ES   2   17 1 28.54                             171   -0.13 5 21.0 208 
 BAR2 SZ I        17 1 30.00        19.0 0.26                          21.0 208 
 GIR2 SZ EP       17 1 13.80                             164   -0.2510 37.1 342 
 PAM  SZ EP       17 1 16.74                             150    0.2710 77.4  34 
 PAM  SZ I        17 1 16.93         7.6 0.22                          77.4  34 
 PAM  SN ES   1   17 1 33.35                             150   -0.11 7 77.4  34 
 BRR  HZ EP       17 1 15.75                             149   -0.0910 78.6 299 
 BRR  HE ES   1   17 1 32.55                             149    0.22 7 78.6 299 
 RUS  HZ EP   3   17 1 17.80                             144    0.10 2 95.8 179 
 RUS  HZ I        17 1 18.39         1.0 0.30                          95.8 179 
 RUS  HN ES   3   17 1 35.77                             144    0.13 2 95.8 179 
                                                                                
