 2016 11 5 1617 14.9 L   7.587 -73.116145.1  RSN  5 0.2 2.0LRSN                1
 GAP=214        0.65       5.8     3.2  5.6 -0.1342E+01  0.6244E+01 -0.1039E+02E
 Epicentro: EL PLAYON - SANTANDER                                              3
 ACTION:UPD 17-10-26 21:04 OP:lp   STATUS:               ID:20161105161714 L   I
 OLDACT:REG 16-11-05 23:42 OP:cog  STATUS:               ID:20161105160329     3
 2016-11-05-1608-00M.COL___346                                                 6
 STAT SP IPHASW D HRMM SECON CODA AMPLIT PERI AZIMU VELO AIN AR TRES W  DIS CAZ7
 PAM  EZ EP       1617 35.81                             159   -0.0110 53.5 121 
 PAM  EN ES       1617 52.12                             159   -0.0010 53.5 121 
 PAM  EZ I        1617 52.79        10.1 0.22            156           53.5 121 
 BRR  HZ EP       1617 37.04                             148    0.2410 84.5 231 
 BRR  HE ES       1617 54.17                             148    0.2910 84.5 231 
 BRR  HZ I        1617 55.48        27.4 0.12            144           84.5 231 
 BAR2 EZ EP       1617 39.09                             141    0.1210  110 184 
 BAR2 EZ ES       1617 57.26                             141   -0.4710  110 184 
 BAR2 EZ I        1618  3.27        15.9 0.19            137            110 184 
 PTB  HZ EP       1617 45.59                             125   -0.10 9  188 232 
 PTB  HN ES       1618 10.00                             125    0.30 9  188 232 
 PTB  HZ I        1618 13.92         7.5 0.18            123            188 232 
 ZAR  HZ EP       1617 46.05                             124   -0.09 9  193 267 
 ZAR  HN ES       1618 10.15                             124   -0.35 9  193 267 
 ZAR  HZ I        1618 12.02        10.1 0.13            124            193 267 
                                                                                
