 2011  4 5 1555 30.7 L   6.677 -73.083142.0  RSN  7 0.4 2.4LRSN                1
 GAP=213        0.77       7.3    10.9  6.8  0.6743E+01  0.6083E+01  0.1622E+02E
 Epicentro: JORDAN - SANTANDER                                                 3
 ACTION:UP  11-06-22 15:29 OP:REBC STATUS:               ID:20110405155530 L   I
 2011-04-05-1554-05S.COL___122                                                 6
 STAT SP IPHASW D HRMM SECON CODA AMPLIT PERI AZIMU VELO SNR AR TRES W  DIS CAZ7
 BAR2 SZ IP       1555 49.99                             174     0.310   14 229 
 BAR2 SZ I        1555 50.32        44.5 0.08                            14 229 
 BAR2 SZ ES   1   1556  4.52                             174    -0.1 7   14 229 
 BTL  SZ IP       1555 50.12                             166     0.010   34 323 
 BTL  SZ ES   1   1556  5.32                             166     0.0 7   34 323 
 GIR2 SZ EP       1555 50.10                             162    -0.310   46 345 
 GIR2 SZ ES   1   1556  6.40                             162     0.6 7   46 345 
 BRR  HZ IP     C 1555 51.89                             148    -0.410   84 304 
 BRR  HZ I        1555 52.33        44.2 0.13                            84 304 
 BRR  HN ES   1   1556  9.16                             148     0.1 7   84 304 
 CHI  HN ES   2   1556 34.87                             118    -0.4 4  238 198 
 HEL  HZ EP   2   1556 11.65                             114     0.5 4  276 259 
 HEL  HZ I        1556 48.95        14.5 0.37                           276 259 
 PRA  HZ EP   2   1556 24.25                             107     1.1 3  384 211 
                                                                                
