 2013  2 5 1409 59.2 L   7.606 -73.308 12.4  RSN  4 0.2 1.7LRSN                1
 GAP=255        0.62       6.7     2.4  4.5 -0.1028E+02 -0.3347E+01  0.1512E+02E
 Epicentro: EL PLAYON - SANTANDER                                              3
 ACTION:UPD 13-03-12 09:30 OP:ep   STATUS:               ID:20130205140959 L   I
 2013-02-05-1404-48M.COL___164                                                 6
 STAT SP IPHASW D HRMM SECON CODA AMPLIT PERI AZIMU VELO AIN AR TRES W  DIS CAZ7
 BRR  HZ EP       1410 10.34                              97   -0.2410 70.9 219 
 BRR  HN ES       1410 19.72                              97    0.2310 70.9 219 
 PAM  SZ EP       1410 11.41                              97   -0.0410 73.3 114 
 PAM  SE ES       1410 21.14                              97    0.1010 73.3 114 
 PAM  SZ I        1410 21.90        24.9 0.23             96           73.3 114 
 BAR2 SZ EP       1410 16.93                              95   -0.2310  113 173 
 RUS  HZ EP       1410 28.59                              56    0.42 9  191 173 
 RUS  HE ES       1410 50.60                              56   -0.20 9  191 173 
 RUS  HE I        1410 52.11         7.3 0.15             56            191 173 
                                                                                
