 2010  8 5 1730 28.2 L   6.799 -73.083138.0  RSN  5 0.2 1.7LRSN                1
 GAP=166        0.54       3.0     6.6  6.7  0.1991E+01 -0.1977E+02 -0.6072E+01E
 Epicentro: LOS SANTOS - SANTANDER                                             3
 ACTION:UP  10-09-07 10:52 OP:vdl  STATUS:               ID:20100805173027 L   I
 2010-08-05-1725-29S.COL___125                                                 6
 STAT SP IPHASW D HRMM SECON CODA AMPLIT PERI AZIMU VELO SNR AR TRES W  DIS CAZ7
 BAR2 SZ EP       1730 46.88                             170     0.010   26 206 
 BAR2 SZ ES   2   1731  1.16                             170    -0.4 5   26 206 
 BAR2 SZ I        1731  2.91        17.9 0.20                            26 206 
 BRR  HZ EP       1730 48.66                             150    -0.210   77 296 
 BRR  HN ES   1   1731  5.24                             150     0.2 7   77 296 
 BRR  HZ I        1731  9.43        15.4 0.13                            77 296 
 RUS  HZ EP       1730 51.06                             143    -0.110  100 180 
 RUS  HN ES   1   1731  9.34                             143     0.3 7  100 180 
 RUS  HZ I        1731 11.07         7.4 0.39                           100 180 
 GUE  SZ EP       1730 52.22                             139     0.110  115   9 
 GUE  SZ I        1731 11.60         5.1 0.25                           115   9 
 GRA  SZ EP       1730 52.69                             136     0.110  124  14 
 GRA  SZ ES   2   1731 11.40                             136    -0.2 5  124  14 
 GRA  SZ I        1731 13.33        10.2 0.32                           124  14 
                                                                                
