 2012  8 5 1233 51.7 L   6.815 -73.164144.2  RSN 17 0.5 2.8LRSN 3.4WRSN        1
 SPEC AVERAGE  MO 14.2 ST 14.0 OM  2.9 f0 3.57 R0.4274 AL 2.13 WI 26.8 MW  3.4 3
 SPEC SD       MO  0.2 ST 14.4 OM  0.7 f00.767 R0.0739 AL      WI      MW  0.1 3
 GAP= 70        0.95       3.9     4.0  5.5 -0.8949E+00  0.6384E+01  0.3541E+01E
 Epicentro: LOS SANTOS - SANTANDER                                             3
 SPEC OCA HH N MO 14.5 ST 10.1 OM  2.8 f0 2.85 R0.5158 AL 2.02 WI 36.4 MW  3.6 3
 SPEC OCA HH N T123439 K 0.000 GD  213 VS 4.20 DE 3.00 Q0230.0 QA 0.60 VS 4.20 3
 SPEC PTB HH N MO 14.0 ST  3.8 OM  2.3 f0 3.06 R0.4804 AL 2.01 WI 29.9 MW  3.3 3
 SPEC PTB HH N T123436 K 0.000 GD  205 VS 4.20 DE 3.00 Q0230.0 QA 0.60 VS 4.20 3
 SPEC RUS HH E MO 14.2 ST 10.4 OM  2.6 f0 3.58 R0.4106 AL 2.06 WI 25.2 MW  3.4 3
 SPEC RUS HH E T123432 K 0.000 GD  176 VS 4.20 DE 3.00 Q0230.0 QA 0.60 VS 4.20 3
 SPEC HEL HH Z MO 13.9 ST  3.9 OM  1.3 f0 3.21 R0.4579 AL 1.66 WI 28.5 MW  3.2 3
 SPEC HEL HH Z T123431 K 0.000 GD  306 VP 7.60 DE 3.00 Q0230.0 QA 0.60 VS 4.20 3
 SPEC CHI HH N MO 14.2 ST 10.3 OM  2.4 f0 3.53 R0.4164 AL 2.38 WI 19.7 MW  3.4 3
 SPEC CHI HH N T123459 K 0.000 GD  288 VS 4.20 DE 3.00 Q0230.0 QA 0.60 VS 4.20 3
 SPEC BRR HH N MO 14.4 ST 45.4 OM  2.8 f0 5.19 R0.2832 AL 2.66 WI 21.4 MW  3.5 3
 SPEC BRR HH N T123429 K 0.000 GD  159 VS 4.20 DE 3.00 Q0230.0 QA 0.60 VS 4.20 3
 ACTION:UPD 12-09-10 11:54 OP:ep   STATUS:               ID:20120805123351 L   I
 2012-08-05-1230-00M.COL___216                                                 6
 STAT SP IPHASW D HRMM SECON CODA AMPLIT PERI AZIMU VELO AIN AR TRES W  DIS CAZ7
 BAR2 SZ IP       1234 11.26                             170    0.0710 24.7 185 
 BAR2 SZ ES   1   1234 25.82                             170   -0.56 7 24.7 185 
 BAR2 SZ I        1234 27.46       136.1 0.20                          24.7 185 
 BRR  HZ IP     C 1234 13.06                             153    0.5010 68.6 298 
 BRR  HZ I        1234 16.68        87.8 0.12                          68.6 298 
 BRR  HN ES   1   1234 29.66                             153    0.85 7 68.6 298 
 PAM  SZ EP       1234 14.15                             150    0.3810 77.4  41 
 PAM  SN ES   1   1234 30.82                             150   -0.15 7 77.4  41 
 PAM  SZ I        1234 32.74        40.0 0.22                          77.4  41 
 RUS  HZ EP       1234 15.19                             143   -0.2710  102 175 
 RUS  HZ I        1234 16.45        57.3 0.16                           102 175 
 RUS  HN ES   1   1234 33.82                             143   -0.14 7  102 175 
 PTB  HZ EP   1   1234 18.13                             132   -0.29 7  146 258 
 PTB  HN ES   1   1234 38.81                             132   -0.42 7  146 258 
 PTB  HZ I        1234 42.24        41.7 0.14                           146 258 
 TAM  HZ EP       1234 19.72                             130    0.22 9  157 105 
 TAM  HZ I        1234 40.15        58.7 0.30                           157 105 
 TAM  HN ES   2   1234 40.60                             130   -0.56 5  157 105 
 OCA  HZ EP       1234 19.47                             130   -0.26 9  158 354 
 OCA  HN ES   2   1234 40.45                             130   -1.13 5  158 354 
 OCA  HZ I        1234 45.48       120.6 0.32                           158 354 
 ZAR  HZ EP       1234 23.94                             122    0.13 9  202 292 
 ZAR  HZ I        1234 55.92        69.9 0.40                           202 292 
 NOR  SZ EP       1234 27.80                             118    0.51 8  234 234 
 CHI  HZ EP       1234 29.39                             117   -0.07 8  250 195 
 CHI  HN ES   3   1234 59.29                             117    0.40 2  250 195 
 CHI  HZ I        1235  3.17        23.6 0.34                           250 195 
 ROSC BZ EP   1   1234 31.06                             116    1.25 6  253 210 
 ROSC BZ I        1235  6.03        51.2 0.30                           253 210 
 HEL  HZ EP       1234 32.12                             115    0.43 8  271 255 
 HEL  HE ES   3   1235  2.59                             115   -0.27 2  271 255 
 HEL  HZ I        1235  9.53        36.4 0.38                           271 255 
 GUY  SZ EP       1234 34.95                             112   -0.50 7  303 235 
 GUY  SN ES   3   1235  9.63                             112    0.08 2  303 235 
 GUY  SZ I        1235 16.07        40.7 0.48                           303 235 
 DBB  SZ EP       1234 37.84                             109   -1.05 7  337 274 
 ANIL HZ EP   3   1234 41.97                             108    0.52 2  357 224 
 ANIL HE ES   2   1235 19.75                             108   -0.48 3  357 224 
 ANIL HZ I        1235 34.82        75.7 0.32                           357 224 
 PRA  HZ EP       1234 44.72                             106   -0.53 6  392 209 
 PRA  HZ I        1235 33.74        43.3 0.28                           392 209 
 SJC  HZ EP   2   1234 45.93                             105   -1.01 3  407 327 
 SJC  HZ I        1235 36.50        10.9 0.40                           407 327 
                                                                                
