 2015  9 5 1156 27.8 L   6.776 -73.086145.7  RSN 13 0.4 2.1LRSN                1
 GAP=189        1.01       2.8     4.9  5.6 -0.1789E+01  0.5802E+01 -0.1195E+01E
 Epicentro: LOS SANTOS - SANTANDER                                             3
 ACTION:UPD 15-10-28 16:24 OP:cam  STATUS:               ID:20150905115627 L   I
 OLDACT:UP  15-09-09 08:43 OP:AK   STATUS:               ID:20150905115627 L   3
 OLDACT:UP  15-09-05 22:23 OP:mh   STATUS:               ID:20150905114747     3
 OLDACT:UP  15-09-05 22:21 OP:mh   STATUS:               ID:20150905114747     3
 OLDACT:UP  15-09-05 22:18 OP:mh   STATUS:               ID:20150905114747     3
 OLDACT:REG 15-09-05 20:42 OP:mh   STATUS:               ID:20150905114747     3
 2015-09-05-1147-47M.COL___355                                                 6
 STAT SP IPHASW D HRMM SECON CODA AMPLIT PERI AZIMU VELO AIN AR TRES W  DIS CAZ7
 BAR2 EZ EP       1156 47.94                             171    0.5010 22.9 208 
 BAR2 EZ ES       1157  2.53                             171   -0.2010 22.9 208 
 BAR2 EZ I        1157  3.61        19.0 0.34            161           22.9 208 
 BRR  HZ EP       1156 49.88                             150    0.5010 78.2 298 
 BRR  HN ES       1157  6.47                             150    0.2910 78.2 298 
 BRR  HZ I        1157 10.18        27.9 0.12            130           78.2 298 
 RUS  HZ EP   1   1156 51.42                             145    0.06 7 97.7 180 
 RUS  HN ES       1157  9.84                             145    0.1210 97.7 180 
 RUS  HZ I        1157 10.87        13.9 0.24            136           97.7 180 
 PTB  HZ EP       1156 54.60                             131   -0.73 9  154 260 
 PTB  HN ES       1157 17.12                             131    0.33 9  154 260 
 PTB  HZ I        1157 17.86        11.1 0.16            114            154 260 
 OCA  HZ EP       1156 56.21                             129   -0.25 9  164 351 
 OCA  HE ES       1157 18.12                             129   -0.68 9  164 351 
 OCA  HZ I        1157 24.12        36.0 0.42            113            164 351 
 SPBC HZ EP       1156 56.48                             129   -0.05 9  165 221 
 SPBC HN ES       1157 18.34                             129   -0.57 9  165 221 
 SPBC HZ I        1157 19.64        17.3 0.30            115            165 221 
 ZAR  HZ EP       1157  1.54                             121    0.54 8  211 292 
 ZAR  HN ES       1157 26.81                             121   -0.06 8  211 292 
 ZAR  HZ I        1157 33.82        14.1 0.30            107            211 292 
 NOR  HN ES       1157 31.83                             118   -0.32 8  239 236 
 NOR  HZ I        1157 37.38         8.4 0.16            105            239 236 
 SML  HZ EP       1157  4.42                             117   -0.59 8  249 334 
 SML  HE ES       1157 34.69                             117    0.68 8  249 334 
 SML  HZ I        1157 36.32        19.3 0.10            104            249 334 
 URE  HZ EP   4   1157 11.91                             113    2.22 0  291 292 
 GUY2CHZ EP       1157 11.74                             112   -0.13 7  305 236 
 GUY2CHE ES   4   1157 47.74                             112    1.52 0  305 236 
 TOL  SZ EP   4   1157 18.56                             109    2.16 0  346 226 
 TOL  SN ES       1157 54.45                             109    0.17 6  346 226 
 TOL  SZ I        1158  0.07         4.1 0.20             98            346 226 
 PRA  HZ EP   1   1157 22.28                             106    0.82 4  393 211 
 PRA  HN ES       1158  3.37                             106    0.08 6  393 211 
 PRA  HZ I        1158 13.80         3.4 0.42             96            393 211 
 SJC  HZ EP   4   1157 22.16                             105   -1.91 0  415 326 
 SJC  HN ES   4   1158  3.16                             105   -4.78 0  415 326 
 SJC  HZ I        12 0 10.33         2.4 0.32                           415 326 
                                                                                
