 2010 10 5 1245 17.6 L   6.585 -73.442113.8  RSN  7 0.3 1.6LRSN                1
 GAP= 98        0.83       3.8     4.9  6.4 -0.4194E+01  0.1035E+01 -0.9908E-01E
 Epicentro: EL CARMEN DE CHUCURI - SANTANDER                                   3
 ACTION:UP  11-02-18 11:07 OP:tino STATUS:               ID:20101005124517 L   I
 2010-10-05-1240-50S.COL___122                                                 6
 STAT SP IPHASW D HRMM SECON CODA AMPLIT PERI AZIMU VELO SNR AR TRES W  DIS CAZ7
 BAR2 SZ IP     C 1245 33.73                             165     0.210   29  89 
 BAR2 SZ ES   1   1245 46.17                             165     0.2 7   29  89 
 BAR2 SZ I        1245 47.66        50.1 0.46                            29  89 
 BRR  HN ES       1245 48.48                             148     0.010   65 333 
 RUS  HZ EP       1245 37.04                             141    -0.110   86 153 
 RUS  HN ES   1   1245 52.29                             141    -0.2 7   86 153 
 RUS  HZ I        1245 53.87         5.8 0.77                            86 153 
 GUE  SZ EP       1245 42.63                             124     0.0 9  149  22 
 GUE  SZ I        1246  3.73         2.4 0.12                           149  22 
 GRA  SZ EP       1245 43.53                             121    -0.1 9  160  26 
 GRA  SZ I        1246  7.06         6.9 0.42                           160  26 
 NOR  SN ES   1   1246  9.52                             116    -0.7 6  194 235 
 RREF HN ES   1   1246 30.03                             107     0.9 6  281 229 
 RREF HZ I        1246 33.75         2.3 0.56                           281 229 
                                                                                
