 2013  4 5 1908  8.4 L   6.798 -73.127151.0  RSN 15 0.4 2.6LRSN 2.9WRSN        1
 SPEC AVERAGE  MO 13.5 ST  4.5 OM  2.0 f0 4.20 R0.3706 AL 1.23 WI 21.0 MW  2.9 3
 SPEC SD       MO  0.2 ST  4.7 OM  0.4 f0 1.05 R0.0838 AL      WI      MW  0.1 3
 GAP=111        0.86       2.7     3.3  4.9  0.9040E+00  0.2721E+01  0.9674E+00E
 Epicentro: LOS SANTOS - SANTANDER                                             3
 SPEC ZAR HH Z MO 13.7 ST  5.2 OM  1.9 f0 4.22 R0.3483 AL 0.67 WI 20.4 MW  3.1 3
 SPEC ZAR HH Z T19 9 6 K 0.000 GD  255 VS 4.20 DE 3.20 Q0300.0 QA 0.60 VS 4.20 3
 SPEC PTB HH Z MO 13.6 ST  3.6 OM  1.9 f0 3.94 R0.3731 AL 0.68 WI 27.3 MW  3.0 3
 SPEC PTB HH Z T19 853 K 0.000 GD  212 VS 4.20 DE 3.20 Q0300.0 QA 0.60 VS 4.20 3
 SPEC RUS HH Z MO 13.2 ST0.837 OM  1.5 f0 3.49 R0.4212 AL 1.31 WI 15.9 MW  2.7 3
 SPEC RUS HH Z T19 848 K 0.000 GD  181 VS 4.20 DE 3.20 Q0300.0 QA 0.60 VS 4.20 3
 SPEC NOR HH Z MO 13.6 ST 16.2 OM  1.8 f0 6.44 R0.2283 AL 1.52 WI 21.9 MW  3.0 3
 SPEC NOR HH Z T19 912 K 0.000 GD  280 VS 4.20 DE 3.20 Q0300.0 QA 0.60 VS 4.20 3
 SPEC COD HH Z MO 13.2 ST0.765 OM  1.2 f0 3.33 R0.4414 AL 1.00 WI 23.6 MW  2.7 3
 SPEC COD HH Z T19 930 K 0.000 GD  380 VS 4.20 DE 3.20 Q0300.0 QA 0.60 VS 4.20 3
 SPEC CHI HH Z MO 13.4 ST  2.5 OM  1.5 f0 4.28 R0.3435 AL 2.31 WI 16.8 MW  2.9 3
 SPEC CHI HH Z T19 915 K 0.000 GD  291 VS 4.20 DE 3.20 Q0300.0 QA 0.60 VS 4.20 3
 SPEC BRR HH Z MO 13.4 ST  4.6 OM  1.8 f0 5.01 R0.2934 AL 1.16 WI 22.5 MW  2.9 3
 SPEC BRR HH Z T19 847 K 0.000 GD  167 VS 4.20 DE 3.20 Q0300.0 QA 0.60 VS 4.20 3
 SPEC BAR2SH Z MO 13.8 ST  1.9 OM  2.2 f0 2.85 R0.5158 AL 1.23 WI 19.8 MW  3.1 3
 SPEC BAR2SH Z T19 841 K 0.000 GD  152 VS 4.20 DE 3.20 Q0300.0 QA 0.60 VS 4.20 3
 ACTION:UPD 13-05-22 14:36 OP:EP   STATUS:               ID:20130405190808 L   I
 2013-04-05-1900-00M.COL___245                                                 6
 STAT SP IPHASW D HRMM SECON CODA AMPLIT PERI AZIMU VELO AIN AR TRES W  DIS CAZ7
 BAR2 SZ EP       19 8 28.51                             171   -0.1310 23.6 195 
 BAR2 SZ ES   1   19 8 43.95                             171   -0.49 7 23.6 195 
 BAR2 SZ I        19 8 45.23       153.2 0.22            168           23.6 195 
 GIR2 SZ EP       19 8 28.59                             167   -0.1010 31.9 347 
 GIR2 SZ ES   1   19 8 44.04                             167   -0.49 7 31.9 347 
 GIR2 SZ I        19 8 45.53        45.6 0.22            164           31.9 347 
 BRR  HZ IP     C 19 8 30.46                             153    0.2610 73.2 298 
 BRR  HN ES   1   19 8 47.91                             153    0.69 7 73.2 298 
 BRR  HZ I        19 8 52.70        64.5 0.14            148           73.2 298 
 RUS  HZ IP     D 19 8 32.36                             145   -0.2610  100 177 
 RUS  HN ES   1   19 8 51.32                             145   -0.21 7  100 177 
 RUS  HZ I        19 8 52.56        31.7 0.62            146            100 177 
 PTB  HZ EP   4   19 8 35.19                             133   -0.77 0  150 259 
 PTB  HN ES   4   19 8 56.80                             133   -0.67 0  150 259 
 PTB  HZ I        19 9  2.37        69.4 0.26            130            150 259 
 TAM  HZ IP     D 19 8 36.69                             132    0.40 9  153 105 
 TAM  HN ES   1   19 8 58.47                             132    0.42 7  153 105 
 OCA  HN ES   1   19 9  0.73                             131    1.15 7  161 352 
 OCA  HZ I        19 9  3.40        43.2 0.32            130            161 352 
 ZAR  HZ EP       19 8 41.08                             123   -0.30 8  206 292 
 ZAR  HE ES       19 9  6.82                             123   -0.30 8  206 292 
 ZAR  HZ I        19 9 13.07        70.8 0.48            122            206 292 
 CTAB SZ ES   2   19 9 12.86                             120    0.11 4  231 211 
 NOR  HZ EP       19 8 44.44                             119   -0.15 8  236 235 
 NOR  HN ES   1   19 9 13.16                             119    0.33 6  236 235 
 NOR  HZ I        19 9 19.66        42.6 0.30            119            236 235 
 SML  HZ EP       19 8 45.39                             118   -0.03 8  245 335 
 SML  HN ES   1   19 9 13.47                             118   -0.84 6  245 335 
 SML  HZ I        19 9 22.81        45.9 0.10            118            245 335 
 CHI  HZ EP       19 8 46.55                             118    0.14 8  249 196 
 CHI  HN ES   1   19 9 15.66                             118   -0.42 6  249 196 
 CHI  HZ I        19 9 21.92        16.1 0.58            118            249 196 
 HEL  HZ EP   2   19 8 49.10                             116    0.01 4  274 256 
 HEL  HN ES   1   19 9 21.59                             116    0.76 6  274 256 
 HEL  HZ I        19 9 27.24        28.7 0.34            115            274 256 
 DBB  SZ EP   4   19 8 56.14                             110   -0.18 0  342 274 
 COD  HZ EP       19 8 56.57                             110   -0.45 6  349 354 
 COD  HN ES   2   19 9 35.12                             110    0.17 3  349 354 
 COD  HZ I        19 9 41.38         6.3 0.62            110            349 354 
 PRA  HZ EP       19 9  2.09                             107   -0.10 6  393 210 
 PRA  HN ES   1   19 9 45.00                             107    0.84 4  393 210 
 PRA  HZ I        19 9 52.84        20.0 0.38            107            393 210 
                                                                                
