 2010  9 5 1044  3.2 L   6.802 -73.047140.3  RSN  5 0.3 1.6LRSN                1
 GAP=200        0.84       6.3    10.3  9.2 -0.1819E+02 -0.1781E+02 -0.1145E+02E
 Epicentro: LOS SANTOS - SANTANDER                                             3
 ACTION:UP  11-02-18 11:00 OP:tino STATUS:               ID:20100905104403 L   I
 2010-09-05-1041-35S.COL___120                                                 6
 STAT SP IPHASW D HRMM SECON CODA AMPLIT PERI AZIMU VELO SNR AR TRES W  DIS CAZ7
 BAR2 SZ EP   1   1044 22.41                             168     0.2 7   28 213 
 BAR2 SZ ES   1   1044 36.70                             168    -0.4 7   28 213 
 BAR2 SZ I        1044 38.31        11.7 0.38                            28 213 
 BRR  HZ IP     C 1044 24.22                             148    -0.110   81 295 
 BRR  HZ I        1044 24.55        14.5 0.12                            81 295 
 BRR  HN ES   1   1044 41.26                             148     0.4 7   81 295 
 GUE  SZ EP   2   1044 26.94                             139    -0.3 5  114   7 
 GUE  SZ I        1044 28.97         2.3 0.06                           114   7 
 GRA  SZ EP   1   1044 28.11                             136     0.5 7  123  13 
 GRA  SZ ES   1   1044 47.05                             136     0.3 7  123  13 
 GRA  SZ I        1044 48.78         6.5 0.39                           123  13 
 OCA  SZ EP   1   1044 30.92                             128    -0.3 7  162 349 
 OCA  SZ ES   1   1044 52.54                             128    -0.5 7  162 349 
 OCA  SZ I        1044 56.90         4.9 0.30                           162 349 
                                                                                
