 2017  8 5 1442 54.5 L   6.706 -73.078153.7  RSN  4 0.4 1.1LRSN                1
 GAP=149        0.96       6.1     6.1  7.9 -0.1155E+02  0.1153E+02 -0.4291E+01E
 Epicentro: JORDAN - SANTANDER                                                 3
 ACTION:UPD 17-09-04 20:16 OP:rebc STATUS:               ID:20170805144254 L   I
 OLDACT:REG 17-08-05 20:48 OP:dhb  STATUS:               ID:20170805143742     3
 2017-08-05-1438-00M.COL___402                                                 6
 STAT SP IPHASW D HRMM SECON CODA AMPLIT PERI AZIMU VELO AIN AR TRES W  DIS CAZ7
 BAR2 EZ EP       1443 15.43                             173    0.4110 17.1 222 
 BAR2 EZ ES       1443 31.42                             173    0.4310 17.1 222 
 BAR2 EZ I        1443 33.90         6.0 0.26            172           17.1 222 
 PAM  EZ EP       1443 18.28                             151    0.4310 81.6  31 
 PAM  EN ES       1443 35.47                             151   -0.5510 81.6  31 
 PAM  EZ I        1443 36.98         1.6 0.21            154           81.6  31 
 RUS  HZ EP       1443 18.15                             148   -0.2210 90.0 180 
 RUS  HN ES       1443 36.75                             148   -0.2110 90.0 180 
 RUS  HZ I        1443 39.67         2.7 0.22            149           90.0 180 
 PTB  HZ EP       1443 22.33                             133   -0.35 9  153 263 
 PTB  HN ES       1443 44.62                             133    0.00 9  153 263 
 PTB  HZ I        1443 46.35         1.0 0.18            134            153 263 
                                                                                
