 2011 10 5 1713 16.2 L   6.804 -73.126143.5  RSN  7 0.4 1.9LRSN                1
 GAP=139        0.73       4.0     5.2  6.5  0.2470E+01  0.8419E+01  0.7778E+01E
 Epicentro: LOS SANTOS - SANTANDER                                             3
 ACTION:UPD 12-07-13 16:02 OP:ep   STATUS:               ID:20111005171316 L   I
 2011-10-05-1709-28S.COL___169                                                 6
 STAT SP IPHASW D HRMM SECON CODA AMPLIT PERI AZIMU VELO AIN AR TRES W  DIS CAZ7
 BAR2 SZ EP   1   1713 35.48                             170   -0.08 7 24.2 195 
 BAR2 SZ ES   1   1713 50.21                             170   -0.46 7 24.2 195 
 BAR2 SZ I        1713 59.15        14.4 0.57                          24.2 195 
 BRR  HZ EP   1   1713 37.29                             151    0.10 7 73.0 297 
 BRR  HN ES   1   1713 54.11                             151    0.53 7 73.0 297 
 BRR  HZ I        1713 57.86        21.3 0.18                          73.0 297 
 PAM  SZ EP   1   1713 38.32                             151    0.26 7 75.6  38 
 PAM  SZ I        1713 38.71        13.1 0.17                          75.6  38 
 PAM  SN ES   1   1713 54.93                             151   -0.18 7 75.6  38 
 RUS  HZ EP   1   1713 39.59                             143   -0.15 7  101 177 
 RUS  HN ES   1   1713 58.54                             143    0.43 7  101 177 
 RUS  HZ I        1714  0.19        11.4 0.28                           101 177 
 ZAR  HN ES   1   1714 13.50                             122   -0.53 6  206 292 
 ZAR  HZ I        1714 18.59         6.3 0.24                           206 292 
 CHI  HZ EP   1   1713 53.38                             116   -0.49 6  250 196 
 CHI  HN ES   1   1714 23.09                             116   -0.17 6  250 196 
 RREF HZ EP   1   1714  3.23                             110    0.77 5  324 230 
 RREF HZ I        1714 47.76         3.8 0.41                           324 230 
                                                                                
