 2012  4 5 1813 55.2 L   5.757 -73.898 92.0  RSN  5 0.4 1.5LRSN                1
 GAP=131        1.00       6.0     5.8 21.5 -0.1173E+01 -0.3814E+02 -0.5604E+02E
 Epicentro: ALBANIA - SANTANDER                                                3
 ACTION:UPD 12-07-05 11:50 OP:tino STATUS:               ID:20120405181355 L   I
 2012-04-05-1810-00M.COL___196                                                 6
 STAT SP IPHASW D HRMM SECON CODA AMPLIT PERI AZIMU VELO AIN AR TRES W  DIS CAZ7
 NOR  SZ EP       1814 14.04                             126    -0.510  110 259 
 NOR  SN ES   1   1814 29.40                             126    -0.1 7  110 259 
 BAR2 SZ EP       1814 16.18                             123     0.210  122  41 
 CHI  HZ EP       1814 16.36                             122    -0.310  126 172 
 CHI  HZ I        1814 17.33         6.7 0.38                           126 172 
 CHI  HN ES   2   1814 34.18                             122     0.8 5  126 172 
 BRR  HZ EP       1814 18.56                             116    -0.2 9  151   8 
 HEL  HZ EP       1814 23.96                             111     0.7 9  187 285 
                                                                                
