 2012 12 5 1353 11.5 L   6.807 -73.183137.8  RSN  7 0.3 2.0LRSN                1
 GAP=132        0.79       2.9     3.4  5.8 -0.1485E+01  0.8814E+01 -0.8357E+00E
 Epicentro: LOS SANTOS - SANTANDER                                             3
 ACTION:UPD 13-01-04 14:25 OP:ep   STATUS:               ID:20121205135311 L   I
 2012-12-05-1350-00M.COL___237                                                 6
 STAT SP IPHASW D HRMM SECON CODA AMPLIT PERI AZIMU VELO AIN AR TRES W  DIS CAZ7
 BAR2 SZ EP       1353 30.11                             170   -0.0610 23.8 180 
 BAR2 SZ ES       1353 45.04                             170    0.2910 23.8 180 
 BAR2 SZ I        1353 46.39        17.3 0.38                          23.8 180 
 PAM  SZ IP     D 1353 32.96                             149   -0.0410 79.5  42 
 PAM  SN ES       1353 49.79                             149    0.0210 79.5  42 
 PAM  SN I        1353 50.73        27.0 0.50                          79.5  42 
 RUS  HZ EP       1353 34.29                             142   -0.2710  102 174 
 RUS  HE ES       1353 52.69                             142    0.1410  102 174 
 RUS  HZ I        1353 54.62         4.6 0.24                           102 174 
 PTB  HZ EP       1353 37.12                             131   -0.34 9  144 258 
 PTB  HN ES       1353 57.31                             131   -0.40 9  144 258 
 PTB  HN I        1354  3.16        12.9 0.34                           144 258 
 OCA  HN ES       1354  0.31                             128   -0.28 9  159 355 
 OCA  HN I        1354  2.33        37.9 0.22                           159 355 
 ZAR  HZ EP       1353 43.87                             121    0.87 9  200 292 
 ZAR  HN ES       1354  7.69                             121    0.12 9  200 292 
 ZAR  HN I        1354 15.06        13.5 0.30                           200 292 
 NOR  HZ EP       1353 46.59                             117    0.13 8  232 234 
 NOR  HN ES       1354 13.70                             117   -0.03 8  232 234 
 NOR  HN I        1354 19.34         7.1 0.14                           232 234 
                                                                                
