 2011  5 5 1902 41.3 L   6.768 -73.083146.2  RSN  5 0.3 1.6LRSN                1
 GAP=146        0.71       5.2     6.1  8.0 -0.1026E+02  0.3225E+00  0.9004E+01E
 Epicentro: LOS SANTOS - SANTANDER                                             3
 ACTION:UP  11-06-29 08:51 OP:tino STATUS:               ID:20110505190241 L   I
 2011-05-05-1859-18S.COL___132                                                 6
 STAT SP IPHASW D HRMM SECON CODA AMPLIT PERI AZIMU VELO SNR AR TRES W  DIS CAZ7
 BAR2 SZ EP   1   19 3  0.73                             171    -0.3 7   22 209 
 BAR2 SZ ES   1   19 3 15.71                             171    -0.6 7   22 209 
 BAR2 SZ I        19 3 17.52        11.2 0.22                            22 209 
 PAM  SZ EP   1   19 3  3.43                             151    -0.1 7   76  34 
 PAM  SN ES   1   19 3 21.01                             151     0.2 7   76  34 
 BRR  HN ES   1   19 3 20.17                             150     0.3 7   79 298 
 RUS  HZ EP   1   19 3  4.95                             145     0.1 7   97 180 
 RUS  HN ES   1   19 3 23.60                             145     0.4 7   97 180 
 RUS  HZ I        19 3 24.51         5.3 0.18                            97 180 
 NOR  SN ES   1   19 3 45.60                             118    -0.1 6  238 236 
                                                                                
