 2015  6 5 1948  9.9 L   6.574 -73.714 95.9  RSN  8 0.3 1.8LRSN                1
 GAP=113        0.81       2.8     2.9  6.5 -0.2334E+01  0.8845E+01  0.3431E+01E
 Epicentro: EL CARMEN - SANTANDER                                              3
 ACTION:UPD 15-09-10 22:10 OP:cam  STATUS:               ID:20150605194809 L   I
 OLDACT:UP  15-06-06 01:24 OP:ar   STATUS:               ID:20150605194749     3
 OLDACT:REG 15-06-05 21:34 OP:ar   STATUS:               ID:20150605194749     3
 2015-06-05-1947-49M.COL___315                                                 6
 STAT SP IPHASW D HRMM SECON CODA AMPLIT PERI AZIMU VELO AIN AR TRES W  DIS CAZ7
 BAR2 EZ EP       1948 25.59                             146    0.2010 58.9  88 
 BAR2 EZ ES       1948 37.39                             146   -0.0710 58.9  88 
 BAR2 EZ I        1948 39.04        23.7 0.18            142           58.9  88 
 BRR  HZ EP       1948 25.07                             146    0.0210 58.9   0 
 BRR  HE ES       1948 37.35                             146    0.4810 58.9   0 
 BRR  HZ I        1948 42.51        14.6 0.32            139           58.9   0 
 SPBC HZ EP       1948 29.71                             128    0.2310  109 201 
 SPBC HN ES       1948 44.54                             128   -0.2110  109 201 
 SPBC HZ I        1948 47.81        17.5 0.28            126            109 201 
 PAM  SN ES       1948 50.95                             121   -0.40 9  140  53 
 PAM  SZ I        1948 52.27        15.3 0.18            116            140  53 
 ZAR  HE ES       1948 54.05                             116   -0.38 9  162 309 
 ZAR  HZ I        1948 59.02        11.2 0.12            113            162 309 
 NOR  HZ EP       1948 35.35                             115   -0.48 9  170 229 
 NOR  HN ES       1948 55.80                             115   -0.26 9  170 229 
 NOR  HZ I        1948 58.84         7.7 0.16            113            170 229 
 HEL  HZ EP       1948 40.37                             111    0.12 9  205 258 
 HEL  HE ES       1949  3.94                             111    0.02 9  205 258 
 HEL  HZ I        1949 11.84         8.5 0.44            108            205 258 
 GUY2CHZ EP       1948 44.67                             108    0.69 8  236 231 
 GUY2CHE ES       1949 10.65                             108    0.10 8  236 231 
 GUY2CHZ I        1949 15.72         4.0 0.20                           236 231 
                                                                                
