 2017  4 5 1012 53.2 L   6.773 -73.150143.5  RSN  7 0.4 1.5LRSN                1
 GAP=137        1.05       4.5     4.5  7.2 -0.1090E+01  0.6629E+01  0.2638E+01E
 Epicentro: LOS SANTOS - SANTANDER                                             3
 ACTION:UPD 17-05-30 21:08 OP:jn   STATUS:               ID:20170405101253 L   I
 OLDACT:REG 17-04-05 20:32 OP:ar   STATUS:               ID:20170405100746     3
 2017-04-05-1008-00M.COL___365                                                 6
 STAT SP IPHASW D HRMM SECON CODA AMPLIT PERI AZIMU VELO AIN AR TRES W  DIS CAZ7
 BAR2 EZ EP       1013 12.22                             172   -0.2210 20.3 190 
 BAR2 EZ ES       1013 26.85                             172   -0.6410 20.3 190 
 BAR2 EZ I        1013 28.23         9.1 0.28            172           20.3 190 
 BRR  HZ EP       1013 14.36                             152    0.2510 72.3 301 
 BRR  HE ES       1013 31.12                             152    0.6610 72.3 301 
 BRR  HZ I        1013 42.35        14.7 0.28            149           72.3 301 
 PAM  EZ EP       1013 15.20                             150   -0.0810 80.0  38 
 PAM  EN ES       1013 32.64                             150    0.1010 80.0  38 
 PAM  EZ I        1013 34.14         5.7 0.46            153           80.0  38 
 RUS  HZ EP       1013 16.61                             144    0.1510 97.6 176 
 RUS  HN ES       1013 34.78                             144    0.1410 97.6 176 
 RUS  HZ I        1013 35.66         2.0 0.30            150           97.6 176 
 PTB  HZ EP       1013 19.28                             132   -0.56 9  147 260 
 PTB  HE ES       1013 40.00                             132   -0.66 9  147 260 
 PTB  HZ I        1013 41.99         3.4 0.18            133            147 260 
 SPBC HZ EP       1013 21.42                             129    0.20 9  161 220 
 SPBC HN ES       1013 43.67                             129    0.55 9  161 220 
 SPBC HZ I        1013 45.81         5.1 0.12            133            161 220 
 ZAR  HN ES       1013 50.90                             122    0.13 9  205 293 
 ZAR  HZ I        1013 56.96         3.6 0.42            123            205 293 
                                                                                
