 2016  6 5 1952 11.0 L   6.759 -73.123143.0  RSN  4 0.2 1.5LRSN                1
 GAP=141        0.62       3.3     4.9  5.0 -0.2155E+00 -0.1642E+01  0.4685E+00E
 Epicentro: LOS SANTOS - SANTANDER                                             3
 ACTION:UPD 16-07-21 22:15 OP:rebc STATUS:               ID:20160605195211 L   I
 OLDACT:REG 16-06-05 21:14 OP:ar   STATUS:               ID:20160605194741     3
 2016-06-05-1947-41M.COL___316                                                 6
 STAT SP IPHASW D HRMM SECON CODA AMPLIT PERI AZIMU VELO AIN AR TRES W  DIS CAZ7
 BAR2 EZ EP       1952 29.96                             172   -0.2910 19.5 200 
 BAR2 EZ ES       1952 44.88                             172   -0.3710 19.5 200 
 BAR2 EZ I        1952 45.85        12.1 0.16                          19.5 200 
 BRR  HZ EP       1952 32.24                             150    0.1010 75.7 301 
 BRR  HN ES       1952 48.73                             150    0.1210 75.7 301 
 BRR  HZ I        1952 52.36         9.9 0.38                          75.7 301 
 PAM  EZ EP       1952 33.13                             150    0.0610 79.4  36 
 PAM  EE ES       1952 50.38                             150    0.1110 79.4  36 
 PAM  EZ I        1952 54.32         4.0 0.52                          79.4  36 
 RUS  HZ EP       1952 34.09                             145   -0.0810 95.9 177 
 RUS  HN ES       1952 52.56                             145    0.3410 95.9 177 
 RUS  HZ I        1952 53.53         2.6 0.42                          95.9 177 
                                                                                
