 2017  6 5 1341 30.4 L   6.455 -73.888 41.2  RSN  4 0.1 1.5LRSN                1
 GAP=154        0.30       1.2     1.1  6.6  0.1641E+00 -0.3809E+01  0.2008E+01E
 Epicentro: CIMITARRA - SANTANDER                                              3
 ACTION:UPD 17-09-14 16:49 OP:jn   STATUS:               ID:20170605134130 L   I
 OLDACT:REG 17-06-06 00:36 OP:osc  STATUS:               ID:20170605133728     3
 2017-06-05-1338-00M.COL___350                                                 6
 STAT SP IPHASW D HRMM SECON CODA AMPLIT PERI AZIMU VELO AIN AR TRES W  DIS CAZ7
 PTB  HZ EP       1341 41.53                             108   -0.0410 63.6 279 
 PTB  HN ES       1341 50.31                             108    0.0210 63.6 279 
 PTB  HZ I        1341 50.92        15.6 0.20            114           63.6 279 
 BRR  HZ EP       1341 42.79                             103   -0.0910 74.7  15 
 BRR  HE ES       1341 52.65                             103    0.0510 74.7  15 
 BRR  HZ I        1341 53.89        38.2 0.12            108           74.7  15 
 RUS  HZ EP       1341 47.68                              94    0.0710  109 125 
 RUS  HN ES       1342  1.01                              94   -0.0310  109 125 
 RUS  HZ I        1342  1.67         9.2 0.14            100            109 125 
 ZAR  HZ EP       1341 53.03                              91    0.03 9  157 317 
 ZAR  HN ES   4   1342 10.20                              91   -0.43 0  157 317 
 ZAR  HZ I        1342 11.30         2.6 0.11             94            157 317 
                                                                                
