 2012  2 5 1321 26.4 L   6.730 -73.170148.7  RSN  4 0.1 1.5LRSN                1
 GAP=229        0.38       3.8     3.7  4.0  0.5819E+01  0.9275E+00 -0.2007E+01E
 ACTION:UP  12-03-07 16:27 OP:epov STATUS:               ID:20120205132126 L   I
 2012-02-05-1320-00M.COL___188                                                 6
 STAT SP IPHASW D HRMM SECON CODA AMPLIT PERI AZIMU VELO SNR AR TRES W  DIS CAZ7
 BAR2 SZ EP       1321 46.16                             174   -0.1010 15.3 185 
 BAR2 SZ ES   1   1322  1.54                             174   -0.20 7 15.3 185 
 BAR2 SZ I        1322  3.05         5.7 0.19                          15.3 185 
 BRR  HZ EP       1321 48.06                             152    0.0810 73.0 305 
 BRR  HZ I        1321 48.36         8.7 0.13                          73.0 305 
 BRR  HE ES   1   1322  4.95                             152    0.15 7 73.0 305 
 RUS  HZ EP   2   1321 49.84                             147   -0.10 5 93.1 174 
 RUS  HE ES   1   1322  8.50                             147    0.22 7 93.1 174 
 RUS  HZ I        1322 10.21         3.2 0.41                          93.1 174 
 PTB  HZ EP   1   1321 53.29                             133    0.02 7  144 262 
 PTB  HE ES   1   1322 14.08                             133   -0.13 7  144 262 
                                                                                
