 2010  3 5 1311  5.1 L   6.830 -72.998141.4  RSN 10 0.4 2.4LRSN                1
 GAP=198        0.72       4.0     6.6  5.5  0.7122E+01  0.6613E+01  0.6818E+01E
 Epicentro: CEPITA - SANTANDER                                                 3
 ACTION:UP  10-08-24 09:52 OP:vdl  STATUS:               ID:20100305131104 L   I
 2010-03-05-1309-03S.COL___101                                                 6
 STAT SP IPHASW D HRMM SECON CODA AMPLIT PERI AZIMU VELO SNR AR TRES W  DIS CAZ7
 BAR2 SZ EP       1311 24.64                             166     0.210   33 218 
 BAR2 SZ ES   2   1311 39.38                             166    -0.2 5   33 218 
 BRR  HZ EP       1311 26.45                             147    -0.110   85 291 
 BRR  HN ES       1311 43.23                             147    -0.110   85 291 
 BRR  HZ I        1311 46.52        44.5 0.13                            85 291 
 RUS  BZ EP       1311 28.70                             142     0.010  104 185 
 RUS  BZ I        1311 29.88        17.5 0.17                           104 185 
 RUS  BN ES   1   1311 46.88                             142    -0.2 7  104 185 
 OCA  SZ EP   2   1311 33.02                             129     0.0 5  160 347 
 OCA  SZ ES   2   1311 55.58                             129     0.8 5  160 347 
 OCA  SZ I        1311 59.09        43.1 0.12                           160 347 
 CHI  HZ EP       1311 43.16                             115    -0.2 8  257 199 
 CHI  HE ES   3   1312 13.95                             115     0.6 2  257 199 
 CHI  HZ I        1312 19.02         7.0 0.57                           257 199 
 HEL  HZ EP       1311 47.11                             112     0.2 7  289 256 
 HEL  HZ I        1312 24.72        17.7 0.43                           289 256 
 DBB  SZ EP   1   1311 53.19                             108    -1.0 5  356 274 
 TOL  SZ EP   1   1311 54.78                             108     0.0 5  357 226 
 ANIL BZ EP   2   1311 57.07                             107     0.7 3  371 226 
 ANIL BN ES   1   1312 37.23                             107     0.9 5  371 226 
 ANIL BZ I        1312 50.89        15.8 0.43                           371 226 
 PRA  HZ EP   2   1311 59.33                             105    -0.4 3  403 211 
 PRA  HN ES   2   1312 42.43                             105     0.0 3  403 211 
 PRA  HZ I        1312 47.92         8.9 0.65                           403 211 
                                                                                
