 2012  9 5 1053 43.3 L   6.802 -73.129147.6  RSN 21 0.5 2.9LRSN 3.6WRSN        1
 SPEC AVERAGE  MO 14.6 ST  9.9 OM  3.1 f0 2.59 R0.5796 AL 2.46 WI 30.8 MW  3.6 3
 SPEC SD       MO  0.2 ST  6.0 OM  0.5 f00.357 R0.0884 AL      WI      MW  0.1 3
 GAP= 55        0.90       3.7     3.5  5.1  0.2699E+01  0.6060E+01  0.7449E+01E
 Epicentro: LOS SANTOS - SANTANDER                                             3
 SPEC ROSCBH Z MO 14.7 ST 12.1 OM  2.1 f0 2.58 R0.5698 AL 2.88 WI 27.5 MW  3.7 3
 SPEC ROSCBH Z T105422 K 0.000 GD  293 VP 7.60 DE 3.00 Q0230.0 QA 0.60 VS 4.20 3
 SPEC TAM HH N MO 14.5 ST  5.2 OM  2.8 f0 2.29 R0.6419 AL 2.32 WI 12.6 MW  3.6 3
 SPEC TAM HH N T105432 K 0.000 GD  212 VS 4.20 DE 3.00 Q0230.0 QA 0.60 VS 4.20 3
 SPEC PTB HH N MO 14.3 ST  6.5 OM  2.6 f0 2.88 R0.5104 AL 2.01 WI 22.9 MW  3.5 3
 SPEC PTB HH N T105430 K 0.000 GD  210 VS 4.20 DE 3.00 Q0230.0 QA 0.60 VS 4.20 3
 SPEC PAM SH N MO 14.6 ST  3.9 OM  3.0 f0 1.94 R0.7577 AL 2.74 WI 14.4 MW  3.7 3
 SPEC PAM SH N T105422 K 0.000 GD  166 VS 4.20 DE 3.00 Q0230.0 QA 0.60 VS 4.20 3
 SPEC HEL HH N MO 14.4 ST  5.0 OM  2.5 f0 2.51 R0.5857 AL 2.22 WI 54.1 MW  3.5 3
 SPEC HEL HH N T105454 K 0.000 GD  311 VS 4.20 DE 3.00 Q0230.0 QA 0.60 VS 4.20 3
 SPEC CHI HH N MO 14.6 ST 16.2 OM  2.8 f0 3.02 R0.4868 AL 2.79 WI 30.9 MW  3.7 3
 SPEC CHI HH N T105448 K 0.000 GD  289 VS 4.20 DE 3.00 Q0230.0 QA 0.60 VS 4.20 3
 SPEC BRR HH N MO 14.8 ST 20.7 OM  3.2 f0 2.91 R0.5052 AL 2.23 WI 53.1 MW  3.8 3
 SPEC BRR HH N T105421 K 0.000 GD  164 VS 4.20 DE 3.00 Q0230.0 QA 0.60 VS 4.20 3
 ACTION:UPD 12-10-22 14:17 OP:ep   STATUS:               ID:20120905105343 L   I
 2012-09-05-1050-00M.COL___218                                                 6
 STAT SP IPHASW D HRMM SECON CODA AMPLIT PERI AZIMU VELO AIN AR TRES W  DIS CAZ7
 BAR2 SZ IP       1054  3.05                             170   -0.1510 23.9 194 
 BAR2 SZ ES   1   1054 18.44                             170   -0.26 7 23.9 194 
 BAR2 SZ I        1054 20.53       274.5 0.22                          23.9 194 
 GIR2 SZ EP       1054  3.19                             167   -0.0510 31.5 347 
 GIR2 SZ ES   1   1054 18.66                             167   -0.10 7 31.5 347 
 BRR  HZ IP     D 1054  4.98                             152    0.2010 72.8 298 
 BRR  HZ I        1054  6.43       174.4 0.12                          72.8 298 
 BRR  HN ES   1   1054 22.23                             152    0.73 7 72.8 298 
 PAM  SZ IP       1054  5.87                             151    0.1910 76.1  39 
 PAM  SN ES   1   1054 23.09                             151   -0.01 7 76.1  39 
 PAM  SZ I        1054 25.02       111.4 0.30                          76.1  39 
 RUS  HZ IP     D 1054  6.90                             144   -0.3810  101 177 
 RUS  HZ I        1054  7.34        50.4 0.24                           101 177 
 RUS  HN ES   1   1054 25.22                             144   -0.73 7  101 177 
 PTB  HE ES   3   1054 31.49                             132   -0.42 2  150 259 
 TAM  HZ IP     D 1054 11.19                             131    0.19 9  153 105 
 TAM  HZ I        1054 31.62        88.3 0.40                           153 105 
 TAM  HN ES   1   1054 32.72                             131    0.14 7  153 105 
 YOP  SZ EP       1054 13.50                             127    0.05 9  178 154 
 YOP  SZ I        1054 13.63        42.5 0.26                           178 154 
 YOP  SE ES   1   1054 37.17                             127    0.23 7  178 154 
 ZAR  HZ EP       1054 15.68                             122   -0.40 8  206 292 
 ZAR  HE ES   1   1054 41.50                             122   -0.11 6  206 292 
 ZAR  HZ I        1054 47.22       113.0 0.36                           206 292 
 NOR  SZ EP       1054 18.93                             119   -0.42 8  236 235 
 NOR  SN ES   3   1054 47.48                             119    0.04 2  236 235 
 NOR  SZ I        1054 50.68        82.7 0.20                           236 235 
 CHI  HZ EP       1054 20.82                             117   -0.39 8  249 196 
 CHI  HE ES   1   1054 50.94                             117    0.18 6  249 196 
 CHI  HZ I        1054 53.90        30.4 0.20                           249 196 
 ROSC BZ EP       1054 22.72                             117    1.04 8  254 211 
 ROSC BZ I        1055  0.75       100.1 0.45                           254 211 
 HEL  HZ EP       1054 23.63                             115   -0.22 8  274 256 
 HEL  HZ I        1055  0.21        38.7 0.76                           274 256 
 URE  HZ EP   3   1054 23.76                             114   -0.93 2  286 292 
 VIL  SZ EP   3   1054 26.15                             112   -0.76 2  304 192 
 VIL  SZ I        1055  9.94        46.5 0.40                           304 192 
 GUY  SN ES   3   1055  2.58                             112    0.67 2  305 235 
 TOL  SZ EP       1054 32.28                             109    0.44 7  345 225 
 MON  HN ES   3   1055  8.50                             109   -2.47 2  355 308 
 MON  HZ I        1055 11.07        24.0 0.44                           355 308 
 SDV  BZ EP   3   1054 32.28                             108   -0.99 2  359  50 
 ANIL HZ EP       1054 34.71                             108    1.33 6  359 225 
 PRA  HZ EP       1054 36.24                             107   -0.81 6  393 210 
 PRA  HZ I        1055 24.13        48.5 0.62                           393 210 
                                                                                
