 2013 12 5 1047 34.9 L   6.790 -73.110146.2  RSN  7 0.4 1.8LRSN                1
 GAP=204        0.81       4.1     5.8  6.5  0.6516E+01  0.8508E+01 -0.4202E+01E
 Epicentro: LOS SANTOS - SANTANDER                                             3
 ACTION:UPD 14-01-13 10:16 OP:ep   STATUS:               ID:20131205104734 L   I
 OLDACT:UP  13-12-05 15:37 OP:cam  STATUS:               ID:20131205104000     3
 OLDACT:REG 13-12-05 14:48 OP:cam  STATUS:               ID:20131205104000     3
 2013-12-05-1040-00M.COL___285                                                 6
 STAT SP IPHASW D HRMM SECON CODA AMPLIT PERI AZIMU VELO AIN AR TRES W  DIS CAZ7
 BAR2 SZ EP       1047 54.61                             171    0.0810 23.2 200 
 BAR2 SZ ES       1048  9.29                             171   -0.6010 23.2 200 
 BAR2 SZ I        1048 10.59        22.7 0.46            171           23.2 200 
 BRR  HZ EP       1047 56.43                             151    0.1510 75.2 298 
 BRR  HN ES       1048 13.44                             151    0.4510 75.2 298 
 BRR  HZ I        1048 15.37         7.8 0.14            152           75.2 298 
 RUS  HZ EP   1   1047 59.11                             144    0.56 7 99.2 178 
 RUS  HN ES       1048 17.11                             144    0.0710 99.2 178 
 RUS  HZ I        1048 18.19         8.6 0.38            146           99.2 178 
 PTB  HZ EP   1   1048  1.75                             131   -0.44 7  151 260 
 ZAR  HN ES   1   1048 33.61                             122    0.20 6  208 292 
 NOR  HN ES       1048 38.82                             118   -0.17 8  237 235 
 SML  HZ EP   1   1048 11.36                             117   -0.44 6  246 335 
 SML  HN ES   1   1048 40.41                             117   -0.20 6  246 335 
                                                                                
