 2015  6 5 1833 22.6 L   6.786 -73.133137.7  RSN 11 0.5 2.2LRSN                1
 GAP=156        1.16       4.2     5.2  6.7 -0.9728E+01  0.9974E+01  0.5424E+01E
 Epicentro: LOS SANTOS - SANTANDER                                             3
 ACTION:UPD 15-09-10 22:10 OP:cam  STATUS:               ID:20150605183322 L   I
 OLDACT:UP  15-06-06 00:36 OP:ar   STATUS:               ID:20150605182750     3
 OLDACT:REG 15-06-05 21:27 OP:ar   STATUS:               ID:20150605182750     3
 2015-06-05-1827-50M.COL___315                                                 6
 STAT SP IPHASW D HRMM SECON CODA AMPLIT PERI AZIMU VELO AIN AR TRES W  DIS CAZ7
 BAR2 EZ EP       1833 41.26                             170    0.0610 22.1 194 
 BAR2 EZ ES       1833 55.25                             170   -0.4810 22.1 194 
 BAR2 EZ I        1833 58.96        19.4 0.22            168           22.1 194 
 BRR  HZ EP       1833 43.23                             150    0.2710 73.1 299 
 BRR  HN ES       1833 59.86                             150    0.9910 73.1 299 
 BRR  HZ I        1834  4.90        21.9 0.14            148           73.1 299 
 PAM  SZ EP       1833 44.18                             149    0.2310 77.7  38 
 PAM  SN ES       1834  0.13                             149   -0.5010 77.7  38 
 PAM  SZ I        1834  1.67        18.0 0.30            154           77.7  38 
 OCA  HZ EP       1833 51.08                             127    0.66 9  162 353 
 OCA  HE ES       1834 11.49                             127   -0.66 9  162 353 
 OCA  HZ I        1834 16.99        23.6 0.68            130            162 353 
 SPBC HZ EP       1833 50.29                             127   -0.13 9  163 220 
 SPBC HE ES       1834 12.81                             127    0.66 9  163 220 
 SPBC HZ I        1834 17.41        23.4 0.18            128            163 220 
 ZAR  HN ES       1834 19.72                             120   -0.03 8  206 292 
 ZAR  HZ I        1834 24.94        17.3 0.58            121            206 292 
 NOR  HZ EP       1833 57.69                             117   -0.17 8  235 235 
 NOR  HN ES       1834 24.98                             117   -0.41 8  235 235 
 NOR  HZ I        1834 29.48        12.0 0.20            118            235 235 
 HEL  HZ EP       1834  2.24                             113   -0.24 8  273 256 
 HEL  HN ES       1834 32.95                             113   -0.67 8  273 256 
 HEL  HZ I        1834 40.99         5.8 0.32            114            273 256 
 GUY2CHZ EP       1834  5.77                             111   -0.06 7  301 235 
 GUY2CHN ES       1834 39.26                             111   -0.33 7  301 235 
 GUY2CHZ I        1834 47.83         9.7 0.44                           301 235 
 TOL  SN ES       1834 47.25                             108   -0.62 7  343 225 
 TOL  SZ I        1834 57.95         6.5 0.56            110            343 225 
 ORTC HZ EP       1834 16.40                             105    0.24 6  395 216 
 ORTC HE ES       1834 58.81                             105    0.84 6  395 216 
 ORTC HZ I        1835  5.98         4.6 0.44            107            395 216 
                                                                                
