 2014 12 5 1619 44.0 L   6.402 -73.678 99.8  RSN 11 0.4 1.6LRSN                1
 GAP= 93        0.86       3.6     2.7  6.2 -0.3846E+01  0.4548E+01 -0.2993E+01E
 Epicentro: SANTA HELENA DEL OPON - SANTANDER                                  3
 ACTION:UPD 15-02-10 17:00 OP:nd   STATUS:               ID:20141205161944 L   I
 OLDACT:REG 14-12-05 20:55 OP:spq  STATUS:               ID:20141205161747     3
 2014-12-05-1617-47M.COL___300                                                 6
 STAT SP IPHASW D HRMM SECON CODA AMPLIT PERI AZIMU VELO AIN AR TRES W  DIS CAZ7
 BAR2 SZ EP       1620  0.23                             148    0.3110 58.7  69 
 BAR2 SZ ES   1   1620 13.15                             148    0.85 7 58.7  69 
 BAR2 SZ I        1620 14.46        29.4 0.18            154           58.7  69 
 RUS  HZ EP       1620  1.99                             137   -0.4110 86.6 131 
 RUS  HN ES   1   1620 16.23                             137   -0.49 7 86.6 131 
 RUS  HZ I        1620 18.20         4.1 0.26            143           86.6 131 
 PTB  HZ EP       1620  1.35                             136   -0.4710 87.4 280 
 PTB  HE ES       1620 15.54                             136   -0.1410 87.4 280 
 PTB  HZ I        1620 18.99                             136           87.4 280 
 SPBC HZ EP       1620  2.36                             134   -0.1110 93.7 208 
 SPBC HN ES   1   1620 16.95                             134    0.11 7 93.7 208 
 SPBC HZ I        1620 19.27        13.8 0.22            137           93.7 208 
 PAM  SZ EP       1620  8.43                             120   -0.13 9  150  46 
 PAM  SE ES       1620 27.53                             120   -0.15 9  150  46 
 PAM  SZ I        1620 28.36         2.3 0.20            124            150  46 
 NOR  HZ EP       1620  9.44                             118    0.20 9  161 235 
 NOR  HN ES       1620 29.18                             118    0.29 9  161 235 
 NOR  HZ I        1620 32.69         5.2 0.15            119            161 235 
 ZAR  HZ EP       1620 11.16                             115    0.17 9  178 313 
 ZAR  HN ES   4   1620 33.96                             115    1.95 0  178 313 
 ZAR  HZ I        1620 37.67         7.8 0.30            116            178 313 
 HEL  HZ EP       1620 15.16                             112    0.48 8  206 264 
 HEL  HN ES   1   1620 37.85                             112   -0.73 6  206 264 
 HEL  HZ I        1620 42.37         6.0 0.36            113            206 264 
 GUY2CHZ EP   1   1620 17.43                             110    0.12 6  228 235 
 GUY2CHE ES   4   1620 45.96                             110    2.70 0  228 235 
 GUY2CHZ I        1620 51.67         3.6 0.46                           228 235 
 RREF HZ EP   1   1620 20.35                             108    0.42 6  249 228 
 RREF HE ES   4   1620 50.50                             108    2.57 0  249 228 
 RREF HZ I        1620 53.64         2.7 0.24            109            249 228 
 MON  HZ EP   4   1620 29.02                             102   -1.31 0  342 320 
 MON  HE ES   4   1621  5.99                             102   -0.44 0  342 320 
 MON  HZ I        1621  8.28         1.1 0.49            102            342 320 
                                                                                
