 2011  9 5 1021 49.8 L   7.173 -73.476 26.5  RSN  5 0.3 1.3LRSN                1
 GAP=114        0.58       2.0     3.0  3.1  0.2148E+01 -0.4932E+01 -0.2552E+01E
 Epicentro: SABANA DE TORRES - SANTANDER                                       3
 ACTION:UPD 12-07-13 15:55 OP:ep   STATUS:               ID:20110905102149 L   I
 2011-09-05-1018-07S.COL___171                                                 6
 STAT SP IPHASW D HRMM SECON CODA AMPLIT PERI AZIMU VELO AIN AR TRES W  DIS CAZ7
 BRR  HZ EP       1021 56.00                             129    0.1910 27.0 254 
 BRR  HE ES   1   1022  0.25                             129   -0.27 7 27.0 254 
 BRR  HZ I        1022  0.69        19.0 0.14                          27.0 254 
 GIR2 SZ EP       1021 56.83                             123    0.1610 32.9 108 
 BAR2 SZ EP   1   1022  2.16                              98    0.13 7 71.9 153 
 BAR2 SZ ES   1   1022 11.06                              98   -0.52 7 71.9 153 
 BAR2 SZ I        1022 13.97         7.3 0.27                          71.9 153 
 OCA  SZ EP       1022  8.35                              61    0.1310  119   8 
 OCA  SZ ES   1   1022 22.23                              61   -0.38 7  119   8 
 OCA  SZ I        1022 25.88         9.3 0.55                           119   8 
 RUS  HZ EP   1   1022 12.27                              61    0.02 7  148 163 
 RUS  HE ES   1   1022 29.95                              61    0.19 7  148 163 
 RUS  HZ I        1022 35.08         3.9 0.50                           148 163 
                                                                                
