 2012  1 5 1426 47.8 L   6.767 -73.148139.8  RSN 11 0.5 2.7LRSN                1
 GAP=138        1.11       5.1     5.4  7.1 -0.9210E+00  0.1143E+02  0.9918E+01E
 Epicentro: LOS SANTOS - SANTANDER                                             3
 ACTION:UP  12-02-03 08:14 OP:REBC STATUS:               ID:20120105142647 L   I
 2012-01-05-1420-00M.COL___189                                                 6
 STAT SP IPHASW D HRMM SECON CODA AMPLIT PERI AZIMU VELO SNR AR TRES W  DIS CAZ7
 BAR2 SZ IP       1427  6.60                             172    -0.110   20 191 
 BAR2 SZ ES   1   1427 20.77                             172    -0.6 7   20 191 
 BAR2 SZ I        1427 22.90       105.4 0.20                            20 191 
 GIR2 SZ IP       1427  6.78                             165    -0.110   35 352 
 GIR2 SZ ES   1   1427 22.20                             165     0.4 7   35 352 
 BRR  HZ IP     C 1427  8.57                             151     0.110   73 301 
 BRR  HZ I        1427  8.96       198.1 0.10                            73 301 
 BRR  HN ES   1   1427 25.62                             151     1.1 7   73 301 
 PAM  SZ IP       1427  9.48                             149    -0.110   80  38 
 PAM  SN ES   1   1427 26.40                             149    -0.2 7   80  38 
 RUS  HZ EP       1427 10.51                             144    -0.210   97 176 
 RUS  HN ES   1   1427 28.76                             144     0.2 7   97 176 
 RUS  HZ I        1427 29.88        52.9 0.44                            97 176 
 PTB  HZ EP   2   1427 13.08                             131    -1.1 5  147 260 
 PTB  HN ES   1   1427 34.41                             131    -0.4 7  147 260 
 PTB  HZ I        1427 39.89        33.7 0.36                           147 260 
 ZAR  HZ EP       1427 19.61                             121    -0.4 9  205 293 
 ZAR  HN ES   1   1427 44.94                             121    -0.2 6  205 293 
 ZAR  HZ I        1427 47.42        45.3 0.26                           205 293 
 NOR  SZ EP       1427 23.10                             117     0.1 8  232 235 
 NOR  SN ES   1   1427 49.69                             117    -0.7 6  232 235 
 CHI  HZ EP       1427 25.47                             116     0.7 8  245 195 
 CHI  HN ES   2   1427 53.66                             116     0.0 4  245 195 
 HEL  HZ EP   2   1427 28.20                             114     0.6 4  271 257 
 HEL  HZ I        1428  5.52        27.2 0.26                           271 257 
 GUY  SZ EP       1427 31.89                             111     0.7 7  301 236 
 GUY  SZ I        1428 14.24        21.9 0.34                           301 236 
                                                                                
