 2012 12 5 1248 43.3 L   6.831 -73.345113.1  RSN  6 0.5 1.8LRSN                1
 GAP= 98        1.19       5.1     4.5  8.3  0.4521E-01  0.1587E+02 -0.1302E+01E
 Epicentro: ZAPATOCA - SANTANDER                                               3
 ACTION:UPD 13-01-04 14:25 OP:ep   STATUS:               ID:20121205124843 L   I
 2012-12-05-1246-48M.COL___187                                                 6
 STAT SP IPHASW D HRMM SECON CODA AMPLIT PERI AZIMU VELO AIN AR TRES W  DIS CAZ7
 BAR2 SZ EP       1248 59.90                             163    0.5910 32.0 146 
 BAR2 SZ ES       1249 11.84                             163    0.0610 32.0 146 
 BAR2 SZ I        1249 14.26        50.2 0.28                          32.0 146 
 GIR2 SZ EP       1248 59.56                             163    0.3910 32.1  31 
 GIR2 SZ ES       1249 11.11                             163   -0.4310 32.1  31 
 GIR2 SZ I        1249 13.87        14.7 0.44                          32.1  31 
 PAM  SZ EP       1249  3.17                             139   -0.0510 90.8  52 
 PAM  SN ES       1249 18.65                             139   -0.0910 90.8  52 
 PAM  SN I        1249 21.22         8.4 0.18                          90.8  52 
 RUS  HZ EP       1249  5.00                             133    0.3510  108 164 
 RUS  HE ES       1249 21.10                             133   -0.1910  108 164 
 RUS  HE I        1249 23.37         6.8 0.22                           108 164 
 PTB  HZ EP       1249  5.25                             128   -0.5510  127 255 
 PTB  HN ES       1249 23.25                             128   -0.0710  127 255 
 PTB  HN I        1249 26.72        12.5 0.14                           127 255 
 ZAR  HZ EP       1249 10.58                             117   -0.92 9  182 294 
 ZAR  HN ES       1249 34.34                             117    0.86 9  182 294 
 ZAR  HN I        1249 37.94        12.5 0.38                           182 294 
                                                                                
