 2011 12 5 1649 17.0 L   6.752 -73.173148.2  RSN  5 0.4 1.4LRSN                1
 GAP=135        0.87       8.5     9.5 10.1 -0.7386E+01 -0.3356E+01 -0.1059E+02E
 Epicentro: VILLANUEVA - SANTANDER                                             3
 ACTION:UPD 12-07-13 16:14 OP:ep   STATUS:               ID:20111205164917 L   I
 2011-12-05-1648-39S.COL___159                                                 6
 STAT SP IPHASW D HRMM SECON CODA AMPLIT PERI AZIMU VELO AIN AR TRES W  DIS CAZ7
 BAR2 SZ EP   1   1649 36.98                             173    0.14 7 17.7 183 
 BAR2 SZ ES   1   1649 51.99                             173   -0.32 7 17.7 183 
 BAR2 SZ I        1649 55.57        10.5 0.45                          17.7 183 
 GIR2 SZ EP   1   1649 37.54                             166    0.42 7 36.2 356 
 BRR  HZ EP   1   1649 37.55                             153   -0.89 7 71.4 303 
 BRR  HN ES   1   1649 55.61                             153    0.46 7 71.4 303 
 PAM  SZ EP   1   1649 40.19                             149    0.33 7 83.4  39 
 PAM  SN ES   1   1649 57.44                             149   -0.23 7 83.4  39 
 PAM  SZ I        1649 59.85         2.7 0.41                          83.4  39 
 RUS  HN ES   2   1649 59.29                             146    0.20 5 95.5 174 
                                                                                
