 2011 11 5 1845 52.5 L   6.462 -73.105177.4  RSN 22 0.5 3.3LRSN                1
 GAP=123        0.78       3.4     4.5  5.2 -0.1075E+00  0.8106E+01  0.3109E+01E
 Epicentro: VALLE DE SAN JOSE - SANTANDER                                      3
 ACTION:UPD 12-07-13 16:08 OP:ep   STATUS:               ID:20111105184552 L   I
 2011-11-05-1844-35S.COL___175                                                 6
 STAT SP IPHASW D HRMM SECON CODA AMPLIT PERI AZIMU VELO AIN AR TRES W  DIS CAZ7
 BAR2 SZ IP     D 1846 15.60                             174   -0.2510 16.7 329 
 BAR2 SZ ES   1   1846 33.96                             174   -0.10 7 16.7 329 
 BAR2 SZ I        1846 34.53       223.4 0.64                          16.7 329 
 BTL  SZ EP       1846 16.92                             163    0.1710 53.6 340 
 RUS  HZ IP     C 1846 17.57                             160    0.0710 63.1 178 
 RUS  HN ES   1   1846 36.79                             160   -0.21 7 63.1 178 
 RUS  HZ I        1846 38.10       318.1 0.42                          63.1 178 
 BRR  HZ IP     C 1846 18.89                             150    0.2910 97.9 317 
 BRR  HZ I        1846 19.18       900.8 0.22                          97.9 317 
 BRR  HN ES   1   1846 39.91                             150    0.95 7 97.9 317 
 PAM  SZ IP       1846 19.93                             148    0.0710  107  25 
 PAM  SN ES   1   1846 40.85                             148   -0.36 7  107  25 
 YOP  SZ EP       1846 22.40                             139    0.36 9  144 148 
 YOP  SE ES   2   1846 44.44                             139   -0.64 5  144 148 
 YOP  SZ I        1846 47.15       224.9 0.36                           144 148 
 OCA  SZ EP       1846 26.48                             130   -0.32 9  198 353 
 OCA  SZ ES   2   1846 53.74                             130    0.18 4  198 353 
 OCA  SZ I        1847  0.26       192.0 0.50                           198 353 
 CTAB SZ EP   3   1846 28.99                             129    1.44 2  201 217 
 NOR  SZ EP       1846 28.48                             127   -0.23 8  219 243 
 NOR  SN ES   2   1846 56.03                             127   -0.93 4  219 243 
 ROSC BZ EP   3   1846 30.76                             126    1.10 2  224 217 
 ROSC BZ I        1847  5.48        81.6 0.50                           224 217 
 ZAR  HZ EP       1846 28.50                             126   -0.70 8  225 301 
 ZAR  HN ES   2   1846 56.85                             126   -0.97 4  225 301 
 ZAR  HZ I        1846 58.98       162.2 0.32                           225 301 
 VIL  SZ EP   2   1846 33.64                             121   -0.12 4  268 194 
 HEL  HZ EP       1846 35.06                             121    0.79 8  270 264 
 HEL  HZ I        1847 10.48        89.1 0.22                           270 264 
 GUY  SZ EP   2   1846 36.88                             119    0.57 4  288 242 
 GUY  SZ I        1847 19.18       101.9 0.46                           288 242 
 RREF HZ EP   2   1846 37.69                             118   -0.40 4  303 235 
 RREF HN ES   2   1847 13.28                             118   -0.37 4  303 235 
 RREF HZ I        1847 20.54        60.2 0.28                           303 235 
 TOL  SZ EP   2   1846 40.44                             116    0.68 3  321 230 
 ANIL HZ EP   2   1846 40.90                             115   -0.32 3  335 230 
 ANIL HN ES   3   1847 19.73                             115    0.50 2  335 230 
 ANIL HZ I        1847 26.16        92.3 0.32                           335 230 
 DBB  SZ EP   3   1846 43.09                             114    0.64 2  349 280 
 PRA  HZ EP       1846 43.66                             113   -0.27 6  362 213 
 MON  HZ EP   3   1846 44.05                             112   -1.95 1  381 312 
 COD  HZ IP   3 C 1846 46.26                             112   -0.25 1  386 354 
 COD  HZ I        1847 31.15        56.2 0.28                           386 354 
 CAP2 HZ EP   3   1847  3.88                             105    0.90 1  528 297 
                                                                                
