 2016  3 5 1706 36.5 L   6.825 -73.130142.5  RSN 10 0.4 1.9LRSN                1
 GAP=137        0.97       3.8     4.1  6.1 -0.2307E+01  0.9466E+01  0.2129E+01E
 Epicentro: LOS SANTOS - SANTANDER                                             3
 ACTION:UPD 16-05-13 21:21 OP:cam  STATUS:               ID:20160305170636 L   I
 OLDACT:UP  16-03-06 00:05 OP:mh   STATUS:               ID:20160305165747     3
 OLDACT:UP  16-03-06 00:04 OP:mh   STATUS:               ID:20160305165747     3
 OLDACT:UP  16-03-06 00:04 OP:mh   STATUS:               ID:20160305165747     3
 OLDACT:UP  16-03-06 00:00 OP:mh   STATUS:               ID:20160305165747     3
 OLDACT:REG 16-03-05 21:01 OP:mh   STATUS:               ID:20160305165747     3
 2016-03-05-1657-47M.COL___328                                                 6
 STAT SP IPHASW D HRMM SECON CODA AMPLIT PERI AZIMU VELO AIN AR TRES W  DIS CAZ7
 BAR2 EZ EP       17 6 56.17                             169    0.3710 26.3 193 
 BAR2 EZ ES       17 7 10.16                             169   -0.6910 26.3 193 
 BAR2 EZ I        17 7 13.99        11.9 0.20            171           26.3 193 
 PAM  EZ EP       17 6 58.18                             151    0.0110 74.2  40 
 PAM  EN ES       17 7 15.51                             151    0.4310 74.2  40 
 PAM  EZ I    1   17 7 18.31       106.6 1.02            140           74.2  40 
 RUS  HZ EP       17 6 59.95                             142   -0.1710  103 177 
 RUS  HN ES       17 7 18.74                             142    0.1910  103 177 
 RUS  HZ I        17 7 19.87         5.3 0.23            138            103 177 
 PTB  HZ EP       17 7  2.86                             131   -0.54 9  150 258 
 PTB  HN ES       17 7 24.09                             131   -0.30 9  150 258 
 PTB  HZ I        17 7 31.46        14.8 0.45            121            150 258 
 SPBC HZ EP       17 7  4.99                             128   -0.06 9  166 219 
 SPBC HN ES       17 7 27.27                             128   -0.05 9  166 219 
 SPBC HZ I        17 7 33.73         9.9 0.12            120            166 219 
 ZAR  HZ EP   1   17 7  8.37                             121   -0.42 6  205 291 
 ZAR  HN ES       17 7 34.37                             121    0.39 9  205 291 
 ZAR  HZ I        17 7 40.08        15.4 0.36            112            205 291 
 NOR  HZ EP       17 7 11.90                             117   -0.46 8  238 234 
 NOR  HE ES       17 7 41.21                             117    0.88 8  238 234 
 NOR  HZ I        17 7 45.46         5.3 0.32            110            238 234 
 CHI  HZ EP   1   17 7 14.32                             116   -0.03 6  252 195 
 CHI  HE ES       17 7 44.04                             116    0.16 8  252 195 
 CHI  HZ I        17 7 49.78         2.8 0.12            109            252 195 
 GUY2CHZ EP       17 7 20.70                             111    0.41 7  304 235 
 GUY2CHE ES   4   17 7 57.26                             111    2.81 0  304 235 
 GUY2CHZ I        17 8  4.69         4.5 0.52                           304 235 
 MON  HZ EP   4   17 7 29.33                             108    4.00 0  353 308 
 MON  HE ES   4   17 8  2.69                             108   -0.73 0  353 308 
 SJC  HZ EP   4   17 7 30.17                             105   -1.62 0  408 327 
 SJC  HZ I        17 8 15.82         1.6 0.46             98            408 327 
 SJC  HN ES   4   17 8 30.30                             105   15.37 0  408 327 
                                                                                
