 2013  2 5 1410 21.0 L   7.562 -73.303  0.0  RSN  4 0.2 1.7LRSN                1
 GAP=248        0.45       5.9     2.3  6.6 -0.1004E+02 -0.9254E+01  0.3185E+02E
 Epicentro: EL PLAYON - SANTANDER                                              3
 ACTION:UPD 13-03-12 09:30 OP:ep   STATUS:               ID:20130205141021 L   I
 2013-02-05-1404-48M.COL___164                                                 6
 STAT SP IPHASW D HRMM SECON CODA AMPLIT PERI AZIMU VELO AIN AR TRES W  DIS CAZ7
 BRR  HZ EP   1   1410 32.13                              47   -0.30 7 67.6 222 
 BRR  HE ES   1   1410 41.58                              47    0.25 7 67.6 222 
 BRR  HE I        1410 42.24        47.5 0.21             47           67.6 222 
 PAM  SZ EP       1410 33.57                              47    0.1110 71.0 110 
 PAM  SE ES       1410 43.13                              47   -0.0210 71.0 110 
 PAM  SZ I        1410 44.10        30.3 0.24             47           71.0 110 
 BAR2 SZ ES   1   1410 52.72                              47    0.03 7  108 173 
 BAR2 SZ I        1410 56.41        17.4 0.53             47            108 173 
 RUS  HE ES   1   1411 13.88                              37   -0.18 7  186 172 
 RUS  HE I        1411 16.36         8.3 0.50             37            186 172 
                                                                                
