 2016  5 5 1127 20.8 L   6.804 -73.150149.6  RSN 12 0.3 2.3LRSN                1
 GAP=136        0.88       2.5     3.5  5.1 -0.1763E+01  0.2039E+01  0.2315E+01E
 Epicentro: LOS SANTOS - SANTANDER                                             3
 ACTION:UPD 16-08-18 17:42 OP:cam  STATUS:               ID:20160505112720 L   I
 OLDACT:UP  16-05-15 07:30 OP:ar   STATUS:               ID:20160505112720 L   3
 OLDACT:REG 16-05-05 20:14 OP:dnl  STATUS:               ID:20160505111750     3
 2016-05-05-1117-50M.COL___297                                                 6
 STAT SP IPHASW D HRMM SECON CODA AMPLIT PERI AZIMU VELO AIN AR TRES W  DIS CAZ7
 BAR2 EZ EP       1127 40.77                             171   -0.0910 23.7 189 
 BAR2 EZ I        1127 56.97        49.9 0.24            169           23.7 189 
 BRR  HZ EP     C 1127 42.53                             153    0.2410 70.6 298 
 BRR  HN ES       1127 59.79                             153    0.7110 70.6 298 
 BRR  HZ I        1128  2.40        20.5 0.25            154           70.6 298 
 PAM  EZ EP       1127 43.75                             152    0.3710 77.3  40 
 PAM  EE ES       1128  0.95                             152   -0.0710 77.3  40 
 PAM  EZ I        1128  1.64        17.6 0.20            154           77.3  40 
 RUS  HZ EP       1127 44.74                             144   -0.1810  101 176 
 RUS  HE ES       1128  3.61                             144   -0.1610  101 176 
 RUS  HZ I        1128  4.50        18.2 0.28            144            101 176 
 PTB  HZ EP       1127 47.26                             133   -0.75 9  147 259 
 PTB  HE ES       1128  9.18                             133   -0.09 9  147 259 
 PTB  HZ I        1128 10.48        21.7 0.09            133            147 259 
 OCA  HZ EP       1127 49.41                             131    0.09 9  160 353 
 OCA  HE ES       1128 10.94                             131   -0.66 9  160 353 
 SPBC HZ EP       1127 49.69                             130    0.13 9  163 219 
 SPBC HE ES       1128 11.92                             130   -0.11 9  163 219 
 SPBC HZ I        1128 15.92        27.9 0.11            130            163 219 
 ZAR  HZ EP       1127 53.80                             123    0.41 9  203 292 
 ZAR  HN ES       1128 18.63                             123   -0.22 9  203 292 
 ZAR  HZ I        1128 25.10        20.4 0.10            124            203 292 
 NOR  HZ EP       1127 56.93                             119    0.23 8  235 234 
 NOR  HE ES       1128 24.47                             119   -0.27 8  235 234 
 NOR  HZ I        1128 30.59        11.7 0.18            119            235 234 
 CHI  HZ EP       1127 58.93                             118    0.22 8  249 195 
 CHI  HN ES       1128 28.19                             118   -0.12 8  249 195 
 CHI  HZ I        1128 33.40        13.9 0.36            118            249 195 
 ROSC BZ EP   9   1128  1.32                             117    2.21 0  253 211 
 ROSC BE ES       1128 31.85                             117    0.62 8  253 211 
 ROSC BZ I        1128 35.46        32.6 0.40            117            253 211 
 URE  HZ EP   4   1127 53.08                             114   -8.87 0  283 292 
 URE  HN ES   4   1128 31.45                             114   -2.63 0  283 292 
 PRA  HZ EP     C 1128 14.67                             107    0.24 6  392 209 
 PRA  HN ES       1128 56.64                             107    0.34 6  392 209 
                                                                                
