 2015  4 5 1504 40.3 L   6.787 -73.146144.6  RSN  8 0.5 1.7LRSN                1
 GAP=137        1.20       4.2     5.2  7.4  0.9205E+00  0.8679E+01 -0.6626E+01E
 Epicentro: LOS SANTOS - SANTANDER                                             3
 ACTION:UPD 15-06-03 16:52 OP:cam  STATUS:               ID:20150405150440 L   I
 OLDACT:REG 15-04-05 20:56 OP:fm   STATUS:               ID:20150405145749     3
 2015-04-05-1457-49M.COL___270                                                 6
 STAT SP IPHASW D HRMM SECON CODA AMPLIT PERI AZIMU VELO AIN AR TRES W  DIS CAZ7
 BAR2 EZ EP       15 5  0.29                             171    0.5710 21.8 191 
 BAR2 EZ ES       15 5 14.45                             171   -0.4510 21.8 191 
 BAR2 EZ I        15 5 16.39        20.3 0.22            172           21.8 191 
 BRR  HZ IP     C 15 5  1.94                             152    0.6210 71.9 300 
 BRR  HN ES       15 5 18.61                             152    0.8610 71.9 300 
 BRR  HZ I        15 5 22.28        10.0 0.32            150           71.9 300 
 PAM  SZ EP       15 5  2.17                             150   -0.2510 78.6  39 
 PAM  SN ES       15 5 19.16                             150   -0.5510 78.6  39 
 PAM  SZ I        15 5 22.37         4.0 0.36            153           78.6  39 
 RUS  HZ EP       15 5  4.07                             144    0.2910 99.1 176 
 RUS  HE ES       15 5 22.05                             144   -0.0910 99.1 176 
 RUS  HZ I        15 5 23.38         3.8 0.22            148           99.1 176 
 PTB  HZ EP       15 5  7.12                             132    0.02 9  147 259 
 PTB  HE ES       15 5 27.23                             132   -0.80 9  147 259 
 PTB  HZ I        15 5 33.70         7.0 0.32            133            147 259 
 OCA  HZ EP   1   15 5  8.13                             129   -0.48 7  162 353 
 OCA  HN ES       15 5 31.17                             129    0.44 9  162 353 
 OCA  HZ I        15 5 34.68        10.0 0.46            131            162 353 
 ZAR  HZ EP       15 5 12.67                             122   -0.01 9  205 293 
 ZAR  HE ES       15 5 37.84                             122   -0.13 9  205 293 
 ZAR  HZ I        15 5 43.63         3.9 0.16            123            205 293 
 SML  HZ EP       15 5 16.48                             117   -0.48 8  245 335 
 SML  HN ES       15 5 45.46                             117   -0.13 8  245 335 
 SML  HZ I        15 5 50.19         5.4 0.10            119            245 335 
                                                                                
