 2013 10 5 1033 24.8 L   6.844 -73.136146.1  RSN  5 0.6 1.5LRSN                1
 GAP=202        1.37       7.3    10.3 11.2  0.2300E+02  0.5167E+01 -0.3462E+02E
 Epicentro: LOS SANTOS - SANTANDER                                             3
 ACTION:UPD 13-11-25 09:19 OP:ep   STATUS:               ID:20131005103324 L   I
 OLDACT:REG 13-10-05 16:03 OP:stll STATUS:               ID:20131005102838     3
 2013-10-05-1028-38M.COL___228                                                 6
 STAT SP IPHASW D HRMM SECON CODA AMPLIT PERI AZIMU VELO AIN AR TRES W  DIS CAZ7
 BAR2 SZ EP       1033 44.90                             169    0.3410 28.3 190 
 BAR2 SZ ES       1033 59.74                             169   -0.2610 28.3 190 
 BAR2 SZ I        1034  0.72        11.4 0.36            168           28.3 190 
 BRR  HZ EP       1033 46.88                             153    0.9810 69.9 295 
 BRR  HN ES       1034  2.93                             153    0.5610 69.9 295 
 RUS  HN ES       1034  7.20                             143   -0.5410  105 177 
 RUS  HZ I        1034  9.04         3.6 0.40            142            105 177 
 PTB  HZ EP       1033 51.98                             132    0.02 9  150 257 
 PTB  HN ES       1034 12.79                             132   -0.37 9  150 257 
 PTB  HZ I        1034 14.12         2.7 0.14            132            150 257 
 SML  HZ EP       1034  0.60                             118   -0.40 8  240 335 
 SML  HN ES       1034 28.41                             118   -0.84 8  240 335 
                                                                                
