 2011  1 5 1447 15.6 L   6.783 -73.118141.9  RSN  5 0.2 2.0LRSN                1
 GAP=162        0.39       2.6     5.6  5.4 -0.6882E+01  0.1160E+02 -0.3679E+01E
 Epicentro: LOS SANTOS - SANTANDER                                             3
 ACTION:UP  11-02-08 08:38 OP:pat  STATUS:               ID:20110105144715 L   I
 2011-01-05-1440-00M.COL___136                                                 6
 STAT SP IPHASW D HRMM SECON CODA AMPLIT PERI AZIMU VELO SNR AR TRES W  DIS CAZ7
 BAR2 SZ EP   1   1447 34.86                             171     0.1 7   22 199 
 BAR2 SZ ES   2   1447 49.46                             171    -0.3 5   22 199 
 BAR2 SZ I        1447 50.97        23.9 0.24                            22 199 
 RUS  HZ EP   1   1447 38.84                             144     0.0 7   99 178 
 RUS  HE ES   2   1447 57.28                             144     0.3 5   99 178 
 RUS  HZ I        1447 59.08         6.3 0.37                            99 178 
 GRA  SZ EP   1   1447 40.60                             136     0.0 7  127  16 
 GRA  SZ ES   2   1447 59.87                             136    -0.2 5  127  16 
 GRA  SZ I        1448  3.42        20.0 0.24                           127  16 
 OCA  SZ EP   1   1447 44.00                             128     0.1 7  163 352 
 OCA  SZ ES   2   1448  6.09                             128     0.2 5  163 352 
 OCA  SZ I        1448 14.42        26.8 0.51                           163 352 
 NOR  SZ EP   1   1447 51.06                             117    -0.3 6  236 235 
 NOR  SN ES   2   1448 19.36                             117     0.2 4  236 235 
                                                                                
