 2012  6 5 1240 52.0 L   6.810 -73.138144.1  RSN 13 0.5 2.9LRSN                1
 GAP=137        0.86       3.0     4.0  5.9 -0.1771E+01  0.8844E+01  0.3916E+01E
 Epicentro: LOS SANTOS - SANTANDER                                             3
 ACTION:UPD 12-08-06 17:47 OP:ep   STATUS:               ID:20120605124052 L   I
 2012-06-05-1240-00M.COL___201                                                 6
 STAT SP IPHASW D HRMM SECON CODA AMPLIT PERI AZIMU VELO AIN AR TRES W  DIS CAZ7
 BAR2 SZ EP       1241 11.51                             170    0.0210 24.5 191 
 BAR2 SZ ES   1   1241 26.76                             170    0.09 7 24.5 191 
 BAR2 SZ I        1241 29.17       306.7 0.30                          24.5 191 
 PAM  SZ EP       1241 14.26                             151    0.2610 76.0  40 
 PAM  SN ES       1241 31.47                             151    0.3510 76.0  40 
 RUS  HZ EP       1241 15.43                             143   -0.2710  102 177 
 RUS  HN ES   1   1241 33.72                             143   -0.43 7  102 177 
 RUS  HZ I        1241 35.52        74.6 0.24                           102 177 
 PTB  HZ EP   1   1241 18.04                             131   -0.92 7  149 258 
 PTB  HN ES   1   1241 39.25                             131   -0.71 7  149 258 
 PTB  HZ I        1241 46.85        69.5 0.53                           149 258 
 OCA  HZ EP   1   1241 19.98                             129   -0.15 7  159 353 
 OCA  HN ES   1   1241 41.81                             129   -0.23 7  159 353 
 OCA  HZ I        1241 44.82       188.3 0.30                           159 353 
 ZAR  HZ EP   1   1241 24.00                             122   -0.41 6  204 292 
 ZAR  HN ES   1   1241 49.77                             122    0.11 6  204 292 
 ZAR  HZ I        1241 55.24        66.1 0.16                           204 292 
 NOR  SZ EP   1   1241 27.46                             118   -0.35 6  236 234 
 NOR  SN ES   1   1241 56.19                             118    0.48 6  236 234 
 CHI  HZ EP       1241 29.69                             117   -0.09 8  250 195 
 CHI  HN ES   1   1241 58.94                             117   -0.28 6  250 195 
 CHI  HZ I        1242  6.14        52.4 0.46                           250 195 
 ROSC BZ EP   1   1241 31.26                             116    1.05 6  254 211 
 ROSC BE ES   1   1242  0.60                             116    0.61 6  254 211 
 ROSC BZ I        1242  9.38       116.2 0.45                           254 211 
 HEL  HZ EP   1   1241 32.46                             114    0.18 6  273 256 
 HEL  HN ES   1   1242  4.53                             114    0.86 6  273 256 
 HEL  HZ I        1242 11.32        41.5 0.56                           273 256 
 VIL  SZ EP   1   1241 35.56                             112    0.04 5  305 192 
 VIL  SN ES   1   1242  9.04                             112   -0.39 5  305 192 
 VIL  SZ I        1242 13.43        24.9 0.35                           305 192 
 DBB  SZ EP   1   1241 39.99                             109    0.46 5  340 274 
 PRA  HZ EP   1   1241 45.19                             106   -0.47 4  393 210 
 PRA  HN ES   1   1242 28.60                             106    1.12 4  393 210 
                                                                                
