 2010  2 5 1637 37.8 L   6.876 -73.120142.7  RSN 10 0.7 3.2LRSN                1
 GAP=127        1.07       6.5     7.7  8.8  0.6695E-01  0.1821E+02 -0.1966E+02E
 Epicentro: LOS SANTOS - SANTANDER                                             3
 ACTION:UP  10-08-24 09:47 OP:vdl  STATUS:               ID:20100205163737 L   I
 2010-02-05-1635-48S.COL___094                                                 6
 STAT SP IPHASW D HRMM SECON CODA AMPLIT PERI AZIMU VELO SNR AR TRES W  DIS CAZ7
 BAR2 SZ IP       1637 57.78                             167     0.510   32 193 
 BAR2 SZ ES   1   1638 12.70                             167     0.2 7   32 193 
 RUS  BZ IP       1638  1.75                             141    -0.110  109 178 
 RUS  BZ I        1638  3.03       102.1 0.15                           109 178 
 RUS  BN ES       1638 20.35                             141    -0.310  109 178 
 CHI  HZ EP   1   1638 16.12                             116    -0.2 6  258 195 
 CHI  HE ES   2   1638 45.92                             116    -0.4 4  258 195 
 CHI  HZ I        1638 48.96        74.2 0.66                           258 195 
 HEL  HZ EP   2   1638 19.41                             114     1.0 4  277 254 
 HEL  HN ES   2   1638 50.60                             114     0.5 4  277 254 
 HEL  HZ I        1638 56.78        57.3 0.60                           277 254 
 DBB  SZ EP   2   1638 25.56                             109     0.1 3  342 273 
 MON  HZ EP   1   1638 24.92                             108    -1.4 5  350 307 
 MON  HE ES   1   1639  3.34                             108    -0.8 5  350 307 
 MON  HZ I        1639 18.23        39.8 0.96                           350 307 
 TOL  SZ EP   2   1638 26.28                             108    -0.6 3  352 224 
 SDV  BZ EP       1638 27.29                             108     0.4 6  353  51 
 ANIL BZ EP   2   1638 29.15                             108     0.7 3  365 224 
 ANIL BE ES   2   1639  9.80                             108     1.9 3  365 224 
 ANIL BZ I        1639 14.62       117.5 0.28                           365 224 
 PRA  HZ EP       1638 31.77                             106    -0.5 6  401 209 
 PRA  HZ I        1639 18.56       107.3 0.38                           401 209 
                                                                                
