 2017  6 5 1925 19.1 L   6.775 -73.136145.2  RSN  7 0.5 2.1LRSN                1
 GAP=211        1.02       7.5     7.5  7.0  0.4384E+02 -0.3624E+01 -0.4026E+01E
 Epicentro: LOS SANTOS - SANTANDER                                             3
 ACTION:UPD 17-09-14 16:49 OP:jn   STATUS:               ID:20170605192519 L   I
 OLDACT:UP  17-06-06 00:12 OP:cog  STATUS:               ID:20170605191654     3
 OLDACT:REG 17-06-05 20:54 OP:cog  STATUS:               ID:20170605191654     3
 2017-06-05-1918-00M.COL___356                                                 6
 STAT SP IPHASW D HRMM SECON CODA AMPLIT PERI AZIMU VELO AIN AR TRES W  DIS CAZ7
 BRR  HZ EP       1925 39.94                             152   -0.4110 73.5 300 
 BRR  HE ES       1925 57.00                             152    0.1010 73.5 300 
 BRR  HZ I        1926  2.25        16.7 0.18            146           73.5 300 
 RUS  HZ EP       1925 41.95                             144   -0.6810 97.8 177 
 RUS  HN ES       1926  0.70                             144   -0.2510 97.8 177 
 RUS  HZ I        1926  1.40        13.1 0.24            140           97.8 177 
 PTB  HZ EP   9   1925 44.95                             132   -1.15 0  148 260 
 PTB  HN ES       1926  6.03                             130    0.04 9  148 260 
 PTB  HZ I        1926  7.62        16.6 0.28            127            148 260 
 YPLC HZ EP       1925 48.56                             127   -0.04 9  174 151 
 YPLC HN ES       1926 12.50                             127    0.92 9  174 151 
 YPLC HZ I        1926 12.95        13.1 0.30            127            174 151 
 ZAR  HZ EP       1925 52.35                             122    0.60 8  206 293 
 ZAR  HN ES       1926 17.42                             122    0.23 8  206 293 
 ZAR  HZ I        1926 22.56        23.1 0.28            120            206 293 
 NOR  HZ EP       1925 54.56                             118   -0.19 8  234 235 
 NOR  HN ES   3   1926 22.21                             118   -0.32 2  234 235 
 NOR  HZ I        1926 28.34        14.4 0.16            116            234 235 
 HEL  HN ES   4   1926 34.37                             115    3.64 0  272 256 
 CBOC HZ EP       1926  6.18                             110    0.14 7  334 253 
 CBOC HN ES   4   1926 45.67                             110    3.04 0  334 253 
 CBOC HZ I        1926 54.86         2.5 0.34            108            334 253 
                                                                                
