 2015 12 5 1147 55.5 L   6.831 -73.174144.3  RSN 15 0.4 2.3LRSN                1
 GAP=132        0.94       2.6     3.4  4.6 -0.1815E+01  0.4973E+01 -0.4569E-01E
 Epicentro: ZAPATOCA - SANTANDER                                               3
 ACTION:UPD 16-02-04 15:02 OP:cam  STATUS:               ID:20151205114755 L   I
 OLDACT:REG 15-12-05 19:39 OP:drio STATUS:               ID:20151205113748     3
 2015-12-05-1137-48M.COL___304                                                 6
 STAT SP IPHASW D HRMM SECON CODA AMPLIT PERI AZIMU VELO AIN AR TRES W  DIS CAZ7
 BAR2 EZ EP     C 1148 15.06                             169    0.0210 26.4 182 
 BAR2 EZ ES       1148 30.43                             169    0.1610 26.4 182 
 BAR2 EZ I        1148 32.62        27.5 0.30            168           26.4 182 
 BRR  HZ EP       1148 16.69                             154    0.4210 66.8 297 
 BRR  HN ES       1148 33.28                             154    0.8210 66.8 297 
 BRR  HZ I        1148 40.18        21.2 0.38            150           66.8 297 
 PAM  EZ EP       1148 18.04                             151    0.4910 76.9  43 
 PAM  EE ES       1148 34.35                             151   -0.3910 76.9  43 
 PAM  EZ I        1148 37.25        30.0 0.50            157           76.9  43 
 RUS  HZ EP       1148 19.18                             143   -0.2210  104 174 
 RUS  HN ES       1148 37.71                             143   -0.3110  104 174 
 PTB  HZ EP       1148 21.61                             132   -0.55 9  145 257 
 PTB  HN ES       1148 42.54                             132   -0.39 9  145 257 
 PTB  HZ I        1148 48.29        14.2 0.18            132            145 257 
 SPBC HZ EP       1148 24.12                             129    0.14 9  164 217 
 SPBC HN ES       1148 45.85                             129   -0.32 9  164 217 
 SPBC HZ I        1148 48.62        26.9 0.36            130            164 217 
 ZAR  HZ EP       1148 27.37                             123   -0.07 9  200 292 
 ZAR  HN ES       1148 52.51                             123    0.17 9  200 292 
 ZAR  HZ I        1149  3.30        17.3 0.46            123            200 292 
 NOR  HZ EP       1148 31.19                             118    0.08 8  234 233 
 NOR  HE ES       1148 58.13                             118   -0.74 8  234 233 
 NOR  HZ I        1149  6.85        15.0 0.14            120            234 233 
 SML  HZ EP       1148 31.39                             118   -0.20 8  239 336 
 SML  HE ES       1148 59.62                             118   -0.10 8  239 336 
 SML  HZ I        1149  3.49        22.8 0.10            120            239 336 
 ROSC BZ EP   4   1148 35.11                             116    1.40 0  254 210 
 ROSC BN ES       1149  3.85                             116    0.36 8  254 210 
 ROSC BZ I        1149  9.62        20.2 0.40            118            254 210 
 HEL  HZ EP       1148 36.06                             115    0.64 8  270 255 
 HEL  HE ES       1149  6.14                             115   -0.40 8  270 255 
 HEL  HZ I        1149 12.49         7.8 0.30            116            270 255 
 GUY2CHZ EP   4   1148 41.06                             112    2.06 0  301 234 
 GUY2CHN ES   4   1149 14.87                             112    1.96 0  301 234 
 GUY2CHZ I        1149 20.26         6.7 0.24                           301 234 
 SOCV BZ EP   4   1148 37.15                             112   -1.44 0  302  58 
 SOCV BE ES   4   1149  8.23                             112   -3.96 0  302  58 
 LL6C HZ EP       1148 40.35                             110   -0.41 7  321 358 
 LL6C HE ES   4   1149 14.67                             110   -1.37 0  321 358 
 ANIL HZ EP       1148 45.39                             108    0.09 6  358 224 
 ANIL HN ES       1149 24.58                             108    0.46 6  358 224 
 ANIL HZ I        1149 31.93        22.4 0.34            110            358 224 
 PRA  HZ EP       1148 48.97                             106   -0.19 6  393 209 
 PRA  HN ES       1149 31.62                             106    0.62 6  393 209 
 PRA  HZ I        1149 38.80         6.7 0.40            108            393 209 
                                                                                
