 2012 12 5 1225 40.6 L   6.765 -73.169143.4  RSN  4 0.2 1.7LRSN                1
 GAP=241        0.49       5.0     3.7  4.7  0.1223E+02  0.2281E+01 -0.3471E+01E
 Epicentro: LOS SANTOS - SANTANDER                                             3
 ACTION:UPD 13-01-04 14:25 OP:ep   STATUS:               ID:20121205122540 L   I
 2012-12-05-1220-00M.COL___237                                                 6
 STAT SP IPHASW D HRMM SECON CODA AMPLIT PERI AZIMU VELO AIN AR TRES W  DIS CAZ7
 BAR2 SZ EP       1225 59.95                             172    0.1110 19.2 184 
 BAR2 SZ ES       1226 14.71                             172   -0.1510 19.2 184 
 BAR2 SZ I        1226 16.32        15.5 0.24                          19.2 184 
 RUS  HZ EP       1226  3.96                             144    0.1310 97.0 174 
 RUS  HN ES       1226 22.03                             144    0.0610 97.0 174 
 RUS  HN I        1226 25.40         4.4 0.40                          97.0 174 
 PTB  HZ EP       1226  6.71                             132   -0.35 9  145 260 
 PTB  HN ES       1226 27.76                             132    0.05 9  145 260 
 PTB  HN I        1226 30.28         6.9 0.28                           145 260 
 ZAR  HN ES       1226 38.05                             122    0.16 9  203 293 
 ZAR  HN I        1226 45.58         7.0 0.28                           203 293 
                                                                                
