 2011  8 5 1407 44.3 L   6.798 -73.094140.9  RSN  5 0.3 2.0LRSN                1
 GAP=243        0.66       6.7     9.5  6.3  0.3561E+02  0.2022E+02  0.2110E+02E
 Epicentro: LOS SANTOS - SANTANDER                                             3
 ACTION:UPD 12-07-25 14:06 OP:epov STATUS:               ID:20110805140744 L   I
 2011-08-05-1405-24S.COL___135                                                 6
 STAT SP IPHASW D HRMM SECON CODA AMPLIT PERI AZIMU VELO AIN AR TRES W  DIS CAZ7
 BAR2 SZ IP       14 8  3.46                             170    0.0710 24.7 203 
 BAR2 SZ I        14 8  3.80        23.8 0.34                          24.7 203 
 BAR2 SZ ES   1   14 8 17.62                             170   -0.65 7 24.7 203 
 BRR  HZ IP     C 14 8  5.16                             150   -0.0910 76.4 297 
 BRR  HN ES   1   14 8 22.00                             150    0.42 7 76.4 297 
 BRR  HZ I        14 8 25.32        19.0 0.28                          76.4 297 
 RUS  HZ EP       14 8  7.84                             143    0.2810  100 179 
 RUS  HE ES   2   14 8 26.00                             143    0.32 5  100 179 
 NOR  SZ EP       14 8 20.07                             117   -0.19 8  239 235 
 CHI  HZ EP       14 8 21.73                             116   -0.16 8  250 196 
 CHI  HN ES   3   14 8 51.44                             116    0.24 2  250 196 
                                                                                
