 2013  1 5 1323 57.7 L   6.683 -73.181151.2  RSN  5 0.3 1.6LRSN                1
 GAP=224        0.56       5.8     5.1  6.3  0.1457E+02  0.3854E+01 -0.6854E+01E
 Epicentro: VILLANUEVA - SANTANDER                                             3
 ACTION:UPD 13-02-15 09:12 OP:ep   STATUS:               ID:20130105132357 L   I
 2013-01-05-1320-00M.COL___242                                                 6
 STAT SP IPHASW D HRMM SECON CODA AMPLIT PERI AZIMU VELO AIN AR TRES W  DIS CAZ7
 BAR2 SZ EP       1324 17.71                             176   -0.1410 10.1 181 
 BAR2 SZ ES   1   1324 33.13                             176   -0.40 7 10.1 181 
 BAR2 SZ I        1324 34.44        13.3 0.26            170           10.1 181 
 BRR  HZ EP       1324 19.81                             152    0.1010 75.1 309 
 BRR  HN ES   1   1324 37.10                             152    0.26 7 75.1 309 
 RUS  HE ES   1   1324 39.91                             148    0.41 7 88.1 173 
 RUS  HZ I        1324 41.21         4.5 0.56            148           88.1 173 
 PTB  HZ EP   1   1324 24.54                             134   -0.11 7  142 264 
 PTB  HN ES   1   1324 45.38                             134   -0.26 7  142 264 
 PTB  HZ I        1324 49.50         4.7 0.48            131            142 264 
 ZAR  HE ES   1   1324 56.62                             123    0.17 6  206 296 
 ZAR  HZ I        1325  4.44         4.4 0.44            122            206 296 
                                                                                
