 2012 11 5 1924 31.7 L   6.792 -73.068144.5  RSN  9 0.5 2.1LRSN                1
 GAP=147        1.00       4.6     6.5  7.6  0.8172E+00  0.1815E+02  0.4054E+01E
 Epicentro: LOS SANTOS - SANTANDER                                             3
 ACTION:UPD 12-12-05 15:31 OP:}ep  STATUS:               ID:20121105192431 L   I
 2012-11-05-1920-00M.COL___230                                                 6
 STAT SP IPHASW D HRMM SECON CODA AMPLIT PERI AZIMU VELO AIN AR TRES W  DIS CAZ7
 BAR2 SZ EP       1924 51.57                             169    0.3110 25.5 210 
 BAR2 SZ ES   1   1925  6.39                             169   -0.10 7 25.5 210 
 BAR2 SZ I        1925  7.40        55.8 0.36                          25.5 210 
 GIR2 SZ EP   1   1924 51.90                             166    0.55 7 34.6 336 
 GIR2 SZ ES   1   1925  5.46                             166   -1.19 7 34.6 336 
 PAM  SE ES   1   1925 10.88                             152    0.31 7 72.9  34 
 PAM  SE I        1925 13.00        17.2 0.54                          72.9  34 
 BRR  HZ EP       1924 53.53                             149    0.3110 79.2 296 
 BRR  HE ES   1   1925 10.54                             149    0.56 7 79.2 296 
 RUS  HZ EP   1   1924 55.32                             144    0.04 7 99.5 181 
 RUS  HN ES   1   1925 13.46                             144   -0.19 7 99.5 181 
 RUS  HN I        1925 15.67        13.8 0.26                          99.5 181 
 OCA  HZ EP   1   1924 59.68                             129   -0.46 7  162 350 
 OCA  HE ES   1   1925 22.02                             129   -0.28 7  162 350 
 ZAR  HZ EP   1   1925  4.97                             121    0.02 6  212 291 
 ZAR  HN ES   1   1925 30.28                             121   -0.59 6  212 291 
 ZAR  HN I        1925 35.54        24.4 0.16                           212 291 
 HEL  HN ES   1   1925 45.63                             114    0.82 6  280 256 
 HEL  HN I        1925 51.68         6.9 0.28                           280 256 
 PRA  HZ EP   1   1925 24.59                             106   -1.03 4  396 211 
 PRA  HN ES   1   1926  7.11                             106   -0.55 4  396 211 
 PRA  HN I        1926 13.71         1.8 0.32                           396 211 
                                                                                
