 2015  9 5 1233 43.0 L   6.769 -73.175143.2  RSN  8 0.3 1.7LRSN                1
 GAP=134        0.80       3.0     3.9  5.1 -0.1124E+01  0.7344E+01 -0.1040E+01E
 Epicentro: LOS SANTOS - SANTANDER                                             3
 ACTION:UPD 15-10-28 16:24 OP:cam  STATUS:               ID:20150905123343 L   I
 OLDACT:DUP 15-09-05 23:10 OP:mh   STATUS:               ID:20150905122750d    3
 2015-09-05-1227-49M.COL___361                                                 6
 STAT SP IPHASW D HRMM SECON CODA AMPLIT PERI AZIMU VELO AIN AR TRES W  DIS CAZ7
 BAR2 EZ EP       1234  1.91                             172   -0.3610 19.6 182 
 BAR2 EZ ES       1234 17.25                             172   -0.0310 19.6 182 
 BAR2 EZ I        1234 18.96         7.6 0.36            172           19.6 182 
 BRR  HZ EP       1234  4.03                             152    0.2010 70.1 302 
 BRR  HN ES       1234 20.37                             152    0.3110 70.1 302 
 BRR  HZ I        1234 26.08        13.0 0.17            151           70.1 302 
 PAM  EN ES       1234 22.63                             149    0.0410 82.1  40 
 RUS  HZ EP       1234  6.43                             144    0.1410 97.5 174 
 RUS  HN ES       1234 24.38                             144   -0.0710 97.5 174 
 RUS  HZ I        1234 26.12         4.3 0.40            148           97.5 174 
 PTB  HZ EP       1234  8.81                             132   -0.62 9  144 260 
 PTB  HN ES       1234 29.93                             132   -0.10 9  144 260 
 PTB  HZ I        1234 33.35         5.1 0.12            133            144 260 
 NOR  HZ EP       1234 18.27                             118    0.17 8  230 235 
 NOR  HN ES       1234 45.76                             118    0.29 8  230 235 
 NOR  HZ I        1234 48.91         3.4 0.14            120            230 235 
 SML  HZ EP       1234 20.31                             117    0.62 8  245 336 
 SML  HN ES       1234 47.82                             117   -0.48 8  245 336 
 SML  HZ I        1234 51.53         8.4 0.24            119            245 336 
 GUY2CHZ EP   4   1234 24.26                             112   -1.72 0  297 235 
 GUY2CHN ES   4   1235  2.80                             112    3.30 0  297 235 
 GUY2CHZ I        1235  9.15         1.9 0.44                           297 235 
                                                                                
