 2012  1 5 1135 36.7 L   6.770 -73.109143.7  RSN  5 0.2 1.4LRSN                1
 GAP=143        0.48       4.2     4.7  5.6 -0.2190E+01 -0.1627E+01  0.1763E+01E
 Epicentro: LOS SANTOS - SANTANDER                                             3
 ACTION:UP  12-02-03 08:14 OP:REBC STATUS:               ID:20120105113536 L   I
 2012-01-05-1130-00M.COL___189                                                 6
 STAT SP IPHASW D HRMM SECON CODA AMPLIT PERI AZIMU VELO SNR AR TRES W  DIS CAZ7
 BAR2 SZ EP       1135 56.03                             171     0.010   21 202 
 BAR2 SZ ES   2   1136 10.96                             171    -0.2 5   21 202 
 BAR2 SZ I        1136 12.84         6.9 0.80                            21 202 
 GIR2 SZ EP   2   1135 55.65                             165    -0.6 5   35 345 
 BRR  HZ EP       1135 57.84                             150    -0.110   76 299 
 BRR  HZ I        1135 58.10        13.6 0.34                            76 299 
 BRR  HN ES   1   1136 14.68                             150     0.2 7   76 299 
 PAM  SZ EP       1135 58.90                             150     0.210   78  36 
 PAM  SN ES   1   1136 15.79                             150    -0.1 7   78  36 
 RUS  HZ EP   2   1136  0.15                             144     0.2 5   97 178 
 RUS  HE ES   2   1136 18.24                             144     0.1 5   97 178 
 RUS  HZ I        1136 22.47         1.6 0.38                            97 178 
                                                                                
