 2013  5 5 1709 29.6 L   6.728 -73.119148.1  RSN  5 0.4 1.5LRSN                1
 GAP=143        1.02       5.8     6.2  9.6 -0.3782E+01  0.4944E+01  0.2883E+01E
 Epicentro: JORDAN - SANTANDER                                                 3
 ACTION:UPD 13-06-20 09:48 OP:ep   STATUS:               ID:20130505170929 L   I
 2013-05-05-1707-49M.COL___217                                                 6
 STAT SP IPHASW D HRMM SECON CODA AMPLIT PERI AZIMU VELO AIN AR TRES W  DIS CAZ7
 BAR2 SZ EP   1   17 9 49.49                             173    0.14 7 16.6 205 
 BRR  HZ EP       17 9 51.50                             151    0.1710 77.7 303 
 BRR  HN ES       1710  8.97                             151    0.6510 77.7 303 
 BRR  HN I        1710 12.10         8.4 0.20            152           77.7 303 
 PAM  SZ EP       17 9 52.32                             150    0.0310 82.0  34 
 PAM  SN ES       1710  9.53                             150   -0.5010 82.0  34 
 PAM  SZ I        1710 14.46         2.6 0.42            154           82.0  34 
 RUS  HZ EP   1   17 9 53.36                             147    0.38 7 92.5 178 
 RUS  HN ES       1710 11.26                             147    0.0110 92.5 178 
 RUS  HN I        1710 13.74         5.0 0.42            151           92.5 178 
 PTB  HZ EP   1   17 9 56.48                             132   -0.37 7  149 262 
 PTB  HN ES   1   1710 17.18                             132   -0.97 7  149 262 
 PTB  HN I        1710 23.12         8.7 0.44            135            149 262 
                                                                                
