 2013  1 5 1706 11.6 L   6.573 -73.282163.4  RSN  4 0.4 1.5LRSN                1
 GAP=189        0.76      12.7     7.4 13.4  0.2045E+02 -0.1754E+02  0.6043E+02E
 Epicentro: PALMAR - SANTANDER                                                 3
 ACTION:UPD 13-02-15 09:12 OP:ep   STATUS:               ID:20130105170611 L   I
 2013-01-05-1700-00M.COL___242                                                 6
 STAT SP IPHASW D HRMM SECON CODA AMPLIT PERI AZIMU VELO AIN AR TRES W  DIS CAZ7
 BAR2 SZ EP       17 6 33.37                             176    0.1410 11.2  79 
 BAR2 SZ I        17 6 50.48         4.9 0.30            167           11.2  79 
 BRR  HZ EP   1   17 6 35.33                             154    0.38 7 75.8 321 
 BRR  HE ES   1   17 6 52.75                             154   -0.39 7 75.8 321 
 BRR  HZ I        17 6 55.42         4.8 0.66            156           75.8 321 
 PTB  HZ EP   1   17 6 37.95                             140   -0.68 7  130 268 
 PTB  HN ES   1   17 6 59.98                             140    0.30 7  130 268 
 PTB  HZ I        17 7  4.05         3.4 0.16            138            130 268 
 ZAR  HN ES   1   17 7 11.25                             126    0.14 6  202 300 
 ZAR  HZ I        17 7 18.57         3.3 0.26            124            202 300 
                                                                                
