 2016  8 5 1659 23.2 L   6.830 -73.121154.8  RSN 13 0.4 2.2LRSN                1
 GAP=121        0.94       3.4     3.5  4.7 -0.2940E+01  0.3307E+01 -0.2311E+00E
 Epicentro: LOS SANTOS - SANTANDER                                             3
 ACTION:UPD 16-10-29 15:32 OP:rebc STATUS:               ID:20160805165923 L   I
 OLDACT:UP  16-08-05 23:54 OP:dani STATUS:               ID:20160805165759     3
 OLDACT:UP  16-08-05 23:53 OP:dani STATUS:               ID:20160805165759     3
 OLDACT:UP  16-08-05 23:50 OP:dani STATUS:               ID:20160805165759     3
 OLDACT:REG 16-08-05 20:55 OP:dani STATUS:               ID:20160805165759     3
 2016-08-05-1657-59S.COL___337                                                 6
 STAT SP IPHASW D HRMM SECON CODA AMPLIT PERI AZIMU VELO AIN AR TRES W  DIS CAZ7
 BAR2 EZ IP     D 1659 44.00                             170   -0.0210 27.2 195 
 BAR2 EZ ES       17 0  0.11                             170   -0.1310 27.2 195 
 BAR2 EZ I        17 0  6.26        16.0 0.56                          27.2 195 
 BRR  HZ EP       1659 45.79                             153    0.3810 72.2 295 
 BRR  HE ES       17 0  3.21                             153    0.5010 72.2 295 
 BRR  HZ I        17 0  6.54        38.7 0.12                          72.2 295 
 PAM  EZ EP       1659 46.66                             154    0.4910 73.0  40 
 PAM  EE ES       17 0  3.85                             154   -0.2110 73.0  40 
 PAM  EZ I        17 0  7.22        12.6 0.24                          73.0  40 
 RUS  HZ EP       1659 48.02                             145   -0.0710  104 178 
 RUS  HN ES       17 0  7.03                             145   -0.4710  104 178 
 RUS  HZ I        17 0  7.45         9.3 0.28                           104 178 
 PTB  HZ EP       1659 50.64                             133   -0.60 9  151 258 
 PTB  HE ES       17 0 13.15                             133    0.06 9  151 258 
 PTB  HZ I        17 0 14.15        19.0 0.34                           151 258 
 SPBC HZ EP       1659 52.96                             130    0.13 9  168 219 
 SPBC HN ES       17 0 15.44                             130   -0.49 9  168 219 
 SPBC HZ I        17 0 21.15        15.9 0.30                           168 219 
 ZAR  HZ EP       1659 56.56                             124    0.15 8  205 291 
 ZAR  HN ES       17 0 22.48                             124    0.19 8  205 291 
 ZAR  HZ I        17 0 27.93        44.9 0.30                           205 291 
 NOR  HZ EP       1659 59.87                             120   -0.06 8  239 234 
 NOR  HE ES       17 0 28.71                             120    0.14 8  239 234 
 NOR  HZ I        17 0 35.62        12.8 0.20                           239 234 
 URE  HZ EP       17 0  4.24                             115   -0.65 7  285 291 
 URE  HE ES   4   17 0 35.26                             115   -2.14 0  285 291 
 URE  HZ I        17 0 38.90        21.5 0.14                           285 291 
 SOCV BZ EP       17 0  6.66                             114    0.42 7  297  57 
 SOCV BN ES   4   17 0 38.15                             114   -1.64 0  297  57 
 GUY2CHZ EP   4   17 0  9.82                             114    2.09 0  305 235 
 GUY2CHN ES       17 0 42.92                             114    0.47 7  305 235 
 GUY2CHZ I        17 0 53.16         7.6 0.50                           305 235 
 PRA  HZ EP       17 0 18.24                             108    0.68 6  396 210 
 PRA  HN ES       17 1  0.08                             108    0.13 6  396 210 
 PRA  HZ I        17 1  7.90         3.9 0.48                           396 210 
 SJC  HZ EP       17 0 17.72                             107   -1.22 6  408 326 
 SJC  HE ES   4   17 0 59.04                             107   -3.37 0  408 326 
 SJC  HZ I        17 1  1.56         2.2 0.22                           408 326 
                                                                                
