 2011  1 5 1154 22.6 L   6.775 -73.109141.5  RSN 11 0.3 2.2LRSN                1
 GAP=163        0.53       2.8     4.9  5.7 -0.6252E+01  0.1216E+02 -0.2467E+00E
 Epicentro: LOS SANTOS - SANTANDER                                             3
 ACTION:UP  11-02-08 08:38 OP:pat  STATUS:               ID:20110105115422 L   I
 2011-01-05-1140-00M.COL___136                                                 6
 STAT SP IPHASW D HRMM SECON CODA AMPLIT PERI AZIMU VELO SNR AR TRES W  DIS CAZ7
 BAR2 SZ EP   1   1154 41.58                             171    -0.2 7   22 202 
 BAR2 SZ ES   2   1154 56.89                             171     0.3 5   22 202 
 BAR2 SZ I        1154 57.45        24.7 0.27                            22 202 
 BTL  SZ EP   1   1154 41.64                             170    -0.1 7   24 312 
 RUS  HZ EP   1   1154 45.84                             144     0.1 7   98 178 
 RUS  HE ES   2   1155  4.03                             144     0.2 5   98 178 
 RUS  HZ I        1155  5.44         8.6 0.31                            98 178 
 GRA  SZ EP   1   1154 47.41                             136    -0.2 7  127  15 
 GRA  SZ ES   2   1155  6.73                             136    -0.4 5  127  15 
 GRA  SZ I        1155  7.95        27.3 0.48                           127  15 
 OCA  SZ EP   1   1154 51.50                             128     0.6 7  164 352 
 OCA  SZ ES   2   1155 13.12                             128     0.1 5  164 352 
 OCA  SZ I        1155 16.33        25.4 0.33                           164 352 
 NOR  SZ EP   1   1154 58.02                             117    -0.3 6  237 236 
 NOR  SE ES   2   1155 25.92                             117    -0.3 4  237 236 
 CHI  HZ EP   1   1154 59.89                             116     0.0 6  247 196 
 CHI  HE ES   2   1155 28.82                             116    -0.2 4  247 196 
 CHI  HZ I        1155 36.34         9.1 0.46                           247 196 
 HEL  HZ EP   1   1155  3.38                             114     0.4 6  275 257 
 HEL  HE ES   2   1155 33.93                             114    -0.6 4  275 257 
 HEL  HZ I        1155 40.72         9.9 0.50                           275 257 
 GUY  SZ EP   1   1155  6.14                             111    -0.1 5  303 236 
 GUY  SN ES   2   1155 40.32                             111     0.0 4  303 236 
 GUY  SZ I        1155 52.02         9.2 0.37                           303 236 
 RREF HZ EP   1   1155  9.06                             110     0.3 5  323 230 
 RREF HE ES   2   1155 45.51                             110     0.8 3  323 230 
 RREF HZ I        1155 53.57         7.9 0.31                           323 230 
 PRA  HZ EP   1   1155 15.72                             106    -0.3 4  392 210 
 PRA  HE ES   2   1155 57.67                             106     0.1 3  392 210 
                                                                                
