 2013  1 5 1653 27.7 L   6.711 -73.173151.2  RSN  5 0.3 1.5LRSN                1
 GAP=227        0.66       6.9     6.3  7.0  0.2651E+02  0.6234E+01  0.2410E-01E
 Epicentro: VILLANUEVA - SANTANDER                                             3
 ACTION:UPD 13-02-15 09:12 OP:ep   STATUS:               ID:20130105165327 L   I
 2013-01-05-1650-00M.COL___242                                                 6
 STAT SP IPHASW D HRMM SECON CODA AMPLIT PERI AZIMU VELO AIN AR TRES W  DIS CAZ7
 BAR2 SZ EP   1   1653 47.66                             175   -0.14 7 13.2 185 
 BAR2 SZ ES   1   1654  3.00                             175   -0.50 7 13.2 185 
 BAR2 SZ I        1654  4.37         8.9 0.30            171           13.2 185 
 BRR  HZ EP   1   1653 49.60                             153    0.04 7 73.9 306 
 BRR  HN ES   1   1654  7.26                             153    0.63 7 73.9 306 
 BRR  HZ I        1654  9.23         6.1 0.56            151           73.9 306 
 RUS  HZ EP   1   1653 51.54                             148    0.22 7 91.1 174 
 RUS  HN ES   1   1654  9.81                             148    0.05 7 91.1 174 
 RUS  HZ I        1654 13.52         2.5 0.26            148           91.1 174 
 PTB  HZ EP   1   1653 54.67                             134   -0.02 7  143 262 
 PTB  HE ES   1   1654 15.84                             134    0.08 7  143 262 
 ZAR  HE ES   1   1654 25.79                             123   -0.49 6  205 295 
 ZAR  HZ I        1654 31.89         3.6 0.26            124            205 295 
                                                                                
