 2013  9 5 1412 50.7 L   6.797 -73.160131.8  RSN  4 0.4 1.4LRSN                1
 GAP=135        0.80       5.0     4.7 10.7 -0.3774E+01  0.2026E+02  0.2548E+01E
 Epicentro: LOS SANTOS - SANTANDER                                             3
 ACTION:UPD 13-10-22 09:20 OP:ep   STATUS:               ID:20130905141250 L   I
 OLDACT:REG 13-09-05 14:55 OP:jn   STATUS:               ID:20130905140959     3
 2013-09-05-1409-59M.COL___269                                                 6
 STAT SP IPHASW D HRMM SECON CODA AMPLIT PERI AZIMU VELO AIN AR TRES W  DIS CAZ7
 PAM  SZ EP       1413 11.76                             147    0.2110 78.7  40 
 PAM  SN ES       1413 27.59                             147   -0.2210 78.7  40 
 PAM  SZ I        1413 31.45         4.2 0.24            151           78.7  40 
 RUS  HZ EP   1   1413 13.29                             140    0.19 7  100 175 
 RUS  HN ES   1   1413 30.79                             140    0.22 7  100 175 
 RUS  HZ I        1413 31.99         2.5 0.26            147            100 175 
 PTB  HZ EP   1   1413 15.71                             129   -0.72 7  146 259 
 PTB  HN ES   1   1413 36.19                             129   -0.29 7  146 259 
 PTB  HZ I        1413 38.84         3.6 0.28            132            146 259 
 ZAR  HN ES   1   1413 47.33                             119    0.67 6  203 292 
 ZAR  HZ I        1413 52.85         4.4 0.32            122            203 292 
                                                                                
