 2017  2 5 1259 56.7 L   6.786 -73.164150.9  RSN 14 0.4 2.4LRSN                1
 GAP= 99        0.92       3.5     2.8  4.7  0.1980E+01  0.2680E+01  0.2090E+01E
 Epicentro: LOS SANTOS - SANTANDER                                             3
 ACTION:UPD 17-05-24 15:32 OP:jn   STATUS:               ID:20170205125956 L   I
 OLDACT:UP  17-02-05 23:39 OP:ar   STATUS:               ID:20170205125745     3
 OLDACT:UP  17-02-05 23:36 OP:ar   STATUS:               ID:20170205125745     3
 OLDACT:UP  17-02-05 23:35 OP:ar   STATUS:               ID:20170205125745     3
 OLDACT:UP  17-02-05 23:35 OP:ar   STATUS:               ID:20170205125745     3
 OLDACT:REG 17-02-05 21:24 OP:ar   STATUS:               ID:20170205125745     3
 2017-02-05-1258-00M.COL___331                                                 6
 STAT SP IPHASW D HRMM SECON CODA AMPLIT PERI AZIMU VELO AIN AR TRES W  DIS CAZ7
 BAR2 EZ EP       13 0 16.82                             171   -0.1110 21.5 185 
 BAR2 EZ ES       13 0 32.54                             171   -0.1610 21.5 185 
 BAR2 EZ I        13 0 34.59        69.8 0.32            169           21.5 185 
 BRR  HZ IP     C 13 0 18.60                             154    0.2310 70.2 300 
 BRR  HN ES       13 0 35.79                             154    0.5310 70.2 300 
 BRR  HZ I        13 0 38.94        38.6 0.22            151           70.2 300 
 PAM  EZ EP       13 0 19.83                             151    0.2010 79.9  40 
 PAM  EN ES       13 0 37.08                             151   -0.4210 79.9  40 
 PAM  EZ I        13 0 39.15        52.1 0.64            149           79.9  40 
 RUS  HZ EP       13 0 21.01                             145    0.1410 99.1 175 
 RUS  HE ES       13 0 39.50                             145   -0.2210 99.1 175 
 RUS  HZ I        13 0 40.59        31.7 0.40            141           99.1 175 
 PTB  HZ EP       13 0 23.48                             134   -0.42 9  145 259 
 PTB  HN ES       13 0 44.85                             134   -0.26 9  145 259 
 PTB  HZ I        13 0 49.61        29.1 0.26            130            145 259 
 TAM  HZ IP     C 13 0 25.23                             131    0.29 9  157 104 
 TAM  HZ I        13 0 46.16        17.3 0.30            127            157 104 
 TAM  HN ES       13 0 46.94                             131   -0.03 9  157 104 
 ZAR  HZ EP       13 0 29.78                             124    0.41 9  203 293 
 ZAR  HN ES       13 0 55.24                             124    0.39 9  203 293 
 ZAR  HZ I        13 1  0.47        33.2 0.28            120            203 293 
 CHI  HZ IP     C 13 0 35.11                             118    0.63 8  247 195 
 CHI  HN ES       13 1  4.31                             118    0.37 8  247 195 
 CHI  HZ I        13 1 10.52        14.0 0.34            114            247 195 
 ROSC BZ EP   4   13 0 37.35                             118    2.49 0  250 211 
 ROSC BN ES   4   13 1  8.22                             118    3.61 0  250 211 
 ROSC BZ I        13 1 11.45        43.4 0.40            114            250 211 
 URE  HZ EP       13 0 37.42                             115   -0.48 7  283 292 
 URE  HN ES   4   13 1  7.94                             115   -2.08 0  283 292 
 URE  HZ I        13 1 18.95        22.9 0.20            111            283 292 
 PTGC HZ EP       13 0 40.01                             113   -0.71 7  308 158 
 PTGC HN ES   4   13 1 13.59                             113   -1.45 0  308 158 
 ELA  HN ES   4   13 1 22.70                             111    2.72 0  327 229 
 ELA  HZ I        13 1 28.22        11.0 0.27            108            327 229 
 DBB  EZ EP       13 0 44.12                             110   -0.07 7  338 275 
 DBB  EN ES       13 1 20.36                             110   -0.86 7  338 275 
 DBB  EZ I        13 1 25.14         5.3 0.30            107            338 275 
 ORTC HZ EP   9   13 0 51.89                             107    1.37 0  393 216 
 ORTC HN ES       13 1 34.45                             107    0.59 6  393 216 
 ORTC HZ I        13 1 40.66         8.9 0.36            104            393 216 
                                                                                
