 2017  8 5 1146 25.0 L   5.936 -73.763112.0  RSN 11 0.4 1.5LRSN                1
 GAP= 72        0.72       2.2     1.9  4.5 -0.3723E+00  0.2044E+01 -0.1510E+01E
 Epicentro: SUCRE - SANTANDER                                                  3
 ACTION:UPD 17-09-04 20:16 OP:rebc STATUS:               ID:20170805114625 L   I
 OLDACT:REG 17-08-05 20:34 OP:dhb  STATUS:               ID:20170805113740     3
 2017-08-05-1138-00M.COL___393                                                 6
 STAT SP IPHASW D HRMM SECON CODA AMPLIT PERI AZIMU VELO AIN AR TRES W  DIS CAZ7
 SPBC HZ IP     C 1146 41.33                             156    0.0610 46.5 227 
 SPBC HN ES       1146 53.84                             156   -0.1110 46.5 227 
 SPBC HZ I        1146 55.59        20.2 0.07            155           46.5 227 
 RUS  HZ IP     D 1146 43.85                             144    0.2210 75.4  94 
 RUS  HN ES       1146 58.08                             144   -0.0710 75.4  94 
 RUS  HZ I        1147  0.37         8.9 0.28            144           75.4  94 
 BAR2 EZ EP       1146 45.22                             136    0.2610 96.9  42 
 BAR2 EZ ES       1147  0.67                             136    0.1610 96.9  42 
 PTB  HZ IP     C 1146 44.85                             135   -0.2110  102 311 
 PTB  HN ES       1147  0.64                             135   -0.0610  102 311 
 PTB  HZ I        1147  1.06         6.7 0.16            135            102 311 
 NOR  HZ EP       1146 47.59                             127   -0.0810  129 251 
 NOR  HE ES       1147  5.90                             127    0.5610  129 251 
 NOR  HZ I        1147  8.49        13.9 0.14            127            129 251 
 CHI  HN ES       1147  8.53                             124   -0.36 9  145 179 
 CHI  HZ I        1147 13.32         1.7 0.20            123            145 179 
 YPLC HN ES       1147 11.63                             120   -0.13 9  164 111 
 YPLC HZ I        1147 15.24         7.5 0.34            120            164 111 
 GUY2CHZ EP       1146 55.15                             116    0.14 9  194 246 
 GUY2CHE ES   3   1147 18.52                             116    0.11 2  194 246 
 GUY2CHZ I        1147 23.51         3.0 0.30                           194 246 
 PAM  EZ EP   3   1146 56.85                             115    1.77 2  195  37 
 PAM  EN ES       1147 18.57                             115    0.03 9  195  37 
 PAM  EZ I        1147 22.15         3.1 0.32            116            195  37 
 ZAR  HZ EP       1146 56.19                             113   -0.03 8  210 325 
 ZAR  HE ES       1147 20.03                             113   -0.53 8  210 325 
 ZAR  HZ I        1147 22.61         3.2 0.09            113            210 325 
 CBOC HZ EP       1147  0.40                             109   -0.45 8  249 268 
 CBOC HN ES   2   1147 29.99                             109    1.19 4  249 268 
 CBOC HZ I        1147 32.30         1.4 0.20            109            249 268 
                                                                                
