 2010  4 5 1526 45.0 L   6.792 -73.052137.3  RSN  6 0.3 2.0LRSN                1
 GAP=162        0.57       4.7     6.9  7.2 -0.1371E+02 -0.1165E+02  0.8647E+01E
 Epicentro: LOS SANTOS - SANTANDER                                             3
 ACTION:UPD 10-08-24 09:57 OP:vdl  STATUS:               ID:20100405152645 L   I
 2010-04-05-1524-09S.COL___098                                                 6
 STAT SP IPHASW D HRMM SECON CODA AMPLIT PERI AZIMU VELO AIN AR TRES W  DIS CAZ7
 BAR2 SZ IP       1527  3.90                             168     0.210   26 213 
 BAR2 SZ ES   2   1527 17.91                             168    -0.4 5   26 213 
 BRR  HZ EP       1527  6.14                             147     0.310   81 296 
 BRR  HN ES   2   1527 22.07                             147    -0.1 5   81 296 
 BRR  HZ I        1527 27.53        14.2 0.11                            81 296 
 OCA  SZ EP   3   1527 12.78                             127    -0.2 2  163 350 
 OCA  SZ ES   2   1527 34.05                             127    -0.7 5  163 350 
 OCA  SZ I        1527 40.49        24.1 0.34                           163 350 
 RREF BZ EP   3   1527 31.40                             109    -0.3 2  329 231 
 RREF BN ES   2   1528  8.17                             109     0.1 3  329 231 
 RREF BZ I        1528 12.05         2.9 0.42                           329 231 
 SDV  BZ EP   1   1527 33.71                             107    -0.2 5  353  49 
 PRA  HZ EP   2   1527 38.57                             105    -0.2 3  396 211 
 PRA  HE ES   1   1528 20.10                             105    -0.6 4  396 211 
 PRA  HZ I        1528 25.89         2.5 0.50                           396 211 
                                                                                
