 2013  2 5 1012 16.6 L   6.770 -73.121150.2  RSN  6 0.3 1.4LRSN                1
 GAP=141        0.70       3.8     4.3  5.4 -0.1547E+01  0.1907E+01  0.2847E+01E
 Epicentro: LOS SANTOS - SANTANDER                                             3
 ACTION:UPD 13-03-12 09:30 OP:ep   STATUS:               ID:20130205101216 L   I
 2013-02-05-1010-00M.COL___241                                                 6
 STAT SP IPHASW D HRMM SECON CODA AMPLIT PERI AZIMU VELO AIN AR TRES W  DIS CAZ7
 BAR2 SZ EP       1012 36.65                             172   -0.0710 20.8 199 
 BAR2 SZ ES   1   1012 53.10                             172    0.68 7 20.8 199 
 BAR2 SZ I        1012 54.47         6.0 0.27            166           20.8 199 
 BRR  HZ EP       1012 38.62                             152    0.1610 75.2 300 
 BRR  HZ I        1012 49.93         6.0 0.37            146           75.2 300 
 BRR  HN ES       1012 55.71                             152    0.2010 75.2 300 
 PAM  SZ EP       1012 39.47                             151    0.1210 78.3  36 
 PAM  SZ I        1012 39.81         6.2 0.22            147           78.3  36 
 PAM  SN ES       1012 56.73                             151   -0.3610 78.3  36 
 RUS  HZ EP   1   1012 40.57                             146    0.01 7 97.1 178 
 RUS  HE ES       1012 59.05                             146   -0.1910 97.1 178 
 RUS  HE I        1013  0.49         5.2 0.48            137           97.1 178 
 PTB  HZ EP   1   1012 43.94                             133   -0.19 7  150 260 
 PTB  HE ES   1   1013  5.06                             133   -0.54 7  150 260 
 PTB  HZ I        1013  6.26         2.0 0.22            124            150 260 
 CHI  HZ EP   1   1012 54.61                             118    0.32 6  246 196 
 CHI  HZ I        1013  9.77         1.0 0.59            111            246 196 
                                                                                
