 2012  1 5 1315 42.2 L   6.780 -73.097136.7  RSN  5 0.2 1.8LRSN                1
 GAP=144        0.55       3.4     5.1  5.3 -0.3426E+00 -0.1833E+01  0.6700E-01E
 Epicentro: LOS SANTOS - SANTANDER                                             3
 ACTION:UP  12-02-03 08:14 OP:REBC STATUS:               ID:20120105131542 L   I
 2012-01-05-1310-00M.COL___189                                                 6
 STAT SP IPHASW D HRMM SECON CODA AMPLIT PERI AZIMU VELO SNR AR TRES W  DIS CAZ7
 BAR2 SZ EP       1316  0.70                             170    -0.110   23 204 
 BAR2 SZ ES   1   1316 14.96                             170    -0.3 7   23 204 
 BAR2 SZ I        1316 16.80        18.4 0.30                            23 204 
 GIR2 SZ EP       1316  0.86                             165    -0.110   35 342 
 PAM  SZ EP       1316  3.68                             150     0.310   76  35 
 PAM  SN ES   1   1316 19.80                             150    -0.1 7   76  35 
 BRR  HZ EP       1316  2.62                             149    -0.110   77 298 
 BRR  HN ES   1   1316 19.02                             149     0.2 7   77 298 
 BRR  HZ I        1316 23.84        21.0 0.16                            77 298 
 RUS  HZ EP       1316  4.81                             143    -0.110   98 179 
 RUS  HZ I        1316  5.98         5.8 0.14                            98 179 
 RUS  HE ES   1   1316 22.91                             143     0.3 7   98 179 
                                                                                
