 2017  8 5 1938 22.0 L   6.788 -73.174134.0  RSN  7 0.4 1.5LRSN                1
 GAP=134        0.75       3.5     3.6  6.1 -0.2935E+01  0.1073E+02  0.5867E+00E
 Epicentro: LOS SANTOS - SANTANDER                                             3
 ACTION:UPD 17-09-04 20:16 OP:rebc STATUS:               ID:20170805193822 L   I
 OLDACT:DUP 17-08-06 01:20 OP:dhb  STATUS:               ID:20170805192738d    3
 OLDACT:REG 17-08-05 21:11 OP:dhb  STATUS:               ID:20170805192737     3
 2017-08-05-1928-00M.COL___399                                                 6
 STAT SP IPHASW D HRMM SECON CODA AMPLIT PERI AZIMU VELO AIN AR TRES W  DIS CAZ7
 BAR2 EZ IP     D 1938 40.09                             170   -0.1010 21.7 182 
 BAR2 EZ ES       1938 54.44                             170    0.0610 21.7 182 
 BAR2 EZ I        1938 56.30        14.9 0.18            171           21.7 182 
 PAM  EZ IP     C 1938 42.99                             148   -0.1910 80.4  41 
 PAM  EN ES       1939  0.17                             148    0.4710 80.4  41 
 PAM  EZ I        1939  2.30         5.0 0.66            150           80.4  41 
 RUS  HZ EP       1938 44.10                             142   -0.4510 99.5 174 
 RUS  HN ES       1939  2.14                             142    0.0210 99.5 174 
 RUS  HZ I        1939  3.63         4.1 0.24            144           99.5 174 
 PTB  HZ EP   2   1938 47.69                             130   -0.05 5  144 259 
 PTB  HN ES   2   1939  7.45                             130   -0.35 5  144 259 
 ZAR  HE ES       1939 17.73                             120   -0.27 9  202 293 
 NOR  HZ EP       1938 56.75                             117    0.02 8  231 234 
 NOR  HN ES       1939 23.81                             117    0.01 8  231 234 
 NOR  HZ I        1939 27.83         2.6 0.14            118            231 234 
 GUY2CHZ EP   3   1939  6.59                             111    1.86 2  298 235 
 GUY2CHE ES       1939 38.80                             111    0.76 7  298 235 
 GUY2CHZ I        1939 46.70         1.4 0.30                           298 235 
                                                                                
