 2012 12 5 1659 53.2 L   6.268 -73.843 92.7  RSN 11 0.5 2.5LRSN                1
 GAP= 60        1.17       2.9     2.6  7.3 -0.9959E+00  0.2851E+01 -0.2490E+00E
 Epicentro: LANDAZURI - SANTANDER                                              3
 ACTION:UPD 13-01-04 14:25 OP:ep   STATUS:               ID:20121205165953 L   I
 2012-12-05-1657-47M.COL___208                                                 6
 STAT SP IPHASW D HRMM SECON CODA AMPLIT PERI AZIMU VELO AIN AR TRES W  DIS CAZ7
 PTB  HZ EP       17 0  8.67                             138   -0.5610 74.2 294 
 PTB  HN ES       17 0 21.50                             138   -0.2210 74.2 294 
 BAR2 SZ EP       17 0 10.54                             136    0.4110 81.4  64 
 BAR2 SZ ES       17 0 23.81                             136    0.4810 81.4  64 
 BAR2 SZ I        17 0 25.19       126.0 0.54                          81.4  64 
 RUS  HZ EP       17 0 11.48                             132   -0.1110 93.8 116 
 RUS  HE ES       17 0 25.68                             132   -0.2410 93.8 116 
 NOR  HZ EP       17 0 15.41                             120   -0.04 9  138 236 
 NOR  HN ES       17 0 32.02                             120   -0.77 9  138 236 
 NOR  HN I        17 0 34.21        97.1 0.14                           138 236 
 PAM  SZ EP       17 0 19.92                             114    0.01 9  173  47 
 PAM  SN ES       17 0 40.21                             114   -0.52 9  173  47 
 ZAR  HZ EP       17 0 19.78                             113    0.18 9  176 320 
 ZAR  HN ES       17 0 40.95                             113    0.77 9  176 320 
 ZAR  HN I        17 0 42.68        48.9 0.14                           176 320 
 CHI  HZ EP       17 0 21.03                             113    0.26 9  182 176 
 CHI  HN ES       17 0 42.67                             113    0.41 9  182 176 
 CHI  HN I        17 0 48.09        20.1 0.28                           182 176 
 HEL  HZ EP       17 0 21.05                             112   -0.25 9  187 267 
 HEL  HN ES       17 0 43.54                             112    0.33 9  187 267 
 HEL  HN I        17 0 45.86        19.6 0.38                           187 267 
 RREF HZ EP       17 0 26.57                             108    0.49 8  225 228 
 RREF HN ES       17 0 51.92                             108    0.21 8  225 228 
 TAM  HZ EP       17 0 25.66                             107    0.01 8  228  85 
 TAM  HN I        17 0 52.89        35.0 0.28                           228  85 
 SML  HZ EP       17 0 30.58                             104   -1.38 7  281 355 
 SML  HN ES       17 1  2.75                             104    0.57 7  281 355 
 SML  HN I        17 1  8.26        40.2 0.10                           281 355 
                                                                                
