 2012  7 5 1635 39.6 L   6.655 -73.211152.3  RSN  4 0.2 1.6LRSN                1
 GAP=204        0.70       6.5     6.6  7.6  0.2175E+02 -0.3248E+01  0.4279E+01E
 Epicentro: BARICHARA - SANTANDER                                              3
 ACTION:UPD 12-08-14 11:42 OP:ep   STATUS:               ID:20120705163539 L   I
 2012-07-05-1630-00M.COL___200                                                 6
 STAT SP IPHASW D HRMM SECON CODA AMPLIT PERI AZIMU VELO AIN AR TRES W  DIS CAZ7
 BAR2 SZ EP       1635 59.46                             177    -0.310    8 156 
 BAR2 SZ I        1636 16.09         7.4 0.25            173              8 156 
 BRR  HZ EP       1636  1.64                             153     0.010   75 312 
 BRR  HZ I        1636  1.96        16.4 0.24            154             75 312 
 BRR  HE ES       1636 18.98                             153     0.110   75 312 
 RUS  HZ EP       1636  3.36                             149     0.410   86 170 
 RUS  HE ES   1   1636 21.13                             149    -0.1 7   86 170 
 RUS  HZ I        1636 23.49         4.8 0.57            149             86 170 
 PTB  HZ EP       1636  6.19                             135    -0.1 9  138 265 
 PTB  HN ES   1   1636 27.06                             135     0.0 7  138 265 
 PTB  HZ I        1636 30.97         4.4 0.20            138            138 265 
