 2015  8 5 1642 59.3 L   6.780 -73.121138.0  RSN 10 0.4 2.1LRSN                1
 GAP=141        0.85       3.4     3.9  5.1 -0.1891E+01  0.8391E+01  0.3590E+01E
 Epicentro: LOS SANTOS - SANTANDER                                             3
 ACTION:UPD 15-09-15 23:00 OP:cam  STATUS:               ID:20150805164259 L   I
 OLDACT:REG 15-08-05 21:14 OP:drio STATUS:               ID:20150805163749     3
 2015-08-05-1637-49M.COL___358                                                 6
 STAT SP IPHASW D HRMM SECON CODA AMPLIT PERI AZIMU VELO AIN AR TRES W  DIS CAZ7
 BAR2 EZ EP       1643 17.98                             171    0.0210 21.8 198 
 BAR2 EZ ES       1643 32.13                             171   -0.3910 21.8 198 
 BAR2 EZ I        1643 34.08        26.8 0.24            166           21.8 198 
 BRR  HZ EP       1643 20.02                             150    0.2010 74.7 299 
 BRR  HN ES       1643 36.50                             150    0.6710 74.7 299 
 BRR  HZ I        1643 41.47        22.5 0.16            150           74.7 299 
 PAM  EZ EP       1643 20.56                             149   -0.1310 77.4  37 
 PAM  EN ES       1643 37.25                             149   -0.1310 77.4  37 
 PAM  EZ I        1643 39.56        45.4 0.46            142           77.4  37 
 RUS  HE ES       1643 40.14                             143    0.2310 98.2 178 
 ZAR  HZ EP       1643 31.13                             120   -0.47 8  207 292 
 ZAR  HN ES       1643 56.62                             120   -0.19 8  207 292 
 ZAR  HZ I        1643 58.51        14.8 0.26            116            207 292 
 NOR  HZ EP       1643 34.43                             117   -0.26 8  236 235 
 NOR  HN ES       1644  2.12                             117   -0.18 8  236 235 
 NOR  HZ I        1644  3.72         9.6 0.14            111            236 235 
 SML  HZ EP   4   1643 34.25                             115   -1.60 0  247 335 
 SML  HN ES   4   1644  1.12                             115   -3.24 0  247 335 
 SML  HZ I        1644  8.68        17.4 0.28            111            247 335 
 CHI  HZ EP       1643 36.34                             116   -0.08 8  247 196 
 CHI  HN ES   4   1644  4.71                             116   -0.66 0  247 196 
 CHI  HZ I        1644  8.93         4.6 0.70            110            247 196 
 GUY2CHZ EP       1643 43.32                             111    0.65 7  302 235 
 GUY2CHN ES       1644 16.04                             111   -0.46 7  302 235 
 GUY2CHZ I        1644 27.53         4.2 0.54                           302 235 
 TOL  SZ EP       1643 47.99                             108    0.70 7  344 225 
 TOL  SN ES       1644 24.59                             108   -0.14 7  344 225 
 TOL  SZ I        1644 32.43         4.7 0.62            103            344 225 
                                                                                
