 2012  7 5 1710  2.2 L   6.731 -73.165151.5  RSN  7 0.3 2.1LRSN                1
 GAP=137        0.64       4.0     3.8  5.1  0.3288E+01  0.1721E+01  0.8905E+00E
 Epicentro: VILLANUEVA - SANTANDER                                             3
 ACTION:UPD 12-08-14 11:42 OP:ep   STATUS:               ID:20120705171002 L   I
 2012-07-05-1710-00M.COL___200                                                 6
 STAT SP IPHASW D HRMM SECON CODA AMPLIT PERI AZIMU VELO AIN AR TRES W  DIS CAZ7
 BAR2 SZ EP       1710 22.30                             174    -0.110   15 187 
 BAR2 SZ I        1710 22.58        27.7 0.24            172             15 187 
 BAR2 SZ ES   1   1710 38.26                             174     0.1 7   15 187 
 BRR  HZ EP       1710 24.26                             153     0.210   73 305 
 BRR  HZ I        1710 25.81        40.8 0.14            149             73 305 
 BRR  HE ES       1710 41.28                             153     0.110   73 305 
 PAM  SZ EP   1   1710 25.16                             149    -0.3 7   85  37 
 RUS  HZ EP       1710 26.11                             147     0.110   93 174 
 RUS  HZ I        1710 26.98         8.1 0.23            148             93 174 
 RUS  HN ES   1   1710 44.31                             147    -0.2 7   93 174 
 PTB  HZ EP   1   1710 29.19                             134    -0.1 7  144 262 
 PTB  HN ES   1   1710 49.99                             134    -0.5 7  144 262 
 PTB  HZ I        1710 56.20        14.1 0.30            131            144 262 
 ZAR  HZ EP   1   1710 34.64                             123    -0.5 6  205 294 
 ZAR  HE ES   1   1711  0.89                             123     0.1 6  205 294 
 ZAR  HZ I        1711  7.16        19.1 0.45            122            205 294 
 NOR  SZ EP   1   1710 38.11                             120     0.5 6  229 236 
 NOR  SN ES   1   1711  5.26                             120     0.0 6  229 236 
