 2016  2 5 1226 11.3 L   6.837 -73.223139.0  RSN 13 0.4 2.3LRSN                1
 GAP=124        0.89       2.5     4.0  5.4 -0.1771E+01  0.8033E+01 -0.8254E+00E
 Epicentro: ZAPATOCA - SANTANDER                                               3
 ACTION:UPD 16-03-04 21:23 OP:rebc STATUS:               ID:20160205122611 L   I
 OLDACT:REG 16-02-05 20:40 OP:dnl  STATUS:               ID:20160205121747     3
 2016-02-05-1217-47M.COL___331                                                 6
 STAT SP IPHASW D HRMM SECON CODA AMPLIT PERI AZIMU VELO AIN AR TRES W  DIS CAZ7
 BAR2 EZ IP     C 1226 30.63                             168    0.4210 27.4 171 
 BAR2 EZ ES       1226 45.20                             168    0.2510 27.4 171 
 BAR2 EZ I        1226 46.67        50.0 0.14            169           27.4 171 
 PAM  EZ IP     C 1226 33.37                             149    0.4010 80.2  46 
 PAM  EN ES       1226 50.21                             149    0.3410 80.2  46 
 PAM  EZ I        1226 52.79        60.6 0.47            154           80.2  46 
 RUS  HZ EP       1226 34.67                             141   -0.1010  106 172 
 RUS  HN ES       1226 52.46                             141   -0.6110  106 172 
 RUS  HZ I        1226 54.45        32.7 0.25            145            106 172 
 PTB  HZ EP       1226 36.94                             132   -0.10 9  140 257 
 PTB  HE ES       1226 57.18                             132    0.07 9  140 257 
 PTB  HZ I        1227  1.58        21.6 0.17            131            140 257 
 OCA  HZ EP       1226 37.95                             129   -0.67 9  155 356 
 OCA  HE ES       1226 59.41                             129   -0.53 9  155 356 
 OCA  HZ I        1227  4.16        45.2 0.23            131            155 356 
 SPBC HZ EP       1226 39.43                             128    0.33 9  161 216 
 SPBC HE ES   2   1227  0.13                             128   -0.65 5  161 216 
 SPBC HZ I        1227  7.23        31.6 0.21            129            161 216 
 ZAR  HZ EP   4   1226 44.28                             122    1.95 0  195 292 
 ZAR  HE ES   2   1227  7.35                             122    0.82 4  195 292 
 ZAR  HZ I        1227 15.89        18.6 0.20            123            195 292 
 SML  HZ EP       1226 46.95                             117    0.19 8  236 337 
 SML  HE ES       1227 14.14                             117   -0.29 8  236 337 
 SML  HZ I        1227 19.58        24.8 0.08            119            236 337 
 CHI  HZ EP       1226 48.89                             115    0.05 8  251 193 
 CHI  HE ES   2   1227 17.31                             115   -0.81 4  251 193 
 CHI  HZ I        1227 21.39         5.4 0.29            118            251 193 
 GUY2CHZ EP   4   1226 55.55                             111    1.46 0  297 233 
 GUY2CHE ES       1227 27.57                             111    0.10 7  297 233 
 GUY2CHZ I        1227 35.64         6.8 0.31                           297 233 
 SOCV BZ EP   4   1226 52.88                             110   -1.74 0  306  58 
 SOCV BE ES   4   1227 23.23                             110   -5.17 0  306  58 
 MON  HZ EP   2   1226 58.74                             108   -0.23 3  344 309 
 MON  HN ES   4   1227 35.30                             108   -0.86 0  344 309 
 MON  HZ I        1227 38.00         4.5 0.20            109            344 309 
 PRA  HZ EP       1227  5.03                             105    0.50 6  391 208 
 PRA  HN ES   4   1227 44.40                             105   -1.65 0  391 208 
 PRA  HZ I        1227 52.50         6.4 0.32            107            391 208 
 SJC  HZ EP   4   1227  5.24                             105   -0.45 0  401 328 
 SJC  HE ES   4   1227 39.50                             105   -8.62 0  401 328 
 SJC  HZ I        1227 50.44         3.4 0.27            107            401 328 
                                                                                
