 2015  1 5 1335  3.3 L   6.775 -73.114152.4  RSN 12 0.4 2.5LRSN                1
 GAP=142        1.01       3.1     4.0  6.1 -0.2498E+01  0.4991E+01 -0.1738E+01E
 Epicentro: LOS SANTOS - SANTANDER                                             3
 ACTION:UPD 15-03-02 15:37 OP:nd   STATUS:               ID:20150105133503 L   I
 OLDACT:REG 15-01-05 20:46 OP:mh   STATUS:               ID:20150105132745     3
 2015-01-05-1327-45M.COL___277                                                 6
 STAT SP IPHASW D HRMM SECON CODA AMPLIT PERI AZIMU VELO AIN AR TRES W  DIS CAZ7
 BAR2 EZ EP       1335 23.84                             172    0.0910 21.6 201 
 BAR2 EZ I        1335 40.79        44.8 0.11            171           21.6 201 
 BRR  HZ EP       1335 25.21                             152   -0.2610 75.6 299 
 BRR  HN ES       1335 43.05                             152    0.3310 75.6 299 
 BRR  HZ I        1335 46.02        46.6 0.14            154           75.6 299 
 PAM  SZ EP       1335 26.72                             152    0.4410 77.4  36 
 PAM  SN ES   1   1335 43.64                             152   -0.52 7 77.4  36 
 PAM  SZ I        1335 48.11        21.2 0.30            155           77.4  36 
 RUS  HZ EP       1335 27.60                             146    0.0410 97.6 178 
 RUS  HN ES       1335 46.35                             146   -0.0910 97.6 178 
 PTB  HZ EP       1335 30.54                             133   -0.59 9  151 260 
 PTB  HN ES       1335 53.20                             133    0.40 9  151 260 
 OCA  HZ EP       1335 33.36                             130    0.88 9  163 352 
 OCA  HN ES       1335 54.95                             130   -0.25 9  163 352 
 SPBC HZ EP       1335 32.69                             130    0.31 9  163 221 
 SPBC HN ES       1335 54.52                             130   -0.50 9  163 221 
 SPBC HZ I        1336  1.29        72.0 0.34            132            163 221 
 ZAR  HZ EP       1335 36.78                             123    0.10 8  208 292 
 ZAR  HN ES       1336  2.97                             123    0.30 8  208 292 
 ZAR  HZ I        1336  7.67        45.4 0.34            125            208 292 
 NOR  HZ EP       1335 39.60                             120   -0.01 8  236 236 
 NOR  HN ES       1336  7.77                             120   -0.13 8  236 236 
 NOR  HZ I        1336 14.20        33.1 0.18            121            236 236 
 SML  HZ EP       1335 40.17                             118   -0.62 8  248 335 
 SML  HN ES   1   1336  9.40                             118   -0.59 6  248 335 
 SML  HZ I        1336 12.74        38.7 0.26            121            248 335 
 HEL  HZ EP       1335 44.87                             116    0.66 8  275 257 
 HEL  HN ES       1336 16.03                             116   -0.06 8  275 257 
 HEL  HZ I        1336 22.61        14.6 0.34            118            275 257 
 URE  HZ EP       1335 44.45                             114   -0.78 7  288 292 
 URE  HN ES   4   1336 14.77                             114   -3.13 0  288 292 
 URE  HZ I        1336 21.74        17.8 0.28            116            288 292 
                                                                                
