 2014 11 5 1923 44.2 L   6.848 -73.403117.0  RSN  9 0.5 2.1LRSN                1
 GAP= 84        1.15       3.6     4.9  7.2 -0.3765E+01  0.1324E+02  0.6449E+01E
 Epicentro: SAN VICENTE DE CHUCURI - SANTANDER                                 3
 ACTION:UPD 14-12-19 15:39 OP:nd   STATUS:               ID:20141105192344 L   I
 OLDACT:REG 14-11-05 23:59 OP:carl STATUS:               ID:20141105191748     3
 2014-11-05-1917-48M.COL___275                                                 6
 STAT SP IPHASW D HRMM SECON CODA AMPLIT PERI AZIMU VELO AIN AR TRES W  DIS CAZ7
 BAR2 SZ EP       1924  0.89                             161    0.0510 37.4 139 
 BAR2 SZ ES       1924 13.79                             161   -0.0310 37.4 139 
 BAR2 SZ I        1924 15.08        93.6 0.34            162           37.4 139 
 BRR  HZ EP       1924  1.01                             158    0.2210 44.6 310 
 BRR  HN ES       1924 14.22                             158    0.4810 44.6 310 
 BRR  HZ I        1924 16.34        26.5 0.16            159           44.6 310 
 PAM  SZ EP       1924  4.90                             139    0.1310 94.8  55 
 PAM  SN ES       1924 20.85                             139    0.0410 94.8  55 
 PAM  SZ I        1924 24.57        16.7 0.30            142           94.8  55 
 RUS  HZ EP       1924  5.96                             134   -0.2210  111 161 
 RUS  HN ES       1924 22.76                             134   -0.5710  111 161 
 RUS  HZ I        1924 24.71        15.8 0.36            135            111 161 
 PTB  HZ IP     C 1924  5.39                             130   -1.0410  121 254 
 PTB  HN ES   4   1924 21.43                             130   -2.35 0  121 254 
 PTB  HZ I        1924 26.39        31.2 0.12            132            121 254 
 OCA  HN ES       1924 29.58                             123   -0.21 9  154   3 
 OCA  HZ I        1924 31.09        33.3 0.18            126            154   3 
 NOR  HZ EP       1924 16.28                             114   -0.02 8  216 229 
 NOR  HN ES       1924 41.80                             114    0.46 8  216 229 
 NOR  HZ I        1924 44.82        13.9 0.16            115            216 229 
 CHI  HZ EP       1924 21.08                             111    0.67 8  248 188 
 CHI  HN ES       1924 49.23                             111    0.57 8  248 188 
 CHI  HZ I        1924 56.27         4.8 0.46            112            248 188 
 GUY2CHZ EP       1924 25.02                             108    0.64 7  282 231 
 GUY2CHN ES       1924 54.99                             108   -0.74 7  282 231 
 GUY2CHZ I        1925  3.61         7.3 0.30                           282 231 
                                                                                
