 2012  4 5 1613 12.6 L   6.491 -73.593108.8  RSN  5 0.4 1.2LRSN                1
 GAP=134        0.59       6.3     5.2  9.5  0.1068E+02  0.5917E+01 -0.5187E+01E
 Epicentro: SANTA HELENA DEL OPON - SANTANDER                                  3
 ACTION:UPD 12-07-05 11:50 OP:tino STATUS:               ID:20120405161312 L   I
 2012-04-05-1610-00M.COL___196                                                 6
 STAT SP IPHASW D HRMM SECON CODA AMPLIT PERI AZIMU VELO AIN AR TRES W  DIS CAZ7
 BAR2 SZ EP       1613 28.93                             155     0.210   47  76 
 BAR2 SZ ES   2   1613 40.65                             155    -0.7 5   47  76 
 BAR2 SZ I        1613 42.72         9.0 0.50                            47  76 
 BRR  HZ EP       1613 29.65                             145    -0.110   69 349 
 BRR  HN ES   2   1613 43.70                             145     0.5 5   69 349 
 RUS  HZ EP   3   1613 31.82                             138     0.0 2   87 140 
 RUS  HN ES   2   1613 46.83                             138     0.1 5   87 140 
 PTB  HZ EP   2   1613 31.97                             135     0.1 5   96 273 
 PTB  HN ES   2   1613 46.56                             135    -0.3 5   96 273 
 PTB  HZ I        1613 47.66         2.4 0.28                            96 273 
 PAM  SZ EP   3   1613 35.38                             124    -0.9 2  136  46 
                                                                                
