 2012  3 5 1550 39.5 L   6.716 -73.198145.3  RSN  5 0.2 1.6LRSN                1
 GAP=225        0.54       5.4     4.9  6.7  0.1591E+02 -0.7860E-01 -0.2170E+01E
 ACTION:UP  12-03-31 23:17 OP:EP   STATUS:               ID:20120305155039 L   I
 2012-03-05-1550-00M.COL___191                                                 6
 STAT SP IPHASW D HRMM SECON CODA AMPLIT PERI AZIMU VELO SNR AR TRES W  DIS CAZ7
 BAR2 SZ EP       1550 58.75                             174    -0.110   14 173 
 BAR2 SZ I        1550 59.29         5.3 0.17                            14 173 
 BRR  HZ EP   1   1551  0.49                             152    -0.1 7   71 307 
 BRR  HN ES   1   1551 17.19                             152     0.1 7   71 307 
 BRR  HZ I        1551 25.00        11.7 0.39                            71 307 
 RUS  HZ EP   1   1551  3.06                             146     0.5 7   92 172 
 RUS  HE ES   1   1551 20.47                             146    -0.1 7   92 172 
 PTB  HZ EP       1551  5.61                             133    -0.1 9  141 262 
 PTB  HN ES   1   1551 26.28                             133     0.0 7  141 262 
 ZAR  HN ES   1   1551 36.99                             123     0.1 6  202 295 
 ZAR  HZ I        1551 41.00         3.3 0.11                           202 295 
                                                                                
