 2016 10 5 1905 55.6 L   6.838 -73.101145.1  RSN 12 0.4 2.1LRSN                1
 GAP=140        0.96       3.4     3.9  5.0 -0.1440E+01  0.4965E+01  0.3229E+01E
 Epicentro: LOS SANTOS - SANTANDER                                             3
 ACTION:UPD 16-11-09 19:16 OP:rebc STATUS:               ID:20161005190555 L   I
 OLDACT:REG 16-10-05 20:18 OP:lv   STATUS:               ID:20161005185749     3
 2016-10-05-1858-00M.COL___342                                                 6
 STAT SP IPHASW D HRMM SECON CODA AMPLIT PERI AZIMU VELO AIN AR TRES W  DIS CAZ7
 BAR2 EZ IP     D 19 6 14.98                             168   -0.2910 28.6 198 
 BAR2 EZ ES       19 6 30.75                             168    0.1410 28.6 198 
 BAR2 EZ I        19 6 35.22        15.9 0.21            167           28.6 198 
 PAM  EZ EP       19 6 17.63                             153    0.2510 71.0  39 
 PAM  EE ES       19 6 34.47                             153    0.1110 71.0  39 
 PAM  EZ I        19 6 35.17        22.7 0.21            158           71.0  39 
 BRR  HZ IP     D 19 6 16.60                             152   -0.2210 73.8 294 
 BRR  HN ES       19 6 33.77                             152    0.4010 73.8 294 
 BRR  HZ I        19 6 37.47        26.4 0.12            151           73.8 294 
 RUS  HZ EP       19 6 19.57                             143   -0.0110  105 179 
 RUS  HN ES       19 6 38.15                             143   -0.1310  105 179 
 RUS  HZ I        19 6 39.28         6.8 0.17            144            105 179 
 PTB  HZ EP   9   19 6 21.72                             131   -1.31 0  153 258 
 PTB  HN ES       19 6 42.98                                   -0.14 9  153 258 
 PTB  HZ I        19 6 45.43        18.1 0.15            131            153 258 
 SPBC HZ EP       19 6 24.55                             128   -0.11 9  170 219 
 SPBC HN ES       19 6 46.80                             128   -0.52 9  170 219 
 SPBC HZ I        19 6 53.22        18.1 0.08            129            170 219 
 ZAR  HZ EP       19 6 28.94                             122    0.62 8  207 291 
 ZAR  HN ES       19 6 52.87                             122   -0.96 8  207 291 
 ZAR  HZ I        19 6 58.59        25.9 0.41            123            207 291 
 NOR  HZ EP       19 6 31.36                             118   -0.62 8  241 234 
 NOR  HE ES       19 7  0.93                             118    0.57 8  241 234 
 NOR  HZ I        19 7  2.32        12.8 0.16            119            241 234 
 CHI  HZ EP       19 6 33.92                             116    0.07 8  254 196 
 CHI  HN ES       19 7  3.52                             116   -0.16 8  254 196 
 CHI  HZ I        19 7  6.54         5.3 0.24            118            254 196 
 HEL  HZ EP       19 6 36.73                             114    0.31 7  278 255 
 HEL  HE ES   4   19 7 11.01                             114    2.74 0  278 255 
 HEL  HZ I        19 7 14.60        12.4 0.43            116            278 255 
 GUY2CHZ EP       19 6 39.88                             112   -0.03 7  308 235 
 GUY2CHN ES       19 7 15.32                             112    0.86 7  308 235 
 GUY2CHZ I        19 7 23.31         9.2 0.54                           308 235 
 SJC  HZ EP   9   19 6 49.32                             106   -1.73 0  408 326 
 SJC  HN ES       19 7 32.01                                   -0.56 6  408 326 
 SJC  HZ I        19 7 33.80         1.4 0.24            107            408 326 
                                                                                
