 2016  6 5 1859 36.6 L   6.022 -73.772106.0  RSN  7 0.5 1.6LRSN                1
 GAP= 78        1.25       3.8     4.3 10.2 -0.1360E+01  0.1066E+02  0.1461E+02E
 Epicentro: BOLIVAR - SANTANDER                                                3
 ACTION:UPD 16-07-21 22:15 OP:rebc STATUS:               ID:20160605185936 L   I
 OLDACT:REG 16-06-05 21:13 OP:ar   STATUS:               ID:20160605185742     3
 2016-06-05-1857-42M.COL___316                                                 6
 STAT SP IPHASW D HRMM SECON CODA AMPLIT PERI AZIMU VELO AIN AR TRES W  DIS CAZ7
 RUS  HZ EP       1859 54.57                             142   -0.2510 77.6 101 
 RUS  HN ES       19 0  9.23                             142    0.2210 77.6 101 
 BAR2 EZ EP       1859 55.70                             136    0.1710 90.7  46 
 BAR2 EZ ES       19 0 10.39                             136    0.1210 90.7  46 
 BAR2 EZ I        19 0 12.07        21.0 0.30                          90.7  46 
 PTB  HZ EP       1859 54.73                             135   -0.8610 94.9 307 
 PTB  HN ES       19 0  9.87                             135   -0.5010 94.9 307 
 PTB  HZ I        19 0 11.64         5.0 0.42                          94.9 307 
 BRR  HZ EP       1859 58.01                             127    0.1210  120   3 
 BRR  HN ES       19 0 14.67                             127    0.2010  120   3 
 BRR  HZ I        19 0 22.16        14.4 0.30                           120   3 
 NOR  HZ EP       1859 59.53                             125    0.4310  132 247 
 NOR  HN ES       19 0 17.49                             125    0.8710  132 247 
 NOR  HZ I        19 0 20.38        18.7 0.20                           132 247 
 CHI  HZ EP       19 0  1.64                             120   -0.23 9  154 178 
 CHI  HN ES       19 0 21.26                             120   -0.30 9  154 178 
 CHI  HZ I        19 0 23.24         2.2 0.36                           154 178 
 PRA  HZ EP       19 0 17.04                             105    0.93 7  284 206 
 PRA  HN ES       19 0 46.09                             105   -0.81 7  284 206 
 PRA  HZ I        19 1 32.33         1.7 0.68                           284 206 
                                                                                
