 2017  6 5 1301  6.3 L   6.683 -73.106162.9  RSN  5 0.3 1.7LRSN                1
 GAP=233        0.86       5.7     8.7  7.8  0.1748E+02  0.4292E+01 -0.1029E+02E
 Epicentro: JORDAN - SANTANDER                                                 3
 ACTION:UPD 17-09-14 16:49 OP:jn   STATUS:               ID:20170605130106 L   I
 OLDACT:REG 17-06-05 20:51 OP:osc  STATUS:               ID:20170605125739     3
 2017-06-05-1258-00M.COL___350                                                 6
 STAT SP IPHASW D HRMM SECON CODA AMPLIT PERI AZIMU VELO AIN AR TRES W  DIS CAZ7
 BRR  HZ EP     C 13 1 29.31                             152   -0.5410 81.8 305 
 BRR  HE ES       13 1 48.55                             152    0.2910 81.8 305 
 BRR  HZ I        13 1 50.68        10.6 0.12            150           81.8 305 
 RUS  HZ EP       13 1 31.40                             151    0.5010 87.4 178 
 RUS  HN ES       13 1 49.84                             151   -0.2710 87.4 178 
 RUS  HZ I        13 1 50.67         5.6 0.24            153           87.4 178 
 PTB  HZ EP       13 1 34.96                             135    0.08 9  150 264 
 PTB  HN ES   4   13 1 55.87                             135   -1.33 0  150 264 
 PTB  HZ I        13 1 58.57         5.5 0.32            135            150 264 
 SPBC HE ES       13 1 58.30                             134   -0.03 9  156 223 
 ZAR  HZ EP       13 1 40.76                             125   -0.03 8  213 295 
 ZAR  HE ES   4   13 2  6.15                             125   -1.58 0  213 295 
 ZAR  HZ I        13 2 11.91         6.2 0.23            125            213 295 
                                                                                
