 2015  2 5 1157  9.9 L   6.802 -73.140144.6  RSN 15 0.6 2.3LRSN                1
 GAP=137        1.35       3.6     5.1  6.8 -0.4466E+01  0.1088E+02  0.3219E+01E
 Epicentro: LOS SANTOS - SANTANDER                                             3
 ACTION:UPD 15-04-30 21:22 OP:nd   STATUS:               ID:20150205115709 L   I
 OLDACT:DUP 15-02-06 00:27 OP:stll STATUS:               ID:20150205114748d    3
 2015-02-05-1147-45M.COL___281                                                 6
 STAT SP IPHASW D HRMM SECON CODA AMPLIT PERI AZIMU VELO AIN AR TRES W  DIS CAZ7
 BAR2 EZ EP       1157 29.57                             170    0.1710 23.7 191 
 BAR2 EZ ES       1157 44.81                             170    0.2010 23.7 191 
 BAR2 EZ I        1157 46.37        39.4 0.46            169           23.7 191 
 BRR  HZ EP       1157 31.50                             152    0.5510 71.7 298 
 BRR  HZ I        1157 31.71        45.4 0.20            150           71.7 298 
 BRR  HE ES       1157 48.82                             152    1.4510 71.7 298 
 PAM  SZ EP       1157 31.68                             151   -0.2810 76.8  39 
 PAM  SN ES       1157 48.92                             151   -0.2410 76.8  39 
 PAM  SZ I        1157 51.65        23.4 0.54            155           76.8  39 
 RUS  HZ EP       1157 33.86                             144    0.3110  101 176 
 RUS  HN ES       1157 51.47                             144   -0.5310  101 176 
 RUS  HZ I        1157 53.09        16.4 0.24            145            101 176 
 PTB  HZ EP       1157 36.28                             132   -0.56 9  148 259 
 PTB  HN ES       1157 57.40                             132   -0.45 9  148 259 
 PTB  HZ I        1158  0.96        30.0 0.12            131            148 259 
 OCA  HN ES       1158  0.03                             129   -0.08 9  160 353 
 OCA  HZ I        1158  5.40        36.1 0.28            131            160 353 
 SPBC HZ EP       1157 38.54                             129    0.17 9  164 219 
 SPBC HN ES       1157 59.49                             129   -1.08 9  164 219 
 SPBC HZ I        1158  7.64        46.2 0.24            129            164 219 
 NOR  HZ EP       1157 45.78                             118    0.15 8  235 235 
 NOR  HE ES       1158 12.73                             118   -0.78 8  235 235 
 NOR  HZ I        1158 20.87        19.5 0.18            119            235 235 
 SML  HZ EP       1157 46.12                             117   -0.35 8  244 335 
 SML  HN ES       1158 14.09                             117   -0.90 8  244 335 
 SML  HZ I        1158 19.28        46.3 0.10            118            244 335 
 CHI  HZ EP       1157 47.68                             117    0.10 8  249 195 
 CHI  HN ES       1158 17.24                             117    0.28 8  249 195 
 CHI  HZ I        1158 20.89         8.4 0.34            118            249 195 
 HEL  HZ EP       1157 50.76                             114    0.63 8  273 256 
 HEL  HN ES       1158 21.42                             114   -0.09 8  273 256 
 HEL  HZ I        1158 30.21         9.3 0.42            115            273 256 
 GUY2CHZ EP       1157 53.63                             112    0.10 7  302 235 
 GUY2CHE ES       1158 28.65                             112    1.09 7  302 235 
 GUY2CHZ I        1158 36.53        10.3 0.38                           302 235 
 TOL  SZ EP       1157 58.65                             109    0.47 7  344 225 
 TOL  SN ES       1158 35.57                             109   -0.27 7  344 225 
 MON  HZ EP   9   1157 56.37                             108   -2.53 0  354 308 
 MON  HN ES       1158 34.16                                   -0.43 6  354 308 
 MON  HZ I        1158 37.96         6.6 0.30            109            354 308 
 ANIL HN ES       1158 38.68                             108    0.08 6  358 225 
 ANIL HZ I        1158 46.02         3.4 0.50            109            358 225 
                                                                                
