 2011  1 5 1010 40.3 L   6.802 -73.072144.1  RSN  7 0.4 1.7LRSN                1
 GAP=167        0.73       4.0     7.5  8.6 -0.1150E+02  0.2571E+02 -0.2678E+01E
 Epicentro: LOS SANTOS - SANTANDER                                             3
 ACTION:UP  11-02-08 08:38 OP:pat  STATUS:               ID:20110105101040 L   I
 2011-01-05-1000-00M.COL___136                                                 6
 STAT SP IPHASW D HRMM SECON CODA AMPLIT PERI AZIMU VELO SNR AR TRES W  DIS CAZ7
 BAR2 SZ IP       1010 59.93                             169     0.110   26 208 
 BAR2 SZ I        1011  0.47        18.1 0.36                            26 208 
 BAR2 SZ ES   2   1011 14.77                             169    -0.3 5   26 208 
 RUS  HZ EP   1   1011  3.99                             143     0.1 7  101 181 
 RUS  HZ I        1011  4.68         4.6 0.49                           101 181 
 RUS  HE ES   2   1011 22.29                             143     0.0 5  101 181 
 GRA  SZ EP   1   1011  5.46                             137     0.2 7  123  14 
 GRA  SZ ES   2   1011 25.06                             137     0.4 5  123  14 
 GRA  SZ I        1011 26.11         7.4 0.30                           123  14 
 OCA  SZ EP   1   1011  8.02                             129    -0.6 7  161 350 
 OCA  SZ ES   2   1011 30.45                             129    -0.2 5  161 350 
 OCA  SZ I        1011 33.62         7.5 0.30                           161 350 
 NOR  SZ EP   1   1011 16.05                             117    -0.7 6  242 236 
 NOR  SN ES   2   1011 44.72                             117    -0.4 4  242 236 
 CHI  HZ EP   1   1011 18.58                             116     0.4 6  251 197 
 CHI  HZ I        1011 20.25         2.2 0.60                           251 197 
 CHI  HE ES   2   1011 47.46                             116    -0.3 4  251 197 
 HEL  HZ EP   1   1011 21.89                             114     0.5 6  280 256 
 HEL  HN ES   2   1011 54.06                             114     0.7 4  280 256 
 HEL  HZ I        1011 59.54         3.4 0.36                           280 256 
                                                                                
