 2010  8 5 1342 59.3 L   6.804 -73.057150.0  RSN 17 0.6 3.5LRSN                1
 GAP=132        1.41       4.7     7.0  7.3 -0.1626E+02  0.7196E+01  0.6477E+01E
 Epicentro: LOS SANTOS - SANTANDER                                             3
 ACTION:UP  10-09-07 10:52 OP:vdl  STATUS:               ID:20100805134259 L   I
 2010-08-05-1338-29S.COL___124                                                 6
 STAT SP IPHASW D HRMM SECON CODA AMPLIT PERI AZIMU VELO SNR AR TRES W  DIS CAZ7
 BAR2 SZ IP       1343 19.28                             169    -0.210   27 211 
 BAR2 SZ ES   1   1343 34.66                             169    -0.6 7   27 211 
 BAR2 SZ I        1343 37.35       534.0 0.25                            27 211 
 BRR  HZ IP     C 1343 21.25                             150    -0.210   80 295 
 BRR  HN ES       1343 38.68                             150     0.010   80 295 
 BRR  HZ I        1343 42.08       504.2 0.16                            80 295 
 RUS  HZ EP       1343 23.09                             145    -0.410  101 182 
 RUS  HN ES       1343 42.00                             145    -0.310  101 182 
 RUS  HZ I        1343 43.27       171.5 0.57                           101 182 
 BRI  SZ EP   1   1343 23.86                             143     0.5 7  105  16 
 BRI  SZ ES   2   1343 42.93                             143     0.8 5  105  16 
 GUE  SZ EP       1343 23.29                             141    -1.010  114   7 
 GRA  SZ EP       1343 25.08                             139     0.410  123  13 
 GRA  SZ ES       1343 45.25                             139     0.810  123  13 
 GRA  SZ I        1343 47.66       264.0 0.22                           123  13 
 CHI  HZ EP       1343 37.00                             118    -0.6 8  252 197 
 CHI  HN ES       1344  8.12                             118     0.7 8  252 197 
 CHI  HZ I        1344 14.44       129.3 0.52                           252 197 
 ROSC BZ EP       1343 38.82                             117     0.6 8  258 213 
 ROSC BZ I        1344 17.06       250.1 0.20                           258 213 
 CVER SZ EP       1343 41.52                             115     1.2 7  276 204 
 CVER SZ I        1343 42.94       321.7 0.45                           276 204 
 CVER SZ ES   2   1344 12.71                             115     0.4 4  276 204 
 HEL  HZ EP   1   1343 40.58                             115    -0.2 6  282 256 
 HEL  HN ES   2   1344 11.95                             115    -1.2 4  282 256 
 HEL  HZ I        1344 17.06       206.5 0.92                           282 256 
 GUY  SZ EP       1343 44.19                             112     0.1 7  310 236 
 GUY  SZ ES       1344 19.06                             112     0.1 7  310 236 
 RREF HZ EP       1343 46.16                             111    -0.4 7  330 230 
 RREF HN ES       1344 23.95                             111     0.6 7  330 230 
 RREF HZ I        1344 27.78       185.3 0.73                           330 230 
 DBB  SZ EP       1343 46.93                             110    -1.1 6  349 274 
 TOL  SZ EP       1343 48.83                             110     0.3 6  351 226 
 TOL  SZ ES   2   1344 27.33                             110     0.4 3  351 226 
 SDV  BZ EP       1343 48.60                             109     0.0 6  353  49 
 SDV  BZ I        1344 28.16        67.0 0.29                           353  49 
 ANIL HZ EP       1343 50.48                             109     0.4 6  365 226 
 ANIL HN ES       1344 30.25                             109     0.5 6  365 226 
 PRA  HZ EP       1343 52.54                             107    -1.0 6  397 211 
 PRA  HZ I        1344 41.09       158.9 0.68                           397 211 
                                                                                
