 2012 11 5 1153 46.3 L   6.768 -73.139145.3  RSN  8 0.5 2.0LRSN                1
 GAP=139        0.88       4.2     5.8  6.7 -0.1777E-01  0.1106E+02  0.5175E+01E
 Epicentro: LOS SANTOS - SANTANDER                                             3
 ACTION:UPD 12-12-05 15:31 OP:}ep  STATUS:               ID:20121105115346 L   I
 2012-11-05-1150-00M.COL___230                                                 6
 STAT SP IPHASW D HRMM SECON CODA AMPLIT PERI AZIMU VELO AIN AR TRES W  DIS CAZ7
 BAR2 SZ EP       1154  5.91                             172    0.0710 20.1 194 
 BAR2 SZ ES   1   1154 21.22                             172    0.16 7 20.1 194 
 BAR2 SZ I        1154 23.18        18.0 0.22                          20.1 194 
 GIR2 SZ EP   1   1154  6.05                             166    0.00 7 34.8 350 
 GIR2 SZ ES   1   1154 20.34                             166   -1.09 7 34.8 350 
 BRR  HZ EP       1154  7.87                             151    0.3110 73.5 301 
 BRR  HN ES   1   1154 24.71                             151    0.59 7 73.5 301 
 BRR  HN I        1154 25.25        25.9 0.20                          73.5 301 
 PAM  SZ EP       1154  8.76                             150    0.1310 79.7  38 
 PAM  SN ES   1   1154 25.78                             150   -0.25 7 79.7  38 
 PAM  SN I        1154 27.01        12.8 0.42                          79.7  38 
 RUS  HZ EP   2   1154  9.64                             145   -0.14 5 97.0 176 
 RUS  HN ES   1   1154 28.52                             145    0.44 7 97.0 176 
 RUS  HN I        1154 30.03        22.9 0.26                          97.0 176 
 ZAR  HZ EP   1   1154 18.45                             122   -0.50 6  206 293 
 ZAR  HN ES   1   1154 44.41                             122    0.02 6  206 293 
 ZAR  HN I        1154 50.96        10.9 0.26                           206 293 
 CHI  HN ES   1   1154 52.30                             117   -0.47 6  245 196 
 CHI  HN I        1154 57.47         4.8 0.32                           245 196 
 PRA  HZ EP   1   1154 40.20                             106    0.68 4  389 210 
 PRA  HN ES   1   1155 20.23                             106   -0.78 4  389 210 
 PRA  HN I        1155 27.45         2.1 0.30                           389 210 
                                                                                
