 2011  7 5 1852  0.0 L   6.785 -73.120139.5  RSN  7 0.3 1.8LRSN                1
 GAP=141        0.53       2.7     5.6  4.7 -0.4128E+01  0.3846E+01 -0.2223E+01E
 Epicentro: LOS SANTOS - SANTANDER                                             3
 ACTION:UPD 12-07-25 13:58 OP:epov STATUS:               ID:20110705185200 L   I
 2011-07-05-1852-10S.COL___140                                                 6
 STAT SP IPHASW D HRMM SECON CODA AMPLIT PERI AZIMU VELO AIN AR TRES W  DIS CAZ7
 BAR2 SZ EP   1   1852 18.88                             170    0.00 7 22.4 198 
 BAR2 SZ ES   1   1852 33.41                             170   -0.18 7 22.4 198 
 BAR2 SZ I        1852 34.91        15.2 0.37                          22.4 198 
 BRR  HZ EP       1852 20.84                             150    0.1410 74.5 299 
 BRR  HZ I        1852 21.21        24.7 0.14                          74.5 299 
 BRR  HE ES   2   1852 36.83                             150    0.01 5 74.5 299 
 PAM  SZ EP   1   1852 21.79                             150    0.24 7 76.9  37 
 PAM  SN ES   1   1852 38.58                             150    0.24 7 76.9  37 
 RUS  HZ EP       1852 23.03                             143    0.0010 98.7 178 
 RUS  HE ES   1   1852 40.93                             143   -0.04 7 98.7 178 
 RUS  HZ I        1852 43.13         3.9 0.20                          98.7 178 
 BRI  SZ EP   2   1852 23.75                             140    0.38 5  109  19 
 GRA  SZ EP   1   1852 24.10                             135   -0.68 7  127  16 
 GRA  SZ ES   1   1852 43.96                             135   -0.14 7  127  16 
 GRA  SZ I        1852 45.37        11.7 0.47                           127  16 
 OCA  SZ EP   1   1852 28.14                             128    0.09 7  162 352 
 OCA  SZ I        1852 52.51        11.0 0.18                           162 352 
                                                                                
