 2017  3 5 1049 53.7 L   6.314 -73.604106.0  RSN  5 0.4 1.5LRSN                1
 GAP=128        0.83       3.8     4.0  9.4 -0.1299E+01  0.1564E+02  0.1643E+02E
 Epicentro: SANTA HELENA DEL OPON - SANTANDER                                  3
 ACTION:UPD 17-05-25 18:36 OP:jn   STATUS:               ID:20170305104953 L   I
 OLDACT:UP  17-03-05 20:55 OP:dani STATUS:               ID:20170305104743     3
 OLDACT:UP  17-03-05 20:55 OP:dani STATUS:               ID:20170305104743     3
 OLDACT:UP  17-03-05 20:54 OP:dani STATUS:               ID:20170305104743     3
 OLDACT:REG 17-03-05 20:19 OP:dani STATUS:               ID:20170305104743     3
 2017-03-05-1048-00M.COL___389                                                 6
 STAT SP IPHASW D HRMM SECON CODA AMPLIT PERI AZIMU VELO AIN AR TRES W  DIS CAZ7
 BAR2 EZ EP     C 1050 10.08                             151    0.0610 55.9  57 
 BAR2 EZ ES       1050 23.23                             151    0.4710 55.9  57 
 BAR2 EZ I        1050 24.55        24.2 0.44            156           55.9  57 
 BRR  HZ EP     C 1050 11.94                             137   -0.1210 88.5 352 
 BRR  HE ES   1   1050 25.55                             137   -0.84 7 88.5 352 
 BRR  HZ I        1050 26.76         5.9 0.52            144           88.5 352 
 NOR  HZ EP       1050 19.54                             118    0.15 9  163 239 
 NOR  HE ES       1050 39.50                             118    0.06 9  163 239 
 NOR  HZ I        1050 42.40         5.2 0.25            122            163 239 
 CHI  HZ EP       1050 22.48                             115    0.00 9  187 184 
 CHI  HN ES       1050 44.52                             115   -0.42 9  187 184 
 CHI  HZ I        1050 49.32         2.2 0.22            118            187 184 
 HEL  HN ES       1050 50.45                             111    0.29 8  213 266 
                                                                                
