 2012  7 5 1935 10.9 L   6.718 -73.439106.0  RSN  5 0.2 1.5LRSN                1
 GAP=151        0.72       6.1     4.2  7.2  0.9227E+01  0.9321E+01  0.1600E+02E
 Epicentro: EL CARMEN DE CHUCURI - SANTANDER                                   3
 ACTION:UPD 12-08-14 11:42 OP:ep   STATUS:               ID:20120705193510 L   I
 2012-07-05-1930-00M.COL___200                                                 6
 STAT SP IPHASW D HRMM SECON CODA AMPLIT PERI AZIMU VELO AIN AR TRES W  DIS CAZ7
 BAR2 SZ EP   1   1935 26.31                             162     0.2 7   32 116 
 BAR2 SZ I        1935 26.87        13.5 0.20            170             32 116 
 BAR2 SZ ES   1   1935 37.53                             162    -0.4 7   32 116 
 BRR  HZ EP       1935 26.57                             152    -0.210   53 325 
 BRR  HE ES       1935 39.34                             152     0.310   53 325 
 BRR  HZ I        1935 45.35        11.5 0.55            152             53 325 
 RUS  HZ EP   1   1935 31.27                             134     0.3 7   99 157 
 PTB  HZ EP       1935 31.37                             129    -0.310  114 260 
 PTB  HN ES       1935 47.94                             129     0.110  114 260 
 PTB  HZ I        1935 52.49         4.0 0.30            133            114 260 
 ZAR  HE ES   1   1935 59.58                             116    -0.1 7  179 299 
 ZAR  HZ I        1936  2.50         3.9 0.21            120            179 299 
