 2017  8 5 1732 52.5 L   6.748 -73.081129.6  RSN  4 0.4 1.5LRSN                1
 GAP=240        1.05      10.8    13.0  8.2  0.1173E+03  0.7136E+01 -0.8302E+01E
 Epicentro: JORDAN - SANTANDER                                                 3
 ACTION:UPD 17-09-04 20:16 OP:rebc STATUS:               ID:20170805173252 L   I
 OLDACT:DUP 17-08-06 00:26 OP:dhb  STATUS:               ID:20170805172741d    3
 2017-08-05-1728-00M.COL___402                                                 6
 STAT SP IPHASW D HRMM SECON CODA AMPLIT PERI AZIMU VELO AIN AR TRES W  DIS CAZ7
 BAR2 EZ EP       1733  9.88                             171   -0.2610 20.5 213 
 BAR2 EZ ES       1733 23.44                             171   -0.4610 20.5 213 
 BAR2 EZ I        1733 26.49         9.7 0.28            169           20.5 213 
 BRR  HZ IP     C 1733 12.68                             146    0.1510 80.2 300 
 BRR  HN ES       1733 28.67                             146    0.5310 80.2 300 
 BRR  HZ I        1733 30.61         9.8 0.31            148           80.2 300 
 RUS  HZ EP       1733 14.89                             142    0.6410 94.6 180 
 RUS  HN ES       1733 31.08                             142   -0.1310 94.6 180 
 RUS  HZ I        1733 33.95         3.6 0.26            143           94.6 180 
 ZAR  HZ EP       1733 24.32                             117   -0.59 8  213 293 
 ZAR  HE ES       1733 50.08                             117   -0.09 8  213 293 
                                                                                
