 2016 12 5 1837 23.5 L   6.669 -73.128178.7  RSN  4 0.4 1.6LRSN                1
 GAP=183        1.08      11.0     6.1  9.1 -0.1750E+02  0.1674E+02 -0.9012E+01E
 Epicentro: VILLANUEVA - SANTANDER                                             3
 ACTION:UPD 17-01-11 20:12 OP:rebc STATUS:               ID:20161205183723 L   I
 OLDACT:REG 16-12-05 20:45 OP:dnl  STATUS:               ID:20161205182745     3
 2016-12-05-1828-00M.COL___342                                                 6
 STAT SP IPHASW D HRMM SECON CODA AMPLIT PERI AZIMU VELO AIN AR TRES W  DIS CAZ7
 BAR2 EZ EP       1837 47.04                             177    0.0810 10.4 216 
 BAR2 EZ ES       1838  5.02                             177   -0.2310 10.4 216 
 BAR2 EZ I        1838  6.21         8.4 0.42            176           10.4 216 
 PAM  EZ EP       1837 50.60                             153    0.7210 88.0  33 
 PAM  EN ES       1838 10.15                             153   -0.3010 88.0  33 
 PAM  EZ I        1838 12.11         2.9 0.48            154           88.0  33 
 PTB  HZ EP       1837 53.17                             139   -0.16 9  148 265 
 PTB  HN ES       1838 16.86                             139    0.28 9  148 265 
 PTB  HZ I        1838 18.97         4.5 0.18            139            148 265 
 ZAR  HZ EP       1837 58.19                             128   -0.85 8  212 296 
 ZAR  HN ES       1838 27.07                             128    0.32 8  212 296 
 ZAR  HZ I        1838 28.33         5.4 0.10            128            212 296 
                                                                                
