 2012 11 5 1432 11.8 L   6.775 -73.422108.5  RSN  5 0.3 2.2LRSN                1
 GAP=138        0.72       5.5     6.3  7.5  0.2264E+02  0.1796E+02  0.1284E+02E
 Epicentro: EL CARMEN DE CHUCURI - SANTANDER                                   3
 ACTION:UPD 12-12-05 15:31 OP:}ep  STATUS:               ID:20121105143211 L   I
 2012-11-05-1430-00M.COL___230                                                 6
 STAT SP IPHASW D HRMM SECON CODA AMPLIT PERI AZIMU VELO AIN AR TRES W  DIS CAZ7
 BAR2 SZ EP       1432 27.65                             162    0.3310 33.4 127 
 BAR2 SZ ES   1   1432 39.83                             162    0.42 7 33.4 127 
 BAR2 SZ I        1432 40.67        56.4 0.24                          33.4 127 
 GIR2 SZ EP       1432 27.77                             157    0.2310 42.0  37 
 GIR2 SZ ES   1   1432 39.22                             157   -0.59 7 42.0  37 
 BRR  HZ IP     D 1432 27.43                             154   -0.2410 48.7 319 
 BRR  HN ES   1   1432 40.20                             154    0.16 7 48.7 319 
 BRR  HN I        1432 40.91        54.2 0.22                          48.7 319 
 RUS  HZ EP   1   1432 32.26                             133   -0.21 7  105 159 
 RUS  HN ES   1   1432 48.27                             133   -0.32 7  105 159 
 ZAR  HN ES   1   1433  0.48                             117   -0.04 7  177 297 
 ZAR  HN I        1433  1.93        14.1 0.22                           177 297 
                                                                                
