 2016  7 5 1202 16.4 L   6.771 -73.172150.2  RSN  6 0.4 1.7LRSN                1
 GAP=135        0.69       5.9     4.1  6.4 -0.3579E+01 -0.1472E+01  0.1811E+01E
 Epicentro: LOS SANTOS - SANTANDER                                             3
 ACTION:UPD 17-03-29 16:47 OP:lp   STATUS:               ID:20160705120216 L   I
 OLDACT:REG 16-07-05 22:09 OP:dnl  STATUS:               ID:20160705115747     3
 2016-07-05-1157-47M.COL___322                                                 6
 STAT SP IPHASW D HRMM SECON CODA AMPLIT PERI AZIMU VELO AIN AR TRES W  DIS CAZ7
 BAR2 EZ EP   2   12 2 35.90                             172   -0.55 5 19.8 183 
 BAR2 EZ ES   2   12 2 51.60                             172   -0.52 5 19.8 183 
 BAR2 EZ I        12 2 53.84        12.3 0.22            173           19.8 183 
 BRR  HZ EP       12 2 38.20                             154    0.2710 70.3 302 
 BRR  HN ES       12 2 55.10                             154    0.3410 70.3 302 
 BRR  HZ I        12 2 58.10         8.6 0.20            155           70.3 302 
 PAM  EZ EP       12 2 39.34                             150    0.0510 81.7  40 
 PAM  EN ES   2   12 2 56.38                             150   -0.80 5 81.7  40 
 PAM  EZ I        12 2 58.51         7.3 0.46            152           81.7  40 
 RUS  HZ EP   2   12 2 40.93                             145    0.60 5 97.7 174 
 RUS  HE ES   2   12 2 59.44                             145    0.40 5 97.7 174 
 RUS  HZ I        12 3  0.23         5.5 0.26            149           97.7 174 
 PTB  HZ EP       12 2 43.19                             134   -0.19 9  144 260 
 PTB  HN ES       12 3  4.19                             134   -0.26 9  144 260 
 PTB  HZ I        12 3  5.89         6.1 0.32            136            144 260 
 ZAR  HZ EP   2   12 2 48.77                             124   -0.17 4  203 293 
 ZAR  HE ES   2   12 3 14.25                             124   -0.11 4  203 293 
 ZAR  HZ I        12 3 15.93         4.6 0.15            126            203 293 
                                                                                
