 2011  4 5 1343 55.0 L   6.714 -73.120150.6  RSN  5 0.2 1.7LRSN                1
 GAP=218        0.36       8.3     7.4  7.7  0.1991E+02 -0.6409E+01  0.1191E+02E
 Epicentro: JORDAN - SANTANDER                                                 3
 ACTION:UP  11-06-22 15:29 OP:REBC STATUS:               ID:20110405134354 L   I
 2011-04-05-1340-42S.COL___122                                                 6
 STAT SP IPHASW D HRMM SECON CODA AMPLIT PERI AZIMU VELO SNR AR TRES W  DIS CAZ7
 BAR2 SZ IP       1344 15.13                             174     0.010   15 207 
 BAR2 SZ I        1344 15.47         8.4 0.11                            15 207 
 BAR2 SZ ES   3   1344 30.30                             174    -0.5 2   15 207 
 BTL  SZ IP       1344 15.29                             169     0.010   28 324 
 GIR2 SZ EP   3   1344 16.02                                     0.5 2   41 349 
 GIR2 SZ ES   3   1344 32.18                             164     0.6 2   41 349 
 BRR  HZ IP       1344 17.03                             151    -0.110   79 304 
 BRR  HZ I        1344 17.36         9.4 0.17                            79 304 
 BRR  HN ES   2   1344 34.36                             151     0.0 5   79 304 
 NOR  SN ES   3   1344 58.93                             120     0.4 2  232 237 
                                                                                
