 2013  7 5 1951 23.0 L   6.761 -73.154138.0  RSN  5 0.4 1.3LRSN                1
 GAP=233        0.94       7.4     6.7  7.9  0.2787E+02  0.7418E+01 -0.4197E+01E
 Epicentro: LOS SANTOS - SANTANDER                                             3
 ACTION:UPD 13-08-12 10:35 OP:ep   STATUS:               ID:20130705195123 L   I
 OLDACT:UP  13-07-05 19:46 OP:jn   STATUS:               ID:20130705194959     3
 OLDACT:REG 13-07-05 17:06 OP:jn   STATUS:               ID:20130705194959     3
 2013-07-05-1949-59M.COL___267                                                 6
 STAT SP IPHASW D HRMM SECON CODA AMPLIT PERI AZIMU VELO AIN AR TRES W  DIS CAZ7
 BAR2 SZ EP       1951 41.46                             172   -0.1410 19.0 189 
 BAR2 SZ ES       1951 55.63                             172   -0.4910 19.0 189 
 BAR2 SZ I        1951 58.62         6.2 0.28            170           19.0 189 
 BRR  HZ EP       1951 43.76                             151    0.3810 72.5 302 
 BRR  HN ES   1   1951 59.76                             151    0.47 7 72.5 302 
 RUS  HZ EP       1951 46.00                             143    0.3210 96.4 175 
 RUS  HN ES       1952  3.51                             143    0.1410 96.4 175 
 RUS  HZ I        1952  5.34         2.4 0.36            144           96.4 175 
 PTB  HZ EP       1951 48.51                             130   -0.67 9  146 260 
 PTB  HN ES       1952  9.82                             130    0.22 9  146 260 
 PTB  HZ I        1952 11.83         3.4 0.12            132            146 260 
 ZAR  HE ES   1   1952 19.80                             120   -0.21 6  205 293 
                                                                                
