 2014  6 5 1008  1.4 L   6.142 -73.654110.1  RSN 19 0.5 2.0LRSN                1
 GAP= 69        1.23       2.6     2.6  5.6 -0.2336E+01  0.2928E+01 -0.7169E+00E
 Epicentro: LA PAZ - SANTANDER                                                 3
 ACTION:UPD 14-07-01 22:51 OP:nd   STATUS:               ID:20140605100801 L   I
 OLDACT:DUP 14-06-05 21:34 OP:stll STATUS:               ID:20140605095808d    3
 2014-06-05-0958-06M.COL___262                                                 6
 STAT SP IPHASW D HRMM SECON CODA AMPLIT PERI AZIMU VELO AIN AR TRES W  DIS CAZ7
 RUS  HZ IP     D 10 8 19.86                             146    0.4610 69.0 114 
 RUS  HZ I        10 8 20.16        19.5 0.16            148           69.0 114 
 RUS  HE ES       10 8 33.20                             146   -0.2110 69.0 114 
 SPBC HZ EP       10 8 19.45                             145    0.4710 71.3 221 
 SPBC HN ES       10 8 32.70                             145    0.0210 71.3 221 
 SPBC HZ I        10 8 35.31        34.1 0.56            144           71.3 221 
 BAR2 SZ IP     C 10 8 20.08                             144    0.8310 72.1  46 
 BAR2 SZ ES       10 8 33.68                             144    0.5210 72.1  46 
 BAR2 SZ I        10 8 35.70        87.7 0.24            146           72.1  46 
 PTB  HZ EP       10 8 20.53                             135   -0.5410 99.0 296 
 PTB  HN ES       10 8 35.54                             135   -0.8610 99.0 296 
 PTB  HZ I        10 8 38.67        19.4 0.40            134           99.0 296 
 NOR  HZ EP       10 8 25.93                             122    0.01 9  149 245 
 NOR  HN ES       10 8 44.78                             122   -0.25 9  149 245 
 NOR  HZ I        10 8 48.38        23.2 0.24            122            149 245 
 CHI  HZ EP       10 8 28.32                             119   -0.02 9  167 183 
 CHI  HN ES       10 8 49.21                             119   -0.12 9  167 183 
 CHI  HZ I        10 8 55.34         7.5 0.38            119            167 183 
 PAM  SZ EP       10 8 29.80                             119    1.17 9  169  39 
 PAM  SN ES       10 8 49.85                             119   -0.00 9  169  39 
 PAM  SZ I        10 8 52.43         9.3 0.34            120            169  39 
 ZAR  HZ EP       10 8 31.43                             114    0.06 9  200 318 
 ZAR  HN ES       10 8 55.16                             114    0.43 9  200 318 
 ZAR  HZ I        10 8 57.03        13.3 0.56            114            200 318 
 HEL  HZ EP       10 8 32.75                             113    0.08 8  208 272 
 HEL  HN ES       10 8 56.87                             113   -0.18 8  208 272 
 HEL  HZ I        10 9  0.87         4.9 0.26            113            208 272 
 TAM  HZ EP       10 8 32.51                             113    0.12 8  209  81 
 TAM  HE ES       10 8 55.08                             113   -1.47 8  209  81 
 TAM  HZ I        10 8 55.99        14.1 0.12            114            209  81 
 GUY2CHZ EP       10 8 33.95                             112    0.30 8  215 242 
 GUY2CHN ES       10 8 59.00                             112    0.22 8  215 242 
 GUY2CHZ I        10 9  6.08        10.5 0.66                           215 242 
 RREF HZ EP       10 8 36.03                             110    0.20 8  232 234 
 RREF HN ES       10 9  2.70                             110    0.03 8  232 234 
 RREF HZ I        10 9 11.40         7.8 0.26            110            232 234 
 OCA  HN ES       10 9  2.04                             110   -0.04 8  235   9 
 OCA  HZ I        10 9  8.10         5.1 0.28            111            235   9 
 TOL  SZ EP       10 8 37.95                             108    0.19 8  252 227 
 TOL  SN ES       10 9  6.60                             108    0.49 8  252 227 
 TOL  SZ I        10 9 15.38        11.1 0.42            108            252 227 
 URE  HZ EP       10 8 38.63                             106   -1.17 8  273 311 
 URE  HE ES   4   10 9  7.37                             106   -2.37 0  273 311 
 SML  HZ EP       10 8 42.55                             104   -0.07 7  298 351 
 SML  HE ES       10 9 14.55                             104   -0.21 7  298 351 
 SML  HZ I        10 9 23.82         3.6 0.10            105            298 351 
 PRA  HZ EP       10 8 42.76                             104   -0.36 7  301 207 
 PRA  HE ES       10 9 15.02                             104   -0.62 7  301 207 
 PRA  HZ I        10 9 21.55         3.7 0.20            105            301 207 
 ORTC HZ EP       10 8 43.71                             104    0.33 7  304 216 
 ORTC HN ES       10 9 15.84                             104   -0.27 7  304 216 
 ORTC HZ I        10 9 22.14         4.8 0.48            104            304 216 
 SOCV BZ EP       10 8 52.86                              99   -0.75 6  389  52 
                                                                                
