 2010  2 5 1459 22.3 L   6.811 -73.215134.0  RSN  5 0.3 1.8LRSN                1
 GAP=223        0.72       8.3    13.2  9.2  0.6808E+02  0.7142E+02  0.1060E+02E
 Epicentro: ZAPATOCA - SANTANDER                                               3
 ACTION:UP  10-08-24 09:47 OP:vdl  STATUS:               ID:20100205145922 L   I
 2010-02-05-1458-57S.COL___094                                                 6
 STAT SP IPHASW D HRMM SECON CODA AMPLIT PERI AZIMU VELO SNR AR TRES W  DIS CAZ7
 BAR2 SZ IP       1459 40.72                             169     0.210   24 172 
 BAR2 SZ ES   2   1459 54.08                             169    -0.7 5   24 172 
 RUS  BZ EP       1459 44.79                             141    -0.210  103 172 
 RUS  BE ES       15 0  3.10                             141     0.310  103 172 
 RUS  BZ I        15 0  4.46         8.6 0.32                           103 172 
 CHI  HZ EP       1459 58.94                             115    -0.3 8  248 193 
 CHI  HZ I        15 0  1.37         6.7 0.87                           248 193 
 DBB  SZ EP       15 0  8.52                             108     0.1 7  332 274 
 MON  HE ES   2   15 0 47.33                             107     0.1 3  346 309 
                                                                                
