 2011  9 5 1346 38.2 L   6.782 -73.128146.0  RSN 11 0.2 2.3LRSN                1
 GAP=185        0.46       1.9     3.1  3.2  0.5679E+00  0.2162E+01  0.1207E+01E
 Epicentro: LOS SANTOS - SANTANDER                                             3
 ACTION:UPD 12-07-13 15:55 OP:ep   STATUS:               ID:20110905134638 L   I
 2011-09-05-1343-42S.COL___171                                                 6
 STAT SP IPHASW D HRMM SECON CODA AMPLIT PERI AZIMU VELO AIN AR TRES W  DIS CAZ7
 BAR2 SZ EP       1346 57.88                             171    0.0610 21.9 196 
 BAR2 SZ ES   1   1347 12.89                             171   -0.24 7 21.9 196 
 BAR2 SZ I        1347 15.81        53.7 0.34                          21.9 196 
 GIR2 SZ EP   1   1346 57.97                             166    0.02 7 33.6 348 
 BRR  HZ EP       1346 59.63                             152    0.1210 73.8 299 
 BRR  HN ES       1347 16.35                             152    0.2110 73.8 299 
 BRR  HZ I        1347 20.91        44.1 0.19                          73.8 299 
 RUS  HZ EP   1   1347  1.75                             144   -0.07 7 98.5 177 
 RUS  HN ES   1   1347 20.28                             144    0.04 7 98.5 177 
 RUS  HZ I        1347 23.33        11.5 0.25                          98.5 177 
 OCA  SZ EP   1   1347  6.30                             129   -0.42 7  162 353 
 OCA  SZ ES   1   1347 29.13                             129    0.15 7  162 353 
 OCA  SZ I        1347 32.49        33.4 0.71                           162 353 
 ZAR  HZ EP   1   1347 10.83                             122   -0.08 6  207 292 
 ZAR  HE ES   1   1347 35.99                             122   -0.44 6  207 292 
 ZAR  HZ I        1347 42.97        16.9 0.35                           207 292 
 NOR  SZ EP   1   1347 13.63                             118   -0.35 6  235 235 
 NOR  SN ES   1   1347 41.86                             118   -0.03 6  235 235 
 CHI  HZ EP   1   1347 15.86                             117    0.11 6  247 196 
 CHI  HN ES   2   1347 44.68                             117   -0.37 4  247 196 
 CHI  HZ I        1347 55.11         9.9 0.26                           247 196 
 HEL  HZ EP   1   1347 19.07                             115    0.50 6  273 256 
 HEL  HZ I        1347 56.59         9.5 0.36                           273 256 
 RREF HZ EP   2   1347 24.94                             111    0.58 3  322 230 
 RREF HZ I        1348  7.90        12.2 0.47                           322 230 
 PRA  HZ EP   1   1347 31.64                             107    0.01 4  391 210 
 PRA  HE ES   1   1348 13.42                             107    0.11 4  391 210 
                                                                                
