 2013  6 5 1851 51.0 L   6.807 -73.149145.2  RSN 16 0.4 2.8LRSN                1
 GAP=112        0.90       2.3     2.7  4.5  0.5615E+00  0.2696E+01  0.7259E+00E
 Epicentro: LOS SANTOS - SANTANDER                                             3
 ACTION:UPD 14-01-08 09:52 OP:ep   STATUS:               ID:20130605185151 L   I
 OLDACT:REG 13-06-05 16:55 OP:nd   STATUS:               ID:20130605184959     3
 2013-06-05-1849-59M.COL___261                                                 6
 STAT SP IPHASW D HRMM SECON CODA AMPLIT PERI AZIMU VELO AIN AR TRES W  DIS CAZ7
 BAR2 SZ EP       1852 10.59                             170    0.0510 24.1 189 
 BAR2 SZ ES       1852 25.64                             170   -0.1610 24.1 189 
 BAR2 SZ I        1852 26.81        96.5 0.20            170           24.1 189 
 GIR2 SZ EP       1852 10.50                             168   -0.0410 30.4 351 
 GIR2 SZ ES   1   1852 26.13                             168    0.32 7 30.4 351 
 GIR2 SZ I        1852 29.69        54.5 0.36            167           30.4 351 
 BRR  HZ IP     C 1852 12.56                             153    0.5510 70.5 298 
 BRR  HN ES   2   1852 28.82                             153    0.40 5 70.5 298 
 BRR  HZ I        1852 30.63        85.7 0.46            152           70.5 298 
 RUS  HZ EP       1852 14.37                             143   -0.3510  101 176 
 RUS  HN ES       1852 33.32                             143    0.0810  101 176 
 RUS  HZ I        1852 34.74        85.8 0.42            142            101 176 
 PTB  HZ EP       1852 17.33                             132   -0.53 9  148 258 
 PTB  HN ES       1852 38.21                             132   -0.64 9  148 258 
 PTB  HZ I        1852 41.54        86.9 0.42            130            148 258 
 TAM  HZ IP     D 1852 18.69                             130    0.05 9  156 105 
 TAM  HZ I        1852 39.52        37.5 0.26            128            156 105 
 TAM  HN ES       1852 40.17                             130   -0.07 9  156 105 
 OCA  HZ EP       1852 19.21                             130    0.06 9  159 353 
 OCA  HN ES       1852 41.27                             130    0.14 9  159 353 
 OCA  HZ I        1852 46.48        69.8 0.44            127            159 353 
 YOP  SZ EP       1852 20.92                             126   -0.13 9  180 153 
 YOP  SN ES       1852 44.94                             126    0.42 9  180 153 
 YOP  SZ I        1852 46.40        78.7 0.22            124            180 153 
 NOR  HZ IP     D 1852 26.26                             118   -0.42 8  235 234 
 NOR  HN ES       1852 54.49                             118   -0.04 8  235 234 
 NOR  HZ I        1852 56.30        64.4 0.16            117            235 234 
 SML  HZ EP       1852 26.98                             117   -0.48 8  243 335 
 SML  HN ES       1852 55.66                             117   -0.26 8  243 335 
 SML  HZ I        1852 58.32        62.1 0.10            116            243 335 
 CHI  HZ EP       1852 28.68                             117   -0.02 8  249 195 
 CHI  HN ES       1852 57.72                             117   -0.42 8  249 195 
 CHI  HZ I        1853  4.12        23.5 0.62            115            249 195 
 HEL  HZ EP       1852 32.19                             115    1.06 8  272 256 
 HEL  HN ES       1853  3.14                             115    0.68 8  272 256 
 HEL  HZ I        1853  9.74        41.4 0.40            113            272 256 
 URE  HZ EP   4   1852 31.19                             113   -0.74 0  283 292 
 URE  HN ES   4   1853  1.92                             113   -1.97 0  283 292 
 URE  HZ I        1853  8.25        52.4 0.14            112            283 292 
 GUY2CHZ EP       1852 35.20                             112    0.64 7  301 235 
 GUY2CHN ES   2   1853  8.89                             112    0.32 4  301 235 
 GUY2CHZ I        1853 17.31        39.3 0.28                           301 235 
 RREF HZ EP   4   1852 37.57                             111    0.46 0  322 229 
 RREF HN ES   4   1853 14.36                             111    1.26 0  322 229 
 RREF HZ I        1853 23.41        30.6 0.26            109            322 229 
 PRA  HZ EP       1852 44.08                             106   -0.44 6  393 209 
 PRA  HN ES   2   1853 26.91                             106    0.61 3  393 209 
 PRA  HZ I        1853 30.95        25.2 0.32            105            393 209 
                                                                                
