 2013 11 5 1752 13.5 L   6.797 -73.137148.9  RSN 13 0.4 2.3LRSN                1
 GAP= 72        1.04       3.5     3.3  5.7 -0.1035E+01  0.3368E+01  0.7940E-01E
 Epicentro: LOS SANTOS - SANTANDER                                             3
 ACTION:UPD 14-01-09 16:26 OP:ep   STATUS:               ID:20131105175213 L   I
 OLDACT:REG 13-11-05 18:26 OP:jn   STATUS:               ID:20131105175000     3
 2013-11-05-1750-00M.COL___273                                                 6
 STAT SP IPHASW D HRMM SECON CODA AMPLIT PERI AZIMU VELO AIN AR TRES W  DIS CAZ7
 BAR2 SZ EP       1752 33.48                             171    0.0210 23.2 193 
 BAR2 SZ ES       1752 48.88                             171   -0.1810 23.2 193 
 BAR2 SZ I        1752 50.24        51.2 0.26            170           23.2 193 
 BRR  HZ EP       1752 35.39                             153    0.3910 72.2 298 
 BRR  HN ES       1752 52.82                             153    1.0110 72.2 298 
 BRR  HZ I        1752 57.74        29.6 0.16            152           72.2 298 
 PAM  SZ EP       1752 36.28                             151    0.3010 77.0  39 
 PAM  SN ES       1752 53.65                             151    0.1010 77.0  39 
 PAM  SZ I        1752 55.70        30.2 0.52            156           77.0  39 
 RUS  HZ EP       1752 37.38                             145   -0.1110  100 177 
 RUS  HN ES       1752 56.20                             145   -0.0410  100 177 
 RUS  HZ I        1752 59.04        12.3 0.40            147            100 177 
 PTB  HZ EP       1752 40.37                             133   -0.40 9  149 259 
 PTB  HN ES       1753  1.76                             133   -0.30 9  149 259 
 PTB  HZ I        1753  7.51        36.6 0.38            133            149 259 
 TAM  HZ EP       1752 41.64                             132    0.35 9  154 105 
 TAM  HN ES       1753  2.56                             132   -0.44 9  154 105 
 OCA  HE ES   1   1753  3.50                             130   -0.85 7  161 353 
 SPBC HZ EP       1752 42.41                             130    0.17 9  164 219 
 SPBC HN ES       1753  3.89                             130   -0.79 9  164 219 
 SPBC HZ I        1753 11.55        45.5 0.24            131            164 219 
 ZAR  HZ EP       1752 45.98                             123   -0.24 9  205 292 
 ZAR  HN ES   2   1753 11.13                             123   -0.63 4  205 292 
 ZAR  HZ I        1753 18.03        33.6 0.56            124            205 292 
 NOR  HZ EP       1752 49.73                             119    0.29 8  235 235 
 NOR  HN ES       1753 17.89                             119    0.39 8  235 235 
 NOR  HZ I        1753 21.25        17.2 0.20            121            235 235 
 SML  HZ EP   1   1752 50.01                             118   -0.33 6  244 335 
 SML  HN ES   1   1753 19.33                             118    0.23 6  244 335 
 GUY2CHZ EP   4   1752 56.89                             113   -0.40 0  302 235 
 GUY2CHZ I        1753 40.76        13.4 0.62                           302 235 
 SJC  HZ EP   4   1753  7.61                             106   -1.61 0  410 327 
 SJC  HN ES   4   1753 48.04                             106   -4.67 0  410 327 
 SJC  HZ I        1753 54.27         2.7 0.48            108            410 327 
                                                                                
