 2012  3 5 1034 55.1 L   6.694 -73.162140.7  RSN  4 0.1 1.7LRSN                1
 GAP=244        0.36       5.1     3.3  3.8  0.6156E+01  0.3852E+01 -0.1620E+01E
 ACTION:UP  12-03-31 23:17 OP:EP   STATUS:               ID:20120305103455 L   I
 2012-03-05-1030-00M.COL___191                                                 6
 STAT SP IPHASW D HRMM SECON CODA AMPLIT PERI AZIMU VELO SNR AR TRES W  DIS CAZ7
 BAR2 SZ EP   1   1035 13.97                             175     0.0 7   11 191 
 BAR2 SZ ES       1035 28.53                             175    -0.110   11 191 
 BAR2 SZ I        1035 29.83        10.1 0.30                            11 191 
 BRR  HZ EP       1035 16.02                             150     0.010   76 307 
 BRR  HZ I        1035 16.38        10.6 0.09                            76 307 
 BRR  HN ES   1   1035 32.43                             150     0.1 7   76 307 
 PTB  HZ EP   1   1035 21.32                             131     0.0 7  144 263 
 PTB  HE ES   1   1035 41.88                             131     0.1 7  144 263 
 ZAR  HN ES   1   1035 52.65                             121    -0.2 6  207 295 
 ZAR  HZ I        1035 58.39         3.6 0.47                           207 295 
                                                                                
