 2011 12 5 1639 45.5 L   6.541 -73.509113.4  RSN  7 0.3 1.6LRSN                1
 GAP= 88        0.67       5.1     5.0  8.5 -0.1525E+02  0.2224E+02 -0.1039E+02E
 Epicentro: EL CARMEN DE CHUCURI - SANTANDER                                   3
 ACTION:UPD 12-07-13 16:14 OP:ep   STATUS:               ID:20111205163945 L   I
 2011-12-05-1637-44S.COL___161                                                 6
 STAT SP IPHASW D HRMM SECON CODA AMPLIT PERI AZIMU VELO AIN AR TRES W  DIS CAZ7
 BAR2 SZ EP   1   1640  2.28                             161    0.55 7 36.5  81 
 BAR2 SZ ES   1   1640 14.42                             161    0.06 7 36.5  81 
 BAR2 SZ I        1640 16.41        34.4 0.44                          36.5  81 
 BRR  HZ EP   1   1640  2.77                             148   -0.21 7 66.5 340 
 BRR  HZ I        1640 17.59         9.5 0.13                          66.5 340 
 GIR2 SZ EP   1   1640  3.75                             147    0.41 7 68.9  30 
 RUS  HZ EP   1   1640  5.04                             140   -0.02 7 85.8 147 
 RUS  HN ES   2   1640 20.22                             140   -0.07 5 85.8 147 
 RUS  HZ I        1640 22.39         6.0 0.18                          85.8 147 
 PAM  SZ EP   1   1640  8.69                             129    0.16 7  126  45 
 PAM  SN ES   1   1640 25.88                             129   -0.59 7  126  45 
 PAM  SZ I        1640 28.11         3.1 0.19                           126  45 
 NOR  SZ EP   1   1640 13.59                             117   -0.51 7  185 234 
 NOR  SE ES   1   1640 36.29                             117   -0.10 7  185 234 
 HEL  HN ES   2   1640 45.67                             112    0.36 4  227 260 
                                                                                
