 2016  8 5 1014  0.6 L   6.770 -73.176149.7  RSN  6 0.4 1.4LRSN                1
 GAP=134        1.06       6.3     5.2  9.3  0.4283E+01  0.5215E+01 -0.2530E+02E
 Epicentro: LOS SANTOS - SANTANDER                                             3
 ACTION:UPD 16-10-29 15:32 OP:rebc STATUS:               ID:20160805101400 L   I
 OLDACT:UP  16-08-05 21:11 OP:dani STATUS:               ID:20160805100759     3
 OLDACT:UP  16-08-05 21:11 OP:dani STATUS:               ID:20160805100759     3
 OLDACT:REG 16-08-05 19:49 OP:dani STATUS:               ID:20160805100759     3
 2016-08-05-1007-59S.COL___331                                                 6
 STAT SP IPHASW D HRMM SECON CODA AMPLIT PERI AZIMU VELO AIN AR TRES W  DIS CAZ7
 BAR2 EZ EP       1014 20.61                             172   -0.0510 19.7 182 
 BAR2 EZ ES       1014 35.85                             172   -0.4410 19.7 182 
 BAR2 EZ I        1014 38.29         8.0 0.26                          19.7 182 
 PAM  EZ EP       1014 23.51                             150   -0.0310 82.1  40 
 RUS  HZ EP       1014 24.44                             145   -0.1110 97.6 174 
 RUS  HE ES       1014 43.97                             145    0.7610 97.6 174 
 RUS  HZ I        1014 44.51         2.2 0.32                          97.6 174 
 PTB  HZ EP       1014 26.93                             134   -0.63 9  144 260 
 PTB  HE ES       1014 48.34                             134   -0.24 9  144 260 
 PTB  HZ I        1014 50.98         2.8 0.14                           144 260 
 SPBC HZ EP   4   1014 26.69                             131   -2.30 0  158 219 
 SPBC HN ES       1014 50.98                             131   -0.13 9  158 219 
 SPBC HZ I        1014 59.40         3.1 0.24                           158 219 
 ZAR  HZ EP       1014 33.60                             123    0.46 9  202 293 
 ZAR  HN ES       1014 59.05                             123    0.55 9  202 293 
 ZAR  HZ I        1015  5.73         2.7 0.40                           202 293 
                                                                                
