 2012  9 5 1311 13.9 L   6.349 -73.602108.2  RSN 18 0.5 2.7LRSN 3.4WRSN        1
 SPEC AVERAGE  MO 14.1 ST 18.7 OM  4.1 f0 4.01 R0.3887 AL 2.86 WI 39.3 MW  3.4 3
 SPEC SD       MO  0.2 ST 15.2 OM  1.6 f00.945 R0.0917 AL      WI      MW  0.1 3
 GAP= 53        0.93       4.2     3.1  7.0 -0.3010E+01  0.3016E+01  0.9476E+01E
 Epicentro: SANTA HELENA DEL OPON - SANTANDER                                  3
 SPEC HEL HH N MO 13.9 ST  3.5 OM  2.2 f0 3.06 R0.4804 AL 2.22 WI 37.9 MW  3.2 3
 SPEC HEL HH N T131210 K 0.000 GD  239 VS 4.20 DE 3.00 Q0230.0 QA 0.60 VS 4.20 3
 SPEC BRR HH N MO 14.3 ST 33.9 OM  2.8 f0 4.95 R0.2970 AL 3.49 WI 40.8 MW  3.5 3
 SPEC BRR HH N T131145 K 0.000 GD  137 VS 4.20 DE 3.00 Q0230.0 QA 0.60 VS 4.20 3
 ACTION:UPD 12-10-22 14:17 OP:ep   STATUS:               ID:20120905131113 L   I
 2012-09-05-1310-00M.COL___218                                                 6
 STAT SP IPHASW D HRMM SECON CODA AMPLIT PERI AZIMU VELO AIN AR TRES W  DIS CAZ7
 BAR2 SZ IP       1311 30.73                             151    0.3410 53.6  60 
 BAR2 SZ I        1311 30.75       309.6 0.24                          53.6  60 
 BAR2 SZ ES   1   1311 43.72                             151    0.50 7 53.6  60 
 RUS  HZ IP     D 1311 31.98                             142   -0.2910 76.5 131 
 BRR  HZ EP       1311 32.38                             139    0.1610 84.7 352 
 BRR  HZ I        1311 41.72        93.3 0.10                          84.7 352 
 BRR  HN ES   3   1311 47.18                             139    0.71 2 84.7 352 
 GIR2 SZ EP       1311 33.34                             136    0.2910 92.5  29 
 PTB  HE ES   1   1311 47.25                             135   -1.06 7 96.8 283 
 PAM  SZ EP       1311 38.86                             122    0.05 9  148  42 
 PAM  SE ES   2   1311 58.71                             122    0.51 5  148  42 
 NOR  SZ EP       1311 39.35                             119   -0.68 9  165 238 
 NOR  SN ES   1   1312  0.58                             119    0.21 7  165 238 
 NOR  SZ I        1312  2.30        63.5 0.16                           165 238 
 YOP  SZ EP       1311 40.65                             117   -0.09 9  171 130 
 YOP  SZ I        1312  3.17       126.9 0.26                           171 130 
 ROSC BN ES   3   1312  6.75                             116    1.77 2  185 206 
 ROSC BZ I        1312 13.36        83.3 0.90                           185 206 
 ZAR  HZ EP       1311 42.46                             115    0.02 9  188 312 
 ZAR  HZ I        1312  9.58        65.4 0.34                           188 312 
 CHI  HZ EP   3   1311 43.31                             115    0.02 2  191 184 
 CHI  HN ES   3   1312  5.60                             115   -0.58 2  191 184 
 CHI  HZ I        1312 18.40        11.2 0.26                           191 184 
 TAM  HZ EP       1311 43.45                             113   -0.47 9  201  87 
 TAM  HN ES   3   1312  5.32                             113   -1.97 2  201  87 
 TAM  HZ I        1312  5.74        53.7 0.28                           201  87 
 HEL  HZ EP       1311 46.00                             112    0.16 8  214 265 
 HEL  HZ I        1311 47.17        21.3 0.18                           214 265 
 HEL  HE ES   3   1312 10.56                             112   -0.15 2  214 265 
 GUY  SZ EP   3   1311 48.76                             110    0.51 2  234 238 
 GUY  SZ I        1312 23.01       102.8 0.22                           234 238 
 TOL  SZ EP       1311 53.13                             106    0.56 8  273 224 
 ANIL HZ EP       1311 54.97                             105    0.82 7  286 224 
 ANIL HZ I        1312 32.64        67.2 0.20                           286 224 
 DBB  SZ EP       1311 54.97                             104   -0.24 7  298 285 
 DBB  SZ I        1312 29.91        34.4 0.46                           298 285 
 PRA  HZ EP       1311 57.77                             102   -0.56 7  324 206 
 PRA  HZ I        1312 42.78        20.3 0.78                           324 206 
                                                                                
