 2016 12 5 1934  3.3 L   6.807 -73.133147.4  RSN 10 0.5 2.4LRSN                1
 GAP=154        1.24       5.2     5.4  7.2 -0.4060E+01  0.8776E+01  0.9604E+01E
 Epicentro: LOS SANTOS - SANTANDER                                             3
 ACTION:UPD 17-01-11 20:12 OP:rebc STATUS:               ID:20161205193403 L   I
 OLDACT:UP  16-12-06 00:57 OP:dnl  STATUS:               ID:20161205192745     3
 OLDACT:UP  16-12-06 00:57 OP:dnl  STATUS:               ID:20161205192745     3
 OLDACT:REG 16-12-05 20:47 OP:dnl  STATUS:               ID:20161205192745     3
 2016-12-05-1928-00M.COL___336                                                 6
 STAT SP IPHASW D HRMM SECON CODA AMPLIT PERI AZIMU VELO AIN AR TRES W  DIS CAZ7
 BAR2 EZ EP       1934 22.99                             170   -0.1510 24.3 193 
 BAR2 EZ ES       1934 37.92                             170   -0.7010 24.3 193 
 BAR2 EZ I        1934 39.28        56.2 0.22            166           24.3 193 
 BRR  HZ EP       1934 24.92                             152    0.2510 72.1 297 
 BRR  HE ES       1934 42.16                             152    0.8210 72.1 297 
 BRR  HZ I        1934 45.68        36.8 0.12            151           72.1 297 
 PAM  EZ IP     D 1934 25.82                             152    0.2310 75.9  39 
 PAM  EN ES       1934 43.10                             152    0.1110 75.9  39 
 PAM  EZ I        1934 45.33        34.6 0.68            157           75.9  39 
 PTB  HZ EP       1934 29.83                             132   -0.70 9  149 259 
 PTB  HN ES       1934 50.83                             132   -0.95 9  149 259 
 PTB  HZ I        1934 53.35        23.5 0.14            131            149 259 
 ZAR  HZ EP       1934 36.31                             123    0.36 9  205 292 
 ZAR  HE ES       1935  1.70                             123    0.27 9  205 292 
 ZAR  HZ I        1935  7.24        30.6 0.28            123            205 292 
 NOR  HZ EP       1934 39.42                             119    0.14 8  236 235 
 NOR  HN ES       1935  7.79                             119    0.43 8  236 235 
 NOR  HZ I        1935 13.76        18.0 0.18            118            236 235 
 CHI  HZ EP       1934 41.14                             117   -0.06 8  250 195 
 CHI  HE ES       1935 11.29                             117    0.53 8  250 195 
 CHI  HZ I        1935 16.26        12.7 0.28            117            250 195 
 ANIL HZ EP   2   1934 53.57                             109    0.24 3  359 225 
 ANIL HN ES   4   1935 35.10                             109    2.73 0  359 225 
 ANIL HZ I        1935 44.83        19.4 0.28            109            359 225 
 ORTC HZ EP       1934 57.78                             106    0.35 6  397 216 
 ORTC HN ES   4   1935 41.94                             106    2.27 0  397 216 
 ORTC HZ I        1935 46.92         7.0 0.54            107            397 216 
 SJC  HZ EP       1934 57.65                             106   -1.27 6  409 327 
 SJC  HN ES   4   1935 40.07                             106   -2.25 0  409 327 
 SJC  HZ I        1935 43.16         4.9 0.48            107            409 327 
                                                                                
