 2012 12 5 1053 50.9 L   6.793 -73.176143.6  RSN  6 0.3 1.7LRSN                1
 GAP=142        0.69       3.3     4.0  5.1 -0.4327E+01  0.5730E+01  0.2772E+01E
 Epicentro: LOS SANTOS - SANTANDER                                             3
 ACTION:UPD 13-01-04 14:25 OP:ep   STATUS:               ID:20121205105350 L   I
 2012-12-05-1050-00M.COL___237                                                 6
 STAT SP IPHASW D HRMM SECON CODA AMPLIT PERI AZIMU VELO AIN AR TRES W  DIS CAZ7
 BAR2 SZ EP       1054 10.33                             171    0.0710 22.2 182 
 BAR2 SZ ES       1054 25.72                             171    0.3710 22.2 182 
 BAR2 SZ I        1054 26.80        15.9 0.26                          22.2 182 
 PAM  SZ EP       1054 13.38                             149    0.3110 80.2  41 
 PAM  SN ES       1054 29.78                             149   -0.5710 80.2  41 
 PAM  SN I        1054 31.86         5.8 0.62                          80.2  41 
 RUS  HZ EP       1054 14.44                             143    0.0310  100 174 
 RUS  HN ES       1054 32.78                             143    0.0410  100 174 
 RUS  HN I        1054 34.90         9.3 0.34                           100 174 
 PTB  HZ EP       1054 17.53                             132    0.14 9  144 259 
 PTB  HN ES       1054 37.93                             132   -0.11 9  144 259 
 PTB  HN I        1054 43.57         7.2 0.24                           144 259 
 CHI  HN ES       1054 57.22                             117   -0.26 8  247 194 
 CHI  HN I        1055  3.37         4.3 0.44                           247 194 
 PRA  HZ EP       1054 44.05                             106   -0.03 6  390 209 
 PRA  HN ES       1055 25.21                             106   -0.34 6  390 209 
 PRA  HN I        1055 31.32         1.8 0.68                           390 209 
                                                                                
