 2011 11 5 1704 12.8 L   6.787 -73.060152.0  RSN  4 0.4 1.5LRSN                1
 GAP=148        0.77       6.0     9.0  9.4  0.1092E+02  0.1250E+02  0.1583E+02E
 Epicentro: LOS SANTOS - SANTANDER                                             3
 ACTION:UPD 12-07-13 16:08 OP:ep   STATUS:               ID:20111105170412 L   I
 2011-11-05-1702-14S.COL___175                                                 6
 STAT SP IPHASW D HRMM SECON CODA AMPLIT PERI AZIMU VELO AIN AR TRES W  DIS CAZ7
 BAR2 SZ EP       17 4 32.64                             170   -0.5910 25.4 212 
 BAR2 SZ ES   3   17 4 48.11                             170   -1.05 2 25.4 212 
 BAR2 SZ I        17 4 50.16         7.0 0.26                          25.4 212 
 PAM  SN ES   1   17 4 53.31                             154    0.22 7 72.9  33 
 BRR  HZ EP       17 4 35.24                             151    0.0810 80.3 296 
 BRR  HN ES   1   17 4 52.76                             151    0.17 7 80.3 296 
 BRR  HZ I        17 4 54.76        10.9 0.50                          80.3 296 
 RUS  HZ EP       17 4 37.33                             146    0.2710 98.9 182 
 RUS  HN ES   1   17 4 56.14                             146    0.16 7 98.9 182 
 RUS  HZ I        17 4 57.49         3.0 0.56                          98.9 182 
                                                                                
