 2013 11 5 1709 49.6 L   7.039 -73.394112.3  RSN  5 0.3 1.5LRSN                1
 GAP=139        0.77       3.7     3.2  5.5  0.3739E+01  0.3844E+01  0.6280E+00E
 Epicentro: SAN VICENTE DE CHUCURI - SANTANDER                                 3
 ACTION:UPD 14-01-09 16:26 OP:ep   STATUS:               ID:20131105170949 L   I
 OLDACT:REG 13-11-05 18:43 OP:j    STATUS:               ID:20131105170836     3
 2013-11-05-1708-36M.COL___223                                                 6
 STAT SP IPHASW D HRMM SECON CODA AMPLIT PERI AZIMU VELO AIN AR TRES W  DIS CAZ7
 BRR  HZ EP       1710  5.07                             161   -0.2010 35.9 282 
 BRR  HN ES       1710 17.56                             161    0.0610 35.9 282 
 BAR2 SZ EP       1710  7.21                             152    0.6810 54.7 155 
 BAR2 SZ ES       1710 19.45                             152   -0.2910 54.7 155 
 PAM  SZ EP       1710  8.52                             141   -0.3110 83.6  67 
 PAM  SE ES       1710 23.99                             141    0.1510 83.6  67 
 PAM  SZ I        1710 25.96         4.8 0.44            143           83.6  67 
 RUS  HZ EP       1710 13.09                             127    0.0410  131 165 
 RUS  HE ES       1710 31.26                             127   -0.0910  131 165 
 RUS  HZ I        1710 33.27         3.0 0.34            128            131 165 
 ZAR  HZ EP       1710 16.07                             119   -0.23 9  169 287 
 ZAR  HN ES       1710 37.27                             119    0.14 9  169 287 
 ZAR  HZ I        1710 42.57         9.8 0.26            119            169 287 
                                                                                
