 2017  2 5 1443 23.2 L   6.783 -73.382122.2  RSN  5 0.5 2.3LRSN                1
 GAP=179        1.36       8.8     7.9  9.9  0.4339E+02  0.2141E+02  0.6711E+01E
 Epicentro: SAN VICENTE DE CHUCURI - SANTANDER                                 3
 ACTION:UPD 17-05-24 15:32 OP:jn   STATUS:               ID:20170205144323 L   I
 OLDACT:REG 17-02-05 21:30 OP:ar   STATUS:               ID:20170205143743     3
 2017-02-05-1438-00M.COL___331                                                 6
 STAT SP IPHASW D HRMM SECON CODA AMPLIT PERI AZIMU VELO AIN AR TRES W  DIS CAZ7
 BAR2 EZ IP       1443 39.99                             165   -0.1710 30.6 134 
 BAR2 EZ ES       1443 52.81                             165   -0.6210 30.6 134 
 BAR2 EZ I        1443 54.39       129.6 0.32            167           30.6 134 
 BRR  HZ EP       1443 40.41                             156   -0.2410 51.1 315 
 BRR  HN ES       1443 54.60                             156    0.3110 51.1 315 
 BRR  HZ I        1443 55.31        29.5 0.10            154           51.1 315 
 RUS  HZ EP       1443 45.05                             137    0.1110  104 161 
 RUS  HN ES       1444  2.82                             137    0.8810  104 161 
 PTB  HZ IP       1443 45.34                             132   -0.5110  122 257 
 PTB  HN ES       1444  2.98                             132   -0.5710  122 257 
 PTB  HZ I        1444  7.67        28.2 0.20            131            122 257 
 ZAR  HZ EP       1443 51.71                             120    0.01 9  181 296 
 ZAR  HE ES       1444 14.92                             120    0.96 9  181 296 
 ZAR  HZ I        1444 18.40        28.8 0.28            120            181 296 
                                                                                
