 2013  3 5 1315 44.4 L   6.806 -73.148147.0  RSN 14 0.5 2.4LRSN 3.0WRSN        1
 SPEC AVERAGE  MO 13.6 ST  7.0 OM  2.3 f0 4.50 R0.3446 AL 2.30 WI 26.1 MW  3.0 3
 SPEC SD       MO  0.2 ST  4.5 OM  0.5 f00.962 R0.0866 AL      WI      MW  0.1 3
 GAP= 71        1.01       3.1     3.0  5.2 -0.2973E+00  0.3466E+01  0.2727E+01E
 Epicentro: LOS SANTOS - SANTANDER                                             3
 SPEC ZAR HH E MO 13.7 ST 10.2 OM  1.9 f0 5.29 R0.2779 AL 2.75 WI 31.8 MW  3.1 3
 SPEC ZAR HH E T131641 K 0.000 GD  251 VS 4.20 DE 3.20 Q0300.0 QA 0.60 VS 4.20 3
 SPEC PTB HH N MO 13.2 ST0.571 OM  1.5 f0 2.93 R0.5017 AL 0.93 WI 24.5 MW  2.8 3
 SPEC PTB HH N T131631 K 0.000 GD  208 VS 4.20 DE 3.20 Q0300.0 QA 0.60 VS 4.20 3
 SPEC NOR HH N MO 13.7 ST 13.4 OM  1.9 f0 5.62 R0.2616 AL 3.04 WI 27.3 MW  3.1 3
 SPEC NOR HH N T131646 K 0.000 GD  277 VS 4.20 DE 3.20 Q0300.0 QA 0.60 VS 4.20 3
 SPEC OCA HH N MO 13.8 ST  6.0 OM  2.1 f0 4.00 R0.3675 AL 1.93 WI 23.5 MW  3.2 3
 SPEC OCA HH N T131633 K 0.000 GD  217 VS 4.20 DE 3.20 Q0300.0 QA 0.60 VS 4.20 3
 SPEC BRR HH N MO 13.5 ST  4.6 OM  1.9 f0 4.68 R0.3141 AL 2.83 WI 23.5 MW  2.9 3
 SPEC BRR HH N T131622 K 0.000 GD  163 VS 4.20 DE 3.20 Q0300.0 QA 0.60 VS 4.20 3
 ACTION:UPD 13-04-09 14:00 OP:ep   STATUS:               ID:20130305131544 L   I
 2013-03-05-1308-49M.COL___202                                                 6
 STAT SP IPHASW D HRMM SECON CODA AMPLIT PERI AZIMU VELO AIN AR TRES W  DIS CAZ7
 BAR2 SZ IP       1316  4.12                             171   -0.0710 24.0 189 
 BAR2 SZ I        1316  4.45        58.1 0.34            169           24.0 189 
 BAR2 SZ ES       1316 19.67                             171    0.0410 24.0 189 
 BRR  HZ IP     C 1316  6.00                             153    0.3610 70.6 298 
 BRR  HZ I        1316  6.27        60.4 0.26            152           70.6 298 
 BRR  HN ES       1316 23.16                             153    0.9410 70.6 298 
 BRR  HE I        1316 24.29        67.3 0.20            152           70.6 298 
 PAM  SZ EP       1316  6.93                             151    0.2110 77.0  40 
 PAM  SZ I        1316  7.24        34.6 0.24            154           77.0  40 
 PAM  SN ES       1316 24.12                             151   -0.0210 77.0  40 
 RUS  HZ EP       1316  8.26                             144   -0.0610  101 176 
 RUS  HN ES       1316 26.56                             144   -0.4210  101 176 
 PTB  HZ EP       1316 10.73                             132   -0.72 9  148 259 
 PTB  HE ES       1316 31.91                             132   -0.64 9  148 259 
 PTB  HN I        1316 37.36        38.3 0.28            132            148 259 
 TAM  HZ IP     C 1316 12.28                             131    0.07 9  156 105 
 TAM  HZ I        1316 12.40        18.2 0.36            133            156 105 
 TAM  HN ES       1316 33.82                             131   -0.09 9  156 105 
 OCA  HN ES   2   1316 33.83                             130   -1.00 5  160 353 
 OCA  HE I        1316 37.35        87.3 0.22            131            160 353 
 ZAR  HZ EP       1316 17.46                             123    0.60 9  204 292 
 ZAR  HE ES       1316 42.42                             123    0.23 9  204 292 
 NOR  HZ EP       1316 20.14                             119   -0.07 8  235 234 
 NOR  HN ES       1316 47.58                             119   -0.57 8  235 234 
 NOR  HE I        1316 55.01        21.1 0.20            119            235 234 
 SML  HZ EP       1316 20.65                             118   -0.36 8  243 335 
 SML  HN ES   2   1316 48.77                             118   -0.79 4  243 335 
 CHI  HZ EP       1316 22.37                             117    0.14 8  249 195 
 CHI  HE ES       1316 52.25                             117    0.51 8  249 195 
 CHI  HN I        1316 54.10         8.8 0.54            118            249 195 
 RREF HZ EP   2   1316 32.05                             111    1.43 3  322 229 
 RREF HN ES       1317  6.57                             111   -0.10 7  322 229 
 RREF HZ I        1317 12.23         8.0 0.24            111            322 229 
 PRA  HZ EP       1316 38.45                             107    0.44 6  392 209 
 PRA  HZ I        1316 39.77         5.2 0.20            107            392 209 
 PRA  HN ES       1317 19.72                             107   -0.11 6  392 209 
 SJC  HE EP   3   1316 38.24                             106   -1.67 1  408 327 
                                                                                
