 2017  3 5 1347 56.8 L   6.820 -73.105142.0  RSN  5 0.3 1.5LRSN                1
 GAP=243        0.78       5.6     6.6  7.1  0.1857E+02  0.1072E+02 -0.8412E+01E
 Epicentro: LOS SANTOS - SANTANDER                                             3
 ACTION:UPD 17-05-25 18:36 OP:jn   STATUS:               ID:20170305134756 L   I
 OLDACT:UP  17-03-05 22:59 OP:dani STATUS:               ID:20170305134741     3
 OLDACT:REG 17-03-05 20:29 OP:dani STATUS:               ID:20170305134741     3
 2017-03-05-1348-00M.COL___390                                                 6
 STAT SP IPHASW D HRMM SECON CODA AMPLIT PERI AZIMU VELO AIN AR TRES W  DIS CAZ7
 BAR2 EZ EP       1348 16.12                             169    0.0610 26.6 199 
 BAR2 EZ ES       1348 30.62                             169   -0.4510 26.6 199 
 BAR2 EZ I        1348 33.13         7.1 0.50            165           26.6 199 
 BRR  HZ EP       1348 17.87                             151    0.1410 74.2 295 
 BRR  HE ES   4   1348 31.07                             151   -2.98 0 74.2 295 
 RUS  HZ EP       1348 20.53                             142    0.1910  103 179 
 RUS  HN ES       1348 39.02                             142    0.3310  103 179 
 RUS  HZ I        1348 39.93         4.0 0.25            144            103 179 
 SPBC HZ EP   1   1348 24.61                             127   -0.85 7  168 220 
 SPBC HN ES   1   1348 47.82                             127    0.01 7  168 220 
 SPBC HZ I        1348 50.80         6.1 0.13            127            168 220 
 ZAR  HZ EP       1348 29.34                             121   -0.03 8  207 291 
 ZAR  HN ES       1348 54.96                             121    0.20 8  207 291 
 ZAR  HZ I        1349  0.51         3.2 0.28            121            207 291 
                                                                                
