 2014  3 5 1753 44.0 L   6.790 -73.163145.8  RSN  5 0.3 1.6LRSN                1
 GAP=135        0.88       4.7     4.5  6.5 -0.2015E+01  0.3534E+01  0.1377E+01E
 Epicentro: LOS SANTOS - SANTANDER                                             3
 ACTION:UPD 14-04-09 23:14 OP:nd   STATUS:               ID:20140305175344 L   I
 OLDACT:REG 14-03-05 15:36 OP:stll STATUS:               ID:20140305174814     3
 2014-03-05-1748-14M.COL___237                                                 6
 STAT SP IPHASW D HRMM SECON CODA AMPLIT PERI AZIMU VELO AIN AR TRES W  DIS CAZ7
 BAR2 SZ EP       1754  3.52                             171   -0.0510 22.0 185 
 BAR2 SZ I        1754  4.09        17.3 0.40            170           22.0 185 
 BAR2 SZ ES       1754 19.32                             171    0.4610 22.0 185 
 BRR  HZ EP       1754  5.46                             153    0.4110 70.0 300 
 BRR  HE ES       1754 21.59                             153    0.1010 70.0 300 
 PAM  SZ EP       1754  6.63                             150    0.3310 79.5  40 
 PAM  SZ I        1754  6.73         7.8 0.22            152           79.5  40 
 PAM  SN ES       1754 23.15                             150   -0.5810 79.5  40 
 RUS  HZ EP       1754  7.71                             144    0.0610 99.7 175 
 RUS  HN ES       1754 25.94                             144   -0.1910 99.7 175 
 RUS  HZ I        1754 27.09         4.4 0.26            144           99.7 175 
 PTB  HZ EP       1754 10.32                             132   -0.42 9  146 259 
 PTB  HN ES       1754 31.43                             132   -0.19 9  146 259 
 PTB  HZ I        1754 36.41         5.6 0.28            131            146 259 
                                                                                
