 2011  1 5 1230 46.5 L   6.049 -73.698111.7  RSN  6 0.4 1.8LRSN                1
 GAP=129        0.69       5.2     4.5 11.0 -0.4696E+01  0.2665E+02  0.6609E+01E
 Epicentro: BOLIVAR - SANTANDER                                                3
 ACTION:UP  11-02-08 08:38 OP:pat  STATUS:               ID:20110105123046 L   I
 2011-01-05-1220-00M.COL___136                                                 6
 STAT SP IPHASW D HRMM SECON CODA AMPLIT PERI AZIMU VELO SNR AR TRES W  DIS CAZ7
 RUS  HZ EP   1   1231  4.73                             146     0.0 7   70 104 
 RUS  HN ES   2   1231 18.58                             146    -0.4 5   70 104 
 RUS  HZ I        1231 24.19        10.3 0.63                            70 104 
 BAR2 SZ EP   1   1231  5.51                             141     0.2 7   83  43 
 BAR2 SZ ES   2   1231 20.20                             141     0.2 5   83  43 
 BAR2 SZ I        1231 21.69        53.4 0.26                            83  43 
 NOR  SZ EP   1   1231 10.11                             124    -0.2 7  141 248 
 NOR  SN ES   2   1231 29.31                             124     0.5 5  141 248 
 CHI  HZ EP   1   1231 12.07                             121    -0.4 7  157 181 
 CHI  HZ I        1231 12.67         5.2 0.34                           157 181 
 CHI  HE ES   2   1231 32.97                             121     0.3 5  157 181 
 HEL  HZ EP   1   1231 17.21                             114    -0.2 6  203 275 
 HEL  HE ES   2   1231 40.82                             114    -0.6 4  203 275 
 HEL  HZ I        1231 46.57         5.1 0.54                           203 275 
 RREF HZ EP   1   1231 20.59                             112     0.7 6  222 235 
 RREF HN ES   2   1231 45.76                             112    -0.1 4  222 235 
 RREF HZ I        1231 52.79         6.9 0.31                           222 235 
                                                                                
