 2012 10 5 1029 35.6 L   6.775 -73.089148.0  RSN  5 0.2 1.7LRSN                1
 GAP=145        0.39       2.6     3.8  4.0 -0.2198E+00 -0.9890E+00  0.9730E+00E
 Epicentro: LOS SANTOS - SANTANDER                                             3
 ACTION:UPD 12-11-22 17:02 OP:ep   STATUS:               ID:20121005102935 L   I
 2012-10-05-1028-15M.COL___183                                                 6
 STAT SP IPHASW D HRMM SECON CODA AMPLIT PERI AZIMU VELO AIN AR TRES W  DIS CAZ7
 BAR2 SZ EP       1029 55.37                             171   -0.1510 22.7 207 
 BAR2 SZ ES   2   1030 10.60                             171   -0.43 5 22.7 207 
 BAR2 SZ I        1030 11.88        18.3 0.20                          22.7 207 
 GIR2 SZ EP   3   1029 55.72                             166    0.03 2 35.5 341 
 GIR2 SZ ES   3   1030 11.30                             166   -0.03 2 35.5 341 
 PAM  SZ EP       1029 58.06                             152    0.0610 75.8  35 
 PAM  SZ I        1029 59.06         2.5 0.32                          75.8  35 
 PAM  SN ES   1   1030 15.47                             152    0.03 7 75.8  35 
 BRR  HZ EP       1029 57.50                             151    0.0810 78.0 298 
 BRR  HN ES   1   1030 14.44                             151    0.04 7 78.0 298 
 BRR  HN I        1030 15.22        29.0 0.22                          78.0 298 
 RUS  HZ EP       1029 59.31                             145   -0.0910 97.6 180 
 RUS  HN ES   1   1030 18.22                             145    0.29 7 97.6 180 
 RUS  HN I        1030 19.89         3.6 0.34                          97.6 180 
                                                                                
