 2015 11 5 1546 58.1 L   6.819 -73.110142.0  RSN 14 0.5 2.4LRSN                1
 GAP=140        0.74       3.1     4.0  4.9 -0.1658E+01  0.5600E+01  0.2620E+01E
 Epicentro: LOS SANTOS - SANTANDER                                             3
 ACTION:UPD 15-12-28 16:08 OP:cam  STATUS:               ID:20151105154658 L   I
 OLDACT:REG 15-11-05 20:37 OP:ar   STATUS:               ID:20151105153750     3
 2015-11-05-1537-50M.COL___310                                                 6
 STAT SP IPHASW D HRMM SECON CODA AMPLIT PERI AZIMU VELO AIN AR TRES W  DIS CAZ7
 BAR2 EZ EP     C 1547 17.01                             169   -0.3110 26.3 198 
 BAR2 EZ ES       1547 32.02                             169   -0.3110 26.3 198 
 BAR2 EZ I        1547 32.82        52.5 0.34            167           26.3 198 
 PAM  EZ EP       1547 19.75                             152    0.1010 73.3  38 
 PAM  EN ES       1547 36.76                             152    0.2810 73.3  38 
 PAM  EZ I        1547 38.80        44.9 0.48            154           73.3  38 
 BRR  HZ EP     C 1547 18.78                             151   -0.1910 73.7 296 
 BRR  HE ES       1547 35.74                             151    0.4810 73.7 296 
 BRR  HZ I        1547 37.96        32.7 0.34            149           73.7 296 
 RUS  HZ EP       1547 21.49                             143   -0.1110  102 178 
 RUS  HN ES       1547 40.17                             143    0.2210  102 178 
 RUS  HZ I        1547 41.51        23.8 0.18            143            102 178 
 OCA  HE ES   2   1547 46.70                             129   -0.99 5  159 352 
 OCA  HZ I        1547 52.79        48.4 0.50            130            159 352 
 SPBC HZ EP   2   1547 26.50                             128   -0.18 5  167 220 
 SPBC HE ES   2   1547 48.78                             128   -0.21 5  167 220 
 SPBC HZ I        1547 51.68        36.7 0.12            127            167 220 
 ZAR  HZ EP   2   1547 31.37                             121    0.79 4  207 291 
 ZAR  HN ES   2   1547 55.08                             121   -0.84 4  207 291 
 ZAR  HZ I        1548  0.43        29.8 0.34            121            207 291 
 NOR  HZ EP   2   1547 33.45                             117   -0.61 4  239 235 
 NOR  HN ES   2   1548  1.39                             117   -0.74 4  239 235 
 NOR  HZ I        1548  3.62        16.8 0.16            117            239 235 
 CHI  HZ EP   2   1547 35.64                             116   -0.26 4  252 196 
 CHI  HN ES   2   1548  5.85                             116    0.44 4  252 196 
 CHI  HZ I        1548 12.47         9.7 0.38            116            252 196 
 HEL  HZ EP   2   1547 39.73                             114    1.15 4  276 256 
 HEL  HE ES   2   1548 10.21                             114    0.04 4  276 256 
 HEL  HZ I        1548 14.71        12.4 0.28            113            276 256 
 URE  HE ES   4   1548  7.76                             113   -3.67 0  287 291 
 URE  HZ I        1548 12.21        16.7 0.36            112            287 291 
 GUY2CHZ EP   2   1547 42.45                             111    0.44 4  306 235 
 GUY2CHN ES   2   1548 17.08                             111    0.80 4  306 235 
 GUY2CHZ I        1548 25.18         9.0 0.48                           306 235 
 MON  HN ES   4   1548 22.48                             108   -2.93 0  355 308 
 MON  HZ I        1548 25.01         5.6 0.44            108            355 308 
 ORTC HZ EP   2   1547 51.74                             106   -0.60 3  399 216 
 ORTC HE ES   2   1548 35.22                             106    0.56 3  399 216 
 ORTC HZ I        1548 41.38         6.3 0.22            106            399 216 
                                                                                
