 2015  4 5 1308 46.2 L   6.869 -73.420111.2  RSN 12 0.5 2.1LRSN                1
 GAP= 83        1.18       2.8     3.5  6.2 -0.2115E+01  0.8171E+01 -0.1066E+01E
 Epicentro: SAN VICENTE DE CHUCURI - SANTANDER                                 3
 ACTION:UPD 15-06-03 16:52 OP:cam  STATUS:               ID:20150405130846 L   I
 OLDACT:REG 15-04-05 20:40 OP:fm   STATUS:               ID:20150405130750     3
 2015-04-05-1307-50M.COL___270                                                 6
 STAT SP IPHASW D HRMM SECON CODA AMPLIT PERI AZIMU VELO AIN AR TRES W  DIS CAZ7
 BAR2 EZ IP     C 13 9  2.73                             159    0.4210 40.3 139 
 BAR2 EZ ES       13 9 14.96                             159    0.1010 40.3 139 
 BAR2 EZ I        13 9 16.55        48.1 0.16            166           40.3 139 
 BRR  HZ EP       13 9  2.49                             158    0.4710 41.6 309 
 BRR  HE ES       13 9 15.13                             158    0.7910 41.6 309 
 BRR  HZ I        13 9 22.93        10.7 0.16            156           41.6 309 
 PAM  SZ EP       13 9  6.53                             137    0.2510 95.1  57 
 PAM  SN ES       13 9 22.14                             137    0.2010 95.1  57 
 PAM  SZ I        13 9 24.45        11.4 0.24            145           95.1  57 
 RUS  HZ EP       13 9  8.10                             131    0.1310  114 161 
 RUS  HE ES       13 9 24.41                             131   -0.5210  114 161 
 RUS  HZ I        13 9 26.52         7.1 0.16            138            114 161 
 PTB  HZ IP     D 13 9  7.42                             129   -0.4710  120 252 
 PTB  HE ES       13 9 23.96                             129   -0.8310  120 252 
 PTB  HZ I        13 9 28.62        27.7 0.16            132            120 252 
 OCA  HZ EP       13 9 10.55                             122   -0.67 9  152   4 
 OCA  HN ES       13 9 29.96                             122   -0.77 9  152   4 
 OCA  HZ I        13 9 31.49        40.1 0.26            127            152   4 
 SPBC HZ EP       13 9 11.10                             122   -0.12 9  153 208 
 SPBC HN ES       13 9 29.99                             122   -0.73 9  153 208 
 SPBC HZ I        13 9 37.80        22.3 0.20            127            153 208 
 ZAR  HZ EP       13 9 13.84                             118    0.56 9  173 294 
 ZAR  HN ES       13 9 34.72                             118    0.34 9  173 294 
 ZAR  HZ I        13 9 39.05        22.8 0.40            121            173 294 
 NOR  HZ EP       13 9 18.70                             112    0.66 8  216 228 
 NOR  HE ES       13 9 43.08                             112    0.21 8  216 228 
 NOR  HZ I        13 9 48.02        14.0 0.24            116            216 228 
 SML  HZ EP       13 9 18.86                             111   -0.21 8  225 341 
 SML  HN ES       13 9 44.50                             111   -0.20 8  225 341 
 SML  HZ I        13 9 53.93        24.6 0.10            115            225 341 
 HEL  HZ EP       13 9 22.08                             109    0.30 8  245 252 
 HEL  HE ES       13 9 49.36                             109   -0.15 8  245 252 
 HEL  HZ I        13 9 55.67         7.9 0.48            113            245 252 
 GUY2CHZ EP       13 9 26.41                             106    0.22 7  282 230 
 GUY2CHE ES       13 9 57.51                             106    0.13 7  282 230 
 GUY2CHZ I        1310  5.14         6.5 0.44                           282 230 
                                                                                
