 2015  4 5 1222 39.9 L   6.786 -73.150141.6  RSN  5 0.4 1.3LRSN                1
 GAP=137        1.05       5.2     4.7  8.4  0.2032E+01  0.9595E+01  0.1603E+01E
 Epicentro: LOS SANTOS - SANTANDER                                             3
 ACTION:UPD 15-06-03 16:52 OP:cam  STATUS:               ID:20150405122239 L   I
 OLDACT:REG 15-04-05 20:36 OP:fm   STATUS:               ID:20150405121750     3
 2015-04-05-1217-50M.COL___278                                                 6
 STAT SP IPHASW D HRMM SECON CODA AMPLIT PERI AZIMU VELO AIN AR TRES W  DIS CAZ7
 BRR  HZ EP       1223  0.47                             152   -0.1410 71.5 300 
 BRR  HN ES       1223 17.14                             152    0.3710 71.5 300 
 BRR  HZ I        1223 18.64         3.4 0.14            150           71.5 300 
 PAM  SZ EP       1223  1.50                             150   -0.2510 78.9  39 
 PAM  SN ES       1223 18.66                             150   -0.1410 78.9  39 
 PAM  SZ I        1223 20.73         5.3 0.56            155           78.9  39 
 RUS  HZ EP       1223  3.65                             143    0.5210 99.1 176 
 RUS  HN ES       1223 21.24                             143   -0.0110 99.1 176 
 RUS  HZ I        1223 23.40         1.3 0.36            146           99.1 176 
 PTB  HZ EP       1223  5.68                             131   -0.77 9  147 259 
 PTB  HE ES       1223 26.84                             131   -0.33 9  147 259 
 PTB  HZ I        1223 34.85         2.7 0.44            132            147 259 
 ZAR  HZ EP       1223 12.83                             121    0.75 9  204 293 
 ZAR  HE ES       1223 37.28                             121    0.09 9  204 293 
 ZAR  HZ I        1223 43.64         2.8 0.30            123            204 293 
                                                                                
