 2015  7 5 1138 22.5 L   6.928 -73.015137.3  RSN  5 0.2 1.7LRSN                1
 GAP=213        0.46       5.8     6.3  5.0  0.3020E+02 -0.1466E+01 -0.9823E+01E
 Epicentro: PIEDECUESTA - SANTANDER                                            3
 ACTION:UPD 15-09-08 21:47 OP:cam  STATUS:               ID:20150705113824 L   I
 OLDACT:UP  15-07-08 23:28 OP:cam  STATUS:               ID:20150705113824 L   3
 OLDACT:UP  15-07-08 23:27 OP:cam  STATUS:               ID:20150705113824 L   3
 OLDACT:UP  15-07-08 23:27 OP:cam  STATUS:               ID:20150705113824 L   3
 OLDACT:UP  15-07-08 23:26 OP:cam  STATUS:               ID:20150705113824 L   3
 OLDACT:UP  15-07-08 10:50 OP:Mher STATUS:               ID:20150705113824 L   3
 OLDACT:UP  15-07-05 21:17 OP:mh   STATUS:               ID:20150705113747     3
 OLDACT:UP  15-07-05 21:17 OP:mh   STATUS:               ID:20150705113747     3
 OLDACT:REG 15-07-05 20:32 OP:mh   STATUS:               ID:20150705113747     3
 2015-07-05-1137-47M.COL___334                                                 6
 STAT SP IPHASW D HRMM SECON CODA AMPLIT PERI AZIMU VELO AIN AR TRES W  DIS CAZ7
 BAR2 EZ EP       1138 41.84                             162    0.2110 41.4 206 
 BAR2 EZ ES       1138 56.46                             162   -0.1110 41.4 206 
 BAR2 EZ I        1138 58.42        13.4 0.27            180           41.4 206 
 RUS  HZ EP   1   1138 46.47                             138   -0.06 7  115 184 
 RUS  HN ES       1139  5.22                             138   -0.0510  115 184 
 RUS  HZ I        1139  5.31         4.9 0.24            150            115 184 
 ZAR  HZ EP   1   1138 55.38                             119    0.05 6  213 287 
 ZAR  HN ES       1139 21.06                             119    0.11 8  213 287 
 ZAR  HZ I        1139 26.87         6.4 0.40            122            213 287 
 SML  HZ EP   9   1138 58.61                             116    0.62 0  238 331 
 SML  HN ES   2   1139 26.84                                    0.54 4  238 331 
 SML  HZ I        1139 37.98         4.7 0.22            115            238 331 
 MON  HN ES   1   1139 49.28                             107   -0.51 5  357 305 
 MON  HZ I        1139 51.05         1.3 0.56            108            357 305 
                                                                                
