 2017  1 5 1615 51.2 L   6.785 -73.148150.0  RSN  6 0.2 1.5LRSN                1
 GAP=137        0.56       3.2     2.9  4.8  0.1148E+01  0.4833E+01  0.8977E+00E
 Epicentro: LOS SANTOS - SANTANDER                                             3
 ACTION:UPD 17-05-22 15:55 OP:jn   STATUS:               ID:20170105161551 L   I
 OLDACT:REG 17-01-05 20:37 OP:dnl  STATUS:               ID:20170105160744     3
 2017-01-05-1608-00M.COL___375                                                 6
 STAT SP IPHASW D HRMM SECON CODA AMPLIT PERI AZIMU VELO AIN AR TRES W  DIS CAZ7
 BAR2 EZ EP       1616 11.09                             171   -0.2010 21.7 190 
 BAR2 EZ ES       1616 26.98                             171    0.0010 21.7 190 
 BAR2 EZ I        1616 28.69         6.1 0.38            171           21.7 190 
 BRR  HZ EP   2   1616 13.22                             153    0.40 5 71.8 300 
 BRR  HN ES   2   1616 29.18                             153   -0.52 5 71.8 300 
 BRR  HZ I        1616 35.82        13.2 0.28            150           71.8 300 
 PAM  EZ EP   2   1616 13.80                             151   -0.13 5 78.8  39 
 PAM  EE ES       1616 31.82                             151    0.1410 78.8  39 
 PAM  EZ I        1616 33.65         6.8 0.70            155           78.8  39 
 RUS  HZ EP       1616 15.44                             145    0.2010 99.0 176 
 RUS  HE ES       1616 33.98                             145   -0.0310 99.0 176 
 RUS  HZ I        1616 35.95         1.8 0.28            150           99.0 176 
 PTB  HZ EP       1616 18.06                             133   -0.39 9  147 259 
 PTB  HE ES       1616 40.02                             133    0.30 9  147 259 
 PTB  HZ I        1616 45.08         4.9 0.32            134            147 259 
 ZAR  HE ES       1616 49.55                             123    0.05 9  204 293 
 ZAR  HZ I        1616 57.40         3.9 0.28            124            204 293 
                                                                                
