 2014 11 5 1433 42.4 L   6.768 -73.440125.6  RSN  4 0.3 1.1LRSN                1
 GAP=163        0.92       6.5     5.5  7.7  0.1657E+02  0.8684E+01  0.1071E+02E
 Epicentro: EL CARMEN - SANTANDER                                              3
 ACTION:UPD 14-12-19 15:39 OP:nd   STATUS:               ID:20141105143342 L   I
 OLDACT:REG 14-11-05 23:47 OP:carl STATUS:               ID:20141105142748     3
 2014-11-05-1427-48M.COL___275                                                 6
 STAT SP IPHASW D HRMM SECON CODA AMPLIT PERI AZIMU VELO AIN AR TRES W  DIS CAZ7
 BAR2 SZ EP       1433 59.92                             164    0.0210 34.5 124 
 BAR2 SZ ES       1434 12.98                             164   -0.6010 34.5 124 
 BAR2 SZ I        1434 14.09         8.6 0.30            153           34.5 124 
 BRR  HZ EP       1434  0.41                             158    0.3110 48.1 321 
 BRR  HN ES       1434 14.18                             158    0.2610 48.1 321 
 RUS  HZ EP       1434  4.24                             138   -0.2710  105 158 
 RUS  HN ES       1434 22.35                             138    0.5610  105 158 
 RUS  HZ I        1434 35.01         1.0 0.42            131            105 158 
 PTB  HZ EP       1434  4.56                             135   -0.1910  115 257 
 PTB  HN ES       1434 22.12                             135   -0.0910  115 257 
 PTB  HZ I        1434 27.82         2.8 0.58            130            115 257 
                                                                                
