 2013  9 5 1105 55.9 L   7.432 -73.210131.0  RSN  9 0.5 1.9LRSN                1
 GAP=132        1.11       4.8     5.4  8.3  0.3973E+01  0.1333E+02 -0.4108E+01E
 Epicentro: EL PLAYON - SANTANDER                                              3
 ACTION:UPD 13-10-22 09:20 OP:ep   STATUS:               ID:20130905110555 L   I
 OLDACT:REG 13-09-05 14:36 OP:jn   STATUS:               ID:20130905105959     3
 2013-09-05-1059-59M.COL___269                                                 6
 STAT SP IPHASW D HRMM SECON CODA AMPLIT PERI AZIMU VELO AIN AR TRES W  DIS CAZ7
 PAM  SZ EP       11 6 15.88                             155    0.5310 57.3 100 
 PAM  SN ES       11 6 30.42                             155   -0.1410 57.3 100 
 PAM  SZ I        11 6 33.06         9.8 0.60            146           57.3 100 
 BRR  HZ EP       11 6 15.57                             152    0.4510 66.0 237 
 BRR  HE ES   1   11 6 30.80                             152    0.65 7 66.0 237 
 BRR  HZ I        11 6 31.54        26.2 0.26            138           66.0 237 
 BAR2 SZ EP       11 6 17.43                             142    0.1810 92.9 178 
 BAR2 SZ ES       11 6 33.51                             142   -0.4210 92.9 178 
 BAR2 SZ I        11 6 34.87        18.5 0.36            128           92.9 178 
 PTB  HZ EP   1   11 6 23.30                             124   -0.49 7  169 234 
 PTB  HN ES   1   11 6 44.71                             124   -0.87 7  169 234 
 PTB  HZ I        11 6 49.51         7.9 0.42            112            169 234 
 RUS  HZ EP       11 6 24.51                             124   -0.05 9  171 175 
 RUS  HN ES   1   11 6 46.51                             124   -0.44 7  171 175 
 RUS  HZ I        11 6 48.64         3.0 0.26            112            171 175 
 SML  HZ EP       11 6 24.39                             123   -0.32 9  179 328 
 SML  HE ES   1   11 6 46.33                             123   -0.88 7  179 328 
 SML  HZ I        11 6 47.75        13.7 0.10            113            179 328 
 ZAR  HN ES   1   11 6 48.72                             122    0.87 7  182 272 
 ZAR  HZ I        11 6 53.29        10.7 0.30            112            182 272 
 URE  HN ES   4   11 7  0.93                             113   -1.75 0  259 278 
 URE  HZ I        11 7  3.16         4.4 0.38            105            259 278 
 NOR  HZ EP   1   11 6 35.94                             111    0.50 6  276 222 
 NOR  HZ I        11 7 15.26         4.0 0.42            103            276 222 
                                                                                
