 2013  5 5 1044 49.8 L   6.785 -73.159140.7  RSN 13 0.5 2.4LRSN                1
 GAP=136        0.97       3.5     4.1  6.1 -0.1090E+01  0.5272E+01  0.1938E+01E
 Epicentro: LOS SANTOS - SANTANDER                                             3
 ACTION:UPD 13-06-20 09:48 OP:ep   STATUS:               ID:20130505104449 L   I
 2013-05-05-1040-00M.COL___253                                                 6
 STAT SP IPHASW D HRMM SECON CODA AMPLIT PERI AZIMU VELO AIN AR TRES W  DIS CAZ7
 BAR2 SZ EP       1045  8.97                             171    0.1810 21.5 187 
 BAR2 SZ ES   1   1045 23.77                             171    0.17 7 21.5 187 
 BAR2 SZ I        1045 25.03        52.8 0.20            168           21.5 187 
 GIR2 SZ EP   1   1045  9.04                             166    0.12 7 32.7 353 
 GIR2 SZ ES   1   1045 23.33                             166   -0.49 7 32.7 353 
 GIR2 SZ I        1045 25.27        28.2 0.38            166           32.7 353 
 BRR  HZ IP     C 1045 10.85                             152    0.4710 70.8 300 
 BRR  HN ES       1045 27.21                             152    0.7810 70.8 300 
 BRR  HZ I        1045 30.49        23.5 0.22            149           70.8 300 
 PAM  SZ EP     D 1045 11.96                             149    0.3410 79.5  40 
 PAM  SN ES   1   1045 28.44                             149   -0.19 7 79.5  40 
 PAM  SN I        1045 29.74        38.6 0.36            155           79.5  40 
 RUS  HZ EP     D 1045 13.08                             143    0.1310 99.1 175 
 RUS  HN ES   1   1045 30.16                             143   -0.84 7 99.1 175 
 RUS  HN I        1045 33.10        13.8 0.42            144           99.1 175 
 PTB  HZ EP   1   1045 15.92                             131   -0.29 7  146 259 
 PTB  HN ES   1   1045 36.00                             131   -0.80 7  146 259 
 PTB  HN I        1045 41.72        42.2 0.26            130            146 259 
 OCA  HZ EP   1   1045 17.06                             128   -0.81 7  162 354 
 OCA  HN ES   1   1045 39.31                             128   -0.44 7  162 354 
 OCA  HN I        1045 43.04        92.3 0.24            130            162 354 
 ZAR  HN ES       1045 46.76                             121   -0.09 9  203 293 
 ZAR  HN I        1045 51.51        41.0 0.50            121            203 293 
 NOR  HZ EP   1   1045 25.40                             118    0.38 6  233 235 
 NOR  HE ES   1   1045 52.36                             118   -0.12 6  233 235 
 NOR  HE I        1046  0.31        15.7 0.16            118            233 235 
 SML  HZ EP   1   1045 25.42                             116   -0.83 6  245 336 
 SML  HN ES   1   1045 54.84                             116    0.16 6  245 336 
 SML  HN I        1045 55.93        31.3 0.10            118            245 336 
 HEL  HZ EP   4   1045 30.85                             114    1.28 0  270 256 
 HEL  HE ES   1   1046  0.62                             114    0.04 6  270 256 
 HEL  HE I        1046  7.68         9.7 0.62            114            270 256 
 PRA  HZ EP   1   1045 43.66                             106    0.75 4  390 210 
 PRA  HN ES   1   1046 24.15                             106   -0.18 4  390 210 
 PRA  HN I        1046 29.34         6.4 0.44            107            390 210 
 SJC  HZ EP   4   1045 43.52                             105   -1.76 0  410 327 
 SJC  HE ES   4   1046 23.71                             105   -4.83 0  410 327 
 SJC  HE I        1046 27.70         8.0 0.34            106            410 327 
                                                                                
