 2012  2 5 1841 30.2 L   6.750 -73.119150.3  RSN  5 0.2 1.5LRSN                1
 GAP=190        0.54       5.1     6.2  5.7  0.1260E+02  0.1554E+00 -0.3880E+01E
 ACTION:UP  12-03-07 16:27 OP:epov STATUS:               ID:20120205184130 L   I
 2012-02-05-1840-00M.COL___188                                                 6
 STAT SP IPHASW D HRMM SECON CODA AMPLIT PERI AZIMU VELO SNR AR TRES W  DIS CAZ7
 BAR2 SZ ES   1   1842  5.59                             173   -0.34 7 18.8 202 
 BAR2 SZ I        1842  7.08         4.3 0.33                          18.8 202 
 GIR2 SZ EP       1841 50.77                             165    0.2310 37.3 347 
 BRR  HZ EP   1   1841 52.08                             152   -0.02 7 76.5 301 
 BRR  HE ES   1   1842  9.22                             152    0.01 7 76.5 301 
 BRR  HZ I        1842 13.96         8.0 0.43                          76.5 301 
 RUS  HZ EP   1   1841 53.58                             146   -0.38 7 94.9 178 
 RUS  HE ES   1   1842 12.88                             146    0.34 7 94.9 178 
 PTB  HZ EP   1   1841 57.63                             133   -0.04 7  150 261 
 PTB  HN ES   2   1842 19.19                             133    0.05 5  150 261 
                                                                                
