 2014 11 5 1042 59.4 L   7.086 -73.383122.9  RSN  4 0.1 1.7LRSN                1
 GAP=244        0.42       4.6     2.8  3.5  0.3741E+01  0.4580E+00  0.3058E+01E
 Epicentro: LEBRIJA - SANTANDER                                                3
 ACTION:UPD 14-12-19 15:39 OP:nd   STATUS:               ID:20141105104259 L   I
 OLDACT:REG 14-11-05 23:42 OP:carl STATUS:               ID:20141105103746     3
 2014-11-05-1037-46M.COL___271                                                 6
 STAT SP IPHASW D HRMM SECON CODA AMPLIT PERI AZIMU VELO AIN AR TRES W  DIS CAZ7
 BRR  HZ IP     D 1043 16.25                             162   -0.0510 36.5 274 
 BRR  HN ES       1043 29.42                             162   -0.0910 36.5 274 
 BRR  HZ I        1043 29.95        12.5 0.26            157           36.5 274 
 BAR2 SZ IP     C 1043 17.89                             153    0.2010 58.9 158 
 BAR2 SZ ES       1043 32.05                             153    0.0610 58.9 158 
 BAR2 SZ I        1043 32.92        24.2 0.28            149           58.9 158 
 PTB  HZ EP       1043 23.27                             129    0.1110  133 243 
 PTB  HN ES       1043 41.73                             129   -0.0010  133 243 
 PTB  HZ I        1043 46.30         4.0 0.46            127            133 243 
 RUS  HZ EP       1043 23.83                             129   -0.24 9  136 166 
                                                                                
