 2017  1 5 1319 30.2 L   7.096 -73.278128.5  RSN  5 0.4 1.3LRSN                1
 GAP=143        1.02       5.3     4.7  7.4  0.7241E+01  0.8244E+01  0.6404E+00E
 Epicentro: LEBRIJA - SANTANDER                                                3
 ACTION:UPD 17-05-22 15:55 OP:jn   STATUS:               ID:20170105131930 L   I
 OLDACT:REG 17-01-05 20:27 OP:dnl  STATUS:               ID:20170105131744     3
 2017-01-05-1318-00M.COL___374                                                 6
 STAT SP IPHASW D HRMM SECON CODA AMPLIT PERI AZIMU VELO AIN AR TRES W  DIS CAZ7
 BRR  HZ IP     C 1319 47.91                             158   -0.3710 47.9 272 
 BRR  HN ES       1320  2.62                             158    0.2610 47.9 272 
 BRR  HZ I        1320  3.80         6.8 0.26            157           47.9 272 
 BAR2 EZ IP     D 1319 49.12                             155    0.0610 56.7 169 
 BAR2 EZ ES       1320  4.18                             155    0.4410 56.7 169 
 PAM  EZ EP       1319 49.98                             150   -0.1610 69.4  67 
 PAM  EN ES       1320  5.56                             150   -0.1010 69.4  67 
 PAM  EZ I        1320  7.48         3.6 0.34            153           69.4  67 
 RUS  HZ EP       1319 55.51                             131    0.2510  135 171 
 RUS  HE ES       1320 14.26                             131   -0.5310  135 171 
 RUS  HZ I        1320 18.49         1.2 0.32            132            135 171 
 ZAR  HZ EP       1319 59.80                             122    0.74 9  180 284 
 ZAR  HE ES       1320 20.97                             122   -0.58 9  180 284 
 ZAR  HZ I        1320 26.59         3.5 0.32            122            180 284 
                                                                                
