 2013  2 5 1148  3.3 L   6.759 -73.087143.1  RSN  4 0.1 1.7LRSN                1
 GAP=146        0.31       2.2     3.1  3.3  0.1019E+00  0.2567E+00 -0.2470E+00E
 Epicentro: LOS SANTOS - SANTANDER                                             3
 ACTION:UPD 13-03-12 09:30 OP:ep   STATUS:               ID:20130205114803 L   I
 2013-02-05-1140-00M.COL___241                                                 6
 STAT SP IPHASW D HRMM SECON CODA AMPLIT PERI AZIMU VELO AIN AR TRES W  DIS CAZ7
 BAR2 SZ ES   1   1148 37.65                             171    0.05 7 21.2 210 
 BAR2 SZ I        1148 39.04        15.4 0.21            169           21.2 210 
 PAM  SZ EP   1   1148 25.37                             150    0.15 7 77.2  34 
 PAM  SE ES   1   1148 42.22                             150   -0.10 7 77.2  34 
 PAM  SZ I        1148 44.91         6.2 0.54            153           77.2  34 
 BRR  HZ EP       1148 24.59                             149   -0.0510 79.1 299 
 BRR  HE ES   1   1148 41.31                             149    0.03 7 79.1 299 
 BRR  HE I        1148 42.22        24.2 0.25            156           79.1 299 
 RUS  HZ EP   1   1148 26.40                             145   -0.05 7 95.8 180 
 RUS  HE ES   1   1148 44.50                             145    0.00 7 95.8 180 
 RUS  HE I        1148 49.98         2.5 0.25            144           95.8 180 
                                                                                
