 2012 12 5 1928 14.6 L   6.802 -73.161149.5  RSN  4 0.4 1.8LRSN                1
 GAP=243        0.93      10.0     7.6 10.8  0.4319E+02  0.1876E+02 -0.2669E+02E
 Epicentro: LOS SANTOS - SANTANDER                                             3
 ACTION:UPD 13-01-04 14:25 OP:ep   STATUS:               ID:20121205192814 L   I
 2012-12-05-1926-48M.COL___208                                                 6
 STAT SP IPHASW D HRMM SECON CODA AMPLIT PERI AZIMU VELO AIN AR TRES W  DIS CAZ7
 BAR2 SZ EP       1928 34.93                             171    0.3010 23.3 186 
 BAR2 SZ ES       1928 49.91                             171   -0.3810 23.3 186 
 BAR2 SZ I        1928 51.87        18.8 0.18                          23.3 186 
 RUS  HZ ES       1928 57.84                             144    0.3110  101 175 
 RUS  HZ I        1928 58.95         3.6 0.28                           101 175 
 PTB  HZ EP       1928 41.10                             133   -0.58 9  146 259 
 PTB  HN ES       1929  2.81                             133   -0.03 9  146 259 
 PTB  HN I        1929  7.98        13.6 0.40                           146 259 
 ZAR  HN ES       1929 12.86                             123    0.42 9  202 292 
                                                                                
