 2011 11 5 1338 39.7 L   6.256 -74.120 14.6  RSN  6 0.5 2.0LRSN                1
 GAP=118        0.98       4.1     3.6  7.3 -0.1515E+01  0.1628E+02  0.1005E+01E
 Epicentro: CIMITARRA - SANTANDER                                              3
 ACTION:UPD 12-07-13 16:08 OP:ep   STATUS:               ID:20111105133839 L   I
 2011-11-05-1337-00S.COL___174                                                 6
 STAT SP IPHASW D HRMM SECON CODA AMPLIT PERI AZIMU VELO AIN AR TRES W  DIS CAZ7
 BRR  HZ EP       1338 56.43                              96    0.2310  104  26 
 BRR  HE ES   1   1339  8.82                              96   -0.24 7  104  26 
 BRR  HZ I        1339 10.51        22.0 0.36                           104  26 
 BAR2 SZ EP       1338 57.65                              96    0.3310  110  70 
 BAR2 SZ ES   1   1339 10.11                              96   -0.96 7  110  70 
 BAR2 SZ I        1339 13.59        44.9 0.42                           110  70 
 RUS  HZ IP     D 1338 59.76                              96    0.4610  122 109 
 RUS  HN ES   1   1339 14.03                              96   -0.57 7  122 109 
 RUS  HZ I        1339 15.09        49.5 0.24                           122 109 
 HEL  HZ IP     D 1339  4.21                              56    0.21 9  156 267 
 HEL  HN ES   1   1339 22.19                              56   -0.76 7  156 267 
 HEL  HZ I        1339 22.90        23.3 0.42                           156 267 
 PAM  SZ EP       1339  9.33                              56    0.00 9  198  53 
 PAM  SN ES   1   1339 32.85                              56    0.40 6  198  53 
 RREF HZ EP   2   1339 10.11                              56    0.01 4  202 222 
 RREF HZ I        1339 43.85         4.8 0.32                           202 222 
                                                                                
