 2010 10 5 1839 24.9 L   6.766 -73.079150.9  RSN  8 0.3 2.1LRSN                1
 GAP=172        0.67       3.5     4.8  5.2 -0.2590E+00  0.2274E+01  0.2862E+01E
 Epicentro: LOS SANTOS - SANTANDER                                             3
 ACTION:UP  11-02-18 11:07 OP:tino STATUS:               ID:20101005183924 L   I
 2010-10-05-1837-12S.COL___122                                                 6
 STAT SP IPHASW D HRMM SECON CODA AMPLIT PERI AZIMU VELO SNR AR TRES W  DIS CAZ7
 BAR2 SZ EP       1839 45.02                             171    -0.110   22 211 
 BAR2 SZ ES   2   1840  0.39                             171    -0.6 5   22 211 
 BAR2 SZ I        1840  1.43        25.4 0.52                            22 211 
 BRR  HZ EP       1839 46.98                             151    -0.110   79 298 
 BRR  HN ES       1840  4.61                             151     0.210   79 298 
 BRR  HZ I        1840  7.12        23.4 0.42                            79 298 
 RUS  HZ EP       1839 49.27                             146     0.410   97 180 
 RUS  HN ES       1840  7.49                             146    -0.110   97 180 
 RUS  HZ I        1840  8.69        11.5 0.30                            97 180 
 GUE  SZ EP   1   1839 50.38                             140     0.1 7  119   8 
 NOR  SZ EP       1840  1.14                             119    -0.3 8  239 236 
 NOR  SN ES       1840 29.93                             119     0.1 8  239 236 
 CHI  HZ EP   1   1840  3.15                             118     0.4 6  247 197 
 CHI  HN ES   2   1840 32.70                             118     0.5 4  247 197 
 CHI  HZ I        1840 37.88         4.7 1.03                           247 197 
 RREF HZ EP   2   1840 11.77                             111     0.1 3  325 231 
 RREF HZ I        1840 54.91         6.7 0.17                           325 231 
 PRA  HZ EP   2   1840 17.52                             107    -1.2 3  392 211 
 PRA  HN ES   2   1841  0.26                             107    -0.3 3  392 211 
 PRA  HZ I        1841  5.23        12.4 0.10                           392 211 
                                                                                
