 2012 10 5 1605 29.8 L   6.801 -73.066150.7  RSN  4 0.2 1.0LRSN                1
 GAP=147        0.45       4.8     6.3  6.7  0.1178E+02 -0.8332E+00  0.1105E+02E
 Epicentro: LOS SANTOS - SANTANDER                                             3
 ACTION:UPD 12-11-22 17:02 OP:ep   STATUS:               ID:20121005160529 L   I
 2012-10-05-1600-00M.COL___222                                                 6
 STAT SP IPHASW D HRMM SECON CODA AMPLIT PERI AZIMU VELO AIN AR TRES W  DIS CAZ7
 BAR2 SZ EP       16 5 49.95                             170   -0.1310 26.5 209 
 PAM  SN ES   2   16 6  9.79                             153    0.06 5 72.0  34 
 PAM  SN I        16 6 11.52         6.6 0.42                          72.0  34 
 BRR  HZ EP       16 5 52.13                             151    0.2110 79.0 295 
 BRR  HN ES   1   16 6  9.00                             151   -0.18 7 79.0 295 
 RUS  HZ EP       16 5 53.94                             145   -0.0810  100 181 
 RUS  HZ I        16 5 55.02         0.4 0.42                           100 181 
 RUS  HN ES   2   16 6 13.23                             145    0.31 5  100 181 
                                                                                
