 2012 12 5 1012 37.7 L   6.796 -73.126138.9  RSN  6 0.4 1.8LRSN                1
 GAP=139        1.07       4.2     5.0  7.8 -0.2010E+01  0.1380E+02 -0.7398E+01E
 Epicentro: LOS SANTOS - SANTANDER                                             3
 ACTION:UPD 13-01-04 14:25 OP:ep   STATUS:               ID:20121205101237 L   I
 2012-12-05-1010-00M.COL___237                                                 6
 STAT SP IPHASW D HRMM SECON CODA AMPLIT PERI AZIMU VELO AIN AR TRES W  DIS CAZ7
 BAR2 SZ EP       1012 56.47                             170   -0.0310 23.4 195 
 BAR2 SZ ES       1013 11.13                             170   -0.0410 23.4 195 
 BAR2 SZ I        1013 12.40        12.1 0.22                          23.4 195 
 PAM  SZ EP       1012 59.45                             150    0.3310 76.4  38 
 PAM  SN ES       1013 15.93                             150    0.1010 76.4  38 
 PAM  SN I        1013 17.17        11.8 0.50                          76.4  38 
 RUS  HZ EP       1013  0.68                             142   -0.0510  100 177 
 RUS  HN ES       1013 18.56                             142   -0.1410  100 177 
 RUS  HN I        1013 19.13         6.1 0.42                           100 177 
 PTB  HZ EP       1013  3.45                             130   -0.85 9  150 259 
 PTB  HE ES       1013 25.68                             130    0.63 9  150 259 
 PTB  HN I        1013 27.19        10.4 0.26                           150 259 
 OCA  HZ EP       1013  6.22                             128    0.68 9  161 352 
 OCA  HN ES       1013 26.57                             128   -0.70 9  161 352 
 ZAR  HZ EP       1013  9.95                             120    0.03 8  206 292 
 ZAR  HN ES       1013 35.07                             120    0.00 8  206 292 
 ZAR  HN I        1013 41.07         8.3 0.32                           206 292 
                                                                                
