 2014  3 5 1424 55.6 L   6.760 -73.122137.1  RSN  7 0.4 1.8LRSN                1
 GAP=141        1.03       4.9     4.7  6.5 -0.6726E+01  0.9053E+01  0.5670E+01E
 Epicentro: LOS SANTOS - SANTANDER                                             3
 OLDACT:REG 14-03-05 15:28 OP:stll STATUS:               ID:20140305141815     3
 ACTION:UPD 14-04-09 23:14 OP:nd   STATUS:               ID:20140305142455 L   I
 OLDACT:UP  14-03-05 17:43 OP:stll STATUS:               ID:20140305141815     3
 2014-03-05-1418-15M.COL___238                                                 6
 STAT SP IPHASW D HRMM SECON CODA AMPLIT PERI AZIMU VELO AIN AR TRES W  DIS CAZ7
 BAR2 SZ IP     D 1425 14.17                             171    0.1010 19.7 200 
 BAR2 SZ ES       1425 28.17                             171   -0.3410 19.7 200 
 BAR2 SZ I        1425 30.08        32.0 0.48            170           19.7 200 
 BRR  HZ EP       1425 16.09                             149    0.0510 75.6 301 
 BRR  HN ES       1425 32.63                             149    0.6110 75.6 301 
 BRR  SZ I        1425 34.18        14.1 0.46            150           75.6 301 
 PAM  SZ EP       1425 17.11                             149    0.1410 79.3  36 
 PAM  SN ES       1425 33.62                             149   -0.0610 79.3  36 
 PAM  SZ I        1425 34.60         7.8 0.64            152           79.3  36 
 RUS  HZ EP       1425 17.73                             143   -0.3910 96.0 177 
 RUS  HN ES       1425 36.03                             143    0.3110 96.0 177 
 RUS  SZ I        1425 37.83         4.7 0.38            144           96.0 177 
 PTB  HZ EP       1425 21.20                             130   -0.79 9  150 261 
 PTB  HE ES       1425 42.04                             130   -0.57 9  150 261 
 PTB  SZ I        1425 44.53        11.0 0.18            130            150 261 
 NOR  HZ EP       1425 30.81                             117    0.06 8  234 236 
 NOR  HN ES       1425 58.30                             117    0.10 8  234 236 
 NOR  SZ I        1426  3.48         3.7 0.40            118            234 236 
 GUY2CHZ EP       1425 39.53                             111    0.80 7  301 236 
 GUY2CHN ES       1426 12.82                             111    0.42 7  301 236 
 GUY2CSZ I        1426 22.45         6.6 3.26                           301 236 
                                                                                
