 2015  4 5 1754 52.7 L   6.818 -73.148140.0  RSN 17 0.5 2.5LRSN                1
 GAP= 70        1.18       2.7     3.1  5.4 -0.4648E+00  0.5270E+01  0.5934E+00E
 Epicentro: LOS SANTOS - SANTANDER                                             3
 ACTION:UPD 15-06-03 16:52 OP:cam  STATUS:               ID:20150405175452 L   I
 OLDACT:REG 15-04-05 21:16 OP:fm   STATUS:               ID:20150405174750     3
 2015-04-05-1747-50M.COL___276                                                 6
 STAT SP IPHASW D HRMM SECON CODA AMPLIT PERI AZIMU VELO AIN AR TRES W  DIS CAZ7
 BAR2 EZ EP       1755 11.88                             169    0.2310 25.3 189 
 BAR2 EZ ES       1755 26.53                             169    0.0810 25.3 189 
 BAR2 EZ I        1755 27.65       104.1 0.18            170           25.3 189 
 BRR  HZ IP     C 1755 13.80                             152    0.6710 70.0 297 
 BRR  HN ES       1755 30.08                             152    0.9910 70.0 297 
 BRR  HZ I        1755 34.61        47.3 0.12            152           70.0 297 
 PAM  SZ IP     D 1755 14.80                             150    0.6110 76.0  41 
 PAM  SN ES       1755 31.22                             150    0.2410 76.0  41 
 PAM  SZ I        1755 34.06        66.0 0.56            153           76.0  41 
 RUS  HZ EP       1755 15.86                             142   -0.1510  103 176 
 RUS  HE ES       1755 33.69                             142   -0.5210  103 176 
 RUS  HZ I        1755 35.75        29.6 0.52            144            103 176 
 PTB  HZ EP       1755 18.58                             131   -0.61 9  148 258 
 PTB  HE ES       1755 39.81                             131   -0.06 9  148 258 
 PTB  HZ I        1755 42.32        46.2 0.16            132            148 258 
 TAM  HZ IP     D 1755 20.31                             129    0.34 9  156 106 
 TAM  HE ES       1755 40.51                             129   -0.75 9  156 106 
 TAM  HZ I        1755 42.29        20.7 0.24            132            156 106 
 OCA  HZ EP       1755 20.52                             129    0.17 9  158 353 
 OCA  HE ES       1755 41.20                             129   -0.73 9  158 353 
 OCA  HZ I        1755 45.39        71.4 0.40            131            158 353 
 SPBC HZ EP       1755 20.91                             127    0.04 9  165 218 
 SPBC HE ES       1755 42.71                             127   -0.15 9  165 218 
 SPBC HZ I        1755 44.76        33.7 0.14            129            165 218 
 ZAR  HZ EP       1755 25.01                             121    0.37 9  203 292 
 ZAR  HN ES       1755 49.83                             121    0.25 9  203 292 
 ZAR  HZ I        1755 52.62        26.4 0.46            123            203 292 
 NOR  HZ EP       1755 27.96                             117   -0.22 8  236 234 
 NOR  HE ES       1755 54.94                             117   -0.93 8  236 234 
 NOR  HZ I        1755 57.77        25.4 0.14            119            236 234 
 SML  HZ EP       1755 28.76                             116   -0.01 8  242 335 
 SML  HE ES       1755 55.65                             116   -1.27 8  242 335 
 SML  HZ I        1756  3.54        22.6 0.10            118            242 335 
 ROSC BZ EP       1755 30.33                             115   -0.33 8  254 211 
 ROSC BN ES       1756  0.50                             115    0.22 8  254 211 
 ROSC BZ I        1756  8.00        22.1 0.50            117            254 211 
 HEL  HZ EP       1755 32.80                             114    0.18 8  272 255 
 HEL  HE ES       1756  3.41                             114   -0.38 8  272 255 
 HEL  HZ I        1756 10.85        18.2 0.26            115            272 255 
 URE  HZ EP       1755 33.71                             113    0.35 7  283 292 
 URE  HE ES       1756  5.08                             113   -0.01 7  283 292 
 URE  HZ I        1756  5.96        19.8 0.16            114            283 292 
 GUY2CHZ EP       1755 36.67                             111    0.54 7  302 234 
 GUY2CHE ES       1756 10.19                             111    0.17 7  302 234 
 GUY2CHZ I        1756 17.25        16.3 0.26                           302 234 
 MON  HZ EP   4   1755 40.06                             108   -1.23 0  352 308 
 MON  HE ES       1756 18.64                             108   -0.57 6  352 308 
 MON  HZ I        1756 19.58         7.0 0.20            109            352 308 
 ORTC HZ EP       1755 46.90                             105    0.33 6  397 216 
 ORTC HE ES       1756 29.20                             105    0.59 6  397 216 
 ORTC HZ I        1756 33.46         5.6 0.64            107            397 216 
                                                                                
