 2011  9 5 1321 34.8 L   6.723 -73.204134.0  RSN  4 0.2 1.7LRSN                1
 GAP=169        0.49       6.2    11.0  5.2  0.5231E+02 -0.1074E+02 -0.6399E+01E
 Epicentro: VILLANUEVA - SANTANDER                                             3
 ACTION:UPD 12-07-13 15:55 OP:ep   STATUS:               ID:20110905132134 L   I
 2011-09-05-1317-06S.COL___163                                                 6
 STAT SP IPHASW D HRMM SECON CODA AMPLIT PERI AZIMU VELO AIN AR TRES W  DIS CAZ7
 BAR2 SZ EP   1   1321 52.60                             173   -0.27 7 14.7 170 
 BAR2 SZ ES       1322  7.13                             173    0.1710 14.7 170 
 BAR2 SZ I        1322  9.37        14.5 0.24                          14.7 170 
 GIR2 SZ EP   1   1321 53.22                             163   -0.13 7 39.3   2 
 BRR  HZ EP   1   1321 54.99                             151    0.34 7 70.3 307 
 BRR  HZ I        1322  2.35        19.3 0.47                          70.3 307 
 BRR  HE ES   1   1322  9.92                             151   -0.20 7 70.3 307 
 RUS  HZ EP   1   1321 56.93                             144    0.08 7 92.8 172 
 RUS  HN ES   1   1322 13.92                             144   -0.12 7 92.8 172 
 RUS  HZ I        1322 16.92         5.1 0.37                          92.8 172 
                                                                                
