 2010  9 5 1942 55.8 L   6.802 -73.014149.4  RSN  8 0.2 2.1LRSN                1
 GAP=173        0.43       2.3     5.0  4.2 -0.2529E+00  0.7089E+00 -0.3556E+00E
 Epicentro: CEPITA - SANTANDER                                                 3
 ACTION:UP  11-02-18 11:00 OP:tino STATUS:               ID:20100905194255 L   I
 2010-09-05-1939-27S.COL___120                                                 6
 STAT SP IPHASW D HRMM SECON CODA AMPLIT PERI AZIMU VELO SNR AR TRES W  DIS CAZ7
 BAR2 SZ EP   2   1943 16.16                             168     0.2 5   30 219 
 BAR2 SZ ES   2   1943 32.18                             168     0.4 5   30 219 
 BAR2 SZ I        1943 32.90        15.7 0.24                            30 219 
 BRR  HZ IP     C 1943 17.95                             149    -0.110   84 294 
 BRR  HZ I        1943 18.23        41.4 0.17                            84 294 
 BRR  HE ES   1   1943 35.34                             149    -0.2 7   84 294 
 RUS  HZ EP   1   1943 19.88                             144     0.0 7  101 184 
 RUS  HN ES   1   1943 38.66                             144    -0.1 7  101 184 
 RUS  HZ I        1943 39.68         6.0 0.26                           101 184 
 GRA  SZ EP   2   1943 20.97                             139    -0.1 5  122  11 
 GRA  SZ ES   2   1943 40.61                             139    -0.1 5  122  11 
 GRA  SZ I        1943 43.02        13.7 0.50                           122  11 
 OCA  SZ EP   1   1943 24.59                             130     0.0 7  162 348 
 OCA  SZ ES   2   1943 47.52                             130     0.5 5  162 348 
 OCA  SZ I        1943 51.41        13.2 0.37                           162 348 
 HEL  HZ EP   2   1943 38.17                             114     0.4 4  286 256 
 HEL  HZ I        1944 14.79         7.0 0.50                           286 256 
 GUY  SZ EP   2   1943 40.77                             112    -0.2 3  313 236 
 GUY  SZ I        1944 21.69        16.6 0.39                           313 236 
 PRA  HZ EP   2   1943 50.45                             107     0.1 3  400 211 
 PRA  HE ES   2   1944 33.10                             107     0.3 3  400 211 
 PRA  HZ I        1944 35.94         4.1 0.25                           400 211 
                                                                                
