 2012  5 5 1019  9.8 L   6.784 -73.164144.7  RSN  6 0.3 1.4LRSN                1
 GAP=135        0.86       5.6     4.8  9.4  0.5706E+00  0.4008E+01  0.2221E+01E
 Epicentro: LOS SANTOS - SANTANDER                                             3
 ACTION:UP  12-07-05 12:02 OP:pat  STATUS:               ID:20120505101909 L   I
 2012-05-05-1016-35M.COL___178                                                 6
 STAT SP IPHASW D HRMM SECON CODA AMPLIT PERI AZIMU VELO SNR AR TRES W  DIS CAZ7
 BAR2 SZ EP   1   1019 29.38                             171     0.1 7   21 185 
 BAR2 SZ I        1019 45.49         6.2 0.04                            21 185 
 BRR  HZ EP       1019 30.94                             153     0.210   70 301 
 BRR  HZ I        1019 31.29         7.5 0.12                            70 301 
 BRR  HN ES   1   1019 47.85                             153     0.7 7   70 301 
 PAM  SZ EP       1019 32.10                             150     0.110   80  40 
 PAM  SN ES   1   1019 48.82                             150    -0.6 7   80  40 
 RUS  HZ EP   1   1019 33.43                             144     0.1 7   99 175 
 RUS  HN ES   1   1019 51.62                             144     0.0 7   99 175 
 RUS  HZ I        1019 52.28         2.4 0.29                            99 175 
 PTB  HZ EP   1   1019 36.19                             132    -0.3 7  145 259 
 PTB  HN ES   1   1019 56.75                             132    -0.5 7  145 259 
 ZAR  HN ES   1   1020  7.04                             122    -0.1 6  203 293 
 ZAR  HZ I        1020 14.09         2.7 0.20                           203 293 
                                                                                
