 2010  7 5 1231 22.0 L   6.865 -73.051143.0  RSN  8 0.3 2.1LRSN                1
 GAP=174        0.56       3.3     4.7  5.1 -0.2447E+01 -0.2326E+01  0.2537E+01E
 Epicentro: LOS SANTOS - SANTANDER                                             3
 ACTION:UPD 10-12-01 15:15 OP:pat  STATUS:               ID:20100705123122 L   I
 2010-07-05-1229-03S.COL___118                                                 6
 STAT SP IPHASW D HRMM SECON CODA AMPLIT PERI AZIMU VELO AIN AR TRES W  DIS CAZ7
 BAR2 SZ EP       1231 41.42                             166    -0.110   34 206 
 BAR2 SZ ES   2   1231 56.47                             166    -0.3 5   34 206 
 BRR  HZ IP     D 1231 42.99                             150    -0.310   78 290 
 BRR  HZ I        1231 43.26        31.7 0.11                            78 290 
 BRR  HN ES       1232  0.01                             150     0.210   78 290 
 GUE  SZ EP   1   1231 45.92                             141     0.2 7  108   7 
 RUS  HZ EP   1   1231 46.38                             141     0.4 7  108 182 
 RUS  HE ES   2   1232  4.59                             141    -0.1 5  108 182 
 RUS  HZ I        1232  6.05         7.7 0.30                           108 182 
 OCA  SZ EP   1   1231 49.40                             130    -0.2 7  155 349 
 OCA  SZ ES   2   1232 11.41                             130     0.3 5  155 349 
 HEL  HZ EP   2   1232  3.40                             113     0.0 4  284 255 
 HEL  HN ES   2   1232 34.94                             113    -0.8 4  284 255 
 HEL  HZ I        1232 40.68         7.3 0.30                           284 255 
 RREF HZ EP   1   1232  9.66                             109     0.2 5  334 230 
 RREF HN ES   1   1232 46.86                             109     0.4 5  334 230 
 RREF HZ I        1232 53.36         4.1 0.27                           334 230 
 PRA  HZ EP   2   1232 16.74                             105     0.0 3  403 210 
 PRA  HZ I        1233  4.82         4.7 0.44                           403 210 
                                                                                
