 2012  7 5 1103 17.3 L   6.642 -73.279148.0  RSN  4 0.3 1.6LRSN                1
 GAP=160        0.84      10.2     7.3  7.9  0.2716E+02  0.1381E+02  0.2963E+02E
 Epicentro: GALAN - SANTANDER                                                  3
 ACTION:UPD 12-08-14 11:42 OP:ep   STATUS:               ID:20120705110317 L   I
 2012-07-05-1100-00M.COL___200                                                 6
 STAT SP IPHASW D HRMM SECON CODA AMPLIT PERI AZIMU VELO AIN AR TRES W  DIS CAZ7
 BAR2 SZ EP       11 3 36.66                             175    -0.310   12 117 
 BAR2 SZ I        11 3 37.05         8.9 0.11            172             12 117 
 BAR2 SZ ES       11 3 52.52                             175     0.110   12 117 
 BRR  HZ EP       11 3 38.38                             153    -0.210   70 317 
 BRR  HZ I        11 3 39.11        12.2 0.16            152             70 317 
 BRR  HE ES       11 3 55.41                             153     0.210   70 317 
 RUS  HZ EP   1   11 3 40.38                             149     0.1 7   86 165 
 PTB  HZ EP       11 3 43.37                             136     0.410  131 265 
 PTB  HE ES   1   11 4  2.54                             136    -0.4 7  131 265 
 PTB  HZ I        11 4  8.30         2.6 0.21            133            131 265 
