 2011  8 5 1620  5.2 L   6.735 -73.098147.7  RSN  6 0.4 1.9LRSN                1
 GAP=187        0.83       5.0     8.6  6.7  0.3064E+01  0.2986E+01  0.4052E+01E
 Epicentro: JORDAN - SANTANDER                                                 3
 ACTION:UPD 12-07-25 14:06 OP:epov STATUS:               ID:20110805162005 L   I
 2011-08-05-1615-22S.COL___135                                                 6
 STAT SP IPHASW D HRMM SECON CODA AMPLIT PERI AZIMU VELO AIN AR TRES W  DIS CAZ7
 BAR2 SZ IP       1620 25.07                             172    0.0610 18.4 211 
 BAR2 SZ ES   1   1620 40.42                             172   -0.01 7 18.4 211 
 BRR  HZ EP       1620 27.01                             150   -0.0610 79.3 301 
 BRR  HE ES   1   1620 44.11                             150    0.02 7 79.3 301 
 RUS  HZ EP       1620 27.97                             146   -0.6910 93.2 179 
 RUS  HZ I        1620 30.08         9.2 0.46                          93.2 179 
 RUS  HE ES   2   1620 47.61                             146    0.68 5 93.2 179 
 OCA  SZ EP       1620 34.55                             129    0.12 9  168 352 
 NOR  SZ EP       1620 41.10                             119   -0.01 8  235 237 
 NOR  SN ES   2   1621  8.95                             119   -0.14 4  235 237 
 CHI  HZ EP       1620 43.16                             118    0.70 8  243 197 
 CHI  HZ I        1621 20.12         6.9 0.32                           243 197 
                                                                                
