 2011 12 5 1122  0.3 L   6.811 -73.095141.4  RSN  4 0.3 1.6LRSN                1
 GAP=143        0.52       4.3     6.5  6.5  0.6952E+01 -0.4597E+01 -0.2819E+01E
 Epicentro: LOS SANTOS - SANTANDER                                             3
 ACTION:UPD 12-07-13 16:14 OP:ep   STATUS:               ID:20111205112200 L   I
 2011-12-05-1120-00M.COL___183                                                 6
 STAT SP IPHASW D HRMM SECON CODA AMPLIT PERI AZIMU VELO AIN AR TRES W  DIS CAZ7
 BAR2 SZ EP   1   1122 19.35                             169   -0.08 7 26.1 202 
 BAR2 SZ ES   1   1122 33.96                             169   -0.42 7 26.1 202 
 BAR2 SZ I        1122 36.87        11.9 0.71                          26.1 202 
 PAM  SZ EP   2   1122 22.08                             151    0.32 5 72.9  37 
 PAM  SE ES   2   1122 38.60                             151    0.09 5 72.9  37 
 BRR  HZ EP   1   1122 21.07                             150   -0.14 7 75.7 296 
 BRR  HZ I        1122 27.40        13.1 0.36                          75.7 296 
 BRR  HN ES   1   1122 37.78                             150    0.23 7 75.7 296 
 RUS  HZ EP   2   1122 23.45                             143   -0.22 5  102 179 
 RUS  HN ES   1   1122 42.24                             143    0.33 7  102 179 
 RUS  HZ I        1122 43.18         3.5 0.20                           102 179 
                                                                                
