 2011  3 5 1628 25.1 L   6.801 -73.179142.1  RSN 16 0.5 3.3LRSN                1
 GAP=102        0.98       3.0     5.0  6.8 -0.2636E+01  0.1398E+02  0.1863E+01E
 Epicentro: LOS SANTOS - SANTANDER                                             3
 ACTION:UP  11-06-16 14:31 OP:jfem STATUS:               ID:20110305162825 L   I
 2011-03-05-1625-47S.COL___135                                                 6
 STAT SP IPHASW D HRMM SECON CODA AMPLIT PERI AZIMU VELO SNR AR TRES W  DIS CAZ7
 BAR2 SZ IP       1628 44.57                             170     0.310   23 181 
 BAR2 SZ ES   1   1628 59.12                             170    -0.1 7   23 181 
 BAR2 SZ I        1629  2.44       643.9 0.33                            23 181 
 RUS  HZ IP     D 1628 48.49                             143     0.010  101 174 
 RUS  HE ES   1   1629  7.14                             143     0.4 7  101 174 
 RUS  HZ I        1629  8.56       311.0 0.35                           101 174 
 GRA  SZ IP       1628 50.37                             136     0.310  127  19 
 GRA  SZ ES   1   1629  9.95                             136     0.4 7  127  19 
 GRA  SZ I        1629 11.27       350.1 0.26                           127  19 
 OCA  SZ EP       1628 52.68                             129    -0.4 9  160 354 
 OCA  SZ ES   1   1629 14.42                             129    -0.5 7  160 354 
 OCA  SZ I        1629 19.93       269.2 0.20                           160 354 
 YOP  SZ EP       1628 55.26                             125     0.2 9  181 152 
 YOP  SE ES   1   1629 18.28                             125    -0.1 7  181 152 
 YOP  SZ I        1629 20.04       207.4 0.29                           181 152 
 CHI  HZ EP       1629  2.54                             116     0.0 8  248 194 
 CHI  HE ES   1   1629 30.84                             116    -0.8 6  248 194 
 CHI  HZ I        1629 38.33       121.1 0.71                           248 194 
 ROSC BZ EP   4   1629  4.10                             116     1.3 0  251 210 
 ROSC BE ES   4   1629 34.91                             116     2.7 0  251 210 
 HEL  HZ EP   1   1629  5.11                             114     0.4 6  269 256 
 HEL  HE ES   1   1629 35.23                             114    -0.4 6  269 256 
 HEL  HZ I        1629 44.76       139.2 0.41                           269 256 
 GUY  SZ EP       1629  7.77                             112    -0.4 7  298 234 
 GUY  SN ES   1   1629 42.30                             112     0.4 5  298 234 
 GUY  SZ I        1629 50.84       311.8 0.42                           298 234 
 VIL  SZ EP   1   1629  7.53                             111    -0.7 5  303 191 
 VIL  SN ES   1   1629 41.50                             111    -0.5 5  303 191 
 VIL  SZ I        1629 51.93        85.8 0.52                           303 191 
 RREF HZ EP   1   1629 11.39                             110     0.6 5  319 229 
 RREF HE ES   1   1629 45.67                             110    -0.7 5  319 229 
 RREF HZ I        1629 51.79       123.3 0.54                           319 229 
 DBB  SZ IP       1629 11.96                             109     0.0 7  336 274 
 TOL  SZ EP   1   1629 13.68                             109     0.8 5  341 224 
 SDV  BZ EP   2   1629 13.93                             107    -1.4 3  363  51 
 PRA  HZ EP       1629 18.19                             106    -0.1 6  390 209 
 PRA  HN ES   1   1629 59.89                             106     0.1 4  390 209 
 HORQ SZ EP       1629 36.74                             101     1.6 4  530 226 
 HORQ SZ I        1630 43.07         7.6 0.82                           530 226 
 SOTA HZ EP   1   1629 49.54                              98     0.7 2  641 217 
                                                                                
