 2012  8 5 1322 15.9 L   6.791 -73.132148.0  RSN 12 0.4 2.2LRSN                1
 GAP=139        0.56       3.3     4.4  4.6 -0.4151E+01  0.4559E+01  0.2928E+01E
 Epicentro: LOS SANTOS - SANTANDER                                             3
 ACTION:UPD 12-09-10 11:54 OP:ep   STATUS:               ID:20120805132215 L   I
 2012-08-05-1320-00M.COL___216                                                 6
 STAT SP IPHASW D HRMM SECON CODA AMPLIT PERI AZIMU VELO AIN AR TRES W  DIS CAZ7
 BAR2 SZ EP       1322 35.85                             171    0.0610 22.6 194 
 BAR2 SZ ES   1   1322 50.89                             171   -0.41 7 22.6 194 
 BAR2 SZ I        1322 52.34        42.6 0.30                          22.6 194 
 BRR  HZ IP     C 1322 37.66                             152    0.2710 73.0 299 
 BRR  HZ I        1322 37.94        29.0 0.30                          73.0 299 
 BRR  HN ES   1   1322 54.64                             152    0.49 7 73.0 299 
 PAM  SZ EP       1322 38.57                             151    0.2210 77.3  38 
 PAM  SZ I        1322 38.88        27.3 0.24                          77.3  38 
 PAM  SN ES   1   1322 55.74                             151   -0.11 7 77.3  38 
 RUS  HZ EP   1   1322 39.77                             145   -0.02 7 99.5 177 
 RUS  HE ES   3   1322 58.50                             145    0.07 2 99.5 177 
 RUS  HZ I        1322 59.23         9.6 0.46                          99.5 177 
 PTB  HZ EP       1322 42.71                             132   -0.45 9  149 259 
 PTB  HN ES   3   1323  3.64                             132   -0.79 2  149 259 
 PTB  HZ I        1323  7.63        10.1 0.26                           149 259 
 OCA  HZ EP   1   1322 43.98                             130   -0.52 7  161 353 
 OCA  HZ I        1323 10.09        42.4 0.16                           161 353 
 NOR  SZ EP   1   1322 51.89                             119    0.07 6  235 235 
 CHI  HZ EP   3   1322 53.76                             118    0.10 2  248 196 
 CHI  HE ES   1   1323 23.27                             118    0.16 6  248 196 
 CHI  HZ I        1323 28.84         5.6 0.22                           248 196 
 ROSC BZ EP   3   1322 53.79                             117   -0.34 2  253 211 
 ROSC BN ES   3   1323 24.35                             117    0.40 2  253 211 
 ROSC BZ I        1323 33.80        17.2 0.40                           253 211 
 HEL  HZ EP   3   1322 56.96                             115    0.60 2  273 256 
 GUY  SZ EP   3   1323  0.98                             113    1.04 2  304 235 
 GUY  SZ I        1323 43.20         9.6 0.34                           304 235 
 PRA  HZ EP   1   1323  9.42                             107   -0.06 4  392 210 
 PRA  HN ES   3   1323 52.00                             107    0.73 1  392 210 
 PRA  HZ I        1323 57.51         5.5 0.22                           392 210 
                                                                                
