 2016  3 5 1009  3.2 L   6.805 -73.124146.6  RSN  9 0.3 1.5LRSN                1
 GAP=139        0.84       3.3     3.8  5.4 -0.6173E+00  0.7460E+01  0.1930E+01E
 Epicentro: LOS SANTOS - SANTANDER                                             3
 ACTION:UPD 16-05-13 21:21 OP:cam  STATUS:               ID:20160305100903 L   I
 OLDACT:UP  16-03-06 01:41 OP:mh   STATUS:               ID:20160305100750     3
 OLDACT:REG 16-03-05 20:24 OP:mh   STATUS:               ID:20160305100750     3
 2016-03-05-1007-50M.COL___318                                                 6
 STAT SP IPHASW D HRMM SECON CODA AMPLIT PERI AZIMU VELO AIN AR TRES W  DIS CAZ7
 BAR2 EZ EP       10 9 23.13                             170    0.1410 24.4 195 
 BAR2 EZ ES       10 9 38.19                             170   -0.2110 24.4 195 
 BAR2 EZ I        10 9 39.98         5.6 0.21            169           24.4 195 
 PAM  EZ EP   1   10 9 25.87                             152    0.44 7 75.4  38 
 PAM  EE ES       10 9 43.02                             152    0.2810 75.4  38 
 PAM  EZ I        10 9 45.02         4.7 0.73            156           75.4  38 
 RUS  HZ EP       10 9 26.62                             144   -0.4810  101 177 
 RUS  HN ES       10 9 45.44                             144   -0.2810  101 177 
 RUS  HZ I        10 9 46.64         3.5 0.18            146            101 177 
 PTB  HZ EP       10 9 29.98                             132   -0.51 9  150 259 
 PTB  HE ES       10 9 51.51                             132   -0.24 9  150 259 
 PTB  HZ I        10 9 54.47         3.2 0.34            132            150 259 
 SPBC HZ EP       10 9 31.65                             129   -0.33 9  165 219 
 SPBC HN ES       10 9 54.89                             129    0.48 9  165 219 
 SPBC HZ I        1010  0.48         4.1 0.30            130            165 219 
 ZAR  HZ EP       10 9 35.96                             122    0.02 8  206 292 
 ZAR  HE ES       1010  1.63                             122    0.18 8  206 292 
 ZAR  HZ I        1010  7.28         7.7 0.25            123            206 292 
 NOR  HZ EP       10 9 39.22                             118   -0.04 8  237 235 
 NOR  HE ES   1   1010  7.86                             118    0.51 6  237 235 
 NOR  HZ I        1010 10.73         2.0 0.28            120            237 235 
 CHI  HZ EP       10 9 41.45                             117    0.34 8  250 196 
 CHI  HN ES       1010 11.17                             117    0.52 8  250 196 
 CHI  HZ I        1010 13.29         0.9 0.37            119            250 196 
 URE  HZ EP   4   10 9 46.03                             114    1.46 0  286 292 
 URE  HN ES   4   1010 14.25                             114   -2.55 0  286 292 
 URE  HZ I        1010 17.65         4.5 0.16            115            286 292 
                                                                                
