 2011  5 5 1336 26.3 L   6.764 -73.116142.9  RSN  5 0.2 2.1LRSN                1
 GAP=142        0.63       3.7     4.4  6.1 -0.4108E+01  0.4810E+01  0.1915E+01E
 Epicentro: LOS SANTOS - SANTANDER                                             3
 ACTION:UP  11-06-29 08:51 OP:tino STATUS:               ID:20110505133626 L   I
 2011-05-05-1331-00S.COL___129                                                 6
 STAT SP IPHASW D HRMM SECON CODA AMPLIT PERI AZIMU VELO SNR AR TRES W  DIS CAZ7
 BAR2 SZ EP       1336 45.62                             171     0.110   20 201 
 BAR2 SZ ES   1   1337  0.25                             171    -0.3 7   20 201 
 BAR2 SZ I        1337  1.97        49.4 0.22                            20 201 
 BRR  HZ EP   1   1336 47.51                             150     0.1 7   76 300 
 BRR  HN ES   1   1337  4.33                             150     0.4 7   76 300 
 BRR  HZ I        1337  8.95        29.1 0.22                            76 300 
 PAM  SZ EP   1   1336 48.19                             150    -0.1 7   78  36 
 PAM  SN ES   1   1337  5.09                             150    -0.3 7   78  36 
 RUS  HZ EP       1336 49.57                             144     0.110   96 178 
 RUS  HN ES       1337  7.68                             144     0.110   96 178 
 RUS  HZ I        1337  9.57        12.2 0.47                            96 178 
 NOR  SN ES       1337 29.32                             118    -0.4 8  235 236 
                                                                                
