 2012  4 5 1008 32.4 L   6.929 -73.229134.3  RSN  5 0.1 1.6LRSN                1
 GAP=242        0.32       5.3     4.4  3.5  0.1294E+02  0.4710E+01  0.2476E+01E
 Epicentro: BETULIA - SANTANDER                                                3
 ACTION:UPD 12-07-05 11:50 OP:tino STATUS:               ID:20120405100832 L   I
 2012-04-05-1000-00M.COL___196                                                 6
 STAT SP IPHASW D HRMM SECON CODA AMPLIT PERI AZIMU VELO AIN AR TRES W  DIS CAZ7
 BAR2 SZ EP       10 8 51.13                             164     0.010   38 172 
 BAR2 SZ ES   1   10 9  5.46                             164    -0.2 7   38 172 
 BAR2 SZ I        10 9  6.92        16.5 0.36                            38 172 
 BRR  HZ EP       10 8 51.57                             156     0.010   57 290 
 BRR  HE ES   1   10 9  6.56                             156     0.1 7   57 290 
 BRR  HZ I        10 9  8.65         6.5 0.32                            57 290 
 RUS  HN ES   3   10 9 15.28                             137     0.4 2  116 172 
 PTB  HZ EP       10 8 57.95                             130     0.0 9  142 252 
 PTB  HN ES   3   10 9 17.95                             130     0.0 2  142 252 
 ZAR  HN ES   3   10 9 26.36                             122     0.0 2  190 289 
                                                                                
