 2015  6 5 1930 28.7 L   7.435 -73.163131.8  RSN  7 0.3 2.1LRSN                1
 GAP=113        0.64       3.1     4.8  7.8  0.5963E+01  0.2588E+02  0.6952E+01E
 Epicentro: EL PLAYON - SANTANDER                                              3
 ACTION:UPD 15-09-10 22:10 OP:cam  STATUS:               ID:20150605193028 L   I
 OLDACT:UP  15-06-12 16:40 OP:cam  STATUS:               ID:20150605193028 L   3
 OLDACT:UP  15-06-11 08:26 OP:AR   STATUS:               ID:20150605193028 L   3
 OLDACT:UP  15-06-06 01:05 OP:ar   STATUS:               ID:20150605192750     3
 OLDACT:UP  15-06-06 01:03 OP:ar   STATUS:               ID:20150605192750     3
 OLDACT:REG 15-06-05 21:32 OP:ar   STATUS:               ID:20150605192750     3
 2015-06-05-1927-50M.COL___315                                                 6
 STAT SP IPHASW D HRMM SECON CODA AMPLIT PERI AZIMU VELO AIN AR TRES W  DIS CAZ7
 PAM  SE ES       1931  3.38                             157    0.2510 52.2 102 
 PAM  SZ I        1931  4.91        17.8 0.18            163           52.2 102 
 OCA  HN ES       1931  6.43                             143    0.0210 90.5 349 
 OCA  HZ I        1931  9.63        27.3 0.18            146           90.5 349 
 BAR2 EZ EP       1930 50.21                             143    0.0010 93.2 181 
 BAR2 EZ ES       1931  6.66                             143   -0.3110 93.2 181 
 BAR2 EZ I        1931  7.77        28.2 0.12            147           93.2 181 
 SML  HE ES   1   1931 20.05                             122   -0.58 7  181 327 
 SML  HZ I        1931 21.62        25.0 0.10            125            181 327 
 ZAR  HZ EP       1930 58.62                             122    0.10 9  187 272 
 ZAR  HN ES       1931 22.03                             122    0.27 9  187 272 
 ZAR  HZ I        1931 26.11        12.8 0.12            124            187 272 
 URE  HE ES   4   1931 34.34                             112   -2.30 0  264 278 
 URE  HZ I        1931 37.16         6.8 0.18            115            264 278 
 GUY2CHZ EP   4   1931 18.75                             107    1.94 0  345 225 
 GUY2CHE ES   4   1931 56.79                             107    2.46 0  345 225 
 GUY2CHZ I        1932  2.69         2.2 0.32                           345 225 
                                                                                
