 2010  9 5 1649 14.5 L   6.767 -73.141144.5  RSN 11 0.4 2.3LRSN                1
 GAP=159        0.88       3.4     6.6  6.7 -0.6957E+01  0.4871E+01  0.6443E+00E
 Epicentro: LOS SANTOS - SANTANDER                                             3
 ACTION:UP  11-02-18 11:00 OP:tino STATUS:               ID:20100905164914 L   I
 2010-09-05-1645-17S.COL___120                                                 6
 STAT SP IPHASW D HRMM SECON CODA AMPLIT PERI AZIMU VELO SNR AR TRES W  DIS CAZ7
 BAR2 SZ IP       1649 33.78                             172    -0.110   20 194 
 BAR2 SZ ES   1   1649 48.63                             172    -0.4 7   20 194 
 BAR2 SZ I        1649 50.21        74.2 0.31                            20 194 
 BRR  HZ IP     C 1649 35.64                             151     0.010   74 301 
 BRR  HE ES   1   1649 52.51                             151     0.4 7   74 301 
 BRR  HZ I        1649 56.80        48.3 0.11                            74 301 
 RUS  HZ EP       1649 37.76                             145    -0.110   97 176 
 RUS  HN ES   1   1649 56.21                             145     0.1 7   97 176 
 RUS  HZ I        1649 57.41        18.3 0.22                            97 176 
 GUE  SZ EP   1   1649 38.85                             138    -0.5 7  120  11 
 GUE  SZ I        1649 40.29        19.8 0.08                           120  11 
 GRA  SZ IP       1649 40.64                             136     0.710  129  17 
 GRA  SZ I        1649 42.04        31.5 0.26                           129  17 
 GRA  SZ ES   1   1649 59.91                             136     0.2 7  129  17 
 OCA  SZ EP   1   1649 42.37                             129    -0.7 7  164 353 
 OCA  SZ ES   1   1650  5.13                             129    -0.2 7  164 353 
 OCA  SZ I        1650  8.80        34.8 0.25                           164 353 
 CHI  HZ EP   2   1649 52.14                             117     0.4 4  245 196 
 CHI  HN ES   2   1650 20.60                             117    -0.2 4  245 196 
 CHI  HZ I        1650 28.64        10.0 0.59                           245 196 
 ROSC BN ES   2   1650 21.36                             117    -0.3 4  250 212 
 ROSC BZ I        1650 27.80        11.4 0.41                           250 212 
 HEL  HZ EP   2   1649 54.15                             114    -0.4 4  272 257 
 HEL  HE ES   2   1650 25.48                             114    -0.4 4  272 257 
 HEL  HZ I        1650 32.76         8.2 0.28                           272 257 
 GUY  SZ EP   2   1649 58.75                             112     0.9 4  300 235 
 GUY  SN ES   2   1650 32.12                             112     0.4 4  300 235 
 PRA  HZ EP   1   1650  7.40                             106    -0.2 4  389 210 
 PRA  HN ES   2   1650 49.51                             106     0.5 3  389 210 
 PRA  HZ I        1650 54.65        14.0 0.48                           389 210 
                                                                                
