 2017  4 5 1358 45.1 L   7.418 -73.170136.1  RSN  6 0.4 1.6LRSN                1
 GAP=259        1.02       9.2     7.1  9.0  0.4782E+02 -0.1496E+02 -0.3304E+02E
 Epicentro: EL PLAYON - SANTANDER                                              3
 ACTION:UPD 17-05-30 21:08 OP:jn   STATUS:               ID:20170405135845 L   I
 OLDACT:DUP 17-04-05 21:56 OP:ar   STATUS:               ID:20170405134746d    3
 2017-04-05-1348-00M.COL___365                                                 6
 STAT SP IPHASW D HRMM SECON CODA AMPLIT PERI AZIMU VELO AIN AR TRES W  DIS CAZ7
 BRR  HZ EP       1359  5.09                             151   -0.0210 69.0 240 
 BRR  HN ES       1359 20.47                             151   -0.2310 69.0 240 
 BAR2 EZ EP       1359  7.37                             144    0.4710 91.3 181 
 BAR2 EZ ES       1359 23.92                             144    0.0410 91.3 181 
 BAR2 EZ I        1359 24.59         5.4 0.12            142           91.3 181 
 RUS  HZ EP       1359 13.82                             126   -0.18 9  169 177 
 RUS  HN ES       1359 35.99                             126   -0.53 9  169 177 
 PTB  HZ EP       1359 13.74                             125    0.05 9  172 236 
 PTB  HE ES       1359 36.51                             125    0.54 9  172 236 
 PTB  HZ I        1359 38.00         3.5 0.27            124            172 236 
 ZAR  HZ EP       1359 15.29                             123    0.16 9  187 273 
 ZAR  HE ES       1359 38.97                             123    0.43 9  187 273 
 ZAR  HZ I        1359 39.66         8.9 0.22            122            187 273 
 URE  HZ EP   4   1359 26.64                             113    3.21 0  263 278 
 URE  HN ES       1359 52.28                             113   -1.03 8  263 278 
 URE  HZ I        1359 52.54         2.8 0.32            113            263 278 
                                                                                
