 2015  4 5 1159 13.1 L   7.543 -73.475 96.0  RSN 11 0.5 1.8LRSN                1
 GAP= 92        1.33       3.1     4.1  8.4  0.3119E+00  0.1440E+02  0.2617E+01E
 Epicentro: SABANA DE TORRES - SANTANDER                                       3
 ACTION:UPD 15-06-03 16:52 OP:cam  STATUS:               ID:20150405115913 L   I
 OLDACT:REG 15-04-05 20:36 OP:fm   STATUS:               ID:20150405115750     3
 2015-04-05-1157-50M.COL___279                                                 6
 STAT SP IPHASW D HRMM SECON CODA AMPLIT PERI AZIMU VELO AIN AR TRES W  DIS CAZ7
 BRR  HZ EP       1159 27.52                             148   -0.4210 54.9 209 
 BRR  HE ES       1159 38.93                             148   -0.6210 54.9 209 
 BRR  HZ I        1159 44.14        23.6 0.12            150           54.9 209 
 OCA  HZ EP       1159 29.72                             138   -0.2210 78.8  13 
 OCA  HN ES       1159 43.70                             138    0.5910 78.8  13 
 OCA  HZ I        1159 47.42        20.8 0.12            144           78.8  13 
 PAM  SZ EP       1159 31.35                             135    0.1210 88.5 105 
 PAM  SE ES       1159 45.57                             135    0.1710 88.5 105 
 PAM  SZ I        1159 47.93        15.5 0.20            145           88.5 105 
 BAR2 EZ EP       1159 33.09                             128    0.1910  110 163 
 BAR2 EZ ES       1159 48.75                             128    0.3810  110 163 
 BAR2 EZ I        1159 51.50        13.3 0.20            135            110 163 
 ZAR  HZ EP       1159 37.24                             118    0.19 9  153 268 
 ZAR  HN ES       1159 56.16                             118    0.40 9  153 268 
 ZAR  HZ I        12 0  1.29        10.1 0.22            121            153 268 
 SML  HZ EP       1159 35.42                             118   -1.73 9  154 335 
 SML  HE ES       1159 56.26                             118    0.32 9  154 335 
 SML  HZ I        12 0  1.44        19.4 0.10            122            154 335 
 PTB  HZ EP       1159 37.24                             118   -0.08 9  155 224 
 PTB  HN ES       1159 56.13                             118   -0.12 9  155 224 
 PTB  HZ I        12 0  0.00        13.5 0.20            121            155 224 
 RUS  HN ES       12 0  3.43                             113   -0.34 9  188 167 
 URE  HZ EP       1159 46.41                             108    0.76 8  228 276 
 URE  HN ES   4   12 0 12.61                             108    1.54 0  228 276 
 URE  HZ I        12 0 19.61        10.5 0.26            111            228 276 
 NOR  HZ EP       1159 51.01                             105    0.64 8  268 215 
 NOR  HE ES       12 0 19.62                             105    0.15 8  268 215 
 NOR  HZ I        12 0 27.33         3.1 0.20            108            268 215 
 GUY2CHZ EP       1159 58.58                             102    0.12 7  331 219 
 GUY2CHE ES       12 0 33.72                             102   -0.15 7  331 219 
 GUY2CHZ I        12 0 47.68         1.7 0.52                           331 219 
                                                                                
