 2017  1 5 1534 52.8 L   6.777 -73.138139.9  RSN 17 0.4 2.6LRSN                1
 GAP= 98        0.95       3.3     2.6  4.5  0.4179E+00  0.4104E+01  0.4155E+01E
 Epicentro: LOS SANTOS - SANTANDER                                             3
 ACTION:UPD 17-05-22 15:55 OP:jn   STATUS:               ID:20170105153452 L   I
 OLDACT:UP  17-01-05 23:28 OP:dnl  STATUS:               ID:20170105152747     3
 OLDACT:REG 17-01-05 20:35 OP:dnl  STATUS:               ID:20170105152747     3
 2017-01-05-1528-00M.COL___375                                                 6
 STAT SP IPHASW D HRMM SECON CODA AMPLIT PERI AZIMU VELO AIN AR TRES W  DIS CAZ7
 BAR2 EZ IP     D 1535 11.55                             171   -0.1510 21.0 194 
 BAR2 EZ ES       1535 26.12                             171   -0.3110 21.0 194 
 BAR2 EZ I        1535 28.41        96.4 0.34            167           21.0 194 
 BRR  HZ EP       1535 13.47                             151    0.0110 73.2 300 
 BRR  HE ES       1535 30.32                             151    0.7710 73.2 300 
 BRR  HZ I        1535 34.51        78.5 0.10            151           73.2 300 
 PAM  EZ EP       1535 14.56                             149    0.0510 78.8  38 
 PAM  EN ES       1535 31.09                             149   -0.3310 78.8  38 
 PAM  EZ I        1535 33.43       166.5 0.50            156           78.8  38 
 RUS  HZ EP       1535 15.56                             143   -0.2610 98.0 176 
 RUS  HN ES       1535 33.78                             143    0.0310 98.0 176 
 RUS  HZ I        1535 35.72        65.5 0.40            143           98.0 176 
 PTB  HZ EP       1535 18.51                             131   -0.85 9  148 260 
 PTB  HE ES       1535 40.25                             131    0.20 9  148 260 
 PTB  HZ I        1535 42.40        45.6 0.20            131            148 260 
 TAM  HZ IP     D 1535 19.90                             129   -0.01 9  154 104 
 TAM  HE ES       1535 41.36                             129    0.33 9  154 104 
 ZAR  HZ EP       1535 24.73                             121   -0.35 8  206 293 
 ZAR  HE ES       1535 50.70                             121    0.46 8  206 293 
 ZAR  HZ I        1535 56.56        51.9 0.24            123            206 293 
 NOR  HZ EP       1535 28.04                             117   -0.10 8  234 235 
 NOR  HN ES       1535 55.26                             117   -0.43 8  234 235 
 NOR  HZ I        1536  2.93        30.9 0.16            118            234 235 
 CHI  HZ EP       1535 29.88                             116   -0.08 8  246 196 
 CHI  HN ES       1535 58.93                             116   -0.00 8  246 196 
 CHI  HZ I        1536  2.31        17.5 0.30            117            246 196 
 ROSC BZ EP       1535 30.91                             116    0.47 8  251 211 
 ROSC BE ES   4   1536  1.69                             116    1.90 0  251 211 
 ROSC BZ I        1536 10.97        31.4 0.35            117            251 211 
 GUY2CHZ EP       1535 36.81                             111    0.72 7  300 235 
 GUY2CHN ES   4   1536 11.63                             111    1.80 0  300 235 
 GUY2CHZ  IAML    1536 18.21        16.5 0.36                           300 235 
 ELA  HZ EP       1535 40.41                             109    1.09 7  328 230 
 ELA  HN ES   4   1536 17.93                             109    2.34 0  328 230 
 ELA  HZ I        1536 22.95        18.7 0.58            111            328 230 
 CBOC HZ EP       1535 39.86                             109    0.35 7  334 253 
 CBOC HE ES       1536 15.75                             109   -0.18 7  334 253 
 CBOC HZ I        1536 19.32         8.8 0.66            110            334 253 
 DBB  EZ EP       1535 39.77                             108   -0.42 7  341 275 
 DBB  EN ES       1536 16.51                             108   -0.63 7  341 275 
 DBB  EZ I        1536 20.27        12.7 0.18            110            341 275 
 ORTC HZ EP       1535 46.56                             105    0.19 6  394 216 
 ORTC HE ES   4   1536 29.81                             105    1.67 0  394 216 
 ORTC HZ I        1536 34.65        12.2 0.46            107            394 216 
 PAL  HZ EP       1535 47.71                             105   -0.02 6  405 239 
 PAL  HN ES       1536 30.44                             105   -0.12 6  405 239 
 PAL  HZ I        1536 36.49        12.2 0.30            106            405 239 
 SJC  HZ EP   4   1535 46.22                             105   -2.29 0  412 327 
 SJC  HN ES   4   1536 27.59                             105   -4.35 0  412 327 
 SJC  HZ I        1536 31.28        20.0 0.54            107            412 327 
                                                                                
