 2012 11 5 1635 34.6 L   7.380 -73.191132.3  RSN 10 0.3 2.6LRSN                1
 GAP=103        0.63       2.9     3.2  4.4  0.7036E+00  0.6058E+01  0.9489E+00E
 Epicentro: EL PLAYON - SANTANDER                                              3
 ACTION:UPD 12-12-05 15:31 OP:}ep  STATUS:               ID:20121105163534 L   I
 2012-11-05-1630-00M.COL___230                                                 6
 STAT SP IPHASW D HRMM SECON CODA AMPLIT PERI AZIMU VELO AIN AR TRES W  DIS CAZ7
 GIR2 SZ IP       1635 52.81                             165    0.1310 33.3 180 
 GIR2 SZ ES   1   1636  6.83                             165    0.01 7 33.3 180 
 PAM  SZ IP     C 1635 54.26                             157    0.2110 54.5  95 
 PAM  SN ES   1   1636  9.38                             157    0.13 7 54.5  95 
 PAM  SN I        1636 11.15       151.8 0.36                          54.5  95 
 BRR  HZ IP     D 1635 54.05                             152    0.1610 64.9 242 
 BRR  HN ES   1   1636  9.15                             152    0.18 7 64.9 242 
 BRR  HN I        1636 10.53       126.6 0.18                          64.9 242 
 BAR2 SZ IP     C 1635 55.94                             145    0.2910 87.1 179 
 BAR2 SZ ES   1   1636 11.95                             145   -0.15 7 87.1 179 
 BAR2 SZ I        1636 13.73        47.5 0.18                          87.1 179 
 OCA  HZ EP   1   1635 55.86                             142   -0.32 7 96.0 352 
 OCA  HN ES   1   1636 12.66                             142   -0.38 7 96.0 352 
 RUS  HZ EP   1   1636  2.18                             126   -0.57 7  165 176 
 RUS  HN ES   1   1636 24.17                             126   -0.58 7  165 176 
 ZAR  HZ EP       1636  4.00                             122   -0.09 9  184 274 
 ZAR  HN ES   1   1636 27.37                             122    0.24 7  184 274 
 ZAR  HN I        1636 30.14        83.6 0.22                           184 274 
 HEL  HZ EP   1   1636 16.57                             110    0.43 5  290 243 
 HEL  HN ES   1   1636 48.05                             110   -0.54 5  290 243 
 HEL  HN I        1636 57.80        10.1 0.26                           290 243 
 DBB  SZ EP       1636 20.95                             107   -0.13 7  336 263 
 DBB  SZ I        1636 58.62        10.0 0.32                           336 263 
 PRA  HE ES   1   1637 21.32                             102    0.69 4  447 205 
 PRA  HE I        1637 31.97         7.0 0.30                           447 205 
                                                                                
