 2013  6 5 1531 18.7 L   6.797 -73.164144.3  RSN  7 0.4 1.9LRSN                1
 GAP=181        0.87       5.0     5.5  5.8  0.6654E+01  0.7035E+01  0.8382E+01E
 Epicentro: LOS SANTOS - SANTANDER                                             3
 ACTION:UPD 14-01-08 09:52 OP:ep   STATUS:               ID:20130605153118 L   I
 OLDACT:REG 13-06-05 16:18 OP:nd   STATUS:               ID:20130605153000     3
 2013-06-05-1530-00M.COL___261                                                 6
 STAT SP IPHASW D HRMM SECON CODA AMPLIT PERI AZIMU VELO AIN AR TRES W  DIS CAZ7
 BAR2 SZ IP     C 1531 38.13                             171   -0.0310 22.7 185 
 BAR2 SZ ES       1531 53.35                             171    0.0310 22.7 185 
 BAR2 SZ I        1531 54.18        10.5 0.28            166           22.7 185 
 GIR2 SZ EP       1531 38.27                             167    0.0510 31.4 354 
 GIR2 SZ ES       1531 52.97                             167   -0.4610 31.4 354 
 GIR2 SZ I        1531 55.26        13.8 0.48            168           31.4 354 
 BRR  HZ EP       1531 40.07                             153    0.4510 69.6 300 
 BRR  HN ES       1531 56.50                             153    0.5810 69.6 300 
 BRR  HZ I        1531 57.64        20.3 0.30            150           69.6 300 
 RUS  HZ EP       1531 42.15                             144   -0.1610  100 175 
 RUS  HN ES       1532  0.77                             144    0.0610  100 175 
 RUS  HZ I        1532  2.19         7.2 0.40            142            100 175 
 PTB  HZ EP       1531 44.89                             132   -0.49 9  146 259 
 PTB  HN ES       1532  5.82                             132   -0.35 9  146 259 
 PTB  HZ I        1532 11.32         9.7 0.52            130            146 259 
 GUY2CHZ EP   4   1532  4.73                             112    2.68 0  299 235 
 GUY2CHN ES   4   1532 38.74                             112    2.89 0  299 235 
 GUY2CHZ I        1532 45.66         4.6 0.62                           299 235 
 PRA  HZ EP       1532 12.54                             106    0.50 6  391 209 
 PRA  HN ES   2   1532 54.14                             106    0.52 3  391 209 
 PRA  HZ I        1533  1.25         3.4 0.34            106            391 209 
                                                                                
