 2016  8 5 1322 27.8 L   6.800 -73.133149.2  RSN 17 0.4 2.4LRSN                1
 GAP= 72        1.06       3.7     3.0  4.9 -0.1533E+01  0.3514E+01  0.1717E+01E
 Epicentro: LOS SANTOS - SANTANDER                                             3
 ACTION:UPD 16-10-29 15:32 OP:rebc STATUS:               ID:20160805132227 L   I
 OLDACT:UP  16-08-05 22:57 OP:dani STATUS:               ID:20160805131759     3
 OLDACT:UP  16-08-05 22:57 OP:dani STATUS:               ID:20160805131759     3
 OLDACT:UP  16-08-05 22:54 OP:dani STATUS:               ID:20160805131759     3
 OLDACT:UP  16-08-05 22:45 OP:dani STATUS:               ID:20160805131759     3
 OLDACT:UP  16-08-05 22:45 OP:dani STATUS:               ID:20160805131759     3
 OLDACT:REG 16-08-05 20:13 OP:dani STATUS:               ID:20160805131759     3
 2016-08-05-1317-59S.COL___340                                                 6
 STAT SP IPHASW D HRMM SECON CODA AMPLIT PERI AZIMU VELO AIN AR TRES W  DIS CAZ7
 BAR2 EZ EP       1322 47.73                             171   -0.1610 23.6 193 
 BAR2 EZ ES       1323  3.75                             171    0.2310 23.6 193 
 BAR2 EZ I        1323  6.46        78.4 0.76                          23.6 193 
 BRR  HZ EP       1322 49.62                             153    0.1910 72.5 298 
 BRR  HN ES       1323  6.97                             153    0.7010 72.5 298 
 BRR  HZ I        1323  9.53        35.2 0.22                          72.5 298 
 PAM  EZ EP       1322 50.55                             152    0.1810 76.5  39 
 PAM  EE ES       1323  7.98                             152    0.0410 76.5  39 
 PAM  EZ I        1323  9.95        32.9 0.22                          76.5  39 
 RUS  HZ EP       1322 51.62                             145   -0.3010  100 177 
 RUS  HN ES       1323 10.17                             145   -0.5310  100 177 
 RUS  HZ I        1323 11.15        17.9 0.32                           100 177 
 PTB  HZ EP       1322 54.63                             132   -0.58 9  149 259 
 PTB  HE ES       1323 15.76                             132   -0.81 9  149 259 
 PTB  HZ I        1323 19.09        30.4 0.14                           149 259 
 TAM  HZ EP       1322 55.89                             132    0.23 9  154 105 
 TAM  HE ES       1323 17.33                             132   -0.03 9  154 105 
 TAM  HZ I        1323 18.97        27.7 0.45                           154 105 
 SPBC HZ EP       1322 56.71                             130    0.02 9  164 219 
 SPBC HN ES       1323 19.30                             130    0.12 9  164 219 
 SPBC HZ I        1323 25.80        45.2 0.18                           164 219 
 ZAR  HZ EP       1323  0.43                             123   -0.22 8  205 292 
 ZAR  HE ES       1323 26.13                             123   -0.11 8  205 292 
 ZAR  HZ I        1323 33.33        32.0 0.30                           205 292 
 NOR  HZ EP       1323  3.80                             119   -0.09 8  236 235 
 NOR  HE ES       1323 32.33                             119    0.32 8  236 235 
 NOR  HZ I        1323 35.47        30.4 0.18                           236 235 
 ROSC BZ EP       1323  6.87                             117    0.64 8  253 211 
 ROSC BZ I        1323 45.56        36.0 0.40                           253 211 
 HEL  HZ EP       1323  9.11                             115    0.73 8  273 256 
 HEL  HZ I        1323 49.16        11.2 0.31                           273 256 
 GUY2CHZ EP       1323 12.62                             113    0.88 7  302 235 
 GUY2CHN ES   4   1323 47.54                             113    1.56 0  302 235 
 GUY2CHZ I        1323 54.41        18.3 0.30                           302 235 
 LL6C HZ EP       1323 12.77                             111   -0.93 7  325 357 
 LL6C HZ I        1323 49.67         7.6 0.72                           325 357 
 ELA  HZ EP   9   1323 16.79                             111    1.83 0  330 230 
 ELA  HN ES       1323 54.36                             111    0.82 7  330 230 
 ELA  HZ I        1324  7.49        10.3 0.48                           330 230 
 CBOC HZ EP       1323 15.61                             110    0.56 7  335 252 
 CBOC HE ES       1323 51.38                             110   -0.50 7  335 252 
 CBOC HZ I        1323 58.51         4.9 0.22                           335 252 
 PRA  HZ EP       1323 21.18                             107   -0.38 6  393 210 
 PRA  HE ES       1324  3.29                             107   -0.17 6  393 210 
 PRA  HZ I        1324  7.98        13.1 0.22                           393 210 
 SJC  HZ EP   4   1323 21.70                             106   -1.91 0  410 327 
 SJC  HN ES   4   1324  3.26                             106   -3.85 0  410 327 
 SJC  HZ I        1324  7.73         4.2 0.32                           410 327 
                                                                                
