 2011 12 5 1531 28.1 L   6.779 -73.114138.7  RSN 20 0.4 3.7LRSN                1
 GAP=104        0.78       2.4     3.5  4.4 -0.2356E+01  0.2885E+01  0.2146E+01E
 Epicentro: LOS SANTOS - SANTANDER                                             3
 ACTION:UPD 12-07-13 16:14 OP:ep   STATUS:               ID:20111205153128 L   I
 2011-12-05-1530-00M.COL___183                                                 6
 STAT SP IPHASW D HRMM SECON CODA AMPLIT PERI AZIMU VELO AIN AR TRES W  DIS CAZ7
 BAR2 SZ EP       1531 47.02                             171    0.1610 22.0 200 
 BAR2 SZ ES   1   1532  1.10                             171   -0.39 7 22.0 200 
 BAR2 SZ I        1532  3.04      1703.5 0.27                          22.0 200 
 GIR2 SZ EP       1531 47.13                             165    0.1010 34.3 345 
 BRR  HZ IP     D 1531 48.94                             150    0.1910 75.4 299 
 BRR  HZ I        1531 49.37      1500.0 0.12                          75.4 299 
 BRR  HE ES   1   1532  5.51                             150    0.66 7 75.4 299 
 PAM  SZ EP       1531 49.90                             149    0.3510 77.0  36 
 PAM  SZ I        1531 50.33      1336.3 0.18                          77.0  36 
 PAM  SE ES   1   1532  5.88                             149   -0.40 7 77.0  36 
 RUS  HZ EP   1   1531 50.90                             143   -0.08 7 98.1 178 
 RUS  HN ES   1   1532  8.49                             143   -0.34 7 98.1 178 
 RUS  HZ I        1532 10.68       865.3 0.36                          98.1 178 
 BRI  SZ IP     D 1531 51.77                             139    0.3610  109  19 
 BRI  SZ ES   1   1532  9.15                             139   -0.43 7  109  19 
 OCA  SZ EP       1531 56.17                             127    0.03 9  163 352 
 OCA  SZ ES   1   1532 17.54                             127   -0.47 7  163 352 
 OCA  SZ I        1532 21.28      1306.5 0.31                           163 352 
 YOP  SZ EP       1531 57.69                             125    0.41 9  175 154 
 YOP  SN ES   1   1532 20.56                             125    0.52 7  175 154 
 YOP  SZ I        1532 23.80       269.7 0.16                           175 154 
 NOR  SZ EP       1532  2.96                             117   -0.64 8  236 235 
 NOR  SE ES   1   1532 30.83                             117   -0.46 6  236 235 
 CHI  HZ EP   1   1532  5.09                             116   -0.19 6  247 196 
 CHI  HZ I        1532  7.39       127.3 0.28                           247 196 
 CHI  HN ES   1   1532 33.90                             116   -0.37 6  247 196 
 ROSC BZ EP   1   1532  6.69                             115    0.86 6  253 212 
 ROSC BN ES   1   1532 34.89                             115   -0.37 6  253 212 
 ROSC BZ I        1532 43.56       392.9 0.43                           253 212 
 HEL  HZ EP   1   1532  8.21                             113   -0.08 6  275 256 
 HEL  HN ES   2   1532 40.33                             113    0.69 4  275 256 
 HEL  HZ I        1532 46.97       210.8 0.39                           275 256 
 VIL  SZ EP   1   1532 10.24                             111   -0.79 5  302 192 
 VIL  SZ I        1532 17.74        89.7 0.40                           302 192 
 GUY  SZ EP   1   1532 12.01                             111    0.17 5  305 236 
 GUY  SN ES   2   1532 46.43                             111    0.47 4  305 236 
 GUY  SZ I        1532 51.26       280.8 0.32                           305 236 
 RREF HZ EP   1   1532 13.84                             109   -0.25 5  323 230 
 RREF HN ES   2   1532 50.09                             109    0.14 3  323 230 
 RREF HZ I        1532 57.66       169.4 0.25                           323 230 
 TOL  SZ EP   1   1532 16.49                             108    0.31 5  344 225 
 SDV  BZ EP       1532 16.93                             107   -0.81 6  359  50 
 SDV  BZ I        1532 58.85       108.0 0.71                           359  50 
 PRA  HZ EP   1   1532 21.34                             105   -0.02 4  392 210 
 PRA  HZ I        1533  8.18       493.4 0.29                           392 210 
 PAL  HZ EP   1   1532 23.24                             105   -0.02 4  408 240 
 HORQ SZ EP   1   1532 38.28                             100   -0.22 3  533 227 
                                                                                
