 2013  5 5 1615 40.9 L   6.753 -73.129147.3  RSN 13 0.5 2.4LRSN                1
 GAP= 74        1.01       4.8     3.5  6.7 -0.1595E+01  0.3009E+01  0.5779E+01E
 Epicentro: LOS SANTOS - SANTANDER                                             3
 ACTION:UPD 13-06-20 09:48 OP:ep   STATUS:               ID:20130505161540 L   I
 2013-05-05-1610-00M.COL___253                                                 6
 STAT SP IPHASW D HRMM SECON CODA AMPLIT PERI AZIMU VELO AIN AR TRES W  DIS CAZ7
 BAR2 SZ EP       1616  0.71                             172    0.0310 18.8 198 
 BAR2 SZ I        1616 21.93        13.1 0.20            170           18.8 198 
 GIR2 SZ EP   1   1616  0.81                             165   -0.15 7 36.7 349 
 GIR2 SZ ES   1   1616 16.83                             165    0.26 7 36.7 349 
 GIR2 SZ I        1616 17.49        16.1 0.36            165           36.7 349 
 BRR  HZ IP     C 1616  2.61                             151    0.1110 75.4 301 
 BRR  HN ES       1616 20.05                             151    0.7410 75.4 301 
 BRR  HN I        1616 20.87        93.6 0.24            148           75.4 301 
 PAM  SZ EP     C 1616  3.52                             150    0.0210 80.3  36 
 PAM  SN ES       1616 20.23                             150   -0.8610 80.3  36 
 PAM  SN I        1616 22.12        23.5 0.44            151           80.3  36 
 RUS  HZ EP     C 1616  4.60                             146    0.1210 95.3 177 
 RUS  HN ES   1   1616 22.77                             146   -0.07 7 95.3 177 
 RUS  HN I        1616 23.72        17.6 0.36            143           95.3 177 
 PTB  HZ EP   1   1616  7.51                             132   -0.61 7  149 261 
 PTB  HN ES       1616 28.83                             132   -0.49 9  149 261 
 PTB  HN I        1616 33.99        83.1 0.48            129            149 261 
 TAM  HZ EP   1   1616  8.80                             131    0.34 7  152 103 
 TAM  HE ES   1   1616 30.46                             131    0.54 7  152 103 
 TAM  HN I        1616 30.98        15.5 0.20            131            152 103 
 OCA  HZ EP   1   1616  9.25                             129   -0.63 7  166 353 
 OCA  HN ES   4   1616 30.98                             129   -1.47 0  166 353 
 OCA  HN I        1616 34.38        87.9 0.22            128            166 353 
 ZAR  HN ES   1   1616 39.81                             122    0.25 6  208 293 
 ZAR  HN I        1616 44.86        57.5 0.24            120            208 293 
 NOR  HZ EP   1   1616 16.56                             119   -0.05 6  233 236 
 NOR  HN ES   1   1616 44.37                             119   -0.07 6  233 236 
 NOR  HN I        1616 49.47        40.6 0.16            116            233 236 
 SML  HZ EP   1   1616 19.40                             117    1.15 6  249 335 
 SML  HN ES   4   1616 45.20                             117   -2.14 0  249 335 
 SML  HN I        1616 51.23        35.1 0.10            116            249 335 
 HEL  HZ EP   1   1616 20.81                             115   -0.49 6  273 257 
 HEL  HN ES   1   1616 53.09                             115    0.31 6  273 257 
 HEL  HN I        1617  2.25         8.5 0.64            113            273 257 
 URE  HZ EP   4   1616 20.63                             113   -1.87 0  288 293 
 URE  HN ES   4   1616 52.77                             113   -2.15 0  288 293 
 URE  HN I        1617  0.23        17.7 0.24            112            288 293 
                                                                                
