 2012  4 5 1531 37.7 L   6.772 -73.145144.5  RSN  7 0.4 1.9LRSN                1
 GAP=138        0.90       5.7     5.0  7.4 -0.6060E+00  0.1011E+02  0.9583E+01E
 Epicentro: LOS SANTOS - SANTANDER                                             3
 ACTION:UPD 12-07-05 11:50 OP:tino STATUS:               ID:20120405153137 L   I
 2012-04-05-1530-00M.COL___196                                                 6
 STAT SP IPHASW D HRMM SECON CODA AMPLIT PERI AZIMU VELO AIN AR TRES W  DIS CAZ7
 BAR2 SZ EP       1531 57.22                             172     0.110   20 192 
 BAR2 SZ I        1531 57.36        20.1 0.40                            20 192 
 BAR2 SZ ES   1   1532 11.97                             172    -0.3 7   20 192 
 BRR  HZ EP       1531 59.14                             152     0.310   73 301 
 BRR  HE ES   1   1532 15.98                             152     0.7 7   73 301 
 BRR  HZ I        1532 18.59        20.6 0.12                            73 301 
 PAM  SZ EP       1532  0.14                             150     0.210   80  38 
 PAM  SN ES   1   1532 17.06                             150    -0.3 7   80  38 
 RUS  HZ EP       1532  1.07                             144    -0.110   97 176 
 RUS  HZ I        1532  2.21         6.5 0.10                            97 176 
 RUS  HN ES   2   1532 19.31                             144    -0.1 5   97 176 
 PTB  HZ EP       1532  4.13                             132    -0.4 9  147 260 
 PTB  HN ES   2   1532 24.82                             132    -0.7 5  147 260 
 PTB  HZ I        1532 29.95         6.8 0.16                           147 260 
 ZAR  HZ EP   2   1532  9.59                             122    -0.6 4  205 293 
 ZAR  HN ES   1   1532 35.17                             122    -0.4 6  205 293 
 ZAR  HZ I        1532 41.27        11.8 0.34                           205 293 
 NOR  SZ EP       1532 13.51                             118     0.3 8  233 235 
 NOR  SN ES   2   1532 41.88                             118     1.0 4  233 235 
                                                                                
