 2016  2 5 1413 26.4 L   6.786 -73.187127.1  RSN  6 0.3 1.4LRSN                1
 GAP=132        0.52       3.6     3.8  4.8 -0.4847E+01  0.6445E+01 -0.2280E+01E
 Epicentro: ZAPATOCA - SANTANDER                                               3
 ACTION:UPD 16-03-04 21:23 OP:rebc STATUS:               ID:20160205141326 L   I
 OLDACT:REG 16-02-05 20:45 OP:dnl  STATUS:               ID:20160205140738     3
 2016-02-05-1407-38M.COL___322                                                 6
 STAT SP IPHASW D HRMM SECON CODA AMPLIT PERI AZIMU VELO AIN AR TRES W  DIS CAZ7
 BAR2 EZ EP       1413 43.94                             170    0.1910 21.4 179 
 BAR2 EZ ES       1413 57.20                             170   -0.0810 21.4 179 
 BAR2 EZ I        1414  0.83         7.8 0.23            169           21.4 179 
 PAM  EZ EP     C 1413 46.93                             145   -0.0210 81.5  41 
 PAM  EN ES       1414  2.96                             145   -0.0110 81.5  41 
 PAM  EZ I        1414  6.66         2.8 0.13            152           81.5  41 
 RUS  HZ EP   2   1413 48.77                             140    0.49 5 99.4 173 
 RUS  HE ES   2   1414  4.89                             140   -0.45 5 99.4 173 
 RUS  HZ I        1414  8.18         2.9 0.28            146           99.4 173 
 PTB  HZ EP   2   1413 51.96                             128    0.50 5  143 259 
 PTB  HE ES   2   1414 11.19                             128    0.18 5  143 259 
 PTB  HZ I        1414 17.88         2.5 0.15            129            143 259 
 ZAR  HZ EP   2   1413 56.65                             118   -0.67 4  200 293 
 ZAR  HE ES   2   1414 21.26                             118   -0.18 4  200 293 
 ZAR  HZ I        1414 28.78         5.6 0.28            120            200 293 
 CHI  HZ EP   2   1414  2.35                             113   -0.49 4  246 194 
 CHI  HE ES   4   1414 28.13                             113   -3.13 0  246 194 
                                                                                
