 2012  7 5 1200 13.7 L   6.672 -73.222154.8  RSN  4 0.2 1.4LRSN                1
 GAP=202        0.52       8.8     5.9 10.5  0.2117E+01 -0.2038E+02  0.4993E+02E
 Epicentro: BARICHARA - SANTANDER                                              3
 ACTION:UPD 12-08-14 11:42 OP:ep   STATUS:               ID:20120705120013 L   I
 2012-07-05-1200-00M.COL___200                                                 6
 STAT SP IPHASW D HRMM SECON CODA AMPLIT PERI AZIMU VELO AIN AR TRES W  DIS CAZ7
 BAR2 SZ EP   1   12 0 33.84                             176    -0.4 7   10 154 
 BAR2 SZ I        12 0 34.31         4.2 0.30            167             10 154 
 BRR  HZ IP   1   12 0 35.96                             154     0.1 7   72 312 
 BRR  HN ES   1   12 0 53.29                             154     0.1 7   72 312 
 BRR  HZ I        12 0 57.07         9.3 0.41            155             72 312 
 RUS  HZ EP   1   12 0 37.70                             149     0.2 7   88 170 
 PTB  HZ EP   1   12 0 40.50                             136     0.0 7  137 264 
 PTB  HN ES   1   12 1  1.32                             136    -0.1 7  137 264 
 PTB  HZ I        12 1  9.68         1.9 0.31            136            137 264 
