 2011 12 5 1650  1.5 L   6.792 -73.110143.2  RSN  7 0.4 1.8LRSN                1
 GAP=141        0.79       5.5     6.3  7.5 -0.4386E+01  0.8276E+01  0.2003E+01E
 Epicentro: LOS SANTOS - SANTANDER                                             3
 ACTION:UPD 12-07-13 16:14 OP:ep   STATUS:               ID:20111205165002dL   I
 2011-12-05-1650-00M.COL___183                                                 6
 STAT SP IPHASW D HRMM SECON CODA AMPLIT PERI AZIMU VELO AIN AR TRES W  DIS CAZ7
 BAR2 SZ EP   1   1650 20.79                             170   -0.03 7 23.4 200 
 BAR2 SZ ES   1   1650 35.25                             170   -0.65 7 23.4 200 
 BAR2 SZ I        1650 37.02        14.3 0.26                          23.4 200 
 GIR2 SZ EP   1   1650 21.39                             166    0.47 7 33.0 344 
 BRR  HZ EP   1   1650 22.80                             151    0.20 7 75.1 298 
 BRR  HN ES   1   1650 39.53                             151    0.47 7 75.1 298 
 BRR  HZ I        1650 43.85        18.8 0.13                          75.1 298 
 PAM  SZ EP   1   1650 23.02                             151   -0.32 7 75.7  37 
 PAM  SN ES   2   1650 39.86                             151   -0.52 5 75.7  37 
 PAM  SZ I        1650 42.86        10.3 0.23                          75.7  37 
 RUS  HZ EP   1   1650 24.79                             144   -0.13 7 99.5 178 
 RUS  HN ES   1   1650 43.80                             144    0.61 7 99.5 178 
 NOR  SZ EP   1   1650 37.15                             118   -0.21 6  237 235 
 NOR  SN ES   2   1651  4.56                             118   -0.78 4  237 235 
 HEL  HN ES   2   1651 13.38                             114   -0.17 4  276 256 
                                                                                
