 2010  8 5 1403 23.0 L   6.640 -73.044122.0  RSN  4 0.2 1.4LRSN                1
 GAP=177        0.63       5.6    36.7 12.9  0.5004E+02 -0.2640E+03 -0.5106E+02E
 Epicentro: CURITI - SANTANDER                                                 3
 ACTION:UP  10-09-07 10:52 OP:vdl  STATUS:               ID:20100805140323 L   I
 2010-08-05-1400-29S.COL___124                                                 6
 STAT SP IPHASW D HRMM SECON CODA AMPLIT PERI AZIMU VELO SNR AR TRES W  DIS CAZ7
 BAR2 SZ EP       14 3 39.59                             173     0.010   16 251 
 BAR2 SZ ES   2   14 3 52.13                             173    -0.5 5   16 251 
 BAR2 SZ I        14 3 53.86        12.7 0.63                            16 251 
 GIR2 SZ EP   1   14 3 41.00                             156     0.3 7   51 341 
 RUS  HZ EP   1   14 3 42.78                             144    -0.3 7   83 183 
 RUS  HN ES       14 3 58.97                             144     0.210   83 183 
 RUS  HZ I        14 3 59.79         4.9 0.22                            83 183 
 GUE  SZ EP       14 3 47.00                             130     0.010  132   6 
 GUE  SZ I        14 4  8.07         2.5 0.24                           132   6 
                                                                                
