 2014 11 5 1043 22.4 L   6.793 -73.128144.1  RSN 13 0.4 2.2LRSN                1
 GAP= 72        1.00       3.1     2.9  5.1 -0.1824E+01  0.3007E+01  0.4519E+01E
 Epicentro: LOS SANTOS - SANTANDER                                             3
 ACTION:UPD 14-12-19 15:39 OP:nd   STATUS:               ID:20141105104322 L   I
 OLDACT:DUP 14-11-06 00:17 OP:carl STATUS:               ID:20141105103747d    3
 2014-11-05-1037-46M.COL___271                                                 6
 STAT SP IPHASW D HRMM SECON CODA AMPLIT PERI AZIMU VELO AIN AR TRES W  DIS CAZ7
 BAR2 SZ IP     D 1043 41.87                             170    0.0310 23.0 195 
 BAR2 SZ ES       1043 57.36                             170    0.3710 23.0 195 
 BAR2 SZ I        1043 58.01        31.8 0.22            169           23.0 195 
 BRR  HZ IP     C 1043 43.78                             152    0.2710 73.3 298 
 BRR  HN ES       1044  0.72                             152    0.7710 73.3 298 
 BRR  HZ I        1044  3.94        28.8 0.26            150           73.3 298 
 PAM  SZ EP       1043 44.71                             151    0.2910 76.8  38 
 PAM  SN ES       1044  1.78                             151    0.2010 76.8  38 
 PAM  SZ I        1044  3.89        25.8 0.52            154           76.8  38 
 RUS  HZ EP       1043 45.72                             144   -0.2210 99.7 177 
 RUS  HN ES       1044  4.14                             144   -0.1510 99.7 177 
 RUS  HZ I        1044  5.50        13.5 0.34            145           99.7 177 
 PTB  HZ EP       1043 49.02                             131   -0.39 9  150 259 
 PTB  HN ES       1044  9.61                             131   -0.85 9  150 259 
 PTB  HZ I        1044 16.58        20.6 0.32            131            150 259 
 TAM  HZ EP       1043 49.93                             131    0.16 9  153 105 
 TAM  HE ES       1044 10.78                             131   -0.33 9  153 105 
 OCA  HN ES       1044 11.81                             129   -0.94 9  161 352 
 OCA  HZ I        1044 18.28        11.9 0.22            130            161 352 
 SPBC HZ EP       1043 50.89                             129    0.04 9  164 220 
 SPBC HN ES       1044 12.48                             129   -0.54 9  164 220 
 SPBC HZ I        1044 15.34        26.9 0.32            129            164 220 
 NOR  HZ EP       1043 58.29                             118    0.12 8  236 235 
 NOR  HN ES       1044 25.82                             118   -0.24 8  236 235 
 NOR  HZ I        1044 33.00        15.9 0.28            118            236 235 
 CHI  HZ EP       1044  0.16                             117    0.16 8  248 196 
 CHI  HN ES       1044 29.32                             117    0.01 8  248 196 
 CHI  HZ I        1044 37.40         5.2 0.36            118            248 196 
 HEL  HZ EP       1044  3.05                             114    0.32 8  274 256 
 HEL  HN ES       1044 34.62                             114    0.44 8  274 256 
 HEL  HZ I        1044 42.29         7.5 0.24            115            274 256 
 GUY2CHZ EP       1044  6.41                             112    0.33 7  302 235 
 GUY2CHN ES       1044 40.56                             112    0.43 7  302 235 
 GUY2CHZ I        1044 49.66         9.9 0.28                           302 235 
 PRA  HZ EP       1044 15.67                             106   -0.25 6  392 210 
 PRA  HN ES       1044 57.93                             106    0.29 6  392 210 
 PRA  HZ I        1045  4.93         8.4 0.36            107            392 210 
                                                                                
