 2011  8 5 1901  9.2 L   6.775 -73.142143.2  RSN  5 0.3 1.7LRSN                1
 GAP=138        0.63       4.5     6.3  7.7  0.3565E+01 -0.1275E+02 -0.4650E+01E
 Epicentro: LOS SANTOS - SANTANDER                                             3
 ACTION:UPD 12-07-25 14:06 OP:epov STATUS:               ID:20110805190109 L   I
 2011-08-05-1857-52S.COL___135                                                 6
 STAT SP IPHASW D HRMM SECON CODA AMPLIT PERI AZIMU VELO AIN AR TRES W  DIS CAZ7
 BAR2 SZ ES   2   19 1 42.66                             171   -0.82 5 20.7 192 
 BAR2 SZ I        19 1 44.30        14.5 0.56                          20.7 192 
 BRR  HZ EP       19 1 30.11                             151   -0.0510 72.9 300 
 BRR  HZ I        19 1 30.28        20.7 0.14                          72.9 300 
 BRR  HN ES   1   19 1 46.78                             151    0.27 7 72.9 300 
 PAM  SZ EP       19 1 31.12                             150   -0.1310 79.3  38 
 RUS  HZ EP       19 1 32.71                             144    0.2310 97.8 176 
 RUS  HN ES   1   19 1 50.83                             144    0.18 7 97.8 176 
 RUS  HZ I        19 1 52.60         3.6 0.28                          97.8 176 
 NOR  SN ES   2   19 2 11.69                             118   -0.59 4  233 235 
                                                                                
