 2010 10 5 1642 44.6 L   6.768 -73.093147.2  RSN  8 0.4 2.3LRSN                1
 GAP=165        0.85       4.2     6.2  6.0 -0.4610E+00  0.2988E+01  0.2228E+00E
 Epicentro: LOS SANTOS - SANTANDER                                             3
 ACTION:UP  11-02-18 11:07 OP:tino STATUS:               ID:20101005164244 L   I
 2010-10-05-1637-07S.COL___122                                                 6
 STAT SP IPHASW D HRMM SECON CODA AMPLIT PERI AZIMU VELO SNR AR TRES W  DIS CAZ7
 BAR2 SZ EP       1643  4.26                             171    -0.110   22 207 
 BAR2 SZ ES   1   1643 19.47                             171    -0.3 7   22 207 
 BAR2 SZ I        1643 21.27        75.2 0.40                            22 207 
 BRR  HZ IP     C 1643  6.13                             151    -0.210   78 299 
 BRR  HZ I        1643  6.41        56.8 0.15                            78 299 
 BRR  HN ES       1643 23.61                             151     0.410   78 299 
 RUS  HZ EP       1643  8.40                             145     0.210   97 179 
 RUS  HN ES       1643 26.80                             145     0.110   97 179 
 RUS  HZ I        1643 28.64        35.0 0.69                            97 179 
 GUE  SZ EP   1   1643  9.45                             139    -0.2 7  119   9 
 GRA  SZ EP   1   1643 10.07                             137     0.0 7  128  14 
 NOR  SZ EP       1643 20.42                             119    -0.3 8  238 236 
 NOR  SN ES   1   1643 48.12                             119    -0.8 6  238 236 
 CHI  HZ EP   1   1643 22.32                             118     0.1 6  247 197 
 CHI  HZ I        1643 23.05         8.3 0.54                           247 197 
 CHI  HN ES   2   1643 51.85                             118     0.3 4  247 197 
 HEL  HZ EP   1   1643 26.35                             115     0.9 6  277 257 
 HEL  HZ I        1643 26.99         6.1 0.34                           277 257 
                                                                                
