 2014  5 5 1221 51.4 L   6.797 -73.132144.7  RSN  8 0.5 1.8LRSN                1
 GAP=138        1.22       3.6     5.6  9.8 -0.1757E+01  0.2384E+02 -0.2438E+00E
 Epicentro: LOS SANTOS - SANTANDER                                             3
 ACTION:UPD 15-03-16 16:55 OP:nd   STATUS:               ID:20140505122151 L   I
 OLDACT:REG 14-05-05 20:44 OP:carl STATUS:               ID:20140505121814     3
 2014-05-05-1218-14M.COL___217                                                 6
 STAT SP IPHASW D HRMM SECON CODA AMPLIT PERI AZIMU VELO AIN AR TRES W  DIS CAZ7
 PAM  SZ EP       1222 12.26                             151   -1.1610 76.7  38 
 PAM  SE ES       1222 30.57                             151   -0.0610 76.7  38 
 PAM  SZ I        1222 33.64        23.5 0.56            154           76.7  38 
 RUS  HZ EP       1222 15.37                             144    0.4010  100 177 
 RUS  HE ES       1222 33.85                             144    0.4610  100 177 
 PTB  HZ EP       1222 17.95                             131   -0.42 9  149 259 
 PTB  HE ES       1222 38.91                             131   -0.53 9  149 259 
 OCA  HN ES       1222 42.28                             129    0.59 9  161 353 
 ZAR  HZ EP       1222 24.58                             122    0.69 8  206 292 
 ZAR  HE ES       1222 49.23                             122   -0.04 8  206 292 
 ZAR  HZ I        1222 55.23        10.3 0.34            124            206 292 
 SML  HZ EP       1222 28.00                             117   -0.02 8  245 335 
 SML  HE ES       1222 56.89                             117    0.26 8  245 335 
 CHI  HN ES       1222 58.37                             117    0.00 8  249 196 
 CHI  HZ I        1223  5.42         2.3 0.40            119            249 196 
 GUY2CHZ EP       1222 35.33                             112    0.30 7  302 235 
 GUY2CHN ES       1223  8.94                             112   -0.16 7  302 235 
 GUY2CHZ I        1223 16.63         1.6 0.62                           302 235 
                                                                                
