 2013  5 5 1724  1.1 L   6.791 -73.156147.2  RSN 12 0.5 2.1LRSN                1
 GAP=136        0.90       3.2     4.7  6.5 -0.3761E+01  0.1067E+02 -0.1041E+01E
 Epicentro: LOS SANTOS - SANTANDER                                             3
 ACTION:UPD 13-06-20 09:48 OP:ep   STATUS:               ID:20130505172401 L   I
 2013-05-05-1720-00M.COL___253                                                 6
 STAT SP IPHASW D HRMM SECON CODA AMPLIT PERI AZIMU VELO AIN AR TRES W  DIS CAZ7
 BAR2 SZ EP   1   1724 21.11                             171    0.23 7 22.2 188 
 BAR2 SZ ES   1   1724 36.25                             171   -0.06 7 22.2 188 
 BAR2 SZ I        1724 38.06        16.2 0.24            169           22.2 188 
 GIR2 SZ EP   1   1724 21.22                             167    0.25 7 32.1 353 
 GIR2 SZ ES   1   1724 36.82                             167    0.36 7 32.1 353 
 GIR2 SZ I        1724 38.80        12.5 0.46            165           32.1 353 
 BRR  HZ IP     C 1724 23.03                             153    0.6510 70.7 300 
 BRR  HN ES   4   1724 40.73                             153    1.76 0 70.7 300 
 BRR  HZ I        1724 42.78        22.8 0.14            150           70.7 300 
 PAM  SZ EP     C 1724 23.93                             150    0.3710 78.9  40 
 PAM  SN ES   1   1724 41.16                             150    0.08 7 78.9  40 
 PAM  SN I        1724 42.29        19.3 0.48            155           78.9  40 
 RUS  HZ EP     D 1724 24.91                             144   -0.0210 99.7 175 
 RUS  HN ES   1   1724 42.58                             144   -0.93 7 99.7 175 
 RUS  HZ I        1724 45.18        11.7 0.44            148           99.7 175 
 PTB  HZ EP   1   1724 27.86                             132   -0.21 7  146 259 
 PTB  HN ES   1   1724 48.89                             132   -0.21 7  146 259 
 PTB  HZ I        1724 54.77        29.4 0.40            132            146 259 
 OCA  HZ EP   1   1724 29.47                             130   -0.13 7  161 354 
 OCA  HN ES       1724 51.27                             130   -0.57 9  161 354 
 OCA  HZ I        1724 57.06        11.4 0.38            132            161 354 
 NOR  HZ E        1724 36.93                                            233 234 
 NOR  HZ EP   1   1724 36.93                             119    0.18 6  233 234 
 NOR  HN ES       1725  4.75                             119    0.19 8  233 234 
 NOR  HZ I        1725 10.07        10.5 0.22            120            233 234 
 SML  HZ EP   1   1724 37.39                             118   -0.46 6  244 336 
 SML  HN ES       1725  6.04                             118   -0.48 8  244 336 
 SML  HN I        1725 10.67        30.6 0.28            119            244 336 
 HEL  HZ EP   4   1724 42.98                             115    1.74 0  271 256 
 HEL  HN ES   1   1725 13.14                             115    0.60 6  271 256 
 HEL  HZ I        1725 19.24         7.8 0.38            116            271 256 
 PRA  HZ EP   1   1724 54.49                             107   -0.01 4  391 209 
 PRA  HN ES   2   1725 34.50                             107   -1.65 3  391 209 
 SJC  HZ EP   4   1724 54.85                             106   -1.88 0  409 327 
 SJC  HN ES   4   1725 37.36                             106   -2.77 0  409 327 
 SJC  HN I        1725 39.90         3.2 0.30            108            409 327 
                                                                                
