 2011  6 5 1416 39.3 L   6.798 -73.103156.3  RSN  7 0.3 1.6LRSN                1
 GAP=142        0.71       4.4     5.8  7.5 -0.8188E+01 -0.9825E-01  0.2482E+00E
 Epicentro: LOS SANTOS - SANTANDER                                             3
 ACTION:UP  11-07-14 19:03 OP:ep   STATUS:               ID:20110605141639 L   I
 2011-06-05-1415-31S.COL___132                                                 6
 STAT SP IPHASW D HRMM SECON CODA AMPLIT PERI AZIMU VELO SNR AR TRES W  DIS CAZ7
 BTL  SZ EP       1417  0.38                             171     0.210   23 306 
 BAR2 SZ EP   1   1417  0.06                             171    -0.1 7   24 201 
 PAM  SZ EP   1   1417  2.28                             153    -0.2 7   75  37 
 PAM  SZ I        1417  3.18         2.1 0.18                            75  37 
 PAM  SN ES   1   1417 20.37                             153    -0.2 7   75  37 
 BRR  HZ EP       1417  1.96                             153     0.210   76 297 
 BRR  HZ I        1417  2.30        26.2 0.16                            76 297 
 BRR  HN ES   1   1417 19.60                             153     0.2 7   76 297 
 RUS  HZ EP       1417  4.32                             146     0.310  100 179 
 RUS  HN ES   1   1417 23.20                             146    -0.2 7  100 179 
 RUS  HZ I        1417 24.01         4.0 0.28                           100 179 
 GRA  SZ EP       1417  5.10                             139    -0.310  125  15 
 GRA  SZ I        1417 27.89         4.8 0.33                           125  15 
 NOR  SN ES   1   1417 44.04                             120    -0.7 6  238 235 
                                                                                
