 2016 10 5 1012 56.0 L   6.811 -73.200139.7  RSN  5 0.1 1.3LRSN                1
 GAP=129        0.41       1.7     2.3  4.5 -0.8236E+00  0.3059E+01  0.3504E-01E
 Epicentro: ZAPATOCA - SANTANDER                                               3
 ACTION:UPD 16-11-09 19:16 OP:rebc STATUS:               ID:20161005101256 L   I
 OLDACT:DUP 16-10-05 20:45 OP:lv   STATUS:               ID:20161005100748d    3
 2016-10-05-1008-00M.COL___354                                                 6
 STAT SP IPHASW D HRMM SECON CODA AMPLIT PERI AZIMU VELO AIN AR TRES W  DIS CAZ7
 PAM  EZ EP       1013 17.99                             149    0.1910 80.4  43 
 PAM  EE ES       1013 34.84                             149    0.0710 80.4  43 
 PAM  EZ I        1013 36.98         4.6 0.24            153           80.4  43 
 RUS  HZ EP       1013 19.23                             142   -0.1010  102 173 
 RUS  HN ES       1013 37.42                             142   -0.0810  102 173 
 RUS  HZ I        1013 38.18         2.4 0.19            147            102 173 
 PTB  HZ EP       1013 21.98                             132   -0.01 9  142 258 
 PTB  HN ES       1013 42.35                             132    0.10 9  142 258 
 PTB  HZ I        1013 45.64         2.7 0.12            131            142 258 
 OCA  HN ES       1013 45.09                             129   -0.20 9  158 355 
 ZAR  HN ES   4   1013 53.89                             122    1.91 0  198 292 
 ZAR  HZ I        1014  2.05         1.8 0.19            122            198 292 
                                                                                
