 2010  4 5 1752 59.4 L   6.775 -72.950143.0  RSN  6 0.5 2.1LRSN                1
 GAP=214        0.89       5.3    13.8  9.8 -0.2249E+02 -0.1466E+02  0.1747E+02E
 Epicentro: CEPITA - SANTANDER                                                 3
 ACTION:UPD 10-08-24 09:57 OP:vdl  STATUS:               ID:20100405175259 L   I
 2010-04-05-1750-47S.COL___098                                                 6
 STAT SP IPHASW D HRMM SECON CODA AMPLIT PERI AZIMU VELO AIN AR TRES W  DIS CAZ7
 BAR2 SZ EP       1753 19.45                             167     0.510   33 232 
 BAR2 SZ ES   2   1753 34.06                             167    -0.1 5   33 232 
 BRR  HZ EP       1753 21.57                             147     0.010   92 294 
 BRR  HZ I        1753 21.86        24.7 0.13                            92 294 
 BRR  HE ES   2   1753 38.71                             147    -0.1 5   92 294 
 OCA  SZ EP       1753 27.60                             129    -0.5 9  167 346 
 OCA  SZ ES   2   1753 50.71                             129     0.2 5  167 346 
 OCA  SZ I        1753 56.23        22.9 0.30                           167 346 
 CHI  HZ EP       1753 37.70                             117     0.3 8  253 200 
 CHI  HE ES   2   1754  6.09                             117    -0.9 4  253 200 
 RREF BZ EP   2   1753 47.98                             110     0.8 3  337 232 
 RREF BE ES   2   1754 24.82                             110     0.4 3  337 232 
 RREF BZ I        1754 31.46         3.7 0.27                           337 232 
 PRA  HZ EP       1753 53.27                             106    -0.6 6  401 212 
 PRA  HE ES   2   1754 35.65                             106    -0.7 3  401 212 
 PRA  HZ I        1754 40.03         2.7 0.42                           401 212 
                                                                                
