 2017  3 5 1213 46.3 L   6.689 -73.435122.1  RSN  5 0.4 1.1LRSN                1
 GAP=144        1.06       6.8     5.9  8.8  0.2426E+02  0.1635E+02  0.1152E+02E
 Epicentro: EL CARMEN - SANTANDER                                              3
 ACTION:UPD 17-05-25 18:36 OP:jn   STATUS:               ID:20170305121346 L   I
 OLDACT:DUP 17-03-05 21:52 OP:dani STATUS:               ID:20170305120743d    3
 OLDACT:REG 17-03-05 20:23 OP:dani STATUS:               ID:20170305120742     3
 2017-03-05-1208-00M.COL___390                                                 6
 STAT SP IPHASW D HRMM SECON CODA AMPLIT PERI AZIMU VELO AIN AR TRES W  DIS CAZ7
 BAR2 HZ EP       1214  3.07                             165   -0.2210 29.9 111 
 BAR2 HZ ES       1214 16.14                             165   -0.3810 29.9 111 
 BAR2 HZ I        1214 17.05         6.0 0.42            167           29.9 111 
 BRR  HZ EP       1214  3.85                             154   -0.1810 55.5 326 
 BRR  HE ES       1214 18.02                             154    0.1810 55.5 326 
 RUS  HZ EP       1214  7.61                             139    0.1310 96.2 156 
 RUS  HE ES       1214 24.59                             139    0.6110 96.2 156 
 RUS  HZ I        1214 26.39         1.4 0.12            139           96.2 156 
 PTB  HZ EP       1214  7.97                             134   -0.3510  114 262 
 PTB  HN ES       1214 25.06                             134   -0.4210  114 262 
 PTB  HZ I        1214 30.65         2.8 0.10            132            114 262 
 ZAR  HN ES       1214 37.83                             120    0.77 9  181 300 
                                                                                
