 2012  1 5 1715 19.8 L   6.778 -73.136144.1  RSN  7 0.3 1.4LRSN                1
 GAP=139        0.59       3.3     5.3  4.9 -0.1345E+01  0.1026E+00  0.3601E+01E
 Epicentro: LOS SANTOS - SANTANDER                                             3
 ACTION:UP  12-02-03 08:14 OP:REBC STATUS:               ID:20120105171519 L   I
 2012-01-05-1710-00M.COL___189                                                 6
 STAT SP IPHASW D HRMM SECON CODA AMPLIT PERI AZIMU VELO SNR AR TRES W  DIS CAZ7
 BAR2 SZ EP       1715 39.04                             171    -0.110   21 194 
 BAR2 SZ ES   1   1715 53.79                             171    -0.5 7   21 194 
 BAR2 SZ I        1715 56.76         9.9 0.28                            21 194 
 GIR2 SZ EP   1   1715 39.22                             166    -0.1 7   34 349 
 GIR2 SZ ES   2   1715 54.34                             166    -0.2 5   34 349 
 BRR  HZ EP       1715 40.90                             151     0.010   73 300 
 BRR  HN ES   1   1715 57.78                             151     0.5 7   73 300 
 PAM  SZ EP       1715 42.00                             150     0.110   79  38 
 PAM  SN ES   1   1715 59.12                             150     0.0 7   79  38 
 PAM  SZ I        1716  1.84         2.2 0.58                            79  38 
 RUS  HZ EP       1715 43.20                             144     0.010   98 177 
 RUS  HN ES   1   1716  1.81                             144     0.4 7   98 177 
 RUS  HZ I        1716  2.70         4.2 0.58                            98 177 
 ZAR  HE ES   3   1716 16.66                             122    -1.0 2  206 293 
 CHI  HZ EP   1   1715 57.24                             117     0.1 6  247 196 
 CHI  HN ES   2   1716 25.95                             117    -0.4 4  247 196 
                                                                                
