 2012  9 5 1023 19.1 L   6.753 -73.117142.0  RSN  7 0.4 1.8LRSN                1
 GAP=142        0.56       4.7     4.5  7.1  0.7974E+01 -0.7589E+01 -0.1270E+02E
 Epicentro: LOS SANTOS - SANTANDER                                             3
 ACTION:UPD 12-10-22 14:17 OP:ep   STATUS:               ID:20120905102319 L   I
 2012-09-05-1020-00M.COL___218                                                 6
 STAT SP IPHASW D HRMM SECON CODA AMPLIT PERI AZIMU VELO AIN AR TRES W  DIS CAZ7
 BAR2 SZ EP       1023 37.94                             172   -0.2310 19.2 202 
 BAR2 SZ ES   2   1023 53.06                             172    0.00 5 19.2 202 
 BAR2 SZ I        1023 54.69        21.3 0.24                          19.2 202 
 GIR2 SZ EP       1023 38.33                             165   -0.1310 37.0 347 
 GIR2 SZ ES   3   1023 52.82                             165   -0.77 2 37.0 347 
 BRR  HZ EP       1023 40.32                             150    0.1910 76.5 301 
 BRR  HN ES   1   1023 57.06                             150    0.51 7 76.5 301 
 BRR  HZ I        1024  2.30        11.9 0.14                          76.5 301 
 PAM  SZ EP       1023 41.05                             150    0.0410 79.5  35 
 PAM  SZ I        1023 41.41        11.1 0.22                          79.5  35 
 PAM  SN ES   3   1023 57.79                             150   -0.34 2 79.5  35 
 RUS  HZ EP   2   1023 42.26                             145    0.19 5 95.3 178 
 RUS  HE ES   1   1024  0.12                             145    0.12 7 95.3 178 
 RUS  HZ I        1024  1.71        10.0 0.36                          95.3 178 
 PTB  HN ES   3   1024  5.46                             131   -1.44 2  150 261 
 ZAR  HE ES   1   1024 17.01                             121   -0.30 6  209 293 
 ZAR  HZ I        1024 24.85         5.0 0.32                           209 293 
                                                                                
