 2013  5 5 1057 38.9 L   6.810 -73.174150.0  RSN  7 0.5 2.0LRSN                1
 GAP=133        0.93       5.3     5.1 10.2 -0.4873E+01  0.3699E+01  0.1389E+02E
 Epicentro: LOS SANTOS - SANTANDER                                             3
 ACTION:UPD 13-06-20 09:48 OP:ep   STATUS:               ID:20130505105738 L   I
 2013-05-05-1050-00M.COL___253                                                 6
 STAT SP IPHASW D HRMM SECON CODA AMPLIT PERI AZIMU VELO AIN AR TRES W  DIS CAZ7
 BRR  HZ EP   1   1058  0.85                             154    0.48 7 67.9 299 
 BRR  HN ES   1   1058 17.59                             154    0.50 7 67.9 299 
 BRR  HN I        1058 18.41        23.7 0.24            153           67.9 299 
 PAM  SZ IP     C 1058  1.98                             151    0.3010 78.6  42 
 PAM  SN ES   1   1058 18.94                             151   -0.47 7 78.6  42 
 PAM  SN I        1058 20.10        13.5 0.48            153           78.6  42 
 RUS  HZ EP   1   1058  3.19                             144   -0.02 7  102 174 
 RUS  HN ES   4   1058 21.26                             144   -0.87 0  102 174 
 RUS  HN I        1058 23.21         7.1 0.26            144            102 174 
 PTB  HZ EP   1   1058  5.26                             134   -0.74 7  145 258 
 PTB  HN ES   1   1058 26.31                             134   -0.80 7  145 258 
 PTB  HN I        1058 28.33        10.6 0.18            133            145 258 
 ZAR  HN ES   1   1058 36.92                             124    0.33 6  201 292 
 NOR  HZ EP   1   1058 14.58                             120   -0.14 6  233 234 
 NOR  HE ES   1   1058 43.25                             120    0.63 6  233 234 
 NOR  HE I        1058 48.13         9.0 0.22            119            233 234 
 SML  HN ES       1058 43.92                             119   -0.20 8  241 336 
 SML  HN I        1058 47.62        11.8 0.30            119            241 336 
                                                                                
