 2014 10 5 1128 48.9 L   6.794 -73.094150.8  RSN 12 0.5 2.0LRSN                1
 GAP=143        1.06       2.9     4.5  6.2 -0.1245E+01  0.6304E+01  0.2030E+01E
 Epicentro: LOS SANTOS - SANTANDER                                             3
 ACTION:UPD 14-11-29 23:47 OP:nd   STATUS:               ID:20141005112848 L   I
 OLDACT:REG 14-10-05 20:26 OP:fm   STATUS:               ID:20141005111749     3
 2014-10-05-1117-49M.COL___289                                                 6
 STAT SP IPHASW D HRMM SECON CODA AMPLIT PERI AZIMU VELO AIN AR TRES W  DIS CAZ7
 BAR2 SZ EP       1129  9.35                             170    0.2210 24.4 204 
 BAR2 SZ ES   1   1129 24.86                             170   -0.07 7 24.4 204 
 BAR2 SZ I        1129 27.07        16.8 0.26            168           24.4 204 
 PAM  SZ EP       1129 12.10                             153    0.6510 74.4  36 
 PAM  SN ES       1129 28.92                             153   -0.1510 74.4  36 
 PAM  SZ I        1129 31.53        13.9 0.20            156           74.4  36 
 BRR  HZ EP   1   1129 11.16                             152    0.29 7 76.6 297 
 BRR  HN ES       1129 28.45                             152    0.4210 76.6 297 
 BRR  HZ I        1129 32.24         9.7 0.52            150           76.6 297 
 RUS  HZ EP       1129 13.26                             145    0.2010 99.7 179 
 RUS  HN ES       1129 31.42                             145   -0.5110 99.7 179 
 RUS  HZ I        1129 33.40         5.7 0.38            146           99.7 179 
 PTB  HZ EP   1   1129 16.12                             132   -0.62 7  153 259 
 PTB  HE ES       1129 38.18                             132   -0.31 9  153 259 
 PTB  HZ I        1129 43.22        11.8 0.16            132            153 259 
 OCA  HN ES       1129 40.08                             130   -0.12 9  162 351 
 OCA  HZ I        1129 44.71         9.1 0.16            132            162 351 
 SPBC HZ EP       1129 18.32                             130    0.27 9  166 221 
 SPBC HN ES       1129 41.08                             130    0.26 9  166 221 
 SPBC HZ I        1129 45.44        16.0 0.40            130            166 221 
 ZAR  HN ES       1129 47.84                             123   -0.38 8  210 292 
 ZAR  HZ I        1129 53.71        10.8 0.30            123            210 292 
 SML  HZ EP       1129 25.26                             118   -0.85 8  247 334 
 SML  HN ES       1129 55.23                             118    0.08 8  247 334 
 SML  HZ I        1129 57.90        16.7 0.24            120            247 334 
 CHI  HZ EP   1   1129 26.59                             118   -0.36 6  250 196 
 CHI  HN ES       1129 55.99                             118   -0.67 8  250 196 
 CHI  HZ I        1130  5.41         3.1 0.56            119            250 196 
 GUY2CHZ EP       1129 32.81                             113   -0.39 7  305 235 
 GUY2CHE ES       1130  8.84                             113    1.06 7  305 235 
 GUY2CHZ I        1130 16.24         7.6 0.76                           305 235 
 TOL  SZ EP   1   1129 38.70                             110    0.96 5  347 225 
 TOL  SN ES   4   1130 18.14                             110    2.28 0  347 225 
 TOL  SZ I        1130 23.36        12.0 0.36            111            347 225 
                                                                                
