 2010 11 5 2016 10.0 L   6.768 -73.120154.4  RSN  5 0.2 1.9LRSN                1
 GAP=162        0.39       3.3     4.7  6.2 -0.5271E+01 -0.1341E+01 -0.2326E+01E
 Epicentro: LOS SANTOS - SANTANDER                                             3
 ACTION:UP  10-12-17 16:50 OP:REBC STATUS:               ID:20101105201610 L   I
 2010-11-05-2012-17S.COL___128                                                 6
 STAT SP IPHASW D HRMM SECON CODA AMPLIT PERI AZIMU VELO SNR AR TRES W  DIS CAZ7
 BRR  HZ EP   1   2016 32.32                             153     0.0 7   76 300 
 BRR  HZ I        2016 32.95        18.7 0.11                            76 300 
 BRR  HN ES   2   2016 50.02                             153     0.3 5   76 300 
 RUS  HZ EP   1   2016 34.51                             147     0.1 7   97 178 
 RUS  HE ES   2   2016 53.23                             147    -0.1 5   97 178 
 RUS  HZ I        2016 54.71         7.5 0.32                            97 178 
 GUE  SZ EP   1   2016 35.74                             140     0.0 7  119  10 
 GRA  SZ EP   1   2016 36.12                             138    -0.1 7  128  16 
 NOR  SZ EP   1   2016 46.51                             120     0.2 6  235 236 
 NOR  SN ES   2   2017 14.19                             120    -0.4 4  235 236 
                                                                                
