 2012  1 5 2347 49.8 L   6.764 -73.153144.4  RSN  7 0.3 1.8LRSN                1
 GAP=137        0.76       4.9     4.0  6.8 -0.1526E+01  0.6340E+00  0.2476E+01E
 Epicentro: LOS SANTOS - SANTANDER                                             3
 ACTION:UP  12-02-03 08:14 OP:REBC STATUS:               ID:20120105234749 L   I
 2012-01-05-2340-00M.COL___186                                                 6
 STAT SP IPHASW D HRMM SECON CODA AMPLIT PERI AZIMU VELO SNR AR TRES W  DIS CAZ7
 BAR2 SZ EP   1   2348  9.29                             172     0.1 7   19 190 
 BAR2 SZ I        2348  9.55         5.6 0.09                            19 190 
 BAR2 SZ ES   2   2348 24.31                             172     0.0 5   19 190 
 GIR2 SZ EP   2   2348  9.29                             166    -0.1 5   35 353 
 BRR  HZ EP       2348 11.22                             152     0.410   73 302 
 BRR  HN ES       2348 27.70                             152     0.410   73 302 
 BRR  HN I        2348 28.79        40.9 0.17                            73 302 
 PAM  SZ EP       2348 11.97                             149    -0.110   81  38 
 PAM  SN ES   1   2348 28.93                             149    -0.5 7   81  38 
 RUS  HZ EP   1   2348 13.45                             145     0.3 7   97 175 
 RUS  HE ES   1   2348 31.18                             145    -0.1 7   97 175 
 PTB  HZ EP       2348 16.26                             132    -0.2 9  146 260 
 PTB  HN ES       2348 37.01                             132    -0.3 9  146 260 
 ZAR  HE ES   2   2348 47.12                             122    -0.4 4  205 293 
 ZAR  HZ I        2348 53.42         4.6 0.32                           205 293 
                                                                                
