 2015 12 5 2207 27.1 L   6.828 -73.101148.1  RSN 18 0.6 2.4LRSN                1
 GAP=122        1.27       3.4     4.3  6.0 -0.4443E+01  0.5551E+01  0.7242E+00E
 Epicentro: LOS SANTOS - SANTANDER                                             3
 ACTION:UPD 16-02-04 15:02 OP:cam  STATUS:               ID:20151205220727 L   I
 OLDACT:REG 15-12-06 07:54 OP:ak   STATUS:               ID:20151205215748     3
 2015-12-05-2157-48M.COL___326                                                 6
 STAT SP IPHASW D HRMM SECON CODA AMPLIT PERI AZIMU VELO AIN AR TRES W  DIS CAZ7
 BAR2 EZ EP       22 7 47.15                             169    0.1010 27.6 199 
 BAR2 EZ ES       22 8  2.32                             169   -0.3310 27.6 199 
 BAR2 EZ I        22 8  3.89        29.0 0.42            167           27.6 199 
 PAM  EZ EP       22 7 49.97                             153    0.7710 71.8  38 
 PAM  EN ES       22 8  7.11                             153    0.6410 71.8  38 
 PAM  EZ I        22 8  8.93        37.3 0.58            157           71.8  38 
 BRR  HZ EP       22 7 48.99                             152    0.3610 74.3 295 
 BRR  HN ES       22 8  6.19                             152    0.7410 74.3 295 
 BRR  HZ I        22 8  9.51        18.1 0.15            149           74.3 295 
 RUS  HZ EP       22 7 51.06                             143   -0.1810  103 179 
 RUS  HN ES       22 8 10.07                             143   -0.0310  103 179 
 RUS  HZ I        22 8 11.44        18.2 0.22            145            103 179 
 PTB  HZ EP       22 7 53.96                             132   -0.75 9  153 258 
 PTB  HN ES       22 8 15.09                             132   -1.19 9  153 258 
 PTB  HZ I        22 8 22.63        23.1 0.36            130            153 258 
 OCA  HZ EP       22 7 55.51                             131    0.19 9  158 351 
 OCA  HN ES       22 8 17.14                             131   -0.23 9  158 351 
 OCA  HZ I        22 8 21.22        50.4 0.18            132            158 351 
 SPBC HZ EP       22 7 56.11                             129   -0.15 9  169 220 
 SPBC HN ES       22 8 18.40                             129   -0.63 9  169 220 
 SPBC HZ I        22 8 20.65        58.5 0.05            129            169 220 
 ZAR  HZ EP   2   22 8  0.67                             123    0.66 4  208 291 
 ZAR  HN ES       22 8 25.27                             123   -0.45 8  208 291 
 ZAR  HZ I        22 8 31.64        21.6 0.38            122            208 291 
 NOR  HZ EP       22 8  3.49                             118   -0.05 8  241 235 
 NOR  HE ES       22 8 31.66                             118   -0.35 8  241 235 
 NOR  HZ I        22 8 38.10        14.9 0.30            118            241 235 
 SML  HZ EP       22 8  3.40                             118   -0.34 8  243 334 
 SML  HN ES       22 8 32.02                             118   -0.34 8  243 334 
 SML  HZ I        22 8 37.20        17.6 0.11            119            243 334 
 ROSC BZ EP   4   22 8  7.65                             117    1.78 0  258 212 
 ROSC BN ES   4   22 8 38.28                             117    2.13 0  258 212 
 ROSC BZ I        22 8 43.65        18.1 0.45            117            258 212 
 HEL  HZ EP       22 8  8.54                             115    0.54 7  278 255 
 HEL  HN ES       22 8 40.20                             115    0.25 7  278 255 
 HEL  HZ I        22 8 45.61        11.1 0.32            115            278 255 
 SOCV BZ EP       22 8  8.71                             113   -0.84 7  295  57 
 SOCV BE ES   4   22 8 41.11                             113   -1.58 0  295  57 
 GUY2CHZ EP       22 8 11.93                             112    0.50 7  307 235 
 GUY2CHE ES       22 8 46.99                             112    0.95 7  307 235 
 GUY2CHZ I        22 8 53.82        15.1 0.76                           307 235 
 ELA  HZ EP   4   22 8 16.87                             110    2.21 0  335 230 
 ELA  HN ES       22 8 52.70                             110    0.90 7  335 230 
 ELA  HZ I        22 9  0.99         8.0 0.48            111            335 230 
 ANIL HE ES   2   22 8 57.31                             109    0.27 3  363 225 
 ANIL HZ I        22 9  1.29        22.0 0.44            109            363 225 
 PRA  HZ EP       22 8 20.62                             107   -0.64 6  397 210 
 PRA  HE ES       22 9  4.22                             107    0.69 6  397 210 
 PRA  HZ I        22 9 11.44         9.3 0.32            107            397 210 
 SJC  HZ EP   4   22 8 21.47                             106   -1.24 0  409 326 
 SJC  HN ES   4   22 9  2.91                             106   -3.22 0  409 326 
 SJC  HZ I        22 9  6.89         3.5 0.13            107            409 326 
                                                                                
