 2016  1 5 2058 10.4 L   6.778 -73.174145.4  RSN 11 0.5 2.2LRSN                1
 GAP=134        1.14       3.5     4.7  7.1 -0.2412E+01  0.9484E+01 -0.1457E+01E
 Epicentro: LOS SANTOS - SANTANDER                                             3
 ACTION:UPD 16-03-09 23:23 OP:cam  STATUS:               ID:20160105205810 L   I
 OLDACT:DUP 16-01-06 04:13 OP:dnl  STATUS:               ID:20160105204752d    3
 2016-01-05-2047-51M.COL___271                                                 6
 STAT SP IPHASW D HRMM SECON CODA AMPLIT PERI AZIMU VELO AIN AR TRES W  DIS CAZ7
 BAR2 EZ EP       2058 30.16                             172    0.2610 20.6 183 
 BAR2 EZ ES       2058 45.30                             172    0.1710 20.6 183 
 BAR2 EZ I        2058 46.80        43.8 0.20            170           20.6 183 
 BRR  HZ EP       2058 31.83                             153    0.4410 69.7 301 
 BRR  HE ES       2058 48.76                             153    0.9710 69.7 301 
 BRR  HZ I        2058 52.89        41.9 0.42            151           69.7 301 
 PAM  EZ IP     C 2058 32.88                             150    0.1110 81.2  40 
 PAM  EN ES       2058 49.75                             150   -0.5010 81.2  40 
 PAM  EZ I        2058 52.25        36.1 0.55            155           81.2  40 
 RUS  HZ EP   2   2058 34.03                             144    0.10 5 98.5 174 
 RUS  HN ES       2058 52.09                             144   -0.2110 98.5 174 
 RUS  HZ I        2058 53.86         9.6 0.32            146           98.5 174 
 PTB  HZ EP   2   2058 37.13                             133    0.15 5  144 260 
 PTB  HN ES       2058 57.40                             133   -0.35 9  144 260 
 PTB  HZ I        2059  3.53        14.4 0.21            132            144 260 
 SPBC HE ES       2058 59.91                             130   -0.49 9  159 219 
 SPBC HZ I        2059  7.01        19.9 0.08            130            159 219 
 ZAR  HE ES       2059  6.84                             123   -0.87 9  202 293 
 ZAR  HZ I        2059 14.75        16.1 0.23            123            202 293 
 NOR  HZ EP       2058 46.30                             119    0.65 8  231 234 
 NOR  HE ES       2059 13.55                             119    0.38 8  231 234 
 NOR  HZ I        2059 20.01         7.8 0.18            120            231 234 
 SML  HZ EP       2058 46.46                             117   -0.61 8  245 336 
 SML  HE ES       2059 15.65                             117   -0.04 8  245 336 
 SML  HZ I        2059 18.19        26.5 0.11            119            245 336 
 CHI  HZ EP   2   2058 48.34                             117    0.64 4  246 195 
 CHI  HE ES       2059 16.23                             117   -0.59 8  246 195 
 CHI  HZ I        2059 21.12         8.6 0.50            119            246 195 
 GUY2CHZ EP   4   2058 55.50                             113    1.99 0  297 235 
 GUY2CHN ES   2   2059 27.62                             113    0.46 4  297 235 
 GUY2CHZ I        2059 37.51         4.6 0.31                           297 235 
                                                                                
