 2012  4 5 2126 35.0 L   6.773 -73.181148.0  RSN  6 0.4 1.7LRSN                1
 GAP=133        0.82       5.6     5.1  7.7  0.5974E+00  0.7625E+01 -0.4989E+00E
 Epicentro: LOS SANTOS - SANTANDER                                             3
 ACTION:UPD 12-07-05 11:50 OP:tino STATUS:               ID:20120405212634 L   I
 2012-04-05-2120-00M.COL___196                                                 6
 STAT SP IPHASW D HRMM SECON CODA AMPLIT PERI AZIMU VELO AIN AR TRES W  DIS CAZ7
 BAR2 SZ EP   1   2126 54.81                             172     0.0 7   20 181 
 BAR2 SZ ES   1   2127 10.23                             172    -0.1 7   20 181 
 BAR2 SZ I        2127 10.93        12.2 0.38                            20 181 
 BRR  HZ EP   1   2126 56.94                             153     0.7 7   69 302 
 BRR  HE ES   1   2127 13.31                             153     0.4 7   69 302 
 BRR  HZ I        2127 15.05        18.9 0.16                            69 302 
 PAM  SZ EP   1   2126 57.82                             150     0.1 7   82  40 
 PAM  SN ES   1   2127 14.97                             150    -0.5 7   82  40 
 RUS  HZ EP   1   2126 58.99                             145     0.2 7   98 174 
 RUS  HN ES   1   2127 17.34                             145     0.0 7   98 174 
 RUS  HZ I        2127 18.88         4.1 0.27                            98 174 
 PTB  HZ EP   1   2127  1.48                             133    -0.3 7  143 260 
 PTB  HN ES   1   2127 22.18                             133    -0.4 7  143 260 
 PTB  HZ I        2127 25.74         5.1 0.16                           143 260 
 ZAR  HZ EP   2   2127  6.61                             123    -0.7 4  202 293 
 ZAR  HE ES   2   2127 32.72                             123     0.2 4  202 293 
 ZAR  HZ I        2127 39.42         6.9 0.38                           202 293 
                                                                                
