 2012  1 5 2159  3.0 L   6.784 -73.130149.0  RSN 14 0.3 2.5LRSN                1
 GAP=127        0.74       2.5     3.0  3.7 -0.1637E+01  0.1710E+01  0.1083E+01E
 Epicentro: LOS SANTOS - SANTANDER                                             3
 ACTION:UP  12-02-03 08:14 OP:REBC STATUS:               ID:20120105215903 L   I
 2012-01-05-2154-42S.COL___158                                                 6
 STAT SP IPHASW D HRMM SECON CODA AMPLIT PERI AZIMU VELO SNR AR TRES W  DIS CAZ7
 BAR2 SZ EP       2159 23.07                             171     0.110   22 195 
 BAR2 SZ ES       2159 38.40                             171    -0.210   22 195 
 BAR2 SZ I        2159 40.85        76.6 0.19                            22 195 
 BRR  HZ IP     C 2159 25.02                             152     0.410   74 299 
 BRR  HE ES       2159 42.00                             152     0.510   74 299 
 BRR  HZ I        2159 44.80        61.3 0.21                            74 299 
 PAM  SZ IP     D 2159 25.94                             151     0.410   78  38 
 PAM  SE ES       2159 42.99                             151    -0.210   78  38 
 RUS  HZ EP       2159 27.00                             145     0.110   99 177 
 RUS  HE ES       2159 45.61                             145     0.010   99 177 
 PTB  HZ EP       2159 30.21                             132    -0.1 9  149 260 
 PTB  HE ES       2159 51.39                             132    -0.3 9  149 260 
 OCA  SZ EP       2159 31.55                             130    -0.2 9  162 353 
 OCA  SZ ES   1   2159 53.83                             130    -0.3 7  162 353 
 OCA  SZ I        2159 58.19        35.1 0.27                           162 353 
 ZAR  HZ EP   1   2159 36.21                             123     0.3 6  206 292 
 ZAR  HE ES   1   22 0  1.58                             123     0.0 6  206 292 
 ZAR  HZ I        22 0  9.05        20.9 0.11                           206 292 
 NOR  SZ EP   1   2159 38.96                             119     0.0 6  235 235 
 NOR  SE ES   1   22 0  6.33                             119    -0.7 6  235 235 
 CHI  HZ EP       2159 40.87                             118     0.1 8  247 196 
 CHI  HE ES   1   22 0 10.18                             118     0.0 6  247 196 
 CHI  HZ I        22 0 18.75        12.5 0.18                           247 196 
 HEL  HZ EP   1   2159 43.29                             115    -0.2 6  273 256 
 HEL  HZ I        22 0 21.53        12.8 0.41                           273 256 
 RREF HZ EP   1   2159 49.85                             111     0.5 5  322 230 
 RREF HN ES   1   22 0 24.99                             111    -0.4 5  322 230 
 RREF HZ I        22 0 32.72        19.2 0.37                           322 230 
 TOL  SZ EP   1   2159 51.42                             110     0.0 5  343 225 
 SDV  BZ EP       2159 52.45                             109    -0.7 6  360  50 
 PRA  HZ EP   1   2159 56.90                             107     0.3 4  391 210 
 PRA  HN ES   1   22 0 38.40                             107     0.1 4  391 210 
                                                                                
