 2016 11 5 2323  6.8 L   6.785 -73.155150.0  RSN  6 0.4 1.8LRSN                1
 GAP=149        0.96       5.2     4.5  6.5 -0.5999E+01  0.6924E+01  0.1804E+01E
 Epicentro: LOS SANTOS - SANTANDER                                             3
 ACTION:UPD 17-10-26 21:05 OP:lp   STATUS:               ID:20161105232306 L   I
 OLDACT:REG 16-11-06 02:43 OP:edw  STATUS:               ID:20161105231743     3
 2016-11-05-2318-00M.COL___346                                                 6
 STAT SP IPHASW D HRMM SECON CODA AMPLIT PERI AZIMU VELO AIN AR TRES W  DIS CAZ7
 BAR2 EZ IP       2323 27.02                             171    0.1510 21.6 188 
 BAR2 EZ ES       2323 42.41                             171   -0.1410 21.6 188 
 BAR2 EZ I        2323 43.77        13.5 0.36            172           21.6 188 
 BRR  HZ EP       2323 28.94                             153    0.5810 71.1 300 
 BRR  HN ES       2323 45.50                             153    0.2810 71.1 300 
 BRR  HZ I        2323 51.56         9.5 0.42            150           71.1 300 
 PAM  EZ EP       2323 29.88                             151    0.3410 79.3  39 
 PAM  EN ES       2323 46.82                             151   -0.4810 79.3  39 
 PAM  EZ I        2323 49.57         6.1 0.64            154           79.3  39 
 PTB  HZ EP       2323 33.40                             133   -0.56 9  146 259 
 PTB  HN ES       2323 54.92                             133   -0.26 9  146 259 
 PTB  HZ I        2324  0.23         5.8 0.26            133            146 259 
 SPBC HZ EP       2323 35.60                             130    0.19 9  161 219 
 SPBC HE ES       2323 57.83                             130    0.07 9  161 219 
 SPBC HZ I        2324  0.86         8.7 0.36            133            161 219 
 ZAR  HZ EP       2323 38.85                             123   -0.60 9  204 293 
 ZAR  HN ES       2324  5.23                             123    0.27 9  204 293 
 ZAR  HZ I        2324 12.13         9.9 0.32            124            204 293 
                                                                                
