 2010 10 5 2346 24.2 L   6.796 -73.121143.2  RSN  5 0.2 1.6LRSN                1
 GAP=161        0.43       2.6     3.9  5.2 -0.1037E+01  0.6509E+00  0.2872E+01E
 Epicentro: LOS SANTOS - SANTANDER                                             3
 ACTION:UP  11-02-18 11:07 OP:tino STATUS:               ID:20101005234624 L   I
 2010-10-05-2343-06S.COL___122                                                 6
 STAT SP IPHASW D HRMM SECON CODA AMPLIT PERI AZIMU VELO SNR AR TRES W  DIS CAZ7
 BRR  HZ EP       2346 45.29                             151     0.110   74 298 
 BRR  HZ I        2346 51.00         8.6 0.15                            74 298 
 BRR  HE ES   1   2347  1.50                             151    -0.1 7   74 298 
 RUS  HZ EP       2346 47.43                             143    -0.210  100 178 
 RUS  HZ I        2346 48.72         5.1 0.15                           100 178 
 RUS  HE ES   1   2347  6.13                             143     0.2 7  100 178 
 GRA  SZ EP   2   2346 49.06                             137    -0.1 5  125  16 
 GRA  SZ ES   2   2347  8.60                             137     0.0 5  125  16 
 GRA  SZ I        2347  9.84         5.7 0.48                           125  16 
 NOR  SZ EP   2   2347  0.55                             118     0.6 4  237 235 
 NOR  SN ES   1   2347 27.69                             118    -0.2 6  237 235 
 PRA  HZ EP   2   2347 17.61                             106    -0.1 3  393 210 
 PRA  HE ES   2   2347 59.56                             106     0.1 3  393 210 
                                                                                
