 2011  8 5 2009 20.3 L   6.731 -73.155134.0  RSN  4 0.4 1.5LRSN                1
 GAP=231        0.77       6.3     7.6  8.2  0.1213E+02  0.2176E+02  0.1328E+02E
 Epicentro: VILLANUEVA - SANTANDER                                             3
 ACTION:UPD 12-07-25 14:06 OP:epov STATUS:               ID:20110805200920 L   I
 2011-08-05-2000-00M.COL___145                                                 6
 STAT SP IPHASW D HRMM SECON CODA AMPLIT PERI AZIMU VELO AIN AR TRES W  DIS CAZ7
 BAR2 SZ EP   1   20 9 38.54                             173    0.14 7 15.7 191 
 BAR2 SZ ES   1   20 9 52.25                             173   -0.25 7 15.7 191 
 BAR2 SZ I        20 9 54.09        13.7 0.16                          15.7 191 
 BRR  HZ EP   1   20 9 39.91                             149   -0.50 7 74.3 304 
 BRR  HE ES   1   20 9 56.46                             149    0.39 7 74.3 304 
 BRR  HZ I        20 9 58.29        23.5 0.30                          74.3 304 
 RUS  HZ EP   1   20 9 42.18                             143   -0.20 7 93.1 175 
 RUS  HN ES   1   20 9 59.83                             143    0.25 7 93.1 175 
 RUS  HZ I        2010  1.08         5.5 0.24                          93.1 175 
 NOR  SZ EP   1   20 9 55.59                             116    0.75 6  230 236 
 NOR  SN ES   1   2010 21.25                             116   -0.50 6  230 236 
 NOR  SZ I        2010 27.36         0.6 0.19                           230 236 
                                                                                
