 2017  3 5 2032 36.9 L   6.129 -73.695111.3  RSN 10 0.3 1.3LRSN                1
 GAP= 70        0.85       2.2     2.9  4.7 -0.1127E+01  0.2751E+01  0.5705E+00E
 Epicentro: CHIPATA - SANTANDER                                                3
 ACTION:UPD 17-05-25 18:36 OP:jn   STATUS:               ID:20170305203236 L   I
 OLDACT:UP  17-03-06 03:54 OP:edw  STATUS:               ID:20170305202745     3
 OLDACT:REG 17-03-06 03:08 OP:edw  STATUS:               ID:20170305202745     3
 2017-03-05-2028-00M.COL___390                                                 6
 STAT SP IPHASW D HRMM SECON CODA AMPLIT PERI AZIMU VELO AIN AR TRES W  DIS CAZ7
 SPBC HZ EP       2032 54.52                             146    0.2310 67.3 218 
 SPBC HN ES       2033  8.33                             146    0.4610 67.3 218 
 SPBC HZ I        2033 10.43         9.4 0.18            147           67.3 218 
 RUS  HZ EP       2032 55.23                             145    0.0110 72.5 111 
 RUS  HN ES       2033  8.80                             145   -0.7310 72.5 111 
 RUS  HZ I        2033 13.33         3.3 0.16            143           72.5 111 
 BAR2 EZ EP       2032 55.32                             143    0.1810 76.4  48 
 BAR2 EZ ES       2033  9.64                             143    0.2510 76.4  48 
 BAR2 EZ I        2033 11.18         8.1 0.22            143           76.4  48 
 PTB  HZ EP   9   2032 55.75                             136   -0.61 0 95.7 298 
 PTB  HN ES       2033 10.92                             136   -0.0310 95.7 298 
 PTB  HZ I        2033 13.05         2.5 0.10            138           95.7 298 
 BRR  HZ EP       2032 57.48                             132    0.0510  108 359 
 BRR  HN ES       2033 13.36                             132   -0.1010  108 359 
 NOR  HZ EP       2033  1.02                             123    0.03 9  144 244 
 NOR  HN ES       2033 19.29                             123   -0.50 9  144 244 
 NOR  HZ I        2033 21.64         4.4 0.12            124            144 244 
 CHI  HZ EP       2033  3.86                             120    0.17 9  166 181 
 CHI  HN ES       2033 25.07                             120    0.47 9  166 181 
 CHI  HZ I        2033 30.61         3.0 0.54            120            166 181 
 PAM  EZ EP       2033  4.35                             118   -0.24 9  173  39 
 PAM  EE ES   4   2033 24.16                             118   -2.04 0  173  39 
 PAM  EZ I        2033 35.87         1.5 0.22            119            173  39 
 ZAR  HZ EP       2033  6.78                             114    0.09 9  198 320 
 ZAR  HN ES       2033 29.90                             114   -0.05 9  198 320 
 ZAR  HZ I        2033 32.12         4.2 0.30            115            198 320 
 PRA  HZ EP       2033 18.45                             105    0.23 7  298 206 
 PRA  HN ES       2033 49.67                             105   -0.79 7  298 206 
 PRA  HZ I        2033 58.23         1.5 0.34            105            298 206 
                                                                                
