 2012 11 5 2001 21.3 L   6.793 -73.102135.2  RSN  9 0.5 2.0LRSN                1
 GAP=142        1.10       4.5     6.2  7.1 -0.1503E+01  0.1458E+02  0.5984E+01E
 Epicentro: LOS SANTOS - SANTANDER                                             3
 ACTION:UPD 12-12-05 15:31 OP:}ep  STATUS:               ID:20121105200121 L   I
 2012-11-05-2000-00M.COL___230                                                 6
 STAT SP IPHASW D HRMM SECON CODA AMPLIT PERI AZIMU VELO AIN AR TRES W  DIS CAZ7
 BAR2 SZ EP       20 1 39.61                             169   -0.1010 23.9 202 
 BAR2 SZ ES       20 1 53.65                             169   -0.3910 23.9 202 
 BAR2 SZ I        20 1 55.62        34.9 0.24                          23.9 202 
 GIR2 SZ EP       20 1 39.61                             165   -0.2010 33.2 342 
 PAM  SZ EP       20 1 42.53                             150    0.2410 75.0  36 
 PAM  SN ES       20 1 59.23                             150    0.6010 75.0  36 
 PAM  SN I        20 2  0.18        34.9 0.46                          75.0  36 
 BRR  HZ EP       20 1 41.46                             149   -0.1810 75.8 297 
 BRR  HN ES       20 1 57.92                             149    0.4510 75.8 297 
 BRR  HZ I        20 1 59.12        14.0 0.28                          75.8 297 
 RUS  HZ EP       20 1 43.71                             142   -0.2810 99.6 179 
 RUS  HN ES   1   20 2  1.71                             142    0.05 7 99.6 179 
 RUS  HN I        20 2  3.44        13.3 0.24                          99.6 179 
 OCA  HN ES   1   20 2  9.09                             127   -1.46 7  162 351 
 ZAR  HZ EP       20 1 54.42                             119    0.80 8  209 292 
 ZAR  HN ES   2   20 2 18.38                             119   -0.42 4  209 292 
 ZAR  HN I        20 2 23.28        15.6 0.24                           209 292 
 HEL  HZ EP   1   20 2  1.86                             112    0.32 6  277 256 
 HEL  HN ES   2   20 2 32.09                             112   -0.81 4  277 256 
 HEL  HN I        20 2 37.46         4.8 0.46                           277 256 
 PRA  HZ EP       20 2 14.42                             105   -0.30 6  394 210 
 PRA  HE ES       20 2 56.73                             105    0.37 6  394 210 
 PRA  HN I        20 3  0.99         3.0 0.28                           394 210 
                                                                                
