 2010  8 5 2310 13.6 L   6.838 -73.101143.9  RSN  5 0.2 1.6LRSN                1
 GAP=163        0.50       3.5     6.8  7.9 -0.6746E+01 -0.8681E+01  0.2803E+01E
 Epicentro: LOS SANTOS - SANTANDER                                             3
 *GRA-GUE                                                                      3
 ACTION:UP  10-09-07 10:52 OP:vdl  STATUS:               ID:20100805231013 L   I
 2010-08-05-2307-45S.COL___125                                                 6
 STAT SP IPHASW D HRMM SECON CODA AMPLIT PERI AZIMU VELO SNR AR TRES W  DIS CAZ7
 BAR2 SZ EP   2   2310 32.62                             168    -0.5 5   29 199 
 BAR2 SZ I        2310 50.01         8.8 0.24                            29 199 
 BRR  HZ EP       2310 34.65                             151    -0.110   74 294 
 BRR  HZ I        2310 36.69        10.3 0.09                            74 294 
 BRR  HE ES   2   2310 51.37                             151     0.2 5   74 294 
 RUS  HZ EP   1   2310 37.71                             142     0.2 7  105 179 
 RUS  HN ES   2   2310 56.13                             142     0.0 5  105 179 
 RUS  HZ I        2310 58.38         3.9 0.24                           105 179 
 GUE  SZ EP   1   2310 37.71                             140    -0.1 7  111  10 
 GRA  SZ EP   1   2310 38.49                             138     0.2 7  120  16 
 GRA  SZ ES   1   2310 57.40                             138    -0.1 7  120  16 
 GRA  SZ I        2310 58.84        10.8 0.35                           120  16 
                                                                                
