 2011  7 5 2202 20.3 L   6.750 -73.088145.4  RSN  4 0.2 1.4LRSN                1
 GAP=146        0.48       3.8     5.2  5.3  0.2170E+01 -0.6214E+01 -0.2724E+01E
 Epicentro: LOS SANTOS - SANTANDER                                             3
 ACTION:UPD 12-07-25 13:58 OP:epov STATUS:               ID:20110705220220 L   I
 2011-07-05-2200-48S.COL___123                                                 6
 STAT SP IPHASW D HRMM SECON CODA AMPLIT PERI AZIMU VELO AIN AR TRES W  DIS CAZ7
 BTL  SZ EP       22 2 39.99                             169    0.0310 27.2 313 
 BTL  SZ ES   1   22 2 54.94                             169   -0.36 7 27.2 313 
 PAM  SZ EP       22 2 42.63                             150    0.1310 78.0  33 
 PAM  SN ES   2   22 2 59.85                             150    0.03 5 78.0  33 
 BRR  HZ EP       22 2 41.77                             150   -0.1110 79.4 300 
 BRR  HN ES   1   22 2 58.98                             150    0.26 7 79.4 300 
 BRR  HZ I        22 3  7.34        10.4 0.42                          79.4 300 
 RUS  HZ EP   2   22 2 43.21                             145   -0.39 5 94.9 180 
 RUS  HN ES   1   22 3  1.96                             145    0.18 7 94.9 180 
 RUS  HZ I        22 3  3.29         1.8 0.38                          94.9 180 
                                                                                
