 2014  4 5 2336  2.2 L   7.134 -73.143148.0  RSN 16 0.4 2.5LRSN                1
 GAP= 64        0.94       2.4     2.8  4.9 -0.2790E+00  0.1241E+01  0.2391E+01E
 Epicentro: BUCARAMANGA - SANTANDER                                            3
 ACTION:UPD 14-05-13 23:06 OP:nd   STATUS:               ID:20140405233602 L   I
 OLDACT:REG 14-04-06 03:10 OP:mh   STATUS:               ID:20140405232806     3
 2014-04-05-2328-06M.COL___256                                                 6
 STAT SP IPHASW D HRMM SECON CODA AMPLIT PERI AZIMU VELO AIN AR TRES W  DIS CAZ7
 PAM  SZ EP       2336 23.71                             159    0.2110 54.0  65 
 PAM  SN ES       2336 40.17                             159    0.0910 54.0  65 
 PAM  SZ I        2336 41.41        82.3 0.22            160           54.0  65 
 BRR  HZ EP       2336 23.50                             156    0.3110 62.9 267 
 BRR  HN ES       2336 40.15                             156    0.6110 62.9 267 
 BRR  HZ I        2336 42.46        70.4 0.34            149           62.9 267 
 OCA  HZ EP       2336 27.79                             138    0.2710  124 351 
 OCA  HN ES       2336 47.50                             138    0.2710  124 351 
 OCA  HZ I        2336 55.92        24.9 0.08            132            124 351 
 RUS  HZ EP       2336 28.74                             135   -0.40 9  137 177 
 RUS  HN ES       2336 49.21                             135   -0.90 9  137 177 
 PTB  HZ EP       2336 30.11                             130   -0.34 9  159 246 
 PTB  HN ES       2336 51.63                             130   -0.83 9  159 246 
 TAM  HZ IP     D 2336 31.58                             129    0.25 9  168 117 
 TAM  HN ES       2336 54.07                             129    0.05 9  168 117 
 ZAR  HZ EP   1   2336 33.67                             124   -0.09 7  193 282 
 ZAR  HN ES       2336 58.57                             124    0.24 9  193 282 
 ZAR  HZ I        2337  5.05        62.2 0.06            119            193 282 
 SPBC HZ EP   1   2336 33.76                             124   -0.11 7  193 212 
 SPBC HN ES       2336 58.77                             124    0.24 9  193 212 
 SML  HZ EP       2336 35.28                             122   -0.24 8  211 331 
 SML  HN ES       2337  0.90                             122   -0.57 8  211 331 
 NOR  HZ EP       2336 40.48                             116   -0.16 8  258 228 
 NOR  HN ES   1   2337 10.56                             116   -0.02 6  258 228 
 NOR  HZ I        2337 16.59        26.4 0.16            113            258 228 
 URE  HZ EP   4   2336 45.19                             115    3.03 0  272 285 
 URE  HN ES   4   2337 10.67                             115   -2.62 0  272 285 
 HEL  HZ EP   4   2336 46.53                             114    2.68 0  284 249 
 HEL  HN ES   2   2337 15.85                             114   -0.46 4  284 249 
 HEL  HZ I        2337 24.53        25.7 0.38            111            284 249 
 CHI  HZ EP       2336 44.16                             114    0.15 7  285 193 
 CHI  HN ES       2337 16.79                             114    0.20 7  285 193 
 CHI  HZ I        2337 23.28         7.8 0.43            112            285 193 
 GUY2CHZ EP   1   2336 48.84                             111    0.29 5  324 229 
 GUY2CHN ES   2   2337 24.50                             111   -0.17 3  324 229 
 GUY2CHZ I        2337 35.26        12.9 0.09                           324 229 
 SDV  BZ EP       2336 49.23                             110   -0.53 7  338  55 
 SDV  BN ES   4   2337 24.31                             110   -2.51 0  338  55 
 RREF HZ EP   4   2336 53.12                             110    1.74 0  347 225 
 RREF HN ES   4   2337 32.02                             110    2.31 0  347 225 
 SJC  HZ EP   4   2336 53.60                             108   -0.74 0  379 324 
 SJC  HN ES   4   2337 32.33                             108   -2.65 0  379 324 
 PRA  HZ EP       2337  0.19                             105    0.52 5  425 207 
 PRA  HN ES   1   2337 45.60                             105    1.14 4  425 207 
 ORTC HZ EP       2337  0.87                             105    1.05 5  426 213 
 ORTC HN ES   1   2337 44.58                             105   -0.15 4  426 213 
                                                                                
