 2017  2 5 2233 21.7 L   6.806 -73.164139.2  RSN  5 0.4 1.4LRSN                1
 GAP=134        0.93       3.8     4.3  8.2  0.1066E+01  0.1262E+02  0.4704E+01E
 Epicentro: LOS SANTOS - SANTANDER                                             3
 ACTION:UPD 17-05-24 15:32 OP:jn   STATUS:               ID:20170205223321 L   I
 OLDACT:UP  17-02-06 06:58 OP:dani STATUS:               ID:20170205222741     3
 OLDACT:REG 17-02-06 03:44 OP:dani STATUS:               ID:20170205222741     3
 2017-02-05-2228-00M.COL___331                                                 6
 STAT SP IPHASW D HRMM SECON CODA AMPLIT PERI AZIMU VELO AIN AR TRES W  DIS CAZ7
 PAM  EZ EP       2233 43.54                             149    0.2910 78.2  41 
 PAM  EN ES       2233 59.79                             149   -0.2910 78.2  41 
 PAM  EZ I        2234  1.39         4.9 0.25            153           78.2  41 
 RUS  HZ EP       2233 44.48                             142   -0.3710  101 175 
 RUS  HN ES       2234  3.38                             142    0.4610  101 175 
 RUS  HZ I        2234  4.79         2.9 0.44            144            101 175 
 PTB  HZ EP       2233 47.31                             131   -0.64 9  146 258 
 PTB  HE ES       2234  8.26                             131   -0.18 9  146 258 
 PTB  HZ I        2234 10.27         3.0 0.18            131            146 258 
 ZAR  HZ EP       2233 54.07                             121    0.58 9  202 292 
 ZAR  HN ES       2234 18.54                             121    0.24 9  202 292 
 ZAR  HZ I        2234 23.96         2.2 0.22            122            202 292 
 CHI  HZ EP       2233 59.09                             116    0.06 8  249 195 
 CHI  HN ES       2234 28.14                             116   -0.02 8  249 195 
 CHI  HZ I        2234 32.04         2.5 0.42            117            249 195 
                                                                                
