 2016 12 5 2115 20.1 L   7.256 -73.268118.0  RSN  5 0.4 1.3LRSN                1
 GAP=163        0.84       6.4     3.7  6.7  0.1261E+01  0.9331E+01 -0.7879E+01E
 Epicentro: RIONEGRO - SANTANDER                                               3
 ACTION:UPD 17-01-11 20:12 OP:rebc STATUS:               ID:20161205211520 L   I
 OLDACT:UP  16-12-06 04:21 OP:dani STATUS:               ID:20161205210744     3
 OLDACT:UP  16-12-06 04:21 OP:dani STATUS:               ID:20161205210744     3
 OLDACT:REG 16-12-06 04:01 OP:dani STATUS:               ID:20161205210744     3
 2016-12-05-2108-00M.COL___340                                                 6
 STAT SP IPHASW D HRMM SECON CODA AMPLIT PERI AZIMU VELO AIN AR TRES W  DIS CAZ7
 BRR  HZ EP       2115 36.94                             155   -0.2510 51.8 251 
 BRR  HN ES       2115 50.77                             155    0.2710 51.8 251 
 BRR  HZ I        2115 51.55        10.9 0.17            154           51.8 251 
 PAM  EZ EP       2115 38.43                             150   -0.1310 63.4  82 
 PAM  EE ES       2115 53.05                             150    0.1110 63.4  82 
 PAM  EZ I        2115 55.19         2.6 0.20            154           63.4  82 
 BAR2 EZ EP       2115 39.43                             146    0.5410 74.0 173 
 BAR2 EZ ES       2115 52.99                             146   -0.5310 74.0 173 
 PTB  HZ EP       2115 45.67                             124    0.10 9  153 239 
 PTB  HE ES   3   2116  7.27                             124    1.87 2  153 239 
 PTB  HZ I        2116  9.34         2.2 0.32            125            153 239 
 ZAR  HZ EP       2115 47.89                             119   -0.17 9  178 279 
 ZAR  HN ES       2116  9.77                             119   -0.08 9  178 279 
 ZAR  HZ I        2116 12.87         3.3 0.12            120            178 279 
                                                                                
