 2017  8 5 2234 54.5 L   6.773 -73.130139.8  RSN 16 0.4 2.3LRSN 2.8WRSN        1
 SPEC AVERAGE  MO 13.3 ST0.367 OM  1.6 f0 2.77 R0.8533 AL 0.00 WI 30.0 MW  2.8 3
 SPEC SD       MO  0.6 ST  1.9 OM  0.7 f0 1.20 R0.3538 AL      WI      MW  0.4 3
 GAP= 97        0.89       2.8     2.3  4.2  0.1897E+00  0.2558E+01  0.1685E+01E
 Epicentro: LOS SANTOS - SANTANDER                                             3
 SPEC BRR HH Z MO 13.1 ST0.798 OM  1.2 f0 4.64 R0.4147 AL 0.00 WI 30.0 MW  2.7 3
 SPEC BRR HH Z T223530 K 0.000 GD  158 VS 5.20 DE 3.50 Q0750.0 QA 1.50 VS 3.50 3
 SPEC RUS HH Z MO 13.3 ST0.312 OM  1.4 f0 2.84 R0.6775 AL 0.00 WI 30.0 MW  2.8 3
 SPEC RUS HH Z T223533 K 0.000 GD  170 VS 5.20 DE 3.50 Q0750.0 QA 1.50 VS 3.50 3
 SPEC ZAR HH Z MO 13.3 ST0.940 OM  1.2 f0 4.21 R0.4570 AL 0.00 WI 30.0 MW  2.8 3
 SPEC ZAR HH Z T223550 K 0.000 GD  249 VS 5.20 DE 3.50 Q0750.0 QA 1.50 VS 3.50 3
 SPEC CHI HH Z MO 13.2 ST0.059 OM  1.0 f0 1.87 R1.0289 AL 0.00 WI 30.0 MW  2.7 3
 SPEC CHI HH Z T223558 K 0.000 GD  282 VS 5.20 DE 3.50 Q0750.0 QA 1.50 VS 3.50 3
 SPEC HEL HH Z MO 13.4 ST0.037 OM  1.2 f0 1.34 R1.4358 AL 0.00 WI 30.0 MW  2.9 3
 SPEC HEL HH Z T2236 3 K 0.000 GD  306 VS 5.20 DE 3.50 Q0750.0 QA 1.50 VS 3.50 3
 SPECGUY2CHH Z MO 13.4 ST0.022 OM  1.2 f0 1.10 R1.7491 AL 0.00 WI 30.0 MW  2.9 3
 SPECGUY2CHH Z T223610 K 0.000 GD  331 VS 5.20 DE 3.50 Q0750.0 QA 1.50 Q1 0.00 3
 SPEC SJC HH Z MO 13.3 ST0.058 OM  0.9 f0 1.74 R1.1057 AL 0.00 WI 30.0 MW  2.8 3
 SPEC SJC HH Z T223627 K 0.000 GD  436 VS 5.20 DE 3.50 Q0750.0 QA 1.50 VS 3.50 3
 OLDACT:DUP 17-08-06 05:05 OP:lv   STATUS:               ID:20170805222745d    3
 ACTION:UPD 17-09-04 20:16 OP:rebc STATUS:               ID:20170805223454 L   I
 OLDACT:UP  17-08-06 05:19 OP:lv   STATUS:               ID:20170805222745d    3
 2017-08-05-2228-00M.COL___402                                                 6
 STAT SP IPHASW D HRMM SECON CODA AMPLIT PERI AZIMU VELO AIN AR TRES W  DIS CAZ7
 BAR2 EZ EP       2235 13.13                             171   -0.2210 20.9 196 
 BAR2 EZ ES       2235 27.82                             171   -0.2510 20.9 196 
 BRR  HZ IP     C 2235 15.07                             150   -0.1010 74.2 300 
 BRR  HN ES       2235 31.99                             150    0.6810 74.2 300 
 PAM  EZ EP       2235 16.16                             149    0.0110 78.6  37 
 PAM  EN ES       2235 33.12                             149    0.0810 78.6  37 
 PAM  EZ I        2235 35.52        45.5 0.71            151           78.6  37 
 RUS  HZ EP       2235 17.31                             143   -0.1210 97.5 177 
 RUS  HN ES       2235 34.94                             143   -0.3910 97.5 177 
 RUS  HZ I        2235 36.44        25.7 0.08            145           97.5 177 
 PTB  HZ EP   9   2235 20.08                             130   -1.01 0  149 260 
 PTB  HN ES       2235 40.45                                   -0.38 9  149 260 
 PTB  HZ I        2235 43.52        16.2 0.20            130            149 260 
 TAM  HZ IP     D 2235 21.47                             130    0.00 9  153 104 
 TAM  HN ES       2235 42.63                             130    0.12 9  153 104 
 SPBC HZ EP       2235 22.25                             128   -0.17 9  162 220 
 SPBC HN ES       2235 44.06                             128   -0.16 9  162 220 
 SPBC HZ I        2235 45.25        20.3 0.21            128            162 220 
 YPLC HZ EP       2235 23.51                             126   -0.00 9  173 151 
 YPLC HN ES       2235 46.46                             126    0.31 9  173 151 
 YPLC HZ I        2235 49.97        18.7 0.14            128            173 151 
 ZAR  HZ EP       2235 26.32                             121   -0.52 8  207 293 
 ZAR  HN ES       2235 52.24                             121    0.16 8  207 293 
 ZAR  HZ I        2235 59.98        27.9 0.13            121            207 293 
 NOR  HZ EP       2235 29.76                             117   -0.09 8  234 235 
 NOR  HN ES       2235 57.82                             117    0.39 8  234 235 
 CHI  HZ EP   4   2235 32.75                             116    1.15 0  246 196 
 CHI  HN ES       2236  0.42                             116   -0.13 8  246 196 
 HEL  HZ EP       2235 35.27                             113    0.76 8  273 256 
 HEL  HN ES       2236  4.83                             113   -0.91 8  273 256 
 HEL  HZ I        2236 14.02         9.4 0.18            114            273 256 
 URE  HZ EP   4   2235 32.34                             112   -3.24 0  287 292 
 URE  HN ES   4   2236  5.20                             112   -2.44 0  287 292 
 GUY2CHZ EP       2235 38.09                             111    0.29 7  301 235 
 GUY2CHN ES       2236 12.46                             111    0.88 7  301 235 
 LL6C HZ EP   4   2235 38.28                             109   -2.01 0  328 357 
 LL6C HN ES   4   2236 15.38                             109   -0.63 0  328 357 
 CBOC HZ EP       2235 41.45                             109    0.20 7  334 253 
 CBOC HN ES   4   2236 16.24                             109   -1.49 0  334 253 
 DBB  EZ EP       2235 41.45                             108   -0.51 7  341 275 
 DBB  EN ES   4   2236 14.92                             108   -4.07 0  341 275 
 DBB  EZ I        2236 22.00         7.0 0.35            109            341 275 
 SJC  HZ EP   4   2235 48.11                             104   -2.15 0  413 327 
 SJC  HN ES   4   2236 28.91                             104   -4.86 0  413 327 
 SJC  HZ I        2236 33.78         7.4 0.08            105            413 327 
                                                                                
