 2016  9 5 2105 38.2 L   6.825 -73.076154.0  RSN 37 0.6 3.5LRSN                1
 GAP= 53        1.11       2.4     2.8  4.3 -0.1843E+01  0.2796E+01  0.1970E+00E
 Epicentro: LOS SANTOS - SANTANDER                                             3
     108.0      36.0     155.0 13.0 15.0  7.0  0.0  0.1           RSN FPFIT    F
 ACTION:UPD 17-08-17 21:07 OP:lp   STATUS:               ID:20160905210538 L   I
 OLDACT:UP  17-01-28 17:31 OP:lp   STATUS:               ID:20160905210538 L   3
 OLDACT:UP  17-01-28 17:24 OP:nlst STATUS:               ID:20160905210538 L   3
 OLDACT:UP  16-09-06 03:43 OP:edw  STATUS:               ID:20160905205741d    3
 OLDACT:UP  16-09-06 03:42 OP:edw  STATUS:               ID:20160905205741d    3
 OLDACT:DUP 16-09-06 03:22 OP:edw  STATUS:               ID:20160905205741d    3
 2016-09-05-2058-00M.COL___366                                                 6
 STAT SP IPHASW D HRMM SECON CODA AMPLIT PERI AZIMU VELO AIN AR TRES W  DIS CAZ7
 BAR2 HZ IP     C 21 5 58.75                             169   -0.1410 28.3 205 
 BAR2 HZ ES       21 6 14.81                             169   -0.2510 28.3 205 
 BAR2 HZ I        21 6 15.59      1071.1 0.32            167           28.3 205 
 PAM  EZ IP     C 21 6  1.52                             154    0.6410 70.4  36 
 PAM  EN ES       21 6 18.76                             154    0.1610 70.4  36 
 PAM  EZ I        21 6 21.38       446.1 0.60            157           70.4  36 
 BRR  HZ IP     C 21 6  0.60                             152    0.0710 76.9 294 
 BRR  HN ES       21 6 18.51                             152    0.5410 76.9 294 
 BRR  HZ I        21 6 21.26       236.4 0.16            148           76.9 294 
 RUS  HZ IP     D 21 6  2.56                             145   -0.3610  103 180 
 RUS  HN ES       21 6 21.57                             145   -0.6510  103 180 
 RUS  HZ I        21 6 22.65       423.9 0.30            145            103 180 
 TAM  HZ EP     D 21 6  6.93                             134    1.02 9  148 107 
 TAM  HN ES       21 6 27.62                             134    0.06 9  148 107 
 TAM  HZ I        21 6 30.07       187.3 0.48            137            148 107 
 PTB  HZ EP   9 C 21 6  5.23                             132   -1.32 0  156 258 
 PTB  HN ES       21 6 26.75                             132   -0.61 9  156 258 
 PTB  HZ I        21 6 34.09       806.4 0.38            130            156 258 
 OCA  HZ EP       21 6  6.84                             132   -0.14 9  159 350 
 OCA  HN ES       21 6 29.29                             132   -0.16 9  159 350 
 OCA  HZ I        21 6 34.77       961.5 0.26            131            159 350 
 SPBC HZ EP       21 6  7.75                             129   -0.22 9  170 220 
 SPBC HE ES       21 6 31.03                             129   -0.19 9  170 220 
 SPBC HZ I        21 6 32.63       646.1 0.24            129            170 220 
 ZAR  HZ EP       21 6 11.61                             123   -0.18 8  210 291 
 ZAR  HN ES   4   21 6 36.72                             123   -1.30 0  210 291 
 ZAR  HZ I        21 6 43.91       611.6 0.30            122            210 291 
 NOR  HZ EP       21 6 14.83                             119   -0.40 8  243 235 
 NOR  HN ES       21 6 43.78                             119   -0.36 8  243 235 
 NOR  HZ I        21 6 47.38       185.2 0.24            119            243 235 
 CHI  HZ EP     D 21 6 16.37                             118   -0.48 8  253 197 
 CHI  HN ES       21 6 47.04                             118    0.01 8  253 197 
 CHI  HZ I        21 6 53.89       143.9 0.46            118            253 197 
 ROSC BZ EP       21 6 18.23                             118    0.79 8  259 212 
 ROSC BN ES   4   21 6 51.50                             118    3.42 0  259 212 
 ROSC BZ I        21 6 56.64       406.3 0.40            117            259 212 
 HEL  HZ EP       21 6 20.73                             115    1.02 7  280 256 
 HEL  HN ES       21 6 52.89                             115    0.78 7  280 256 
 HEL  HZ I        21 6 57.28       287.3 0.34            115            280 256 
 URE  HZ EP   4   21 6 23.14                             114    2.81 0  290 291 
 URE  HN ES   4   21 6 50.64                             114   -2.58 0  290 291 
 URE  HZ I        21 7  0.04       188.8 0.28            114            290 291 
 SOCV BZ EP   4 C 21 6 21.32                             114    0.61 0  293  56 
 SOCV BE ES       21 6 53.80                             114   -0.10 7  293  56 
 LL1C HZ EP   4   21 6 23.97                             113    2.00 0  305 350 
 LL1C HE ES   4   21 6 56.56                             113    0.42 0  305 350 
 LL1C HE EP   4   21 6 58.09                             113   36.12 0  305 350 
 VIL  EZ EP       21 6 21.82                             113   -0.64 7  308 193 
 VIL  EN ES   4   21 6 58.45                             113    1.44 0  308 193 
 GUY2CHZ EP       21 6 23.13                             113    0.07 7  309 235 
 GUY2CHN ES       21 6 58.15                             113    0.08 7  309 235 
 GUY2CHZ I        21 7  3.70       159.0 0.34                           309 235 
 PTGC HZ IP     D 21 6 21.51                             113   -0.88 7  309 160 
 PTGC HN ES   4   21 6 54.67                             113   -2.22 0  309 160 
 PTGC HZ I        21 6 58.73        69.5 0.30            114            309 160 
 LL6C HZ EP       21 6 23.37                             112   -0.59 7  323 356 
 LL6C HZ ES       21 6 59.40                             112   -0.28 7  323 356 
 LL6C HZ I        21 7  2.53        76.0 0.26            112            323 356 
 ELA  HZ EP       21 6 26.84                             111    0.59 7  337 230 
 ELA  HN ES       21 7  3.71                             111   -0.05 7  337 230 
 ELA  HZ I        21 7 11.31       144.8 0.62            111            337 230 
 CBOC HZ EP   4   21 6 27.55                             111    1.18 0  342 252 
 CBOC HN ES       21 7  3.80                             111   -0.17 7  342 252 
 CBOC HZ I        21 7 19.10        92.4 0.58            110            342 252 
 DBB  HZ EP       21 6 27.52                             110    0.67 6  347 274 
 DBB  HZ ES       21 7  4.20                             110   -0.62 6  347 274 
 DBB  HZ I        21 7 16.78        61.7 0.72            110            347 274 
 ARGC HZ EP   1   21 6 28.77                             110    0.61 5  359 339 
 ARGC HN ES       21 7  7.20                             110    0.05 6  359 339 
 ARGC HZ I        21 7 16.90        79.0 0.31            110            359 339 
 ANIL HZ EP     C 21 6 29.74                             109    0.58 6  365 225 
 ANIL HN ES       21 7 10.41                             109    1.48 6  365 225 
 ANIL HZ I        21 7 21.81       330.8 0.40            109            365 225 
 SJC  HZ EP   4   21 6 32.91                             107   -1.33 0  411 326 
 SJC  HN ES   4   21 7 14.31                             107   -3.66 0  411 326 
 SJC  HZ I        21 7 25.56        63.4 0.36            107            411 326 
 PAL  HZ EP       21 6 34.34                             107   -0.21 6  414 239 
 PAL  HN ES   4   21 7 20.37                             107    1.83 0  414 239 
 PAL  HZ I        21 7 30.00        39.0 0.32            107            414 239 
 LCBC HZ EP   2   21 6 36.00                             106    0.01 3  427 302 
 LCBC HN ES   2   21 7 21.18                             106    0.08 3  427 302 
 LCBC HZ I        21 7 25.34        65.5 0.26            106            427 302 
 CRJC HZ EP   4   21 6 38.99                             105   -1.54 0  464   3 
 CRJC HN ES   4   21 7 25.02                             105   -4.15 0  464   3 
 CRJC HZ I        21 7 32.13        77.6 0.52            105            464   3 
 YOT  HZ EP       21 6 42.17                             104   -0.19 5  480 229 
 YOT  HE ES       21 7 31.80                             104   -0.63 5  480 229 
 SMAR HZ EP       21 6 43.92                             103   -0.25 4  496 345 
 SMAR HN ES       21 7 32.87                             103   -2.77 4  496 345 
 SMAR HZ I        21 7 34.58        54.0 0.42            104            496 345 
 BET  HZ EP       21 6 47.14                             103   -0.26 4  523 210 
 BET  HN ES       21 7 41.20                             103   -0.20 4  523 210 
 BET  HZ I        21 7 51.52        24.0 0.38            103            523 210 
 DABV BZ EP       21 6 47.81                             102    0.03 4  527  30 
 DABV BN ES   4   21 7 39.52                             102   -2.55 0  527  30 
 MARO HZ EP   4   21 6 48.91                             102   -1.29 0  544 216 
 MARO HE ES       21 7 45.92                             102   -0.47 4  544 216 
 MARO HZ I        21 7 50.27        12.6 0.30            102            544 216 
 URI  HZ EP   4   21 6 49.21                             102   -1.63 0  552  12 
 URI  HN ES   4   21 7 43.28                             102   -4.23 0  552  12 
 URI  HZ I        21 7 45.02        16.7 0.38            102            552  12 
 GARC HZ EP   4   21 6 52.62                             101   -1.71 0  579 208 
 GARC HN ES   4   21 7 48.72                             101   -5.02 0  579 208 
 GARC HZ I        21 7 56.76        34.9 0.30            101            579 208 
 CONO HZ EP       21 6 59.36                             100   -0.17 3  619 217 
 CONO HE ES   4   21 8  0.76                             100   -2.24 0  619 217 
 BBAC HZ EP       21 7  9.96                              98    0.57 1  705 221 
 BBAC HN ES   4   21 8 19.49                              98   -1.05 0  705 221 
 BBAC HZ I        21 8 24.17         6.3 0.36             99            705 221 
                                                                                
