 2015  6 5 2056 41.7 L   6.786 -73.094149.4  RSN 15 0.4 2.2LRSN                1
 GAP=124        0.81       3.0     3.6  4.6 -0.2944E+00  0.4347E+01  0.3822E+01E
 Epicentro: LOS SANTOS - SANTANDER                                             3
 ACTION:UPD 15-09-10 22:10 OP:cam  STATUS:               ID:20150605205641 L   I
 OLDACT:DUP 15-06-06 09:40 OP:spq  STATUS:               ID:20150605204751d    3
 2015-06-05-2047-50M.COL___315                                                 6
 STAT SP IPHASW D HRMM SECON CODA AMPLIT PERI AZIMU VELO AIN AR TRES W  DIS CAZ7
 BAR2 EZ EP     D 2057  1.67                             171   -0.0910 23.5 204 
 BAR2 EZ ES   1   2057 17.12                             171   -0.30 7 23.5 204 
 BAR2 EZ I        2057 19.21        16.6 0.40            167           23.5 204 
 PAM  SZ EP       2057  4.42                             152    0.2510 75.2  35 
 PAM  SN ES       2057 21.73                             152    0.0310 75.2  35 
 PAM  SZ I        2057 23.89        19.0 0.54            158           75.2  35 
 BRR  HZ EP       2057  3.64                             151    0.0810 76.9 298 
 BRR  HN ES       2057 20.97                             151    0.3510 76.9 298 
 BRR  HZ I        2057 26.00        19.1 0.28            149           76.9 298 
 RUS  HZ EP       2057  5.77                             145    0.0910 98.8 179 
 RUS  HN ES   1   2057 24.50                             145    0.11 7 98.8 179 
 SPBC HZ EP       2057 10.68                             129   -0.02 9  166 221 
 SPBC HN ES   1   2057 33.10                             129   -0.23 7  166 221 
 SPBC HZ I        2057 39.87        34.4 0.27            130            166 221 
 ZAR  HZ EP   1   2057 14.61                             122   -0.36 6  210 292 
 ZAR  HN ES       2057 40.76                             122   -0.17 8  210 292 
 ZAR  HZ I        2057 46.23        20.6 0.52            123            210 292 
 NOR  HZ EP       2057 17.59                             119   -0.44 8  238 236 
 NOR  HE ES       2057 45.98                             119   -0.40 8  238 236 
 NOR  HZ I        2057 49.41        11.8 0.16            120            238 236 
 SML  HZ EP   1   2057 18.37                             118   -0.56 6  248 334 
 SML  HN ES   1   2057 47.48                             118   -0.50 6  248 334 
 SML  HZ I        2057 51.44        25.8 0.10            120            248 334 
 HEL  HZ EP   1   2057 23.43                             115    0.77 6  277 256 
 HEL  HE ES   4   2057 57.19                             115    2.58 0  277 256 
 HEL  HZ I        2058  0.42         7.4 0.34            116            277 256 
 PTGC HZ EP       2057 24.58                             112   -0.74 7  305 160 
 GUY2CHZ EP       2057 26.82                             113    0.93 7  305 236 
 GUY2CHE ES   4   2058  4.62                             113    4.25 0  305 236 
 GUY2CHZ I        2058  8.72         8.4 0.36                           305 236 
 CBOC HZ EP   1   2057 30.12                             110    0.80 5  339 253 
 TOL  SN ES   4   2058 10.47                             110    2.02 0  346 225 
 TOL  SZ I        2058 15.16         6.2 0.40            111            346 225 
 PRA  HZ EP       2057 36.11                             107    0.60 6  394 210 
 PRA  HE ES   1   2058 17.49                             107   -0.00 4  394 210 
 PRA  HZ I        2058 23.55         5.5 0.32            109            394 210 
 PAL  HZ EP   1   2057 37.30                             106   -0.15 4  410 240 
                                                                                
