 2017  2 5 2111 35.3 L   6.800 -73.155148.1  RSN  7 0.4 1.8LRSN                1
 GAP=135        1.06       4.8     4.8  6.9 -0.7844E+00  0.1181E+02  0.1812E+01E
 Epicentro: LOS SANTOS - SANTANDER                                             3
 ACTION:UPD 17-05-24 15:32 OP:jn   STATUS:               ID:20170205211135 L   I
 OLDACT:REG 17-02-06 03:38 OP:dani STATUS:               ID:20170205210748     3
 2017-02-05-2108-00M.COL___328                                                 6
 STAT SP IPHASW D HRMM SECON CODA AMPLIT PERI AZIMU VELO AIN AR TRES W  DIS CAZ7
 BAR2 EZ ES       2112 10.47                             171   -0.2310 23.2 187 
 BRR  HZ EP       2111 57.08                             153    0.4710 70.3 299 
 BRR  HN ES       2112 14.01                             153    0.7510 70.3 299 
 BRR  HZ I        2112 17.46        13.7 0.31            151           70.3 299 
 PAM  EZ EP       2111 57.90                             151    0.1410 78.1  40 
 PAM  EN ES       2112 14.82                             151   -0.5010 78.1  40 
 PAM  EZ I        2112 17.23        19.1 0.51            155           78.1  40 
 RUS  HZ EP       2111 59.24                             144   -0.0010  101 175 
 RUS  HE ES       2112 18.00                             144    0.0510  101 175 
 RUS  HZ I        2112 18.93         8.1 0.30            147            101 175 
 PTB  HZ EP       2112  2.17                             133   -0.15 9  147 259 
 PTB  HN ES   1   2112 22.74                             133   -0.69 7  147 259 
 PTB  HZ I        2112 26.52         5.8 0.17            133            147 259 
 ZAR  HZ EP       2112  7.04                             123   -0.71 9  203 292 
 ZAR  HN ES       2112 33.14                             123    0.04 9  203 292 
 ZAR  HZ I        2112 39.88         5.3 0.12            123            203 292 
 NOR  HZ EP       2112 11.63                             119    0.60 8  234 234 
 NOR  HN ES       2112 38.77                             119   -0.16 8  234 234 
 NOR  HZ I        2112 44.68         4.4 0.20            120            234 234 
                                                                                
