 2010 11 5 2232 55.0 L   6.767 -73.051145.7  RSN  7 0.4 2.0LRSN                1
 GAP=170        0.77       5.8     7.3  8.8 -0.1410E+02  0.1772E+02 -0.5877E+00E
 Epicentro: LOS SANTOS - SANTANDER                                             3
 ACTION:UP  10-12-17 16:50 OP:REBC STATUS:               ID:20101105223255 L   I
 2010-11-05-2229-00S.COL___128                                                 6
 STAT SP IPHASW D HRMM SECON CODA AMPLIT PERI AZIMU VELO SNR AR TRES W  DIS CAZ7
 BAR2 SZ EP   1   2233 14.54                             170    -0.1 7   24 217 
 BAR2 SZ ES   2   2233 29.82                             170    -0.1 5   24 217 
 BAR2 SZ I        2233 31.18        18.7 0.28                            24 217 
 BTL  SZ EP   1   2233 15.31                             168     0.6 7   29 305 
 BRR  HZ EP   1   2233 16.40                             149    -0.4 7   82 297 
 BRR  HN ES   2   2233 33.80                             149     0.1 5   82 297 
 BRR  HZ I        2233 36.76        24.0 0.09                            82 297 
 RUS  HZ EP   1   2233 18.44                             145     0.0 7   97 182 
 RUS  HN ES   2   2233 36.99                             145     0.3 5   97 182 
 RUS  HZ I        2233 38.57         9.7 0.20                            97 182 
 GRA  SZ EP   1   2233 20.40                             137     0.1 7  127  12 
 GRA  SZ ES   2   2233 39.47                             137    -0.5 5  127  12 
 GRA  SZ I        2233 41.31        13.1 0.39                           127  12 
 NOR  SZ EP   1   2233 30.75                             118    -0.7 6  241 237 
 NOR  SN ES   2   2233 59.08                             118    -0.7 4  241 237 
 HEL  HZ EP   1   2233 36.62                             114     0.4 6  281 257 
 HEL  HE ES   2   2234  9.10                             114     0.7 4  281 257 
 HEL  HZ I        2234 12.87         5.5 0.55                           281 257 
                                                                                
