 2015  2 5 2028 12.8 L   6.785 -73.124147.4  RSN 18 0.5 2.3LRSN                1
 GAP=140        1.03       3.5     4.1  5.2 -0.3082E+01  0.6467E+01  0.2005E+01E
 Epicentro: LOS SANTOS - SANTANDER                                             3
 ACTION:UPD 15-04-30 21:22 OP:nd   STATUS:               ID:20150205202812 L   I
 OLDACT:UP  15-02-06 09:06 OP:spq  STATUS:               ID:20150205201748     3
 OLDACT:REG 15-02-06 08:13 OP:spq  STATUS:               ID:20150205201748     3
 2015-02-05-2017-48M.COL___284                                                 6
 STAT SP IPHASW D HRMM SECON CODA AMPLIT PERI AZIMU VELO AIN AR TRES W  DIS CAZ7
 BAR2 EZ EP       2028 32.43                             171   -0.2010 22.3 197 
 BAR2 EZ ES   1   2028 48.04                             171   -0.03 7 22.3 197 
 BAR2 EZ I        2028 49.27        35.6 0.28            167           22.3 197 
 BRR  HZ EP       2028 34.51                             152    0.2010 74.1 299 
 BRR  HN ES       2028 51.96                             152    0.8910 74.1 299 
 BRR  HZ I        2028 55.43        28.8 0.36            151           74.1 299 
 PAM  SZ EP       2028 35.34                             151    0.1410 77.2  37 
 PAM  SE ES       2028 52.36                             151   -0.2910 77.2  37 
 PAM  SZ I        2028 54.62        32.4 0.60            157           77.2  37 
 RUS  HZ EP       2028 36.57                             145   -0.0310 98.8 177 
 RUS  HE ES       2028 55.28                             145    0.1310 98.8 177 
 RUS  HZ I        2028 57.69        25.1 0.50            144           98.8 177 
 PTB  HZ EP       2028 39.19                             132   -0.92 9  150 260 
 PTB  HN ES       2029  0.64                             132   -0.75 9  150 260 
 PTB  HZ I        2029  5.05        27.7 0.32            131            150 260 
 SPBC HZ EP       2028 41.38                             129   -0.09 9  163 220 
 SPBC HN ES       2029  3.72                             129   -0.09 9  163 220 
 SPBC HZ I        2029  8.48        48.7 0.22            129            163 220 
 NOR  HZ EP       2028 48.49                             119   -0.26 8  236 235 
 NOR  HE ES       2029 16.64                             119   -0.14 8  236 235 
 NOR  HZ I        2029 18.79        15.3 0.24            119            236 235 
 SML  HZ EP       2028 49.40                             117   -0.41 8  246 335 
 SML  HN ES   1   2029 18.62                             117   -0.04 6  246 335 
 SML  HZ I        2029 20.39        36.4 0.30            120            246 335 
 CHI  HZ EP       2028 50.69                             118    0.18 8  248 196 
 CHI  HN ES   1   2029 19.87                             118   -0.03 6  248 196 
 CHI  HZ I        2029 25.74        11.1 0.26            118            248 196 
 ROSC BZ EP   4   2028 52.52                             117    1.51 0  253 212 
 ROSC BE ES   4   2029 23.20                             117    2.40 0  253 212 
 ROSC BZ I        2029 26.93        21.4 0.35            118            253 212 
 HEL  HZ EP       2028 54.26                             115    0.93 8  274 256 
 HEL  HE ES       2029 25.37                             115    0.45 8  274 256 
 HEL  HZ I        2029 30.76        12.8 0.30            116            274 256 
 GUY2CHZ EP   1   2028 57.36                             113    0.74 5  302 235 
 GUY2CHN ES   4   2029 34.67                             113    3.89 0  302 235 
 GUY2CHZ I        2029 39.08        12.9 0.72                           302 235 
 CBOC HZ EP       2029  0.46                             110    0.45 7  335 252 
 CBOC HN ES   1   2029 35.96                             110   -0.85 5  335 252 
 CBOC HZ I        2029 42.94         5.1 0.42            111            335 252 
 DBB  SZ ES   4   2029 36.37                             110   -1.59 0  342 274 
 TOL  SZ EP       2029  1.88                             110    0.68 7  344 225 
 TOL  SN ES   4   2029 40.42                             110    1.48 0  344 225 
 TOL  SZ I        2029 45.92         6.6 0.28            110            344 225 
 MON  HZ EP   4   2028 59.58                             109   -2.64 0  357 308 
 MON  HN ES   4   2029 38.04                             109   -2.71 0  357 308 
 MON  HZ I        2029 40.82         4.1 0.38            110            357 308 
 ANIL HE ES   4   2029 43.68                             109    1.99 0  358 225 
 ANIL HZ I        2029 49.20         3.1 0.36            110            358 225 
 ORTC HZ EP       2029  6.62                             107   -0.19 6  396 217 
 ORTC HE ES   4   2029 50.01                             107    1.10 0  396 217 
 ORTC HZ I        2029 56.35         6.0 0.18            107            396 217 
 PAL  HZ EP       2029  8.15                             106   -0.03 6  407 239 
 PAL  HE ES   4   2029 53.03                             106    1.68 0  407 239 
 PAL  HZ I        2029 56.43         5.0 0.26            107            407 239 
                                                                                
