 2015  8 5 2314 54.1 L   6.813 -73.138142.1  RSN 14 0.6 2.3LRSN                1
 GAP= 71        1.28       3.6     3.7  6.5 -0.1943E+01  0.5239E+01  0.6725E+01E
 Epicentro: LOS SANTOS - SANTANDER                                             3
 ACTION:UPD 15-09-15 23:00 OP:cam  STATUS:               ID:20150805231454 L   I
 OLDACT:REG 15-08-06 04:41 OP:stll STATUS:               ID:20150805230749     3
 2015-08-05-2307-49M.COL___358                                                 6
 STAT SP IPHASW D HRMM SECON CODA AMPLIT PERI AZIMU VELO AIN AR TRES W  DIS CAZ7
 BAR2 EZ EP       2315 13.22                             170   -0.0510 24.8 191 
 BAR2 EZ ES       2315 28.25                             170   -0.0110 24.8 191 
 BAR2 EZ I        2315 30.01        37.3 0.26            170           24.8 191 
 BRR  HZ EP       2315 14.58                             152   -0.2310 71.3 297 
 BRR  HN ES       2315 31.67                             152    0.6710 71.3 297 
 BRR  HZ I        2315 36.21        30.3 0.44            150           71.3 297 
 PAM  EZ EP     C 2315 16.22                             151    0.4410 75.8  40 
 PAM  EZ I        2315 16.54        99.5 0.20            152           75.8  40 
 PAM  EN ES       2315 33.16                             151    0.4310 75.8  40 
 RUS  HZ EP     D 2315 17.38                             143   -0.1610  102 177 
 RUS  HN ES       2315 35.75                             143   -0.1110  102 177 
 RUS  HZ I        2315 37.54        13.9 0.46            145            102 177 
 CPBEREZ EP       2315 20.56                             131   -0.26 9  149 258 
 CPBEREN ES       2315 40.87                             131   -0.84 9  149 258 
 TAM  HZ IP     D 2315 21.89                             130    0.49 9  155 106 
 TAM  HZ I        2315 22.60        15.6 0.34            133            155 106 
 TAM  HN ES       2315 42.51                             130   -0.23 9  155 106 
 OCA  HZ EP       2315 21.49                             129   -0.47 9  159 353 
 OCA  HN ES       2315 43.34                             129   -0.38 9  159 353 
 OCA  HZ I        2315 51.81        46.5 0.22            129            159 353 
 ZAR  HN ES       2315 51.18                             121   -0.24 9  204 292 
 ZAR  HZ I        2315 56.63        22.9 0.40            121            204 292 
 NOR  HZ EP       2315 29.49                             117   -0.24 8  236 234 
 NOR  HN ES       2315 57.03                             117   -0.53 8  236 234 
 NOR  HZ I        2316  5.29        10.6 0.12            118            236 234 
 CHI  HZ EP       2315 31.54                             116   -0.18 8  250 195 
 CHI  HN ES       2316  0.21                             116   -0.89 8  250 195 
 CHI  HZ I        2316  4.34        13.9 0.62            117            250 195 
 GUY2CHZ EP       2315 38.73                             111    1.07 7  303 235 
 GUY2CHN ES       2316 13.24                             111    1.57 7  303 235 
 GUY2CHZ I        2316 19.46         8.6 0.34                           303 235 
 TOL  SZ EP       2315 42.28                             108   -0.06 7  345 225 
 TOL  SE ES       2316 20.76                             108    0.75 7  345 225 
 TOL  SZ I        2316 26.93         8.9 0.30            109            345 225 
 ANIL HE ES       2316 23.93                             108    1.15 6  359 224 
 ORTC HZ EP       2315 47.85                             106   -0.19 6  397 216 
 ORTC HN ES       2316 29.51                             106   -0.63 6  397 216 
 ORTC HZ I        2316 34.78         7.3 0.30            106            397 216 
                                                                                
