 2012  4 5 2312 36.4 L   6.784 -73.148145.2  RSN 13 0.4 2.3LRSN                1
 GAP=137        0.75       2.9     3.8  5.2 -0.1721E+01  0.5087E+01  0.1548E+01E
 Epicentro: LOS SANTOS - SANTANDER                                             3
 ACTION:UPD 12-07-05 11:50 OP:tino STATUS:               ID:20120405231236 L   I
 2012-04-05-2310-00M.COL___196                                                 6
 STAT SP IPHASW D HRMM SECON CODA AMPLIT PERI AZIMU VELO AIN AR TRES W  DIS CAZ7
 BAR2 SZ EP   1   2312 55.74                             171    -0.2 7   22 190 
 BAR2 SZ ES   1   2313 11.17                             171     0.0 7   22 190 
 BAR2 SZ I        2313 12.81        41.4 0.31                            22 190 
 BRR  HZ EP   1   2312 57.62                             152     0.1 7   72 300 
 BRR  HE ES   1   2313 14.73                             152     0.7 7   72 300 
 BRR  HZ I        2313 18.16        36.9 0.34                            72 300 
 PAM  SZ EP   1   2312 58.53                             150    -0.1 7   79  39 
 PAM  SE ES   1   2313 15.88                             150    -0.1 7   79  39 
 RUS  HZ EP   1   2312 59.57                             144    -0.4 7   99 176 
 RUS  HE ES   1   2313 18.45                             144     0.1 7   99 176 
 RUS  HZ I        2313 20.12        21.0 0.38                            99 176 
 PTB  HZ EP   1   2313  2.74                             132    -0.5 7  147 259 
 PTB  HN ES   1   2313 23.69                             132    -0.5 7  147 259 
 PTB  HZ I        2313 31.34        19.9 0.32                           147 259 
 OCA  SZ EP   1   2313  5.39                             129     0.6 7  162 353 
 OCA  SZ ES   2   2313 27.22                             129     0.2 5  162 353 
 ZAR  HZ EP   2   2313  8.51                             122    -0.3 4  204 293 
 ZAR  HN ES   1   2313 33.73                             122    -0.4 6  204 293 
 ZAR  HZ I        2313 41.45        25.5 0.32                           204 293 
 NOR  SZ EP   1   2313 11.99                             118     0.0 6  233 235 
 NOR  SN ES   1   2313 40.17                             118     0.5 6  233 235 
 CHI  HZ EP   1   2313 13.88                             117     0.0 6  247 195 
 CHI  HN ES   1   2313 42.96                             117    -0.1 6  247 195 
 CHI  HZ I        2313 49.08        10.9 0.57                           247 195 
 HEL  HZ EP   2   2313 16.79                             115     0.3 4  271 256 
 HEL  HE ES   2   2313 47.59                             115    -0.2 4  271 256 
 HEL  HZ I        2313 54.72        11.6 0.42                           271 256 
 RREF HZ EP   1   2313 23.17                             111     0.8 5  320 230 
 RREF HN ES   2   2313 58.23                             111     0.0 3  320 230 
 RREF HZ I        2314  5.43        14.5 0.27                           320 230 
 COD  HN ES   1   2314  2.54                             109    -0.3 5  350 355 
 COD  HZ I        2314  6.45        12.5 0.57                           350 355 
 PRA  HZ EP   1   2313 30.31                             106     0.6 4  390 210 
 PRA  HN ES   2   2314 11.42                             106     0.1 3  390 210 
                                                                                
