 2013  8 5 2056 21.0 L   6.806 -73.140153.4  RSN 11 0.3 2.1LRSN                1
 GAP=137        0.81       3.0     3.6  4.9  0.1056E+01  0.2984E+01  0.1890E+00E
 Epicentro: LOS SANTOS - SANTANDER                                             3
 ACTION:UPD 14-01-14 08:59 OP:ep   STATUS:               ID:20130805205621 L   I
 OLDACT:UP  13-08-05 23:08 OP:cam  STATUS:               ID:20130805204959     3
 OLDACT:REG 13-08-05 21:36 OP:cam  STATUS:               ID:20130805204959     3
 2013-08-05-2049-59M.COL___268                                                 6
 STAT SP IPHASW D HRMM SECON CODA AMPLIT PERI AZIMU VELO AIN AR TRES W  DIS CAZ7
 BAR2 SZ EP       2056 41.52                             171   -0.0710 24.1 191 
 GIR2 SZ EP       2056 41.83                             168    0.2310 30.7 349 
 GIR2 SZ ES       2056 57.70                             168    0.0610 30.7 349 
 GIR2 SZ I        2056 58.61        15.2 0.35            167           30.7 349 
 BRR  HZ EP       2056 43.51                             154    0.4910 71.5 298 
 BRR  HE ES       2057  0.74                             154    0.5610 71.5 298 
 PAM  SZ EP       2056 44.39                             152    0.3810 76.5  39 
 PAM  SN ES       2057  1.64                             152   -0.3010 76.5  39 
 PAM  SZ I        2057  3.65        31.6 0.56            154           76.5  39 
 RUS  HZ EP       2056 45.34                             145   -0.2410  101 176 
 RUS  HE ES       2057  4.50                             145   -0.2310  101 176 
 RUS  HZ I        2057  6.67         9.1 0.48            147            101 176 
 PTB  HZ EP       2056 48.61                             134   -0.09 9  149 259 
 PTB  HN ES       2057  9.86                             134   -0.42 9  149 259 
 PTB  HZ I        2057 11.72        10.1 0.16            133            149 259 
 OCA  HE ES   1   2057 11.87                             131   -0.53 7  160 353 
 ZAR  HN ES       2057 19.85                             124    0.10 9  204 292 
 ZAR  HZ I        2057 26.88         9.7 0.34            124            204 292 
 SML  HZ EP       2056 58.14                             119    0.08 8  243 335 
 SML  HN ES       2057 26.57                             119   -0.37 8  243 335 
 SML  HZ I        2057 29.36        19.3 0.10            120            243 335 
 CHI  HZ EP   1   2056 59.40                             119    0.15 6  249 195 
 GUY2CHN ES   4   2057 43.64                             114    4.16 0  302 235 
 SJC  HZ EP   1   2057 16.12                             107   -0.71 4  409 327 
 SJC  HN ES   4   2057 56.51                             107   -3.84 0  409 327 
                                                                                
