 2010  4 5 2142 57.5 L   6.788 -73.132144.6  RSN  7 0.5 2.6LRSN                1
 GAP=202        0.77       5.1     9.4  8.9 -0.1356E+02  0.6901E+01  0.1432E+02E
 Epicentro: LOS SANTOS - SANTANDER                                             3
 ACTION:UPD 10-08-24 09:57 OP:vdl  STATUS:               ID:20100405214257 L   I
 2010-04-05-2140-51S.COL___098                                                 6
 STAT SP IPHASW D HRMM SECON CODA AMPLIT PERI AZIMU VELO AIN AR TRES W  DIS CAZ7
 BAR2 SZ EP   1   2143 16.76                             170    -0.2 7   22 195 
 BAR2 SZ ES   2   2143 31.35                             170    -0.8 5   22 195 
 BRR  HZ IP       2143 18.88                             154     0.310   73 299 
 BRR  HZ I        2143 19.24       119.0 0.10                            73 299 
 BRR  HN ES   2   2143 35.80                             154     0.7 5   73 299 
 OCA  SZ EP   1   2143 25.78                             130    -0.1 7  162 353 
 OCA  SZ ES   2   2143 47.72                             130    -0.2 5  162 353 
 OCA  SZ I        2143 55.12        96.5 0.22                           162 353 
 CHI  HZ EP   1   2143 34.93                             117    -0.1 6  248 196 
 CHI  HE ES   2   2144  5.41                             117     1.1 4  248 196 
 HEL  HN ES   2   2144  8.45                             115    -0.7 4  273 256 
 HEL  HZ I        2144 16.04        14.3 0.24                           273 256 
 RREF BZ EP   1   2143 43.57                             111     0.0 5  322 230 
 RREF BN ES   2   2144 18.85                             111    -0.7 3  322 230 
 RREF BZ I        2144 29.69        14.0 0.31                           322 230 
 PRA  HZ EP   1   2143 50.61                             107    -0.3 4  392 210 
 PRA  HN ES   2   2144 32.86                             107     0.3 3  392 210 
 PRA  HZ I        2144 38.51        10.3 0.41                           392 210 
                                                                                
