 2017  8 5 2102  7.9 L   6.809 -73.114143.6  RSN  4 0.1 1.6LRSN                1
 GAP=241        0.40       4.4     5.0  3.2  0.1878E+02  0.1759E+00 -0.1803E+01E
 Epicentro: LOS SANTOS - SANTANDER                                             3
 ACTION:UPD 17-09-04 20:16 OP:rebc STATUS:               ID:20170805210207 L   I
 OLDACT:DUP 17-08-06 03:49 OP:lv   STATUS:               ID:20170805205740d    3
 2017-08-05-2058-00M.COL___402                                                 6
 STAT SP IPHASW D HRMM SECON CODA AMPLIT PERI AZIMU VELO AIN AR TRES W  DIS CAZ7
 BAR2 EZ EP       21 2 27.12                             170   -0.2310 25.1 197 
 BAR2 EZ ES       21 2 42.60                             170    0.1110 25.1 197 
 BAR2 EZ I        21 2 44.61         8.4 0.16            165           25.1 197 
 BRR  HZ EP       21 2 28.99                             151   -0.0210 73.8 297 
 BRR  HN ES       21 2 45.47                             151    0.0310 73.8 297 
 BRR  HZ I        21 2 47.07         8.6 0.09            148           73.8 297 
 RUS  HZ EP       21 2 31.70                             143    0.1610  101 178 
 RUS  HN ES       21 2 49.86                             143   -0.0810  101 178 
 ZAR  HZ EP       21 2 40.66                             121    0.12 8  207 292 
 ZAR  HN ES       21 3  5.89                             121   -0.08 8  207 292 
 ZAR  HZ I        21 3 11.09         4.3 0.25            121            207 292 
                                                                                
