 2016 10 5 2229 24.0 L   7.429 -73.196127.4  RSN 13 0.3 2.4LRSN                1
 GAP=109        0.70       2.2     2.0  3.7 -0.3363E-01  0.1701E+01  0.2185E+01E
 Epicentro: EL PLAYON - SANTANDER                                              3
 ACTION:UPD 16-11-09 19:16 OP:rebc STATUS:               ID:20161005222924 L   I
 OLDACT:REG 16-10-06 03:34 OP:cara STATUS:               ID:20161005222743     3
 2016-10-05-2228-00M.COL___360                                                 6
 STAT SP IPHASW D HRMM SECON CODA AMPLIT PERI AZIMU VELO AIN AR TRES W  DIS CAZ7
 PAM  EZ EP       2229 43.25                             155    0.2510 55.7 100 
 PAM  EN ES       2229 58.11                             155    0.2810 55.7 100 
 PAM  EZ I        2229 59.32        64.5 0.16            158           55.7 100 
 BRR  HZ EP     C 2229 42.95                             150    0.0110 67.2 238 
 BRR  HN ES       2229 57.99                             150    0.2810 67.2 238 
 BRR  HZ I        2229 59.81        58.6 0.10            149           67.2 238 
 OCA  HZ EP       2229 44.67                             142   -0.0710 90.5 351 
 OCA  HN ES       2230  0.67                             142   -0.2510 90.5 351 
 OCA  HZ I        2230  4.37       128.3 0.16            149           90.5 351 
 BAR2 EZ EP       2229 45.07                             142    0.0610 92.6 179 
 BAR2 EZ ES       2230  0.82                             142   -0.5810 92.6 179 
 BAR2 EZ I        2230  7.21        44.7 0.14            141           92.6 179 
 RUS  HZ EP       2229 52.19                             123   -0.21 9  170 176 
 RUS  HN ES       2230 14.88                             123    0.31 9  170 176 
 RUS  HZ I        2230 22.41         9.5 0.24            125            170 176 
 PTB  HZ EP       2229 51.56                             123   -0.23 9  171 235 
 PTB  HN ES       2230 13.19                             123   -0.29 9  171 235 
 PTB  HZ I        2230 17.99        39.2 0.34            124            171 235 
 ZAR  HZ EP       2229 52.91                             121   -0.23 9  184 272 
 ZAR  HN ES       2230 16.32                             121    0.45 9  184 272 
 ZAR  HZ I        2230 17.49        32.5 0.24            123            184 272 
 TAM  HZ EP       2229 53.88                             120    0.01 9  190 125 
 TAM  HN ES       2230 17.02                             120   -0.16 9  190 125 
 TAM  HZ I        2230 18.57        32.7 0.34            123            190 125 
 SPBC HZ EP       2229 57.27                             116    0.22 8  219 206 
 SPBC HN ES       2230 23.05                             116    0.21 8  219 206 
 SPBC HZ I        2230 31.01        31.6 0.32            118            219 206 
 NOR  HZ EP       2230  3.45                             110   -0.07 7  277 222 
 NOR  HN ES       2230 34.26                             110   -0.09 7  277 222 
 NOR  HZ I        2230 42.75        17.6 0.28            112            277 222 
 HEL  HN ES       2230 37.70                             109   -0.39 7  292 242 
 HEL  HZ I        2230 46.57        11.9 0.32            111            292 242 
 CHI  HZ EP       2230  8.16                             108   -0.20 7  315 191 
 CHI  HN ES   4   2230 45.19                             108    2.21 0  315 191 
 CHI  HZ I        2230 48.03         9.3 0.36            109            315 191 
 GUY2CHZ EP       2230 12.37                             106    0.79 7  342 225 
 GUY2CHN ES       2230 48.85                             106    0.14 7  342 225 
 GUY2CHZ I        2230 58.30        10.3 0.40                           342 225 
                                                                                
