 2017  1 5 2052 30.8 L   6.823 -73.129148.7  RSN 13 0.5 2.5LRSN                1
 GAP=104        1.17       4.1     3.8  6.3 -0.6969E+00  0.6299E+01  0.7668E+01E
 Epicentro: LOS SANTOS - SANTANDER                                             3
 ACTION:UPD 17-05-22 15:55 OP:jn   STATUS:               ID:20170105205230 L   I
 OLDACT:UP  17-01-06 04:29 OP:cog  STATUS:               ID:20170105204743     3
 OLDACT:REG 17-01-06 03:44 OP:cog  STATUS:               ID:20170105204743     3
 2017-01-05-2048-00M.COL___378                                                 6
 STAT SP IPHASW D HRMM SECON CODA AMPLIT PERI AZIMU VELO AIN AR TRES W  DIS CAZ7
 BAR2 EZ IP     D 2052 50.54                             170   -0.2710 26.2 193 
 BAR2 EZ ES       2053  5.69                             170   -0.7410 26.2 193 
 BAR2 EZ I        2053  7.11        62.6 0.34            170           26.2 193 
 BRR  HZ EP       2052 52.49                             153    0.2410 71.6 296 
 BRR  HN ES       2053  9.83                             153    0.8210 71.6 296 
 BRR  HZ I        2053 15.10        33.5 0.12            150           71.6 296 
 PAM  EZ EP       2052 53.32                             152    0.2110 74.3  40 
 PAM  EE ES       2053 10.80                             152    0.2610 74.3  40 
 PAM  EZ I        2053 12.70        46.7 0.22            154           74.3  40 
 RUS  HZ IP     D 2052 54.40                             144   -0.5810  103 177 
 RUS  HN ES       2053 13.29                             144   -0.5710  103 177 
 RUS  HZ I        2053 14.37        23.0 0.42            147            103 177 
 PTB  HZ EP   3   2052 57.29                             132   -0.89 2  150 258 
 PTB  HN ES   3   2053 18.88                             132   -0.68 2  150 258 
 PTB  HZ I        2053 24.43        47.5 0.16            131            150 258 
 TAM  HZ EP       2052 58.74                             131    0.16 9  154 106 
 TAM  HN ES       2053 20.47                             131    0.20 9  154 106 
 TAM  HZ I        2053 21.81        32.2 0.36            136            154 106 
 ZAR  HZ EP       2053  2.87                             123   -0.61 9  205 291 
 ZAR  HE ES       2053 28.84                             123   -0.15 9  205 291 
 ZAR  HZ I        2053 39.50        35.6 0.34            122            205 291 
 NOR  HZ EP       2053  6.46                             119   -0.52 8  238 234 
 NOR  HN ES       2053 35.06                             119   -0.17 8  238 234 
 NOR  HZ I        2053 38.41        32.3 0.22            119            238 234 
 CHI  HZ EP       2053  8.53                             117   -0.41 8  252 195 
 CHI  HN ES       2053 39.50                             117    0.78 8  252 195 
 ROSC BZ EP       2053 10.30                             117    0.92 8  256 211 
 ROSC BE ES       2053 40.23                             117    0.73 8  256 211 
 GUY2CHZ EP       2053 15.36                             112    0.52 7  304 235 
 GUY2CHN ES   4   2053 53.27                             112    4.05 0  304 235 
 GUY2CHZ  IAML    2053 57.25        23.6 0.30                           304 235 
 ELA  HZ EP   4   2053 20.08                             110    1.99 0  332 229 
 ELA  HE ES   4   2053 58.18                             110    3.19 0  332 229 
 ELA  HZ I        2054  2.59        12.0 0.32            111            332 229 
 ORTC HZ EP       2053 24.99                             107   -0.16 6  399 216 
 ORTC HN ES       2054  7.50                             107   -0.07 6  399 216 
 ORTC HZ I        2054 12.25         9.6 0.46            108            399 216 
                                                                                
