 2010 10 5 2025  8.4 L   6.794 -73.115140.3  RSN  6 0.2 1.7LRSN                1
 GAP=162        0.40       2.8     4.3  5.1 -0.4016E+01 -0.4239E+01  0.2509E+01E
 Epicentro: LOS SANTOS - SANTANDER                                             3
 ACTION:UP  11-02-18 11:07 OP:tino STATUS:               ID:20101005202508 L   I
 2010-10-05-2022-46S.COL___122                                                 6
 STAT SP IPHASW D HRMM SECON CODA AMPLIT PERI AZIMU VELO SNR AR TRES W  DIS CAZ7
 BRR  HZ EP   2   2025 28.83                             151    -0.3 5   75 298 
 BRR  HE ES   1   2025 45.41                             151     0.1 7   75 298 
 BRR  HZ I        2025 51.03        11.4 0.25                            75 298 
 RUS  HZ EP   1   2025 31.80                             143     0.3 7  100 178 
 RUS  HE ES   2   2025 49.36                             143    -0.2 5  100 178 
 RUS  HZ I        2025 51.90         6.3 0.25                           100 178 
 GUE  SZ EP   1   2025 32.68                             138     0.1 7  117  10 
 GRA  SZ EP   2   2025 33.06                             136    -0.1 5  125  16 
 GRA  SZ ES   2   2025 52.29                             136    -0.1 5  125  16 
 GRA  SZ I        2025 55.74         4.9 0.42                           125  16 
 OCA  SZ EP   2   2025 36.41                             128     0.0 5  161 352 
 OCA  SZ I        2025 41.67        10.4 0.63                           161 352 
 NOR  SZ EP   1   2025 43.84                             117    -0.2 6  237 235 
 NOR  SN ES   2   2026 12.08                             117     0.2 4  237 235 
                                                                                
