 2012  6 5 2156 16.7 L   6.794 -73.172139.6  RSN  5 0.3 2.0LRSN                1
 GAP=133        0.68       5.0     3.4  6.3 -0.3338E+01  0.5934E+01  0.4416E+01E
 Epicentro: LOS SANTOS - SANTANDER                                             3
 ACTION:UPD 12-08-06 17:47 OP:ep   STATUS:               ID:20120605215615 L   I
 2012-06-05-2150-00M.COL___201                                                 6
 STAT SP IPHASW D HRMM SECON CODA AMPLIT PERI AZIMU VELO AIN AR TRES W  DIS CAZ7
 BAR2 SZ EP       2156 35.74                             170    0.1410 22.3 183 
 BAR2 SZ I        2156 36.26        25.2 0.16            169           22.3 183 
 BAR2 SZ ES   1   2156 50.84                             170    0.52 7 22.3 183 
 PAM  SZ EP       2156 38.68                             149    0.2310 79.8  41 
 PAM  SN ES       2156 55.01                             149   -0.3810 79.8  41 
 RUS  HZ EP       2156 39.75                             142   -0.1010  100 174 
 PTB  HZ EP       2156 42.69                             131   -0.24 9  145 259 
 PTB  HN ES       2157  3.14                             131   -0.22 9  145 259 
 PTB  HZ I        2157 10.97         9.2 0.21            130            145 259 
 ZAR  HZ EP   1   2156 48.85                             121    0.32 6  202 293 
 ZAR  HE ES   1   2157 13.55                             121    0.22 6  202 293 
 ZAR  HZ I        2157 19.92         9.9 0.18            121            202 293 
                                                                                
