 2011  6 5 2243 53.1 L   6.801 -73.106152.1  RSN  7 0.2 1.7LRSN                1
 GAP=142        0.46       3.3     5.3  6.1 -0.7264E+01  0.6438E+00  0.2756E+01E
 Epicentro: LOS SANTOS - SANTANDER                                             3
 ACTION:UP  11-07-14 19:03 OP:ep   STATUS:               ID:20110605224353 L   I
 2011-06-05-2240-15S.COL___132                                                 6
 STAT SP IPHASW D HRMM SECON CODA AMPLIT PERI AZIMU VELO SNR AR TRES W  DIS CAZ7
 BAR2 SZ EP       2244 13.54                             170     0.010   25 200 
 PAM  SZ EP   1   2244 15.91                             153     0.1 7   75  37 
 PAM  SZ I        2244 16.50         5.3 0.20                            75  37 
 PAM  SN ES   2   2244 33.03                             153    -0.5 5   75  37 
 BRR  HN ES   2   2244 32.51                             152     0.2 5   75 297 
 BRR  HZ I        2244 36.72        14.2 0.07                            75 297 
 RUS  HZ EP       2244 17.61                             145     0.210  101 179 
 RUS  HE ES   2   2244 36.28                             145    -0.2 5  101 179 
 GRA  SZ EP   1   2244 18.62                             139    -0.2 7  124  16 
 GRA  SZ ES   2   2244 39.08                             139     0.3 5  124  16 
 GRA  SZ I        2244 42.80         5.5 0.27                           124  16 
 OCA  SZ EP   2   2244 21.80                             131    -0.1 5  161 352 
 OCA  SZ I        2244 51.58         7.2 0.33                           161 352 
 NOR  SZ EP   2   2244 29.09                             119    -0.5 4  238 235 
 NOR  SN ES   2   2244 57.90                             119    -0.1 4  238 235 
                                                                                
