 2011  2 5 2319 17.5 L   5.857 -73.863 97.2  RSN  4 0.1 0.7LRSN                1
 GAP=215        0.32       4.9    12.6 16.4 -0.5557E+02  0.1854E+03 -0.6988E+02E
 Epicentro: SUCRE - SANTANDER                                                  3
 ACTION:UP  11-03-28 15:06 OP:jfem STATUS:               ID:20110205231917 L   I
 2011-02-05-2318-05S.COL___138                                                 6
 STAT SP IPHASW D HRMM SECON CODA AMPLIT PERI AZIMU VELO SNR AR TRES W  DIS CAZ7
 RUS  HZ EP       2319 35.57                             136     0.010   86  87 
 RUS  HZ I        2319 36.46         1.0 0.20                            86  87 
 RUS  HN ES   2   2319 49.66                             136     0.0 5   86  87 
 BTL  SZ EP   1   2319 39.96                             122     0.1 7  135  29 
 CHI  HZ EP   1   2319 40.34                             122     0.0 7  137 174 
 CHI  HE ES   1   2319 58.11                             122     0.0 7  137 174 
 CHI  HZ I        2320  3.81         1.2 0.38                           137 174 
 GIR2 SZ EP   3   2319 41.38                             118    -0.5 2  154  29 
                                                                                
