 2011  9 5 2317 17.5 L   6.761 -73.077148.4  RSN  6 0.2 1.7LRSN                1
 GAP=147        0.43       3.4     4.8  5.0  0.2336E+01 -0.5144E+01 -0.3310E+01E
 Epicentro: LOS SANTOS - SANTANDER                                             3
 ACTION:UPD 12-07-13 15:55 OP:ep   STATUS:               ID:20110905231717 L   I
 2011-09-05-2313-29S.COL___171                                                 6
 STAT SP IPHASW D HRMM SECON CODA AMPLIT PERI AZIMU VELO AIN AR TRES W  DIS CAZ7
 BAR2 SZ EP   1   2317 37.23                             171   -0.17 7 22.0 212 
 BAR2 SZ ES   1   2317 52.67                             171   -0.26 7 22.0 212 
 BAR2 SZ I        2317 53.98        10.3 0.38                          22.0 212 
 GIR2 SZ EP   1   2317 37.54                             165   -0.10 7 37.4 340 
 PAM  SZ EP   1   2317 40.18                             152    0.26 7 76.4  33 
 BRR  HZ EP   1   2317 39.25                             150   -0.17 7 79.9 299 
 BRR  HE ES   1   2317 56.76                             150    0.23 7 79.9 299 
 BRR  HZ I        2318  1.12        21.6 0.53                          79.9 299 
 RUS  HZ EP   1   2317 41.18                             146    0.01 7 96.0 180 
 RUS  HE ES   1   2317 59.84                             146    0.19 7 96.0 180 
 RUS  HZ I        2318  1.15         4.4 0.67                          96.0 180 
 NOR  SN ES   2   2318 22.12                             119    0.05 4  238 236 
                                                                                
