 2012  2 5 2323 29.8 L   7.068 -73.334125.8  RSN  5 0.4 1.3LRSN                1
 GAP=169        0.76      12.3     7.1 10.7 -0.8912E+01 -0.9448E+01  0.5064E+02E
 ACTION:UP  12-03-07 16:28 OP:epov STATUS:               ID:20120205232329 L   I
 2012-02-05-2320-00M.COL___188                                                 6
 STAT SP IPHASW D HRMM SECON CODA AMPLIT PERI AZIMU VELO SNR AR TRES W  DIS CAZ7
 GIR2 SZ EP       2323 46.56                             172   -0.1710 15.6  85 
 BRR  HZ EP       2323 47.50                             161    0.2310 41.9 276 
 BRR  HN ES   1   2324  0.50                             161   -0.41 7 41.9 276 
 BRR  HZ I        2324  1.85         5.1 0.16                          41.9 276 
 BAR2 SZ EP       2323 48.60                             154    0.3610 55.2 162 
 BAR2 SZ I        2324  3.66         9.1 0.30                          55.2 162 
 RUS  HZ EP   3   2323 53.93                             130   -0.50 2  133 168 
 RUS  HE ES   3   2324 13.02                             130   -0.63 2  133 168 
 PTB  HZ EP       2323 53.83                             129   -0.36 9  137 245 
 PTB  HE ES   2   2324 14.07                             129    0.86 5  137 245 
 PTB  HZ I        2324 16.50         1.5 0.42                           137 245 
                                                                                
