 2017  7 5 2151  9.5 L   6.878 -73.119148.6  RSN 29 0.6 3.0LRSN                1
 GAP= 66        1.15       2.8     2.8  5.1 -0.4439E+00  0.3775E+01  0.1520E+01E
 Epicentro: LOS SANTOS - SANTANDER                                             3
 ACTION:UPD 17-08-30 15:30 OP:rebc STATUS:               ID:20170705215109 L   I
 OLDACT:REG 17-07-06 03:09 OP:dhb  STATUS:               ID:20170705214739     3
 2017-07-05-2148-00M.COL___377                                                 6
 STAT SP IPHASW D HRMM SECON CODA AMPLIT PERI AZIMU VELO AIN AR TRES W  DIS CAZ7
 BAR2 EZ IP     C 2151 29.44                             167   -0.2110 32.3 192 
 BAR2 HE ES       2151 44.83                             167   -0.5610 32.3 192 
 BAR2 EZ I        2151 48.13       259.9 0.38            172           32.3 192 
 PAM  EZ EP       2151 32.14                             154    0.6310 69.0  42 
 PAM  EE ES       2151 49.17                             154    0.4610 69.0  42 
 PAM  EZ I        2151 51.86       183.9 0.49            144           69.0  42 
 BRR  HZ EP       2151 31.17                             153    0.3010 70.2 291 
 BRR  HE ES       2151 48.39                             153    0.8310 70.2 291 
 BRR  HZ I        2151 52.33        98.3 0.11            146           70.2 291 
 PTB  HZ EP       2151 36.02                             132   -1.07 9  152 256 
 PTB  HE ES       2151 58.15                             132   -0.49 9  152 256 
 PTB  HZ I        2151 59.89        90.8 0.44            126            152 256 
 TAM  HZ EP     D 2151 37.70                             131    0.36 9  155 108 
 TAM  HN ES       2151 59.01                             131   -0.07 9  155 108 
 TAM  HZ I        2152  0.14        57.5 0.41            125            155 108 
 SPBC HZ EP       2151 38.50                             128   -0.49 9  172 218 
 SPBC HN ES       2152  1.39                             128   -0.64 9  172 218 
 SPBC HZ I        2152  3.52       163.7 0.20            124            172 218 
 YPLC HZ IP     C 2151 39.88                             126   -0.20 9  183 153 
 YPLC HN ES       2152  3.82                             126   -0.14 9  183 153 
 YPLC HZ I        2152  5.01       140.7 0.25            122            183 153 
 ZAR  HZ EP       2151 42.13                             123    0.07 9  204 290 
 ZAR  HE ES       2152  7.74                             123    0.26 9  204 290 
 ZAR  HZ I        2152 13.29       133.2 0.26            116            204 290 
 TABC EZ EP     D 2151 47.24                             119    0.91 8  239 210 
 TABC EZ ES       2152 14.90                             119   -0.19 8  239 210 
 TABC EZ I        2152 19.40       115.6 0.54            115            239 210 
 NOR  HZ EP       2151 45.78                             118   -0.38 8  242 233 
 NOR  HE ES       2152 14.45                             118   -0.32 8  242 233 
 NOR  HZ I        2152 18.73       117.2 0.24            114            242 233 
 ROSC BZ EP       2151 49.48                             116    0.77 8  262 211 
 ROSC BN ES   2   2152 20.90                             116    1.58 4  262 211 
 ROSC BZ I        2152 24.78        90.1 0.36            112            262 211 
 HEL  HZ EP       2151 51.82                             115    1.44 7  277 254 
 HEL  HN ES       2152 22.07                             115   -0.22 7  277 254 
 HEL  HZ I        2152 30.26        75.3 0.21            110            277 254 
 URE  HZ EP       2151 49.58                             114   -1.05 7  283 290 
 URE  HN ES   4   2152 20.15                             114   -2.59 0  283 290 
 URE  HZ I        2152 24.22        52.6 0.15            108            283 290 
 GUY2CHZ EP   3   2151 55.19                             112    1.15 2  309 234 
 GUY2CHE ES       2152 29.48                             112    0.68 7  309 234 
 GUY2CHZ I        2152 36.06        66.5 0.55                           309 234 
 VIL  EZ EP       2151 53.50                             112   -0.53 7  312 192 
 VIL  EE ES       2152 28.20                             112   -0.59 7  312 192 
 VIL  EZ I        2152 33.22        87.3 0.43            108            312 192 
 LL6C HZ EP       2151 54.40                             111    0.07 7  316 357 
 LL6C HN ES       2152 28.51                             111   -0.80 7  316 357 
 LL6C HZ I        2152 40.98        13.1 0.29            105            316 357 
 PTGC HZ IP   4 D 2151 52.68                             112   -1.56 0  316 160 
 PTGC HN ES   4   2152 25.86                             112   -3.31 0  316 160 
 PTGC HZ I        2152 31.01        45.4 0.30            107            316 160 
 CBOC HZ EP   2   2151 58.11                             110    0.98 3  339 251 
 CBOC HN ES       2152 34.66                             110    0.36 7  339 251 
 CBOC HZ I        2152 40.21        19.4 0.47            105            339 251 
 DBB  EZ EP       2151 57.88                             110    0.55 7  342 273 
 DBB  EE ES   2   2152 34.12                             110   -0.54 3  342 273 
 DBB  EZ I        2152 35.51        28.8 0.24            105            342 273 
 ARGC HZ EP   2   2151 58.16                             109   -0.25 3  352 339 
 ARGC HE ES   2   2152 36.85                             109    0.26 3  352 339 
 ARGC HZ I        2152 46.27        13.2 0.32            103            352 339 
 APAC HZ EP   2   2152  3.11                             107   -0.67 3  398 287 
 APAC HE ES       2152 46.21                             107    0.07 6  398 287 
 ORTC HZ EP       2152  4.10                             106   -0.40 6  404 216 
 ORTC HE ES       2152 47.68                             106    0.26 6  404 216 
 ORTC HZ I        2152 53.20        40.9 0.68            102            404 216 
 SJC  HZ EP   4   2152  3.09                             106   -1.38 0  404 326 
 SJC  HE ES   4   2152 44.28                             106   -3.09 0  404 326 
 SJC  HZ I        2152 54.09        15.1 0.32            101            404 326 
 PAL  HZ EP       2152  5.46                             106   -0.08 6  413 238 
 PAL  HE ES       2152 49.11                             106   -0.16 6  413 238 
 PAL  HZ I        2152 52.44        19.7 0.24            102            413 238 
 CRJC HZ EP   9   2152  9.54                             104   -1.47 0  459   3 
 CRJC HN ES       2152 57.46                                   -0.08 5  459   3 
 CRJC HZ I        2153  3.75        17.8 0.37             99            459   3 
 YOT  HZ EP   2   2152 13.06                             103   -0.46 2  480 228 
 YOT  HE ES   4   2153  2.31                             103   -1.18 0  480 228 
 YOT  HZ I        2153  9.55         5.7 0.28             99            480 228 
 SMAR HZ EP   1   2152 13.95                             103   -0.55 3  489 346 
 SMAR HN ES   4   2153  2.67                             103   -2.56 0  489 346 
 JAMC HZ EP   2   2152 24.31                             101    0.49 2  565 224 
 JAMC HE ES       2153 22.42                             101    0.60 3  565 224 
 JAMC HZ I        2153 27.38         3.6 0.38             97            565 224 
 GARC HZ EP   4   2152 24.28                             100   -1.58 0  582 207 
 GARC HN ES   4   2153 20.28                             100   -5.16 0  582 207 
 GARC HZ I        2153 22.99        16.5 0.08             97            582 207 
                                                                                
