 2015  4 5 2322 21.4 L   6.809 -73.148143.3  RSN  6 0.5 1.7LRSN                1
 GAP=136        1.21       5.0     5.4  8.8  0.2216E+01  0.1001E+02 -0.6614E+01E
 Epicentro: LOS SANTOS - SANTANDER                                             3
 ACTION:UPD 15-06-03 16:52 OP:cam  STATUS:               ID:20150405232221 L   I
 OLDACT:DUP 15-04-06 07:00 OP:stll STATUS:               ID:20150405231747d    3
 2015-04-05-2317-46M.COL___263                                                 6
 STAT SP IPHASW D HRMM SECON CODA AMPLIT PERI AZIMU VELO AIN AR TRES W  DIS CAZ7
 BRR  HZ IP     C 2322 42.73                             152    0.5110 70.5 298 
 BRR  HN ES       2322 58.98                             152    0.5010 70.5 298 
 BRR  HZ I        2323  0.41         5.4 0.18            149           70.5 298 
 PAM  SZ EP     C 2322 43.69                             151    0.3910 76.8  40 
 PAM  SZ I        2322 44.03        12.5 0.20            152           76.8  40 
 PAM  SN ES       2323  0.38                             151   -0.0210 76.8  40 
 RUS  HZ EP       2322 45.05                             143    0.0910  102 176 
 RUS  HN ES       2323  2.81                             143   -0.5510  102 176 
 RUS  HZ I        2323  4.95         4.8 0.24            146            102 176 
 PTB  HZ EP       2322 47.85                             132   -0.29 9  148 258 
 PTB  HN ES       2323  8.64                             132   -0.37 9  148 258 
 PTB  HZ I        2323 13.59         4.0 0.18            131            148 258 
 ZAR  HZ EP       2322 54.17                             122    0.57 9  203 292 
 ZAR  HN ES       2323 19.08                             122    0.35 9  203 292 
 ZAR  HZ I        2323 25.22         6.1 0.32            121            203 292 
 SML  HZ EP       2322 57.26                             117   -0.50 8  243 335 
 SML  HE ES       2323 25.02                             117   -1.11 8  243 335 
 SML  HZ I        2323 34.71         5.2 0.18            117            243 335 
                                                                                
