 2017  3 5 2339 18.7 L   6.780 -73.164136.8  RSN  4 0.4 1.0LRSN                1
 GAP=234        1.01       7.7     7.4  8.1  0.2935E+02  0.6975E+01  0.2571E+01E
 Epicentro: LOS SANTOS - SANTANDER                                             3
 ACTION:UPD 17-05-25 18:36 OP:jn   STATUS:               ID:20170305233918 L   I
 OLDACT:UP  17-03-06 06:42 OP:edw  STATUS:               ID:20170305233739     3
 OLDACT:REG 17-03-06 03:34 OP:edw  STATUS:               ID:20170305233739     3
 2017-03-05-2338-00M.COL___387                                                 6
 STAT SP IPHASW D HRMM SECON CODA AMPLIT PERI AZIMU VELO AIN AR TRES W  DIS CAZ7
 BAR2 EZ EP       2339 37.33                             171    0.1210 20.9 185 
 BAR2 EZ ES       2339 51.09                             171   -0.5510 20.9 185 
 BAR2 EZ I        2339 53.49         1.9 0.22            168           20.9 185 
 BRR  HZ EP       2339 39.36                             151    0.5110 70.5 301 
 BRR  HN ES       2339 54.65                             151    0.0910 70.5 301 
 RUS  HZ EP       2339 41.04                             142   -0.3910 98.6 175 
 RUS  HN ES       2339 59.70                             142    0.5410 98.6 175 
 RUS  HZ I        2340  0.90         1.6 0.46            142           98.6 175 
 PTB  HZ EP       2339 44.35                             130   -0.38 9  145 260 
 PTB  HN ES       2340  5.04                             130    0.01 9  145 260 
 PTB  HZ I        2340  7.32         1.4 0.30            131            145 260 
                                                                                
