 2010 12 5 2147 20.6 L   6.817 -73.086143.0  RSN  9 0.4 2.1LRSN                1
 GAP=182        0.86       5.2     9.5  7.2 -0.2905E+02  0.1981E+02 -0.5364E+00E
 Epicentro: LOS SANTOS - SANTANDER                                             3
 ACTION:UP  11-01-14 15:22 OP:pat  STATUS:               ID:20101205214720 L   I
 2010-12-05-2143-02S.COL___133                                                 6
 STAT SP IPHASW D HRMM SECON CODA AMPLIT PERI AZIMU VELO SNR AR TRES W  DIS CAZ7
 BAR2 SZ EP   1   2147 39.91                             169    -0.1 8   27 203 
 BAR2 SZ ES   1   2147 54.94                             169    -0.2 8   27 203 
 BAR2 SZ I        2147 56.38        27.4 0.37                            27 203 
 GIR2 SZ EP   1   2147 39.92                             167    -0.1 8   31 338 
 GIR2 SZ ES   1   2147 55.66                             167     0.6 8   31 338 
 GRA  SZ IP       2147 45.69                             137     0.410  122  15 
 GRA  SZ I        2147 46.80        14.7 0.35                           122  15 
 GRA  SZ ES   2   2148  4.73                             137     0.1 5  122  15 
 OCA  SZ EP   1   2147 48.04                             129    -0.6 7  159 351 
 OCA  SZ ES   1   2148  9.80                             129    -0.7 7  159 351 
 OCA  SZ I        2148 14.87        10.5 0.51                           159 351 
 NOR  SZ EP   2   2147 56.69                             117    -0.2 4  241 235 
 CHI  HZ EP   2   2147 58.12                             116    -0.5 4  252 197 
 CHI  HE ES   2   2148 27.75                             116    -0.4 4  252 197 
 CHI  HZ I        2148 35.37         4.8 0.27                           252 197 
 HEL  HZ EP   2   2148  2.04                             114     0.6 4  279 256 
 HEL  HE ES   2   2148 33.12                             114    -0.2 4  279 256 
 HEL  HZ I        2148 40.22         5.6 0.36                           279 256 
 RREF HZ EP   1   2148  8.19                             110     0.8 5  328 230 
 RREF HE ES   1   2148 44.08                             110     0.3 5  328 230 
 RREF HZ I        2148 51.23         4.0 0.26                           328 230 
 PRA  HE ES   2   2148 56.05                             106    -0.7 3  397 210 
 PRA  HZ I        2149  3.42        15.6 0.54                           397 210 
                                                                                
