 2013  8 5 2148 34.4 L   6.802 -73.117146.0  RSN  4 0.2 1.3LRSN                1
 GAP=140        0.49       3.3     3.9  5.1 -0.1091E+01 -0.1363E+01  0.3100E+01E
 Epicentro: LOS SANTOS - SANTANDER                                             3
 ACTION:UPD 14-01-14 08:59 OP:ep   STATUS:               ID:20130805214834 L   I
 OLDACT:REG 13-08-05 21:38 OP:cam  STATUS:               ID:20130805213959     3
 2013-08-05-2139-59M.COL___270                                                 6
 STAT SP IPHASW D HRMM SECON CODA AMPLIT PERI AZIMU VELO AIN AR TRES W  DIS CAZ7
 GIR2 SZ EP       2148 53.96                             167   -0.1910 31.8 344 
 BRR  HZ EP       2148 55.58                             152   -0.1910 73.9 297 
 BRR  HN ES       2149 12.56                             152    0.1610 73.9 297 
 PAM  SZ EP       2148 56.79                             152    0.2410 75.2  38 
 PAM  SN ES       2149 13.71                             152   -0.0810 75.2  38 
 PAM  SZ I        2149 16.01         5.3 0.56            153           75.2  38 
 RUS  HZ EP   1   2148 58.38                             144    0.17 7  101 178 
 RUS  HN ES   1   2149 16.69                             144   -0.07 7  101 178 
 RUS  HZ I        2149 18.71         2.0 0.40            145            101 178 
                                                                                
