 2015  4 5 2325  6.5 L   6.794 -73.152139.7  RSN  5 0.5 1.1LRSN                1
 GAP=136        1.37       6.8     6.1 10.9  0.3421E+01  0.1639E+02  0.3042E+01E
 Epicentro: LOS SANTOS - SANTANDER                                             3
 ACTION:UPD 15-06-03 16:52 OP:cam  STATUS:               ID:20150405232506 L   I
 OLDACT:DUP 15-04-06 07:08 OP:stll STATUS:               ID:20150405231748d    3
 OLDACT:DUP 15-04-06 07:00 OP:stll STATUS:               ID:20150405231747d    3
 2015-04-05-2317-46M.COL___263                                                 6
 STAT SP IPHASW D HRMM SECON CODA AMPLIT PERI AZIMU VELO AIN AR TRES W  DIS CAZ7
 BRR  HZ EP       2325 26.79                             152   -0.1810 70.9 299 
 BRR  HN ES       2325 43.82                             152    0.8810 70.9 299 
 PAM  SZ EP       2325 27.95                             149   -0.1710 78.4  40 
 PAM  SN ES       2325 44.61                             149   -0.3810 78.4  40 
 PAM  SZ I        2325 46.34         1.7 0.42            151           78.4  40 
 RUS  HZ EP       2325 29.36                             143   -0.2410 99.9 176 
 RUS  HN ES       2325 47.98                             143    0.3610 99.9 176 
 RUS  HZ I        2325 49.21         1.3 0.56            145           99.9 176 
 PTB  HZ EP       2325 32.98                             131    0.09 9  147 259 
 PTB  HN ES       2325 52.61                             131   -0.88 9  147 259 
 PTB  HZ I        2325 54.68         2.0 0.56            131            147 259 
 ZAR  HZ EP       2325 39.49                             121    0.99 9  204 292 
 ZAR  HN ES       2326  3.06                             121   -0.42 9  204 292 
 ZAR  HZ I        2326  9.36         1.5 0.40            122            204 292 
                                                                                
