 2013  2 5 2358  3.7 L   6.590 -73.586106.0  RSN  5 0.4 1.7LRSN                1
 GAP=123        0.96       7.2     4.1  9.9 -0.8861E+01  0.5262E+01  0.5733E+01E
 Epicentro: EL CARMEN DE CHUCURI - SANTANDER                                   3
 ACTION:UPD 13-03-12 09:30 OP:ep   STATUS:               ID:20130205235803 L   I
 2013-02-05-2348-42M.COL___184                                                 6
 STAT SP IPHASW D HRMM SECON CODA AMPLIT PERI AZIMU VELO AIN AR TRES W  DIS CAZ7
 BAR2 SZ EP       2358 19.67                             156    0.3010 44.6  90 
 BAR2 SZ ES       2358 31.76                             156    0.1310 44.6  90 
 BAR2 SZ I        2358 33.49        26.6 0.42            156           44.6  90 
 BRR  HZ EP       2358 20.50                             149    0.6610 58.8 346 
 RUS  HZ EP       2358 23.13                             135   -0.1510 95.1 144 
 PTB  HZ EP       2358 22.50                             134   -0.2410 96.4 267 
 PTB  HE ES       2358 37.41                             134   -0.2210 96.4 267 
 PAM  SN ES       2358 43.55                             126   -0.5210  128  50 
 PAM  SN I        2358 44.71         6.2 0.24            128            128  50 
                                                                                
