 2011 11 5 2305 20.8 L   6.804 -73.080143.6  RSN 10 0.3 1.9LRSN                1
 GAP=145        0.37       2.5     3.2  4.3 -0.1586E+01  0.5501E+01  0.1732E+00E
 Epicentro: LOS SANTOS - SANTANDER                                             3
 ACTION:UPD 12-07-13 16:08 OP:ep   STATUS:               ID:20111105230520 L   I
 2011-11-05-2305-00M.COL___176                                                 6
 STAT SP IPHASW D HRMM SECON CODA AMPLIT PERI AZIMU VELO AIN AR TRES W  DIS CAZ7
 BAR2 SZ EP   2   23 5 40.12                             169   -0.08 5 26.0 206 
 BAR2 SZ ES   2   23 5 55.08                             169   -0.27 5 26.0 206 
 BAR2 SZ I        23 5 57.84        18.5 0.39                          26.0 206 
 GIR2 SZ EP   3   23 5 40.06                             166   -0.17 2 32.8 338 
 GIR2 SZ ES   3   23 5 55.08                             166   -0.33 2 32.8 338 
 PAM  SZ EP   2   23 5 42.84                             152    0.37 5 72.6  35 
 PAM  SN ES   2   23 5 59.57                             152    0.17 5 72.6  35 
 BRR  HZ EP   2   23 5 42.06                             150    0.01 5 77.4 296 
 BRR  HE ES   2   23 5 59.07                             150    0.42 5 77.4 296 
 BRR  HZ I        23 6  5.92        12.3 0.53                          77.4 296 
 RUS  HZ EP   2   23 5 44.00                             143   -0.32 5  101 180 
 RUS  HN ES   2   23 6  2.85                             143    0.15 5  101 180 
 RUS  HZ I        23 6  4.18         6.6 0.21                           101 180 
 OCA  SZ EP   2   23 5 49.09                             129    0.13 5  161 351 
 OCA  SZ ES   2   23 6 10.46                             129   -0.50 5  161 351 
 OCA  SZ I        23 6 14.46         7.6 0.27                           161 351 
 ZAR  HZ EP   2   23 5 54.08                             121    0.33 4  211 291 
 ZAR  HN ES   2   23 6 19.16                             121   -0.33 4  211 291 
 ZAR  HZ I        23 6 24.78         8.1 0.54                           211 291 
 NOR  SN ES   2   23 6 25.23                             117   -0.11 4  241 235 
 HEL  HZ EP   2   23 6  1.37                             114   -0.29 4  279 256 
 HEL  HN ES   2   23 6 34.02                             114    0.45 4  279 256 
 HEL  HZ I        23 6 39.34         4.8 0.34                           279 256 
 RREF HZ EP   2   23 6  7.53                             110    0.05 3  328 230 
 RREF HN ES   2   23 6 43.79                             110   -0.13 3  328 230 
 RREF HZ I        23 6 49.99         3.6 0.33                           328 230 
                                                                                
