 2012  2 5 2326 40.7 L   6.776 -73.123150.0  RSN  6 0.5 1.5LRSN                1
 GAP=190        0.85       7.6     9.2 10.0  0.2214E+02 -0.3059E+01  0.2758E+02E
 ACTION:UP  12-03-07 16:28 OP:epov STATUS:               ID:20120205232640 L   I
 2012-02-05-2320-00M.COL___188                                                 6
 STAT SP IPHASW D HRMM SECON CODA AMPLIT PERI AZIMU VELO SNR AR TRES W  DIS CAZ7
 BAR2 SZ ES   3   2327 14.96                             171   -1.49 2 21.3 198 
 GIR2 SZ EP       2327  0.63                             167   -0.3010 34.4 347 
 BRR  HZ EP       2327  2.50                             153    0.0310 74.7 299 
 BRR  HE ES   1   2327 20.34                             153    0.86 7 74.7 299 
 BRR  HZ I        2327 23.44         6.5 0.34                          74.7 299 
 RUS  HZ EP       2327  4.79                             146    0.1510 97.8 177 
 RUS  HN ES   2   2327 23.47                             146    0.13 5 97.8 177 
 PTB  HZ EP       2327  7.77                             133   -0.39 9  150 260 
 PTB  HE ES   2   2327 29.16                             133   -0.44 5  150 260 
 PTB  HZ I        2327 35.92         3.4 0.56                           150 260 
 CHI  HZ EP       2327 18.61                             119    0.21 8  247 196 
 CHI  HZ I        2327 20.62         1.6 0.24                           247 196 
                                                                                
