 2014  7 5 2209 21.3 L   6.818 -73.158144.0  RSN 19 0.5 2.8LRSN                1
 GAP= 70        1.05       2.5     2.8  4.7 -0.8485E+00  0.3854E+01  0.1923E+01E
 Epicentro: LOS SANTOS - SANTANDER                                             3
 ACTION:UPD 15-03-16 20:41 OP:nd   STATUS:               ID:20140705220921 L   I
 OLDACT:REG 14-07-06 03:28 OP:carl STATUS:               ID:20140705220813     3
 2014-07-05-2208-13M.COL___259                                                 6
 STAT SP IPHASW D HRMM SECON CODA AMPLIT PERI AZIMU VELO AIN AR TRES W  DIS CAZ7
 BAR2 SZ IP     D 22 9 40.70                             170   -0.0110 25.1 186 
 BAR2 SZ ES       22 9 56.03                             170    0.1410 25.1 186 
 BAR2 SZ I        22 9 57.03       122.1 0.42            168           25.1 186 
 BRR  HZ IP     C 22 9 42.48                             153    0.3810 69.1 298 
 BRR  HN ES       22 9 59.37                             153    1.0210 69.1 298 
 BRR  HZ I        2210  2.71        84.9 0.22            152           69.1 298 
 PAM  SZ IP     C 22 9 43.41                             151    0.1610 76.7  41 
 PAM  SN ES       2210  0.52                             151    0.1210 76.7  41 
 PAM  SZ I        2210  2.56       135.9 0.48            155           76.7  41 
 RUS  HZ EP       22 9 44.80                             143   -0.1810  103 175 
 RUS  HN ES       2210  3.29                             143   -0.2010  103 175 
 RUS  HZ I        2210  4.56        82.3 0.26            144            103 175 
 PTB  HZ EP       22 9 47.20                             132   -0.80 9  147 258 
 PTB  HN ES       2210  7.89                             132   -0.97 9  147 258 
 PTB  HZ I        2210 10.60        87.1 0.12            131            147 258 
 TAM  HZ IP     C 22 9 49.08                             130    0.12 9  157 106 
 TAM  HN ES       2210 10.38                             130   -0.19 9  157 106 
 TAM  HZ I        2210 11.88        30.7 0.60            133            157 106 
 OCA  HZ EP       22 9 49.47                             130    0.24 9  158 354 
 OCA  HN ES       2210 10.66                             130   -0.39 9  158 354 
 OCA  HZ I        2210 15.69        64.0 0.26            132            158 354 
 SPBC HZ EP       22 9 49.66                             129   -0.03 9  164 218 
 SPBC HN ES       2210 11.79                             129   -0.07 9  164 218 
 SPBC HZ I        2210 17.86        98.2 0.36            129            164 218 
 ZAR  HZ EP       22 9 53.32                             122   -0.07 9  202 292 
 ZAR  HN ES       2210 17.85                             122   -0.60 9  202 292 
 ZAR  HZ I        2210 24.97        60.4 0.34            123            202 292 
 SML  HZ EP       22 9 57.21                             117   -0.32 8  241 335 
 SML  HE ES       2210 25.73                             117   -0.10 8  241 335 
 SML  HZ I        2210 28.88        73.8 0.10            119            241 335 
 CHI  HZ EP       22 9 58.18                             117   -0.85 8  250 195 
 CHI  HN ES       2210 28.44                             117   -0.05 8  250 195 
 CHI  HZ I        2210 35.59        31.3 0.44            118            250 195 
 ROSC BZ EP   4   2210  1.17                             116    1.78 0  254 211 
 ROSC BE ES   4   2210 29.71                             116    0.58 0  254 211 
 ROSC BZ I        2210 37.55        53.4 0.40            117            254 211 
 HEL  HZ EP       2210  2.05                             114    0.76 8  271 255 
 HEL  HN ES       2210 32.77                             114    0.25 8  271 255 
 HEL  HZ I        2210 39.83        30.6 0.42            115            271 255 
 URE  HZ EP   4   2210  1.32                             113   -0.70 0  282 292 
 URE  HN ES   4   2210 31.23                             113   -2.59 0  282 292 
 GUY2CHZ EP       2210  5.39                             112    0.60 7  301 234 
 GUY2CHN ES       2210 39.53                             112    0.78 7  301 234 
 GUY2CHZ I        2210 47.05        20.7 0.40                           301 234 
 RREF HZ EP       2210  7.77                             111    0.42 7  322 229 
 RREF HN ES       2210 43.50                             111    0.19 7  322 229 
 RREF HZ I        2210 52.45        30.2 0.22            111            322 229 
 CBOC HZ EP       2210  7.99                             110   -0.03 7  333 252 
 CBOC HE ES       2210 44.64                             110    0.14 7  333 252 
 CBOC HZ I        2210 54.10         8.1 0.38            110            333 252 
 TOL  SZ EP       2210  9.79                             109    0.29 7  344 224 
 TOL  SE ES       2210 46.26                             109   -0.86 7  344 224 
 TOL  SZ I        2210 51.23        43.6 0.40            110            344 224 
 PRA  HZ EP       2210 14.81                             106   -0.03 6  393 209 
 PRA  HE ES       2210 56.80                             106    0.17 6  393 209 
 PRA  HZ I        2211  3.72        28.6 0.30            107            393 209 
 ORTC HZ EP       2210 15.23                             106    0.02 6  396 216 
 ORTC HE ES       2210 58.06                             106    0.77 6  396 216 
 ORTC HZ I        2211  5.11        15.0 0.64            107            396 216 
 SJC  HZ EP   4   2210 14.61                             106   -1.87 0  407 327 
 SJC  HN ES   4   2210 54.83                             106   -4.73 0  407 327 
                                                                                
