 2014  5 5 2153 28.4 L   6.821 -73.157136.8  RSN 20 0.5 3.0LRSN                1
 GAP= 70        1.17       2.7     3.1  5.8 -0.1069E+00  0.4382E+01  0.1852E+01E
 Epicentro: LOS SANTOS - SANTANDER                                             3
 OLDACT:UP  14-05-06 04:59 OP:spq  STATUS:               ID:20140505214817     3
 OLDACT:REG 14-05-06 03:00 OP:spq  STATUS:               ID:20140505214817     3
 ACTION:UPD 15-03-16 16:55 OP:nd   STATUS:               ID:20140505215328 L   I
 OLDACT:UP  14-05-06 05:07 OP:spq  STATUS:               ID:20140505214817     3
 2014-05-05-2148-17M.COL___218                                                 6
 STAT SP IPHASW D HRMM SECON CODA AMPLIT PERI AZIMU VELO AIN AR TRES W  DIS CAZ7
 BRR  HZ IP     C 2153 49.07                             152    0.6210 69.0 297 
 BRR  HE ES       2154  5.02                             152    0.9310 69.0 297 
 BRR  HZ I        2154  8.89       293.6 0.22            149           69.0 297 
 PAM  SZ EP       2153 50.06                             149    0.4610 76.5  41 
 PAM  SE ES       2154  6.08                             149   -0.0610 76.5  41 
 PAM  HZ I        2154  8.67       313.1 0.60            153           76.5  41 
 RUS  HZ EP       2153 51.31                             141   -0.1410  103 175 
 RUS  HE ES       2154  9.81                             141    0.3710  103 175 
 PTB  HZ EP       2153 53.99                             130   -0.58 9  147 258 
 PTB  HN ES       2154 14.00                             130   -0.99 9  147 258 
 PTB  HZ I        2154 20.02       122.3 0.14            129            147 258 
 TAM  HZ IP     D 2153 55.79                             128    0.24 9  157 106 
 TAM  HN ES       2154 16.26                             128   -0.47 9  157 106 
 OCA  HZ EP       2153 55.27                             128   -0.51 9  158 354 
 OCA  HE ES       2154 17.34                             128    0.19 9  158 354 
 OCA  HZ I        2154 21.16       155.0 0.30            129            158 354 
 SPBC HZ EP       2153 56.27                             127   -0.05 9  164 218 
 SPBC HN ES       2154 17.22                             127   -0.87 9  164 218 
 SPBC HZ I        2154 22.11        96.2 0.20            127            164 218 
 ZAR  HZ EP       2154  0.20                             121    0.15 9  202 292 
 ZAR  HN ES       2154 24.46                             121   -0.29 9  202 292 
 ZAR  HZ I        2154 30.90       115.5 0.26            120            202 292 
 SML  HZ EP       2154  3.25                             116   -0.99 8  241 335 
 SML  HE ES   1   2154 32.03                             116   -0.17 6  241 335 
 SML  HZ I        2154 35.65       123.9 0.08            117            241 335 
 CHI  HZ EP       2154  5.80                             115   -0.02 8  251 195 
 CHI  HN ES       2154 35.02                             115    0.01 8  251 195 
 HEL  HZ EP       2154  8.49                             113    0.40 8  271 255 
 HEL  HE ES       2154 38.75                             113   -0.30 8  271 255 
 HEL  HZ I        2154 45.37        67.9 0.44            113            271 255 
 URE  HZ EP   4   2154  7.34                             112   -1.47 0  282 292 
 URE  HE ES   4   2154 38.20                             112   -2.13 0  282 292 
 URE  HZ I        2154 49.37        81.6 0.36            112            282 292 
 VIL  SZ EP       2154 11.60                             110   -0.04 7  305 191 
 VIL  SN ES       2154 44.95                             110   -0.43 7  305 191 
 VIL  HZ I        2154 58.43        66.9 0.44            111            305 191 
 PTGC HZ EP   4   2154 10.45                             110   -1.71 0  311 159 
 PTGC HE ES   4   2154 43.62                             110   -2.68 0  311 159 
 PTGC HZ I        2154 47.91        35.8 0.24            111            311 159 
 CBOC HZ EP       2154 15.42                             108    0.53 7  333 252 
 CBOC HN ES   1   2154 51.04                             108   -0.12 5  333 252 
 CBOC HZ I        2155  2.65        16.6 0.64            109            333 252 
 DBB  SZ EP       2154 15.81                             108    0.46 7  338 274 
 DBB  SZ ES   1   2154 52.23                             108    0.25 5  338 274 
 TOL  SZ EP       2154 17.27                             108    0.88 7  344 224 
 TOL  SZ ES   1   2154 55.21                             108    1.38 5  344 224 
 TOL  HZ I        2155  0.61        14.6 0.30            108            344 224 
 ARGC HZ EP       2154 17.45                             107    0.03 6  357 340 
 ARGC HE ES   1   2154 55.76                             107    0.11 5  357 340 
 ARGC HZ I        2155  6.46        26.8 0.20            108            357 340 
 ORTC HZ EP       2154 22.71                             105    0.56 6  397 216 
 ORTC HE ES   4   2155  5.18                             105    1.10 0  397 216 
 ORTC HZ I        2155 10.92        36.0 0.50            105            397 216 
 SJC  HZ EP   4   2154 21.60                             104   -1.76 0  407 327 
 SJC  HN ES   4   2155  2.44                             104   -3.80 0  407 327 
 SJC  HZ I        2155  6.51        38.0 0.54            105            407 327 
 SMAR HE ES   4   2155 19.64                             101   -5.07 0  494 346 
 MACC HE ES   4   2155 25.38                             100   -5.39 0  523 188 
                                                                                
