 2016 11 5 2031 57.1 L   6.710 -73.399108.0  RSN  5 0.3 1.2LRSN                1
 GAP=180        0.68       5.6     3.1  5.3  0.2665E+01  0.4517E+01 -0.5424E+01E
 Epicentro: EL CARMEN - SANTANDER                                              3
 ACTION:UPD 17-10-26 21:05 OP:lp   STATUS:               ID:20161105203157 L   I
 OLDACT:UP  16-11-06 03:13 OP:edw  STATUS:               ID:20161105202745     3
 OLDACT:REG 16-11-06 02:29 OP:edw  STATUS:               ID:20161105202745     3
 2016-11-05-2028-00M.COL___346                                                 6
 STAT SP IPHASW D HRMM SECON CODA AMPLIT PERI AZIMU VELO AIN AR TRES W  DIS CAZ7
 BAR2 EZ EP       2032 12.18                             165   -0.1110 27.3 118 
 BAR2 EZ ES       2032 24.14                             165   -0.0210 27.3 118 
 BRR  HZ IP     D 2032 13.21                             150   -0.0610 55.9 322 
 BRR  HE ES       2032 26.14                             150    0.2310 55.9 322 
 PAM  EZ EP       2032 18.14                             133    0.5110  104  48 
 PAM  EN ES       2032 33.32                             133   -0.3510  104  48 
 PAM  EZ I        2032 35.05         2.5 0.46            134            104  48 
 PTB  HZ IP   4 D 2032 16.98                             128   -1.34 0  118 261 
 PTB  HN ES   4   2032 32.48                             128   -2.42 0  118 261 
 PTB  HZ I        2032 37.04         3.2 0.38            128            118 261 
 ZAR  HZ EP       2032 24.81                             115   -0.20 9  183 298 
 ZAR  HE ES       2032 46.76                             115   -0.05 9  183 298 
 ZAR  HZ I        2032 49.21         3.2 0.12            116            183 298 
                                                                                
