 2010  7 5 2205 12.7 L   6.795 -73.071144.0  RSN  9 0.4 2.2LRSN                1
 GAP=164        0.78       3.5     7.8  7.2 -0.7762E+01 -0.1147E+02  0.6820E-01E
 Epicentro: LOS SANTOS - SANTANDER                                             3
 ACTION:UPD 10-12-01 15:15 OP:pat  STATUS:               ID:20100705220512 L   I
 2010-07-05-2202-48S.COL___118                                                 6
 STAT SP IPHASW D HRMM SECON CODA AMPLIT PERI AZIMU VELO AIN AR TRES W  DIS CAZ7
 BAR2 SZ EP       22 5 32.19                             169     0.110   26 209 
 BAR2 SZ ES   2   22 5 46.52                             169    -0.8 5   26 209 
 BRR  HZ IP     D 22 5 34.00                             150    -0.110   79 296 
 BRR  HN ES   1   22 5 51.05                             150     0.3 7   79 296 
 BRR  HZ I        22 5 51.86        30.1 0.12                            79 296 
 RUS  HZ EP       22 5 36.25                             144     0.110  100 181 
 RUS  HN ES   1   22 5 54.76                             144     0.2 7  100 181 
 RUS  HZ I        22 5 56.15        14.4 0.16                           100 181 
 BRI  SZ EP       22 5 35.70                             142    -0.510  106  17 
 BRI  SZ ES   2   22 5 54.09                             142    -0.5 5  106  17 
 BRI  SZ I        22 5 59.38        16.9 0.33                           106  17 
 GUE  SZ EP       22 5 37.20                             139     0.110  116   8 
 GRA  SZ EP       22 5 37.98                             137     0.410  124  14 
 GRA  SZ ES   1   22 5 57.52                             137     0.5 7  124  14 
 OCA  SZ EP   2   22 5 40.68                             129    -0.3 5  162 350 
 OCA  SZ ES   2   22 6  2.91                             129    -0.2 5  162 350 
 OCA  SZ I        22 6  7.04        20.0 0.04                           162 350 
 ROSC BZ EP   3   22 5 51.39                             116     0.3 2  257 213 
 ROSC BZ I        22 6 26.05        11.5 0.68                           257 213 
 PRA  HZ EP   2   22 6  6.85                             106     0.3 3  396 211 
 PRA  HE ES   2   22 6 47.64                             106    -0.9 3  396 211 
 PRA  HZ I        22 6 53.60         6.2 0.38                           396 211 
                                                                                
