 2016 11 5 2218 51.2 L   7.084 -73.392115.1  RSN  7 0.3 2.0LRSN                1
 GAP=144        0.79       4.1     2.9  5.1 -0.1890E+01  0.4845E+01  0.2645E+01E
 Epicentro: LEBRIJA - SANTANDER                                                3
 ACTION:UPD 17-10-26 21:05 OP:lp   STATUS:               ID:20161105221851 L   I
 OLDACT:REG 16-11-06 04:02 OP:cara STATUS:               ID:20161105215612d    3
 2016-11-05-2215-00M.COL___340                                                 6
 STAT SP IPHASW D HRMM SECON CODA AMPLIT PERI AZIMU VELO AIN AR TRES W  DIS CAZ7
 BRR  HZ EP     C 2219  6.94                             162   -0.2310 35.5 274 
 BRR  HN ES       2219 19.27                             162   -0.3710 35.5 274 
 BAR2 HZ IP       2219  9.06                             151    0.3810 59.1 157 
 BAR2 HZ ES       2219 22.48                             151    0.1610 59.1 157 
 BAR2 HZ I        2219 23.78        41.7 0.16            150           59.1 157 
 PAM  HZ EP       2219 10.63                             142    0.0910 81.5  70 
 PAM  HN ES       2219 25.61                             142   -0.0210 81.5  70 
 PAM  HZ I        2219 27.81        12.1 0.36            147           81.5  70 
 PTB  HZ EP       2219 13.62                             127   -0.6710  132 243 
 PTB  HE ES       2219 32.60                             127    0.2810  132 243 
 PTB  HZ I        2219 35.20        17.4 0.32            127            132 243 
 ZAR  HZ EP       2219 17.95                             120    0.02 9  168 286 
 ZAR  HN ES       2219 39.26                             120    0.46 9  168 286 
 ZAR  HZ I        2219 43.08        12.6 0.10            121            168 286 
 SPBC HZ EP       2219 18.66                             119   -0.14 9  175 205 
 SPBC HN ES   4   2219 42.25                             119    1.90 0  175 205 
 SPBC HZ I        2219 46.64        16.6 0.20            119            175 205 
 NOR  HZ EP       2219 25.51                             111    0.20 8  234 224 
 NOR  HN ES       2219 51.82                             111   -0.11 8  234 224 
 NOR  HZ I        2219 57.02         7.4 0.48            112            234 224 
                                                                                
