 2017  1 5 2334 11.3 L   6.821 -73.129149.4  RSN 15 0.6 2.5LRSN                1
 GAP= 67        1.46       4.9     4.9  7.2 -0.5884E+00  0.1018E+02  0.5887E+01E
 Epicentro: LOS SANTOS - SANTANDER                                             3
 ACTION:UPD 17-05-22 15:56 OP:jn   STATUS:               ID:20170105233411 L   I
 OLDACT:UP  17-01-06 05:27 OP:cog  STATUS:               ID:20170105232744     3
 OLDACT:UP  17-01-06 05:24 OP:cog  STATUS:               ID:20170105232744     3
 OLDACT:REG 17-01-06 04:00 OP:cog  STATUS:               ID:20170105232744     3
 2017-01-05-2328-00M.COL___375                                                 6
 STAT SP IPHASW D HRMM SECON CODA AMPLIT PERI AZIMU VELO AIN AR TRES W  DIS CAZ7
 BAR2 EZ EP       2334 31.33                             170   -0.1310 26.0 193 
 BAR2 EZ ES       2334 46.54                             170   -0.6110 26.0 193 
 BAR2 EZ I        2334 49.11       106.4 0.28            165           26.0 193 
 BRR  HZ EP       2334 33.04                             153    0.1310 71.7 296 
 BRR  HN ES       2334 50.23                             153    0.5010 71.7 296 
 BRR  HZ I        2334 54.09        51.7 0.34            151           71.7 296 
 PAM  EZ EP       2334 34.08                             153    0.3110 74.4  40 
 PAM  EN ES       2334 51.63                             153    0.3610 74.4  40 
 PAM  EZ I        2334 53.48        34.3 0.48            159           74.4  40 
 RUS  HZ EP       2334 35.22                             144   -0.3910  103 177 
 RUS  HN ES       2334 54.05                             144   -0.4910  103 177 
 RUS  HZ I        2334 55.19        45.1 0.30            143            103 177 
 PTB  HZ EP       2334 38.04                             132   -0.77 9  150 258 
 PTB  HN ES   3   2334 59.07                             132   -1.16 2  150 258 
 PTB  HZ I        2335  6.17        23.0 0.18            131            150 258 
 TAM  HZ EP       2334 39.65                             132    0.44 9  154 106 
 TAM  HN ES       2335  1.47                             132    0.53 9  154 106 
 ZAR  HZ EP       2334 43.91                             123   -0.20 9  205 291 
 ZAR  HE ES       2335  9.54                             123   -0.12 9  205 291 
 ZAR  HZ I        2335 14.51        26.4 0.20            124            205 291 
 NOR  HZ EP       2334 47.48                             119   -0.11 8  238 234 
 NOR  HN ES   4   2335 14.91                             119   -0.95 0  238 234 
 NOR  HZ I        2335 20.92        16.7 0.20            119            238 234 
 CHI  HZ EP       2334 49.57                             118    0.03 8  251 195 
 CHI  HN ES       2335 18.84                             118   -0.50 8  251 195 
 CHI  HZ I        2335 28.70        12.5 0.42            118            251 195 
 ROSC BZ EP   9   2334 51.30                             117    1.32 0  256 211 
 ROSC BE ES       2335 23.23                             117    1.79 8  256 211 
 ROSC BZ I        2335 25.94        35.0 0.40            118            256 211 
 GUY2CHZ EP       2334 56.42                             113    0.98 7  304 235 
 GUY2CHN ES   4   2335 33.58                             113    3.74 0  304 235 
 GUY2CHZ  IAML    2335 41.48        15.4 0.44                           304 235 
 PTGC HZ EP   9   2334 54.44                             112   -1.10 0  310 159 
 PTGC HN ES       2335 27.95                             112   -0.96 7  310 159 
 ELA  HZ EP       2334 58.70                             111    0.02 7  332 229 
 ELA  HN ES       2335 37.09                             111    1.48 7  332 229 
 ELA  HZ I        2335 47.84        10.3 0.42            111            332 229 
 DBB  EZ EP   4   2334 59.83                             110    0.67 0  341 274 
 DBB  EN ES   4   2335 34.90                             110   -1.55 0  341 274 
 ORTC HZ EP       2335  5.66                             107   -0.08 6  398 216 
 ORTC HN ES       2335 48.45                             107    0.29 6  398 216 
 ORTC HZ I        2335 55.12         9.6 0.42            108            398 216 
 SJC  HN ES   4   2335 46.38                             106   -3.87 0  408 327 
 CRJC HZ EP       2335 11.84                             104   -1.81 5  465   3 
 CRJC HN ES   4   2335 57.86                             104   -4.40 0  465   3 
                                                                                
