 2010  7 5 2008 10.1 L   6.773 -73.089146.2  RSN 12 0.4 2.2LRSN                1
 GAP=162        0.86       3.5     7.6  6.0 -0.1114E+02  0.1570E+01  0.1647E+01E
 Epicentro: LOS SANTOS - SANTANDER                                             3
 ACTION:UPD 10-12-01 15:15 OP:pat  STATUS:               ID:20100705200810 L   I
 2010-07-05-2006-00S.COL___118                                                 6
 STAT SP IPHASW D HRMM SECON CODA AMPLIT PERI AZIMU VELO AIN AR TRES W  DIS CAZ7
 BAR2 SZ IP       20 8 29.88                             171     0.110   23 208 
 BAR2 SZ ES   1   20 8 45.07                             171    -0.1 7   23 208 
 BRR  HZ IP     C 20 8 31.65                             150    -0.110   78 298 
 BRR  HN ES   1   20 8 48.85                             150     0.3 7   78 298 
 BRR  HZ I        20 8 50.94        22.9 0.14                            78 298 
 RUS  HN EP       20 8 33.72                             145     0.010   97 180 
 RUS  HN ES   1   20 8 52.00                             145    -0.1 7   97 180 
 BRI  SZ EP       20 8 34.40                             141     0.310  109  17 
 BRI  SZ ES   1   20 8 52.30                             141    -0.5 7  109  17 
 BRI  SZ I        20 8 58.26        15.8 0.87                           109  17 
 GUE  SZ EP       20 8 34.57                             139    -0.510  118   9 
 GRA  SZ EP       20 8 36.10                             137     0.610  127  14 
 GRA  SZ ES   1   20 8 55.88                             137     0.6 7  127  14 
 OCA  SZ EP   1   20 8 38.11                             129    -0.7 7  164 351 
 OCA  SZ ES   2   20 9  0.88                             129    -0.4 5  164 351 
 OCA  SZ I        20 9  4.93        15.3 0.28                           164 351 
 CHI  HZ EP   1   20 8 47.96                             117     0.2 6  247 197 
 CHI  HE ES   3   20 9 16.99                             117    -0.1 2  247 197 
 CHI  HZ I        20 9 23.07         6.6 0.31                           247 197 
 ROSC BN ES   2   20 9 18.47                             117     0.3 4  254 213 
 ROSC BZ I        20 9 24.16        11.7 0.44                           254 213 
 HEL  HZ EP   2   20 8 51.02                             114     0.0 4  277 257 
 HEL  HZ I        20 9 27.67         7.0 0.42                           277 257 
 GUY  HZ EP   2   20 8 54.91                             112     0.7 4  305 236 
 PRA  HZ EP       20 9  3.20                             107    -0.5 6  393 211 
 PRA  HE ES   3   20 9 45.77                             107     0.2 1  393 211 
 PRA  HZ I        20 9 51.49         9.5 0.31                           393 211 
                                                                                
