 2017  7 5 2035 35.9 L   6.799 -73.114142.0  RSN  6 0.4 1.7LRSN                1
 GAP=161        0.78       5.1     3.8  5.6 -0.7402E+01  0.5856E+01  0.4373E+01E
 Epicentro: LOS SANTOS - SANTANDER                                             3
 ACTION:UPD 17-08-30 15:30 OP:rebc STATUS:               ID:20170705203535 L   I
 OLDACT:DUP 17-07-06 04:27 OP:dhb  STATUS:               ID:20170705202742d    3
 OLDACT:UP  17-07-06 04:26 OP:dhb  STATUS:               ID:20170705202741     3
 OLDACT:REG 17-07-06 02:53 OP:dhb  STATUS:               ID:20170705202741     3
 2017-07-05-2028-00M.COL___383                                                 6
 STAT SP IPHASW D HRMM SECON CODA AMPLIT PERI AZIMU VELO AIN AR TRES W  DIS CAZ7
 BAR2 EZ EP   2   2035 54.91                             170   -0.17 5 24.1 198 
 BAR2 EZ ES       2036  9.84                             170   -0.2110 24.1 198 
 BAR2 EZ I        2036 10.94        15.7 0.29            170           24.1 198 
 BRR  HZ EP       2035 57.06                             150    0.2410 74.4 297 
 BRR  HN ES       2036 13.43                             150    0.2910 74.4 297 
 BRR  HZ I        2036 15.79        15.6 0.38            148           74.4 297 
 PAM  EZ IP     D 2035 57.96                             150    0.3810 75.3  37 
 PAM  EN ES       2036 14.15                             150   -0.3510 75.3  37 
 PAM  EZ I        2036 17.19         4.0 0.29            152           75.3  37 
 PTB  HZ EP       2036  3.09                             130    0.22 9  151 259 
 PTB  HN ES       2036 23.52                             130   -0.39 9  151 259 
 PTB  HZ I        2036 26.22         3.5 0.09            130            151 259 
 ZAR  HZ EP   2   2036  7.17                             121   -1.27 4  207 292 
 ZAR  HN ES       2036 33.78                             121   -0.05 8  207 292 
 ZAR  HZ I        2036 39.51         7.4 0.29            121            207 292 
 NOR  HZ EP       2036 11.65                             117   -0.06 8  237 235 
 NOR  HE ES       2036 39.87                             117    0.23 8  237 235 
 NOR  HZ I        2036 45.50         2.3 0.03            118            237 235 
                                                                                
