 2017  6 5 2044 11.1 L   6.885 -73.113144.5  RSN  4 0.3 1.8LRSN                1
 GAP=283        0.70       8.4     4.8  9.0  0.1111E+02 -0.2601E+01 -0.3982E+02E
 Epicentro: PIEDECUESTA - SANTANDER                                            3
 ACTION:UPD 17-09-14 16:49 OP:jn   STATUS:               ID:20170605204411 L   I
 OLDACT:REG 17-06-06 05:49 OP:ar   STATUS:               ID:20170605203728     3
 2017-06-05-2038-00M.COL___362                                                 6
 STAT SP IPHASW D HRMM SECON CODA AMPLIT PERI AZIMU VELO AIN AR TRES W  DIS CAZ7
 RUS  HZ EP       2044 35.38                             141   -0.0210  110 178 
 RUS  HN ES       2044 54.18                             141   -0.1810  110 178 
 RUS  HZ I        2044 55.40         3.7 0.40            143            110 178 
 PTB  HZ EP       2044 38.68                             130    0.22 9  153 256 
 PTB  HN ES       2044 59.72                             130   -0.09 9  153 256 
 PTB  HZ I        2045  5.19         7.6 0.50            130            153 256 
 SPBC HZ EP       2044 40.31                             127   -0.10 9  173 218 
 SPBC HN ES       2045  3.87                             127    0.59 9  173 218 
 SPBC HZ I        2045  4.84        14.3 0.40            128            173 218 
 NOR  HZ EP       2044 47.65                             117   -0.00 8  243 233 
 NOR  HN ES       2045 15.69                             117   -0.48 8  243 233 
 NOR  HZ I        2045 22.44         4.1 0.28            118            243 233 
                                                                                
