 2013  5 5 2100 51.6 L   6.801 -73.086137.8  RSN  6 0.3 1.6LRSN                1
 GAP=144        0.73       3.0     5.5  5.8  0.7589E+00 -0.1857E+01 -0.8360E+00E
 Epicentro: LOS SANTOS - SANTANDER                                             3
 ACTION:UPD 13-06-20 09:48 OP:ep   STATUS:               ID:20130505210051 L   I
 2013-05-05-2100-00M.COL___253                                                 6
 STAT SP IPHASW D HRMM SECON CODA AMPLIT PERI AZIMU VELO AIN AR TRES W  DIS CAZ7
 BAR2 SZ EP     D 21 1 10.21                             169   -0.1210 25.4 205 
 BAR2 SZ ES       21 1 25.12                             169    0.1910 25.4 205 
 BAR2 SZ I        21 1 25.99         7.1 0.28            169           25.4 205 
 GIR2 SZ EP     C 21 1 10.30                             166   -0.0810 33.0 339 
 GIR2 SZ I        21 1 26.40         6.7 0.44            162           33.0 339 
 PAM  SZ EP       21 1 13.17                             151    0.4410 73.3  36 
 PAM  SN ES       21 1 29.16                             151   -0.0510 73.3  36 
 PAM  SZ I        21 1 32.15         8.0 0.40            148           73.3  36 
 BRR  HZ EP       21 1 12.11                             149   -0.1510 77.0 296 
 BRR  HN ES       21 1 28.65                             149    0.2910 77.0 296 
 BRR  HZ I        21 1 33.19        10.8 0.42            145           77.0 296 
 RUS  HZ EP       21 1 14.80                             142    0.2210  100 180 
 RUS  HN ES       21 1 32.08                             142   -0.4110  100 180 
 RUS  HZ I        21 1 34.03         6.5 0.24            141            100 180 
 OCA  HN ES       21 1 40.66                             128   -0.40 9  161 351 
                                                                                
