 2015  9 5 2311 58.1 L   6.600 -73.360124.0  RSN 14 0.4 2.0LRSN                1
 GAP= 63        0.94       2.5     2.8  5.1 -0.2054E+00  0.1375E+01 -0.7777E+00E
 Epicentro: HATO - SANTANDER                                                   3
 ACTION:UPD 15-10-28 16:24 OP:cam  STATUS:               ID:20150905231158 L   I
 OLDACT:REG 15-09-06 03:03 OP:spq  STATUS:               ID:20150905230748     3
 2015-09-05-2307-48M.COL___355                                                 6
 STAT SP IPHASW D HRMM SECON CODA AMPLIT PERI AZIMU VELO AIN AR TRES W  DIS CAZ7
 BAR2 EZ EP       2312 14.91                             170   -0.1410 19.7  93 
 BAR2 EZ ES   1   2312 28.24                             170   -0.03 7 19.7  93 
 BAR2 EZ I        2312 29.53        30.9 0.32            164           19.7  93 
 BRR  HZ EP     C 2312 16.65                             149   -0.1210 68.2 325 
 BRR  HE ES       2312 31.85                             149    0.5410 68.2 325 
 BRR  HZ I        2312 32.63        23.6 0.13            147           68.2 325 
 RUS  HZ EP     D 2312 18.30                             144   -0.2310 84.1 159 
 RUS  HE ES       2312 34.67                             144    0.2110 84.1 159 
 PAM  EZ EP       2312 20.57                             136    0.0410  110  42 
 PTB  HZ EP   9 C 2312 19.53                             133   -1.39 0  121 267 
 PTB  HN ES       2312 36.47                                   -0.8510  121 267 
 PTB  HZ I        2312 37.74        20.1 0.18            129            121 267 
 SPBC HZ EP       2312 22.65                             130    0.7410  131 217 
 SPBC HE ES       2312 40.31                             130   -0.1610  131 217 
 SPBC HZ I        2312 45.44        16.3 0.24            125            131 217 
 TAM  HZ EP       2312 26.22                             122    0.08 9  174  96 
 TAM  HZ I        2312 47.13        12.2 0.42            115            174  96 
 TAM  HN ES   1   2312 47.62                             122   -0.38 7  174  96 
 OCA  HE ES       2312 48.98                             121   -0.54 9  181   1 
 OCA  HZ I        2312 52.00        20.7 0.18            115            181   1 
 ZAR  HZ EP       2312 27.92                             119   -0.09 9  193 301 
 ZAR  HE ES       2312 51.53                             119    0.20 9  193 301 
 ZAR  HZ I        2312 55.45        14.4 0.35            114            193 301 
 NOR  HZ EP       2312 29.54                             117    0.40 9  203 236 
 NOR  HN ES       2312 52.70                             117   -0.64 9  203 236 
 NOR  HZ I        2312 54.93         8.4 0.12            113            203 236 
 CHI  HZ EP   1   2312 31.42                             115   -0.28 6  222 191 
 CHI  HN ES   1   2312 57.44                             115   -0.46 6  222 191 
 CHI  HZ I        2313  5.87         2.6 0.32            110            222 191 
 HEL  HZ EP       2312 34.67                             113    0.53 8  244 259 
 HEL  HE ES   1   2313  2.04                             113   -0.20 6  244 259 
 HEL  HZ I        2313  6.87         4.8 0.28            108            244 259 
 SML  HZ EP       2312 34.76                             111   -0.22 8  256 342 
 SML  HN ES   1   2313  3.67                             111   -0.06 6  256 342 
 SML  HZ I        2313 12.15         9.7 0.10            107            256 342 
 GUY2CHZ EP   4   2312 38.47                             110    1.36 0  269 236 
 GUY2CHN ES   4   2313  9.53                             110    2.00 0  269 236 
 GUY2CHZ I        2313 15.65         4.3 0.28                           269 236 
                                                                                
