 2017  6 5 2007 19.0 L   6.769 -73.173148.0  RSN  5 0.4 1.7LRSN                1
 GAP=232        0.91       5.8     5.9  8.1  0.1598E+02  0.9504E+01  0.9247E+01E
 Epicentro: LOS SANTOS - SANTANDER                                             3
 ACTION:UPD 17-09-14 16:49 OP:jn   STATUS:               ID:20170605200719 L   I
 OLDACT:UP  17-06-20 13:08 OP:nlst STATUS:               ID:20170605200719 L   3
 OLDACT:UP  17-06-06 07:50 OP:ar   STATUS:               ID:20170605195726d    3
 OLDACT:DUP 17-06-06 07:37 OP:ar   STATUS:               ID:20170605195726d    3
 2017-06-05-1958-00M.COL___361                                                 6
 STAT SP IPHASW D HRMM SECON CODA AMPLIT PERI AZIMU VELO AIN AR TRES W  DIS CAZ7
 BRR  HZ EP   1   20 7 40.66                             153    0.34 7 70.3 302 
 BRR  HN ES       20 7 57.27                             153    0.3010 70.3 302 
 RUS  HZ EP       20 7 42.59                             145   -0.1410 97.4 174 
 RUS  HE ES       20 8  1.21                             145   -0.0510 97.4 174 
 RUS  HZ I        20 8  2.39         4.3 0.20            143           97.4 174 
 PTB  HZ EP       20 7 45.24                             133   -0.57 9  144 260 
 PTB  HN ES       20 8  6.21                             133   -0.52 9  144 260 
 PTB  HZ I        20 8  7.70         5.1 0.42            130            144 260 
 ZAR  HN ES       20 8 16.71                             123   -0.01 9  203 293 
 ZAR  HZ I        20 8 21.73         6.8 0.40            122            203 293 
 NOR  HZ EP       20 7 54.82                             119    0.46 8  230 235 
 NOR  HE ES       20 8 22.49                             119    0.53 8  230 235 
 NOR  HZ I        20 8 28.25         4.1 0.20            118            230 235 
                                                                                
