 2014 11 5 2033 14.3 L   6.793 -73.135145.0  RSN 10 0.4 1.7LRSN                1
 GAP=138        0.97       3.5     4.7  6.4 -0.4480E+01  0.3201E+01  0.1993E+01E
 Epicentro: LOS SANTOS - SANTANDER                                             3
 ACTION:UPD 14-12-19 15:39 OP:nd   STATUS:               ID:20141105203314 L   I
 OLDACT:DUP 14-11-06 05:53 OP:spq  STATUS:               ID:20141105202749d    3
 2014-11-05-2027-48M.COL___284                                                 6
 STAT SP IPHASW D HRMM SECON CODA AMPLIT PERI AZIMU VELO AIN AR TRES W  DIS CAZ7
 BAR2 SZ ES   1   2033 48.98                             171   -0.07 7 22.8 193 
 BAR2 SZ I        2033 50.94         6.0 0.20            168           22.8 193 
 BRR  HZ EP   1   2033 36.05                             152    0.62 7 72.6 299 
 BRR  HE ES       2033 52.66                             152    0.7410 72.6 299 
 PAM  SZ EP     C 2033 36.75                             151    0.3410 77.2  39 
 PAM  SN ES       2033 53.63                             151   -0.0410 77.2  39 
 PAM  SZ I        2033 55.91         8.0 0.48            153           77.2  39 
 RUS  HZ EP       2033 37.93                             144    0.0310 99.7 177 
 RUS  HN ES       2033 56.09                             144   -0.2310 99.7 177 
 RUS  HZ I        2033 56.99         4.1 0.26            143           99.7 177 
 PTB  HZ EP       2033 40.75                             132   -0.53 9  149 259 
 PTB  HE ES       2034  1.92                             132   -0.42 9  149 259 
 PTB  HZ I        2034  4.57         7.9 0.14            131            149 259 
 OCA  HZ EP       2033 42.46                             129   -0.16 9  161 353 
 OCA  HN ES   1   2034  3.91                             129   -0.81 7  161 353 
 OCA  HZ I        2034  7.34        10.0 0.46            130            161 353 
 SPBC HZ EP   1   2033 42.96                             129    0.22 7  163 219 
 SPBC HE ES   1   2034  4.34                             129   -0.59 7  163 219 
 SPBC HZ I        2034  6.90         5.2 0.24            128            163 219 
 NOR  HZ EP   4   2033 51.55                             118    1.53 0  235 235 
 NOR  HE ES   1   2034 18.37                             118    0.47 6  235 235 
 NOR  HZ I        2034 23.11         3.7 0.20            118            235 235 
 CHI  HZ EP   1   2033 52.38                             117    0.49 6  248 195 
 CHI  HE ES   1   2034 21.26                             117    0.03 6  248 195 
 CHI  HZ I        2034 31.07         2.8 0.72            117            248 195 
 MON  HZ EP   4   2034  1.61                             108   -1.80 0  355 308 
 MON  HN ES   4   2034 40.35                             108   -1.39 0  355 308 
 MON  HZ I        2034 40.90         1.9 0.20            109            355 308 
                                                                                
