 2010 10 5 2108 26.5 L   6.795 -73.189143.1  RSN 16 0.4 2.7LRSN                1
 GAP=132        0.85       3.0     4.9  5.9 -0.6148E+01  0.5774E+01  0.2026E+01E
 Epicentro: ZAPATOCA - SANTANDER                                               3
 ACTION:UP  11-02-18 11:07 OP:tino STATUS:               ID:20101005210826 L   I
 2010-10-05-2105-06S.COL___122                                                 6
 STAT SP IPHASW D HRMM SECON CODA AMPLIT PERI AZIMU VELO SNR AR TRES W  DIS CAZ7
 BAR2 SZ IP       21 8 45.70                             171    -0.110   23 179 
 BAR2 SZ ES   1   21 9  0.16                             171    -0.6 7   23 179 
 BAR2 SZ I        21 9  2.83        59.9 0.22                            23 179 
 BRR  HZ EP       21 8 47.50                             153     0.410   67 301 
 BRR  HN ES   1   21 9  4.14                             153     0.9 7   67 301 
 BRR  HZ I        21 9  5.47       157.5 0.19                            67 301 
 RUS  HZ EP       21 8 49.85                             143    -0.110  101 173 
 RUS  HE ES   1   21 9  8.35                             143     0.1 7  101 173 
 RUS  HZ I        21 9  9.89        43.4 0.32                           101 173 
 GUE  SZ EP       21 8 51.50                             138     0.410  118  14 
 GRA  SZ IP       21 8 51.42                             136    -0.210  128  19 
 GRA  SZ ES       21 9 11.01                             136    -0.310  128  19 
 GRA  SZ I        21 9 11.97        82.9 0.30                           128  19 
 OCA  SZ EP   1   21 8 54.07                             129    -0.5 7  160 355 
 OCA  SZ ES   2   21 9 15.99                             129    -0.5 5  160 355 
 OCA  SZ I        21 9 19.61        52.8 0.27                           160 355 
 YOP  SZ EP   2   21 8 56.46                             125     0.0 4  181 152 
 YOP  SN ES   2   21 9 20.38                             125     0.5 4  181 152 
 NOR  SZ EP   2   21 9  1.54                             118    -0.1 4  231 234 
 NOR  SE ES   1   21 9 28.64                             118    -0.4 6  231 234 
 CHI  HZ EP   1   21 9  4.07                             117     0.2 6  247 194 
 CHI  HE ES   2   21 9 33.37                             117     0.4 4  247 194 
 CHI  HZ I        21 9 41.17        17.5 0.30                           247 194 
 ROSC BZ EP   2   21 9  4.58                             116     0.5 4  250 210 
 ROSC BN ES   2   21 9 32.93                             116    -0.6 4  250 210 
 ROSC BZ I        21 9 42.63        21.4 0.53                           250 210 
 HEL  HZ EP   2   21 9  6.69                             115     0.7 4  267 256 
 HEL  HZ I        21 9 44.65        22.3 0.62                           267 256 
 RREF HN ES       21 9 47.02                             111    -0.6 7  318 229 
 RREF HZ I        21 9 57.89        26.6 0.30                           318 229 
 DBB  SZ EP   2   21 9 13.63                             109     0.3 3  335 274 
 TOL  SZ EP   2   21 9 14.27                             109     0.1 3  340 224 
 ANIL HZ EP   2   21 9 16.14                             108     0.4 3  354 224 
 ANIL HN ES   2   21 9 53.71                             108    -0.5 3  354 224 
 ANIL HZ I        2110  2.52        49.1 0.27                           354 224 
 PRA  HZ EP   1   21 9 19.31                             106    -0.3 4  389 209 
 PRA  HE ES   1   2110  1.27                             106     0.3 4  389 209 
                                                                                
