 2015  5 5 2124 49.4 L   6.562 -73.495108.3  RSN 12 0.5 1.9LRSN                1
 GAP= 64        1.05       2.8     3.5  6.3 -0.3127E-01  0.1081E+02  0.1817E+01E
 Epicentro: EL CARMEN - SANTANDER                                              3
 ACTION:UPD 15-09-10 22:01 OP:cam  STATUS:               ID:20150505212449 L   I
 OLDACT:REG 15-05-06 03:10 OP:ak   STATUS:               ID:20150505211748     3
 2015-05-05-2117-48M.COL___279                                                 6
 STAT SP IPHASW D HRMM SECON CODA AMPLIT PERI AZIMU VELO AIN AR TRES W  DIS CAZ7
 BAR2 EZ IP     D 2125  5.23                             161    0.3310 34.8  84 
 BAR2 EZ ES       2125 16.74                             161   -0.2710 34.8  84 
 BAR2 EZ I        2125 19.03        38.3 0.27            164           34.8  84 
 BRR  HZ EP   2   2125  6.05                             147   -0.13 5 64.9 338 
 BRR  HN ES       2125 19.16                             147   -0.1310 64.9 338 
 BRR  HZ I        2125 20.65        31.4 0.12            148           64.9 338 
 RUS  HZ EP       2125  8.38                             139   -0.1310 86.9 148 
 RUS  HN ES       2125 23.78                             139    0.3510 86.9 148 
 RUS  HZ I        2125 25.45         7.8 0.32            140           86.9 148 
 PAM  SZ EP       2125 11.81                             128    0.0910  123  46 
 PAM  SN ES       2125 28.96                             128   -0.2010  123  46 
 PAM  SZ I        2125 32.16         6.0 0.19            130            123  46 
 ZAR  HZ EP       2125 17.27                             116   -0.01 9  182 304 
 ZAR  HE ES       2125 40.20                             116    1.16 9  182 304 
 ZAR  HZ I        2125 41.87        24.6 0.44            117            182 304 
 NOR  HZ EP       2125 17.16                             115   -0.79 9  188 234 
 NOR  HN ES   1   2125 39.35                             115   -0.88 7  188 234 
 NOR  HZ I        2125 44.27         8.2 0.20            116            188 234 
 CHI  HZ EP       2125 21.59                             112    0.12 8  215 187 
 CHI  HN ES       2125 46.67                             112    0.17 8  215 187 
 CHI  HZ I        2125 51.74         3.3 0.32            113            215 187 
 HEL  HN ES       2125 48.54                             110   -0.59 8  229 260 
 HEL  HZ I        2125 54.21         9.4 0.32            111            229 260 
 GUY2CHZ EP       2125 26.48                             108    0.43 8  254 235 
 GUY2CHN ES   1   2125 55.38                             108    0.72 6  254 235 
 GUY2CHZ I        2126  3.79         3.8 0.21                           254 235 
 SML  HZ EP       2125 25.60                             107    0.01 8  256 346 
 SML  HN ES   1   2125 53.21                             107   -0.64 6  256 346 
 SML  HZ I        2125 57.52        16.6 0.06            109            256 346 
 URE  HZ EP   1   2125 26.10                             107   -0.10 6  261 300 
 URE  HN ES   4   2125 53.06                             107   -1.87 0  261 300 
 URE  HZ I        2125 54.91        11.7 0.14            108            261 300 
 MON  HZ EP   4   2125 33.63                             101   -2.25 0  343 316 
 MON  HN ES   4   2126  9.48                             101   -2.67 0  343 316 
 MON  HZ I        2126 14.40         4.1 0.25            102            343 316 
                                                                                
