 2013  8 5 2340 15.2 L   6.811 -73.116146.0  RSN 11 0.5 2.3LRSN                1
 GAP=140        1.05       3.5     4.9  5.8  0.6638E-01  0.1095E+02  0.2945E+01E
 Epicentro: LOS SANTOS - SANTANDER                                             3
 ACTION:UPD 14-01-14 08:59 OP:ep   STATUS:               ID:20130805234015 L   I
 OLDACT:REG 13-08-05 21:45 OP:cam  STATUS:               ID:20130805233959     3
 2013-08-05-2339-59M.COL___269                                                 6
 STAT SP IPHASW D HRMM SECON CODA AMPLIT PERI AZIMU VELO AIN AR TRES W  DIS CAZ7
 BAR2 SZ EP       2340 34.84                             170   -0.0410 25.3 197 
 BAR2 SZ ES       2340 50.41                             170    0.1710 25.3 197 
 BAR2 SZ I        2340 51.07        62.3 0.20            168           25.3 197 
 GIR2 SZ EP       2340 34.94                             168    0.0710 30.8 344 
 GIR2 SZ ES       2340 49.98                             168   -0.2410 30.8 344 
 GIR2 SZ I        2340 51.38        24.4 0.47            165           30.8 344 
 BRR  HZ EP       2340 36.65                             152    0.1610 73.5 296 
 BRR  HN ES       2340 53.44                             152    0.3410 73.5 296 
 BRR  HZ I        2340 54.23        29.5 0.14            149           73.5 296 
 PAM  SZ EP       2340 37.63                             152    0.3910 74.3  38 
 PAM  SZ I        2340 38.00        91.7 0.20            154           74.3  38 
 PAM  SE ES       2340 54.22                             152   -0.2310 74.3  38 
 RUS  HZ IP     C 2340 38.88                             144   -0.1510  102 178 
 RUS  HE ES       2340 57.88                             144    0.2510  102 178 
 RUS  HZ I        2340 59.18        21.4 0.32            144            102 178 
 PTB  HZ EP       2340 41.59                             131   -0.89 9  151 259 
 SPBC HZ EP       2340 43.65                             129   -0.33 9  166 220 
 ZAR  HZ EP   1   2340 49.57                             122    1.66 6  207 291 
 ZAR  HN ES       2341 13.80                             122    0.37 8  207 291 
 ZAR  HZ I        2341 19.15        21.9 0.56            121            207 291 
 NOR  HZ EP   1   2340 51.29                             118    0.00 6  238 235 
 NOR  HE ES       2341 19.09                             118   -0.36 8  238 235 
 NOR  HZ I        2341 24.22        13.0 0.16            117            238 235 
 SML  HZ EP   1   2340 51.21                             118   -0.63 6  244 334 
 SML  HN ES       2341 19.98                             118   -0.46 8  244 334 
 SML  HZ I        2341 26.05        13.6 0.10            117            244 334 
 HEL  HZ EP   4   2340 57.28                             115    1.49 0  276 256 
 GUY2CHZ EP   4   2341  1.19                             112    2.01 0  305 235 
 RREF HZ EP   4   2341  3.24                             111    1.53 0  325 230 
 PRA  HZ EP   1   2341  9.67                             106    0.65 4  395 210 
 PRA  HN ES       2341 51.05                             106    0.03 6  395 210 
 PRA  HZ I        2341 56.01         7.0 0.34            106            395 210 
                                                                                
