 2010 12 5 2049 26.0 L   6.774 -73.033149.1  RSN  9 0.4 2.1LRSN                1
 GAP=186        0.72       4.1     7.7  6.4 -0.1904E+02  0.1297E+02  0.3509E+01E
 Epicentro: CEPITA - SANTANDER                                                 3
 ACTION:UP  11-01-14 15:22 OP:pat  STATUS:               ID:20101205204926 L   I
 2010-12-05-2045-52S.COL___133                                                 6
 STAT SP IPHASW D HRMM SECON CODA AMPLIT PERI AZIMU VELO SNR AR TRES W  DIS CAZ7
 BAR2 SZ EP   1   2049 46.06                             170    -0.113   26 219 
 BAR2 SZ I        2049 46.60        22.3 0.37                            26 219 
 BAR2 SZ ES   1   2050  2.16                             170     0.413   26 219 
 GIR2 SZ EP   2   2049 46.69                             165     0.4 9   38 332 
 GIR2 SZ ES   2   2050  2.54                             165     0.4 9   38 332 
 GRA  SZ EP   1   2049 51.77                             138     0.213  125  12 
 GRA  SZ ES   1   2050 11.02                             138    -0.413  125  12 
 GRA  SZ I        2050 12.84        14.1 0.37                           125  12 
 OCA  SZ EP   1   2049 55.38                             130     0.312  165 349 
 OCA  SZ ES   1   2050 17.07                             130    -0.612  165 349 
 OCA  SZ I        2050 21.01        10.5 0.16                           165 349 
 NOR  SZ EP   2   2050  2.50                             118    -0.4 7  243 237 
 NOR  SE ES   2   2050 31.11                             118    -0.5 7  243 237 
 CHI  HZ EP   2   2050  3.44                             118    -0.6 7  249 198 
 CHI  HE ES   2   2050 32.82                             118    -0.8 7  249 198 
 CHI  HZ I        2050 39.49         5.5 0.31                           249 198 
 HEL  HZ EP   1   2050  7.93                             114     0.310  283 257 
 HEL  HE ES   2   2050 40.04                             114    -0.1 6  283 257 
 HEL  HZ I        2050 44.71         7.3 0.52                           283 257 
 RREF HZ EP   2   2050 13.85                             111     0.7 6  329 231 
 RREF HE ES   1   2050 50.49                             111     0.5 9  329 231 
 RREF HZ I        2050 57.78         8.3 0.31                           329 231 
 PRA  HZ EP       2050 20.18                             107     0.110  396 211 
 PRA  HE ES       2051  1.94                             107    -0.310  396 211 
                                                                                
