 2012  4 5 2043 25.6 L   6.750 -73.129148.0  RSN  8 0.4 1.9LRSN                1
 GAP=141        0.93       5.0     5.5  8.7 -0.2437E+01  0.8238E+01  0.1025E+02E
 Epicentro: LOS SANTOS - SANTANDER                                             3
 ACTION:UPD 12-07-05 11:50 OP:tino STATUS:               ID:20120405204325 L   I
 2012-04-05-2040-00M.COL___196                                                 6
 STAT SP IPHASW D HRMM SECON CODA AMPLIT PERI AZIMU VELO AIN AR TRES W  DIS CAZ7
 BAR2 SZ EP   1   2043 45.26                             173    -0.2 7   18 199 
 BAR2 SZ ES   2   2044  0.27                             173    -0.6 5   18 199 
 BAR2 SZ I        2044  2.33        18.3 0.24                            18 199 
 BRR  HZ EP   1   2043 47.45                             152     0.2 7   76 302 
 BRR  HZ I        2043 47.92        27.3 0.13                            76 302 
 BRR  HE ES   1   2044  4.85                             152     0.7 7   76 302 
 PAM  SZ EP   1   2043 48.56                             150     0.3 7   81  36 
 PAM  SN ES   1   2044  5.44                             150    -0.5 7   81  36 
 RUS  HZ EP   1   2043 49.16                             146     0.0 7   95 177 
 RUS  HE ES   1   2044  8.04                             146     0.5 7   95 177 
 RUS  HZ I        2044  9.47         8.5 0.22                            95 177 
 PTB  HZ EP   1   2043 52.27                             132    -0.6 7  149 261 
 PTB  HN ES   1   2044 13.44                             132    -0.6 7  149 261 
 PTB  HZ I        2044 15.73         7.9 0.26                           149 261 
 ZAR  HZ EP   2   2043 58.49                             122    -0.1 4  208 293 
 ZAR  HN ES   2   2044 24.76                             122     0.4 4  208 293 
 ZAR  HZ I        2044 31.94        11.7 0.54                           208 293 
 NOR  SN ES   1   2044 29.26                             119     0.1 6  233 236 
 CHI  HZ EP   1   2044  3.40                             118     0.5 6  244 196 
 CHI  HN ES   1   2044 31.71                             118    -0.3 6  244 196 
 CHI  HZ I        2044 35.82         2.5 0.40                           244 196 
                                                                                
