 2015  6 5 2251  9.6 L   6.812 -73.121150.0  RSN 16 0.4 2.2LRSN                1
 GAP=139        0.92       2.9     4.1  5.6 -0.1481E+01  0.7493E+01  0.3832E+01E
 Epicentro: LOS SANTOS - SANTANDER                                             3
 ACTION:UPD 15-09-10 22:10 OP:cam  STATUS:               ID:20150605225109 L   I
 OLDACT:REG 15-06-06 08:43 OP:spq  STATUS:               ID:20150605224750     3
 2015-06-05-2247-50M.COL___312                                                 6
 STAT SP IPHASW D HRMM SECON CODA AMPLIT PERI AZIMU VELO AIN AR TRES W  DIS CAZ7
 BAR2 EZ EP     D 2251 29.62                             170   -0.1310 25.2 196 
 BAR2 EZ ES   1   2251 45.01                             170   -0.48 7 25.2 196 
 BAR2 EZ I        2251 46.32        21.7 0.26            167           25.2 196 
 BRR  HZ EP       2251 31.75                             153    0.4710 73.0 297 
 BRR  HN ES       2251 49.07                             153    0.8610 73.0 297 
 BRR  HZ I        2251 51.14        17.0 0.20            149           73.0 297 
 PAM  SZ EP       2251 32.23                             152    0.1510 74.7  39 
 PAM  SE ES       2251 49.89                             152    0.2510 74.7  39 
 PAM  SZ I        2251 51.76        23.9 0.60            157           74.7  39 
 RUS  HZ EP       2251 33.55                             144   -0.2710  102 178 
 RUS  HE ES       2251 52.51                             144   -0.2310  102 178 
 RUS  HZ I        2251 54.07        11.1 0.50            146            102 178 
 OCA  HN ES       2251 59.78                             131   -0.62 9  159 352 
 OCA  HZ I        2252  5.66        23.0 0.16            132            159 352 
 SPBC HZ EP       2251 38.63                             129   -0.02 9  166 219 
 SPBC HN ES       2252  1.08                             129   -0.26 9  166 219 
 SPBC HZ I        2252  7.75        31.6 0.42            129            166 219 
 ZAR  HE ES       2252  8.06                             123   -0.13 8  206 292 
 ZAR  HZ I        2252 13.98        18.2 0.30            123            206 292 
 NOR  HZ EP       2251 45.79                             119   -0.08 8  238 235 
 NOR  HE ES       2252 14.16                             119   -0.01 8  238 235 
 NOR  HZ I        2252 20.90        11.5 0.34            119            238 235 
 SML  HE ES   1   2252 14.73                             118   -0.46 6  244 335 
 SML  HZ I        2252 17.58        23.2 0.30            119            244 335 
 HEL  HZ EP   4   2251 51.73                             115    1.40 0  275 256 
 HEL  HE ES   1   2252 21.33                             115   -0.79 6  275 256 
 HEL  HZ I        2252 28.06         8.4 0.50            115            275 256 
 GUY2CHZ EP       2251 53.82                             113    0.11 7  304 235 
 GUY2CHE ES   4   2252 32.69                             113    4.55 0  304 235 
 GUY2CHZ I        2252 36.66         8.5 0.42                           304 235 
 TOL  SN ES   4   2252 38.33                             110    1.98 0  346 225 
 TOL  SZ I        2252 43.58         7.2 0.38            110            346 225 
 PRA  HZ EP       2252  4.12                             107    0.59 6  394 210 
 PRA  HE ES       2252 46.25                             107    0.63 6  394 210 
 PRA  HZ I        2252 51.35         6.8 0.36            108            394 210 
 ORTC HN ES   4   2252 48.13                             107    1.77 0  398 216 
 ORTC HZ I        2252 51.00         3.6 0.52            108            398 216 
 PAL  HZ EP       2252  5.26                             106    0.04 6  409 239 
 SJC  HZ EP   4   2252  3.81                             106   -1.51 0  410 327 
 SJC  HN ES   4   2252 44.63                             106   -4.18 0  410 327 
 SJC  HZ I        2252 48.94         2.3 0.62            107            410 327 
                                                                                
