 2016 11 5 2134 14.1 L   6.850 -73.136153.5  RSN 17 0.5 2.6LRSN                1
 GAP=148        0.94       5.4     4.2  5.8 -0.3276E+01  0.3427E+01  0.1322E+02E
 Epicentro: LOS SANTOS - SANTANDER                                             3
 ACTION:UPD 17-10-26 21:05 OP:lp   STATUS:               ID:20161105213414 L   I
 OLDACT:UP  16-11-06 03:49 OP:edw  STATUS:               ID:20161105212744     3
 OLDACT:UP  16-11-06 03:47 OP:edw  STATUS:               ID:20161105212744     3
 OLDACT:UP  16-11-06 03:46 OP:edw  STATUS:               ID:20161105212744     3
 OLDACT:REG 16-11-06 02:34 OP:edw  STATUS:               ID:20161105212744     3
 2016-11-05-2128-00M.COL___349                                                 6
 STAT SP IPHASW D HRMM SECON CODA AMPLIT PERI AZIMU VELO AIN AR TRES W  DIS CAZ7
 BAR2 EZ EP       2134 34.52                             169   -0.2610 29.0 190 
 BAR2 EZ ES       2134 50.11                             169   -0.8010 29.0 190 
 BAR2 EZ I        2134 52.33       104.5 0.30            164           29.0 190 
 BRR  HZ IP     C 2134 36.30                             154    0.3010 69.6 294 
 BRR  HE ES       2134 53.53                             154    0.4410 69.6 294 
 BRR  HZ I        2134 56.59        61.2 0.24            151           69.6 294 
 PAM  EZ EP     D 2134 37.28                             153    0.4110 72.5  42 
 PAM  EN ES       2134 54.75                             153    0.1210 72.5  42 
 PAM  EZ I        2134 56.70        70.2 0.44            159           72.5  42 
 PTB  HZ EP   9   2134 41.06                             133   -0.83 0  150 257 
 PTB  HN ES       2135  2.22                             134   -0.53 9  150 257 
 PTB  HZ I        2135  3.43        36.9 0.17            130            150 257 
 SPBC HZ IP     D 2134 43.45                             129   -0.21 9  168 218 
 SPBC HE ES   4   2135  6.19                             129   -0.53 0  168 218 
 SPBC HZ I        2135 12.55        79.9 0.28            127            168 218 
 ZAR  HZ EP   2   2134 46.90                             123   -0.04 4  203 291 
 ZAR  HN ES       2135 12.34                             123   -0.23 9  203 291 
 ZAR  HZ I        2135 18.07        36.5 0.38            123            203 291 
 NOR  HZ EP       2134 50.53                             119   -0.18 8  239 234 
 NOR  HN ES   4   2135 18.87                             119   -0.41 0  239 234 
 NOR  HZ I        2135 23.19        35.0 0.30            118            239 234 
 CHI  HZ EP       2134 52.71                             118   -0.12 8  254 195 
 CHI  HN ES   4   2135 22.08                             118   -0.97 0  254 195 
 CHI  HZ I        2135 25.28        24.7 0.40            117            254 195 
 ROSC BZ EP   2   2134 54.37                             117    1.16 4  258 211 
 ROSC BN ES   4   2135 25.85                             117    2.12 0  258 211 
 ROSC BZ I        2135 32.72        32.6 0.35            116            258 211 
 HEL  HZ EP   4   2134 56.59                             115    1.62 0  274 255 
 HEL  HN ES       2135 27.08                             115    0.22 8  274 255 
 HEL  HZ I        2135 34.64        23.0 0.26            115            274 255 
 PTGC HZ EP   4   2134 57.69                             112   -1.16 0  314 159 
 PTGC HN ES   4   2135 31.20                             112   -2.56 0  314 159 
 PTGC HZ I        2135 34.68        29.0 0.26            112            314 159 
 LL6C HZ EP   4   2134 39.95                             111   -19.6 0  319 357 
 LL6C HN ES   4   2135 17.15                             111   -17.8 0  319 357 
 ELA  HZ EP   4   2135  4.22                             111    2.44 0  334 229 
 ELA  HE ES   4   2135 41.43                             111    2.45 0  334 229 
 ELA  HZ I        2135 53.79        17.2 0.40            110            334 229 
 ARGC HZ EP   4   2134 48.72                             109   -14.8 0  354 340 
 ARGC HE ES   4   2135 45.18                             109    3.16 0  354 340 
 ANIL HZ EP   4   2135  6.22                             109    1.48 0  362 224 
 ANIL HN ES   4   2135 45.98                             109    1.73 0  362 224 
 ORTC HZ EP   2   2135  9.04                             107    0.16 3  401 216 
 ORTC HN ES   2   2135 51.95                             107    0.34 3  401 216 
 ORTC HZ I        2135 57.82        10.4 0.62            107            401 216 
 SJC  HZ EP   2   2135  8.23                             106   -1.21 3  405 326 
 SJC  HN ES   4   2135 49.62                             106   -2.99 0  405 326 
 SJC  HZ I        2135 56.17         4.0 0.24            107            405 326 
 PAL  HZ EP   2   2135  9.74                             106   -0.21 3  409 238 
 PAL  HN ES   2   2135 54.32                             106    0.79 3  409 238 
 PAL  HZ I        2135 56.46         7.8 0.44            106            409 238 
 CRJC HZ EP   9   2135 15.06                             104   -1.09 0  462   3 
 CRJC HN ES       2136  2.06                                   -1.41 5  462   3 
 CRJC HZ I        2136  5.74         8.1 0.18            105            462   3 
 YOT  HZ EP   2   2135 18.67                             104    0.79 2  476 228 
 YOT  HN ES   4   2136 10.91                             104    3.27 0  476 228 
 URI  HZ EP   4   2135 25.18                             101   -1.42 0  551  13 
 URI  HE ES   4   2136 19.73                             101   -3.43 0  551  13 
                                                                                
