 2011  2 5 2121 41.1 L   5.936 -73.618112.9  RSN  5 0.1 1.6LRSN                1
 GAP=195        0.30       3.2    10.0  8.0 -0.2175E+02  0.5718E+02 -0.5805E+01E
 Epicentro: BARBOSA - SANTANDER                                                3
 ACTION:UP  11-03-28 15:06 OP:jfem STATUS:               ID:20110205212141 L   I
 2011-02-05-2120-18S.COL___138                                                 6
 STAT SP IPHASW D HRMM SECON CODA AMPLIT PERI AZIMU VELO SNR AR TRES W  DIS CAZ7
 RUS  HZ EP       2121 58.71                             151     0.010   59  95 
 RUS  HZ I        2121 59.13         4.0 0.14                            59  95 
 RUS  HN ES   2   2122 12.38                             151    -0.1 5   59  95 
 BAR2 SZ EP   2   2122  0.29                             140     0.0 5   87  34 
 BAR2 SZ ES   2   2122 15.38                             140     0.1 5   87  34 
 BAR2 SZ I        2122 16.87        28.2 0.30                            87  34 
 BTL  SZ ES   3   2122 19.70                             131     0.1 2  115  20 
 GIR2 SZ ES   3   2122 22.12                             126    -0.5 2  135  20 
 CHI  HZ EP       2122  5.83                             124     0.0 9  145 185 
 CHI  HZ I        2122  6.46         4.7 0.18                           145 185 
 CHI  HN ES   2   2122 25.13                             124     0.0 5  145 185 
                                                                                
