 2015  1 5 2014 39.7 L   6.356 -73.599108.6  RSN 26 0.6 3.0LRSN                1
 GAP= 51        1.32       2.3     2.7  5.7 -0.1040E+01  0.3834E+01  0.7426E+00E
 Epicentro: SANTA HELENA DEL OPON - SANTANDER                                  3
      53.0      70.0    -102.0 17.0 10.0 33.0  0.0  0.1           RSN FPFIT    F
 ACTION:UPD 15-03-02 15:37 OP:nd   STATUS:               ID:20150105201439 L   I
 OLDACT:REG 15-01-06 05:03 OP:stll STATUS:               ID:20150105200745     3
 2015-01-05-2007-45M.COL___271                                                 6
 STAT SP IPHASW D HRMM SECON CODA AMPLIT PERI AZIMU VELO AIN AR TRES W  DIS CAZ7
 BAR2 EZ IP     D 2014 56.85                             152    0.7310 53.0  60 
 BAR2 EZ I        2014 56.99       324.8 0.24            154           53.0  60 
 BAR2 EZ ES       2015  9.40                             152    0.4510 53.0  60 
 RUS  HZ IP     D 2014 58.11                             142    0.0610 76.8 132 
 RUS  HN ES       2015 12.55                             142    0.1710 76.8 132 
 RUS  HZ I        2015 15.97        88.5 0.18            145           76.8 132 
 BRR  HZ EP       2014 58.41                             139    0.5010 84.0 351 
 BRR  HN ES       2015 12.25                             139    0.1010 84.0 351 
 BRR  HZ I        2015 14.04       179.7 0.12            137           84.0 351 
 SPBC HZ IP     D 2014 58.94                             136    0.0910 93.8 214 
 SPBC HE ES       2015 13.66                             136   -0.1510 93.8 214 
 SPBC HZ I        2015 21.20       324.9 0.22            135           93.8 214 
 PTB  HZ EP     C 2014 58.62                             135   -0.3910 96.9 282 
 PTB  HN ES       2015 13.59                             135   -0.5210 96.9 282 
 PTB  HZ I        2015 16.42       370.5 0.10            132           96.9 282 
 PAM  SZ EP       2015  4.49                             122    0.02 9  147  42 
 PAM  SE ES       2015 23.83                             122    0.00 9  147  42 
 PAM  SZ I        2015 27.86        58.6 0.20            123            147  42 
 NOR  HZ EP     D 2015  5.43                             118   -0.40 9  166 238 
 NOR  HN ES       2015 26.12                             118   -0.12 9  166 238 
 NOR  HZ I        2015 31.66       229.2 0.20            117            166 238 
 ROSC BZ EP       2015  8.80                             116    0.36 9  186 206 
 ROSC BN ES       2015 30.93                             116    0.04 9  186 206 
 ROSC BZ I        2015 35.19        67.8 0.35            115            186 206 
 ZAR  HZ IP     C 2015  8.35                             115    0.20 9  187 312 
 ZAR  HE ES       2015 30.52                             115    0.16 9  187 312 
 ZAR  HZ I        2015 36.02       268.1 0.42            114            187 312 
 CHI  HZ EP       2015  8.58                             115   -0.53 9  191 184 
 CHI  HE ES       2015 32.06                             115   -0.02 9  191 184 
 CHI  HZ I        2015 36.59        54.1 0.22            115            191 184 
 TAM  HZ EP       2015  9.59                             113   -0.02 9  200  87 
 TAM  HE ES       2015 31.07                             113   -1.90 9  200  87 
 TAM  HZ I        2015 31.93       151.2 0.22            114            200  87 
 OCA  HZ EP       2015 11.79                             112    0.88 8  210   8 
 OCA  HN ES       2015 35.57                             112    0.29 8  210   8 
 OCA  HZ I        2015 42.64       131.7 0.26            111            210   8 
 HEL  HZ EP       2015 12.10                             112    0.49 8  214 265 
 HEL  HE ES       2015 36.77                             112    0.24 8  214 265 
 HEL  HZ I        2015 40.78        85.1 0.28            110            214 265 
 VIL  SZ EP       2015 15.11                             108   -0.11 8  248 182 
 VIL  SN ES       2015 42.57                             108   -0.38 8  248 182 
 VIL  SZ I        2015 47.67        83.4 0.30            108            248 182 
 RREF HZ EP     D 2015 16.86                             108    0.62 8  252 230 
 RREF HN ES       2015 44.76                             108   -0.02 8  252 230 
 RREF HZ I        2015 51.02        95.7 0.24            107            252 230 
 URE  HZ EP       2015 15.71                             107   -1.13 8  264 306 
 URE  HN ES       2015 44.20                             107   -1.63 8  264 306 
 URE  HZ I        2015 54.71       119.3 0.16            106            264 306 
 CBOC HZ EP       2015 18.58                             106    0.49 8  273 259 
 CBOC HZ I        2015 20.03        32.6 0.16            105            273 259 
 CBOC HN ES       2015 47.73                             106   -0.34 8  273 259 
 SML  HZ EP       2015 18.08                             106   -0.12 7  275 349 
 SML  HE ES       2015 48.44                             106    0.18 7  275 349 
 SML  HZ I        2016  0.02        74.2 0.30            105            275 349 
 ANIL HZ EP       2015 21.09                             105    1.13 7  287 224 
 ANIL HN ES       2015 51.34                             105   -0.06 7  287 224 
 DBB  SZ EP       2015 21.07                             104    0.12 7  298 284 
 DBB  SZ I        2015 55.91       179.6 0.34            103            298 284 
 ORTC HZ EP       2015 24.47                             102    0.17 7  326 214 
 ORTC HN ES       2015 59.08                             102   -0.03 7  326 214 
 ORTC HZ I        2016  5.93        27.2 0.18            102            326 214 
 MON  HZ EP   9   2015 25.91                             101   -1.36 0  352 320 
 MON  HZ I        2015 26.64        34.6 0.40            100            352 320 
 MON  HN ES       2016  2.83                                   -0.21 6  352 320 
 SOCV BZ EP   9   2015 28.95                             100   -0.59 0  370  55 
 SOCV BN ES       2016  6.87                                   -0.99 6  370  55 
 ARGC HZ EP   9   2015 34.19                              99    1.86 0  394 350 
 ARGC HN ES       2016 15.25                                   -0.02 6  394 350 
 SJC  HZ EP   9   2015 34.83                              98   -1.77 0  429 336 
 SJC  HE ES       2016 18.66                                   -0.58 5  429 336 
 SJC  HZ I        2016 20.89        17.0 0.36             97            429 336 
 SDV  BZ EP   9   2015 37.03                              97    0.03 0  430  49 
 SDV  BE ES       2016 19.86                                   -1.89 5  430  49 
                                                                                
