 2017  9 5 2222  1.8 L   6.802 -73.409122.3  RSN  4 0.2 1.4LRSN                1
 GAP=177        0.66       6.9     7.6  6.1  0.4486E+02  0.2144E+02  0.1568E+02E
 Epicentro: SAN VICENTE DE CHUCURI - SANTANDER                                 3
 ACTION:UPD 17-10-05 19:09 OP:rebc STATUS:               ID:20170905222203 L   I
 OLDACT:UP  17-09-08 14:25 OP:nlst STATUS:               ID:20170905222203 L   3
 OLDACT:UP  17-09-06 06:41 OP:edw  STATUS:               ID:20170905221742     3
 OLDACT:UP  17-09-06 06:41 OP:edw  STATUS:               ID:20170905221742     3
 OLDACT:UP  17-09-06 06:39 OP:edw  STATUS:               ID:20170905221742     3
 OLDACT:REG 17-09-06 03:36 OP:edw  STATUS:               ID:20170905221742     3
 2017-09-05-2218-00M.COL___428                                                 6
 STAT SP IPHASW D HRMM SECON CODA AMPLIT PERI AZIMU VELO AIN AR TRES W  DIS CAZ7
 BAR2 EZ EP       2222 18.90                             163   -0.0410 34.1 133 
 BAR2 EZ ES       2222 31.87                             163   -0.4310 34.1 133 
 BAR2 EZ I        2222 33.11         8.9 0.32            165           34.1 133 
 BRR  HZ EP       2222 19.28                             157    0.1410 47.6 315 
 BRR  HN ES       2222 32.96                             157    0.3110 47.6 315 
 BRR  HZ I        2222 34.25         5.1 0.34            158           47.6 315 
 RUS  HZ EP       2222 23.86                             136    0.0210  107 160 
 RUS  HN ES       2222 41.21                             136    0.1810  107 160 
 URE  HN ES       2223  7.29                             111   -0.30 8  257 294 
                                                                                
