 2016  4 5 2318  3.9 L   6.797 -73.167144.9  RSN  9 0.3 1.8LRSN                1
 GAP=134        0.78       3.0     3.2  5.2 -0.1796E+01  0.5300E+01  0.2178E+01E
 Epicentro: LOS SANTOS - SANTANDER                                             3
 ACTION:UPD 16-05-05 14:19 OP:rebc STATUS:               ID:20160405231803 L   I
 OLDACT:REG 16-04-06 03:44 OP:ak   STATUS:               ID:20160405230745     3
 2016-04-05-2307-45M.COL___304                                                 6
 STAT SP IPHASW D HRMM SECON CODA AMPLIT PERI AZIMU VELO AIN AR TRES W  DIS CAZ7
 BAR2 EZ EP       2318 23.31                             171   -0.1010 22.7 184 
 BAR2 EZ ES       2318 38.92                             171    0.2910 22.7 184 
 BAR2 EZ I        2318 39.86        15.2 0.22            170           22.7 184 
 PAM  EZ EP       2318 26.34                             150    0.2110 79.2  41 
 PAM  EN ES       2318 43.53                             150    0.0610 79.2  41 
 PAM  EZ I        2318 46.33         5.7 0.27            154           79.2  41 
 RUS  HZ EP       2318 27.20                             144   -0.3510  100 175 
 RUS  HN ES       2318 45.88                             144   -0.1210  100 175 
 RUS  HZ I        2318 47.21         6.4 0.38            147            100 175 
 PTB  HZ EP       2318 29.73                             132   -0.85 9  145 259 
 PTB  HN ES       2318 51.09                             132   -0.30 9  145 259 
 PTB  HZ I        2318 53.13        11.1 0.16            132            145 259 
 SPBC HZ EP       2318 32.13                             129   -0.04 9  161 218 
 SPBC HN ES       2318 54.52                             129    0.31 9  161 218 
 SPBC HZ I        2319  0.74        13.1 0.14            130            161 218 
 ZAR  HZ EP   2   2318 36.96                             123    0.88 4  202 292 
 ZAR  HN ES       2319  1.40                             123    0.22 9  202 292 
 ZAR  HZ I        2319 11.61         7.0 0.45            123            202 292 
 NOR  HZ EP   2   2318 39.55                             119    0.20 4  233 234 
 NOR  HE ES       2319  6.89                             119   -0.11 8  233 234 
 NOR  HZ I        2319 14.15         6.4 0.18            119            233 234 
 CHI  HZ EP       2318 41.63                             117    0.18 8  248 195 
 CHI  HN ES       2319 10.94                             117    0.21 8  248 195 
 CHI  HZ I        2319 14.11         4.6 0.32            119            248 195 
 HEL  HZ EP   4   2318 46.07                             115    2.26 0  270 256 
 GUY2CHZ EP   2   2318 47.74                             112    0.51 4  299 235 
 GUY2CHE ES       2319 21.43                             112    0.41 7  299 235 
 GUY2CHZ I        2319 31.29         4.5 0.70                           299 235 
                                                                                
