 2017  2 5 2256 55.2 L   6.776 -73.148148.0  RSN  8 0.4 1.8LRSN                1
 GAP=120        0.86       3.3     3.4  5.7  0.5504E+00  0.2765E+01  0.5830E+01E
 Epicentro: LOS SANTOS - SANTANDER                                             3
 ACTION:UPD 17-05-24 15:32 OP:jn   STATUS:               ID:20170205225655 L   I
 OLDACT:REG 17-02-06 03:45 OP:dani STATUS:               ID:20170205224746     3
 2017-02-05-2248-00M.COL___331                                                 6
 STAT SP IPHASW D HRMM SECON CODA AMPLIT PERI AZIMU VELO AIN AR TRES W  DIS CAZ7
 BRR  HZ EP     C 2257 16.71                             153    0.0710 72.3 300 
 BRR  HE ES       2257 33.57                             153    0.2010 72.3 300 
 BRR  HZ I        2257 37.05        13.7 0.24            152           72.3 300 
 PAM  EZ EP     D 2257 17.96                             150    0.1810 79.6  38 
 PAM  EE ES       2257 35.26                             150   -0.1310 79.6  38 
 PAM  EZ I        2257 38.17         8.3 0.50            155           79.6  38 
 RUS  HZ EP       2257 18.86                             145   -0.1210 98.0 176 
 RUS  HE ES       2257 37.68                             145    0.1510 98.0 176 
 RUS  HZ I        2257 38.56         6.4 0.18            147           98.0 176 
 PTB  HZ EP       2257 21.64                             133   -0.63 9  147 260 
 PTB  HN ES       2257 42.87                             133   -0.53 9  147 260 
 PTB  HZ I        2257 47.74         9.4 0.24            133            147 260 
 ZAR  HZ EP       2257 28.54                             123    0.68 9  205 293 
 ZAR  HN ES       2257 53.23                             123   -0.11 9  205 293 
 ZAR  HZ I        2257 57.94         9.4 0.15            124            205 293 
 NOR  HZ EP       2257 31.02                             119    0.16 8  233 235 
 NOR  HN ES       2257 58.87                             119    0.18 8  233 235 
 NOR  HZ I        2258  4.45         6.5 0.18            121            233 235 
 CHI  HZ EP       2257 33.07                             118    0.34 8  246 195 
 CHI  HN ES       2258  2.30                             118    0.29 8  246 195 
 CHI  HZ I        2258  7.56         4.6 0.36            120            246 195 
 PTGC HZ EP     C 2257 38.17                             112   -0.71 7  306 158 
                                                                                
