 2014  5 5 2030 49.5 L   6.823 -73.125139.3  RSN  5 0.5 1.5LRSN                1
 GAP=138        0.90       4.9     8.6 12.6  0.4392E-01  0.3490E+02 -0.6402E+01E
 Epicentro: LOS SANTOS - SANTANDER                                             3
 OLDACT:REG 14-05-06 02:53 OP:spq  STATUS:               ID:20140505202821d    3
 ACTION:UPD 15-03-16 16:55 OP:nd   STATUS:               ID:20140505203049 L   I
 OLDACT:UP  14-05-06 03:45 OP:spq  STATUS:               ID:20140505202821d    3
 2014-05-05-2028-20M.COL___220                                                 6
 STAT SP IPHASW D HRMM SECON CODA AMPLIT PERI AZIMU VELO AIN AR TRES W  DIS CAZ7
 BRR  HZ EP       2031 10.64                             151    0.6610 72.0 296 
 BRR  HN ES   2   2031 25.77                             151   -0.20 5 72.0 296 
 BRR  HZ I        2031 28.44         9.4 0.48            158           72.0 296 
 PAM  SZ EP   1   2031 10.66                             151   -0.14 7 74.0  39 
 PAM  SN ES   1   2031 27.23                             151   -0.21 7 74.0  39 
 PAM  HZ I        2031 30.61         5.1 0.38            157           74.0  39 
 RUS  HZ EP   1   2031 12.41                             142   -0.37 7  103 177 
 RUS  HN ES   1   2031 31.25                             142    0.30 7  103 177 
 RUS  HZ I        2031 38.13         3.6 1.12            144            103 177 
 SPBC HE ES   2   2031 38.87                             127   -1.05 5  167 219 
 SML  HE ES   1   2031 53.35                             116   -0.43 6  242 335 
                                                                                
