 2011  9 5 2045  8.6 L   6.762 -73.111145.0  RSN  8 0.3 2.0LRSN                1
 GAP=143        0.63       3.7     4.7  4.8 -0.2607E+01  0.6405E+01  0.3553E+01E
 Epicentro: LOS SANTOS - SANTANDER                                             3
 ACTION:UPD 12-07-13 15:55 OP:ep   STATUS:               ID:20110905204508 L   I
 2011-09-05-2042-43S.COL___170                                                 6
 STAT SP IPHASW D HRMM SECON CODA AMPLIT PERI AZIMU VELO AIN AR TRES W  DIS CAZ7
 BAR2 SZ EP       2045 28.07                             172    0.0310 20.4 203 
 BAR2 SZ I        2045 28.61        23.4 0.15                          20.4 203 
 BAR2 SZ ES   1   2045 42.57                             172   -0.67 7 20.4 203 
 GIR2 SZ EP   1   2045 28.11                             165   -0.17 7 36.2 345 
 GIR2 SZ ES   1   2045 44.26                             165    0.59 7 36.2 345 
 BRR  HZ IP     C 2045 29.82                             151   -0.1210 76.6 300 
 BRR  HZ I        2045 30.11        30.1 0.15                          76.6 300 
 BRR  HN ES   1   2045 46.68                             151    0.06 7 76.6 300 
 PAM  SZ EP   1   2045 31.03                             150    0.28 7 78.3  35 
 PAM  SN ES   1   2045 47.76                             150   -0.30 7 78.3  35 
 RUS  HZ EP   1   2045 32.14                             145    0.22 7 96.2 178 
 RUS  HZ I        2045 33.28         9.4 0.13                          96.2 178 
 RUS  HN ES   1   2045 50.42                             145    0.27 7 96.2 178 
 ZAR  HZ EP   1   2045 41.64                             121    0.15 6  209 293 
 ZAR  HZ I        2046 12.18        14.5 0.28                           209 293 
 NOR  SZ EP   1   2045 43.97                             118   -0.36 6  235 236 
 NOR  SE ES   1   2046 12.34                             118    0.11 6  235 236 
 CHI  HZ EP   1   2045 45.77                             117   -0.12 6  246 196 
 CHI  HZ I        2046 19.64         4.6 0.39                           246 196 
                                                                                
