 2011  2 5 2123 29.0 L   6.774 -73.140141.2  RSN  4 0.1 1.3LRSN                1
 GAP=186        0.31       3.7    16.9  6.5  0.2253E+02  0.2584E+02  0.5411E+01E
 Epicentro: LOS SANTOS - SANTANDER                                             3
 ACTION:UP  11-03-28 15:06 OP:jfem STATUS:               ID:20110205212329 L   I
 2011-02-05-2120-18S.COL___138                                                 6
 STAT SP IPHASW D HRMM SECON CODA AMPLIT PERI AZIMU VELO SNR AR TRES W  DIS CAZ7
 BTL  SZ EP       2123 48.04                             171     0.010   21 319 
 BTL  SZ ES   3   2124  3.03                             171     0.1 2   21 319 
 GIR2 SZ EP   3   2123 47.83                             166    -0.4 2   34 350 
 RUS  HZ EP       2123 52.14                             144     0.110   98 176 
 RUS  HN ES   2   2124  9.99                             144    -0.1 5   98 176 
 RUS  HZ I        2124 12.08         3.6 0.46                            98 176 
 CHI  HZ EP   2   2124  6.07                             116    -0.1 4  246 195 
 CHI  HN ES   3   2124 35.20                             116     0.1 2  246 195 
 CHI  HZ I        2124 38.93         1.2 0.55                           246 195 
                                                                                
