 2017  2 5 2142  1.1 L   6.803 -73.154142.0  RSN  7 0.4 1.5LRSN                1
 GAP=135        0.82       3.8     3.4  6.5 -0.3045E+00  0.3776E+01  0.7237E+01E
 Epicentro: LOS SANTOS - SANTANDER                                             3
 ACTION:UPD 17-05-24 15:32 OP:jn   STATUS:               ID:20170205214201 L   I
 OLDACT:UP  17-02-06 06:10 OP:dani STATUS:               ID:20170205213743     3
 OLDACT:UP  17-02-06 06:10 OP:dani STATUS:               ID:20170205213743     3
 OLDACT:UP  17-02-06 06:09 OP:dani STATUS:               ID:20170205213743     3
 OLDACT:REG 17-02-06 03:40 OP:dani STATUS:               ID:20170205213743     3
 2017-02-05-2138-00M.COL___328                                                 6
 STAT SP IPHASW D HRMM SECON CODA AMPLIT PERI AZIMU VELO AIN AR TRES W  DIS CAZ7
 BRR  HZ EP       2142 22.08                             152    0.3410 70.2 299 
 BRR  HN ES       2142 38.33                             152    0.4510 70.2 299 
 BRR  HZ I        2142 41.89         5.9 0.29            152           70.2 299 
 PAM  EZ EP       2142 23.23                             150    0.3310 77.7  40 
 PAM  EN ES       2142 39.40                             150   -0.5310 77.7  40 
 PAM  EZ I        2142 42.44         5.7 0.45            155           77.7  40 
 RUS  HZ EP       2142 24.21                             143   -0.2610  101 176 
 RUS  HN ES       2142 42.97                             143    0.2510  101 176 
 RUS  HZ I        2142 44.29         5.3 0.30            144            101 176 
 PTB  HZ EP       2142 27.40                             131   -0.24 9  147 259 
 PTB  HN ES       2142 47.99                             131   -0.39 9  147 259 
 PTB  HZ I        2142 50.66         3.2 0.17            132            147 259 
 ZAR  HN ES       2142 58.12                             122   -0.08 9  203 292 
 ZAR  HZ I        2143  3.63         3.8 0.30            123            203 292 
 NOR  HZ EP   3   2142 37.70                             118    1.19 2  234 234 
 NOR  HN ES       2143  4.15                             118   -0.01 8  234 234 
 NOR  HZ I        2143 11.24         3.0 0.29            119            234 234 
 CHI  HZ EP       2142 38.52                             116   -0.03 8  249 195 
 CHI  HN ES   4   2143  4.75                             116   -3.05 0  249 195 
 CHI  HZ I        2143 13.54         1.5 0.26            118            249 195 
                                                                                
