 2013  5 5 2338 19.6 L   6.811 -73.149143.0  RSN 14 0.5 2.3LRSN                1
 GAP= 71        1.07       3.3     3.6  5.1 -0.1983E+01  0.4431E+01  0.9378E+00E
 Epicentro: LOS SANTOS - SANTANDER                                             3
 ACTION:UPD 13-06-20 09:48 OP:ep   STATUS:               ID:20130505233819 L   I
 2013-05-05-2336-49M.COL___212                                                 6
 STAT SP IPHASW D HRMM SECON CODA AMPLIT PERI AZIMU VELO AIN AR TRES W  DIS CAZ7
 BAR2 SZ IP     D 2338 38.96                             170    0.0610 24.4 189 
 BAR2 SZ ES       2338 54.03                             170    0.0710 24.4 189 
 BAR2 SZ I        2338 55.61        38.4 0.32            168           24.4 189 
 GIR2 SZ EP       2338 38.97                             168    0.0910 30.0 351 
 GIR2 SZ ES       2338 54.59                             168    0.6510 30.0 351 
 GIR2 SZ I        2338 55.88        27.7 0.40            166           30.0 351 
 BRR  HZ IP     C 2338 40.85                             152    0.4810 70.3 298 
 BRR  HN ES       2338 56.38                             152   -0.2110 70.3 298 
 BRR  HZ I        2339  0.53        34.4 0.62            149           70.3 298 
 PAM  SZ IP     C 2338 41.79                             150    0.3310 76.7  40 
 PAM  SN ES       2338 58.83                             150    0.3110 76.7  40 
 PAM  SZ I        2339  0.88        27.7 0.50            154           76.7  40 
 RUS  HZ IP     C 2338 42.81                             143   -0.3310  102 176 
 RUS  HN ES       2339  0.75                             143   -0.7810  102 176 
 RUS  HZ I        2339  2.98        15.5 0.62            143            102 176 
 PTB  HZ EP       2338 45.90                             131   -0.41 9  148 258 
 PTB  HN ES       2339  6.41                             131   -0.74 9  148 258 
 PTB  HZ I        2339 13.18        33.3 0.46            129            148 258 
 TAM  HZ EP       2338 47.15                             130    0.05 9  156 105 
 TAM  HE ES   2   2339  8.33                             130   -0.23 5  156 105 
 NOR  HZ EP     C 2338 55.01                             118   -0.18 8  235 234 
 NOR  HN ES       2339 23.65                             118    0.69 8  235 234 
 NOR  HZ I        2339 30.02        23.4 0.36            117            235 234 
 SML  HZ EP       2338 55.48                             117   -0.43 8  242 335 
 SML  HN ES       2339 23.57                             117   -0.68 8  242 335 
 SML  HZ I        2339 31.73        34.5 0.10            117            242 335 
 ROSC BZ EP   4   2338 58.92                             116    1.28 0  254 211 
 ROSC BN ES   1   2339 27.72                             116    0.40 6  254 211 
 ROSC BZ I        2339 36.75        27.7 0.40            116            254 211 
 HEL  HZ EP       2339  0.37                             114    0.73 8  272 256 
 HEL  HN ES       2339 31.32                             114    0.43 8  272 256 
 HEL  HZ I        2339 37.66        16.9 0.30            113            272 256 
 COD  HZ EP   4   2339  5.23                             108   -2.47 0  347 355 
 COD  HN ES   1   2339 45.05                             108   -0.19 5  347 355 
 COD  HZ I        2339 49.87         3.4 0.36            109            347 355 
 PRA  HZ EP   1   2339 12.40                             106   -0.70 4  393 209 
 PRA  HN ES   1   2339 55.35                             106    0.50 4  393 209 
 PRA  HZ I        2340  3.26        11.2 0.64            106            393 209 
 SJC  HZ IP   4 D 2339 13.28                             105   -1.63 0  408 327 
 SJC  HN ES   4   2339 54.33                             105   -3.73 0  408 327 
 SJC  HZ I        2339 59.76         2.7 0.12            105            408 327 
                                                                                
