 2014  3 5 2255 24.8 L   6.824 -73.122149.7  RSN 15 0.4 2.1LRSN                1
 GAP=127        0.93       2.8     3.6  4.9 -0.1703E+01  0.2646E+01 -0.1840E+00E
 Epicentro: LOS SANTOS - SANTANDER                                             3
 ACTION:UPD 14-04-09 23:14 OP:nd   STATUS:               ID:20140305225524 L   I
 OLDACT:REG 14-03-05 22:44 OP:fm   STATUS:               ID:20140305224816     3
 2014-03-05-2248-16M.COL___238                                                 6
 STAT SP IPHASW D HRMM SECON CODA AMPLIT PERI AZIMU VELO AIN AR TRES W  DIS CAZ7
 BAR2 SZ EP       2255 44.89                             170   -0.0410 26.5 195 
 BAR2 SZ ES   1   2256  0.87                             170    0.20 7 26.5 195 
 BAR2 SZ I        2256  1.74        36.9 0.29            169           26.5 195 
 BRR  HZ EP       2255 46.86                             153    0.4610 72.4 296 
 BRR  HN ES       2256  3.77                             153    0.4810 72.4 296 
 BRR  HZ I        2256  7.75        18.3 0.48            149           72.4 296 
 PAM  SZ EP       2255 47.68                             153    0.4910 73.6  39 
 PAM  SN ES       2256  4.64                             153   -0.0410 73.6  39 
 PAM  SZ I        2256  7.05        28.0 0.48            155           73.6  39 
 RUS  HZ EP       2255 48.80                             144   -0.2810  103 178 
 RUS  HN ES       2256  7.57                             144   -0.4810  103 178 
 RUS  HZ I        2256  8.90         8.4 0.38            147            103 178 
 PTB  HZ EP       2255 51.89                             132   -0.45 9  151 258 
 PTB  HN ES       2256 12.91                             132   -0.93 9  151 258 
 PTB  HZ I        2256 20.26        17.6 0.52            132            151 258 
 SPBC HZ EP       2255 53.83                             129   -0.09 9  167 219 
 SPBC HE ES       2256 17.00                             129    0.34 9  167 219 
 SPBC HZ I        2256 20.93        24.1 0.20            130            167 219 
 ZAR  HZ EP       2255 57.95                             123    0.33 8  206 291 
 ZAR  HN ES       2256 23.35                             123    0.10 8  206 291 
 ZAR  HZ I        2256 29.16        15.5 0.30            123            206 291 
 NOR  HZ EP       2256  0.97                             119   -0.15 8  238 234 
 NOR  HE ES       2256 29.32                             119   -0.16 8  238 234 
 NOR  HZ I        2256 32.72        10.3 0.24            120            238 234 
 SML  HZ EP   2   2256  0.70                             118   -0.77 4  242 334 
 SML  HN ES   2   2256 29.21                             118   -0.90 4  242 334 
 SML  HZ I        2256 36.92        23.2 0.10            119            242 334 
 CHI  HZ EP       2256  2.93                             118   -0.10 8  252 196 
 CHI  HN ES       2256 33.45                             118    0.56 8  252 196 
 CHI  HZ I        2256 35.19         4.6 0.24            120            252 196 
 HEL  HZ EP   2   2256  6.36                             115    0.83 4  275 255 
 HEL  HN ES   4   2256 40.25                             115    2.91 0  275 255 
 HEL  HZ I        2256 43.56         5.6 0.34            116            275 255 
 GUY2CHZ EP   1   2256  9.65                             113    0.68 5  305 235 
 GUY2CHE ES   4   2256 45.59                             113    2.14 0  305 235 
 GUY2CHZ I        2256 51.74        10.8 0.74                           305 235 
 COD  HZ EP     D 2256 12.75                             110   -0.27 6  346 354 
 COD  HN ES   1   2256 50.66                             110   -0.00 5  346 354 
 COD  HZ I        2256 57.04         2.5 0.56            111            346 354 
 SDV  BZ EP   1   2256 14.29                             109   -0.23 5  357  50 
 SJC  HZ EP   4   2256 18.66                             106   -1.70 0  408 326 
 SJC  HN ES   4   2257  1.26                             106   -2.48 0  408 326 
 SJC  HZ I        2257  4.49         2.5 0.48            107            408 326 
                                                                                
