 2016  2 5 2009 50.5 L   6.815 -73.166143.9  RSN  9 0.4 2.0LRSN                1
 GAP=133        1.00       3.8     4.2  6.4 -0.1955E+01  0.9255E+01  0.1777E+01E
 Epicentro: LOS SANTOS - SANTANDER                                             3
 ACTION:UPD 16-03-04 21:23 OP:rebc STATUS:               ID:20160205200950 L   I
 OLDACT:REG 16-02-06 01:42 OP:ar   STATUS:               ID:20160205200748     3
 2016-02-05-2007-48M.COL___337                                                 6
 STAT SP IPHASW D HRMM SECON CODA AMPLIT PERI AZIMU VELO AIN AR TRES W  DIS CAZ7
 BAR2 EZ EP       2010  9.85                             170   -0.1110 24.7 184 
 BAR2 EZ ES       2010 25.37                             170    0.2510 24.7 184 
 BAR2 EZ I        2010 27.43        18.5 0.14            167           24.7 184 
 PAM  EZ EP       2010 12.94                             150    0.3910 77.5  42 
 PAM  EN ES       2010 29.88                             150    0.1410 77.5  42 
 PAM  EZ I        2010 32.92        17.2 0.30            157           77.5  42 
 RUS  HZ EP       2010 13.57                             143   -0.6610  102 175 
 RUS  HN ES       2010 32.25                             143   -0.4710  102 175 
 RUS  HZ I        2010 34.85        10.8 0.40            144            102 175 
 PTB  HZ EP       2010 16.96                             132   -0.22 9  146 258 
 PTB  HN ES       2010 37.14                             132   -0.82 9  146 258 
 PTB  HZ I        2010 42.78        13.0 0.44            132            146 258 
 SPBC HZ EP       2010 19.16                             129    0.28 9  163 218 
 SPBC HN ES       2010 41.63                             129    0.64 9  163 218 
 SPBC HZ I        2010 47.03        28.6 0.24            129            163 218 
 ZAR  HZ EP       2010 22.47                             122   -0.10 9  201 292 
 ZAR  HN ES       2010 47.80                             122    0.23 9  201 292 
 ZAR  HZ I        2010 52.91        10.9 0.29            124            201 292 
 NOR  HZ EP       2010 26.10                             118    0.04 8  234 234 
 NOR  HN ES       2010 54.14                             118    0.36 8  234 234 
 NOR  HZ I        2011  1.67        11.3 0.16            119            234 234 
 CHI  HZ EP       2010 28.27                             117    0.03 8  250 195 
 CHI  HE ES       2010 58.02                             117    0.37 8  250 195 
 CHI  HZ I        2011  7.51         4.8 0.58            118            250 195 
 GUY2CHZ EP   4   2010 36.21                             112    2.25 0  300 234 
 GUY2CHE ES   4   2011  5.95                             112   -1.88 0  300 234 
 GUY2CHZ I        2011 15.07         7.0 0.54                           300 234 
                                                                                
