 2016  3 5 2123  8.3 L   6.772 -73.206130.0  RSN  6 0.3 1.6LRSN                1
 GAP=142        0.46       4.4     4.6  6.6 -0.1293E+02  0.1058E+02  0.6703E+00E
 Epicentro: ZAPATOCA - SANTANDER                                               3
 ACTION:UPD 16-05-13 21:21 OP:cam  STATUS:               ID:20160305212308 L   I
 OLDACT:REG 16-03-06 03:17 OP:dnl  STATUS:               ID:20160305211750     3
 2016-03-05-2117-50M.COL___328                                                 6
 STAT SP IPHASW D HRMM SECON CODA AMPLIT PERI AZIMU VELO AIN AR TRES W  DIS CAZ7
 BAR2 EZ EP   3   2123 26.11                             171    0.10 2 20.0 173 
 BAR2 EZ ES   3   2123 39.22                             171   -0.57 2 20.0 173 
 BAR2 EZ I        2123 42.70        10.8 0.13            169           20.0 173 
 PAM  EZ EP       2123 29.21                             146   -0.1410 84.1  42 
 PAM  EN ES       2123 45.90                             146    0.1610 84.1  42 
 PAM  EZ I        2123 48.41        10.8 0.48            153           84.1  42 
 RUS  HZ EP   2   2123 29.89                             142   -0.50 5 98.2 172 
 RUS  HE ES   2   2123 48.02                             142    0.43 5 98.2 172 
 RUS  HZ I        2123 50.19         6.8 0.32            144           98.2 172 
 PTB  HZ EP   2   2123 33.20                             130   -0.20 5  141 260 
 PTB  HN ES   2   2123 53.00                             130    0.06 5  141 260 
 PTB  HZ I        2123 56.74         3.9 0.12            131            141 260 
 SPBC HN ES   3   2123 54.98                             127   -0.87 2  157 218 
 SPBC HZ I        2123 59.82         6.3 0.11            129            157 218 
 NOR  HZ EP   2   2123 42.71                             116    0.30 4  227 234 
 NOR  HE ES   2   2124  9.33                             116    0.34 4  227 234 
 NOR  HZ I        2124 15.95         4.2 0.16            118            227 234 
                                                                                
