 2013  5 5 2339 58.2 L   6.783 -73.130150.0  RSN  9 0.5 2.0LRSN                1
 GAP=139        1.03       4.7     5.0  5.9 -0.6616E+01  0.9617E+01  0.5914E+00E
 Epicentro: LOS SANTOS - SANTANDER                                             3
 ACTION:UPD 13-06-20 09:48 OP:ep   STATUS:               ID:20130505233958 L   I
 2013-05-05-2336-49M.COL___212                                                 6
 STAT SP IPHASW D HRMM SECON CODA AMPLIT PERI AZIMU VELO AIN AR TRES W  DIS CAZ7
 BAR2 SZ IP     D 2340 18.41                             171    0.0510 21.9 195 
 BAR2 SZ ES       2340 33.91                             171   -0.1310 21.9 195 
 BAR2 SZ I        2340 34.71        15.2 0.18            171           21.9 195 
 GIR2 SZ EP       2340 18.38                             167   -0.1010 33.4 348 
 GIR2 SZ ES       2340 35.00                             167    0.7410 33.4 348 
 GIR2 SZ I        2340 43.96        11.0 0.54            162           33.4 348 
 BRR  HZ IP     C 2340 20.17                             152    0.1810 73.6 299 
 BRR  HN ES       2340 37.15                             152    0.2110 73.6 299 
 BRR  HZ I        2340 40.14        15.9 0.30            149           73.6 299 
 PAM  SZ EP       2340 21.12                             151    0.1910 77.7  38 
 PAM  SN ES       2340 38.01                             151   -0.6210 77.7  38 
 PAM  SZ I        2340 40.79        10.6 0.46            153           77.7  38 
 RUS  HZ EP       2340 22.57                             145    0.2910 98.6 177 
 RUS  HN ES       2340 40.65                             145   -0.3710 98.6 177 
 RUS  HZ I        2340 42.45        10.0 0.24            151           98.6 177 
 PTB  HZ EP   1   2340 24.66                             133   -1.02 7  149 260 
 PTB  HN ES   2   2340 46.05                             133   -1.03 5  149 260 
 PTB  HZ I        2340 51.06        18.0 0.16            133            149 260 
 NOR  HZ IP     C 2340 34.94                             119    0.68 8  235 235 
 NOR  HN ES       2341  2.32                             119   -0.03 8  235 235 
 NOR  HZ I        2341  4.62         9.5 0.20            121            235 235 
 SML  HZ EP       2340 35.05                             118   -0.32 8  246 335 
 SML  HN ES   4   2341  4.72                             118    0.39 0  246 335 
 SML  HZ I        2341 11.85        16.0 0.26            119            246 335 
 HEL  HZ EP   2   2340 38.59                             115   -0.22 4  273 256 
 HEL  HN ES       2341 10.60                             115    0.15 8  273 256 
 HEL  HZ I        2341 16.74         5.9 0.40            117            273 256 
                                                                                
