 2015  6 5 2350 15.8 L   6.049 -74.238 18.5  RSN  6 0.4 1.2LRSN                1
 GAP=135        0.91       4.3     2.5  5.4 -0.4936E+01 -0.1048E+01 -0.1218E+02E
 Epicentro: LA BELLEZA - SANTANDER                                             3
 ACTION:UPD 15-09-10 22:10 OP:cam  STATUS:               ID:20150605235015 L   I
 OLDACT:DUP 15-06-06 10:22 OP:spq  STATUS:               ID:20150605234751d    3
 2015-06-05-2347-50M.COL___312                                                 6
 STAT SP IPHASW D HRMM SECON CODA AMPLIT PERI AZIMU VELO AIN AR TRES W  DIS CAZ7
 NOR  HZ EP       2350 30.26                             100    0.2910 88.1 233 
 NOR  HE ES       2350 40.71                             100   -0.3310 88.1 233 
 NOR  HZ I        2350 41.67        15.5 0.44            102           88.1 233 
 RUS  HZ EP       2350 36.78                              56    0.2710  129  98 
 RUS  HN ES   1   2350 52.21                              56   -0.47 7  129  98 
 RUS  HZ I        2350 53.04         1.3 0.19             56            129  98 
 BAR2 EZ ES   1   2350 52.14                              56   -0.51 7  131  63 
 BRR  HN ES       2350 52.33                              56    0.3310  131  26 
 BRR  HZ I        2350 54.02         5.7 0.21             56            131  26 
 BAR2 EZ I        2350 53.84         6.7 0.32             56            131  63 
 HEL  HZ EP       2350 38.14                              56   -0.06 9  144 276 
 HEL  HE ES       2350 55.24                              56   -0.45 9  144 276 
 HEL  HZ I        2350 55.68         3.6 0.30             56            144 276 
 GUY2CHZ EP   4   2350 41.62                              56    1.93 0  155 234 
 GUY2CHN ES       2350 58.85                              56    0.52 9  155 234 
 GUY2CHZ I        2351  1.36         2.0 0.18                           155 234 
                                                                                
