 2013  6 5 2141 19.9 L   6.531 -73.570110.3  RSN  6 0.5 1.9LRSN                1
 GAP=128        1.29       5.6     5.0 10.4 -0.1153E+00  0.8771E+01  0.9071E+01E
 Epicentro: EL CARMEN DE CHUCURI - SANTANDER                                   3
 ACTION:UPD 14-01-08 09:52 OP:ep   STATUS:               ID:20130605214119 L   I
 OLDACT:REG 13-06-05 22:26 OP:stll STATUS:               ID:20130605213842     3
 2013-06-05-2138-42M.COL___225                                                 6
 STAT SP IPHASW D HRMM SECON CODA AMPLIT PERI AZIMU VELO AIN AR TRES W  DIS CAZ7
 BAR2 SZ EP       2141 36.17                             157    0.1910 43.3  81 
 BAR2 SZ ES       2141 48.35                             157   -0.2110 43.3  81 
 BAR2 SZ I        2141 50.56        36.4 0.36            161           43.3  81 
 BRR  HZ EP       2141 37.19                             147    0.2710 65.6 346 
 BRR  HE ES       2141 51.07                             147    0.8510 65.6 346 
 BRR  HN I        2141 57.00        15.0 0.16            148           65.6 346 
 GIR2 SZ EP       2141 37.98                             144    0.3210 73.5  34 
 GIR2 SZ ES       2141 51.64                             144    0.0910 73.5  34 
 RUS  HZ EP       2141 39.61                             139    0.2910 88.8 143 
 RUS  HN ES       2141 54.58                             139    0.0710 88.8 143 
 PTB  HZ IP     C 2141 39.19                             135   -0.2510 98.1 271 
 PTB  HN ES       2141 54.07                             135   -0.6510 98.1 271 
 PAM  SN ES       2142  0.28                             126   -1.0510  131  47 
                                                                                
