 2010  4 5 2222  0.6 L   6.856 -73.026139.1  RSN  5 0.4 2.0LRSN                1
 GAP=267        0.61       6.6    10.3  8.2 -0.4166E+00  0.1053E+02  0.2903E+02E
 Epicentro: CEPITA - SANTANDER                                                 3
 ACTION:UPD 10-08-24 09:57 OP:vdl  STATUS:               ID:20100405222200 L   I
 2010-04-05-2220-09S.COL___098                                                 6
 STAT SP IPHASW D HRMM SECON CODA AMPLIT PERI AZIMU VELO AIN AR TRES W  DIS CAZ7
 BAR2 SZ EP   1   2222 19.64                             166    -0.1 7   34 211 
 BAR2 SZ ES   2   2222 34.20                             166    -0.4 5   34 211 
 BRR  HZ EP   1   2222 21.53                             151    -0.1 7   81 290 
 BRR  HE ES   2   2222 38.57                             151     0.6 5   81 290 
 BRR  HZ I        2222 43.16        33.0 0.14                            81 290 
 CHI  HZ EP   1   2222 39.07                             115     0.1 6  258 198 
 CHI  HN ES   2   2223  9.73                             115     0.8 4  258 198 
 CHI  HZ I        2223 10.40         3.1 0.32                           258 198 
 RREF BZ EP   1   2222 48.25                             109     0.2 5  336 230 
 RREF BE ES   2   2223 24.04                             109    -1.1 3  336 230 
 PRA  HZ EP   1   2222 55.26                             105    -0.1 4  404 211 
 PRA  HE ES   2   2223 38.05                             105     0.1 3  404 211 
 PRA  HZ I        2223 41.61         4.0 0.46                           404 211 
                                                                                
