 2011 12 5 2207 28.9 L   6.771 -73.116144.0  RSN  8 0.3 2.1LRSN                1
 GAP=142        0.50       2.8     3.9  4.1 -0.2685E+01  0.2624E+01  0.2462E+01E
 Epicentro: LOS SANTOS - SANTANDER                                             3
 ACTION:UPD 12-07-13 16:14 OP:ep   STATUS:               ID:20111205220728 L   I
 2011-12-05-2200-00M.COL___183                                                 6
 STAT SP IPHASW D HRMM SECON CODA AMPLIT PERI AZIMU VELO AIN AR TRES W  DIS CAZ7
 BAR2 SZ EP       22 7 48.33                             171    0.0810 21.1 200 
 BAR2 SZ ES   1   22 8  2.84                             171   -0.52 7 21.1 200 
 BAR2 SZ I        22 8  4.59        43.0 0.19                          21.1 200 
 GIR2 SZ EP       22 7 48.37                             166   -0.0810 35.1 346 
 GIR2 SZ ES   1   22 8  4.02                             166    0.30 7 35.1 346 
 BRR  HZ EP   1   22 7 50.16                             151    0.06 7 75.6 299 
 BRR  HZ I        22 7 53.62        20.7 0.11                          75.6 299 
 BRR  HE ES   1   22 8  6.80                             151    0.16 7 75.6 299 
 PAM  SZ EP   1   22 7 51.09                             150    0.15 7 77.9  36 
 PAM  SZ I        22 7 51.48        20.6 0.21                          77.9  36 
 PAM  SN ES   1   22 8  7.93                             150   -0.21 7 77.9  36 
 RUS  HZ EP   1   22 7 52.35                             144    0.13 7 97.2 178 
 RUS  HE ES   1   22 8 10.65                             144    0.23 7 97.2 178 
 RUS  HZ I        22 8 12.20        15.2 0.37                          97.2 178 
 OCA  SZ ES   2   22 8 19.35                             128   -0.28 5  164 352 
 OCA  SZ I        22 8 24.57        23.7 0.32                           164 352 
 NOR  SZ EP   1   22 8  4.75                             118    0.15 6  236 236 
 NOR  SN ES   1   22 8 32.29                             118   -0.17 6  236 236 
 CHI  HZ EP   2   22 8  5.58                             117   -0.66 4  246 196 
 CHI  HZ I        22 8 41.56         6.8 0.30                           246 196 
                                                                                
