 2010  3 5 2025  4.5 L   6.797 -73.018146.5  RSN 14 0.5 3.9LRSN                1
 GAP=126        1.04       4.2     6.6  6.5 -0.8978E+01 -0.3719E+00  0.6927E+01E
 Epicentro: CEPITA - SANTANDER                                                 3
 ACTION:UP  10-08-24 09:52 OP:vdl  STATUS:               ID:20100305202504 L   I
 2010-03-05-2023-31S.COL___101                                                 6
 STAT SP IPHASW D HRMM SECON CODA AMPLIT PERI AZIMU VELO SNR AR TRES W  DIS CAZ7
 BAR2 SZ IP       2025 24.61                             168     0.310   29 219 
 BAR2 SZ ES   1   2025 39.55                             168    -0.2 7   29 219 
 BRR  HZ IP       2025 26.44                             149     0.010   84 294 
 BRR  HZ I        2025 26.73      1874.7 0.15                            84 294 
 BRR  HN ES   1   2025 43.78                             149     0.2 7   84 294 
 RUS  BZ IP       2025 28.35                             144     0.110  100 184 
 RUS  BN ES   2   2025 46.47                             144    -0.3 5  100 184 
 RUS  BZ I        2025 48.04       547.1 0.54                           100 184 
 OCA  SZ IP       2025 32.94                             129    -0.1 9  163 348 
 OCA  SZ ES   1   2025 55.05                             129    -0.3 7  163 348 
 OCA  SZ I        2026  4.69      1137.1 0.41                           163 348 
 CHI  HZ IP       2025 42.19                             117    -0.4 8  252 198 
 CHI  HN ES   2   2026 12.55                             117     0.2 4  252 198 
 CHI  HZ I        2026 21.51       285.9 0.63                           252 198 
 ROSC BZ IP       2025 44.07                             116     0.7 8  260 214 
 ROSC BE ES   2   2026 13.84                             116     0.0 4  260 214 
 ROSC BZ I        2026 20.60       375.9 0.94                           260 214 
 GUY  HZ EP       2025 49.63                             112     0.2 7  313 236 
 GUY  HE ES   3   2026 24.51                             112     0.0 2  313 236 
 RREF BZ IP       2025 52.75                             110     0.9 7  332 231 
 RREF BN ES   2   2026 29.47                             110     0.7 3  332 231 
 RREF BZ I        2026 37.08       373.4 0.10                           332 231 
 SDV  BZ IP       2025 53.74                             109     0.4 6  350  49 
 SDV  BZ I        2025 54.80       326.3 0.09                           350  49 
 SDV  BZ ES   2   2026 30.93                             109    -0.5 3  350  49 
 TOL  SZ EP       2025 54.44                             109     0.6 6  353 226 
 DBB  SZ EP       2025 52.39                             109    -1.2 6  354 274 
 ANIL BZ EP       2025 55.65                             108     0.2 6  367 226 
 ANIL BN ES   1   2026 34.06                             108    -1.1 5  367 226 
 ANIL BZ I        2026 38.38       564.6 0.54                           367 226 
 PRA  HZ EP       2025 57.93                             106    -0.9 6  399 211 
 PRA  HN ES   2   2026 40.85                             106    -0.3 3  399 211 
 PRA  HZ I        2026 46.31       323.9 0.44                           399 211 
 GUA  SZ EP       2026  6.50                             103    -0.9 5  472 175 
                                                                                
