 2017  6 5 2135  7.8 L   6.826 -73.106143.2  RSN 18 0.7 2.6LRSN                1
 GAP=150        1.55       5.8     5.9  8.6  0.1355E+02  0.1324E+00 -0.4504E-01E
 Epicentro: LOS SANTOS - SANTANDER                                             3
 ACTION:UPD 17-09-14 16:49 OP:jn   STATUS:               ID:20170605213507 L   I
 OLDACT:UP  17-06-06 09:34 OP:ar   STATUS:               ID:20170605212740     3
 OLDACT:REG 17-06-06 06:00 OP:ar   STATUS:               ID:20170605212740     3
 2017-06-05-2128-00M.COL___359                                                 6
 STAT SP IPHASW D HRMM SECON CODA AMPLIT PERI AZIMU VELO AIN AR TRES W  DIS CAZ7
 BRR  HZ IP     C 2135 29.22                             151    0.4310 73.8 295 
 BRR  HN ES       2135 45.93                             151    0.7410 73.8 295 
 BRR  HZ I        2135 49.88        91.9 0.20            149           73.8 295 
 RUS  HZ EP       2135 31.29                             143   -0.1710  103 179 
 RUS  HN ES       2135 49.43                             143   -0.5110  103 179 
 RUS  HZ I        2135 50.51        47.5 0.22            141            103 179 
 PTB  HZ EP       2135 33.88                             131   -1.10 9  153 258 
 PTB  HN ES       2135 54.92                             131   -1.28 9  153 258 
 PTB  HZ I        2136  1.96        42.3 0.34            128            153 258 
 SPBC HZ EP       2135 36.60                             128    0.05 9  168 220 
 SPBC HE ES       2135 58.60                             128   -0.40 9  168 220 
 SPBC HZ I        2136  1.33        83.5 0.22            126            168 220 
 YPLC HZ EP       2135 37.89                             126    0.46 9  177 153 
 YPLC HN ES       2136  1.47                             126    0.92 9  177 153 
 YPLC HZ I        2136  3.82        57.0 0.38            127            177 153 
 ZAR  HZ EP       2135 40.74                             121    0.37 8  207 291 
 ZAR  HN ES       2136  6.22                             121    0.43 8  207 291 
 ZAR  HZ I        2136 11.12        91.2 0.44            121            207 291 
 NOR  HZ EP       2135 43.43                             117   -0.49 8  240 235 
 NOR  HE ES       2136 12.12                             117    0.01 8  240 235 
 NOR  HZ I        2136 16.79        24.8 0.56            116            240 235 
 CHI  HZ EP       2135 45.84                             116    0.09 8  253 196 
 CHI  HN ES       2136 15.01                             116   -0.37 8  253 196 
 CHI  HZ I        2136 21.19        17.0 0.32            116            253 196 
 ROSC BZ EP   4   2135 47.88                             116    1.61 0  257 212 
 ROSC BN ES   4   2136 19.20                             116    2.91 0  257 212 
 ROSC BZ I        2136 23.34        53.1 0.50            115            257 212 
 HEL  HZ EP       2135 49.70                             114    1.30 7  277 255 
 HEL  HN ES       2136 19.96                             114   -0.14 7  277 255 
 HEL  HZ I        2136 26.04        24.2 0.26            113            277 255 
 VIL  EN ES   4   2136 24.33                             111   -1.26 0  307 192 
 VIL  EZ I        2136 33.41        22.7 0.44            111            307 192 
 PTGC HZ EP       2135 50.61                             111   -1.03 7  310 160 
 PTGC HN ES   4   2136 23.68                             111   -2.17 0  310 160 
 PTGC HZ I        2136 26.12        34.5 0.40            112            310 160 
 ELA  HZ EP   4   2136  0.48                             109    5.37 0  334 230 
 ELA  HE ES   4   2136 35.33                             109    3.30 0  334 230 
 ELA  HZ I        2136 38.56        21.6 0.60            109            334 230 
 CBOC HZ EP       2135 56.19                             109    1.03 7  339 252 
 CBOC HN ES   4   2136 31.33                             109   -0.79 0  339 252 
 CBOC HZ I        2136 39.43         5.1 0.48            109            339 252 
 DBB  EZ EP       2135 55.32                             109   -0.31 7  344 274 
 DBB  EN ES   4   2136 31.68                             109   -1.27 0  344 274 
 DBB  EZ I        2136 33.63         9.9 0.34            109            344 274 
 ORTC HZ EP       2136  2.46                             106    0.28 6  400 216 
 ORTC HN ES       2136 45.23                             106    0.62 6  400 216 
 ORTC HZ I        2136 50.43        14.2 0.48            106            400 216 
 PAL  HZ EP       2136  4.37                             105    0.91 6  411 239 
 PAL  HN ES   4   2136 46.14                             105   -0.75 0  411 239 
 PAL  HZ I        2136 56.61         5.5 0.18            105            411 239 
 CRJC HZ EP       2136  8.06                             103   -1.78 5  465   3 
 CRJC HN ES   4   2136 55.17                             103   -3.07 0  465   3 
 CRJC HZ I        2137  3.10        11.6 0.48            104            465   3 
                                                                                
