 2012  7 5 2026 43.0 L   6.814 -73.166144.2  RSN 19 0.5 3.1LRSN                1
 GAP= 55        0.93       3.4     3.5  5.6  0.1507E+00  0.4306E+01  0.3323E+01E
 Epicentro: LOS SANTOS - SANTANDER                                             3
 SPEC SD       MO  0.4 ST 18.0 OM  0.7 f00.603 R0.1108 AL      WI      MW  0.3 3
 SPEC PRA HH N MO 15.4 ST 62.9 OM  3.4 f0 2.65 R0.5547 AL 2.30 WI 32.1 MW  4.2 3
 SPEC PRA HH N T202820 K 0.000 GD  417 VS 4.20 DE 3.00 Q0230.0 QA 0.60 VS 4.20 3
 SPEC ROSCBH N MO 15.5 ST 45.5 OM  3.7 f0 2.13 R0.6901 AL 2.52 WI 34.4 MW  4.3 3
 SPEC ROSCBH N T202751 K 0.000 GD  291 VS 4.20 DE 3.00 Q0230.0 QA 0.60 VS 4.20 3
 SPEC OCA HH N MO 14.8 ST 30.9 OM  3.1 f0 3.29 R0.4468 AL 2.01 WI 36.5 MW  3.8 3
 SPEC OCA HH N T202731 K 0.000 GD  213 VS 4.20 DE 3.00 Q0230.0 QA 0.60 VS 4.20 3
 SPEC RUS HH N MO 14.5 ST 20.8 OM  2.9 f0 3.58 R0.4106 AL 1.70 WI 30.7 MW  3.6 3
 SPEC RUS HH N T202724 K 0.000 GD  176 VS 4.20 DE 3.00 Q0230.0 QA 0.60 VS 4.20 3
 SPEC BRR HH E MO 15.0 ST 67.6 OM  3.4 f0 3.74 R0.3930 AL 2.89 WI 51.1 MW  3.9 3
 SPEC BRR HH E T202721 K 0.000 GD  159 VS 4.20 DE 3.00 Q0230.0 QA 0.60 VS 4.20 3
 ACTION:UP  12-08-14 11:42 OP:ep   STATUS:               ID:20120705202643 L   I
 2012-07-05-2020-00M.COL___201                                                 6
 STAT SP IPHASW D HRMM SECON CODA AMPLIT PERI AZIMU VELO AIN AR TRES W  DIS CAZ7
 BAR2 SZ IP       2027  2.61                             170     0.110   25 184 
 BAR2 SZ I        2027  2.95       190.9 0.34            167             25 184 
 BAR2 SZ ES   1   2027 17.34                             170    -0.3 7   25 184 
 BRR  HZ IP     D 2027  4.49                             153     0.610   69 298 
 BRR  HZ I        2027  4.79       348.1 0.28            145             69 298 
 BRR  HN ES   2   2027 20.84                             153     0.7 5   69 298 
 PAM  SZ IP       2027  5.48                             150     0.410   78  42 
 PAM  SN ES   1   2027 22.57                             150     0.3 7   78  42 
 PAM  SZ I        2027 24.64        88.9 0.32            140             78  42 
 RUS  HZ IP     D 2027  6.45                             143    -0.310  102 175 
 RUS  HN ES   1   2027 25.26                             143     0.0 7  102 175 
 PTB  HZ EP       2027  9.05                             132    -0.6 9  146 258 
 PTB  HN ES   1   2027 29.56                             132    -0.9 7  146 258 
 PTB  HZ I        2027 36.18       106.1 0.24            122            146 258 
 TAM  HZ EP       2027 10.73                             130    -0.1 9  158 105 
 TAM  HZ I        2027 31.50        76.5 0.34            118            158 105 
 TAM  HN ES   3   2027 32.20                             130    -0.3 2  158 105 
 OCA  HZ EP   2   2027 10.73                             129    -0.3 5  158 354 
 OCA  HN ES   2   2027 32.46                             129    -0.4 5  158 354 
 OCA  HZ I        2027 38.43       224.6 0.16            118            158 354 
 YOP  SZ EP       2027 13.09                             126    -0.1 9  181 153 
 YOP  SN ES   1   2027 36.96                             126     0.2 7  181 153 
 ZAR  HZ EP       2027 15.15                             122     0.1 9  201 292 
 ZAR  HN ES   2   2027 40.87                             122     0.8 4  201 292 
 ZAR  HZ I        2027 47.58       153.0 0.46            112            201 292 
 NOR  SZ EP       2027 18.34                             118    -0.2 8  234 234 
 NOR  SN ES   1   2027 45.87                             118    -0.4 6  234 234 
 CHI  HZ EP       2027 20.68                             117    -0.1 8  250 195 
 CHI  HN ES   1   2027 49.74                             117    -0.4 6  250 195 
 ROSC BN ES   2   2027 51.36                             116     0.6 4  253 210 
 ROSC BZ I        2027 58.55        97.2 0.50            107            253 210 
 GUY  SZ EP   3   2027 26.89                             112     0.2 2  303 235 
 GUY  SN ES   2   2028  2.17                             112     1.4 4  303 235 
 GUY  SZ I        2028 10.06       118.5 0.38            103            303 235 
 VIL  SZ EP   2   2027 26.99                             112     0.5 4  304 191 
 VIL  SE ES   3   2027 59.88                             112    -0.5 2  304 191 
 DBB  SZ EP       2027 30.47                             109     0.3 7  337 274 
 TOL  SZ EP       2027 31.58                             109     0.4 7  343 224 
 SDV  BZ EP   2   2027 31.61                             108    -1.5 3  361  51 
 PRA  HZ EP       2027 36.72                             106     0.2 6  392 209 
 PRA  HZ I        2028 24.26        92.8 0.24             98            392 209 
 SJC  HZ EP   3   2027 36.91                             105    -1.3 1  407 327 
