 2016 10 5 2110 20.2 L   6.597 -73.235141.9  RSN  6 0.2 1.5LRSN                1
 GAP= 97        0.62       3.1     2.8  4.8 -0.3324E+00  0.4501E+01 -0.3481E+00E
 Epicentro: CABRERA - SANTANDER                                                3
 ACTION:UPD 16-11-09 19:16 OP:rebc STATUS:               ID:20161005211020 L   I
 OLDACT:REG 16-10-06 03:23 OP:cara STATUS:               ID:20161005210746     3
 2016-10-05-2108-00M.COL___350                                                 6
 STAT SP IPHASW D HRMM SECON CODA AMPLIT PERI AZIMU VELO AIN AR TRES W  DIS CAZ7
 BAR2 EZ ES       2110 54.11                             178    0.2510 5.87  95 
 BAR2 EZ I        2110 56.65        12.7 0.38            175           5.87  95 
 RUS  HZ EP       2110 42.04                             149   -0.0610 79.7 168 
 RUS  HN ES       2110 58.89                             149   -0.3410 79.7 168 
 RUS  HZ I        2111  3.54         2.5 0.36            151           79.7 168 
 PAM  EZ IP       2110 43.42                             143   -0.1510  101  36 
 PAM  EZ ES       2111  1.93                             143    0.0910  101  36 
 PAM  EZ I        2111  2.86         4.6 0.22            150            101  36 
 PTB  HZ EP       2110 45.61                             134   -0.07 9  135 267 
 PTB  HN ES       2111  5.60                             134    0.01 9  135 267 
 PTB  HZ I        2111  9.27         3.2 0.18            134            135 267 
 SPBC HZ EP       2110 46.63                             133    0.46 9  140 222 
 SPBC HN ES   4   2111  8.52                             133    2.05 0  140 222 
 SPBC HZ I        2111 15.02         5.8 0.22            133            140 222 
 ZAR  HN ES       2111 17.40                             121   -0.20 9  205 299 
 ZAR  HZ I        2111 25.14         3.0 0.28            124            205 299 
                                                                                
