 2011  9 6 0112 10.8 L   6.679 -73.184154.1  RSN  4 0.2 1.6LRSN                1
 GAP=224        0.40       4.7     5.7  7.6  0.1044E+02  0.6514E+01 -0.3926E+01E
 Epicentro: VILLANUEVA - SANTANDER                                             3
 ACTION:UPD 12-07-13 15:55 OP:ep   STATUS:               ID:20110906011210 L   I
 2011-09-06-0100-00M.COL___160                                                 6
 STAT SP IPHASW D HRMM SECON CODA AMPLIT PERI AZIMU VELO AIN AR TRES W  DIS CAZ7
 BRR  HZ EP   1    112 32.87                             153   -0.19 7 75.1 309 
 BRR  HZ I         112 36.75        13.4 0.34                          75.1 309 
 BRR  HE ES   2    112 50.58                             153    0.16 5 75.1 309 
 RUS  HZ EP   2    112 34.97                             149    0.46 5 87.7 173 
 RUS  HN ES   2    112 52.81                             149   -0.21 5 87.7 173 
 RUS  HZ I         112 54.87         2.1 0.26                          87.7 173 
 ZAR  HZ EP   2    112 43.84                             124   -0.11 4  206 296 
 ZAR  HN ES   2    113  9.97                             124    0.16 4  206 296 
 ZAR  HZ I         113 15.45         4.0 0.50                           206 296 
 NOR  SN ES   2    113 13.15                             122   -0.05 4  224 237 
                                                                                
