 2011  5 6 0642 51.5 L   7.043 -73.344115.4  RSN 10 0.4 1.9LRSN                1
 GAP=110        0.88       3.4     5.8  6.8 -0.6135E+01  0.9630E+01 -0.3856E+00E
 Epicentro: BETULIA - SANTANDER                                                3
 ACTION:UP  11-06-29 08:51 OP:tino STATUS:               ID:20110506064251 L   I
 2011-05-06-0640-00M.COL___139                                                 6
 STAT SP IPHASW D HRMM SECON CODA AMPLIT PERI AZIMU VELO SNR AR TRES W  DIS CAZ7
 BTL  SZ EP        643  7.39                             172     0.110   16 149 
 BRR  HZ IP     D  643  7.47                             159    -0.310   41 280 
 BRR  HE ES   1    643 20.48                             159     0.1 7   41 280 
 BRR  HZ I         643 21.18        57.2 0.14                            41 280 
 BAR2 SZ EP   1    643  8.75                             154     0.1 7   53 160 
 BAR2 SZ ES   1    643 22.04                             154     0.0 7   53 160 
 BAR2 SZ I         643 24.44        21.7 0.28                            53 160 
 BRI  SZ EP   2    643 11.80                             137     0.3 5   96  39 
 GRA  SZ EP   1    643 13.08                             133     0.3 7  111  33 
 GRA  SZ ES   1    643 29.93                             133     0.5 7  111  33 
 GRA  SZ I         643 31.13        17.2 0.42                           111  33 
 RUS  HZ EP   1    643 14.54                             128    -0.5 7  130 167 
 RUS  HN ES   1    643 33.47                             128     0.0 7  130 167 
 RUS  HZ I         643 41.75         5.3 0.41                           130 167 
 OCA  SZ EP        643 14.71                             127    -0.110  132   1 
 OCA  SZ ES   1    643 32.40                             127    -0.6 7  132   1 
 OCA  SZ I         643 34.65        17.4 0.20                           132   1 
 NOR  SZ EP   1    643 25.01                             111    -0.7 6  235 226 
 NOR  SE ES   1    643 52.79                             111     0.4 6  235 226 
 HEL  HZ EP   1    643 29.82                             109     1.0 6  259 249 
 HEL  HZ I         644  3.31         5.3 0.29                           259 249 
 PRA  HZ EP   1    643 45.88                             100     0.1 4  406 205 
                                                                                
