 2011  6 6 0440 33.3 L   6.728 -73.122145.3  RSN  5 0.5 1.4LRSN                1
 GAP=215        0.92       8.8    12.9 12.0  0.6101E+02 -0.8000E+01  0.1147E+02E
 Epicentro: JORDAN - SANTANDER                                                 3
 ACTION:UP  11-07-14 19:03 OP:ep   STATUS:               ID:20110606044033 L   I
 2011-06-06-0435-00S.COL___132                                                 6
 STAT SP IPHASW D HRMM SECON CODA AMPLIT PERI AZIMU VELO SNR AR TRES W  DIS CAZ7
 BAR2 SZ ES   2    441  8.15                             173     0.2 5   16 204 
 BAR2 SZ I         441  8.82         7.2 0.21                            16 204 
 BTL  SZ EP   2    440 54.19                             169     1.2 5   27 323 
 BRR  HZ EP   1    440 54.24                             150    -0.6 7   78 303 
 BRR  HE ES        441 11.52                             150     0.010   78 303 
 BRR  HZ I         441 15.16         4.5 0.24                            78 303 
 RUS  HZ EP   1    440 56.46                             146     0.0 7   92 177 
 RUS  HE ES   1    441 14.34                             146    -0.2 7   92 177 
 RUS  HZ I         441 16.78         3.6 0.37                            92 177 
 NOR  SN ES   2    441 36.80                             119     0.4 4  232 236 
                                                                                
