 2011 11 6 0918  2.4 L   6.781 -73.124142.4  RSN  8 0.3 2.2LRSN                1
 GAP=140        0.52       2.6     3.1  3.7 -0.2104E+00  0.1608E+01 -0.3126E+00E
 Epicentro: LOS SANTOS - SANTANDER                                             3
 ACTION:UPD 12-07-13 16:08 OP:ep   STATUS:               ID:20111106091802 L   I
 2011-11-06-0916-29S.COL___175                                                 6
 STAT SP IPHASW D HRMM SECON CODA AMPLIT PERI AZIMU VELO AIN AR TRES W  DIS CAZ7
 BAR2 SZ IP        918 21.57                             171    0.0210 21.8 197 
 BAR2 SZ I         918 22.12        35.5 0.14                          21.8 197 
 BAR2 SZ ES        918 36.48                             171   -0.0410 21.8 197 
 BRR  HZ IP     C  918 23.40                             151    0.0810 74.3 299 
 BRR  HZ I         918 23.67        45.6 0.22                          74.3 299 
 BRR  HN ES        918 40.09                             151    0.4110 74.3 299 
 PAM  SZ EP        918 24.42                             150    0.2010 77.6  37 
 PAM  SN ES   1    918 40.84                             150   -0.44 7 77.6  37 
 RUS  HZ IP     C  918 25.58                             144   -0.0310 98.3 177 
 RUS  HZ I         918 26.50        13.2 0.17                          98.3 177 
 RUS  HN ES   1    918 43.67                             144   -0.07 7 98.3 177 
 OCA  SZ EP   1    918 30.63                             128   -0.01 7  163 352 
 OCA  SZ ES   2    918 52.03                             128   -0.66 5  163 352 
 OCA  SZ I         918 56.67        19.2 0.52                           163 352 
 ZAR  HZ EP   2    918 34.85                             121   -0.05 4  207 292 
 ZAR  HE ES   2    919  0.03                             121   -0.25 4  207 292 
 ZAR  HZ I         919  5.33        23.3 0.46                           207 292 
 NOR  SZ EP   2    918 38.06                             118    0.09 4  235 235 
 NOR  SN ES   2    919  5.17                             118   -0.58 4  235 235 
 HEL  HZ EP   2    918 42.19                             114   -0.41 4  274 256 
 HEL  HN ES   2    919 13.78                             114   -0.21 4  274 256 
 HEL  HZ I         919 19.99         9.3 0.39                           274 256 
                                                                                
