 2017  9 6 0318 28.3 L   6.835 -73.150148.1  RSN 32 0.6 2.9LRSN                1
 GAP= 65        1.18       3.0     3.1  4.9  0.1150E+00  0.4962E+01  0.2133E+01E
 Epicentro: LOS SANTOS - SANTANDER                                             3
 ACTION:UPD 17-10-05 19:09 OP:rebc STATUS:               ID:20170906031828 L   I
 OLDACT:UP  17-09-06 15:52 OP:dnl  STATUS:               ID:20170906030741     3
 OLDACT:UP  17-09-06 15:51 OP:dnl  STATUS:               ID:20170906030741     3
 OLDACT:REG 17-09-06 12:48 OP:dnl  STATUS:               ID:20170906030741     3
 2017-09-06-0308-00M.COL___428                                                 6
 STAT SP IPHASW D HRMM SECON CODA AMPLIT PERI AZIMU VELO AIN AR TRES W  DIS CAZ7
 BAR2 EZ EP        318 48.15                             169   -0.1610 27.0 188 
 BAR2 EZ ES        319  3.33                             169   -0.5710 27.0 188 
 BAR2 EZ I         319  5.99       265.8 0.40            169           27.0 188 
 BRR  HZ IP     C  318 50.01                             153    0.4110 69.0 296 
 BRR  HN ES        319  7.01                             153    0.8110 69.0 296 
 BRR  HZ I         319 10.98       123.5 0.26            150           69.0 296 
 PAM  EZ IP     C  318 50.97                             152    0.3310 74.8  42 
 PAM  EN ES        319  8.28                             152    0.2410 74.8  42 
 PAM  EZ I         319 10.92       146.6 0.62            150           74.8  42 
 RUS  HZ IP     D  318 52.10                             143   -0.4810  104 176 
 RUS  HN ES        319 10.83                             143   -0.6710  104 176 
 RUS  HZ I         319 12.04       117.1 0.34            141            104 176 
 TAM  HZ IP     C  318 56.56                             131    0.24 9  157 106 
 TAM  HZ I         319 17.55        38.1 0.28            129            157 106 
 TAM  HN ES        319 18.13                             131   -0.03 9  157 106 
 SPBC HZ EP        318 57.04                             129   -0.22 9  166 218 
 SPBC HN ES        319 18.84                             129   -0.98 9  166 218 
 SPBC HZ I         319 25.10       153.8 0.44            126            166 218 
 YPLC HZ EP        318 58.58                             127   -0.06 9  180 152 
 YPLC HN ES        319 22.64                             127    0.36 9  180 152 
 YPLC HZ I         319 23.53       167.3 0.26            124            180 152 
 ZAR  HZ EP        319  0.59                             123   -0.14 9  202 291 
 ZAR  HN ES        319 26.40                             123    0.39 9  202 291 
 ZAR  HZ I         319 31.99        71.7 0.22            120            202 291 
 TABC EZ EP        319  5.62                             119    1.08 8  233 210 
 TABC EZ ES        319 33.92                             119    1.14 8  233 210 
 TABC EZ I         319 39.65       116.0 0.36            117            233 210 
 NOR  HZ EP        319  4.21                             119   -0.18 8  237 234 
 NOR  HN ES        319 32.41                             119   -0.11 8  237 234 
 NOR  HZ I         319 37.68        62.7 0.20            116            237 234 
 CHI  HZ EP        319  6.19                             117   -0.35 8  252 195 
 CHI  HN ES        319 36.16                             117   -0.19 8  252 195 
 CHI  HZ I         319 41.67        39.4 0.38            115            252 195 
 ROSC BZ EP        319  7.78                             117    0.88 8  256 210 
 ROSC BE ES   4    319 38.98                             117    1.99 0  256 210 
 ROSC BZ I         319 42.84       105.7 0.40            114            256 210 
 HEL  HZ EP        319  9.31                             115    0.60 8  273 255 
 HEL  HN ES        319 39.75                             115   -0.46 8  273 255 
 HEL  HZ I         319 48.42        52.4 0.40            112            273 255 
 URE  HZ EP        319  8.62                             114   -0.68 7  282 291 
 URE  HN ES   4    319 38.52                             114   -2.74 0  282 291 
 URE  HZ I         319 46.51        35.5 0.16            111            282 291 
 GUY2CHZ EP        319 12.76                             113    0.51 7  303 234 
 GUY2CHE ES   4    319 48.28                             113    1.77 0  303 234 
 GUY2CHZ I         319 58.38        57.6 0.44                           303 234 
 VIL  EZ EP        319 11.65                             112   -0.61 7  307 191 
 VIL  EN ES        319 46.01                             112   -0.52 7  307 191 
 VIL  EZ I         319 51.69        47.5 0.32            110            307 191 
 PTGC HZ IP   4 D  319 11.33                             112   -1.38 0  312 159 
 PTGC HN ES   4    319 44.63                             112   -2.70 0  312 159 
 PTGC HZ I         319 49.61        59.4 0.28            110            312 159 
 LL6C HZ EP        319 13.41                             111   -0.28 7  321 358 
 LL6C HZ ES   4    319 45.76                             111   -3.31 0  321 358 
 LL6C HZ I         320  1.99        18.7 0.56            109            321 358 
 ELA  HZ EP   4    319 17.54                             110    2.02 0  331 229 
 ELA  HN ES   4    319 53.76                             110    1.43 0  331 229 
 ELA  HZ I         320  7.43        43.3 0.40            108            331 229 
 CBOC HZ EP        319 15.76                             110    0.34 7  334 251 
 CBOC HN ES        319 52.25                             110    0.09 7  334 251 
 CBOC HZ I         320  5.74        14.6 0.26            108            334 251 
 DBB  EZ EP        319 15.59                             110   -0.22 7  339 274 
 DBB  EN ES   4    319 51.24                             110   -1.61 0  339 274 
 DBB  EZ I         319 55.46        15.6 0.44            107            339 274 
 ARGC HZ EP   9    319 18.89                             109    1.26 0  355 340 
 ARGC HN ES        319 56.78                             109   -0.57 6  355 340 
 ARGC HZ I         320  4.26        11.4 0.26            106            355 340 
 ANIL HZ EP        319 19.05                             109    0.55 6  360 224 
 ANIL HE ES   4    320  0.04                             109    2.41 0  360 224 
 PRA  HZ EP        319 21.82                             107   -0.47 6  395 209 
 PRA  HN ES        320  4.06                             107   -0.32 6  395 209 
 PRA  HZ I         320 10.39        53.7 0.48            105            395 209 
 APAC HZ EP   2    319 21.12                             107   -1.28 3  397 287 
 APAC HN ES   4    320  1.64                             107   -2.94 0  397 287 
 APAC HZ I         320  8.87        10.5 0.46            104            397 287 
 ORTC HZ EP        319 22.74                             107    0.09 6  398 216 
 ORTC HE ES        320  5.80                             107    0.77 6  398 216 
 ORTC HZ I         320 12.03        31.8 0.34            104            398 216 
 SJC  HZ EP        319 22.17                             106   -1.39 6  406 327 
 SJC  HE ES   4    320  3.15                             106   -3.49 0  406 327 
 SJC  HZ I         320  7.68        11.5 0.34            104            406 327 
 PAL  HZ EP   2    319 23.83                             106    0.08 3  407 239 
 PAL  HN ES   4    320  6.02                             106   -0.95 0  407 239 
 PAL  HZ I         320  9.72        15.9 0.22            104            407 239 
 YOT  HZ EP   4    319 30.56                             103   -1.13 0  474 228 
 YOT  HN ES   4    320 17.65                             103   -3.46 0  474 228 
 GUA  EZ EP   4    319 30.58                             103   -1.42 0  478 173 
 GUA  EE ES   4    320 20.54                             103   -1.13 0  478 173 
 GUA  EZ I         320 25.88        22.0 0.24            101            478 173 
 MACC HZ EP   4    319 35.08                             102   -2.46 0  524 189 
 MACC HN ES   4    320 26.68                             102   -4.84 0  524 189 
 MACC HZ I         320 31.18         7.2 0.60            100            524 189 
 MARO HZ EP        319 39.19                             101   -0.55 4  540 215 
 MARO HZ I         320 42.85         5.2 0.14            100            540 215 
 URI  HZ EP   4    319 38.71                             101   -2.24 0  553  13 
 URI  HN ES   4    320 31.54                             101   -6.05 0  553  13 
 URI  HZ I         320 41.18         3.7 0.46             99            553  13 
                                                                                
