 2014 11 6 0959  7.4 L   6.846 -73.181152.7  RSN 18 0.5 2.4LRSN                1
 GAP= 55        1.08       2.8     2.8  4.8 -0.5576E+00  0.2681E+01 -0.2223E+00E
 Epicentro: ZAPATOCA - SANTANDER                                               3
 ACTION:UPD 14-12-19 15:39 OP:nd   STATUS:               ID:20141106095907 L   I
 OLDACT:UP  14-11-07 00:14 OP:cam  STATUS:               ID:20141106095745     3
 OLDACT:UP  14-11-07 00:13 OP:cam  STATUS:               ID:20141106095745     3
 OLDACT:REG 14-11-07 00:05 OP:cam  STATUS:               ID:20141106095745     3
 2014-11-06-0957-45M.COL___283                                                 6
 STAT SP IPHASW D HRMM SECON CODA AMPLIT PERI AZIMU VELO AIN AR TRES W  DIS CAZ7
 BAR2 SZ EP     D  959 28.05                             169    0.0510 28.1 180 
 BAR2 SZ ES        959 43.65                             169   -0.3910 28.1 180 
 BAR2 SZ I         959 44.43        49.2 0.18            167           28.1 180 
 BRR  HZ IP     C  959 29.82                             155    0.7810 65.4 296 
 BRR  HN ES        959 46.62                             155    0.7410 65.4 296 
 BRR  HZ I         959 47.93        31.2 0.14            153           65.4 296 
 PAM  SZ IP     C  959 30.96                             152    0.6410 76.1  44 
 PAM  SN ES        959 47.77                             152   -0.4010 76.1  44 
 PAM  SZ I         959 50.42        32.0 0.54            153           76.1  44 
 RUS  HZ EP     C  959 32.07                             144   -0.2010  106 174 
 RUS  HE ES        959 51.41                             144   -0.2210  106 174 
 RUS  HZ I         959 52.45        21.7 0.28            142            106 174 
 PTB  HZ EP        959 34.53                             134   -0.22 9  145 257 
 PTB  HN ES        959 55.64                             134   -0.40 9  145 257 
 PTB  HZ I         959 57.52        31.6 0.30            132            145 257 
 OCA  HZ EP        959 35.84                             132    0.05 9  155 354 
 OCA  HN ES        959 57.78                             132   -0.13 9  155 354 
 OCA  HZ I        10 0  2.58        36.8 0.30            131            155 354 
 TAM  HZ EP        959 36.49                             131    0.35 9  160 106 
 TAM  HE ES        959 58.32                             131   -0.20 9  160 106 
 TAM  HE I         959 59.52        68.1 0.62            131            160 106 
 SPBC HZ EP     D  959 37.00                             130    0.36 9  165 217 
 SPBC HN ES        959 59.62                             130    0.21 9  165 217 
 SPBC HZ I        10 0  6.06        35.5 0.30            128            165 217 
 NOR  HZ EP        959 43.76                             120    0.18 8  235 233 
 NOR  HN ES       10 0 12.47                             120    0.71 8  235 233 
 NOR  HZ I        10 0 18.04        22.8 0.52            118            235 233 
 CHI  HZ EP        959 46.46                             118    0.50 8  253 194 
 CHI  HN ES       10 0 15.46                             118   -0.55 8  253 194 
 CHI  HZ I        10 0 23.57         9.7 0.40            117            253 194 
 ROSC BZ EP   4    959 47.96                             118    1.74 0  255 210 
 HEL  HZ EP   4    959 48.72                             116    0.97 0  270 255 
 HEL  HE ES       10 0 18.62                             116   -0.57 8  270 255 
 HEL  HZ I        10 0 25.98        12.5 0.44            115            270 255 
 URE  HZ EP        959 48.07                             115   -0.18 7  278 291 
 URE  HE ES       10 0 19.21                             115   -0.87 7  278 291 
 URE  HZ I        10 0 28.77        13.6 0.22            114            278 291 
 GUY2CHZ EP   4    959 52.70                             114    1.33 0  301 234 
 GUY2CHE ES       10 0 25.75                             114    0.13 7  301 234 
 GUY2CHZ I        10 0 34.45        14.3 0.58                           301 234 
 PTGC HZ EP        959 51.40                             112   -0.91 7  315 158 
 PTGC HZ I        10 0  8.53        18.0 0.42            111            315 158 
 PTGC HE ES   4   10 0 24.54                             112   -2.77 0  315 158 
 DBB  SZ EP        959 55.29                             111    0.56 7  335 273 
 DBB  SZ ES   4   10 0 26.02                             111   -5.59 0  335 273 
 DBB  SZ I        10 0 37.66        28.7 0.36            110            335 273 
 MON  HZ EP        959 55.34                             110   -0.67 6  347 308 
 MON  HE ES       10 0 33.94                             110    0.05 6  347 308 
 MON  HZ I        10 0 40.15         4.9 0.16            109            347 308 
 SDV  BZ EP        959 57.36                             109   -0.36 6  360  51 
 PRA  HZ EP   4   10 0  2.67                             107    1.16 0  395 209 
 ORTC HZ EP   4   10 0  3.34                             107    1.51 0  397 215 
 SJC  HZ EP       10 0  2.18                             107   -0.31 6  403 327 
                                                                                
