 2017  2 6 0134 40.1 L   6.728 -73.186152.8  RSN  4 0.1 0.9LRSN                1
 GAP=227        0.46       3.8     3.8  3.8  0.7759E+01  0.2704E+01  0.1237E+01E
 Epicentro: VILLANUEVA - SANTANDER                                             3
 ACTION:UPD 17-05-24 15:33 OP:jn   STATUS:               ID:20170206013440 L   I
 OLDACT:DUP 17-02-06 15:39 OP:edw  STATUS:               ID:20170206012750d    3
 OLDACT:UP  17-02-06 15:38 OP:edw  STATUS:               ID:20170206012749     3
 OLDACT:REG 17-02-06 11:39 OP:edw  STATUS:               ID:20170206012749     3
 2017-02-06-0128-00M.COL___322                                                 6
 STAT SP IPHASW D HRMM SECON CODA AMPLIT PERI AZIMU VELO AIN AR TRES W  DIS CAZ7
 BAR2 EZ ES        135 16.11                             174   -0.1510 15.0 179 
 BRR  HZ EP        135  2.12                             154    0.1310 71.7 306 
 BRR  HN ES        135 19.15                             154    0.0510 71.7 306 
 RUS  HZ EP        135  3.77                             147   -0.2210 93.1 173 
 RUS  HN ES        135 22.88                             147    0.2210 93.1 173 
 RUS  HZ I         135 23.72         1.0 0.38            146           93.1 173 
 PTB  HZ EP        135  7.17                             135    0.07 9  142 262 
 PTB  HN ES        135 28.10                             135   -0.10 9  142 262 
 PTB  HZ I         135 29.73         1.4 0.44            134            142 262 
                                                                                
