 2017  6 6 0923 35.8 L   6.671 -73.221155.4  RSN  4 0.1 1.2LRSN                1
 GAP=218        0.36       3.1     3.1  3.5  0.6647E+01 -0.1277E+01 -0.2722E+01E
 Epicentro: BARICHARA - SANTANDER                                              3
 ACTION:UPD 17-09-14 16:50 OP:jn   STATUS:               ID:20170606092335 L   I
 OLDACT:DUP 17-06-06 17:05 OP:edw  STATUS:               ID:20170606091741d    3
 2017-06-06-0918-00M.COL___344                                                 6
 STAT SP IPHASW D HRMM SECON CODA AMPLIT PERI AZIMU VELO AIN AR TRES W  DIS CAZ7
 BRR  HZ EP        923 57.99                             154   -0.0910 72.6 312 
 BRR  HN ES        924 15.54                             154    0.0910 72.6 312 
 RUS  HZ EP        923 59.80                             149    0.1510 87.4 170 
 RUS  HN ES        924 18.12                             149   -0.1310 87.4 170 
 RUS  HZ I         924 19.72         2.3 0.34            149           87.4 170 
 PTB  HN ES        924 23.70                             136    0.06 9  137 264 
 ZAR  HZ EP        924  8.70                             125   -0.02 9  202 297 
 ZAR  HN ES        924 34.32                             125   -0.08 9  202 297 
 ZAR  HZ I         924 35.82         1.5 0.10            125            202 297 
                                                                                
