 2016  3 6 0800 24.6 L   6.838 -73.155142.0  RSN 11 0.5 1.9LRSN                1
 GAP= 69        1.05       3.4     3.3  6.1 -0.7032E+00  0.6505E+01  0.1792E+00E
 Epicentro: LOS SANTOS - SANTANDER                                             3
 ACTION:UPD 16-05-13 21:21 OP:cam  STATUS:               ID:20160306080024 L   I
 OLDACT:UP  16-03-06 15:57 OP:ar   STATUS:               ID:20160306075748     3
 OLDACT:UP  16-03-06 15:57 OP:ar   STATUS:               ID:20160306075748     3
 OLDACT:REG 16-03-06 13:14 OP:ar   STATUS:               ID:20160306075748     3
 2016-03-06-0757-48M.COL___324                                                 6
 STAT SP IPHASW D HRMM SECON CODA AMPLIT PERI AZIMU VELO AIN AR TRES W  DIS CAZ7
 BAR2 EZ EP        8 0 43.80                             169   -0.1110 27.4 186 
 BAR2 EZ ES        8 0 58.65                             169   -0.2810 27.4 186 
 BAR2 EZ I         8 1  0.40        13.4 0.28            168           27.4 186 
 PAM  EZ EP        8 0 46.74                             151    0.4410 74.8  42 
 PAM  EN ES        8 1  3.71                             151    0.5210 74.8  42 
 PAM  EZ I         8 1  5.72        21.5 0.56            145           74.8  42 
 RUS  HZ EP        8 0 48.45                             142    0.1110  105 176 
 RUS  HN ES        8 1  6.82                             142   -0.0010  105 176 
 RUS  HZ I         8 1  8.44         5.1 0.30            138            105 176 
 PTB  HZ EP        8 0 50.84                             131   -0.45 9  148 257 
 PTB  HN ES        8 1 11.68                             131   -0.40 9  148 257 
 PTB  HZ I         8 1 14.30        11.9 0.12            128            148 257 
 OCA  HZ EP        8 0 51.94                             129   -0.31 9  156 353 
 OCA  HN ES        8 1 13.57                             129   -0.21 9  156 353 
 OCA  HZ I         8 1 18.06        28.5 0.16            124            156 353 
 TAM  HZ EP        8 0 52.42                             129    0.20 9  157 106 
 TAM  HZ I         8 1 12.82         4.3 0.18            124            157 106 
 TAM  HN ES        8 1 13.38                             129   -0.35 9  157 106 
 ZAR  HZ EP        8 0 56.75                             122    0.17 9  202 291 
 ZAR  HN ES        8 1 22.28                             122    0.79 9  202 291 
 ZAR  HZ I         8 1 27.90        13.9 0.44            118            202 291 
 NOR  HZ EP        8 0 59.72                             117   -0.61 8  236 233 
 NOR  HN ES        8 1 28.11                             117   -0.06 8  236 233 
 NOR  HZ I         8 1 29.90         5.0 0.16            114            236 233 
 URE  HZ EP        8 1  4.75                             113   -0.50 7  281 291 
 URE  HN ES   4    8 1 35.04                             113   -1.88 0  281 291 
 URE  HZ I         8 1 46.30         5.1 0.16            109            281 291 
 GUY2CHZ EP   4    8 1 10.47                             111    2.21 0  303 234 
 GUY2CHN ES   4    8 1 45.36                             111    3.07 0  303 234 
 GUY2CHZ I         8 1 52.06         3.7 0.28                           303 234 
 ORTC HZ EP        8 1 19.20                             105    0.43 6  398 216 
 ORTC HN ES        8 2  2.50                             105    1.52 6  398 216 
 ORTC HZ I         8 2  6.70         2.7 0.44            102            398 216 
                                                                                
