 2011  1 6 0722  7.3 L   6.866 -73.119145.1  RSN  7 0.5 2.0LRSN                1
 GAP=231        1.00       7.8    10.3 10.2  0.1043E+02  0.5607E+02 -0.1929E+01E
 Epicentro: LOS SANTOS - SANTANDER                                             3
 ACTION:UP  11-02-08 08:39 OP:pat  STATUS:               ID:20110106072207 L   I
 2011-01-06-0720-00M.COL___121                                                 6
 STAT SP IPHASW D HRMM SECON CODA AMPLIT PERI AZIMU VELO SNR AR TRES W  DIS CAZ7
 BAR2 SZ IP        722 27.51                             168     0.510   31 193 
 BAR2 SZ ES   1    722 42.67                             168     0.3 7   31 193 
 BAR2 SZ I         722 43.85        40.3 0.24                            31 193 
 RUS  HZ EP   1    722 31.39                             142    -0.1 7  108 178 
 RUS  HN ES   1    722 49.60                             142    -0.8 7  108 178 
 RUS  HZ I         722 51.43        10.7 0.34                           108 178 
 CHI  HZ EP   1    722 45.56                             116    -0.2 6  256 195 
 CHI  HE ES   2    723 15.26                             116    -0.6 4  256 195 
 CHI  HZ I         723 20.54         6.4 0.21                           256 195 
 HEL  HZ EP   2    722 48.71                             114     0.7 4  277 254 
 HEL  HE ES   2    723 19.22                             114    -0.5 4  277 254 
 HEL  HZ I         723 27.31         4.5 0.56                           277 254 
 RREF HZ EP   1    722 54.73                             110     0.5 5  329 229 
 RREF HE ES   1    723 31.23                             110     0.4 5  329 229 
 RREF HZ I         723 37.13         5.7 0.38                           329 229 
 MON  HZ EP   1    722 54.92                             109    -1.0 5  351 307 
 MON  HE ES   2    723 33.54                             109    -0.4 3  351 307 
 MON  HZ I         723 47.89         2.8 0.78                           351 307 
 PRA  HZ EP   1    723  1.60                             106    -0.1 4  400 209 
                                                                                
