 2010  9 6 0727 10.6 L   6.815 -73.055148.6  RSN  8 0.2 1.7LRSN                1
 GAP=169        0.46       2.9     6.3  4.8 -0.1706E+00 -0.1417E+02 -0.2271E+01E
 Epicentro: LOS SANTOS - SANTANDER                                             3
 ACTION:UP  11-02-18 11:00 OP:tino STATUS:               ID:20100906072710 L   I
 2010-09-06-0723-54S.COL___119                                                 6
 STAT SP IPHASW D HRMM SECON CODA AMPLIT PERI AZIMU VELO SNR AR TRES W  DIS CAZ7
 BTL  SZ EP   1    727 30.83                             170     0.2 8   26 296 
 BTL  SZ ES   2    727 46.42                             170     0.2 5   26 296 
 BAR2 SZ EP   1    727 30.64                             169     0.0 8   28 210 
 BAR2 SZ ES   2    727 45.92                             169    -0.4 5   28 210 
 BAR2 SZ I         727 48.46        11.4 0.34                            28 210 
 GIR2 SZ EP   1    727 30.70                             167     0.0 8   33 332 
 GIR2 SZ ES   2    727 46.40                             167     0.1 5   33 332 
 BRR  HZ EP   1    727 32.44                             150    -0.1 8   80 294 
 BRR  HE ES   1    727 49.51                             150    -0.1 8   80 294 
 BRR  HZ I         727 52.57        13.8 0.35                            80 294 
 RUS  HZ EP   1    727 34.70                             144     0.0 8  102 182 
 RUS  HZ I         727 35.48         4.0 0.34                           102 182 
 RUS  HE ES   2    727 53.95                             144     0.4 5  102 182 
 GUE  SZ EP   1    727 35.54                             141     0.2 8  113   7 
 GRA  SZ IP     D  727 35.49                             139    -0.310  122  13 
 GRA  SZ ES   2    727 55.25                             139    -0.1 5  122  13 
 OCA  SZ EP   1    727 39.27                             130     0.1 7  160 350 
 OCA  SZ ES   2    728  1.88                             130     0.5 5  160 350 
 OCA  SZ I         728  5.58         6.9 0.21                           160 350 
                                                                                
