 2017  1 6 0855 58.1 L   6.773 -73.104145.3  RSN 11 0.4 1.7LRSN                1
 GAP=124        0.88       3.2     3.6  4.9  0.7185E+00  0.2762E+01  0.4779E+01E
 Epicentro: LOS SANTOS - SANTANDER                                             3
 ACTION:UPD 17-05-22 15:56 OP:jn   STATUS:               ID:20170106085558 L   I
 OLDACT:UP  17-01-06 18:46 OP:and  STATUS:               ID:20170106084745d    3
 OLDACT:UP  17-01-06 18:45 OP:and  STATUS:               ID:20170106084745d    3
 OLDACT:DUP 17-01-06 18:43 OP:and  STATUS:               ID:20170106084745d    3
 OLDACT:UP  17-01-06 18:43 OP:and  STATUS:               ID:20170106084744     3
 OLDACT:UP  17-01-06 18:41 OP:and  STATUS:               ID:20170106084744     3
 OLDACT:UP  17-01-06 18:40 OP:and  STATUS:               ID:20170106084744     3
 OLDACT:REG 17-01-06 12:51 OP:and  STATUS:               ID:20170106084744     3
 2017-01-06-0848-00M.COL___363                                                 6
 STAT SP IPHASW D HRMM SECON CODA AMPLIT PERI AZIMU VELO AIN AR TRES W  DIS CAZ7
 BAR2 EZ EP        856 17.72                             171    0.0610 21.7 204 
 BAR2 EZ ES        856 32.51                             171   -0.4010 21.7 204 
 BAR2 EZ I         856 35.57        12.6 0.32            170           21.7 204 
 BRR  HZ EP        856 19.55                             151    0.0110 76.7 299 
 BRR  HN ES        856 36.61                             151    0.3610 76.7 299 
 PAM  EZ EP        856 20.65                             151    0.3910 77.0  35 
 PAM  EN ES        856 37.49                             151   -0.0510 77.0  35 
 PAM  EZ I         856 40.84         5.2 0.30            153           77.0  35 
 RUS  HZ EP        856 21.80                             145    0.2110 97.3 179 
 RUS  HN ES        856 40.30                             145    0.3910 97.3 179 
 RUS  HZ I         856 41.86         3.7 0.28            145           97.3 179 
 PTB  HZ EP        856 24.79                             131   -0.62 9  152 260 
 PTB  HN ES        856 46.19                             131   -0.52 9  152 260 
 PTB  HZ I         856 48.11         4.9 0.16            132            152 260 
 ZAR  HZ EP        856 30.94                             122   -0.16 8  209 292 
 ZAR  HN ES   4    856 55.58                             122   -1.24 0  209 292 
 ZAR  HZ I         857  0.90         5.6 0.36            123            209 292 
 NOR  HZ EP   3    856 34.20                             118    0.16 2  237 236 
 NOR  HN ES        857  2.05                             118   -0.01 8  237 236 
 CHI  HZ EP        856 35.89                             117    0.28 8  247 196 
 CHI  HN ES        857  5.17                             117    0.32 8  247 196 
 CHI  HZ I         857 10.39         2.6 0.40            118            247 196 
 GUY2CHZ EP   3    856 43.16                             112    1.22 2  303 236 
 GUY2CHN ES   4    857 18.36                             112    2.24 0  303 236 
 GUY2CHZ I         857 24.17         3.0 0.60                           303 236 
 PTGC HZ EP        856 40.90                             112   -0.54 7  304 159 
 PTGC HN ES        857 14.60                             112   -0.64 7  304 159 
 PTGC HZ I         857 19.52         3.5 0.48            113            304 159 
 CBOC HZ EP        856 46.12                             110    0.71 7  337 253 
                                                                                
