 2017  1 6 0958  3.1 L   6.431 -74.045 28.1  RSN 13 0.6 1.9LRSN                1
 GAP= 86        1.25       3.3     2.6  5.5 -0.2271E+01 -0.5364E+01  0.8617E+01E
 Epicentro: CIMITARRA - SANTANDER                                              3
 ACTION:UPD 17-05-22 15:56 OP:jn   STATUS:               ID:20170106095803 L   I
 OLDACT:UP  17-01-06 19:15 OP:and  STATUS:               ID:20170106094743     3
 OLDACT:UP  17-01-06 19:10 OP:and  STATUS:               ID:20170106094743     3
 OLDACT:UP  17-01-06 19:09 OP:and  STATUS:               ID:20170106094743     3
 OLDACT:UP  17-01-06 19:08 OP:and  STATUS:               ID:20170106094743     3
 OLDACT:UP  17-01-06 19:08 OP:and  STATUS:               ID:20170106094743     3
 OLDACT:REG 17-01-06 12:52 OP:and  STATUS:               ID:20170106094743     3
 2017-01-06-0948-00M.COL___360                                                 6
 STAT SP IPHASW D HRMM SECON CODA AMPLIT PERI AZIMU VELO AIN AR TRES W  DIS CAZ7
 PTB  HZ EP        958 11.24                             113   -0.5210 47.0 285 
 PTB  HE ES        958 18.16                             113   -0.3310 47.0 285 
 BRR  HZ EP        958 16.70                              97   -0.0510 83.3  26 
 BRR  HN ES        958 28.19                              97    0.8110 83.3  26 
 BRR  HZ I         958 31.34        57.1 0.24             47           83.3  26 
 BAR2 EZ IP     D  958 18.74                              61   -0.0510 97.1  79 
 BAR2 EZ ES        958 30.61                              61   -0.4010 97.1  79 
 BAR2 EZ I         958 33.48        43.0 0.10             47           97.1  79 
 RUS  HZ EP        958 22.16                              61   -0.0510  122 119 
 RUS  HN ES        958 36.54                              61   -0.5510  122 119 
 RUS  HZ I         958 37.36        49.5 0.14             47            122 119 
 NOR  HZ EP   3    958 21.68                              61   -1.30 2  132 224 
 ZAR  HZ EP        958 24.42                              61   -0.44 9  148 323 
 ZAR  HE ES        958 41.10                              61   -0.71 9  148 323 
 ZAR  HZ I         958 48.94        10.7 0.06             47            148 323 
 PAM  EZ EP   9    958 31.28                              61    1.89 0  179  56 
 PAM  EN ES        958 52.20                              61    0.43 9  179  56 
 PAM  EZ I         958 54.44        28.7 0.14             47            179  56 
 GUY2CHZ EP        958 31.89                              61    0.21 9  198 228 
 GUY2CHN ES        958 53.79                              61   -0.17 9  198 228 
 GUY2CHZ I         959  1.14         6.2 0.46                           198 228 
 URE  HZ EP        958 34.56                              61    0.69 8  220 312 
 URE  HN ES   4    959  1.00                              61    3.15 0  220 312 
 URE  HZ I         959  3.56         5.2 0.16             37            220 312 
 CBOC HZ EP   3    958 36.10                              61    1.20 2  227 254 
 ELA  HZ EP        958 36.19                              61    0.49 8  230 221 
 ELA  HN ES        959  1.75                              61    0.64 8  230 221 
 ELA  HZ I         959  5.13         7.5 0.38             37            230 221 
 ORTC HZ EP        958 45.82                              60    0.86 7  309 206 
 ORTC HN ES   4    959 19.45                              60    1.85 0  309 206 
 ORTC HZ I         959 38.16         2.5 0.19             36            309 206 
 SJC  HZ EP        958 58.02                              60    1.41 6  403 342 
                                                                                
