 2017  8 6 0551 27.4 L   6.049 -73.612126.4  RSN  4 0.3 1.1LRSN                1
 GAP=191        0.88       5.0     5.5  8.0 -0.1003E+02 -0.1235E+01 -0.1538E+01E
 Epicentro: CHIPATA - SANTANDER                                                3
 ACTION:UPD 17-09-04 20:16 OP:rebc STATUS:               ID:20170806055127 L   I
 OLDACT:REG 17-08-06 12:21 OP:osc  STATUS:               ID:20170806054738     3
 2017-08-06-0548-00M.COL___383                                                 6
 STAT SP IPHASW D HRMM SECON CODA AMPLIT PERI AZIMU VELO AIN AR TRES W  DIS CAZ7
 SPBC HZ EP        551 46.79                             150    0.4210 67.3 229 
 SPBC HN ES        552  1.03                             150   -0.1410 67.3 229 
 SPBC HZ I         552  2.45         2.8 0.34            153           67.3 229 
 BAR2 EZ EP        551 47.32                             147    0.1510 76.5  38 
 BAR2 EZ ES        552  2.39                             147   -0.2110 76.5  38 
 BAR2 EZ I         552  3.36         3.7 0.46            147           76.5  38 
 PTB  HZ EP        551 48.52                             137   -0.7210  108 300 
 PTB  HN ES        552  6.53                             137    0.2510  108 300 
 PTB  HZ I         552  7.48         1.3 0.38            137            108 300 
 BRR  HZ EP        551 50.15                             134    0.1210  118 355 
 BRR  HN ES        552  7.81                             134    0.1310  118 355 
 BRR  HZ I         552 12.59         4.5 0.34            134            118 355 
                                                                                
