 2017  1 6 0225 22.1 L   6.786 -73.122149.4  RSN 10 0.4 1.6LRSN                1
 GAP=122        1.05       3.9     4.0  6.2  0.2061E+01  0.3245E+01  0.9128E+01E
 Epicentro: LOS SANTOS - SANTANDER                                             3
 ACTION:UPD 17-05-22 15:56 OP:jn   STATUS:               ID:20170106022522 L   I
 OLDACT:UP  17-01-06 13:43 OP:and  STATUS:               ID:20170106021743     3
 OLDACT:UP  17-01-06 13:40 OP:and  STATUS:               ID:20170106021743     3
 OLDACT:REG 17-01-06 12:29 OP:and  STATUS:               ID:20170106021743     3
 2017-01-06-0218-00M.COL___381                                                 6
 STAT SP IPHASW D HRMM SECON CODA AMPLIT PERI AZIMU VELO AIN AR TRES W  DIS CAZ7
 BAR2 EZ EP        225 42.19                             171    0.0810 22.4 197 
 BAR2 EZ ES        225 57.16                             171   -0.5910 22.4 197 
 BAR2 EZ I         225 58.82        12.5 0.16            168           22.4 197 
 BRR  HZ EP        225 43.97                             152    0.2010 74.3 299 
 BRR  HN ES        226  1.10                             152    0.3910 74.3 299 
 PAM  EZ EP        225 45.07                             152    0.4310 77.0  37 
 PAM  EN ES        226  2.16                             152   -0.0910 77.0  37 
 PAM  EZ I         226  4.33         6.7 0.54            156           77.0  37 
 RUS  HZ EP        225 46.14                             145    0.1010 98.8 178 
 RUS  HN ES        226  5.25                             145    0.4910 98.8 178 
 RUS  HZ I         226  6.60         2.6 0.22            145           98.8 178 
 PTB  HZ EP        225 48.94                             132   -0.59 9  150 260 
 PTB  HE ES        226 10.75                             132   -0.20 9  150 260 
 PTB  HZ I         226 16.87         4.2 0.17            131            150 260 
 ZAR  HE ES        226 20.22                             123   -0.57 8  207 292 
 ZAR  HZ I         226 25.37         4.5 0.30            123            207 292 
 NOR  HZ EP        225 58.29                             119    0.16 8  236 235 
 NOR  HN ES        226 26.42                             119    0.15 8  236 235 
 NOR  HZ I         226 35.53         1.8 0.14            119            236 235 
 CHI  HZ EP        226  0.50                             118    0.63 8  248 196 
 CHI  HN ES        226 29.70                             118    0.34 8  248 196 
 CHI  HZ I         226 33.48         2.6 0.54            118            248 196 
 GUY2CHZ EP   4    226  8.93                             113    2.96 0  302 235 
 GUY2CHE ES   4    226 45.40                             113    5.17 0  302 235 
 GUY2CHZ I         226 48.45         2.3 0.38                           302 235 
 PTGC HZ EP        226  5.31                             112   -0.49 7  306 159 
 PTGC HN ES        226 38.94                             112   -0.99 7  306 159 
 SJC  HZ EP   4    226 16.41                             106   -1.65 0  412 327 
 SJC  HN ES   4    226 58.81                             106   -2.94 0  412 327 
                                                                                
