 2015  3 6 0601  4.3 L   6.034 -73.666117.8  RSN  6 0.2 1.3LRSN                1
 GAP=109        0.53       2.1     2.6  4.9 -0.1778E+01  0.1056E+01  0.1490E+01E
 Epicentro: VELEZ - SANTANDER                                                  3
 ACTION:UPD 15-04-30 16:23 OP:nd   STATUS:               ID:20150306060104 L   I
 OLDACT:DUP 15-03-06 15:36 OP:spq  STATUS:               ID:20150306055751d    3
 2015-03-06-0557-50M.COL___284                                                 6
 STAT SP IPHASW D HRMM SECON CODA AMPLIT PERI AZIMU VELO AIN AR TRES W  DIS CAZ7
 SPBC HZ EP        6 1 21.77                             150   -0.2310 61.8 227 
 SPBC HN ES   1    6 1 36.09                             150    0.26 7 61.8 227 
 SPBC HZ I         6 1 41.12         5.1 0.04            154           61.8 227 
 RUS  HZ EP        6 1 22.88                             149    0.0210 66.4 104 
 RUS  HE ES   1    6 1 37.10                             149   -0.26 7 66.4 104 
 RUS  HZ I         6 1 40.81         3.0 0.32            154           66.4 104 
 BAR2 EZ EP        6 1 23.62                             143    0.0810 81.6  41 
 BAR2 EZ ES   1    6 1 38.74                             143    0.16 7 81.6  41 
 BAR2 EZ I         6 1 39.75         8.8 0.24            150           81.6  41 
 PTB  HZ EP   4    6 1 23.71                             136   -1.29 0  104 303 
 BRR  HZ EP   1    6 1 26.72                             131    0.42 7  119 358 
 BRR  HN ES        6 1 43.30                             131   -0.1810  119 358 
 BRR  HZ I         6 1 45.86         2.8 0.24            139            119 358 
 NOR  HZ EP   1    6 1 28.24                             126   -0.46 7  143 249 
 NOR  HN ES        6 1 47.85                             126    0.09 9  143 249 
 NOR  HZ I         6 1 49.01         3.8 0.46            131            143 249 
 CHI  HZ EP        6 1 30.56                             123    0.14 9  156 183 
 CHI  HE ES   1    6 1 50.89                             123    0.07 7  156 183 
 CHI  HZ I         6 1 53.12         1.5 0.42            129            156 183 
                                                                                
