 2016 10 6 0047 28.1 L   6.875 -73.318122.0  RSN 19 0.4 2.1LRSN                1
 GAP= 59        0.86       2.3     2.7  4.8 -0.1259E+01  0.3321E+01  0.1369E+01E
 Epicentro: BETULIA - SANTANDER                                                3
 ACTION:UPD 16-11-09 19:16 OP:rebc STATUS:               ID:20161006004728 L   I
 OLDACT:UP  16-10-06 13:38 OP:dnl  STATUS:               ID:20161006003745     3
 OLDACT:UP  16-10-06 13:35 OP:dnl  STATUS:               ID:20161006003745     3
 OLDACT:UP  16-10-06 13:35 OP:dnl  STATUS:               ID:20161006003745     3
 OLDACT:REG 16-10-06 13:00 OP:dnl  STATUS:               ID:20161006003745     3
 2016-10-06-0038-00M.COL___360                                                 6
 STAT SP IPHASW D HRMM SECON CODA AMPLIT PERI AZIMU VELO AIN AR TRES W  DIS CAZ7
 BAR2 EZ IP     C  047 45.35                             163    0.1110 34.7 154 
 BAR2 EZ ES        047 58.11                             163   -0.4910 34.7 154 
 BRR  HZ EP        047 45.84                             156    0.2710 50.5 301 
 BRR  HN ES        047 59.76                             156    0.5910 50.5 301 
 BRR  HZ I         048  0.69        34.3 0.12            155           50.5 301 
 PAM  EZ EP        047 48.49                             143    0.0410 85.5  53 
 PAM  EN ES        048  4.71                             143    0.4110 85.5  53 
 PAM  EZ I         048  7.36        19.0 0.48            144           85.5  53 
 RUS  HZ EP        047 50.38                             135   -0.1710  112 167 
 RUS  HN ES        048  7.88                             135   -0.1710  112 167 
 RUS  HZ I         048 10.67        14.2 0.24            134            112 167 
 PTB  HZ EP        047 50.69                             130   -0.9810  131 254 
 PTB  HN ES   2    048 10.69                             130    0.66 5  131 254 
 PTB  HZ I         048 12.81        25.5 0.18            128            131 254 
 OCA  HZ EP        047 53.54                             126   -0.22 9  151 360 
 OCA  HE ES        048 13.26                             126   -0.49 9  151 360 
 SPBC HZ EP   2    047 54.45                             124   -0.03 5  159 212 
 SPBC HE ES        048 15.15                             124    0.11 9  159 212 
 SPBC HZ I         048 19.57        16.8 0.40            122            159 212 
 TAM  HZ EP   2    047 56.27                             121    0.12 4  176 106 
 TAM  HN ES        048 18.16                             121    0.15 9  176 106 
 TAM  HZ I         048 24.22        19.3 0.48            120            176 106 
 ZAR  HZ EP        047 57.14                             120    0.23 9  183 292 
 ZAR  HE ES   4    048 20.47                             120    1.12 0  183 292 
 ZAR  HZ I         048 25.19        23.5 0.52            119            183 292 
 NOR  HZ EP   2    048  1.81                             114    0.33 4  225 230 
 NOR  HN ES        048 27.28                             114   -0.21 8  225 230 
 NOR  HZ I         048 36.45         6.8 0.16            113            225 230 
 CHI  HZ EP        048  5.36                             112    0.30 8  252 190 
 CHI  HE ES        048 33.82                             112   -0.05 8  252 190 
 HEL  HZ EP   4    048  6.76                             111    1.36 0  256 253 
 HEL  HN ES   4    048 33.22                             111   -1.25 0  256 253 
 HEL  HZ I         048 40.47         8.1 0.26            110            256 253 
 URE  HZ EP   4    048  6.82                             110    1.06 0  263 292 
 URE  HE ES   4    048 33.41                             110   -1.71 0  263 292 
 URE  HZ I         048 35.60        12.4 0.36            109            263 292 
 GUY2CHZ EP   4    048 11.07                             108    1.51 0  291 231 
 GUY2CHE ES        048 42.17                             108    0.30 7  291 231 
 GUY2CHZ I         048 44.72         3.9 0.48                           291 231 
 CBOC HZ EP   4    048 13.50                             106    1.13 0  318 250 
 CBOC HE ES   2    048 46.94                             106    0.06 3  318 250 
 PTGC HZ EP   4    048 10.58                             106   -2.21 0  324 156 
 PTGC HN ES   4    048 45.31                             106   -2.31 0  324 156 
 PTGC HZ I         048 52.68         7.0 0.44            105            324 156 
 PRA  HZ EP   2    048 21.11                             102    0.38 3  390 207 
 PRA  HE ES   2    049  2.63                             102    0.87 3  390 207 
 PRA  HZ I         049  7.49         4.5 0.58            102            390 207 
 SJC  HZ EP   4    048 19.51                             102   -1.45 0  392 329 
 SJC  HN ES   4    048 58.16                             102   -4.01 0  392 329 
 SJC  HZ I         049  3.93         2.7 0.44            102            392 329 
 URI  HZ EP   4    048 38.56                              97   -1.72 0  553  15 
 URI  HE ES   4    049 31.56                              97   -4.99 0  553  15 
 URI  HZ I         049 44.44         2.8 0.92             97            553  15 
                                                                                
