 2013  9 6 0843  1.3 L   6.032 -73.659117.6  RSN  4 0.2 1.3LRSN                1
 GAP=217        0.43       5.1     6.0  7.0  0.2121E+02  0.2736E+02  0.6858E+01E
 Epicentro: VELEZ - SANTANDER                                                  3
 ACTION:UPD 13-10-22 09:20 OP:ep   STATUS:               ID:20130906084301 L   I
 OLDACT:UP  13-09-06 10:30 OP:cam  STATUS:               ID:20130906083960d    3
 OLDACT:DUP 13-09-06 10:28 OP:cam  STATUS:               ID:20130906083960d    3
 OLDACT:REG 13-09-06 08:30 OP:cam  STATUS:               ID:20130906083959     3
 2013-09-06-0839-59M.COL___269                                                 6
 STAT SP IPHASW D HRMM SECON CODA AMPLIT PERI AZIMU VELO AIN AR TRES W  DIS CAZ7
 RUS  HN ES        843 34.26                             149   -0.0110 65.6 104 
 RUS  HZ I         843 35.61         2.7 0.32            151           65.6 104 
 BAR2 SZ EP        843 20.66                             143    0.1210 81.3  40 
 BAR2 SZ ES   1    843 35.48                             143   -0.06 7 81.3  40 
 BAR2 SZ I         843 36.58         4.6 0.18            145           81.3  40 
 BRR  HZ EP   1    843 23.00                             131   -0.35 7  119 357 
 BRR  HN ES   1    843 40.66                             131    0.12 7  119 357 
 ZAR  HZ EP   2    843 33.02                             115    0.40 4  209 321 
 ZAR  HE ES   1    843 56.96                             115   -0.09 6  209 321 
 ZAR  HZ I         843 57.47         2.8 0.20            117            209 321 
                                                                                
