 2017  1 6 0520  4.2 L   6.699 -73.209147.8  RSN  5 0.3 1.2LRSN                1
 GAP=217        0.65       5.2     5.2  5.9  0.1785E+02  0.2648E+01 -0.1059E+01E
 Epicentro: VILLANUEVA - SANTANDER                                             3
 ACTION:UPD 17-05-22 15:56 OP:jn   STATUS:               ID:20170106052004 L   I
 OLDACT:UP  17-01-06 16:08 OP:and  STATUS:               ID:20170106051741     3
 OLDACT:REG 17-01-06 12:38 OP:and  STATUS:               ID:20170106051741     3
 2017-01-06-0518-00M.COL___375                                                 6
 STAT SP IPHASW D HRMM SECON CODA AMPLIT PERI AZIMU VELO AIN AR TRES W  DIS CAZ7
 BAR2 EZ ES   2    520 38.83                             175   -0.45 5 12.2 166 
 BRR  HZ EP        520 25.42                             153   -0.1910 71.6 309 
 BRR  HN ES        520 42.65                             153    0.3610 71.6 309 
 BRR  HZ I         520 45.57         3.2 0.14            148           71.6 309 
 RUS  HZ EP        520 27.65                             148    0.2010 90.2 171 
 RUS  HN ES        520 45.53                             148   -0.0510 90.2 171 
 PTB  HZ EP        520 30.31                             135   -0.27 9  139 263 
 PTB  HE ES        520 51.25                             135    0.11 9  139 263 
 PTB  HZ I         520 53.54         2.3 0.10            133            139 263 
 ZAR  HZ EP   2    520 37.35                             123    0.74 4  202 296 
 ZAR  HN ES        521  1.59                             123   -0.28 9  202 296 
 ZAR  HZ I         521 11.80         1.5 0.11            122            202 296 
 GUY2CHZ EP   4    520 48.34                             114    1.78 0  289 236 
 GUY2CHN ES   4    521 24.35                             114    4.76 0  289 236 
                                                                                
