 2016  1 6 0401  9.6 L   6.075 -73.728111.6  RSN  6 0.4 1.2LRSN                1
 GAP= 83        1.13       4.1     4.7  8.5 -0.4492E+00  0.2584E+01  0.1012E+01E
 Epicentro: VELEZ - SANTANDER                                                  3
 ACTION:UPD 16-03-09 23:23 OP:cam  STATUS:               ID:20160106040109 L   I
 OLDACT:REG 16-01-06 12:17 OP:drio STATUS:               ID:20160106035750     3
 2016-01-06-0357-50M.COL___273                                                 6
 STAT SP IPHASW D HRMM SECON CODA AMPLIT PERI AZIMU VELO AIN AR TRES W  DIS CAZ7
 SPBC HZ EP        4 1 26.81                             150    0.2510 60.3 219 
 SPBC HN ES        4 1 40.55                             150    0.7410 60.3 219 
 SPBC HZ I         4 1 42.65         5.7 0.18            149           60.3 219 
 RUS  HZ EP        4 1 27.95                             144   -0.1010 74.2 106 
 RUS  HN ES        4 1 41.79                             144   -0.6910 74.2 106 
 BAR2 EZ EP        4 1 28.56                             141    0.2010 83.1  47 
 BAR2 EZ ES        4 1 43.39                             141    0.3710 83.1  47 
 PTB  HZ EP        4 1 28.70                             136   -0.3510 95.5 303 
 PTB  HN ES        4 1 43.64                             136   -0.6110 95.5 303 
 PTB  HZ I         4 1 46.01         3.1 0.34            138           95.5 303 
 BRR  HZ EP        4 1 31.09                             131    0.4210  114   1 
 BRR  HN ES   4    4 1 48.91                             131    1.77 0  114   1 
 CHI  HZ EP        4 1 35.64                             121   -0.13 9  160 180 
 CHI  HN ES        4 1 56.09                             121   -0.12 9  160 180 
 CHI  HZ I         4 1 59.55         2.1 0.34            122            160 180 
                                                                                
