 2017  7 6 0438 44.8 L   6.531 -73.280153.9  RSN  4 0.3 1.0LRSN                1
 GAP=212        0.73       8.4     5.1  6.9  0.1429E+02  0.9868E+01  0.9960E+01E
 Epicentro: PALMAR - SANTANDER                                                 3
 ACTION:UPD 17-08-30 15:30 OP:rebc STATUS:               ID:20170706043844 L   I
 OLDACT:UP  17-07-06 16:52 OP:edw  STATUS:               ID:20170706043743     3
 OLDACT:REG 17-07-06 13:23 OP:edw  STATUS:               ID:20170706043743     3
 2017-07-06-0438-00M.COL___380                                                 6
 STAT SP IPHASW D HRMM SECON CODA AMPLIT PERI AZIMU VELO AIN AR TRES W  DIS CAZ7
 BAR2 EZ EP        439  5.32                             175    0.0910 12.8  58 
 BAR2 EZ ES        439 20.87                             175   -0.3210 12.8  58 
 BAR2 EZ I         439 22.16         2.7 0.28            177           12.8  58 
 BRR  HZ EP        439  7.57                             151    0.2810 79.6 323 
 BRR  HE ES        439 25.07                             151    0.2310 79.6 323 
 BRR  HZ I         439 27.55         2.7 0.42            152           79.6 323 
 PTB  HZ EP        439 10.66                             138   -0.2610  130 270 
 PTB  HN ES        439 31.59                             138    0.2910  130 270 
 PTB  HZ I         439 34.12         0.8 0.14            138            130 270 
 ZAR  HE ES        439 43.10                             124   -0.42 9  204 301 
                                                                                
