 2012 11 6 0852 38.0 L   6.768 -73.073148.7  RSN  5 0.2 1.6LRSN                1
 GAP=148        0.63       2.7     5.5  5.5  0.1861E+01  0.2780E+01  0.5767E+00E
 Epicentro: LOS SANTOS - SANTANDER                                             3
 ACTION:UPD 12-12-05 15:31 OP:}ep  STATUS:               ID:20121106085238 L   I
 2012-11-06-0850-00M.COL___230                                                 6
 STAT SP IPHASW D HRMM SECON CODA AMPLIT PERI AZIMU VELO AIN AR TRES W  DIS CAZ7
 BAR2 SZ EP        852 58.02                             171    0.0310 22.9 212 
 BAR2 SZ ES        853 13.27                             171   -0.3110 22.9 212 
 BAR2 SZ I         853 15.40         9.6 0.26                          22.9 212 
 PAM  SN ES        853 18.19                             152    0.2710 75.4  33 
 BRR  HZ EP        852 59.98                             150   -0.0210 80.0 298 
 BRR  HZ I         853  0.19        10.1 0.20                          80.0 298 
 BRR  HN ES        853 17.45                             150    0.3110 80.0 298 
 RUS  HZ EP        853  1.90                             145    0.1010 96.8 181 
 RUS  HN ES        853 20.26                             145   -0.0910 96.8 181 
 RUS  HN I         853 22.22         4.4 0.16                          96.8 181 
 OCA  HN ES        853 29.22                             129   -0.37 9  165 351 
                                                                                
