 2015 12 6 0643 12.6 L   6.809 -73.169139.3  RSN 18 0.5 2.1LRSN                1
 GAP=133        0.96       2.6     3.6  5.0 -0.1354E+01  0.6611E+01  0.1792E+01E
 Epicentro: LOS SANTOS - SANTANDER                                             3
 ACTION:UPD 16-02-04 15:02 OP:cam  STATUS:               ID:20151206064312 L   I
 OLDACT:UP  15-12-06 16:10 OP:mh   STATUS:               ID:20151206063749     3
 OLDACT:UP  15-12-06 16:09 OP:mh   STATUS:               ID:20151206063749     3
 OLDACT:REG 15-12-06 12:07 OP:mh   STATUS:               ID:20151206063749     3
 2015-12-06-0637-49M.COL___325                                                 6
 STAT SP IPHASW D HRMM SECON CODA AMPLIT PERI AZIMU VELO AIN AR TRES W  DIS CAZ7
 BAR2 EZ EP        643 31.39                             170   -0.0910 24.0 183 
 BAR2 EZ ES        643 46.26                             170    0.0610 24.0 183 
 BAR2 EZ I         643 47.09        24.2 0.28            167           24.0 183 
 BRR  HZ EP        643 33.26                             152    0.3510 68.4 299 
 BRR  HN ES        643 49.17                             152    0.4310 68.4 299 
 BRR  HZ I         643 50.47        26.7 0.66            150           68.4 299 
 PAM  EZ EP   1    643 34.24                             149    0.03 7 78.4  41 
 PAM  EN ES        643 51.34                             149    0.2910 78.4  41 
 PAM  EZ I         643 53.58        18.1 0.54            153           78.4  41 
 RUS  HZ EP        643 35.68                             142   -0.1410  102 175 
 RUS  HE ES        643 53.64                             142   -0.2910  102 175 
 RUS  HZ I         643 55.47        10.8 0.22            142            102 175 
 PTB  HZ EP   1    643 38.49                             131   -0.35 7  145 258 
 PTB  HN ES        643 58.58                             131   -0.72 9  145 258 
 PTB  HZ I         644  1.06        11.5 0.28            129            145 258 
 OCA  HZ EP   1    643 39.59                             128   -0.72 7  159 354 
 OCA  HN ES        644  1.84                             128   -0.08 9  159 354 
 OCA  HZ I         644  4.18        45.0 0.20            129            159 354 
 SPBC HZ EP   1    643 40.57                             128    0.03 7  162 218 
 SPBC HN ES        644  2.40                             128    0.08 9  162 218 
 SPBC HZ I         644  9.44        19.8 0.24            126            162 218 
 ZAR  HZ EP   1    643 44.58                             121    0.23 6  201 292 
 ZAR  HN ES        644  9.64                             121    0.53 9  201 292 
 ZAR  HZ I         644 14.57        16.9 0.42            120            201 292 
 NOR  HZ EP   1    643 47.66                             117   -0.14 6  233 234 
 NOR  HN ES        644 14.35                             117   -0.90 8  233 234 
 NOR  HZ I         644 21.27        11.2 0.34            116            233 234 
 SML  HZ EP   4    643 47.50                             116   -1.17 0  242 336 
 SML  HN ES        644 16.25                             116   -0.54 8  242 336 
 SML  HZ I         644 22.49        27.7 0.10            116            242 336 
 ROSC BZ EP   4    643 49.15                             115   -1.18 0  252 210 
 ROSC BN ES   4    644 22.27                             115    2.52 0  252 210 
 ROSC BZ I         644 28.02        12.5 0.45            115            252 210 
 HEL  HZ EP   1    643 52.59                             114    0.35 6  270 255 
 HEL  HN ES   1    644 23.54                             114    0.38 6  270 255 
 HEL  HZ I         644 27.57         4.8 0.26            113            270 255 
 URE  HZ EP   4    643 55.78                             112    2.72 0  281 292 
 URE  HN ES   4    644 22.06                             112   -2.55 0  281 292 
 URE  HZ I         644 27.12         9.4 0.10            112            281 292 
 GUY2CHZ EP        643 56.16                             111    0.41 7  300 234 
 GUY2CHN ES   4    644 31.80                             111    2.41 0  300 234 
 GUY2CHZ I         644 37.41         5.5 0.34                           300 234 
 CBOC HZ EP   1    643 59.46                             109    0.45 5  331 252 
 CBOC HN ES        644 35.16                             109   -0.04 7  331 252 
 CBOC HZ I         644 46.81         2.3 0.66            108            331 252 
 PRA  HZ EP        644  4.93                             105   -0.93 6  392 209 
 PRA  HN ES        644 48.34                             105    0.94 6  392 209 
 PRA  HZ I         644 55.22         5.3 0.30            105            392 209 
 ORTC HZ EP        644  6.92                             105    0.69 6  395 216 
 ORTC HN ES        644 48.72                             105    0.67 6  395 216 
 ORTC HZ I         644 55.44         6.4 0.42            105            395 216 
 SJC  HZ EP   4    644  5.39                             105   -2.31 0  407 327 
 SJC  HN ES   4    644 46.58                             105   -4.10 0  407 327 
 SJC  HZ I         644 50.14         3.6 0.48            105            407 327 
                                                                                
