 2013  8 6 0345 13.2 L   6.897 -73.141153.1  RSN  6 0.4 1.3LRSN                1
 GAP=132        0.88       5.3     6.1  9.7  0.6555E+01  0.1915E+02  0.5269E+01E
 Epicentro: LOS SANTOS - SANTANDER                                             3
 ACTION:UPD 14-01-14 08:59 OP:ep   STATUS:               ID:20130806034513 L   I
 OLDACT:REG 13-08-06 07:44 OP:jn   STATUS:               ID:20130806033959     3
 2013-08-06-0339-59M.COL___269                                                 6
 STAT SP IPHASW D HRMM SECON CODA AMPLIT PERI AZIMU VELO AIN AR TRES W  DIS CAZ7
 BRR  HZ EP        345 35.19                             155    0.2310 67.2 290 
 BRR  HN ES   1    345 52.82                             155    0.90 7 67.2 290 
 BRR  HZ I         345 55.28         3.9 0.50            155           67.2 290 
 PAM  SE ES   1    345 52.94                             155   -0.42 7 69.1  45 
 PAM  SZ I         345 55.21         5.7 0.38            157           69.1  45 
 RUS  HZ EP   1    345 38.80                             142    0.33 7  111 177 
 RUS  HN ES   1    345 57.79                             142   -0.38 7  111 177 
 RUS  HZ I         345 59.51         0.9 0.18            146            111 177 
 PTB  HZ EP        345 41.08                             133    0.02 9  151 255 
 PTB  HN ES   1    346  2.24                             133   -0.53 7  151 255 
 PTB  HZ I         346  3.38         3.0 0.56            135            151 255 
 ZAR  HN ES   1    346 11.03                             124   -0.22 6  201 289 
 ZAR  HZ I         346 16.72         3.5 0.32            126            201 289 
 SML  HE ES   1    346 17.02                             120   -0.36 6  234 334 
                                                                                
