 2013  2 6 0947 23.4 L   6.803 -73.149147.5  RSN 12 0.4 2.2LRSN                1
 GAP= 71        0.92       3.0     3.1  5.1  0.5961E+00  0.2375E+01 -0.8549E+00E
 Epicentro: LOS SANTOS - SANTANDER                                             3
 ACTION:UPD 13-03-12 09:31 OP:ep   STATUS:               ID:20130206094723 L   I
 2013-02-06-0940-00M.COL___240                                                 6
 STAT SP IPHASW D HRMM SECON CODA AMPLIT PERI AZIMU VELO AIN AR TRES W  DIS CAZ7
 BAR2 SZ EP   1    947 43.22                             171   -0.05 7 23.6 189 
 BAR2 SZ ES        947 58.29                             171   -0.4610 23.6 189 
 BAR2 SZ I         948  0.08        23.5 0.30            169           23.6 189 
 BRR  HZ EP     C  947 45.14                             153    0.4110 70.7 298 
 BRR  HE ES        948  2.06                             153    0.7010 70.7 298 
 BRR  HN I         948  2.83        45.9 0.30            145           70.7 298 
 PAM  SZ EP        947 46.17                             151    0.3510 77.4  40 
 PAM  SN ES   1    948  3.41                             151    0.11 7 77.4  40 
 PAM  SN I         948  4.24        11.0 0.48            147           77.4  40 
 RUS  HZ EP   1    947 47.45                             144    0.08 7  101 176 
 RUS  HN ES        948  5.80                             144   -0.2510  101 176 
 RUS  HN I         948  6.28        16.9 0.34            140            101 176 
 PTB  HZ EP        947 49.85                             132   -0.66 9  147 259 
 PTB  HN ES        948 11.07                             132   -0.56 9  147 259 
 PTB  HN I         948 16.06        14.8 0.34            125            147 259 
 TAM  HZ EP     D  947 51.44                             131    0.16 9  156 105 
 TAM  HN ES   1    948 12.97                             131   -0.03 7  156 105 
 TAM  HN I         948 13.77        13.3 0.38            127            156 105 
 OCA  HZ EP   2    947 51.32                             130   -0.51 5  160 353 
 OCA  HN ES   1    948 13.42                             130   -0.58 7  160 353 
 OCA  HN I         948 17.31        73.0 0.22            123            160 353 
 ZAR  HZ EP   1    947 56.00                             123    0.07 6  204 292 
 ZAR  HN ES   1    948 21.79                             123    0.49 6  204 292 
 ZAR  HN I         948 26.95        21.1 0.40            116            204 292 
 SML  HZ EP        947 59.76                             118   -0.34 8  243 335 
 SML  HN ES   1    948 29.22                             118    0.51 6  243 335 
 SML  HN I         948 30.74        30.6 0.10            112            243 335 
 CHI  HZ EP   1    948  1.32                             117    0.08 6  249 195 
 CHI  HN ES        948 31.25                             117    0.51 8  249 195 
 CHI  HN I         948 34.91         9.0 0.52            112            249 195 
 HEL  HZ EP   1    948  3.53                             115   -0.16 6  272 256 
 HEL  HN ES        948 35.41                             115    0.30 8  272 256 
 HEL  HN I         948 38.07         3.3 0.28            109            272 256 
 URE  HZ EP   1    948  3.91                             114   -0.62 6  283 292 
 URE  HN I         948 44.34        18.8 0.26            108            283 292 
                                                                                
