 2016  3 6 0204 21.0 L   5.819 -73.839110.6  RSN  8 0.4 1.7LRSN                1
 GAP=150        1.11       4.6     3.2  7.1 -0.4235E+01  0.6977E+01 -0.6622E+01E
 Epicentro: JESUS MARIA - SANTANDER                                            3
 ACTION:UPD 16-05-13 21:21 OP:cam  STATUS:               ID:20160306020421 L   I
 OLDACT:UP  16-03-06 14:00 OP:ar   STATUS:               ID:20160306015749     3
 OLDACT:REG 16-03-06 12:55 OP:ar   STATUS:               ID:20160306015749     3
 2016-03-06-0157-49M.COL___328                                                 6
 STAT SP IPHASW D HRMM SECON CODA AMPLIT PERI AZIMU VELO AIN AR TRES W  DIS CAZ7
 SPBC HZ EP        2 4 36.82                             163    0.3310 31.7 235 
 SPBC HN ES        2 4 48.71                             163    0.1510 31.7 235 
 RUS  HZ EP        2 4 40.30                             140    0.1410 84.1  84 
 RUS  HE ES        2 4 54.71                             140   -0.3710 84.1  84 
 RUS  HZ I         2 4 56.74         5.7 0.20            144           84.1  84 
 PTB  HZ EP        2 4 40.29                             133   -0.9610  105 319 
 PTB  HN ES        2 4 57.51                             133    0.4810  105 319 
 PTB  HZ I         2 4 58.36         9.3 0.12            134            105 319 
 BAR2 EZ EP        2 4 42.66                             131    0.4510  112  40 
 BAR2 EZ ES        2 4 58.82                             131    0.0910  112  40 
 BAR2 EZ I         2 4 59.77        13.4 0.26            134            112  40 
 NOR  HZ EP        2 4 42.25                             130   -0.2010  118 256 
 NOR  HN ES        2 4 58.49                             130   -0.6810  118 256 
 NOR  HZ I         2 5  2.07        10.0 0.12            131            118 256 
 GUY2CHZ EP        2 4 49.81                             117    0.26 9  181 249 
 GUY2CHN ES        2 5 11.86                             117    0.06 9  181 249 
 GUY2CHZ I         2 5 18.06         4.4 0.24                           181 249 
 HEL  HZ EP        2 4 50.95                             115    0.42 9  192 282 
 HEL  HE ES        2 5 14.08                             115    0.54 9  192 282 
 HEL  HZ I         2 5 21.63         8.4 0.30            117            192 282 
 ZAR  HZ EP        2 4 52.55                             112   -0.33 8  217 329 
 ZAR  HN ES        2 5 17.41                             112   -0.31 8  217 329 
 ZAR  HZ I         2 5 18.24         7.7 0.14            113            217 329 
                                                                                
