 2014 11 6 0049 43.3 L   6.812 -73.161142.9  RSN 15 0.5 2.3LRSN                1
 GAP= 70        1.14       3.6     3.4  5.7 -0.2780E+01  0.4128E+01  0.6122E+01E
 Epicentro: LOS SANTOS - SANTANDER                                             3
 ACTION:UPD 14-12-19 15:39 OP:nd   STATUS:               ID:20141106004943 L   I
 OLDACT:REG 14-11-06 13:27 OP:carl STATUS:               ID:20141106004746     3
 2014-11-06-0047-46M.COL___283                                                 6
 STAT SP IPHASW D HRMM SECON CODA AMPLIT PERI AZIMU VELO AIN AR TRES W  DIS CAZ7
 BAR2 SZ EP        050  2.57                             170   -0.0210 24.4 186 
 BAR2 SZ ES        050 17.79                             170    0.1510 24.4 186 
 BAR2 SZ I         050 19.08        52.1 0.30            167           24.4 186 
 BRR  HZ EP        050  4.41                             153    0.4110 69.1 298 
 BRR  HN ES        050 21.32                             153    1.1610 69.1 298 
 BRR  HZ I         050 23.84        38.8 0.34            152           69.1 298 
 PAM  SZ EP        050  5.39                             150    0.2010 77.4  41 
 PAM  SN ES        050 21.90                             150   -0.3810 77.4  41 
 PAM  SZ I         050 24.92        23.3 0.26            155           77.4  41 
 RUS  HZ EP        050  6.54                             143   -0.3210  102 175 
 RUS  HN ES        050 24.98                             143   -0.2610  102 175 
 RUS  HZ I         050 26.65        16.5 0.28            143            102 175 
 PTB  HZ EP        050  9.18                             132   -0.71 9  146 258 
 PTB  HN ES        050 29.92                             132   -0.72 9  146 258 
 PTB  HZ I         050 32.89        16.1 0.14            131            146 258 
 TAM  HZ EP        050 11.02                             129    0.11 9  157 105 
 TAM  HN ES        050 32.51                             129    0.04 9  157 105 
 OCA  HN ES        050 32.62                             129   -0.40 9  159 354 
 SPBC HZ EP        050 11.57                             128    0.01 9  163 218 
 SPBC HN ES        050 33.61                             128   -0.01 9  163 218 
 SPBC HZ I         050 39.54        27.4 0.48            128            163 218 
 NOR  HZ EP        050 18.57                             118   -0.21 8  234 234 
 NOR  HN ES        050 45.89                             118   -0.58 8  234 234 
 NOR  HZ I         050 52.08        16.0 0.22            118            234 234 
 CHI  HZ EP        050 20.95                             116    0.04 8  250 195 
 CHI  HN ES        050 50.28                             116    0.01 8  250 195 
 CHI  HZ I         050 53.66        12.9 0.62            117            250 195 
 ROSC BZ EP   4    050 22.46                             116    1.19 0  253 211 
 ROSC BN ES   4    050 52.89                             116    1.98 0  253 211 
 ROSC BZ I         050 56.95        29.0 0.45            117            253 211 
 GUY2CHZ EP        050 26.80                             112    0.11 7  301 234 
 GUY2CHN ES        051  0.14                             112   -0.41 7  301 234 
 GUY2CHZ I         051  8.91        10.3 0.60                           301 234 
 CBOC HZ EP        050 30.65                             109    0.71 7  332 252 
 CBOC HN ES        051  6.02                             109   -0.31 7  332 252 
 CBOC HZ I         051 19.02         3.1 0.40            110            332 252 
 TOL  SZ EP        050 32.04                             109    0.65 7  343 224 
 TOL  SN ES        051 10.34                             109    1.41 7  343 224 
 TOL  SZ I         051 18.94        20.8 0.34            109            343 224 
 PRA  HZ EP        050 36.53                             106   -0.21 6  392 209 
 PRA  HN ES        051 18.90                             106    0.46 6  392 209 
 PRA  HZ I         051 24.76        12.5 0.72            107            392 209 
                                                                                
