 2015  9 6 0546 44.1 L   6.698 -73.129135.9  RSN  6 0.6 1.2LRSN                1
 GAP=143        1.65       8.1     8.7 11.6 -0.1504E+01  0.3520E+01 -0.2896E+01E
 Epicentro: JORDAN - SANTANDER                                                 3
 ACTION:UPD 15-10-28 16:24 OP:cam  STATUS:               ID:20150906054644 L   I
 OLDACT:DUP 15-09-06 15:36 OP:stll STATUS:               ID:20150906053751d    3
 2015-09-06-0537-48M.COL___358                                                 6
 STAT SP IPHASW D HRMM SECON CODA AMPLIT PERI AZIMU VELO AIN AR TRES W  DIS CAZ7
 BAR2 EZ EP        547  2.70                             174    0.3210 13.1 207 
 BAR2 EZ ES        547 17.29                             174    0.6610 13.1 207 
 BAR2 EZ I         547 18.87         4.6 0.26            172           13.1 207 
 BRR  HZ EP        547  4.16                             148   -0.5010 78.7 305 
 BRR  HN ES        547 20.81                             148    0.1210 78.7 305 
 PAM  EZ EP        547  5.77                             146   -0.0310 85.3  34 
 PAM  EZ I         547  5.98         2.4 0.22            149           85.3  34 
 RUS  HZ EP        547  6.78                             145    0.7010 89.2 177 
 RUS  HN ES        547 21.82                             145   -1.3910 89.2 177 
 RUS  HZ I         547 22.93         2.7 0.42            146           89.2 177 
 PTB  HZ EP        547  9.68                             130   -0.61 9  148 263 
 PTB  HN ES        547 30.40                             130   -0.31 9  148 263 
 PTB  HZ I         547 33.46         2.0 0.58            129            148 263 
 SPBC HZ EP        547 11.47                             128    0.32 9  156 222 
 SPBC HN ES        547 33.02                             128    0.77 9  156 222 
 SPBC HZ I         547 36.10         4.5 0.12            128            156 222 
                                                                                
