 2014  8 6 0057  0.2 L   6.767 -73.183141.3  RSN 14 0.3 1.7LRSN                1
 GAP=133        0.71       2.1     2.8  4.3 -0.1219E+01  0.2307E+01  0.7416E+00E
 Epicentro: LOS SANTOS - SANTANDER                                             3
 ACTION:UPD 14-09-15 21:47 OP:nd   STATUS:               ID:20140806005700 L   I
 OLDACT:REG 14-08-06 12:42 OP:spq  STATUS:               ID:20140806004816     3
 2014-08-06-0048-16M.COL___254                                                 6
 STAT SP IPHASW D HRMM SECON CODA AMPLIT PERI AZIMU VELO AIN AR TRES W  DIS CAZ7
 BAR2 SZ ES   1    057 34.15                             172    0.10 7 19.3 180 
 BAR2 SZ I         057 36.11        10.4 0.42            171           19.3 180 
 BRR  HZ EP        057 21.03                             152    0.2610 69.5 303 
 BRR  HE ES        057 37.32                             152    0.5010 69.5 303 
 BRR  HZ I         057 44.92         7.5 0.21            151           69.5 303 
 PAM  SZ EP        057 22.16                             148   -0.1310 82.9  40 
 PAM  SE ES   1    057 39.01                             148   -0.50 7 82.9  40 
 PAM  SZ I         057 41.48         6.4 0.54            154           82.9  40 
 RUS  HZ EP        057 23.53                             144    0.2510 97.3 173 
 RUS  HE ES   1    057 41.01                             144   -0.27 7 97.3 173 
 RUS  HZ I         057 44.54         5.8 0.50            147           97.3 173 
 PTB  HZ EP        057 26.07                             132   -0.30 9  143 260 
 PTB  HE ES        057 46.62                             132   -0.17 9  143 260 
 PTB  HZ I         057 49.78         6.5 0.12            133            143 260 
 SPBC HZ EP        057 27.72                             129   -0.12 9  158 219 
 SPBC HN ES        057 49.31                             129   -0.09 9  158 219 
 SPBC HZ I         057 55.32         8.3 0.20            131            158 219 
 OCA  HN ES        057 50.69                             128    0.16 9  163 355 
 OCA  HZ I         057 55.22         4.8 0.16            131            163 355 
 ZAR  HZ EP        057 32.51                             122    0.40 9  202 294 
 ZAR  HN ES        057 56.22                             122   -0.78 9  202 294 
 ZAR  HZ I         058  3.55         4.8 0.24            123            202 294 
 NOR  HZ EP   1    057 35.09                             118    0.01 6  229 235 
 NOR  HN ES        058  2.46                             118    0.17 8  229 235 
 NOR  HZ I         058  7.60         4.7 0.18            120            229 235 
 CHI  HZ EP   1    057 37.34                             117    0.19 6  244 194 
 CHI  HN ES   1    058  6.04                             117    0.06 6  244 194 
 CHI  HZ I         058 12.58         3.1 0.24            119            244 194 
 SML  HZ EP        057 36.70                             116   -0.06 8  245 337 
 SML  HN ES   2    058  5.38                             116    0.10 4  245 337 
 SML  HZ I         058  9.00        10.9 0.10            119            245 337 
 HEL  HN ES   1    058 10.68                             114    0.27 6  267 256 
 HEL  HZ I         058 17.73         3.7 0.28            116            267 256 
 GUY2CHE ES   1    058 16.75                             112    0.40 5  296 235 
 GUY2CHZ I         058 25.79         2.7 0.30                           296 235 
 TOL  SZ EP   4    057 48.88                             109    1.24 0  338 225 
 TOL  SE ES   1    058 23.98                             109   -0.67 5  338 225 
 TOL  SZ I         058 33.24         4.7 0.49            111            338 225 
                                                                                
