 2013  6 6 0146 34.3 L   6.702 -73.127127.4  RSN  5 0.4 1.9LRSN                1
 GAP=173        0.80      12.0     7.6 13.0 -0.7339E+02 -0.1232E+01  0.4724E+02E
 Epicentro: JORDAN - SANTANDER                                                 3
 ACTION:UPD 14-01-08 09:52 OP:ep   STATUS:               ID:20130606014634 L   I
 OLDACT:UP  13-06-06 11:09 OP:mh   STATUS:               ID:20130606014001d    3
 OLDACT:DUP 13-06-06 11:05 OP:mh   STATUS:               ID:20130606014001d    3
 OLDACT:REG 13-06-06 09:28 OP:mh   STATUS:               ID:20130606014000     3
 2013-06-06-0140-00M.COL___257                                                 6
 STAT SP IPHASW D HRMM SECON CODA AMPLIT PERI AZIMU VELO AIN AR TRES W  DIS CAZ7
 BAR2 SZ ES   2    147  4.79                             173   -0.24 5 13.6 207 
 BRR  HE ES   2    147 10.12                             147    0.75 5 78.7 305 
 BRR  HE I         147 11.19        22.0 0.20            143           78.7 305 
 PAM  SZ EP   1    146 54.95                             145   -0.18 7 84.8  34 
 PAM  SN ES        147 11.43                             145    0.0710 84.8  34 
 PAM  SN I         147 12.91        18.0 0.48            144           84.8  34 
 PTB  HN ES        147 19.42                             128   -0.42 9  148 263 
 PTB  HN I         147 22.15         9.5 0.28            127            148 263 
 NOR  HN ES   1    147 36.02                             115    0.74 6  230 237 
                                                                                
