 2011 12 6 0142 36.4 L   6.729 -73.107142.1  RSN  5 0.3 1.4LRSN                1
 GAP=145        0.66       4.3     6.9  6.4  0.3567E+00 -0.2015E+01 -0.4713E+01E
 Epicentro: JORDAN - SANTANDER                                                 3
 ACTION:UPD 12-07-13 16:14 OP:ep   STATUS:               ID:20111206014236 L   I
 2011-12-06-0140-00M.COL___183                                                 6
 STAT SP IPHASW D HRMM SECON CODA AMPLIT PERI AZIMU VELO AIN AR TRES W  DIS CAZ7
 BAR2 SZ EP   1    142 54.74                             173   -0.70 7 17.2 209 
 BAR2 SZ ES   1    143 10.00                             173   -0.32 7 17.2 209 
 BAR2 SZ I         143 11.85         7.2 0.25                          17.2 209 
 BRR  HZ EP   1    142 57.76                             149    0.18 7 78.8 302 
 BRR  HZ I         143  8.17         7.0 0.35                          78.8 302 
 BRR  HN ES   1    143 14.29                             149    0.17 7 78.8 302 
 PAM  SZ EP   1    142 58.73                             149    0.31 7 81.2  34 
 PAM  SZ I         142 59.13         1.9 0.22                          81.2  34 
 PAM  SN ES   1    143 15.68                             149    0.05 7 81.2  34 
 RUS  HZ EP   1    142 59.23                             145    0.05 7 92.5 178 
 RUS  HN ES   1    143 17.32                             145    0.35 7 92.5 178 
 RUS  HZ I         143 17.93         3.8 0.28                          92.5 178 
 OCA  SZ EP   1    143  5.09                             127   -0.10 7  169 352 
                                                                                
