 2017  7 6 0815 32.4 L   6.729 -73.186145.0  RSN  6 0.4 1.4LRSN                1
 GAP=233        0.99       6.0     6.4  7.9  0.9033E+00  0.1388E+02 -0.4545E+01E
 Epicentro: VILLANUEVA - SANTANDER                                             3
 ACTION:UPD 17-08-30 15:30 OP:rebc STATUS:               ID:20170706081532 L   I
 OLDACT:UP  17-07-06 14:35 OP:edw  STATUS:               ID:20170706080727     3
 OLDACT:UP  17-07-06 14:35 OP:edw  STATUS:               ID:20170706080727     3
 OLDACT:REG 17-07-06 13:51 OP:edw  STATUS:               ID:20170706080727     3
 2017-07-06-0808-00M.COL___367                                                 6
 STAT SP IPHASW D HRMM SECON CODA AMPLIT PERI AZIMU VELO AIN AR TRES W  DIS CAZ7
 BAR2 EZ EP     C  815 51.51                             174   -0.2810 15.1 178 
 BAR2 EZ ES        816  7.02                             174    0.1010 15.1 178 
 BAR2 EZ I         816  8.03         5.7 0.48            175           15.1 178 
 BRR  HZ EP        815 53.35                             152   -0.1310 71.6 306 
 BRR  HN ES        816 10.25                             152    0.3210 71.6 306 
 PAM  EE ES   4    816 10.86                             148   -1.92 0 86.3  38 
 PTB  HZ EP        815 58.35                             133   -0.42 9  142 262 
 PTB  HN ES        816 18.68                             133   -0.68 9  142 262 
 PTB  HZ I         816 22.03         2.8 0.42            133            142 262 
 SPBC HN ES        816 21.91                             131    0.40 9  154 220 
 ZAR  HZ EP        816  5.44                             122    0.76 9  203 295 
 ZAR  HN ES        816 29.86                             122   -0.01 9  203 295 
 ZAR  HZ I         816 34.63         2.2 0.30            122            203 295 
 NOR  HN ES   2    816 34.77                             119    0.43 4  226 235 
                                                                                
