 2010  7 6 0244 18.4 L   6.818 -73.129136.6  RSN 11 0.4 1.8LRSN                1
 GAP=157        0.82       4.5     8.9  9.0 -0.1852E+02  0.3631E+02 -0.6740E+01E
 Epicentro: LOS SANTOS - SANTANDER                                             3
 ACTION:UPD 10-12-01 15:15 OP:pat  STATUS:               ID:20100706024418 L   I
 2010-07-06-0240-50S.COL___118                                                 6
 STAT SP IPHASW D HRMM SECON CODA AMPLIT PERI AZIMU VELO AIN AR TRES W  DIS CAZ7
 BAR2 SZ IP     D  244 36.99                             169     0.010   26 194 
 BAR2 SZ ES   2    244 51.44                             169     0.0 5   26 194 
 BRR  HZ EP        244 38.42                             150    -0.210   72 296 
 RUS  HZ EP   1    244 41.09                             141    -0.3 7  102 177 
 RUS  HZ I         244 42.19         7.2 0.13                           102 177 
 RUS  HN ES   2    244 59.64                             141     0.3 5  102 177 
 BRI  SZ EP        244 41.19                             140     0.010  106  20 
 GUE  SZ EP   1    244 42.93                             138     0.9 7  114  11 
 GRA  SZ EP        244 42.44                             135    -0.210  123  17 
 OCA  SZ EP   1    244 45.69                             128    -0.1 7  159 352 
 OCA  SZ ES   2    245  6.69                             128    -0.5 5  159 352 
 OCA  SZ I         245 10.45         9.2 0.27                           159 352 
 ROSC BZ EP   1    244 56.33                             114     0.0 6  255 211 
 HEL  HZ EP        244 58.55                             113     0.2 8  274 255 
 RREF HZ EP   1    245  5.33                             109     0.9 5  324 229 
 RREF HZ I         245 45.22         3.2 0.30                           324 229 
 PRA  HZ EP        245 11.13                             105    -0.8 6  395 210 
                                                                                
