 2014  9 6 0617 43.6 L   6.157 -73.694102.0  RSN  4 0.5 1.2LRSN                1
 GAP=183        1.07       8.0     5.5 13.9  0.1196E+02  0.1083E+02 -0.1604E+01E
 Epicentro: LA PAZ - SANTANDER                                                 3
 ACTION:UPD 14-10-03 23:02 OP:nd   STATUS:               ID:20140906061743 L   I
 OLDACT:DUP 14-09-06 16:30 OP:fm   STATUS:               ID:20140906060820d    3
 2014-09-06-0608-18M.COL___266                                                 6
 STAT SP IPHASW D HRMM SECON CODA AMPLIT PERI AZIMU VELO AIN AR TRES W  DIS CAZ7
 RUS  HE ES   1    618 14.11                             141   -0.63 7 73.6 113 
 RUS  HZ I         618 17.66         2.3 0.18            147           73.6 113 
 BAR2 SZ EP        618  1.34                             141    0.5710 74.3  50 
 BAR2 SZ ES   1    618 14.81                             141    0.61 7 74.3  50 
 BAR2 SZ I         618 15.74         9.0 0.32            149           74.3  50 
 PTB  HZ EP   1    618  2.18                             133    0.05 7 94.4 297 
 PTB  HN ES        618 16.78                             133    0.1610 94.4 297 
 PTB  HZ I         618 20.34         2.6 0.16            139           94.4 297 
 BRR  HZ EP   1    618  2.48                             130   -0.60 7  105 359 
 BRR  HN ES        618 17.89                             130   -0.4210  105 359 
 BRR  HZ I         618 18.96         3.5 0.14            138            105 359 
                                                                                
