 2013  8 6 0020 27.6 L   6.771 -73.152139.8  RSN  8 0.5 1.5LRSN                1
 GAP=137        1.23       4.9     5.6  8.9 -0.8640E+00  0.8793E+01 -0.1609E+01E
 Epicentro: LOS SANTOS - SANTANDER                                             3
 ACTION:UPD 14-01-14 08:59 OP:ep   STATUS:               ID:20130806002027 L   I
 OLDACT:REG 13-08-06 07:26 OP:jn   STATUS:               ID:20130806001959     3
 2013-08-06-0019-59M.COL___270                                                 6
 STAT SP IPHASW D HRMM SECON CODA AMPLIT PERI AZIMU VELO AIN AR TRES W  DIS CAZ7
 BAR2 SZ EP   1    020 46.30                             171   -0.15 7 20.1 189 
 BAR2 SZ ES        021  0.86                             171   -0.2910 20.1 189 
 BAR2 SZ I         021  3.01         7.1 0.22            171           20.1 189 
 GIR2 SZ EP   1    020 46.17                             165   -0.48 7 34.3 352 
 GIR2 SZ I         021  3.18         9.7 0.40            165           34.3 352 
 BRR  HZ EP        020 48.41                             151    0.2510 72.1 301 
 BRR  HN ES        021  5.10                             151    0.9010 72.1 301 
 BRR  HZ I         021  5.79        11.0 0.32            150           72.1 301 
 PAM  SZ EP        020 49.52                             149    0.1510 80.3  38 
 PAM  SN ES        021  5.63                             149   -0.7210 80.3  38 
 PAM  SZ I         021  8.35        11.4 0.56            147           80.3  38 
 RUS  HZ EP        020 50.79                             143    0.2510 97.5 175 
 RUS  HN ES        021  8.91                             143    0.4810 97.5 175 
 RUS  HZ I         021 11.57         1.8 0.36            141           97.5 175 
 PTB  HZ EP        020 53.72                             131   -0.24 9  146 260 
 PTB  HN ES        021 13.68                             131   -0.85 9  146 260 
 PTB  HZ I         021 19.80         5.7 0.46            129            146 260 
 OCA  HN ES        021 18.03                             128    0.32 9  163 354 
 ZAR  HN ES   1    021 24.84                             121    0.07 6  205 293 
                                                                                
