 2011  9 6 0458 45.8 L   6.770 -73.044140.7  RSN  8 0.2 1.6LRSN                1
 GAP=193        0.33       2.0     3.6  3.8 -0.9884E+00  0.2387E+01  0.2012E+00E
 Epicentro: LOS SANTOS - SANTANDER                                             3
 ACTION:UPD 12-07-13 15:55 OP:ep   STATUS:               ID:20110906045845 L   I
 2011-09-06-0455-45S.COL___171                                                 6
 STAT SP IPHASW D HRMM SECON CODA AMPLIT PERI AZIMU VELO AIN AR TRES W  DIS CAZ7
 BAR2 SZ EP   1    459  4.85                             169   -0.01 7 24.9 218 
 BAR2 SZ ES   2    459 19.37                             169   -0.35 5 24.9 218 
 BAR2 SZ I         459 22.69        11.3 0.43                          24.9 218 
 BRR  HZ EP   1    459  6.88                             148   -0.23 7 82.7 297 
 BRR  HE ES   2    459 24.19                             148    0.45 5 82.7 297 
 BRR  HZ I         459 28.61         8.1 0.15                          82.7 297 
 RUS  HZ EP   2    459  8.84                             144    0.03 5 97.1 183 
 RUS  HN ES   2    459 26.90                             144    0.15 5 97.1 183 
 RUS  HZ I         459 28.87         4.8 0.38                          97.1 183 
 OCA  SZ EP   1    459 14.30                             127    0.10 7  165 349 
 OCA  SZ ES   2    459 36.37                             127    0.01 5  165 349 
 NOR  SN ES   2    459 50.11                             117   -0.20 4  242 237 
 CHI  HZ EP   2    459 23.29                             116    0.06 4  249 198 
 CHI  HN ES   2    459 52.69                             116    0.27 4  249 198 
 CHI  HZ I         459 57.91         3.5 0.36                           249 198 
 HEL  HZ EP   2    459 27.03                             113    0.13 4  282 257 
 HEL  HN ES   2    459 58.89                             113   -0.06 4  282 257 
 HEL  HZ I         5 0  3.11         3.1 0.21                           282 257 
 PRA  HZ EP   2    459 39.38                             105   -0.11 3  395 211 
 PRA  HN ES   2    5 0 21.34                             105   -0.02 3  395 211 
                                                                                
