 2016 10 6 0105 23.0 L   6.787 -73.169144.9  RSN 12 0.4 1.8LRSN                1
 GAP=134        0.90       3.6     3.8  5.4 -0.3135E+01  0.1994E+01  0.5373E+01E
 Epicentro: LOS SANTOS - SANTANDER                                             3
 ACTION:UPD 16-11-09 19:16 OP:rebc STATUS:               ID:20161006010523 L   I
 OLDACT:UP  16-10-06 14:16 OP:dnl  STATUS:               ID:20161006005724     3
 OLDACT:UP  16-10-06 14:16 OP:dnl  STATUS:               ID:20161006005724     3
 OLDACT:UP  16-10-06 14:16 OP:dnl  STATUS:               ID:20161006005724     3
 OLDACT:UP  16-10-06 14:15 OP:dnl  STATUS:               ID:20161006005724     3
 OLDACT:REG 16-10-06 13:01 OP:dnl  STATUS:               ID:20161006005724     3
 2016-10-06-0058-00M.COL___360                                                 6
 STAT SP IPHASW D HRMM SECON CODA AMPLIT PERI AZIMU VELO AIN AR TRES W  DIS CAZ7
 BAR2 EZ EP   2    1 5 42.40                             171   -0.12 5 21.6 184 
 BAR2 EZ ES        1 5 57.23                             171   -0.4910 21.6 184 
 BAR2 EZ I         1 5 59.31        10.6 0.26            171           21.6 184 
 BRR  HZ EP        1 5 44.22                             153    0.2310 69.6 301 
 BRR  HE ES        1 6  1.10                             153    0.7610 69.6 301 
 BRR  HZ I         1 6  4.06         4.9 0.14            147           69.6 301 
 PAM  EZ EP        1 5 45.29                             150   -0.0310 80.1  40 
 PAM  EN ES        1 6  2.57                             150   -0.1310 80.1  40 
 PAM  EZ I         1 6  4.49        14.7 0.52            150           80.1  40 
 RUS  HZ EP        1 5 46.48                             144   -0.1310 99.4 174 
 RUS  HE ES        1 6  5.38                             144    0.3910 99.4 174 
 RUS  HZ I         1 6  6.08         8.1 0.26            146           99.4 174 
 PTB  HZ EP        1 5 49.17                             132   -0.50 9  145 259 
 PTB  HN ES        1 6  9.94                             132   -0.50 9  145 259 
 PTB  HZ I         1 6 13.03         6.3 0.14            129            145 259 
 SPBC HZ EP   2    1 5 51.23                             129    0.03 5  160 219 
 SPBC HN ES        1 6 13.34                             129    0.17 9  160 219 
 SPBC HZ I         1 6 15.77        13.4 0.26            128            160 219 
 ZAR  HZ EP   9    1 5 53.10                             122   -2.12 0  202 293 
 ZAR  HN ES        1 6 17.80                                   -0.41 9  202 293 
 ZAR  HZ I         1 6 28.22         5.5 0.34            120            202 293 
 NOR  HZ EP   2    1 5 58.38                             119   -0.01 4  232 234 
 NOR  HE ES        1 6 26.29                             119    0.32 8  232 234 
 NOR  HZ I         1 6 28.87         5.4 0.16            117            232 234 
 CHI  HZ EP        1 6  0.40                             117   -0.06 8  247 195 
 CHI  HN ES        1 6 29.53                             117   -0.12 8  247 195 
 CHI  HZ I         1 6 33.34         4.2 0.56            117            247 195 
 HEL  HZ EP   2    1 6  4.13                             115    1.25 4  269 256 
 HEL  HN ES   2    1 6 32.81                             115   -1.15 4  269 256 
 HEL  HZ I         1 6 40.54         3.6 0.40            113            269 256 
 URE  HZ EP   4    1 6  2.33                             114   -1.52 0  282 292 
 URE  HE ES   4    1 6 33.44                             114   -2.24 0  282 292 
 URE  HZ I         1 6 46.22         2.9 0.18            112            282 292 
 GUY2CHZ EP   2    1 6  6.70                             112    0.44 4  298 235 
 GUY2CHN ES   4    1 6 41.30                             112    1.31 0  298 235 
 GUY2CHZ I         1 6 48.59         3.0 0.34                           298 235 
                                                                                
