 2016  5 6 0554  7.0 L   6.796 -73.147146.5  RSN 17 0.4 2.0LRSN                1
 GAP=119        0.88       2.4     3.0  4.3 -0.9262E+00  0.2485E+01  0.2374E+01E
 Epicentro: LOS SANTOS - SANTANDER                                             3
 ACTION:UPD 16-08-18 17:42 OP:cam  STATUS:               ID:20160506055407 L   I
 OLDACT:REG 16-05-06 13:40 OP:ak   STATUS:               ID:20160506054749     3
 2016-05-06-0547-49M.COL___286                                                 6
 STAT SP IPHASW D HRMM SECON CODA AMPLIT PERI AZIMU VELO AIN AR TRES W  DIS CAZ7
 BAR2 EZ IP     D  554 26.77                             171    0.0410 22.8 190 
 BAR2 EZ ES        554 42.07                             171   -0.0310 22.8 190 
 BAR2 EZ I         554 43.33        16.3 0.18            168           22.8 190 
 BRR  HZ IP     D  554 28.51                             153    0.2610 71.3 299 
 BRR  HN ES        554 45.23                             153    0.4210 71.3 299 
 BRR  HZ I         554 48.88        21.1 0.18            149           71.3 299 
 PAM  EZ EP        554 29.73                             151    0.3810 77.9  39 
 PAM  EN ES        554 46.70                             151   -0.0610 77.9  39 
 PAM  EZ I         554 49.41         9.6 0.48            154           77.9  39 
 RUS  HZ EP        554 30.78                             144   -0.0310  100 176 
 RUS  HN ES        554 49.02                             144   -0.3510  100 176 
 RUS  HZ I         554 51.50         8.7 0.28            144            100 176 
 PTB  HZ EP   2    554 33.46                             132   -0.56 5  147 259 
 PTB  HN ES        554 54.36                             132   -0.72 9  147 259 
 PTB  HZ I         554 56.64        12.1 0.24            130            147 259 
 OCA  HZ EP        554 35.19                             130   -0.24 9  161 353 
 OCA  HN ES        554 57.77                             130    0.18 9  161 353 
 OCA  HZ I         555  3.37        17.7 0.28            130            161 353 
 SPBC HZ EP        554 35.72                             129    0.19 9  163 219 
 SPBC HN ES        554 57.75                             129   -0.02 9  163 219 
 ZAR  HZ EP        554 38.59                             122   -0.93 9  204 292 
 ZAR  HE ES        555  4.84                             122   -0.02 9  204 292 
 ZAR  HZ I         555 10.22        11.4 0.58            121            204 292 
 NOR  HZ EP   4    554 40.22                             119   -2.53 0  234 235 
 NOR  HE ES        555 11.00                             119    0.39 8  234 235 
 NOR  HZ I         555 18.67        15.3 0.05            118            234 235 
 CHI  HZ EP        554 44.53                             117   -0.18 8  248 195 
 CHI  HN ES        555 14.21                             117    0.11 8  248 195 
 CHI  HZ I         555 16.86         5.4 0.30            117            248 195 
 ROSC BZ EP        554 45.88                             117    0.75 8  252 211 
 ROSC BN ES   4    555 16.38                             117    1.53 0  252 211 
 ROSC BZ I         555 21.66         8.4 0.30            117            252 211 
 HEL  HZ EP   2    554 46.35                             115   -0.89 4  272 256 
 HEL  HN ES        555 18.60                             115   -0.01 8  272 256 
 HEL  HZ I         555 26.61         5.5 0.32            114            272 256 
 PTGC HZ EP        554 50.14                             112   -0.73 7  308 159 
 PTGC HN ES   4    555 23.58                             112   -1.49 0  308 159 
 PTGC HZ I         555 25.99         4.1 0.54            113            308 159 
 CBOC HZ EP        554 54.64                             110    0.71 7  333 252 
 CBOC HE ES        555 30.59                             110    0.07 7  333 252 
 CBOC HZ I         555 47.85         2.0 0.56            110            333 252 
 PRA  HZ EP        555  0.60                             107    0.09 6  391 210 
 PRA  HN ES        555 42.56                             107    0.33 6  391 210 
 PRA  HZ I         555 48.53         3.2 0.10            107            391 210 
 ORTC HZ EP   2    555  1.65                             106    0.74 3  395 216 
 ORTC HE ES   2    555 42.82                             106   -0.12 3  395 216 
 ORTC HZ I         555 50.76         2.1 0.18            106            395 216 
 SJC  HZ EP   4    555  1.04                             106   -1.60 0  410 327 
 SJC  HE ES   4    555 43.14                             106   -2.89 0  410 327 
 SJC  HZ I         555 49.62         1.2 0.15            106            410 327 
                                                                                
