 2017  1 6 0554 11.5 L   6.809 -73.123146.8  RSN 16 0.6 1.9LRSN                1
 GAP= 72        1.11       4.2     3.3  5.8  0.9549E+00  0.5792E+01  0.7618E+01E
 Epicentro: LOS SANTOS - SANTANDER                                             3
 ACTION:UPD 17-05-22 15:56 OP:jn   STATUS:               ID:20170106055411 L   I
 OLDACT:UP  17-01-06 16:39 OP:and  STATUS:               ID:20170106054743d    3
 OLDACT:UP  17-01-06 16:23 OP:and  STATUS:               ID:20170106054743d    3
 OLDACT:DUP 17-01-06 16:20 OP:and  STATUS:               ID:20170106054743d    3
 OLDACT:UP  17-01-06 16:19 OP:and  STATUS:               ID:20170106054742d    3
 OLDACT:UP  17-01-06 16:19 OP:and  STATUS:               ID:20170106054742d    3
 OLDACT:DUP 17-01-06 16:17 OP:and  STATUS:               ID:20170106054742d    3
 OLDACT:UP  17-01-06 16:16 OP:and  STATUS:               ID:20170106054741     3
 OLDACT:REG 17-01-06 12:40 OP:and  STATUS:               ID:20170106054741     3
 2017-01-06-0548-00M.COL___375                                                 6
 STAT SP IPHASW D HRMM SECON CODA AMPLIT PERI AZIMU VELO AIN AR TRES W  DIS CAZ7
 BAR2 EZ EP        554 31.12                             170   -0.1710 24.9 195 
 BAR2 EZ ES        554 46.35                             170   -0.3610 24.9 195 
 BAR2 EZ I         554 48.81        24.8 0.26            168           24.9 195 
 BRR  HZ EP        554 32.90                             152    0.0410 73.0 297 
 BRR  HE ES        554 50.37                             152    0.8510 73.0 297 
 BRR  HZ I         554 54.82         8.0 0.17            150           73.0 297 
 PAM  EN ES        554 50.87                             152   -0.1110 75.0  39 
 PAM  EZ I         554 53.23         9.3 0.54            150           75.0  39 
 RUS  HZ EP        554 35.05                             144   -0.3710  101 178 
 RUS  HN ES        554 54.05                             144   -0.0210  101 178 
 RUS  HZ I         554 56.55        13.8 0.28            140            101 178 
 PTB  HZ EP        554 38.00                             132   -0.80 9  150 259 
 PTB  HN ES        554 59.26                             132   -0.82 9  150 259 
 PTB  HZ I         555  6.35        14.0 0.46            128            150 259 
 TAM  HZ IP     D  554 39.33                             131    0.27 9  153 106 
 TAM  HZ I         555  0.01         4.6 0.32            128            153 106 
 TAM  HN ES        555  1.02                             131    0.47 9  153 106 
 ZAR  HZ EP        554 43.83                             122   -0.39 8  206 292 
 ZAR  HN ES        555  9.85                             122    0.12 8  206 292 
 ZAR  HZ I         555 15.06         6.7 0.34            119            206 292 
 NOR  HZ EP        554 47.35                             118   -0.23 8  237 235 
 NOR  HN ES        555 16.13                             118    0.42 8  237 235 
 NOR  HZ I         555 20.54        10.0 0.34            115            237 235 
 CHI  HZ EP        554 49.24                             117   -0.20 8  250 196 
 CHI  HN ES        555 18.50                             117   -0.53 8  250 196 
 CHI  HZ I         555 24.23         2.3 0.21            114            250 196 
 ROSC BZ EP   3    554 51.26                             117    1.34 2  255 211 
 ROSC BN ES   3    555 22.61                             117    2.73 2  255 211 
 ROSC BZ I         555 27.01         8.3 0.35            114            255 211 
 GUY2CHZ EP        554 56.20                             112    0.74 7  304 235 
 GUY2CHN ES        555 30.76                             112    1.02 7  304 235 
 GUY2CHZ I         555 37.51         6.2 0.28                           304 235 
 PTGC HZ EP   3    554 54.32                             112   -1.09 2  309 159 
 PTGC HN ES   4    555 27.24                             112   -2.42 0  309 159 
 ELA  HZ EP   4    555  1.15                             110    2.46 0  332 230 
 ELA  HN ES   3    555 37.31                             110    1.81 2  332 230 
 ELA  HZ I         555 50.81         4.3 0.44            108            332 230 
 CBOC HZ EP        554 59.45                             110    0.68 7  336 252 
 CBOC HN ES        555 35.42                             110   -0.22 7  336 252 
 CBOC HZ I         555 51.29         1.8 0.46            107            336 252 
 ORTC HZ EP        555  6.09                             106    0.36 6  398 216 
 ORTC HE ES   3    555 50.50                             106    2.47 1  398 216 
 ORTC HZ I         555 54.40         2.8 0.54            104            398 216 
 SJC  HZ EP   9    555  5.49                             106   -1.67 0  410 327 
 SJC  HN ES        555 49.02                             106    0.12 6  410 327 
                                                                                
