 2011  2 6 0600 21.0 L   6.770 -73.196138.7  RSN  9 0.4 1.9LRSN                1
 GAP=153        0.68       3.4     7.8  6.6 -0.1403E+02  0.2210E+02 -0.5976E+01E
 Epicentro: VILLANUEVA - SANTANDER                                             3
 ACTION:UP  11-03-28 15:06 OP:jfem STATUS:               ID:20110206060021 L   I
 2011-02-06-0556-42S.COL___138                                                 6
 STAT SP IPHASW D HRMM SECON CODA AMPLIT PERI AZIMU VELO SNR AR TRES W  DIS CAZ7
 BTL  SZ EP   1    6 0 39.84                             172     0.2 8   18 334 
 BAR2 SZ EP   1    6 0 39.44                             172    -0.3 8   20 176 
 BAR2 SZ ES   1    6 0 54.48                             172     0.2 8   20 176 
 BAR2 SZ I         6 0 57.40        22.5 0.14                            20 176 
 RUS  HZ EP   1    6 0 43.35                             143    -0.5 8   98 173 
 RUS  HN ES   1    6 1  1.85                             143     0.2 8   98 173 
 RUS  HZ I         6 1  3.88         5.8 0.37                            98 173 
 GRA  SZ EP        6 0 46.15                             134     0.110  131  19 
 GRA  SZ ES   1    6 1  5.80                             134     0.2 7  131  19 
 GRA  SZ I         6 1  7.27        13.3 0.39                           131  19 
 OCA  SZ EP   1    6 0 49.08                             128     0.1 7  163 355 
 OCA  SZ ES   2    6 1  9.98                             128    -0.9 5  163 355 
 OCA  SZ I         6 1 16.07         8.3 0.17                           163 355 
 NOR  SE ES   2    6 1 22.59                             118    -0.1 4  228 234 
 CHI  HZ EP   1    6 0 57.74                             116    -0.1 6  244 194 
 CHI  HN ES   2    6 1 26.16                             116    -0.4 4  244 194 
 CHI  HZ I         6 1 34.47         3.9 0.31                           244 194 
 HEL  HZ EP   2    6 1  0.97                             114     0.8 4  266 256 
 HEL  HZ I         6 1 40.62         4.5 0.24                           266 256 
 RREF HZ EP   2    6 1  6.77                             110     0.7 4  315 229 
 RREF HN ES   2    6 1 41.16                             110    -0.1 4  315 229 
 RREF HZ I         6 1 51.94         5.8 0.40                           315 229 
                                                                                
