 2010  3 6 0229  0.9 L   6.500 -73.800 99.5  RSN  9 0.5 1.9LRSN                1
 GAP=108        1.01       4.7     4.8 10.2  0.2199E+01  0.2641E+02  0.2168E+02E
 Epicentro: SANTA HELENA DEL OPON - SANTANDER                                  3
 ACTION:UP  10-08-24 09:52 OP:vdl  STATUS:               ID:20100306022901 L   I
 2010-03-06-0225-36S.COL___101                                                 6
 STAT SP IPHASW D HRMM SECON CODA AMPLIT PERI AZIMU VELO SNR AR TRES W  DIS CAZ7
 BRR  HZ EP        229 16.84                             143    -0.210   68   8 
 BRR  HN ES        229 30.01                             143     0.410   68   8 
 BRR  HZ I         229 30.33        24.1 0.02                            68   8 
 BAR2 SZ EP        229 17.59                             143     0.110   69  82 
 BAR2 SZ ES   1    229 30.53                             143     0.1 7   69  82 
 RUS  BZ EP        229 20.49                             131    -0.310  104 130 
 RUS  BN ES   1    229 35.85                             131    -0.4 7  104 130 
 RUS  BZ I         229 36.58         9.5 0.02                           104 130 
 HEL  HZ EP        229 29.56                             113    -0.6 9  194 260 
 HEL  HN ES   1    229 52.62                             113    -0.4 6  194 260 
 HEL  HZ I         229 56.94        14.3 0.03                           194 260 
 OCA  SZ EP   1    229 30.93                             112     0.4 6  199  15 
 OCA  SZ ES   3    229 53.91                             112     0.3 2  199  15 
 OCA  SZ I         230  0.65        23.9 0.23                           199  15 
 CHI  HN ES   3    229 55.51                             112    -0.2 2  207 178 
 CHI  HZ I         230  5.26         4.2 0.37                           207 178 
 RREF BZ EP   1    229 36.44                             108    -0.1 6  246 224 
 RREF BE ES   2    230  4.67                             108     0.4 4  246 224 
 RREF BZ I         230  8.95         8.9 0.56                           246 224 
 TOL  SZ EP   1    229 40.40                             106     1.4 6  271 219 
 TOL  SZ ES   3    230  9.06                             106     0.3 2  271 219 
 PRA  HZ EP   1    229 46.17                             103     0.3 5  331 201 
 PRA  HN ES   2    230 22.06                             103     1.1 3  331 201 
 PRA  HZ I         230 30.51         3.8 0.34                           331 201 
                                                                                
