 2015  1 6 0839 51.7 L   6.098 -73.729107.1  RSN  5 0.4 1.3LRSN                1
 GAP=170        1.10       4.8     5.2  9.6 -0.3908E+01  0.1033E+02 -0.1203E+02E
 Epicentro: EL PENON - SANTANDER                                               3
 ACTION:UPD 15-03-02 15:37 OP:nd   STATUS:               ID:20150106083951 L   I
 OLDACT:REG 15-01-06 14:22 OP:cam  STATUS:               ID:20150106083820     3
 2015-01-06-0838-20M.COL___271                                                 6
 STAT SP IPHASW D HRMM SECON CODA AMPLIT PERI AZIMU VELO AIN AR TRES W  DIS CAZ7
 SPBC HZ IP     D  840  8.13                             147   -0.2010 62.3 218 
 SPBC HN ES        840 21.67                             147    0.3510 62.3 218 
 SPBC HZ I         840 23.58         5.8 0.22            152           62.3 218 
 BAR2 EZ EP        840 10.01                             140    0.0810 81.5  48 
 BAR2 EZ ES        840 24.41                             140    0.2510 81.5  48 
 BAR2 EZ I         840 25.52         5.7 0.20            143           81.5  48 
 PTB  HZ EP        840  9.92                             135   -0.7410 94.1 301 
 PTB  HN ES        840 25.29                             135   -0.1710 94.1 301 
 PTB  HZ I         840 27.99         1.9 0.10            138           94.1 301 
 BRR  HN ES        840 27.77                             130   -0.4510  112   1 
 BRR  HN I         840 32.16         7.1 0.16            133            112   1 
 ZAR  HZ EP        840 21.88                             113    0.57 9  198 321 
 ZAR  HN ES        840 45.03                             113    0.62 9  198 321 
 ZAR  HZ I         840 46.33         1.9 0.28            116            198 321 
                                                                                
