 2013  7 6 0125 39.7 L   6.794 -73.147146.0  RSN 13 0.5 2.0LRSN                1
 GAP=137        1.19       3.8     5.1  6.8 -0.2315E+01  0.9402E+01  0.1149E+01E
 Epicentro: LOS SANTOS - SANTANDER                                             3
 ACTION:UPD 13-08-12 10:35 OP:ep   STATUS:               ID:20130706012539 L   I
 OLDACT:REG 13-07-06 07:45 OP:jn   STATUS:               ID:20130706011959     3
 2013-07-06-0119-59M.COL___267                                                 6
 STAT SP IPHASW D HRMM SECON CODA AMPLIT PERI AZIMU VELO AIN AR TRES W  DIS CAZ7
 BAR2 SZ EP        125 59.29                             171   -0.1010 22.6 190 
 BAR2 SZ ES        126 14.48                             171   -0.2310 22.6 190 
 BAR2 SZ I         126 17.26        18.6 0.30            166           22.6 190 
 GIR2 SZ EP        125 59.59                             167    0.1310 31.9 351 
 BRR  HZ EP        126  1.28                             153    0.3510 71.4 299 
 BRR  HN ES        126 18.27                             153    0.8110 71.4 299 
 BRR  HZ I         126 23.02        14.5 0.28            146           71.4 299 
 PAM  SZ EP     D  126  2.22                             151    0.2010 78.0  39 
 PAM  SN ES        126 19.34                             151   -0.0610 78.0  39 
 PAM  SZ I         126 21.49         5.8 0.16            151           78.0  39 
 RUS  HZ EP        126  3.18                             144   -0.2910 99.9 176 
 RUS  HN ES        126 21.89                             144   -0.0810 99.9 176 
 RUS  HZ I         126 23.63        10.9 0.38            139           99.9 176 
 PTB  HZ EP        126  5.99                             132   -0.72 9  148 259 
 PTB  HN ES        126 27.28                             132   -0.46 9  148 259 
 PTB  HZ I         126 34.69        19.0 0.48            126            148 259 
 OCA  HN ES   1    126 30.72                             130    0.44 7  161 353 
 OCA  HZ I         126 34.22        10.9 0.32            126            161 353 
 ZAR  HE ES   1    126 37.53                             122   -0.02 6  204 292 
 NOR  HE ES        126 43.82                             119    0.55 8  234 235 
 NOR  HZ I         126 47.58        13.5 0.18            113            234 235 
 SML  HZ EP        126 16.28                             118   -0.17 8  244 335 
 SML  HN ES        126 44.14                             118   -0.93 8  244 335 
 GUY2CHZ EP   4    126 25.31                             112    2.00 0  301 235 
 GUY2CHE ES   4    126 59.35                             112    2.07 0  301 235 
 GUY2CHZ I         127  4.28         5.3 0.32                           301 235 
 RREF HZ EP        126 27.04                             111    1.21 7  321 229 
 RREF HZ I         127 10.25         7.1 0.22            107            321 229 
 PRA  HZ EP        126 33.80                             107    0.61 6  391 210 
 PRA  HN ES        127 13.89                             107   -0.99 6  391 210 
 PRA  HZ I         127 19.27         3.4 0.48            103            391 210 
                                                                                
