 2014 12 6 0054  2.0 L   6.809 -73.131148.0  RSN 14 0.5 2.1LRSN                1
 GAP=138        1.29       3.3     4.8  6.4 -0.2505E+01  0.9141E+01  0.1106E+01E
 Epicentro: LOS SANTOS - SANTANDER                                             3
 ACTION:UPD 15-02-10 17:00 OP:nd   STATUS:               ID:20141206005402 L   I
 OLDACT:REG 14-12-06 13:16 OP:carl STATUS:               ID:20141206004740     3
 2014-12-06-0047-40M.COL___312                                                 6
 STAT SP IPHASW D HRMM SECON CODA AMPLIT PERI AZIMU VELO AIN AR TRES W  DIS CAZ7
 BAR2 SZ EP        054 21.74                             170   -0.2010 24.6 193 
 BAR2 SZ ES        054 37.16                             170   -0.3210 24.6 193 
 BAR2 SZ I         054 38.58        20.5 0.46            168           24.6 193 
 BRR  HZ EP        054 23.86                             153    0.4010 72.2 297 
 BRR  HN ES        054 41.46                             153    1.2710 72.2 297 
 BRR  HZ I         054 48.68        21.6 0.34            151           72.2 297 
 PAM  SZ EP        054 24.59                             152    0.2310 75.6  39 
 PAM  SN ES        054 41.93                             152    0.1410 75.6  39 
 PAM  SZ I         054 43.97        18.8 0.56            158           75.6  39 
 RUS  HZ EP        054 25.64                             144   -0.4110  101 177 
 RUS  HN ES        054 44.56                             144   -0.2310  101 177 
 RUS  HZ I         054 47.84         6.4 0.20            147            101 177 
 PTB  HZ EP        054 28.55                             132   -0.78 9  150 259 
 PTB  HN ES        054 49.98                             132   -0.65 9  150 259 
 PTB  HZ I         054 57.18        23.2 0.40            132            150 259 
 OCA  HZ EP        054 30.88                             130    0.45 9  160 353 
 OCA  HE ES        054 52.81                             130    0.22 9  160 353 
 OCA  HZ I         054 56.80        17.3 0.42            134            160 353 
 SPBC HZ EP        054 30.79                             129   -0.06 9  165 219 
 SPBC HN ES        054 53.36                             129    0.01 9  165 219 
 SPBC HZ I         054 59.84        29.0 0.30            131            165 219 
 ZAR  HZ EP        054 33.99                             123   -0.74 8  205 292 
 ZAR  HE ES        054 59.74                             123   -0.50 8  205 292 
 ZAR  HZ I         055  6.23        15.1 0.58            124            205 292 
 SML  HZ EP        054 38.26                             118   -0.49 8  244 335 
 SML  HN ES        055  6.56                             118   -0.84 8  244 335 
 SML  HZ I         055 11.51        16.4 0.10            121            244 335 
 CHI  HZ EP        054 39.78                             118   -0.20 8  250 195 
 CHI  HE ES        055  9.73                             118    0.13 8  250 195 
 CHI  HZ I         055 16.75         3.8 0.26            120            250 195 
 HEL  HZ EP        054 43.27                             115    0.72 8  274 256 
 HEL  HE ES        055 14.88                             115    0.72 8  274 256 
 HEL  HZ I         055 21.36         6.6 0.34            117            274 256 
 GUY2CHZ EP        054 46.72                             113    0.78 7  303 235 
 GUY2CHN ES        055 20.38                             113    0.17 7  303 235 
 GUY2CHZ I         055 28.71         6.4 0.32                           303 235 
 RREF HZ EP   4    054 49.82                             111    1.35 0  324 229 
 RREF HN ES   4    055 27.03                             111    2.33 0  324 229 
 RREF HZ I         055 30.34         6.2 0.26            113            324 229 
 TOL  SZ EP        054 51.42                             110    0.85 7  345 225 
 TOL  SN ES        055 28.39                             110   -0.06 7  345 225 
 TOL  SZ I         055 34.93        13.7 0.54            112            345 225 
                                                                                
