 2016 10 6 0316 53.7 L   6.846 -73.083132.1  RSN  4 0.3 1.1LRSN                1
 GAP=247        0.64       7.0     9.4  8.6  0.4892E+02  0.7279E+01  0.7872E+01E
 Epicentro: LOS SANTOS - SANTANDER                                             3
 ACTION:UPD 16-11-09 19:16 OP:rebc STATUS:               ID:20161006031653 L   I
 OLDACT:REG 16-10-06 13:07 OP:dnl  STATUS:               ID:20161006030748     3
 2016-10-06-0308-00M.COL___360                                                 6
 STAT SP IPHASW D HRMM SECON CODA AMPLIT PERI AZIMU VELO AIN AR TRES W  DIS CAZ7
 BAR2 EZ EP   2    317 11.96                             166    0.12 5 30.1 201 
 BAR2 EZ ES        317 25.57                             166   -0.4310 30.1 201 
 BAR2 EZ I         317 28.89         5.2 0.60            154           30.1 201 
 BRR  HZ EP   2    317 13.63                             148    0.01 5 75.2 293 
 BRR  HE ES        317 29.41                             148    0.2410 75.2 293 
 BRR  HZ I         317 31.14         3.7 0.44            141           75.2 293 
 RUS  HZ EP   2    317 16.40                             139   -0.09 5  105 180 
 RUS  HN ES        317 34.55                             139    0.2710  105 180 
 RUS  HZ I         317 36.36         1.5 0.32            134            105 180 
 PTB  HZ EP   4    317 18.81                             126   -1.51 0  156 258 
 PTB  HE ES   2    317 40.68                             126   -0.41 5  156 258 
 PTB  HZ I         317 47.21         1.1 0.50            122            156 258 
                                                                                
