 2010  8 6 0930 20.5 L   6.794 -73.069138.9  RSN  7 0.2 1.5LRSN                1
 GAP=167        0.52       4.4     6.7  7.3  0.1292E+02 -0.3165E+02 -0.2145E+02E
 Epicentro: LOS SANTOS - SANTANDER                                             3
 ACTION:UP  10-09-07 10:52 OP:vdl  STATUS:               ID:20100806093020 L   I
 2010-08-06-0925-15S.COL___125                                                 6
 STAT SP IPHASW D HRMM SECON CODA AMPLIT PERI AZIMU VELO SNR AR TRES W  DIS CAZ7
 BAR2 SZ EP        930 39.49                             169     0.110   26 210 
 BAR2 SZ ES   1    930 53.87                             169    -0.2 7   26 210 
 BAR2 SZ I         930 55.80        14.2 0.95                            26 210 
 GIR2 SZ EP   1    930 39.54                             165     0.1 7   34 336 
 BRR  HZ EP        930 41.31                             148    -0.110   79 296 
 BRR  HZ I         930 42.33        21.6 0.10                            79 296 
 BRR  HN ES        930 57.84                             148     0.110   79 296 
 RUS  HN ES   1    931  1.56                             142     0.0 7  100 181 
 RUS  HZ I         931  2.78         3.7 0.28                           100 181 
 GUE  SZ EP        930 44.45                             138    -0.110  116   8 
 GUE  SZ I         930 45.13         1.7 0.01                           116   8 
 GRA  SZ EP        930 45.26                             136     0.210  124  14 
 GRA  SZ I         931  7.91         4.1 0.44                           124  14 
 OCA  SZ EP   2    930 48.06                             127    -0.4 5  162 350 
 OCA  SZ I         931 10.05         5.2 0.60                           162 350 
                                                                                
