 2012  7 6 0014 35.8 L   6.780 -73.161144.7  RSN 12 0.3 2.6LRSN                1
 GAP= 65        0.83       2.6     2.7  4.5  0.4288E+00  0.2122E+01  0.1799E+01E
 Epicentro: LOS SANTOS - SANTANDER                                             3
 ACTION:UPD 12-08-14 11:42 OP:ep   STATUS:               ID:20120706001435 L   I
 2012-07-06-0010-00M.COL___201                                                 6
 STAT SP IPHASW D HRMM SECON CODA AMPLIT PERI AZIMU VELO AIN AR TRES W  DIS CAZ7
 BAR2 SZ EP        014 55.45                             171     0.210   21 186 
 BAR2 SZ ES        015 10.49                             171     0.010   21 186 
 BAR2 SZ I         015 11.83       117.6 0.17            172             21 186 
 BRR  HZ EP        014 57.32                             152     0.510   71 301 
 BRR  HE ES   1    015 14.10                             152     0.9 7   71 301 
 BRR  HZ I         015 16.41        80.0 0.15            151             71 301 
 PAM  SZ EP        014 58.26                             150     0.210   80  39 
 PAM  SN ES   1    015 14.99                             150    -0.5 7   80  39 
 RUS  HZ EP        014 59.30                             144     0.010   98 175 
 RUS  HE ES        015 17.37                             144    -0.310   98 175 
 RUS  HZ I         015 19.58        35.4 0.47            147             98 175 
 PTB  HZ EP        015  2.16                             132    -0.4 9  146 260 
 PTB  HN ES   1    015 23.22                             132    -0.1 7  146 260 
 PTB  HZ I         015 29.18        28.3 0.20            132            146 260 
 TAM  HZ EP        015  3.64                             130     0.1 9  156 104 
 TAM  HZ I         015  4.10        33.3 0.24            134            156 104 
 TAM  HE ES        015 25.20                             130     0.1 9  156 104 
 OCA  HZ EP        015  4.02                             129    -0.2 9  162 354 
 OCA  HE ES   1    015 26.00                             129    -0.4 7  162 354 
 OCA  HZ I         015 28.92        72.4 0.30            130            162 354 
 YOP  SZ EP        015  5.98                             126     0.3 9  178 152 
 YOP  SN ES   1    015 28.32                             126    -0.6 7  178 152 
 ZAR  HZ EP   1    015  7.80                             122    -0.3 6  203 293 
 ZAR  HN ES   1    015 32.94                             122    -0.4 6  203 293 
 ZAR  HZ I         015 39.82        42.1 0.43            123            203 293 
 NOR  SZ EP        015 11.34                             119     0.1 8  232 235 
 NOR  SE ES   1    015 38.75                             119     0.0 6  232 235 
 CHI  HZ EP        015 13.45                             117     0.3 8  246 195 
 CHI  HZ I         015 14.17        21.1 0.19            119            246 195 
 CHI  HE ES   1    015 42.34                             117     0.0 6  246 195 
 PRA  HZ EP        015 28.76                             106    -0.2 6  389 210 
 PRA  HN ES        016 10.37                             106    -0.1 6  389 210 
