 2017  8 6 0705 41.3 L   6.789 -73.141143.4  RSN 10 0.6 1.3LRSN                1
 GAP=138        1.15       4.1     4.5  6.7 -0.2149E+01  0.7495E+01  0.6829E+01E
 Epicentro: LOS SANTOS - SANTANDER                                             3
 ACTION:UPD 17-09-04 20:16 OP:rebc STATUS:               ID:20170806070541 L   I
 OLDACT:REG 17-08-06 12:35 OP:osc  STATUS:               ID:20170806065745     3
 2017-08-06-0658-00M.COL___383                                                 6
 STAT SP IPHASW D HRMM SECON CODA AMPLIT PERI AZIMU VELO AIN AR TRES W  DIS CAZ7
 BAR2 EZ EP        7 6  0.20                             171   -0.4210 22.2 192 
 BAR2 EZ ES        7 6 15.49                             171   -0.2010 22.2 192 
 BAR2 EZ I         7 6 17.03         5.2 0.17            170           22.2 192 
 BRR  HZ IP     D  7 6  2.21                             152   -0.0310 72.2 299 
 BRR  HN ES        7 6 19.04                             152    0.4510 72.2 299 
 BRR  HZ I         7 6 21.43         3.5 0.14            152           72.2 299 
 PAM  EZ IP     D  7 6  3.34                             151    0.0410 78.0  39 
 PAM  EE ES        7 6 20.59                             151    0.1310 78.0  39 
 PAM  EZ I         7 6 22.22         2.2 0.20            154           78.0  39 
 RUS  HZ EP        7 6  3.93                             144   -0.7910 99.3 176 
 RUS  HN ES        7 6 23.70                             144    0.7010 99.3 176 
 RUS  HZ I         7 6 24.46         3.7 0.28            145           99.3 176 
 PTB  HZ EP        7 6  7.65                             132   -0.44 9  148 259 
 PTB  HE ES        7 6 28.96                             132   -0.03 9  148 259 
 PTB  HZ I         7 6 29.25         1.7 0.17            132            148 259 
 SPBC HZ EP        7 6  9.56                             129    0.01 9  163 219 
 SPBC HN ES        7 6 31.57                             129   -0.02 9  163 219 
 SPBC HZ I         7 6 36.40         4.9 0.16            130            163 219 
 ZAR  HZ EP   2    7 6 15.44                             122    1.76 4  205 292 
 ZAR  HE ES        7 6 38.59                             122   -0.35 9  205 292 
 ZAR  HZ I         7 6 43.88         2.6 0.12            123            205 292 
 NOR  HZ EP        7 6 16.92                             118    0.07 8  234 235 
 NOR  HE ES        7 6 44.88                             118    0.30 8  234 235 
 NOR  HZ I         7 6 49.37         2.0 0.16            119            234 235 
 CHI  HZ EP        7 6 19.11                             117    0.37 8  248 195 
 CHI  HN ES        7 6 48.27                             117    0.31 8  248 195 
 CHI  HZ I         7 6 50.33         1.2 0.08            118            248 195 
 GUY2CHZ EP   2    7 6 26.73                             112    1.98 4  301 235 
 GUY2CHE ES        7 6 57.73                             112   -0.92 7  301 235 
 GUY2CHZ I         7 7  6.21         1.6 0.24                           301 235 
                                                                                
