 2010  2 6 0656 53.2 L   6.817 -73.085145.2  RSN  6 0.1 1.5LRSN                1
 GAP=134        0.36       2.6     7.6  6.2 -0.6401E+01 -0.9167E+01 -0.2486E+01E
 Epicentro: LOS SANTOS - SANTANDER                                             3
 ACTION:UP  10-08-24 09:47 OP:vdl  STATUS:               ID:20100206065653 L   I
 2010-02-06-0654-03S.COL___094                                                 6
 STAT SP IPHASW D HRMM SECON CODA AMPLIT PERI AZIMU VELO SNR AR TRES W  DIS CAZ7
 BAR2 SZ EP   1    657 12.70                             169    -0.1 7   27 204 
 GIR2 SZ EP        657 12.89                             167     0.110   31 337 
 RUS  BZ EP        657 17.01                             143     0.010  102 180 
 RUS  BN ES   2    657 35.55                             143     0.0 5  102 180 
 RUS  BZ I         657 37.16         3.4 0.64                           102 180 
 OCA  SZ EP   1    657 21.25                             130    -0.1 7  159 351 
 CHI  HZ EP   1    657 31.44                             117     0.2 6  252 197 
 CHI  HE ES   2    658  0.56                             117    -0.4 4  252 197 
 CHI  HZ I         658  4.00         3.3 0.56                           252 197 
 SDV  BZ EP   1    657 42.39                             108    -0.1 5  354  50 
                                                                                
