 2012  5 6 0339 27.1 L   6.785 -73.108142.7  RSN  9 0.4 1.8LRSN                1
 GAP=142        0.86       4.8     4.5  7.3 -0.2794E+01  0.1240E+02  0.3335E+01E
 Epicentro: LOS SANTOS - SANTANDER                                             3
 ACTION:UP  12-07-05 12:02 OP:pat  STATUS:               ID:20120506033927 L   I
 2012-05-06-0337-36M.COL___178                                                 6
 STAT SP IPHASW D HRMM SECON CODA AMPLIT PERI AZIMU VELO SNR AR TRES W  DIS CAZ7
 BAR2 SZ EP   1    339 46.40                             170     0.1 7   23 201 
 BAR2 SZ I         339 46.59        13.3 0.22                            23 201 
 BAR2 SZ ES   1    340  0.72                             170    -0.6 7   23 201 
 PAM  SZ EP   1    339 49.39                             151     0.5 7   76  36 
 PAM  SN ES   1    340  5.55                             151    -0.3 7   76  36 
 BRR  HZ EP   1    339 48.33                             150     0.2 7   76 298 
 BRR  HZ I         339 48.66        12.5 0.12                            76 298 
 BRR  HN ES   1    340  5.23                             150     0.6 7   76 298 
 RUS  HZ EP   1    339 50.20                             144    -0.2 7   99 178 
 RUS  HZ I         339 51.04         3.9 0.22                            99 178 
 RUS  HN ES   1    340  8.92                             144     0.4 7   99 178 
 PTB  HZ EP   2    339 53.46                             130    -0.7 5  152 260 
 PTB  HE ES   1    340 14.88                             130    -0.4 7  152 260 
 PTB  HZ I         340 20.02         6.3 0.26                           152 260 
 ZAR  HZ EP   1    339 59.40                             121    -0.4 6  209 292 
 ZAR  HN ES   1    340 25.18                             121    -0.1 6  209 292 
 ZAR  HZ I         340 30.57         8.6 0.17                           209 292 
 NOR  SZ EP   1    340  2.74                             117    -0.1 6  237 235 
 NOR  SN ES   1    340 31.15                             117     0.3 6  237 235 
 HEL  HN ES   1    340 39.39                             114     0.3 6  276 256 
 HEL  HZ I         340 45.15         4.0 0.49                           276 256 
 RREF HN ES   1    340 49.19                             110    -0.2 5  324 230 
 RREF HZ I         340 58.03         2.9 0.39                           324 230 
                                                                                
