 2011  8 6 0731 36.9 L   6.854 -73.299118.9  RSN  7 0.3 2.0LRSN                1
 GAP=105        0.40       2.9     3.6  3.7  0.3195E+01  0.4533E+01  0.5333E+01E
 Epicentro: ZAPATOCA - SANTANDER                                               3
 ACTION:UPD 12-07-25 14:06 OP:epov STATUS:               ID:20110806073136 L   I
 2011-08-06-0720-00M.COL___145                                                 6
 STAT SP IPHASW D HRMM SECON CODA AMPLIT PERI AZIMU VELO AIN AR TRES W  DIS CAZ7
 BAR2 SZ EP        731 53.68                             164    0.1110 31.7 156 
 BAR2 SZ ES   1    732  6.53                             164   -0.03 7 31.7 156 
 BAR2 SZ I         732  7.88       114.7 0.36                          31.7 156 
 BRR  HZ IP     D  731 54.06                             154   -0.1110 53.6 302 
 BRR  HZ I         731 54.30        57.6 0.26                          53.6 302 
 BRR  HE ES   1    732  7.72                             154    0.09 7 53.6 302 
 PAM  SN ES   3    732 12.86                             142    0.33 2 85.3  51 
 RUS  HZ EP        731 58.75                             135   -0.0910  109 167 
 RUS  HE ES   2    732 15.67                             135   -0.27 5  109 167 
 RUS  HZ I         732 19.09         4.7 0.50                           109 167 
 NOR  SZ EP        732 10.32                             113    0.19 8  225 231 
 NOR  SN ES   2    732 35.52                             113   -0.52 4  225 231 
 CHI  HZ EP        732 13.69                             111    0.19 8  251 191 
 CHI  HE ES   2    732 41.85                             111   -0.18 4  251 191 
 CHI  HZ I         732 47.49         3.4 0.30                           251 191 
 COD  HN ES   3    732 58.72                             104   -1.17 2  341 357 
                                                                                
