 2016 12 6 0630 14.1 L   6.782 -73.148143.4  RSN  8 0.4 1.6LRSN                1
 GAP=120        0.94       4.0     3.9  5.9 -0.5101E+00  0.7736E+01  0.4814E+00E
 Epicentro: LOS SANTOS - SANTANDER                                             3
 ACTION:UPD 17-01-11 20:12 OP:rebc STATUS:               ID:20161206063014 L   I
 OLDACT:UP  16-12-06 19:59 OP:and  STATUS:               ID:20161206062744     3
 OLDACT:UP  16-12-06 19:59 OP:and  STATUS:               ID:20161206062744     3
 OLDACT:REG 16-12-06 13:36 OP:ar   STATUS:               ID:20161206062744     3
 2016-12-06-0628-00M.COL___343                                                 6
 STAT SP IPHASW D HRMM SECON CODA AMPLIT PERI AZIMU VELO AIN AR TRES W  DIS CAZ7
 BAR2 EZ EP        630 33.11                             171   -0.3310 21.3 190 
 BAR2 EZ ES        630 48.52                             171    0.0210 21.3 190 
 BRR  HZ EP        630 35.00                             152   -0.0610 71.9 300 
 BRR  HN ES        630 52.16                             152    0.7710 71.9 300 
 BRR  HZ I         630 55.42         7.8 0.30            150           71.9 300 
 PAM  EZ EP        630 35.90                             150   -0.3010 79.1  39 
 PAM  EN ES        630 53.30                             150   -0.1110 79.1  39 
 PAM  EZ I         630 55.35         9.6 0.50            154           79.1  39 
 RUS  HZ EP        630 37.65                             144    0.1410 98.6 176 
 RUS  HN ES        630 55.86                             144    0.1210 98.6 176 
 RUS  HZ I         630 57.07         6.0 0.34            146           98.6 176 
 PTB  HZ EP        630 40.57                             132   -0.27 9  147 260 
 PTB  HN ES        631  1.03                             132   -0.65 9  147 260 
 PTB  HZ I         631  6.66         2.4 0.17            131            147 260 
 ZAR  HZ EP        630 46.91                             122    0.44 9  205 293 
 ZAR  HE ES        631 11.55                             122   -0.14 9  205 293 
 ZAR  HZ I         631 16.87         4.6 0.20            123            205 293 
 NOR  HZ EP        630 50.27                             118    0.70 8  233 235 
 NOR  HN ES        631 17.04                             118   -0.18 8  233 235 
 NOR  HZ I         631 25.02         2.1 0.17            119            233 235 
 PTGC HZ EP   9    630 56.28                             111   -1.40 0  307 158 
 PTGC HN ES        631 30.10                             112   -0.15 7  307 158 
 SJC  HZ EP   4    631  7.51                             105   -2.28 0  411 327 
 SJC  HE ES   4    631 49.59                             105   -3.61 0  411 327 
                                                                                
