 2015 12 6 0158 21.2 L   6.814 -73.091146.7  RSN 20 0.5 2.6LRSN                1
 GAP=123        1.00       2.7     3.6  5.2 -0.2224E+01  0.3497E+01  0.1904E+01E
 Epicentro: LOS SANTOS - SANTANDER                                             3
 ACTION:UPD 16-02-04 15:02 OP:cam  STATUS:               ID:20151206015821 L   I
 OLDACT:UP  15-12-06 14:00 OP:mh   STATUS:               ID:20151206015744     3
 OLDACT:UP  15-12-06 14:00 OP:mh   STATUS:               ID:20151206015744     3
 OLDACT:UP  15-12-06 13:56 OP:mh   STATUS:               ID:20151206015744     3
 OLDACT:REG 15-12-06 12:03 OP:mh   STATUS:               ID:20151206015744     3
 2015-12-06-0157-44M.COL___325                                                 6
 STAT SP IPHASW D HRMM SECON CODA AMPLIT PERI AZIMU VELO AIN AR TRES W  DIS CAZ7
 BAR2 EZ IP     C  158 41.08                             169    0.0810 26.5 202 
 BAR2 EZ I         159  4.32        27.2 0.50            167           26.5 202 
 PAM  EZ IP     D  158 44.08                             152    0.8610 72.4  37 
 PAM  EN ES        159  0.77                             152    0.3710 72.4  37 
 PAM  EZ I         159  2.76        76.1 0.50            150           72.4  37 
 BRR  HZ EP     C  158 43.01                             151    0.3010 75.9 295 
 BRR  HE ES        159  0.01                             151    0.5210 75.9 295 
 RUS  HZ EP        158 44.80                             144   -0.3310  102 180 
 RUS  HN ES        159  3.20                             144   -0.5910  102 180 
 RUS  HZ I         159  4.48        37.4 0.36            140            102 180 
 PTB  HZ EP   1    158 47.79                             131   -1.01 7  154 259 
 PTB  HN ES        159 10.14                             131   -0.20 9  154 259 
 PTB  HZ I         159 11.73        29.5 0.12            127            154 259 
 OCA  HZ EP        158 49.36                             130   -0.15 9  160 351 
 OCA  HN ES        159 10.95                             130   -0.65 9  160 351 
 OCA  HZ I         159 13.16        49.9 0.18            127            160 351 
 SPBC HZ EP   1    158 50.21                             128   -0.03 7  168 220 
 SPBC HN ES        159 12.53                             128   -0.37 9  168 220 
 SPBC HZ I         159 15.04        55.2 0.20            125            168 220 
 ZAR  HZ EP   1    158 54.31                             122    0.09 6  209 291 
 ZAR  HN ES        159 20.36                             122    0.38 8  209 291 
 ZAR  HZ I         159 24.90        35.9 0.28            119            209 291 
 NOR  HZ EP        158 57.72                             118    0.12 8  241 235 
 NOR  HN ES        159 26.30                             118    0.30 8  241 235 
 NOR  HZ I         159 32.28        16.9 0.16            115            241 235 
 SML  HZ EP        158 57.49                             117   -0.51 8  245 334 
 SML  HE ES        159 26.51                             117   -0.20 8  245 334 
 SML  HZ I         159 32.26        35.1 0.28            115            245 334 
 ROSC BZ EP        159  0.34                             116    0.49 8  257 212 
 ROSC BN ES   4    159 31.76                             116    1.76 0  257 212 
 ROSC BZ I         159 37.17        21.6 0.55            113            257 212 
 HEL  HZ EP        159  1.90                             114   -0.24 7  278 256 
 HEL  HN ES        159 33.59                             114   -0.50 7  278 256 
 URE  HZ EP   4    159  1.71                             113   -1.16 0  289 291 
 URE  HN ES   4    159 32.52                             113   -2.86 0  289 291 
 SOCV BZ EP   1    159  3.14                             113   -0.48 5  295  56 
 SOCV BN ES   4    159 34.32                             113   -2.39 0  295  56 
 GUY2CHZ EP   1    159  6.66                             112    1.16 5  307 235 
 GUY2CHN ES   4    159 41.51                             112    1.45 0  307 235 
 CBOC HZ EP        159  9.27                             110    0.41 7  340 252 
 CBOC HN ES   4    159 44.93                             110   -1.11 0  340 252 
 DBB  SZ EP   1    159  9.22                             109   -0.17 5  345 274 
 DBB  SZ I         159 48.30        27.6 0.68            107            345 274 
 ANIL HZ EP   4    159 31.34                             108   19.69 0  363 225 
 ANIL HE ES   4    159 52.03                             108    1.02 0  363 225 
 ANIL HZ I         159 56.89        26.4 0.34            106            363 225 
 PRA  HZ EP        159 15.10                             106   -0.15 6  396 210 
 PRA  HN ES        159 57.55                             106    0.13 6  396 210 
 PRA  HZ I         2 0  3.80         9.9 0.72            104            396 210 
 ORTC HZ EP        159 16.09                             106    0.38 6  400 217 
 ORTC HN ES        159 58.19                             106   -0.04 6  400 217 
 ORTC HZ I         2 0  3.67         7.1 0.30            104            400 217 
 SJC  HZ EP   4    159 15.86                             106   -1.17 0  411 326 
 SJC  HN ES   4    159 56.48                             106   -4.10 0  411 326 
 SJC  HZ I         2 0  0.36         7.0 0.40            103            411 326 
                                                                                
