 2015  4 6 0038 57.7 L   6.818 -73.118149.1  RSN  7 0.5 1.3LRSN                1
 GAP=139        1.08       4.7     4.9  9.7 -0.1249E+01  0.1283E+02  0.7925E+01E
 Epicentro: LOS SANTOS - SANTANDER                                             3
 ACTION:UPD 15-06-03 16:52 OP:cam  STATUS:               ID:20150406003857 L   I
 OLDACT:UP  15-04-06 17:15 OP:mh   STATUS:               ID:20150406003750     3
 OLDACT:UP  15-04-06 17:14 OP:mh   STATUS:               ID:20150406003750     3
 OLDACT:UP  15-04-06 13:51 OP:mh   STATUS:               ID:20150406003750     3
 OLDACT:UP  15-04-06 13:51 OP:mh   STATUS:               ID:20150406003750     3
 OLDACT:REG 15-04-06 12:41 OP:mher STATUS:               ID:20150406003750     3
 2015-04-06-0037-50M.COL___258                                                 6
 STAT SP IPHASW D HRMM SECON CODA AMPLIT PERI AZIMU VELO AIN AR TRES W  DIS CAZ7
 BRR  HZ EP        039 19.77                             152    0.4910 73.0 296 
 BRR  HN ES        039 36.34                             152    0.2010 73.0 296 
 BRR  HZ I         039 37.11         4.6 0.30            154           73.0 296 
 PAM  SZ EP   1    039 20.75                             152    0.71 7 74.0  39 
 PAM  SN ES        039 37.58                             152    0.0810 74.0  39 
 PAM  SZ I         039 39.07         2.6 0.20            155           74.0  39 
 RUS  HZ EP        039 21.81                             144   -0.0710  102 178 
 RUS  HN ES        039 40.42                             144   -0.3410  102 178 
 RUS  HZ I         039 42.73         2.9 0.22            144            102 178 
 PTB  HZ EP        039 24.41                             132   -0.80 9  151 258 
 PTB  HN ES        039 46.50                             132   -0.20 9  151 258 
 PTB  HZ I         039 48.05         4.3 0.44            133            151 258 
 OCA  HE ES   1    039 47.54                             131   -0.73 7  159 352 
 ZAR  HN ES        039 56.25                             123    0.05 8  206 291 
 NOR  HN ES        040  2.92                             119    0.62 8  238 235 
 NOR  HZ I         040  7.23         1.5 0.18            119            238 235 
                                                                                
