 2015  9 6 0839 39.3 L   6.828 -73.160142.0  RSN  7 0.2 1.3LRSN                1
 GAP=182        0.59       2.0     3.6  4.6  0.8743E+00 -0.3417E+00 -0.2506E+01E
 Epicentro: LOS SANTOS - SANTANDER                                             3
 ACTION:UPD 15-10-28 16:24 OP:cam  STATUS:               ID:20150906083939 L   I
 OLDACT:REG 15-09-06 13:20 OP:stll STATUS:               ID:20150906083748     3
 2015-09-06-0837-48M.COL___349                                                 6
 STAT SP IPHASW D HRMM SECON CODA AMPLIT PERI AZIMU VELO AIN AR TRES W  DIS CAZ7
 BAR2 EZ EP        839 58.49                             169   -0.0810 26.2 185 
 BAR2 EZ I         839 59.64         3.5 0.38            168           26.2 185 
 BAR2 EZ ES        840 13.69                             169    0.1110 26.2 185 
 BRR  HN ES        840 16.22                             153    0.2510 68.3 297 
 RUS  HZ EP        840  3.13                             142    0.1710  104 175 
 RUS  HN ES        840 21.34                             142   -0.0410  104 175 
 RUS  HZ I         840 22.90         2.0 0.34            141            104 175 
 PTB  HN ES        840 26.75                             131    0.10 9  147 258 
 PTB  HZ I         840 28.69         1.3 0.38            129            147 258 
 OCA  HN ES        840 28.30                             129   -0.35 9  157 354 
 SPBC HN ES        840 29.41                             128   -0.39 9  165 218 
 SPBC HZ I         840 32.46         4.0 0.26            126            165 218 
 SML  HZ EP        840 15.67                             117    0.30 8  240 335 
 SML  HN ES        840 43.37                             117   -0.11 8  240 335 
 SML  HZ I         840 47.35         2.6 0.24            116            240 335 
                                                                                
