 2011 11 6 0912 46.7 L   6.764 -73.109143.2  RSN  5 0.2 1.3LRSN                1
 GAP=143        0.35       3.0     2.9  4.1  0.1700E+01  0.9325E+00  0.2916E+01E
 Epicentro: LOS SANTOS - SANTANDER                                             3
 ACTION:UPD 12-07-13 16:08 OP:ep   STATUS:               ID:20111106091246 L   I
 2011-11-06-0909-09S.COL___175                                                 6
 STAT SP IPHASW D HRMM SECON CODA AMPLIT PERI AZIMU VELO AIN AR TRES W  DIS CAZ7
 BAR2 SZ ES   2    913 20.65                             171   -0.39 5 20.7 203 
 BAR2 SZ I         913 23.26         5.8 0.45                          20.7 203 
 BRR  HZ EP        913  7.92                             150   -0.0210 76.7 300 
 BRR  HN ES        913 24.58                             150    0.1110 76.7 300 
 BRR  HZ I         913 29.32         5.0 0.14                          76.7 300 
 PAM  SZ EP   2    913  8.71                             150   -0.02 5 78.1  35 
 PAM  SE ES   1    913 25.88                             150    0.00 7 78.1  35 
 RUS  HZ EP   1    913 10.00                             144    0.05 7 96.4 178 
 RUS  HN ES   2    913 28.13                             144    0.09 5 96.4 178 
 RUS  HZ I         913 30.02         2.3 0.36                          96.4 178 
 ZAR  HN ES   2    913 44.90                             121   -0.27 4  209 293 
 ZAR  HZ I         913 49.96         2.0 0.20                           209 293 
                                                                                
