 2011 11 6 0443 15.9 L   6.757 -73.090136.0  RSN  9 0.3 2.2LRSN                1
 GAP=146        0.54       3.1     3.9  4.4 -0.2088E+01 -0.4108E+00  0.1067E+01E
 Epicentro: LOS SANTOS - SANTANDER                                             3
 ACTION:UPD 12-07-13 16:08 OP:ep   STATUS:               ID:20111106044315 L   I
 2011-11-06-0425-00M.COL___176                                                 6
 STAT SP IPHASW D HRMM SECON CODA AMPLIT PERI AZIMU VELO AIN AR TRES W  DIS CAZ7
 BAR2 SZ EP        443 34.21                             171   -0.0710 20.8 209 
 BAR2 SZ ES   1    443 48.97                             171    0.33 7 20.8 209 
 BAR2 SZ I         443 51.45        42.2 0.74                          20.8 209 
 BTL  SZ EP   1    443 34.55                             168    0.14 7 26.5 312 
 GIR2 SZ EP        443 34.46                             164   -0.1210 37.4 342 
 PAM  SZ EP        443 37.16                             149    0.0910 77.6  34 
 PAM  SN ES   1    443 53.30                             149   -0.30 7 77.6  34 
 BRR  HZ EP        443 36.18                             148   -0.2710 78.8 299 
 BRR  HZ I         443 36.61        54.0 0.04                          78.8 299 
 BRR  HN ES        443 52.66                             148    0.1610 78.8 299 
 RUS  HZ EP   1    443 38.45                             143    0.14 7 95.6 180 
 RUS  HN ES   2    443 55.69                             143   -0.11 5 95.6 180 
 RUS  HZ I         443 59.23        15.9 0.32                          95.6 180 
 OCA  SZ EP   1    443 44.35                             126    0.36 7  166 351 
 OCA  SZ ES   2    444  5.82                             126   -0.09 5  166 351 
 OCA  SZ I         444  9.70        17.0 0.42                           166 351 
 NOR  SZ EP   2    443 50.59                             116   -0.72 4  237 236 
 NOR  SN ES   2    444 18.52                             116   -0.43 4  237 236 
 RREF HZ EP   2    444  2.66                             109    0.86 3  323 231 
                                                                                
