 2017  6 6 0322 38.3 L   6.806 -73.227144.0  RSN  6 0.3 1.3LRSN                1
 GAP=229        0.71       3.7     4.1  7.6  0.4914E+01  0.2444E+01  0.3485E+01E
 Epicentro: ZAPATOCA - SANTANDER                                               3
 ACTION:UPD 17-09-14 16:50 OP:jn   STATUS:               ID:20170606032238 L   I
 OLDACT:UP  17-06-06 14:21 OP:edw  STATUS:               ID:20170606031726     3
 OLDACT:REG 17-06-06 12:09 OP:edw  STATUS:               ID:20170606031726     3
 2017-06-06-0318-00M.COL___362                                                 6
 STAT SP IPHASW D HRMM SECON CODA AMPLIT PERI AZIMU VELO AIN AR TRES W  DIS CAZ7
 BRR  HZ EP        322 58.95                             155    0.1810 63.1 302 
 BRR  HE ES        323 14.99                             155    0.2110 63.1 302 
 RUS  HZ EP        323  1.66                             143   -0.3010  102 171 
 RUS  HN ES        323 20.51                             143    0.0710  102 171 
 RUS  HZ I         323 21.06         2.1 0.34            142            102 171 
 PTB  HN ES        323 24.74                             134    0.13 9  139 258 
 SPBC HZ EP   2    323  6.73                             130    0.58 5  158 216 
 SPBC HN ES        323 27.58                             130   -0.33 9  158 216 
 SPBC HZ I         323 30.63         3.6 0.24            129            158 216 
 ZAR  HE ES        323 33.76                             124   -0.48 9  195 293 
 NOR  HN ES        323 40.72                             119    0.36 8  228 233 
                                                                                
