 2015  3 6 0229 45.4 L   6.763 -73.142143.9  RSN 20 0.4 2.1LRSN                1
 GAP= 73        0.99       2.7     2.9  4.8 -0.4790E+00  0.3220E+01  0.1800E+01E
 Epicentro: LOS SANTOS - SANTANDER                                             3
 ACTION:UPD 15-04-30 16:23 OP:nd   STATUS:               ID:20150306022945 L   I
 OLDACT:REG 15-03-06 12:20 OP:spq  STATUS:               ID:20150306022741     3
 2015-03-06-0227-41M.COL___284                                                 6
 STAT SP IPHASW D HRMM SECON CODA AMPLIT PERI AZIMU VELO AIN AR TRES W  DIS CAZ7
 BAR2 EZ EP     D  230  4.60                             172   -0.1510 19.5 193 
 BAR2 EZ ES   1    230 19.78                             172   -0.05 7 19.5 193 
 BAR2 EZ I         230 20.86        25.4 0.18            170           19.5 193 
 BRR  HZ EP     D  230  6.69                             151    0.1910 73.6 301 
 BRR  HE ES        230 23.98                             151    1.0310 73.6 301 
 BRR  HZ I         230 24.47        18.0 0.34            149           73.6 301 
 PAM  SZ EP     D  230  7.71                             150    0.1110 80.3  37 
 PAM  SN ES        230 24.94                             150    0.0210 80.3  37 
 PAM  SZ I         230 27.42        20.0 0.45            147           80.3  37 
 RUS  HZ EP        230  8.23                             145   -0.4610 96.5 176 
 RUS  HE ES        230 26.85                             145    0.0010 96.5 176 
 RUS  HZ I         230 28.27        10.9 0.48            140           96.5 176 
 PTB  HZ EP        230 11.74                             132   -0.46 9  147 260 
 PTB  HN ES        230 32.51                             132   -0.59 9  147 260 
 PTB  HZ I         230 33.43        13.2 0.24            128            147 260 
 TAM  HZ EP     D  230 12.85                             130    0.04 9  154 104 
 TAM  HZ I         230 33.51        10.1 0.22            126            154 104 
 TAM  HE ES        230 34.58                             130    0.40 9  154 104 
 SPBC HZ EP     C  230 13.44                             129   -0.06 9  160 220 
 SPBC HN ES        230 35.07                             129   -0.34 9  160 220 
 SPBC HZ I         230 37.46        20.8 0.52            125            160 220 
 OCA  HZ EP        230 13.68                             128   -0.28 9  164 353 
 OCA  HN ES        230 35.46                             128   -0.78 9  164 353 
 OCA  HZ I         230 37.58         9.3 0.18            125            164 353 
 ZAR  HZ EP        230 18.25                             122    0.31 8  206 293 
 ZAR  HE ES        230 43.34                             122    0.03 8  206 293 
 ZAR  HZ I         230 49.51        20.2 0.46            118            206 293 
 NOR  HZ EP        230 20.91                             118    0.09 8  233 235 
 NOR  HE ES        230 48.48                             118    0.04 8  233 235 
 NOR  HZ I         230 53.64        14.7 0.34            115            233 235 
 CHI  HZ EP        230 22.40                             117   -0.19 8  245 196 
 CHI  HN ES   1    230 50.98                             117   -0.62 6  245 196 
 CHI  HZ I         230 55.79         4.1 0.28            113            245 196 
 SML  HZ EP   1    230 22.03                             117   -0.32 6  248 336 
 SML  HN ES   1    230 51.05                             117   -0.12 6  248 336 
 SML  HZ I         230 58.29         9.7 0.20            114            248 336 
 HEL  HZ EP        230 26.13                             114    0.66 8  272 257 
 HEL  HE ES   4    230 58.92                             114    2.20 0  272 257 
 HEL  HZ I         231  3.55         8.8 0.24            111            272 257 
 GUY2CHZ EP        230 29.42                             112    0.71 7  299 235 
 GUY2CHE ES   4    231  3.58                             112    1.09 0  299 235 
 GUY2CHZ I         231 10.99         9.9 0.38                           299 235 
 RREF HZ EP   4    230 33.03                             111    1.82 0  319 230 
 RREF HN ES   4    231  9.37                             111    2.43 0  319 230 
 RREF HZ I         231 13.98         6.8 0.56            108            319 230 
 CBOC HZ EP        230 32.50                             110    0.34 7  333 253 
 CBOC HN ES   4    231  7.41                             110   -1.21 0  333 253 
 CBOC HZ I         231 20.36         2.7 0.40            107            333 253 
 TOL  SZ EP        230 34.20                             109    0.90 7  341 225 
 TOL  SN ES   4    231 13.26                             109    2.61 0  341 225 
 TOL  SZ I         231 21.51         5.4 0.50            106            341 225 
 MON  HZ EP   4    230 33.41                             108   -1.26 0  357 309 
 MON  HN ES   4    231 11.49                             108   -1.61 0  357 309 
 MON  HZ I         231 13.97         2.5 0.78            105            357 309 
 PRA  HZ EP        230 38.05                             106   -0.43 6  389 210 
 PRA  HE ES   4    231 20.83                             106    0.95 0  389 210 
 PRA  HZ I         231 25.47         5.1 0.34            103            389 210 
 ORTC HZ EP   1    230 39.14                             106    0.23 4  392 217 
 ORTC HN ES   4    231 22.17                             106    1.52 0  392 217 
 ORTC HZ I         231 26.86         3.6 0.48            103            392 217 
                                                                                
