 2013  4 6 0811  8.8 L   6.733 -73.238147.9  RSN  6 0.3 1.4LRSN                1
 GAP=151        0.62       5.1     4.1  5.1  0.9957E+01  0.4548E+01  0.2852E+01E
 Epicentro: VILLANUEVA - SANTANDER                                             3
 ACTION:UPD 13-05-22 14:36 OP:EP   STATUS:               ID:20130406081108 L   I
 2013-04-06-0810-00M.COL___245                                                 6
 STAT SP IPHASW D HRMM SECON CODA AMPLIT PERI AZIMU VELO AIN AR TRES W  DIS CAZ7
 BAR2 SZ EP        811 28.45                             173   -0.0710 16.7 159 
 BAR2 SZ ES        811 43.80                             173   -0.1410 16.7 159 
 BAR2 SZ I         811 44.18         9.2 0.30            175           16.7 159 
 GIR2 SZ ES   2    811 44.15                             164   -0.44 5 38.5   7 
 BRR  HZ EP     D  811 29.90                             154    0.0110 66.8 308 
 BRR  HE ES   1    811 47.00                             154    0.62 7 66.8 308 
 BRR  HZ I         811 50.02         2.9 0.17            153           66.8 308 
 RUS  HZ EP        811 32.20                             146   -0.0910 94.5 170 
 RUS  HN ES   1    811 50.93                             146    0.29 7 94.5 170 
 PTB  HZ EP        811 35.12                             135    0.22 9  136 261 
 PTB  HN ES        811 55.00                             135   -0.29 9  136 261 
 PTB  HZ I         811 58.14         4.1 0.42            135            136 261 
 ZAR  HN ES   1    812  5.48                             124   -0.12 6  198 295 
                                                                                
