 2015  3 6 0643 41.8 L   6.773 -73.134145.0  RSN  5 0.4 1.0LRSN                1
 GAP=139        0.97       6.5     6.0  8.2 -0.3221E+01  0.3126E+01  0.2687E+01E
 Epicentro: LOS SANTOS - SANTANDER                                             3
 ACTION:UPD 15-04-30 16:23 OP:nd   STATUS:               ID:20150306064341 L   I
 OLDACT:DUP 15-03-06 16:01 OP:spq  STATUS:               ID:20150306063748d    3
 2015-03-06-0637-47M.COL___281                                                 6
 STAT SP IPHASW D HRMM SECON CODA AMPLIT PERI AZIMU VELO AIN AR TRES W  DIS CAZ7
 BAR2 EZ EP   1    644  1.26                             172   -0.03 7 20.7 195 
 BAR2 EZ ES   1    644 16.20                             172   -0.29 7 20.7 195 
 BAR2 EZ I         644 17.10         3.0 0.32            171           20.7 195 
 BRR  HZ EP        644  3.00                             152   -0.0110 73.8 300 
 BRR  HN ES        644 20.15                             152    0.5910 73.8 300 
 BRR  HZ I         644 23.53         2.6 0.48            151           73.8 300 
 PAM  SZ EP        644  4.10                             150    0.0710 78.9  37 
 PAM  SN ES   1    644 20.98                             150   -0.39 7 78.9  37 
 PAM  SZ I         644 22.76         1.2 0.37            154           78.9  37 
 RUS  HZ EP   1    644  6.11                             145    0.85 7 97.5 177 
 RUS  HN ES   1    644 23.42                             145   -0.14 7 97.5 177 
 RUS  HZ I         644 25.34         1.6 0.22            147           97.5 177 
 PTB  HZ EP        644  8.09                             132   -0.68 9  148 260 
 PTB  HE ES   1    644 29.68                             132   -0.12 7  148 260 
 PTB  HZ I         644 34.01         1.2 0.44            132            148 260 
                                                                                
