 2012  1 6 0943 24.2 L   5.864 -74.183  4.9  RSN  4 0.5 1.1LRSN                1
 GAP=195        0.84       5.6     3.3  9.4  0.3467E+01 -0.5697E+01 -0.2320E+02E
 Epicentro: FLORIAN - SANTANDER                                                3
 ACTION:UP  12-02-03 08:14 OP:REBC STATUS:               ID:20120106094324 L   I
 2012-01-06-0940-00M.COL___186                                                 6
 STAT SP IPHASW D HRMM SECON CODA AMPLIT PERI AZIMU VELO SNR AR TRES W  DIS CAZ7
 PTB  HZ EP        943 37.14                              47     0.110   81 338 
 PTB  HN ES   2    943 46.42                              47    -0.6 5   81 338 
 RUS  HZ EP   1    943 44.21                              47     0.4 7  122  88 
 RUS  HN ES   2    943 57.95                              47    -1.1 5  122  88 
 RUS  HZ I         943 59.06         2.9 0.35                           122  88 
 BRR  HZ EP   1    943 47.47                              47     0.4 7  147  21 
 BRR  HN ES   1    944  5.00                              47     0.1 7  147  21 
 HEL  HZ EP   1    943 48.09                              47    -0.3 7  153 284 
 HEL  HN ES   2    944  7.37                              47     0.1 5  153 284 
 HEL  HZ I         944  9.35         3.4 0.19                           153 284 
                                                                                
