 2016  6 6 0839 19.1 L   6.787 -73.153149.5  RSN  6 0.4 1.4LRSN                1
 GAP=136        1.15       4.6     6.0  7.7 -0.3204E+01  0.4594E+01 -0.3922E+01E
 Epicentro: LOS SANTOS - SANTANDER                                             3
 ACTION:UPD 16-07-21 22:15 OP:rebc STATUS:               ID:20160606083919 L   I
 OLDACT:UP  16-06-08 16:53 OP:nlst STATUS:               ID:20160606083919 L   3
 OLDACT:DUP 16-06-06 16:11 OP:dani STATUS:               ID:20160606082744d    3
 2016-06-06-0827-43M.COL___316                                                 6
 STAT SP IPHASW D HRMM SECON CODA AMPLIT PERI AZIMU VELO AIN AR TRES W  DIS CAZ7
 BAR2 EZ EP        839 39.26                             171    0.1110 21.8 189 
 BAR2 EZ ES        839 54.09                             171   -0.7010 21.8 189 
 BAR2 EZ I         839 55.40         5.5 0.26                          21.8 189 
 BRR  HZ EP        839 41.03                             153    0.3810 71.2 300 
 BRR  HE ES        839 58.35                             153    0.8910 71.2 300 
 PAM  EZ EP        839 42.27                             151    0.4710 79.0  39 
 PAM  EE ES        839 59.44                             151   -0.0810 79.0  39 
 PAM  EZ I         840  2.17         3.7 0.64                          79.0  39 
 RUS  HZ EP        839 43.28                             145    0.1610 99.2 176 
 RUS  HE ES        840  1.89                             145    0.0310 99.2 176 
 RUS  HZ I         840  3.95         2.1 0.20                          99.2 176 
 PTB  HZ EP        839 45.89                             133   -0.38 9  147 259 
 PTB  HN ES        840  7.19                             133   -0.28 9  147 259 
 PTB  HZ I         840 12.15         4.1 0.44                           147 259 
 OCA  HZ EP        839 47.37                             130   -0.45 9  162 353 
 OCA  HN ES        840  9.85                             130   -0.38 9  162 353 
 OCA  HZ I         840 18.46         6.4 0.32                           162 353 
                                                                                
