 2013  1 6 0743 13.1 L   6.744 -73.174141.1  RSN  5 0.5 1.6LRSN                1
 GAP=230        1.18       6.5     8.2  8.5  0.2142E+02  0.1301E+02  0.1676E+02E
 Epicentro: VILLANUEVA - SANTANDER                                             3
 ACTION:UPD 13-02-15 09:12 OP:ep   STATUS:               ID:20130106074313 L   I
 2013-01-06-0739-40M.COL___186                                                 6
 STAT SP IPHASW D HRMM SECON CODA AMPLIT PERI AZIMU VELO AIN AR TRES W  DIS CAZ7
 BAR2 SZ EP        743 31.95                             173   -0.0810 16.8 183 
 BAR2 SZ ES        743 46.84                             173    0.0410 16.8 183 
 BAR2 SZ I         743 48.10        10.5 0.18            173           16.8 183 
 BRR  HZ EP        743 33.74                             151   -0.0110 71.7 304 
 BRR  HE ES        743 50.64                             151    0.7710 71.7 304 
 BRR  HE I         743 54.19        13.2 0.16            151           71.7 304 
 RUS  HZ EP        743 36.00                             145    0.0510 94.7 174 
 RUS  HN ES        743 53.13                             145   -0.6510 94.7 174 
 RUS  HN I         743 55.38         5.1 0.20            147           94.7 174 
 PTB  HZ EP        743 38.82                             132   -0.47 9  144 261 
 PTB  HN ES        743 59.23                             132   -0.50 9  144 261 
 PTB  HN I         744  1.96         5.7 0.34            133            144 261 
 CHI  HZ EP        743 50.07                             117    0.29 8  242 195 
 CHI  HN ES        744 19.27                             117    0.86 8  242 195 
                                                                                
