 2013 11 6 0230 42.9 L   6.781 -73.157149.0  RSN  8 0.5 1.5LRSN                1
 GAP=182        1.22       4.1     6.9  8.1  0.3382E+01  0.5382E+01 -0.5342E+01E
 Epicentro: LOS SANTOS - SANTANDER                                             3
 ACTION:UPD 14-01-09 16:26 OP:ep   STATUS:               ID:20131106023042 L   I
 OLDACT:REG 13-11-06 06:32 OP:jn   STATUS:               ID:20131106023000     3
 2013-11-06-0230-00M.COL___273                                                 6
 STAT SP IPHASW D HRMM SECON CODA AMPLIT PERI AZIMU VELO AIN AR TRES W  DIS CAZ7
 BAR2 SZ EP        231  2.89                             172    0.0510 21.0 188 
 BAR2 SZ ES        231 17.71                             172   -0.7010 21.0 188 
 BAR2 SZ I         231 18.97        12.7 0.24            170           21.0 188 
 BRR  HZ EP        231  4.81                             153    0.4510 71.1 301 
 BRR  HN ES        231 21.68                             153    0.5610 71.1 301 
 BRR  HZ I         231 27.01         9.2 0.56            152           71.1 301 
 RUS  HZ EP        231  6.82                             145    0.0310 98.6 175 
 RUS  HN ES        231 25.27                             145   -0.1810 98.6 175 
 RUS  HZ I         231 26.68         2.4 0.26            146           98.6 175 
 PTB  HZ EP        231  9.54                             133   -0.41 9  146 260 
 PTB  HN ES        231 31.40                             133    0.33 9  146 260 
 PTB  HZ I         231 32.74         3.5 0.46            133            146 260 
 SPBC HZ EP        231 11.77                             130    0.39 9  161 219 
 SPBC HN ES        231 33.64                             130    0.02 9  161 219 
 SPBC HZ I         231 39.89         3.5 0.12            131            161 219 
 OCA  HE ES        231 34.75                             130    0.72 9  162 354 
 ZAR  HE ES   1    231 40.16                             123   -0.77 6  204 293 
 SML  HZ EP        231 19.71                             118   -0.11 8  245 336 
 SML  HN ES        231 47.55                             118   -1.10 8  245 336 
                                                                                
