 2014  6 6 0458 35.2 L   6.805 -73.142145.4  RSN 15 0.4 2.0LRSN                1
 GAP=137        0.98       2.5     3.7  6.0 -0.1410E+01  0.8897E+01  0.1410E+01E
 Epicentro: LOS SANTOS - SANTANDER                                             3
 OLDACT:REG 14-06-06 13:08 OP:fm   STATUS:               ID:20140606044812     3
 ACTION:UPD 14-07-01 22:51 OP:nd   STATUS:               ID:20140606045835 L   I
 OLDACT:UP  14-06-06 15:26 OP:fm   STATUS:               ID:20140606044812     3
 2014-06-06-0448-12M.COL___262                                                 6
 STAT SP IPHASW D HRMM SECON CODA AMPLIT PERI AZIMU VELO AIN AR TRES W  DIS CAZ7
 BAR2 SZ IP     C  458 54.76                             170   -0.0710 24.0 191 
 BAR2 SZ ES   1    459  9.47                             170   -0.65 7 24.0 191 
 BAR2 SZ I         459 10.88        14.1 0.30            168           24.0 191 
 PAM  SN ES        459 15.02                             151    0.3910 76.7  40 
 RUS  HZ EP        458 58.86                             144   -0.1310  101 176 
 RUS  HN ES        459 17.92                             144    0.4010  101 176 
 RUS  SZ I         459 19.82        10.2 0.50            147            101 176 
 PTB  HZ EP        459  1.36                             132   -0.86 9  148 259 
 PTB  HN ES        459 22.98                             132   -0.29 9  148 259 
 PTB  SZ I         459 28.28        14.9 0.48            132            148 259 
 OCA  HZ EP        459  2.93                             130   -0.54 9  160 353 
 OCA  HN ES        459 25.74                             130    0.25 9  160 353 
 OCA  SZ I         459 29.62        15.3 0.44            132            160 353 
 SPBC HZ EP        459  3.77                             129   -0.00 9  164 219 
 SPBC HN ES        459 26.10                             129    0.07 9  164 219 
 SPBC SZ I         459 34.07        19.8 0.28            130            164 219 
 ZAR  HZ EP        459  7.47                             122   -0.20 9  204 292 
 ZAR  HE ES        459 32.40                             122   -0.58 9  204 292 
 ZAR  SZ I         459 40.16         9.6 0.30            123            204 292 
 NOR  HZ EP        459 10.93                             118   -0.08 8  235 234 
 NOR  HN ES        459 38.80                             118   -0.12 8  235 234 
 NOR  SZ I         459 44.88         6.2 0.12            120            235 234 
 SML  HZ EP   4    459 10.49                             117   -1.31 0  243 335 
 SML  HE ES        459 41.05                             117    0.72 8  243 335 
 SML  SZ I         459 42.59        23.6 0.08            120            243 335 
 CHI  HZ EP        459 13.02                             117    0.04 8  249 195 
 CHI  HN ES        459 42.19                             117   -0.24 8  249 195 
 HEL  HZ EP   4    459 17.16                             115    1.67 0  273 256 
 HEL  HN ES        459 47.55                             115    0.66 8  273 256 
 HEL  SZ I         459 55.75         3.6 1.02            116            273 256 
 GUY2CHZ EP   4    459 20.17                             112    1.27 0  302 235 
 GUY2CHN ES        459 53.63                             112    0.67 7  302 235 
 GUY2CSZ I         5 0  1.26         6.8 0.60                           302 235 
 RREF HN ES   1    459 57.93                             111    0.45 5  322 229 
 CBOC HZ EP        459 23.10                             110    0.90 7  334 252 
 CBOC HN ES        459 59.02                             110    0.19 7  334 252 
 CBOC SZ I         5 0  1.52         2.9 1.50            112            334 252 
 TOL  SZ EP   4    459 24.99                             109    1.44 0  344 225 
 TOL  SN ES   4    5 0  3.53                             109    2.29 0  344 225 
 PRA  HZ EP        459 28.68                             106   -0.14 6  393 210 
 PRA  HN ES        5 0 10.77                             106    0.15 6  393 210 
 PRA  SZ I         5 0 13.86         4.7 1.30            109            393 210 
 ORTC HN ES   4    5 0 13.34                             106    2.01 0  396 216 
                                                                                
