 2013  8 6 0818 23.2 L   6.741 -73.179143.7  RSN  6 0.4 1.3LRSN                1
 GAP=229        1.05       5.5     6.1  7.2  0.1349E+02  0.8544E+01 -0.5826E+00E
 Epicentro: VILLANUEVA - SANTANDER                                             3
 ACTION:UPD 14-01-14 08:59 OP:ep   STATUS:               ID:20130806081823 L   I
 OLDACT:REG 13-08-06 08:06 OP:jn   STATUS:               ID:20130806080960d    3
 2013-08-06-0809-59M.COL___268                                                 6
 STAT SP IPHASW D HRMM SECON CODA AMPLIT PERI AZIMU VELO AIN AR TRES W  DIS CAZ7
 BAR2 SZ EP        818 42.17                             173   -0.2710 16.5 181 
 BAR2 SZ ES        818 57.14                             173   -0.3310 16.5 181 
 BAR2 SZ I         818 58.06         4.1 0.30            170           16.5 181 
 BRR  HZ EP        818 44.34                             152    0.2210 71.4 305 
 BRR  HE ES        819  1.27                             152    0.8110 71.4 305 
 BRR  HZ I         819  5.90         6.0 0.32            149           71.4 305 
 RUS  HZ EP        818 46.46                             145    0.1710 94.5 174 
 RUS  HN ES        819  4.01                             145   -0.3210 94.5 174 
 RUS  HZ I         819  5.53         2.5 0.24            147           94.5 174 
 PTB  HZ EP        818 49.13                             133   -0.42 9  143 261 
 PTB  HN ES        819  9.82                             133   -0.30 9  143 261 
 PTB  HZ I         819 15.13         2.9 0.16            132            143 261 
 SPBC HZ EP        818 51.26                             130    0.43 9  156 219 
 SPBC HN ES        819 12.82                             130    0.43 9  156 219 
 SPBC HZ I         819 17.03         2.8 0.20            130            156 219 
 OCA  HZ EP   4    818 48.53                             128   -3.38 0  166 355 
 OCA  HN ES   4    819 10.84                             128   -3.48 0  166 355 
 ZAR  HZ EP        818 55.47                             122    0.07 9  203 294 
 ZAR  HN ES        819 19.95                             122   -0.59 9  203 294 
 ZAR  HZ I         819 26.54         2.4 0.34            122            203 294 
                                                                                
