 2015  5 6 0828 13.6 L   6.790 -73.123152.1  RSN  7 0.5 1.4LRSN                1
 GAP=185        1.13       3.9     7.4  7.6  0.7385E+01  0.8645E+01 -0.4919E+01E
 Epicentro: LOS SANTOS - SANTANDER                                             3
 ACTION:UPD 15-09-10 22:02 OP:cam  STATUS:               ID:20150506082813 L   I
 OLDACT:REG 15-05-06 12:43 OP:drio STATUS:               ID:20150506081748     3
 2015-05-06-0817-48M.COL___276                                                 6
 STAT SP IPHASW D HRMM SECON CODA AMPLIT PERI AZIMU VELO AIN AR TRES W  DIS CAZ7
 BAR2 EZ EP        828 33.93                             171   -0.0210 22.8 197 
 BAR2 EZ ES        828 49.64                             171   -0.2010 22.8 197 
 BAR2 EZ I         828 50.87         3.4 0.36            170           22.8 197 
 BRR  HZ EP        828 35.97                             153    0.4210 73.9 298 
 BRR  HN ES        828 53.27                             153    0.5710 73.9 298 
 BRR  HZ I         828 59.15         4.1 0.66            149           73.9 298 
 RUS  HZ EP        828 38.47                             145    0.6110 99.3 177 
 RUS  HN ES        828 56.64                             145   -0.1610 99.3 177 
 RUS  HZ I         828 57.52         2.3 0.32            150           99.3 177 
 OCA  HN ES        829  4.29                             131   -0.79 9  162 352 
 SPBC HZ EP        828 41.94                             130   -0.68 9  164 220 
 SPBC HN ES        829  5.16                             130   -0.12 9  164 220 
 ZAR  HZ EP        828 46.99                             123    0.28 8  207 292 
 ZAR  HN ES        829 12.17                             123   -0.39 8  207 292 
 ZAR  HZ I         829 18.92         3.3 0.40            123            207 292 
 SML  HZ EP        828 50.50                             118   -0.28 8  246 335 
 SML  HE ES        829 20.35                             118    0.55 8  246 335 
 SML  HZ I         829 27.65         2.4 0.26            119            246 335 
                                                                                
