 2013  1 6 0258 21.7 L   6.231 -73.864 86.4  RSN  5 0.3 1.3LRSN                1
 GAP=184        0.86       4.5     3.2  7.9  0.7342E+01  0.5741E+01  0.2498E+01E
 Epicentro: LANDAZURI - SANTANDER                                              3
 ACTION:UPD 13-02-15 09:12 OP:ep   STATUS:               ID:20130106025821 L   I
 2013-01-06-0249-48M.COL___181                                                 6
 STAT SP IPHASW D HRMM SECON CODA AMPLIT PERI AZIMU VELO AIN AR TRES W  DIS CAZ7
 PTB  HZ EP        258 36.69                             136   -0.4210 73.9 298 
 PTB  HN ES        258 49.05                             136   -0.0910 73.9 298 
 PTB  HN I         258 52.66         7.3 0.26            140           73.9 298 
 BAR2 SZ EP        258 38.26                             132   -0.1710 85.3  62 
 BAR2 SZ ES        258 51.32                             132   -0.1610 85.3  62 
 BAR2 SZ I         258 52.80         7.2 0.48            138           85.3  62 
 RUS  HZ EP        258 39.93                             129    0.3310 94.1 113 
 RUS  HN ES        258 53.80                             129    0.2410 94.1 113 
 RUS  HN I         258 55.15         1.6 0.14            135           94.1 113 
 BRR  HZ EP        258 39.06                             127   -0.2910 98.4  10 
 BRR  HN ES        258 53.18                             127    0.0510 98.4  10 
 BRR  HN I         258 53.80         7.8 0.14            133           98.4  10 
 ZAR  HZ EP        258 47.85                             111   -0.14 9  178 322 
 ZAR  HN ES        259  9.28                             111    0.78 9  178 322 
 ZAR  HN I         259 10.80         5.3 0.12            115            178 322 
                                                                                
