 2011 12 6 0158 45.9 L   6.758 -73.101140.7  RSN  4 0.1 1.2LRSN                1
 GAP=144        0.31       2.1     3.2  3.5 -0.1265E+00 -0.7762E+00  0.7231E-01E
 Epicentro: LOS SANTOS - SANTANDER                                             3
 ACTION:UPD 12-07-13 16:14 OP:ep   STATUS:               ID:20111206015845 L   I
 2011-12-06-0157-43S.COL___160                                                 6
 STAT SP IPHASW D HRMM SECON CODA AMPLIT PERI AZIMU VELO AIN AR TRES W  DIS CAZ7
 BAR2 SZ ES   1    159 19.72                             171    0.10 7 20.4 206 
 BRR  HZ EP   1    159  6.90                             149    0.03 7 77.8 300 
 BRR  HN ES   1    159 23.19                             149   -0.05 7 77.8 300 
 BRR  HZ I         159 24.77         4.8 0.11                          77.8 300 
 PAM  SZ EP   1    159  7.70                             150    0.11 7 78.1  35 
 PAM  SZ I         159  8.27         4.0 0.15                          78.1  35 
 PAM  SN ES   1    159 24.45                             150   -0.09 7 78.1  35 
 RUS  HZ EP   1    159  8.67                             144   -0.10 7 95.7 179 
 RUS  HN ES   1    159 26.63                             144    0.00 7 95.7 179 
 RUS  HZ I         159 28.68         1.9 0.16                          95.7 179 
                                                                                
