 2016  5 6 0634 14.6 L   7.394 -73.158120.0  RSN  5 0.2 1.2LRSN                1
 GAP=107        0.44       2.1     5.1  6.3 -0.1120E+01 -0.4020E+01  0.9163E+00E
 Epicentro: EL PLAYON - SANTANDER                                              3
 ACTION:UPD 16-08-18 17:42 OP:cam  STATUS:               ID:20160506063414 L   I
 OLDACT:DUP 16-05-06 17:03 OP:ak   STATUS:               ID:20160506062746d    3
 OLDACT:UP  16-05-06 17:03 OP:ak   STATUS:               ID:20160506062744     3
 OLDACT:UP  16-05-06 16:54 OP:ak   STATUS:               ID:20160506062744     3
 OLDACT:REG 16-05-06 13:43 OP:ak   STATUS:               ID:20160506062744     3
 2016-05-06-0627-44M.COL___292                                                 6
 STAT SP IPHASW D HRMM SECON CODA AMPLIT PERI AZIMU VELO AIN AR TRES W  DIS CAZ7
 PAM  EE EP   2    634 32.90                             156    0.30 5 51.0  97 
 BRR  HZ EP        634 32.69                             149   -0.2310 68.9 243 
 BRR  HN ES        634 47.30                             149    0.1210 68.9 243 
 BRR  HZ I         634 47.76         3.6 0.19            150           68.9 243 
 BAR2 EZ ES        634 50.24                             142   -0.0310 88.7 182 
 BAR2 EZ I         634 51.62         3.5 0.18            142           88.7 182 
 OCA  HN ES        634 50.99                             140    0.0210 95.1 349 
 SPBC HE ES   2    635 12.75                             115    0.26 4  218 208 
                                                                                
