 2010 11 6 0126 13.3 L   6.843 -72.941141.7  RSN  6 0.4 2.1LRSN                1
 GAP=260        0.65       5.5     7.7  6.8  0.1559E+02  0.1097E+02  0.7299E+01E
 Epicentro: CEPITA - SANTANDER                                                 3
 ACTION:UP  10-12-17 16:50 OP:REBC STATUS:               ID:20101106012613 L   I
 2010-11-06-0120-00M.COL___116                                                 6
 STAT SP IPHASW D HRMM SECON CODA AMPLIT PERI AZIMU VELO SNR AR TRES W  DIS CAZ7
 BAR2 SZ EP   2    126 32.31                             164    -0.5 5   39 224 
 BAR2 SZ ES   2    126 48.67                             164     0.6 5   39 224 
 BAR2 SZ I         126 49.85        17.7 0.32                            39 224 
 BRR  HZ IP     C  126 35.21                             146     0.010   90 289 
 BRR  HZ I         126 35.54        24.9 0.09                            90 289 
 BRR  HE ES   1    126 52.02                             146    -0.2 7   90 289 
 RUS  HZ EP   1    126 37.41                             141     0.4 7  106 189 
 RUS  HN ES   1    126 55.39                             141    -0.2 7  106 189 
 HEL  HZ EP   2    126 56.34                             112     0.5 4  295 256 
 HEL  HN ES   2    127 29.20                             112     0.1 4  295 256 
 HEL  HZ I         127 31.98         6.3 0.49                           295 256 
 RREF HZ EP   2    127  1.96                             109     0.4 3  342 231 
 RREF HN ES   2    127 39.48                             109     0.2 3  342 231 
 RREF HZ I         127 47.58         4.3 0.39                           342 231 
 PRA  HZ EP   1    127  7.70                             105    -0.8 4  408 212 
 PRA  HE ES   2    127 51.25                             105    -0.3 3  408 212 
 PRA  HZ I         127 54.02         9.0 0.27                           408 212 
                                                                                
