 2011  5 6 0422  6.4 L   6.799 -73.101147.3  RSN  7 0.2 1.8LRSN                1
 GAP=142        0.64       3.2     5.8  5.6 -0.3551E+00 -0.9617E+01 -0.4882E+01E
 Epicentro: LOS SANTOS - SANTANDER                                             3
 ACTION:UP  11-06-29 08:51 OP:tino STATUS:               ID:20110506042206 L   I
 2011-05-06-0418-05S.COL___132                                                 6
 STAT SP IPHASW D HRMM SECON CODA AMPLIT PERI AZIMU VELO SNR AR TRES W  DIS CAZ7
 BAR2 SZ EP   1    422 26.18                             170    -0.1 7   25 201 
 BAR2 SZ ES   1    422 41.11                             170    -0.6 7   25 201 
 BAR2 SZ I         422 42.97        23.1 0.17                            25 201 
 PAM  SZ EP   1    422 28.71                             152     0.1 7   74  37 
 PAM  SN ES   2    422 46.14                             152     0.2 5   74  37 
 BRR  HZ EP   1    422 27.98                             151     0.0 7   76 297 
 BRR  HZ I         422 29.35        17.1 0.09                            76 297 
 BRR  HN ES        422 45.00                             151     0.210   76 297 
 RUS  HZ EP   1    422 30.30                             144     0.0 7  100 179 
 RUS  HN ES        422 49.09                             144     0.210  100 179 
 RUS  HZ I         422 50.20         3.2 0.12                           100 179 
 BRI  SZ EP   1    422 30.49                             142     0.2 7  107  18 
 BRI  SZ ES   1    422 49.02                             142     0.0 7  107  18 
 BRI  SZ I         422 53.65         9.2 0.44                           107  18 
 GRA  SZ EP        422 31.74                             138     0.110  124  15 
 GRA  SZ I         422 33.15        15.1 0.25                           124  15 
 OCA  SZ EP   1    422 34.46                             130    -0.5 7  161 351 
 OCA  SZ I         423  1.17         9.0 0.19                           161 351 
                                                                                
