 2011 12 6 0509 21.6 L   6.794 -73.053149.1  RSN 15 0.5 2.3LRSN                1
 GAP=123        0.81       3.8     4.7  5.5 -0.4628E+01  0.5602E+01  0.6090E+01E
 Epicentro: LOS SANTOS - SANTANDER                                             3
 ACTION:UPD 12-07-13 16:14 OP:ep   STATUS:               ID:20111206050921 L   I
 2011-12-06-0506-41S.COL___160                                                 6
 STAT SP IPHASW D HRMM SECON CODA AMPLIT PERI AZIMU VELO AIN AR TRES W  DIS CAZ7
 BAR2 SZ IP        5 9 41.66                             169   -0.0610 26.5 213 
 BAR2 SZ I         5 9 59.70        40.1 0.34                          26.5 213 
 GIR2 SZ EP   1    5 9 41.79                             166    0.00 7 35.1 334 
 GIR2 SZ ES   1    5 9 57.77                             166    0.24 7 35.1 334 
 PAM  SZ EP   1    5 9 44.40                             153    0.53 7 71.8  33 
 PAM  SN ES   1    510  1.27                             153    0.04 7 71.8  33 
 PAM  SZ I         510  3.85        20.9 0.34                          71.8  33 
 BRR  HZ EP   1    5 9 43.56                             150   -0.12 7 80.6 295 
 BRR  HN ES   1    510  0.84                             150   -0.04 7 80.6 295 
 BRR  HZ I         510  3.16        58.7 0.21                          80.6 295 
 RUS  HZ EP   1    5 9 45.49                             145   -0.15 7 99.8 182 
 RUS  HN ES   1    510  4.19                             145   -0.19 7 99.8 182 
 RUS  HZ I         510  5.32        15.1 0.27                          99.8 182 
 OCA  SZ EP   1    5 9 50.56                             130    0.17 7  162 350 
 OCA  SZ ES   2    510 12.40                             130   -0.43 5  162 350 
 OCA  SZ I         510 16.09        20.0 0.21                           162 350 
 YOP  SZ EP   1    5 9 51.04                             128   -0.39 7  174 156 
 CTAB SZ EP   1    5 9 58.97                             119    0.89 6  235 213 
 NOR  SZ EP   1    5 9 57.50                             118   -0.90 6  243 236 
 NOR  SN ES   1    510 26.20                             118   -0.90 6  243 236 
 ROSC BZ EP   1    510  1.07                             117    0.62 6  258 213 
 HEL  HZ EP   1    510  3.42                             114    0.33 6  282 256 
 HEL  HN ES   1    510 35.62                             114    0.19 6  282 256 
 HEL  HZ I         510 40.03        12.5 0.37                           282 256 
 GUY  SZ EP   1    510  7.36                             112    0.80 5  312 236 
 GUY  SZ I         510 48.17        18.9 0.36                           312 236 
 RREF HZ EP   1    510  8.67                             111   -0.08 5  329 231 
 RREF HN ES   1    510 46.09                             111    0.57 5  329 231 
 COD  HZ EP   1    510  9.34                             109   -0.99 5  350 353 
 COD  HZ I         510 53.92        14.0 0.40                           350 353 
 PRA  HZ EP   1    510 15.23                             107   -0.56 4  397 211 
                                                                                
