 2013  8 6 0419 39.9 L   6.791 -73.147149.2  RSN 23 0.5 2.5LRSN 3.1WRSN        1
 SPEC AVERAGE  MO 13.7 ST  5.0 OM  1.5 f0 7.55 R1.3271 AL 0.00 WI 22.6 MW  3.1 3
 SPEC SD       MO  0.6 ST  3.5 OM  0.6 f0 3.19 R3.4111 AL      WI      MW  0.4 3
 GAP= 71        0.91       2.7     3.0  3.9 -0.7297E+00  0.3210E+01  0.2404E+01E
 Epicentro: LOS SANTOS - SANTANDER                                             3
 SPEC TAM HH N MO 13.6 ST  1.3 OM  1.9 f0 2.94 R0.5286 AL 0.00 WI 11.9 MW  3.0 3
 SPEC TAM HH N T 42028 K 0.000 GD  215 VS 4.20 DE 3.20 Q0300.0 QA 0.60 VS 4.20 3
 SPEC SPBCHH Z MO 13.8 ST 12.8 OM  1.3 f0 10.0 R0.2812 AL 0.00 WI 21.1 MW  3.2 3
 SPEC SPBCHH Z T 420 7 K 0.000 GD  220 VP 7.60 DE 3.20 Q0300.0 QA 0.60 VS 4.20 3
 SPEC RUS HH Z MO 13.4 ST  5.2 OM  1.0 f0 10.0 R0.2812 AL 0.00 WI 17.1 MW  2.9 3
 SPEC RUS HH Z T 420 3 K 0.000 GD  179 VP 7.60 DE 3.20 Q0300.0 QA 0.60 VS 4.20 3
 SPEC PRA HH Z MO 13.7 ST  9.7 OM  0.9 f0 10.0 R0.2812 AL 0.00 WI 36.8 MW  3.1 3
 SPEC PRA HH Z T 42032 K 0.000 GD  418 VP 7.60 DE 3.20 Q0300.0 QA 0.60 VS 4.20 3
 SPEC ROSCBH Z MO 15.6 ST0.008 OM  3.0 f00.214 R 13.14 AL 0.00 WI 31.0 MW  4.4 3
 SPEC ROSCBH Z T 42017 K 0.000 GD  292 VP 7.60 DE 3.20 Q0300.0 QA 0.60 VS 4.20 3
 SPEC NOR HH Z MO 13.6 ST  3.6 OM  1.0 f0 7.64 R0.3681 AL 0.00 WI 24.3 MW  3.0 3
 SPEC NOR HH Z T 42014 K 0.000 GD  277 VP 7.60 DE 3.20 Q0300.0 QA 0.60 VS 4.20 3
 SPEC OCA HH Z MO 13.3 ST  3.7 OM  0.8 f0 9.72 R0.2893 AL 0.00 WI 24.7 MW  2.8 3
 SPEC OCA HH Z T 420 5 K 0.000 GD  219 VP 7.60 DE 3.20 Q0300.0 QA 0.60 VS 4.20 3
 SPEC PTB HH Z MO 13.6 ST  7.7 OM  1.1 f0 10.0 R0.2812 AL 0.00 WI 19.9 MW  3.0 3
 SPEC PTB HH Z T 420 5 K 0.000 GD  209 VP 7.60 DE 3.20 Q0300.0 QA 0.60 VS 4.20 3
 SPEC PAM SH Z MO 13.5 ST  3.2 OM  1.1 f0 8.01 R0.3511 AL 0.00 WI 16.1 MW  2.9 3
 SPEC PAM SH Z T 420 2 K 0.000 GD  168 VP 7.60 DE 3.20 Q0300.0 QA 0.60 VS 4.20 3
 SPEC HEL HH Z MO 13.6 ST  1.3 OM  0.9 f0 5.68 R0.4951 AL 0.00 WI 30.6 MW  3.0 3
 SPEC HEL HH Z T 42019 K 0.000 GD  310 VP 7.60 DE 3.20 Q0300.0 QA 0.60 VS 4.20 3
 SPEC CHI HH N MO 13.7 ST  3.3 OM  1.8 f0 3.96 R0.3924 AL 0.00 WI 30.2 MW  3.0 3
 SPEC CHI HH N T 42043 K 0.000 GD  289 VS 4.20 DE 3.20 Q0300.0 QA 0.60 VS 4.20 3
 SPEC BRR HH Z MO 13.6 ST  7.6 OM  1.2 f0 10.0 R0.2812 AL 0.00 WI 16.0 MW  3.0 3
 SPEC BRR HH Z T 420 1 K 0.000 GD  165 VP 7.60 DE 3.20 Q0300.0 QA 0.60 VS 4.20 3
 SPEC BAR2SH Z MO 13.4 ST  5.5 OM  1.1 f0 10.0 R0.2812 AL 0.00 WI 14.2 MW  2.9 3
 SPEC BAR2SH Z T 41959 K 0.000 GD  150 VP 7.60 DE 3.20 Q0300.0 QA 0.60 VS 4.20 3
 ACTION:UPD 14-01-14 08:59 OP:ep   STATUS:               ID:20130806041939 L   I
 OLDACT:UP  13-08-06 11:44 OP:jn   STATUS:               ID:20130806041748     3
 OLDACT:REG 13-08-06 08:23 OP:y    STATUS:               ID:20130806041748     3
 2013-08-06-0417-48M.COL___222                                                 6
 STAT SP IPHASW D HRMM SECON CODA AMPLIT PERI AZIMU VELO AIN AR TRES W  DIS CAZ7
 BAR2 SZ EP        419 59.93                             171   -0.0210 22.3 190 
 BAR2 SZ ES        420 15.18                             171   -0.3910 22.3 190 
 BAR2 SZ I         420 16.78        54.5 0.24            170           22.3 190 
 GIR2 SZ EP        420  0.17                             167    0.1410 32.3 351 
 GIR2 SZ ES        420 15.37                             167   -0.3410 32.3 351 
 GIR2 SZ I         420 16.67        60.4 0.12            155           32.3 351 
 BRR  HZ EP        420  1.94                             153    0.4810 71.6 299 
 BRR  HN ES        420 19.19                             153    0.9210 71.6 299 
 BRR  HZ I         420 22.24        55.9 0.14            139           71.6 299 
 PAM  SZ EP        420  3.04                             151    0.4910 78.2  39 
 PAM  SN ES        420 20.18                             151   -0.0310 78.2  39 
 PAM  SZ I         420 24.30        30.3 0.24            133           78.2  39 
 RUS  HZ EP        420  3.72                             145   -0.2210 99.6 176 
 RUS  HN ES   1    420 22.24                             145   -0.44 7 99.6 176 
 RUS  HZ I         420 25.29        19.3 0.32            131           99.6 176 
 PTB  HZ EP        420  6.57                             133   -0.57 9  147 259 
 PTB  HN ES   1    420 27.61                             133   -0.77 7  147 259 
 PTB  HZ I         420 33.74        53.0 0.50            119            147 259 
 TAM  HZ IP     C  420  8.18                             131    0.32 9  155 105 
 TAM  HZ I         420 28.96        31.1 0.24            115            155 105 
 TAM  HN ES   1    420 29.76                             131    0.11 7  155 105 
 OCA  HN ES   1    420 30.17                             130   -0.79 7  161 353 
 OCA  HZ I         420 34.60        27.1 0.34            114            161 353 
 SPBC HZ EP        420  8.65                             130    0.05 9  162 219 
 SPBC HN ES   1    420 30.78                             130   -0.20 7  162 219 
 SPBC HZ I         420 37.69        77.0 0.36            116            162 219 
 ZAR  HZ EP   1    420 12.89                             123    0.27 6  204 292 
 ZAR  HN ES   1    420 37.67                             123   -0.46 6  204 292 
 ZAR  HZ I         420 43.87        61.4 0.36            110            204 292 
 NOR  HZ EP        420 15.77                             119   -0.01 8  234 235 
 NOR  HE ES   1    420 43.96                             119    0.21 6  234 235 
 NOR  HZ I         420 50.57        36.1 0.18            108            234 235 
 SML  HZ EP   1    420 16.65                             118   -0.18 6  245 335 
 SML  HN ES   1    420 46.15                             118    0.52 6  245 335 
 CHI  HZ EP        420 17.64                             118   -0.06 8  248 195 
 CHI  HN ES   1    420 47.06                             118   -0.11 6  248 195 
 CHI  HZ I         420 53.97        13.6 0.26            106            248 195 
 ROSC BZ EP   1    420 18.57                             117    0.44 6  252 211 
 HEL  HZ EP   1    420 20.33                             115    0.06 6  272 256 
 HEL  HN ES   1    420 52.61                             115    0.86 6  272 256 
 HEL  HZ I         420 59.01        20.8 0.34            105            272 256 
 URE  HZ EP   1    420 20.82                             114   -0.37 6  284 292 
 GUY2CHZ EP   1    420 23.85                             113    0.24 5  301 235 
 GUY2CHN ES   1    420 57.72                             113    0.02 5  301 235 
 GUY2CHZ I         421  6.07        31.6 0.26                           301 235 
 RREF HZ EP        420 26.75                             111    0.62 7  321 229 
 RREF HZ I         421  9.35        28.2 0.24            102            321 229 
 DBB  SZ EP        420 27.52                             110   -0.01 7  339 274 
 COD  HZ EP   1    420 27.78                             109   -0.77 5  349 355 
 COD  HZ I         421 17.48         3.8 0.60            100            349 355 
 PRA  HZ EP        420 33.21                             107   -0.24 6  391 210 
 PRA  HN ES   1    421 15.14                             107   -0.07 4  391 210 
 PRA  HZ I         421 21.57        12.0 0.52            100            391 210 
 ORTC HZ EP        420 33.83                             107   -0.03 6  395 216 
 ORTC HZ I         421 23.27         9.3 0.20             99            395 216 
 SJC  HZ EP   1    420 34.18                             106   -1.51 4  410 327 
 SJC  HZ I         421 25.50         4.0 0.30             99            410 327 
                                                                                
