 2014  7 6 0707 19.4 L   6.794 -73.210149.5  RSN  5 0.5 1.3LRSN                1
 GAP=195        1.12       7.1     8.5  9.8  0.1583E+02 -0.8929E+00 -0.9573E+01E
 Epicentro: ZAPATOCA - SANTANDER                                               3
 ACTION:UPD 15-03-16 20:41 OP:nd   STATUS:               ID:20140706070719 L   I
 OLDACT:REG 14-07-06 13:11 OP:cma  STATUS:               ID:20140706070000     3
 2014-07-06-0700-00M.COL___279                                                 6
 STAT SP IPHASW D HRMM SECON CODA AMPLIT PERI AZIMU VELO AIN AR TRES W  DIS CAZ7
 BAR2 SZ EP        7 7 39.27                             171   -0.2310 22.6 172 
 BAR2 SZ ES        7 7 54.72                             171   -0.4310 22.6 172 
 BAR2 SZ I         7 7 55.50         4.4 0.20            171           22.6 172 
 BRR  HZ EP        7 7 41.10                             155    0.4210 65.3 302 
 BRR  HN ES        7 7 58.01                             155    0.7710 65.3 302 
 BRR  HZ I         7 8  1.07         3.3 0.32            153           65.3 302 
 RUS  HZ EP   1    7 7 43.78                             145    0.22 7  101 172 
 PTB  HZ EP   1    7 7 46.31                             134    0.23 7  141 259 
 PTB  HN ES        7 8  6.42                             134   -0.44 9  141 259 
 PTB  HZ I         7 8 10.20         2.5 0.16            134            141 259 
 SML  HE ES        7 8 23.98                             118   -0.58 8  241 337 
                                                                                
