 2013  6 6 0502  9.5 L   5.801 -73.807 96.2  RSN  4 0.4 1.5LRSN                1
 GAP=236        0.80       8.6     6.7 14.5  0.1655E+02  0.5157E+02  0.1940E+01E
 Epicentro: JESUS MARIA - SANTANDER                                            3
 ACTION:UPD 14-01-08 09:52 OP:ep   STATUS:               ID:20130606050209 L   I
 OLDACT:UP  13-06-06 13:03 OP:mh   STATUS:               ID:20130606050001d    3
 OLDACT:DUP 13-06-06 13:03 OP:mh   STATUS:               ID:20130606050001d    3
 2013-06-06-0500-00M.COL___257                                                 6
 STAT SP IPHASW D HRMM SECON CODA AMPLIT PERI AZIMU VELO AIN AR TRES W  DIS CAZ7
 RUS  HN ES   1    5 2 40.44                             137   -0.24 7 80.8  83 
 RUS  HN I         5 2 44.65         1.9 0.34            145           80.8  83 
 PTB  HZ EP   1    5 2 28.45                             127   -0.46 7  109 319 
 PTB  HE ES   2    5 2 44.76                             127    0.69 5  109 319 
 PTB  HE I         5 2 46.41         4.7 0.14            135            109 319 
 BAR2 SZ EP   1    5 2 30.21                             127    0.74 7  112  38 
 BAR2 SZ ES   1    5 2 45.09                             127    0.02 7  112  38 
 BAR2 SZ I         5 2 47.30        16.5 0.46            134            112  38 
 BRR  HZ EP   1    5 2 32.49                             119   -0.11 7  145   4 
 BRR  HN ES   1    5 2 50.34                             119   -0.30 7  145   4 
 BRR  HN I         5 2 53.11        12.4 0.18            126            145   4 
                                                                                
