 2010  6 6 0510 50.7 L   6.831 -73.141145.2  RSN  6 0.3 2.3LRSN                1
 GAP=172        0.57       3.8     6.9  5.1 -0.1114E+02  0.7551E+01 -0.2210E+01E
 Epicentro: LOS SANTOS - SANTANDER                                             3
 ACTION:UP  10-08-24 10:08 OP:vdl  STATUS:               ID:20100606051050 L   I
 2010-06-06-0508-05S.COL___111                                                 6
 STAT SP IPHASW D HRMM SECON CODA AMPLIT PERI AZIMU VELO SNR AR TRES W  DIS CAZ7
 BAR2 SZ IP        511 10.31                             169     0.010   27 190 
 BAR2 SZ ES   1    511 25.37                             169    -0.3 7   27 190 
 GIR2 SZ EP   1    511 10.19                             169     0.0 7   28 348 
 GIR2 SZ ES   1    511 25.76                             169     0.3 7   28 348 
 GRA  SZ IP        511 15.70                             138     0.110  122  18 
 GRA  SZ ES   1    511 35.14                             138     0.1 7  122  18 
 OCA  SZ EP   1    511 18.39                             130    -0.2 7  157 353 
 OCA  SZ ES   1    511 40.01                             130    -0.4 7  157 353 
 OCA  SZ I         511 45.13        24.8 0.11                           157 353 
 CHI  HZ EP   2    511 28.32                             117    -0.4 4  252 195 
 CHI  HZ I         511 30.68         8.6 0.28                           252 195 
 HEL  HZ EP   2    511 31.79                             114     0.8 4  273 255 
 HEL  HN ES   2    512  2.46                             114     0.0 4  273 255 
 HEL  HZ I         512  9.68        16.3 0.58                           273 255 
                                                                                
