 2010  2 6 0720 57.4 L   6.738 -73.040138.5  RSN  4 0.2 1.2LRSN                1
 GAP=193        0.43       3.7    25.1  4.9  0.3894E+02  0.4411E+01  0.9328E+00E
 Epicentro: ARATOCA - SANTANDER                                                3
 ACTION:UP  10-08-24 09:47 OP:vdl  STATUS:               ID:20100206072057 L   I
 2010-02-06-0718-50S.COL___093                                                 6
 STAT SP IPHASW D HRMM SECON CODA AMPLIT PERI AZIMU VELO SNR AR TRES W  DIS CAZ7
 BAR2 SZ EP        721 15.94                             170    -0.210   23 224 
 BAR2 SZ ES   1    721 30.75                             170     0.0 7   23 224 
 RUS  BZ EP   1    721 20.03                             144     0.1 7   94 183 
 RUS  BZ I         721 21.14         2.6 0.11                            94 183 
 RUS  BE ES   1    721 37.64                             144     0.1 7   94 183 
 OCA  SZ ES   2    721 48.58                             126     0.3 5  169 349 
 CHI  HZ EP   1    721 34.39                             116     0.0 6  245 198 
 CHI  HZ I         721 39.53         1.0 0.73                           245 198 
                                                                                
