 2011  9 6 0548 19.8 L   6.708 -73.206155.1  RSN  4 0.2 1.4LRSN                1
 GAP=220        0.40       8.8    10.0  8.9  0.7295E+02 -0.2763E+02 -0.2632E+02E
 Epicentro: VILLANUEVA - SANTANDER                                             3
 ACTION:UPD 12-07-13 15:55 OP:ep   STATUS:               ID:20110906054819 L   I
 2011-09-06-0544-36S.COL___171                                                 6
 STAT SP IPHASW D HRMM SECON CODA AMPLIT PERI AZIMU VELO AIN AR TRES W  DIS CAZ7
 BAR2 SZ EP   1    548 40.18                             175   -0.24 7 13.1 169 
 BAR2 SZ I         548 40.64         3.8 0.40                          13.1 169 
 BRR  HZ EP   1    548 42.14                             154    0.15 7 71.2 308 
 BRR  HZ I         548 42.57         5.6 0.11                          71.2 308 
 BRR  HN ES   2    548 59.40                             154    0.12 5 71.2 308 
 RUS  HZ EP   2    548 44.12                             148    0.24 5 91.2 171 
 RUS  HN ES   2    549  2.63                             148   -0.01 5 91.2 171 
 RUS  HZ I         549  3.92         1.7 0.45                          91.2 171 
 ZAR  HN ES   2    549 18.15                             125   -0.18 4  202 296 
 ZAR  HZ I         549 25.24         4.1 0.24                           202 296 
                                                                                
