 2013 11 6 0754 58.0 L   6.818 -73.159147.9  RSN  5 0.5 1.3LRSN                1
 GAP=182        1.22       5.7     8.2 10.2  0.9586E+01  0.4762E+01  0.1609E+01E
 Epicentro: LOS SANTOS - SANTANDER                                             3
 ACTION:UPD 14-01-09 16:26 OP:ep   STATUS:               ID:20131106075458 L   I
 OLDACT:REG 13-11-06 06:48 OP:jn   STATUS:               ID:20131106075000     3
 2013-11-06-0750-00M.COL___273                                                 6
 STAT SP IPHASW D HRMM SECON CODA AMPLIT PERI AZIMU VELO AIN AR TRES W  DIS CAZ7
 BAR2 SZ EP        755 18.16                             170    0.2910 25.1 186 
 BAR2 SZ ES        755 32.82                             170   -0.5910 25.1 186 
 BAR2 SZ I         755 34.91         6.4 0.38            169           25.1 186 
 BRR  HN ES        755 36.74                             154    0.9610 68.9 298 
 RUS  HZ EP        755 22.24                             144    0.1810  103 175 
 RUS  HN ES        755 40.90                             144    0.0310  103 175 
 RUS  HZ I         755 41.92         1.9 0.18            144            103 175 
 PTB  HZ EP        755 24.86                             133   -0.14 9  147 258 
 PTB  HN ES        755 45.64                             133   -0.45 9  147 258 
 PTB  HZ I         755 48.06         3.3 0.16            133            147 258 
 OCA  HN ES        755 47.87                             130   -0.41 9  158 354 
                                                                                
