 2010  1 6 0759 25.8 L   6.808 -73.062140.0  RSN  7 0.3 1.9LRSN                1
 GAP=191        0.69       3.3     7.6  5.6 -0.2146E+01  0.1330E+02  0.3404E+01E
 Epicentro: LOS SANTOS - SANTANDER                                             3
 ACTION:UP  10-08-24 09:42 OP:vdl  STATUS:               ID:20100106075925 L   I
 2010-01-06-0757-40S.COL___096                                                 6
 STAT SP IPHASW D HRMM SECON CODA AMPLIT PERI AZIMU VELO SNR AR TRES W  DIS CAZ7
 BAR2 SZ IP        759 45.13                             168     0.310   27 209 
 BAR2 SZ ES   1    759 59.43                             168    -0.2 7   27 209 
 GIR2 SZ IP        759 45.06                             166     0.210   33 334 
 GIR2 SZ ES   1    759 59.88                             166     0.2 7   33 334 
 RUS  BZ EP        759 49.10                             142     0.110  101 181 
 RUS  BZ I         759 50.33         4.8 0.05                           101 181 
 RUS  BN ES   3    8 0  6.13                             142    -1.0 2  101 181 
 OCA  SZ EP        759 53.27                             128    -0.4 9  161 350 
 OCA  SZ ES   1    8 0 15.19                             128    -0.3 7  161 350 
 OCA  SZ I         8 0 19.94        19.6 0.20                           161 350 
 CHI  HZ EP        8 0  3.41                             116    -0.1 8  252 197 
 CHI  HE ES   2    8 0 32.24                             116    -0.7 4  252 197 
 CHI  HZ I         8 0 41.80         2.7 0.62                           252 197 
 HEL  HZ EP        8 0  6.78                             113     0.1 7  281 256 
 HEL  HN ES   2    8 0 38.62                             113     0.0 4  281 256 
 HEL  HZ I         8 0 45.24         5.0 0.27                           281 256 
 PRA  HE ES   2    8 1  2.12                             105     0.3 3  397 211 
 PRA  HZ I         8 1  7.97         5.0 0.27                           397 211 
                                                                                
