 2017  8 6 0419 45.6 L   6.809 -73.103142.3  RSN 20 0.6 2.2LRSN                1
 GAP=101        1.27       3.8     3.2  5.7  0.6312E+00  0.4136E+01  0.5495E+01E
 Epicentro: LOS SANTOS - SANTANDER                                             3
 ACTION:UPD 17-09-04 20:16 OP:rebc STATUS:               ID:20170806041945 L   I
 OLDACT:UP  17-08-06 16:30 OP:osc  STATUS:               ID:20170806041744d    3
 OLDACT:UP  17-08-06 16:29 OP:osc  STATUS:               ID:20170806041744d    3
 OLDACT:DUP 17-08-06 15:36 OP:osc  STATUS:               ID:20170806041744d    3
 2017-08-06-0418-00M.COL___383                                                 6
 STAT SP IPHASW D HRMM SECON CODA AMPLIT PERI AZIMU VELO AIN AR TRES W  DIS CAZ7
 BAR2 EZ IP     C  420  4.78                             169   -0.0310 25.5 200 
 BAR2 EZ ES        420 19.45                             169   -0.3810 25.5 200 
 BAR2 EZ I         420 20.82        53.2 0.24            167           25.5 200 
 PAM  EZ EP        420  7.73                             151    0.5610 73.7  37 
 PAM  EN ES        420 24.48                             151    0.4410 73.7  37 
 PAM  EZ I         420 26.79        34.4 0.50            156           73.7  37 
 BRR  HZ EP        420  6.65                             151    0.1110 74.9 296 
 BRR  HE ES        420 23.52                             151    0.6110 74.9 296 
 BRR  HZ I         420 27.54        39.0 0.10            151           74.9 296 
 RUS  HZ EP        420  8.86                             143   -0.1610  101 179 
 RUS  HE ES        420 27.27                             143   -0.0510  101 179 
 RUS  HZ I         420 28.58        15.8 0.24            143            101 179 
 TAM  HZ IP     D  420 13.17                             130    0.62 9  151 106 
 TAM  HE ES        420 32.64                             130   -0.98 9  151 106 
 PTB  HZ EP        420 11.75                             130   -0.93 9  153 259 
 PTB  HE ES        420 33.51                             130   -0.33 9  153 259 
 PTB  HZ I         420 35.16        13.3 0.18            130            153 259 
 SPBC HZ EP        420 13.91                             127   -0.24 9  167 220 
 SPBC HE ES        420 35.99                             127   -0.46 9  167 220 
 SPBC HZ I         420 43.55        20.3 0.15            127            167 220 
 YPLC HZ IP     C  420 15.35                             126    0.39 9  176 153 
 YPLC HE ES        420 37.78                             126   -0.13 9  176 153 
 YPLC HZ I         420 41.82        19.6 0.28            127            176 153 
 ZAR  HZ EP        420 18.17                             121   -0.02 8  208 291 
 ZAR  HN ES        420 43.69                             121    0.05 8  208 291 
 ZAR  HZ I         420 48.68        15.4 0.21            122            208 291 
 NOR  HZ EP        420 21.22                             117   -0.34 8  239 235 
 NOR  HE ES        420 49.21                             117   -0.43 8  239 235 
 NOR  HZ I         420 54.47        12.8 0.22            118            239 235 
 CHI  HZ EP        420 23.25                             116   -0.05 8  251 196 
 CHI  HN ES        420 54.33                             116    1.58 8  251 196 
 CHI  HZ I         420 56.67         5.9 0.24            117            251 196 
 ROSC BZ EP   9    420 25.19                             116    1.34 0  256 212 
 ROSC BN ES        420 55.19                             116    0.13 8  256 212 
 ROSC BZ I         420 59.82         7.4 0.30            116            256 212 
 HEL  HZ EP        420 25.92                             114   -0.20 7  277 256 
 HEL  HN ES        420 57.39                             114   -0.38 7  277 256 
 HEL  HZ I         421  3.19         7.6 0.32            114            277 256 
 GUY2CHZ EP        420 29.60                             111    0.10 7  306 235 
 GUY2CHE ES   4    421  6.43                             111    2.65 0  306 235 
 GUY2CHZ I         421 12.24         7.7 0.42                           306 235 
 PTGC HZ EP        420 28.17                             111   -1.00 7  308 160 
 PTGC HE ES   4    421  1.45                             111   -1.74 0  308 160 
 PTGC HZ I         421  8.42         7.1 0.28            112            308 160 
 CBOC HZ EP        420 33.11                             109    0.24 7  338 252 
 CBOC HN ES   4    421  7.09                             109   -2.69 0  338 252 
 CBOC HZ I         421 11.83         6.0 0.26            110            338 252 
 PRA  HZ EP        420 39.56                             106    0.23 6  395 210 
 PRA  HE ES        421 21.38                             106    0.10 6  395 210 
 PRA  HZ I         421 27.97         7.5 0.28            106            395 210 
 ORTC HZ EP        420 40.00                             106    0.22 6  399 217 
 ORTC HE ES        421 23.99                             106    1.92 6  399 217 
 ORTC HZ I         421 28.02         4.7 0.22            106            399 217 
 PAL  HZ EP        420 41.22                             105    0.09 6  410 239 
 PAL  HE ES   4    421 23.54                             105   -0.95 0  410 239 
 PAL  HZ I         421 28.96         4.3 0.40            106            410 239 
 SJC  HZ EP   4    420 39.61                             105   -1.59 0  411 326 
 SJC  HN ES   4    421 21.42                             105   -3.19 0  411 326 
 SJC  HZ I         421 28.76         2.6 0.30            106            411 326 
                                                                                
