 2013  3 6 0723 13.9 L   6.743 -73.229155.0  RSN  4 0.5 1.6LRSN                1
 GAP=185        1.00      13.9    13.2 12.1 -0.5112E+02 -0.6056E+02  0.2710E+02E
 Epicentro: VILLANUEVA - SANTANDER                                             3
 ACTION:UPD 13-04-09 14:00 OP:ep   STATUS:               ID:20130306072313 L   I
 2013-03-06-0720-00M.COL___228                                                 6
 STAT SP IPHASW D HRMM SECON CODA AMPLIT PERI AZIMU VELO AIN AR TRES W  DIS CAZ7
 BAR2 SZ EP   1    723 34.06                             173   -0.46 7 17.4 163 
 BAR2 SZ I         723 50.99         4.6 0.31            138           17.4 163 
 BRR  HZ EP        723 36.04                             155    0.2310 66.9 307 
 BRR  HE ES        723 53.10                             155    0.1910 66.9 307 
 BRR  HE I         723 53.56        11.7 0.26            166           66.9 307 
 PTB  HZ EP   1    723 41.52                             136    0.78 7  138 261 
 PTB  HN ES   1    724  1.02                             136   -0.67 7  138 261 
 SML  HZ EP   1    723 50.66                             119   -0.61 6  246 338 
                                                                                
