 2017  8 6 0144 43.5 L   6.772 -73.135140.0  RSN  6 0.4 1.4LRSN                1
 GAP=236        0.85       5.0     5.0  6.7  0.8578E+01  0.6800E+01 -0.7546E+01E
 Epicentro: LOS SANTOS - SANTANDER                                             3
 ACTION:UPD 17-09-04 20:16 OP:rebc STATUS:               ID:20170806014443 L   I
 OLDACT:REG 17-08-06 11:43 OP:osc  STATUS:               ID:20170806013745     3
 2017-08-06-0138-00M.COL___392                                                 6
 STAT SP IPHASW D HRMM SECON CODA AMPLIT PERI AZIMU VELO AIN AR TRES W  DIS CAZ7
 BAR2 EZ EP        145  2.29                             171   -0.1110 20.5 195 
 BAR2 EZ ES        145 16.86                             171   -0.2610 20.5 195 
 BAR2 EZ I         145 18.91        13.1 0.12            170           20.5 195 
 BRR  HZ EP        145  4.39                             150    0.2010 73.7 300 
 BRR  HN ES   3    145 21.59                             150    1.27 2 73.7 300 
 RUS  HZ EP        145  6.75                             143    0.2810 97.4 177 
 RUS  HN ES        145 24.38                             143    0.0110 97.4 177 
 RUS  HZ I         145 26.87         2.9 0.36            145           97.4 177 
 PTB  HZ EP        145  9.47                             130   -0.60 9  148 260 
 PTB  HE ES        145 30.61                             130   -0.17 9  148 260 
 PTB  HZ I         145 33.30         1.9 0.16            131            148 260 
 SPBC HZ EP        145 11.06                             128   -0.35 9  161 220 
 SPBC HE ES        145 33.62                             128    0.44 9  161 220 
 SPBC HZ I         145 36.22         4.5 0.14            129            161 220 
 ZAR  HZ EP        145 16.43                             121    0.60 8  206 293 
 ZAR  HN ES        145 40.98                             121   -0.05 8  206 293 
 ZAR  HZ I         145 47.02         2.4 0.15            122            206 293 
                                                                                
