 2015  6 6 0516 12.7 L   6.786 -73.100151.2  RSN 18 0.4 2.5LRSN                1
 GAP=143        0.91       2.5     3.6  5.2 -0.1300E+01  0.6098E+01  0.2961E+01E
 Epicentro: LOS SANTOS - SANTANDER                                             3
 ACTION:UPD 15-09-10 22:10 OP:cam  STATUS:               ID:20150606051612 L   I
 OLDACT:UP  15-06-06 17:34 OP:mh   STATUS:               ID:20150606050749     3
 OLDACT:UP  15-06-06 15:14 OP:mh   STATUS:               ID:20150606050749     3
 OLDACT:UP  15-06-06 15:14 OP:mh   STATUS:               ID:20150606050749     3
 OLDACT:UP  15-06-06 15:12 OP:mh   STATUS:               ID:20150606050749     3
 OLDACT:REG 15-06-06 12:35 OP:mh   STATUS:               ID:20150606050749     3
 2015-06-06-0507-49M.COL___309                                                 6
 STAT SP IPHASW D HRMM SECON CODA AMPLIT PERI AZIMU VELO AIN AR TRES W  DIS CAZ7
 BAR2 EZ IP     D  516 33.18                             171    0.1910 23.3 203 
 BAR2 EZ I         516 50.53        40.9 0.38            171           23.3 203 
 PAM  SZ EP   1    516 36.01                             152    0.61 7 75.5  36 
 PAM  SN ES        516 53.12                             152    0.0210 75.5  36 
 PAM  SZ I         516 55.01        37.1 0.52            153           75.5  36 
 BRR  HZ EP     C  516 35.05                             152    0.3110 76.4 298 
 BRR  HN ES        516 51.65                             152   -0.2810 76.4 298 
 BRR  HZ I         516 55.22        31.9 0.14            150           76.4 298 
 RUS  HZ EP        516 36.33                             145   -0.5510 98.8 179 
 RUS  HN ES        516 56.32                             145    0.6010 98.8 179 
 RUS  HZ I         516 57.15        14.8 0.20            146           98.8 179 
 OCA  HZ EP   1    516 41.31                             130   -0.35 7  163 351 
 OCA  HN ES        517  4.08                             130   -0.15 9  163 351 
 OCA  HZ I         517  7.94        68.4 0.36            130            163 351 
 SPBC HZ EP   1    516 41.87                             130    0.05 7  165 221 
 SPBC HN ES        517  4.29                             130   -0.24 9  165 221 
 SPBC HZ I         517  7.32        51.1 0.14            130            165 221 
 ZAR  HZ EP   1    516 45.73                             123   -0.33 6  209 292 
 ZAR  HN ES        517 12.41                             123    0.35 8  209 292 
 ZAR  HZ I         517 16.77        31.8 0.28            122            209 292 
 NOR  HZ EP        516 49.10                             119   -0.01 8  238 235 
 NOR  HN ES        517 17.27                             119   -0.22 8  238 235 
 NOR  HZ I         517 20.78        20.8 0.18            119            238 235 
 SML  HZ EP   1    516 49.48                             118   -0.55 6  247 334 
 SML  HN ES   1    517 19.24                             118    0.10 6  247 334 
 SML  HZ I         517 25.59        29.8 0.28            118            247 334 
 CHI  HZ EP        516 50.48                             118   -0.22 8  248 196 
 CHI  HN ES        517 19.38                             118   -0.95 8  248 196 
 CHI  HZ I         517 28.18        13.8 0.46            119            248 196 
 HEL  HZ EP   1    516 53.56                             115   -0.15 6  277 256 
 HEL  HN ES        517 25.18                             115   -0.50 7  277 256 
 HEL  HZ I         517 31.17        19.8 0.36            115            277 256 
 GUY2CHZ EP   1    516 57.88                             113    0.94 5  304 236 
 GUY2CHN ES   1    517 31.19                             113   -0.25 5  304 236 
 GUY2CHZ I         517 37.83        17.7 0.34                           304 236 
 PTGC HZ EP   4    516 55.31                             113   -1.14 0  305 159 
 PTGC HN ES   4    517 28.75                             113   -1.81 0  305 159 
 PTGC HZ I         517 30.98        16.6 0.40            113            305 159 
 CBOC HZ EP        517  0.74                             111    0.39 7  338 253 
 CBOC HN ES        517 38.06                             111    0.55 7  338 253 
 CBOC HZ I         517 42.28         6.1 0.26            110            338 253 
 TOL  SZ EP   1    517  2.43                             110    0.96 5  346 225 
 TOL  SE ES   4    517 41.67                             110    2.16 0  346 225 
 TOL  SZ I         517 44.24        40.1 0.96            110            346 225 
 MON  HZ EP   4    516 58.88                             109   -3.62 0  359 308 
 MON  HN ES   4    517 38.36                             109   -2.97 0  359 308 
 MON  HZ I         517 53.87         5.5 0.48            109            359 308 
 PRA  HZ EP        517  6.21                             107   -0.35 6  393 210 
 PRA  HN ES        517 49.49                             107    0.93 6  393 210 
 PRA  HZ I         517 51.88        10.7 0.64            107            393 210 
 ORTC HZ EP        517  6.92                             107   -0.11 6  397 217 
 ORTC HN ES        517 49.66                             107    0.27 6  397 217 
 ORTC HZ I         517 56.13         7.8 0.64            107            397 217 
                                                                                
