 2011  9 6 0415  4.4 L   6.788 -73.125145.2  RSN 10 0.2 2.2LRSN                1
 GAP=191        0.31       2.3     3.3  3.5  0.2035E+01  0.3373E+01  0.2499E+01E
 Epicentro: LOS SANTOS - SANTANDER                                             3
 ACTION:UPD 12-07-13 15:55 OP:ep   STATUS:               ID:20110906041504 L   I
 2011-09-06-0412-42S.COL___171                                                 6
 STAT SP IPHASW D HRMM SECON CODA AMPLIT PERI AZIMU VELO AIN AR TRES W  DIS CAZ7
 BAR2 SZ EP        415 23.89                             171   -0.0710 22.5 196 
 BAR2 SZ ES   2    415 39.15                             171   -0.06 5 22.5 196 
 BAR2 SZ I         415 49.84        35.7 0.70                          22.5 196 
 GIR2 SZ EP   2    415 23.96                             166   -0.11 5 33.0 347 
 BRR  HZ IP     C  415 25.71                             151    0.0610 73.8 299 
 BRR  HN ES   2    415 42.35                             151    0.13 5 73.8 299 
 BRR  HZ I         415 45.77        31.9 0.14                          73.8 299 
 RUS  HZ EP   2    415 28.09                             144    0.08 5 99.1 177 
 RUS  HN ES   2    415 46.37                             144   -0.04 5 99.1 177 
 RUS  HZ I         415 48.83        15.4 0.34                          99.1 177 
 ZAR  HZ EP   2    415 37.00                             122   -0.09 4  207 292 
 ZAR  HN ES   2    416  2.29                             122   -0.29 4  207 292 
 ZAR  HZ I         416 15.70        22.0 0.59                           207 292 
 NOR  SN ES   2    416  8.37                             118    0.21 4  236 235 
 CHI  HZ EP   1    415 42.38                             117    0.37 6  248 196 
 CHI  HE ES   2    416 11.13                             117   -0.20 4  248 196 
 CHI  HZ I         416 14.60        10.4 0.59                           248 196 
 HEL  HZ EP   2    415 45.14                             114    0.33 4  274 256 
 HEL  HZ I         416 24.08        14.5 0.52                           274 256 
 PRA  HZ EP   1    415 57.70                             106   -0.21 4  392 210 
 PRA  HE ES   2    416 39.38                             106   -0.26 3  392 210 
 SJA  SZ EP   2    415 58.47                             106   -0.39 3  399 193 
                                                                                
