 2011  4 6 0222 16.4 L   6.813 -73.066138.9  RSN  6 0.2 1.5LRSN                1
 GAP=194        0.60       6.3    10.8  9.0 -0.3417E+02 -0.2011E+02  0.7533E+00E
 Epicentro: LOS SANTOS - SANTANDER                                             3
 ACTION:UP  11-06-22 15:29 OP:REBC STATUS:               ID:20110406022216 L   I
 2011-04-06-0218-12S.COL___125                                                 6
 STAT SP IPHASW D HRMM SECON CODA AMPLIT PERI AZIMU VELO SNR AR TRES W  DIS CAZ7
 BTL  SZ EP        222 35.63                             169     0.310   25 298 
 BAR2 SZ EP   1    222 34.90                             168    -0.4 7   28 208 
 BAR2 SZ ES   2    222 50.11                             168     0.0 5   28 208 
 BAR2 SZ I         222 51.58         6.4 0.12                            28 208 
 GIR2 SZ EP   2    222 35.29                             166     0.0 5   33 334 
 BRR  HZ EP   2    222 37.17                             148    -0.1 5   78 295 
 BRR  HN ES   2    222 53.54                             148     0.0 5   78 295 
 BRR  HZ I         222 59.80         7.3 0.44                            78 295 
 GRA  SZ EP   1    222 40.95                             136     0.2 7  122  14 
 GRA  SZ ES   1    222 59.57                             136    -0.2 7  122  14 
 GRA  SZ I         223  1.59         3.8 0.31                           122  14 
 OCA  SZ EP   2    222 43.96                             128    -0.3 5  160 350 
 OCA  SZ I         223 11.48         3.4 0.25                           160 350 
                                                                                
