 2015  3 6 0407 25.8 L   6.795 -73.137148.9  RSN 15 0.4 1.7LRSN                1
 GAP= 72        0.91       2.6     3.5  5.0 -0.2124E+01  0.1280E+01  0.1475E+01E
 Epicentro: LOS SANTOS - SANTANDER                                             3
 ACTION:UPD 15-04-30 16:23 OP:nd   STATUS:               ID:20150306040725 L   I
 OLDACT:REG 15-03-06 12:27 OP:spq  STATUS:               ID:20150306035749     3
 2015-03-06-0357-49M.COL___281                                                 6
 STAT SP IPHASW D HRMM SECON CODA AMPLIT PERI AZIMU VELO AIN AR TRES W  DIS CAZ7
 BAR2 EZ EP     D  4 7 45.61                             171   -0.1610 23.0 192 
 BAR2 EZ ES   1    4 8  0.96                             171   -0.41 7 23.0 192 
 BAR2 EZ I         4 8  2.43         6.9 0.28            169           23.0 192 
 BRR  HZ EP        4 7 47.56                             153    0.2410 72.3 299 
 BRR  HE ES        4 8  5.06                             153    0.9410 72.3 299 
 BRR  HZ I         4 8 19.13         7.5 0.62            151           72.3 299 
 PAM  SZ EP        4 7 48.39                             151    0.0810 77.2  39 
 PAM  SE ES        4 8  5.82                             151   -0.0710 77.2  39 
 PAM  SZ I         4 8  7.83        13.3 0.56            157           77.2  39 
 RUS  HZ EP        4 7 49.47                             145   -0.3210100.0 177 
 RUS  HN ES        4 8  8.64                             145    0.1210100.0 177 
 RUS  HZ I         4 8 10.86         5.9 0.46            148          100.0 177 
 PTB  HZ EP        4 7 52.50                             133   -0.57 9  149 259 
 PTB  HN ES        4 8 13.67                             133   -0.69 9  149 259 
 PTB  HZ I         4 8 16.99         6.9 0.16            133            149 259 
 TAM  HZ EP     D  4 7 53.73                             131    0.13 9  154 105 
 OCA  HZ EP   1    4 7 55.08                             130    0.70 7  161 353 
 OCA  HN ES        4 8 16.26                             130   -0.44 9  161 353 
 OCA  HZ I         4 8 20.72         7.2 0.38            133            161 353 
 SPBC HZ EP   1    4 7 54.28                             130   -0.25 7  163 219 
 SPBC HE ES        4 8 16.92                             130   -0.03 9  163 219 
 SPBC HZ I         4 8 22.07        11.8 0.12            132            163 219 
 NOR  HZ EP   1    4 8  1.82                             119    0.09 6  235 235 
 NOR  HE ES        4 8 30.32                             119    0.54 8  235 235 
 NOR  HZ I         4 8 31.77         4.0 0.30            121            235 235 
 SML  HZ EP        4 8  2.61                             118   -0.06 8  245 335 
 SML  HN ES   1    4 8 31.34                             118   -0.10 6  245 335 
 SML  HZ I         4 8 35.98         9.2 0.10            120            245 335 
 CHI  HZ EP        4 8  3.73                             118    0.12 8  248 195 
 CHI  HN ES   1    4 8 33.18                             118    0.05 6  248 195 
 CHI  HZ I         4 8 38.80         1.6 0.36            121            248 195 
 CBOC HN ES   1    4 8 49.56                             110   -0.10 5  334 252 
 CBOC HZ I         4 8 56.82         1.1 0.40            112            334 252 
 TOL  SN ES   4    4 8 54.27                             110    2.33 0  344 225 
 TOL  SZ I         4 8 57.74         2.0 0.40            112            344 225 
 MON  HZ EP   4    4 8 12.81                             109   -2.20 0  355 308 
 MON  HN ES   4    4 8 51.66                             109   -1.76 0  355 308 
 MON  HZ I         4 8 55.45         1.0 0.28            111            355 308 
 PRA  HZ EP   1    4 8 19.83                             107    0.43 4  392 210 
 PRA  HE ES   1    4 9  1.71                             107    0.48 4  392 210 
 PRA  HZ I         4 9  6.78         2.2 0.30            109            392 210 
                                                                                
