 2014 12 6 0855 29.1 L   6.804 -73.126150.4  RSN  9 0.4 1.5LRSN                1
 GAP=203        1.04       3.7     5.4  6.5  0.5475E+01  0.5124E+01  0.9440E+00E
 Epicentro: LOS SANTOS - SANTANDER                                             3
 ACTION:UPD 15-02-10 17:00 OP:nd   STATUS:               ID:20141206085529 L   I
 OLDACT:REG 14-12-06 13:29 OP:carl STATUS:               ID:20141206084742     3
 2014-12-06-0847-42M.COL___312                                                 6
 STAT SP IPHASW D HRMM SECON CODA AMPLIT PERI AZIMU VELO AIN AR TRES W  DIS CAZ7
 BAR2 SZ EP        855 49.44                             170    0.1210 24.2 195 
 BAR2 SZ ES        856  4.77                             170   -0.3110 24.2 195 
 BAR2 SZ I         856  6.02         6.8 0.42            167           24.2 195 
 BRR  HZ EP        855 51.44                             153    0.5810 72.9 297 
 BRR  HN IS        856  8.67                             153    0.8510 72.9 297 
 BRR  HZ I         856 11.42         5.5 0.16            151           72.9 297 
 RUS  HZ EP        855 53.24                             145   -0.1110  101 177 
 RUS  HN ES        856 11.83                             145   -0.4210  101 177 
 RUS  HZ I         856 15.36         1.8 0.64            145            101 177 
 PTB  HZ EP        855 56.19                             133   -0.47 9  150 259 
 PTB  HN ES        856 17.48                             133   -0.67 9  150 259 
 SPBC HZ EP        855 58.35                             130    0.22 9  165 219 
 SPBC HN ES        856 21.07                             130    0.30 9  165 219 
 SPBC HZ I         856 27.51        10.1 0.38            130            165 219 
 ZAR  HZ EP        856  1.92                             123   -0.13 8  206 292 
 ZAR  HE ES        856 27.85                             123    0.11 8  206 292 
 ZAR  HZ I         856 33.71         5.8 0.32            124            206 292 
 NOR  HE ES        856 33.56                             119   -0.02 8  237 235 
 SML  HN ES        856 34.28                             118   -0.59 8  244 335 
 CHI  HZ EP        856  7.38                             118    0.20 8  250 196 
 CHI  HN ES        856 37.07                             118    0.19 8  250 196 
 CHI  HZ I         856 40.62         1.7 0.28            119            250 196 
 MON  HN ES   4    856 55.23                             109   -1.72 0  355 308 
                                                                                
