 2013  5 6 0038 55.5 L   6.771 -73.157148.0  RSN  5 0.4 1.7LRSN                1
 GAP=136        0.86       5.7     5.5  7.5 -0.2975E+01  0.4378E+01  0.1554E+01E
 Epicentro: LOS SANTOS - SANTANDER                                             3
 ACTION:UPD 13-06-20 09:48 OP:ep   STATUS:               ID:20130506003855 L   I
 2013-05-06-0030-00M.COL___253                                                 6
 STAT SP IPHASW D HRMM SECON CODA AMPLIT PERI AZIMU VELO AIN AR TRES W  DIS CAZ7
 BAR2 SZ EP        039 15.35                             172    0.0410 20.0 188 
 BAR2 SZ ES   1    039 30.73                             172   -0.05 7 20.0 188 
 BAR2 SZ I         039 35.22        10.5 0.18            170           20.0 188 
 BRR  HZ IP     D  039 17.20                             153    0.3110 71.7 301 
 BRR  HN ES   1    039 34.36                             153    0.76 7 71.7 301 
 BRR  HZ I         039 34.77        12.3 0.12            153           71.7 301 
 PAM  SZ EP        039 18.18                             150    0.0610 80.6  39 
 PAM  SN ES   1    039 35.10                             150   -0.68 7 80.6  39 
 RUS  HZ EP        039 19.37                             145    0.1510 97.5 175 
 RUS  HN ES   1    039 37.81                             145    0.06 7 97.5 175 
 RUS  HZ I         039 39.29         4.8 0.34            147           97.5 175 
 PTB  HZ EP        039 22.11                             133   -0.35 9  146 260 
 PTB  HN ES   1    039 42.89                             133   -0.62 7  146 260 
 PTB  HZ I         039 48.06         8.5 0.24            134            146 260 
                                                                                
