 2014  6 6 0633 48.9 L   6.828 -73.126144.2  RSN 16 0.3 2.1LRSN                1
 GAP=203        0.71       2.3     3.2  4.2  0.8767E+00  0.2584E+01 -0.5754E+00E
 Epicentro: LOS SANTOS - SANTANDER                                             3
 OLDACT:REG 14-06-06 13:12 OP:fm   STATUS:               ID:20140606062814     3
 ACTION:UPD 14-07-01 22:51 OP:nd   STATUS:               ID:20140606063348 L   I
 OLDACT:UP  14-06-06 17:37 OP:fm   STATUS:               ID:20140606062814     3
 2014-06-06-0628-14M.COL___262                                                 6
 STAT SP IPHASW D HRMM SECON CODA AMPLIT PERI AZIMU VELO AIN AR TRES W  DIS CAZ7
 BAR2 SZ EP        634  8.54                             169    0.1510 26.8 194 
 BAR2 SZ ES   1    634 23.85                             169    0.23 7 26.8 194 
 BAR2 SZ I         634 25.47         8.5 0.28            164           26.8 194 
 RUS  HZ EP        634 12.90                             143    0.2110  104 177 
 RUS  HN ES        634 31.21                             143   -0.0510  104 177 
 RUS  SZ I         634 32.34        10.2 0.70            139            104 177 
 PTB  HZ EP        634 15.32                             131   -0.65 9  151 258 
 PTB  HE ES        634 37.02                             131   -0.08 9  151 258 
 PTB  SZ I         634 43.31        14.4 0.38            125            151 258 
 SPBC HZ EP        634 17.62                             128    0.01 9  167 219 
 SPBC HN ES        634 39.93                             128   -0.11 9  167 219 
 SPBC SZ I         634 43.78        14.7 0.16            123            167 219 
 ZAR  HZ EP        634 21.28                             122   -0.03 9  205 291 
 ZAR  HN ES        634 46.82                             122    0.21 9  205 291 
 ZAR  SZ I         634 52.05        16.0 0.38            117            205 291 
 NOR  HZ EP        634 24.83                             118   -0.07 8  238 234 
 NOR  HE ES        634 52.84                             118   -0.16 8  238 234 
 NOR  SZ I         634 57.87         9.7 0.18            114            238 234 
 SML  HZ EP        634 25.28                             117    0.08 8  242 335 
 SML  HN ES   1    634 53.32                             117   -0.22 6  242 335 
 SML  SZ I         635  0.65        12.2 0.10            114            242 335 
 CHI  HZ EP        634 26.88                             116    0.01 8  252 195 
 CHI  HN ES        634 56.07                             116   -0.45 8  252 195 
 CHI  SZ I         635  9.23         5.6 1.70            113            252 195 
 ROSC BZ EP        634 27.45                             116    0.13 8  257 211 
 ROSC BN ES        634 57.45                             116    0.14 8  257 211 
 ROSC SZ I         635  1.82         9.9 0.70            112            257 211 
 HEL  HZ EP        634 29.43                             114    0.10 8  275 255 
 HEL  HN ES        635  0.56                             114   -0.33 8  275 255 
 HEL  SZ I         635  7.54         4.6 0.68            110            275 255 
 URE  HN ES   4    634 59.93                             113   -2.09 0  285 291 
 GUY2CHZ EP        634 33.34                             112    0.53 7  305 235 
 GUY2CHN ES   4    635  8.47                             112    1.38 0  305 235 
 GUY2CSZ I         635 16.94         4.6 0.32                           305 235 
 PTGC HZ EP   4    634 31.71                             111   -1.19 0  311 159 
 PTGC HN ES   4    635  4.76                             111   -2.48 0  311 159 
 PTGC SZ I         635  8.15        11.3 3.06            109            311 159 
 RREF HZ EP   4    634 38.04                             110    2.67 0  325 229 
 RREF HN ES   4    635 13.87                             110    2.23 0  325 229 
 RREF SZ I         635 17.93         4.5 0.26            107            325 229 
 CBOC HZ EP        634 36.61                             109    0.54 7  337 252 
 CBOC SZ I         635 16.90         4.0 2.60            106            337 252 
 TOL  SZ EP        634 37.11                             109   -0.39 6  347 225 
 TOL  SN ES        635 16.53                             109    1.10 6  347 225 
 TOL  SZ I         635 24.79        12.9 0.72            106            347 225 
 PRA  HZ EP        634 42.24                             106   -0.54 6  396 210 
 PRA  HN ES        635 24.66                             106   -0.17 6  396 210 
 PRA  SZ I         635 32.96         6.9 1.26            104            396 210 
                                                                                
