 2016  1 6 0838 41.2 L   6.803 -73.147147.7  RSN 12 0.4 1.8LRSN                1
 GAP=136        0.94       2.4     3.6  4.9 -0.1223E+01  0.3491E+01 -0.2001E+00E
 Epicentro: LOS SANTOS - SANTANDER                                             3
 ACTION:UPD 16-03-09 23:23 OP:cam  STATUS:               ID:20160106083841 L   I
 OLDACT:REG 16-01-06 12:23 OP:drio STATUS:               ID:20160106082743     3
 2016-01-06-0827-43M.COL___287                                                 6
 STAT SP IPHASW D HRMM SECON CODA AMPLIT PERI AZIMU VELO AIN AR TRES W  DIS CAZ7
 BAR2 EZ IP     C  839  1.11                             171    0.0210 23.6 189 
 BAR2 EZ ES        839 15.78                             171   -0.8010 23.6 189 
 BAR2 EZ I         839 17.71        15.9 0.24            169           23.6 189 
 BRR  HZ EP        839  2.81                             153    0.2510 70.9 298 
 BRR  HN ES        839 19.84                             153    0.6410 70.9 298 
 BRR  HZ I         839 23.20         8.0 0.26            152           70.9 298 
 PAM  EZ IP     D  839  4.04                             151    0.4010 77.3  40 
 PAM  EN ES        839 21.29                             151    0.1710 77.3  40 
 PAM  EZ I         839 23.57         6.6 0.64            155           77.3  40 
 RUS  HZ EP        839  5.02                             144   -0.1710  101 176 
 RUS  HN ES        839 23.85                             144   -0.0310  101 176 
 RUS  HZ I         839 24.99         6.7 0.30            145            101 176 
 PTB  HZ EP        839  7.90                             132   -0.44 9  148 259 
 PTB  HN ES        839 29.19                             132   -0.29 9  148 259 
 PTB  HZ I         839 34.01         7.7 0.18            132            148 259 
 OCA  HZ EP        839  9.22                             130   -0.43 9  160 353 
 OCA  HE ES        839 32.24                             130    0.42 9  160 353 
 OCA  HZ I         839 34.80        10.2 0.22            132            160 353 
 SPBC HZ EP        839  9.84                             129   -0.04 9  163 219 
 SPBC HN ES        839 31.98                             129   -0.25 9  163 219 
 SPBC HZ I         839 38.07        10.3 0.26            130            163 219 
 ZAR  HZ EP        839 13.29                             123   -0.47 9  204 292 
 ZAR  HN ES        839 39.33                             123    0.19 9  204 292 
 ZAR  HZ I         839 44.09         5.0 0.36            123            204 292 
 NOR  HZ EP        839 17.41                             119    0.34 8  235 234 
 NOR  HN ES        839 45.61                             119    0.59 8  235 234 
 NOR  HZ I         839 50.48         5.1 0.48            119            235 234 
 SML  HZ EP        839 17.77                             118   -0.15 8  243 335 
 SML  HE ES        839 46.08                             118   -0.46 8  243 335 
 SML  HZ I         839 48.68         8.4 0.10            119            243 335 
 CHI  HZ IP        839 19.32                             117    0.26 8  249 195 
 CHI  HN ES        839 48.91                             117    0.35 8  249 195 
 CHI  HZ I         839 58.64         2.6 0.46            119            249 195 
 GUY2CHZ EP   9    839 26.35                             113    1.43 0  301 235 
 GUY2CHN ES        840  0.25                                   -0.18 7  301 235 
 GUY2CHZ I         840  6.78         3.0 0.44                           301 235 
                                                                                
