 2012  9 6 0124 22.8 L   6.772 -73.172139.3  RSN  7 0.4 1.8LRSN                1
 GAP=134        0.84       5.5     5.3  8.7 -0.2312E-01  0.1675E+01 -0.1602E+01E
 Epicentro: LOS SANTOS - SANTANDER                                             3
 ACTION:UPD 12-10-22 14:17 OP:ep   STATUS:               ID:20120906012422 L   I
 2012-09-06-0120-00M.COL___218                                                 6
 STAT SP IPHASW D HRMM SECON CODA AMPLIT PERI AZIMU VELO AIN AR TRES W  DIS CAZ7
 BAR2 SZ EP   1    124 41.71                             171    0.10 7 19.9 183 
 BAR2 SZ ES   1    124 55.80                             171   -0.46 7 19.9 183 
 BAR2 SZ I         124 57.69        16.6 0.16                          19.9 183 
 GIR2 SZ EP   1    124 41.69                             166   -0.12 7 34.0 356 
 BRR  HZ EP   1    124 43.47                             152    0.25 7 70.2 302 
 BRR  HN ES   1    125  0.07                             152    0.95 7 70.2 302 
 BRR  HZ I         125  1.07        23.8 0.12                          70.2 302 
 PAM  SZ EP   1    124 44.61                             148   -0.01 7 81.6  40 
 PAM  SZ I         124 44.89        12.1 0.21                          81.6  40 
 PAM  SN ES   1    125  1.27                             148   -0.35 7 81.6  40 
 RUS  HZ EP   1    124 45.81                             143    0.07 7 97.8 174 
 RUS  HZ I         124 46.95         7.8 0.13                          97.8 174 
 RUS  HN ES   1    125  3.89                             143    0.29 7 97.8 174 
 PTB  HN ES   1    125  8.68                             131   -0.65 7  144 260 
 ZAR  HN ES   2    125 19.12                             121   -0.44 4  203 293 
                                                                                
