 2010  8 6 0139 20.3 L   6.777 -73.082144.0  RSN  5 0.3 1.3LRSN                1
 GAP=166        0.66       6.0    10.7  9.9  0.2925E+02 -0.7177E+02 -0.2389E+02E
 Epicentro: LOS SANTOS - SANTANDER                                             3
 ACTION:UP  10-09-07 10:52 OP:vdl  STATUS:               ID:20100806013920 L   I
 2010-08-06-0135-12S.COL___125                                                 6
 STAT SP IPHASW D HRMM SECON CODA AMPLIT PERI AZIMU VELO SNR AR TRES W  DIS CAZ7
 BAR2 SZ EP   1    139 39.55                             171    -0.2 7   23 209 
 BAR2 SZ ES   2    139 54.46                             171    -0.4 5   23 209 
 BAR2 SZ I         139 56.15         9.4 0.55                            23 209 
 BRR  HZ EP        139 41.42                             151    -0.310   79 298 
 BRR  HN ES        139 58.65                             151     0.210   79 298 
 RUS  HZ EP   1    139 43.93                             145     0.2 7   98 180 
 RUS  HN ES   2    140  2.25                             145     0.3 5   98 180 
 RUS  HZ I         140  3.55         3.2 0.03                            98 180 
 GUE  SZ EP        139 45.15                             139     0.210  118   8 
 GUE  SZ I         140 13.85         1.0 0.16                           118   8 
 GRA  SZ EP   3    139 45.33                             137    -0.1 2  126  14 
 GRA  SZ I         140  9.33         2.9 0.07                           126  14 
                                                                                
