 2012  9 6 0912 47.8 L   6.693 -73.219154.4  RSN  4 0.3 1.2LRSN                1
 GAP=210        0.55       6.0     5.7  6.0  0.1707E+02  0.5511E+01  0.2504E+01E
 Epicentro: VILLANUEVA - SANTANDER                                             3
 ACTION:UPD 12-10-22 14:17 OP:ep   STATUS:               ID:20120906091247 L   I
 2012-09-06-0910-00M.COL___218                                                 6
 STAT SP IPHASW D HRMM SECON CODA AMPLIT PERI AZIMU VELO AIN AR TRES W  DIS CAZ7
 BAR2 SZ EP   2    913  7.93                             175   -0.35 5 11.8 160 
 BAR2 SZ ES   1    913 23.93                             175   -0.34 7 11.8 160 
 BAR2 SZ I         913 25.69         5.4 0.43                          11.8 160 
 BRR  HZ EP   1    913  9.87                             154    0.01 7 71.2 310 
 BRR  HN ES   1    913 27.42                             154    0.33 7 71.2 310 
 RUS  HZ EP   1    913 11.57                             149   -0.09 7 89.7 170 
 RUS  HN ES   1    913 30.61                             149    0.32 7 89.7 170 
 RUS  HZ I         913 32.59         1.3 0.35                          89.7 170 
 PTB  HZ EP   1    913 14.83                             136    0.22 7  138 263 
 PTB  HN ES   1    913 35.23                             136   -0.30 7  138 263 
 PTB  HZ I         913 38.00         2.0 0.54                           138 263 
                                                                                
