 2015  2 6 0858 36.0 L   6.839 -73.204138.5  RSN  5 0.3 1.3LRSN                1
 GAP=128        0.69       2.6     3.6  6.3 -0.2387E+01  0.8281E+01 -0.4017E+01E
 Epicentro: ZAPATOCA - SANTANDER                                               3
 ACTION:UPD 15-04-30 21:22 OP:nd   STATUS:               ID:20150206085836 L   I
 OLDACT:UP  15-02-06 15:56 OP:cam  STATUS:               ID:20150206085748     3
 OLDACT:REG 15-02-06 13:27 OP:cam  STATUS:               ID:20150206085748     3
 2015-02-06-0857-48M.COL___287                                                 6
 STAT SP IPHASW D HRMM SECON CODA AMPLIT PERI AZIMU VELO AIN AR TRES W  DIS CAZ7
 PAM  SZ EP        858 57.57                             149    0.0810 78.5  45 
 PAM  SN ES        859 14.56                             149    0.2810 78.5  45 
 PAM  SZ I         859 16.62         2.3 0.60            154           78.5  45 
 RUS  HZ EP        858 59.20                             141   -0.1910  106 173 
 RUS  HE ES        859 17.22                             141   -0.4410  106 173 
 RUS  HZ I         859 18.93         1.6 0.30            145            106 173 
 PTB  HZ EP        859  1.83                             131   -0.03 9  142 257 
 PTB  HN ES        859 21.92                             131   -0.13 9  142 257 
 PTB  HZ I         859 24.74         2.2 0.14            133            142 257 
 SPBC HZ EP        859  4.18                             127    0.30 9  163 216 
 SPBC HN ES        859 26.09                             127    0.45 9  163 216 
 SPBC HZ I         859 33.55         2.8 0.18            130            163 216 
 SML  HZ EP        859 11.37                             117   -0.11 8  237 336 
 SML  HN ES        859 38.96                             117   -0.21 8  237 336 
 SML  HZ I         859 43.56         3.4 0.10            119            237 336 
                                                                                
