 2012  4 6 0702  4.2 L   6.761 -73.153138.4  RSN  8 0.4 1.6LRSN                1
 GAP=137        0.94       5.6     5.1  8.4 -0.1681E+01  0.1367E+02  0.3422E+01E
 Epicentro: LOS SANTOS - SANTANDER                                             3
 ACTION:UPD 12-07-05 11:50 OP:tino STATUS:               ID:20120406070204 L   I
 2012-04-06-0700-00M.COL___196                                                 6
 STAT SP IPHASW D HRMM SECON CODA AMPLIT PERI AZIMU VELO AIN AR TRES W  DIS CAZ7
 BAR2 SZ EP   1    7 2 22.80                             172     0.0 7   19 190 
 BAR2 SZ ES   1    7 2 37.21                             172    -0.2 7   19 190 
 BAR2 SZ I         7 2 39.33         7.4 0.27                            19 190 
 BRR  HZ EP   1    7 2 24.74                             151     0.1 7   73 302 
 BRR  HN ES   1    7 2 40.90                             151     0.4 7   73 302 
 BRR  HZ I         7 2 46.45        14.5 0.11                            73 302 
 PAM  SZ EP   1    7 2 25.84                             148     0.0 7   81  38 
 PAM  SZ I         7 2 25.99         6.0 0.16                            81  38 
 PAM  SN ES   1    7 2 42.45                             148    -0.3 7   81  38 
 RUS  HZ EP   1    7 2 26.97                             143     0.1 7   96 175 
 RUS  HN ES   1    7 2 44.99                             143     0.4 7   96 175 
 RUS  HZ I         7 2 46.05         5.7 0.27                            96 175 
 PTB  HZ EP   1    7 2 29.47                             131    -0.9 7  146 260 
 PTB  HN ES   1    7 2 50.74                             131    -0.1 7  146 260 
 PTB  HZ I         7 2 53.53         3.2 0.23                           146 260 
 ZAR  HN ES   1    7 3  1.44                             121     0.2 6  205 293 
 ZAR  HZ I         7 3  7.48         6.8 0.22                           205 293 
 NOR  SN ES   1    7 3  5.89                             117    -0.5 6  232 235 
 HEL  HZ EP   1    7 2 44.66                             113     0.9 6  270 257 
 HEL  HZ I         7 3 19.90         2.8 0.54                           270 257 
                                                                                
