 2010  1 6 0420 34.6 L   6.821 -73.252135.5  RSN  5 0.4 1.6LRSN                1
 GAP=151        0.68       4.7    12.3 11.3 -0.2676E+01  0.8994E+02  0.1365E+01E
 Epicentro: ZAPATOCA - SANTANDER                                               3
 ACTION:UP  10-08-24 09:42 OP:vdl  STATUS:               ID:20100106042034 L   I
 2010-01-06-0418-56S.COL___097                                                 6
 STAT SP IPHASW D HRMM SECON CODA AMPLIT PERI AZIMU VELO SNR AR TRES W  DIS CAZ7
 BAR2 SZ EP        420 53.01                             168    -0.110   27 164 
 BAR2 SZ ES   2    421  8.09                             168     0.6 5   27 164 
 GIR2 SZ EP        420 53.22                             167     0.210   29  13 
 RUS  BZ EP        420 57.83                             140     0.110  104 170 
 RUS  BN ES   2    421 14.76                             140    -0.9 5  104 170 
 RUS  BZ I         421 17.12         6.6 0.54                           104 170 
 OCA  SZ EP   2    421  1.83                             128     0.0 5  157 357 
 OCA  SZ ES   2    421 22.48                             128    -0.6 5  157 357 
 NOR  SZ EP        421  8.92                             117     0.0 8  227 232 
                                                                                
