 2015 10 6 0055 14.3 L   6.795 -73.143139.0  RSN 19 0.5 2.5LRSN                1
 GAP=137        1.01       2.2     3.6  4.7 -0.1395E+01  0.5750E+01  0.1073E+01E
 Epicentro: LOS SANTOS - SANTANDER                                             3
 ACTION:UPD 15-12-22 20:37 OP:cam  STATUS:               ID:20151006005514 L   I
 OLDACT:REG 15-10-06 12:43 OP:ak   STATUS:               ID:20151006004750     3
 2015-10-06-0047-50M.COL___319                                                 6
 STAT SP IPHASW D HRMM SECON CODA AMPLIT PERI AZIMU VELO AIN AR TRES W  DIS CAZ7
 BAR2 EZ EP        055 33.16                             170    0.0310 22.8 191 
 BAR2 EZ ES        055 47.50                             170   -0.3010 22.8 191 
 BAR2 EZ I         055 49.62       110.5 0.20            166           22.8 191 
 BRR  HZ EP        055 35.01                             151    0.2410 71.7 299 
 BRR  HN ES        055 51.29                             151    0.5710 71.7 299 
 BRR  HZ I         055 55.13        40.4 0.32            148           71.7 299 
 PAM  EZ EP        055 36.00                             149    0.1610 77.7  39 
 PAM  EN ES        055 52.90                             149    0.2810 77.7  39 
 PAM  EZ I         055 55.13        42.6 0.50            157           77.7  39 
 RUS  HZ EP        055 37.12                             142   -0.2510  100 176 
 RUS  HN ES        055 55.31                             142   -0.0410  100 176 
 RUS  HZ I         055 57.28        20.5 0.24            144            100 176 
 OCA  HN ES        056  3.12                             128   -0.77 9  161 353 
 SPBC HZ EP        055 42.01                             127   -0.27 9  163 219 
 SPBC HN ES        056  4.33                             127    0.24 9  163 219 
 SPBC HZ I         056  9.21        41.9 0.20            127            163 219 
 ZAR  HZ EP   1    055 46.81                             121    0.43 6  204 292 
 ZAR  HN ES        056 11.16                             121   -0.23 9  204 292 
 ZAR  HZ I         056 17.29        25.6 0.15            121            204 292 
 NOR  HZ EP        055 49.52                             117   -0.13 8  235 235 
 NOR  HN ES        056 17.40                             117    0.19 8  235 235 
 NOR  HZ I         056 22.39        23.9 0.20            118            235 235 
 SML  HZ EP   1    055 49.56                             116   -1.08 6  244 335 
 SML  HE ES        056 18.49                             116   -0.48 8  244 335 
 SML  HZ I         056 20.19        32.5 0.23            118            244 335 
 CHI  HZ EP        055 51.38                             116   -0.22 8  248 195 
 CHI  HN ES        056 19.92                             116   -0.76 8  248 195 
 CHI  HZ I         056 27.79        19.7 0.54            117            248 195 
 ROSC BZ EP        055 52.95                             115    0.91 8  252 211 
 ROSC BE ES        056 21.79                             115    0.33 8  252 211 
 ROSC BZ I         056 34.51        30.8 0.35            116            252 211 
 HEL  HZ EP        055 54.68                             113    0.47 8  272 256 
 HEL  HN ES        056 24.59                             113   -0.73 8  272 256 
 HEL  HZ I         056 32.22        13.4 0.40            114            272 256 
 URE  HZ EP   4    055 57.56                             112    2.44 0  284 292 
 URE  HN ES   4    056 24.15                             112   -2.79 0  284 292 
 URE  HZ I         056 35.28        13.1 0.18            113            284 292 
 GUY2CHZ EP        055 58.10                             111    0.49 7  301 235 
 GUY2CHN ES        056 32.17                             111    0.79 7  301 235 
 GUY2CHZ I         056 39.81        17.6 0.46                           301 235 
 VIL  SZ EP        055 57.26                             111   -0.12 7  303 192 
 VIL  SN ES        056 30.66                             111   -0.31 7  303 192 
 LL2C HZ EP        055 57.97                             110    0.30 7  307 354 
 LL2C HN ES        056 32.28                             110    0.80 7  307 354 
 CBOC HZ EP        056  0.93                             109   -0.04 7  334 252 
 CBOC HE ES        056 36.77                             109   -0.59 7  334 252 
 CBOC HZ I         056 49.87         5.4 0.72            110            334 252 
 ANIL HZ EP        056  3.56                             107   -0.29 6  357 225 
 ANIL HN ES        056 42.57                             107    0.09 6  357 225 
 ANIL HZ I         056 53.38        34.2 0.44            108            357 225 
 SJC  HZ EP   4    056  7.32                             105   -2.42 0  410 327 
 SJC  HN ES   4    056 46.69                             105   -6.27 0  410 327 
 SJC  HZ I         056 52.90         7.9 0.42            106            410 327 
 CRJC HZ EP   4    056 13.72                             102   -2.98 0  468   4 
 CRJC HN ES   4    057  0.74                             102   -4.62 0  468   4 
                                                                                
