 2016 11 6 0540 24.8 L   6.823 -73.121153.5  RSN 12 0.7 1.9LRSN                1
 GAP=156        1.37       6.2     6.8  9.0 -0.1662E+02  0.1444E+02  0.1077E+02E
 Epicentro: LOS SANTOS - SANTANDER                                             3
 ACTION:UPD 17-10-26 21:05 OP:lp   STATUS:               ID:20161106054024 L   I
 OLDACT:UP  16-11-06 16:13 OP:dani STATUS:               ID:20161106053743     3
 OLDACT:UP  16-11-06 16:13 OP:dani STATUS:               ID:20161106053743     3
 OLDACT:UP  16-11-06 16:12 OP:dani STATUS:               ID:20161106053743     3
 OLDACT:REG 16-11-06 12:40 OP:dani STATUS:               ID:20161106053743     3
 2016-11-06-0538-00M.COL___343                                                 6
 STAT SP IPHASW D HRMM SECON CODA AMPLIT PERI AZIMU VELO AIN AR TRES W  DIS CAZ7
 BAR2 EZ EP     C  540 45.94                             170    0.5310 26.4 195 
 BAR2 HE ES        541  1.00                             170   -0.4910 26.4 195 
 BAR2 EZ I         541  5.23        10.3 0.54            167           26.4 195 
 BRR  HZ EP     C  540 47.87                             153    1.0210 72.5 296 
 BRR  HN ES        541  4.55                             153    0.5010 72.5 296 
 BRR  HZ I         541  7.89        12.8 0.16            152           72.5 296 
 PAM  EZ EP        540 46.48                             153   -1.1410 73.7  39 
 PAM  EN ES        541  5.76                             153    0.3310 73.7  39 
 PAM  EZ I         541  8.64        10.9 0.26            158           73.7  39 
 PTB  HZ EP        540 52.55                             133   -0.13 9  151 258 
 PTB  HN ES        541 13.57                             133   -0.86 9  151 258 
 PTB  HZ I         541 16.00        14.9 0.16            132            151 258 
 SPBC HZ EP        540 54.88                             130    0.65 9  167 219 
 SPBC HN ES        541 17.26                             130    0.06 9  167 219 
 SPBC HZ I         541 20.13        11.9 0.24            130            167 219 
 ZAR  HZ EP        540 57.22                             124   -0.69 8  206 291 
 ZAR  HE ES   3    541 25.25                             124    1.50 2  206 291 
 ZAR  HZ I         541 34.13         5.9 0.18            124            206 291 
 NOR  HZ EP   3    540 59.67                             120   -1.70 2  238 234 
 NOR  HE ES        541 29.99                             120    0.09 8  238 234 
 NOR  HZ I         541 31.88         8.1 0.11            120            238 234 
 CHI  HZ EP   3    541  4.61                             118    1.34 2  252 196 
 CHI  HN ES        541 32.99                             118   -0.29 8  252 196 
 CHI  HZ I         541 40.83         2.1 0.17            119            252 196 
 ROSC BZ EP   4    541  6.23                             118    2.50 0  256 211 
 ROSC BN ES   4    541 37.26                             118    3.16 0  256 211 
 ROSC BZ I         541 41.05         7.4 0.40            119            256 211 
 HEL  HZ EP   3    541  4.76                             116   -1.01 2  275 255 
 HEL  HN ES   4    541 35.38                             116   -2.35 0  275 255 
 HEL  HZ I         541 45.33         5.7 0.52            116            275 255 
 CBOC HZ EP   3    541 13.76                             111    1.34 2  337 252 
 CBOC HN ES        541 49.53                             111   -0.04 7  337 252 
 CBOC HZ I         541 53.88         2.2 0.27            112            337 252 
 PRA  HZ EP   4    541 21.18                             108    2.18 0  396 210 
 PRA  HN ES        542  1.57                             108    0.29 6  396 210 
 PRA  HZ I         542  9.48         2.9 0.34            108            396 210 
                                                                                
