 2016  8 6 0216  9.3 L   6.761 -73.172144.4  RSN  6 0.3 1.2LRSN                1
 GAP=135        0.73       3.6     3.2  4.9  0.1229E+01  0.3997E+01 -0.8499E+00E
 Epicentro: LOS SANTOS - SANTANDER                                             3
 ACTION:UPD 16-10-29 15:32 OP:rebc STATUS:               ID:20160806021609 L   I
 OLDACT:UP  16-08-06 15:35 OP:edw  STATUS:               ID:20160806020739     3
 OLDACT:REG 16-08-06 12:18 OP:edw  STATUS:               ID:20160806020739     3
 2016-08-06-0208-00M.COL___374                                                 6
 STAT SP IPHASW D HRMM SECON CODA AMPLIT PERI AZIMU VELO AIN AR TRES W  DIS CAZ7
 BAR2 EZ EP        216 28.46                             172   -0.2610 18.7 184 
 BAR2 EZ ES        216 43.57                             172   -0.2610 18.7 184 
 BAR2 EZ I         216 44.27         4.0 0.26                          18.7 184 
 BRR  HZ EP        216 30.27                             152   -0.0610 70.9 303 
 BRR  HN ES        216 46.61                             152   -0.0810 70.9 303 
 PAM  EZ EP        216 31.34                             149   -0.3910 82.6  39 
 PAM  EE ES        216 49.60                             149    0.4110 82.6  39 
 PAM  EZ I         216 50.36         2.3 0.62                          82.6  39 
 RUS  HZ EP        216 32.94                             145    0.2810 96.5 174 
 RUS  HN ES        216 51.02                             145    0.1710 96.5 174 
 RUS  HZ I         216 51.85         1.5 0.30                          96.5 174 
 PTB  HZ EP        216 36.14                             132    0.27 9  144 260 
 PTB  HN ES        216 56.33                             132   -0.22 9  144 260 
 PTB  HZ I         216 59.02         1.4 0.18                           144 260 
 ZAR  HZ EP        216 41.39                             122   -0.21 9  203 294 
 ZAR  HN ES        217  7.17                             122    0.42 9  203 294 
 ZAR  HZ I         217 12.69         2.4 0.22                           203 294 
                                                                                
