 2010  1 6 0515 28.4 L   6.786 -73.542108.0  RSN  6 0.5 1.5LRSN                1
 GAP=115        0.92       4.4    19.0 14.5 -0.1229E+02  0.2167E+03 -0.1192E+02E
 Epicentro: EL CARMEN DE CHUCURI - SANTANDER                                   3
 ACTION:UP  10-08-24 09:42 OP:vdl  STATUS:               ID:20100106051528 L   I
 2010-01-06-0510-49S.COL___097                                                 6
 STAT SP IPHASW D HRMM SECON CODA AMPLIT PERI AZIMU VELO SNR AR TRES W  DIS CAZ7
 BAR2 SZ IP        515 44.69                             154     0.310   45 118 
 BAR2 SZ ES   1    515 56.66                             154    -0.2 7   45 118 
 GIR2 SZ IP        515 44.88                             152     0.410   50  50 
 GIR2 SZ ES   2    515 57.15                             152     0.1 5   50  50 
 RUS  BN ES   2    516  5.56                             130    -0.6 5  111 153 
 RUS  BZ I         516  6.44        11.8 0.19                           111 153 
 OCA  SZ IP        515 54.58                             118     0.2 9  162   9 
 OCA  SZ ES   1    516 13.59                             118    -1.0 7  162   9 
 HEL  HN ES   3    516 28.76                             109     0.5 2  229 253 
 CHI  HZ EP   1    516  3.13                             108    -0.1 6  239 185 
 CHI  HN ES   2    516 29.63                             108    -0.8 4  239 185 
 CHI  HZ I         516 31.75         1.2 0.39                           239 185 
                                                                                
