 2017  1 6 0717 49.9 L   6.747 -73.130139.8  RSN 14 0.4 1.6LRSN                1
 GAP= 67        0.95       3.7     2.7  5.0  0.4134E+00  0.3538E+01  0.4195E+01E
 Epicentro: LOS SANTOS - SANTANDER                                             3
 ACTION:UPD 17-05-22 15:56 OP:jn   STATUS:               ID:20170106071749 L   I
 OLDACT:UP  17-01-06 17:38 OP:and  STATUS:               ID:20170106070649d    3
 OLDACT:UP  17-01-06 17:35 OP:and  STATUS:               ID:20170106070649d    3
 OLDACT:UP  17-01-06 17:31 OP:and  STATUS:               ID:20170106070649d    3
 OLDACT:DUP 17-01-06 17:30 OP:and  STATUS:               ID:20170106070649d    3
 2017-01-06-0707-00M.COL___363                                                 6
 STAT SP IPHASW D HRMM SECON CODA AMPLIT PERI AZIMU VELO AIN AR TRES W  DIS CAZ7
 BAR2 EZ EP        718  8.66                             172   -0.0810 18.1 199 
 BAR2 EZ ES        718 23.31                             172   -0.1010 18.1 199 
 BAR2 EZ I         718 24.65        14.5 0.15            169           18.1 199 
 BRR  HZ EP        718 10.50                             150   -0.1910 75.6 302 
 BRR  HN ES        718 27.67                             150    0.7810 75.6 302 
 BRR  HZ I         718 32.41        10.4 0.11            150           75.6 302 
 PAM  EZ EP        718 11.65                             149   -0.0810 80.9  36 
 PAM  EE ES        718 28.48                             149   -0.2510 80.9  36 
 PAM  EZ I         718 31.29         3.5 0.20            153           80.9  36 
 RUS  HZ EP        718 12.41                             144   -0.2510 94.7 177 
 RUS  HN ES        718 30.73                             144    0.3410 94.7 177 
 RUS  HZ I         718 32.07         6.3 0.28            145           94.7 177 
 PTB  HZ EP        718 15.71                             130   -0.77 9  148 261 
 PTB  HN ES        718 36.36                             130   -0.83 9  148 261 
 PTB  HZ I         718 41.74         5.0 0.14            131            148 261 
 TAM  HZ IP     D  718 16.91                             130    0.07 9  152 103 
 TAM  HN ES        718 38.04                             130    0.21 9  152 103 
 ZAR  HZ EP        718 22.56                             120    0.17 8  208 293 
 ZAR  HN ES        718 47.83                             120    0.11 8  208 293 
 ZAR  HZ I         718 53.78         5.1 0.34            122            208 293 
 NOR  HZ EP        718 25.20                             117    0.09 8  233 236 
 NOR  HN ES        718 52.48                             117   -0.07 8  233 236 
 NOR  HZ I         718 56.87         3.8 0.18            118            233 236 
 CHI  HZ EP        718 26.69                             116   -0.05 8  244 196 
 CHI  HN ES   4    718 57.97                             116    2.52 0  244 196 
 CHI  HZ I         719  4.12         1.3 0.34            118            244 196 
 URE  HN ES   4    719  1.86                             112   -1.43 0  288 293 
 GUY2CHZ EP        718 33.83                             111    0.78 7  299 236 
 GUY2CHE ES   4    719  8.85                             111    2.16 0  299 236 
 GUY2CHZ I         719 14.92         2.3 0.30                           299 236 
 PTGC HZ EP   9    718 31.49                             111   -1.34 0  303 159 
 PTGC HE ES        719  4.51                             111   -0.44 7  303 159 
 LL6C HZ EP   9    718 16.58                             109   -19.5 0  331 357 
 LL6C HN ES        718 52.70                                    0.14 7  331 357 
 CBOC HZ EP   3    718 37.68                             109    1.09 2  334 253 
 CBOC HN ES        719 13.65                             109    0.66 7  334 253 
 CBOC HZ I         719 19.28         0.8 0.25            110            334 253 
 ORTC HZ EP        718 43.42                             105    0.20 6  392 217 
 ORTC HN ES   4    719 24.47                             105   -0.32 0  392 217 
 ORTC HZ I         719 27.77         1.7 0.12            107            392 217 
 SJC  HZ EP   4    718 43.65                             104   -2.34 0  415 327 
 SJC  HN ES   4    719 25.56                             104   -4.15 0  415 327 
 LCBC HZ EP   4    719  6.76                             104   19.50 0  427 303 
 LCBC HN ES   4    719 24.49                             104   -7.49 0  427 303 
                                                                                
