 2010 10 6 0242 12.4 L   6.760 -73.084144.0  RSN 10 0.4 1.9LRSN                1
 GAP=183        0.68       3.7     6.1  5.6 -0.1208E+02 -0.8610E+00  0.4262E+01E
 Epicentro: LOS SANTOS - SANTANDER                                             3
 ACTION:UP  11-02-18 11:08 OP:tino STATUS:               ID:20101006024212 L   I
 2010-10-06-0238-31S.COL___122                                                 6
 STAT SP IPHASW D HRMM SECON CODA AMPLIT PERI AZIMU VELO SNR AR TRES W  DIS CAZ7
 BAR2 SZ EP   1    242 31.66                             171    -0.1 7   22 211 
 BAR2 SZ ES   1    242 47.03                             171     0.1 7   22 211 
 BAR2 SZ I         242 48.42        18.9 0.16                            22 211 
 BRR  HZ IP     D  242 33.66                             149    -0.210   79 299 
 BRR  HZ I         242 35.47        15.2 0.13                            79 299 
 BRR  HN ES   1    242 50.41                             149    -0.1 7   79 299 
 GUE  SZ EP   2    242 37.82                             138     0.6 5  120   8 
 GRA  SZ IP        242 37.57                             136    -0.110  128  14 
 GRA  SZ ES   1    242 57.10                             136    -0.3 7  128  14 
 GRA  SZ I         243  1.52         5.5 0.26                           128  14 
 OCA  SZ EP   1    242 40.94                             128    -0.1 7  166 351 
 OCA  SZ ES   1    243  4.03                             128     0.6 7  166 351 
 OCA  SZ I         243  5.31         7.2 0.21                           166 351 
 NOR  SZ EP   2    242 47.84                             118    -0.5 4  238 236 
 NOR  SE ES   2    243 15.77                             118    -0.7 4  238 236 
 CHI  HZ EP   2    242 49.99                             117     0.3 4  246 197 
 CHI  HZ I         242 50.67         3.6 0.07                           246 197 
 CHI  HE ES   2    243 19.76                             117     0.9 4  246 197 
 HEL  HZ EP   2    242 53.37                             114     0.2 4  278 257 
 HEL  HE ES   2    243 25.54                             114     0.6 4  278 257 
 HEL  HZ I         243 30.71         4.2 0.32                           278 257 
 RREF HZ EP   2    242 59.06                             110     0.3 3  324 231 
 RREF HZ I         243 45.97         4.3 0.20                           324 231 
 PRA  HZ EP   1    243  5.78                             106     0.0 4  392 211 
 PRA  HN ES   2    243 46.94                             106    -0.5 3  392 211 
 PRA  HZ I         243 53.78        10.8 0.22                           392 211 
                                                                                
