 2013  2 6 0401 36.3 L   6.791 -73.151140.8  RSN 10 0.5 2.1LRSN                1
 GAP= 71        1.21       4.8     3.7  7.7  0.1172E+01  0.3270E+01  0.1169E+02E
 Epicentro: LOS SANTOS - SANTANDER                                             3
 ACTION:UPD 13-03-12 09:30 OP:ep   STATUS:               ID:20130206040136 L   I
 2013-02-06-0400-00M.COL___240                                                 6
 STAT SP IPHASW D HRMM SECON CODA AMPLIT PERI AZIMU VELO AIN AR TRES W  DIS CAZ7
 BAR2 SZ EP        4 1 55.08                             171   -0.2210 22.3 189 
 BAR2 SZ I         4 2 10.44        64.9 0.32            157           22.3 189 
 BAR2 SZ ES        4 2 10.48                             171    0.3510 22.3 189 
 BRR  HZ IP     C  4 1 56.87                             152   -0.0310 71.1 299 
 BRR  HN ES        4 2 13.65                             152    0.6810 71.1 299 
 BRR  HZ I         4 2 15.79        18.8 0.14            143           71.1 299 
 PAM  SZ I         4 1 57.91        34.5 0.18            151           78.5  39 
 PAM  SZ IP     D  4 1 58.02                             149   -0.0310 78.5  39 
 PAM  SN ES        4 2 14.69                             149   -0.3210 78.5  39 
 RUS  HZ EP        4 1 59.24                             143   -0.2510 99.7 176 
 RUS  HN I         4 2 19.04        18.5 0.32            129           99.7 176 
 PTB  HZ EP   4    4 2  1.61                             131   -1.17 0  147 259 
 PTB  HN ES        4 2 22.74                             131   -0.71 9  147 259 
 PTB  HZ I         4 2 25.71        17.0 0.44            119            147 259 
 TAM  HZ IP     D  4 2  3.56                             129   -0.05 9  155 105 
 TAM  HE I         4 2  5.20        14.9 0.32            121            155 105 
 TAM  HE ES        4 2 25.09                             129    0.17 9  155 105 
 OCA  HZ EP   4    4 2  4.77                             128    0.47 0  161 353 
 OCA  HN ES   1    4 2 25.14                             128   -1.01 7  161 353 
 OCA  HZ I         4 2 28.81        10.2 0.46            123            161 353 
 ZAR  HZ EP        4 2  9.64                             121    1.24 9  204 292 
 ZAR  HN ES        4 2 33.63                             121    0.20 9  204 292 
 ZAR  HN I         4 2 39.86        23.4 0.26            112            204 292 
 CHI  HZ EP        4 2 13.83                             116    0.23 8  248 195 
 CHI  HN ES        4 2 42.68                             116   -0.02 8  248 195 
 CHI  HZ I         4 2 50.05         2.3 0.26            107            248 195 
 HEL  HZ EP   4    4 2 17.72                             114    1.56 0  271 256 
 HEL  HN ES        4 2 46.60                             114   -0.66 8  271 256 
 HEL  HZ I         4 2 54.39         4.5 0.38            105            271 256 
                                                                                
