 2012  5 6 0948  0.6 L   6.760 -73.115149.8  RSN  7 0.5 1.8LRSN                1
 GAP=142        1.01       6.8     5.9  9.3  0.1984E+01  0.1391E+02 -0.1858E+01E
 Epicentro: LOS SANTOS - SANTANDER                                             3
 ACTION:UP  12-07-05 12:02 OP:pat  STATUS:               ID:20120506094800 L   I
 2012-05-06-0940-00M.COL___192                                                 6
 STAT SP IPHASW D HRMM SECON CODA AMPLIT PERI AZIMU VELO SNR AR TRES W  DIS CAZ7
 BAR2 SZ EP   1    948 20.59                             172    -0.1 7   20 202 
 BAR2 SZ ES   1    948 35.99                             172    -0.3 7   20 202 
 BAR2 SZ I         948 36.76        12.9 0.49                            20 202 
 BRR  HZ IP     C  948 22.38                             152    -0.110   76 300 
 BRR  HZ I         948 22.67        28.1 0.18                            76 300 
 BRR  HE ES   1    948 40.16                             152     0.6 7   76 300 
 PAM  SZ EP   1    948 23.38                             151     0.0 7   79  36 
 PAM  SN ES   1    948 40.82                             151    -0.3 7   79  36 
 RUS  HZ EP   1    948 24.77                             146     0.3 7   96 178 
 RUS  HE ES   1    948 43.51                             146     0.5 7   96 178 
 RUS  HZ I         948 44.39         6.0 0.41                            96 178 
 PTB  HZ EP   1    948 27.56                             132    -0.6 7  150 261 
 PTB  HN ES   1    948 48.72                             132    -0.9 7  150 261 
 PTB  HZ I         948 51.95         4.3 0.17                           150 261 
 ZAR  HZ EP   2    948 34.19                             123     0.4 4  209 293 
 ZAR  HN ES   1    949  0.45                             123     0.7 6  209 293 
 ZAR  HZ I         949  5.67         8.8 0.43                           209 293 
 HEL  HN ES   2    949 13.24                             115     0.2 4  274 257 
                                                                                
