 2013  8 6 0802 35.6 L   6.714 -73.184152.4  RSN  4 0.4 0.9LRSN                1
 GAP=226        1.10       6.9    10.7 10.1  0.2261E+02  0.9230E+01  0.2891E+01E
 Epicentro: VILLANUEVA - SANTANDER                                             3
 ACTION:UPD 14-01-14 08:59 OP:ep   STATUS:               ID:20130806080235 L   I
 OLDACT:REG 13-08-06 08:05 OP:jn   STATUS:               ID:20130806075959     3
 2013-08-06-0759-59M.COL___267                                                 6
 STAT SP IPHASW D HRMM SECON CODA AMPLIT PERI AZIMU VELO AIN AR TRES W  DIS CAZ7
 BRR  HZ EP        8 2 57.31                             153   -0.2710 72.7 307 
 BRR  HN ES        8 3 14.73                             153    0.0310 72.7 307 
 BRR  HZ I         8 3 20.39         1.6 0.14            132           72.7 307 
 RUS  HZ EP        8 3  0.06                             148    0.6410 91.5 173 
 RUS  HN ES        8 3 17.72                             148   -0.2510 91.5 173 
 RUS  HZ I         8 3 19.13         1.1 0.26            140           91.5 173 
 PTB  HZ EP        8 3  2.99                             135    0.36 9  142 262 
 PTB  HZ I         8 3 30.46         1.0 0.44            117            142 262 
 SPBC HZ EP        8 3  2.93                             132   -0.79 9  153 220 
 SPBC HN ES        8 3 25.87                             132    0.24 9  153 220 
 SPBC HZ I         8 3 29.34         1.2 0.24            118            153 220 
                                                                                
