 2011 10 6 0237 26.9 L   6.814 -73.146141.8  RSN  4 0.2 1.3LRSN                1
 GAP=186        0.53       4.9    11.6  5.9  0.2887E+02  0.3722E+01  0.6526E+01E
 Epicentro: LOS SANTOS - SANTANDER                                             3
 *RUS                                                                          3
 ACTION:UPD 12-07-13 16:02 OP:ep   STATUS:               ID:20111006023727 L   I
 2011-10-06-0220-00M.COL___171                                                 6
 STAT SP IPHASW D HRMM SECON CODA AMPLIT PERI AZIMU VELO AIN AR TRES W  DIS CAZ7
 BAR2 SZ EP   1    237 46.07                             169   -0.02 7 24.9 189 
 BAR2 SZ I         237 48.88         4.1 0.52                          24.9 189 
 GIR2 SZ EP        237 45.91                             168   -0.1510 29.7 350 
 GIR2 SZ ES        238  1.06                             168    0.0510 29.7 350 
 BRR  HZ EP   1    237 48.02                             152    0.44 7 70.5 297 
 BRR  HN ES   2    238  3.24                             152   -0.47 5 70.5 297 
 BRR  HZ I         238 46.23         9.8 0.34                          70.5 297 
 RUS  HZ EP   1    237 50.19                             142   -0.19 7  102 176 
 RUS  HE ES   1    238  8.85                             142    0.16 7  102 176 
 RUS  HZ I         238 10.18         1.6 0.20                           102 176 
                                                                                
