 2011 12 6 0946 27.5 L   6.789 -73.089135.0  RSN  5 0.4 1.2LRSN                1
 GAP=144        0.73       3.9     7.1  8.6 -0.4337E+00  0.5922E+01  0.7892E+01E
 Epicentro: LOS SANTOS - SANTANDER                                             3
 ACTION:UPD 12-07-13 16:14 OP:ep   STATUS:               ID:20111206094627 L   I
 2011-12-06-0940-00M.COL___182                                                 6
 STAT SP IPHASW D HRMM SECON CODA AMPLIT PERI AZIMU VELO AIN AR TRES W  DIS CAZ7
 PAM  SZ EP   1    946 48.67                             150    0.26 7 74.5  35 
 PAM  SZ I         946 49.01         4.6 0.17                          74.5  35 
 PAM  SN ES   1    947  5.06                             150    0.35 7 74.5  35 
 BRR  HZ EP   1    946 47.86                             148   -0.02 7 77.2 297 
 BRR  HE ES   1    947  4.12                             148    0.35 7 77.2 297 
 BRR  HZ I         947  6.38         4.6 0.11                          77.2 297 
 RUS  HZ EP   1    946 50.01                             142   -0.10 7 99.2 180 
 RUS  HZ I         946 51.30         1.2 0.16                          99.2 180 
 RUS  HN ES   1    947  7.27                             142   -0.47 7 99.2 180 
 OCA  SZ ES   1    947 16.10                             127   -0.70 7  162 351 
 CTAU SZ EP   1    947  0.30                             120    0.29 6  205 211 
                                                                                
