 2017  4 6 0802 51.5 L   6.676 -73.150127.1  RSN  5 0.3 0.9LRSN                1
 GAP=167        0.86       6.7     4.0  6.9 -0.6764E+01  0.7084E+01 -0.5899E+00E
 Epicentro: VILLANUEVA - SANTANDER                                             3
 ACTION:UPD 17-05-30 21:09 OP:jn   STATUS:               ID:20170406080251 L   I
 OLDACT:REG 17-04-06 13:09 OP:cara STATUS:               ID:20170406075740     3
 2017-04-06-0758-00M.COL___357                                                 6
 STAT SP IPHASW D HRMM SECON CODA AMPLIT PERI AZIMU VELO AIN AR TRES W  DIS CAZ7
 BAR2 EZ EP        8 3  9.39                             175    0.7610 9.97 201 
 BAR2 EZ ES        8 3 21.87                             175   -0.1510 9.97 201 
 BRR  HZ EP        8 3 11.10                             146    0.0110 78.3 308 
 BRR  HE ES        8 3 26.51                             146    0.1110 78.3 308 
 BRR  HZ I         8 3 28.72         1.8 0.14            146           78.3 308 
 PAM  EZ EP        8 3 12.21                             143   -0.3010 88.6  34 
 PAM  EN ES        8 3 28.83                             143   -0.1010 88.6  34 
 PAM  EZ I         8 3 31.34         1.9 0.28            145           88.6  34 
 PTB  HZ EP        8 3 16.43                             128   -0.30 9  145 264 
 PTB  HN ES        8 3 36.17                             128   -0.28 9  145 264 
 PTB  HZ I         8 3 39.78         0.9 0.16            129            145 264 
 ZAR  HN ES        8 3 48.43                             117    0.26 8  209 296 
                                                                                
