 2015 12 6 0958 58.1 L   6.806 -73.172144.5  RSN  8 0.4 1.5LRSN                1
 GAP=133        1.04       3.6     4.4  6.5  0.8386E+00  0.6623E+01 -0.4405E+01E
 Epicentro: LOS SANTOS - SANTANDER                                             3
 ACTION:UPD 16-02-04 15:02 OP:cam  STATUS:               ID:20151206095858 L   I
 OLDACT:UP  15-12-06 16:52 OP:mh   STATUS:               ID:20151206094744     3
 OLDACT:UP  15-12-06 16:51 OP:mh   STATUS:               ID:20151206094744     3
 OLDACT:UP  15-12-06 16:51 OP:mh   STATUS:               ID:20151206094744     3
 OLDACT:UP  15-12-06 16:51 OP:mh   STATUS:               ID:20151206094744     3
 OLDACT:REG 15-12-06 12:11 OP:mh   STATUS:               ID:20151206094744     3
 2015-12-06-0947-44M.COL___313                                                 6
 STAT SP IPHASW D HRMM SECON CODA AMPLIT PERI AZIMU VELO AIN AR TRES W  DIS CAZ7
 BAR2 EZ EP        959 17.72                             170    0.1310 23.6 183 
 BAR2 EZ ES        959 32.78                             170   -0.0010 23.6 183 
 BAR2 EZ I         959 35.28         7.6 0.26            174           23.6 183 
 BRR  HZ EP   1    959 19.21                             153    0.25 7 68.4 299 
 BRR  HN ES        959 35.83                             153    0.6110 68.4 299 
 BRR  HZ I         959 43.76         7.5 0.44            153           68.4 299 
 PAM  EZ EP        959 20.68                             150    0.4110 78.8  41 
 PAM  EN ES        959 37.68                             150    0.1310 78.8  41 
 PAM  EZ I         959 40.96         4.4 0.46            153           78.8  41 
 RUS  HZ EP        959 21.51                             143   -0.2810  101 174 
 RUS  HN ES        959 39.81                             143   -0.4610  101 174 
 RUS  HZ I         959 42.00         2.6 0.30            151            101 174 
 PTB  HZ EP        959 24.95                             132    0.23 9  145 258 
 PTB  HN ES        959 45.07                             132   -0.42 9  145 258 
 PTB  HZ I         959 48.57         2.5 0.22            136            145 258 
 OCA  HZ EP   1    959 26.97                             129    0.74 7  159 354 
 OCA  HN ES        959 47.46                             129   -0.70 9  159 354 
 OCA  HZ I         959 56.04         6.9 0.24            132            159 354 
 ZAR  HZ EP        959 30.46                             122    0.29 9  201 292 
 ZAR  HN ES        959 55.42                             122    0.24 9  201 292 
 ZAR  HZ I        10 0  0.72         3.4 0.26            125            201 292 
 SML  HZ EP   1    959 33.77                             117   -0.70 6  242 336 
 SML  HN ES       10 0  2.19                             117   -0.64 8  242 336 
                                                                                
