 2016  8 6 0229 26.9 L   7.426 -73.182126.5  RSN  4 0.0 1.1LRSN                1
 GAP=268        0.27       3.0     2.0  2.7  0.3166E+01 -0.7714E+00 -0.4044E+01E
 Epicentro: EL PLAYON - SANTANDER                                              3
 ACTION:UPD 16-10-29 15:32 OP:rebc STATUS:               ID:20160806022926 L   I
 OLDACT:DUP 16-08-06 15:41 OP:edw  STATUS:               ID:20160806022737d    3
 2016-08-06-0228-00M.COL___371                                                 6
 STAT SP IPHASW D HRMM SECON CODA AMPLIT PERI AZIMU VELO AIN AR TRES W  DIS CAZ7
 BRR  HZ EP        229 45.83                             150   -0.0410 68.4 239 
 BRR  HN ES        230  0.67                             150    0.0410 68.4 239 
 BAR2 EZ EP        229 47.86                             142    0.0110 92.2 180 
 BAR2 EZ ES        230  4.13                             142   -0.0310 92.2 180 
 BAR2 EZ I         230  5.45         4.1 0.12                          92.2 180 
 PTB  HZ EP        229 54.82                             123    0.02 9  172 235 
 PTB  HN ES        230 16.53                             123    0.00 9  172 235 
 PTB  HZ I         230 18.91         1.0 0.20                           172 235 
 ZAR  HZ EP        229 56.23                             120    0.03 9  185 272 
 ZAR  HN ES        230 18.97                             120   -0.05 9  185 272 
 ZAR  HZ I         230 21.56         1.3 0.34                           185 272 
                                                                                
