 2013  8 6 0310 53.5 L   6.393 -73.686 78.4  RSN  5 0.3 0.8LRSN                1
 GAP=151        0.55       3.9     3.1 10.8  0.5534E+01  0.1350E+02  0.7851E+00E
 Epicentro: SANTA HELENA DEL OPON - SANTANDER                                  3
 ACTION:UPD 14-01-14 08:59 OP:ep   STATUS:               ID:20130806031053 L   I
 OLDACT:DUP 13-08-06 10:31 OP:jn   STATUS:               ID:20130806030960d    3
 2013-08-06-0309-59M.COL___268                                                 6
 STAT SP IPHASW D HRMM SECON CODA AMPLIT PERI AZIMU VELO AIN AR TRES W  DIS CAZ7
 BAR2 SZ EP   1    311  7.45                             139    0.10 7 59.9  68 
 BAR2 SZ ES   1    311 17.73                             139   -0.41 7 59.9  68 
 BRR  HE ES   1    311 20.92                             130    0.37 7 79.1 358 
 RUS  HN ES   1    311 23.14                             128    0.13 7 86.6 130 
 RUS  HZ I         311 25.91         1.0 0.28            126           86.6 130 
 PTB  HE ES   1    311 21.90                             127   -0.00 7 86.7 281 
 PTB  HZ I         311 29.34         1.8 0.28            120           86.7 281 
 ZAR  HN ES   1    311 39.51                             108   -0.24 7  178 313 
 ZAR  HZ I         311 45.66         2.4 0.28            106            178 313 
                                                                                
