 2013 11 6 0635 39.0 L   6.814 -73.121148.0  RSN 10 0.5 2.1LRSN                1
 GAP=139        1.13       3.6     5.0  6.4 -0.2621E+01  0.1275E+02 -0.9666E+00E
 Epicentro: LOS SANTOS - SANTANDER                                             3
 ACTION:UPD 14-01-09 16:26 OP:ep   STATUS:               ID:20131106063539 L   I
 OLDACT:REG 13-11-06 06:44 OP:jn   STATUS:               ID:20131106063000     3
 2013-11-06-0630-00M.COL___273                                                 6
 STAT SP IPHASW D HRMM SECON CODA AMPLIT PERI AZIMU VELO AIN AR TRES W  DIS CAZ7
 BAR2 SZ EP        635 59.10                             170    0.1710 25.5 196 
 BAR2 SZ ES        636 13.75                             170   -0.7310 25.5 196 
 BAR2 SZ I         636 15.01        38.8 0.28            167           25.5 196 
 BRR  HZ EP        636  0.85                             152    0.3810 72.9 296 
 BRR  HN ES        636 17.76                             152    0.5310 72.9 296 
 BRR  HZ I         636 18.31        23.4 0.10            151           72.9 296 
 PAM  SZ EP        636  1.95                             152    0.6810 74.4  39 
 PAM  SN ES        636 18.99                             152    0.3410 74.4  39 
 PAM  SZ I         636 20.63        17.1 0.16            157           74.4  39 
 RUS  HZ EP        636  3.20                             144    0.1510  102 178 
 RUS  HN ES        636 21.37                             144   -0.4610  102 178 
 RUS  HZ I         636 23.26         9.3 0.22            144            102 178 
 PTB  HZ EP        636  5.74                             132   -0.67 9  151 258 
 PTB  HN ES   4    636 27.00                             132   -0.80 0  151 258 
 PTB  HZ I         636 29.51        23.9 0.14            131            151 258 
 SPBC HZ EP        636  8.05                             129    0.12 9  166 219 
 SPBC HE ES        636 30.34                             129   -0.17 9  166 219 
 SPBC HZ I         636 39.11        10.5 0.18            129            166 219 
 ZAR  HZ EP        636 11.50                             123   -0.28 8  206 291 
 ZAR  HN ES        636 37.56                             123    0.20 8  206 291 
 ZAR  HZ I         636 43.17        23.0 0.34            123            206 291 
 NOR  HZ EP        636 15.27                             119    0.09 8  238 235 
 NOR  HN ES        636 43.47                             119    0.06 8  238 235 
 NOR  HZ I         636 51.18         8.0 0.24            119            238 235 
 SML  HZ EP        636 14.79                             118   -0.92 8  243 335 
 SML  HN ES        636 43.85                             118   -0.51 8  243 335 
 GUY2CHZ EP        636 23.26                             112    0.21 7  304 235 
 GUY2CHN ES        636 58.04                             112    0.62 7  304 235 
 GUY2CHZ I         637  7.26         5.1 0.32                           304 235 
                                                                                
