 2013  4 6 0710 12.1 L   6.784 -73.920 20.4  RSN  4 0.2 1.3LRSN                1
 GAP=147        0.49       2.3     1.5  3.7 -0.7995E+00 -0.1123E+01  0.6081E+01E
 Epicentro: PUERTO PARRA - SANTANDER                                           3
 ACTION:UPD 13-05-22 14:36 OP:EP   STATUS:               ID:20130406071012 L   I
 2013-04-06-0708-37M.COL___221                                                 6
 STAT SP IPHASW D HRMM SECON CODA AMPLIT PERI AZIMU VELO AIN AR TRES W  DIS CAZ7
 BRR  HZ EP        710 19.46                             113   -0.2010 42.5  33 
 BRR  HN ES        710 25.68                             113    0.1510 42.5  33 
 BRR  HZ I         710 26.11        17.6 0.10            138           42.5  33 
 PTB  HZ EP        710 22.93                             105   -0.0110 65.2 246 
 PTB  HE ES   2    710 31.51                             105    0.13 5 65.2 246 
 PTB  HZ I         710 32.75        23.3 0.16            112           65.2 246 
 BAR2 SZ EP        710 25.76                             102   -0.2310 84.3 105 
 BAR2 SZ ES        710 36.91                             102    0.1110 84.3 105 
 BAR2 SZ I         710 38.22         5.0 0.48            104           84.3 105 
 RUS  HZ EP        710 33.74                              56    0.26 9  135 137 
 RUS  HN ES   1    710 49.95                              56   -0.18 7  135 137 
 RUS  HZ I         710 51.83         4.3 0.22             96            135 137 
                                                                                
