 2015  3 6 0710  6.5 L   6.781 -73.097156.8  RSN  7 0.3 1.2LRSN                1
 GAP=144        0.71       3.2     4.8  5.2 -0.3652E+01  0.4945E+01 -0.2941E+00E
 Epicentro: LOS SANTOS - SANTANDER                                             3
 ACTION:UPD 15-04-30 16:23 OP:nd   STATUS:               ID:20150306071006 L   I
 OLDACT:REG 15-03-06 12:38 OP:spq  STATUS:               ID:20150306070742     3
 2015-03-06-0707-42M.COL___284                                                 6
 STAT SP IPHASW D HRMM SECON CODA AMPLIT PERI AZIMU VELO AIN AR TRES W  DIS CAZ7
 BAR2 EZ EP        710 27.22                             171   -0.2110 22.9 204 
 BAR2 EZ ES   1    710 44.04                             171    0.27 7 22.9 204 
 BAR2 EZ I         710 45.22         2.9 0.24            171           22.9 204 
 PAM  SZ EP        710 30.14                             153    0.3510 75.7  35 
 PAM  SE ES        710 47.85                             153   -0.1210 75.7  35 
 PAM  SZ I         710 49.47         3.5 0.54            155           75.7  35 
 BRR  HZ EP        710 29.17                             152    0.0210 77.0 298 
 BRR  HN ES        710 46.79                             152   -0.0310 77.0 298 
 BRR  HZ I         710 50.24         2.5 0.11            151           77.0 298 
 RUS  HZ EP   1    710 31.31                             147    0.14 7 98.3 179 
 RUS  HE ES   1    710 49.85                             147   -0.58 7 98.3 179 
 RUS  HZ I         710 51.46         0.9 0.18            149           98.3 179 
 PTB  HZ EP   1    710 34.10                             133   -0.70 7  153 260 
 SPBC HZ EP        710 36.24                             131    0.22 9  165 221 
 SPBC HE ES        710 59.40                             131    0.34 9  165 221 
 SPBC HZ I         711  1.67         2.5 0.19            132            165 221 
 SML  HZ EP   1    710 43.86                             119   -0.33 6  248 334 
 SML  HE ES   1    711 13.83                             119    0.22 6  248 334 
 SML  HZ I         711 17.05         3.0 0.26            120            248 334 
                                                                                
