 2017  9 6 0251  3.3 L   6.712 -73.191142.7  RSN  5 0.4 1.3LRSN                1
 GAP=225        0.81       4.8     6.3  8.4  0.1350E+02  0.1870E+02  0.5335E+01E
 Epicentro: VILLANUEVA - SANTANDER                                             3
 ACTION:UPD 17-10-05 19:09 OP:rebc STATUS:               ID:20170906025103 L   I
 OLDACT:REG 17-09-06 12:48 OP:dnl  STATUS:               ID:20170906024740     3
 2017-09-06-0248-00M.COL___428                                                 6
 STAT SP IPHASW D HRMM SECON CODA AMPLIT PERI AZIMU VELO AIN AR TRES W  DIS CAZ7
 BAR2 EZ EP        251 22.04                             175   -0.3610 13.2 176 
 BAR2 EZ ES        251 37.18                             175   -0.1110 13.2 176 
 BAR2 EZ I         251 40.66         3.6 0.20            167           13.2 176 
 BRR  HZ EP   2    251 23.99                             152   -0.19 5 72.3 307 
 BRR  HN ES        251 40.46                             152   -0.0110 72.3 307 
 BRR  HZ I         251 45.36         3.8 0.12            147           72.3 307 
 RUS  HZ EP   2    251 26.19                             146    0.10 5 91.3 172 
 RUS  HN ES        251 44.43                             146    0.5510 91.3 172 
 RUS  HZ I         251 46.72         1.7 0.32            147           91.3 172 
 SPBC HZ EP   2    251 30.97                             131    0.42 5  152 220 
 SPBC HN ES        251 51.32                             131   -0.49 9  152 220 
 SPBC HZ I         251 58.75         2.1 0.10            129            152 220 
 ZAR  HN ES        252  0.96                             122    0.38 9  203 295 
 ZAR  HZ I         252  9.77         3.6 0.38            122            203 295 
                                                                                
