 2012 11 6 0644 23.1 L   6.824 -73.006149.8  RSN  5 0.5 1.5LRSN                1
 GAP=197        1.23       6.3    16.9 10.1  0.5005E+02 -0.4996E+02 -0.9100E+01E
 Epicentro: CEPITA - SANTANDER                                                 3
 ACTION:UPD 12-12-05 15:31 OP:}ep  STATUS:               ID:20121106064423 L   I
 2012-11-06-0640-00M.COL___230                                                 6
 STAT SP IPHASW D HRMM SECON CODA AMPLIT PERI AZIMU VELO AIN AR TRES W  DIS CAZ7
 BAR2 SZ EP        644 43.61                             167    0.1710 32.2 217 
 BAR2 SZ I         644 43.95         7.9 0.30                          32.2 217 
 BAR2 SZ ES        644 59.42                             167    0.1310 32.2 217 
 GIR2 SZ EP        644 44.00                             166    0.6310 34.9 324 
 GIR2 SZ ES        644 59.70                             166    0.5310 34.9 324 
 BRR  HZ EP        644 45.53                             149    0.0710 84.0 292 
 BRR  HE ES        645  2.85                             149   -0.0410 84.0 292 
 BRR  HN I         645  6.21        16.0 0.20                          84.0 292 
 RUS  HZ EP        644 47.45                             144   -0.0210  103 185 
 RUS  HZ I         644 48.11         1.8 0.22                           103 185 
 RUS  HN ES        645  5.72                             144   -0.7410  103 185 
 OCA  HN ES        645 13.17                             131   -0.89 9  160 348 
                                                                                
