 2015  7 6 0947  1.1 L   6.785 -73.162137.2  RSN  4 0.3 1.3LRSN                1
 GAP=135        0.68       4.1     4.2  6.9  0.8474E+00  0.1402E+02 -0.3229E+01E
 Epicentro: LOS SANTOS - SANTANDER                                             3
 ACTION:UPD 15-09-08 21:47 OP:cam  STATUS:               ID:20150706094701 L   I
 OLDACT:REG 15-07-06 14:57 OP:spq  STATUS:               ID:20150706093750     3
 2015-07-06-0937-50M.COL___331                                                 6
 STAT SP IPHASW D HRMM SECON CODA AMPLIT PERI AZIMU VELO AIN AR TRES W  DIS CAZ7
 BAR2 EZ EP   1    947 19.16                             171   -0.50 7 21.4 186 
 BAR2 EZ ES   1    947 34.21                             171    0.07 7 21.4 186 
 BAR2 EZ I         947 35.39         5.1 0.34            170           21.4 186 
 PAM  EZ EP        947 22.42                             148   -0.1510 79.9  40 
 PAM  EN ES        947 39.44                             148    0.1310 79.9  40 
 PAM  EZ I         947 41.39         4.0 0.48            153           79.9  40 
 RUS  HZ EP   1    947 23.81                             142   -0.09 7 99.1 175 
 RUS  HN ES   1    947 41.88                             142    0.19 7 99.1 175 
 RUS  HZ I         947 44.01         1.7 0.38            146           99.1 175 
 ZAR  HZ EP        947 33.44                             121    0.55 9  203 293 
 ZAR  HN ES        947 57.41                             121   -0.27 9  203 293 
 ZAR  HZ I         948  4.21         2.3 0.51            122            203 293 
                                                                                
