 2016 12 6 0013 31.5 L   6.733 -73.153148.7  RSN  6 0.4 1.5LRSN                1
 GAP=139        1.04       5.3     4.7  7.4  0.3044E+01  0.6344E+01 -0.3669E+01E
 Epicentro: LOS SANTOS - SANTANDER                                             3
 ACTION:UPD 17-01-11 20:12 OP:rebc STATUS:               ID:20161206001331 L   I
 OLDACT:REG 16-12-06 13:09 OP:ar   STATUS:               ID:20161206000743     3
 2016-12-06-0008-00M.COL___343                                                 6
 STAT SP IPHASW D HRMM SECON CODA AMPLIT PERI AZIMU VELO AIN AR TRES W  DIS CAZ7
 BAR2 EZ EP        013 51.37                             174   -0.0010 15.9 192 
 BAR2 EZ ES        014  6.75                             174   -0.1110 15.9 192 
 BAR2 EZ I         014  8.06         7.9 0.20            174           15.9 192 
 BRR  HZ EP        013 53.50                             152    0.3410 74.4 304 
 BRR  HN ES        014 10.79                             152    0.7510 74.4 304 
 PAM  EZ EP        013 54.43                             149    0.0110 83.6  37 
 PAM  EE ES        014 11.77                             149   -0.5210 83.6  37 
 PAM  EZ I         014 13.31         3.0 0.50            150           83.6  37 
 RUS  HZ EP        013 55.06                             146    0.0110 93.3 175 
 RUS  HN ES        014 13.65                             146    0.2410 93.3 175 
 RUS  HZ I         014 15.03         3.2 0.36            148           93.3 175 
 PTB  HN ES        014 18.79                             133   -0.84 9  146 262 
 PTB  HZ I         014 20.32         3.9 0.08            133            146 262 
 ZAR  HZ EP        014  4.32                             123   -0.06 8  206 294 
 ZAR  HN ES        014 30.08                             123    0.07 8  206 294 
 ZAR  HZ I         014 35.32         4.8 0.22            123            206 294 
                                                                                
