 2015  5 6 0913  1.9 L   7.537 -73.085150.8  RSN  5 0.4 1.5LRSN                1
 GAP=135        1.10       5.0     6.6  9.0  0.1103E+02  0.2284E+02  0.9491E+00E
 Epicentro: EL PLAYON - SANTANDER                                              3
 ACTION:UPD 15-09-10 22:02 OP:cam  STATUS:               ID:20150506091301 L   I
 OLDACT:UP  15-05-06 18:20 OP:drio STATUS:               ID:20150506090749     3
 OLDACT:REG 15-05-06 12:47 OP:drio STATUS:               ID:20150506090749     3
 2015-05-06-0907-49M.COL___276                                                 6
 STAT SP IPHASW D HRMM SECON CODA AMPLIT PERI AZIMU VELO AIN AR TRES W  DIS CAZ7
 PAM  SZ EP        913 23.37                             162    0.1810 47.8 117 
 PAM  SN ES        913 40.14                             162    0.3110 47.8 117 
 OCA  HZ EP        913 24.69                             150    0.2810 81.8 342 
 OCA  HN ES        913 41.77                             150   -0.2210 81.8 342 
 OCA  HZ I         913 44.34        12.0 0.44            152           81.8 342 
 BAR2 EZ EP        913 26.28                             143    0.2010  105 186 
 BAR2 EZ ES        913 44.39                             143   -0.5710  105 186 
 BAR2 EZ I         913 49.79         3.8 0.24            143            105 186 
 SML  HZ EP        913 32.04                             128    0.08 9  177 322 
 SML  HN ES        913 55.04                             128   -0.38 9  177 322 
 SML  HZ I         913 57.97         3.7 0.28            129            177 322 
 ZAR  HZ EP        913 33.05                             125   -0.76 9  196 269 
 ZAR  HN ES        913 59.56                             125    0.84 9  196 269 
 ZAR  HZ I         914  9.38         1.5 0.18            124            196 269 
                                                                                
