 2013  7 6 0429 50.5 L   6.785 -73.157145.8  RSN 10 0.5 1.9LRSN                1
 GAP=136        1.16       4.0     5.5  7.2  0.1950E+01  0.3970E+01  0.5243E+00E
 Epicentro: LOS SANTOS - SANTANDER                                             3
 ACTION:UPD 13-08-12 10:35 OP:ep   STATUS:               ID:20130706042950 L   I
 OLDACT:UP  13-07-06 12:14 OP:jn   STATUS:               ID:20130706042842     3
 OLDACT:REG 13-07-06 11:26 OP:jn   STATUS:               ID:20130706042842     3
 2013-07-06-0428-42M.COL___227                                                 6
 STAT SP IPHASW D HRMM SECON CODA AMPLIT PERI AZIMU VELO AIN AR TRES W  DIS CAZ7
 BAR2 SZ EP        430 10.22                             171    0.1610 21.5 188 
 BAR2 SZ ES        430 25.21                             171   -0.1410 21.5 188 
 BAR2 SZ I         430 26.68        27.2 0.28            172           21.5 188 
 GIR2 SZ EP        430 10.23                             167    0.0510 32.7 353 
 BRR  HZ IP     C  430 11.91                             153    0.3110 70.9 300 
 BRR  HN ES        430 29.02                             153    0.9410 70.9 300 
 BRR  HZ I         430 30.15        15.5 0.34            151           70.9 300 
 PAM  SZ EP        430 13.08                             150    0.2810 79.4  39 
 PAM  SN ES   1    430 29.76                             150   -0.47 7 79.4  39 
 PAM  SZ I         430 31.01         5.2 0.20            151           79.4  39 
 RUS  HZ EP        430 14.09                             144   -0.0210 99.1 175 
 RUS  HN ES        430 32.30                             144   -0.2510 99.1 175 
 RUS  HZ I         430 34.22        11.6 0.24            146           99.1 175 
 PTB  HZ EP        430 17.08                             132   -0.22 9  146 259 
 PTB  HN ES        430 37.45                             132   -0.78 9  146 259 
 PTB  HZ I         430 40.53         9.2 0.14            131            146 259 
 OCA  HN ES   1    430 40.10                             129   -1.00 7  162 354 
 OCA  HZ I         430 49.05         8.4 0.54            129            162 354 
 ZAR  HE ES   1    430 48.00                             122   -0.12 6  204 293 
 ZAR  HZ I         430 53.39        11.3 0.28            122            204 293 
 SML  HZ EP   1    430 26.28                             117   -0.92 6  245 336 
 SML  HN ES   1    430 56.80                             117    0.95 6  245 336 
 CHI  HZ EP        430 28.18                             117    0.22 8  247 195 
 CHI  HN ES   1    430 57.70                             117    0.49 6  247 195 
 CHI  HZ I         431  2.97         5.3 0.30            118            247 195 
 ROSC BZ EP   4    430 30.67                             117    2.30 0  251 211 
                                                                                
