 2012  8 6 0455  6.5 L   6.742 -73.138143.6  RSN  6 0.4 1.9LRSN                1
 GAP=140        0.78       4.4     4.2  5.9  0.2680E+01  0.3891E+01 -0.3773E+01E
 Epicentro: JORDAN - SANTANDER                                                 3
 ACTION:UPD 12-09-10 11:54 OP:ep   STATUS:               ID:20120806045506 L   I
 2012-08-06-0450-00M.COL___216                                                 6
 STAT SP IPHASW D HRMM SECON CODA AMPLIT PERI AZIMU VELO AIN AR TRES W  DIS CAZ7
 BAR2 SZ EP        455 26.10                             173    0.2910 17.2 196 
 BAR2 SZ ES        455 40.92                             173    0.0910 17.2 196 
 BAR2 SZ I         455 42.25        29.4 0.22                          17.2 196 
 BRR  HZ EP        455 27.93                             151    0.2410 75.2 303 
 BRR  HE ES        455 44.58                             151    0.3910 75.2 303 
 BRR  HZ I         455 47.40        20.1 0.20                          75.2 303 
 PAM  SZ EP        455 28.74                             149   -0.0810 82.0  36 
 PAM  SE ES   1    455 45.57                             149   -0.62 7 82.0  36 
 RUS  HZ EP   1    455 29.40                             145   -0.23 7 94.1 176 
 RUS  HN ES        455 47.61                             145   -0.0210 94.1 176 
 RUS  HZ I         455 49.68         6.9 0.27                          94.1 176 
 PTB  HZ EP   1    455 32.85                             132   -0.46 7  147 261 
 PTB  HN ES   1    455 53.63                             132   -0.56 7  147 261 
 PTB  HZ I         455 56.42         6.0 0.11                           147 261 
 ZAR  HZ EP   1    455 39.71                             121    0.52 6  207 294 
 ZAR  HN ES   1    456  4.28                             121   -0.37 6  207 294 
 ZAR  HZ I         456 10.92         9.1 0.20                           207 294 
                                                                                
