 2012 12 6 0203 48.3 L   6.563 -73.569101.4  RSN 12 0.5 1.7LRSN                1
 GAP= 61        0.89       3.1     3.4  7.9 -0.1535E+01  0.1243E+02 -0.3285E+00E
 Epicentro: EL CARMEN DE CHUCURI - SANTANDER                                   3
 ACTION:UPD 13-01-04 14:26 OP:ep   STATUS:               ID:20121206020348 L   I
 2012-12-06-0200-00M.COL___237                                                 6
 STAT SP IPHASW D HRMM SECON CODA AMPLIT PERI AZIMU VELO AIN AR TRES W  DIS CAZ7
 BAR2 SZ IP        2 4  3.72                             155    0.2710 42.9  86 
 BAR2 SZ I         2 4 17.97        85.7 0.32                          42.9  86 
 GIR2 SZ EP     D  2 4  5.21                             142    0.1510 70.5  36 
 GIR2 SZ ES   1    2 4 18.59                             142    0.48 7 70.5  36 
 GIR2 SZ I         2 4 22.13        10.0 0.48                          70.5  36 
 RUS  HZ EP        2 4  6.78                             135   -0.4710 91.6 144 
 RUS  HN ES   1    2 4 22.19                             135    0.19 7 91.6 144 
 RUS  HZ I         2 4 27.20         3.0 0.18                          91.6 144 
 PTB  HZ EP     C  2 4  6.61                             132   -0.5810 98.2 269 
 PTB  HN ES   1    2 4 21.48                             132   -0.41 7 98.2 269 
 PTB  HZ I         2 4 22.89        14.4 0.20                          98.2 269 
 PAM  SZ EP   1    2 4 10.32                             124   -0.45 7  129  48 
 PAM  SN ES   1    2 4 28.14                             124   -0.13 7  129  48 
 PAM  SZ I         2 4 29.27         8.5 0.40                           129  48 
 ZAR  HZ EP   1    2 4 15.96                             114    0.82 7  176 306 
 ZAR  HN ES   4    2 4 38.50                             114    2.45 0  176 306 
 HEL  HZ EP   2    2 4 20.73                             109    0.02 4  221 259 
 HEL  HN ES   1    2 4 46.03                             109    0.06 6  221 259 
 HEL  HZ I         2 4 52.99         2.5 0.24                           221 259 
 URE  HN ES   2    2 4 51.78                             105   -0.23 4  254 301 
 SML  HZ EP   1    2 4 23.73                             105   -0.36 6  254 347 
 SML  HE ES   1    2 4 52.62                             105    0.65 6  254 347 
 SML  HZ I         2 4 56.24         9.5 0.10                           254 347 
 RREF HZ EP   1    2 4 27.64                             104    0.90 6  269 227 
 RREF HN ES   1    2 4 57.43                             104    0.74 6  269 227 
 RREF HZ I         2 5  2.95         3.7 0.30                           269 227 
 MON  HZ EP   4    2 4 32.38                              99   -1.63 0  337 317 
 MON  HN ES   1    2 5  8.94                              99   -0.69 5  337 317 
 MON  HZ I         2 5 11.25         1.4 0.26                           337 317 
 PRA  HZ EP   1    2 4 35.28                              99   -0.03 5  347 205 
 PRA  HN ES   1    2 5 11.89                              99   -0.06 5  347 205 
 PRA  HZ I         2 5 17.11         3.0 0.32                           347 205 
                                                                                
