 2014  5 6 0446  6.5 L   6.795 -73.138145.7  RSN  4 0.5 1.3LRSN                1
 GAP=138        1.24       6.6     6.0 12.1 -0.5294E+00  0.2867E+02 -0.7778E+01E
 Epicentro: LOS SANTOS - SANTANDER                                             3
 ACTION:UPD 15-03-16 16:55 OP:nd   STATUS:               ID:20140506044606 L   I
 OLDACT:DUP 14-05-06 16:02 OP:carl STATUS:               ID:20140506043810d    3
 2014-05-06-0438-09M.COL___236                                                 6
 STAT SP IPHASW D HRMM SECON CODA AMPLIT PERI AZIMU VELO AIN AR TRES W  DIS CAZ7
 PAM  SZ EP        446 28.43                             151   -0.3110 77.3  39 
 PAM  SN ES        446 46.13                             151    0.0810 77.3  39 
 PAM  SZ I         446 48.48         3.9 0.48            152           77.3  39 
 RUS  HZ EP        446 30.50                             144    0.2610  100 176 
 RUS  HN ES        446 48.78                             144    0.0510  100 176 
 RUS  HZ I         446 49.50         2.2 0.22            149            100 176 
 PTB  HZ EP        446 32.61                             132   -0.95 9  148 259 
 PTB  HE ES        446 54.76                             132    0.12 9  148 259 
 PTB  HZ I         446 55.72         2.7 0.24            133            148 259 
 ZAR  HZ EP        446 40.12                             122    1.04 9  205 292 
 ZAR  HE ES        447  4.31                             122   -0.14 9  205 292 
 ZAR  HZ I         447 11.09         2.9 0.26            123            205 292 
                                                                                
