 2016 12 6 0153 55.8 L   6.814 -73.132152.6  RSN 16 0.4 2.4LRSN                1
 GAP= 73        1.03       3.3     3.1  5.0 -0.8703E+00  0.3315E+01  0.3562E+01E
 Epicentro: LOS SANTOS - SANTANDER                                             3
 ACTION:UPD 17-01-11 20:12 OP:rebc STATUS:               ID:20161206015355 L   I
 OLDACT:UP  16-12-06 17:15 OP:ar   STATUS:               ID:20161206014744     3
 OLDACT:REG 16-12-06 13:20 OP:ar   STATUS:               ID:20161206014744     3
 2016-12-06-0148-00M.COL___343                                                 6
 STAT SP IPHASW D HRMM SECON CODA AMPLIT PERI AZIMU VELO AIN AR TRES W  DIS CAZ7
 BAR2 EZ EP        154 16.10                             170   -0.1510 25.2 193 
 BAR2 EZ ES        154 32.14                             170   -0.0910 25.2 193 
 BAR2 EZ I         154 33.92        57.1 0.32            166           25.2 193 
 BRR  HZ IP     C  154 18.03                             153    0.3510 71.8 297 
 BRR  HN ES        154 35.55                             153    0.7710 71.8 297 
 BRR  HZ I         154 39.29        32.3 0.14            150           71.8 297 
 PAM  EZ IP     C  154 18.93                             153    0.3410 75.2  39 
 PAM  EN ES        154 36.44                             153    0.0510 75.2  39 
 PAM  EZ I         154 38.39        29.8 0.52            158           75.2  39 
 RUS  HZ EP        154 20.06                             145   -0.2410  102 177 
 RUS  HN ES        154 38.88                             145   -0.5510  102 177 
 RUS  HZ I         154 39.82        20.0 0.22            144            102 177 
 PTB  HZ EP        154 22.91                             133   -0.54 9  150 258 
 PTB  HN ES        154 44.36                             133   -0.69 9  150 258 
 PTB  HZ I         154 49.94        48.2 0.30            131            150 258 
 TAM  HZ EP        154 24.26                             132    0.36 9  154 106 
 TAM  HN ES        154 45.67                             132   -0.18 9  154 106 
 ZAR  HZ EP        154 28.31                             124   -0.43 9  205 292 
 ZAR  HE ES        154 54.65                             124    0.19 9  205 292 
 ZAR  HZ I         155  0.93        29.8 0.58            123            205 292 
 NOR  HZ EP        154 31.90                             120   -0.22 8  237 234 
 NOR  HN ES        155  0.90                             120    0.42 8  237 234 
 NOR  HZ I         155  4.66        12.5 0.28            119            237 234 
 CHI  HZ EP        154 34.19                             118    0.14 8  251 195 
 CHI  HN ES        155  3.76                             118   -0.16 8  251 195 
 CHI  HZ I         155 11.32        10.7 0.34            118            251 195 
 ROSC BZ EP   4    154 35.81                             118    1.32 0  255 211 
 ROSC BN ES        155  5.15                             118    0.45 8  255 211 
 ROSC BZ I         155 14.20        18.4 0.45            118            255 211 
 URE  HZ EP   4    154 40.43                             115    3.17 0  285 292 
 URE  HN ES   4    155  7.89                             115   -1.74 0  285 292 
 URE  HZ I         155 20.43        12.2 0.40            115            285 292 
 ELA  HZ EP   9    154 46.37                             111    3.22 0  331 229 
 ELA  HE ES        155 22.49                             111   -0.84 7  331 229 
 ELA  HZ I         155 35.95         6.8 0.56            111            331 229 
 PRA  HZ EP        154 49.61                             107   -0.16 6  394 210 
 PRA  HN ES        155 31.99                             107    0.09 6  394 210 
 PRA  HZ I         155 35.09         8.7 0.56            108            394 210 
 ORTC HZ EP        154 50.64                             107    0.47 6  398 216 
 ORTC HN ES        155 33.80                             107    1.19 6  398 216 
 ORTC HZ I         155 39.73         7.4 0.38            107            398 216 
 PAL  HZ EP        154 51.33                             107   -0.07 6  408 239 
 SJC  HZ EP        154 50.57                             107   -0.92 6  409 327 
 SJC  HN ES   4    155 31.66                             107   -3.31 0  409 327 
 SJC  HZ I         155 35.02         4.4 0.34            107            409 327 
                                                                                
