 2014  6 6 0907 47.6 L   6.780 -73.164139.9  RSN 17 0.5 2.1LRSN                1
 GAP=135        1.01       2.6     3.8  5.8 -0.1362E+01  0.8108E+01  0.1582E+01E
 Epicentro: LOS SANTOS - SANTANDER                                             3
 OLDACT:REG 14-06-06 13:22 OP:fm   STATUS:               ID:20140606085809     3
 ACTION:UPD 14-07-01 22:51 OP:nd   STATUS:               ID:20140606090747 L   I
 OLDACT:UP  14-06-06 18:08 OP:fm   STATUS:               ID:20140606085809     3
 2014-06-06-0858-09M.COL___256                                                 6
 STAT SP IPHASW D HRMM SECON CODA AMPLIT PERI AZIMU VELO AIN AR TRES W  DIS CAZ7
 BAR2 SZ EP        9 8  6.38                             171   -0.1010 20.9 185 
 BAR2 SZ ES   1    9 8 21.47                             171    0.26 7 20.9 185 
 BAR2 SZ I         9 8 22.87        17.6 0.26            169           20.9 185 
 PAM  SZ EP        9 8  9.38                             149   -0.0010 80.4  40 
 PAM  SE ES        9 8 26.66                             149    0.2910 80.4  40 
 PAM  SZ I         9 8 28.60        10.7 0.50            147           80.4  40 
 RUS  HZ EP        9 8 10.42                             143   -0.2110 98.6 175 
 RUS  HN ES        9 8 28.40                             143   -0.2010 98.6 175 
 RUS  SZ I         9 8 30.09         9.8 0.66            140           98.6 175 
 PTB  HZ EP        9 8 13.00                             131   -0.87 9  145 260 
 PTB  HN ES        9 8 33.73                             131   -0.63 9  145 260 
 PTB  SZ I         9 8 36.06        13.1 0.14            125            145 260 
 SPBC HN ES   1    9 8 36.69                             128   -0.34 7  160 219 
 OCA  HZ EP        9 8 15.30                             128   -0.34 9  162 354 
 OCA  HN ES        9 8 37.92                             128    0.40 9  162 354 
 OCA  SZ I         9 8 44.58        11.2 0.38            123            162 354 
 ZAR  HZ EP        9 8 19.52                             121   -0.03 9  203 293 
 ZAR  HE ES        9 8 44.25                             121   -0.23 9  203 293 
 ZAR  SZ I         9 8 49.48        10.3 0.24            116            203 293 
 NOR  HZ EP        9 8 22.51                             117   -0.16 8  232 235 
 NOR  HN ES        9 8 50.84                             117    0.81 8  232 235 
 NOR  SZ I         9 8 55.77         8.3 0.20            113            232 235 
 SML  HZ EP   4    9 8 21.38                             116   -2.64 0  245 336 
 SML  HN ES        9 8 52.87                             116    0.43 8  245 336 
 SML  SZ I         9 8 59.61        14.2 0.08            112            245 336 
 CHI  HZ EP        9 8 24.43                             116   -0.26 8  246 195 
 CHI  HN ES        9 8 54.04                             116    0.42 8  246 195 
 CHI  SZ I         9 8 59.02         7.1 0.36            112            246 195 
 ROSC BZ EP   4    9 8 26.62                             116    1.54 0  250 211 
 ROSC BN ES   4    9 8 57.31                             116    2.99 0  250 211 
 ROSC SZ I         9 9  0.93        17.0 0.40            112            250 211 
 HEL  HZ EP   4    9 8 25.30                             114   -1.93 0  270 256 
 HEL  HN ES        9 8 58.25                             114    0.10 8  270 256 
 URE  HE ES   4    9 8 56.86                             112   -3.12 0  283 292 
 GUY2CHZ EP        9 8 31.50                             111    0.89 7  298 235 
 GUY2CHN ES   4    9 9  9.14                             111    4.99 0  298 235 
 GUY2CSZ I         9 9 11.18         6.4 1.28                           298 235 
 RREF HN ES   4    9 9 12.83                             110    4.15 0  319 229 
 CBOC HZ EP        9 8 34.46                             109    0.49 7  331 252 
 CBOC SZ I         9 9 11.05         3.0 1.02            105            331 252 
 CBOC HN ES   4    9 9 12.54                             109    2.40 0  331 252 
 TOL  SZ EP   1    9 8 35.97                             108    0.70 5  340 225 
 TOL  SN ES   4    9 9 13.98                             108    1.52 0  340 225 
 TOL  SZ I         9 9 24.31        11.0 0.66            105            340 225 
 PRA  HZ EP        9 8 39.97                             106   -0.61 6  389 209 
 PRA  HN ES        9 9 22.80                             106    0.90 6  389 209 
 PRA  SZ I         9 9 27.58         6.8 1.10            103            389 209 
 ORTC HZ EP        9 8 40.65                             105   -0.32 6  392 216 
 ORTC HN ES   4    9 9 24.13                             105    1.53 0  392 216 
 ORTC SZ I         9 9 30.01         7.3 2.34            102            392 216 
                                                                                
