 2014  2 6 0527 15.9 L   6.795 -73.135146.4  RSN 12 0.4 1.9LRSN                1
 GAP=138        0.77       2.1     3.7  5.5 -0.1100E+01  0.8815E+01  0.5329E+00E
 Epicentro: LOS SANTOS - SANTANDER                                             3
 ACTION:UPD 14-03-10 08:07 OP:ep   STATUS:               ID:20140206052715 L   I
 OLDACT:UP  14-02-06 12:38 OP:mh   STATUS:               ID:20140206052000     3
 OLDACT:REG 14-02-06 08:24 OP:mh   STATUS:               ID:20140206052000     3
 2014-02-06-0520-00M.COL___291                                                 6
 STAT SP IPHASW D HRMM SECON CODA AMPLIT PERI AZIMU VELO AIN AR TRES W  DIS CAZ7
 BAR2 SZ EP   1    527 35.72                             171    0.11 7 23.0 193 
 BAR2 SZ I         527 52.47        31.6 0.18            168           23.0 193 
 PAM  SZ EP        527 38.59                             151    0.4210 77.0  39 
 PAM  SN ES        527 55.67                             151    0.1310 77.0  39 
 PAM  SZ I         527 57.99        18.1 0.54            154           77.0  39 
 RUS  HZ EP        527 39.57                             144   -0.1110100.0 177 
 RUS  HN ES        527 57.98                             144   -0.2410100.0 177 
 RUS  HZ I         528  0.03         5.7 0.19            144          100.0 177 
 PTB  HZ EP   1    527 42.33                             132   -0.70 7  149 259 
 PTB  HZ I         528  9.54         9.3 0.15            130            149 259 
 OCA  HZ EP   1    527 44.04                             130   -0.29 7  161 353 
 OCA  HN ES        528  6.41                             130   -0.09 9  161 353 
 OCA  HZ I         528 10.87         6.7 0.13            129            161 353 
 SPBC HZ EP        527 44.62                             129    0.13 9  164 219 
 SPBC HN ES        528  6.79                             129    0.01 9  164 219 
 SPBC HZ I         528 12.22        12.5 0.10            128            164 219 
 ZAR  HZ EP        527 48.30                             122   -0.23 8  205 292 
 ZAR  HN ES        528 13.76                             122   -0.22 8  205 292 
 ZAR  HZ I         528 21.34         9.6 0.31            121            205 292 
 NOR  HZ EP        527 51.58                             118   -0.16 8  235 235 
 NOR  HN ES        528 20.06                             118    0.36 8  235 235 
 NOR  HZ I         528 25.44         5.5 0.19            117            235 235 
 SML  HZ EP        527 52.07                             117   -0.61 8  245 335 
 SML  HN ES        528 21.90                             117    0.54 8  245 335 
 SML  HZ I         528 26.24        11.2 0.07            117            245 335 
 CHI  HZ EP        527 53.56                             117   -0.06 8  248 195 
 CHI  HN ES   1    528 22.73                             117   -0.30 6  248 195 
 CHI  HZ I         528 31.64         2.7 0.52            117            248 195 
 GUY2CHZ EP        528  0.54                             112    0.92 7  302 235 
 GUY2CHE ES   4    528 36.42                             112    2.70 0  302 235 
 GUY2CHZ I         528 42.68         3.4 0.28                           302 235 
 RREF BN ES   4    528 41.40                             111    3.20 0  322 230 
 PRA  HZ EP        528  9.59                             107    0.13 6  392 210 
 PRA  HN ES   1    528 51.48                             107    0.24 4  392 210 
 PRA  HZ I         528 57.42         4.5 0.18            106            392 210 
                                                                                
