 2014  6 6 0313 12.5 L   6.620 -74.247 23.4  RSN  6 0.4 1.4LRSN                1
 GAP=156        0.89       4.5     2.5  3.2 -0.7381E+01 -0.4128E+01  0.8815E+01E
 Epicentro: PUERTO PARRA - SANTANDER                                           3
 OLDACT:REG 14-06-06 13:00 OP:fm   STATUS:               ID:20140606030818     3
 ACTION:UPD 14-07-01 22:51 OP:nd   STATUS:               ID:20140606031312 L   I
 OLDACT:UP  14-06-06 16:36 OP:fm   STATUS:               ID:20140606030818     3
 2014-06-06-0308-18M.COL___265                                                 6
 STAT SP IPHASW D HRMM SECON CODA AMPLIT PERI AZIMU VELO AIN AR TRES W  DIS CAZ7
 PTB  HZ IP     C  313 17.93                             131   -0.1210 24.8 249 
 PTB  HN ES        313 22.09                             131   -0.2610 24.8 249 
 PTB  HZ I         313 22.33        74.2 0.18            131           24.8 249 
 BRR  HZ EP        313 25.79                             104    0.1710 80.0  48 
 BRR  HE ES        313 35.79                             104   -0.0310 80.0  48 
 BAR2 SZ EP   1    313 30.83                              56   -0.30 7  118  91 
 BAR2 SZ ES   1    313 44.80                              56   -0.84 7  118  91 
 BAR2 HZ I         313 50.34         3.8 1.38             56            118  91 
 HEL  HZ EP        313 35.58                              56    0.31 9  150 252 
 HEL  HN ES        313 52.87                              56   -0.13 9  150 252 
 HEL  HZ I         313 53.32         4.5 0.24             56            150 252 
 RUS  HZ EP        313 36.23                              56    0.53 9  152 122 
 RUS  HE ES        313 53.90                              56    0.14 9  152 122 
 RUS  HZ I         313 54.95         4.3 1.64             56            152 122 
 GUY2CHZ EP        313 41.98                              56    0.54 9  198 219 
 GUY2CHN ES   1    314  3.33                              56   -0.65 6  198 219 
 GUY2CHZ I         314  5.69         3.9 3.16                           198 219 
                                                                                
