 2012  1 6 0835 33.0 L   6.770 -73.130152.1  RSN  7 0.3 1.4LRSN                1
 GAP=140        0.54       4.1     4.3  5.6  0.1619E+01  0.4841E+01 -0.1644E+01E
 Epicentro: LOS SANTOS - SANTANDER                                             3
 ACTION:UP  12-02-03 08:14 OP:REBC STATUS:               ID:20120106083533 L   I
 2012-01-06-0830-00M.COL___186                                                 6
 STAT SP IPHASW D HRMM SECON CODA AMPLIT PERI AZIMU VELO SNR AR TRES W  DIS CAZ7
 BAR2 SZ EP   1    835 53.28                             172    -0.1 7   21 196 
 BAR2 SZ ES   2    836  8.63                             172    -0.6 5   21 196 
 BAR2 SZ I         836  9.41         6.7 0.81                            21 196 
 GIR2 SZ EP   1    835 53.60                             166     0.0 7   35 348 
 GIR2 SZ ES   2    836  9.50                             166    -0.1 5   35 348 
 BRR  HZ EP   1    835 55.32                             153     0.3 7   74 300 
 BRR  HN ES   2    836 12.75                             153     0.5 5   74 300 
 BRR  HZ I         836 14.37         6.0 0.28                            74 300 
 PAM  SZ EP   1    835 56.18                             151     0.2 7   79  37 
 PAM  SN ES   2    836 13.59                             151    -0.4 5   79  37 
 RUS  HZ EP   1    835 57.18                             146     0.0 7   97 177 
 RUS  HN ES   1    836 16.27                             146     0.3 7   97 177 
 RUS  HZ I         836 17.12         1.8 0.27                            97 177 
 PTB  HZ EP   1    836  0.28                             133    -0.4 7  149 260 
 PTB  HE ES   2    836 21.98                             133    -0.2 5  149 260 
 ZAR  HZ EP   2    836  5.94                             123    -0.3 4  207 293 
 ZAR  HN ES   2    836 32.27                             123     0.2 4  207 293 
 ZAR  HZ I         836 37.65         3.9 0.43                           207 293 
                                                                                
