 2014 11 6 0328 21.2 L   6.767 -73.159148.1  RSN  7 0.4 1.6LRSN                1
 GAP=233        1.01       4.8     5.6  6.4  0.2835E+01  0.5909E+01  0.7901E+01E
 Epicentro: LOS SANTOS - SANTANDER                                             3
 ACTION:UPD 14-12-19 15:39 OP:nd   STATUS:               ID:20141106032821 L   I
 OLDACT:REG 14-11-06 13:33 OP:carl STATUS:               ID:20141106031745     3
 2014-11-06-0317-45M.COL___277                                                 6
 STAT SP IPHASW D HRMM SECON CODA AMPLIT PERI AZIMU VELO AIN AR TRES W  DIS CAZ7
 BAR2 SZ EP        328 40.80                             172   -0.1910 19.5 188 
 BAR2 SZ ES        328 56.05                             172   -0.4210 19.5 188 
 BAR2 SZ I         328 57.61         8.3 0.44            168           19.5 188 
 BRR  HZ EP        328 42.79                             153    0.2110 71.7 302 
 BRR  HN ES        328 59.90                             153    0.6010 71.7 302 
 BRR  HZ I         329  4.96         7.1 0.14            151           71.7 302 
 RUS  HZ EP        328 45.02                             145    0.1410 97.1 175 
 RUS  HN ES        329  3.47                             145    0.0710 97.1 175 
 RUS  HZ I         329  4.41         4.7 0.26            146           97.1 175 
 PTB  HZ EP        328 47.69                             133   -0.43 9  146 260 
 PTB  HN ES        329  8.43                             133   -0.73 9  146 260 
 PTB  HZ I         329 13.38         6.7 0.30            132            146 260 
 SPBC HZ EP        328 49.55                             130    0.07 9  159 219 
 SPBC HE ES        329 12.10                             130    0.53 9  159 219 
 SPBC HZ I         329 16.75         5.9 0.22            130            159 219 
 NOR  HZ EP        328 56.38                             119   -0.28 8  231 235 
 NOR  HN ES        329 24.82                             119    0.45 8  231 235 
 NOR  HZ I         329 29.08         4.5 0.18            120            231 235 
 CHI  HZ EP        328 58.98                             118    0.42 8  245 195 
 CHI  HN ES        329 27.29                             118   -0.45 8  245 195 
 CHI  HZ I         329 34.03         2.6 0.24            119            245 195 
                                                                                
