 2012  1 6 0626 51.2 L   6.277 -73.554122.7  RSN  7 0.3 1.2LRSN                1
 GAP= 79        0.58       3.9     4.0  8.7  0.3535E+01  0.8639E+01  0.4340E+01E
 Epicentro: EL GUACAMAYO - SANTANDER                                           3
 ACTION:UP  12-02-03 08:14 OP:REBC STATUS:               ID:20120106062651 L   I
 2012-01-06-0620-00M.COL___186                                                 6
 STAT SP IPHASW D HRMM SECON CODA AMPLIT PERI AZIMU VELO SNR AR TRES W  DIS CAZ7
 BAR2 SZ EP   1    627  9.23                             155     0.0 7   54  50 
 BAR2 SZ I         627 10.98         5.9 0.55                            54  50 
 BAR2 SZ ES   2    627 23.35                             155     0.1 5   54  50 
 RUS  HZ EP        627 10.25                             150    -0.110   67 129 
 RUS  HN ES   2    627 25.06                             150    -0.2 5   67 129 
 RUS  HZ I         627 26.00         1.8 0.24                            67 129 
 BRR  HZ EP   1    627 11.62                             140     0.2 7   93 349 
 BRR  HN ES   2    627 27.80                             140     0.5 5   93 349 
 BRR  HZ I         627 35.91         4.3 0.25                            93 349 
 PTB  HZ EP   1    627 11.98                             137    -0.4 7  104 286 
 PTB  HN ES   2    627 28.28                             137    -0.6 5  104 286 
 NOR  SN ES   2    627 39.76                             123     0.5 5  166 242 
 CHI  HE ES   2    627 43.95                             120     0.5 4  183 186 
 ZAR  HN ES   2    627 45.29                             118     0.2 4  197 313 
                                                                                
