 2010  2 6 0911 36.4 L   6.800 -73.139133.8  RSN  8 0.6 1.9LRSN                1
 GAP=159        1.22       6.0    12.7 13.4 -0.3947E+02  0.8746E+02 -0.2316E+02E
 Epicentro: LOS SANTOS - SANTANDER                                             3
 ACTION:UP  10-08-24 09:47 OP:vdl  STATUS:               ID:20100206091136 L   I
 2010-02-06-0859-50S.COL___088                                                 6
 STAT SP IPHASW D HRMM SECON CODA AMPLIT PERI AZIMU VELO SNR AR TRES W  DIS CAZ7
 BAR2 SZ IP        911 54.65                             170     0.110   24 192 
 BAR2 SZ ES   2    912  8.37                             170    -0.4 5   24 192 
 RUS  HZ EP        911 58.54                             141    -0.410  101 176 
 RUS  HN ES   1    912 17.06                             141     0.5 7  101 176 
 RUS  HZ I         912 18.74        10.1 0.27                           101 176 
 GUE  SZ EP   1    912  0.74                             137     0.8 7  116  12 
 GRA  SZ IP        912  0.69                             134     0.210  126  17 
 GRA  SZ ES   1    912 19.44                             134     0.0 7  126  17 
 OCA  SZ EP   1    912  2.45                             127    -1.3 7  160 353 
 CHI  HZ EP   1    912 12.94                             115    -0.5 6  249 195 
 CHI  HE ES   2    912 41.76                             115    -0.6 4  249 195 
 HEL  HZ EP   1    912 16.98                             112     0.9 6  273 256 
 HEL  HE ES   2    912 46.85                             112    -0.2 4  273 256 
 HEL  HZ I         912 53.68         3.8 0.47                           273 256 
 RREF HZ EP   1    912 23.17                             109     1.1 5  322 229 
 RREF HE ES   2    912 56.71                             109    -1.0 3  322 229 
 RREF HZ I         913  3.32         4.8 0.46                           322 229 
                                                                                
