 2011  2 6 0408  3.0 L   6.778 -73.282138.0  RSN  5 0.2 1.4LRSN                1
 GAP=174        0.52       4.1    18.0  7.9 -0.5133E+02  0.6760E+02 -0.8909E+01E
 Epicentro: ZAPATOCA - SANTANDER                                               3
 ACTION:UP  11-03-28 15:06 OP:jfem STATUS:               ID:20110206040803 L   I
 2011-02-06-0404-35S.COL___138                                                 6
 STAT SP IPHASW D HRMM SECON CODA AMPLIT PERI AZIMU VELO SNR AR TRES W  DIS CAZ7
 BTL  SZ EP   1    4 8 21.54                             173     0.0 8   16   6 
 BAR2 SZ ES   2    4 8 36.07                             171    -0.2 5   23 152 
 RUS  HZ EP        4 8 25.66                             143    -0.310  100 167 
 RUS  HN ES   1    4 8 44.09                             143     0.2 7  100 167 
 RUS  HZ I         4 8 45.02         4.9 0.28                           100 167 
 GRA  SZ EP   2    4 8 28.18                             134     0.0 5  133  23 
 GRA  SZ ES   1    4 8 48.02                             134     0.2 7  133  23 
 GRA  SZ I         4 8 48.90         3.8 0.21                           133  23 
 CHI  HZ EP   2    4 8 39.66                             116     0.1 4  243 192 
 CHI  HZ I         4 8 42.08         1.6 0.43                           243 192 
 CHI  HE ES   2    4 9  8.74                             116     0.6 4  243 192 
                                                                                
