 2013  6 6 0334 18.1 L   6.806 -73.168141.3  RSN  5 0.4 2.1LRSN                1
 GAP=199        0.78       4.7     6.3  8.2  0.1368E+02 -0.1170E+02 -0.1384E+02E
 Epicentro: LOS SANTOS - SANTANDER                                             3
 ACTION:UPD 14-01-08 09:52 OP:ep   STATUS:               ID:20130606033418 L   I
 OLDACT:REG 13-06-06 09:31 OP:mh   STATUS:               ID:20130606033000     3
 2013-06-06-0330-00M.COL___257                                                 6
 STAT SP IPHASW D HRMM SECON CODA AMPLIT PERI AZIMU VELO AIN AR TRES W  DIS CAZ7
 BAR2 SZ EP   1    334 37.30                             170    0.11 7 23.7 184 
 BRR  HZ EP   1    334 39.25                             153    0.63 7 68.7 299 
 BRR  HN ES        334 54.89                             153    0.2610 68.7 299 
 BRR  HN I         335  1.05        23.0 0.18            153           68.7 299 
 RUS  HZ EP   1    334 41.84                             143    0.37 7  101 175 
 RUS  HE ES        334 59.32                             143   -0.3810  101 175 
 PTB  HZ EP   1    334 44.32                             132   -0.17 7  145 258 
 PTB  HN ES        335  4.94                             132   -0.14 9  145 258 
 PTB  HN I         335  7.43        11.0 0.36            136            145 258 
 SML  HZ EP   1    334 54.14                             117   -0.15 6  242 336 
 SML  HN ES   1    335 21.83                             117   -0.70 6  242 336 
 SML  HN I         335 27.99        15.4 0.10            119            242 336 
                                                                                
