 2012  1 6 0016 45.2 L   6.768 -73.169146.6  RSN  9 0.3 1.7LRSN                1
 GAP=135        0.66       3.8     4.3  6.0 -0.1344E+01  0.4305E+01  0.3268E+01E
 Epicentro: LOS SANTOS - SANTANDER                                             3
 ACTION:UP  12-02-03 08:14 OP:REBC STATUS:               ID:20120106001645 L   I
 2012-01-06-0010-00M.COL___186                                                 6
 STAT SP IPHASW D HRMM SECON CODA AMPLIT PERI AZIMU VELO SNR AR TRES W  DIS CAZ7
 BAR2 SZ EP   1    017  4.81                             172    -0.1 7   20 184 
 BAR2 SZ I         017  5.07         8.4 0.09                            20 184 
 BAR2 SZ ES   2    017 20.79                             172     0.6 5   20 184 
 GIR2 SZ EP   1    017  4.76                             166    -0.3 7   34 355 
 GIR2 SZ ES   2    017 21.01                             166     0.4 5   34 355 
 BRR  HZ EP   1    017  6.46                             153     0.0 7   71 302 
 BRR  HZ I         017 13.08        21.9 0.37                            71 302 
 BRR  HN ES   2    017 23.67                             153     0.7 5   71 302 
 PAM  SZ EP   1    017  7.78                             150     0.0 7   82  39 
 PAM  SN ES   1    017 25.06                             150    -0.3 7   82  39 
 RUS  HZ EP   1    017  9.09                             145     0.3 7   97 174 
 RUS  HN ES   1    017 27.09                             145    -0.2 7   97 174 
 PTB  HZ EP   1    017 11.71                             133    -0.3 7  145 260 
 PTB  HN ES   1    017 32.41                             133    -0.4 7  145 260 
 OCA  SZ EP   2    017 14.31                             129     0.4 5  163 354 
 OCA  SZ I         017 40.61         7.7 0.36                           163 354 
 ZAR  HE ES   2    017 43.17                             123     0.3 4  203 293 
 CHI  HZ EP   1    017 23.09                             118     0.6 6  245 195 
 CHI  HE ES   2    017 51.48                             118    -0.2 4  245 195 
 CHI  HZ I         018  0.27         1.6 0.47                           245 195 
                                                                                
