 2011 10 6 0057 56.3 L   6.571 -73.515107.6  RSN  8 0.3 2.3LRSN                1
 GAP= 86        0.71       3.3     4.9  6.4  0.4108E+00  0.1253E+02 -0.2016E+01E
 Epicentro: EL CARMEN DE CHUCURI - SANTANDER                                   3
 ACTION:UPD 12-07-13 16:02 OP:ep   STATUS:               ID:20111006005756 L   I
 2011-10-06-0056-39S.COL___159                                                 6
 STAT SP IPHASW D HRMM SECON CODA AMPLIT PERI AZIMU VELO AIN AR TRES W  DIS CAZ7
 BAR2 SZ EP        058 12.19                             160    0.3410 36.8  86 
 BAR2 SZ ES   1    058 23.33                             160   -0.64 7 36.8  86 
 BAR2 SZ I         058 25.46       401.3 0.16                          36.8  86 
 BRR  HZ EP   1    058 12.75                             147   -0.19 7 63.2 340 
 BRR  HN ES   1    058 26.22                             147    0.31 7 63.2 340 
 BRR  HZ I         058 27.50        41.6 0.12                          63.2 340 
 GIR2 SZ EP   1    058 13.57                             146    0.21 7 66.5  32 
 RUS  HZ EP   1    058 15.50                             138   -0.05 7 88.9 147 
 RUS  HN ES   1    058 30.83                             138    0.27 7 88.9 147 
 RUS  HZ I         058 33.96        10.7 0.31                          88.9 147 
 PAM  SZ EP   1    058 18.62                             127   -0.08 7  124  47 
 PAM  SZ I         058 21.29        16.6 0.26                           124  47 
 PAM  SN ES   1    058 36.20                             127    0.04 7  124  47 
 ZAR  HZ EP   1    058 24.39                             116    0.46 7  180 305 
 ZAR  HZ I         058 50.78        30.1 0.41                           180 305 
 OCA  SZ EP   1    058 24.73                             115   -0.01 7  186   7 
 OCA  SZ ES   1    058 46.50                             115   -0.41 7  186   7 
 OCA  SZ I         058 52.36        25.5 0.45                           186   7 
 NOR  SZ EP   1    058 24.06                             115   -0.67 7  187 233 
                                                                                
