 2017  4 6 0529 58.0 L   6.762 -73.169142.5  RSN 14 0.3 2.1LRSN                1
 GAP=111        0.88       2.9     2.8  4.7  0.1287E+01  0.1996E+01  0.3119E+01E
 Epicentro: LOS SANTOS - SANTANDER                                             3
 ACTION:UPD 17-05-30 21:08 OP:jn   STATUS:               ID:20170406052958 L   I
 OLDACT:REG 17-04-06 12:57 OP:cara STATUS:               ID:20170406052703     3
 2017-04-06-0528-00M.COL___359                                                 6
 STAT SP IPHASW D HRMM SECON CODA AMPLIT PERI AZIMU VELO AIN AR TRES W  DIS CAZ7
 BAR2 EZ E      C  530 17.08                                           18.8 185 
 BAR2 EZ IP     C  530 17.08                             172   -0.0410 18.8 185 
 BAR2 EZ ES        530 32.21                             172    0.1510 18.8 185 
 BAR2 EZ I         530 34.97        35.8 0.38            168           18.8 185 
 BRR  HZ IP     C  530 18.94                             152    0.1810 71.1 302 
 BRR  HN ES        530 35.41                             152    0.4310 71.1 302 
 BRR  HZ I         530 41.26        16.9 0.14            149           71.1 302 
 PAM  EZ IP     C  530 19.84                             148   -0.3010 82.2  39 
 PAM  EN ES        530 37.00                             148   -0.4310 82.2  39 
 PAM  EZ I         530 39.23        21.1 0.52            155           82.2  39 
 RUS  HZ EP        530 21.06                             144   -0.0510 96.6 174 
 RUS  HN ES        530 39.61                             144    0.4410 96.6 174 
 RUS  HZ I         530 40.90        15.7 0.34            144           96.6 174 
 PTB  HZ EP        530 24.01                             132   -0.36 9  144 260 
 PTB  HN ES        530 44.40                             132   -0.57 9  144 260 
 PTB  HZ I         530 51.73        14.3 0.36            130            144 260 
 SPBC HZ EP        530 26.05                             129    0.30 9  158 219 
 SPBC HN ES        530 47.05                             129   -0.38 9  158 219 
 SPBC HZ I         530 53.78        30.7 0.36            128            158 219 
 YPLC HZ EP        530 27.33                             126    0.04 9  174 150 
 YPLC HE ES        530 50.38                             126    0.22 9  174 150 
 YPLC HZ I         530 52.58         8.7 0.22            129            174 150 
 ZAR  HZ EP        530 30.46                             122    0.34 9  203 294 
 ZAR  HN ES        530 55.27                             122    0.06 9  203 294 
 ZAR  HZ I         531  1.13        20.8 0.34            121            203 294 
 CHI  HZ EP        530 35.14                             117    0.17 8  244 195 
 CHI  HN ES        531  3.24                             117   -0.60 8  244 195 
 CHI  HZ I         531 10.15         3.9 0.26            117            244 195 
 HEL  HZ EP   4    530 39.41                             114    1.78 0  269 257 
 HEL  HN ES        531  9.05                             114    0.49 8  269 257 
 HEL  HZ I         531 16.14         5.8 0.36            114            269 257 
 URE  HZ EP   9    530 37.25                             113   -1.54 0  283 293 
 URE  HN ES        531  9.14                                    0.05 7  283 293 
 URE  HZ I         531 20.33         9.3 0.16            113            283 293 
 PTGC HZ EP   4 D  530 40.07                             111   -1.27 0  306 158 
 PTGC HN ES   4    531 12.63                             111   -2.55 0  306 158 
 PTGC HZ I         531 15.99         6.4 0.38            113            306 158 
 CBOC HZ EP   9    530 45.27                             109    0.95 0  330 253 
 CBOC HE ES        531 20.48                                   -0.95 7  330 253 
 CBOC HZ I         531 32.71         2.2 0.44            110            330 253 
 PRA  HZ EP        530 50.81                             106    0.01 6  387 210 
 PRA  HE ES   4    531 33.34                             106    1.33 0  387 210 
 PRA  HZ I         531 39.55         6.2 0.26            107            387 210 
 SJC  HZ EP   4    530 50.59                             105   -3.08 0  411 328 
 SJC  HN ES   4    531 33.05                             105   -4.08 0  411 328 
                                                                                
