 2011 12 6 0210 36.1 L   6.777 -73.104150.1  RSN 14 0.5 2.3LRSN                1
 GAP=119        0.83       3.1     4.6  5.6 -0.2694E+01  0.8827E+01  0.4144E+00E
 Epicentro: LOS SANTOS - SANTANDER                                             3
 ACTION:UPD 12-07-13 16:14 OP:ep   STATUS:               ID:20111206021036 L   I
 2011-12-06-0210-00M.COL___183                                                 6
 STAT SP IPHASW D HRMM SECON CODA AMPLIT PERI AZIMU VELO AIN AR TRES W  DIS CAZ7
 BAR2 SZ EP   1    210 56.02                             171   -0.25 7 22.2 203 
 BAR2 SZ ES   1    211 11.33                             171   -0.64 7 22.2 203 
 BAR2 SZ I         211 13.35        43.6 0.30                          22.2 203 
 GIR2 SZ EP   1    210 56.53                             166    0.11 7 34.8 344 
 BRR  HZ EP   1    210 58.38                             151    0.32 7 76.5 299 
 BRR  HN ES   1    211 15.94                             151    0.79 7 76.5 299 
 BRR  HZ I         211 18.51        33.5 0.19                          76.5 299 
 PAM  SZ EP   1    210 59.15                             152    0.38 7 76.6  36 
 PAM  SN ES   1    211 16.18                             152   -0.24 7 76.6  36 
 PAM  SZ I         211 18.76        17.2 0.33                          76.6  36 
 RUS  HZ EP   1    211  0.21                             146    0.09 7 97.8 179 
 RUS  HN ES   1    211 19.29                             146    0.46 7 97.8 179 
 RUS  HZ I         211 20.53        28.8 0.50                          97.8 179 
 OCA  SZ EP   1    211  5.25                             130    0.17 7  163 352 
 OCA  SZ I         211 31.90        38.9 0.26                           163 352 
 YOP  SN ES   1    211 29.43                             128    0.00 7  175 154 
 YOP  SZ I         211 31.47        18.3 0.32                           175 154 
 NOR  SZ EP   1    211 11.92                             119   -0.45 6  237 236 
 NOR  SN ES   1    211 39.89                             119   -0.74 6  237 236 
 CHI  HZ EP   1    211 14.09                             118    0.14 6  247 196 
 CHI  HN ES   1    211 42.46                             118   -0.98 6  247 196 
 CHI  HZ I         211 52.14        14.2 0.45                           247 196 
 ROSC BZ EP   1    211 14.39                             118   -0.14 6  253 212 
 HEL  HZ EP   1    211 16.99                             115   -0.01 6  276 257 
 HEL  HN ES   1    211 48.63                             115   -0.24 6  276 257 
 HEL  HZ I         211 54.78        15.4 0.27                           276 257 
 RREF HZ EP   1    211 23.36                             111    0.67 5  324 230 
 RREF HN ES   1    211 59.81                             111    0.82 5  324 230 
 COD  HZ EP   1    211 24.59                             109   -0.45 5  351 354 
 COD  HN ES   1    212  2.45                             109   -0.72 5  351 354 
 COD  HZ I         212 10.44        15.9 0.36                           351 354 
 PRA  HZ EP   1    211 30.27                             107    0.45 4  392 210 
                                                                                
