 2017  6 6 0720 44.9 L   6.748 -73.171159.8  RSN  5 0.3 1.4LRSN                1
 GAP=230        0.74       4.4     5.2  6.1  0.1101E+02 -0.1762E+01 -0.3751E+01E
 Epicentro: LOS SANTOS - SANTANDER                                             3
 ACTION:UPD 17-09-14 16:50 OP:jn   STATUS:               ID:20170606072044 L   I
 OLDACT:REG 17-06-06 12:25 OP:edw  STATUS:               ID:20170606071742     3
 2017-06-06-0718-00M.COL___350                                                 6
 STAT SP IPHASW D HRMM SECON CODA AMPLIT PERI AZIMU VELO AIN AR TRES W  DIS CAZ7
 BRR  HZ EP     D  721  7.69                             155    0.0710 71.8 304 
 BRR  HN ES        721 25.20                             155   -0.1410 71.8 304 
 BRR  HZ I         721 28.54         3.9 0.34            153           71.8 304 
 RUS  HZ EP        721  9.83                             148    0.1310 95.0 174 
 RUS  HN ES        721 29.06                             148    0.0210 95.0 174 
 RUS  HZ I         721 29.58         1.4 0.30            149           95.0 174 
 PTB  HZ EP        721 12.72                             136   -0.01 9  144 261 
 PTB  HN ES        721 33.96                             136   -0.48 9  144 261 
 PTB  HZ I         721 41.23         4.3 0.40            135            144 261 
 SPBC HZ EP        721 13.50                             133   -0.46 9  157 220 
 SPBC HN ES        721 37.06                             133    0.44 9  157 220 
 SPBC HZ I         721 40.14         6.4 0.12            133            157 220 
 ZAR  HZ EP        721 18.35                             125    0.07 9  204 294 
 ZAR  HN ES        721 44.74                             125    0.43 9  204 294 
                                                                                
