 2013  4 6 0420 23.4 L   6.785 -73.154151.4  RSN  5 0.3 1.1LRSN                1
 GAP=235        0.75       6.6     7.0  6.6  0.2908E+02  0.3181E+01  0.2804E+00E
 Epicentro: LOS SANTOS - SANTANDER                                             3
 ACTION:UPD 13-05-22 14:36 OP:EP   STATUS:               ID:20130406042023 L   I
 2013-04-06-0420-00M.COL___245                                                 6
 STAT SP IPHASW D HRMM SECON CODA AMPLIT PERI AZIMU VELO AIN AR TRES W  DIS CAZ7
 BAR2 SZ EP   1    420 43.11                             172   -0.56 7 21.5 188 
 BAR2 SZ ES   1    420 59.01                             172   -0.47 7 21.5 188 
 BRR  HZ EP        420 45.41                             154    0.2510 71.3 300 
 BRR  HN ES        421  2.32                             154    0.1910 71.3 300 
 BRR  HZ I         421  2.94         2.3 0.12            150           71.3 300 
 RUS  HZ EP        420 47.74                             145    0.1510 99.0 175 
 RUS  HE ES        421  6.73                             145    0.2710 99.0 175 
 RUS  HZ I         421  8.70         1.7 0.28            142           99.0 175 
 PTB  HZ EP        420 50.44                             134   -0.28 9  147 259 
 PTB  HE ES   1    421 11.73                             134   -0.31 7  147 259 
 PTB  HZ I         421 17.21         1.4 0.20            130            147 259 
 ZAR  HN ES   2    421 22.37                             124    0.59 4  204 293 
                                                                                
