 2015 11 6 0835  6.3 L   6.801 -73.118147.1  RSN  9 0.5 1.7LRSN                1
 GAP=140        1.10       4.5     5.1  7.0 -0.2561E+01  0.1292E+02  0.2811E+01E
 Epicentro: LOS SANTOS - SANTANDER                                             3
 ACTION:UPD 15-12-28 16:09 OP:cam  STATUS:               ID:20151106083506 L   I
 OLDACT:REG 15-11-06 11:13 OP:drio STATUS:               ID:20151106082750     3
 2015-11-06-0827-50M.COL___313                                                 6
 STAT SP IPHASW D HRMM SECON CODA AMPLIT PERI AZIMU VELO AIN AR TRES W  DIS CAZ7
 BAR2 EZ EP        835 26.20                             170    0.0410 24.2 197 
 BAR2 EZ ES        835 40.87                             170   -0.7410 24.2 197 
 BAR2 EZ I         835 43.66        14.4 0.28            172           24.2 197 
 BRR  HZ EP        835 27.83                             152    0.0410 73.8 297 
 BRR  HN ES        835 45.05                             152    0.5310 73.8 297 
 BRR  HZ I         835 49.79         6.7 0.26            143           73.8 297 
 PAM  EZ EP     C  835 28.67                             152    0.0810 75.4  38 
 PAM  EE ES        835 46.14                             152    0.2010 75.4  38 
 PAM  EZ I         835 48.11         9.1 0.44            146           75.4  38 
 RUS  HZ EP        835 29.92                             144   -0.3110  101 178 
 RUS  HN ES        835 49.12                             144    0.2610  101 178 
 RUS  HZ I         835 49.78         4.5 0.42            146            101 178 
 SPBC HZ EP        835 34.92                             129   -0.22 9  165 220 
 SPBC HN ES        835 57.82                             129    0.22 9  165 220 
 SPBC HZ I         836  2.13         9.4 0.14            126            165 220 
 ZAR  HZ EP        835 39.03                             122   -0.13 8  207 292 
 ZAR  HE ES        836  4.31                             122   -0.45 8  207 292 
 ZAR  HZ I         836 13.99         6.1 0.20            117            207 292 
 GUY2CHZ EP        835 51.02                             112    0.71 7  304 235 
 GUY2CHN ES        836 23.93                             112   -0.66 7  304 235 
 GUY2CHE ES   2    836 26.93                             112    2.34 4  304 235 
 GUY2CHZ I         836 32.71         3.5 0.28                           304 235 
 MON  HZ EP   4    835 53.37                             109   -2.30 0  356 308 
 MON  HN ES   4    836 32.22                             109   -1.91 0  356 308 
 MON  HZ I         836 37.89         0.9 0.18            105            356 308 
 SJC  HZ EP   4    836  0.28                             106   -1.85 0  411 327 
 SJC  HZ I         836 43.65         0.6 0.25            102            411 327 
 SJC  HE ES   4    836 43.98                             106   -1.67 0  411 327 
                                                                                
