 2012  4 6 0724 27.3 L   6.688 -73.212149.3  RSN  5 0.3 1.3LRSN                1
 GAP=213        0.78       8.1     7.3  9.2  0.3700E+02  0.3989E+01 -0.4052E+01E
 Epicentro: VILLANUEVA - SANTANDER                                             3
 ACTION:UPD 12-07-05 11:50 OP:tino STATUS:               ID:20120406072427 L   I
 2012-04-06-0720-00M.COL___196                                                 6
 STAT SP IPHASW D HRMM SECON CODA AMPLIT PERI AZIMU VELO AIN AR TRES W  DIS CAZ7
 BAR2 SZ EP   1    724 46.89                             176    -0.2 7   11 163 
 BAR2 SZ ES   1    725  2.69                             176     0.1 7   11 163 
 BAR2 SZ I         725  3.53         8.6 0.39                            11 163 
 BRR  HZ EP   1    724 48.71                             153    -0.1 7   72 310 
 BRR  HZ I         724 49.16         5.7 0.11                            72 310 
 BRR  HE ES   1    725  5.96                             153     0.3 7   72 310 
 RUS  HZ EP   1    724 51.11                             148     0.5 7   89 171 
 RUS  HN ES   1    725  8.38                             148    -0.4 7   89 171 
 RUS  HZ I         725 10.69         1.8 0.44                            89 171 
 PTB  HE ES   1    725 14.53                             135     0.2 7  139 263 
 PTB  HZ I         725 16.68         1.9 0.19                           139 263 
 ZAR  HE ES   1    725 24.79                             123    -0.4 6  202 296 
 ZAR  HZ I         725 30.88         2.4 0.40                           202 296 
                                                                                
