 2013  3 6 0442 13.3 L   6.786 -73.116150.6  RSN 10 0.5 2.0LRSN                1
 GAP=113        1.12       4.2     5.3  8.4  0.8692E+01  0.8583E+01 -0.4173E+00E
 Epicentro: LOS SANTOS - SANTANDER                                             3
 ACTION:UPD 13-04-09 14:00 OP:ep   STATUS:               ID:20130306044213 L   I
 2013-03-06-0440-00M.COL___228                                                 6
 STAT SP IPHASW D HRMM SECON CODA AMPLIT PERI AZIMU VELO AIN AR TRES W  DIS CAZ7
 BAR2 SZ IP   1 D  442 33.46                             171   -0.07 7 22.7 199 
 BAR2 SZ ES        442 49.24                             171   -0.0410 22.7 199 
 BAR2 SZ I         442 51.46        51.6 0.36            159           22.7 199 
 BRR  HZ IP     C  442 35.40                             152    0.2010 74.8 298 
 BRR  HN ES        442 52.79                             152    0.5210 74.8 298 
 BRR  HZ I         442 56.67        16.5 0.12            138           74.8 298 
 RUS  HZ EP        442 37.29                             145   -0.1510 98.9 178 
 RUS  HN ES        442 55.60                             145   -0.6410 98.9 178 
 RUS  HZ I         442 58.69         8.3 0.44            133           98.9 178 
 PTB  HZ EP   1    442 40.06                             133   -0.89 7  151 260 
 PTB  HN ES   4    443  1.52                             133   -0.99 0  151 260 
 PTB  HZ I         443  7.55        17.1 0.37            118            151 260 
 TAM  HN ES        443  3.43                             132    0.72 9  152 105 
 OCA  HN ES        443  4.12                             130   -0.60 9  162 352 
 OCA  HZ I         443 10.51        10.5 0.28            121            162 352 
 ZAR  HZ EP   2    442 46.63                             123    0.17 4  208 292 
 ZAR  HN ES        443 12.98                             123    0.68 8  208 292 
 ZAR  HZ I         443 18.79         8.5 0.24            111            208 292 
 SML  HZ EP   4    442 49.63                             118   -0.89 0  246 335 
 SML  HN ES        443 19.16                             118   -0.38 8  246 335 
 SML  HZ I         443 20.93        13.5 0.09            109            246 335 
 CHI  HZ EP   2    442 51.45                             118    0.22 4  248 196 
 CHI  HN ES   1    443 20.67                             118   -0.13 6  248 196 
 CHI  HZ I         443 28.63         5.7 0.50            108            248 196 
 HEL  HZ EP   2    442 55.41                             116    1.31 4  275 256 
 HEL  HZ I         443 30.84         4.9 0.38            105            275 256 
                                                                                
