 2015  1 6 0652 37.5 L   6.753 -73.153140.7  RSN  4 0.4 1.3LRSN                1
 GAP=248        1.10       7.8     8.3  9.0 -0.7597E+01  0.8873E+01  0.1510E+02E
 Epicentro: LOS SANTOS - SANTANDER                                             3
 ACTION:UPD 15-03-02 15:37 OP:nd   STATUS:               ID:20150106065237 L   I
 OLDACT:DUP 15-01-06 16:16 OP:cam  STATUS:               ID:20150106064816d    3
 2015-01-06-0648-15M.COL___274                                                 6
 STAT SP IPHASW D HRMM SECON CODA AMPLIT PERI AZIMU VELO AIN AR TRES W  DIS CAZ7
 BAR2 EZ EP        652 56.33                             172   -0.1310 18.1 190 
 BAR2 EZ ES        653 11.02                             172   -0.2010 18.1 190 
 BAR2 EZ I         653 12.33         5.5 0.12            164           18.1 190 
 BRR  HZ EP        652 57.71                             151   -0.5410 73.1 302 
 BRR  HN ES        653 15.10                             151    0.6910 73.1 302 
 BRR  HN I         653 19.24         6.7 0.16            149           73.1 302 
 PTB  HZ EP        653  4.16                             131    0.22 9  146 261 
 PTB  HN ES        653 23.94                             131   -0.59 9  146 261 
 PTB  HZ I         653 29.34         2.3 0.28            129            146 261 
 SPBC HZ EP        653  5.72                             129    0.50 9  159 220 
 SPBC HN ES        653 26.89                             129    0.09 9  159 220 
 SPBC HZ I         653 36.79         1.9 0.10            127            159 220 
                                                                                
