 2015 12 6 0809  3.8 L   6.785 -73.130141.2  RSN  8 0.4 1.7LRSN                1
 GAP=139        1.01       3.5     4.4  6.4 -0.1741E+01  0.5578E+01 -0.4094E+01E
 Epicentro: LOS SANTOS - SANTANDER                                             3
 ACTION:UPD 16-02-04 15:02 OP:cam  STATUS:               ID:20151206080903 L   I
 OLDACT:UP  15-12-06 16:23 OP:mh   STATUS:               ID:20151206080749     3
 OLDACT:UP  15-12-06 16:23 OP:mh   STATUS:               ID:20151206080749     3
 OLDACT:UP  15-12-06 16:22 OP:mh   STATUS:               ID:20151206080749     3
 OLDACT:UP  15-12-06 16:22 OP:mh   STATUS:               ID:20151206080749     3
 OLDACT:REG 15-12-06 12:09 OP:mh   STATUS:               ID:20151206080749     3
 2015-12-06-0807-49M.COL___316                                                 6
 STAT SP IPHASW D HRMM SECON CODA AMPLIT PERI AZIMU VELO AIN AR TRES W  DIS CAZ7
 BAR2 EZ EP        8 9 22.74                             171   -0.1010 22.1 195 
 BAR2 EZ ES        8 9 37.59                             171   -0.1110 22.1 195 
 BAR2 EZ I         8 9 38.25         7.3 0.32            173           22.1 195 
 BRR  HZ EP        8 9 24.66                             151    0.0910 73.5 299 
 BRR  HN ES        8 9 40.48                             151   -0.3010 73.5 299 
 BRR  HZ I         8 9 44.96         6.8 0.10            152           73.5 299 
 PAM  EZ EP        8 9 25.68                             150    0.1610 77.6  38 
 PAM  EN ES   1    8 9 42.42                             150   -0.06 7 77.6  38 
 PAM  EZ I         8 9 44.91        13.8 0.60            151           77.6  38 
 RUS  HZ EP   1    8 9 27.21                             143    0.25 7 98.9 177 
 RUS  HN ES        8 9 44.96                             143   -0.0810 98.9 177 
 RUS  HZ I         8 9 46.24         4.4 0.26            147           98.9 177 
 PTB  HZ EP        8 9 29.89                             131   -0.61 9  149 260 
 PTB  HN ES        8 9 51.10                             131   -0.25 9  149 260 
 PTB  HZ I         8 9 52.38         6.0 0.12            133            149 260 
 OCA  HZ EP        8 9 31.22                             128   -0.69 9  162 353 
 OCA  HN ES        8 9 54.59                             128    0.74 9  162 353 
 OCA  HZ I         8 9 56.75        18.7 0.20            130            162 353 
 SPBC HZ EP   1    8 9 31.66                             128   -0.25 7  163 220 
 SPBC HN ES        8 9 54.64                             128    0.78 9  163 220 
 ZAR  HZ EP        8 9 36.71                             121    0.55 8  206 292 
 ZAR  HN ES        810  1.42                             121    0.01 8  206 292 
                                                                                
