 2010  5 6 0231 28.9 L   6.756 -72.951132.0  RSN  5 0.3 1.8LRSN                1
 GAP=226        0.65       6.3     8.2  7.8 -0.2039E+02 -0.1480E+02 -0.7592E+01E
 Epicentro: CEPITA - SANTANDER                                                 3
 ACTION:UP  10-08-24 10:03 OP:vdl  STATUS:               ID:20100506023128 L   I
 2010-05-06-0228-31S.COL___105                                                 6
 STAT SP IPHASW D HRMM SECON CODA AMPLIT PERI AZIMU VELO SNR AR TRES W  DIS CAZ7
 BAR2 SZ EP   1    231 47.38                             166     0.2 7   32 235 
 BAR2 SZ ES   1    232  1.19                             166    -0.1 7   32 235 
 BRR  HZ EP        231 49.83                             143    -0.210   93 295 
 BRR  HN ES   1    232  6.84                             143     0.3 7   93 295 
 BRR  HZ I         232 10.37        12.4 0.32                            93 295 
 BRI  SZ EP   2    231 52.33                             139     0.8 5  108   9 
 GUE  SZ EP   1    231 52.30                             136    -0.3 7  119   1 
 GRA  SZ EP   2    231 53.13                             134     0.1 5  126   7 
 GRA  SZ ES   1    232 11.69                             134    -0.1 7  126   7 
                                                                                
