 2013  2 6 0504 24.7 L   6.762 -73.127150.4  RSN  5 0.4 1.2LRSN                1
 GAP=141        0.92       5.5     6.4  8.3  0.2912E+01 -0.4052E+01  0.2205E+01E
 Epicentro: LOS SANTOS - SANTANDER                                             3
 ACTION:UPD 13-03-12 09:30 OP:ep   STATUS:               ID:20130206050424 L   I
 2013-02-06-0500-00M.COL___240                                                 6
 STAT SP IPHASW D HRMM SECON CODA AMPLIT PERI AZIMU VELO AIN AR TRES W  DIS CAZ7
 BAR2 SZ EP   1    5 4 44.73                             172   -0.12 7 19.7 198 
 BAR2 SZ ES        5 5  0.10                             172   -0.4410 19.7 198 
 BRR  HZ EP   1    5 4 46.72                             152    0.13 7 75.1 301 
 BRR  HN ES        5 5  4.25                             152    0.6010 75.1 301 
 BRR  HZ I         5 5  7.46         3.7 0.44            152           75.1 301 
 PAM  SZ EP   1    5 4 47.62                             151    0.06 7 79.5  36 
 PAM  SN ES   1    5 5  5.06                             151   -0.31 7 79.5  36 
 PAM  SZ I         5 5  6.75         4.3 0.52            152           79.5  36 
 RUS  HZ EP        5 4 48.62                             146   -0.0110 96.2 177 
 RUS  HN ES        5 5  7.64                             146    0.3610 96.2 177 
 RUS  HZ I         5 5  8.19         1.4 0.26            149           96.2 177 
 PTB  HN ES   1    5 5 12.84                             133   -0.77 7  149 261 
                                                                                
