 2011  1 6 0939 54.9 L   6.788 -73.185139.8  RSN  7 0.3 2.2LRSN                1
 GAP=278        0.49       4.3     4.4  4.8 -0.2210E+01  0.1128E+02  0.1328E+01E
 Epicentro: LOS SANTOS - SANTANDER                                             3
 ACTION:UP  11-02-08 08:39 OP:pat  STATUS:               ID:20110106093954 L   I
 2011-01-06-0940-00M.COL___121                                                 6
 STAT SP IPHASW D HRMM SECON CODA AMPLIT PERI AZIMU VELO SNR AR TRES W  DIS CAZ7
 BAR2 SZ IP        940 13.76                             171     0.010   22 180 
 BAR2 SZ ES   1    940 28.62                             171     0.1 7   22 180 
 BAR2 SZ I         940 29.93        45.2 0.25                            22 180 
 RUS  HZ EP   1    940 17.57                             143    -0.4 7  100 174 
 RUS  HN ES   1    940 36.03                             143     0.0 7  100 174 
 RUS  HZ I         940 37.38        31.0 0.28                           100 174 
 NOR  SZ EP   1    940 29.59                             118    -0.2 6  231 234 
 NOR  SE ES   1    940 57.32                             118     0.2 6  231 234 
 CHI  HZ EP   1    940 32.08                             116     0.1 6  246 194 
 CHI  HZ I         940 34.55         7.7 0.38                           246 194 
 CHI  HE ES   1    941  1.05                             116     0.1 6  246 194 
 HEL  HZ EP   1    940 34.75                             114     0.5 6  268 256 
 HEL  HE ES   2    941  4.51                             114    -0.5 4  268 256 
 HEL  HZ I         941 12.58        12.1 0.23                           268 256 
 RREF HZ EP   1    940 40.41                             110     0.1 5  318 229 
 RREF HE ES   2    941 15.53                             110    -0.2 3  318 229 
 RREF HZ I         941 23.96         8.0 0.24                           318 229 
 PRA  HZ EP   1    940 48.06                             106     0.2 4  389 209 
 PRA  HE ES   2    941 28.71                             106    -0.4 3  389 209 
                                                                                
