 2015 10 6 0224 40.2 L   6.787 -73.102155.1  RSN  8 0.5 1.6LRSN                1
 GAP=241        1.11       5.0     6.3  7.5  0.6256E+01  0.1387E+02  0.1054E+02E
 Epicentro: LOS SANTOS - SANTANDER                                             3
 ACTION:UPD 15-12-22 20:37 OP:cam  STATUS:               ID:20151006022440 L   I
 OLDACT:UP  15-10-06 15:39 OP:ak   STATUS:               ID:20151006021748d    3
 OLDACT:UP  15-10-06 15:38 OP:ak   STATUS:               ID:20151006021748d    3
 OLDACT:UP  15-10-06 15:36 OP:ak   STATUS:               ID:20151006021748d    3
 OLDACT:DUP 15-10-06 15:30 OP:ak   STATUS:               ID:20151006021748d    3
 OLDACT:REG 15-10-06 12:54 OP:ak   STATUS:               ID:20151006021747     3
 2015-10-06-0217-47M.COL___319                                                 6
 STAT SP IPHASW D HRMM SECON CODA AMPLIT PERI AZIMU VELO AIN AR TRES W  DIS CAZ7
 BAR2 EZ EP        225  0.93                             171   -0.0110 23.3 202 
 BAR2 EZ ES        225 17.19                             171    0.0710 23.3 202 
 BAR2 EZ I         225 18.41         6.0 0.17            163           23.3 202 
 BRR  HZ EP        225  2.81                             152    0.1910 76.1 298 
 BRR  HN ES        225 20.80                             152    0.6810 76.1 298 
 RUS  HZ EP   1    225  4.66                             146   -0.09 7 98.9 179 
 RUS  HE ES        225 23.22                             146   -0.6910 98.9 179 
 RUS  HZ I         225 27.20         3.4 0.30            143           98.9 179 
 SPBC HZ EP        225  9.72                             131    0.12 9  165 221 
 SPBC HE ES        225 32.55                             131    0.02 9  165 221 
 SPBC HZ I         225 40.41         6.0 0.18            129            165 221 
 ZAR  HE ES        225 38.99                             124   -0.96 8  209 292 
 NOR  HZ EP   1    225 16.34                             120   -0.46 6  238 235 
 NOR  HN ES        225 45.07                             120   -0.29 8  238 235 
 NOR  HZ I         225 53.47         2.7 0.22            119            238 235 
 CHI  HZ EP        225 19.01                             119    0.60 8  249 196 
 CHI  HN ES        225 48.32                             119    0.10 8  249 196 
 CHI  HZ I         225 54.54         2.1 0.24            119            249 196 
 GUY2CHZ EP   1    225 24.06                             114   -0.53 5  304 236 
 GUY2CHN ES        226  0.11                             114    0.89 7  304 236 
 GUY2CHZ I         226  6.85         2.0 0.54                           304 236 
                                                                                
