 2016  4 6 0701  9.9 L   7.412 -73.193132.3  RSN  7 0.2 1.3LRSN                1
 GAP=107        0.36       2.5     2.0  4.5  0.7549E+00  0.4574E+01  0.3703E+01E
 Epicentro: EL PLAYON - SANTANDER                                              3
 ACTION:UPD 16-05-05 14:19 OP:rebc STATUS:               ID:20160406070109 L   I
 OLDACT:REG 16-04-06 12:26 OP:mh   STATUS:               ID:20160406065749     3
 2016-04-06-0657-49M.COL___273                                                 6
 STAT SP IPHASW D HRMM SECON CODA AMPLIT PERI AZIMU VELO AIN AR TRES W  DIS CAZ7
 PAM  EZ EP        7 1 29.52                             156    0.1210 55.1  98 
 PAM  EN ES        7 1 44.59                             156   -0.0410 55.1  98 
 PAM  EZ I         7 1 47.52         6.3 0.26            146           55.1  98 
 BAR2 EZ EP   2    7 1 31.20                             144   -0.02 5 90.6 179 
 BAR2 EZ I         7 1 48.73        10.4 0.10                          90.6 179 
 OCA  HZ EP   2    7 1 30.95                             143   -0.29 5 92.5 351 
 OCA  HE ES   2    7 1 47.85                             143   -0.05 5 92.5 351 
 OCA  HZ I         7 1 51.67         4.9 0.13            139           92.5 351 
 RUS  HZ EP   2    7 1 38.27                             125   -0.16 5  168 176 
 RUS  HE ES   2    7 2  0.71                             125    0.01 5  168 176 
 RUS  HZ I         7 2  7.32         0.7 0.18            116            168 176 
 PTB  HZ EP   2    7 1 37.61                             124   -0.31 5  170 235 
 PTB  HN ES   2    7 1 59.33                             124   -0.46 5  170 235 
 PTB  HZ I         7 2  3.13         2.0 0.18            117            170 235 
 ZAR  HZ EP   2    7 1 39.27                             122   -0.10 4  184 273 
 ZAR  HN ES        7 2  2.53                             122    0.16 9  184 273 
 ZAR  HZ I         7 2  5.11         2.7 0.38            116            184 273 
 SPBC HZ EP   2    7 1 43.41                             117    0.38 4  218 207 
 SPBC HN ES   2    7 2  9.06                             117    0.17 4  218 207 
 SPBC HZ I         7 2 15.36         1.7 0.24            110            218 207 
                                                                                
