 2017  2 6 0843 26.8 L   6.691 -73.170150.1  RSN  5 0.3 1.4LRSN                1
 GAP=226        0.71       5.4     5.0  5.1  0.1659E+02  0.3840E+01 -0.2041E+01E
 Epicentro: VILLANUEVA - SANTANDER                                             3
 ACTION:UPD 17-05-24 15:33 OP:jn   STATUS:               ID:20170206084326 L   I
 OLDACT:REG 17-02-06 12:11 OP:edw  STATUS:               ID:20170206083746     3
 2017-02-06-0838-00M.COL___313                                                 6
 STAT SP IPHASW D HRMM SECON CODA AMPLIT PERI AZIMU VELO AIN AR TRES W  DIS CAZ7
 BAR2 EZ EP        843 46.61                             176   -0.1710 11.0 187 
 BAR2 EZ ES        844  1.98                             176   -0.3710 11.0 187 
 BAR2 EZ I         844  2.57         6.6 0.36            174           11.0 187 
 BRR  HZ EP        843 48.61                             152   -0.0610 75.5 308 
 BRR  HN ES        844  6.00                             152    0.2810 75.5 308 
 BRR  HZ I         844  8.29         5.8 0.10            150           75.5 308 
 RUS  HZ EP        843 50.41                             148    0.2210 88.8 174 
 RUS  HN ES        844  8.72                             148    0.2910 88.8 174 
 RUS  HZ I         844 10.29         3.1 0.28            149           88.8 174 
 PTB  HZ EP        843 53.69                             134   -0.04 9  143 263 
 PTB  HN ES        844 14.37                             134   -0.35 9  143 263 
 PTB  HZ I         844 16.82         2.4 0.10            133            143 263 
 ZAR  HZ EP        843 59.58                             123   -0.20 8  206 296 
 ZAR  HN ES        844 25.91                             123    0.41 8  206 296 
 ZAR  HZ I         844 30.98         3.7 0.30            123            206 296 
                                                                                
