 2011 12 6 0439 44.6 L   6.786 -73.067145.6  RSN  5 0.3 1.2LRSN                1
 GAP=148        0.60       4.1     5.0  6.3 -0.5346E+01  0.3415E+01  0.2958E+01E
 Epicentro: LOS SANTOS - SANTANDER                                             3
 ACTION:UPD 12-07-13 16:14 OP:ep   STATUS:               ID:20111206043944 L   I
 2011-12-06-0437-42S.COL___155                                                 6
 STAT SP IPHASW D HRMM SECON CODA AMPLIT PERI AZIMU VELO AIN AR TRES W  DIS CAZ7
 BAR2 SZ EP   1    440  4.00                             170   -0.29 7 25.0 211 
 BAR2 SZ ES   1    440 19.68                             170    0.07 7 25.0 211 
 BAR2 SZ I         440 20.94         6.7 0.20                          25.0 211 
 PAM  SZ EP   1    440  6.89                             152    0.28 7 73.4  34 
 PAM  SZ I         440  7.36         1.8 0.15                          73.4  34 
 PAM  SN ES   1    440 23.33                             152   -0.40 7 73.4  34 
 BRR  HZ EP   1    440  6.15                             150   -0.12 7 79.6 296 
 BRR  HN ES   1    440 23.51                             150    0.37 7 79.6 296 
 BRR  HZ I         440 24.81         3.9 0.13                          79.6 296 
 RUS  HZ EP   1    440  8.59                             144    0.34 7 98.9 181 
 RUS  HN ES   1    440 26.68                             144    0.01 7 98.9 181 
 RUS  HZ I         440 28.14         1.9 0.20                          98.9 181 
 NOR  SN ES   1    440 49.02                             118   -0.41 6  241 236 
                                                                                
