 2016  8 6 0359 38.8 L   6.314 -73.386120.0  RSN  4 0.3 0.5LRSN                1
 GAP=155        0.62       5.3     5.0  6.4 -0.1068E+02  0.1981E+02 -0.3291E+00E
 Epicentro: CHIMA - SANTANDER                                                  3
 ACTION:UPD 16-10-29 15:32 OP:rebc STATUS:               ID:20160806035938 L   I
 OLDACT:REG 16-08-06 12:43 OP:edw  STATUS:               ID:20160806035733     3
 2016-08-06-0358-00M.COL___365                                                 6
 STAT SP IPHASW D HRMM SECON CODA AMPLIT PERI AZIMU VELO AIN AR TRES W  DIS CAZ7
 BAR2 EZ EP        359 55.72                             162   -0.1210 38.1  36 
 BAR2 EZ ES        4 0  9.25                             162    0.1410 38.1  36 
 BAR2 EZ I         4 0 10.98         1.6 0.22                          38.1  36 
 RUS  HZ EP        359 56.78                             154   -0.3510 57.5 144 
 RUS  HN ES        4 0 11.69                             154    0.2910 57.5 144 
 RUS  HZ I         4 0 12.67         0.5 0.24                          57.5 144 
 SPBC HZ EP   2    359 59.84                             136   -0.16 5  105 226 
 SPBC HE ES   2    4 0 15.89                             136   -0.62 5  105 226 
 GUY2CHZ EP        4 0 15.74                             112    0.26 8  250 241 
 GUY2CHN ES        4 0 44.17                             112    0.10 8  250 241 
                                                                                
