 2016  2 6 0804 34.4 L   6.855 -73.217134.7  RSN 15 0.4 2.4LRSN                1
 GAP=177        0.75       3.5     4.7  4.9 -0.4863E+01  0.6771E+01 -0.2264E+01E
 Epicentro: ZAPATOCA - SANTANDER                                               3
 ACTION:UPD 16-03-04 21:23 OP:rebc STATUS:               ID:20160206080434 L   I
 OLDACT:DUP 16-02-06 16:31 OP:dnl  STATUS:               ID:20160206075745d    3
 OLDACT:REG 16-02-06 13:27 OP:dnl  STATUS:               ID:20160206075744     3
 2016-02-06-0757-44M.COL___334                                                 6
 STAT SP IPHASW D HRMM SECON CODA AMPLIT PERI AZIMU VELO AIN AR TRES W  DIS CAZ7
 BAR2 EZ IP     C  8 4 52.83                             167    0.0310 29.3 172 
 BAR2 EZ ES        8 5  7.12                             167   -0.0710 29.3 172 
 BAR2 EZ I         8 5  9.71        37.3 0.30            172           29.3 172 
 PTB  HZ EP        8 4 59.66                             131   -0.19 9  141 256 
 PTB  HN ES        8 5 19.76                             131    0.03 9  141 256 
 PTB  HZ I         8 5 25.87        27.9 0.44            123            141 256 
 OCA  HZ EP   2    8 5  0.89                             128   -0.28 5  153 356 
 OCA  HE ES   2    8 5 22.32                             128    0.23 5  153 356 
 OCA  HZ I         8 5 26.63        40.2 0.12            119            153 356 
 SPBC HZ EP        8 5  1.89                             126   -0.15 9  163 215 
 SPBC HN ES        8 5 23.96                             126    0.34 9  163 215 
 SPBC HZ I         8 5 26.50        58.9 0.22            122            163 215 
 ZAR  HN ES   2    8 5 29.63                             121    0.56 4  194 291 
 ZAR  HZ I         8 5 36.45        40.7 0.36            113            194 291 
 NOR  HZ EP   2    8 5  9.22                             116    0.05 4  232 232 
 NOR  HE ES        8 5 35.47                             116   -0.86 8  232 232 
 NOR  HZ I         8 5 40.53        15.5 0.24            111            232 232 
 SML  HZ EP        8 5  9.13                             116   -0.29 8  235 336 
 SML  HZ I         8 5 41.27        29.1 0.07            109            235 336 
 CHI  HZ EP   2    8 5 11.32                             114   -0.59 4  253 193 
 CHI  HN ES   4    8 5 39.51                             114   -1.68 0  253 193 
 CHI  HZ I         8 5 48.28         9.1 0.44            111            253 193 
 ROSC BZ EP        8 5 12.63                             114    0.59 8  254 209 
 ROSC BE ES   2    8 5 41.26                             114   -0.18 4  254 209 
 ROSC BZ I         8 5 47.79        28.5 0.40            110            254 209 
 HEL  HZ EP        8 5 14.15                             113    0.80 8  266 254 
 HEL  HE ES   4    8 5 41.97                             113   -1.79 0  266 254 
 HEL  HZ I         8 5 51.91        12.1 0.24            107            266 254 
 URE  HZ EP   2    8 5 13.03                             112   -0.79 4  274 291 
 URE  HE ES   4    8 5 43.08                             112   -1.53 0  274 291 
 URE  HZ I         8 5 54.28        23.5 0.18            106            274 291 
 GUY2CHZ EP        8 5 17.43                             110    0.27 7  298 233 
 GUY2CHE ES   4    8 5 51.48                             110    0.94 0  298 233 
 GUY2CHZ I         8 5 59.84        12.4 0.40                           298 233 
 CBOC HZ EP   2    8 5 20.73                             108    0.54 3  328 251 
 CBOC HE ES   3    8 5 55.09                             108   -0.85 2  328 251 
 CBOC HZ I         8 6  7.95         4.4 0.42            103            328 251 
 PRA  HZ EP   3    8 5 27.26                             104   -0.44 1  394 208 
 PRA  HN ES   2    8 6  8.32                             104   -0.98 3  394 208 
 PRA  HZ I         8 6 15.99         8.5 0.30            101            394 208 
 PAL  HZ EP        8 5 28.72                             104   -0.03 6  402 238 
 PAL  HE ES   4    8 6  6.58                             104   -4.59 0  402 238 
 PAL  HZ I         8 6 16.66         3.5 0.26            100            402 238 
                                                                                
