 2017  4 6 0738  2.3 L   6.567 -73.532108.2  RSN  8 0.3 1.6LRSN                1
 GAP= 66        0.89       3.3     3.2  6.0  0.2141E+01  0.4167E+01 -0.3084E+00E
 Epicentro: EL CARMEN - SANTANDER                                              3
 ACTION:UPD 17-05-30 21:09 OP:jn   STATUS:               ID:20170406073802 L   I
 OLDACT:REG 17-04-06 13:06 OP:cara STATUS:               ID:20170406073715     3
 2017-04-06-0738-00M.COL___357                                                 6
 STAT SP IPHASW D HRMM SECON CODA AMPLIT PERI AZIMU VELO AIN AR TRES W  DIS CAZ7
 BAR2 EZ IP     C  738 18.29                             159    0.3410 38.7  86 
 BAR2 EZ ES        738 30.16                             159   -0.0210 38.7  86 
 BAR2 EZ I         738 32.25        31.9 0.32            164           38.7  86 
 BRR  HN ES        738 32.08                             147    0.1310 63.0 342 
 BRR  HZ I         738 38.18         3.9 0.30            153           63.0 342 
 RUS  HZ EP        738 22.10                             138    0.4910 89.6 146 
 RUS  HN ES        738 36.43                             138   -0.2710 89.6 146 
 RUS  HZ I         738 39.31         8.0 0.32            142           89.6 146 
 PTB  HZ EP        738 21.35                             133   -0.7010  102 268 
 PTB  HN ES        738 37.31                             133   -0.1710  102 268 
 PTB  HZ I         738 40.95         7.3 0.16            136            102 268 
 SPBC HZ EP        738 23.73                             129    0.1710  118 211 
 SPBC HN ES        738 40.25                             129    0.0910  118 211 
 SPBC HZ I         738 48.74         7.1 0.10            132            118 211 
 PAM  EZ EP        738 24.41                             127   -0.4410  126  47 
 PAM  EN ES   4    738 41.35                             127   -1.12 0  126  47 
 PAM  EZ I         738 42.96         4.3 0.40            134            126  47 
 ZAR  HZ EP        738 29.92                             116    0.15 9  179 305 
 ZAR  HN ES        738 51.52                             116    0.30 9  179 305 
 ZAR  HZ I         738 53.51         5.8 0.30            121            179 305 
 YPLC HZ EP   4    738 31.15                             116    0.98 0  182 135 
 YPLC HN ES   4    738 49.51                             116   -2.43 0  182 135 
 YPLC HZ I         738 55.38        10.3 0.30            121            182 135 
                                                                                
