 2017  1 6 0800 24.3 L   6.802 -73.149147.1  RSN 19 0.5 2.1LRSN                1
 GAP= 65        1.01       3.7     2.9  5.0  0.1752E+00  0.2890E+01  0.5571E+01E
 Epicentro: LOS SANTOS - SANTANDER                                             3
 ACTION:UPD 17-05-22 15:56 OP:jn   STATUS:               ID:20170106080024 L   I
 OLDACT:UP  17-01-06 18:14 OP:and  STATUS:               ID:20170106075744     3
 OLDACT:UP  17-01-06 18:11 OP:and  STATUS:               ID:20170106075744     3
 OLDACT:UP  17-01-06 18:10 OP:and  STATUS:               ID:20170106075744     3
 OLDACT:REG 17-01-06 12:48 OP:and  STATUS:               ID:20170106075744     3
 2017-01-06-0758-00M.COL___363                                                 6
 STAT SP IPHASW D HRMM SECON CODA AMPLIT PERI AZIMU VELO AIN AR TRES W  DIS CAZ7
 BAR2 EZ EP        8 0 44.10                             171   -0.0310 23.5 189 
 BAR2 EZ ES        8 0 58.99                             171   -0.5810 23.5 189 
 BAR2 EZ I         8 1  0.22        32.4 0.20            169           23.5 189 
 BRR  HZ IP     C  8 0 45.84                             153    0.2310 70.8 299 
 BRR  HN ES        8 1  2.84                             153    0.6410 70.8 299 
 BRR  HZ I         8 1  4.06        15.1 0.18            151           70.8 299 
 PAM  EZ EP        8 0 47.05                             151    0.3510 77.4  40 
 PAM  EN ES        8 1  4.03                             151   -0.1110 77.4  40 
 PAM  EZ I         8 1  6.28        22.1 0.50            149           77.4  40 
 RUS  HZ EP        8 0 48.09                             144   -0.1510  101 176 
 RUS  HN ES        8 1  6.96                             144    0.0810  101 176 
 RUS  HZ I         8 1  7.83        18.2 0.24            141            101 176 
 PTB  HZ EP        8 0 50.55                             132   -0.84 9  147 259 
 PTB  HN ES        8 1 11.87                             132   -0.62 9  147 259 
 PTB  HZ I         8 1 18.95        17.0 0.25            130            147 259 
 TAM  HZ IP     D  8 0 52.51                             131    0.35 9  155 105 
 TAM  HZ I         8 1 12.75         4.9 0.20            127            155 105 
 TAM  HN ES        8 1 14.08                             131    0.23 9  155 105 
 ZAR  HZ EP        8 0 56.65                             123   -0.18 9  204 292 
 ZAR  HE ES        8 1 21.91                             123   -0.26 9  204 292 
 ZAR  HZ I         8 1 27.21        13.0 0.15            120            204 292 
 NOR  HZ EP        8 1  0.02                             119   -0.11 8  235 234 
 NOR  HN ES        8 1 28.92                             119    0.87 8  235 234 
 NOR  HZ I         8 1 32.77         9.4 0.22            116            235 234 
 CHI  HZ EP        8 1  2.28                             117    0.15 8  249 195 
 CHI  HN ES        8 1 31.57                             117   -0.03 8  249 195 
 CHI  HZ I         8 1 35.08        10.0 0.37            114            249 195 
 ROSC BZ EP   4    8 1  4.22                             117    1.69 0  253 211 
 ROSC BN ES   4    8 1 35.12                             117    2.80 0  253 211 
 ROSC BZ I         8 1 38.77        18.5 0.35            114            253 211 
 GUY2CHZ EP        8 1  8.72                             112    0.73 7  301 235 
 GUY2CHN ES   3    8 1 44.10                             112    2.06 2  301 235 
 GUY2CHZ I         8 1 50.34         5.7 0.32                           301 235 
 PTGC HZ EP        8 1  7.29                             112   -1.00 7  309 159 
 PTGC HN ES   3    8 1 40.52                             112   -2.06 2  309 159 
 PTGC HZ I         8 1 45.59         7.7 0.24            109            309 159 
 LL6C HZ EP   9    8 0 50.10                             111   -20.0 0  325 358 
 LL6C HN ES   3    8 1 27.98                                    2.21 2  325 358 
 ELA  HZ EP   4    8 1 15.16                             110    3.93 0  329 229 
 ELA  HN ES   4    8 1 50.56                             110    2.75 0  329 229 
 ELA  HZ I         8 1 55.85         5.7 0.38            108            329 229 
 CBOC HZ EP   9    8 1 12.35                             110    1.07 0  333 252 
 CBOC HN ES        8 1 49.19                             109    0.23 7  333 252 
 CBOC HZ I         8 1 53.66         2.4 0.28            108            333 252 
 DBB  EN ES   3    8 1 47.17                             110   -1.70 2  339 274 
 DBB  EZ I         8 1 49.54         4.2 0.32            107            339 274 
 ORTC HZ EP        8 1 18.33                             106    0.03 6  395 216 
 ORTC HN ES   3    8 2  1.68                             106    1.29 1  395 216 
 ORTC HZ I         8 2  5.49         4.6 0.24            104            395 216 
 PAL  HZ EP        8 1 19.81                             106    0.29 6  405 239 
 PAL  HN ES        8 2  2.96                             106    0.40 6  405 239 
 PAL  HZ I         8 2  8.10         2.2 0.40            104            405 239 
 YOT  HZ EP        8 1 27.39                             103   -0.02 5  472 229 
                                                                                
