 2012  9 6 0123  2.8 L   6.794 -73.162146.8  RSN  6 0.3 1.7LRSN                1
 GAP=135        0.63       4.3     3.8  7.2  0.1626E+01  0.2094E+01  0.9142E+00E
 Epicentro: LOS SANTOS - SANTANDER                                             3
 ACTION:UPD 12-10-22 14:17 OP:ep   STATUS:               ID:20120906012302 L   I
 2012-09-06-0120-00M.COL___218                                                 6
 STAT SP IPHASW D HRMM SECON CODA AMPLIT PERI AZIMU VELO AIN AR TRES W  DIS CAZ7
 BAR2 SZ EP   1    123 22.39                             171   -0.11 7 22.4 186 
 BAR2 SZ ES   2    123 37.68                             171   -0.21 5 22.4 186 
 BAR2 SZ I         123 38.73        10.9 0.29                          22.4 186 
 BRR  HZ EP   1    123 24.22                             153    0.26 7 70.0 300 
 BRR  HZ I         123 26.76         7.0 0.35                          70.0 300 
 BRR  HN ES   1    123 41.09                             153    0.61 7 70.0 300 
 PAM  SZ EP   1    123 25.40                             150    0.21 7 79.0  40 
 PAM  SZ I         123 25.67        11.5 0.17                          79.0  40 
 PAM  SN ES   1    123 42.25                             150   -0.42 7 79.0  40 
 RUS  HZ EP   1    123 26.53                             144   -0.05 7  100 175 
 RUS  HN ES   1    123 45.27                             144    0.11 7  100 175 
 PTB  HN ES   1    123 50.28                             133   -0.34 7  146 259 
 ZAR  HN ES   1    124  0.08                             123   -0.30 6  203 292 
                                                                                
