 2015 12 6 0338  0.3 L   6.790 -73.164140.8  RSN 14 0.4 1.7LRSN                1
 GAP=135        0.90       2.9     3.7  5.0 -0.3322E+01  0.5909E+01  0.8934E+00E
 Epicentro: LOS SANTOS - SANTANDER                                             3
 ACTION:UPD 16-02-04 15:02 OP:cam  STATUS:               ID:20151206033800 L   I
 OLDACT:UP  15-12-06 14:48 OP:mh   STATUS:               ID:20151206032746d    3
 OLDACT:DUP 15-12-06 14:39 OP:mh   STATUS:               ID:20151206032746d    3
 OLDACT:UP  15-12-06 14:38 OP:mh   STATUS:               ID:20151206032745     3
 OLDACT:REG 15-12-06 12:04 OP:mh   STATUS:               ID:20151206032745     3
 2015-12-06-0327-45M.COL___325                                                 6
 STAT SP IPHASW D HRMM SECON CODA AMPLIT PERI AZIMU VELO AIN AR TRES W  DIS CAZ7
 BAR2 EZ EP        338 18.95                             171   -0.3410 22.0 185 
 BAR2 EZ ES        338 33.70                             171   -0.4110 22.0 185 
 BAR2 EZ I         338 36.99        11.0 0.28            170           22.0 185 
 BRR  HZ EP        338 21.01                             152    0.1910 70.0 300 
 BRR  HN ES        338 37.31                             152    0.4610 70.0 300 
 BRR  HZ I         338 41.82         8.1 0.30            147           70.0 300 
 PAM  EZ EP        338 22.25                             149    0.1510 79.5  40 
 PAM  EN ES        338 39.08                             149   -0.0410 79.5  40 
 PAM  EZ I         338 41.84         8.0 0.48            151           79.5  40 
 RUS  HZ EP        338 23.22                             143   -0.2610 99.7 175 
 RUS  HN ES   1    338 42.09                             143    0.52 7 99.7 175 
 RUS  HZ I         338 43.18         3.3 0.32            147           99.7 175 
 PTB  HZ EP        338 26.21                             131   -0.44 9  146 259 
 PTB  HN ES   1    338 46.99                             131   -0.22 7  146 259 
 PTB  HZ I         338 49.43         5.3 0.16            130            146 259 
 OCA  HZ EP        338 28.92                             128    0.63 9  161 354 
 OCA  HN ES        338 49.97                             128   -0.17 9  161 354 
 OCA  HZ I         338 54.79        10.3 0.35            128            161 354 
 SPBC HZ EP        338 28.22                             128    0.02 9  161 219 
 SPBC HN ES        338 49.97                             128   -0.01 9  161 219 
 SPBC HZ I         338 54.78         7.3 0.58            129            161 219 
 ZAR  HZ EP        338 31.84                             121   -0.41 9  203 293 
 ZAR  HE ES   1    338 57.58                             121    0.39 6  203 293 
 ZAR  HZ I         339  4.18         4.6 0.28            120            203 293 
 NOR  HN ES        339  3.26                             118    0.33 8  232 234 
 NOR  HZ I         339  8.86         3.5 0.43            118            232 234 
 SML  HZ EP   4    338 35.01                             116   -1.64 0  244 336 
 SML  HN ES   4    339  3.42                             116   -1.59 0  244 336 
 SML  HZ I         339  9.24         7.1 0.26            116            244 336 
 HEL  HZ EP        338 39.87                             114   -0.13 8  270 256 
 HEL  HE ES        339 10.32                             114   -0.65 8  270 256 
 HEL  HZ I         339 18.42         2.2 0.58            114            270 256 
 URE  HN ES   4    339 12.45                             113   -0.22 0  282 292 
 GUY2CHZ EP        338 43.64                             111    0.24 7  299 235 
 GUY2CHN ES   4    339 20.36                             111    3.32 0  299 235 
 GUY2CHZ I         339 25.51         3.4 0.60                           299 235 
 ORTC HZ EP   1    338 53.33                             106   -0.46 4  393 216 
 ORTC HN ES        339 36.67                             106    1.14 6  393 216 
 ORTC HZ I         339 43.21         1.3 0.44            107            393 216 
 SJC  HZ EP   4    338 52.59                             105   -3.07 0  409 327 
 SJC  HN ES   4    339 33.08                             105   -5.78 0  409 327 
 SJC  HZ I         340  1.73         1.7 0.58            105            409 327 
                                                                                
