 2012  5 6 0712 39.6 L   6.773 -73.168148.7  RSN  5 0.3 1.4LRSN                1
 GAP=233        0.63       7.3     6.3  8.2  0.2527E+02 -0.1450E+01 -0.1232E+02E
 Epicentro: LOS SANTOS - SANTANDER                                             3
 ACTION:UP  12-07-05 12:02 OP:pat  STATUS:               ID:20120506071239 L   I
 2012-05-06-0710-00M.COL___192                                                 6
 STAT SP IPHASW D HRMM SECON CODA AMPLIT PERI AZIMU VELO SNR AR TRES W  DIS CAZ7
 BAR2 SZ EP   1    712 59.09                             172    -0.4 7   20 185 
 BAR2 SZ ES   2    713 14.86                             172    -0.2 5   20 185 
 BRR  HZ EP   1    713  1.33                             153     0.3 7   71 302 
 BRR  HZ I         713  1.53         6.8 0.18                            71 302 
 BRR  HN ES   2    713 17.85                             153     0.1 5   71 302 
 RUS  HZ EP   1    713  3.72                             145     0.3 7   98 175 
 RUS  HN ES   1    713 22.21                             145     0.2 7   98 175 
 RUS  HZ I         713 23.72         1.8 0.64                            98 175 
 PTB  HZ EP   1    713  6.25                             133    -0.3 7  145 260 
 PTB  HN ES   1    713 27.47                             133    -0.1 7  145 260 
 PTB  HZ I         713 28.42         4.2 0.46                           145 260 
 ZAR  HN ES   2    713 37.95                             123     0.4 4  203 293 
 ZAR  HZ I         713 44.49         3.9 0.37                           203 293 
                                                                                
