 2016  2 6 0006 21.2 L   6.763 -73.223130.0  RSN  7 0.4 1.5LRSN                1
 GAP=142        0.90       4.7     4.5  7.1 -0.8212E+01  0.1153E+02  0.1410E+00E
 Epicentro: ZAPATOCA - SANTANDER                                               3
 ACTION:UPD 16-03-04 21:23 OP:rebc STATUS:               ID:20160206000621 L   I
 OLDACT:REG 16-02-06 13:01 OP:dnl  STATUS:               ID:20160205235957     3
 2016-02-05-2359-57M.COL___331                                                 6
 STAT SP IPHASW D HRMM SECON CODA AMPLIT PERI AZIMU VELO AIN AR TRES W  DIS CAZ7
 BAR2 EZ EP   2    0 6 38.78                             171   -0.03 5 19.4 166 
 BAR2 EZ ES        0 6 52.23                             171   -0.3510 19.4 166 
 BAR2 EZ I         0 6 55.17        10.3 0.16            170           19.4 166 
 PAM  EZ EP        0 6 42.15                             145   -0.1610 86.1  42 
 PAM  EN ES        0 6 58.78                             145   -0.0310 86.1  42 
 PAM  EZ I         0 7  1.18         7.6 0.50            150           86.1  42 
 RUS  HZ EP        0 6 43.24                             141    0.0910 97.5 171 
 RUS  HE ES        0 7  0.79                             141    0.4810 97.5 171 
 RUS  HZ I         0 7  3.42         5.8 0.40            142           97.5 171 
 PTB  HZ EP        0 6 46.19                             130    0.18 9  139 260 
 PTB  HN ES        0 7  5.89                             130    0.49 9  139 260 
 PTB  HZ I         0 7 10.95         5.5 0.16            130            139 260 
 NOR  HZ EP   2    0 6 55.34                             116    0.35 4  225 234 
 NOR  HE ES        0 7 20.47                             116   -0.91 8  225 234 
 NOR  HZ I         0 7 29.06         3.2 0.13            117            225 234 
 CHI  HZ EP   2    0 6 57.63                             114    0.28 4  243 193 
 CHI  HN ES   2    0 7 24.56                             114   -1.03 4  243 193 
 CHI  HZ I         0 7 30.39         1.9 0.57            116            243 193 
 GUY2CHZ EP   4    0 7  4.54                             110    1.53 0  292 234 
 GUY2CHE ES   2    0 7 36.16                             110    0.51 4  292 234 
 GUY2CHZ I         0 7 44.60         1.6 0.39                           292 234 
                                                                                
