 2010  2 6 0939 54.0 L   6.731 -72.953148.5  RSN  6 0.3 1.6LRSN                1
 GAP=142        0.65       5.7    11.5 10.7 -0.4501E+02 -0.1443E+01 -0.8585E+01E
 Epicentro: CEPITA - SANTANDER                                                 3
 ACTION:UP  10-08-24 09:47 OP:vdl  STATUS:               ID:20100206093954 L   I
 2010-02-06-0939-50S.COL___088                                                 6
 STAT SP IPHASW D HRMM SECON CODA AMPLIT PERI AZIMU VELO SNR AR TRES W  DIS CAZ7
 RUS  HZ I         940 18.68         2.9 0.18                            94 189 
 RUS  HN ES   2    940 36.23                             146     0.3 5   94 189 
 GUE  SZ EP        940 19.60                             139     0.210  122   1 
 GRA  SZ IP        940 19.39                             137    -0.410  129   7 
 CHI  HZ EP   1    940 31.71                             118    -0.1 6  248 200 
 CHI  HN ES   2    941  0.73                             118    -0.5 4  248 200 
 CHI  HZ I         941 10.53         3.3 0.38                           248 200 
 RREF HZ EP   1    940 41.98                             110     0.4 5  334 233 
 RREF HZ I         941 24.45         3.3 0.24                           334 233 
 SDV  BZ EP        940 43.08                             109     0.2 7  349  47 
                                                                                
