 2013  7 6 0833 54.6 L   6.800 -73.178144.7  RSN  5 0.4 1.4LRSN                1
 GAP=177        0.78       6.8     6.8  8.1  0.1435E+02 -0.1484E+01 -0.8487E+01E
 Epicentro: LOS SANTOS - SANTANDER                                             3
 ACTION:UPD 13-08-12 10:35 OP:ep   STATUS:               ID:20130706083354 L   I
 OLDACT:REG 13-07-06 08:03 OP:jn   STATUS:               ID:20130706082959     3
 2013-07-06-0829-59M.COL___267                                                 6
 STAT SP IPHASW D HRMM SECON CODA AMPLIT PERI AZIMU VELO AIN AR TRES W  DIS CAZ7
 BAR2 SZ EP   1    834 13.75                             171   -0.31 7 22.9 181 
 BAR2 SZ ES   1    834 28.62                             171   -0.64 7 22.9 181 
 BAR2 SZ I         834 30.11         3.3 0.46            169           22.9 181 
 GIR2 SZ EP        834 13.99                             167   -0.1110 30.9 357 
 BRR  HZ EP        834 15.77                             153    0.3510 68.1 300 
 BRR  HN ES   1    834 32.10                             153    0.41 7 68.1 300 
 BRR  HZ I         834 42.24         4.8 0.52            146           68.1 300 
 RUS  HZ EP   1    834 18.34                             143    0.11 7  101 174 
 RUS  HN ES   1    834 37.18                             143    0.49 7  101 174 
 PTB  HZ EP   1    834 20.75                             132   -0.37 7  144 259 
 PTB  HN ES   1    834 41.65                             132   -0.19 7  144 259 
 PTB  HZ I         834 49.13         4.2 0.24            132            144 259 
                                                                                
