 2010  5 6 0844 17.9 L   6.835 -73.099137.7  RSN  5 0.2 1.5LRSN                1
 GAP=184        0.40       3.9    12.1  6.5 -0.1936E+00 -0.8660E+01 -0.7023E+01E
 Epicentro: LOS SANTOS - SANTANDER                                             3
 ACTION:UP  10-08-24 10:03 OP:vdl  STATUS:               ID:20100506084417 L   I
 2010-05-06-0842-16S.COL___105                                                 6
 STAT SP IPHASW D HRMM SECON CODA AMPLIT PERI AZIMU VELO SNR AR TRES W  DIS CAZ7
 BAR2 SZ EP   2    844 36.75                             168     0.1 5   28 199 
 BAR2 SZ ES   2    844 51.25                             168    -0.1 5   28 199 
 GIR2 SZ EP   3    844 36.65                             167     0.1 2   29 339 
 GUE  SZ EP   1    844 41.24                             139    -0.2 7  112  10 
 GRA  SZ EP   2    844 42.47                             136     0.5 5  121  16 
 GRA  SZ ES   2    845  0.70                             136    -0.1 5  121  16 
 OCA  SZ EP   1    844 45.16                             128    -0.1 7  157 351 
 OCA  SZ ES   1    845  6.72                             128     0.1 7  157 351 
 OCA  SZ I         845 10.54         3.8 0.18                           157 351 
                                                                                
