 2010 11 6 0918 23.4 L   6.811 -73.055144.0  RSN  7 0.3 1.6LRSN                1
 GAP=169        0.63       3.9     7.3  6.6  0.6184E+01 -0.2157E+01 -0.1514E+01E
 Epicentro: LOS SANTOS - SANTANDER                                             3
 ACTION:UP  10-12-17 16:50 OP:REBC STATUS:               ID:20101106091823 L   I
 2010-11-06-0913-26S.COL___128                                                 6
 STAT SP IPHASW D HRMM SECON CODA AMPLIT PERI AZIMU VELO SNR AR TRES W  DIS CAZ7
 BAR2 SZ EP   2    918 42.49                             169    -0.4 5   28 210 
 BAR2 SZ ES   2    918 57.98                             169    -0.2 5   28 210 
 BAR2 SZ I         918 59.63        11.7 0.19                            28 210 
 BRR  HZ IP     D  918 44.82                             150    -0.110   80 294 
 BRR  HZ I         918 46.29         9.4 0.33                            80 294 
 BRR  HE ES   1    919  1.74                             150     0.1 7   80 294 
 RUS  HZ EP        918 46.87                             143    -0.210  102 182 
 RUS  HE ES   1    919  5.83                             143     0.3 7  102 182 
 RUS  HZ I         919  6.79         2.9 0.31                           102 182 
 GRA  SZ EP   2    918 48.84                             138     0.7 5  122  13 
 GRA  SZ I         919 10.98         3.3 0.56                           122  13 
 OCA  SZ EP   2    918 51.50                             129    -0.1 5  161 350 
 OCA  SZ ES   2    919 13.60                             129     0.0 5  161 350 
 OCA  SZ I         919 16.74         3.7 0.27                           161 350 
 HEL  HZ EP   2    919  4.07                             114    -0.6 4  282 256 
 HEL  HZ I         919 40.68         2.5 0.49                           282 256 
 RREF HZ EP   2    919 11.22                             110     0.8 3  330 230 
 RREF HE ES   2    919 47.24                             110     0.1 3  330 230 
 RREF HZ I         919 51.63         2.4 0.41                           330 230 
                                                                                
