 2016 11 6 0610 20.0 L   6.809 -73.159146.9  RSN  5 0.3 1.1LRSN                1
 GAP=145        0.70       5.3     3.9  7.6 -0.3708E+01  0.5227E+01 -0.1387E+02E
 Epicentro: LOS SANTOS - SANTANDER                                             3
 *YOT-CBOC-PAL                                                                 3
 ACTION:UPD 17-10-26 21:05 OP:lp   STATUS:               ID:20161106061020 L   I
 OLDACT:UP  16-11-06 16:22 OP:dani STATUS:               ID:20161106060745d    3
 OLDACT:DUP 16-11-06 16:20 OP:dani STATUS:               ID:20161106060745d    3
 OLDACT:REG 16-11-06 12:44 OP:dani STATUS:               ID:20161106060744     3
 2016-11-06-0608-00M.COL___334                                                 6
 STAT SP IPHASW D HRMM SECON CODA AMPLIT PERI AZIMU VELO AIN AR TRES W  DIS CAZ7
 BAR2 EZ EP        610 39.69                             170   -0.1110 24.1 186 
 BAR2 EZ ES        610 55.19                             170   -0.0410 24.1 186 
 BAR2 EZ I         610 55.72         4.2 0.21            171           24.1 186 
 PAM  EZ EP        610 42.51                             151    0.1410 77.6  41 
 PAM  EZ I         611  2.12         1.6 0.18            134           77.6  41 
 PTB  HZ EP        610 46.70                             132   -0.27 9  147 258 
 PTB  HE ES        611  7.59                             132   -0.39 9  147 258 
 PTB  HZ I         611 13.62         1.5 0.26            128            147 258 
 SPBC HE ES        611 11.27                             129    0.39 9  163 218 
 ZAR  HN ES        611 17.95                             123    0.36 9  202 292 
                                                                                
