 2012  2 6 0716 25.6 L   6.763 -73.174143.8  RSN  4 0.1 1.5LRSN                1
 GAP=187        0.39       8.3     4.3  8.0 -0.1223E+02 -0.1466E+02  0.3674E+02E
 ACTION:UP  12-03-07 16:28 OP:epov STATUS:               ID:20120206071625 L   I
 2012-02-06-0710-00M.COL___188                                                 6
 STAT SP IPHASW D HRMM SECON CODA AMPLIT PERI AZIMU VELO SNR AR TRES W  DIS CAZ7
 BAR2 SZ EP        716 44.96                             172    0.0810 18.9 183 
 BAR2 SZ I         716 45.24         4.4 0.14                          18.9 183 
 GIR2 SZ EP   1    716 44.85                             166   -0.27 7 35.0 356 
 BRR  HZ EP   1    716 46.65                             152    0.17 7 70.6 303 
 BRR  HN ES   1    717  2.82                             152    0.04 7 70.6 303 
 BRR  HZ I         717  6.08        10.0 0.11                          70.6 303 
 PTB  HZ EP   1    716 52.04                             132    0.00 7  144 260 
 PTB  HN ES   1    717 12.58                             132   -0.10 7  144 260 
                                                                                
