 2011 12 6 0646 32.7 L   6.614 -73.468108.2  RSN  4 0.3 1.4LRSN                1
 GAP=182        0.58       6.5    11.6  7.0  0.6060E+02  0.1608E+02  0.8950E+01E
 Epicentro: EL CARMEN DE CHUCURI - SANTANDER                                   3
 ACTION:UPD 12-07-13 16:14 OP:ep   STATUS:               ID:20111206064632 L   I
 2011-12-06-0640-00M.COL___183                                                 6
 STAT SP IPHASW D HRMM SECON CODA AMPLIT PERI AZIMU VELO AIN AR TRES W  DIS CAZ7
 BAR2 SZ EP   1    646 48.58                             163    0.47 7 31.7  94 
 BAR2 SZ ES   1    646 59.85                             163   -0.28 7 31.7  94 
 BAR2 SZ I         647  2.29         9.2 0.20                          31.7  94 
 GIR2 SZ EP   1    646 49.40                             149    0.02 7 59.7  31 
 BRR  HZ EP   1    646 49.13                             148   -0.12 7 60.9 334 
 BRR  HN ES   1    647  2.22                             148    0.07 7 60.9 334 
 BRR  HZ I         647  3.59         5.5 0.28                          60.9 334 
 RUS  HZ EP   1    646 51.75                             137   -0.37 7 90.4 152 
 RUS  HN ES   1    647  7.49                             137    0.22 7 90.4 152 
                                                                                
