 2014  8 6 0604 40.0 L   6.797 -73.097151.9  RSN  6 0.4 1.3LRSN                1
 GAP=205        0.73       4.0     6.6  6.8  0.4871E+01  0.5186E+01 -0.9365E+00E
 Epicentro: LOS SANTOS - SANTANDER                                             3
 ACTION:UPD 14-09-15 21:47 OP:nd   STATUS:               ID:20140806060440 L   I
 OLDACT:UP  14-08-06 20:25 OP:spq  STATUS:               ID:20140806060040     3
 OLDACT:REG 14-08-06 19:09 OP:spq  STATUS:               ID:20140806060040     3
 2014-08-06-0600-40M.COL___257                                                 6
 STAT SP IPHASW D HRMM SECON CODA AMPLIT PERI AZIMU VELO AIN AR TRES W  DIS CAZ7
 BAR2 SZ ES   1    6 5 16.60                             170    0.29 8 24.6 203 
 BAR2 SZ I         6 5 19.09         3.1 0.26            168           24.6 203 
 BRR  HZ EP   1    6 5  2.37                             152    0.27 8 76.1 297 
 BRR  HE ES   1    6 5 18.97                             152   -0.36 8 76.1 297 
 BRR  HZ I         6 5 23.26         3.7 0.38            154           76.1 297 
 RUS  HZ EP   1    6 5  3.70                             145   -0.63 8  100 179 
 RUS  HE ES   1    6 5 23.29                             145   -0.02 8  100 179 
 RUS  HZ I         6 5 26.83         1.8 0.32            147            100 179 
 PTB  HZ EP   1    6 5  7.58                             132   -0.37 8  153 259 
 PTB  HN ES   1    6 5 29.39                             132   -0.36 8  153 259 
 PTB  HZ I         6 5 31.55         2.9 0.14            134            153 259 
 SPBC HZ EP        6 5  9.61                             130    0.3210  166 220 
 SPBC HN ES        6 5 32.40                             130    0.2710  166 220 
 SPBC HZ I         6 5 38.18         2.8 0.16            132            166 220 
 SML  HN ES   1    6 5 46.66                             118    0.34 7  246 334 
                                                                                
