 2016  2 6 0323 41.9 L   6.326 -73.621106.4  RSN  7 0.3 1.5LRSN                1
 GAP=105        0.53       2.7     2.2  5.0 -0.3198E+00  0.1548E+01  0.1745E+01E
 Epicentro: SANTA HELENA DEL OPON - SANTANDER                                  3
 ACTION:UPD 16-03-04 21:23 OP:rebc STATUS:               ID:20160206032341 L   I
 OLDACT:DUP 16-02-06 17:08 OP:dnl  STATUS:               ID:20160206031741d    3
 2016-02-06-0317-40M.COL___334                                                 6
 STAT SP IPHASW D HRMM SECON CODA AMPLIT PERI AZIMU VELO AIN AR TRES W  DIS CAZ7
 BAR2 EZ EP        323 58.70                             150    0.4010 56.8  59 
 BAR2 EZ ES        324 11.15                             150    0.0310 56.8  59 
 RUS  HZ EP     C  323 59.91                             142   -0.0910 76.4 129 
 RUS  HN ES   2    324 13.58                             142   -0.57 5 76.4 129 
 RUS  HZ I         324 16.94         4.9 0.34            139           76.4 129 
 SPBC HZ EP   2    324  0.91                             137    0.41 5 89.7 214 
 SPBC HN ES        324 15.04                             137   -0.0010 89.7 214 
 SPBC HZ I         324 18.25        13.2 0.24            133           89.7 214 
 PTB  HZ EP        324  0.56                             135   -0.3310 95.4 284 
 PTB  HN ES        324 15.70                             135   -0.0310 95.4 284 
 PTB  HZ I         324 16.30         8.1 0.10            133           95.4 284 
 NOR  HZ EP   2    324  7.54                             118    0.04 5  162 239 
 NOR  HE ES   2    324 27.89                             118    0.40 5  162 239 
 NOR  HZ I         324 30.51         5.0 0.18            116            162 239 
 ZAR  HN ES   2    324 32.41                             114   -0.06 4  188 313 
 ZAR  HZ I         324 36.11         6.7 0.16            113            188 313 
 CHI  HZ EP   2    324 10.75                             114   -0.06 4  188 184 
 CHI  HE ES   2    324 33.34                             114   -0.04 4  188 184 
 CHI  HZ I         324 39.05         1.6 0.34            112            188 184 
                                                                                
