 2016  2 6 0334  5.5 L   6.868 -73.323122.9  RSN 13 0.5 1.9LRSN                1
 GAP=100        0.89       3.0     3.5  6.3 -0.3162E+01  0.9369E+01 -0.4257E+01E
 Epicentro: BETULIA - SANTANDER                                                3
 ACTION:UPD 16-03-04 21:23 OP:rebc STATUS:               ID:20160206033405 L   I
 OLDACT:DUP 16-02-06 17:16 OP:dnl  STATUS:               ID:20160206032738d    3
 2016-02-06-0327-37M.COL___334                                                 6
 STAT SP IPHASW D HRMM SECON CODA AMPLIT PERI AZIMU VELO AIN AR TRES W  DIS CAZ7
 BAR2 EZ EP        334 23.08                             164    0.3810 34.2 153 
 BAR2 EZ ES        334 35.93                             164   -0.1910 34.2 153 
 PAM  EZ EP        334 26.49                             143    0.5210 86.3  53 
 PAM  EE ES        334 41.56                             143   -0.3710 86.3  53 
 PAM  EZ I         334 44.95        13.1 0.22            147           86.3  53 
 RUS  HZ EP   2    334 27.98                             135    0.03 5  111 166 
 RUS  HE ES   2    334 45.17                             135   -0.29 5  111 166 
 RUS  HZ I         334 46.81         7.4 0.20            139            111 166 
 PTB  HZ IP     D  334 28.44                             130   -0.6010  131 254 
 PTB  HN ES        334 47.99                             130    0.5810  131 254 
 PTB  HZ I         334 52.01        10.9 0.19            131            131 254 
 OCA  HZ EP        334 31.33                             125    0.07 9  152   0 
 OCA  HN ES        334 51.33                             125   -0.03 9  152   0 
 OCA  HZ I         334 56.94        37.4 0.18            128            152   0 
 SPBC HZ EP   2    334 32.39                             124    0.57 5  158 212 
 SPBC HE ES   2    334 51.76                             124   -0.59 5  158 212 
 SPBC HZ I         334 56.20        13.3 0.20            126            158 212 
 ZAR  HZ EP   2    334 33.42                             120   -0.89 4  183 292 
 ZAR  HN ES        334 57.12                             120    0.34 9  183 292 
 ZAR  HZ I         335  0.94         8.7 0.13            121            183 292 
 NOR  HZ EP   2    334 39.91                             114    1.12 4  224 230 
 NOR  HN ES        335  4.55                             114   -0.22 8  224 230 
 NOR  HZ I         335  6.80         4.0 0.16            116            224 230 
 SML  HZ EP        334 39.17                             114   -0.14 8  229 339 
 SML  HE ES   2    335  5.96                             114    0.27 4  229 339 
 SML  HZ I         335  9.28        13.9 0.10            116            229 339 
 CHI  HZ EP   2    334 43.37                             112    1.00 4  252 190 
 CHI  HN ES   2    335 10.03                             112   -1.11 4  252 190 
 CHI  HZ I         335 16.40         2.7 0.78            114            252 190 
 HEL  HZ EP   2    334 42.04                             111   -0.68 4  255 253 
 HEL  HN ES   4    335  9.86                             111   -1.90 0  255 253 
 HEL  HZ I         335 17.53         4.4 0.48            113            255 253 
 URE  HZ EP   2    334 42.81                             110   -0.34 4  263 292 
 URE  HE ES   4    335 10.95                             110   -1.57 0  263 292 
 URE  HZ I         335 13.23         7.2 0.22            112            263 292 
 MON  HZ EP   2    334 50.52                             105   -0.83 3  334 309 
 MON  HE ES   2    335 26.25                             105   -0.87 3  334 309 
 MON  HZ I         335 28.61         2.9 0.26            107            334 309 
                                                                                
