 2012 11 6 0030 37.5 L   6.815 -73.076138.3  RSN  5 0.3 1.7LRSN                1
 GAP=130        0.67       6.0     7.6  7.8  0.3075E+02 -0.4080E+02 -0.2668E+02E
 Epicentro: LOS SANTOS - SANTANDER                                             3
 ACTION:UPD 12-12-05 15:31 OP:}ep  STATUS:               ID:20121106003037 L   I
 2012-11-06-0030-00M.COL___230                                                 6
 STAT SP IPHASW D HRMM SECON CODA AMPLIT PERI AZIMU VELO AIN AR TRES W  DIS CAZ7
 BAR2 SZ EP        030 56.18                             168   -0.1310 27.3 205 
 BAR2 SZ ES        031 10.66                             168   -0.3310 27.3 205 
 BAR2 SZ I         031 12.44         7.7 0.26                          27.3 205 
 GIR2 SZ EP        030 56.13                             166   -0.1610 31.9 336 
 BRR  HZ EP        030 58.00                             149   -0.2010 77.3 295 
 BRR  HN ES        031 14.78                             149    0.4210 77.3 295 
 BRR  HN I         031 15.64        14.9 0.38                          77.3 295 
 RUS  HZ EP   2    031  0.54                             142   -0.07 5  102 180 
 RUS  HN ES        031 18.81                             142    0.1610  102 180 
 RUS  HN I         031 20.40         8.0 0.32                           102 180 
 TAM  HZ EP        031  4.21                             130    0.28 9  148 106 
                                                                                
