 2014  4 6 0400 52.0 L   6.378 -74.189 69.1  RSN  9 0.5 1.6LRSN                1
 GAP=145        1.21       3.2     3.4  7.5  0.2850E+01 -0.3664E+00  0.4889E+01E
 Epicentro: CIMITARRA - SANTANDER                                              3
 ACTION:UPD 14-05-13 23:06 OP:nd   STATUS:               ID:20140406040052 L   I
 OLDACT:REG 14-04-06 13:29 OP:carl STATUS:               ID:20140406035806     3
 2014-04-06-0358-06M.COL___244                                                 6
 STAT SP IPHASW D HRMM SECON CODA AMPLIT PERI AZIMU VELO AIN AR TRES W  DIS CAZ7
 PTB  HZ IP     C  4 1  2.47                             151   -0.2810 34.5 301 
 PTB  HN ES        4 1 11.46                             151    0.3110 34.5 301 
 PTB  HZ I         4 1 13.30        25.7 0.12            153           34.5 301 
 SPBC HZ EP        4 1  6.66                             125   -0.1410 81.3 171 
 SPBC HN ES        4 1 18.08                             125   -0.2910 81.3 171 
 SPBC HZ I         4 1 20.78        15.0 0.16            123           81.3 171 
 NOR  HN ES        4 1 25.59                             114    0.3810  117 220 
 NOR  HZ I         4 1 27.62        12.9 0.24            113            117 220 
 RUS  HZ EP        4 1 12.69                             111   -0.3610  134 114 
 RUS  HE ES        4 1 29.18                             111   -0.3110  134 114 
 RUS  HZ I         4 1 35.36         3.6 0.34            110            134 114 
 ZAR  HZ EP        4 1 13.83                             109    0.22 9  144 329 
 ZAR  HE ES        4 1 31.02                             109    0.54 9  144 329 
 ZAR  HZ I         4 1 33.70        20.9 0.30            109            144 329 
 HEL  HZ EP        4 1 14.69                             108   -0.08 9  150 262 
 HEL  HE ES        4 1 31.69                             108   -0.85 9  150 262 
 HEL  HZ I         4 1 34.08        10.8 0.30            108            150 262 
 GUY2CHZ EP        4 1 19.27                             104    0.50 9  182 226 
 GUY2CHN ES        4 1 39.15                             104   -0.51 9  182 226 
 GUY2CHZ I         4 1 47.73         3.5 0.40                           182 226 
 CHI  HZ EP        4 1 20.42                             103   -0.37 9  200 165 
 CHI  HE ES        4 1 44.53                             103    1.26 9  200 165 
 CHI  HZ I         4 1 47.71         2.1 0.54            102            200 165 
 PRA  HZ EP        4 1 32.85                              97   -0.23 7  305 195 
 PRA  HN ES        4 2  5.65                              97    0.52 7  305 195 
 PRA  HZ I         4 2 20.04         1.9 0.66             97            305 195 
                                                                                
