 2015  7 6 0723 53.2 L   6.773 -73.182139.6  RSN  4 0.3 1.1LRSN                1
 GAP=174        0.88       4.5    22.3  8.8  0.4376E+02 -0.5943E+02 -0.1956E+02E
 Epicentro: LOS SANTOS - SANTANDER                                             3
 ACTION:UPD 15-09-08 21:47 OP:cam  STATUS:               ID:20150706072353 L   I
 OLDACT:REG 15-07-06 14:45 OP:spq  STATUS:               ID:20150706071738     3
 2015-07-06-0717-38M.COL___331                                                 6
 STAT SP IPHASW D HRMM SECON CODA AMPLIT PERI AZIMU VELO AIN AR TRES W  DIS CAZ7
 BAR2 EZ ES        724 27.00                             171    0.3410 20.0 180 
 BAR2 EZ I         724 28.80         2.8 0.16            170           20.0 180 
 PAM  EZ EP        724 15.07                             148    0.0410 82.2  40 
 RUS  HZ EP        724 16.55                             143    0.4310 97.9 174 
 RUS  HN ES        724 33.46                             143   -0.5610 97.9 174 
 RUS  HZ I         724 35.98         1.0 0.32            147           97.9 174 
 OCA  HZ EP        724 21.03                             128   -0.22 9  163 355 
 OCA  HE ES        724 43.06                             128   -0.09 9  163 355 
 OCA  HZ I         724 49.43         4.0 0.46            128            163 355 
                                                                                
