 2014  2 6 0043  8.9 L   6.798 -73.209136.0  RSN  4 0.4 1.3LRSN                1
 GAP=129        0.67       4.5     3.9 10.1 -0.6149E+00  0.1924E+02  0.1625E+02E
 Epicentro: ZAPATOCA - SANTANDER                                               3
 ACTION:UPD 14-03-10 08:07 OP:ep   STATUS:               ID:20140206004308 L   I
 OLDACT:UP  14-02-06 09:39 OP:mh   STATUS:               ID:20140206004001d    3
 OLDACT:DUP 14-02-06 09:30 OP:mher STATUS:               ID:20140206004001d    3
 OLDACT:UP  14-02-06 09:29 OP:mher STATUS:               ID:20140206004000     3
 OLDACT:REG 14-02-06 07:51 OP:mh   STATUS:               ID:20140206004000     3
 2014-02-06-0040-00M.COL___291                                                 6
 STAT SP IPHASW D HRMM SECON CODA AMPLIT PERI AZIMU VELO AIN AR TRES W  DIS CAZ7
 PAM  SZ EP        043 30.49                             147    0.1010 82.1  43 
 PAM  SN ES        043 47.01                             147   -0.1410 82.1  43 
 PAM  SZ I         043 50.18         4.7 0.56            157           82.1  43 
 RUS  HZ EP   1    043 31.43                             141   -0.31 7  101 172 
 RUS  HN ES   2    043 50.28                             141    0.72 5  101 172 
 RUS  HZ I         043 52.44         2.7 0.30            147            101 172 
 ZAR  HN ES        044  4.46                             121    0.10 9  198 293 
 ZAR  HZ I         044 12.43         2.1 0.13            125            198 293 
 NOR  HZ EP   1    043 43.90                             117    0.45 6  229 233 
 NOR  HN ES   1    044  9.86                             117   -0.55 6  229 233 
 NOR  HZ I         044 17.28         2.0 0.23            121            229 233 
                                                                                
