 2017  8 6 0159 20.4 L   6.482 -73.289126.0  RSN 10 0.4 1.5LRSN                1
 GAP= 96        1.02       3.1     3.2  5.4  0.3014E+00  0.3731E+01  0.1998E+01E
 Epicentro: SOCORRO - SANTANDER                                                3
 ACTION:UPD 17-09-04 20:16 OP:rebc STATUS:               ID:20170806015920 L   I
 OLDACT:REG 17-08-06 11:45 OP:osc  STATUS:               ID:20170806015741     3
 2017-08-06-0158-00M.COL___392                                                 6
 STAT SP IPHASW D HRMM SECON CODA AMPLIT PERI AZIMU VELO AIN AR TRES W  DIS CAZ7
 BAR2 EZ EP        159 37.13                             172   -0.3810 16.9  44 
 BAR2 EZ ES        159 50.79                             172   -0.0810 16.9  44 
 BAR2 EZ I         159 52.17         9.5 0.44            174           16.9  44 
 RUS  HZ EP        159 39.60                             150   -0.4010 69.0 161 
 RUS  HN ES        159 54.94                             150   -0.3610 69.0 161 
 RUS  HZ I         159 56.34         3.1 0.36            152           69.0 161 
 BRR  HZ IP     C  159 39.84                             145   -0.4210 83.5 326 
 BRR  HE ES        159 56.02                             145    0.2510 83.5 326 
 PAM  EZ EP        159 43.59                             136    0.1510  115  34 
 PAM  EN ES        2 0  1.97                             136    0.5510  115  34 
 SPBC HZ EP        159 43.70                             132   -0.1910  126 223 
 SPBC HE ES        2 0  2.02                             132   -0.2010  126 223 
 SPBC HZ I         2 0  4.73         4.8 0.03            132            126 223 
 PTB  HZ EP   9    159 41.84                             131   -2.22 0  129 273 
 PTB  HN ES        2 0  1.06                                    0.7510  129 273 
 YPLC HZ EP        159 46.80                             126    0.04 9  157 140 
 YPLC HE ES        2 0  8.06                             126    0.72 9  157 140 
 NOR  HZ EP        159 51.92                             118    0.43 9  202 240 
 NOR  HE ES        2 0 16.19                             118    0.44 9  202 240 
 NOR  HZ I         2 0 19.57         5.3 0.20            118            202 240 
 ZAR  HZ EP        159 51.38                             118   -0.48 8  206 303 
 ZAR  HN ES        2 0 16.42                             118    0.00 8  206 303 
 ZAR  HZ I         2 0 21.62         2.9 0.13            118            206 303 
 GUY2CHZ EP        159 59.43                             111    0.01 8  269 239 
 GUY2CHN ES   2    2 0 30.90                             111    1.04 4  269 239 
 GUY2CHZ I         2 0 36.66         4.8 0.62                           269 239 
                                                                                
