 2014  7 6 0710 55.3 L   6.819 -73.149140.5  RSN 12 0.4 1.9LRSN                1
 GAP=131        0.94       3.3     3.0  6.2  0.4756E+00  0.4683E+01 -0.3187E+01E
 Epicentro: LOS SANTOS - SANTANDER                                             3
 ACTION:UPD 15-03-16 20:41 OP:nd   STATUS:               ID:20140706071055 L   I
 OLDACT:UP  14-07-06 15:31 OP:cam  STATUS:               ID:20140706071000     3
 OLDACT:REG 14-07-06 13:12 OP:cma  STATUS:               ID:20140706071000     3
 2014-07-06-0710-00M.COL___279                                                 6
 STAT SP IPHASW D HRMM SECON CODA AMPLIT PERI AZIMU VELO AIN AR TRES W  DIS CAZ7
 BAR2 SZ EP        711 14.10                             169   -0.2010 25.3 188 
 BAR2 SZ ES        711 29.40                             169    0.2510 25.3 188 
 BAR2 SZ I         711 30.16        22.7 0.22            168           25.3 188 
 BRR  HZ IP     C  711 16.28                             152    0.5110 69.9 297 
 BRR  HN ES   4    711 33.13                             152    1.37 0 69.9 297 
 BRR  HZ I         711 33.98         9.6 0.12            150           69.9 297 
 RUS  HZ EP        711 18.41                             142   -0.2410  103 176 
 RUS  HN ES        711 36.52                             142   -0.3710  103 176 
 RUS  HZ I         711 37.67         7.0 0.24            144            103 176 
 PTB  HZ EP        711 21.48                             131   -0.33 9  148 258 
 PTB  HN ES        711 42.00                             131   -0.52 9  148 258 
 PTB  HZ I         711 49.30         7.0 0.42            130            148 258 
 TAM  HZ EP   1    711 22.87                             129    0.26 7  156 106 
 TAM  HN ES        711 44.17                             129    0.23 9  156 106 
 SPBC HZ EP        711 23.39                             128   -0.11 9  165 218 
 SPBC HN ES        711 45.68                             128    0.16 9  165 218 
 SPBC HZ I         711 51.42         8.7 0.22            128            165 218 
 ZAR  HN ES        711 52.64                             121    0.43 9  203 292 
 SML  HZ EP        711 30.89                             117   -0.49 8  242 335 
 SML  HE ES        711 59.59                             117    0.04 8  242 335 
 SML  HZ I         712  5.43        14.4 0.10            117            242 335 
 HEL  HZ EP   4    711 36.54                             114    1.31 0  272 255 
 HEL  HN ES        712  5.95                             114   -0.46 8  272 255 
 HEL  HZ I         712 13.27         3.0 0.28            114            272 255 
 GUY2CHZ EP   1    711 39.20                             111    0.46 5  302 234 
 GUY2CHN ES        712 13.84                             111    1.20 7  302 234 
 GUY2CHZ I         712 21.01         4.7 0.36                           302 234 
 CBOC HZ EP   4    711 43.34                             109    1.34 0  334 252 
 PRA  HZ EP   1    711 48.37                             106   -0.43 4  394 209 
 PRA  HN ES        712 30.54                             106   -0.01 6  394 209 
 PRA  HZ I         712 35.25         5.3 0.26            106            394 209 
 SJC  HZ EP   4    711 48.52                             105   -1.91 0  407 327 
 SJC  HN ES   4    712 30.41                             105   -3.05 0  407 327 
 SJC  HZ I         712 34.31         2.7 0.46            106            407 327 
                                                                                
