 2016  2 6 0604 56.9 L   6.727 -73.155131.4  RSN  4 0.3 1.0LRSN                1
 GAP=138        0.52       4.9     5.5  6.9 -0.1526E+02  0.1009E+02 -0.1752E+01E
 Epicentro: VILLANUEVA - SANTANDER                                             3
 ACTION:UPD 16-03-04 21:23 OP:rebc STATUS:               ID:20160206060456 L   I
 OLDACT:REG 16-02-06 13:21 OP:dnl  STATUS:               ID:20160206055749     3
 2016-02-06-0557-49M.COL___334                                                 6
 STAT SP IPHASW D HRMM SECON CODA AMPLIT PERI AZIMU VELO AIN AR TRES W  DIS CAZ7
 BAR2 EZ EP   2    6 5 14.33                             173   -0.33 5 15.2 191 
 BAR2 EZ ES   2    6 5 28.95                             173    0.44 5 15.2 191 
 BAR2 EZ I         6 5 31.06         3.4 0.16            172           15.2 191 
 PAM  EZ EP        6 5 17.99                             146   -0.0910 84.4  37 
 PAM  EN ES        6 5 34.62                             146    0.0210 84.4  37 
 PAM  EZ I         6 5 37.12         3.3 0.50            151           84.4  37 
 RUS  HZ EP   2    6 5 19.10                             143    0.43 5 92.6 175 
 RUS  HE ES   2    6 5 35.27                             143   -0.38 5 92.6 175 
 RUS  HZ I         6 5 38.51         1.7 0.36            146           92.6 175 
 PTB  HZ EP   2    6 5 23.00                             129    0.49 5  145 262 
 PTB  HE ES   2    6 5 42.14                             129   -0.35 5  145 262 
 PTB  HZ I         6 5 45.57         1.1 0.15            132            145 262 
                                                                                
