 2011  9 6 0249 43.9 L   6.889 -73.249117.3  RSN  6 0.2 1.6LRSN                1
 GAP=151        0.36       2.7     3.8  4.1  0.3583E+01  0.2165E+01 -0.3891E+01E
 Epicentro: BETULIA - SANTANDER                                                3
 ACTION:UPD 12-07-13 15:55 OP:ep   STATUS:               ID:20110906024943 L   I
 2011-09-06-0247-01S.COL___171                                                 6
 STAT SP IPHASW D HRMM SECON CODA AMPLIT PERI AZIMU VELO AIN AR TRES W  DIS CAZ7
 GIR2 SZ EP   2    250  0.26                             169    0.35 5 21.9  16 
 BAR2 SZ EP   1    250  0.29                             163   -0.12 7 33.6 167 
 BAR2 SZ ES   1    250 13.18                             163   -0.12 7 33.6 167 
 BAR2 SZ I         250 15.02        30.7 0.27                          33.6 167 
 BRR  HZ EP   1    250  0.98                             152   -0.14 7 56.6 295 
 BRR  HN ES   2    250 14.82                             152    0.25 5 56.6 295 
 BRR  HZ I         250 15.80        13.9 0.16                          56.6 295 
 RUS  HZ EP   2    250  5.69                             134   -0.21 5  112 171 
 RUS  HN ES   2    250 23.33                             134    0.25 5  112 171 
 RUS  HZ I         250 28.51         1.4 0.28                           112 171 
 OCA  SZ EP   1    250  9.21                             124    0.16 7  149 357 
 OCA  SZ ES   2    250 28.51                             124   -0.17 5  149 357 
 OCA  SZ I         250 30.71         8.7 0.23                           149 357 
 ZAR  HZ EP   1    250 13.17                             117    0.08 7  190 291 
 ZAR  HN ES   2    250 35.74                             117   -0.13 4  190 291 
 ZAR  HZ I         250 38.98         3.7 0.20                           190 291 
                                                                                
