 2017  4 6 0246 20.5 L   6.785 -73.172143.5  RSN 24 0.5 2.9LRSN                1
 GAP=110        1.15       3.1     3.4  5.1  0.7451E+00  0.5110E+01  0.3213E+01E
 Epicentro: LOS SANTOS - SANTANDER                                             3
 ACTION:UPD 17-05-30 21:08 OP:jn   STATUS:               ID:20170406024620 L   I
 OLDACT:REG 17-04-06 12:45 OP:cara STATUS:               ID:20170406023719     3
 2017-04-06-0238-00M.COL___356                                                 6
 STAT SP IPHASW D HRMM SECON CODA AMPLIT PERI AZIMU VELO AIN AR TRES W  DIS CAZ7
 BAR2 EZ EP     D  246 39.75                             171   -0.0210 21.3 183 
 BAR2 EZ ES        246 54.28                             171   -0.5510 21.3 183 
 BAR2 EZ I         246 56.89       204.8 0.28            169           21.3 183 
 BRR  HZ EP     D  246 41.59                             153    0.3310 69.5 301 
 BRR  HN ES        246 58.23                             153    0.7510 69.5 301 
 BRR  HZ I         247  1.79       123.1 0.46            150           69.5 301 
 PAM  EZ EP     D  246 42.58                             149   -0.0410 80.5  40 
 PAM  EN ES        246 59.56                             149   -0.3410 80.5  40 
 PAM  EZ I         247  1.95       281.5 0.52            154           80.5  40 
 RUS  HZ EP        246 43.78                             144   -0.0910 99.2 174 
 RUS  HN ES        247  2.69                             144    0.5510 99.2 174 
 RUS  HZ I         247  3.54       133.7 0.22            145           99.2 174 
 PTB  HZ EP        246 46.29                             132   -0.65 9  145 259 
 PTB  HN ES        247  7.64                             132    0.03 9  145 259 
 PTB  HZ I         247 12.31        73.8 0.26            131            145 259 
 SPBC HZ EP        246 48.54                             129    0.06 9  160 219 
 SPBC HN ES        247 10.62                             129    0.28 9  160 219 
 SPBC HZ I         247 13.22       211.2 0.26            129            160 219 
 YPLC HZ IP     D  246 50.18                             126    0.10 9  177 150 
 YPLC HN ES        247 12.92                             126   -0.26 9  177 150 
 YPLC HZ I         247 15.13       147.9 0.28            128            177 150 
 ZAR  HZ EP        246 52.28                             122   -0.26 9  202 293 
 ZAR  HN ES        247 16.90                             122   -0.66 9  202 293 
 ZAR  HZ I         247 24.55        75.2 0.36            122            202 293 
 TABC EZ EP   4    246 57.30                             119    1.55 0  227 210 
 TABC EZ ES        247 21.72                             119   -1.57 8  227 210 
 TABC EZ I         247 30.43        63.6 0.30            119            227 210 
 NOR  HZ EP        246 55.93                             118    0.24 8  231 234 
 NOR  HN ES        247 24.11                             118    0.94 8  231 234 
 NOR  HZ I         247 26.29        57.3 0.18            118            231 234 
 CHI  HZ EP        246 57.92                             117    0.15 8  246 195 
 CHI  HE ES        247 27.22                             117    0.35 8  246 195 
 CHI  HZ I         247 30.77        58.8 0.48            118            246 195 
 ROSC BZ EP   4    246 59.54                             116    1.41 0  250 211 
 ROSC BN ES   4    247 26.03                             116   -1.48 0  250 211 
 ROSC BZ I         247 33.58        79.3 0.45            117            250 211 
 HEL  HZ EP        247  0.93                             115    0.74 8  269 256 
 HEL  HE ES        247 31.53                             115    0.34 8  269 256 
 HEL  HZ I         247 38.75        37.9 0.36            115            269 256 
 URE  HZ EP   4    246 59.51                             113   -1.67 0  282 292 
 URE  HN ES   4    247 32.15                             113   -0.80 0  282 292 
 URE  HZ I         247 42.50        60.8 0.22            113            282 292 
 VIL  EZ EP        247  3.45                             112   -0.07 7  301 191 
 VIL  EN ES        247 37.19                             112    0.09 7  301 191 
 VIL  EZ I         247 40.43        73.6 0.42            113            301 191 
 PTGC HZ EP   4    247  2.76                             111   -1.39 0  308 158 
 PTGC HN ES   4    247 36.15                             111   -2.09 0  308 158 
 PTGC HZ I         247 39.00        61.6 0.40            113            308 158 
 ELA  HZ EP   4    247  7.87                             110    1.04 0  326 229 
 ELA  HN ES   4    247 44.44                             110    1.44 0  326 229 
 ELA  HZ I         247 52.53        28.2 0.64            110            326 229 
 CBOC HZ EP        247  6.28                             110   -0.62 7  330 252 
 CBOC HN ES        247 42.41                             110   -0.71 7  330 252 
 CBOC HZ I         247 47.88        13.0 0.18            110            330 252 
 DBB  EZ EP        247  7.30                             109   -0.22 7  337 275 
 DBB  EN ES   4    247 41.33                             109   -2.90 0  337 275 
 DBB  EZ I         247 44.65        19.9 0.16            110            337 275 
 ANIL HZ EP   4    247 11.15                             108    1.36 0  354 224 
 ANIL HE ES   4    247 49.72                             108    1.44 0  354 224 
 ARGC HZ EP        247 10.86                             108    0.77 6  360 341 
 ARGC HN ES   4    247 47.13                             108   -1.68 0  360 341 
 ARGC HZ I         247 58.33        14.6 0.22            109            360 341 
 PRA  HZ EP        247 13.52                             106   -0.04 6  389 209 
 PRA  HE ES        247 55.30                             106    0.32 6  389 209 
 PRA  HZ I         248  1.74        34.2 0.24            107            389 209 
 ORTC HZ EP        247 14.04                             106    0.10 6  392 216 
 ORTC HN ES   4    247 57.32                             106    1.67 0  392 216 
 ORTC HZ I         248  1.00        17.3 0.52            107            392 216 
 PAL  HZ EP        247 15.26                             106    0.12 6  402 239 
 PAL  HN ES   4    247 58.77                             106    0.97 0  402 239 
 PAL  HZ I         248  1.35        17.6 0.24            106            402 239 
 SJC  HZ EP   4    247 13.48                             105   -2.44 0  409 327 
 SJC  HN ES   4    247 53.04                             105   -6.14 0  409 327 
 SJC  HZ I         247 59.50        16.4 0.64            106            409 327 
                                                                                
