 2011  7 6 0210 39.6 L   6.833 -72.979155.7  RSN  7 0.4 1.5LRSN                1
 GAP=157        0.85       7.1     9.1  8.7 -0.2365E+02  0.2458E+01  0.2259E+02E
 Epicentro: CEPITA - SANTANDER                                                 3
 ACTION:UPD 12-07-25 13:58 OP:epov STATUS:               ID:20110706021039 L   I
 2011-07-06-0209-20S.COL___123                                                 6
 STAT SP IPHASW D HRMM SECON CODA AMPLIT PERI AZIMU VELO AIN AR TRES W  DIS CAZ7
 BAR2 SZ EP   1    211  0.33                             167   -0.39 7 34.8 220 
 BAR2 SZ I         211 16.30         6.6 0.30                          34.8 220 
 PAM  SN ES        211 19.86                             157    0.0410 64.0  29 
 BRR  HZ EP   1    211  2.07                             149   -0.67 7 86.4 291 
 BRR  HZ I         211  3.47         7.9 0.11                          86.4 291 
 BRR  HE ES   1    211 21.28                             149    0.51 7 86.4 291 
 BRI  SZ EP   1    211  4.36                             146    0.50 7 99.7  12 
 BRI  SZ ES   1    211 22.38                             146   -0.39 7 99.7  12 
 BRI  SZ I         211 25.26         4.1 0.23                          99.7  12 
 RUS  HZ EP   1    211  4.80                             145    0.15 7  105 186 
 GRA  SZ EP   1    211  5.78                             141    0.63 7  118   9 
 GRA  SZ ES   1    211 24.90                             141   -0.17 7  118   9 
 GRA  SZ I         211 27.57         3.9 0.45                           118   9 
 OCA  SZ EP   1    211  8.44                             132   -0.25 7  160 346 
                                                                                
