 2011  1 6 0452 15.7 L   6.827 -73.448134.6  RSN  4 0.2 1.4LRSN                1
 GAP=207        0.51       3.2    19.3  8.7  0.4416E+01  0.1061E+03 -0.5588E+01E
 Epicentro: SAN VICENTE DE CHUCURI - SANTANDER                                 3
 ACTION:UP  11-02-08 08:38 OP:pat  STATUS:               ID:20110106045215 L   I
 2011-01-06-0447-12S.COL___135                                                 6
 STAT SP IPHASW D HRMM SECON CODA AMPLIT PERI AZIMU VELO SNR AR TRES W  DIS CAZ7
 BAR2 SZ EP   1    452 34.47                             163     0.0 7   39 132 
 BAR2 SZ I         452 34.77         6.0 0.09                            39 132 
 BAR2 SZ ES   1    452 48.94                             163    -0.1 7   39 132 
 RUS  HZ EP   1    452 38.88                             138    -0.3 7  111 159 
 RUS  HE ES   1    452 57.79                             138     0.3 7  111 159 
 RUS  HZ I         452 58.72         2.7 0.25                           111 159 
 GRA  SZ ES   2    453  0.65                             132     0.0 5  137  31 
 GRA  SZ I         453  1.86         4.5 0.35                           137  31 
 OCA  SZ EP   1    452 43.04                             128     0.2 7  157   5 
 OCA  SZ ES   2    453  3.93                             128    -0.1 5  157   5 
 OCA  SZ I         453  9.52         3.4 0.07                           157   5 
                                                                                
