 2013  4 6 0112 43.0 L   7.060 -73.429 46.8  RSN 11 0.4 2.1LRSN                1
 GAP= 80        0.92       2.7     2.8  5.3  0.1923E+01  0.3364E+01  0.2361E+00E
 Epicentro: SAN VICENTE DE CHUCURI - SANTANDER                                 3
 ACTION:UPD 13-05-22 14:36 OP:EP   STATUS:               ID:20130406011243 L   I
 2013-04-06-0110-00M.COL___245                                                 6
 STAT SP IPHASW D HRMM SECON CODA AMPLIT PERI AZIMU VELO AIN AR TRES W  DIS CAZ7
 GIR2 SZ EP        112 50.44                             146   -0.6210 26.1  86 
 GIR2 SZ I         112 57.66       346.1 0.38            151           26.1  86 
 BRR  HZ EP        112 51.24                             140   -0.0310 31.6 279 
 BRR  HE ES        112 58.13                             140    0.4110 31.6 279 
 BRR  HZ I         113  0.03       121.1 0.26            135           31.6 279 
 BAR2 SZ EP        112 54.14                             119   -0.0310 58.5 152 
 BAR2 SZ ES        113  2.92                             119    0.0510 58.5 152 
 BAR2 SZ I         113  4.24       233.6 0.32            118           58.5 152 
 PTB  HZ EP     D  113  1.72                              98   -0.2910  127 243 
 PTB  HN ES   1    113 15.96                              98   -0.88 7  127 243 
 OCA  HZ EP   1    113  2.37                              98   -0.25 7  131   5 
 OCA  HE ES   1    113 17.68                              98   -0.24 7  131   5 
 OCA  HZ I         113 20.17        43.2 0.14             97            131   5 
 RUS  HZ EP        113  4.02                              98    0.5210  135 163 
 RUS  HN ES   1    113 19.91                              98    0.43 7  135 163 
 RUS  HZ I         113 22.84        10.5 0.16             97            135 163 
 ZAR  HZ EP        113  6.76                              95    0.15 9  165 287 
 ZAR  HE ES   1    113 25.25                              95    0.24 7  165 287 
 ZAR  HZ I         113 33.60        11.5 0.18             94            165 287 
 SML  HZ EP   1    113 11.89                              93    0.34 6  205 340 
 NOR  HZ EP   2    113 14.82                              93    0.16 4  230 224 
 NOR  HE ES   1    113 38.65                              93   -0.69 6  230 224 
 NOR  HZ I         113 51.11         4.8 0.22             92            230 224 
 URE  HZ EP   1    113 16.28                              93   -0.14 6  244 288 
 URE  HN ES   1    113 43.38                              93    0.89 6  244 288 
 HEL  HZ EP        113 18.15                              92    0.45 8  251 248 
 HEL  HN ES   1    113 44.22                              92   -0.53 6  251 248 
 HEL  HZ I         113 46.58         4.9 0.28             92            251 248 
                                                                                
