 2013  4 6 0157 30.7 L   6.803 -73.147147.4  RSN 10 0.5 1.9LRSN                1
 GAP=185        1.01       4.4     6.5  7.1  0.7289E+01  0.2024E+01  0.4054E+01E
 Epicentro: LOS SANTOS - SANTANDER                                             3
 ACTION:UPD 13-05-22 14:36 OP:EP   STATUS:               ID:20130406015730 L   I
 2013-04-06-0155-44M.COL___221                                                 6
 STAT SP IPHASW D HRMM SECON CODA AMPLIT PERI AZIMU VELO AIN AR TRES W  DIS CAZ7
 BAR2 SZ ES   1    158  5.81                             171   -0.22 7 23.6 189 
 BAR2 SZ I         158  7.04        31.1 0.16            169           23.6 189 
 GIR2 SZ EP        157 50.51                             167   -0.0810 30.9 351 
 BRR  HZ EP        157 52.58                             153    0.5410 70.9 298 
 BRR  HN ES        158  9.27                             153    0.6110 70.9 298 
 BRR  HZ I         158 13.23         9.9 0.16            150           70.9 298 
 RUS  HZ EP        157 54.63                             144   -0.0310  101 176 
 RUS  HN ES   1    158 12.99                             144   -0.34 7  101 176 
 RUS  HZ I         158 14.44         6.0 0.32            146            101 176 
 PTB  HZ EP        157 57.55                             132   -0.27 9  148 259 
 PTB  HN ES   1    158 18.58                             132   -0.37 7  148 259 
 PTB  HZ I         158 20.53         8.1 0.12            132            148 259 
 ZAR  HE ES   1    158 28.55                             123   -0.07 6  204 292 
 ZAR  HZ I         158 35.50         8.6 0.25            123            204 292 
 NOR  HN ES   1    158 34.78                             119    0.28 6  235 234 
 SML  HZ EP   1    158  7.85                             118    0.44 6  243 335 
 SML  HE ES   1    158 34.54                             118   -1.48 6  243 335 
 CHI  HZ EP        158  8.90                             117    0.36 8  249 195 
 CHI  HN ES   1    158 37.25                             117   -0.79 6  249 195 
 CHI  HZ I         158 40.95         4.9 0.74            119            249 195 
 PRA  HZ EP        158 24.39                             107    0.07 6  392 210 
                                                                                
