 2017  2 6 0133 46.2 L   6.709 -73.194146.0  RSN  4 0.4 1.1LRSN                1
 GAP=225        0.92       7.3     7.5  8.2  0.3693E+02 -0.1529E+01 -0.9806E+01E
 Epicentro: VILLANUEVA - SANTANDER                                             3
 ACTION:UPD 17-05-24 15:33 OP:jn   STATUS:               ID:20170206013346 L   I
 OLDACT:UP  17-02-06 15:38 OP:edw  STATUS:               ID:20170206012749     3
 OLDACT:REG 17-02-06 11:39 OP:edw  STATUS:               ID:20170206012749     3
 2017-02-06-0128-00M.COL___322                                                 6
 STAT SP IPHASW D HRMM SECON CODA AMPLIT PERI AZIMU VELO AIN AR TRES W  DIS CAZ7
 BRR  HZ EP     D  134  7.07                             152   -0.4010 72.2 308 
 BRR  HN ES        134 24.05                             152    0.0210 72.2 308 
 PAM  EZ EP   4    134  7.80                             147   -1.38 0 88.6  38 
 PAM  HN ES   4    134 32.78                             147    5.71 0 88.6  38 
 RUS  HZ EP        134  9.45                             147    0.1010 91.1 172 
 RUS  HN ES        134 27.58                             147    0.2010 91.1 172 
 RUS  HZ I         134 31.13         2.2 0.28            146           91.1 172 
 PTB  HZ EP        134 11.98                             134   -0.62 9  141 262 
 PTB  HN ES        134 33.13                             134   -0.04 9  141 262 
 PTB  HZ I         134 34.70         1.7 0.28            134            141 262 
 ZAR  HZ EP        134 19.30                             123    0.69 9  203 295 
 ZAR  HN ES        134 44.09                             123    0.23 9  203 295 
                                                                                
