 2013  3 6 0724  2.4 L   7.311 -73.067154.3  RSN  6 0.3 1.6LRSN                1
 GAP=204        0.63       3.0     4.6  5.6  0.6840E+00  0.4172E+01  0.2046E+00E
 Epicentro: MATANZA - SANTANDER                                                3
 ACTION:UPD 13-04-09 14:00 OP:ep   STATUS:               ID:20130306072402 L   I
 2013-03-06-0720-00M.COL___228                                                 6
 STAT SP IPHASW D HRMM SECON CODA AMPLIT PERI AZIMU VELO AIN AR TRES W  DIS CAZ7
 BRR  HZ EP        724 24.96                             153    0.2710 74.7 252 
 BRR  HN ES        724 42.30                             153    0.2410 74.7 252 
 BRR  HN I         724 46.20        10.1 0.16            151           74.7 252 
 BAR2 SZ EP        724 25.22                             151   -0.1510 80.5 189 
 BAR2 SZ ES        724 42.96                             151   -0.3010 80.5 189 
 BAR2 SZ I         724 44.26        10.9 0.12            152           80.5 189 
 OCA  HN ES        724 46.27                             144    0.1910  106 345 
 PTB  HZ EP   1    724 32.63                             129   -0.02 7  176 241 
 PTB  HN ES        724 56.19                             129   -0.04 9  176 241 
 PTB  HZ I         724 58.88         2.8 0.13            129            176 241 
 SML  HN ES   1    724 59.56                             125   -0.61 6  199 326 
 ZAR  HZ EP   1    724 35.23                             125    0.33 6  199 276 
 ZAR  HN ES   1    725  0.05                             125   -0.18 6  199 276 
 ZAR  HZ I         725  2.19         3.0 0.27            126            199 276 
                                                                                
