 2010  1 6 0144 12.2 L   6.359 -73.639104.0  RSN  7 0.3 1.5LRSN                1
 GAP=132        0.54       2.8     7.5  8.8 -0.8557E+01  0.4824E+02 -0.5969E+01E
 Epicentro: SANTA HELENA DEL OPON - SANTANDER                                  3
 ACTION:UP  10-08-24 09:42 OP:vdl  STATUS:               ID:20100106014412 L   I
 2010-01-06-0140-11S.COL___097                                                 6
 STAT SP IPHASW D HRMM SECON CODA AMPLIT PERI AZIMU VELO SNR AR TRES W  DIS CAZ7
 BAR2 SZ IP        144 28.60                             150     0.210   57  63 
 BAR2 SZ ES   2    144 41.28                             150     0.3 5   57  63 
 RUS  BZ EP        144 30.21                             140    -0.210   80 130 
 RUS  BN ES   2    144 44.30                             140    -0.3 5   80 130 
 RUS  BZ I         144 46.30         9.4 0.16                            80 130 
 GIR2 SZ IP        144 31.24                             135     0.210   94  32 
 GIR2 SZ ES   3    144 45.94                             135     0.2 2   94  32 
 NOR  SZ EP   2    144 37.27                             118    -0.5 5  162 237 
 NOR  SZ ES   3    144 57.56                             118    -0.1 2  162 237 
 NOR  SZ I         145  1.29         2.5 0.49                           162 237 
 CHI  HZ EP        144 41.48                             114     0.0 9  192 183 
 CHI  HZ I         144 43.02         4.1 0.19                           192 183 
 OCA  SZ EP        144 43.08                             111    -0.2 8  211  10 
 OCA  SZ ES   2    145  7.29                             111    -0.3 4  211  10 
 PRA  HZ EP   2    144 57.03                             102     0.6 3  323 205 
 PRA  HN ES   2    145 31.39                             102     0.5 3  323 205 
 PRA  HZ I         145 37.92         2.3 0.33                           323 205 
                                                                                
