 2017  5 6 0955 45.9 L   6.544 -73.570103.1  RSN  5 0.3 1.4LRSN                1
 GAP=187        0.58       5.6     3.5  7.0  0.1413E+02 -0.8757E+01 -0.1106E+02E
 Epicentro: EL CARMEN - SANTANDER                                              3
 ACTION:UPD 17-06-16 13:33 OP:jn   STATUS:               ID:20170506095545 L   I
 OLDACT:UP  17-05-06 17:47 OP:and  STATUS:               ID:20170506094730d    3
 OLDACT:UP  17-05-06 17:46 OP:and  STATUS:               ID:20170506094730d    3
 OLDACT:UP  17-05-06 17:46 OP:and  STATUS:               ID:20170506094730d    3
 OLDACT:UP  17-05-06 17:46 OP:and  STATUS:               ID:20170506094730d    3
 OLDACT:UP  17-05-06 17:45 OP:and  STATUS:               ID:20170506094730d    3
 OLDACT:UP  17-05-06 17:45 OP:and  STATUS:               ID:20170506094730d    3
 OLDACT:UP  17-05-06 17:45 OP:and  STATUS:               ID:20170506094730d    3
 OLDACT:UP  17-05-06 17:45 OP:and  STATUS:               ID:20170506094730d    3
 OLDACT:UP  17-05-06 17:44 OP:and  STATUS:               ID:20170506094730d    3
 OLDACT:UP  17-05-06 17:44 OP:and  STATUS:               ID:20170506094730d    3
 OLDACT:UP  17-05-06 17:44 OP:and  STATUS:               ID:20170506094730d    3
 OLDACT:UP  17-05-06 17:44 OP:and  STATUS:               ID:20170506094730d    3
 OLDACT:UP  17-05-06 17:43 OP:and  STATUS:               ID:20170506094730d    3
 OLDACT:UP  17-05-06 17:43 OP:and  STATUS:               ID:20170506094730d    3
 OLDACT:UP  17-05-06 17:43 OP:and  STATUS:               ID:20170506094730d    3
 OLDACT:UP  17-05-06 17:43 OP:and  STATUS:               ID:20170506094730d    3
 OLDACT:UP  17-05-06 17:41 OP:and  STATUS:               ID:20170506094730d    3
 OLDACT:UP  17-05-06 17:41 OP:and  STATUS:               ID:20170506094730d    3
 OLDACT:UP  17-05-06 17:40 OP:and  STATUS:               ID:20170506094730d    3
 OLDACT:UP  17-05-06 17:40 OP:and  STATUS:               ID:20170506094730d    3
 OLDACT:UP  17-05-06 17:39 OP:and  STATUS:               ID:20170506094730d    3
 OLDACT:UP  17-05-06 17:39 OP:and  STATUS:               ID:20170506094730d    3
 OLDACT:UP  17-05-06 17:38 OP:and  STATUS:               ID:20170506094730d    3
 OLDACT:DUP 17-05-06 17:37 OP:and  STATUS:               ID:20170506094730d    3
 2017-05-06-0948-00M.COL___345                                                 6
 STAT SP IPHASW D HRMM SECON CODA AMPLIT PERI AZIMU VELO AIN AR TRES W  DIS CAZ7
 RUS  HZ EP   2    956  4.83                             136    0.02 5 89.9 143 
 RUS  HN ES   2    956 19.98                             136    0.41 5 89.9 143 
 RUS  HZ I         956 23.21         1.7 0.28            141           89.9 143 
 PTB  HZ EP   2    956  4.36                             132   -0.51 5 98.1 270 
 PTB  HN ES        956 19.45                             132   -0.2310 98.1 270 
 PTB  HZ I         956 20.63         4.6 0.14            137           98.1 270 
 ZAR  HZ EP        956 13.29                             115    0.38 9  177 306 
 ZAR  HN ES   4    956 36.53                             115    2.54 0  177 306 
 ZAR  HZ I         956 38.33         4.5 0.30            119            177 306 
 NOR  HZ EP        956 13.33                             114   -0.00 9  180 233 
 NOR  HE ES   2    956 35.24                             114    0.50 4  180 233 
 NOR  HZ I         956 37.13         2.8 0.26            119            180 233 
 YPLC HZ EP        956 13.41                             114   -0.25 9  183 134 
 YPLC HN ES        956 35.39                             114    0.06 9  183 134 
 YPLC HZ I         956 37.15         7.9 0.32            118            183 134 
                                                                                
