 2016 10 6 0908 59.1 L   7.381 -73.119  4.0  RSN 17 0.6 2.3LRSN                1
 GAP=109        1.44       2.9     4.5  6.6  0.1600E+01  0.1317E+02  0.2682E+01E
 Epicentro: MATANZA - SANTANDER                                                3
 ACTION:UPD 16-11-09 19:16 OP:rebc STATUS:               ID:20161006090859 L   I
 OLDACT:UP  16-10-06 15:36 OP:dani STATUS:               ID:20161006090743     3
 OLDACT:UP  16-10-06 15:35 OP:dani STATUS:               ID:20161006090743     3
 OLDACT:UP  16-10-06 15:33 OP:dani STATUS:               ID:20161006090743     3
 OLDACT:UP  16-10-06 15:31 OP:dani STATUS:               ID:20161006090743     3
 OLDACT:UP  16-10-06 15:30 OP:dani STATUS:               ID:20161006090743     3
 OLDACT:UP  16-10-06 15:30 OP:dani STATUS:               ID:20161006090743     3
 OLDACT:UP  16-10-06 15:30 OP:dani STATUS:               ID:20161006090743     3
 OLDACT:REG 16-10-06 13:16 OP:dnl  STATUS:               ID:20161006090743     3
 2016-10-06-0908-00M.COL___354                                                 6
 STAT SP IPHASW D HRMM SECON CODA AMPLIT PERI AZIMU VELO AIN AR TRES W  DIS CAZ7
 PAM  EZ IP     D  9 9  7.73                              47    0.5110 46.6  96 
 PAM  EZ I         9 9 14.96       377.7 0.16             47           46.6  96 
 BRR  HZ EP        9 9 10.93                              47    0.3410 72.1 245 
 BRR  HN ES        9 9 19.91                              47    0.3410 72.1 245 
 BRR  HZ I         9 9 20.38       103.0 0.12             47           72.1 245 
 BAR2 EZ EP        9 9 13.13                              47   -0.0310 87.5 185 
 BAR2 EZ ES        9 9 23.72                              47   -0.4410 87.5 185 
 BAR2 EZ I         9 9 24.17        89.4 0.24             47           87.5 185 
 OCA  HZ EP        9 9 14.41                              47   -0.1710 97.4 347 
 OCA  HN ES        9 9 26.47                              47   -0.2210 97.4 347 
 OCA  HZ I         9 9 30.98       134.0 0.14             47           97.4 347 
 RUS  HZ EP     D  9 9 25.54                              47    0.43 9  165 179 
 RUS  HN ES        9 9 44.50                              47   -0.93 9  165 179 
 RUS  HZ I         9 9 46.24        32.1 0.34             47            165 179 
 PTB  HZ EP     D  9 9 25.66                              47   -0.47 9  175 238 
 PTB  HE ES   4    9 9 44.64                              47   -2.60 0  175 238 
 PTB  HZ I         9 9 47.69        81.0 0.38             47            175 238 
 TAM  HZ EP   4    9 9 31.11                              37    4.21 0  180 125 
 TAM  HZ I         9 9 57.02        14.5 0.24             37            180 125 
 ZAR  HZ EP     D  9 9 28.51                              37    0.13 9  192 274 
 ZAR  HN ES        9 9 50.45                              37   -0.79 9  192 274 
 ZAR  HZ I         9 9 51.94        97.7 0.36             37            192 274 
 SPBC HZ EP   9    9 9 33.17                              37    1.45 0  218 209 
 SPBC HN ES        9 9 59.99                              37    1.35 8  218 209 
 SPBC HZ I         910  2.10        54.3 0.22             37            218 209 
 URE  HZ EP   9    9 9 39.05                              37    1.02 0  269 279 
 URE  HN ES        910  9.45                              56    0.01 8  269 279 
 URE  HZ I         910 14.45        16.1 0.20             37            269 279 
 NOR  HZ EP   4    9 9 40.63                              37    1.36 0  279 224 
 NOR  HZ I         910 18.63        10.3 0.19             37            279 224 
 HEL  HZ EP        9 9 42.78                              36    0.88 7  297 244 
 HEL  HE ES   4    910 14.63                              36   -0.68 0  297 244 
 HEL  HZ I         910 23.43        12.6 0.36             37            297 244 
 ROSC BN ES   4    910 17.66                              36   -0.71 0  311 205 
 ROSC BZ I         910 35.82        14.5 0.38             36            311 205 
 CHI  HZ EP   4    9 9 46.88                              36    3.12 0  312 193 
 CHI  HZ I         910 31.78         4.6 0.32             36            312 193 
 GUY2CHZ EP        9 9 49.07                              36    1.20 7  344 226 
 GUY2CHZ I         910 50.52         6.7 0.46                           344 226 
 CBOC HZ EP   4    9 9 50.83                              36    1.25 0  361 243 
 CBOC HZ I         910 42.41         5.8 0.35             36            361 243 
 CRJC HZ EP   4    9 9 52.47                              36   -2.22 0  403   4 
 CRJC HE ES   4    910 39.57                              36    1.51 0  403   4 
 CRJC HZ I         910 56.61         7.6 0.26             36            403   4 
                                                                                
