 2011  6 6 0150  1.4 L   6.763 -73.089140.5  RSN  8 0.3 1.7LRSN                1
 GAP=146        0.62       3.4     5.0  5.6 -0.7153E+01  0.2195E+01  0.5403E+00E
 Epicentro: LOS SANTOS - SANTANDER                                             3
 ACTION:UP  11-07-14 19:03 OP:ep   STATUS:               ID:20110606015001 L   I
 2011-06-06-0147-21S.COL___132                                                 6
 STAT SP IPHASW D HRMM SECON CODA AMPLIT PERI AZIMU VELO SNR AR TRES W  DIS CAZ7
 BAR2 SZ EP   1    150 20.15                             171    -0.2 7   22 209 
 BAR2 SZ ES   1    150 35.34                             171     0.2 7   22 209 
 BAR2 SZ I         150 36.40        12.9 0.13                            22 209 
 PAM  SZ EP        150 23.09                             150     0.010   77  34 
 PAM  SN ES   1    150 40.13                             150     0.2 7   77  34 
 BRR  HZ EP   1    150 22.06                             149    -0.4 7   79 299 
 BRR  HN ES   1    150 38.77                             149    -0.1 7   79 299 
 BRR  HZ I         150 43.26        10.6 0.17                            79 299 
 RUS  HZ EP   1    150 24.32                             144     0.0 7   96 180 
 RUS  HN ES   1    150 42.14                             144    -0.1 7   96 180 
 RUS  HZ I         150 44.01         6.8 0.29                            96 180 
 BRI  SZ EP   2    150 24.58                             140    -0.4 5  110  17 
 BRI  SZ I         150 45.16         7.6 0.37                           110  17 
 GRA  SZ EP   2    150 26.81                             135     0.4 5  128  14 
 GRA  SZ ES   1    150 45.94                             135     0.1 7  128  14 
 GRA  SZ I         150 46.94         8.4 0.37                           128  14 
 NOR  SZ EP   2    150 37.86                             117     0.7 4  237 236 
 NOR  SE ES   2    151  4.52                             117    -0.5 4  237 236 
 RREF HN ES   2    151 24.55                             110     1.0 3  324 231 
 RREF HZ I         151 28.59         2.1 0.45                           324 231 
                                                                                
