 2015  2 6 0456 59.1 L   6.765 -73.138142.4  RSN  6 0.4 1.4LRSN                1
 GAP=139        1.15       5.4     5.7  8.4 -0.7423E+01  0.6155E+01  0.1586E+01E
 Epicentro: LOS SANTOS - SANTANDER                                             3
 ACTION:UPD 15-04-30 21:22 OP:nd   STATUS:               ID:20150206045659 L   I
 OLDACT:REG 15-02-06 12:41 OP:cam  STATUS:               ID:20150206044747     3
 2015-02-06-0447-47M.COL___278                                                 6
 STAT SP IPHASW D HRMM SECON CODA AMPLIT PERI AZIMU VELO AIN AR TRES W  DIS CAZ7
 BAR2 EZ EP        457 18.16                             172   -0.0610 19.7 194 
 BAR2 EZ ES        457 32.86                             172   -0.3010 19.7 194 
 BAR2 EZ I         457 34.16         4.7 0.28            171           19.7 194 
 BRR  HZ EP        457 20.12                             151    0.1110 73.9 301 
 BRR  HN ES        457 37.27                             151    0.9310 73.9 301 
 BRR  HN I         457 41.25        11.6 0.24            149           73.9 301 
 PAM  SZ EP        457 20.91                             149   -0.1710 79.9  37 
 PAM  SN ES        457 37.96                             149   -0.2910 79.9  37 
 PAM  SZ I         457 40.10         5.0 0.58            153           79.9  37 
 RUS  HZ EP        457 22.37                             144    0.1710 96.6 176 
 RUS  HN ES        457 40.45                             144    0.2010 96.6 176 
 RUS  HZ I         457 41.42         2.0 0.24            148           96.6 176 
 PTB  HZ EP        457 25.99                             131    0.22 9  148 260 
 PTB  HN ES        457 45.63                             131   -0.97 9  148 260 
 PTB  HZ I         457 52.97         2.1 0.28            131            148 260 
 SPBC HN ES        457 49.01                             129    0.09 9  161 220 
 SPBC HN I         457 51.33         5.2 0.12            130            161 220 
                                                                                
