 2013  9 6 0341 34.6 L   6.777 -73.167151.6  RSN  5 0.4 1.5LRSN                1
 GAP=199        0.77       3.7     6.0  7.2  0.5469E+01 -0.4711E+01 -0.6213E+01E
 Epicentro: LOS SANTOS - SANTANDER                                             3
 ACTION:UPD 13-10-22 09:20 OP:ep   STATUS:               ID:20130906034134 L   I
 OLDACT:UP  13-09-06 09:25 OP:cam  STATUS:               ID:20130906034000     3
 OLDACT:REG 13-09-06 08:09 OP:cam  STATUS:               ID:20130906034000     3
 2013-09-06-0340-00M.COL___268                                                 6
 STAT SP IPHASW D HRMM SECON CODA AMPLIT PERI AZIMU VELO AIN AR TRES W  DIS CAZ7
 BRR  HZ EP   1    341 56.52                             154    0.20 7 70.4 301 
 BRR  HN ES        342 13.73                             154    0.4610 70.4 301 
 RUS  HZ EP   1    341 58.76                             146    0.01 7 98.3 175 
 RUS  HN ES        342 17.30                             146   -0.3010 98.3 175 
 RUS  HZ I         342 18.40         3.1 0.28            147           98.3 175 
 PTB  HZ EP   1    342  1.94                             134    0.15 7  145 260 
 PTB  HN ES        342 22.62                             134   -0.38 9  145 260 
 PTB  HZ I         342 28.26         2.9 0.44            132            145 260 
 SPBC HZ EP   1    342  3.85                             131    0.63 7  160 219 
 SPBC HN ES        342 25.54                             131   -0.01 9  160 219 
 SPBC HZ I         342 27.61         3.5 0.42            130            160 219 
 SML  HZ EP   1    342 11.30                             118   -0.38 6  245 336 
 SML  HN ES   1    342 40.15                             118   -0.47 6  245 336 
 SML  HZ I         342 44.62         3.2 0.10            118            245 336 
                                                                                
