 2012  7 6 0007 58.0 L   5.815 -73.736114.7  RSN  5 0.3 1.7LRSN                1
 GAP=103        0.64       2.9     3.9  8.3 -0.3266E+01  0.1277E+02 -0.2253E+01E
 Epicentro: JESUS MARIA - SANTANDER                                            3
 ACTION:UPD 12-08-14 11:42 OP:ep   STATUS:               ID:20120706000758 L   I
 2012-07-06-0000-00M.COL___201                                                 6
 STAT SP IPHASW D HRMM SECON CODA AMPLIT PERI AZIMU VELO AIN AR TRES W  DIS CAZ7
 RUS  HZ EP   1    0 8 16.98                             146     0.3 8   73  83 
 RUS  HN ES   1    0 8 31.14                             146    -0.2 8   73  83 
 BAR2 SZ ES   1    0 8 35.52                             134     0.3 8  106  35 
 BAR2 SZ I         0 8 37.17        14.6 0.24            134            106  35 
 NOR  SZ EP   1    0 8 20.61                             128    -0.2 8  129 258 
 NOR  SE ES   1    0 8 38.85                             128     0.3 8  129 258 
 CHI  HZ EP   1    0 8 21.30                             128    -0.2 8  131 180 
 CHI  HN ES   1    0 8 39.79                             128    -0.1 8  131 180 
 BRR  HZ EP        0 8 22.35                             125     0.210  143   1 
 BRR  HE ES   1    0 8 40.39                             125    -0.6 7  143   1 
 BRR  HZ I         0 9  2.72         6.1 0.30            123            143   1 
