 2014  6 6 0059 38.4 L   6.790 -73.145146.0  RSN 11 0.5 1.8LRSN                1
 GAP=137        1.12       3.6     4.5  7.2 -0.2944E+01  0.9717E+01  0.2428E+01E
 Epicentro: LOS SANTOS - SANTANDER                                             3
 ACTION:UPD 14-07-01 22:51 OP:nd   STATUS:               ID:20140606005938 L   I
 OLDACT:REG 14-06-06 12:50 OP:fm   STATUS:               ID:20140606005820     3
 2014-06-06-0058-20M.COL___265                                                 6
 STAT SP IPHASW D HRMM SECON CODA AMPLIT PERI AZIMU VELO AIN AR TRES W  DIS CAZ7
 BRR  HZ EP        059 59.96                             152    0.3510 71.9 299 
 BRR  HN ES        1 0 16.97                             152    0.8110 71.9 299 
 BRR  HZ I         1 0 17.53         9.4 0.36            151           71.9 299 
 PAM  SZ EP        1 0  0.91                             151    0.2210 78.2  39 
 PAM  SN ES        1 0 18.04                             151   -0.0310 78.2  39 
 PAM  SZ I         1 0 20.38         7.8 0.72            153           78.2  39 
 RUS  HZ EP        1 0  1.76                             144   -0.3310 99.4 176 
 RUS  HN ES        1 0 20.49                             144   -0.0810 99.4 176 
 RUS  HZ I         1 0 21.39         6.2 0.32            145           99.4 176 
 PTB  HZ EP        1 0  4.78                             132   -0.60 9  148 259 
 PTB  HN ES        1 0 25.43                             132   -0.99 9  148 259 
 PTB  HZ I         1 0 30.15         4.9 0.18            131            148 259 
 SPBC HZ EP        1 0  6.46                             129   -0.38 9  162 219 
 SPBC HN ES        1 0 28.88                             129   -0.14 9  162 219 
 SPBC HZ I         1 0 34.68         6.3 0.26            129            162 219 
 ZAR  HZ EP        1 0 10.46                             122   -0.46 9  205 292 
 ZAR  HN ES        1 0 36.30                             122    0.02 9  205 292 
 NOR  HZ EP        1 0 14.40                             119    0.32 8  234 235 
 NOR  HN ES        1 0 42.17                             119    0.25 8  234 235 
 NOR  HZ I         1 0 43.91         6.3 0.24            119            234 235 
 SML  HZ EP   2    1 0 15.60                             117    0.44 4  245 335 
 SML  HE ES        1 0 43.56                             117   -0.27 8  245 335 
 SML  HZ I         1 0 49.35         8.5 0.22            118            245 335 
 GUY2CHZ EP        1 0 22.56                             112    0.60 7  301 235 
 GUY2CHN ES        1 0 56.67                             112    0.74 7  301 235 
 GUY2CHZ I         1 1  4.09         3.0 0.46                           301 235 
 RREF HZ EP   4    1 0 26.08                             111    1.60 0  321 230 
 RREF HN ES   4    1 0 57.79                             111   -2.63 0  321 230 
 RREF HZ I         1 1  7.81         3.3 0.28            111            321 230 
 TOL  SZ EP   4    1 0 28.51                             109    1.93 0  343 225 
 TOL  SN ES        1 1  4.73                             109    0.57 7  343 225 
 TOL  SZ I         1 1 14.79         5.4 0.74            110            343 225 
                                                                                
