 2017  8 6 0440 49.3 L   6.785 -73.122143.3  RSN  6 0.3 1.4LRSN                1
 GAP=239        0.77       4.2     4.9  5.0  0.8895E+01  0.2589E+00 -0.2136E+01E
 Epicentro: LOS SANTOS - SANTANDER                                             3
 ACTION:UPD 17-09-04 20:16 OP:rebc STATUS:               ID:20170806044049 L   I
 OLDACT:DUP 17-08-06 17:12 OP:osc  STATUS:               ID:20170806043739d    3
 2017-08-06-0438-00M.COL___383                                                 6
 STAT SP IPHASW D HRMM SECON CODA AMPLIT PERI AZIMU VELO AIN AR TRES W  DIS CAZ7
 BAR2 EZ EP        441  8.43                             171   -0.2110 22.4 197 
 BAR2 EZ ES        441 23.35                             171   -0.3610 22.4 197 
 BAR2 EZ I         441 26.70         6.0 0.17            164           22.4 197 
 BRR  HZ EP        441 10.48                             151    0.0910 74.3 299 
 BRR  HN ES        441 27.21                             151    0.3910 74.3 299 
 RUS  HZ EP        441 13.13                             144    0.4210 98.8 178 
 RUS  HN ES        441 30.92                             144   -0.0310 98.8 178 
 RUS  HZ I         441 31.95         3.1 0.36            141           98.8 178 
 PTB  HZ EP   9    441 15.50                             131   -0.80 0  150 260 
 PTB  HN ES        441 36.13                                   -0.41 9  150 260 
 PTB  HZ I         441 41.67         2.3 0.36            129            150 260 
 SPBC HZ EP        441 17.61                             128   -0.07 9  164 220 
 SPBC HE ES        441 39.81                             128    0.02 9  164 220 
 SPBC HZ I         441 46.64         3.4 0.18            126            164 220 
 ZAR  HZ EP        441 21.42                             121   -0.51 8  207 292 
 ZAR  HE ES        441 47.47                             121    0.11 8  207 292 
                                                                                
