 2017  8 6 0641 33.6 L   6.570 -73.451 19.0  RSN  7 0.4 1.2LRSN                1
 GAP=111        1.08       2.6     2.8  5.2  0.2103E+01  0.9349E+01  0.4778E+01E
 Epicentro: EL CARMEN - SANTANDER                                              3
 ACTION:UPD 17-09-04 20:16 OP:rebc STATUS:               ID:20170806064133 L   I
 OLDACT:REG 17-08-06 12:28 OP:osc  STATUS:               ID:20170806063736     3
 2017-08-06-0638-00M.COL___383                                                 6
 STAT SP IPHASW D HRMM SECON CODA AMPLIT PERI AZIMU VELO AIN AR TRES W  DIS CAZ7
 BAR2 EZ IP     D  641 39.86                             121    0.2510 29.8  85 
 BAR2 EZ ES        641 44.01                             121   -0.2810 29.8  85 
 BAR2 EZ I         641 44.81        13.2 0.11            150           29.8  85 
 BRR  HZ IP     C  641 44.91                             104    0.4410 66.0 334 
 BRR  HN ES        641 52.73                             104   -0.2210 66.0 334 
 BRR  HZ I         641 53.83         8.7 0.10            102           66.0 334 
 RUS  HZ EP        641 48.04                             101    0.2010 85.2 151 
 RUS  HE ES        641 58.33                             101   -0.6110 85.2 151 
 RUS  HZ I         641 58.98         8.2 0.12             97           85.2 151 
 PTB  HZ EP        641 51.37                              98    0.1510  111 268 
 PTB  HE ES        642  4.38                              98   -0.5810  111 268 
 PTB  HZ I         642  6.19         7.0 0.28             93            111 268 
 SPBC HZ EP        641 53.70                              97    0.7010  123 214 
 SPBC HN ES        642  8.78                              97    0.6410  123 214 
 SPBC HZ I         642 13.03         5.0 0.10             93            123 214 
 NOR  HZ EP        642  1.48                              56   -0.21 9  192 235 
 NOR  HE ES        642 23.15                              56   -0.45 9  192 235 
 NOR  HZ I         642 26.77         3.9 0.28             81            192 235 
 HEL  HZ EP        642  7.00                              56   -0.22 8  234 260 
 HEL  HN ES        642 33.49                              56    0.04 8  234 260 
 HEL  HZ I         642 34.06         2.0 0.20             81            234 260 
                                                                                
