 2013  2 6 0436 52.2 L   6.791 -73.149150.0  RSN  9 0.4 2.2LRSN                1
 GAP= 85        0.97       4.5     3.3  6.2  0.6541E+00  0.2017E+01  0.5968E+01E
 Epicentro: LOS SANTOS - SANTANDER                                             3
 ACTION:UPD 13-03-12 09:30 OP:ep   STATUS:               ID:20130206043652 L   I
 2013-02-06-0430-00M.COL___240                                                 6
 STAT SP IPHASW D HRMM SECON CODA AMPLIT PERI AZIMU VELO AIN AR TRES W  DIS CAZ7
 BAR2 SZ IP     C  437 12.19                             171   -0.1810 22.3 190 
 BAR2 SZ ES   1    437 27.84                             171   -0.22 7 22.3 190 
 BAR2 SZ I         437 29.75        40.6 0.40            163           22.3 190 
 BRR  HZ IP     C  437 14.08                             153    0.2210 71.4 299 
 BRR  HN ES        437 31.61                             153    0.8810 71.4 299 
 BRR  HN I         437 32.51        51.0 0.24            144           71.4 299 
 PAM  SZ IP     D  437 14.99                             151    0.0210 78.3  39 
 PAM  SN ES        437 32.46                             151   -0.2310 78.3  39 
 PAM  SZ I         437 34.32        31.6 0.54            152           78.3  39 
 PTB  HZ EP        437 18.87                             133   -0.65 9  147 259 
 PTB  HN ES        437 40.19                             133   -0.60 9  147 259 
 PTB  HZ I         437 47.43        30.0 0.28            123            147 259 
 TAM  HZ EP        437 20.34                             132    0.07 9  155 105 
 TAM  HN ES        437 42.22                             132    0.10 9  155 105 
 OCA  HZ EP        437 20.50                             131   -0.47 9  161 353 
 OCA  HN ES   2    437 43.61                             131    0.23 5  161 353 
 OCA  HZ I         437 46.93        13.6 0.34            125            161 353 
 ZAR  HZ EP        437 25.20                             123    0.22 9  204 292 
 ZAR  HN ES   1    437 50.68                             123    0.17 6  204 292 
 ZAR  HZ I         437 58.16        14.0 0.46            116            204 292 
 CHI  HZ EP        437 30.51                             118    0.44 8  248 195 
 CHI  HN ES   1    437 59.70                             118    0.13 6  248 195 
 CHI  HZ I         438  9.09         5.1 0.36            111            248 195 
 HEL  HZ EP   2    437 33.62                             116    1.00 4  272 256 
 HEL  HZ I         438 10.33         8.3 0.32            109            272 256 
                                                                                
