 2016  1 6 0233  5.9 L   6.796 -73.157148.5  RSN  8 0.4 1.4LRSN                1
 GAP=135        1.06       3.3     5.1  6.1 -0.1721E+01  0.5381E+01  0.5095E+00E
 Epicentro: LOS SANTOS - SANTANDER                                             3
 ACTION:UPD 16-03-09 23:23 OP:cam  STATUS:               ID:20160106023305 L   I
 OLDACT:REG 16-01-06 12:14 OP:drio STATUS:               ID:20160106022750     3
 2016-01-06-0227-50M.COL___275                                                 6
 STAT SP IPHASW D HRMM SECON CODA AMPLIT PERI AZIMU VELO AIN AR TRES W  DIS CAZ7
 BAR2 EZ EP        233 25.87                             171    0.0410 22.7 187 
 BAR2 EZ ES        233 40.91                             171   -0.4810 22.7 187 
 BAR2 EZ I         233 41.99         4.1 0.24            170           22.7 187 
 BRR  HZ EP        233 28.04                             153    0.7610 70.3 299 
 BRR  HE ES        233 44.75                             153    0.7810 70.3 299 
 BRR  HZ I         233 46.57         3.4 0.18            150           70.3 299 
 PAM  EZ EP        233 28.78                             151    0.3210 78.6  40 
 PAM  EN ES        233 45.75                             151   -0.3210 78.6  40 
 PAM  EZ I         233 47.97         5.4 0.50            153           78.6  40 
 RUS  HZ EP        233 29.55                             144   -0.3310  100 175 
 RUS  HE ES        233 48.70                             144    0.1110  100 175 
 RUS  HZ I         233 49.66         2.1 0.38            146            100 175 
 PTB  HZ EP        233 32.83                             133   -0.12 9  146 259 
 PTB  HN ES        233 53.50                             133   -0.57 9  146 259 
 PTB  HZ I         234  1.22         4.0 0.30            131            146 259 
 SPBC HZ EP        233 34.77                             130    0.29 9  162 219 
 SPBC HN ES        233 56.61                             130   -0.18 9  162 219 
 SPBC HZ I         233 59.16         6.5 0.40            129            162 219 
 SML  HZ EP        233 42.08                             118   -0.57 8  244 336 
 SML  HN ES        234 11.11                             118   -0.22 8  244 336 
 SML  HZ I         234 18.54         4.1 0.24            118            244 336 
 CHI  HZ EP        233 43.56                             118   -0.09 8  248 195 
 CHI  HN ES        234 13.41                             118    0.30 8  248 195 
 CHI  HZ I         234 19.30         1.5 0.42            118            248 195 
                                                                                
