 2012 10 6 0015 15.8 L   6.788 -73.140152.5  RSN  7 0.3 1.8LRSN                1
 GAP=138        0.63       3.4     4.7  5.5  0.1570E+01  0.4033E+01  0.5432E+01E
 Epicentro: LOS SANTOS - SANTANDER                                             3
 ACTION:UPD 12-11-22 17:02 OP:ep   STATUS:               ID:20121006001515 L   I
 2012-10-06-0010-00M.COL___222                                                 6
 STAT SP IPHASW D HRMM SECON CODA AMPLIT PERI AZIMU VELO AIN AR TRES W  DIS CAZ7
 BAR2 SZ EP   1    015 35.99                             171   -0.21 9 22.2 192 
 BAR2 SZ I         015 36.25        14.5 0.16                          22.2 192 
 BAR2 SZ ES   1    015 52.16                             171    0.04 9 22.2 192 
 GIR2 SZ EP   1    015 36.12                             167   -0.17 9 32.7 350 
 BRR  HZ EP   1    015 37.87                             153    0.14 9 72.4 299 
 BRR  HN ES   1    015 55.48                             153    0.64 9 72.4 299 
 BRR  HN I         015 56.82        36.0 0.17                          72.4 299 
 BRR  HZ I         015 57.64        12.5 0.06                          72.4 299 
 PAM  SZ EP   1    015 38.85                             152    0.10 9 78.0  39 
 PAM  SZ I         015 39.13        11.1 0.21                          78.0  39 
 PAM  SN ES   1    015 56.45                             152   -0.22 9 78.0  39 
 PAM  SN I         015 57.54        14.5 0.38                          78.0  39 
 RUS  HZ EP   1    015 40.22                             145    0.11 9 99.2 176 
 RUS  HE ES   1    015 58.83                             145   -0.25 9 99.2 176 
 RUS  HE I         015 59.91         5.6 0.16                          99.2 176 
 RUS  HZ I         016  1.52         3.0 0.56                          99.2 176 
 ZAR  HE ES   1    016 13.92                             124   -0.61 8  205 292 
 ZAR  HN I         016 20.40        12.8 0.17                           205 292 
 CHI  HZ EP        015 54.10                             119    0.3510  248 195 
 CHI  HN ES   1    016 23.18                             119   -0.18 7  248 195 
                                                                                
