 2016  3 6 0550  9.7 L   6.847 -73.083156.0  RSN  5 0.5 1.4LRSN                1
 GAP=190        1.17       5.3     8.4 10.8 -0.3942E+01  0.8262E+01  0.1183E+01E
 Epicentro: LOS SANTOS - SANTANDER                                             3
 ACTION:UPD 16-05-13 21:21 OP:cam  STATUS:               ID:20160306055009 L   I
 OLDACT:REG 16-03-06 13:11 OP:ar   STATUS:               ID:20160306054749     3
 2016-03-06-0547-49M.COL___324                                                 6
 STAT SP IPHASW D HRMM SECON CODA AMPLIT PERI AZIMU VELO AIN AR TRES W  DIS CAZ7
 BAR2 EZ EP        550 31.21                             169    0.4910 30.2 201 
 BAR2 EZ ES        550 47.45                             169    0.3410 30.2 201 
 BAR2 EZ I         550 54.25         2.7 0.36            169           30.2 201 
 RUS  HZ EP        550 34.24                             144   -0.5810  106 180 
 RUS  HN ES        550 53.94                             144   -0.4710  106 180 
 RUS  HZ I         550 56.48         1.5 0.42            150            106 180 
 OCA  HE ES        551  0.82                             133   -0.07 9  156 350 
 OCA  HZ I         551  6.63         5.3 0.54            136            156 350 
 PTB  HN ES        550 59.90                             133   -0.57 9  156 257 
 PTB  HZ I         551  6.33         3.6 0.32            135            156 257 
 SPBC HZ EP        550 40.12                             130    0.33 9  172 220 
 SPBC HN ES        551  3.86                             130    0.60 9  172 220 
 SPBC HZ I         551  9.61         3.5 0.12            134            172 220 
                                                                                
