 2015  3 6 0208 32.8 L   6.778 -73.142145.7  RSN  9 0.3 1.5LRSN                1
 GAP= 98        0.76       3.1     3.0  5.3  0.1371E+00  0.7173E-01  0.2102E+01E
 Epicentro: LOS SANTOS - SANTANDER                                             3
 ACTION:UPD 15-04-30 16:23 OP:nd   STATUS:               ID:20150306020832 L   I
 OLDACT:REG 15-03-06 12:18 OP:spq  STATUS:               ID:20150306015744     3
 2015-03-06-0157-44M.COL___281                                                 6
 STAT SP IPHASW D HRMM SECON CODA AMPLIT PERI AZIMU VELO AIN AR TRES W  DIS CAZ7
 BAR2 EZ EP        2 8 52.20                             171   -0.1610 21.0 192 
 BAR2 EZ ES   1    2 9  7.24                             171   -0.39 7 21.0 192 
 BAR2 EZ I         2 9  8.84        11.5 0.18            172           21.0 192 
 BRR  HZ EP     C  2 8 53.86                             152   -0.1510 72.8 300 
 BRR  HN ES        2 9 11.25                             152    0.6810 72.8 300 
 BRR  HZ I         2 9 13.59         7.1 0.28            151           72.8 300 
 PAM  SZ EP        2 8 55.13                             150    0.0410 79.0  38 
 PAM  SN ES   1    2 9 12.04                             150   -0.45 7 79.0  38 
 PAM  SZ I         2 9 14.37         3.3 0.40            152           79.0  38 
 RUS  HZ EP        2 8 56.19                             145   -0.1610 98.1 176 
 RUS  HE ES        2 9 14.99                             145    0.2610 98.1 176 
 RUS  HZ I         2 9 15.71         4.2 0.26            146           98.1 176 
 TAM  HZ EP        2 9  0.43                             131    0.08 9  154 104 
 TAM  HE ES   1    2 9 22.18                             131    0.32 7  154 104 
 TAM  HZ I         2 9 22.70         2.0 0.42            134            154 104 
 SPBC HZ EP        2 9  1.01                             129   -0.11 9  162 220 
 SPBC HN ES        2 9 22.96                             129   -0.27 9  162 220 
 SPBC HZ I         2 9 26.90         6.2 0.17            130            162 220 
 ZAR  HN ES        2 9 30.50                             122   -0.27 8  205 293 
 ZAR  HZ I         2 9 35.80         4.6 0.22            123            205 293 
 CHI  HN ES   1    2 9 39.55                             117    0.11 6  246 195 
 CHI  HZ I         2 9 40.65         1.3 0.42            119            246 195 
 GUY2CHZ EP   1    2 9 17.00                             112    0.74 5  300 235 
 GUY2CHE ES   4    2 9 53.37                             112    3.18 0  300 235 
 GUY2CHZ I         2 9 56.42         1.5 0.24                           300 235 
                                                                                
