 2013 10 6 0434 57.7 L   6.781 -73.136148.0  RSN  6 0.4 1.7LRSN                1
 GAP=201        1.01       4.4     6.1  7.3 -0.5399E+01  0.2311E+01 -0.1726E+01E
 Epicentro: LOS SANTOS - SANTANDER                                             3
 ACTION:UPD 13-11-25 09:19 OP:ep   STATUS:               ID:20131006043457 L   I
 OLDACT:REG 13-10-06 07:19 OP:nd   STATUS:               ID:20131006042959     3
 2013-10-06-0429-59M.COL___273                                                 6
 STAT SP IPHASW D HRMM SECON CODA AMPLIT PERI AZIMU VELO AIN AR TRES W  DIS CAZ7
 BAR2 SZ EP        435 17.71                             171    0.1410 21.5 194 
 BAR2 SZ ES        435 32.81                             171   -0.2610 21.5 194 
 BAR2 SZ I         435 34.17        20.0 0.28            171           21.5 194 
 BRR  HZ IP     C  435 19.51                             152    0.3010 73.2 300 
 BRR  HN ES        435 36.60                             152    0.6110 73.2 300 
 BRR  HZ I         435 41.69         5.5 0.12            149           73.2 300 
 PTB  HZ EP        435 24.75                             132   -0.17 9  148 260 
 PTB  HN ES        435 45.26                             132   -0.89 9  148 260 
 PTB  HZ I         435 49.47         4.5 0.12            132            148 260 
 SPBC HZ EP        435 26.64                             130    0.35 9  162 220 
 SPBC HN ES        435 48.68                             130    0.10 9  162 220 
 SPBC HZ I         435 50.05         6.4 0.20            131            162 220 
 OCA  HZ EP        435 25.91                             130   -0.50 9  163 353 
 OCA  HN ES        435 48.66                             130   -0.13 9  163 353 
 OCA  HZ I         435 51.98         6.7 0.16            130            163 353 
 ZAR  HZ EP   2    435 30.81                             123    0.32 4  206 293 
 ZAR  HN ES        435 56.38                             123    0.32 8  206 293 
 ZAR  HZ I         436  2.70         4.3 0.26            123            206 293 
                                                                                
