 2010  1 6 0119 46.9 L   6.814 -73.144142.0  RSN 11 0.3 1.9LRSN                1
 GAP=183        0.60       3.0     6.8  5.9 -0.2038E+01  0.2354E+02  0.2206E+01E
 Epicentro: LOS SANTOS - SANTANDER                                             3
 ACTION:UP  10-08-24 09:42 OP:vdl  STATUS:               ID:20100106011946 L   I
 2010-01-06-0119-10S.COL___097                                                 6
 STAT SP IPHASW D HRMM SECON CODA AMPLIT PERI AZIMU VELO SNR AR TRES W  DIS CAZ7
 BAR2 SZ EP        120  6.13                             170     0.010   25 190 
 BAR2 SZ ES   2    120 20.81                             170    -0.3 5   25 190 
 GIR2 SZ EP        120  6.44                             168     0.410   30 349 
 GIR2 SZ ES   2    120 21.01                             168     0.0 5   30 349 
 RUS  BZ IP        120 10.17                             143    -0.210  102 176 
 RUS  BN ES   2    120 29.21                             143     0.5 5  102 176 
 RUS  BZ I         120 30.67         9.9 0.43                           102 176 
 OCA  SZ EP        120 14.68                             129    -0.1 9  159 353 
 OCA  SZ ES   2    120 36.25                             129    -0.3 5  159 353 
 NOR  SZ EP        120 22.30                             118    -0.2 8  236 234 
 NOR  SZ ES   3    120 49.59                             118    -0.7 2  236 234 
 NOR  SZ I         120 54.82         3.1 0.14                           236 234 
 CHI  HZ EP        120 24.14                             116    -0.4 8  250 195 
 CHI  HZ I         120 26.98         3.8 0.37                           250 195 
 CHI  HE ES   2    120 53.94                             116     0.0 4  250 195 
 HEL  HZ EP   3    120 27.54                             114     0.6 2  273 255 
 HEL  HN ES   3    120 57.95                             114    -0.3 2  273 255 
 HEL  HZ I         121  4.91         8.6 0.41                           273 255 
 RREF BN ES   3    121  9.96                             110     1.0 2  323 229 
 RREF BZ I         121 15.28         6.2 0.27                           323 229 
 DBB  SZ EP        120 34.17                             109    -0.1 7  340 274 
 TOL  SZ EP        120 35.56                             109     0.4 7  345 224 
 PRA  HZ EP        120 40.94                             106     0.5 6  393 209 
 PRA  HN ES   3    121 22.45                             106     0.2 1  393 209 
 PRA  HZ I         121 27.55         3.5 0.29                           393 209 
                                                                                
