 2011  8 6 0743 58.2 L   6.731 -73.132150.1  RSN  4 0.2 1.6LRSN                1
 GAP=234        0.45       6.5     9.7  5.2  0.4670E+02 -0.9766E+01 -0.2269E+01E
 Epicentro: JORDAN - SANTANDER                                                 3
 ACTION:UPD 12-07-25 14:06 OP:epov STATUS:               ID:20110806074358 L   I
 2011-08-06-0740-00M.COL___145                                                 6
 STAT SP IPHASW D HRMM SECON CODA AMPLIT PERI AZIMU VELO AIN AR TRES W  DIS CAZ7
 BAR2 SZ EP        744 18.02                             173   -0.1610 16.3 200 
 BAR2 SZ ES   1    744 33.69                             173   -0.11 7 16.3 200 
 BAR2 SZ I         744 34.30        11.3 0.38                          16.3 200 
 BRR  HZ EP        744 19.94                             151   -0.1210 76.4 303 
 BRR  HZ I         744 20.14        20.6 0.14                          76.4 303 
 BRR  HE ES   1    744 37.37                             151    0.22 7 76.4 303 
 RUS  HZ EP        744 22.05                             146    0.2510 92.9 177 
 RUS  HE ES   2    744 40.12                             146   -0.12 5 92.9 177 
 RUS  HZ I         744 42.90         2.3 0.30                          92.9 177 
 NOR  SE ES   3    745  1.44                             119   -0.17 2  232 236 
                                                                                
