 2017  1 6 0417 57.4 L   7.276 -73.492 20.9  RSN  4 0.5 0.8LRSN                1
 GAP=283        1.29      10.9     5.5  4.5  0.3640E+02 -0.2345E+01 -0.1642E+01E
 Epicentro: SABANA DE TORRES - SANTANDER                                       3
 ACTION:UPD 17-05-22 15:56 OP:jn   STATUS:               ID:20170106041757 L   I
 OLDACT:UP  17-01-06 14:39 OP:and  STATUS:               ID:20170106040743d    3
 OLDACT:DUP 17-01-06 14:36 OP:and  STATUS:               ID:20170106040743d    3
 2017-01-06-0408-00M.COL___375                                                 6
 STAT SP IPHASW D HRMM SECON CODA AMPLIT PERI AZIMU VELO AIN AR TRES W  DIS CAZ7
 BRR  HZ IP     C  418  3.15                             122   -0.1810 30.6 232 
 BRR  HN ES        418  8.62                             122    0.6410 30.6 232 
 BAR2 EZ EP        418 10.79                             102   -0.2610 83.0 156 
 BAR2 EZ ES        418 21.14                             102   -0.5910 83.0 156 
 BAR2 EZ I         418 22.68         2.0 0.17            101           83.0 156 
 PTB  HZ EP        418 17.79                              56   -0.1510  134 233 
 PTB  HE ES        418 33.37                              56   -0.6210  134 233 
 RUS  HZ EP        418 22.28                              56    0.59 9  160 163 
 RUS  HN ES        418 41.39                              56    0.71 9  160 163 
 RUS  HZ I         418 42.57         1.5 0.20             56            160 163 
                                                                                
