 2013  6 6 0217 44.0 L   6.750 -73.135147.9  RSN  6 0.4 2.2LRSN                1
 GAP=140        0.81       3.6     4.9  7.4 -0.1914E+01  0.7703E+01 -0.6551E+01E
 Epicentro: LOS SANTOS - SANTANDER                                             3
 ACTION:UPD 14-01-08 09:52 OP:ep   STATUS:               ID:20130606021744 L   I
 OLDACT:REG 13-06-06 09:30 OP:mh   STATUS:               ID:20130606021000     3
 2013-06-06-0210-00M.COL___257                                                 6
 STAT SP IPHASW D HRMM SECON CODA AMPLIT PERI AZIMU VELO AIN AR TRES W  DIS CAZ7
 BRR  HZ EP        218  5.90                             151    0.3410 74.9 302 
 BRR  HN ES        218 22.64                             151    0.2410 74.9 302 
 BRR  HN I         218 23.05        41.0 0.30            150           74.9 302 
 PAM  SZ IP     D  218  7.12                             150    0.5010 81.0  36 
 PAM  SN ES        218 24.07                             150   -0.2310 81.0  36 
 PAM  SN I         218 24.97        25.1 0.42            150           81.0  36 
 RUS  HE ES        218 25.69                             146   -0.2410 95.0 177 
 PTB  HZ EP   1    218 11.03                             132   -0.09 7  148 261 
 PTB  HN ES   1    218 32.08                             132   -0.23 7  148 261 
 PTB  HN I         218 34.52        11.9 0.24            131            148 261 
 OCA  HE ES        218 35.32                             129   -0.27 9  166 353 
 SML  HZ EP   1    218 20.44                             117   -0.86 6  249 336 
 SML  HN ES   1    218 50.63                             117    0.21 6  249 336 
 SML  HN I         218 53.90        17.4 0.10            117            249 336 
                                                                                
