 2013  5 6 0439 18.4 L   6.805 -73.103148.8  RSN 13 0.5 2.5LRSN                1
 GAP=142        0.94       3.3     5.7  5.7 -0.4119E+01  0.1224E+02 -0.1440E-01E
 Epicentro: LOS SANTOS - SANTANDER                                             3
 ACTION:UPD 13-06-20 09:48 OP:ep   STATUS:               ID:20130506043918 L   I
 2013-05-06-0437-50M.COL___212                                                 6
 STAT SP IPHASW D HRMM SECON CODA AMPLIT PERI AZIMU VELO AIN AR TRES W  DIS CAZ7
 BAR2 SZ IP     D  439 38.47                             170    0.0810 25.0 200 
 BAR2 SZ ES   1    439 53.65                             170   -0.37 7 25.0 200 
 BAR2 SZ I         439 54.58        80.5 0.24            165           25.0 200 
 GIR2 SZ IP     C  439 38.50                             167    0.0910 31.9 342 
 GIR2 SZ ES   1    439 53.92                             167   -0.14 7 31.9 342 
 GIR2 SZ I         440  1.15        24.9 0.30            163           31.9 342 
 PAM  SZ IP     C  439 41.20                             152    0.4910 74.1  37 
 PAM  SN ES   1    439 58.50                             152    0.35 7 74.1  37 
 PAM  SZ I         440  1.19        20.4 0.34            159           74.1  37 
 BRR  HZ IP     C  439 40.33                             152    0.2710 75.1 296 
 BRR  HN ES   1    439 57.77                             152    0.78 7 75.1 296 
 BRR  HZ I         440  2.59        39.7 0.18            147           75.1 296 
 RUS  HZ IP     D  439 42.40                             144   -0.0310  101 179 
 RUS  HN ES   1    440  0.79                             144   -0.42 7  101 179 
 RUS  HZ I         440  2.33        32.9 0.32            147            101 179 
 PTB  HZ EP   4    439 45.01                             132   -0.99 0  152 259 
 PTB  HE ES   4    440  6.93                             132   -0.63 0  152 259 
 PTB  HZ I         440 13.70        45.8 0.58            131            152 259 
 OCA  HZ EP        439 46.53                             130   -0.39 9  160 351 
 OCA  HE ES   1    440  8.53                             130   -0.67 7  160 351 
 OCA  HZ I         440 14.11        46.6 0.44            133            160 351 
 NOR  HZ EP        439 54.33                             119   -0.37 8  239 235 
 NOR  HN ES   1    440 22.35                             119   -0.70 6  239 235 
 NOR  HZ I         440 30.71        27.7 0.16            120            239 235 
 SML  HZ EP        439 54.81                             118   -0.51 8  245 334 
 SML  HN ES   1    440 23.41                             118   -0.74 6  245 334 
 SML  HZ I         440 28.12        49.4 0.24            120            245 334 
 ROSC BZ EP   2    439 56.96                             117    0.00 4  256 212 
 ROSC BN ES   1    440 27.17                             117    0.11 6  256 212 
 ROSC BZ I         440 36.41        25.1 0.35            119            256 212 
 HEL  HZ EP   2    439 59.87                             115    0.63 4  277 256 
 HEL  HN ES   2    440 31.71                             115    0.58 4  277 256 
 HEL  HZ I         440 37.68        16.2 0.32            116            277 256 
 URE  HZ EP        440  1.13                             114    1.09 7  288 291 
 URE  HN ES   4    440 29.84                             114   -2.71 0  288 291 
 URE  HZ I         440 36.69        18.3 0.18            115            288 291 
 PRA  HZ EP        440 12.00                             107   -0.31 6  395 210 
 PRA  HN ES   1    440 54.50                             107    0.11 4  395 210 
 PRA  HZ I         441  2.86         8.6 0.52            109            395 210 
 SJC  HZ EP   4    440 12.00                             106   -2.27 0  411 326 
 SJC  HN ES   4    440 53.96                             106   -3.93 0  411 326 
                                                                                
