 2014  9 6 0814 42.3 L   6.678 -73.224145.7  RSN  8 0.4 1.5LRSN                1
 GAP=203        1.11       5.8     6.4  8.1  0.1419E+02  0.7295E+01 -0.2131E+01E
 Epicentro: BARICHARA - SANTANDER                                              3
 ACTION:UPD 14-10-03 23:02 OP:nd   STATUS:               ID:20140906081442 L   I
 OLDACT:REG 14-09-06 12:58 OP:fm   STATUS:               ID:20140906080806     3
 2014-09-06-0808-06M.COL___266                                                 6
 STAT SP IPHASW D HRMM SECON CODA AMPLIT PERI AZIMU VELO AIN AR TRES W  DIS CAZ7
 BAR2 SZ EP        815  1.36                             176   -0.3610 10.5 154 
 BAR2 SZ ES   1    815 16.61                             176   -0.27 7 10.5 154 
 BAR2 SZ I         815 21.81         4.7 0.38            170           10.5 154 
 BRR  HZ EP        815  3.41                             152   -0.0610 71.9 311 
 BRR  HN ES        815 20.34                             152    0.3510 71.9 311 
 BRR  HZ I         815 24.50         6.6 0.12            150           71.9 311 
 RUS  HZ EP        815  4.62                             147   -0.5610 88.2 170 
 RUS  HN ES        815 23.57                             147    0.5310 88.2 170 
 RUS  HZ I         815 24.85         3.0 0.28            148           88.2 170 
 PTB  HZ EP        815  8.54                             134    0.23 9  137 264 
 PTB  HN ES        815 28.38                             134   -0.22 9  137 264 
 PTB  HZ I         815 34.42         6.9 0.12            132            137 264 
 SPBC HZ EP        815 10.25                             132    0.94 9  147 220 
 SPBC HN ES        815 29.82                             132   -0.56 9  147 220 
 SPBC HZ I         815 34.75         5.4 0.20            131            147 220 
 OCA  HN ES   4    815 30.83                             127   -4.00 0  173 357 
 ZAR  HZ EP        815 14.39                             123   -0.11 9  202 297 
 ZAR  HN ES        815 39.59                             123   -0.02 9  202 297 
 ZAR  HZ I         815 48.33         4.9 0.46            123            202 297 
 GUY2CHZ EP   4    815 25.70                             113    1.47 0  286 236 
 GUY2CHN ES   4    816  2.05                             113    5.10 0  286 236 
 GUY2CHZ I         816  8.78         2.5 0.72                           286 236 
 PRA  HZ EP   4    815 35.73                             107    1.79 0  376 209 
 PRA  HN ES   4    816 16.35                             107    2.13 0  376 209 
 PRA  HZ I         816 27.25         1.0 0.32            109            376 209 
                                                                                
