 2017  3 6 0058 57.8 L   6.821 -73.052150.0  RSN  4 0.4 1.1LRSN                1
 GAP=248        0.58       9.6    11.0  6.4  0.7925E+02 -0.5352E+01  0.4753E+00E
 Epicentro: LOS SANTOS - SANTANDER                                             3
 ACTION:UPD 17-05-25 18:36 OP:jn   STATUS:               ID:20170306005857 L   I
 OLDACT:UP  17-03-06 12:51 OP:and  STATUS:               ID:20170306005741     3
 OLDACT:UP  17-03-06 12:50 OP:and  STATUS:               ID:20170306005741     3
 OLDACT:REG 17-03-06 12:06 OP:and  STATUS:               ID:20170306005741     3
 2017-03-06-0058-00M.COL___387                                                 3
 2017-03-06-0058-00M.COL___393                                                 6
 STAT SP IPHASW D HRMM SECON CODA AMPLIT PERI AZIMU VELO AIN AR TRES W  DIS CAZ7
 BAR2 EZ EP        059 18.32                             170    0.2510 29.1 210 
 BAR2 EZ ES        059 33.76                             170   -0.1110 29.1 210 
 BRR  HZ EP   2    059 19.56                             151   -0.33 5 79.5 294 
 BRR  HN ES        059 37.13                             151    0.0210 79.5 294 
 RUS  HZ EP   2    059 22.56                             145    0.44 5  103 182 
 RUS  HN ES   2    059 40.67                             145   -0.42 5  103 182 
 RUS  HZ I         059 42.07         1.9 0.38            143            103 182 
 PTB  HZ EP   2    059 25.44                             131   -0.64 5  158 259 
 PTB  HE ES   3    059 49.10                             131    0.96 2  158 259 
                                                                                
