 2012  8 6 0059 38.4 L   6.726 -73.175147.7  RSN  6 0.2 1.7LRSN                1
 GAP=136        0.48       3.6     3.8  5.2  0.2790E+01 -0.2203E+01  0.4369E+00E
 Epicentro: VILLANUEVA - SANTANDER                                             3
 ACTION:UPD 12-09-10 11:54 OP:ep   STATUS:               ID:20120806005938 L   I
 2012-08-06-0054-38M.COL___211                                                 6
 STAT SP IPHASW D HRMM SECON CODA AMPLIT PERI AZIMU VELO AIN AR TRES W  DIS CAZ7
 BAR2 SZ EP   1    059 57.97                             174   -0.17 7 14.8 183 
 BRR  HZ EP        059 59.90                             152    0.0410 72.8 305 
 BRR  HZ I         1 0  0.37        17.8 0.13                          72.8 305 
 BRR  HE ES   1    1 0 16.84                             152    0.25 7 72.8 305 
 PAM  SZ EP   1    1 0  1.35                             148    0.00 7 85.8  38 
 RUS  HZ EP   1    1 0  1.65                             146   -0.16 7 92.7 174 
 RUS  HN ES   1    1 0 20.03                             146   -0.03 7 92.7 174 
 RUS  HZ I         1 0 22.16         8.3 0.35                          92.7 174 
 PTB  HZ EP        1 0  4.97                             133   -0.16 9  143 262 
 PTB  HN ES   1    1 0 25.84                             133   -0.13 7  143 262 
 PTB  HZ I         1 0 31.61         4.8 0.34                           143 262 
 CHI  HZ EP   1    1 0 15.87                             118    0.59 6  240 195 
 CHI  HZ I         1 0 17.24         3.1 0.26                           240 195 
                                                                                
