 2015  7 6 0240 44.0 L   6.863 -73.175136.9  RSN 10 0.5 1.6LRSN                1
 GAP=130        1.02       3.0     4.5  6.8 -0.1118E+01  0.1794E+02 -0.1706E+01E
 Epicentro: ZAPATOCA - SANTANDER                                               3
 ACTION:UPD 15-09-08 21:47 OP:cam  STATUS:               ID:20150706024044 L   I
 OLDACT:UP  15-07-06 19:48 OP:ak   STATUS:               ID:20150706023740     3
 OLDACT:REG 15-07-06 14:12 OP:spq  STATUS:               ID:20150706023740     3
 2015-07-06-0237-40M.COL___331                                                 6
 STAT SP IPHASW D HRMM SECON CODA AMPLIT PERI AZIMU VELO AIN AR TRES W  DIS CAZ7
 BAR2 EZ EP        241  2.97                             167    0.2510 30.0 181 
 BAR2 EZ ES        241 17.10                             167   -0.2310 30.0 181 
 BAR2 EZ I         241 19.02        10.6 0.39            169           30.0 181 
 PAM  EZ EP        241  5.32                             150    0.2310 74.4  45 
 PAM  EN ES        241 22.01                             150    0.4610 74.4  45 
 PAM  EZ I         241 25.16         7.4 0.58            154           74.4  45 
 RUS  HZ EP        241  7.03                             140   -0.4110  108 175 
 RUS  HN ES        241 25.15                             140   -0.5810  108 175 
 RUS  HZ I         241 27.17         4.3 0.54            144            108 175 
 OCA  HZ EP        241 11.55                             129    0.62 9  153 354 
 OCA  HN ES        241 31.32                             129   -0.62 9  153 354 
 OCA  HZ I         241 36.79         6.1 0.21            130            153 354 
 ZAR  HZ EP        241 15.81                             121    0.52 9  198 291 
 ZAR  HN ES        241 40.01                             121    0.31 9  198 291 
 HEL  HZ EP        241 23.81                             113    0.20 8  271 254 
 HEL  HN ES        241 54.86                             113    0.34 8  271 254 
 HEL  HZ I         242  3.67         1.9 0.54            114            271 254 
 GUY2CHZ EP        241 27.63                             110    0.26 7  303 233 
 GUY2CHN ES        242  1.17                             110   -0.03 7  303 233 
 GUY2CHZ I         242 11.56         2.1 0.68                           303 233 
 MON  HZ EP   4    241 30.06                             107   -1.80 0  347 308 
 MON  HN ES        242  8.55                             107   -0.65 6  347 308 
 MON  HZ I         242 22.55         4.3 0.92            109            347 308 
 PRA  HZ EP   1    241 37.13                             105   -0.62 4  396 209 
 PRA  HE ES        242 20.00                             105    0.32 6  396 209 
 PRA  HZ I         242 22.18         1.4 0.22            107            396 209 
 SJC  HZ EP        241 37.45                             105   -0.92 6  402 327 
 SJC  HN ES        242 20.15                             105   -0.64 6  402 327 
                                                                                
