 2011  5 6 0105 16.5 L   6.770 -73.092143.8  RSN 10 0.3 2.3LRSN                1
 GAP=145        0.70       3.5     5.2  5.0 -0.9340E+01  0.6348E+01 -0.4736E+00E
 Epicentro: LOS SANTOS - SANTANDER                                             3
 ACTION:UP  11-06-29 08:51 OP:tino STATUS:               ID:20110506010516 L   I
 2011-05-06-0103-27S.COL___132                                                 6
 STAT SP IPHASW D HRMM SECON CODA AMPLIT PERI AZIMU VELO SNR AR TRES W  DIS CAZ7
 BAR2 SZ EP        1 5 35.75                             171    -0.110   22 207 
 BAR2 SZ ES   1    1 5 50.63                             171    -0.3 7   22 207 
 BAR2 SZ I         1 5 51.82        79.9 0.22                            22 207 
 PAM  SZ EP   1    1 5 38.76                             151     0.3 7   77  35 
 PAM  SN ES   1    1 5 55.60                             151     0.0 7   77  35 
 PAM  SZ I         1 5 57.49        15.5 0.16                            77  35 
 BRR  HZ EP   1    1 5 37.67                             150    -0.2 7   78 299 
 BRR  HN ES   1    1 5 54.80                             150     0.3 7   78 299 
 BRR  HZ I         1 5 58.11        70.0 0.13                            78 299 
 RUS  HZ EP   1    1 5 39.64                             144    -0.1 7   97 179 
 RUS  HN ES   1    1 5 58.24                             144     0.3 7   97 179 
 RUS  HZ I         1 5 59.18        23.9 0.25                            97 179 
 BRI  SZ EP   1    1 5 40.41                             141     0.1 7  110  17 
 BRI  SZ ES   1    1 5 59.16                             141     0.3 7  110  17 
 GRA  SZ EP        1 5 41.68                             136     0.010  127  14 
 GRA  SZ I         1 5 43.02        26.7 0.15                           127  14 
 GRA  SZ ES   1    1 6  0.93                             136    -0.4 7  127  14 
 OCA  SZ EP   1    1 5 44.62                             128    -0.4 7  164 351 
 NOR  SZ EP   1    1 5 52.12                             118    -0.3 6  238 236 
 NOR  SN ES   1    1 6 20.07                             118    -0.4 6  238 236 
 HEL  HZ EP   1    1 5 58.05                             114     0.9 6  277 257 
 PRA  HZ EP   1    1 6 10.08                             106     0.1 4  392 211 
                                                                                
