 2014  7 6 0726 29.2 L   6.577 -73.552113.1  RSN 15 0.5 2.0LRSN                1
 GAP= 61        1.26       4.0     4.5  7.2 -0.1826E+01  0.8199E+01  0.2894E+01E
 Epicentro: EL CARMEN - SANTANDER                                              3
 ACTION:UPD 15-03-16 20:41 OP:nd   STATUS:               ID:20140706072629 L   I
 OLDACT:UP  14-07-06 15:54 OP:cam  STATUS:               ID:20140706072000     3
 OLDACT:UP  14-07-06 15:53 OP:cam  STATUS:               ID:20140706072000     3
 OLDACT:REG 14-07-06 13:12 OP:cma  STATUS:               ID:20140706072000     3
 2014-07-06-0720-00M.COL___279                                                 6
 STAT SP IPHASW D HRMM SECON CODA AMPLIT PERI AZIMU VELO AIN AR TRES W  DIS CAZ7
 BAR2 SZ IP     C  726 45.74                             159    0.2510 40.9  88 
 BAR2 SZ ES        726 58.26                             159    0.0210 40.9  88 
 BAR2 SZ I         726 59.36        71.4 0.52            165           40.9  88 
 BRR  HZ EP        726 46.42                             149    0.1910 61.2 343 
 BRR  HE ES        727  0.50                             149    0.9510 61.2 343 
 BRR  HZ I         727  7.29        16.6 0.20            147           61.2 343 
 RUS  HZ EP        726 49.10                             138   -0.0310 91.8 146 
 RUS  HN ES        727  4.37                             138   -0.3410 91.8 146 
 RUS  HZ I         727  5.72        12.7 0.36            142           91.8 146 
 PTB  HZ IP     C  726 48.61                             135   -0.5510  100 268 
 PTB  HN ES        727  3.76                             135   -1.0110  100 268 
 PTB  HZ I         727  6.78        18.4 0.42            133            100 268 
 SPBC HZ EP        726 50.83                             130    0.0210  117 209 
 SPBC HN ES        727  7.89                             130    0.1910  117 209 
 SPBC HZ I         727 13.65        19.8 0.28            130            117 209 
 PAM  SZ EP   1    726 50.99                             128   -1.21 7  126  48 
 PAM  SN ES        727 10.15                             128   -0.0310  126  48 
 PAM  SZ I         727 11.37        12.3 0.46            131            126  48 
 ZAR  HZ EP   4    726 58.14                             118    1.48 0  176 305 
 ZAR  HN ES   4    727 20.04                             118    1.93 0  176 305 
 ZAR  HZ I         727 22.79        18.4 0.24            117            176 305 
 CHI  HZ EP        727  1.75                             113    0.16 8  216 185 
 CHI  HE ES   1    727 27.66                             113    0.77 6  216 185 
 CHI  HZ I         727 34.36         4.4 0.48            113            216 185 
 HEL  HZ EP   1    727  3.16                             112    0.89 6  223 259 
 HEL  HE ES   4    727 26.92                             112   -1.18 0  223 259 
 HEL  HZ I         727 36.04         6.3 0.30            111            223 259 
 GUY2CHZ EP   4    727  7.05                             109    1.51 0  250 233 
 GUY2CHN ES   4    727 36.38                             109    2.45 0  250 233 
 GUY2CHZ I         727 40.61         4.1 0.32                           250 233 
 SML  HZ EP   1    727  5.64                             109    0.45 6  253 347 
 SML  HE ES   4    727 35.23                             109    1.92 0  253 347 
 SML  HZ I         727 45.02        13.3 0.10            109            253 347 
 URE  HZ EP        727  5.55                             109    0.12 8  254 301 
 URE  HN ES   4    727 33.25                             109   -0.49 0  254 301 
 URE  HZ I         727 36.18        10.2 0.16            108            254 301 
 CBOC HZ EP   4    727 10.47                             106    1.46 0  283 254 
 PTGC HZ EP   4    727  9.81                             105   -1.68 0  306 149 
 PTGC HN ES   4    727 42.11                             105   -2.40 0  306 149 
 PTGC HZ I         727 45.45         7.8 0.40            106            306 149 
 PRA  HZ EP   1    727 16.61                             102   -0.04 5  349 205 
 PRA  HN ES   4    727 55.63                             102    1.93 0  349 205 
 PRA  HZ I         728  0.66         2.9 0.16            102            349 205 
 SJC  HZ EP   4    727 22.39                              99   -1.37 0  409 334 
 SJC  HN ES   4    728  4.37                              99   -1.98 0  409 334 
 SJC  HZ I         728  7.11         1.9 0.42            100            409 334 
                                                                                
