 2010 10 6 0531 26.0 L   6.777 -73.058147.1  RSN 11 0.4 2.2LRSN                1
 GAP=185        0.80       4.1     6.6  6.2 -0.1497E+02 -0.5735E+01  0.8766E+01E
 Epicentro: LOS SANTOS - SANTANDER                                             3
 ACTION:UP  11-02-18 11:08 OP:tino STATUS:               ID:20101006053126 L   I
 2010-10-06-0529-03S.COL___122                                                 6
 STAT SP IPHASW D HRMM SECON CODA AMPLIT PERI AZIMU VELO SNR AR TRES W  DIS CAZ7
 BAR2 SZ IP        531 45.74                             170    -0.110   25 214 
 BAR2 SZ ES   1    532  1.10                             170    -0.2 7   25 214 
 BAR2 SZ I         532  2.00        39.2 0.38                            25 214 
 BRR  HZ IP     C  531 47.63                             149    -0.210   81 297 
 BRR  HZ I         531 47.90        94.1 0.15                            81 297 
 BRR  HN ES        532  5.21                             149     0.310   81 297 
 GUE  SZ EP   1    531 51.69                             139     0.8 7  117   7 
 GUE  SZ I         531 53.17         7.8 0.06                           117   7 
 GRA  SZ IP        531 51.49                             137     0.210  126  13 
 GRA  SZ ES   1    532 10.67                             137    -0.4 7  126  13 
 GRA  SZ I         532 12.22        22.5 0.20                           126  13 
 OCA  SZ EP   1    531 54.22                             129    -0.5 7  164 350 
 OCA  SZ ES   1    532 17.17                             129     0.0 7  164 350 
 OCA  SZ I         532 22.08        22.7 0.38                           164 350 
 CHI  HZ EP   2    532  3.38                             117    -0.4 4  249 197 
 CHI  HZ I         532  6.44         6.8 0.42                           249 197 
 CHI  HN ES   2    532 33.01                             117    -0.3 4  249 197 
 ROSC BZ EP   2    532  4.92                             117     0.4 4  256 213 
 ROSC BZ I         532 43.48         8.8 0.47                           256 213 
 HEL  HZ EP   2    532  6.60                             114    -0.6 4  281 257 
 HEL  HE ES   2    532 38.74                             114    -0.7 4  281 257 
 HEL  HZ I         532 44.08        12.8 0.35                           281 257 
 RREF HZ EP   1    532 13.33                             111     0.5 5  328 231 
 RREF HN ES   1    532 49.51                             111     0.1 5  328 231 
 RREF HZ I         532 57.36         7.5 0.39                           328 231 
 TOL  SZ EP   2    532 15.66                             109     0.8 3  349 226 
 PRA  HZ EP   1    532 19.73                             107    -0.1 4  395 211 
 PRA  HN ES   1    533  1.63                             107    -0.2 4  395 211 
                                                                                
