 2010  5 6 0152 34.3 L   6.793 -73.114145.0  RSN 15 0.5 3.4LRSN                1
 GAP=146        1.09       5.4     7.1  6.4 -0.2643E+02  0.4292E+00  0.8338E+01E
 Epicentro: LOS SANTOS - SANTANDER                                             3
 ACTION:UP  10-08-24 10:03 OP:vdl  STATUS:               ID:20100506015234 L   I
 2010-05-06-0150-01S.COL___105                                                 6
 STAT SP IPHASW D HRMM SECON CODA AMPLIT PERI AZIMU VELO SNR AR TRES W  DIS CAZ7
 BAR2 SZ IP        152 53.94                             170     0.110   24 199 
 BAR2 SZ ES   1    153  8.35                             170    -0.8 7   24 199 
 GIR2 SZ IP        152 53.91                             167    -0.110   33 344 
 GIR2 SZ ES   1    153  9.38                             167     0.1 7   33 344 
 BRR  HZ IP     C  152 56.37                             152     0.810   75 298 
 BRR  HN ES   1    153 12.70                             152     0.5 7   75 298 
 BRR  HZ I         153 16.67       411.1 0.41                            75 298 
 BRI  SZ IP        152 58.38                             142     0.310  108  19 
 BRI  SZ ES   1    153 16.83                             142     0.2 7  108  19 
 GUE  SZ EP   1    152 59.61                             140     0.6 7  117  10 
 GUE  SZ ES   1    153 18.17                             140     0.0 7  117  10 
 GRA  SZ IP        152 59.68                             137     0.210  125  16 
 GRA  SZ ES   1    153 18.33                             137    -0.8 7  125  16 
 OCA  SZ IP        153  2.28                             130    -0.4 9  161 352 
 OCA  SZ I         153 27.59       189.6 0.28                           161 352 
 CHI  HZ EP   1    153 12.22                             117     0.2 6  249 196 
 CHI  HZ I         153 46.99        95.4 0.37                           249 196 
 ROSC BN ES   1    153 41.87                             116    -0.5 6  254 212 
 ROSC BZ I         153 48.64       192.9 0.40                           254 212 
 HEL  HZ EP   1    153 14.12                             114    -0.8 6  275 256 
 HEL  HN ES   1    153 45.77                             114    -0.7 6  275 256 
 HEL  HZ I         153 53.17       129.0 0.35                           275 256 
 RREF BZ EP   1    153 20.75                             111     0.0 5  324 230 
 RREF BE ES   1    153 56.40                             111    -0.5 5  324 230 
 RREF BZ I         154  2.42       113.8 0.50                           324 230 
 DBB  SZ EP        153 21.89                             109    -0.3 7  343 274 
 SDV  BZ IP     D  153 23.45                             108    -0.6 6  358  50 
 SDV  BZ I         154  2.70        63.6 0.48                           358  50 
 ANIL BZ EP   1    153 25.16                             108     0.8 5  359 225 
 ANIL BE ES   1    154  4.04                             108     0.7 5  359 225 
 ANIL BZ I         154 10.41       262.8 0.35                           359 225 
 PRA  HZ EP   1    153 27.60                             106    -0.4 4  393 210 
 PRA  HN ES   1    154 10.36                             106     0.6 4  393 210 
 PRA  HZ I         154 16.53       133.3 0.17                           393 210 
                                                                                
