 2013  7 6 0907  9.3 L   6.746 -73.170137.3  RSN  4 0.3 1.2LRSN                1
 GAP=190        0.68       6.2     8.2  8.3 -0.2053E+02  0.2061E+02 -0.1142E+02E
 Epicentro: VILLANUEVA - SANTANDER                                             3
 ACTION:UPD 13-08-12 10:35 OP:ep   STATUS:               ID:20130706090709 L   I
 OLDACT:REG 13-07-06 08:04 OP:jn   STATUS:               ID:20130706085959     3
 2013-07-06-0859-59M.COL___266                                                 6
 STAT SP IPHASW D HRMM SECON CODA AMPLIT PERI AZIMU VELO AIN AR TRES W  DIS CAZ7
 BAR2 SZ ES   1    9 7 42.08                             173   -0.16 7 17.0 185 
 BAR2 SZ I         9 7 43.47         3.6 0.18            172           17.0 185 
 BRR  HZ EP        9 7 29.64                             151    0.0310 72.0 304 
 BRR  HN ES   1    9 7 45.97                             151    0.54 7 72.0 304 
 BRR  HZ I         9 7 49.36         4.1 0.30            149           72.0 304 
 PTB  HZ EP   1    9 7 35.53                             131    0.26 7  144 261 
 PTB  HN ES   1    9 7 55.04                             131   -0.47 7  144 261 
 PTB  HZ I         9 7 58.19         2.3 0.16            132            144 261 
 OCA  HN ES   1    9 7 59.23                             127   -0.32 7  166 354 
                                                                                
