 2011  9 6 0515 37.5 L   6.797 -73.052149.3  RSN 16 0.3 2.4LRSN                1
 GAP=189        0.43       1.8     3.1  3.4 -0.9206E+00  0.1664E+01  0.1406E+01E
 Epicentro: LOS SANTOS - SANTANDER                                             3
 ACTION:UPD 12-07-13 15:55 OP:ep   STATUS:               ID:20110906051537 L   I
 2011-09-06-0513-35S.COL___171                                                 6
 STAT SP IPHASW D HRMM SECON CODA AMPLIT PERI AZIMU VELO AIN AR TRES W  DIS CAZ7
 BAR2 SZ IP        515 57.77                             169    0.1210 26.8 213 
 BAR2 SZ ES   2    516 13.23                             169   -0.12 5 26.8 213 
 BAR2 SZ I         516 15.59        50.1 0.49                          26.8 213 
 GIR2 SZ EP   1    515 57.94                             166    0.22 7 34.9 333 
 GIR2 SZ ES   2    516 13.80                             166    0.33 5 34.9 333 
 BRR  HZ EP   1    515 59.67                             150    0.06 7 80.6 295 
 BRR  HE ES   1    516 16.88                             150    0.05 7 80.6 295 
 BRR  HZ I         516 21.52        31.7 0.32                          80.6 295 
 RUS  HZ EP   1    516  1.54                             145   -0.05 7  100 182 
 RUS  HN ES   2    516 19.94                             145   -0.42 5  100 182 
 RUS  HZ I         516 21.82        18.9 0.28                           100 182 
 OCA  SZ EP   1    516  6.48                             130    0.19 7  162 350 
 OCA  SZ ES   2    516 28.23                             130   -0.50 5  162 350 
 OCA  SZ I         516 34.68        30.9 0.51                           162 350 
 ZAR  HZ EP   1    516 10.66                             122   -0.55 6  214 291 
 ZAR  HN ES   2    516 37.33                             122   -0.16 4  214 291 
 ZAR  HZ I         516 41.20        23.4 0.49                           214 291 
 NOR  SZ EP   2    516 13.96                             118   -0.39 4  243 236 
 NOR  SN ES   2    516 43.12                             118    0.04 4  243 236 
 CHI  HZ EP   1    516 15.80                             118    0.10 6  251 197 
 CHI  HE ES   2    516 44.71                             118   -0.77 4  251 197 
 CHI  HZ I         516 50.90        12.1 0.44                           251 197 
 ROSC BZ EP   2    516 16.76                             117    0.35 4  258 213 
 ROSC BN ES   2    516 47.21                             117    0.48 4  258 213 
 ROSC BZ I         516 54.17        28.9 0.85                           258 213 
 HEL  HZ EP   2    516 18.73                             115   -0.30 4  282 256 
 HEL  HN ES   2    516 52.10                             115    0.70 4  282 256 
 HEL  HZ I         516 56.10        11.1 0.38                           282 256 
 VIL  SE ES   2    516 55.42                             113   -0.06 4  305 194 
 VIL  SZ I         517  5.98         7.9 0.54                           305 194 
 RREF HZ EP   2    516 25.32                             111    0.62 3  330 231 
 RREF HN ES   2    517  1.19                             111   -0.31 3  330 231 
 COD  HZ EP   2    516 26.09                             109   -0.12 3  350 353 
 COD  HN ES   2    517  4.20                             109    0.01 3  350 353 
 COD  HZ I         517 12.13        17.5 0.68                           350 353 
 ANIL HN ES        517  7.73                             109   -0.16 6  364 226 
 ANIL HZ I         517 14.58        28.0 0.43                           364 226 
 PRA  HZ EP   2    516 31.41                             107   -0.34 3  397 211 
 PRA  HN ES   2    517 14.29                             107    0.25 3  397 211 
 SJA  SZ EP   2    516 32.51                             107    0.06 3  402 194 
 SJA  SZ ES   2    517 15.77                             107    0.48 3  402 194 
                                                                                
