 2016 10 6 0034 24.5 L   6.715 -73.246148.0  RSN  6 0.4 1.5LRSN                1
 GAP=203        0.58       5.8     5.8  9.3  0.5736E+01  0.1319E+01  0.2014E+02E
 Epicentro: BARICHARA - SANTANDER                                              3
 ACTION:UPD 16-11-09 19:16 OP:rebc STATUS:               ID:20161006003424 L   I
 OLDACT:REG 16-10-06 13:00 OP:dnl  STATUS:               ID:20161006002742     3
 2016-10-06-0028-00M.COL___360                                                 6
 STAT SP IPHASW D HRMM SECON CODA AMPLIT PERI AZIMU VELO AIN AR TRES W  DIS CAZ7
 BAR2 EZ ES   3    034 58.42                             174   -1.23 2 15.3 153 
 BAR2 EZ I         034 59.65         7.4 0.80            172           15.3 153 
 BRR  HZ EP   2    034 45.33                             154   -0.32 5 67.3 310 
 BRR  HN ES        035  2.40                             154    0.2310 67.3 310 
 PAM  EZ EP   4    034 46.31                             147   -1.51 0 91.7  41 
 PAM  EN ES   4    035  3.70                             147   -2.33 0 91.7  41 
 PAM  EZ I         035  5.81         5.0 0.40            150           91.7  41 
 RUS  HZ EP   2    034 47.78                             147   -0.11 5 92.7 169 
 RUS  HE ES   2    035  6.06                             147   -0.10 5 92.7 169 
 RUS  HZ I         035  7.28         3.4 0.28            145           92.7 169 
 PTB  HZ EP   2    034 50.56                             135    0.04 5  135 262 
 PTB  HN ES        035 10.59                             135   -0.25 9  135 262 
 PTB  HZ I         035 14.81         4.0 0.84            133            135 262 
 SPBC HZ EP   3    034 52.35                             133    0.53 2  149 218 
 SPBC HE ES   2    035 13.92                             133    0.76 5  149 218 
 SPBC HZ I         035 16.13         4.6 0.18            130            149 218 
                                                                                
