 2015 10 6 0614 26.1 L   6.791 -73.148136.3  RSN 17 0.6 2.3LRSN                1
 GAP=137        1.27       3.0     4.4  6.3 -0.1777E+01  0.1196E+02  0.1571E+01E
 Epicentro: LOS SANTOS - SANTANDER                                             3
 ACTION:UPD 15-12-22 20:37 OP:cam  STATUS:               ID:20151006061426 L   I
 OLDACT:REG 15-10-06 14:21 OP:ak   STATUS:               ID:20151006060745     3
 2015-10-06-0607-45M.COL___316                                                 6
 STAT SP IPHASW D HRMM SECON CODA AMPLIT PERI AZIMU VELO AIN AR TRES W  DIS CAZ7
 BAR2 EZ IP     C  614 44.84                             170    0.2910 22.3 190 
 BAR2 EZ ES        614 58.85                             170   -0.1110 22.3 190 
 BAR2 EZ I         615  3.97        25.1 0.30            169           22.3 190 
 BRR  HZ IP     C  614 46.74                             151    0.5110 71.4 299 
 BRR  HE ES        615  2.73                             151    0.7910 71.4 299 
 BRR  HZ I         615  7.77        54.2 0.12            150           71.4 299 
 PAM  EZ EP        614 47.88                             149    0.5210 78.3  39 
 PAM  EN ES        615  4.23                             149    0.2810 78.3  39 
 PAM  EZ I         615  6.78        37.8 0.42            154           78.3  39 
 RUS  HZ EP        614 48.71                             142   -0.1310 99.6 176 
 RUS  HN ES        615  6.06                             142   -0.5310 99.6 176 
 RUS  HZ I         615  8.11        23.0 0.26            146           99.6 176 
 OCA  HZ EP        614 53.13                             127   -0.63 9  161 353 
 OCA  HN ES        615 14.54                             127   -0.81 9  161 353 
 OCA  HZ I         615 20.09        47.2 0.18            131            161 353 
 SPBC HZ EP        614 53.58                             127   -0.20 9  162 219 
 SPBC HN ES        615 15.05                             127   -0.33 9  162 219 
 SPBC HZ I         615 20.34        27.1 0.17            129            162 219 
 ZAR  HZ EP        614 58.60                             120    0.66 9  204 292 
 ZAR  HN ES        615 23.64                             120    0.86 9  204 292 
 ZAR  HZ I         615 28.93        33.7 0.32            122            204 292 
 NOR  HZ EP        615  1.00                             116   -0.19 8  234 235 
 NOR  HN ES        615 28.74                             116    0.16 8  234 235 
 NOR  HZ I         615 34.39        14.0 0.18            119            234 235 
 SML  HZ EP   1    615  1.28                             115   -1.00 6  244 335 
 SML  HN ES        615 29.58                             115   -0.93 8  244 335 
 SML  HZ I         615 37.15        30.1 0.07            118            244 335 
 CHI  HZ EP        615  3.11                             115   -0.05 8  248 195 
 CHI  HN ES        615 31.65                             115   -0.43 8  248 195 
 CHI  HZ I         615 39.14         7.0 0.32            118            248 195 
 HEL  HZ EP        615  6.42                             113    0.65 8  272 256 
 HEL  HN ES        615 35.96                             113   -0.77 8  272 256 
 HEL  HZ I         615 43.63        11.1 0.44            115            272 256 
 URE  HN ES        615 37.86                             112   -0.55 7  284 292 
 GUY2CHZ EP        615 10.10                             110    0.92 7  300 235 
 GUY2CHN ES        615 42.50                             110   -0.29 7  300 235 
 GUY2CHZ I         615 50.23        12.4 0.22                           300 235 
 CBOC HZ EP        615 12.54                             108   -0.02 7  333 252 
 CBOC HN ES        615 47.92                             108   -0.88 7  333 252 
 CBOC HZ I         615 52.64         3.8 0.24            111            333 252 
 DBB  SZ EP        615 13.87                             108    0.70 7  339 274 
 ANIL HZ EP   4    615 17.49                             107    2.06 0  356 225 
 ANIL HN ES        615 54.58                             107    0.65 6  356 225 
 ANIL HZ I         616  0.73        22.8 0.28            109            356 225 
 ORTC HZ EP        615 20.05                             105    0.47 6  394 216 
 ORTC HN ES        616  1.03                             105   -0.28 6  394 216 
 ORTC HZ I         616  6.73         7.4 0.42            107            394 216 
 CRJC HZ EP   4    615 25.55                             102   -2.90 0  469   4 
 CRJC HN ES   4    616 13.55                             102   -3.54 0  469   4 
                                                                                
