 2013  4 6 0845 10.8 L   6.762 -73.176146.4  RSN  5 0.4 1.2LRSN                1
 GAP=231        0.89       7.0     6.7  7.7  0.2800E+02  0.4303E+01 -0.4385E-01E
 Epicentro: LOS SANTOS - SANTANDER                                             3
 ACTION:UPD 13-05-22 14:36 OP:EP   STATUS:               ID:20130406084510 L   I
 2013-04-06-0840-00M.COL___245                                                 6
 STAT SP IPHASW D HRMM SECON CODA AMPLIT PERI AZIMU VELO AIN AR TRES W  DIS CAZ7
 BAR2 SZ EP   1    845 30.26                             173   -0.16 7 18.8 182 
 BAR2 SZ ES   1    845 44.79                             173   -0.93 7 18.8 182 
 BRR  HZ EP        845 32.03                             153    0.0610 70.4 303 
 BRR  HN ES        845 48.95                             153    0.4610 70.4 303 
 BRR  HZ I         845 53.56         3.3 0.46            154           70.4 303 
 RUS  HZ EP        845 34.43                             145    0.1010 96.7 174 
 RUS  HN ES        845 53.06                             145    0.3710 96.7 174 
 RUS  HZ I         845 54.75         2.5 0.38            149           96.7 174 
 PTB  HZ EP        845 37.21                             133   -0.24 9  144 260 
 PTB  HN ES        845 58.01                             133   -0.22 9  144 260 
 PTB  HZ I         846  0.91         2.5 0.17            136            144 260 
 ZAR  HN ES   1    846  8.43                             123    0.08 6  203 294 
                                                                                
