 2016 12 6 0122  3.4 L   6.765 -73.117154.0  RSN 10 0.4 1.7LRSN                1
 GAP=123        1.06       4.0     4.3  6.1  0.1259E+00  0.4853E+01  0.4227E+01E
 Epicentro: LOS SANTOS - SANTANDER                                             3
 ACTION:UPD 17-01-11 20:12 OP:rebc STATUS:               ID:20161206012203 L   I
 OLDACT:UP  16-12-06 17:08 OP:ar   STATUS:               ID:20161206011740     3
 OLDACT:REG 16-12-06 13:19 OP:ar   STATUS:               ID:20161206011740     3
 2016-12-06-0118-00M.COL___343                                                 6
 STAT SP IPHASW D HRMM SECON CODA AMPLIT PERI AZIMU VELO AIN AR TRES W  DIS CAZ7
 BAR2 EZ EP        122 23.98                             172    0.0410 20.4 201 
 BAR2 EZ ES        122 39.53                             172   -0.4510 20.4 201 
 BAR2 EZ I         122 40.34         7.6 0.17            170           20.4 201 
 BRR  HZ EP        122 26.20                             152    0.5210 75.9 300 
 BRR  HN ES        122 44.00                             152    0.9310 75.9 300 
 BRR  HZ I         122 45.93        10.1 0.18            151           75.9 300 
 PAM  EZ EP        122 26.84                             152    0.3010 78.5  36 
 PAM  EN ES        122 44.07                             152   -0.5310 78.5  36 
 PAM  EZ I         122 46.29         8.1 0.42            154           78.5  36 
 RUS  HZ EP        122 27.81                             147    0.1510 96.5 178 
 RUS  HE ES        122 46.62                             147    0.0110 96.5 178 
 RUS  HZ I         122 47.84         2.7 0.34            147           96.5 178 
 PTB  HZ EP        122 30.83                             133   -0.41 9  150 261 
 PTB  HN ES        122 52.66                             133   -0.31 9  150 261 
 PTB  HZ I         122 53.87         6.1 0.16            133            150 261 
 ZAR  HZ EP        122 36.95                             123    0.13 8  208 293 
 ZAR  HN ES        123  2.46                             123   -0.44 8  208 293 
 ZAR  HZ I         123  8.01         4.5 0.28            123            208 293 
 NOR  HZ EP        122 39.40                             120   -0.23 8  235 236 
 NOR  HN ES        123  7.71                             120   -0.20 8  235 236 
 NOR  HZ I         123 12.48         4.2 0.18            120            235 236 
 CHI  HZ EP   4    122 42.87                             119    1.64 0  246 196 
 CHI  HN ES        123 11.39                             119    0.63 8  246 196 
 CHI  HZ I         123 15.19         2.5 0.40            119            246 196 
 PTGC HZ EP        122 46.60                             113   -0.47 7  304 159 
 PTGC HE ES   4    123 19.52                             113   -1.64 0  304 159 
 PRA  HZ EP   9    122 55.34                             108   -1.64 0  390 210 
 PRA  HE ES        123 37.28                             108    0.13 6  390 210 
 PRA  HZ I         123 42.44         2.1 0.34            108            390 210 
 SJC  HZ EP   4    122 58.19                             107   -1.61 0  414 327 
 SJC  HN ES   4    123 40.50                             107   -3.32 0  414 327 
                                                                                
