 2016  8 6 0240 25.5 L   6.895 -73.089147.7  RSN  4 0.3 1.0LRSN                1
 GAP=284        0.66       6.1     4.6  5.8  0.2899E+01  0.4804E+01 -0.6467E+01E
 Epicentro: PIEDECUESTA - SANTANDER                                            3
 ACTION:UPD 16-10-29 15:32 OP:rebc STATUS:               ID:20160806024025 L   I
 OLDACT:UP  16-08-06 15:50 OP:edw  STATUS:               ID:20160806023733     3
 OLDACT:REG 16-08-06 12:31 OP:edw  STATUS:               ID:20160806023733     3
 2016-08-06-0238-00M.COL___371                                                 6
 STAT SP IPHASW D HRMM SECON CODA AMPLIT PERI AZIMU VELO AIN AR TRES W  DIS CAZ7
 BAR2 EZ EP        240 46.08                             166    0.3910 35.0 197 
 BAR2 EZ ES        241  1.40                             166   -0.0110 35.0 197 
 RUS  HZ EP        240 50.21                             141   -0.0310  111 180 
 RUS  HN ES        241  9.22                             141   -0.2810  111 180 
 RUS  HZ I         241  9.84         1.2 0.32                           111 180 
 PTB  HZ EP        240 53.28                             131   -0.15 9  156 256 
 PTB  HN ES        241 15.04                             131   -0.15 9  156 256 
 PTB  HZ I         241 19.32         1.3 0.74                           156 256 
 SPBC HZ EP        240 55.13                             127   -0.21 9  175 218 
 SPBC HE ES        241 19.02                             127    0.43 9  175 218 
                                                                                
