 2017  4 6 0101 48.9 L   6.772 -73.099155.0  RSN  6 0.4 1.6LRSN                1
 GAP=144        0.83       4.7     4.1  6.8 -0.1212E+00  0.7477E+01 -0.2308E+01E
 Epicentro: LOS SANTOS - SANTANDER                                             3
 ACTION:UPD 17-05-30 21:08 OP:jn   STATUS:               ID:20170406010148 L   I
 OLDACT:REG 17-04-06 12:41 OP:cara STATUS:               ID:20170406005739     3
 2017-04-06-0058-00M.COL___365                                                 6
 STAT SP IPHASW D HRMM SECON CODA AMPLIT PERI AZIMU VELO AIN AR TRES W  DIS CAZ7
 BAR2 EZ EP   2    1 2  9.86                             172    0.28 5 21.9 205 
 PAM  EZ EP        1 2 12.54                             153    0.5010 76.7  35 
 PAM  EN ES        1 2 29.77                             153   -0.3410 76.7  35 
 PAM  EZ I         1 2 31.64         4.3 0.22            154           76.7  35 
 BRR  HZ EP        1 2 11.28                             152   -0.0810 77.3 299 
 BRR  HN ES        1 2 29.25                             152    0.3510 77.3 299 
 RUS  HZ EP   2    1 2 14.00                             147    0.69 5 97.2 179 
 RUS  HN ES        1 2 32.05                             147   -0.3210 97.2 179 
 RUS  HZ I         1 2 33.90         2.9 0.18            148           97.2 179 
 PTB  HZ EP        1 2 16.88                             133   -0.13 9  152 260 
 PTB  HN ES        1 2 39.25                             133    0.30 9  152 260 
 PTB  HZ I         1 2 41.45         4.1 0.36            133            152 260 
 ZAR  HZ EP        1 2 22.14                             123   -0.40 8  210 292 
 ZAR  HN ES        1 2 48.49                             123   -0.31 8  210 292 
 ZAR  HZ I         1 2 54.14         8.7 0.28            124            210 292 
                                                                                
