 2014  8 6 0834 34.3 L   6.761 -73.200137.5  RSN 11 0.4 1.4LRSN                1
 GAP=131        0.85       2.7     3.2  5.1 -0.1784E+01  0.4826E+01  0.6585E+00E
 Epicentro: ZAPATOCA - SANTANDER                                               3
 ACTION:UPD 14-09-15 21:47 OP:nd   STATUS:               ID:20140806083434 L   I
 OLDACT:REG 14-08-06 13:45 OP:spq  STATUS:               ID:20140806082818     3
 2014-08-06-0828-18M.COL___254                                                 6
 STAT SP IPHASW D HRMM SECON CODA AMPLIT PERI AZIMU VELO AIN AR TRES W  DIS CAZ7
 BAR2 SZ EP        834 52.88                             172    0.0710 18.7 174 
 BAR2 SZ ES   1    835  7.55                             172    0.28 7 18.7 174 
 BAR2 SZ I         835  8.92         9.5 0.22            173           18.7 174 
 BRR  HZ EP     D  834 54.79                             152    0.4410 68.3 304 
 BRR  HE ES        835  9.98                             152   -0.0410 68.3 304 
 BRR  HZ I         835 16.30         5.5 0.14            151           68.3 304 
 PAM  SZ EP        834 55.66                             147   -0.4110 84.6  41 
 PAM  SN ES        835 12.58                             147   -0.5010 84.6  41 
 PAM  SZ I         835 14.81         5.4 0.46            152           84.6  41 
 RUS  HZ EP        834 56.85                             143   -0.0810 96.9 172 
 RUS  HN ES   1    835 14.95                             143    0.34 7 96.9 172 
 RUS  HZ I         835 17.02         2.3 0.29            148           96.9 172 
 PTB  HZ EP        834 59.70                             131   -0.24 9  141 260 
 PTB  HN ES        835 19.75                             131   -0.22 9  141 260 
 PTB  HZ I         835 24.81         3.8 0.10            133            141 260 
 SPBC HZ EP        835  1.84                             128    0.39 9  156 218 
 SPBC HN ES   1    835 22.90                             128    0.25 7  156 218 
 SPBC HZ I         835 26.33         5.1 0.06            131            156 218 
 OCA  HZ EP        835  2.14                             127   -0.17 9  164 355 
 OCA  HN ES        835 24.71                             127    0.53 9  164 355 
 OCA  HZ I         835 30.21         3.9 0.28            130            164 355 
 ZAR  HZ EP        835  6.45                             121    0.67 9  200 294 
 ZAR  HN ES        835 30.24                             121   -0.12 9  200 294 
 SML  HN ES   1    835 38.50                             115   -0.45 6  245 337 
 HEL  HZ EP        835 13.40                             114    0.11 8  265 256 
 HEL  HE ES   1    835 43.79                             114    0.06 6  265 256 
 HEL  HZ I         835 52.17         2.0 0.46            116            265 256 
 GUY2CHZ EP   1    835 16.37                             111   -0.28 5  294 235 
 GUY2CHN ES        835 48.94                             111   -0.78 7  294 235 
 GUY2CHZ I         835 57.20         1.0 0.30                           294 235 
                                                                                
