 2015  6 6 0153 49.0 L   6.728 -73.110154.5  RSN  8 0.5 1.8LRSN                1
 GAP=203        1.00       4.4     6.8  7.3  0.5792E+01  0.8886E+01 -0.2363E+01E
 Epicentro: JORDAN - SANTANDER                                                 3
 ACTION:UPD 15-09-10 22:10 OP:cam  STATUS:               ID:20150606015349 L   I
 OLDACT:UP  15-06-06 13:00 OP:mh   STATUS:               ID:20150606014747     3
 OLDACT:UP  15-06-06 12:59 OP:mh   STATUS:               ID:20150606014747     3
 OLDACT:UP  15-06-06 12:59 OP:mh   STATUS:               ID:20150606014747     3
 OLDACT:UP  15-06-06 12:59 OP:mh   STATUS:               ID:20150606014747     3
 OLDACT:REG 15-06-06 12:31 OP:mh   STATUS:               ID:20150606014747     3
 2015-06-06-0147-47M.COL___309                                                 6
 STAT SP IPHASW D HRMM SECON CODA AMPLIT PERI AZIMU VELO AIN AR TRES W  DIS CAZ7
 BAR2 EZ EP        154  9.03                             174   -0.5010 17.0 208 
 BAR2 EZ ES   1    154 25.61                             174    0.03 7 17.0 208 
 BAR2 EZ I         154 26.55        12.0 0.28            170           17.0 208 
 BRR  HZ EP        154 11.98                             152    0.5110 78.7 302 
 BRR  HN ES        154 29.27                             152    0.2410 78.7 302 
 BRR  HZ I         154 33.73         8.0 0.22            147           78.7 302 
 RUS  HZ EP   1    154 13.10                             148    0.08 7 92.4 178 
 RUS  HN ES   1    154 32.39                             148    0.59 7 92.4 178 
 RUS  HZ I         154 33.49         6.0 0.36            152           92.4 178 
 SPBC HZ EP        154 17.16                             132   -0.65 9  160 222 
 SPBC HN ES        154 39.95                             132   -0.38 9  160 222 
 SPBC HZ I         154 43.43        11.1 0.36            132            160 222 
 ZAR  HZ EP        154 23.03                             123    0.36 8  211 294 
 ZAR  HN ES        154 48.47                             123   -0.50 8  211 294 
 ZAR  HZ I         154 54.78         6.3 0.34            122            211 294 
 SML  HZ EP   1    154 27.50                             118    0.46 6  253 335 
 SML  HN ES   1    154 56.27                             118   -0.47 6  253 335 
 SML  HZ I         155  2.41         8.4 0.20            118            253 335 
 GUY2CHZ EP   1    154 33.19                             114    0.35 5  300 236 
 GUY2CHN ES   1    155  7.85                             114    0.78 5  300 236 
 GUY2CHZ I         155 14.85         1.5 0.36                           300 236 
 MON  HN ES   4    155 15.55                             110   -2.90 0  362 309 
 MON  HZ I         155 33.12         1.2 0.40            110            362 309 
                                                                                
