 2016  2 6 0610 29.5 L   6.814 -73.189128.9  RSN  7 0.5 1.2LRSN                1
 GAP=131        0.68       6.1     6.6  9.7 -0.1731E+02  0.1291E+02 -0.2041E+02E
 Epicentro: ZAPATOCA - SANTANDER                                               3
 ACTION:UPD 16-03-04 21:23 OP:rebc STATUS:               ID:20160206061029 L   I
 OLDACT:REG 16-02-06 13:21 OP:dnl  STATUS:               ID:20160206060738     3
 2016-02-06-0607-38M.COL___334                                                 6
 STAT SP IPHASW D HRMM SECON CODA AMPLIT PERI AZIMU VELO AIN AR TRES W  DIS CAZ7
 BAR2 EZ EP   2    610 47.58                             169    0.42 5 24.5 178 
 BAR2 EZ ES   2    611  0.93                             169    0.01 5 24.5 178 
 BAR2 EZ I         611  5.36         5.9 0.35            170           24.5 178 
 PAM  EZ EP        610 50.25                             147    0.1410 79.4  43 
 PAM  EZ I         611  9.88         2.6 0.28            127           79.4  43 
 RUS  HZ EP   2    610 51.93                             139    0.12 5  103 173 
 RUS  HE ES   2    611  8.38                             139   -0.82 5  103 173 
 RUS  HZ I         611 11.62         1.4 0.25            145            103 173 
 PTB  HZ EP   2    610 55.46                             129    0.70 5  143 258 
 PTB  HN ES   2    611 13.93                             129   -0.50 5  143 258 
 PTB  HZ I         611 21.19         1.6 0.24            120            143 258 
 SPBC HZ EP   2    610 56.47                             125   -0.14 5  161 217 
 SPBC HE ES   2    611 18.36                             125    0.62 5  161 217 
 SPBC HZ I         611 22.62         3.1 0.14            122            161 217 
 SML  HZ EP   2    611  4.00                             114   -0.89 4  240 336 
 SML  HZ I         611 35.90         3.9 0.10            105            240 336 
 CHI  HZ EP   2    611  5.89                             113   -0.49 4  249 194 
 CHI  HE ES   4    611 33.27                             113   -1.85 0  249 194 
 CHI  HZ I         611 38.46         1.3 0.58            110            249 194 
                                                                                
