 2010  3 6 0931  8.7 L   6.805 -72.996144.6  RSN 10 0.5 2.0LRSN                1
 GAP=137        0.97       3.8     7.2  6.6 -0.4823E+01 -0.8975E+01  0.1878E+01E
 Epicentro: CEPITA - SANTANDER                                                 3
 ACTION:UP  10-08-24 09:52 OP:vdl  STATUS:               ID:20100306093108 L   I
 2010-03-06-0927-59S.COL___101                                                 6
 STAT SP IPHASW D HRMM SECON CODA AMPLIT PERI AZIMU VELO SNR AR TRES W  DIS CAZ7
 BAR2 SZ EP        931 28.40                             167     0.010   31 221 
 BAR2 SZ ES   1    931 43.75                             167     0.0 7   31 221 
 BRR  HZ IP        931 30.30                             148    -0.310   86 293 
 BRR  HN ES        931 47.73                             148     0.010   86 293 
 BRR  HZ I         931 50.09        26.6 0.27                            86 293 
 RUS  BZ EP   1    931 32.29                             143    -0.1 7  101 185 
 RUS  BZ I         931 33.47         6.3 0.38                           101 185 
 RUS  BN ES   1    931 50.84                             143     0.0 7  101 185 
 OCA  SZ EP        931 36.84                             129    -0.3 9  163 347 
 OCA  SZ ES   1    931 59.83                             129     0.5 7  163 347 
 CHI  HZ EP   1    931 46.43                             116    -0.5 6  254 199 
 CHI  HN ES   1    932 16.70                             116     0.0 6  254 199 
 CHI  HZ I         932 25.34         5.0 0.26                           254 199 
 RREF BN ES   1    932 34.43                             110     1.0 5  335 231 
 RREF BZ I         932 38.02         7.2 0.17                           335 231 
 SDV  BZ EP        931 57.81                             109     0.6 6  348  49 
 SDV  BZ I         931 58.73         4.5 0.33                           348  49 
 TOL  SZ EP   1    931 59.56                             108     1.3 5  356 226 
 TOL  SZ ES   3    932 38.08                             108     1.1 2  356 226 
 MON  HZ EP   1    931 58.02                             108    -1.1 5  366 307 
 MON  HZ I         932  3.13         2.5 0.33                           366 307 
 PRA  HZ EP   1    932  2.81                             106    -0.4 4  401 212 
 PRA  HN ES   1    932 45.29                             106    -0.4 4  401 212 
 PRA  HZ I         932 47.90         4.7 0.08                           401 212 
                                                                                
