 2016  7 6 0020 25.8 L   6.843 -73.171148.3  RSN 16 0.5 1.9LRSN                1
 GAP=131        1.15       3.8     4.4  5.7 -0.2313E+01  0.5940E+01  0.1214E+01E
 Epicentro: ZAPATOCA - SANTANDER                                               3
 ACTION:UPD 17-03-29 16:47 OP:lp   STATUS:               ID:20160706002025 L   I
 OLDACT:UP  16-07-06 13:16 OP:dani STATUS:               ID:20160706001744     3
 OLDACT:UP  16-07-06 13:16 OP:dani STATUS:               ID:20160706001744     3
 OLDACT:UP  16-07-06 13:11 OP:dani STATUS:               ID:20160706001744     3
 OLDACT:UP  16-07-06 13:11 OP:dani STATUS:               ID:20160706001744     3
 OLDACT:UP  16-07-06 13:11 OP:dani STATUS:               ID:20160706001744     3
 OLDACT:UP  16-07-06 13:11 OP:dani STATUS:               ID:20160706001744     3
 OLDACT:REG 16-07-06 12:13 OP:dani STATUS:               ID:20160706001744     3
 2016-07-06-0017-44M.COL___325                                                 6
 STAT SP IPHASW D HRMM SECON CODA AMPLIT PERI AZIMU VELO AIN AR TRES W  DIS CAZ7
 BAR2 EZ EP        020 45.72                             169   -0.1510 27.7 183 
 BAR2 EZ ES        021  0.76                             169   -0.7310 27.7 183 
 BAR2 EZ I         021  2.15        23.5 0.24            167           27.7 183 
 BRR  HZ EP        020 47.77                             154    0.7610 66.5 296 
 BRR  HN ES        021  4.44                             154    0.9210 66.5 296 
 BRR  HZ I         021  7.93        10.9 0.26            152           66.5 296 
 PAM  EZ EP        020 48.69                             152    0.4610 75.7  43 
 PAM  EE ES        021  5.81                             152    0.1210 75.7  43 
 PAM  EZ I         021  8.10        20.0 0.48            157           75.7  43 
 RUS  HZ EP        020 50.14                             143   -0.0610  106 175 
 RUS  HE ES        021  8.68                             143   -0.5110  106 175 
 RUS  HZ I         021  9.81        11.8 0.30            143            106 175 
 PTB  HZ EP        020 52.68                             133   -0.18 9  146 257 
 PTB  HN ES        021 13.59                             133   -0.34 9  146 257 
 PTB  HZ I         021 16.63         8.5 0.14            132            146 257 
 SPBC HZ EP        020 54.60                             129   -0.12 9  165 217 
 SPBC HN ES        021 17.17                             129   -0.08 9  165 217 
 SPBC HZ I         021 23.38        14.5 0.10            129            165 217 
 ZAR  HZ EP   4    021  0.09                             123    2.08 0  200 291 
 ZAR  HE ES        021 23.08                             123   -0.02 9  200 291 
 ZAR  HZ I         021 28.48         6.5 0.30            123            200 291 
 NOR  HZ EP        021  2.16                             119    0.39 8  235 233 
 NOR  HE ES        021 29.95                             119    0.15 8  235 233 
 NOR  HZ I         021 34.99         6.0 0.16            119            235 233 
 CHI  HZ EP        021  4.15                             117    0.05 8  252 194 
 CHI  HN ES   4    021 29.66                             117   -4.27 0  252 194 
 CHI  HZ I         021 37.47         5.2 0.58            118            252 194 
 ROSC BZ EP   9    021  6.77                             117    2.38 0  255 210 
 ROSC BN ES        021 37.19                             117    0.36 8  255 210 
 ROSC BZ I         021 37.84         7.6 0.35            117            255 210 
 HEL  HZ EP   4    021  8.84                             115    2.82 0  271 255 
 HEL  HN ES   4    021 38.41                             115    1.06 0  271 255 
 HEL  HZ I         021 43.58         3.5 0.54            115            271 255 
 GUY2CHZ EP   9    021 11.59                             113    1.97 0  302 234 
 GUY2CHN ES        021 45.60                             113   -0.14 7  302 234 
 GUY2CHZ I         021 52.21         4.4 0.34                           302 234 
 ELA  HN ES   4    021 47.18                             111   -2.44 0  330 229 
 CBOC HZ EP        021 12.11                             110   -0.62 7  332 251 
 CBOC HE ES   4    021 45.55                             110   -3.75 0  332 251 
 CBOC HZ I         021 52.57         2.1 0.10            111            332 251 
 PRA  HZ EP   4    021 17.37                             107   -2.40 0  395 209 
 PRA  HE ES   2    022  2.25                             107    0.42 3  395 209 
 PRA  HZ I         022  6.26         2.7 0.22            107            395 209 
 ORTC HZ EP        021 20.80                             107    0.70 6  398 215 
 ORTC HN ES        022  2.95                             107    0.52 6  398 215 
 ORTC HZ I         022  9.76         1.8 0.18            107            398 215 
 SJC  HZ EP        021 20.09                             106   -0.76 6  404 327 
 SJC  HE ES        022  2.22                             106   -1.53 6  404 327 
 CRJC HN ES   4    022 12.98                             104   -3.29 0  463   4 
                                                                                
