 2015  5 6 0527  6.3 L   6.760 -73.190152.5  RSN  5 0.5 1.3LRSN                1
 GAP=196        1.33       9.3    13.3 10.9  0.8982E+02 -0.2752E+02 -0.4013E+02E
 Epicentro: LOS SANTOS - SANTANDER                                             3
 ACTION:UPD 15-09-10 22:01 OP:cam  STATUS:               ID:20150506052706 L   I
 OLDACT:UP  15-05-06 16:07 OP:drio STATUS:               ID:20150506051747     3
 OLDACT:REG 15-05-06 12:32 OP:drio STATUS:               ID:20150506051747     3
 2015-05-06-0517-47M.COL___276                                                 6
 STAT SP IPHASW D HRMM SECON CODA AMPLIT PERI AZIMU VELO AIN AR TRES W  DIS CAZ7
 BAR2 EZ EP        527 26.77                             173    0.1310 18.5 177 
 BAR2 EZ ES        527 41.90                             173   -0.6210 18.5 177 
 BAR2 EZ I         527 43.39         5.2 0.24            173           18.5 177 
 BRR  HZ EP        527 28.61                             154    0.5410 69.3 304 
 BRR  HE ES        527 46.04                             154    0.9810 69.3 304 
 BRR  HZ I         527 49.76         2.9 0.40            154           69.3 304 
 RUS  HZ EP        527 30.67                             146    0.2410 96.6 173 
 RUS  HE ES        527 48.89                             146   -0.3710 96.6 173 
 RUS  HZ I         527 50.75         2.9 0.54            149           96.6 173 
 ZAR  HN ES        528  3.79                             124   -0.55 9  201 294 
 SML  HZ EP        527 43.25                             119   -0.27 8  246 337 
 SML  HN ES        528 12.06                             119   -0.51 8  246 337 
                                                                                
