 2010  9 6 0343 51.2 L   6.806 -73.130147.0  RSN  4 0.1 1.2LRSN                1
 GAP=228        0.43       9.0    15.6  9.7  0.1210E+03 -0.1043E+03 -0.4687E+02E
 Epicentro: LOS SANTOS - SANTANDER                                             3
 ACTION:UP  11-02-18 11:00 OP:tino STATUS:               ID:20100906034351 L   I
 2010-09-06-0339-33S.COL___120                                                 6
 STAT SP IPHASW D HRMM SECON CODA AMPLIT PERI AZIMU VELO SNR AR TRES W  DIS CAZ7
 BTL  SZ EP   1    344 11.01                             172     0.1 7   20 309 
 BAR2 SZ EP        344 10.89                             170    -0.110   24 194 
 BAR2 SZ I         344 11.32         3.3 0.27                            24 194 
 BRR  HZ EP        344 12.65                             152     0.110   73 297 
 BRR  HN ES   1    344 29.04                             152    -0.1 7   73 297 
 BRR  HZ I         344 33.26         5.2 0.12                            73 297 
 RUS  HZ EP   1    344 14.95                             144    -0.1 7  101 177 
 RUS  HN ES   2    344 33.94                             144     0.2 5  101 177 
 RUS  HZ I         344 35.40         2.0 0.26                           101 177 
                                                                                
