 2017  9 6 0551 13.3 L   6.767 -73.120142.1  RSN 15 0.3 2.0LRSN                1
 GAP= 96        0.73       2.4     2.2  4.1 -0.4717E-01  0.1557E+01  0.2812E+01E
 Epicentro: LOS SANTOS - SANTANDER                                             3
 ACTION:UPD 17-10-05 19:09 OP:rebc STATUS:               ID:20170906055113 L   I
 OLDACT:UP  17-09-06 16:13 OP:dnl  STATUS:               ID:20170906054742     3
 OLDACT:UP  17-09-06 16:12 OP:dnl  STATUS:               ID:20170906054742     3
 OLDACT:REG 17-09-06 12:54 OP:dnl  STATUS:               ID:20170906054742     3
 2017-09-06-0548-00M.COL___423                                                 6
 STAT SP IPHASW D HRMM SECON CODA AMPLIT PERI AZIMU VELO AIN AR TRES W  DIS CAZ7
 BAR2 EZ IP     C  551 32.47                             171    0.0110 20.5 200 
 BAR2 EZ ES        551 47.08                             171   -0.3110 20.5 200 
 BAR2 EZ I         551 48.51        41.7 0.24            169           20.5 200 
 BRR  HZ IP     C  551 34.40                             150    0.0710 75.5 300 
 BRR  HN ES        551 51.21                             150    0.4910 75.5 300 
 BRR  HZ I         551 55.70        23.2 0.12            149           75.5 300 
 PAM  EZ EP        551 35.37                             150    0.1510 78.5  36 
 PAM  EE ES        551 52.10                             150   -0.2010 78.5  36 
 PAM  EZ I         551 58.13        10.3 0.46            152           78.5  36 
 RUS  HZ EP        551 36.56                             144    0.1210 96.8 178 
 RUS  HN ES        551 54.65                             144    0.1710 96.8 178 
 RUS  HZ I         551 55.68        14.1 0.26            144           96.8 178 
 TAM  HZ EP   2    551 40.50                             130    0.13 5  151 104 
 TAM  HN ES        552  1.43                             130   -0.04 9  151 104 
 TAM  HZ I         552  2.95        11.9 0.46            132            151 104 
 SPBC HZ EP        551 41.63                             128    0.18 9  162 221 
 SPBC HN ES        552  3.05                             128   -0.34 9  162 221 
 SPBC HZ I         552 10.37        10.5 0.12            128            162 221 
 YPLC HZ EP        551 42.89                             127    0.49 9  172 152 
 YPLC HN ES   4    552  6.82                             127    1.73 0  172 152 
 YPLC HZ I         552  9.21        13.1 0.30            127            172 152 
 ZAR  HZ EP        551 45.55                             121   -0.41 8  208 293 
 ZAR  HN ES        552 11.16                             121   -0.25 8  208 293 
 ZAR  HZ I         552 16.81        18.1 0.48            121            208 293 
 NOR  HZ EP   4    551 50.44                             118    1.57 0  235 236 
 NOR  HN ES        552 16.97                             118    0.37 8  235 236 
 NOR  HZ I         552 20.55         5.4 0.46            117            235 236 
 CHI  HZ EP   2    551 50.97                             117    0.45 4  246 196 
 CHI  HN ES        552 19.13                             117   -0.41 8  246 196 
 CHI  HZ I         552 23.10         3.6 0.28            117            246 196 
 HEL  HZ EP   4    551 54.94                             114    1.37 0  274 257 
 HEL  HN ES        552 24.82                             114   -0.14 8  274 257 
 HEL  HZ I         552 33.32         3.7 0.26            114            274 257 
 URE  HZ EP   4    551 52.99                             112   -1.68 0  288 292 
 URE  HE ES   4    552 24.99                             112   -1.94 0  288 292 
 URE  HZ I         552 36.76         9.6 0.18            113            288 292 
 PTGC HZ EP        551 55.75                             111   -0.76 7  304 159 
 PTGC HE ES   4    552 28.24                             111   -1.96 0  304 159 
 PTGC HZ I         552 39.92         3.8 0.34            112            304 159 
 PRA  HZ EP   2    552  6.88                             106    0.36 3  390 210 
 PRA  HN ES        552 48.33                             106    0.32 6  390 210 
 PRA  HZ I         552 54.25         5.2 0.44            106            390 210 
 SJC  HZ EP   4    552  7.43                             105   -1.88 0  414 327 
 SJC  HN ES   4    552 48.46                             105   -4.52 0  414 327 
 SJC  HZ I         552 52.46         5.3 0.64            105            414 327 
                                                                                
