 2017  2 6 0238 31.2 L   6.844 -73.341119.7  RSN  6 0.3 1.3LRSN                1
 GAP=202        1.05       5.4     8.1  6.6  0.2247E+02  0.1005E+02  0.9019E+01E
 Epicentro: ZAPATOCA - SANTANDER                                               3
 ACTION:UPD 17-05-24 15:33 OP:jn   STATUS:               ID:20170206023831 L   I
 OLDACT:UP  17-02-06 16:26 OP:edw  STATUS:               ID:20170206023741     3
 OLDACT:REG 17-02-06 11:42 OP:edw  STATUS:               ID:20170206023741     3
 2017-02-06-0238-00M.COL___325                                                 6
 STAT SP IPHASW D HRMM SECON CODA AMPLIT PERI AZIMU VELO AIN AR TRES W  DIS CAZ7
 BAR2 EZ IP     C  238 47.87                             163   -0.0910 33.0 148 
 BAR2 EZ ES        239  0.75                             163   -0.3110 33.0 148 
 BAR2 EZ I         239  2.31        16.6 0.66            164           33.0 148 
 BRR  HZ IP     D  238 48.33                             155   -0.0110 50.2 305 
 BRR  HN ES        239  2.29                             155    0.5610 50.2 305 
 BRR  HZ I         239  3.54         5.0 0.12            152           50.2 305 
 RUS  HZ EP        238 53.14                             135   -0.0310  109 165 
 RUS  HN ES        239 10.15                             135   -0.1910  109 165 
 RUS  HZ I         239 12.99         3.0 0.24            135            109 165 
 PTB  HZ EP   9    238 53.63                             130   -0.59 0  128 255 
 PTB  HN ES        239 10.60                             129   -1.0110  128 255 
 PTB  HZ I         239 15.86         4.1 0.38            127            128 255 
 ZAR  HZ EP        238 59.48                             119   -0.22 9  182 293 
 ZAR  HN ES   4    239 23.20                             119    1.25 0  182 293 
 ZAR  HZ I         239 26.49         2.7 0.28            118            182 293 
 CHI  HZ EP        239  8.01                             111    0.43 8  249 190 
 CHI  HN ES        239 35.92                             111   -0.05 8  249 190 
 CHI  HZ I         239 39.30         0.8 0.30            111            249 190 
                                                                                
