 2015  3 6 0339 33.1 L   6.788 -73.107153.2  RSN  6 0.3 1.2LRSN                1
 GAP=241        0.74       4.2     6.5  6.1  0.2846E+01 -0.2781E+00  0.5960E+01E
 Epicentro: LOS SANTOS - SANTANDER                                             3
 ACTION:UPD 15-04-30 16:23 OP:nd   STATUS:               ID:20150306033933 L   I
 OLDACT:REG 15-03-06 12:26 OP:spq  STATUS:               ID:20150306033743     3
 2015-03-06-0337-43M.COL___284                                                 6
 STAT SP IPHASW D HRMM SECON CODA AMPLIT PERI AZIMU VELO AIN AR TRES W  DIS CAZ7
 BAR2 EZ E         339 53.37                                           23.2 201 
 BAR2 EZ EP        339 53.37                             171   -0.2510 23.2 201 
 BAR2 EZ ES   1    340  9.20                             171   -0.43 7 23.2 201 
 BAR2 EZ I         340 10.92         2.7 0.39            165           23.2 201 
 BRR  HZ EP        339 55.47                             152    0.1810 75.5 298 
 BRR  HN ES        340 13.08                             152    0.4810 75.5 298 
 BRR  HZ I         340 19.04         3.4 0.48            147           75.5 298 
 RUS  HZ EP   1    339 57.71                             146    0.23 7 99.1 178 
 RUS  HN ES   1    340 16.41                             146   -0.09 7 99.1 178 
 RUS  HZ I         340 16.74         1.0 0.50            147           99.1 178 
 PTB  HZ EP   1    340  0.40                             133   -0.62 7  152 260 
 PTB  HE ES   2    340 22.36                             133   -0.45 5  152 260 
 PTB  HZ I         340 27.39         1.8 0.17            130            152 260 
 SPBC HZ EP        340  2.42                             130    0.09 9  165 220 
 SPBC HN ES        340 24.91                             130   -0.23 9  165 220 
 SPBC HZ I         340 31.41         3.5 0.26            130            165 220 
 CHI  HZ EP   1    340 11.40                             119    0.20 6  249 196 
 CHI  HN ES   1    340 41.48                             119    0.55 6  249 196 
 CHI  HZ I         340 42.19         0.7 0.40            120            249 196 
                                                                                
