 2013  7 6 0911 37.8 L   6.749 -73.161143.9  RSN 15 0.5 2.3LRSN                1
 GAP= 72        1.06       3.2     3.7  5.8 -0.4236E+00  0.3504E+01  0.2278E+01E
 Epicentro: LOS SANTOS - SANTANDER                                             3
 ACTION:UPD 13-08-12 10:35 OP:ep   STATUS:               ID:20130706091137 L   I
 OLDACT:REG 13-07-06 08:04 OP:jn   STATUS:               ID:20130706090959     3
 2013-07-06-0909-59M.COL___266                                                 6
 STAT SP IPHASW D HRMM SECON CODA AMPLIT PERI AZIMU VELO AIN AR TRES W  DIS CAZ7
 BAR2 SZ EP     C  911 57.25                             173    0.1610 17.5 188 
 BAR2 SZ ES        912 11.69                             173   -0.4610 17.5 188 
 BAR2 SZ I         912 13.32        46.6 0.18            166           17.5 188 
 GIR2 SZ EP        911 57.52                             165    0.1210 36.6 354 
 GIR2 SZ I         912 13.81        18.0 0.22            158           36.6 354 
 BRR  HZ EP        911 59.24                             152    0.4210 72.6 303 
 BRR  HN ES        912 16.27                             152    1.0510 72.6 303 
 BRR  HZ I         912 17.98        24.5 0.14            138           72.6 303 
 PAM  SZ EP        912  0.36                             149    0.2110 82.9  38 
 PAM  SN ES   1    912 17.57                             149   -0.01 7 82.9  38 
 PAM  SZ I         912 19.83        33.9 0.46            142           82.9  38 
 RUS  HZ EP   1    912  0.95                             145   -0.02 7 95.1 175 
 RUS  HN ES   1    912 18.91                             145   -0.14 7 95.1 175 
 RUS  HZ I         912 20.96        38.6 0.36            134           95.1 175 
 PTB  HZ EP        912  3.74                             132   -0.62 9  145 261 
 PTB  HN ES   1    912 24.37                             132   -0.72 7  145 261 
 PTB  HZ I         912 27.06        25.6 0.14            118            145 261 
 TAM  HZ EP        912  5.44                             130    0.09 9  155 103 
 TAM  HE ES   1    912 27.02                             130    0.17 7  155 103 
 OCA  HZ EP   1    912  6.56                             128    0.09 7  166 354 
 OCA  HN ES        912 27.79                             128   -1.05 9  166 354 
 OCA  HZ I         912 31.38        29.5 0.42            117            166 354 
 ZAR  HZ EP   1    912 10.19                             122    0.01 6  205 294 
 ZAR  HE ES   1    912 35.87                             122    0.43 6  205 294 
 ZAR  HZ I         912 44.88        22.3 0.28            110            205 294 
 NOR  HN ES   1    912 40.41                             119    0.10 6  230 235 
 CHI  HZ EP        912 14.91                             117    0.16 8  243 195 
 CHI  HN ES        912 43.27                             117   -0.30 8  243 195 
 CHI  HZ I         912 47.28         7.5 0.56            107            243 195 
 SML  HZ EP   1    912 14.06                             117   -0.74 6  248 336 
 SML  HN ES   1    912 44.13                             117    0.47 6  248 336 
 HEL  HZ EP   1    912 17.14                             115   -0.44 6  269 257 
 HEL  HZ I         912 57.47         9.4 0.48            104            269 257 
 GUY2CHZ EP   1    912 21.50                             112    0.71 5  297 235 
 GUY2CHN ES   1    912 54.06                             112   -0.27 5  297 235 
 GUY2CHZ I         913  3.35        11.7 0.36                           297 235 
 RREF HZ EP   1    912 23.84                             111    0.55 5  317 230 
 RREF HZ I         913  8.35         9.6 0.23            101            317 230 
                                                                                
