 2013  7 6 0040 11.4 L   6.780 -73.140148.6  RSN  4 0.3 1.4LRSN                1
 GAP=237        0.68       7.4     7.0  7.3  0.2578E+02  0.3402E+01 -0.2177E+00E
 Epicentro: LOS SANTOS - SANTANDER                                             3
 ACTION:UPD 13-08-12 10:35 OP:ep   STATUS:               ID:20130706004011 L   I
 OLDACT:REG 13-07-06 07:43 OP:jn   STATUS:               ID:20130706003959     3
 2013-07-06-0039-59M.COL___266                                                 6
 STAT SP IPHASW D HRMM SECON CODA AMPLIT PERI AZIMU VELO AIN AR TRES W  DIS CAZ7
 BAR2 SZ EP   1    040 30.91                             171   -0.39 7 21.3 193 
 BAR2 SZ ES   1    040 46.34                             171   -0.50 7 21.3 193 
 BAR2 SZ I         040 49.76         3.4 0.18            175           21.3 193 
 BRR  HZ EP   1    040 33.16                             152    0.25 7 72.8 300 
 BRR  HN ES   1    040 50.13                             152    0.42 7 72.8 300 
 BRR  HZ I         040 59.05        12.0 0.30            150           72.8 300 
 RUS  HZ EP   1    040 35.44                             145    0.20 7 98.4 176 
 RUS  HN ES   1    040 54.20                             145    0.34 7 98.4 176 
 PTB  HZ EP   1    040 38.37                             133   -0.21 7  148 260 
 PTB  HN ES   1    040 59.63                             133   -0.18 7  148 260 
 PTB  HZ I         041  1.03         2.1 0.16            138            148 260 
                                                                                
