 2012  4 6 0707 19.0 L   6.725 -73.178149.0  RSN  5 0.4 1.3LRSN                1
 GAP=228        0.90       9.4     8.7  9.4  0.5167E+02  0.4219E+01 -0.1315E+02E
 Epicentro: VILLANUEVA - SANTANDER                                             3
 ACTION:UPD 12-07-05 11:50 OP:tino STATUS:               ID:20120406070719 L   I
 2012-04-06-0700-00M.COL___196                                                 6
 STAT SP IPHASW D HRMM SECON CODA AMPLIT PERI AZIMU VELO AIN AR TRES W  DIS CAZ7
 BAR2 SZ EP   1    7 7 38.19                             174    -0.7 7   15 182 
 BAR2 SZ ES   1    7 7 54.33                             174     0.0 7   15 182 
 BAR2 SZ I         7 7 54.73         4.2 0.36                            15 182 
 BRR  HZ EP   1    7 7 40.30                             153    -0.3 7   73 306 
 BRR  HZ I         7 7 40.60         7.4 0.16                            73 306 
 BRR  HN ES   1    7 7 57.72                             153     0.3 7   73 306 
 RUS  HZ EP   1    7 7 42.80                             147     0.3 7   93 174 
 RUS  HN ES   1    7 8  1.11                             147     0.3 7   93 174 
 RUS  HZ I         7 8  2.31         1.6 0.31                            93 174 
 PTB  HN ES   1    7 8  6.26                             134    -0.4 7  143 262 
 PTB  HZ I         7 8 13.75         1.9 0.41                           143 262 
 ZAR  HZ EP   1    7 7 52.16                             123     0.5 6  204 295 
 ZAR  HN ES   1    7 8 17.24                             123     0.1 6  204 295 
 ZAR  HZ I         7 8 23.56         1.4 0.31                           204 295 
                                                                                
