 2012  1 6 0833 32.1 L   6.802 -73.214143.4  RSN  5 0.3 1.2LRSN                1
 GAP=128        0.53       4.9     4.6  6.6 -0.2116E+01  0.3315E+01  0.1478E+01E
 Epicentro: ZAPATOCA - SANTANDER                                               3
 ACTION:UP  12-02-03 08:14 OP:REBC STATUS:               ID:20120106083332 L   I
 2012-01-06-0830-00M.COL___186                                                 6
 STAT SP IPHASW D HRMM SECON CODA AMPLIT PERI AZIMU VELO SNR AR TRES W  DIS CAZ7
 BAR2 SZ EP   1    833 51.38                             170    -0.1 7   24 172 
 BAR2 SZ I         833 53.43         4.6 0.63                            24 172 
 BAR2 SZ ES   2    834  7.02                             170     0.4 5   24 172 
 BRR  HZ EP   1    833 53.16                             154     0.5 7   65 301 
 BRR  HZ I         833 53.28         7.4 0.19                            65 301 
 BRR  HN ES   2    834  8.29                             154    -0.4 5   65 301 
 PAM  SZ EP   1    833 54.27                             149    -0.1 7   82  44 
 PAM  SN ES   2    834 11.65                             149    -0.1 5   82  44 
 RUS  HZ EP   1    833 55.69                             143     0.0 7  102 172 
 RUS  HN ES   2    834 14.07                             143    -0.1 5  102 172 
 RUS  HZ I         834 17.37         1.2 0.43                           102 172 
 PTB  HZ EP   1    833 58.18                             133    -0.1 7  140 258 
 PTB  HN ES   2    834 18.47                             133    -0.2 5  140 258 
                                                                                
