 2010 12 6 0058 22.0 L   6.797 -73.164145.4  RSN  6 0.3 2.1LRSN                1
 GAP=167        0.57       4.0     9.3  7.4 -0.2293E+02  0.1931E+02 -0.5805E+00E
 Epicentro: LOS SANTOS - SANTANDER                                             3
 ACTION:UP  11-01-14 15:23 OP:pat  STATUS:               ID:20101206005822 L   I
 2010-12-06-0056-00S.COL___132                                                 6
 STAT SP IPHASW D HRMM SECON CODA AMPLIT PERI AZIMU VELO SNR AR TRES W  DIS CAZ7
 BAR2 SZ EP   1    058 41.37                             171    -0.2 8   23 185 
 BAR2 SZ ES   2    058 56.47                             171    -0.3 5   23 185 
 BAR2 SZ I         058 57.86        42.3 0.39                            23 185 
 GIR2 SZ EP   2    058 41.72                             167     0.1 5   31 354 
 GRA  SZ EP   1    058 47.29                             137     0.0 8  127  18 
 GRA  SZ ES   1    059  7.38                             137     0.4 8  127  18 
 GRA  SZ I         059  9.35        19.8 0.19                           127  18 
 OCA  SZ EP        058 49.92                             130    -0.310  160 354 
 OCA  SZ ES   2    059 12.54                             130     0.2 5  160 354 
 OCA  SZ I         059 18.47        16.5 0.46                           160 354 
 NOR  SZ EP   2    058 58.13                             119     0.6 4  233 234 
 NOR  SE ES   2    059 25.30                             119     0.1 4  233 234 
 CHI  HZ EP   1    058 59.59                             117     0.0 6  248 195 
 CHI  HE ES   2    059 29.18                             117     0.3 4  248 195 
 CHI  HZ I         059 38.51         5.5 0.50                           248 195 
                                                                                
