 2017  8 6 0323 24.4 L   5.929 -73.627126.2  RSN  8 0.3 1.3LRSN                1
 GAP=144        0.69       3.1     3.0  4.8 -0.3411E+01  0.4623E+01 -0.1510E+01E
 Epicentro: BARBOSA - SANTANDER                                                3
 ACTION:UPD 17-09-04 20:16 OP:rebc STATUS:               ID:20170806032324 L   I
 OLDACT:REG 17-08-06 11:55 OP:osc  STATUS:               ID:20170806031740     3
 2017-08-06-0318-00M.COL___386                                                 6
 STAT SP IPHASW D HRMM SECON CODA AMPLIT PERI AZIMU VELO AIN AR TRES W  DIS CAZ7
 SPBC HZ EP        323 42.54                             154   -0.3110 58.1 238 
 SPBC HN ES        323 57.20                             154   -0.0210 58.1 238 
 SPBC HZ I         323 58.18         5.8 0.14            153           58.1 238 
 RUS  HN ES        323 58.37                             153   -0.1110 60.3  94 
 BAR2 EZ EP        323 45.21                             143    0.2110 88.3  34 
 BAR2 EZ ES        324  1.19                             143    0.1310 88.3  34 
 BAR2 EZ I         324  2.15         8.2 0.14            145           88.3  34 
 PTB  HZ EP        323 46.52                             135   -0.2310  114 306 
 PTB  HE ES        324  3.73                             135   -0.4410  114 306 
 PTB  HZ I         324  4.86         2.4 0.16            136            114 306 
 BRR  HZ EP        323 48.33                             131    0.1210  131 356 
 BRR  HN ES        324  6.93                             131    0.1610  131 356 
 NOR  HZ EP        323 49.41                             128   -0.09 9  143 254 
 NOR  HE ES        324  9.68                             128    0.62 9  143 254 
 NOR  HZ I         324 12.54         3.7 0.14            129            143 254 
 GUY2CHZ EP        323 56.66                             117   -0.01 8  208 248 
 GUY2CHE ES   4    324 23.27                             117    1.44 0  208 248 
 GUY2CHZ I         324 27.66         1.3 0.38                           208 248 
 ZAR  HN ES   2    324 23.29                             116    0.15 4  220 322 
                                                                                
