 2013  2 6 0731  4.8 L   6.803 -73.119142.4  RSN 12 0.5 2.5LRSN                1
 GAP= 72        1.11       3.5     4.0  6.0  0.1166E+00  0.4359E+01  0.3251E+01E
 Epicentro: LOS SANTOS - SANTANDER                                             3
 ACTION:UPD 13-03-12 09:30 OP:ep   STATUS:               ID:20130206073104 L   I
 2013-02-06-0730-00M.COL___240                                                 6
 STAT SP IPHASW D HRMM SECON CODA AMPLIT PERI AZIMU VELO AIN AR TRES W  DIS CAZ7
 BAR2 SZ IP        731 24.09                             170    0.0510 24.3 197 
 BAR2 SZ ES        731 38.71                             170   -0.3410 24.3 197 
 BAR2 SZ I         731 40.39        50.0 0.18            171           24.3 197 
 BRR  HZ IP     D  731 25.91                             151    0.1910 73.6 297 
 BRR  HN ES        731 42.81                             151    0.7610 73.6 297 
 BRR  HN I         731 43.72       150.7 0.18            151           73.6 297 
 PAM  SZ EP        731 26.90                             151    0.3710 75.3  38 
 PAM  SN ES        731 43.81                             151    0.3310 75.3  38 
 PAM  SN I         731 45.04        26.3 0.50            151           75.3  38 
 RUS  HZ EP     D  731 28.03                             143   -0.2010  101 178 
 RUS  HN ES        731 46.61                             143    0.1010  101 178 
 RUS  HN I         731 47.45        36.1 0.22            144            101 178 
 PTB  HZ EP   1    731 31.10                             131   -0.66 7  151 259 
 PTB  HN ES   1    731 51.93                             131   -0.87 7  151 259 
 TAM  HZ EP     C  731 32.44                             130    0.49 9  152 105 
 TAM  HN ES   1    731 52.25                             130   -0.88 7  152 105 
 TAM  HN I         731 58.37        18.8 0.36            131            152 105 
 OCA  HZ EP        731 32.44                             129   -0.41 9  160 352 
 OCA  HN ES        731 54.22                             129   -0.51 9  160 352 
 OCA  HN I         731 58.98        67.5 0.16            129            160 352 
 ZAR  HZ EP   1    731 36.51                             121   -0.79 6  207 292 
 ZAR  HN ES   2    732  2.66                             121    0.02 4  207 292 
 ZAR  HN I         732  7.12        37.9 0.38            121            207 292 
 CHI  HZ EP        731 42.32                             116   -0.11 8  250 196 
 CHI  HN ES        732 11.35                             116   -0.44 8  250 196 
 CHI  HN I         732 14.04        24.0 0.40            117            250 196 
 ROSC BZ EP        731 43.77                             116    0.83 8  255 212 
 HEL  HZ EP        731 45.67                             114    0.50 8  275 256 
 HEL  HN ES   1    732 17.25                             114    0.59 6  275 256 
 HEL  HN I         732 22.33        10.3 0.36            114            275 256 
 URE  HN ES   2    732 17.70                             113   -0.43 4  286 292 
                                                                                
