 2011 12 6 0049 53.2 L   6.794 -73.087144.0  RSN  5 0.4 1.6LRSN                1
 GAP=144        0.77       4.3     8.0  8.6  0.1721E+01 -0.3851E+01 -0.2380E+01E
 Epicentro: LOS SANTOS - SANTANDER                                             3
 ACTION:UPD 12-07-13 16:14 OP:ep   STATUS:               ID:20111206004953 L   I
 2011-12-06-0048-39S.COL___161                                                 6
 STAT SP IPHASW D HRMM SECON CODA AMPLIT PERI AZIMU VELO AIN AR TRES W  DIS CAZ7
 BAR2 SZ ES   1    050 27.53                             170   -0.32 7 24.7 205 
 PAM  SZ EP   1    050 15.37                             152    0.31 7 74.0  35 
 PAM  SZ I         050 15.68         9.7 0.18                          74.0  35 
 PAM  SN ES   1    050 32.36                             152    0.28 7 74.0  35 
 BRR  HZ EP   1    050 14.39                             150   -0.16 7 77.3 297 
 BRR  HZ I         050 18.49         9.1 0.10                          77.3 297 
 BRR  HN ES   1    050 31.75                             150    0.57 7 77.3 297 
 RUS  HZ EP   1    050 16.93                             144    0.18 7 99.7 180 
 RUS  HN ES   1    050 34.78                             144   -0.30 7 99.7 180 
 RUS  HZ I         050 36.14         3.6 0.28                          99.7 180 
 OCA  SZ ES   1    050 42.97                             129   -0.68 7  162 351 
 OCA  SZ I         050 47.12         7.4 0.15                           162 351 
                                                                                
