 2015  3 6 0251 48.1 L   6.108 -73.813 97.3  RSN 12 0.4 1.5LRSN                1
 GAP= 93        0.99       3.2     3.2  6.7 -0.4301E+01  0.1008E+02 -0.2156E+01E
 Epicentro: EL PENON - SANTANDER                                               3
 ACTION:UPD 15-04-30 16:23 OP:nd   STATUS:               ID:20150306025148 L   I
 OLDACT:REG 15-03-06 12:21 OP:spq  STATUS:               ID:20150306024750     3
 2015-03-06-0247-50M.COL___284                                                 6
 STAT SP IPHASW D HRMM SECON CODA AMPLIT PERI AZIMU VELO AIN AR TRES W  DIS CAZ7
 SPBC HZ EP        252  3.35                             147   -0.0910 58.0 210 
 SPBC HE ES        252 15.86                             147    0.4410 58.0 210 
 SPBC HZ I         252 16.98        18.3 0.20            148           58.0 210 
 RUS  HZ EP        252  5.66                             137   -0.3510 84.3 106 
 RUS  HN ES        252 20.11                             137    0.1110 84.3 106 
 RUS  HZ I         252 21.62         8.3 0.22            139           84.3 106 
 PTB  HZ EP   4    252  4.26                             136   -1.22 0 85.7 304 
 PTB  HN ES   4    252 17.88                             136   -1.17 0 85.7 304 
 PTB  HZ I         252 20.76         6.8 0.16            138           85.7 304 
 BAR2 EZ EP        252  5.92                             135   -0.0610 87.9  52 
 BAR2 EZ ES   1    252 20.27                             135    0.33 7 87.9  52 
 BAR2 EZ I         252 21.65        20.6 0.40            138           87.9  52 
 BRR  HZ EP        252  7.37                             128   -0.4310  111   6 
 BRR  HE ES        252 23.23                             128    0.0510  111   6 
 BRR  HZ I         252 27.69         7.1 0.46            130            111   6 
 NOR  HZ EP        252  9.10                             123   -0.8510  132 243 
 NOR  HN ES        252 26.33                             123   -0.6810  132 243 
 NOR  HZ I         252 28.77         7.9 0.18            124            132 243 
 CHI  HZ EP   1    252 14.21                             117    0.34 7  164 177 
 CHI  HE ES   1    252 34.10                             117    0.11 7  164 177 
 CHI  HZ I         252 40.99         2.9 0.38            118            164 177 
 HEL  HZ EP        252 17.42                             113    0.65 9  190 273 
 GUY2CHZ EP        252 17.77                             112   -0.01 9  198 240 
 GUY2CHN ES   4    252 42.79                             112    1.85 0  198 240 
 GUY2CHZ I         252 46.10         2.9 0.56                           198 240 
 RREF HZ EP   1    252 20.24                             110    0.15 6  216 232 
 RREF HN ES        252 44.81                             110   -0.25 8  216 232 
 RREF HZ I         252 49.58         2.3 0.36            110            216 232 
 TOL  SZ EP        252 22.66                             108    0.48 8  237 225 
 TOL  SN ES        252 48.72                             108   -0.05 8  237 225 
 TOL  SZ I         252 52.69         1.4 0.24            108            237 225 
 CBOC HZ EP        252 23.43                             107    0.55 8  245 264 
 CBOC HN ES        252 50.54                             107    0.51 8  245 264 
 CBOC HZ I         252 52.00         1.5 0.34            107            245 264 
                                                                                
