 2016 10 6 0338 22.7 L   6.769 -73.161145.1  RSN  7 0.5 1.4LRSN                1
 GAP=181        0.88       3.5     5.6  7.6 -0.3157E+01  0.1424E+02 -0.3125E+00E
 Epicentro: LOS SANTOS - SANTANDER                                             3
 ACTION:UPD 16-11-09 19:16 OP:rebc STATUS:               ID:20161006033822 L   I
 OLDACT:REG 16-10-06 13:08 OP:dnl  STATUS:               ID:20161006033744     3
 2016-10-06-0338-00M.COL___360                                                 6
 STAT SP IPHASW D HRMM SECON CODA AMPLIT PERI AZIMU VELO AIN AR TRES W  DIS CAZ7
 BAR2 EZ EP   2    338 41.32                             172   -0.82 5 19.6 187 
 BAR2 EZ ES        338 57.04                             172   -0.3010 19.6 187 
 BAR2 EZ I         339  0.06         5.3 0.24            173           19.6 187 
 BRR  HZ EP   2    338 43.59                             152   -0.16 5 71.5 302 
 BRR  HN ES        339  0.88                             152    0.6810 71.5 302 
 BRR  HZ I         339  5.49         3.7 0.58            153           71.5 302 
 RUS  HZ EP   2    338 46.08                             145   -0.02 5 97.2 175 
 RUS  HN ES        339  4.54                             145    0.1510 97.2 175 
 RUS  HZ I         339  5.94         2.4 0.22            149           97.2 175 
 PTB  HZ EP   2    338 48.71                             132   -0.65 5  145 260 
 PTB  HN ES        339  9.60                             132   -0.59 9  145 260 
 PTB  HZ I         339 12.02         2.2 0.11            135            145 260 
 SPBC HZ EP   2    338 50.76                             130    0.01 5  159 219 
 SPBC HN ES        339 12.88                             130    0.22 9  159 219 
 SPBC HZ I         339 15.37         6.1 0.36            133            159 219 
 OCA  HZ EP   2    338 52.21                             129    0.99 5  164 354 
 OCA  HN ES        339 13.32                             129   -0.19 9  164 354 
 OCA  HZ I         339 15.61         7.7 0.18            132            164 354 
 GUY2CHZ EP   2    339  6.06                             113    0.21 4  298 235 
 GUY2CHE ES        339 39.76                             113    0.22 7  298 235 
 GUY2CHZ I         339 48.25         1.4 0.26                           298 235 
                                                                                
