 2011  4 6 0312 59.8 L   7.385 -73.481103.9  RSN  5 0.3 2.0LRSN                1
 GAP=151        0.63       3.3     6.5  7.1 -0.7838E+01 -0.1088E+02 -0.1541E+00E
 Epicentro: SABANA DE TORRES - SANTANDER                                       3
 ACTION:UP  11-06-22 15:29 OP:REBC STATUS:               ID:20110406031259 L   I
 2011-04-06-0311-05S.COL___125                                                 6
 STAT SP IPHASW D HRMM SECON CODA AMPLIT PERI AZIMU VELO SNR AR TRES W  DIS CAZ7
 BRR  HZ EP   2    313 14.40                             157    -0.3 5   40 220 
 BRR  HE ES   1    313 26.64                             157     0.3 7   40 220 
 BRR  HZ I         313 27.85        37.6 0.18                            40 220 
 BTL  SZ IP        313 15.97                             149     0.010   57 155 
 GRA  SZ EP        313 18.78                             135     0.210   93  53 
 GRA  SZ ES   1    313 33.48                             135     0.2 7   93  53 
 GRA  SZ I         313 35.56        32.4 0.35                            93  53 
 BAR2 SZ EP   1    313 18.82                             135     0.0 7   94 159 
 BAR2 SZ ES   2    313 32.99                             135    -0.6 5   94 159 
 BAR2 SZ I         313 34.60        19.8 0.26                            94 159 
 OCA  SZ EP        313 18.93                             134     0.010   96  11 
 OCA  SZ I         313 19.47        14.1 0.08                            96  11 
 OCA  SZ ES   1    313 33.35                             134    -0.4 7   96  11 
                                                                                
