 2010  6 6 0352 11.7 L   6.806 -73.218154.0  RSN  6 0.3 1.9LRSN                1
 GAP=150        0.62       4.8     6.7  8.0  0.3529E+01  0.2424E+02  0.5811E+01E
 Epicentro: ZAPATOCA - SANTANDER                                               3
 ACTION:UP  10-08-24 10:08 OP:vdl  STATUS:               ID:20100606035211 L   I
 2010-06-06-0349-25S.COL___111                                                 6
 STAT SP IPHASW D HRMM SECON CODA AMPLIT PERI AZIMU VELO SNR AR TRES W  DIS CAZ7
 BAR2 SZ IP        352 32.28                             171    -0.110   24 171 
 GIR2 SZ EP   2    352 32.35                             168     0.0 5   30   5 
 GIR2 SZ ES   2    352 48.51                             168     0.1 5   30   5 
 GUE  SZ EP   1    352 37.64                             140     0.3 7  118  16 
 GUE  SZ ES   2    352 57.17                             140    -0.1 5  118  16 
 GRA  SZ IP        352 37.96                             138     0.110  128  21 
 GRA  SZ ES   1    352 57.66                             138    -0.6 7  128  21 
 OCA  SZ EP   1    352 40.78                             131     0.2 7  159 356 
 OCA  SZ ES   1    353  3.29                             131     0.3 7  159 356 
 OCA  SZ I         353  8.15         9.6 0.26                           159 356 
 MON  HZ EP   1    352 59.53                             110    -0.7 5  346 309 
 MON  HE ES   1    353 38.18                             110     0.1 5  346 309 
 MON  HZ I         353 53.58         3.1 0.48                           346 309 
                                                                                
