 2013  1 6 0939 50.0 L   6.759 -73.120147.7  RSN  4 0.1 1.6LRSN                1
 GAP=237        0.34       3.6     6.9  2.9  0.1947E+02  0.2874E+01  0.1914E+01E
 Epicentro: LOS SANTOS - SANTANDER                                             3
 ACTION:UPD 13-02-15 09:12 OP:ep   STATUS:               ID:20130106093950 L   I
 2013-01-06-0939-40M.COL___180                                                 6
 STAT SP IPHASW D HRMM SECON CODA AMPLIT PERI AZIMU VELO AIN AR TRES W  DIS CAZ7
 BAR2 SZ EP        940  9.96                             172    0.1110 19.7 200 
 BAR2 SZ ES        940 25.23                             172   -0.0610 19.7 200 
 BAR2 SZ I         940 26.01         6.9 0.26            172           19.7 200 
 BRR  HZ EP        940 11.56                             151   -0.1210 75.9 301 
 BRR  HN ES        940 28.61                             151    0.0610 75.9 301 
 BRR  HN I         940 29.15         8.7 0.32            151           75.9 301 
 RUS  HN ES        940 32.08                             146    0.0010 95.9 178 
 CHI  HZ EP        940 27.47                             118    0.00 8  245 196 
                                                                                
