 2012  2 6 0128 29.4 L   6.753 -73.152146.6  RSN  7 0.3 1.5LRSN                1
 GAP=138        0.59       5.2     5.1  7.9  0.1336E+02 -0.5635E+01 -0.8537E+01E
 ACTION:UP  12-03-07 16:28 OP:epov STATUS:               ID:20120206012829 L   I
 2012-02-06-0120-00M.COL___188                                                 6
 STAT SP IPHASW D HRMM SECON CODA AMPLIT PERI AZIMU VELO SNR AR TRES W  DIS CAZ7
 BAR2 SZ EP        128 49.16                             173    0.1010 18.1 191 
 BAR2 SZ I         129  4.77         5.6 0.29                          18.1 191 
 GIR2 SZ EP   1    128 49.10                             165   -0.25 7 36.3 353 
 BRR  HZ EP        128 50.92                             152    0.1410 73.3 302 
 BRR  HE ES   1    129  7.16                             152   -0.28 7 73.3 302 
 BRR  HZ I         129 12.09        12.6 0.13                          73.3 302 
 PAM  SZ EP   2    128 52.04                             150    0.03 5 81.9  38 
 RUS  HZ EP   1    128 52.90                             145    0.00 7 95.4 175 
 RUS  HN ES   1    129 11.41                             145    0.21 7 95.4 175 
 RUS  HZ I         129 12.94         2.1 0.13                          95.4 175 
 PTB  HZ EP   1    128 55.84                             132   -0.48 7  146 261 
 PTB  HN ES   2    129 16.91                             132   -0.38 5  146 261 
 ZAR  HN ES   1    129 28.16                             122    0.63 6  205 294 
 ZAR  HZ I         129 33.14         5.1 0.33                           205 294 
                                                                                
