 2015 12 6 0333 37.5 L   6.808 -73.138143.3  RSN 15 0.5 2.2LRSN                1
 GAP=137        1.11       3.0     4.3  5.7 -0.2547E+01  0.8072E+01 -0.2629E+00E
 Epicentro: LOS SANTOS - SANTANDER                                             3
 ACTION:UPD 16-02-04 15:02 OP:cam  STATUS:               ID:20151206033337 L   I
 OLDACT:UP  15-12-06 14:39 OP:mh   STATUS:               ID:20151206032745     3
 OLDACT:UP  15-12-06 14:38 OP:mh   STATUS:               ID:20151206032745     3
 OLDACT:REG 15-12-06 12:04 OP:mh   STATUS:               ID:20151206032745     3
 2015-12-06-0327-45M.COL___325                                                 6
 STAT SP IPHASW D HRMM SECON CODA AMPLIT PERI AZIMU VELO AIN AR TRES W  DIS CAZ7
 BAR2 EZ EP     C  333 57.01                             170    0.1410 24.3 192 
 BAR2 EZ ES        334 11.42                             170   -0.5510 24.3 192 
 BAR2 EZ I         334 12.86        33.4 0.48            168           24.3 192 
 BRR  HZ IP     D  333 58.91                             152    0.4910 71.6 298 
 BRR  HN ES        334 15.55                             152    0.8210 71.6 298 
 BRR  HZ I         334 18.43        33.2 0.42            148           71.6 298 
 PAM  EZ EP   1    333 59.94                             151    0.54 7 76.2  39 
 PAM  EN ES        334 16.76                             151    0.3010 76.2  39 
 PAM  EZ I         334 18.83        25.8 0.40            154           76.2  39 
 RUS  HZ EP        334  1.08                             143   -0.0010  101 177 
 RUS  HN ES        334 19.18                             143   -0.2810  101 177 
 PTB  HZ EP        334  3.65                             131   -0.73 9  149 259 
 PTB  HN ES        334 24.61                             131   -0.72 9  149 259 
 PTB  HZ I         334 27.20        13.8 0.16            130            149 259 
 OCA  HZ EP        334  5.20                             129   -0.36 9  160 353 
 OCA  HN ES        334 27.35                             129   -0.09 9  160 353 
 OCA  HZ I         334 31.55        43.6 0.30            130            160 353 
 SPBC HZ EP        334  5.93                             128   -0.01 9  164 219 
 SPBC HN ES        334 28.41                             128    0.30 9  164 219 
 SPBC HZ I         334 34.60        23.2 0.22            128            164 219 
 ZAR  HZ EP   1    334  9.85                             122   -0.00 6  205 292 
 ZAR  HN ES        334 34.95                             122   -0.12 9  205 292 
 ZAR  HZ I         334 40.75        18.3 0.30            121            205 292 
 NOR  HZ EP   1    334 13.18                             118   -0.05 6  236 234 
 NOR  HE ES        334 40.87                             118   -0.22 8  236 234 
 NOR  HZ I         334 48.95        11.7 0.18            118            236 234 
 SML  HZ EP        334 13.77                             117   -0.19 8  243 335 
 SML  HN ES        334 41.70                             117   -0.69 8  243 335 
 SML  HZ I         334 47.73        21.7 0.24            117            243 335 
 HEL  HZ EP        334 18.67                             114    0.95 8  273 256 
 HEL  HN ES        334 49.96                             114    0.88 8  273 256 
 HEL  HZ I         334 55.22         8.6 0.40            114            273 256 
 URE  HZ EP   4    334 17.26                             113   -1.26 0  284 292 
 URE  HN ES   4    334 47.80                             113   -2.71 0  284 292 
 URE  HZ I         334 59.74        10.5 0.18            113            284 292 
 GUY2CHZ EP   1    334 21.50                             112    0.36 5  302 235 
 GUY2CHN ES   4    334 56.80                             112    1.62 0  302 235 
 GUY2CHZ I         335  3.52         6.7 0.36                           302 235 
 ORTC HZ EP        334 31.31                             106   -0.18 6  397 216 
 ORTC HN ES        335 13.29                             106   -0.30 6  397 216 
 ORTC HZ I         335 22.20         2.9 0.28            107            397 216 
 SJC  HZ EP   4    334 29.87                             105   -3.10 0  409 327 
 SJC  HN ES   4    335 11.19                             105   -5.03 0  409 327 
 SJC  HZ I         335 16.31         3.1 0.34            106            409 327 
                                                                                
