 2015  7 6 0028 52.2 L   6.791 -73.111141.7  RSN 18 0.5 2.2LRSN                1
 GAP=122        0.99       2.3     3.6  5.2 -0.6243E+00  0.7506E+01  0.1896E+01E
 Epicentro: LOS SANTOS - SANTANDER                                             3
 ACTION:UPD 15-09-08 21:47 OP:cam  STATUS:               ID:20150706002852 L   I
 OLDACT:REG 15-07-06 14:05 OP:spq  STATUS:               ID:20150706002735     3
 2015-07-06-0027-35M.COL___331                                                 6
 STAT SP IPHASW D HRMM SECON CODA AMPLIT PERI AZIMU VELO AIN AR TRES W  DIS CAZ7
 BAR2 EZ EP        029 11.25                             170   -0.1010 23.3 200 
 BAR2 EZ ES        029 25.68                             170   -0.6010 23.3 200 
 BAR2 EZ I         029 27.40        39.4 0.30            168           23.3 200 
 PAM  EZ EP        029 14.34                             151    0.4510 75.8  37 
 PAM  EN ES        029 31.36                             151    0.5510 75.8  37 
 PAM  EZ I         029 34.24        20.5 0.57            154           75.8  37 
 RUS  HZ EP        029 15.98                             143    0.5110 99.4 178 
 RUS  HE ES        029 33.98                             143    0.3610 99.4 178 
 RUS  HZ I         029 36.09        17.1 0.20            145           99.4 178 
 OCA  HZ EP        029 20.06                             128   -0.28 9  162 352 
 OCA  HE ES        029 41.96                             128   -0.34 9  162 352 
 OCA  HZ I         029 47.98        28.9 0.15            130            162 352 
 ZAR  HZ EP   1    029 24.93                             121    0.13 6  208 292 
 ZAR  HE ES        029 49.72                             121   -0.50 8  208 292 
 NOR  HZ EP        029 27.68                             117   -0.30 8  237 235 
 NOR  HN ES        029 55.62                             117   -0.26 8  237 235 
 NOR  HZ I         030  2.65         8.9 0.18            118            237 235 
 SML  HZ EP        029 28.19                             116   -0.69 8  246 335 
 SML  HE ES        029 57.69                             116    0.20 8  246 335 
 SML  HZ I         030  1.87        25.2 0.09            117            246 335 
 CHI  HZ EP   1    029 29.24                             116   -0.44 6  249 196 
 CHI  HN ES        029 58.36                             116   -0.56 8  249 196 
 CHI  HZ I         030  3.01         4.8 0.32            118            249 196 
 ROSC BZ EP   1    029 29.75                             116   -0.48 6  254 212 
 ROSC BN ES        030  0.25                             116    0.36 8  254 212 
 ROSC BZ I         030  6.31        11.6 0.30            117            254 212 
 HEL  HZ EP        029 33.53                             114    0.93 7  276 256 
 HEL  HN ES        030  4.30                             114    0.19 7  276 256 
 HEL  HZ I         030 10.15        10.7 0.28            114            276 256 
 GUY2CHZ EP        029 36.59                             111    0.67 7  304 235 
 GUY2CHN ES        030 10.68                             111    0.67 7  304 235 
 GUY2CHZ I         030 20.07         6.3 0.70                           304 235 
 PTGC HZ EP        029 35.08                             111   -0.53 7  306 159 
 PTGC HN ES        030  8.81                             111   -0.66 7  306 159 
 CBOC HZ EP        029 39.69                             109    0.35 7  337 252 
 DBB  SZ EP   1    029 39.57                             108   -0.40 5  343 274 
 DBB  SZ ES   3    030 15.13                             108   -2.10 2  343 274 
 DBB  SZ I         030 21.61        19.9 0.27            109            343 274 
 TOL  SZ EP   1    029 40.14                             108   -0.39 5  345 225 
 TOL  SN ES        030 18.05                             108   -0.17 6  345 225 
 TOL  SZ I         030 25.61         4.7 0.42            109            345 225 
 MON  HZ EP   4    029 38.34                             108   -3.13 0  357 308 
 MON  HN ES   4    030 16.48                             108   -3.42 0  357 308 
 MON  HZ I         030 32.50         4.0 0.54            108            357 308 
 PRA  HZ EP        029 46.28                             106    0.58 6  393 210 
 PRA  HE ES        030 27.24                             106   -0.20 6  393 210 
 PRA  HZ I         030 35.48         6.0 0.54            107            393 210 
 ORTC HZ EP        029 46.58                             106    0.42 6  397 217 
 ORTC HN ES        030 28.08                             106   -0.16 6  397 217 
 ORTC HZ I         030 36.98         4.3 0.34            107            397 217 
                                                                                
