 2011  9 6 0448 15.4 L   7.405 -73.164139.8  RSN  5 0.2 1.7LRSN                1
 GAP=192        0.41       3.5     4.9  6.4  0.1559E+01 -0.1285E+01 -0.2379E+01E
 Epicentro: EL PLAYON - SANTANDER                                              3
 ACTION:UPD 12-07-13 15:55 OP:ep   STATUS:               ID:20110906044815 L   I
 2011-09-06-0446-06S.COL___171                                                 6
 STAT SP IPHASW D HRMM SECON CODA AMPLIT PERI AZIMU VELO AIN AR TRES W  DIS CAZ7
 GIR2 SZ EP   2    448 34.50                             165   -0.03 5 36.3 185 
 BRR  HZ EP   1    448 35.88                             152    0.09 7 68.9 241 
 BRR  HE ES   2    448 52.19                             152    0.50 5 68.9 241 
 BRR  HZ I         448 53.25        16.2 0.10                          68.9 241 
 BAR2 SZ EP   1    448 37.52                             145    0.06 7 90.0 181 
 BAR2 SZ I         448 37.86         6.9 0.34                          90.0 181 
 BAR2 SZ ES   2    448 54.25                             145   -0.41 5 90.0 181 
 OCA  SZ EP   1    448 37.60                             144   -0.01 7 93.7 349 
 OCA  SZ ES   2    448 54.81                             144   -0.12 5 93.7 349 
 OCA  SZ I         448 58.54         7.2 0.57                          93.7 349 
 ZAR  HZ EP   2    448 45.80                             123    0.05 4  187 273 
 ZAR  HN ES   2    449  9.05                             123   -0.36 4  187 273 
 ZAR  HZ I         449 15.60         5.4 0.38                           187 273 
                                                                                
