 2010  6 6 0647 30.1 L   6.803 -73.068147.3  RSN 12 0.5 2.4LRSN                1
 GAP=148        0.85       4.3     7.2  6.8 -0.2023E+02  0.6055E+01  0.1433E+01E
 Epicentro: LOS SANTOS - SANTANDER                                             3
 ACTION:UP  10-08-24 10:08 OP:vdl  STATUS:               ID:20100606064730 L   I
 2010-06-06-0643-49S.COL___111                                                 6
 STAT SP IPHASW D HRMM SECON CODA AMPLIT PERI AZIMU VELO SNR AR TRES W  DIS CAZ7
 BAR2 SZ IP        647 49.77                             169    -0.210   27 209 
 BAR2 SZ ES   1    648  5.26                             169    -0.3 7   27 209 
 GIR2 SZ EP   2    647 49.96                             166    -0.1 5   34 336 
 GUE  SZ IP        647 54.80                             140     0.010  115   8 
 GRA  SZ IP        647 55.58                             138     0.310  123  14 
 GRA  SZ ES   1    648 15.12                             138     0.2 7  123  14 
 OCA  SZ EP        647 58.42                             130    -0.2 9  161 350 
 OCA  SZ ES   1    648 21.24                             130     0.3 7  161 350 
 OCA  SZ I         648 26.50        32.2 0.35                           161 350 
 CHI  HZ EP   2    648  7.32                             117    -0.9 4  251 197 
 CHI  HE ES   2    648 37.51                             117    -0.4 4  251 197 
 CHI  HZ I         648 45.60        12.7 0.59                           251 197 
 ROSC BZ EP   1    648  9.52                             116     0.7 6  258 213 
 ROSC BE ES   1    648 39.72                             116     0.7 6  258 213 
 ROSC BZ I         648 46.10        22.0 0.47                           258 213 
 HEL  HZ EP   2    648 10.84                             114    -0.5 4  281 256 
 HEL  HE ES   2    648 43.62                             114     0.1 4  281 256 
 HEL  HZ I         648 48.12        11.8 0.20                           281 256 
 RREF BZ EP   1    648 17.86                             111     0.8 5  329 230 
 RREF BN ES   1    648 53.15                             111    -0.6 5  329 230 
 RREF BZ I         648 58.37        18.5 0.18                           329 230 
 DBB  SZ EP   1    648 17.73                             109    -0.9 5  348 274 
 TOL  SZ EP   1    648 19.96                             109     0.8 5  350 226 
 SDV  BZ IP     C  648 19.18                             109    -0.3 6  354  49 
 SDV  BZ I         648 20.11         8.7 0.31                           354  49 
                                                                                
