 2010  7 6 0831 15.5 L   6.791 -73.076154.0  RSN  8 0.4 1.7LRSN                1
 GAP=164        0.87       5.1    12.2  9.6 -0.1109E+02 -0.1858E+02 -0.7182E+00E
 Epicentro: LOS SANTOS - SANTANDER                                             3
 ACTION:UPD 10-12-01 15:15 OP:pat  STATUS:               ID:20100706083115 L   I
 2010-07-06-0827-16S.COL___118                                                 6
 STAT SP IPHASW D HRMM SECON CODA AMPLIT PERI AZIMU VELO AIN AR TRES W  DIS CAZ7
 BAR2 SZ EP   1    831 35.87                             170    -0.3 7   25 208 
 BAR2 SZ ES   2    831 52.07                             170    -0.2 5   25 208 
 BRR  HZ IP     D  831 37.93                             152     0.010   79 297 
 BRR  HZ I         831 39.39        11.4 0.12                            79 297 
 BRR  HN ES   2    831 55.74                             152     0.3 5   79 297 
 RUS  HZ EP   1    831 40.31                             146     0.3 7   99 180 
 RUS  HE ES   2    831 58.79                             146    -0.3 5   99 180 
 RUS  HZ I         831 60.00         4.2 0.48                            99 180 
 BRI  SZ EP   1    831 40.73                             143     0.6 7  107  17 
 BRI  SZ ES   2    832  0.04                             143     0.8 5  107  17 
 GUE  SZ EP   1    831 40.86                             141    -0.1 7  116   8 
 GRA  SZ EP   1    831 40.46                             139    -1.0 7  125  14 
 OCA  SZ EP   1    831 44.86                             131     0.2 7  162 350 
 OCA  SZ ES   2    832  7.14                             131    -0.3 5  162 350 
 OCA  SZ I         832 11.24         8.6 0.32                           162 350 
 CHI  HZ EP   1    831 54.05                             119     0.2 6  250 197 
                                                                                
