 2012  1 6 0323 25.2 L   6.755 -73.148143.9  RSN  5 0.3 1.2LRSN                1
 GAP=138        0.52       3.7     3.9  6.9 -0.5599E+00  0.7778E+01  0.1341E+01E
 Epicentro: LOS SANTOS - SANTANDER                                             3
 ACTION:UP  12-02-03 08:14 OP:REBC STATUS:               ID:20120106032325 L   I
 2012-01-06-0320-00M.COL___186                                                 6
 STAT SP IPHASW D HRMM SECON CODA AMPLIT PERI AZIMU VELO SNR AR TRES W  DIS CAZ7
 BRR  HZ EP   2    323 45.95                             151    -0.3 5   73 302 
 BRR  HN ES   2    324  3.33                             151     0.6 5   73 302 
 BRR  HZ I         324  8.73         4.8 0.38                            73 302 
 PAM  SZ EP   1    323 47.56                             149     0.1 7   81  37 
 PAM  SN ES   1    324  4.59                             149    -0.2 7   81  37 
 RUS  HZ EP   1    323 48.58                             145     0.2 7   96 176 
 RUS  HZ I         323 49.18         1.9 0.29                            96 176 
 RUS  HN ES   1    324  6.44                             145    -0.1 7   96 176 
 PTB  HZ EP   1    323 51.94                             132     0.0 7  147 261 
 PTB  HN ES   2    324 12.25                             132    -0.5 5  147 261 
 ZAR  HN ES   2    324 23.05                             122     0.0 4  206 293 
                                                                                
