 2014 10 6 0340 13.8 L   6.802 -73.117145.1  RSN  6 0.4 1.3LRSN                1
 GAP=140        0.91       4.3     5.9  8.9 -0.6989E+01  0.8303E-01  0.7812E+01E
 Epicentro: LOS SANTOS - SANTANDER                                             3
 ACTION:UPD 14-11-29 23:47 OP:nd   STATUS:               ID:20141006033743 L   I
 OLDACT:UPD 14-10-06 15:05 OP:SPQ  STATUS:               ID:20141006033743 L   3
 2014-10-06-0337-43M.COL___283                                                 6
 STAT SP IPHASW D HRMM SECON CODA AMPLIT PERI AZIMU VELO AIN AR TRES W  DIS CAZ7
 BRR  HZ EP        340 35.62                             151    0.6310 73.9 297 
 BRR  HN ES        340 51.77                             151    0.2210 73.9 297 
 BRR  HZ I         340 56.13         4.3 0.36            152           73.9 297 
 PAM  SZ EP   1    340 36.00                             151    0.22 7 75.3  38 
 PAM  SN ES   1    340 52.37                             151   -0.58 7 75.3  38 
 PAM  SZ I         340 54.57         2.1 0.20            156           75.3  38 
 RUS  HZ EP   1    340 37.52                             144    0.07 7  101 178 
 RUS  HN ES   1    340 55.88                             144   -0.04 7  101 178 
 RUS  HZ I         340 57.40         3.0 0.26            147            101 178 
 PTB  HZ EP   1    340 40.08                             131   -0.88 7  151 259 
 PTB  HN ES   1    341  1.65                             131   -0.52 7  151 259 
 PTB  HZ I         341  5.36         2.8 0.40            133            151 259 
 OCA  HE ES   1    341  4.01                             129   -0.08 7  160 352 
 SPBC HZ EP   1    340 42.20                             128   -0.21 7  165 220 
 SPBC HN ES        341  4.95                             128    0.19 9  165 220 
 SPBC HZ I         341  8.26         4.3 0.18            131            165 220 
                                                                                
