 2016  3 6 0121 43.0 L   6.831 -73.139147.8  RSN  9 0.4 1.8LRSN                1
 GAP=136        1.01       3.9     4.2  6.4 -0.2492E+01  0.9961E+01  0.2121E+01E
 Epicentro: LOS SANTOS - SANTANDER                                             3
 ACTION:UPD 16-05-13 21:21 OP:cam  STATUS:               ID:20160306012143 L   I
 OLDACT:REG 16-03-06 12:53 OP:ar   STATUS:               ID:20160306011751     3
 2016-03-06-0117-51M.COL___328                                                 6
 STAT SP IPHASW D HRMM SECON CODA AMPLIT PERI AZIMU VELO AIN AR TRES W  DIS CAZ7
 BAR2 EZ EP   2    122  2.72                             169   -0.19 5 26.8 190 
 BAR2 EZ ES        122 18.63                             169    0.1510 26.8 190 
 BAR2 EZ I         122 21.42         7.9 0.24            168           26.8 190 
 PAM  EZ EP        122  5.44                             152    0.2210 74.3  41 
 PAM  EN ES        122 22.54                             152   -0.0310 74.3  41 
 PAM  EZ I         122 24.51        15.0 0.46            157           74.3  41 
 RUS  HZ EP        122  6.92                             143   -0.2410  104 177 
 RUS  HN ES        122 25.80                             143   -0.2310  104 177 
 RUS  HZ I         122 27.62         7.6 0.32            145            104 177 
 PTB  HZ EP        122  9.50                             132   -0.73 9  149 258 
 PTB  HN ES        122 31.16                             132   -0.34 9  149 258 
 PTB  HZ I         122 34.44        10.2 0.16            133            149 258 
 SPBC HZ EP        122 12.27                             129    0.35 9  166 218 
 SPBC HN ES        122 34.91                             129    0.41 9  166 218 
 SPBC HZ I         122 38.46         9.4 0.18            130            166 218 
 ZAR  HZ EP        122 16.37                             123    0.88 9  204 291 
 ZAR  HN ES        122 40.83                             123   -0.03 9  204 291 
 ZAR  HZ I         122 46.26        13.2 0.38            125            204 291 
 NOR  HZ EP        122 18.12                             119   -0.97 8  237 234 
 NOR  HN ES        122 47.26                             119   -0.01 8  237 234 
 NOR  HZ I         122 52.50         4.7 0.24            120            237 234 
 CHI  HZ EP        122 21.34                             117    0.19 8  252 195 
 CHI  HN ES        122 51.20                             117    0.26 8  252 195 
 CHI  HZ I         122 55.87         2.2 0.30            119            252 195 
 GUY2CHZ EP   4    122 27.74                             112    0.78 0  304 234 
 GUY2CHE ES        123  1.71                             112    0.43 7  304 234 
 GUY2CHZ I         123 11.05         3.6 0.58                           304 234 
                                                                                
