 2011  9 6 0845 13.2 L   6.813 -73.079147.4  RSN 17 0.3 2.7LRSN                1
 GAP=145        0.37       1.7     2.7  3.1 -0.6620E+00  0.2228E+01  0.1390E+01E
 Epicentro: LOS SANTOS - SANTANDER                                             3
 ACTION:UPD 12-07-13 15:55 OP:ep   STATUS:               ID:20110906084513 L   I
 2011-09-06-0841-38S.COL___171                                                 6
 STAT SP IPHASW D HRMM SECON CODA AMPLIT PERI AZIMU VELO AIN AR TRES W  DIS CAZ7
 BAR2 SZ IP        845 33.10                             169    0.0010 26.9 205 
 BAR2 SZ ES   2    845 48.07                             169   -0.56 5 26.9 205 
 GIR2 SZ EP   1    845 33.24                             167    0.15 7 32.1 337 
 GIR2 SZ ES   2    845 48.93                             167    0.33 5 32.1 337 
 PAM  SZ EP   2    845 35.35                             153    0.09 5 71.8  36 
 PAM  SN ES   2    845 52.46                             153   -0.02 5 71.8  36 
 BRR  HZ IP     D  845 34.95                             151    0.0810 77.2 295 
 BRR  HE ES   2    845 52.00                             151    0.23 5 77.2 295 
 BRR  HZ I         845 54.36        77.4 0.17                          77.2 295 
 RUS  HZ EP   1    845 37.05                             144   -0.14 7  102 180 
 RUS  HN ES   2    845 55.81                             144   -0.10 5  102 180 
 RUS  HZ I         845 57.08        62.6 0.28                           102 180 
 OCA  SZ EP   2    845 41.71                             130    0.11 5  160 350 
 OCA  SZ ES   2    846  3.92                             130    0.16 5  160 350 
 OCA  SZ I         846  8.41        46.6 0.39                           160 350 
 ZAR  HZ EP   2    845 45.68                             122   -0.73 4  210 291 
 ZAR  HN ES   2    846 11.65                             122   -0.66 4  210 291 
 ZAR  HZ I         846 21.67        35.3 0.25                           210 291 
 NOR  SZ EP   2    845 49.44                             118   -0.32 4  242 235 
 NOR  SN ES   2    846 17.95                             118   -0.32 4  242 235 
 CHI  HZ IP     C  845 51.32                             117   -0.03 8  252 197 
 CHI  HN ES   2    846 21.37                             117    0.26 4  252 197 
 CHI  HZ I         846 26.14        23.5 0.27                           252 197 
 ROSC BZ EP   2    845 52.25                             116    0.29 4  258 212 
 ROSC BN ES   2    846 22.17                             116   -0.02 4  258 212 
 ROSC BZ I         846 28.57        46.1 0.79                           258 212 
 HEL  HZ EP   2    845 54.38                             114    0.05 4  280 256 
 HEL  HN ES   2    846 27.07                             114    0.66 4  280 256 
 HEL  HZ I         846 33.38        28.6 0.46                           280 256 
 VIL  SZ EP   2    845 56.70                             112   -0.32 4  306 193 
 VIL  SE ES   2    846 31.33                             112    0.13 4  306 193 
 VIL  SZ I         846 40.30        15.0 0.51                           306 193 
 RREF HZ EP   2    846  0.37                             111    0.22 3  328 230 
 RREF HN ES   2    846 36.97                             111    0.19 3  328 230 
 RREF HZ I         846 44.54        23.8 0.43                           328 230 
 COD  HZ EP   2    846  1.22                             109   -0.35 3  348 353 
 COD  HN ES   2    846 39.33                             109    0.03 3  348 353 
 COD  HZ I         846 49.63        32.0 0.23                           348 353 
 TOL  SZ EP   2    846  2.68                             109    0.45 3  350 225 
 ANIL HZ EP   2    846  4.06                             108    0.28 3  364 225 
 ANIL HN ES   2    846 43.34                             108    0.10 3  364 225 
 ANIL HZ I         846 47.40        58.9 0.42                           364 225 
 PRA  HZ EP   2    846  7.04                             106   -0.30 3  397 210 
 PRA  HN ES   2    846 49.62                             106    0.04 3  397 210 
                                                                                
