 2011  3 6 0415 13.0 L   6.836 -73.680122.2  RSN  5 0.4 1.5LRSN                1
 GAP=149        1.04       6.5    11.0 15.6 -0.3137E+02  0.1255E+03 -0.3840E+02E
 Epicentro: EL CARMEN DE CHUCURI - SANTANDER                                   3
 ACTION:UP  11-06-16 14:32 OP:jfem STATUS:               ID:20110306041513 L   I
 2011-03-06-0415-05S.COL___135                                                 6
 STAT SP IPHASW D HRMM SECON CODA AMPLIT PERI AZIMU VELO SNR AR TRES W  DIS CAZ7
 BAR2 SZ EP   1    415 32.07                             152     0.7 8   61 116 
 BAR2 SZ ES   1    415 45.85                             152     0.2 8   61 116 
 RUS  HZ EP   1    415 35.75                             132    -0.7 8  123 148 
 RUS  HN ES   1    415 54.44                             132    -0.3 8  123 148 
 RUS  HZ I         415 55.70         5.3 0.38                           123 148 
 GRA  SZ EP        415 38.63                             126     0.010  151  40 
 GRA  SZ I         415 39.78         8.4 0.33                           151  40 
 GRA  SZ ES   1    415 58.42                             126    -0.2 7  151  40 
 HEL  HZ EP        415 45.62                             115    -0.2 9  217 251 
 HEL  HZ I         416 30.18         2.1 0.33                           217 251 
 CHI  HZ EP   1    415 49.57                             112     0.6 6  244 181 
 CHI  HZ I         416 28.74         2.6 0.36                           244 181 
                                                                                
