 2015  7 6 0205 16.2 L   6.781 -73.165135.9  RSN 12 0.5 1.5LRSN                1
 GAP=135        1.03       2.7     4.4  6.6 -0.1986E+01  0.1433E+02 -0.9583E-01E
 Epicentro: LOS SANTOS - SANTANDER                                             3
 ACTION:UPD 15-09-08 21:47 OP:cam  STATUS:               ID:20150706020516 L   I
 OLDACT:DUP 15-07-06 18:25 OP:ak   STATUS:               ID:20150706015750d    3
 OLDACT:UP  15-07-06 18:22 OP:ak   STATUS:               ID:20150706015749     3
 OLDACT:REG 15-07-06 14:10 OP:spq  STATUS:               ID:20150706015749     3
 2015-07-06-0157-49M.COL___331                                                 6
 STAT SP IPHASW D HRMM SECON CODA AMPLIT PERI AZIMU VELO AIN AR TRES W  DIS CAZ7
 BAR2 EZ EP   1    2 5 34.33                             171   -0.29 7 21.0 185 
 BAR2 EZ ES        2 5 49.24                             171    0.2810 21.0 185 
 BAR2 EZ I         2 5 51.83         8.5 0.24            170           21.0 185 
 PAM  EZ EP        2 5 38.25                             148    0.6610 80.4  40 
 PAM  EN ES        2 5 53.87                             148   -0.3810 80.4  40 
 PAM  EZ I         2 5 58.06         5.3 0.36            153           80.4  40 
 RUS  HZ EP        2 5 39.23                             142    0.3610 98.7 175 
 RUS  HE ES        2 5 56.37                             142   -0.1610 98.7 175 
 RUS  HZ I         2 5 59.06         2.9 0.42            145           98.7 175 
 OCA  HZ EP   1    2 5 44.06                             127    0.10 7  162 354 
 OCA  HE ES        2 6  5.37                             127   -0.23 9  162 354 
 ZAR  HZ EP   1    2 5 48.01                             120    0.09 6  203 293 
 ZAR  HN ES        2 6 13.42                             120    0.78 9  203 293 
 ZAR  HZ I         2 6 20.90         3.9 0.23            122            203 293 
 NOR  HE ES        2 6 18.68                             117    0.42 8  232 235 
 NOR  HZ I         2 6 25.03         3.6 0.16            119            232 235 
 SML  HZ EP        2 5 52.26                             115   -0.17 8  245 336 
 SML  HN ES        2 6 20.07                             115   -0.60 8  245 336 
 CHI  HZ EP   1    2 5 53.20                             115    0.09 6  246 195 
 CHI  HE ES        2 6 21.10                             115   -0.78 8  246 195 
 HEL  HE ES        2 6 25.75                             113   -0.67 8  269 256 
 GUY2CHZ EP        2 5 59.51                             111    0.46 7  298 235 
 GUY2CHN ES        2 6 31.98                             111   -0.48 7  298 235 
 GUY2CHZ I         2 6 42.98         1.8 0.26                           298 235 
 MON  HZ EP   4    2 5 59.71                             107   -5.11 0  353 309 
 MON  HN ES   4    2 6 40.21                             107   -2.51 0  353 309 
 MON  HZ I         2 6 45.60         0.8 0.25            109            353 309 
 PRA  HZ EP        2 6  8.48                             105   -0.60 6  389 209 
 PRA  HE ES        2 6 50.88                             105    0.57 6  389 209 
 PRA  HZ I         2 6 57.37         1.5 0.60            107            389 209 
                                                                                
