 2011  9 6 0844  5.9 L   6.763 -73.104153.8  RSN  5 0.2 1.6LRSN                1
 GAP=194        0.41       7.6     8.5  7.1  0.4823E+02 -0.1414E+02 -0.1777E+02E
 Epicentro: LOS SANTOS - SANTANDER                                             3
 ACTION:UPD 12-07-13 15:55 OP:ep   STATUS:               ID:20110906084405 L   I
 2011-09-06-0841-38S.COL___171                                                 6
 STAT SP IPHASW D HRMM SECON CODA AMPLIT PERI AZIMU VELO AIN AR TRES W  DIS CAZ7
 BAR2 SZ EP   1    844 26.22                             172   -0.23 7 20.7 205 
 BAR2 SZ ES   2    844 42.14                             172   -0.34 5 20.7 205 
 BAR2 SZ I         844 43.22         6.1 0.41                          20.7 205 
 GIR2 SZ EP   2    844 26.95                             166    0.28 5 36.3 344 
 BRR  HZ EP   1    844 28.34                             152    0.08 7 77.2 300 
 BRR  HZ I         844 28.60        17.0 0.15                          77.2 300 
 BRR  HN ES   2    844 45.97                             152    0.27 5 77.2 300 
 RUS  HZ EP   2    844 30.18                             147    0.02 5 96.3 179 
 RUS  HE ES   2    844 49.34                             147    0.27 5 96.3 179 
 RUS  HZ I         844 50.29         2.4 0.66                          96.3 179 
 ZAR  HE ES   2    845  5.44                             123   -0.22 4  210 293 
 ZAR  HZ I         845 10.18         3.0 0.62                           210 293 
                                                                                
