 2011  4 6 0302 34.9 L   6.765 -73.107149.0  RSN 10 0.3 2.2LRSN                1
 GAP=181        0.50       2.8     6.3  4.4 -0.9680E+01  0.2788E+01  0.1288E+01E
 Epicentro: LOS SANTOS - SANTANDER                                             3
 ACTION:UP  11-06-22 15:29 OP:REBC STATUS:               ID:20110406030234 L   I
 2011-04-06-0258-39S.COL___125                                                 6
 STAT SP IPHASW D HRMM SECON CODA AMPLIT PERI AZIMU VELO SNR AR TRES W  DIS CAZ7
 BAR2 SZ EP   1    3 2 55.05                             172     0.2 8   21 204 
 BAR2 SZ ES   1    3 3 10.25                             172    -0.2 8   21 204 
 BAR2 SZ I         3 3 12.81        43.1 0.46                            21 204 
 BTL  SZ EP   2    3 2 55.36                             171     0.4 5   25 314 
 GIR2 SZ EP   1    3 2 55.11                             166     0.0 8   36 345 
 BRR  HN ES   2    3 3 13.74                             151     0.0 5   77 300 
 GRA  SZ EP        3 3  0.73                             137     0.110  128  15 
 GRA  SZ I         3 3  2.11        25.5 0.33                           128  15 
 GRA  SZ ES   1    3 3 20.90                             137     0.2 7  128  15 
 OCA  SZ EP        3 3  3.49                             130    -0.4 9  165 352 
 OCA  SZ ES   1    3 3 26.36                             130    -0.1 7  165 352 
 OCA  SZ I         3 3 31.86        21.7 0.29                           165 352 
 CHI  HZ EP   1    3 3 12.39                             118    -0.1 6  246 196 
 CHI  HN ES   2    3 3 41.69                             118    -0.1 4  246 196 
 CHI  HZ I         3 3 50.08         6.4 0.34                           246 196 
 HEL  HZ EP   2    3 3 16.40                             115     0.8 4  275 257 
 HEL  HZ I         3 3 53.20         8.8 0.34                           275 257 
 RREF HZ EP   2    3 3 21.19                             111    -0.1 4  323 230 
 RREF HN ES   2    3 3 57.13                             111    -0.3 4  323 230 
 RREF HZ I         3 4  3.62         9.3 0.21                           323 230 
 PRA  HZ EP   2    3 3 28.20                             107    -0.2 3  391 210 
 PRA  HN ES   2    3 4 10.44                             107     0.3 3  391 210 
                                                                                
