 2016 11 6 0011 30.7 L   6.798 -73.110149.9  RSN  8 0.6 1.7LRSN                1
 GAP=159        0.97       5.6     5.2  8.2 -0.1411E+02  0.6199E+01  0.3094E+01E
 Epicentro: LOS SANTOS - SANTANDER                                             3
 ACTION:UPD 17-10-26 21:05 OP:lp   STATUS:               ID:20161106001130 L   I
 OLDACT:UP  16-11-06 13:22 OP:dani STATUS:               ID:20161106000744     3
 OLDACT:UP  16-11-06 13:21 OP:dani STATUS:               ID:20161106000744     3
 OLDACT:UP  16-11-06 13:21 OP:dani STATUS:               ID:20161106000744     3
 OLDACT:UP  16-11-06 13:11 OP:dani STATUS:               ID:20161106000744     3
 OLDACT:UP  16-11-06 13:09 OP:dani STATUS:               ID:20161106000744     3
 OLDACT:UP  16-11-06 13:09 OP:dani STATUS:               ID:20161106000744     3
 OLDACT:REG 16-11-06 12:15 OP:dani STATUS:               ID:20161106000744     3
 2016-11-06-0008-00M.COL___346                                                 6
 STAT SP IPHASW D HRMM SECON CODA AMPLIT PERI AZIMU VELO AIN AR TRES W  DIS CAZ7
 BRR  HZ EP        011 52.78                             152    0.3110 74.8 297 
 BRR  HN ES        012  9.59                             152    0.1210 74.8 297 
 BRR  HZ I         012 13.97         9.9 0.36            154           74.8 297 
 PAM  EZ EP        011 53.89                             152    0.6910 75.1  37 
 PAM  EN ES        012 10.50                             152   -0.2810 75.1  37 
 PAM  EZ I         012 13.21         7.0 0.38            145           75.1  37 
 PTB  HZ EP        011 58.00                             132   -0.32 9  152 259 
 PTB  HE ES        012 19.82                             132   -0.07 9  152 259 
 PTB  HZ I         012 21.69         6.6 0.12            124            152 259 
 SPBC HN ES        012 21.76                             130   -0.59 9  165 220 
 ZAR  HZ EP   3    012  2.43                             123   -1.34 2  208 292 
 ZAR  HN ES        012 29.79                             123    0.20 8  208 292 
 ZAR  HZ I         012 35.55         4.3 0.21            116            208 292 
 NOR  HN ES        012 35.47                             119    0.19 8  238 235 
 CHI  HZ EP   3    012 10.81                             118    2.12 2  249 196 
 CHI  HZ I         012 41.66         1.5 0.19            107            249 196 
 SJC  HZ EP        012 25.82                             106   -0.83 6  412 327 
 SJC  HN ES   3    013  8.06                             106   -2.25 1  412 327 
 SJC  HZ I         013 11.47         1.5 0.33            100            412 327 
                                                                                
