 2013  4 6 0047 52.3 L   6.795 -73.152149.4  RSN 11 0.5 2.5LRSN                1
 GAP=182        1.13       3.5     5.5  5.7  0.4336E+00  0.7194E+01  0.3587E+00E
 Epicentro: LOS SANTOS - SANTANDER                                             3
 ACTION:UPD 13-05-22 14:36 OP:EP   STATUS:               ID:20130406004752 L   I
 2013-04-06-0045-46M.COL___221                                                 6
 STAT SP IPHASW D HRMM SECON CODA AMPLIT PERI AZIMU VELO AIN AR TRES W  DIS CAZ7
 BAR2 SZ EP        048 12.54                             171    0.1610 22.7 188 
 BAR2 SZ ES        048 27.85                             171   -0.1810 22.7 188 
 BAR2 SZ I         048 29.35        94.0 0.36            163           22.7 188 
 GIR2 SZ EP        048 12.65                             167    0.2010 31.7 352 
 GIR2 SZ ES        048 28.62                             167    0.4810 31.7 352 
 GIR2 SZ I         048 30.11        64.3 0.40            162           31.7 352 
 BRR  HZ EP        048 14.46                             153    0.6110 70.8 299 
 BRR  HN ES        048 31.27                             153    0.6310 70.8 299 
 BRR  HZ I         048 35.73        57.9 0.14            144           70.8 299 
 RUS  HZ EP     D  048 16.35                             145   -0.0510  100 176 
 RUS  HE ES        048 34.88                             145   -0.3010  100 176 
 PTB  HZ EP        048 19.20                             133   -0.32 9  147 259 
 PTB  HN ES        048 40.15                             133   -0.59 9  147 259 
 PTB  HZ I         048 46.51        54.7 0.28            125            147 259 
 OCA  HZ EP        048 20.22                             130   -0.75 9  161 353 
 OCA  HN ES   1    048 42.85                             130   -0.45 7  161 353 
 OCA  HZ I         048 47.65        32.7 0.28            127            161 353 
 ZAR  HZ EP        048 24.96                             123   -0.01 9  204 292 
 ZAR  HN ES   1    048 50.52                             123    0.09 6  204 292 
 ZAR  HZ I         048 56.13        26.4 0.48            117            204 292 
 NOR  HZ EP        048 28.24                             120    0.06 8  234 234 
 NOR  HN ES        048 55.64                             120   -0.50 8  234 234 
 NOR  HZ I         049  4.32        23.1 0.20            114            234 234 
 SML  HZ EP        048 29.02                             118   -0.16 8  244 335 
 SML  HN ES   1    048 57.42                             118   -0.51 6  244 335 
 CHI  HZ EP        048 30.34                             118    0.19 8  248 195 
 CHI  HN ES        048 59.49                             118   -0.17 8  248 195 
 CHI  HZ I         049  9.43        13.3 0.38            114            248 195 
 HEL  HZ EP   1    048 34.52                             116    1.88 6  271 256 
 HEL  HZ I         049 11.22        15.7 0.36            111            271 256 
                                                                                
