 2012  5 6 0024 41.2 L   6.764 -73.103150.0  RSN  8 0.4 2.1LRSN                1
 GAP=144        0.81       4.6     4.7  6.4  0.2027E+01  0.8858E+01  0.3943E+01E
 Epicentro: LOS SANTOS - SANTANDER                                             3
 ACTION:UP  12-07-05 12:02 OP:pat  STATUS:               ID:20120506002441 L   I
 2012-05-06-0020-00M.COL___192                                                 6
 STAT SP IPHASW D HRMM SECON CODA AMPLIT PERI AZIMU VELO SNR AR TRES W  DIS CAZ7
 BAR2 SZ EP   1    025  1.20                             172    -0.1 7   21 205 
 BAR2 SZ ES   1    025 16.61                             172    -0.3 7   21 205 
 BAR2 SZ I         025 17.45        32.6 0.40                            21 205 
 BRR  HZ EP        025  3.03                             151    -0.110   77 299 
 BRR  HZ I         025  3.36        62.2 0.16                            77 299 
 BRR  HN ES   1    025 20.98                             151     0.7 7   77 299 
 PAM  SZ EP   1    025  3.90                             151     0.0 7   78  35 
 PAM  SE ES   1    025 21.64                             151     0.1 7   78  35 
 RUS  HZ EP   1    025  5.05                             146     0.0 7   96 179 
 RUS  HN ES   1    025 23.73                             146     0.0 7   96 179 
 RUS  HZ I         025 25.06         9.5 0.31                            96 179 
 PTB  HZ EP   1    025  8.09                             132    -0.8 7  152 261 
 PTB  HE ES   1    025 30.10                             132    -0.3 7  152 261 
 PTB  HZ I         025 36.53        16.0 0.38                           152 261 
 ZAR  HZ EP   1    025 14.70                             122     0.2 6  210 293 
 ZAR  HE ES   1    025 40.25                             122    -0.3 6  210 293 
 ZAR  HZ I         025 47.50        11.5 0.52                           210 293 
 CHI  HZ EP   1    025 19.09                             118     0.2 6  246 196 
 CHI  HZ I         025 21.85         5.5 0.45                           246 196 
 CHI  HN ES   2    025 48.69                             118     0.5 4  246 196 
 HEL  HZ EP   1    025 22.41                             115     0.4 6  276 257 
 HEL  HN ES   2    025 54.67                             115     0.8 4  276 257 
 HEL  HZ I         025 59.83         7.3 0.38                           276 257 
                                                                                
