 2012 11 6 0712 10.4 L   6.764 -73.183145.2  RSN  6 0.4 1.6LRSN                1
 GAP=114        0.95       8.9     7.6  8.0  0.4814E+02 -0.2023E+02 -0.1805E+02E
 Epicentro: VILLANUEVA - SANTANDER                                             3
 ACTION:UPD 12-12-05 15:31 OP:}ep  STATUS:               ID:20121106071210 L   I
 2012-11-06-0710-00M.COL___230                                                 6
 STAT SP IPHASW D HRMM SECON CODA AMPLIT PERI AZIMU VELO AIN AR TRES W  DIS CAZ7
 BAR2 SZ EP   2    712 30.01                             172    0.14 5 19.0 180 
 BAR2 SZ ES        712 44.62                             172   -0.4510 19.0 180 
 BAR2 SZ I         712 48.19        11.8 0.48                          19.0 180 
 GIR2 SZ EP   1    712 29.64                             166   -0.46 7 34.8 358 
 BRR  HZ EP        712 31.62                             153    0.2310 69.7 303 
 BRR  HN ES        712 48.41                             153    0.6310 69.7 303 
 BRR  HZ I         712 52.75         4.1 0.42                          69.7 303 
 RUS  HZ EP        712 34.17                             145    0.3410 97.0 173 
 RUS  HN ES   1    712 52.03                             145   -0.08 7 97.0 173 
 RUS  HN I         712 54.09         6.7 0.38                          97.0 173 
 TAM  HZ EP        712 38.20                             130   -0.10 9  158 103 
 ZAR  HN ES        713  7.12                             122   -0.55 9  202 294 
 ZAR  HN I         713 13.62         5.5 0.16                           202 294 
                                                                                
