 2016 11 6 0254 28.4 L   6.845 -73.156151.1  RSN 14 0.6 2.2LRSN                1
 GAP=143        1.07       4.3     4.4  6.0 -0.4223E+01  0.5607E+01  0.7657E+01E
 Epicentro: LOS SANTOS - SANTANDER                                             3
 ACTION:UPD 17-10-26 21:05 OP:lp   STATUS:               ID:20161106025428 L   I
 OLDACT:UP  16-11-06 14:50 OP:dani STATUS:               ID:20161106024745     3
 OLDACT:UP  16-11-06 14:49 OP:dani STATUS:               ID:20161106024745     3
 OLDACT:UP  16-11-06 14:47 OP:dani STATUS:               ID:20161106024745     3
 OLDACT:REG 16-11-06 12:28 OP:dani STATUS:               ID:20161106024745     3
 2016-11-06-0248-00M.COL___346                                                 6
 STAT SP IPHASW D HRMM SECON CODA AMPLIT PERI AZIMU VELO AIN AR TRES W  DIS CAZ7
 BAR2 EZ EP     D  254 48.57                             169   -0.1710 28.1 186 
 BAR2 HE ES        255  4.08                             169   -0.5610 28.1 186 
 BAR2 EZ I         255  4.84        47.2 0.22            168           28.1 186 
 BRR  HZ EP        254 50.31                             154    0.3910 67.9 295 
 BRR  HN ES        255  7.61                             154    0.8810 67.9 295 
 BRR  HZ I         255 10.62        27.0 0.46            152           67.9 295 
 PAM  EZ EP     D  254 51.53                             152    0.5510 74.4  43 
 PAM  EE ES        255  8.41                             152   -0.2110 74.4  43 
 PAM  EZ I         255 10.77        48.4 0.50            157           74.4  43 
 PTB  HZ EP     D  254 55.34                             133   -0.43 9  148 257 
 PTB  HN ES        255 16.33                             133   -0.81 9  148 257 
 PTB  HZ I         255 23.89        11.5 0.30            133            148 257 
 SPBC HZ EP     D  254 57.39                             130   -0.19 9  166 218 
 SPBC HN ES   3    255 19.35                             130   -1.02 2  166 218 
 SPBC HZ I         255 24.40        35.4 0.26            130            166 218 
 ZAR  HZ EP        255  1.19                             124    0.32 9  201 291 
 ZAR  HE ES        255 25.69                             124   -0.53 9  201 291 
 ZAR  HZ I         255 33.22        11.7 0.28            124            201 291 
 NOR  HZ EP        255  4.74                             119    0.12 8  237 233 
 NOR  HN ES        255 33.15                             119    0.24 8  237 233 
 NOR  HZ I         255 35.13        11.1 0.14            120            237 233 
 CHI  HZ EP        255  6.58                             118   -0.27 8  253 195 
 CHI  HE ES   3    255 35.96                             118   -0.92 2  253 195 
 CHI  HZ I         255 39.56        10.0 0.56            119            253 195 
 ROSC BZ EP   3    255  8.40                             117    1.22 2  256 210 
 ROSC BN ES        255 37.95                             117    0.49 8  256 210 
 ROSC BZ I         255 40.68        17.3 0.35            119            256 210 
 HEL  HN ES        255 41.03                             116    0.56 8  272 255 
 LL6C HZ EP   9    254 53.86                             112   -19.9 0  320 358 
 LL6C HN ES        255 29.66                                    0.42 7  320 358 
 ORTC HZ EP        255 23.40                             107    0.54 6  399 216 
 ORTC HN ES        256  5.40                             107    0.03 6  399 216 
 ORTC HZ I         256  9.91         5.0 0.26            108            399 216 
 SJC  HZ EP        255 22.77                             107   -0.77 6  404 327 
 SJC  HE ES   3    256  3.86                             107   -2.72 1  404 327 
 SJC  HZ I         256 11.06         2.9 0.23            108            404 327 
 URI  HZ EP   3    255 39.26                             101   -1.68 1  552  13 
                                                                                
