 2017  1 6 0142 12.2 L   6.600 -72.836  4.0  RSN  8 0.5 1.3LRSN                1
 GAP=100        1.38       3.1     4.6  6.4 -0.2544E+01  0.3216E+01 -0.1268E+01E
 Epicentro: MOLAGAVITA - SANTANDER                                             3
 ACTION:UPD 17-05-22 15:56 OP:jn   STATUS:               ID:20170106014212 L   I
 OLDACT:UP  17-01-06 13:36 OP:and  STATUS:               ID:20170106013745     3
 OLDACT:UP  17-01-06 13:34 OP:and  STATUS:               ID:20170106013745     3
 OLDACT:UP  17-01-06 13:31 OP:and  STATUS:               ID:20170106013745     3
 OLDACT:UP  17-01-06 13:30 OP:and  STATUS:               ID:20170106013745     3
 OLDACT:REG 17-01-06 12:27 OP:and  STATUS:               ID:20170106013745     3
 2017-01-06-0138-00M.COL___381                                                 6
 STAT SP IPHASW D HRMM SECON CODA AMPLIT PERI AZIMU VELO AIN AR TRES W  DIS CAZ7
 BAR2 EZ IP     D  142 18.07                              47   -0.7310 38.3 269 
 BAR2 EZ ES   4    142 22.14                              47   -1.84 0 38.3 269 
 BAR2 EZ I         142 23.74        32.9 0.21             47           38.3 269 
 RUS  HZ EP        142 26.18                              47    0.3710 82.9 199 
 RUS  HE ES        142 35.98                              47   -0.4910 82.9 199 
 RUS  HZ I         142 37.53        11.5 0.18             47           82.9 199 
 PAM  EZ EP        142 26.06                              47    0.2010 83.2  10 
 PAM  EN ES        142 35.89                              47   -0.6610 83.2  10 
 PAM  EZ I         142 36.31         4.1 0.18             47           83.2  10 
 BRR  HZ EP        142 30.56                              47    0.8610  112 300 
 BRR  HN ES        142 43.42                              47    0.0310  112 300 
 BRR  HZ I         142 44.92         7.5 0.14             47            112 300 
 TAM  HZ EP   9    142 33.08                              47    2.56 0  117  99 
 TAM  HE ES        142 48.19                              47    0.7810  117  99 
 PTB  HZ EP   2    142 40.86                              37    1.01 4  179 268 
 PTB  HE ES        143  1.54                              37    0.09 9  179 268 
 CHI  HZ EP   4    142 53.42                              37    5.58 0  239 205 
 CHI  HN ES   4    143 22.88                              37    7.20 0  239 205 
 CHI  HZ I         143 27.79         1.4 0.36             37            239 205 
 ZAR  HZ EP   4    142 49.60                              37    1.65 0  244 294 
 ZAR  HE ES        143 16.14                              37    0.27 8  244 294 
 ZAR  HZ I         143 18.56         4.2 0.22             37            244 294 
                                                                                
