 2017  1 6 0256 47.0 L   6.758 -73.124141.7  RSN  5 0.2 1.3LRSN                1
 GAP=141        0.65       3.4     4.7  5.0 -0.5741E+00 -0.5724E+01  0.1643E+00E
 Epicentro: LOS SANTOS - SANTANDER                                             3
 ACTION:UPD 17-05-22 15:56 OP:jn   STATUS:               ID:20170106025647 L   I
 OLDACT:UP  17-01-06 14:15 OP:and  STATUS:               ID:20170106024742d    3
 OLDACT:DUP 17-01-06 14:12 OP:and  STATUS:               ID:20170106024742d    3
 OLDACT:UP  17-01-06 14:11 OP:and  STATUS:               ID:20170106024741d    3
 OLDACT:UP  17-01-06 14:07 OP:and  STATUS:               ID:20170106024741d    3
 OLDACT:DUP 17-01-06 14:04 OP:and  STATUS:               ID:20170106024741d    3
 OLDACT:UP  17-01-06 14:00 OP:and  STATUS:               ID:20170106024739     3
 OLDACT:REG 17-01-06 12:31 OP:and  STATUS:               ID:20170106024739     3
 2017-01-06-0248-00M.COL___381                                                 6
 STAT SP IPHASW D HRMM SECON CODA AMPLIT PERI AZIMU VELO AIN AR TRES W  DIS CAZ7
 BAR2 EZ EP        257  5.87                             172   -0.2410 19.4 200 
 BAR2 EZ ES        257 20.65                             172   -0.3310 19.4 200 
 BAR2 EZ I         257 21.63         4.8 0.16            169           19.4 200 
 BRR  HZ EP        257  7.72                             150   -0.2910 75.6 301 
 BRR  HN ES        257 24.70                             150    0.3310 75.6 301 
 PAM  EZ EP     D  257  8.94                             149   -0.0210 79.6  36 
 PAM  EE ES        257 26.21                             149    0.1510 79.6  36 
 RUS  HZ EP     C  257 10.32                             144    0.2710 95.8 177 
 RUS  HN ES        257 28.12                             144    0.1310 95.8 177 
 RUS  HZ I         257 29.57         4.0 0.28            143           95.8 177 
 PTB  HZ EP   9    257 12.68                             131   -1.14 0  149 261 
 PTB  HN ES        257 33.44                             132   -0.13 9  149 261 
 PTB  HZ I         257 37.84         1.8 0.13            129            149 261 
                                                                                
