 2013  1 6 0350 11.9 L   6.785 -73.246140.8  RSN  5 0.5 1.5LRSN                1
 GAP=165        1.15       5.8     7.5  8.6  0.4218E+01  0.9180E+01 -0.5829E+01E
 Epicentro: ZAPATOCA - SANTANDER                                               3
 ACTION:UPD 13-02-15 09:12 OP:ep   STATUS:               ID:20130106035011 L   I
 2013-01-06-0349-48M.COL___187                                                 6
 STAT SP IPHASW D HRMM SECON CODA AMPLIT PERI AZIMU VELO AIN AR TRES W  DIS CAZ7
 BAR2 SZ EP   1    350 29.96                             171   -0.97 7 22.5 162 
 BAR2 SZ ES        350 46.10                             171    0.3410 22.5 162 
 BAR2 SZ I         350 46.77         8.1 0.18            170           22.5 162 
 RUS  HZ EP        350 34.60                             143   -0.5710  100 170 
 RUS  HE ES        350 53.38                             143    0.0910  100 170 
 RUS  HN I         350 54.99         5.0 0.48            143            100 170 
 PTB  HZ EP        350 37.88                             133    0.41 9  137 259 
 PTB  HN ES        350 57.01                             133   -0.39 9  137 259 
 OCA  HZ EP        350 40.38                             128    0.47 9  161 357 
 CHI  HZ EP        350 48.71                             117   -0.17 8  244 193 
 CHI  HN ES        351 18.32                             117    0.61 8  244 193 
                                                                                
