 2014 10 6 0641 20.2 L   7.545 -73.575110.7  RSN  4 0.4 1.3LRSN                1
 GAP=159        0.78       4.4     6.1 13.4 -0.4429E+01  0.4040E+02  0.9926E+01E
 Epicentro: SABANA DE TORRES - SANTANDER                                       3
 ACTION:UPD 14-11-29 23:47 OP:nd   STATUS:               ID:20141006064120 L   I
 OLDACT:REG 14-10-06 16:10 OP:fm   STATUS:               ID:20141006063749     3
 2014-10-06-0637-49M.COL___286                                                 6
 STAT SP IPHASW D HRMM SECON CODA AMPLIT PERI AZIMU VELO AIN AR TRES W  DIS CAZ7
 OCA  HZ EP   1    641 38.58                             141   -0.06 7 81.7  20 
 OCA  HN ES   1    641 53.36                             141    0.30 7 81.7  20 
 OCA  HZ I         641 55.87         4.2 0.28            148           81.7  20 
 PAM  SN ES   1    641 55.76                             135   -0.67 7 99.3 103 
 PAM  SZ I         641 59.32         7.0 0.18            141           99.3 103 
 BAR2 SZ EP   1    641 41.85                             131    0.35 7  114 158 
 BAR2 SZ ES   1    641 58.68                             131    0.53 7  114 158 
 BAR2 SZ I         642  1.91         4.0 0.36            136            114 158 
 PTB  HZ EP   1    641 44.34                             123   -0.18 7  148 221 
 PTB  HN ES   1    642  3.23                             123   -0.30 7  148 221 
 PTB  HZ I         642  4.82         2.4 0.18            129            148 221 
                                                                                
