 2012  3 6 0125 12.1 L   6.483 -73.744 79.1  RSN  4 0.1 1.2LRSN                1
 GAP=196        0.42       4.6     3.0  7.6 -0.4181E+01  0.6025E+01  0.2290E+01E
 ACTION:UP  12-03-31 23:17 OP:EP   STATUS:               ID:20120306012512 L   I
 2012-03-06-0120-00M.COL___191                                                 6
 STAT SP IPHASW D HRMM SECON CODA AMPLIT PERI AZIMU VELO SNR AR TRES W  DIS CAZ7
 BAR2 SZ ES   2    125 37.39                             138     0.0 5   63  79 
 BAR2 SZ I         125 40.19         6.1 0.17                            63  79 
 BRR  HZ EP   1    125 26.68                             135     0.2 7   69   3 
 BRR  HE ES   1    125 37.55                             135    -0.1 7   69   3 
 BRR  HZ I         125 39.09         6.7 0.26                            69   3 
 PTB  HZ EP   1    125 27.20                             131    -0.2 7   79 275 
 PTB  HE ES   1    125 39.42                             131     0.1 7   79 275 
 PTB  HZ I         125 41.62         0.0 0.07                            79 275 
 ZAR  HN ES   2    125 56.08                             110     0.0 5  166 312 
                                                                                
