 2012  3 6 0336 28.2 L   6.830 -73.108132.1  RSN  4 0.5 1.4LRSN                1
 GAP=244        1.09      11.2    11.0 11.8  0.6496E+02  0.1055E+02  0.1393E+01E
 ACTION:UP  12-03-31 23:17 OP:EP   STATUS:               ID:20120306033628 L   I
 2012-03-06-0330-00M.COL___191                                                 6
 STAT SP IPHASW D HRMM SECON CODA AMPLIT PERI AZIMU VELO SNR AR TRES W  DIS CAZ7
 BAR2 SZ EP   1    336 46.58                             168     0.3 7   28 197 
 BAR2 SZ ES   1    336 59.91                             168    -0.5 7   28 197 
 BAR2 SZ I         337  2.77         6.4 0.28                            28 197 
 BRR  HZ EP   1    336 48.57                             149     0.6 7   73 295 
 BRR  HN ES   1    337  3.39                             149    -0.1 7   73 295 
 BRR  HZ I         337  6.10         7.5 0.12                            73 295 
 RUS  HZ EP   1    336 50.80                             140    -0.1 7  104 178 
 RUS  HZ I         336 51.94         2.4 0.15                           104 178 
 RUS  HN ES   1    337  8.79                             140     0.2 7  104 178 
 PTB  HZ EP   1    336 53.57                             128    -1.0 7  152 258 
 PTB  HN ES   1    337 15.47                             128     0.4 7  152 258 
 PTB  HZ I         337 16.36                                            152 258 
                                                                                
