 2017  3 6 0552 55.2 L   6.768 -73.109141.2  RSN 13 0.5 1.7LRSN                1
 GAP= 96        0.96       3.8     3.0  5.3 -0.2777E+01  0.1938E+01  0.4389E+01E
 Epicentro: LOS SANTOS - SANTANDER                                             3
 ACTION:UPD 17-05-25 18:36 OP:jn   STATUS:               ID:20170306055255 L   I
 OLDACT:UP  17-03-06 15:22 OP:and  STATUS:               ID:20170306054743     3
 OLDACT:UP  17-03-06 15:21 OP:and  STATUS:               ID:20170306054743     3
 OLDACT:UP  17-03-06 15:21 OP:and  STATUS:               ID:20170306054743     3
 OLDACT:UP  17-03-06 15:21 OP:and  STATUS:               ID:20170306054743     3
 OLDACT:UP  17-03-06 15:20 OP:and  STATUS:               ID:20170306054743     3
 OLDACT:UP  17-03-06 15:19 OP:and  STATUS:               ID:20170306054743     3
 OLDACT:UP  17-03-06 15:19 OP:and  STATUS:               ID:20170306054743     3
 OLDACT:UP  17-03-06 15:18 OP:and  STATUS:               ID:20170306054743     3
 OLDACT:REG 17-03-06 12:22 OP:and  STATUS:               ID:20170306054743     3
 2017-03-06-0548-00M.COL___387                                                 6
 STAT SP IPHASW D HRMM SECON CODA AMPLIT PERI AZIMU VELO AIN AR TRES W  DIS CAZ7
 BAR2 EZ IP     C  553 13.91                             171   -0.3310 21.0 203 
 BAR2 EZ ES        553 28.42                             171   -0.6710 21.0 203 
 BAR2 EZ I         553 32.04        14.4 0.44            171           21.0 203 
 BRR  HZ IP     C  553 15.75                             150   -0.4210 76.4 299 
 BRR  HN ES        553 33.29                             150    0.7610 76.4 299 
 BRR  HZ I         553 36.93         6.5 0.08            149           76.4 299 
 PAM  EZ EP        553 16.64                             150   -0.3110 77.7  36 
 PAM  EN ES        553 33.98                             150    0.0610 77.7  36 
 PAM  EZ I         553 35.75        10.0 0.50            146           77.7  36 
 RUS  HZ EP   2    553 18.61                             144    0.38 5 96.8 178 
 RUS  HN ES        553 36.51                             144    0.3110 96.8 178 
 RUS  HZ I         553 37.77        11.1 0.26            141           96.8 178 
 TAM  HZ EP        553 22.20                             131    0.13 9  150 104 
 TAM  HZ I         553 40.85         4.8 0.40            126            150 104 
 TAM  HN ES        553 43.57                             131    0.54 9  150 104 
 PTB  HZ EP   9    553 20.60                             130   -1.51 0  151 260 
 PTB  HN ES        553 41.69                             131    0.10 9  151 260 
 PTB  HZ I         553 44.09         7.0 0.19            128            151 260 
 SPBC HZ EP        553 22.96                             128   -0.38 9  163 221 
 SPBC HN ES        553 45.24                             128   -0.05 9  163 221 
 SPBC HZ I         553 46.78        13.7 0.16            125            163 221 
 ZAR  HN ES   3    553 54.52                             121    1.15 2  209 293 
 NOR  HZ EP   3    553 31.89                             118    1.09 2  236 236 
 NOR  HN ES        553 58.90                             118    0.32 8  236 236 
 NOR  HZ I         554  0.61         5.0 0.22            115            236 236 
 CHI  HZ EP        553 32.21                             117   -0.18 8  246 196 
 CHI  HN ES        554  1.39                             117   -0.02 8  246 196 
 CHI  HZ I         554  6.89         2.6 0.32            114            246 196 
 ROSC BZ EP   4    553 34.60                             116    1.63 0  252 212 
 ROSC BN ES   4    554  5.75                             116    3.31 0  252 212 
 ROSC BZ I         554  6.33         4.7 0.45            113            252 212 
 HEL  HZ EP   3    553 36.90                             114    1.37 2  275 257 
 HEL  HN ES        554  7.54                             114    0.56 8  275 257 
 HEL  HZ I         554 12.41         3.8 0.28            111            275 257 
 PTGC HZ EP   4    553 36.85                             111   -1.46 0  304 159 
 PTGC HN ES   4    554  9.64                             111   -2.30 0  304 159 
 CBOC HZ EP        553 42.45                             109    0.20 7  336 253 
 CBOC HN ES        554 18.12                             109   -0.83 7  336 253 
 CBOC HZ I         554 24.03         1.2 0.26            107            336 253 
 SJC  HZ EP   4    553 48.34                             105   -2.88 0  414 327 
 SJC  HN ES   4    554 29.86                             105   -5.06 0  414 327 
                                                                                
