 2011  6 6 0601 48.5 L   6.821 -73.188132.0  RSN 12 0.5 2.5LRSN                1
 GAP=130        1.13       3.9     7.0  8.6 -0.1425E+02  0.2857E+02 -0.2034E+01E
 Epicentro: ZAPATOCA - SANTANDER                                               3
 ACTION:UP  11-07-14 19:03 OP:ep   STATUS:               ID:20110606060148 L   I
 2011-06-06-0600-13S.COL___132                                                 6
 STAT SP IPHASW D HRMM SECON CODA AMPLIT PERI AZIMU VELO SNR AR TRES W  DIS CAZ7
 BAR2 SZ IP        6 2  6.36                             169    -0.110   25 179 
 BAR2 SZ ES   1    6 2 20.96                             169     0.4 7   25 179 
 BAR2 SZ I         6 2 22.41       102.8 0.14                            25 179 
 BRR  HZ EP        6 2  8.27                             152     0.410   66 299 
 BRR  HZ I         6 2 26.42       117.9 0.26                            66 299 
 PAM  SZ EP   1    6 2  9.23                             148    -0.1 7   79  43 
 PAM  SN ES   1    6 2 25.74                             148     0.1 7   79  43 
 PAM  SZ I         6 2 30.03        14.8 0.14                            79  43 
 RUS  HZ EP   1    6 2 10.41                             140    -0.7 7  103 174 
 RUS  HE ES   1    6 2 28.59                             140    -0.2 7  103 174 
 RUS  HZ I         6 2 29.78        23.3 0.32                           103 174 
 BRI  SZ EP        6 2 11.07                             139     0.010  108  24 
 BRI  SZ ES   1    6 2 27.84                             139    -0.8 7  108  24 
 BRI  SZ I         6 2 31.84        59.8 0.37                           108  24 
 GRA  SZ IP        6 2 12.35                             134    -0.110  125  20 
 GRA  SZ ES   1    6 2 31.86                             134     0.7 7  125  20 
 GRA  SZ I         6 2 32.87        51.6 0.34                           125  20 
 OCA  SZ EP        6 2 15.09                             127    -0.4 9  157 355 
 OCA  SZ ES   1    6 2 37.04                             127     0.5 7  157 355 
 OCA  SZ I         6 2 41.24        93.1 0.39                           157 355 
 NOR  SZ EP   1    6 2 23.01                             116    -0.2 6  232 233 
 NOR  SN ES   1    6 2 49.68                             116    -0.6 6  232 233 
 CHI  HZ EP   1    6 2 25.29                             114    -0.3 6  250 194 
 CHI  HN ES        6 2 55.26                             114     0.8 8  250 194 
 CHI  HZ I         6 2 59.81         9.9 0.34                           250 194 
 HEL  HZ EP   1    6 2 28.37                             112     0.8 6  268 255 
 HEL  HE ES   1    6 2 57.31                             112    -0.8 6  268 255 
 HEL  HZ I         6 3  5.94        20.7 0.29                           268 255 
 RREF HZ EP   1    6 2 34.85                             108     1.0 5  320 229 
 RREF HN ES   1    6 3  8.85                             108    -0.3 5  320 229 
 RREF HZ I         6 3 18.45        18.4 0.24                           320 229 
 PRA  HZ EP   1    6 2 41.49                             104     0.0 4  392 209 
 PRA  HN ES   1    6 3 22.68                             104    -0.2 4  392 209 
                                                                                
