 2016  7 6 0213 46.0 L   7.274 -73.994 12.1  RSN 20 0.4 2.4LRSN                1
 GAP=111        0.92       2.4     1.6  3.4  0.9824E+00  0.1515E+01  0.2127E+01E
 Epicentro: PUERTO WILCHES - SANTANDER                                         3
 ACTION:UPD 17-03-29 16:47 OP:lp   STATUS:               ID:20160706021346 L   I
 OLDACT:UP  16-07-06 14:42 OP:dani STATUS:               ID:20160706020745     3
 OLDACT:UP  16-07-06 14:41 OP:dani STATUS:               ID:20160706020745     3
 OLDACT:UP  16-07-06 14:41 OP:dani STATUS:               ID:20160706020745     3
 OLDACT:UP  16-07-06 14:41 OP:dani STATUS:               ID:20160706020745     3
 OLDACT:UP  16-07-06 14:40 OP:dani STATUS:               ID:20160706020745     3
 OLDACT:UP  16-07-06 14:38 OP:dani STATUS:               ID:20160706020745     3
 OLDACT:UP  16-07-06 14:38 OP:dani STATUS:               ID:20160706020745     3
 OLDACT:UP  16-07-06 14:38 OP:dani STATUS:               ID:20160706020745     3
 OLDACT:UP  16-07-06 14:37 OP:dani STATUS:               ID:20160706020745     3
 OLDACT:UP  16-07-06 14:37 OP:dani STATUS:               ID:20160706020745     3
 OLDACT:UP  16-07-06 14:36 OP:dani STATUS:               ID:20160706020745     3
 OLDACT:UP  16-07-06 14:24 OP:dani STATUS:               ID:20160706020745     3
 OLDACT:REG 16-07-06 12:22 OP:dani STATUS:               ID:20160706020745     3
 2016-07-06-0207-45M.COL___325                                                 6
 STAT SP IPHASW D HRMM SECON CODA AMPLIT PERI AZIMU VELO AIN AR TRES W  DIS CAZ7
 PTB  HZ IP     C  214  1.37                              95    0.1610 95.9 212 
 PTB  HE ES        214 12.91                              95   -0.1610 95.9 212 
 PTB  HZ I         214 13.90       144.6 0.30             47           95.9 212 
 ZAR  HZ EP        214  1.57                              95   -0.0110 98.4 284 
 ZAR  HE ES        214 13.50                              95   -0.2210 98.4 284 
 ZAR  HZ I         214 16.18       155.8 0.28             47           98.4 284 
 BAR2 EZ EP        214  5.04                              94    0.3910  117 130 
 BAR2 EZ ES        214 19.58                              94    0.4010  117 130 
 BAR2 EZ I         214 20.55       133.6 0.18             47            117 130 
 PAM  EZ EP        214  8.77                              93   -0.06 9  143  87 
 PAM  EE ES        214 25.97                              93   -0.66 9  143  87 
 PAM  EZ I         214 27.93       168.9 0.52             47            143  87 
 URE  HZ EP        214 13.35                              56    0.53 9  178 287 
 URE  HE ES        214 33.89                              56    0.15 9  178 287 
 URE  HZ I         214 38.66        52.3 0.20             47            178 287 
 SPBC HZ EP        214 12.49                              56   -0.63 9  180 183 
 SPBC HN ES   4    214 32.93                              56   -1.34 0  180 183 
 SPBC HZ I         214 50.43        28.2 0.28             37            180 183 
 RUS  HZ EP        214 14.33                              56    0.30 9  183 147 
 RUS  HE ES        214 36.08                              56    0.19 9  183 147 
 RUS  HZ I         214 38.61        99.7 0.46             37            183 147 
 HEL  HZ EP        214 17.63                              56    0.65 8  208 235 
 HEL  HN ES        214 41.28                              56    0.15 8  208 235 
 HEL  HZ I         214 48.63        29.3 0.48             37            208 235 
 NOR  HZ EP        214 16.63                              56   -0.57 8  212 207 
 NOR  HN ES        214 41.27                              56   -0.25 8  212 207 
 NOR  HZ I         214 44.05        18.3 0.18             37            212 207 
 DBB  SZ ES   4    214 51.95                              56    2.82 0  246 264 
 DBB  SZ I         215  0.34        79.6 0.52             37            246 264 
 TAM  HZ EP   4    214 27.02                              56    3.83 0  261 111 
 TAM  HZ I         215  4.42        16.3 0.30             37            261 111 
 CBOC HZ EP   4    214 28.19                              56    3.38 0  272 235 
 CBOC HN ES   4    214 59.55                              56    4.48 0  272 235 
 CBOC HZ I         215  5.43         9.5 0.70             37            272 235 
 GUY2CHZ EP   4    214 26.34                              56    1.10 0  273 214 
 GUY2CHE ES        214 55.25                              56   -0.58 8  273 214 
 GUY2CHZ I         215  8.31        12.7 0.50                           273 214 
 CHI  HZ I         215  8.86         6.5 0.58             36            294 174 
 ELA  HZ EP   4    214 31.60                              55    1.81 0  309 210 
 ELA  HE ES   4    215  7.72                              55    3.79 0  309 210 
 ELA  HZ I         215 20.35        24.6 0.76             36            309 210 
 SJC  HZ EP        214 30.37                              55    0.02 7  318 336 
 SJC  HE ES   4    215  2.45                              55   -2.48 0  318 336 
 SJC  HZ I         215 22.78         4.8 0.60             36            318 336 
 SOCV BE ES   4    215 18.03                              55    3.15 0  364  72 
 PAL  HZ EP   4    214 39.70                              55    3.62 0  364 224 
 PAL  HZ I         215 30.34         3.4 0.36             36            364 224 
 ORTC HZ EP   9    214 41.56                              55    1.49 0  397 201 
 ORTC HE ES        215 24.38                              55    0.65 6  397 201 
 ORTC HZ I         215 42.40         4.7 0.28             36            397 201 
 PTGC HE ES        215 22.30                              55    0.03 6  398 149 
 PTGC HZ I         215 40.49         9.8 0.30             36            398 149 
 PRA  HZ EP   4    214 42.60                              55    1.44 0  406 194 
 PRA  HN ES   4    215 29.43                              55    5.25 0  406 194 
 PRA  HZ I         215 46.62         6.4 0.40             36            406 194 
                                                                                
