 2013 10 6 0927 36.8 L   6.787 -73.153152.0  RSN  6 0.5 1.4LRSN                1
 GAP=200        1.23       5.1     7.9  8.4  0.8006E+01  0.2783E+01 -0.9249E+01E
 Epicentro: LOS SANTOS - SANTANDER                                             3
 ACTION:UPD 13-11-25 09:19 OP:ep   STATUS:               ID:20131006092736 L   I
 OLDACT:REG 13-10-06 07:38 OP:nd   STATUS:               ID:20131006091959     3
 2013-10-06-0919-59M.COL___273                                                 6
 STAT SP IPHASW D HRMM SECON CODA AMPLIT PERI AZIMU VELO AIN AR TRES W  DIS CAZ7
 BAR2 SZ EP        927 56.88                             171   -0.3210 21.8 189 
 BAR2 SZ ES        928 12.35                             171   -0.7210 21.8 189 
 BAR2 SZ I         928 14.32         4.8 0.50            168           21.8 189 
 BRR  HZ EP        927 58.92                             154    0.2510 71.2 300 
 BRR  HN ES        928 16.73                             154    1.0310 71.2 300 
 BRR  HZ I         928 21.07         3.4 0.24            150           71.2 300 
 RUS  HZ EP        928  1.27                             145    0.1510 99.2 176 
 RUS  HN ES        928 20.19                             145    0.1410 99.2 176 
 RUS  HZ I         928 22.48         1.2 0.52            147           99.2 176 
 PTB  HZ EP        928  3.88                             134   -0.35 9  147 259 
 PTB  HN ES        928 24.93                             134   -0.67 9  147 259 
 PTB  HZ I         928 30.96         3.1 0.36            132            147 259 
 SPBC HZ EP        928  5.89                             131    0.22 9  162 219 
 SPBC HN ES        928 28.49                             131    0.32 9  162 219 
 SPBC HZ I         928 35.12         5.1 0.28            131            162 219 
 SML  HZ EP        928 14.15                             119    0.22 8  245 336 
 SML  HN ES        928 42.48                             119   -0.38 8  245 336 
 SML  HZ I         928 46.72         3.6 0.10            120            245 336 
                                                                                
