 2012  8 6 0748  3.1 L   6.817 -73.179124.9  RSN  4 0.4 1.5LRSN                1
 GAP=242        0.76       8.6     6.7  8.7  0.3396E+02  0.9205E+01 -0.2052E+02E
 Epicentro: LOS SANTOS - SANTANDER                                             3
 ACTION:UPD 12-09-10 11:54 OP:ep   STATUS:               ID:20120806074803 L   I
 2012-08-06-0740-00M.COL___216                                                 6
 STAT SP IPHASW D HRMM SECON CODA AMPLIT PERI AZIMU VELO AIN AR TRES W  DIS CAZ7
 BAR2 SZ EP        748 20.43                             168    0.2210 24.8 181 
 BAR2 SZ ES   1    748 33.22                             168   -0.38 7 24.8 181 
 RUS  HZ EP   1    748 24.67                             138   -0.32 7  103 174 
 RUS  HN ES   1    748 42.57                             138    0.48 7  103 174 
 RUS  HZ I         748 44.49         6.8 0.34                           103 174 
 PTB  HZ EP        748 27.62                             128   -0.47 9  145 258 
 PTB  HN ES   1    748 47.67                             128    0.06 7  145 258 
 PTB  HZ I         748 50.09         3.5 0.11                           145 258 
 ZAR  HZ EP   1    748 34.26                             118    0.48 6  200 292 
 ZAR  HN ES   1    748 57.98                             118    0.23 6  200 292 
 ZAR  HZ I         749  4.74         4.4 0.19                           200 292 
                                                                                
