 2015  4 6 0558 55.2 L   6.810 -73.125147.8  RSN 17 0.5 2.3LRSN                1
 GAP=139        1.00       2.8     3.8  5.7 -0.2240E+01  0.5507E+01  0.8819E+00E
 Epicentro: LOS SANTOS - SANTANDER                                             3
 ACTION:UPD 15-06-03 16:53 OP:cam  STATUS:               ID:20150406055855 L   I
 OLDACT:UP  15-04-06 17:42 OP:mh   STATUS:               ID:20150406055741     3
 OLDACT:UP  15-04-06 17:42 OP:mh   STATUS:               ID:20150406055741     3
 OLDACT:UP  15-04-06 15:42 OP:mh   STATUS:               ID:20150406055741     3
 OLDACT:UP  15-04-06 15:42 OP:mh   STATUS:               ID:20150406055741     3
 OLDACT:REG 15-04-06 12:55 OP:mher STATUS:               ID:20150406055741     3
 2015-04-06-0557-41M.COL___261                                                 6
 STAT SP IPHASW D HRMM SECON CODA AMPLIT PERI AZIMU VELO AIN AR TRES W  DIS CAZ7
 BAR2 EZ EP        559 15.15                             170    0.0910 24.9 195 
 BAR2 EZ I         559 32.88        34.2 0.20            169           24.9 195 
 BRR  HZ EP        559 17.16                             152    0.5510 72.7 297 
 BRR  HN ES        559 33.56                             152    0.2210 72.7 297 
 BRR  HZ I         559 38.11        20.9 0.18            150           72.7 297 
 PAM  SZ EP        559 17.89                             152    0.4410 75.0  39 
 PAM  SN ES        559 35.31                             152    0.4810 75.0  39 
 PAM  SZ I         559 37.27        18.6 0.18            155           75.0  39 
 RUS  HZ EP        559 18.65                             144   -0.5210  102 177 
 RUS  HN ES        559 37.51                             144   -0.4010  102 177 
 RUS  HZ I         559 38.86        14.8 0.28            146            102 177 
 PTB  HZ EP   1    559 21.89                             132   -0.62 7  150 259 
 PTB  HN ES        559 43.51                             132   -0.34 9  150 259 
 PTB  HZ I         559 48.85        23.9 0.28            131            150 259 
 OCA  HZ EP        559 23.17                             130   -0.38 9  159 352 
 OCA  HN ES        559 45.70                             130    0.01 9  159 352 
 OCA  HZ I         559 50.80        43.6 0.24            131            159 352 
 SPBC HZ EP        559 24.06                             129    0.03 9  166 219 
 SPBC HN ES        559 46.25                             129   -0.30 9  166 219 
 SPBC HZ I         559 53.04        45.5 0.36            130            166 219 
 ZAR  HZ EP        559 27.68                             123   -0.23 8  206 292 
 ZAR  HN ES        559 53.20                             123   -0.26 8  206 292 
 ZAR  HZ I         559 59.46        32.7 0.52            123            206 292 
 NOR  HZ EP        559 31.05                             119   -0.22 8  237 235 
 NOR  HN ES        559 59.15                             119   -0.29 8  237 235 
 NOR  HZ I         6 0  2.96        15.9 0.20            119            237 235 
 SML  HZ EP        559 31.91                             118    0.02 8  244 335 
 SML  HN ES        559 59.85                             118   -0.69 8  244 335 
 SML  HZ I         6 0  7.10        24.6 0.34            119            244 335 
 ROSC BZ EP   1    559 33.55                             117   -0.07 6  255 211 
 ROSC BN ES   4    6 0  5.89                             117    2.27 0  255 211 
 HEL  HZ EP   1    559 36.20                             115    0.45 6  275 256 
 HEL  HN ES        6 0  8.43                             115    1.02 8  275 256 
 HEL  HZ I         6 0 14.44        10.7 0.26            115            275 256 
 URE  HZ EP   4    559 35.53                             114   -0.99 0  286 292 
 URE  HN ES   4    6 0  5.38                             114   -3.40 0  286 292 
 URE  HZ I         6 0 17.00        11.7 0.18            114            286 292 
 GUY2CHZ EP   4    559 40.26                             112    1.12 0  304 235 
 GUY2CHN ES   4    6 0 14.83                             112    1.38 0  304 235 
 GUY2CHZ I         6 0 24.17         8.5 0.52                           304 235 
 PTGC HZ EP   4    559 37.98                             112   -1.14 0  309 159 
 PTGC HN ES   4    6 0 11.17                             112   -2.25 0  309 159 
 PTGC HZ I         6 0 13.68         8.5 0.40            114            309 159 
 RREF HN ES   4    6 0 20.12                             111    2.17 0  324 229 
 CBOC HZ EP        559 42.67                             110    0.23 7  336 252 
 CBOC HN ES   2    6 0 20.38                             110    1.05 3  336 252 
 CBOC HZ I         6 0 33.29         3.2 0.44            111            336 252 
 ORTC HZ EP   1    559 49.72                             107    0.31 4  398 216 
 ORTC HN ES        6 0 32.90                             107    1.17 6  398 216 
 ORTC HZ I         6 0 36.65         5.4 0.54            108            398 216 
                                                                                
