 2017  8 6 0928 24.2 L   6.793 -73.105147.0  RSN  6 0.5 1.2LRSN                1
 GAP=241        1.27       7.3     8.3 10.0  0.2181E+02  0.2172E+02  0.1959E+01E
 Epicentro: LOS SANTOS - SANTANDER                                             3
 ACTION:UPD 17-09-04 20:17 OP:rebc STATUS:               ID:20170806092824 L   I
 OLDACT:REG 17-08-06 12:55 OP:osc  STATUS:               ID:20170806092739     3
 2017-08-06-0928-00M.COL___380                                                 6
 STAT SP IPHASW D HRMM SECON CODA AMPLIT PERI AZIMU VELO AIN AR TRES W  DIS CAZ7
 BAR2 HZ EP        928 44.05                             170    0.0210 23.7 201 
 BAR2 HZ ES        928 58.82                             170   -0.6510 23.7 201 
 BAR2 HZ I         929  1.98         3.8 0.31            172           23.7 201 
 BRR  HZ EP        928 45.49                             151   -0.2910 75.5 297 
 BRR  HN ES        929  3.06                             151    0.4910 75.5 297 
 BRR  HZ I         929  7.84         5.6 0.46            153           75.5 297 
 RUS  HE ES        929  7.22                             144    0.6110 99.6 179 
 PTB  HZ EP        928 51.25                             131   -0.45 9  152 259 
 PTB  HN ES        929 12.35                             131   -0.76 9  152 259 
 PTB  HZ I         929 12.85         1.3 0.11            134            152 259 
 SPBC HZ EP        928 53.34                             129    0.29 9  165 220 
 SPBC HN ES        929 15.61                             129    0.09 9  165 220 
 SPBC HZ I         929 17.71         1.8 0.08            132            165 220 
 ZAR  HE ES        929 23.73                             122    0.77 8  208 292 
                                                                                
