 2013 12 6 0444 14.5 L   6.818 -73.132149.0  RSN 15 0.5 2.3LRSN                1
 GAP=112        1.09       2.6     3.2  5.3 -0.5084E+00  0.2364E+01 -0.8202E+00E
 Epicentro: LOS SANTOS - SANTANDER                                             3
 ACTION:UPD 14-01-13 10:16 OP:ep   STATUS:               ID:20131206044414 L   I
 OLDACT:REG 13-12-06 07:32 OP:carl STATUS:               ID:20131206044000     3
 2013-12-06-0440-00M.COL___285                                                 6
 STAT SP IPHASW D HRMM SECON CODA AMPLIT PERI AZIMU VELO AIN AR TRES W  DIS CAZ7
 BAR2 SZ EP        444 34.55                             170   -0.0010 25.6 192 
 BAR2 SZ ES        444 50.59                             170    0.3910 25.6 192 
 BAR2 SZ I         444 52.25        63.5 0.18            168           25.6 192 
 BRR  HZ EP        444 36.39                             153    0.3910 71.6 297 
 BRR  HN ES        444 53.81                             153    1.0210 71.6 297 
 BRR  HZ I         444 54.58        22.8 0.16            151           71.6 297 
 RUS  HZ EP        444 38.41                             144   -0.2810  103 177 
 RUS  HN ES        444 56.82                             144   -0.7610  103 177 
 RUS  HZ I         444 58.31        18.2 0.36            145            103 177 
 PTB  HZ EP        444 41.30                             132   -0.58 9  150 258 
 PTB  HN ES        445  2.50                             132   -0.75 9  150 258 
 PTB  HZ I         445  8.60        20.6 0.46            132            150 258 
 TAM  HZ EP        444 42.77                             131    0.43 9  154 106 
 TAM  HE ES        445  4.02                             131   -0.05 9  154 106 
 TAM  HZ I         445  4.97         9.4 0.36            135            154 106 
 OCA  HZ EP        444 43.41                             131    0.53 9  158 353 
 OCA  HN ES        445  5.10                             131    0.07 9  158 353 
 OCA  HZ I         445  9.32        26.4 0.42            132            158 353 
 SPBC HZ EP        444 43.42                             129   -0.05 9  166 219 
 SPBC HN ES        445  5.77                             129   -0.30 9  166 219 
 SPBC HZ I         445 12.68        38.0 0.38            129            166 219 
 ZAR  HZ EP        444 46.85                             123   -0.35 9  205 291 
 ZAR  HN ES        445 12.41                             123   -0.31 9  205 291 
 ZAR  HZ I         445 17.91        20.7 0.28            123            205 291 
 NOR  HZ EP        444 50.84                             119    0.19 8  237 234 
 NOR  HE ES        445 19.23                             119    0.36 8  237 234 
 NOR  HZ I         445 25.97        16.4 0.40            119            237 234 
 SML  HZ EP        444 50.94                             118   -0.22 8  242 335 
 SML  HE ES        445 19.36                             118   -0.41 8  242 335 
 SML  HZ I         445 22.99        40.1 0.10            119            242 335 
 CHI  HZ EP        444 52.58                             118   -0.04 8  251 195 
 CHI  HN ES        445 21.81                             118   -0.55 8  251 195 
 CHI  HZ I         445 27.56         6.9 0.56            118            251 195 
 ROSC BZ EP   4    444 54.84                             117    1.79 0  255 211 
 ROSC BN ES   4    445 25.14                             117    2.01 0  255 211 
 HEL  HZ EP        444 55.84                             115    0.77 8  274 255 
 HEL  HN ES        445 26.97                             115    0.24 8  274 255 
 HEL  HZ I         445 35.01        12.4 0.36            116            274 255 
 RREF HZ EP   4    445  2.72                             111    1.68 0  324 229 
 RREF HN ES        445 37.62                             111    0.26 7  324 229 
 RREF HZ I         445 45.35        12.7 0.28            112            324 229 
 COD  HZ EP        445  2.87                             110    0.10 6  346 354 
 COD  HE ES        445 39.77                             110   -0.67 6  346 354 
 ORTC HZ EP        445  9.15                             107    0.34 6  398 216 
 ORTC HN ES        445 51.70                             107    0.52 6  398 216 
                                                                                
