 2014  8 6 0333 25.2 L   6.725 -73.414107.1  RSN 12 0.5 1.5LRSN                1
 GAP= 71        1.07       2.9     4.0  7.0 -0.3194E+01  0.1370E+02 -0.1101E+01E
 Epicentro: EL CARMEN - SANTANDER                                              3
 ACTION:UPD 14-09-15 21:47 OP:nd   STATUS:               ID:20140806033325 L   I
 OLDACT:REG 14-08-06 13:04 OP:spq  STATUS:               ID:20140806032818     3
 2014-08-06-0328-18M.COL___254                                                 6
 STAT SP IPHASW D HRMM SECON CODA AMPLIT PERI AZIMU VELO AIN AR TRES W  DIS CAZ7
 BAR2 SZ EP        333 41.01                             164    0.6210 29.6 120 
 BAR2 SZ ES   1    333 52.21                             164   -0.03 7 29.6 120 
 BRR  HZ IP     D  333 41.57                             151    0.4110 53.5 322 
 BRR  HE ES        333 53.87                             151    0.2510 53.5 322 
 BRR  HZ I         333 55.32         8.5 0.14            149           53.5 322 
 RUS  HZ EP   1    333 45.69                             134    0.44 7 99.1 158 
 RUS  HE ES   1    334  0.43                             134   -0.46 7 99.1 158 
 RUS  HZ I         334  2.85         3.7 0.12            135           99.1 158 
 PAM  SN ES        334  1.49                             133   -0.2010  104  49 
 PAM  SZ I         334  5.29         5.1 0.13            132            104  49 
 PTB  HZ IP     D  333 45.39                             128   -0.8610  117 260 
 PTB  HN ES   4    334  0.84                             128   -1.83 0  117 260 
 PTB  HZ I         334  2.16         8.0 0.12            128            117 260 
 SPBC HN ES        334  6.41                             123   -0.34 9  139 212 
 SPBC HZ I         334  9.92         6.9 0.20            123            139 212 
 OCA  HZ EP   1    333 51.91                             118    0.28 7  168   4 
 OCA  HN ES        334 11.66                             118   -0.59 9  168   4 
 OCA  HZ I         334 17.79         4.8 0.40            117            168   4 
 ZAR  HZ EP        333 53.48                             116    0.63 9  181 298 
 ZAR  HN ES        334 14.41                             116   -0.00 9  181 298 
 ZAR  HZ I         334 18.44         7.8 0.30            115            181 298 
 NOR  HZ EP        333 55.97                             112    0.24 8  206 232 
 NOR  HN ES        334 19.75                             112    0.21 8  206 232 
 NOR  HZ I         334 22.44         2.6 0.14            112            206 232 
 HEL  HN ES        334 27.77                             108    0.33 8  241 256 
 HEL  HZ I         334 33.77         2.1 0.24            108            241 256 
 SML  HZ EP   1    333 58.91                             108   -0.73 6  241 343 
 SML  HN ES   1    334 26.37                             108   -0.13 6  241 343 
 SML  HZ I         334 33.90         9.2 0.10            107            241 343 
 GUY2CHZ EP        334  4.16                             106    0.24 8  272 233 
 GUY2CHE ES        334 33.37                             106   -0.76 8  272 233 
 GUY2CHZ I         334 41.54         1.7 0.52                           272 233 
                                                                                
