 2014  5 6 0055 11.5 L   6.787 -73.153149.6  RSN 12 0.4 2.2LRSN                1
 GAP= 71        1.04       3.0     3.0  6.1  0.1402E+01  0.4748E+01  0.1762E+01E
 Epicentro: LOS SANTOS - SANTANDER                                             3
 ACTION:UPD 15-03-16 16:55 OP:nd   STATUS:               ID:20140506005511 L   I
 OLDACT:DUP 14-05-06 13:38 OP:carl STATUS:               ID:20140506004809d    3
 2014-05-06-0048-08M.COL___239                                                 6
 STAT SP IPHASW D HRMM SECON CODA AMPLIT PERI AZIMU VELO AIN AR TRES W  DIS CAZ7
 BRR  HZ IP     D  055 33.56                             153    0.5310 71.2 300 
 BRR  HN ES        055 50.61                             153    0.7610 71.2 300 
 BRR  HZ I         055 53.53        21.5 0.14            150           71.2 300 
 PAM  SZ IP     D  055 34.46                             151    0.2710 79.0  39 
 PAM  SN ES        055 51.60                             151   -0.3110 79.0  39 
 PAM  SZ I         055 53.67        28.4 0.58            153           79.0  39 
 RUS  HZ EP        055 35.53                             145    0.0310 99.2 176 
 RUS  HE ES        055 53.86                             145   -0.3910 99.2 176 
 RUS  HZ I         055 54.77        15.6 0.46            146           99.2 176 
 PTB  HZ EP        055 38.32                             133   -0.33 9  147 259 
 PTB  HN ES        055 59.21                             133   -0.65 9  147 259 
 PTB  HZ I         056  1.99        16.3 0.14            131            147 259 
 TAM  HZ EP        055 39.85                             131    0.36 9  156 104 
 TAM  HN ES        056  1.22                             131   -0.13 9  156 104 
 OCA  HE ES        056  2.25                             130   -0.36 9  162 353 
 OCA  HZ I         056  8.76        22.2 0.36            130            162 353 
 ZAR  HZ EP        055 44.67                             123    0.53 9  204 293 
 ZAR  HN ES        056 10.20                             123    0.57 9  204 293 
 ZAR  HZ I         056 16.33        18.8 0.34            122            204 293 
 SML  HZ EP        055 47.97                             118   -0.44 8  245 336 
 SML  HE ES        056 16.89                             118   -0.34 8  245 336 
 SML  HZ I         056 24.50        21.9 0.26            118            245 336 
 CHI  HZ EP        055 49.38                             118    0.18 8  247 195 
 CHI  HN ES        056 18.91                             118    0.27 8  247 195 
 CHI  HZ I         056 24.99         6.6 0.24            118            247 195 
 HEL  HZ EP        055 50.90                             116   -0.85 8  271 256 
 HEL  HE ES        056 23.12                             116   -0.05 8  271 256 
 HEL  HZ I         056 31.09         7.4 0.58            115            271 256 
 URE  HZ EP        055 52.74                             114    0.04 7  284 292 
 URE  HN ES        056 24.80                             114   -0.06 7  284 292 
 URE  HZ I         056 36.59        10.1 0.16            114            284 292 
 RREF HZ EP   4    055 59.44                             112    1.84 0  320 229 
 RREF HN ES   4    056 35.78                             112    2.20 0  320 229 
 RREF HZ I         056 44.12         8.5 0.30            112            320 229 
                                                                                
