 2011  3 6 0846 55.3 L   6.756 -73.169133.0  RSN  8 0.4 1.8LRSN                1
 GAP=156        0.73       4.1    10.1  7.9 -0.2078E+02  0.4153E+02 -0.1167E+02E
 Epicentro: LOS SANTOS - SANTANDER                                             3
 ACTION:UP  11-06-16 14:32 OP:jfem STATUS:               ID:20110306084655 L   I
 2011-03-06-0845-58S.COL___135                                                 6
 STAT SP IPHASW D HRMM SECON CODA AMPLIT PERI AZIMU VELO SNR AR TRES W  DIS CAZ7
 BAR2 SZ EP        847 13.19                             172    -0.110   18 185 
 BAR2 SZ ES   1    847 27.38                             172     0.1 7   18 185 
 BAR2 SZ I         847 28.88        27.6 0.23                            18 185 
 RUS  HZ EP   1    847 17.63                             142     0.2 7   96 174 
 RUS  HN ES   1    847 34.59                             142    -0.2 7   96 174 
 RUS  HZ I         847 37.10         9.9 0.34                            96 174 
 GRA  SZ EP        847 20.14                             132     0.210  131  18 
 GRA  SZ ES   1    847 38.99                             132    -0.1 7  131  18 
 GRA  SZ I         847 41.90        11.3 0.53                           131  18 
 OCA  SZ ES   3    847 43.82                             125    -0.9 2  165 354 
 OCA  SZ I         847 47.29        13.4 0.47                           165 354 
 CHI  HZ EP   2    847 30.89                             115    -0.8 4  243 195 
 CHI  HN ES   2    848  0.25                             115     0.1 4  243 195 
 CHI  HZ I         848 10.54         2.3 0.42                           243 195 
 HEL  HZ EP   2    847 35.66                             112     1.2 4  268 257 
 RREF HE ES   3    848 14.93                             109    -0.5 2  317 230 
 RREF HZ I         848 23.07         3.0 0.29                           317 230 
 DBB  SZ EP   1    847 41.54                             107    -0.5 5  337 275 
 MON  HE ES   4    848 18.36                             106    -3.5 0  354 309 
                                                                                
