 2012  4 6 0709 34.0 L   6.321 -73.694 97.4  RSN  6 0.4 1.5LRSN                1
 GAP=105        0.89       5.4     5.1  9.7  0.1416E+02  0.2186E+02  0.1791E+02E
 Epicentro: SANTA HELENA DEL OPON - SANTANDER                                  3
 ACTION:UPD 12-07-05 11:50 OP:tino STATUS:               ID:20120406070934 L   I
 2012-04-06-0707-59S.COL___204                                                 6
 STAT SP IPHASW D HRMM SECON CODA AMPLIT PERI AZIMU VELO AIN AR TRES W  DIS CAZ7
 BAR2 SZ EP   1    7 9 49.99                             144     0.0 7   64  62 
 BAR2 SZ ES   1    710  2.72                             144     0.2 7   64  62 
 RUS  HZ EP   1    7 9 51.90                             137     0.1 7   83 125 
 RUS  HZ I         7 9 52.12         6.2 0.20                            83 125 
 RUS  HE ES   1    710  5.52                             137    -0.2 7   83 125 
 BRR  HZ EP   1    7 9 51.02                             135    -0.5 7   87 359 
 BRR  HZ I         7 9 51.37        17.0 0.12                            87 359 
 BRR  HN ES   1    710  5.28                             135     0.1 7   87 359 
 PTB  HZ EP   1    7 9 51.07                             135    -0.5 7   88 286 
 PTB  HN ES   1    710  5.19                             135    -0.1 7   88 286 
 PTB  HZ I         710  5.74         4.7 0.12                            88 286 
 ZAR  HZ EP   1    710  1.12                             114    -0.3 7  183 315 
 ZAR  HN ES   1    710 23.52                             114     0.8 7  183 315 
 ZAR  HZ I         710 28.77         6.3 0.34                           183 315 
 CHI  HZ EP   1    710  3.03                             113     0.6 7  187 181 
 CHI  HZ I         710 29.73         3.1 0.21                           187 181 
                                                                                
