 2017  3 6 0746  5.5 L   6.807 -73.112150.3  RSN 11 0.4 1.6LRSN                1
 GAP=122        0.79       3.2     4.0  4.6 -0.4479E+00  0.2287E+01  0.2709E+01E
 Epicentro: LOS SANTOS - SANTANDER                                             3
 ACTION:UPD 17-05-25 18:36 OP:jn   STATUS:               ID:20170306074605 L   I
 OLDACT:UP  17-03-06 15:58 OP:and  STATUS:               ID:20170306073746     3
 OLDACT:UP  17-03-06 15:57 OP:and  STATUS:               ID:20170306073746     3
 OLDACT:UP  17-03-06 15:56 OP:and  STATUS:               ID:20170306073746     3
 OLDACT:UP  17-03-06 15:56 OP:and  STATUS:               ID:20170306073746     3
 OLDACT:REG 17-03-06 12:29 OP:and  STATUS:               ID:20170306073746     3
 2017-03-06-0738-00M.COL___393                                                 6
 STAT SP IPHASW D HRMM SECON CODA AMPLIT PERI AZIMU VELO AIN AR TRES W  DIS CAZ7
 BAR2 EZ IP     C  746 25.42                             170   -0.2310 24.9 198 
 BAR2 EZ ES        746 40.91                             170   -0.5010 24.9 198 
 BAR2 EZ I         746 42.86         9.7 0.24            167           24.9 198 
 BRR  HZ IP     C  746 27.22                             152   -0.0310 74.1 297 
 BRR  HN ES        746 44.40                             152    0.1510 74.1 297 
 BRR  HZ I         746 47.61         6.3 0.20            151           74.1 297 
 PAM  EZ IP     C  746 28.42                             153    0.4410 74.5  38 
 PAM  EN ES        746 45.60                             153    0.0410 74.5  38 
 PAM  EZ I         746 48.08         4.9 0.46            157           74.5  38 
 RUS  HZ EP        746 29.68                             145   -0.0010  101 178 
 RUS  HN ES        746 48.75                             145    0.1610  101 178 
 RUS  HZ I         746 50.37         6.0 0.28            145            101 178 
 PTB  HZ EP   9    746 32.14                             132   -0.99 0  152 259 
 PTB  HN ES        746 54.42                             131    0.70 9  152 259 
 PTB  HZ I         746 55.13         4.1 0.13            131            152 259 
 SPBC HZ EP        746 34.46                             129   -0.11 9  166 220 
 SPBC HN ES   3    746 56.91                             129   -0.37 2  166 220 
 SPBC HZ I         747  2.81         5.7 0.18            129            166 220 
 ZAR  HZ EP        746 38.39                             123   -0.13 8  207 292 
 ZAR  HN ES   2    747  3.91                             123   -0.39 4  207 292 
 ZAR  HZ I         747  9.59         3.8 0.22            123            207 292 
 NOR  HZ EP   2    746 41.86                             119    0.05 4  238 235 
 NOR  HN ES   2    747 11.12                             119    0.95 4  238 235 
 NOR  HZ I         747 15.81         3.2 0.16            119            238 235 
 CHI  HZ EP   2    746 43.93                             118    0.35 4  250 196 
 CHI  HN ES        747 13.86                             118    0.53 8  250 196 
 CHI  HZ I         747 16.51         1.8 0.11            118            250 196 
 HEL  HN ES   2    747 17.19                             115   -0.99 4  276 256 
 PTGC HZ EP   2    746 49.22                             113   -0.22 4  308 159 
 PTGC HN ES   2    747 22.72                             113   -1.03 4  308 159 
 PTGC HZ I         747 26.70         2.7 0.26            114            308 159 
                                                                                
