 2015  3 6 0915 51.9 L   6.810 -73.177141.0  RSN  8 0.4 1.4LRSN                1
 GAP=144        1.10       5.1     5.2  7.0 -0.1145E+02  0.1219E+02  0.3185E+01E
 Epicentro: ZAPATOCA - SANTANDER                                               3
 ACTION:UPD 15-04-30 16:23 OP:nd   STATUS:               ID:20150306091552dL   I
 OLDACT:DUP 15-03-06 16:32 OP:fm   STATUS:               ID:20150306090749d    3
 2015-03-06-0907-48M.COL___284                                                 6
 STAT SP IPHASW D HRMM SECON CODA AMPLIT PERI AZIMU VELO AIN AR TRES W  DIS CAZ7
 BAR2 EZ EP        916 11.58                             170    0.6310 24.1 182 
 BAR2 EZ ES        916 26.52                             170    0.7010 24.1 182 
 BAR2 EZ I         916 27.93         8.6 0.10            168           24.1 182 
 PAM  SZ EP        916 13.49                             149   -0.1810 78.8  42 
 PAM  SN ES        916 30.43                             149   -0.2410 78.8  42 
 PAM  SZ I         916 34.04         3.5 0.62            155           78.8  42 
 RUS  HZ EP        916 14.91                             142   -0.3510  102 174 
 RUS  HN ES        916 32.98                             142   -0.5210  102 174 
 RUS  HZ I         916 35.81         3.3 0.24            144            102 174 
 PTB  HZ EP        916 18.21                             132    0.04 9  145 258 
 PTB  HN ES        916 38.14                             132   -0.54 9  145 258 
 PTB  HZ I         916 45.24         3.1 0.32            133            145 258 
 SPBC HZ EP        916 20.57                             128    0.68 9  162 218 
 SPBC HN ES        916 41.63                             128   -0.11 9  162 218 
 SPBC HZ I         916 45.27         6.4 0.22            130            162 218 
 NOR  HZ EP        916 26.28                             118   -0.82 8  233 234 
 NOR  HN ES        916 54.82                             118    0.25 8  233 234 
 NOR  HZ I         916 59.09         2.4 0.18            120            233 234 
 CHI  HZ EP        916 29.41                             116    0.08 8  249 194 
 CHI  HN ES        916 58.50                             116   -0.04 8  249 194 
 CHI  HZ I         917  8.98         1.0 0.64            118            249 194 
 GUY2CHZ EP        916 35.40                             112    0.38 7  299 234 
 GUY2CHE ES        917  8.81                             112    0.14 7  299 234 
 GUY2CHZ I         917 18.26         1.6 0.72                           299 234 
                                                                                
