 2015  9 6 0932 11.4 L   7.437 -73.227125.2  RSN  5 0.5 1.5LRSN                1
 GAP=209        1.23       5.7     9.5 11.1  0.1365E+02  0.3133E+01 -0.2493E+02E
 Epicentro: EL PLAYON - SANTANDER                                              3
 ACTION:UPD 15-10-28 16:24 OP:cam  STATUS:               ID:20150906093211 L   I
 OLDACT:REG 15-09-06 13:21 OP:stll STATUS:               ID:20150906092737     3
 2015-09-06-0927-37M.COL___352                                                 6
 STAT SP IPHASW D HRMM SECON CODA AMPLIT PERI AZIMU VELO AIN AR TRES W  DIS CAZ7
 BRR  HZ EP        932 30.44                             151    0.4710 64.8 236 
 BRR  HN ES        932 45.10                             151    0.6510 64.8 236 
 BRR  HZ I         932 45.98         8.0 0.12            149           64.8 236 
 BAR2 EZ EP        932 32.10                             141   -0.1810 93.6 177 
 BAR2 EZ ES        932 48.19                             141   -0.3810 93.6 177 
 BAR2 EZ I         932 49.76         8.8 0.12            141           93.6 177 
 PTB  HZ EP        932 39.16                             123    0.34 9  168 234 
 PTB  HN ES        932 59.34                             123   -0.88 9  168 234 
 PTB  HZ I         933  3.54         2.3 0.36            122            168 234 
 SML  HZ EP        932 39.41                             121   -0.31 9  177 328 
 SML  HZ I         932 39.98         5.8 0.10            122            177 328 
 SML  HN ES        933  1.43                             121   -0.38 9  177 328 
 ZAR  HZ EP        932 40.58                             121    0.54 9  180 272 
                                                                                
