 2017  1 6 0914 18.1 L   6.745 -73.131150.5  RSN  5 0.2 1.4LRSN                1
 GAP=257        0.55       5.2     3.5  4.3  0.2331E+01  0.5109E+01  0.3020E+00E
 Epicentro: LOS SANTOS - SANTANDER                                             3
 ACTION:UPD 17-05-22 15:56 OP:jn   STATUS:               ID:20170106091418 L   I
 OLDACT:UP  17-01-07 21:27 OP:and  STATUS:               ID:20170106090748     3
 OLDACT:REG 17-01-07 21:24 OP:and  STATUS:               ID:20170106090748     3
 2017-01-06-0908-00M.COL___360                                                 6
 STAT SP IPHASW D HRMM SECON CODA AMPLIT PERI AZIMU VELO AIN AR TRES W  DIS CAZ7
 BAR2 EZ EP        914 38.53                             173    0.3610 17.9 198 
 BAR2 EZ ES        914 53.65                             173   -0.2010 17.9 198 
 BAR2 EZ I         914 56.90         3.2 0.21            171           17.9 198 
 BRR  HZ EP        914 39.96                             152   -0.0210 75.6 302 
 BRR  HN ES        914 57.01                             152   -0.0610 75.6 302 
 PTB  HZ EP        914 45.17                             133   -0.31 9  148 261 
 PTB  HN ES        915  7.11                             133    0.26 9  148 261 
 PTB  HZ I         915 11.36         2.6 0.26            133            148 261 
 ZAR  HZ EP        914 51.16                             123   -0.06 8  208 294 
 ZAR  HN ES        915 17.15                             123    0.08 8  208 294 
 ZAR  HZ I         915 22.25         5.6 0.23            124            208 294 
 CBOC HZ EP   4    915  7.27                             111    2.12 0  333 253 
 CBOC HN ES        915 41.78                             111   -0.10 7  333 253 
                                                                                
