 2012  5 6 0923 43.3 L   6.787 -73.145147.0  RSN 11 0.3 2.2LRSN                1
 GAP=137        0.64       3.1     3.2  4.8 -0.1432E+00  0.5034E+01  0.3499E+01E
 Epicentro: LOS SANTOS - SANTANDER                                             3
 ACTION:UP  12-07-05 12:02 OP:pat  STATUS:               ID:20120506092343 L   I
 2012-05-06-0920-00M.COL___192                                                 6
 STAT SP IPHASW D HRMM SECON CODA AMPLIT PERI AZIMU VELO SNR AR TRES W  DIS CAZ7
 BAR2 SZ EP        924  2.94                             171    -0.210   22 191 
 BAR2 SZ ES   1    924 18.44                             171    -0.1 7   22 191 
 BAR2 SZ I         924 19.37        31.6 0.30                            22 191 
 BRR  HZ IP     C  924  4.71                             152     0.010   72 299 
 BRR  HE ES   1    924 21.77                             152     0.5 7   72 299 
 BRR  HZ I         924 25.54        45.2 0.26                            72 299 
 PAM  SZ EP   1    924  6.05                             151     0.3 7   78  39 
 PAM  SN ES   1    924 23.20                             151     0.0 7   78  39 
 RUS  HZ EP   1    924  6.91                             144    -0.2 7   99 176 
 RUS  HN ES   1    924 25.77                             144     0.1 7   99 176 
 RUS  HZ I         924 26.75        15.3 0.24                            99 176 
 PTB  HZ EP   1    924  9.60                             132    -0.8 7  148 259 
 PTB  HE ES   1    924 31.35                             132    -0.2 7  148 259 
 PTB  HZ I         924 37.98        20.3 0.38                           148 259 
 ZAR  HZ EP   1    924 16.09                             123     0.2 6  205 292 
 ZAR  HE ES   1    924 40.95                             123    -0.4 6  205 292 
 ZAR  HZ I         924 48.78        17.4 0.21                           205 292 
 NOR  SN ES   2    924 46.78                             119    -0.2 4  234 235 
 CHI  HZ EP   1    924 21.07                             118     0.1 6  247 195 
 CHI  HZ I         924 23.76         8.8 0.41                           247 195 
 CHI  HN ES   1    924 50.37                             118     0.0 6  247 195 
 HEL  HZ EP   1    924 24.04                             115     0.4 6  272 256 
 HEL  HN ES   1    924 55.42                             115     0.4 6  272 256 
 HEL  HZ I         925  2.49        11.5 0.61                           272 256 
 RREF HZ EP   2    924 29.73                             111     0.3 3  321 230 
 RREF HE ES   1    925  5.46                             111     0.1 5  321 230 
 RREF HZ I         925 14.90         8.3 0.37                           321 230 
 PRA  HZ EP   1    924 37.01                             107     0.2 4  391 210 
 PRA  HE ES   2    925 18.64                             107     0.2 3  391 210 
                                                                                
