 2011  4 6 0517 22.0 L   6.772 -73.097144.9  RSN  8 0.3 1.8LRSN                1
 GAP=182        0.58       4.0     7.1  5.8 -0.1750E+02  0.1061E+02  0.3380E+00E
 Epicentro: LOS SANTOS - SANTANDER                                             3
 ACTION:UP  11-06-22 15:29 OP:REBC STATUS:               ID:20110406051722 L   I
 2011-04-06-0516-45S.COL___124                                                 6
 STAT SP IPHASW D HRMM SECON CODA AMPLIT PERI AZIMU VELO SNR AR TRES W  DIS CAZ7
 BAR2 SZ EP        517 41.72                             171     0.210   22 205 
 BAR2 SZ ES   1    517 56.41                             171    -0.3 7   22 205 
 BAR2 SZ I         517 58.48        17.3 0.28                            22 205 
 GIR2 SZ EP   1    517 41.93                             166     0.2 7   36 343 
 BRR  HZ EP        517 43.41                             150     0.010   77 299 
 GRA  SZ EP   1    517 47.28                             136     0.0 7  127  15 
 GRA  SZ ES   1    518  7.00                             136     0.0 7  127  15 
 GRA  SZ I         518  8.32         8.1 0.32                           127  15 
 OCA  SZ EP   1    517 50.60                             129     0.0 7  164 351 
 OCA  SZ ES   2    518 13.02                             129     0.1 5  164 351 
 OCA  SZ I         518 16.98         8.9 0.40                           164 351 
 NOR  SZ EP   1    517 57.39                             118    -0.6 6  237 236 
 NOR  SN ES   1    518 26.39                             118     0.3 6  237 236 
 CHI  HZ EP   1    517 59.85                             117     0.3 6  247 197 
 CHI  HZ I         518 35.05         4.8 0.34                           247 197 
 PRA  HZ EP   1    518 15.08                             106    -0.4 4  392 210 
                                                                                
