 2017  6 6 0948 13.4 L   6.779 -73.186148.9  RSN 13 0.3 2.0LRSN                1
 GAP=208        0.86       3.6     3.6  5.3  0.5156E+01  0.2608E+00  0.1376E+01E
 Epicentro: LOS SANTOS - SANTANDER                                             3
 ACTION:UPD 17-09-14 16:50 OP:jn   STATUS:               ID:20170606094813 L   I
 OLDACT:UP  17-06-06 17:23 OP:edw  STATUS:               ID:20170606094740     3
 OLDACT:UP  17-06-06 17:22 OP:edw  STATUS:               ID:20170606094740     3
 OLDACT:REG 17-06-06 12:36 OP:edw  STATUS:               ID:20170606094740     3
 2017-06-06-0948-00M.COL___344                                                 6
 STAT SP IPHASW D HRMM SECON CODA AMPLIT PERI AZIMU VELO AIN AR TRES W  DIS CAZ7
 BRR  HZ IP     D  948 34.70                             154   -0.0610 68.5 302 
 BRR  HN ES        948 51.69                             154    0.2810 68.5 302 
 BRR  HZ I         948 54.86        16.0 0.26            147           68.5 302 
 RUS  HZ EP        948 36.88                             145   -0.4610 98.7 173 
 RUS  HN ES        948 55.67                             145   -0.3410 98.7 173 
 RUS  HZ I         948 56.92        11.3 0.28            141           98.7 173 
 PTB  HZ EP   9    948 39.56                             134   -0.65 0  143 259 
 PTB  HN ES        948 59.98                             133   -0.49 9  143 259 
 PTB  HZ I         949  5.66         7.8 0.20            128            143 259 
 SPBC HZ EP        948 41.77                             131    0.04 9  159 218 
 SPBC HE ES        949  4.14                             131    0.32 9  159 218 
 SPBC HZ I         949  9.98        16.6 0.28            126            159 218 
 YPLC HZ IP     D  948 43.30                             127   -0.15 9  177 150 
 YPLC HN ES        949  7.49                             127    0.60 9  177 150 
 YPLC HZ I         949  8.22        14.3 0.28            127            177 150 
 ZAR  HZ EP        948 45.33                             123   -0.41 9  201 293 
 ZAR  HN ES        949 11.06                             123    0.11 9  201 293 
 ZAR  HZ I         949 15.72         9.6 0.18            120            201 293 
 NOR  HZ EP        948 49.28                             120    0.48 8  230 234 
 NOR  HN ES        949 15.89                             120   -0.52 8  230 234 
 NOR  HZ I         949 22.17         8.7 0.18            116            230 234 
 CHI  HZ EP        948 51.28                             118    0.35 8  245 194 
 CHI  HN ES        949 19.87                             118   -0.32 8  245 194 
 CHI  HZ I         949 26.39         4.4 0.42            116            245 194 
 ROSC BZ EP   4    948 53.32                             118    2.07 0  249 210 
 ROSC BN ES   4    949 23.76                             118    3.00 0  249 210 
 HEL  HZ EP   4    948 55.03                             116    1.78 0  267 256 
 HEL  HN ES   4    949 22.73                             116   -1.60 0  267 256 
 HEL  HZ I         949 33.08         5.9 0.40            113            267 256 
 URE  HZ EP   4    948 53.35                             114   -0.93 0  281 293 
 URE  HN ES   4    949 23.68                             114   -2.47 0  281 293 
 URE  HZ I         949 35.05         5.1 0.20            112            281 293 
 PTGC HZ IP   4 C  948 56.11                             112   -1.24 0  308 158 
 PTGC HN ES   4    949 29.75                             112   -1.88 0  308 158 
 PTGC HZ I         949 30.72         8.4 0.30            112            308 158 
 CBOC HZ EP   4    949  1.08                             111    1.18 0  329 252 
 CBOC HN ES        949 36.41                             111    0.25 7  329 252 
 CBOC HZ I         949 53.93         1.8 0.56            109            329 252 
 ORTC HZ EP        949  6.99                             107    0.07 6  391 216 
 ORTC HN ES   4    949 50.20                             107    1.54 0  391 216 
 ORTC HZ I         949 56.89         2.3 0.31            106            391 216 
 SJC  HZ EP   4    949  6.82                             106   -2.20 0  409 328 
 SJC  HN ES   4    949 48.01                             106   -4.39 0  409 328 
                                                                                
