 2015  8 6 0923 16.7 L   6.815 -73.073151.5  RSN 13 0.4 2.0LRSN                1
 GAP=190        0.85       2.7     4.7  5.3  0.5351E+00  0.6053E+01  0.7124E-01E
 Epicentro: LOS SANTOS - SANTANDER                                             3
 ACTION:UPD 15-09-15 23:00 OP:cam  STATUS:               ID:20150806092316 L   I
 OLDACT:REG 15-08-06 13:24 OP:spq  STATUS:               ID:20150806091749     3
 2015-08-06-0917-49M.COL___349                                                 6
 STAT SP IPHASW D HRMM SECON CODA AMPLIT PERI AZIMU VELO AIN AR TRES W  DIS CAZ7
 BAR2 EZ EP        923 37.15                             169    0.0410 27.4 206 
 BAR2 EZ ES        923 53.04                             169    0.0210 27.4 206 
 BAR2 EZ I         923 53.85        11.5 0.20            165           27.4 206 
 BRR  HZ EP     D  923 39.18                             151    0.3410 77.6 295 
 BRR  HN ES        923 56.36                             151    0.2610 77.6 295 
 BRR  HZ I         924  0.40        13.0 0.19            147           77.6 295 
 RUS  HZ EP   2    923 41.05                             145   -0.07 5  102 181 
 RUS  HN ES   2    923 59.93                             145   -0.23 5  102 181 
 RUS  HZ I         924  0.60         8.0 0.28            145            102 181 
 OCA  HZ EP        923 45.84                             131    0.42 9  160 350 
 OCA  HN ES        924  7.80                             131   -0.02 9  160 350 
 OCA  HZ I         924 13.56        23.9 0.46            131            160 350 
 ZAR  HZ EP        923 49.84                             123   -0.39 8  211 291 
 ZAR  HN ES        924 15.79                             123   -0.59 8  211 291 
 ZAR  HZ I         924 20.80        14.5 0.74            121            211 291 
 NOR  HN ES   2    924 22.44                             119    0.12 4  242 235 
 NOR  HZ I         924 25.23         5.7 0.24            118            242 235 
 SML  HZ EP        923 53.42                             118   -0.45 8  246 333 
 SML  HN ES        924 22.28                             118   -0.58 8  246 333 
 SML  HZ I         924 24.13        13.4 0.48            118            246 333 
 CHI  HZ EP   2    923 55.33                             118    0.20 4  252 197 
 CHI  HN ES        924 24.62                             118   -0.48 8  252 197 
 CHI  HZ I         924 30.37         3.9 0.30            118            252 197 
 HEL  HZ EP   2    923 59.22                             115    1.10 4  280 256 
 HEL  HN ES   2    924 29.76                             115   -0.65 4  280 256 
 HEL  HZ I         924 35.99         4.3 0.38            114            280 256 
 URE  HN ES        924 32.55                             114    0.88 7  291 291 
 GUY2CHZ EP   4    924  2.46                             113    1.03 0  309 235 
 GUY2CHN ES   4    924 39.46                             113    3.15 0  309 235 
 GUY2CHZ I         924 43.49         5.1 0.28                           309 235 
 TOL  SZ EP        924  6.30                             110    0.32 6  350 225 
 TOL  SN ES        924 44.45                             110    0.04 6  350 225 
 TOL  SZ I         924 50.92         4.1 0.46            110            350 225 
 MON  HZ EP   4    924  4.50                             109   -2.05 0  359 307 
 MON  HN ES   4    924 43.55                             109   -1.88 0  359 307 
 MON  HZ I         924 59.83         2.8 0.34            109            359 307 
                                                                                
