 2011  3 6 0812  4.4 L   6.791 -73.340135.0  RSN  6 0.4 1.5LRSN                1
 GAP=116        0.76       5.3    14.7 11.1 -0.3660E+02  0.5327E+02 -0.9895E+01E
 Epicentro: ZAPATOCA - SANTANDER                                               3
 *RUS-GRA-CHI-HEL                                                              3
 ACTION:UP  11-06-16 14:32 OP:jfem STATUS:               ID:20110306080855 L   I
 2011-03-06-0808-55S.COL___135                                                 6
 STAT SP IPHASW D HRMM SECON CODA AMPLIT PERI AZIMU VELO SNR AR TRES W  DIS CAZ7
 BAR2 SZ EP        812 22.73                             167    -0.210   28 142 
 BAR2 SZ ES   2    812 37.96                             167     0.7 5   28 142 
 RUS  HZ EP   2    812 26.96                             140    -0.4 5  103 164 
 RUS  HE ES   3    812 44.94                             140    -0.3 2  103 164 
 RUS  HZ I         812 46.37         3.5 0.19                           103 164 
 GRA  SZ EP        812 29.87                             132     0.310  135  26 
 GRA  SZ ES   1    812 48.90                             132    -0.2 7  135  26 
 GRA  SZ I         812 50.52         5.4 0.41                           135  26 
 OCA  SZ EP   2    812 32.37                             127     0.5 5  160   1 
 OCA  SZ ES   2    812 52.42                             127    -0.9 5  160   1 
 OCA  SZ I         812 56.08         4.8 0.25                           160   1 
 CHI  HZ EP   2    812 40.83                             115    -0.1 4  243 190 
 HEL  HE ES   3    813 11.07                             114     0.2 2  251 255 
 HEL  HZ I         813 14.29         1.5 0.38                           251 255 
                                                                                
