 2016  8 6 0501 29.4 L   6.779 -73.079140.0  RSN  5 0.2 1.1LRSN                1
 GAP=243        0.64       3.7     4.8  5.3  0.9040E+01 -0.5429E+01 -0.4442E+01E
 Epicentro: LOS SANTOS - SANTANDER                                             3
 ACTION:UPD 16-10-29 15:32 OP:rebc STATUS:               ID:20160806050129 L   I
 OLDACT:REG 16-08-06 12:50 OP:edw  STATUS:               ID:20160806045638     3
 2016-08-06-0457-00M.COL___359                                                 6
 STAT SP IPHASW D HRMM SECON CODA AMPLIT PERI AZIMU VELO AIN AR TRES W  DIS CAZ7
 BRR  HZ EP        5 1 50.20                             149   -0.2110 78.8 297 
 BRR  HN ES        5 2  6.75                             149   -0.0310 78.8 297 
 BRR  HZ I         5 2  7.87         2.5 0.28                          78.8 297 
 RUS  HZ EP        5 1 52.60                             143    0.1710 98.0 180 
 RUS  HE ES        5 2 10.50                             143    0.1310 98.0 180 
 RUS  HZ I         5 2 12.48         2.0 0.24                          98.0 180 
 PTB  HZ EP   9    5 1 55.39                             129   -1.17 0  155 260 
 PTB  HE ES        5 2 16.97                                    0.41 9  155 260 
 PTB  HZ I         5 2 21.08         1.3 0.24                           155 260 
 SPBC HZ EP        5 1 57.61                             127   -0.17 9  166 221 
 SPBC HN ES        5 2 19.66                             127   -0.23 9  166 221 
 SPBC HZ I         5 2 21.74         2.6 0.26                           166 221 
 ZAR  HZ EP        5 2  2.77                             120    0.46 8  212 292 
 ZAR  HN ES        5 2 27.85                             120   -0.10 8  212 292 
                                                                                
