 2015  5 6 0254  1.5 L   6.793 -73.173140.5  RSN  7 0.4 1.3LRSN                1
 GAP=133        0.89       3.6     4.3  7.0  0.2406E+00  0.4947E+01 -0.7882E+00E
 Epicentro: LOS SANTOS - SANTANDER                                             3
 ACTION:UPD 15-09-10 22:01 OP:cam  STATUS:               ID:20150506025401 L   I
 OLDACT:REG 15-05-06 12:02 OP:drio STATUS:               ID:20150506024748     3
 2015-05-06-0247-48M.COL___276                                                 6
 STAT SP IPHASW D HRMM SECON CODA AMPLIT PERI AZIMU VELO AIN AR TRES W  DIS CAZ7
 BAR2 EZ EP        254 20.38                             171   -0.1010 22.2 183 
 BAR2 EZ ES        254 34.78                             171   -0.5110 22.2 183 
 BAR2 EZ I         254 36.79         4.3 0.46            171           22.2 183 
 BRR  HZ EP        254 22.25                             152    0.2910 68.9 300 
 BRR  HN ES        254 38.52                             152    0.6110 68.9 300 
 BRR  HZ I         254 39.74         4.1 0.60            153           68.9 300 
 PAM  SZ EP        254 23.20                             149   -0.1210 79.9  41 
 PAM  SN ES        254 40.41                             149    0.0710 79.9  41 
 RUS  HZ EP        254 25.06                             143    0.3510  100 174 
 RUS  HN ES        254 42.74                             143   -0.0710  100 174 
 RUS  HZ I         254 44.13         2.8 0.30            144            100 174 
 SPBC HN ES        254 51.00                             128   -0.10 9  161 218 
 ZAR  HN ES        254 57.84                             121   -0.35 9  202 293 
 SML  HE ES   2    255  4.92                             116   -1.15 4  243 336 
                                                                                
