 2014 11 6 0803  7.7 L   6.789 -73.138141.3  RSN  8 0.5 1.8LRSN                1
 GAP=138        1.20       5.5     5.4  7.3 -0.1064E+02  0.1022E+02  0.6455E+01E
 Epicentro: LOS SANTOS - SANTANDER                                             3
 ACTION:UPD 14-12-19 15:39 OP:nd   STATUS:               ID:20141106080307 L   I
 OLDACT:REG 14-11-06 14:22 OP:carl STATUS:               ID:20141106075736     3
 2014-11-06-0757-36M.COL___282                                                 6
 STAT SP IPHASW D HRMM SECON CODA AMPLIT PERI AZIMU VELO AIN AR TRES W  DIS CAZ7
 BAR2 SZ EP        8 3 26.63                             171   -0.1010 22.3 193 
 BAR2 SZ ES        8 3 41.95                             171    0.3410 22.3 193 
 BAR2 SZ I         8 3 43.80        13.2 0.20            170           22.3 193 
 BRR  HZ IP     C  8 3 28.38                             151   -0.0310 72.5 299 
 BRR  HN ES        8 3 45.07                             151    0.4810 72.5 299 
 BRR  HZ I         8 3 49.27        13.7 0.14            152           72.5 299 
 PAM  SZ IP     C  8 3 29.48                             150    0.0510 77.8  38 
 PAM  SN ES        8 3 46.38                             150   -0.0310 77.8  38 
 PAM  SZ I         8 3 48.72        13.4 0.52            155           77.8  38 
 RUS  HZ EP        8 3 30.72                             143   -0.1610 99.3 177 
 RUS  HN ES        8 3 48.75                             143   -0.2510 99.3 177 
 RUS  HZ I         8 3 51.47         5.3 0.36            146           99.3 177 
 PTB  HZ EP        8 3 33.20                             131   -1.12 9  148 259 
 PTB  HN ES        8 3 54.47                             131   -0.65 9  148 259 
 PTB  HZ I         8 3 57.72         8.2 0.16            133            148 259 
 SPBC HZ EP        8 3 35.65                             128   -0.13 9  163 219 
 SPBC HE ES        8 3 57.91                             128    0.19 9  163 219 
 SPBC HZ I         8 4  3.20         7.0 0.36            130            163 219 
 NOR  HZ EP        8 3 43.49                             118    0.36 8  235 235 
 NOR  HE ES        8 4 10.72                             118   -0.08 8  235 235 
 NOR  HZ I         8 4 14.44         5.9 0.30            120            235 235 
 GUY2CHZ EP        8 3 52.37                             111    1.31 7  301 235 
 GUY2CHE ES        8 4 25.57                             111    0.65 7  301 235 
 GUY2CHZ I         8 4 33.02         3.3 0.38                           301 235 
                                                                                
