 2010 10 6 0955 51.0 L   7.387 -73.509104.0  RSN  4 0.4 1.3LRSN                1
 GAP=161        1.01      15.7    14.1 11.7 -0.1893E+03  0.5926E+02 -0.1024E+03E
 Epicentro: SABANA DE TORRES - SANTANDER                                       3
 ACTION:UP  11-02-18 11:08 OP:tino STATUS:               ID:20101006095551 L   I
 2010-10-06-0952-05S.COL___121                                                 6
 STAT SP IPHASW D HRMM SECON CODA AMPLIT PERI AZIMU VELO SNR AR TRES W  DIS CAZ7
 BRR  HZ EP        956  5.75                             158    -0.110   38 216 
 BRR  HN ES        956 17.50                             158     0.110   38 216 
 BRR  HZ I         956 18.23         5.0 0.18                            38 216 
 GUE  SZ EP        956  8.69                             139    -0.310   81  53 
 GUE  SZ ES   1    956 22.39                             139    -0.7 7   81  53 
 GRA  SZ EP        956 10.21                             134     0.210   95  55 
 GRA  SZ ES   1    956 25.53                             134     0.7 7   95  55 
 GRA  SZ I         956 26.94         6.9 0.33                            95  55 
 OCA  SZ EP        956 10.17                             134     0.110   96  13 
 OCA  SZ I         956 10.52         3.7 0.15                            96  13 
                                                                                
