 2013  3 6 0423 42.1 L   6.797 -73.074147.4  RSN  9 0.4 2.0LRSN                1
 GAP=190        0.84       3.0     5.5  6.0  0.2099E+01  0.8001E+01  0.2232E+01E
 Epicentro: LOS SANTOS - SANTANDER                                             3
 ACTION:UPD 13-04-09 14:00 OP:ep   STATUS:               ID:20130306042342 L   I
 2013-03-06-0420-00M.COL___228                                                 6
 STAT SP IPHASW D HRMM SECON CODA AMPLIT PERI AZIMU VELO AIN AR TRES W  DIS CAZ7
 BAR2 SZ EP        424  1.92                             170   -0.0510 25.6 208 
 BAR2 SZ ES   2    424 16.59                             170   -0.88 5 25.6 208 
 BAR2 SZ I         424 18.75        22.3 0.25            167           25.6 208 
 BRR  HZ IP     C  424  3.82                             150   -0.0210 78.4 296 
 BRR  HN ES        424 21.33                             150    0.5310 78.4 296 
 RUS  HN EP        424  6.13                             144    0.1710100.0 181 
 RUS  HN ES        424 24.50                             144   -0.0810100.0 181 
 RUS  HN I         424 25.26        14.7 0.32            145          100.0 181 
 OCA  HN ES        424 32.91                             130   -0.05 9  162 350 
 OCA  HZ I         424 37.89         9.1 0.18            130            162 350 
 ZAR  HE ES   2    424 40.55                             122   -0.87 4  212 291 
 ZAR  HZ I         424 45.54        10.2 0.40            121            212 291 
 SML  HZ IPg       424 18.47                             117   -0.75 8  247 334 
 SML  HE ES   2    424 48.60                             117    0.43 4  247 334 
 SML  HZ I         424 51.11        10.3 0.10            117            247 334 
 CHI  HZ EP   2    424 20.00                             117   -0.08 4  250 197 
 CHI  HN ES   2    424 49.83                             117    0.12 4  250 197 
 CHI  HZ I         424 55.04         3.3 0.48            117            250 197 
 HEL  HZ EP        424 24.03                             114    0.80 7  280 256 
 HEL  HN ES        424 55.00                             114   -0.32 7  280 256 
 HEL  HZ I         425  0.21         2.9 0.34            114            280 256 
 PRA  HZ EP        424 36.37                             107    0.27 6  396 211 
 PRA  HN ES        425 17.96                             107   -0.26 6  396 211 
 PRA  HZ I         425 21.22         3.6 0.34            107            396 211 
                                                                                
