 2013 12 6 0803  4.1 L   6.794 -73.127145.0  RSN 17 0.5 1.9LRSN                1
 GAP=139        1.23       3.3     5.1  6.2 -0.2036E+01  0.7049E+01  0.1619E+01E
 Epicentro: LOS SANTOS - SANTANDER                                             3
 ACTION:UPD 14-01-13 10:16 OP:ep   STATUS:               ID:20131206080304 L   I
 OLDACT:UP  13-12-06 08:37 OP:nd   STATUS:               ID:20131206080000     3
 OLDACT:REG 13-12-06 07:35 OP:carl STATUS:               ID:20131206080000     3
 2013-12-06-0800-00M.COL___285                                                 6
 STAT SP IPHASW D HRMM SECON CODA AMPLIT PERI AZIMU VELO AIN AR TRES W  DIS CAZ7
 BAR2 SZ EP        8 3 24.03                             171    0.3810 23.1 195 
 BAR2 SZ ES        8 3 39.08                             171    0.1910 23.1 195 
 BAR2 SZ I         8 3 40.19        24.5 0.28            167           23.1 195 
 BRR  HZ EP        8 3 25.88                             152    0.5710 73.3 298 
 BRR  HN ES        8 3 42.55                             152    0.7110 73.3 298 
 BRR  HZ I         8 3 46.89        14.7 0.56            147           73.3 298 
 PAM  SZ EP        8 3 26.82                             151    0.6110 76.6  38 
 PAM  SN ES        8 3 43.25                             151   -0.1910 76.6  38 
 PAM  SZ I         8 3 46.19        11.9 0.44            155           76.6  38 
 RUS  HZ EP        8 3 27.88                             144    0.1510 99.8 177 
 RUS  HN ES        8 3 45.58                             144   -0.5810 99.8 177 
 RUS  HZ I         8 3 47.86         6.6 0.36            146           99.8 177 
 PTB  HZ EP        8 3 30.99                             131   -0.20 9  150 259 
 PTB  HN ES        8 3 51.50                             131   -0.81 9  150 259 
 PTB  HZ I         8 3 59.64        10.0 0.30            129            150 259 
 OCA  HZ EP        8 3 31.12                             129   -1.34 9  161 352 
 OCA  HN ES        8 3 54.10                             129   -0.47 9  161 352 
 OCA  HZ I         8 4  2.43        10.7 0.36            130            161 352 
 SPBC HZ EP        8 3 32.94                             129    0.31 9  164 220 
 SPBC HN ES        8 3 55.10                             129    0.23 9  164 220 
 SPBC HZ I         8 4  0.07        15.3 0.38            128            164 220 
 ZAR  HZ EP        8 3 36.82                             122    0.08 8  206 292 
 ZAR  HN ES        8 4  2.48                             122    0.30 8  206 292 
 ZAR  HZ I         8 4  8.23        10.4 0.30            121            206 292 
 NOR  HZ EP        8 3 40.03                             118    0.09 8  236 235 
 NOR  HN ES   2    8 4  7.69                             118   -0.19 4  236 235 
 NOR  HZ I         8 4 11.85         7.3 0.22            118            236 235 
 SML  HZ EP        8 3 40.89                             117    0.03 8  245 335 
 SML  HN ES   2    8 4  9.22                             117   -0.30 4  245 335 
 SML  HZ I         8 4 15.39        18.6 0.10            117            245 335 
 CHI  HZ EP        8 3 42.02                             117    0.26 8  249 196 
 CHI  HN ES        8 4 10.36                             117   -0.76 8  249 196 
 CHI  HZ I         8 4 17.38         3.5 0.38            118            249 196 
 HEL  HZ EP   4    8 3 46.11                             114    1.62 0  274 256 
 HEL  HN ES   4    8 4 14.00                             114   -1.98 0  274 256 
 HEL  HZ I         8 4 20.49         2.4 0.44            114            274 256 
 GUY2CHZ EP   4    8 3 48.74                             112    0.91 0  302 235 
 GUY2CHN ES   4    8 4 22.05                             112    0.12 0  302 235 
 GUY2CHZ I         8 4 30.90         5.8 0.76                           302 235 
 RREF HZ EP   4    8 3 51.85                             111    1.50 0  323 230 
 RREF HN ES   4    8 4 28.35                             111    1.94 0  323 230 
 RREF HZ I         8 4 32.65         4.6 0.24            111            323 230 
 CBOC HZ EP   4    8 3 51.60                             110    0.40 0  335 252 
 CBOC HN ES   4    8 4 25.70                             110   -2.22 0  335 252 
 CBOC HZ I         8 4 37.13         0.8 0.14            110            335 252 
 PRA  HZ EP        8 3 58.31                             106    0.65 6  392 210 
 PRA  HN ES        8 4 39.13                             106   -0.29 6  392 210 
 PRA  HZ I         8 4 45.78         4.7 0.36            107            392 210 
 SJC  HZ EP   4    8 3 58.08                             105   -1.77 0  411 327 
 SJC  HN ES   4    8 4 38.72                             105   -4.61 0  411 327 
 SJC  HZ I         8 4 51.94         1.7 0.42            106            411 327 
                                                                                
