 2017  2 6 0422  1.4 L   7.181 -73.568125.9  RSN  5 0.2 1.3LRSN                1
 GAP=223        0.45       5.9     3.1  4.0  0.8242E+01  0.2953E+01  0.8102E+01E
 Epicentro: SABANA DE TORRES - SANTANDER                                       3
 ACTION:UPD 17-05-24 15:33 OP:jn   STATUS:               ID:20170206042201 L   I
 OLDACT:UP  17-02-06 18:11 OP:edw  STATUS:               ID:20170206041744     3
 OLDACT:UP  17-02-06 18:10 OP:edw  STATUS:               ID:20170206041744     3
 OLDACT:REG 17-02-06 11:50 OP:edw  STATUS:               ID:20170206041744     3
 2017-02-06-0418-00M.COL___325                                                 6
 STAT SP IPHASW D HRMM SECON CODA AMPLIT PERI AZIMU VELO AIN AR TRES W  DIS CAZ7
 BRR  HZ IP   4 D  422 15.32                             172   -2.89 0 17.9 243 
 BRR  HN ES        422 31.38                             172    0.0910 17.9 243 
 BRR  HZ I         422 39.57         4.5 0.16            172           17.9 243 
 BAR2 EZ EP   4    422 25.08                             146    3.83 0 77.8 147 
 BAR2 EZ ES        422 36.63                             146   -0.0710 77.8 147 
 BAR2 EZ I         422 38.05         7.0 0.26            155           77.8 147 
 PTB  HZ EP        422 24.58                             133    0.2110  121 234 
 PTB  HN ES        422 42.20                             133   -0.0610  121 234 
 PTB  HZ I         422 44.61         2.4 0.26            140            121 234 
 ZAR  HE ES   2    422 45.96                             127   -0.50 5  147 284 
 RUS  HZ EP        422 27.87                             126   -0.06 9  152 159 
 RUS  HN ES   4    422 46.92                             126   -1.67 0  152 159 
 RUS  HZ I         422 48.05         2.0 0.20            135            152 159 
                                                                                
