 2016  3 6 0241 11.3 L   6.798 -73.171141.1  RSN  6 0.4 1.6LRSN                1
 GAP=133        1.11       4.3     5.0  8.2 -0.1860E+01  0.1411E+02 -0.8030E+01E
 Epicentro: LOS SANTOS - SANTANDER                                             3
 ACTION:UPD 16-05-13 21:21 OP:cam  STATUS:               ID:20160306024111 L   I
 OLDACT:UP  16-03-06 14:20 OP:ar   STATUS:               ID:20160306023750     3
 OLDACT:REG 16-03-06 13:03 OP:ar   STATUS:               ID:20160306023750     3
 2016-03-06-0237-50M.COL___328                                                 6
 STAT SP IPHASW D HRMM SECON CODA AMPLIT PERI AZIMU VELO AIN AR TRES W  DIS CAZ7
 BAR2 EZ EP        241 30.40                             170    0.0510 22.8 183 
 BAR2 EZ ES        241 45.34                             170    0.1210 22.8 183 
 BAR2 EZ I         241 46.39         9.2 0.14            171           22.8 183 
 PAM  EZ EP        241 33.30                             149    0.1610 79.4  41 
 PAM  EN ES        241 50.36                             149    0.1810 79.4  41 
 PAM  EZ I         241 52.53         5.4 0.62            152           79.4  41 
 RUS  HZ EP        241 34.43                             143   -0.1510  101 174 
 RUS  HN ES        241 52.86                             143    0.1010  101 174 
 RUS  HZ I         241 53.32         4.0 0.46            146            101 174 
 PTB  HZ EP        241 36.99                             131   -0.63 9  145 259 
 PTB  HN ES        241 57.78                             131   -0.38 9  145 259 
 PTB  HZ I         242  1.32         3.9 0.28            132            145 259 
 OCA  HZ EP        241 39.70                             129    0.47 9  160 354 
 OCA  HN ES        242  0.12                             129   -0.91 9  160 354 
 OCA  HZ I         242  1.57        11.1 0.20            130            160 354 
 ZAR  HZ EP        241 43.41                             122    0.24 9  202 293 
 ZAR  HN ES        242  8.90                             122    0.86 9  202 293 
 ZAR  HZ I         242 15.24         5.7 0.30            122            202 293 
                                                                                
