 2017  2 6 0100 51.3 L   6.730 -73.196143.9  RSN  4 0.4 1.0LRSN                1
 GAP=226        0.94       7.5     7.5  7.8  0.3044E+02  0.1253E+02  0.6456E+01E
 Epicentro: VILLANUEVA - SANTANDER                                             3
 ACTION:UPD 17-05-24 15:33 OP:jn   STATUS:               ID:20170206010051 L   I
 OLDACT:DUP 17-02-06 15:10 OP:edw  STATUS:               ID:20170206005745d    3
 2017-02-06-0058-00M.COL___328                                                 6
 STAT SP IPHASW D HRMM SECON CODA AMPLIT PERI AZIMU VELO AIN AR TRES W  DIS CAZ7
 BAR2 EZ ES        1 1 25.04                             174   -0.6210 15.3 174 
 BRR  HZ EP        1 1 12.51                             152    0.2410 70.7 306 
 BRR  HN ES        1 1 28.94                             152    0.3510 70.7 306 
 RUS  HZ EP        1 1 14.46                             145    0.0510 93.4 172 
 RUS  HN ES        1 1 32.77                             145    0.3710 93.4 172 
 RUS  HZ I         1 1 34.20         1.9 0.42            144           93.4 172 
 PTB  HZ EP        1 1 17.11                             133   -0.44 9  141 261 
 PTB  HN ES        1 1 38.00                             133    0.01 9  141 261 
 PTB  HZ I         1 1 40.85         1.5 0.18            131            141 261 
                                                                                
