 2016  1 6 0309 30.1 L   6.797 -73.157141.4  RSN 19 0.5 2.4LRSN                1
 GAP=135        1.10       2.5     3.8  5.2 -0.1956E+01  0.6183E+01  0.1128E+01E
 Epicentro: LOS SANTOS - SANTANDER                                             3
 ACTION:UPD 16-03-09 23:23 OP:cam  STATUS:               ID:20160106030930 L   I
 OLDACT:REG 16-01-06 12:15 OP:drio STATUS:               ID:20160106030742     3
 2016-01-06-0307-42M.COL___273                                                 6
 STAT SP IPHASW D HRMM SECON CODA AMPLIT PERI AZIMU VELO AIN AR TRES W  DIS CAZ7
 BAR2 EZ IP     C  3 9 49.30                             170    0.0710 22.9 187 
 BAR2 EZ ES        310  3.81                             170   -0.3110 22.9 187 
 BAR2 EZ I         310  5.22        55.0 0.18            167           22.9 187 
 BRR  HZ EP        3 9 51.30                             152    0.5410 70.2 299 
 BRR  HE ES        310  7.96                             152    1.1210 70.2 299 
 BRR  HZ I         310 11.88        50.0 0.22            147           70.2 299 
 PAM  EZ EP        3 9 52.23                             150    0.2810 78.4  40 
 PAM  EN ES        310  9.13                             150    0.1710 78.4  40 
 PAM  EZ I         310 11.16        51.9 0.42            155           78.4  40 
 RUS  HZ EP        3 9 53.28                             143   -0.1610  100 175 
 RUS  HE ES        310 11.47                             143   -0.1510  100 175 
 RUS  HZ I         310 12.56        20.0 0.22            145            100 175 
 PTB  HZ EP        3 9 56.02                             131   -0.61 9  146 259 
 PTB  HN ES        310 16.82                             131   -0.48 9  146 259 
 PTB  HZ I         310 19.35        29.7 0.16            129            146 259 
 OCA  HZ EP        3 9 57.53                             129   -0.59 9  160 354 
 OCA  HN ES        310 19.22                             129   -0.73 9  160 354 
 OCA  HZ I         310 26.72        50.1 0.32            130            160 354 
 SPBC HZ EP        3 9 58.25                             128    0.05 9  162 219 
 SPBC HN ES        310 19.72                             128   -0.38 9  162 219 
 SPBC HZ I         310 27.52        27.4 0.20            128            162 219 
 ZAR  HZ EP        310  2.88                             122    0.69 9  203 292 
 ZAR  HE ES        310 27.46                             122    0.27 9  203 292 
 ZAR  HZ I         310 35.66        29.7 0.44            121            203 292 
 NOR  HZ EP        310  5.47                             118   -0.02 8  234 234 
 NOR  HN ES        310 33.47                             118    0.41 8  234 234 
 NOR  HZ I         310 39.07        16.3 0.16            118            234 234 
 SML  HZ EP        310  5.60                             117   -0.89 8  243 336 
 SML  HE ES        310 34.73                             117   -0.12 8  243 336 
 SML  HZ I         310 38.81        31.1 0.10            118            243 336 
 CHI  HZ EP        310  8.02                             116    0.49 8  248 195 
 CHI  HE ES        310 36.53                             116   -0.16 8  248 195 
 CHI  HZ I         310 40.88         8.1 0.38            118            248 195 
 ROSC BZ EP   4    310  9.59                             116    1.67 0  252 211 
 ROSC BE ES        310 37.27                             116   -0.12 8  252 211 
 ROSC BZ I         310 45.61        28.8 0.45            117            252 211 
 HEL  HZ EP   4    310 11.23                             114    1.24 0  271 256 
 HEL  HE ES        310 40.61                             114   -0.46 8  271 256 
 HEL  HZ I         311  1.56         6.2 0.30            114            271 256 
 URE  HZ EP        310 11.37                             113    0.49 7  283 292 
 URE  HN ES   4    310 38.30                             113   -4.36 0  283 292 
 GUY2CHZ EP   4    310 14.90                             112    1.49 0  300 235 
 GUY2CHE ES        310 47.38                             112    0.22 7  300 235 
 GUY2CHZ I         310 54.49         8.8 0.30                           300 235 
 PRA  HZ EP        310 23.80                             106    0.39 6  391 209 
 PRA  HN ES        311  4.43                             106   -0.53 6  391 209 
 PRA  HZ I         311 12.50        10.7 0.52            107            391 209 
 ORTC HZ EP        310 24.44                             106    0.65 6  394 216 
 ORTC HN ES        311  5.99                             106    0.34 6  394 216 
 ORTC HZ I         311 14.38         7.1 0.58            107            394 216 
 PAL  HZ EP        310 25.21                             105    0.20 6  404 239 
 PAL  HN ES        311  7.36                             105   -0.45 6  404 239 
 PAL  HZ I         311 18.70         7.6 0.10            106            404 239 
 SJC  HZ EP   4    310 24.02                             105   -1.48 0  409 327 
 SJC  HN ES   4    311  4.15                             105   -4.54 0  409 327 
 SJC  HZ I         311  9.32         7.5 0.42            106            409 327 
                                                                                
