 2011 10 6 0137 59.3 L   6.786 -73.144140.9  RSN  9 0.4 2.4LRSN                1
 GAP=137        0.83       3.6     4.9  6.2 -0.5438E+01  0.1077E+02 -0.2871E+01E
 Epicentro: LOS SANTOS - SANTANDER                                             3
 ACTION:UPD 12-07-13 16:02 OP:ep   STATUS:               ID:20111006013759 L   I
 2011-10-06-0136-41S.COL___156                                                 6
 STAT SP IPHASW D HRMM SECON CODA AMPLIT PERI AZIMU VELO AIN AR TRES W  DIS CAZ7
 BAR2 SZ EP        138 18.25                             171   -0.0710 21.9 191 
 BAR2 SZ ES   1    138 33.02                             171   -0.13 7 21.9 191 
 BAR2 SZ I         138 34.37        61.8 0.22                          21.9 191 
 BRR  HZ EP        138 20.14                             151    0.1610 72.1 300 
 BRR  HN ES   1    138 36.78                             151    0.68 7 72.1 300 
 BRR  HZ I         138 38.28        91.4 0.12                          72.1 300 
 PAM  SZ EP        138 21.04                             150   -0.0310 78.4  39 
 PAM  SE ES   1    138 37.67                             150   -0.37 7 78.4  39 
 RUS  HZ EP   1    138 22.32                             143   -0.15 7 99.1 176 
 RUS  HE ES        138 40.72                             143    0.1910 99.1 176 
 RUS  HZ I         138 42.37        20.1 0.30                          99.1 176 
 BRI  SZ EP   1    138 22.77                             140   -0.07 7  110  20 
 OCA  SZ EP   1    138 27.08                             128   -0.31 7  162 353 
 OCA  SZ ES   1    138 49.33                             128    0.04 7  162 353 
 OCA  SZ I         138 52.17        32.5 0.32                           162 353 
 NOR  SZ EP   1    138 34.50                             118   -0.18 6  234 235 
 NOR  SE ES   1    139  1.10                             118   -1.16 6  234 235 
 HEL  HZ EP   1    138 39.83                             114    0.58 6  272 256 
 HEL  HN ES   1    139 10.12                             114   -0.29 6  272 256 
 HEL  HZ I         139 17.49        17.7 0.22                           272 256 
 RREF HZ EP   1    138 46.26                             110    1.12 5  321 230 
 RREF HZ I         139 28.15        10.7 0.48                           321 230 
                                                                                
