 2012  2 6 0258 58.4 L   6.750 -73.199154.5  RSN  5 0.2 1.4LRSN                1
 GAP=227        0.48       5.2     4.8  6.4  0.1603E+02 -0.3040E+01 -0.3725E+01E
 ACTION:UP  12-03-07 16:28 OP:epov STATUS:               ID:20120206025858 L   I
 2012-02-06-0256-00S.MAN___181                                                 6
 STAT SP IPHASW D HRMM SECON CODA AMPLIT PERI AZIMU VELO SNR AR TRES W  DIS CAZ7
 BAR2 SZ EP   1    259 18.63                             173   -0.31 7 17.5 174 
 BAR2 SZ I         259 35.88         3.7 0.19                          17.5 174 
 BRR  HZ EP   1    259 20.49                             155    0.14 7 69.1 305 
 BRR  HN ES   1    259 37.40                             155   -0.10 7 69.1 305 
 BRR  HZ I         259 41.46         5.3 0.22                          69.1 305 
 RUS  HZ EP   1    259 22.75                             147    0.11 7 95.7 172 
 RUS  HN ES   1    259 41.80                             147    0.21 7 95.7 172 
 PTB  HZ EP   1    259 25.32                             135   -0.14 7  141 261 
 PTB  HN ES   1    259 46.37                             135   -0.23 7  141 261 
 PTB  HZ I         259 49.11                                            141 261 
 ZAR  HN ES   1    259 56.96                             125    0.39 6  201 294 
                                                                                
