 2013  9 6 0216 28.8 L   6.774 -73.160151.2  RSN  7 0.4 1.7LRSN                1
 GAP=136        0.91       3.7     5.4  6.3 -0.3486E+01  0.4617E+01 -0.2914E+00E
 Epicentro: LOS SANTOS - SANTANDER                                             3
 ACTION:UPD 13-10-22 09:20 OP:ep   STATUS:               ID:20130906021629dL   I
 OLDACT:UP  13-09-06 08:54 OP:cam  STATUS:               ID:20130906020959     3
 OLDACT:REG 13-09-06 07:53 OP:cam  STATUS:               ID:20130906020959     3
 2013-09-06-0209-59M.COL___269                                                 6
 STAT SP IPHASW D HRMM SECON CODA AMPLIT PERI AZIMU VELO AIN AR TRES W  DIS CAZ7
 BAR2 SZ EP        216 48.71                             172   -0.3110 20.3 187 
 BAR2 SZ ES        217  4.66                             172   -0.1410 20.3 187 
 BAR2 SZ I         217  6.76         7.8 0.40            170           20.3 187 
 BRR  HZ EP        216 50.85                             153    0.3210 71.2 301 
 BRR  HN ES        217  8.11                             153    0.6310 71.2 301 
 BRR  HZ I         217 10.78         7.7 0.60            151           71.2 301 
 PAM  SZ EP     C  216 51.74                             151   -0.0410 80.6  39 
 PAM  SN ES        217  9.57                             151   -0.1310 80.6  39 
 PAM  SZ I         217 11.06         6.1 0.58            155           80.6  39 
 RUS  HZ EP        216 53.45                             146    0.5610 97.9 175 
 RUS  HN ES        217 11.49                             146   -0.2010 97.9 175 
 RUS  HZ I         217 12.64         6.3 0.24            147           97.9 175 
 PTB  HN ES   2    217 16.64                             134   -0.62 5  146 260 
 SPBC HZ EP        216 57.54                             131    0.13 9  160 219 
 SPBC HN ES        217 19.38                             131   -0.36 9  160 219 
 SPBC HZ I         217 27.04         5.7 0.20            131            160 219 
 SML  HZ EP   2    217  5.28                             118   -0.65 4  246 336 
 SML  HN ES   1    217 34.18                             118   -0.72 6  246 336 
 SML  HZ I         217 37.78        10.7 0.28            119            246 336 
                                                                                
