 2013  8 6 0221 43.6 L   6.680 -73.195148.4  RSN  6 0.3 1.3LRSN                1
 GAP=171        0.70       5.3     4.8  5.9  0.1219E+02  0.3364E+01 -0.3661E+01E
 Epicentro: VILLANUEVA - SANTANDER                                             3
 ACTION:UPD 14-01-14 08:59 OP:ep   STATUS:               ID:20130806022143 L   I
 OLDACT:REG 13-08-06 07:37 OP:jn   STATUS:               ID:20130806021959     3
 2013-08-06-0219-59M.COL___268                                                 6
 STAT SP IPHASW D HRMM SECON CODA AMPLIT PERI AZIMU VELO AIN AR TRES W  DIS CAZ7
 BAR2 SZ EP   1    222  3.17                             176   -0.14 7 9.78 171 
 BAR2 SZ ES        222 18.98                             176    0.2610 9.78 171 
 BAR2 SZ I         222 19.17         5.5 0.22            176           9.78 171 
 GIR2 SZ EP   1    222  3.29                             162   -0.66 7 44.1   0 
 BRR  HZ EP        222  5.23                             152    0.0710 74.1 310 
 BRR  HN ES   1    222 22.11                             152    0.10 7 74.1 310 
 BRR  HZ I         222 23.75         3.7 0.54            153           74.1 310 
 RUS  HZ EP        222  7.10                             148    0.3910 87.9 172 
 RUS  HN ES        222 24.53                             148   -0.2410 87.9 172 
 RUS  HZ I         222 26.51         3.1 0.26            149           87.9 172 
 PTB  HZ EP        222 10.12                             134    0.04 9  140 264 
 PTB  HN ES        222 30.49                             134   -0.28 9  140 264 
 PTB  HZ I         222 31.40         2.7 0.28            135            140 264 
 ZAR  HN ES   1    222 41.98                             123    0.29 6  204 296 
                                                                                
