 2017  5 6 0008 32.0 L   6.824 -73.105155.6  RSN 12 0.5 1.9LRSN                1
 GAP=115        0.88       3.4     3.9  5.4  0.3400E+01 -0.1057E+00  0.1139E+01E
 Epicentro: LOS SANTOS - SANTANDER                                             3
 ACTION:UPD 17-06-16 13:33 OP:jn   STATUS:               ID:20170506000832 L   I
 OLDACT:UP  17-05-06 14:25 OP:and  STATUS:               ID:20170506000004     3
 OLDACT:UP  17-05-06 14:24 OP:and  STATUS:               ID:20170506000004     3
 OLDACT:UP  17-05-06 14:24 OP:and  STATUS:               ID:20170506000004     3
 OLDACT:UP  17-05-06 14:22 OP:and  STATUS:               ID:20170506000004     3
 OLDACT:UP  17-05-06 14:22 OP:and  STATUS:               ID:20170506000004     3
 OLDACT:UP  17-05-06 14:21 OP:and  STATUS:               ID:20170506000004     3
 OLDACT:UP  17-05-06 14:21 OP:and  STATUS:               ID:20170506000004     3
 OLDACT:UP  17-05-06 14:20 OP:and  STATUS:               ID:20170506000004     3
 OLDACT:REG 17-05-06 12:22 OP:and  STATUS:               ID:20170506000004     3
 2017-05-06-0000-15M.COL___333                                                 6
 STAT SP IPHASW D HRMM SECON CODA AMPLIT PERI AZIMU VELO AIN AR TRES W  DIS CAZ7
 PAM  EZ IP     C  0 8 55.47                             153    0.5010 72.5  38 
 PAM  EN ES        0 9 12.43                             153   -0.4810 72.5  38 
 PAM  EZ I         0 9 14.42         8.6 0.22            157           72.5  38 
 BRR  HZ IP     C  0 8 54.64                             153    0.3010 74.0 295 
 BRR  HE ES        0 9 12.07                             153    0.2910 74.0 295 
 BRR  HZ I         0 9 15.56        18.7 0.12            152           74.0 295 
 RUS  HZ EP        0 8 56.82                             145   -0.0510  103 179 
 RUS  HN ES        0 9 15.71                             145   -0.5810  103 179 
 RUS  HZ I         0 9 16.70        12.7 0.18            144            103 179 
 PTB  HZ EP   9    0 8 59.48                             133   -0.71 0  153 258 
 PTB  HN ES        0 9 21.20                             133   -0.29 9  153 258 
 PTB  HZ I         0 9 23.93         9.3 0.32            132            153 258 
 SPBC HZ EP        0 9  1.93                             130    0.24 9  168 220 
 SPBC HN ES   2    0 9 25.07                             130    0.19 5  168 220 
 SPBC HZ I         0 9 29.09        10.6 0.10            129            168 220 
 YPLC HZ EP        0 9  3.11                             128    0.59 9  177 153 
 YPLC HN ES        0 9 26.29                             128   -0.07 9  177 153 
 YPLC HZ I         0 9 29.35        11.1 0.30            129            177 153 
 ZAR  HZ EP   2    0 9  5.33                             123   -0.06 4  207 291 
 ZAR  HN ES        0 9 31.23                             123   -0.23 8  207 291 
 NOR  HZ EP   2    0 9  8.08                             119   -0.75 4  240 235 
 NOR  HE ES   2    0 9 37.84                             119    0.25 4  240 235 
 NOR  HZ I         0 9 40.67         6.5 0.18            119            240 235 
 CHI  HZ EP   9    0 9 11.93                             118    1.30 0  252 196 
 CHI  HN ES        0 9 41.83                             118   -0.26 8  252 196 
 CHI  HZ I         0 9 42.90         2.7 0.38            119            252 196 
 HEL  HZ EP   4    0 9 15.57                             116    2.33 0  277 255 
 HEL  HN ES   4    0 9 44.24                             116   -1.20 0  277 255 
 HEL  HZ I         0 9 53.00         5.3 0.42            116            277 255 
 PTGC HZ EP   2    0 9 15.93                             113   -0.45 4  310 160 
 PTGC HN ES   3    0 9 49.25                             113   -1.78 2  310 160 
 SJC  HZ IP        0 9 27.01                             107   -0.88 6  409 326 
 SJC  HN ES   4    010  8.46                             107   -3.05 0  409 326 
                                                                                
