 2017  4 6 0626 58.8 L   6.723 -73.177139.1  RSN  6 0.4 1.0LRSN                1
 GAP=136        0.92       4.5     4.0  6.2  0.1758E+01  0.6558E+01 -0.1553E+01E
 Epicentro: VILLANUEVA - SANTANDER                                             3
 ACTION:UPD 17-05-30 21:08 OP:jn   STATUS:               ID:20170406062658 L   I
 OLDACT:REG 17-04-06 13:00 OP:cara STATUS:               ID:20170406061601     3
 2017-04-06-0618-00M.COL___359                                                 6
 STAT SP IPHASW D HRMM SECON CODA AMPLIT PERI AZIMU VELO AIN AR TRES W  DIS CAZ7
 BAR2 EZ EP        627 17.32                             174   -0.1310 14.5 182 
 BAR2 EZ ES        627 31.64                             174   -0.3710 14.5 182 
 BAR2 EZ I         627 35.39         3.2 0.54            174           14.5 182 
 BRR  HZ EP        627 19.66                             151    0.3710 72.8 306 
 BRR  HN ES        627 35.70                             151    0.4010 72.8 306 
 PAM  EZ EP        627 20.51                             147   -0.3410 86.2  38 
 PAM  EN ES        627 38.11                             147    0.0410 86.2  38 
 PAM  EZ I         627 40.40         1.6 0.46            149           86.2  38 
 RUS  HZ EP        627 21.16                             145   -0.1210 92.4 174 
 RUS  HN ES        627 39.28                             145    0.4410 92.4 174 
 RUS  HZ I         627 40.35         1.1 0.26            147           92.4 174 
 PTB  HZ EP        627 24.38                             131   -0.37 9  143 262 
 PTB  HN ES        627 44.76                             131   -0.26 9  143 262 
 PTB  HZ I         627 46.09         1.4 0.52            134            143 262 
 ZAR  HZ EP        627 31.50                             121    0.69 9  204 295 
 ZAR  HN ES        627 55.46                             121   -0.34 9  204 295 
                                                                                
