 2016  6 6 0028 31.4 L   6.830 -73.147151.9  RSN  8 0.4 1.7LRSN                1
 GAP=135        0.94       3.1     4.8  6.7 -0.4223E+01  0.2484E+01  0.2423E+01E
 Epicentro: LOS SANTOS - SANTANDER                                             3
 ACTION:UPD 16-07-21 22:15 OP:rebc STATUS:               ID:20160606002831 L   I
 OLDACT:UP  16-06-06 13:21 OP:dani STATUS:               ID:20160606002741     3
 OLDACT:REG 16-06-06 11:47 OP:dani STATUS:               ID:20160606002741     3
 2016-06-06-0027-41M.COL___322                                                 6
 STAT SP IPHASW D HRMM SECON CODA AMPLIT PERI AZIMU VELO AIN AR TRES W  DIS CAZ7
 BRR  HZ EP        028 53.53                             154    0.4010 69.5 296 
 BRR  HE ES        029 10.56                             154    0.4910 69.5 296 
 BRR  HZ I         029 13.90         6.8 0.09                          69.5 296 
 PAM  EZ EP        028 54.27                             153    0.1410 74.9  41 
 PAM  EN ES        029 11.59                             153   -0.2710 74.9  41 
 PAM  EZ I         029 13.65         8.3 0.17                          74.9  41 
 RUS  HZ EP        028 55.57                             144   -0.4310  104 176 
 RUS  HN ES        029 15.16                             144   -0.0210  104 176 
 RUS  HZ I         029 17.23         2.4 0.22                           104 176 
 PTB  HZ EP        028 58.57                             133   -0.35 9  148 258 
 PTB  HN ES        029 19.63                             133   -0.76 9  148 258 
 PTB  HZ I         029 27.07         8.8 0.43                           148 258 
 OCA  HZ EP        028 59.94                             132    0.05 9  157 353 
 OCA  HN ES        029 22.12                             132    0.01 9  157 353 
 OCA  HZ I         029 25.59        13.0 0.18                           157 353 
 SPBC HZ EP        029  0.49                             130   -0.12 9  166 218 
 SPBC HN ES        029 23.73                             130    0.33 9  166 218 
 SPBC HZ I         029 30.07         9.0 0.10                           166 218 
 NOR  HN ES   4    029 33.25                             120   -2.74 0  237 234 
 CHI  HN ES        029 40.21                             118    0.48 8  252 195 
 CHI  HZ I         029 48.56         1.7 0.29                           252 195 
 HEL  HZ EP   2    029 12.94                             116    0.93 4  273 255 
 HEL  HN ES   4    029 47.12                             116    3.44 0  273 255 
 HEL  HZ I         029 50.16         3.0 0.40                           273 255 
                                                                                
