 2012 11 6 0447 16.2 L   6.790 -73.103142.5  RSN  6 0.5 1.9LRSN                1
 GAP=142        1.38       6.2    10.7 11.3  0.1616E+01 -0.3833E+01 -0.1242E+02E
 Epicentro: LOS SANTOS - SANTANDER                                             3
 ACTION:UPD 12-12-05 15:31 OP:}ep  STATUS:               ID:20121106044716 L   I
 2012-11-06-0440-00M.COL___230                                                 6
 STAT SP IPHASW D HRMM SECON CODA AMPLIT PERI AZIMU VELO AIN AR TRES W  DIS CAZ7
 BAR2 SZ EP        447 35.40                             170   -0.0310 23.5 202 
 BAR2 SZ ES        447 49.92                             170   -0.5210 23.5 202 
 BAR2 SZ I         447 51.03        17.6 0.22                          23.5 202 
 GIR2 SZ EP        447 35.52                             166   -0.0110 33.5 343 
 GIR2 SZ ES   1    447 51.26                             166    0.64 7 33.5 343 
 PAM  SZ EP        447 38.58                             151    0.6510 75.4  36 
 PAM  SN ES        447 55.13                             151    0.2310 75.4  36 
 BRR  HZ EP        447 37.36                             150    0.1010 75.9 298 
 BRR  HZ I         447 37.61        12.9 0.24                          75.9 298 
 BRR  HE ES        447 54.30                             150    0.6110 75.9 298 
 RUS  HN ES        447 57.33                             143   -0.3910 99.2 179 
 OCA  HN ES        448  5.21                             128   -1.21 9  162 352 
                                                                                
