 2016  7 6 0926 52.8 L   6.768 -73.145143.6  RSN 18 0.5 2.1LRSN                1
 GAP= 97        1.04       4.0     2.8  5.5 -0.1850E+01  0.3906E+00  0.2348E+01E
 Epicentro: LOS SANTOS - SANTANDER                                             3
 ACTION:UPD 17-03-29 16:47 OP:lp   STATUS:               ID:20160706092652 L   I
 OLDACT:UP  16-07-06 18:14 OP:dani STATUS:               ID:20160706091742     3
 OLDACT:UP  16-07-06 18:13 OP:dani STATUS:               ID:20160706091742     3
 OLDACT:UP  16-07-06 18:13 OP:dani STATUS:               ID:20160706091742     3
 OLDACT:UP  16-07-06 18:09 OP:dani STATUS:               ID:20160706091742     3
 OLDACT:REG 16-07-06 12:58 OP:dani STATUS:               ID:20160706091742     3
 2016-07-06-0917-42M.COL___312                                                 6
 STAT SP IPHASW D HRMM SECON CODA AMPLIT PERI AZIMU VELO AIN AR TRES W  DIS CAZ7
 BAR2 EZ EP        927 12.10                             172    0.0110 19.9 192 
 BAR2 EZ ES        927 26.92                             172   -0.2310 19.9 192 
 BAR2 EZ I         927 29.92        39.6 0.26            172           19.9 192 
 BRR  HZ EP        927 13.98                             152    0.1810 73.0 301 
 BRR  HN ES        927 31.01                             152    0.8110 73.0 301 
 PAM  EZ EP        927 15.17                             149    0.2310 80.1  38 
 PAM  EZ I         927 34.28        22.0 0.58            149           80.1  38 
 RUS  HZ EP        927 16.11                             144    0.0410 97.1 176 
 RUS  HE ES   2    927 35.05                             144    0.82 5 97.1 176 
 RUS  HZ I         927 36.82         6.8 0.40            145           97.1 176 
 PTB  HZ EP        927 18.92                             132   -0.60 9  147 260 
 PTB  HN ES        927 39.78                             132   -0.60 9  147 260 
 PTB  HZ I         927 46.88        14.7 0.44            130            147 260 
 TAM  HZ EP        927 20.59                             130    0.39 9  154 104 
 TAM  HE ES        927 41.13                             130   -0.46 9  154 104 
 TAM  HZ I         927 43.98         8.1 0.49            131            154 104 
 SPBC HZ EP        927 21.00                             129    0.14 9  160 220 
 SPBC HN ES        927 42.51                             129   -0.25 9  160 220 
 SPBC HZ I         927 50.87        14.1 0.22            128            160 220 
 ZAR  HZ EP        927 25.55                             122    0.32 8  205 293 
 ZAR  HN ES        927 50.30                             122   -0.25 8  205 293 
 ZAR  HZ I         927 59.02        17.3 0.26            120            205 293 
 NOR  HN ES        927 55.97                             118    0.19 8  233 235 
 NOR  HZ I         927 58.94         9.8 0.20            117            233 235 
 ROSC BZ EP   4    927 31.65                             117    1.19 0  250 211 
 ROSC BN ES   4    928  2.63                             117    2.78 0  250 211 
 ROSC BZ I         928  8.34        16.3 0.35            116            250 211 
 HEL  HZ EP   9    927 34.41                             114    1.61 0  271 257 
 HEL  HE ES        928  5.78                             115    0.16 8  271 257 
 HEL  HZ I         928 12.39         4.7 0.36            113            271 257 
 URE  HE ES   4    928  4.18                             113   -1.80 0  285 293 
 URE  HZ I         928 15.83         9.6 0.36            112            285 293 
 GUY2CHZ EP        927 36.92                             112    0.85 7  299 235 
 GUY2CHE ES        928  9.32                             112   -0.51 7  299 235 
 GUY2CHZ I         928 19.52         6.2 0.32                           299 235 
 SOCV BZ EP        927 34.96                             112   -0.99 7  303  56 
 SOCV BN ES   4    928  7.20                             112   -2.41 0  303  56 
 PTGC HZ EP   9    927 35.27                             111   -0.90 0  305 158 
 PTGC HN ES        928  8.94                             111   -0.17 7  305 158 
 PTGC HZ I         928 13.73         6.7 0.54            111            305 158 
 CBOC HZ EP   4    927 36.91                             110   -2.58 0  333 253 
 CBOC HN ES        928 15.17                             110   -0.76 7  333 253 
 CBOC HZ I         928 28.54         2.2 0.52            108            333 253 
 PRA  HZ EP        927 46.36                             106    0.49 6  389 210 
 PRA  HE ES        928 27.79                             106    0.51 6  389 210 
 PRA  HZ I         928 33.34         8.8 0.30            106            389 210 
 ORTC HZ EP        927 46.57                             106    0.27 6  393 216 
 ORTC HN ES   4    928 29.62                             106    1.58 0  393 216 
 ORTC HZ I         928 33.62         4.8 0.58            105            393 216 
                                                                                
