 2016  1 6 0254 50.9 L   6.849 -73.161149.7  RSN  4 0.4 1.0LRSN                1
 GAP=132        0.92       5.3     4.9  8.1 -0.3285E+01  0.3120E+01  0.6877E+01E
 Epicentro: LOS SANTOS - SANTANDER                                             3
 ACTION:UPD 16-03-09 23:23 OP:cam  STATUS:               ID:20160106025450 L   I
 OLDACT:REG 16-01-06 12:15 OP:drio STATUS:               ID:20160106024750     3
 2016-01-06-0247-50M.COL___268                                                 6
 STAT SP IPHASW D HRMM SECON CODA AMPLIT PERI AZIMU VELO AIN AR TRES W  DIS CAZ7
 BRR  HZ EP        255 12.58                             154    0.3610 67.2 295 
 BRR  HN ES        255 29.23                             154    0.3510 67.2 295 
 PAM  EZ EP        255 13.67                             152    0.3410 74.5  43 
 PAM  EE ES        255 30.33                             152   -0.5210 74.5  43 
 PAM  EZ I         255 31.02         4.0 0.28            158           74.5  43 
 RUS  HZ EP        255 15.42                             143    0.0210  106 175 
 RUS  HE ES        255 34.63                             143    0.1010  106 175 
 RUS  HZ I         255 51.45         0.7 0.44            136            106 175 
 PTB  HZ EP        255 17.54                             133   -0.57 9  147 257 
 PTB  HE ES        255 39.17                             133   -0.18 9  147 257 
 PTB  HZ I         255 40.24         1.5 0.16            136            147 257 
                                                                                
