 2013  5 6 1829 19.1 L   6.777 -73.104144.0  RSN  9 0.4 3.2LRSN                1
 GAP= 74        0.93       4.5     4.2  5.5  0.3849E+01  0.4063E+01  0.8337E+00E
 Epicentro: LOS SANTOS - SANTANDER                                             3
 ACTION:UPD 13-06-20 09:48 OP:ep   STATUS:               ID:20130506182919 L   I
 2013-05-06-1828-48M.COL___218                                                 6
 STAT SP IPHASW D HRMM SECON CODA AMPLIT PERI AZIMU VELO AIN AR TRES W  DIS CAZ7
 BAR2 SZ IP     D 1829 38.28                             171   -0.1710 22.2 203 
 BAR2 SZ ES       1829 53.22                             171   -0.3610 22.2 203 
 BAR2 SZ I        1829 54.36       259.4 0.22            170           22.2 203 
 GIR2 SZ IP     C 1829 38.40                             166   -0.2110 34.8 343 
 PAM  SZ EP     C 1829 41.13                             151    0.1010 76.5  36 
 PAM  SN ES       1829 58.27                             151    0.1010 76.5  36 
 PAM  SN I        1829 59.55       379.7 0.45            152           76.5  36 
 BRR  HZ IP     C 1829 40.18                             150   -0.1410 76.5 299 
 BRR  HZ I        1829 40.55       239.3 0.10            151           76.5 299 
 BRR  HN ES       1829 57.23                             150    0.3310 76.5 299 
 BRR  HN I        1829 57.72       373.8 0.16            151           76.5 299 
 RUS  HZ EP       1829 42.11                             144   -0.3210 97.9 179 
 RUS  HE ES       1830  0.71                             144    0.0410 97.9 179 
 RUS  HE I        1830  2.55       204.1 0.67            144           97.9 179 
 TAM  HZ EP     D 1829 46.55                             131    0.43 9  150 105 
 ZAR  HZ EP       1829 51.86                             121   -0.06 8  209 292 
 ZAR  HN ES       1830 17.74                             121    0.17 8  209 292 
 NOR  HZ EP       1829 55.81                             118    0.88 8  237 236 
 NOR  HZ I        1829 57.78       269.5 0.44            118            237 236 
 URE  HZ EP   1   1829 59.33                             113   -1.29 5  289 292 
                                                                                
