 2011  6 6 1603 15.9 L   6.790 -73.124149.3  RSN  5 0.2 1.3LRSN                1
 GAP=140        0.46       3.3     4.3  5.5 -0.2347E+01  0.8250E+00  0.2330E+01E
 Epicentro: LOS SANTOS - SANTANDER                                             3
 ACTION:UP  11-07-14 19:03 OP:ep   STATUS:               ID:20110606160315 L   I
 2011-06-06-1600-50S.COL___132                                                 6
 STAT SP IPHASW D HRMM SECON CODA AMPLIT PERI AZIMU VELO SNR AR TRES W  DIS CAZ7
 BAR2 SZ EP   2   16 3 35.56                             171    -0.4 5   23 197 
 BAR2 SZ ES   2   16 3 51.16                             171    -0.5 5   23 197 
 BAR2 SZ I        16 3 51.39         2.9 0.44                            23 197 
 BRR  HZ EP   1   16 3 37.50                             152    -0.1 7   74 298 
 BRR  HE ES   1   16 3 54.63                             152     0.1 7   74 298 
 BRR  HZ I        16 3 59.11         7.8 0.30                            74 298 
 PAM  SZ EP   1   16 3 38.56                             152     0.1 7   77  38 
 PAM  SN ES   1   16 3 56.23                             152     0.1 7   77  38 
 RUS  HZ EP   1   16 3 39.98                             145     0.0 7   99 177 
 RUS  HN ES   1   16 3 58.85                             145     0.2 7   99 177 
 RUS  HZ I        16 4  0.16         2.1 0.36                            99 177 
 NOR  SN ES   2   16 4 20.46                             119     0.3 4  236 235 
                                                                                
