 2013  2 6 1701 33.4 L   6.771 -73.134142.0  RSN 10 0.4 2.7LRSN                1
 GAP= 97        0.92       3.7     3.0  5.2  0.9672E+00  0.3285E+01  0.4181E+01E
 Epicentro: LOS SANTOS - SANTANDER                                             3
 ACTION:UPD 13-03-12 09:31 OP:ep   STATUS:               ID:20130206170133 L   I
 2013-02-06-1700-00M.COL___240                                                 6
 STAT SP IPHASW D HRMM SECON CODA AMPLIT PERI AZIMU VELO AIN AR TRES W  DIS CAZ7
 BAR2 SZ EP       17 1 52.56                             171    0.0210 20.4 195 
 BAR2 SZ ES       17 2  7.14                             171   -0.3210 20.4 195 
 BAR2 SZ I        17 2  8.81       182.3 0.16            167           20.4 195 
 BRR  HZ EP       17 1 54.42                             151    0.1010 74.0 300 
 BRR  HN ES       17 2 11.43                             151    0.8010 74.0 300 
 BRR  HN I        17 2 11.79       223.2 0.34            143           74.0 300 
 PAM  SZ EP       17 1 55.41                             149    0.0710 79.1  37 
 PAM  SZ I        17 1 55.81       137.8 0.19            144           79.1  37 
 PAM  SN ES       17 2 12.30                             149   -0.1410 79.1  37 
 RUS  HZ EP       17 1 56.47                             144   -0.0910 97.2 177 
 RUS  HN ES       17 2 14.24                             144   -0.3710 97.2 177 
 RUS  HN I        17 2 15.59        68.5 0.35            136           97.2 177 
 PTB  HZ EP       17 1 59.33                             131   -0.82 9  148 260 
 PTB  HE ES   1   17 2 21.04                             131    0.04 7  148 260 
 PTB  HZ I        17 2 22.64        43.4 0.19            122            148 260 
 TAM  HZ EP       17 2  0.77                             130    0.17 9  153 104 
 TAM  HE ES       17 2 21.97                             130    0.16 9  153 104 
 TAM  HZ I        17 2 29.60        26.7 0.29            123            153 104 
 ZAR  HZ EP   1   17 2  5.45                             121   -0.43 6  207 293 
 ZAR  HN ES       17 2 30.84                             121   -0.36 8  207 293 
 ZAR  HZ I        17 2 37.17        51.5 0.54            113            207 293 
 NOR  HZ EP       17 2  9.04                             118    0.19 8  234 235 
 NOR  HN ES   1   17 2 36.77                             118    0.29 6  234 235 
 NOR  HZ I        17 2 41.24        26.5 0.15            110            234 235 
 CHI  HZ EP       17 2 10.66                             117    0.06 8  246 196 
 CHI  HE ES   1   17 2 40.27                             117    0.66 6  246 196 
 CHI  HE I        17 2 44.65        41.9 0.21            109            246 196 
 HEL  HZ EP   1   17 2 14.33                             114    0.83 6  273 257 
 HEL  HZ I        17 2 51.36        19.4 0.44            107            273 257 
                                                                                
