 2013  3 6 1037  3.8 L   6.808 -73.146146.4  RSN  8 0.5 2.3LRSN                1
 GAP=102        1.09       4.7     4.1  6.7  0.4964E+01  0.2375E+01  0.2005E+01E
 Epicentro: LOS SANTOS - SANTANDER                                             3
 ACTION:UPD 13-04-09 14:00 OP:ep   STATUS:               ID:20130306103703 L   I
 2013-03-06-1028-50M.COL___184                                                 6
 STAT SP IPHASW D HRMM SECON CODA AMPLIT PERI AZIMU VELO AIN AR TRES W  DIS CAZ7
 BAR2 SZ EP       1037 23.45                             170   -0.0410 24.2 189 
 BAR2 SZ ES       1037 38.48                             170   -0.3910 24.2 189 
 BAR2 SZ I        1037 39.50        30.1 0.34            170           24.2 189 
 BRR  HZ EP       1037 25.28                             153    0.3210 70.7 298 
 BRR  HN ES       1037 42.17                             153    0.6910 70.7 298 
 BRR  HN I        1037 45.61        62.4 0.16            152           70.7 298 
 PAM  SZ EP       1037 26.47                             151    0.4610 76.7  40 
 PAM  SN ES   2   1037 43.15                             151   -0.21 5 76.7  40 
 PAM  SN I        1037 44.71        34.4 0.68            154           76.7  40 
 RUS  HZ EP       1037 27.76                             144    0.1210  101 176 
 RUS  HN ES       1037 46.48                             144    0.2210  101 176 
 RUS  HE I        1037 48.17        23.0 0.26            145            101 176 
 PTB  HZ EP       1037 29.97                             132   -0.83 9  148 258 
 PTB  HN ES   2   1037 51.18                             132   -0.70 5  148 258 
 PTB  HN I        1037 56.58        29.4 0.46            133            148 258 
 TAM  HZ IP     C 1037 31.97                             131    0.45 9  155 105 
 TAM  HN ES       1037 52.38                             131   -0.79 9  155 105 
 TAM  HE I        1037 54.90        12.6 0.68            134            155 105 
 ZAR  HZ EP       1037 36.06                             123   -0.15 9  204 292 
 ZAR  HN ES       1038  1.21                             123   -0.31 9  204 292 
 ZAR  HN I        1038  6.46        20.7 0.36            123            204 292 
 CHI  HZ EP       1037 41.52                             117   -0.07 8  249 195 
 CHI  HN ES       1038 11.44                             117    0.35 8  249 195 
 CHI  HN I        1038 13.65        11.1 0.28            119            249 195 
                                                                                
