 2010  7 6 1344 17.9 L   6.742 -73.153152.0  RSN  7 0.4 2.0LRSN                1
 GAP=155        0.85       4.6    10.1  8.9  0.2327E+00 -0.2335E+02 -0.1045E+02E
 Epicentro: JORDAN - SANTANDER                                                 3
 ACTION:UPD 10-12-01 15:15 OP:pat  STATUS:               ID:20100706134417 L   I
 2010-07-06-1341-22S.COL___118                                                 6
 STAT SP IPHASW D HRMM SECON CODA AMPLIT PERI AZIMU VELO AIN AR TRES W  DIS CAZ7
 BAR2 SZ IP     D 1344 37.97                             173    -0.210   17 191 
 BAR2 SZ ES   2   1344 53.15                             173    -0.8 5   17 191 
 BRR  HZ EP       1344 39.84                             153     0.010   74 303 
 BRR  HN ES   1   1344 57.04                             153     0.1 7   74 303 
 BRR  HZ I        1345  0.04        22.4 0.11                            74 303 
 RUS  HZ EP   1   1344 41.87                             147     0.1 7   94 175 
 RUS  HE ES   1   1345  0.72                             147     0.3 7   94 175 
 RUS  HZ I        1345  1.85        11.6 0.38                            94 175 
 BRI  SZ EP   2   1344 42.54                             141    -0.3 5  115  20 
 GUE  SZ EP   2   1344 42.95                             139    -0.7 5  123  12 
 GRA  SZ EP       1344 44.76                             137     0.610  132  17 
 GRA  SZ ES   1   1345  4.66                             137    -0.1 7  132  17 
 OCA  SZ EP   1   1344 46.61                             130    -0.6 7  167 354 
 OCA  SZ ES   2   1345 10.75                             130     0.6 5  167 354 
 OCA  SZ I        1345 15.14        12.7 0.46                           167 354 
                                                                                
