 2013  7 6 1815  3.9 L   6.863 -73.139157.4  RSN  5 0.5 1.7LRSN                1
 GAP=134        1.35       8.7     8.1 14.2 -0.6057E+00  0.4826E+01  0.3804E+02E
 Epicentro: LOS SANTOS - SANTANDER                                             3
 ACTION:UPD 13-08-12 10:35 OP:ep   STATUS:               ID:20130706181503 L   I
 OLDACT:REG 13-07-06 16:26 OP:stll STATUS:               ID:20130706180845     3
 2013-07-06-1808-45M.COL___221                                                 6
 STAT SP IPHASW D HRMM SECON CODA AMPLIT PERI AZIMU VELO AIN AR TRES W  DIS CAZ7
 BAR2 SZ EP       1815 24.77                             169   -0.2810 30.4 189 
 BAR2 SZ I        1815 25.14         5.2 0.40            167           30.4 189 
 BRR  HZ EP       1815 26.82                             155    0.6610 68.8 293 
 BRR  HN ES       1815 44.18                             155    0.6310 68.8 293 
 BRR  HN I        1815 45.13        15.9 0.24            155           68.8 293 
 PAM  SN ES       1815 44.58                             155   -0.5010 71.6  43 
 PAM  SN I        1815 46.05         5.8 0.18            159           71.6  43 
 RUS  HZ EP       1815 29.17                             144   -0.0910  108 177 
 RUS  HE ES       1815 49.39                             144    0.3210  108 177 
 RUS  HN I        1815 51.10         3.0 0.46            145            108 177 
 PTB  HN ES       1815 53.10                             134   -0.85 9  150 256 
 PTB  HN I        1815 58.35        13.1 0.40            134            150 256 
                                                                                
