 2010  4 6 1042 54.0 L   6.803 -73.030143.6  RSN  9 0.3 2.3LRSN                1
 GAP=149        0.57       3.2     5.0  4.3 -0.6300E+01 -0.4396E+01  0.3459E+01E
 Epicentro: CEPITA - SANTANDER                                                 3
 ACTION:UPD 10-08-24 09:58 OP:vdl  STATUS:               ID:20100406104254 L   I
 2010-04-06-1040-10S.COL___098                                                 6
 STAT SP IPHASW D HRMM SECON CODA AMPLIT PERI AZIMU VELO AIN AR TRES W  DIS CAZ7
 BAR2 SZ IP       1043 13.70                             168     0.210   29 216 
 BAR2 SZ ES   1   1043 28.57                             168    -0.1 7   29 216 
 BRR  HZ IP       1043 15.73                             148     0.110   83 294 
 BRR  HN ES   1   1043 32.67                             148     0.2 7   83 294 
 BRR  HZ I        1043 34.36        26.0 0.19                            83 294 
 OCA  SZ EP       1043 22.13                             129    -0.2 9  162 349 
 OCA  SZ ES   2   1043 43.62                             129    -0.8 5  162 349 
 OCA  SZ I        1043 47.50        33.9 0.30                           162 349 
 CHI  HZ IP       1043 31.74                             116    -0.3 8  253 198 
 CHI  HE ES   2   1044  1.43                             116    -0.3 4  253 198 
 CHI  HZ I        1044  6.44         8.3 0.59                           253 198 
 HEL  HZ EP   2   1043 35.56                             113     0.0 4  285 256 
 HEL  HE ES   3   1044  7.93                             113     0.1 2  285 256 
 HEL  HZ I        1044 11.27         7.0 0.42                           285 256 
 RREF BZ EP       1043 41.65                             110     0.4 7  332 231 
 RREF BN ES   2   1044 18.05                             110     0.0 3  332 231 
 RREF BZ I        1044 22.58        10.0 0.22                           332 231 
 SDV  BZ IP       1043 43.13                             108     0.3 6  350  49 
 SDV  BZ I        1043 43.87        12.5 0.09                           350  49 
 TOL  SZ EP       1043 43.03                             108    -0.2 6  353 226 
 TOL  SZ ES   3   1044 21.74                             108     0.1 2  353 226 
 PRA  HZ EP   3   1043 47.02                             106    -1.2 1  399 211 
 PRA  HE ES   3   1044 30.22                             106    -0.3 1  399 211 
 PRA  HZ I        1044 35.36         9.0 0.40                           399 211 
                                                                                
