 2012  8 6 1258 35.3 L   6.761 -73.193137.8  RSN  5 0.2 1.1LRSN                1
 GAP=229        0.47       5.2     4.8  5.5  0.1592E+02  0.5982E+01 -0.6885E+00E
 Epicentro: VILLANUEVA - SANTANDER                                             3
 ACTION:UPD 12-09-10 11:54 OP:ep   STATUS:               ID:20120806125835 L   I
 2012-08-06-1256-48M.COL___208                                                 6
 STAT SP IPHASW D HRMM SECON CODA AMPLIT PERI AZIMU VELO AIN AR TRES W  DIS CAZ7
 BAR2 SZ ES   1   1259  8.30                             172   -0.12 7 18.7 176 
 BRR  HZ EP   1   1258 55.73                             152    0.22 7 68.9 304 
 BRR  HZ I        1258 56.89         5.7 0.36                          68.9 304 
 BRR  HN ES   2   1259 10.98                             152   -0.25 5 68.9 304 
 RUS  HZ EP   1   1258 57.98                             143   -0.06 7 96.8 173 
 RUS  HZ I        1258 59.55         1.2 0.23                          96.8 173 
 RUS  HN ES   1   1259 15.97                             143    0.23 7 96.8 173 
 PTB  HZ EP   1   1259  0.74                             131   -0.39 7  142 260 
 PTB  HN ES   1   1259 21.20                             131   -0.03 7  142 260 
 ZAR  HZ I        1259  9.35         1.4 0.11                           201 294 
 ZAR  HE ES   1   1259 31.90                             121    0.29 6  201 294 
                                                                                
