 2014 12 6 1735  5.7 L   6.822 -73.137141.3  RSN 14 0.6 2.1LRSN                1
 GAP=137        1.44       3.7     5.5  7.0 -0.5917E+01  0.1203E+02  0.2050E+01E
 Epicentro: LOS SANTOS - SANTANDER                                             3
 ACTION:UPD 15-02-10 17:01 OP:nd   STATUS:               ID:20141206173505 L   I
 OLDACT:REG 14-12-06 20:39 OP:spq  STATUS:               ID:20141206172746     3
 2014-12-06-1727-46M.COL___309                                                 6
 STAT SP IPHASW D HRMM SECON CODA AMPLIT PERI AZIMU VELO AIN AR TRES W  DIS CAZ7
 BAR2 SZ IP       1735 25.06                             169    0.1710 25.9 191 
 BAR2 SZ ES       1735 39.81                             169   -0.0210 25.9 191 
 BAR2 SZ I        1735 41.43        23.8 0.16            167           25.9 191 
 BRR  HZ EP       1735 26.75                             152    0.3610 70.9 296 
 BRR  HN ES       1735 43.75                             152    1.2510 70.9 296 
 BRR  HZ I        1735 44.55        28.1 0.12            148           70.9 296 
 PAM  SZ EP     C 1735 27.78                             151    0.4510 74.9  40 
 PAM  SZ I        1735 28.08        27.3 0.22            154           74.9  40 
 PAM  SN ES       1735 44.15                             151   -0.0210 74.9  40 
 RUS  HZ EP       1735 29.12                             142   -0.1110  103 177 
 RUS  HE ES       1735 47.42                             142   -0.1410  103 177 
 RUS  HZ I        1735 49.39        16.2 0.32            143            103 177 
 PTB  HZ EP       1735 31.84                             131   -0.64 9  149 258 
 PTB  HN ES       1735 52.24                             131   -1.10 9  149 258 
 PTB  HZ I        1735 58.45        16.4 0.50            129            149 258 
 OCA  HZ EP       1735 33.66                             129    0.17 9  158 353 
 OCA  HN ES       1735 54.73                             129   -0.40 9  158 353 
 OCA  HZ I        1735 58.04        15.6 0.22            129            158 353 
 SPBC HZ EP       1735 34.15                             128    0.00 9  166 219 
 SPBC HE ES       1735 55.43                             128   -0.87 9  166 219 
 SPBC HZ I        1735 59.39        19.8 0.12            127            166 219 
 NOR  HZ EP       1735 41.10                             117   -0.36 8  237 234 
 NOR  HE ES       1736  8.96                             117   -0.36 8  237 234 
 NOR  HZ I        1736 16.48         8.8 0.38            117            237 234 
 SML  HZ EP       1735 41.58                             117   -0.34 8  242 335 
 SML  HN ES       1736  9.54                             117   -0.60 8  242 335 
 SML  HZ I        1736 18.69        16.0 0.10            117            242 335 
 CHI  HZ EP       1735 43.46                             116   -0.02 8  251 195 
 CHI  HN ES       1736 12.50                             116   -0.42 8  251 195 
 CHI  HZ I        1736 16.16         7.3 0.72            116            251 195 
 HEL  HZ EP       1735 46.50                             114    0.59 8  274 255 
 HEL  HN ES       1736 17.23                             114   -0.00 8  274 255 
 HEL  HZ I        1736 24.19         8.4 0.50            113            274 255 
 GUY2CHZ EP       1735 49.60                             111    0.20 7  303 235 
 GUY2CHN ES       1736 24.09                             111    0.64 7  303 235 
 GUY2CHZ I        1736 31.42         5.6 0.74                           303 235 
 RREF HZ EP       1735 52.79                             110    0.83 7  324 229 
 RREF HE ES       1736 29.87                             110    1.85 7  324 229 
 RREF HZ I        1736 42.22         5.5 0.68            110            324 229 
 ORTC HZ EP       1735 58.60                             105   -1.21 6  398 216 
 ORTC HN ES       1736 42.67                             105    0.68 6  398 216 
 ORTC HZ I        1736 49.31         4.4 0.24            106            398 216 
                                                                                
