 2010  2 6 1409 21.3 L   6.778 -73.103129.9  RSN  4 0.4 1.1LRSN                1
 GAP=166        0.75       7.6    44.5 11.2 -0.2613E+03 -0.1058E+03  0.2978E+01E
 Epicentro: LOS SANTOS - SANTANDER                                             3
 ACTION:UP  10-08-24 09:47 OP:vdl  STATUS:               ID:20100206140921 L   I
 2010-02-06-1359-50S.COL___088                                                 6
 STAT SP IPHASW D HRMM SECON CODA AMPLIT PERI AZIMU VELO SNR AR TRES W  DIS CAZ7
 BAR2 SZ EP   1   14 9 38.98                             170    -0.1 7   22 203 
 BAR2 SZ ES   2   14 9 52.49                             170    -0.4 5   22 203 
 RUS  HZ EP   1   14 9 43.07                             141    -0.3 7   98 179 
 RUS  HE ES   2   1410  1.24                             141     0.7 5   98 179 
 RUS  HZ I        1410  2.64         2.6 0.44                            98 179 
 GUE  SZ EP   1   14 9 45.31                             135     0.5 7  118  10 
 GUE  SZ ES   2   1410  3.48                             135     0.5 5  118  10 
 GRA  SZ EP   1   14 9 45.03                             133    -0.3 7  127  15 
 GRA  SZ ES   2   1410  3.43                             133    -0.6 5  127  15 
                                                                                
