 2016  2 6 1605 44.7 L   6.826 -73.146145.9  RSN 14 0.3 2.9LRSN                1
 GAP=135        0.78       2.0     2.8  4.2 -0.1008E+01  0.4668E+01 -0.1245E+00E
 Epicentro: LOS SANTOS - SANTANDER                                             3
 ACTION:UPD 16-03-04 21:23 OP:rebc STATUS:               ID:20160206160544 L   I
 OLDACT:DUP 16-02-07 01:18 OP:cara STATUS:               ID:20160206155750d    3
 2016-02-06-1557-49M.COL___337                                                 6
 STAT SP IPHASW D HRMM SECON CODA AMPLIT PERI AZIMU VELO AIN AR TRES W  DIS CAZ7
 BAR2 EZ IP     D 16 6  4.43                             169    0.0410 26.1 189 
 BAR2 EZ ES       16 6 19.27                             169   -0.4910 26.1 189 
 BAR2 EZ I        16 6 20.66       144.1 0.26            170           26.1 189 
 PAM  EZ EP       16 6  7.28                             151    0.4910 75.2  41 
 PAM  EN ES       16 6 24.41                             151    0.3910 75.2  41 
 PAM  EZ I        16 6 25.23        91.1 0.22            155           75.2  41 
 RUS  HZ EP       16 6  8.42                             143   -0.2310  103 176 
 RUS  HN ES       16 6 27.63                             143    0.2810  103 176 
 RUS  HZ I        16 6 28.69        53.7 0.42            146            103 176 
 PTB  HZ EP       16 6 11.28                             132   -0.43 9  148 258 
 PTB  HN ES       16 6 32.36                             132   -0.43 9  148 258 
 PTB  HZ I        16 6 37.26        55.7 0.26            132            148 258 
 OCA  HZ EP       16 6 12.42                             130   -0.32 9  157 353 
 OCA  HE ES       16 6 34.63                             130    0.01 9  157 353 
 OCA  HZ I        16 6 42.72       152.1 0.46            131            157 353 
 SPBC HZ EP       16 6 13.33                             129   -0.07 9  165 218 
 SPBC HN ES       16 6 35.72                             129   -0.08 9  165 218 
 SPBC HZ I        16 6 40.11       112.9 0.28            130            165 218 
 ZAR  HZ EP       16 6 17.09                             122    0.07 9  203 291 
 ZAR  HN ES       16 6 42.43                             122    0.18 9  203 291 
 ZAR  HZ I        16 6 47.59        73.1 0.36            123            203 291 
 NOR  HZ IP       16 6 20.53                             118   -0.07 8  236 234 
 NOR  HN ES       16 6 48.79                             118    0.19 8  236 234 
 NOR  HZ I        16 6 55.98        37.6 0.22            120            236 234 
 SML  HZ EP       16 6 20.79                             118   -0.24 8  241 335 
 SML  HN ES       16 6 49.58                             118    0.19 8  241 335 
 SML  HZ I        16 6 57.96        58.4 0.24            119            241 335 
 CHI  HZ EP       16 6 22.47                             117   -0.22 8  251 195 
 CHI  HN ES       16 6 52.03                             117   -0.30 8  251 195 
 CHI  HZ I        16 6 57.09        41.0 0.40            119            251 195 
 HEL  HZ EP   4   16 6 26.17                             115    1.19 0  273 255 
 HEL  HN ES       16 6 56.74                             115    0.34 8  273 255 
 HEL  HZ I        16 7  2.51        40.3 0.30            116            273 255 
 GUY2CHZ EP       16 6 28.80                             112    0.32 7  303 234 
 GUY2CHN ES       16 7  3.62                             112    0.98 7  303 234 
 GUY2CHZ I        16 7 10.85        42.1 0.62                           303 234 
 DBB  SZ IP       16 6 32.03                             109   -0.11 7  339 274 
 DBB  SZ ES       16 7  8.61                             109   -0.54 7  339 274 
 DBB  SZ I        16 7 10.79        85.6 0.52            111            339 274 
 ANIL HZ EP   4   16 6 35.58                             108    0.85 0  359 224 
 ANIL HE ES   4   16 7 15.83                             108    2.07 0  359 224 
 ORTC HZ EP       16 6 39.05                             106    0.17 6  398 216 
 ORTC HE ES       16 7 21.48                             106    0.34 6  398 216 
 ORTC HZ I        16 7 25.89        21.1 0.20            108            398 216 
                                                                                
