 2013 11 6 1638 11.3 L   6.314 -73.734100.4  RSN  4 0.3 1.6LRSN                1
 GAP=165        0.77       4.4     3.4  7.9  0.5828E+01  0.5428E+01  0.6760E+01E
 Epicentro: SANTA HELENA DEL OPON - SANTANDER                                  3
 ACTION:UPD 14-01-09 16:26 OP:ep   STATUS:               ID:20131106163811 L   I
 OLDACT:REG 13-11-06 17:27 OP:nd   STATUS:               ID:20131106163000     3
 2013-11-06-1630-00M.COL___273                                                 6
 STAT SP IPHASW D HRMM SECON CODA AMPLIT PERI AZIMU VELO AIN AR TRES W  DIS CAZ7
 BAR2 SZ EP       1638 27.75                             143   -0.1410 68.4  63 
 BAR2 SZ ES       1638 40.42                             143   -0.4310 68.4  63 
 BAR2 SZ I        1638 41.57        53.6 0.58            149           68.4  63 
 PTB  HZ EP       1638 28.93                             137    0.1410 83.7 287 
 PTB  HN ES       1638 42.23                             137   -0.2110 83.7 287 
 PTB  HZ I        1638 45.68         6.8 0.18            140           83.7 287 
 RUS  HZ EP       1638 29.68                             136    0.0510 85.8 123 
 RUS  HN ES       1638 44.21                             136    0.2810 85.8 123 
 RUS  HZ I        1638 45.62         3.3 0.28            142           85.8 123 
 BRR  HZ EP       1638 28.92                             135   -0.1910 87.7   2 
 BRR  HN ES       1638 43.52                             135    0.5110 87.7   2 
 BRR  HZ I        1638 45.04        16.9 0.44            140           87.7   2 
                                                                                
