 2014 10 6 1458 47.1 L   6.806 -73.131141.5  RSN 25 0.6 2.9LRSN                1
 GAP= 54        1.91       4.0     5.0  8.1 -0.2009E+01  0.1092E+02  0.6179E+01E
 Epicentro: LOS SANTOS - SANTANDER                                             3
 ACTION:UPD 14-11-29 23:47 OP:nd   STATUS:               ID:20141006145847 L   I
 OLDACT:REG 14-10-06 21:24 OP:stll STATUS:               ID:20141006144748     3
 2014-10-06-1447-48M.COL___295                                                 6
 STAT SP IPHASW D HRMM SECON CODA AMPLIT PERI AZIMU VELO AIN AR TRES W  DIS CAZ7
 BAR2 SZ IP     D 1459  6.66                             170    0.4010 24.3 193 
 BAR2 SZ ES       1459 21.76                             170    0.5710 24.3 193 
 BAR2 SZ I        1459 22.92       192.3 0.36            168           24.3 193 
 BRR  HZ EP       1459  8.46                             151    0.5910 72.3 297 
 BRR  HN ES       1459 24.98                             151    0.9210 72.3 297 
 BRR  HZ I        1459 27.62       115.4 0.14            148           72.3 297 
 PAM  SZ EP     D 1459  9.49                             149    0.7010 75.9  39 
 PAM  SN ES       1459 26.26                             149    0.5610 75.9  39 
 PAM  SZ I        1459 28.87       104.3 0.42            151           75.9  39 
 RUS  HZ EP       1459 10.56                             142    0.0710  101 177 
 RUS  HN ES       1459 27.62                             142   -1.1010  101 177 
 RUS  HZ I        1459 29.96        64.2 0.52            142            101 177 
 PTB  HZ EP       1459 13.10                             130   -0.80 9  149 259 
 PTB  HN ES       1459 33.76                             130   -1.03 9  149 259 
 PTB  HZ I        1459 37.55        76.2 0.16            128            149 259 
 TAM  HZ EP       1459 14.86                             129    0.53 9  154 105 
 TAM  HN ES       1459 34.62                             129   -0.94 9  154 105 
 TAM  HZ I        1459 37.14        45.2 0.58            130            154 105 
 OCA  HZ EP       1459 14.88                             128   -0.18 9  160 353 
 OCA  HN ES       1459 36.16                             128   -0.70 9  160 353 
 OCA  HZ I        1459 41.59        72.9 0.26            127            160 353 
 SPBC HZ EP       1459 15.55                             127    0.11 9  165 219 
 SPBC HN ES       1459 37.36                             127   -0.17 9  165 219 
 SPBC HZ I        1459 43.28       116.9 0.42            126            165 219 
 ZAR  HZ EP       1459 19.46                             121    0.04 8  205 292 
 ZAR  HN ES       1459 43.77                             121   -0.84 8  205 292 
 ZAR  HZ I        1459 51.33       135.1 0.26            119            205 292 
 SML  HZ EP       1459 23.10                             116   -0.42 8  244 335 
 SML  HE ES       1459 51.82                             116   -0.09 8  244 335 
 SML  HZ I        1459 56.51        84.0 0.10            115            244 335 
 CHI  HZ EP       1459 24.87                             115    0.18 8  250 195 
 CHI  HN ES       1459 54.16                             115    0.16 8  250 195 
 CHI  HZ I        15 0  0.84        29.0 0.50            115            250 195 
 ROSC BZ EP   4   1459 26.87                             115    1.71 0  254 211 
 ROSC BE ES       1459 54.31                             115   -0.52 8  254 211 
 ROSC BZ I        1459 59.45        52.0 0.35            114            254 211 
 SOCV BZ EP   9   1459 29.47                             111   -0.31 0  300  57 
 SOCV BN ES       15 0  0.48                                   -2.27 7  300  57 
 GUY2CHZ EP       1459 30.96                             111    0.24 7  303 235 
 GUY2CHN ES       15 0  5.09                             111    0.36 7  303 235 
 GUY2CHZ I        15 0 13.00        36.1 0.36                           303 235 
 VIL  SZ EP       1459 30.11                             111   -0.34 7  304 192 
 VIL  SN ES       15 0  4.26                             111    0.01 7  304 192 
 VIL  SZ I        15 0 11.92        44.0 0.36            110            304 192 
 PTGC HZ EP   9   1459 29.74                             110   -1.04 0  309 159 
 PTGC HZ I        1459 31.03        65.9 0.18            110            309 159 
 PTGC HN ES       15 0  1.16                                   -2.64 7  309 159 
 RREF HZ EP   9   1459 29.63                             109   -3.63 0  323 229 
 RREF HE ES       15 0  3.12                                   -2.50 7  323 229 
 RREF HZ I        15 0 13.97        38.9 0.26            108            323 229 
 CBOC HZ EP       1459 34.48                             108    0.43 7  335 252 
 CBOC HZ I        1459 35.72        20.9 0.22            107            335 252 
 CBOC HN ES       15 0 10.97                             108    0.30 7  335 252 
 DBB  SZ EP       1459 34.31                             108   -0.29 7  341 274 
 DBB  SZ I        15 0 14.59        66.9 0.72            107            341 274 
 TOL  SZ EP       1459 36.03                             108    0.65 7  345 225 
 TOL  SN ES       15 0 12.71                             108   -0.32 7  345 225 
 MON  HZ EP   9   1459 34.11                             107   -1.95 0  355 308 
 MON  HN ES       15 0 11.09                                   -1.19 6  355 308 
 MON  HZ I        15 0 14.92        19.5 0.22            106            355 308 
 ANIL HZ EP       1459 38.02                             107    1.08 6  359 225 
 ANIL HN ES       15 0 16.87                             107    1.07 6  359 225 
 ANIL HZ I        15 0 22.89         7.8 0.38            106            359 225 
 PRA  HZ EP       1459 40.18                             105   -0.47 6  393 210 
 PRA  HN ES       15 0 22.08                             105   -0.32 6  393 210 
 PRA  HZ I        15 0 28.11        39.3 0.26            105            393 210 
 ORTC HZ EP       1459 41.13                             105    0.07 6  397 216 
 ORTC HE ES       15 0 22.91                             105   -0.23 6  397 216 
 ORTC HZ I        15 0 30.64        25.9 0.38            104            397 216 
 SJC  HZ EP   9   1459 40.63                             104   -1.95 0  410 327 
 SJC  HZ I        1459 42.47        11.0 0.14            104            410 327 
 SJC  HN ES       15 0 21.27                                   -2.62 6  410 327 
                                                                                
