 2010  1 6 1733 18.5 L   6.805 -73.140145.2  RSN  7 0.2 2.0LRSN                1
 GAP=159        0.43       1.9     3.7  3.9 -0.3186E+01  0.6412E+01 -0.1287E+01E
 Epicentro: LOS SANTOS - SANTANDER                                             3
 ACTION:UP  10-08-24 09:42 OP:vdl  STATUS:               ID:20100106173318 L   I
 2010-01-06-1720-00S.COL___095                                                 6
 STAT SP IPHASW D HRMM SECON CODA AMPLIT PERI AZIMU VELO SNR AR TRES W  DIS CAZ7
 BAR2 SZ EP   1   1733 38.02                             170    -0.1 8   24 192 
 BAR2 SZ ES   1   1733 53.11                             170    -0.3 8   24 192 
 RUS  BZ EP   1   1733 42.09                             143    -0.2 8  101 176 
 RUS  BN ES   1   1734  0.97                             143     0.2 8  101 176 
 GUE  SZ IP       1733 43.01                             139    -0.110  116  12 
 GUE  SZ ES   1   1734  2.61                             139     0.3 7  116  12 
 GRA  SZ IP       1733 43.85                             137     0.210  125  17 
 GRA  SZ ES   1   1734  3.22                             137    -0.1 7  125  17 
 CHI  HZ EP   1   1733 56.46                             117     0.2 6  249 195 
 CHI  HN ES   1   1734 25.85                             117     0.1 6  249 195 
 CHI  HZ I        1734 31.79         6.2 0.53                           249 195 
 HEL  HZ EP   2   1733 58.53                             114    -0.3 4  273 256 
 HEL  HN ES   1   1734 30.46                             114     0.2 6  273 256 
 HEL  HZ I        1734 36.89         6.2 0.54                           273 256 
 DBB  SZ IP       1734  5.93                             109    -0.1 7  340 274 
                                                                                
