 2010  1 6 1459 19.7 L   6.676 -74.186 62.0  RSN 15 0.4 3.4LRSN                1
 GAP= 64        0.92       3.2     4.6 23.6 -0.5771E+01  0.7810E+02 -0.1993E+02E
 Epicentro: PUERTO PARRA - SANTANDER                                           3
 ACTION:UP  10-08-24 09:42 OP:vdl  STATUS:               ID:20100106145919 L   I
 2010-01-06-1455-53S.COL___096                                                 6
 STAT SP IPHASW D HRMM SECON CODA AMPLIT PERI AZIMU VELO SNR AR TRES W  DIS CAZ7
 BAR2 SZ IP       1459 37.76                             113     0.210  111  95 
 BAR2 SZ ES   1   1459 51.79                             113     0.3 7  111  95 
 RUS  BZ IP       1459 41.84                             106    -0.5 9  150 125 
 RUS  BN ES   1   1459 59.81                             106    -0.2 7  150 125 
 RUS  BZ I        15 0  0.74       401.3 0.26                           150 125 
 HEL  HZ EP   1   1459 43.00                             105    -0.2 7  158 250 
 GUE  SZ IP       1459 46.92                             102     0.0 9  189  47 
 GUE  SZ ES   1   15 0  7.64                             102    -0.5 7  189  47 
 OCA  SZ EP   1   1459 48.13                             101     0.4 7  198  29 
 OCA  SZ ES   1   15 0  9.74                             101     0.1 7  198  29 
 GRA  SZ EP   1   1459 48.70                             100     0.3 7  203  49 
 ROSC BZ EP       1459 48.56                             101    -0.2 9  204 184 
 ROSC BZ I        15 0 15.98       213.5 0.75                           204 184 
 DBB  SZ EP   1   1459 51.89                              99     0.7 6  227 280 
 CHI  HZ IP       1459 52.51                              99     0.3 8  232 167 
 CHI  HZ I        15 0 30.65       219.1 0.55                           232 167 
 RREF BZ EP   1   1459 53.01                              99     0.2 6  235 213 
 RREF BN ES   1   15 0 18.45                              99    -0.2 6  235 213 
 RREF BZ I        15 0 23.57       328.5 0.27                           235 213 
 TOL  SZ EP   1   1459 56.77                              97     0.8 6  263 209 
 ANIL BZ EP   2   1459 58.30                              97     0.7 4  277 209 
 ANIL BZ I        15 0 34.66       421.5 0.32                           277 209 
 MON  HZ IP       1459 57.25                              97    -0.8 8  283 325 
 MON  HZ I        15 0 42.05       129.7 0.42                           283 325 
 PRA  HZ EP   1   15 0  4.01                              95    -0.6 5  337 193 
 PRA  HZ I        15 0 47.24       158.1 0.45                           337 193 
 SDV  BZ EP   1   15 0 20.35                              94     0.1 4  462  58 
                                                                                
