 2016  6 6 1921  0.6 L   6.790 -73.101151.6  RSN  6 0.4 1.7LRSN                1
 GAP=241        0.96       4.9     6.3  6.5  0.6537E+01  0.2729E+01  0.6802E+01E
 Epicentro: LOS SANTOS - SANTANDER                                             3
 ACTION:UPD 16-07-21 22:16 OP:rebc STATUS:               ID:20160606192100 L   I
 OLDACT:REG 16-06-06 20:48 OP:edw  STATUS:               ID:20160606191744     3
 2016-06-06-1917-44M.COL___334                                                 6
 STAT SP IPHASW D HRMM SECON CODA AMPLIT PERI AZIMU VELO AIN AR TRES W  DIS CAZ7
 BAR2 EZ EP       1921 20.80                             171   -0.0910 23.7 202 
 BAR2 EZ ES       1921 36.11                             171   -0.6410 23.7 202 
 BAR2 EZ I        1921 41.81         8.9 0.18                          23.7 202 
 BRR  HZ EP       1921 22.81                             152    0.2110 76.0 297 
 BRR  HN ES       1921 40.38                             152    0.5810 76.0 297 
 BRR  HZ I        1921 44.99         9.8 0.24                          76.0 297 
 RUS  HZ EP       1921 24.75                             145   -0.0410 99.3 179 
 RUS  HN ES       1921 44.02                             145    0.3310 99.3 179 
 RUS  HZ I        1921 44.73         4.3 0.32                          99.3 179 
 PTB  HZ EP       1921 27.82                             132   -0.59 9  152 260 
 PTB  HN ES       1921 49.82                             132   -0.33 9  152 260 
 PTB  HZ I        1921 56.54         9.8 0.38                           152 260 
 SPBC HZ EP       1921 29.95                             130    0.23 9  165 221 
 SPBC HN ES       1921 52.79                             130    0.32 9  165 221 
 CHI  HZ EP       1921 38.84                             118    0.23 8  249 196 
 CHI  HN ES       1922  8.06                             118   -0.24 8  249 196 
 CHI  HZ I        1922 16.03         2.5 0.24                           249 196 
                                                                                
