 2012  9 6 1551 18.7 L   6.540 -73.569111.8  RSN  4 0.2 1.9LRSN                1
 GAP=188        0.50       6.7     4.3  7.5  0.6823E+00  0.7011E+01  0.2130E+02E
 Epicentro: EL CARMEN DE CHUCURI - SANTANDER                                   3
 ACTION:UPD 12-10-22 14:17 OP:ep   STATUS:               ID:20120906155118 L   I
 2012-09-06-1550-00M.COL___218                                                 6
 STAT SP IPHASW D HRMM SECON CODA AMPLIT PERI AZIMU VELO AIN AR TRES W  DIS CAZ7
 BAR2 SZ EP       1551 35.25                             158    0.2610 43.2  82 
 BAR2 SZ ES   2   1551 47.41                             158   -0.28 5 43.2  82 
 BAR2 SZ I        1551 49.50        16.4 0.28                          43.2  82 
 BRR  HZ EP       1551 35.95                             148    0.1010 64.6 346 
 BRR  HE ES   1   1551 49.30                             148    0.07 7 64.6 346 
 BRR  HE I        1551 50.22        38.4 0.16                          64.6 346 
 GIR2 SZ EP       1551 36.30                             145   -0.3010 72.6  35 
 PTB  HZ EP       1551 38.41                             136   -0.0210 98.1 270 
 PTB  HN ES   3   1551 53.61                             136   -0.20 2 98.1 270 
                                                                                
