 2014  6 6 1915 28.3 L   6.756 -73.075136.7  RSN  4 0.2 1.3LRSN                1
 GAP=148        0.47       2.4     3.6  3.9 -0.2297E+00 -0.1008E+01  0.2821E+00E
 Epicentro: LOS SANTOS - SANTANDER                                             3
 ACTION:UPD 14-07-01 22:51 OP:nd   STATUS:               ID:20140606191528 L   I
 OLDACT:REG 14-06-06 20:44 OP:stll STATUS:               ID:20140606190818     3
 2014-06-06-1908-18M.COL___268                                                 6
 STAT SP IPHASW D HRMM SECON CODA AMPLIT PERI AZIMU VELO AIN AR TRES W  DIS CAZ7
 BAR2 SZ EP       1915 46.98                             171    0.1710 21.7 213 
 BAR2 SZ I        1915 47.07         5.6 0.42            170           21.7 213 
 BAR2 SZ ES       1916  1.46                             171    0.2110 21.7 213 
 PAM  SZ EP       1915 49.71                             149    0.1910 76.7  33 
 PAM  SZ I        1915 50.53         5.0 0.26            148           76.7  33 
 PAM  SN ES       1916  5.88                             149   -0.1910 76.7  33 
 BRR  HZ EP       1915 48.90                             148   -0.1610 80.4 299 
 BRR  HN ES       1916  5.23                             148   -0.0210 80.4 299 
 RUS  HZ EP       1915 50.73                             143   -0.0710 95.5 181 
 RUS  HZ I        1915 52.57         1.9 0.46            142           95.5 181 
 RUS  HN ES       1916  8.21                             143   -0.1410 95.5 181 
                                                                                
