 2011 10 6 1114 57.5 L   6.759 -73.155146.0  RSN  6 0.4 2.0LRSN                1
 GAP=151        0.88       6.5     5.0  8.7 -0.5375E+01  0.7448E+01  0.1891E+02E
 Epicentro: LOS SANTOS - SANTANDER                                             3
 ACTION:UPD 12-07-13 16:02 OP:ep   STATUS:               ID:20111006111457 L   I
 2011-10-06-1110-54S.COL___163                                                 6
 STAT SP IPHASW D HRMM SECON CODA AMPLIT PERI AZIMU VELO AIN AR TRES W  DIS CAZ7
 BAR2 SZ EP       1115 17.05                             172   -0.0210 18.7 189 
 BAR2 SZ ES   2   1115 31.94                             172   -0.40 5 18.7 189 
 BAR2 SZ I        1115 34.14        13.8 0.29                          18.7 189 
 BRR  HZ EP       1115 18.97                             152    0.2210 72.6 302 
 BRR  HN ES       1115 35.93                             152    0.6010 72.6 302 
 BRR  HZ I        1115 38.63        29.0 0.07                          72.6 302 
 PAM  SZ EP   1   1115 19.72                             150   -0.28 7 81.6  38 
 PAM  SN ES   1   1115 37.24                             150   -0.30 7 81.6  38 
 ZAR  HZ EP   1   1115 29.83                             122   -0.21 6  205 293 
 ZAR  HE ES       1115 55.06                             122   -0.37 9  205 293 
 ZAR  HZ I        1116  2.20        12.3 0.38                           205 293 
 NOR  SN ES       1116  0.07                             119   -0.39 8  231 235 
 PRA  HZ EP   1   1115 51.75                             107    1.25 4  388 210 
                                                                                
