 2016 11 6 1832 21.9 L   6.790 -73.152140.9  RSN  7 0.4 1.6LRSN                1
 GAP=149        1.06       5.2     4.8  7.2 -0.8523E+01  0.9302E+01  0.2592E+01E
 Epicentro: LOS SANTOS - SANTANDER                                             3
 ACTION:UPD 17-10-26 21:05 OP:lp   STATUS:               ID:20161106183221 L   I
 OLDACT:DUP 16-11-07 00:33 OP:lv   STATUS:               ID:20161106182750d    3
 2016-11-06-1828-00M.COL___346                                                 6
 STAT SP IPHASW D HRMM SECON CODA AMPLIT PERI AZIMU VELO AIN AR TRES W  DIS CAZ7
 BAR2 EZ EP       1832 40.74                             171   -0.1410 22.2 189 
 BAR2 EZ ES       1832 55.90                             171    0.1810 22.2 189 
 BAR2 EZ I        1832 57.10         8.9 0.18            168           22.2 189 
 BRR  HZ EP       1832 43.32                             152    0.8410 71.1 300 
 BRR  HN ES       1832 58.37                             152   -0.1910 71.1 300 
 PAM  EZ EP       1832 43.46                             149   -0.1810 78.7  39 
 PAM  EN ES       1833  0.45                             149   -0.1810 78.7  39 
 PAM  EZ I        1833  3.73         5.7 0.30            154           78.7  39 
 PTB  HZ EP       1832 47.53                             131   -0.82 9  147 259 
 PTB  HN ES       1833  8.66                             131   -0.35 9  147 259 
 PTB  HZ I        1833 11.56         3.6 0.12            131            147 259 
 SPBC HZ EP       1832 49.90                             128    0.04 9  162 219 
 SPBC HE ES       1833 12.22                             128    0.51 9  162 219 
 SPBC HZ I        1833 18.54         8.3 0.10            128            162 219 
 ZAR  HZ EP       1832 54.30                             121    0.34 9  204 292 
 ZAR  HN ES       1833 19.27                             121    0.26 9  204 292 
 ZAR  HZ I        1833 24.70         2.9 0.26            122            204 292 
 NOR  HN ES       1833 24.41                             118   -0.32 8  233 235 
 NOR  HZ I        1833 31.95         2.9 0.15            118            233 235 
                                                                                
