 2017  5 6 1729 12.9 L   6.769 -73.147142.7  RSN  6 0.5 1.7LRSN                1
 GAP=138        1.23       5.3     5.8  9.3 -0.5729E+01  0.6953E+01  0.1726E+02E
 Epicentro: LOS SANTOS - SANTANDER                                             3
 ACTION:UPD 17-06-16 13:33 OP:jn   STATUS:               ID:20170506172912 L   I
 OLDACT:REG 17-05-06 21:17 OP:ar   STATUS:               ID:20170506171743     3
 2017-05-06-1718-00M.COL___370                                                 6
 STAT SP IPHASW D HRMM SECON CODA AMPLIT PERI AZIMU VELO AIN AR TRES W  DIS CAZ7
 BRR  HZ EP       1729 34.19                             151    0.3910 72.7 301 
 BRR  HN ES       1729 50.76                             151    0.6510 72.7 301 
 BRR  HZ I        1729 55.05        19.6 0.24            152           72.7 301 
 PAM  EZ EP       1729 35.04                             149    0.0810 80.2  38 
 PAM  EN ES       1729 51.76                             149   -0.4010 80.2  38 
 PAM  EZ I        1729 53.95        10.7 0.44            154           80.2  38 
 RUS  HZ EP       1729 36.04                             144   -0.0610 97.2 176 
 RUS  HN ES       1729 54.35                             144    0.1510 97.2 176 
 RUS  HZ I        1729 56.19         4.2 0.34            147           97.2 176 
 PTB  HZ EP       1729 38.65                             131   -0.89 9  147 260 
 PTB  HN ES       1729 59.59                             131   -0.73 9  147 260 
 PTB  HZ I        1730  2.10         5.6 0.28            133            147 260 
 NOR  HZ EP       1729 48.66                             118    0.44 8  233 235 
 NOR  HN ES       1730 16.29                             118    0.52 8  233 235 
 NOR  HZ I        1730 21.76         3.9 0.22            120            233 235 
 CHI  HZ EP       1729 50.53                             117    0.47 8  245 195 
 CHI  HN ES       1730 18.56                             117   -0.49 8  245 195 
                                                                                
