 2013  2 6 1608  6.9 L   6.701 -73.110144.0  RSN  5 0.3 2.1LRSN                1
 GAP=181        0.72       7.7     7.2  7.8 -0.2520E+02  0.1659E+02  0.1589E+02E
 Epicentro: JORDAN - SANTANDER                                                 3
 ACTION:UPD 13-03-12 09:31 OP:ep   STATUS:               ID:20130206160806 L   I
 2013-02-06-1600-00M.COL___240                                                 6
 STAT SP IPHASW D HRMM SECON CODA AMPLIT PERI AZIMU VELO AIN AR TRES W  DIS CAZ7
 BAR2 SZ EP       16 8 26.59                             174    0.4110 14.4 214 
 BAR2 SZ ES   1   16 8 40.89                             174   -0.32 7 14.4 214 
 BAR2 SZ I        16 8 44.41        32.3 0.47            169           14.4 214 
 BRR  HZ EP       16 8 28.61                             149    0.2010 80.3 304 
 BRR  HE ES   1   16 8 45.35                             149    0.17 7 80.3 304 
 BRR  HE I        16 8 46.52        34.4 0.18            153           80.3 304 
 PAM  SN ES   1   16 8 46.55                             148   -0.30 7 83.9  33 
 PAM  SZ I        16 8 48.15        10.9 0.24            156           83.9  33 
 PTB  HZ EP   1   16 8 33.30                             131   -0.64 7  150 263 
 NOR  HZ EP   1   16 8 42.03                             118   -0.20 6  232 237 
 NOR  HE ES   1   16 9  9.86                             118    0.09 6  232 237 
 NOR  HZ I        16 9 15.79         9.2 0.33            120            232 237 
                                                                                
