 2015  5 6 1503 56.1 L   6.768 -73.113137.4  RSN  5 0.4 1.6LRSN                1
 GAP=142        1.14       5.6     6.1  8.2  0.7412E+01  0.1229E+02 -0.2438E+01E
 Epicentro: LOS SANTOS - SANTANDER                                             3
 ACTION:UPD 15-09-10 22:02 OP:cam  STATUS:               ID:20150506150356 L   I
 OLDACT:DUP 15-05-06 23:30 OP:stll STATUS:               ID:20150506145751d    3
 2015-05-06-1457-50M.COL___288                                                 6
 STAT SP IPHASW D HRMM SECON CODA AMPLIT PERI AZIMU VELO AIN AR TRES W  DIS CAZ7
 BAR2 EZ EP       15 4 14.87                             171    0.2110 20.9 202 
 BAR2 EZ ES       15 4 28.63                             171   -0.5210 20.9 202 
 BRR  HZ EP       15 4 16.79                             149    0.1510 76.1 300 
 BRR  HN ES       15 4 33.59                             149    0.9210 76.1 300 
 PAM  SZ EP       15 4 17.50                             149    0.0410 78.0  36 
 PAM  SN ES       15 4 33.84                             149   -0.2910 78.0  36 
 PAM  SZ I        15 4 36.43         8.6 0.56            151           78.0  36 
 RUS  HZ EP       15 4 19.13                             143    0.3910 96.8 178 
 RUS  HE ES       15 4 36.23                             143   -0.1910 96.8 178 
 RUS  HZ I        15 4 39.27         6.0 0.38            144           96.8 178 
 ZAR  HZ EP       15 4 28.03                             120   -0.47 8  209 293 
 ZAR  HN ES       15 4 53.26                             120   -0.52 8  209 293 
 ZAR  HZ I        15 4 59.61         5.1 0.32            120            209 293 
                                                                                
