 2017  2 6 1835 25.4 L   6.806 -73.149139.9  RSN  7 0.4 2.0LRSN                1
 GAP=136        0.90       4.1     4.0  6.5 -0.2332E+01  0.1160E+02 -0.2496E+01E
 Epicentro: LOS SANTOS - SANTANDER                                             3
 ACTION:UPD 17-05-24 15:33 OP:jn   STATUS:               ID:20170206183525 L   I
 OLDACT:REG 17-02-06 20:50 OP:and  STATUS:               ID:20170206182744     3
 2017-02-06-1828-00M.COL___340                                                 6
 STAT SP IPHASW D HRMM SECON CODA AMPLIT PERI AZIMU VELO AIN AR TRES W  DIS CAZ7
 BAR2 EZ EP       1835 44.51                             170    0.2210 23.9 189 
 BAR2 EZ ES       1835 59.19                             170    0.1310 23.9 189 
 BAR2 EZ I        1836  0.74        31.5 0.27            169           23.9 189 
 BRR  HZ EP       1835 46.10                             152    0.2610 70.6 298 
 BRR  HN ES   4   1836  0.06                             152   -1.75 0 70.6 298 
 BRR  HZ I        1836  3.59        18.9 0.08            151           70.6 298 
 PAM  EZ EP       1835 47.15                             150    0.2210 77.1  40 
 PAM  HN ES       1836  3.57                             150   -0.1910 77.1  40 
 PAM  EZ I        1836  5.63        10.5 0.18            153           77.1  40 
 RUS  HZ EP       1835 48.45                             142   -0.1310  101 176 
 RUS  HN ES       1836  6.61                             142   -0.0910  101 176 
 RUS  HZ I        1836  9.08        16.0 0.32            144            101 176 
 PTB  HZ EP       1835 51.12                             131   -0.71 9  148 259 
 PTB  HN ES       1836 12.09                             131   -0.39 9  148 259 
 PTB  HZ I        1836 13.56        11.2 0.23            131            148 259 
 ZAR  HZ EP       1835 56.90                             121   -0.47 9  204 292 
 ZAR  HN ES       1836 22.82                             121    0.48 9  204 292 
 ZAR  HZ I        1836 28.33        14.1 0.36            122            204 292 
 NOR  HZ EP       1836  1.34                             117    0.58 8  235 234 
 NOR  HN ES       1836 28.65                             117    0.27 8  235 234 
 NOR  HZ I        1836 34.56         7.6 0.21            118            235 234 
                                                                                
