 2011 11 6 1609 11.0 L   6.836 -73.307122.6  RSN  7 0.2 1.5LRSN                1
 GAP=126        0.46       2.4     3.6  4.0  0.8942E+00 -0.3582E+00 -0.1723E+01E
 Epicentro: ZAPATOCA - SANTANDER                                               3
 ACTION:UPD 12-07-13 16:08 OP:ep   STATUS:               ID:20111106160911 L   I
 2011-11-06-1607-04S.COL___174                                                 6
 STAT SP IPHASW D HRMM SECON CODA AMPLIT PERI AZIMU VELO AIN AR TRES W  DIS CAZ7
 BTL  SZ EP       16 9 27.76                             175    0.1110 10.1  25 
 BAR2 SZ IP       16 9 28.38                             165    0.3210 30.2 153 
 BAR2 SZ ES   1   16 9 41.23                             165   -0.12 7 30.2 153 
 BAR2 SZ I        16 9 42.54        25.6 0.50                          30.2 153 
 BRR  HZ EP       16 9 28.58                             155   -0.1210 53.9 304 
 BRR  HN ES   1   16 9 42.57                             155    0.08 7 53.9 304 
 BRR  HZ I        16 9 43.49        12.8 0.16                          53.9 304 
 PAM  SZ EP       16 9 31.50                             143   -0.0310 87.2  50 
 PAM  SN ES   1   16 9 47.57                             143    0.05 7 87.2  50 
 RUS  HZ EP       16 9 33.21                             136    0.0910  107 167 
 RUS  HZ I        16 9 34.44         1.7 0.42                           107 167 
 RUS  HE ES   1   16 9 50.00                             136   -0.36 7  107 167 
 OCA  SZ EP       16 9 36.92                             125   -0.21 9  155 359 
 ZAR  HN ES   3   1610  2.95                             119    0.10 2  186 293 
 ZAR  HZ I        1610  7.80         3.1 0.28                           186 293 
                                                                                
