 2017  6 6 1225 34.4 L   6.766 -73.129147.6  RSN  5 0.3 1.3LRSN                1
 GAP=237        0.49       2.9     3.7  4.7  0.8771E+00  0.2318E+01  0.1892E+01E
 Epicentro: LOS SANTOS - SANTANDER                                             3
 ACTION:UPD 17-09-14 16:50 OP:jn   STATUS:               ID:20170606122534 L   I
 OLDACT:DUP 17-06-06 22:48 OP:osc  STATUS:               ID:20170606121738d    3
 2017-06-06-1218-00M.COL___356                                                 6
 STAT SP IPHASW D HRMM SECON CODA AMPLIT PERI AZIMU VELO AIN AR TRES W  DIS CAZ7
 BRR  HZ EP       1225 55.72                             152   -0.2310 74.7 300 
 BRR  HN ES       1226 12.92                             152    0.1610 74.7 300 
 RUS  HZ EP       1225 58.07                             145    0.0010 96.8 177 
 RUS  HN ES       1226 16.60                             145    0.0710 96.8 177 
 RUS  HZ I        1226 17.50         1.9 0.32            144           96.8 177 
 PTB  HZ EP   4   1225 59.09                             132   -2.54 0  149 260 
 PTB  HN ES   3   1226 21.82                             132   -1.04 2  149 260 
 PTB  HZ I        1226 29.03         3.0 0.44            129            149 260 
 SPBC HE ES       1226 24.90                             130   -0.21 9  162 220 
 NOR  HZ EP       1226 10.36                             119    0.18 8  234 235 
 NOR  HE ES       1226 38.23                             119    0.15 8  234 235 
 NOR  HZ I        1226 44.16         1.6 0.14            118            234 235 
                                                                                
