 2013 10 6 1301 52.2 L   6.751 -73.122148.0  RSN  4 0.3 1.8LRSN                1
 GAP=236        0.73       4.4     6.6  5.9  0.5570E+01  0.2586E+01  0.3178E+01E
 Epicentro: LOS SANTOS - SANTANDER                                             3
 ACTION:UPD 13-11-25 09:19 OP:ep   STATUS:               ID:20131006130152 L   I
 OLDACT:REG 13-10-06 16:08 OP:stll STATUS:               ID:20131006125835     3
 2013-10-06-1258-35M.COL___235                                                 6
 STAT SP IPHASW D HRMM SECON CODA AMPLIT PERI AZIMU VELO AIN AR TRES W  DIS CAZ7
 BAR2 SZ EP       13 2 11.55                             172   -0.4210 18.8 201 
 BAR2 SZ ES       13 2 27.16                             172   -0.2610 18.8 201 
 BAR2 SZ I        13 2 28.03        17.2 0.26            166           18.8 201 
 BRR  HZ EP       13 2 13.80                             151   -0.0310 76.2 301 
 BRR  HN ES       13 2 31.04                             151    0.3110 76.2 301 
 BRR  HZ I        13 2 32.07         9.5 0.26            150           76.2 301 
 RUS  HZ EP       13 2 15.96                             146    0.2310 95.0 177 
 RUS  HN ES       13 2 34.42                             146    0.2910 95.0 177 
 RUS  HZ I        13 2 37.04         6.4 0.42            144           95.0 177 
 SPBC HZ EP       13 2 20.73                             130    0.14 9  161 221 
 SPBC HN ES       13 2 42.48                             130   -0.29 9  161 221 
 SPBC HZ I        13 2 48.20        10.5 0.42            128            161 221 
                                                                                
