 2013 11 6 1221 43.2 L   6.806 -73.156148.5  RSN  6 0.4 1.7LRSN                1
 GAP=135        1.02       4.9     5.6  7.6  0.1929E+00  0.7904E+01 -0.2705E+01E
 Epicentro: LOS SANTOS - SANTANDER                                             3
 ACTION:UPD 14-01-09 16:26 OP:ep   STATUS:               ID:20131106122143 L   I
 OLDACT:REG 13-11-06 17:22 OP:nd   STATUS:               ID:20131106122000     3
 2013-11-06-1220-00M.COL___273                                                 6
 STAT SP IPHASW D HRMM SECON CODA AMPLIT PERI AZIMU VELO AIN AR TRES W  DIS CAZ7
 BAR2 SZ IP     D 1222  3.40                             171    0.2310 23.8 187 
 BAR2 SZ ES   2   1222 18.52                             171   -0.23 5 23.8 187 
 BAR2 SZ I        1222 19.80        18.0 0.20            171           23.8 187 
 BRR  HZ EP       1222  5.21                             153    0.6310 69.9 298 
 BRR  HN ES       1222 21.91                             153    0.6610 69.9 298 
 BRR  HZ I        1222 36.31        20.9 0.38            151           69.9 298 
 PAM  SZ EP   2   1222  6.12                             151    0.40 5 77.6  40 
 PAM  SN ES       1222 22.86                             151   -0.4310 77.6  40 
 RUS  HZ EP       1222  7.38                             144    0.1110  101 175 
 RUS  HN ES       1222 25.85                             144   -0.2010  101 175 
 RUS  HZ I        1222 27.12         2.5 0.26            152            101 175 
 PTB  HZ EP       1222  9.89                             133   -0.42 9  147 258 
 PTB  HN ES       1222 30.99                             133   -0.46 9  147 258 
 PTB  HZ I        1222 34.37         4.1 0.24            135            147 258 
 SML  HZ EP       1222 19.67                             118   -0.20 8  243 335 
 SML  HN ES   2   1222 47.47                             118   -1.00 4  243 335 
 SML  HZ I        1222 50.25         4.4 0.26            122            243 335 
                                                                                
