 2014 11 6 1848  2.8 L   6.784 -73.146139.7  RSN  9 0.5 2.0LRSN                1
 GAP=137        1.21       5.0     5.3  7.1 -0.5886E+01  0.9433E+01  0.1084E+02E
 Epicentro: LOS SANTOS - SANTANDER                                             3
 ACTION:UPD 14-12-19 15:40 OP:nd   STATUS:               ID:20141106184802 L   I
 OLDACT:UP  14-11-07 00:22 OP:cam  STATUS:               ID:20141106184738     3
 OLDACT:UP  14-11-07 00:22 OP:cam  STATUS:               ID:20141106184738     3
 OLDACT:REG 14-11-07 00:09 OP:cam  STATUS:               ID:20141106184738     3
 2014-11-06-1847-38M.COL___295                                                 6
 STAT SP IPHASW D HRMM SECON CODA AMPLIT PERI AZIMU VELO AIN AR TRES W  DIS CAZ7
 BAR2 SZ EP       1848 21.84                             171    0.1910 21.6 191 
 BAR2 SZ ES       1848 35.62                             171   -0.7510 21.6 191 
 BRR  HZ EP       1848 23.59                             151    0.2610 72.0 300 
 BRR  HE ES       1848 40.10                             151    0.7510 72.0 300 
 BRR  HN I        1848 46.18        33.4 0.20            150           72.0 300 
 PAM  SZ EP       1848 24.68                             149    0.2310 78.8  39 
 PAM  SN ES       1848 41.04                             149   -0.3010 78.8  39 
 PAM  SZ I        1848 44.32         8.1 0.48            155           78.8  39 
 RUS  HZ EP       1848 25.71                             143   -0.1010 98.8 176 
 RUS  HE ES       1848 44.46                             143    0.6810 98.8 176 
 RUS  HZ I        1848 45.63        19.6 0.20            145           98.8 176 
 PTB  HZ EP       1848 28.38                             131   -0.85 9  147 260 
 PTB  HN ES       1848 49.53                             131   -0.32 9  147 260 
 PTB  HZ I        1848 54.67         7.4 0.16            131            147 260 
 NOR  HZ EP     D 1848 37.85                             117   -0.20 8  234 235 
 NOR  HE ES       1849  5.19                             117   -0.37 8  234 235 
 NOR  HZ I        1849 11.48         7.8 0.16            119            234 235 
 CHI  HZ EP       1848 39.32                             116   -0.64 8  247 195 
 CHI  HN ES       1849  9.02                             116    0.06 8  247 195 
 CHI  HZ I        1849 14.77         5.8 0.30            118            247 195 
 ROSC BZ EP   4   1848 41.98                             116    1.57 0  251 211 
 GUY2CHZ EP       1848 46.67                             111    0.67 7  300 235 
 GUY2CHN ES       1849 20.17                             111    0.47 7  300 235 
 GUY2CHZ I        1849 24.88         4.0 0.28                           300 235 
 TOL  SZ EP       1848 51.16                             108    0.51 7  342 225 
 TOL  SN ES   4   1849 29.16                             108    1.17 0  342 225 
 TOL  SZ I        1849 36.56        11.0 0.52            110            342 225 
 MON  HZ EP   4   1848 49.03                             107   -2.65 0  355 309 
 SJC  HZ EP   4   1848 55.78                             105   -2.54 0  411 327 
                                                                                
