 2017  4 6 1244 17.2 L   6.771 -73.130148.0  RSN  8 0.4 2.3LRSN                1
 GAP=140        0.97       3.9     4.0  5.8 -0.2024E+01  0.6765E+01  0.1282E+01E
 Epicentro: LOS SANTOS - SANTANDER                                             3
 ACTION:UPD 17-05-30 21:09 OP:jn   STATUS:               ID:20170406124417 L   I
 OLDACT:REG 17-04-06 21:18 OP:ar   STATUS:               ID:20170406123744     3
 2017-04-06-1238-00M.COL___371                                                 6
 STAT SP IPHASW D HRMM SECON CODA AMPLIT PERI AZIMU VELO AIN AR TRES W  DIS CAZ7
 BAR2 EZ IP     C 1244 36.84                             172   -0.1810 20.6 196 
 BAR2 EZ ES       1244 52.60                             172    0.0910 20.6 196 
 BAR2 EZ I        1244 52.86        49.5 0.16            171           20.6 196 
 BRR  HZ EP       1244 38.82                             152    0.0910 74.2 300 
 BRR  HN ES       1244 56.01                             152    0.4510 74.2 300 
 BRR  HZ I        1245  0.13        40.8 0.18            150           74.2 300 
 PAM  EZ EP       1244 39.88                             151    0.1710 78.8  37 
 PAM  EE ES       1244 57.19                             151   -0.1010 78.8  37 
 PAM  EZ I        1244 58.59        23.4 0.22            154           78.8  37 
 RUS  HZ EP       1244 40.71                             145   -0.2010 97.3 177 
 RUS  HE ES       1244 59.38                             145   -0.0510 97.3 177 
 RUS  HZ I        1245  0.31        19.5 0.30            148           97.3 177 
 PTB  HZ EP       1244 43.62                             132   -0.80 9  149 260 
 PTB  HE ES       1245  5.02                             132   -0.65 9  149 260 
 PTB  HZ I        1245 10.34        22.1 0.54            132            149 260 
 SPBC HZ EP       1244 45.76                             130    0.05 9  162 220 
 SPBC HN ES       1245  8.26                             130    0.28 9  162 220 
 SPBC HZ I        1245  9.78        28.3 0.10            131            162 220 
 ZAR  HZ EP       1244 50.80                             123    0.75 8  207 293 
 ZAR  HE ES       1245 15.37                             123   -0.32 8  207 293 
 ZAR  HZ I        1245 20.86        26.8 0.30            123            207 293 
 NOR  HZ EP       1244 53.09                             119    0.11 8  234 235 
 NOR  HN ES       1245 21.43                             119    0.51 8  234 235 
 NOR  HZ I        1245 25.52        18.8 0.30            120            234 235 
                                                                                
