 2010  8 6 1749 58.2 L   6.819 -72.991146.0  RSN  4 0.2 1.6LRSN                1
 GAP=254        0.55       8.6    15.1  9.1  0.9716E+02 -0.7876E+02 -0.2208E+02E
 Epicentro: CEPITA - SANTANDER                                                 3
 ACTION:UP  10-09-07 10:52 OP:vdl  STATUS:               ID:20100806174958 L   I
 2010-08-06-1749-07S.COL___125                                                 6
 STAT SP IPHASW D HRMM SECON CODA AMPLIT PERI AZIMU VELO SNR AR TRES W  DIS CAZ7
 BTL  SZ EP       1750 18.30                             167     0.210   33 290 
 BTL  SZ ES   2   1750 33.40                             167    -0.2 5   33 290 
 BAR2 SZ EP       1750 18.10                             167     0.010   33 220 
 BAR2 SZ ES   3   1750 33.46                             167    -0.2 2   33 220 
 BAR2 SZ I        1750 35.19         8.8 0.40                            33 220 
 BRR  HZ EP   1   1750 19.80                             148    -0.5 7   86 292 
 BRR  HN ES   1   1750 37.78                             148     0.3 7   86 292 
 RUS  HZ EP       1750 22.29                             143     0.110  103 186 
 RUS  HN ES   2   1750 40.66                             143    -0.2 5  103 186 
                                                                                
