 2014  1 6 1811 32.2 L   6.804 -73.152145.4  RSN 15 0.6 2.1LRSN                1
 GAP= 71        1.42       3.6     4.5  6.7 -0.2932E+01  0.5700E+01  0.6743E+00E
 Epicentro: LOS SANTOS - SANTANDER                                             3
 ACTION:UPD 14-03-13 09:52 OP:ep   STATUS:               ID:20140106181132 L   I
 OLDACT:REG 14-01-06 15:56 OP:stll STATUS:               ID:20140106180818     3
 2014-01-06-1808-18M.COL___246                                                 6
 STAT SP IPHASW D HRMM SECON CODA AMPLIT PERI AZIMU VELO AIN AR TRES W  DIS CAZ7
 BAR2 SZ EP       1811 52.01                             170    0.2310 23.7 188 
 BAR2 SZ ES       1812  6.87                             170   -0.1910 23.7 188 
 BAR2 SZ I        1812  8.74        41.4 0.44            171           23.7 188 
 BRR  HZ EP       1811 53.91                             153    0.6610 70.4 298 
 BRR  HN ES       1812 10.80                             153    1.1310 70.4 298 
 BRR  HZ I        1812 13.74        12.6 0.14            153           70.4 298 
 PAM  SZ EP       1811 54.91                             151    0.5510 77.4  40 
 PAM  SN ES       1812 11.71                             151    0.0510 77.4  40 
 PAM  SZ I        1812 14.18        11.9 0.54            153           77.4  40 
 RUS  HZ EP       1811 55.81                             144   -0.1310  101 176 
 RUS  HN ES       1812 14.32                             144   -0.1410  101 176 
 RUS  HZ I        1812 17.24        16.6 0.50            146            101 176 
 PTB  HZ EP       1811 58.92                             132   -0.15 9  147 259 
 TAM  HZ EP       1812  0.13                             130    0.23 9  156 105 
 TAM  HZ I        1812  0.54        20.7 0.44            134            156 105 
 OCA  HZ EP       1812  0.68                             130    0.27 9  160 353 
 OCA  HN ES       1812 21.42                             130   -1.01 9  160 353 
 OCA  HZ I        1812 32.73        11.8 0.32            131            160 353 
 SPBC HZ EP       1812  0.89                             129    0.24 9  163 219 
 SPBC HN ES       1812 22.35                             129   -0.50 9  163 219 
 ZAR  HZ EP       1812  4.43                             122   -0.09 9  203 292 
 ZAR  HN ES       1812 29.26                             122   -0.49 9  203 292 
 NOR  HZ EP       1812  7.70                             118   -0.16 8  234 234 
 NOR  HN ES       1812 34.97                             118   -0.72 8  234 234 
 NOR  HZ I        1812 40.16        14.9 0.20            120            234 234 
 SML  HZ EP       1812  8.50                             117   -0.21 8  243 335 
 SML  HN ES       1812 36.59                             117   -0.61 8  243 335 
 CHI  HZ EP       1812  9.95                             117    0.06 8  249 195 
 CHI  HN ES       1812 38.74                             117   -0.57 8  249 195 
 CHI  HZ I        1812 45.22         7.0 0.28            119            249 195 
 HEL  HZ EP       1812 13.85                             115    1.53 8  272 256 
 HEL  HN ES       1812 43.91                             115    0.29 8  272 256 
 HEL  HZ I        1812 50.18         8.3 0.30            116            272 256 
 GUY2CHZ EP       1812 16.61                             112    0.86 7  301 235 
 GUY2CHN ES       1812 48.98                             112   -0.74 7  301 235 
 GUY2CHZ I        1812 57.43         7.3 0.64                           301 235 
 SOCV BZ EP       1812 13.95                             112   -1.30 7  302  57 
                                                                                
