 2013  8 6 1857 36.0 L   6.789 -73.136150.3  RSN  8 0.4 1.9LRSN                1
 GAP=138        0.77       4.1     3.8  6.4  0.7349E+00  0.4089E+01 -0.1576E+01E
 Epicentro: LOS SANTOS - SANTANDER                                             3
 ACTION:UPD 14-01-14 08:59 OP:ep   STATUS:               ID:20130806185736 L   I
 OLDACT:REG 13-08-06 16:00 OP:carl STATUS:               ID:20130806184959     3
 2013-08-06-1849-59M.COL___269                                                 6
 STAT SP IPHASW D HRMM SECON CODA AMPLIT PERI AZIMU VELO AIN AR TRES W  DIS CAZ7
 BAR2 SZ EP   1   1857 56.01                             171   -0.10 7 22.4 193 
 BAR2 SZ ES   1   1858 12.08                             171    0.25 7 22.4 193 
 BAR2 SZ I        1858 12.31        20.3 0.16            169           22.4 193 
 GIR2 SZ EP   1   1857 56.23                             167    0.02 7 32.7 349 
 BRR  HZ EP   1   1857 57.96                             153    0.28 7 72.7 299 
 BRR  HN ES       1858 14.92                             153    0.2910 72.7 299 
 BRR  HN I        1858 18.36        29.3 0.34            150           72.7 299 
 PAM  SZ EP       1857 58.78                             152    0.1110 77.6  38 
 PAM  SN ES   1   1858 16.11                             152   -0.28 7 77.6  38 
 PAM  SZ I        1858 17.22        14.2 0.88            155           77.6  38 
 RUS  HZ EP   1   1857 59.98                             145   -0.09 7 99.3 177 
 RUS  HN ES       1858 18.77                             145   -0.1010 99.3 177 
 RUS  HZ I        1858 20.16         6.1 0.48            146           99.3 177 
 PTB  HZ EP   1   1858  2.75                             133   -0.62 7  149 259 
 PTB  HN ES   1   1858 23.92                             133   -0.84 7  149 259 
 PTB  HZ I        1858 27.97         8.4 0.10            132            149 259 
 ZAR  HZ EP   2   1858  9.20                             123    0.35 4  206 292 
 ZAR  HN ES       1858 34.46                             123   -0.05 8  206 292 
 ZAR  HZ I        1858 39.60         5.5 0.58            123            206 292 
 NOR  HE ES   1   1858 40.98                             119    0.92 6  235 235 
 NOR  HZ I        1858 45.35         7.5 0.42            119            235 235 
                                                                                
