 2011  8 6 1252 10.2 L   6.774 -73.116137.3  RSN  7 0.2 2.0LRSN                1
 GAP=239        0.42       3.0     4.1  3.6  0.3023E+01  0.4023E+01  0.4816E+01E
 Epicentro: LOS SANTOS - SANTANDER                                             3
 ACTION:UPD 12-07-25 14:06 OP:epov STATUS:               ID:20110806125210 L   I
 2011-08-06-1240-00M.COL___145                                                 6
 STAT SP IPHASW D HRMM SECON CODA AMPLIT PERI AZIMU VELO AIN AR TRES W  DIS CAZ7
 BAR2 SZ IP       1252 28.80                             171    0.0710 21.4 200 
 BAR2 SZ ES       1252 42.96                             171   -0.2610 21.4 200 
 BAR2 SZ I        1252 45.06        28.4 0.22                          21.4 200 
 BRR  HZ EP       1252 30.61                             149   -0.0410 75.4 299 
 BRR  HE ES       1252 46.83                             149    0.1910 75.4 299 
 BRR  HZ I        1252 51.33        33.2 0.14                          75.4 299 
 RUS  HZ EP   1   1252 32.85                             143   -0.01 7 97.6 178 
 RUS  HZ I        1252 34.04        13.2 0.20                          97.6 178 
 RUS  HE ES   2   1252 51.06                             143    0.49 5 97.6 178 
 NOR  SZ EP   1   1252 45.28                             116   -0.24 6  236 235 
 NOR  SN ES   2   1253 12.69                             116   -0.42 4  236 235 
 CHI  HZ EP   2   1252 47.22                             115    0.03 4  247 196 
 CHI  HN ES   2   1253 16.48                             115    0.40 4  247 196 
 RREF HZ EP   2   1252 56.31                             109    0.29 3  322 230 
 RREF HN ES   2   1253 32.01                             109    0.22 3  322 230 
 RREF HZ I        1253 36.75         4.5 0.43                           322 230 
 PRA  HZ EP   2   1253  3.26                             105   -0.04 3  391 210 
 PRA  HE ES   2   1253 44.34                             105   -0.41 3  391 210 
                                                                                
