 2013  7 6 1224 54.8 L   6.812 -73.145147.7  RSN 21 0.5 2.6LRSN                1
 GAP= 71        1.07       2.6     2.7  4.6 -0.1563E+01  0.2524E+01  0.1945E+01E
 Epicentro: LOS SANTOS - SANTANDER                                             3
 ACTION:UPD 13-08-12 10:35 OP:ep   STATUS:               ID:20130706122454 L   I
 OLDACT:UP  13-07-08 09:19 OP:ep   STATUS:               ID:20130706122454 L   3
 OLDACT:UP  13-07-08 05:43 OP:CF   STATUS:               ID:20130706122454 L   3
 OLDACT:REG 13-07-06 15:56 OP:stll STATUS:               ID:20130706121838     3
 2013-07-06-1218-38M.COL___227                                                 6
 STAT SP IPHASW D HRMM SECON CODA AMPLIT PERI AZIMU VELO AIN AR TRES W  DIS CAZ7
 BAR2 SZ EP       1225 14.45                             170   -0.2310 24.6 190 
 BAR2 SZ ES       1225 29.80                             170   -0.3910 24.6 190 
 BAR2 SZ I        1225 31.09        85.4 0.18            170           24.6 190 
 GIR2 SZ EP       1225 14.63                             168   -0.0310 30.0 350 
 BRR  HZ EP       1225 16.48                             153    0.3610 70.7 298 
 BRR  HN ES       1225 33.49                             153    0.7410 70.7 298 
 BRR  HN I        1225 34.48       109.7 0.24            152           70.7 298 
 PAM  SZ EP       1225 17.50                             151    0.3610 76.3  40 
 PAM  SN ES       1225 34.68                             151    0.0910 76.3  40 
 RUS  HZ EP       1225 18.48                             144   -0.3410  102 176 
 RUS  HE ES       1225 37.22                             144   -0.3510  102 176 
 RUS  HE I        1225 38.43        72.7 0.18            145            102 176 
 GRA  SZ EP       1225 20.35                             138    0.2510  124  18 
 GRA  SZ ES       1225 40.12                             138    0.2810  124  18 
 GRA  SZ I        1225 41.07        18.3 0.34            139            124  18 
 PTB  HZ EP       1225 21.41                             132   -0.53 9  148 258 
 PTB  HN ES       1225 42.52                             132   -0.61 9  148 258 
 CAPV BZ EP       1225 22.41                             132    0.17 9  148  38 
 TAM  HZ EP       1225 22.77                             131    0.13 9  155 105 
 TAM  HE ES       1225 44.42                             131    0.05 9  155 105 
 OCA  HN ES       1225 45.67                             130    0.44 9  159 353 
 ZAR  HZ EP       1225 27.28                             123   -0.04 9  204 292 
 ZAR  HE ES       1225 52.12                             123   -0.57 9  204 292 
 ZAR  HE I        1225 58.01        57.0 0.42            123            204 292 
 NOR  HN EP       1225 31.07                             119    0.35 8  236 234 
 NOR  HE ES       1225 58.71                             119   -0.03 8  236 234 
 NOR  HE I        1226  2.28        51.7 0.28            119            236 234 
 SML  HZ EP       1225 30.84                             118   -0.56 8  243 335 
 SML  HN ES       1225 58.87                             118   -1.08 8  243 335 
 SML  HN I        1226  1.74        47.7 0.28            118            243 335 
 CHI  HZ EP       1225 32.47                             117   -0.26 8  250 195 
 CHI  HN ES   4   1226  1.24                             117   -1.09 0  250 195 
 CHI  HN I        1226  4.33        25.3 0.38            118            250 195 
 ROSC BZ EP       1225 33.84                             117    0.70 8  254 211 
 ROSC BN ES   4   1226  5.74                             117    2.69 0  254 211 
 HEL  HZ EP       1225 35.71                             115    0.57 8  272 256 
 HEL  HN ES       1226  7.33                             115    0.71 8  272 256 
 HEL  HN I        1226 12.66        10.4 0.24            115            272 256 
 SOCV BZ EP       1225 36.81                             112   -1.02 7  300  57 
 GUY2CHZ EP       1225 39.15                             113    0.57 7  302 235 
 GUY2CHN ES       1226 13.03                             113    0.29 7  302 235 
 RREF HZ EP       1225 41.75                             111    0.63 7  323 229 
 RREF HN ES       1226 17.04                             111   -0.21 7  323 229 
 DBB  SZ EP       1225 42.22                             110   -0.12 7  339 274 
 PRA  HZ EP       1225 48.40                             107   -0.11 6  393 209 
 PRA  HE ES       1226 29.99                             107   -0.43 6  393 209 
                                                                                
