 2016 10 6 1132 42.0 L   6.874 -73.352116.0  RSN 20 0.4 2.3LRSN                1
 GAP= 94        0.99       2.3     2.7  4.7 -0.4784E+00  0.5492E+01  0.1541E+01E
 Epicentro: SAN VICENTE DE CHUCURI - SANTANDER                                 3
 ACTION:UPD 16-11-09 19:16 OP:rebc STATUS:               ID:20161006113242 L   I
 OLDACT:REG 16-10-06 20:00 OP:lv   STATUS:               ID:20161006112742     3
 2016-10-06-1128-00M.COL___357                                                 6
 STAT SP IPHASW D HRMM SECON CODA AMPLIT PERI AZIMU VELO AIN AR TRES W  DIS CAZ7
 BAR2 EZ IP     D 1132 58.43                             162   -0.0410 36.4 149 
 BAR2 EZ ES       1133 11.30                             162   -0.0310 36.4 149 
 BRR  HZ IP     C 1132 58.81                             156    0.2010 47.4 303 
 BRR  HE ES       1133 12.07                             156    0.5010 47.4 303 
 BRR  HZ I        1133 13.77       113.7 0.14            154           47.4 303 
 PAM  EZ EP       1133  1.94                             140   -0.0310 88.6  54 
 PAM  EN ES       1133 18.06                             140    0.5010 88.6  54 
 PAM  EZ I        1133 21.96        39.1 0.34            133           88.6  54 
 RUS  HZ EP       1133  3.48                             133   -0.5010  113 165 
 RUS  HN ES       1133 21.20                             133    0.0610  113 165 
 RUS  HZ I        1133 22.59        20.5 0.32            124            113 165 
 PTB  HZ IP     C 1133  3.70                             129   -1.0310  128 253 
 PTB  HN ES       1133 22.20                             129   -0.2610  128 253 
 PTB  HZ I        1133 25.96        41.9 0.14            122            128 253 
 OCA  HZ EP       1133  6.63                             124   -0.59 9  151   1 
 OCA  HE ES       1133 26.67                             124   -0.23 9  151   1 
 OCA  HZ I        1133 32.17        94.0 0.26            118            151   1 
 SPBC HZ EP       1133  7.67                             123   -0.07 9  157 211 
 SPBC HE ES       1133 27.60                             123   -0.22 9  157 211 
 SPBC HZ I        1133 28.87        43.6 0.16            116            157 211 
 ZAR  HZ EP       1133 10.19                             119    0.14 9  180 292 
 ZAR  HN ES       1133 32.30                             119    0.37 9  180 292 
 ZAR  HZ I        1133 35.38        35.9 0.18            113            180 292 
 NOR  HZ EP       1133 14.36                             113   -0.36 8  222 229 
 NOR  HN ES       1133 40.46                             113    0.21 8  222 229 
 NOR  HZ I        1133 48.13        14.1 0.16            108            222 229 
 ROSC BZ EP   4   1133 22.68                             110    4.42 0  249 206 
 ROSC BN ES   4   1133 48.76                             110    2.22 0  249 206 
 ROSC BZ I        1134  0.49        11.6 0.40            106            249 206 
 CHI  HZ EP       1133 18.49                             110   -0.09 8  252 190 
 CHI  HN ES       1133 46.97                             110   -0.15 8  252 190 
 CHI  HZ I        1133 49.91         6.9 0.30            105            252 190 
 HEL  HZ EP       1133 19.36                             110    0.77 8  252 253 
 HEL  HN ES       1133 46.81                             110   -0.33 8  252 253 
 HEL  HZ I        1133 53.57        13.3 0.24            106            252 253 
 URE  HZ EP       1133 19.25                             109    0.27 8  260 292 
 URE  HN ES       1133 47.13                             109   -0.71 8  260 292 
 URE  HZ I        1133 49.66        25.9 0.16            105            260 292 
 GUY2CHZ EP       1133 23.11                             107    0.26 7  288 231 
 GUY2CHN ES       1133 54.34                             107   -0.38 7  288 231 
 GUY2CHZ I        1134  2.41         9.6 0.68                           288 231 
 CBOC HZ EP       1133 26.53                             105    0.91 7  315 249 
 CBOC HE ES   4   1133 58.62                             105   -1.03 0  315 249 
 CBOC HZ I        1134  3.13         5.9 0.18            102            315 249 
 DBB  HZ EP       1133 26.03                             105    0.36 7  316 273 
 DBB  HN ES       1133 59.74                             105   -0.01 7  316 273 
 ELA  HZ EP   4   1133 29.38                             105    2.96 0  318 226 
 ELA  HN ES       1134  1.05                             105   -0.03 7  318 226 
 ELA  HZ I        1134  8.61         7.3 0.41            102            318 226 
 PRA  HZ EP       1133 34.64                             101    0.40 6  389 206 
 PRA  HE ES       1134 15.90                             101    0.91 6  389 206 
 PRA  HZ I        1134 21.70         6.2 0.39             99            389 206 
 SJC  HZ EP   4   1133 32.60                             101   -1.85 0  390 329 
 SJC  HN ES   4   1134 11.96                             101   -3.41 0  390 329 
 SJC  HZ I        1134 15.14         5.3 0.42            100            390 329 
 PAL  HZ EP       1133 34.79                             101    0.26 6  391 236 
 PAL  HE ES       1134 16.21                             101    0.70 6  391 236 
 PAL  HZ I        1134 20.47         4.9 0.28             99            391 236 
                                                                                
