 2017  3 6 1045 12.6 L   6.820 -73.081156.5  RSN  9 0.5 1.8LRSN                1
 GAP=226        1.19       5.8     6.3  7.1  0.1205E+02  0.6304E+01 -0.1085E+01E
 Epicentro: LOS SANTOS - SANTANDER                                             3
 ACTION:UPD 17-05-25 18:36 OP:jn   STATUS:               ID:20170306104512 L   I
 OLDACT:UP  17-03-06 19:48 OP:ar   STATUS:               ID:20170306103741     3
 OLDACT:REG 17-03-06 18:38 OP:a    STATUS:               ID:20170306103741     3
 2017-03-06-1038-00M.COL___393                                                 6
 STAT SP IPHASW D HRMM SECON CODA AMPLIT PERI AZIMU VELO AIN AR TRES W  DIS CAZ7
 BAR2 EZ EP       1045 33.79                             170    0.1910 27.6 204 
 BAR2 EZ ES       1045 49.40                             170   -0.5810 27.6 204 
 BAR2 EZ I        1045 57.43         9.9 0.46            168           27.6 204 
 BRR  HZ EP       1045 35.75                             153    0.5510 76.6 295 
 BRR  HN ES       1045 53.60                             153    0.7610 76.6 295 
 BRR  HZ I        1046  0.20         9.8 0.42            150           76.6 295 
 RUS  HZ EP       1045 37.72                             145    0.1710  103 180 
 RUS  HN ES       1045 56.69                             145   -0.3310  103 180 
 RUS  HZ I        1045 57.12         4.4 0.22            150            103 180 
 PTB  HZ EP       1045 40.83                             133   -0.28 9  155 259 
 PTB  HN ES       1046  2.50                             133   -0.85 9  155 259 
 PTB  HZ I        1046  9.15        11.0 0.52            134            155 259 
 SPBC HZ EP       1045 42.82                             130    0.30 9  169 220 
 SPBC HN ES       1046  6.55                             130    0.70 9  169 220 
 SPBC HZ I        1046 12.30         9.9 0.14            133            169 220 
 ZAR  HZ EP       1045 46.41                             124    0.06 8  210 291 
 ZAR  HN ES       1046 12.03                             124   -0.64 8  210 291 
 ZAR  HZ I        1046 17.52         9.3 0.44            126            210 291 
 NOR  HZ EP       1045 49.82                             120    0.10 8  242 235 
 NOR  HN ES       1046 18.94                             120    0.27 8  242 235 
 NOR  HZ I        1046 23.20         5.0 0.32            123            242 235 
 URE  HZ EP       1045 54.49                             115   -0.36 7  290 291 
 URE  HE ES   4   1046 24.69                             115   -3.11 0  290 291 
 URE  HZ I        1046 37.79         4.1 0.28            117            290 291 
 PTGC HZ EP   2   1045 56.38                             113   -0.53 4  308 160 
 PTGC HN ES   2   1046 30.11                             113   -1.36 4  308 160 
                                                                                
