 2012  8 6 1149  2.1 L   6.754 -73.128147.9  RSN  4 0.3 1.2LRSN                1
 GAP=163        0.57       6.9     4.0  7.1 -0.9287E+01  0.1033E+02 -0.5923E+01E
 Epicentro: LOS SANTOS - SANTANDER                                             3
 ACTION:UPD 12-09-10 11:54 OP:ep   STATUS:               ID:20120806114902 L   I
 2012-08-06-1146-49M.COL___205                                                 6
 STAT SP IPHASW D HRMM SECON CODA AMPLIT PERI AZIMU VELO AIN AR TRES W  DIS CAZ7
 BAR2 SZ EP   1   1149 21.93                             172    0.05 7 18.9 199 
 BAR2 SZ ES   1   1149 37.60                             172    0.27 7 18.9 199 
 BAR2 SZ I        1149 37.87         3.7 0.25                          18.9 199 
 PAM  SZ EP   1   1149 24.97                             150    0.29 7 80.2  36 
 PAM  SZ I        1149 25.17         2.4 0.24                          80.2  36 
 PAM  SN ES   1   1149 41.95                             150   -0.37 7 80.2  36 
 PTB  HZ EP   1   1149 29.01                             132   -0.30 7  149 261 
 PTB  HN ES   1   1149 50.33                             132   -0.22 7  149 261 
 PTB  HZ I        1149 51.83         1.8 0.14                           149 261 
 ZAR  HE ES   1   1150  1.05                             122    0.28 6  208 293 
                                                                                
