 2012  1 6 1833 20.8 L   6.759 -73.125134.0  RSN  6 0.4 1.6LRSN                1
 GAP=141        0.69       5.4     5.7  7.7 -0.7086E-01  0.9903E+00  0.1201E+02E
 Epicentro: LOS SANTOS - SANTANDER                                             3
 ACTION:UP  12-02-03 08:14 OP:REBC STATUS:               ID:20120106183320 L   I
 2012-01-06-1830-00M.COL___186                                                 6
 STAT SP IPHASW D HRMM SECON CODA AMPLIT PERI AZIMU VELO SNR AR TRES W  DIS CAZ7
 BAR2 SZ EP       1833 38.86                             171    -0.110   19 199 
 BAR2 SZ ES   2   1833 52.55                             171    -0.5 5   19 199 
 BAR2 SZ I        1833 56.02         7.3 0.40                            19 199 
 GIR2 SZ EP       1833 38.91                             164    -0.310   36 348 
 BRR  HZ EP       1833 40.89                             149    -0.110   75 301 
 BRR  HE ES   1   1833 57.03                             149     0.4 7   75 301 
 BRR  HZ I        1834  1.38        20.9 0.44                            75 301 
 PAM  SZ EP       1833 41.88                             148     0.010   80  36 
 PAM  SN ES   1   1833 58.70                             148     0.3 7   80  36 
 RUS  HZ EP       1833 43.26                             143     0.210   96 177 
 RUS  HE ES   3   1834  0.84                             143     0.4 2   96 177 
 RUS  HZ I        1834  1.91         2.1 0.35                            96 177 
 ZAR  HZ EP   2   1833 53.48                             119     0.6 4  208 293 
 ZAR  HE ES   3   1834 16.68                             119    -1.3 2  208 293 
 ZAR  HZ I        1834 23.58         9.2 0.44                           208 293 
                                                                                
