 2011  5 6 1403 10.3 L   6.759 -73.116144.0  RSN  5 0.3 1.4LRSN                1
 GAP=159        0.66       8.2    29.5 10.1 -0.1982E+03  0.5807E+02 -0.2284E+02E
 Epicentro: LOS SANTOS - SANTANDER                                             3
 ACTION:UP  11-06-29 08:51 OP:tino STATUS:               ID:20110506140310 L   I
 2011-05-06-1400-45S.COL___132                                                 6
 STAT SP IPHASW D HRMM SECON CODA AMPLIT PERI AZIMU VELO SNR AR TRES W  DIS CAZ7
 BAR2 SZ EP   1   14 3 29.66                             172     0.0 8   20 202 
 BAR2 SZ ES   2   14 3 44.19                             172    -0.6 5   20 202 
 BAR2 SZ I        14 3 46.45        10.2 0.26                            20 202 
 BTL  SZ EP   1   14 3 30.09                             170     0.3 8   24 316 
 RUS  HN ES   2   14 3 52.00                             145     0.3 5   96 178 
 RUS  HZ I        14 3 53.49         3.1 0.25                            96 178 
 BRI  SZ EP   1   14 3 34.23                             140    -0.1 8  112  18 
 BRI  SZ I        14 3 57.61         3.9 0.37                           112  18 
 GRA  SZ EP   1   14 3 35.36                             136    -0.4 7  129  15 
 GRA  SZ ES       14 3 55.66                             136     0.210  129  15 
 GRA  SZ I        14 3 56.07         3.5 0.17                           129  15 
                                                                                
