 2017  2 6 1352 56.1 L   6.857 -73.125150.4  RSN 16 0.7 2.9LRSN                1
 GAP= 66        1.39       4.1     4.4  6.5  0.1713E+01  0.5692E+01 -0.1086E-02E
 Epicentro: LOS SANTOS - SANTANDER                                             3
 ACTION:UPD 17-05-24 15:33 OP:jn   STATUS:               ID:20170206135256 L   I
 OLDACT:UP  17-02-07 01:35 OP:ar   STATUS:               ID:20170206134746     3
 OLDACT:UP  17-02-07 01:34 OP:ar   STATUS:               ID:20170206134746     3
 OLDACT:REG 17-02-06 20:25 OP:and  STATUS:               ID:20170206134746     3
 2017-02-06-1348-00M.COL___331                                                 6
 STAT SP IPHASW D HRMM SECON CODA AMPLIT PERI AZIMU VELO AIN AR TRES W  DIS CAZ7
 BAR2 EZ IP     C 1353 16.33                             169   -0.0910 29.9 192 
 BAR2 EZ ES       1353 31.61                             169   -0.6710 29.9 192 
 BAR2 EZ I        1353 32.28       170.5 0.30            165           29.9 192 
 BRR  HZ IP     C 1353 18.09                             153    0.3910 70.5 293 
 BRR  HN ES       1353 35.03                             153    0.4710 70.5 293 
 BRR  HZ I        1353 38.06       250.3 0.38            149           70.5 293 
 PAM  EZ IP     D 1353 19.29                             153    0.8410 71.2  41 
 PAM  EN ES       1353 36.23                             153    0.3410 71.2  41 
 PAM  EZ I        1353 38.23       216.3 0.48            158           71.2  41 
 RUS  HZ EP       1353 20.37                             143   -0.3710  107 177 
 RUS  HN ES       1353 39.55                             143   -0.4210  107 177 
 RUS  HZ I        1353 40.48        53.8 0.20            143            107 177 
 PTB  HZ EP       1353 22.93                             132   -0.82 9  151 257 
 PTB  HN ES   1   1353 44.13                             132   -1.20 7  151 257 
 PTB  HZ I        1353 49.47        74.2 0.16            130            151 257 
 TAM  HZ EP       1353 24.80                             131    0.70 9  155 107 
 ZAR  HZ EP       1353 29.57                             123    0.75 9  204 290 
 ZAR  HE ES       1353 55.10                             123    0.75 9  204 290 
 ZAR  HZ I        1354  2.89       115.4 0.26            122            204 290 
 CHI  HZ EP       1353 34.84                             117    0.07 8  255 195 
 CHI  HN ES       1354  4.28                             117   -0.65 8  255 195 
 CHI  HZ I        1354  7.90        43.0 0.40            117            255 195 
 ROSC BZ EP   9   1353 36.89                             117    1.72 0  259 211 
 ROSC BN ES       1354  7.24                             117   -0.13 8  259 211 
 ROSC BZ I        1354 11.74       104.9 0.35            116            259 211 
 URE  HZ EP   4   1353 34.14                             114   -3.23 0  284 291 
 URE  HN ES       1354  9.16                             114   -0.40 7  284 291 
 URE  HZ I        1354 16.28        75.1 0.28            114            284 291 
 PTGC HZ EP       1353 39.85                             112   -0.88 7  314 159 
 PTGC HN ES   4   1354 13.46                             112   -2.09 0  314 159 
 PTGC HZ I        1354 15.83        55.8 0.30            113            314 159 
 CBOC HZ EP   4   1353 45.76                             110    2.09 0  338 251 
 CBOC HN ES       1354 21.14                             110    0.36 7  338 251 
 CBOC HZ I        1354 37.27        10.1 0.60            110            338 251 
 DBB  EZ EP       1353 44.92                             110    0.95 7  341 273 
 DBB  EN ES       1354 20.76                             110   -0.55 7  341 273 
 DBB  EZ I        1354 24.28        16.8 0.36            109            341 273 
 ORTC HZ EP       1353 51.87                             107    0.95 6  402 216 
 ORTC HN ES       1354 34.50                             107    0.82 6  402 216 
 ORTC HZ I        1354 43.98        21.9 0.38            106            402 216 
 SJC  HZ EP       1353 50.58                             106   -0.76 6  405 326 
 SJC  HN ES       1354 33.96                             106   -0.47 6  405 326 
 SJC  HZ I        1354 35.85        19.1 0.54            107            405 326 
 CRJC HZ EP       1353 56.69                             104   -1.28 5  461   3 
 CRJC HN ES       1354 45.78                             104   -0.45 5  461   3 
 CRJC HZ I        1354 47.10        17.7 0.40            105            461   3 
                                                                                
