 2011  6 6 1411 42.2 L   6.791 -73.115141.3  RSN  7 0.3 1.5LRSN                1
 GAP=141        0.63       3.5     5.1  6.0 -0.6794E+01 -0.1091E+00 -0.9766E+00E
 Epicentro: LOS SANTOS - SANTANDER                                             3
 ACTION:UP  11-07-14 19:03 OP:ep   STATUS:               ID:20110606141142 L   I
 2011-06-06-1409-45S.COL___132                                                 6
 STAT SP IPHASW D HRMM SECON CODA AMPLIT PERI AZIMU VELO SNR AR TRES W  DIS CAZ7
 BAR2 SZ EP   1   1412  1.05                             170    -0.3 7   23 199 
 BAR2 SZ ES   1   1412 15.73                             170    -0.5 7   23 199 
 BAR2 SZ I        1412 18.48         7.8 0.29                            23 199 
 BRR  HZ EP   1   1412  3.06                             151     0.0 7   75 298 
 BRR  HE ES   1   1412 19.70                             151     0.3 7   75 298 
 BRR  HZ I        1412 25.01        11.8 0.21                            75 298 
 PAM  SZ EP   1   1412  4.01                             150     0.1 7   76  37 
 PAM  SE ES   2   1412 20.41                             150    -0.4 5   76  37 
 RUS  HZ EP   1   1412  5.64                             143     0.2 7   99 178 
 RUS  HE ES   1   1412 23.92                             143     0.4 7   99 178 
 RUS  HZ I        1412 25.05         2.7 0.30                            99 178 
 BRI  SZ EP   2   1412  5.64                             140     0.0 5  108  19 
 GRA  SZ EP   1   1412  6.81                             136    -0.2 7  126  16 
 GRA  SZ ES   1   1412 26.69                             136     0.3 7  126  16 
 GRA  SZ I        1412 28.58         5.0 0.40                           126  16 
 NOR  SE ES   1   1412 45.56                             117    -0.2 6  237 235 
                                                                                
