 2014 10 6 1754 55.1 L   6.864 -72.992142.1  RSN  4 0.3 1.7LRSN                1
 GAP=214        0.85       8.9    19.2  9.9  0.1509E+03 -0.1312E+03 -0.6590E+02E
 Epicentro: CEPITA - SANTANDER                                                 3
 ACTION:UPD 14-11-29 23:47 OP:nd   STATUS:               ID:20141006175455 L   I
 OLDACT:UP  14-11-05 17:16 OP:nd   STATUS:               ID:20141006175455 L   3
 OLDACT:UP  14-10-09 08:22 OP:CAM  STATUS:               ID:20141006175455 L   3
 OLDACT:REG 14-10-06 21:39 OP:stll STATUS:               ID:20141006174747     3
 2014-10-06-1747-47M.COL___286                                                 6
 STAT SP IPHASW D HRMM SECON CODA AMPLIT PERI AZIMU VELO AIN AR TRES W  DIS CAZ7
 BAR2 SZ EP       1755 15.20                             165    0.5710 36.7 215 
 BAR2 SZ ES       1755 29.82                             165   -0.0510 36.7 215 
 BAR2 SZ I        1755 31.70         9.3 0.16            162           36.7 215 
 BRR  HZ EP       1755 17.05                             148    0.4310 83.9 289 
 BRR  HN ES       1755 33.40                             148   -0.0210 83.9 289 
 BRR  HZ I        1755 37.32        10.3 0.14            145           83.9 289 
 RUS  HZ EP       1755 18.70                             141   -0.3310  108 185 
 RUS  HN ES       1755 37.44                             141   -0.2610  108 185 
 RUS  HZ I        1755 38.74         3.7 0.24            142            108 185 
 SML  HZ EP       1755 31.40                             116   -0.25 8  245 331 
 SML  HE ES       1755 59.85                             116   -0.32 8  245 331 
 SML  HZ I        1756  2.44         5.3 0.24            117            245 331 
                                                                                
