 2012  3 6 1700 54.6 L   6.792 -73.174140.4  RSN  8 0.3 2.2LRSN                1
 GAP=133        0.63       3.3     3.1  4.5 -0.1536E+01  0.4067E+01  0.2342E+01E
 ACTION:UP  12-03-31 23:17 OP:EP   STATUS:               ID:20120306170054 L   I
 2012-03-06-1700-00M.COL___194                                                 6
 STAT SP IPHASW D HRMM SECON CODA AMPLIT PERI AZIMU VELO SNR AR TRES W  DIS CAZ7
 BAR2 SZ EP       17 1 13.55                             171     0.010   22 182 
 BAR2 SZ ES       17 1 28.30                             171    -0.110   22 182 
 BAR2 SZ I        17 1 29.91        33.3 0.20                            22 182 
 BRR  HZ EP       17 1 15.37                             152     0.310   69 300 
 BRR  HZ I        17 1 15.79        34.7 0.10                            69 300 
 BRR  HE ES   1   17 1 31.59                             152     0.6 7   69 300 
 PAM  SZ EP       17 1 16.41                             149     0.010   80  41 
 PAM  SE ES       17 1 33.32                             149    -0.110   80  41 
 RUS  HZ EP   1   17 1 17.79                             143     0.0 7  100 174 
 RUS  HE ES   1   17 1 35.86                             143     0.0 7  100 174 
 PTB  HZ EP       17 1 20.52                             131    -0.3 9  145 259 
 PTB  HN ES   1   17 1 40.94                             131    -0.4 7  145 259 
 ZAR  HE ES   1   17 1 51.04                             121    -0.2 6  201 293 
 ZAR  HZ I        17 1 58.17        18.8 0.51                           201 293 
 NOR  SZ EP   1   17 1 29.92                             118     0.2 6  232 234 
 NOR  SE ES   1   17 1 57.29                             118     0.2 6  232 234 
 CHI  HZ EP   1   17 1 32.16                             116     0.3 6  247 195 
                                                                                
