 2013  9 6 1522  2.5 L   6.904 -73.541 11.7  RSN  8 0.5 2.0LRSN                1
 GAP=103        1.02       2.8     2.8  4.7  0.2118E+01  0.5341E+01  0.2960E+01E
 Epicentro: SAN VICENTE DE CHUCURI - SANTANDER                                 3
 ACTION:UPD 13-10-22 09:20 OP:ep   STATUS:               ID:20130906152202 L   I
 OLDACT:REG 13-09-06 16:59 OP:mh   STATUS:               ID:20130906151959     3
 2013-09-06-1519-59M.COL___269                                                 6
 STAT SP IPHASW D HRMM SECON CODA AMPLIT PERI AZIMU VELO AIN AR TRES W  DIS CAZ7
 BRR  HZ EP       1522  7.84                             107    0.1010 29.4 320 
 BRR  HN ES   2   1522 12.23                             107    0.41 5 29.4 320 
 BRR  HZ I        1522 12.90        95.1 0.40            125           29.4 320 
 BAR2 SZ EP   1   1522 10.83                              99   -0.57 7 52.5 131 
 BAR2 SZ I        1522 20.62        31.5 0.52            102           52.5 131 
 PAM  SZ EP   1   1522 20.21                              95    0.69 7  105  63 
 PAM  SN ES   2   1522 32.81                              95    0.03 5  105  63 
 PAM  SZ I        1522 34.39        43.3 0.14             97            105  63 
 PTB  HZ EP       1522 19.19                              94   -0.4910  109 248 
 PTB  HN ES       1522 33.31                              94    0.2510  109 248 
 PTB  HZ I        1522 34.83        95.7 0.40             96            109 248 
 RUS  HZ EP   1   1522 21.60                              94   -0.65 7  123 156 
 RUS  HE ES       1522 37.58                              94   -0.0610  123 156 
 RUS  HZ I        1522 48.00         7.1 0.26             95            123 156 
 SPBC HZ EP   1   1522 26.38                              56    0.37 7  150 203 
 SPBC HN ES       1522 45.21                              56    0.87 9  150 203 
 SPBC HZ I        1522 48.67        26.0 0.58             56            150 203 
 ZAR  HZ EP   1   1522 27.38                              56    0.34 7  159 294 
 ZAR  HN ES       1522 45.85                              56   -0.33 9  159 294 
 ZAR  HZ I        1522 46.83        39.9 0.20             56            159 294 
 HEL  HZ EP   1   1522 36.03                              56   -0.72 6  234 250 
 HEL  HN ES       1523  3.18                              56   -0.28 8  234 250 
 HEL  HZ I        1523  5.43        26.3 0.26             56            234 250 
                                                                                
