 2016  3 6 1105 23.3 L   6.829 -73.133149.7  RSN  5 0.2 1.5LRSN                1
 GAP=246        0.49       3.5     3.5  4.2  0.3573E+01  0.4129E+01 -0.3757E+01E
 Epicentro: LOS SANTOS - SANTANDER                                             3
 ACTION:UPD 16-05-13 21:21 OP:cam  STATUS:               ID:20160306110523 L   I
 OLDACT:UP  16-03-06 23:03 OP:mh   STATUS:               ID:20160306105746     3
 OLDACT:UP  16-03-06 22:59 OP:mh   STATUS:               ID:20160306105746     3
 OLDACT:UP  16-03-06 22:58 OP:mh   STATUS:               ID:20160306105746     3
 OLDACT:REG 16-03-06 21:06 OP:mh   STATUS:               ID:20160306105746     3
 2016-03-06-1057-46M.COL___318                                                 6
 STAT SP IPHASW D HRMM SECON CODA AMPLIT PERI AZIMU VELO AIN AR TRES W  DIS CAZ7
 BAR2 EZ EP       11 5 43.49                             169   -0.0110 26.8 192 
 BAR2 EZ ES       11 5 59.30                             169    0.0610 26.8 192 
 BAR2 EZ I        11 6  0.28         5.6 0.16            165           26.8 192 
 RUS  HZ EP   1   11 5 47.60                             144   -0.09 7  104 177 
 RUS  HN ES       11 6  6.66                             144   -0.0410  104 177 
 RUS  HZ I        11 6  7.20         2.1 0.34            144            104 177 
 PTB  HZ EP       11 5 50.47                             132   -0.33 9  150 258 
 PTB  HE ES   1   11 6 11.88                             132   -0.35 7  150 258 
 PTB  HZ I        11 6 14.26         3.7 0.50            130            150 258 
 SPBC HZ EP       11 5 52.56                             129    0.11 9  167 219 
 SPBC HN ES       11 6 15.38                             129    0.21 9  167 219 
 SPBC HZ I        11 6 21.49         7.6 0.38            128            167 219 
 ZAR  HZ EP       11 5 56.30                             123    0.25 9  204 291 
 ZAR  HN ES   1   11 6 21.72                             123    0.16 6  204 291 
 ZAR  HZ I        11 6 27.63         3.5 0.36            123            204 291 
                                                                                
