 2017  9 6 1423 10.0 L   6.744 -73.110142.4  RSN  5 0.4 1.4LRSN                1
 GAP=144        1.02       5.2     5.7  8.1  0.6039E+01  0.5686E+01 -0.1169E+01E
 Epicentro: LOS SANTOS - SANTANDER                                             3
 ACTION:UPD 17-10-05 19:09 OP:rebc STATUS:               ID:20170906142310 L   I
 OLDACT:DUP 17-09-06 21:49 OP:lv   STATUS:               ID:20170906141744d    3
 2017-09-06-1418-00M.COL___426                                                 6
 STAT SP IPHASW D HRMM SECON CODA AMPLIT PERI AZIMU VELO AIN AR TRES W  DIS CAZ7
 BAR2 EZ EP       1423 29.18                             172    0.0310 18.6 205 
 BAR2 EZ ES       1423 44.54                             172    0.4610 18.6 205 
 BAR2 EZ I        1423 45.85         5.6 0.16            172           18.6 205 
 BRR  HZ EP       1423 31.38                             150    0.1910 77.7 301 
 BRR  HE ES       1423 48.09                             150    0.3910 77.7 301 
 PAM  HZ EP       1423 32.24                             149    0.2110 80.0  35 
 PAM  EN ES       1423 48.71                             149   -0.5010 80.0  35 
 PAM  HZ I        1423 51.54         3.3 0.23            151           80.0  35 
 RUS  HZ EP       1423 33.18                             145    0.2010 94.2 178 
 RUS  HN ES       1423 50.36                             145   -0.5310 94.2 178 
 RUS  HZ I        1423 53.31         2.3 0.16            146           94.2 178 
 ZAR  HN ES       1424  7.85                             121   -0.64 8  210 293 
 ZAR  HZ I        1424 10.46         3.9 0.10            122            210 293 
                                                                                
