 2011  5 6 1542 17.8 L   5.885 -73.691108.6  RSN  4 0.2 1.5LRSN                1
 GAP=270        0.44       8.2    16.0 12.8  0.1125E+03  0.1658E+03  0.7163E+02E
 Epicentro: PUENTE NACIONAL - SANTANDER                                        3
 ACTION:UP  11-06-29 08:51 OP:tino STATUS:               ID:20110506154217 L   I
 2011-05-06-1539-48S.COL___132                                                 6
 STAT SP IPHASW D HRMM SECON CODA AMPLIT PERI AZIMU VELO SNR AR TRES W  DIS CAZ7
 RUS  HZ EP   1   1542 35.58                             146     0.1 7   67  89 
 RUS  HE ES   2   1542 49.37                             146     0.0 5   67  89 
 RUS  HZ I        1542 51.20         3.7 0.27                            67  89 
 BAR2 SZ EP   1   1542 37.27                             135    -0.2 7   96  36 
 BAR2 SZ I        1542 37.77         7.9 0.27                            96  36 
 BAR2 SZ ES   2   1542 52.53                             135    -0.2 5   96  36 
 BTL  SZ EP   1   1542 40.20                             127     0.3 7  124  22 
 BRR  HZ EP   1   1542 40.54                             124    -0.2 7  135 359 
 BRR  HZ I        1542 55.69        11.2 0.38                           135 359 
 BRR  HN ES   1   1542 58.72                             124     0.1 7  135 359 
                                                                                
