 2011  9 6 1236 13.5 L   6.818 -73.161143.3  RSN 15 0.3 2.9LRSN                1
 GAP= 80        0.64       2.3     3.0  3.7 -0.8706E+00  0.2992E+01  0.1705E+01E
 Epicentro: LOS SANTOS - SANTANDER                                             3
 ACTION:UPD 12-07-13 15:55 OP:ep   STATUS:               ID:20110906123613 L   I
 2011-09-06-1234-10S.COL___171                                                 6
 STAT SP IPHASW D HRMM SECON CODA AMPLIT PERI AZIMU VELO AIN AR TRES W  DIS CAZ7
 SAN  SZ EP   2   1236 33.29                             175    0.66 5 11.3 121 
 BAR2 SZ IP       1236 32.94                             170    0.0410 25.1 185 
 BAR2 SZ ES       1236 48.25                             170    0.2410 25.1 185 
 BAR2 SZ I        1236 49.38       142.2 0.42                          25.1 185 
 GIR2 SZ EP       1236 32.88                             168    0.0310 29.1 353 
 BRR  HZ IP     C 1236 34.65                             153    0.3710 68.8 298 
 BRR  HZ I        1236 34.93       354.8 0.13                          68.8 298 
 BRR  HE ES       1236 50.59                             153    0.1310 68.8 298 
 PAM  SZ EP       1236 35.71                             151    0.2510 76.9  41 
 PAM  SZ I        1236 36.12       124.1 0.21                          76.9  41 
 PAM  SN ES   1   1236 52.32                             151   -0.24 7 76.9  41 
 RUS  HZ EP       1236 36.97                             143   -0.2310  103 175 
 RUS  HN ES   1   1236 55.15                             143   -0.50 7  103 175 
 RUS  HZ I        1236 57.34        72.1 0.30                           103 175 
 OCA  SZ EP       1236 41.26                             129   -0.19 9  158 354 
 OCA  SZ ES   1   1237  2.49                             129   -0.73 7  158 354 
 OCA  SZ I        1237  8.19       110.4 0.19                           158 354 
 ZAR  HZ EP   1   1236 45.91                             122    0.33 6  202 292 
 ZAR  HE ES   1   1237 10.38                             122   -0.20 6  202 292 
 ZAR  HZ I        1237 17.04       114.7 0.46                           202 292 
 NOR  SZ EP   1   1236 49.50                             118    0.40 6  235 234 
 NOR  SN ES   1   1237 16.90                             118    0.06 6  235 234 
 CHI  HZ EP       1236 51.46                             116    0.20 8  250 195 
 CHI  HE ES   1   1237 20.39                             116   -0.29 6  250 195 
 CHI  HZ I        1237 26.28        26.4 0.42                           250 195 
 HEL  HZ EP   1   1236 52.86                             114   -0.64 6  271 255 
 HEL  HN ES   1   1237 24.32                             114   -0.35 6  271 255 
 HEL  HZ I        1237 31.62        51.0 0.41                           271 255 
 RREF HZ EP   2   1237  0.14                             110    0.56 3  322 229 
 RREF HE ES   2   1237 35.99                             110    0.50 3  322 229 
 RREF HZ I        1237 40.80        27.4 0.32                           322 229 
 TOL  SZ EP   1   1237  1.80                             109    0.08 5  344 224 
 ANIL HZ EP   1   1237  3.27                             108   -0.01 5  358 224 
 PRA  HZ EP   1   1237  6.67                             106   -0.41 4  393 209 
 PRA  HE ES   1   1237 48.44                             106   -0.40 4  393 209 
                                                                                
