 2015  7 6 1046 15.8 L   6.820 -73.158138.0  RSN 11 0.6 2.2LRSN                1
 GAP=134        1.18       3.2     4.9  8.0 -0.3076E+01  0.2145E+02 -0.3822E+01E
 Epicentro: LOS SANTOS - SANTANDER                                             3
 ACTION:UPD 15-09-08 21:47 OP:cam  STATUS:               ID:20150706104615 L   I
 OLDACT:REG 15-07-06 21:02 OP:ar   STATUS:               ID:20150706103735     3
 2015-07-06-1037-35M.COL___328                                                 6
 STAT SP IPHASW D HRMM SECON CODA AMPLIT PERI AZIMU VELO AIN AR TRES W  DIS CAZ7
 BAR2 EZ EP       1046 34.37                             169   -0.1510 25.4 186 
 BAR2 EZ ES       1046 49.10                             169   -0.0410 25.4 186 
 BAR2 EZ I        1046 50.23       119.5 0.10            169           25.4 186 
 PAM  EZ EP       1046 37.18                             150    0.0610 76.6  41 
 PAM  EN ES       1046 54.12                             150    0.3510 76.6  41 
 PAM  EZ I        1046 56.53        25.3 0.52            153           76.6  41 
 RUS  HZ EP       1046 38.44                             141   -0.5110  103 175 
 RUS  HN ES       1046 57.01                             141   -0.0210  103 175 
 RUS  HZ I        1046 57.75        11.7 0.24            144            103 175 
 OCA  HZ EP       1046 43.15                             128   -0.12 9  158 354 
 OCA  HE ES       1047  4.24                             128   -0.47 9  158 354 
 OCA  HZ I        1047  7.70        31.8 0.24            130            158 354 
 ZAR  HZ EP       1046 47.42                             121   -0.09 9  202 292 
 ZAR  HN ES       1047 12.92                             121    0.67 9  202 292 
 ZAR  HZ I        1047 17.69        14.5 0.36            122            202 292 
 NOR  HN ES       1047 18.07                             117   -0.56 8  235 234 
 NOR  HZ I        1047 20.64        13.8 0.94            118            235 234 
 SML  HZ EP       1046 50.89                             116   -0.80 8  241 335 
 SML  HN ES       1047 20.65                             116    0.94 8  241 335 
 SML  HZ I        1047 23.84        16.4 0.10            117            241 335 
 CHI  HN ES       1047 23.44                             115    0.95 8  250 195 
 CHI  HZ I        1047 28.87         4.7 0.22            117            250 195 
 HEL  HZ EP   2   1046 57.13                             113    1.61 4  271 255 
 HEL  HE ES       1047 26.60                             113    0.08 8  271 255 
 HEL  HZ I        1047 33.33         8.2 0.28            114            271 255 
 GUY2CHZ EP       1046 59.68                             111    0.62 7  301 234 
 GUY2CHN ES       1047 32.54                             111   -0.28 7  301 234 
 GUY2CHZ I        1047 38.91         6.4 0.38                           301 234 
 DBB  SZ EP   2   1047  3.24                             108    0.47 3  338 274 
 DBB  SZ ES       1047 38.45                             108   -0.98 7  338 274 
                                                                                
