 2016 11 6 1551 47.9 L   7.434 -72.860  4.0  RSN  5 0.4 1.8LRSN                1
 GAP=209        0.86       4.4     2.2  5.9  0.2513E+01  0.5145E+01  0.5385E+01E
 Epicentro: CALIFORNIA - SANTANDER                                             3
 ACTION:UPD 17-10-26 21:05 OP:lp   STATUS:               ID:20161106155147 L   I
 OLDACT:UP  16-11-07 00:21 OP:cog  STATUS:               ID:20161106154744     3
 OLDACT:REG 16-11-06 20:44 OP:cog  STATUS:               ID:20161106154744     3
 2016-11-06-1548-00M.COL___346                                                 6
 STAT SP IPHASW D HRMM SECON CODA AMPLIT PERI AZIMU VELO AIN AR TRES W  DIS CAZ7
 PAM  EZ IP     D 1551 51.84                              47   -0.3110 20.6 120 
 PAM  EN ES       1551 55.46                              47    0.0310 20.6 120 
 PAM  EZ I        1551 55.95       185.7 0.18             99           20.6 120 
 BAR2 EZ EP       1552  3.94                              47    0.0710 99.6 201 
 BAR2 EZ ES       1552 16.33                              47    0.0310 99.6 201 
 BAR2 EZ I        1552 20.60        14.3 0.23             47           99.6 201 
 BRR  HE ES       1552 15.87                              47   -0.2910  101 249 
 PTB  HZ EP   2   1552 19.24                              37    0.76 4  202 241 
 PTB  HN ES       1552 42.56                              37    0.25 9  202 241 
 PTB  HZ I        1552 44.45         8.7 0.26             37            202 241 
 ZAR  HZ EP       1552 21.52                              37    0.75 8  221 272 
 ZAR  HE ES       1552 45.85                              37   -0.54 8  221 272 
 ZAR  HZ I        1552 48.50         9.6 0.28             37            221 272 
 SPBC HZ EP   4   1552 18.97                              37   -4.11 0  238 214 
                                                                                
