 2015 10 6 1052 47.2 L   6.807 -73.134149.4  RSN 12 0.4 2.0LRSN                1
 GAP=120        0.77       2.2     3.6  4.9 -0.6900E+00  0.1533E+01  0.1389E+01E
 Epicentro: LOS SANTOS - SANTANDER                                             3
 ACTION:UPD 15-12-22 20:37 OP:cam  STATUS:               ID:20151006105247 L   I
 OLDACT:REG 15-10-06 21:03 OP:spq  STATUS:               ID:20151006104749     3
 2015-10-06-1047-49M.COL___319                                                 6
 STAT SP IPHASW D HRMM SECON CODA AMPLIT PERI AZIMU VELO AIN AR TRES W  DIS CAZ7
 BAR2 EZ EP       1053  7.26                             170   -0.0110 24.4 193 
 BAR2 EZ ES   1   1053 22.46                             170   -0.48 7 24.4 193 
 BAR2 EZ I        1053 23.75        21.5 0.34            169           24.4 193 
 BRR  HZ EP     C 1053  9.01                             153    0.2410 72.0 297 
 BRR  HN ES       1053 26.17                             153    0.5610 72.0 297 
 BRR  HZ I        1053 30.14        16.6 0.30            150           72.0 297 
 PAM  EZ EP     D 1053 10.19                             152    0.4910 75.9  39 
 PAM  EN ES   1   1053 27.29                             152    0.02 7 75.9  39 
 PAM  EZ I        1053 28.86         7.8 0.18            156           75.9  39 
 RUS  HZ EP   1   1053 11.55                             144    0.21 7  101 177 
 RUS  HN ES   1   1053 30.15                             144   -0.04 7  101 177 
 RUS  HZ I        1053 31.27         9.1 0.32            146            101 177 
 OCA  HZ EP   1   1053 15.43                             131   -0.29 7  160 353 
 OCA  HN ES       1053 37.48                             131   -0.50 9  160 353 
 OCA  HZ I        1053 40.96        24.7 0.18            132            160 353 
 SPBC HZ EP   1   1053 16.27                             130    0.17 7  165 219 
 SPBC HN ES       1053 38.19                             130   -0.46 9  165 219 
 SPBC HZ I        1053 42.40        12.6 0.14            130            165 219 
 ZAR  HZ EP   1   1053 19.93                             123   -0.03 6  205 292 
 ZAR  HN ES       1053 45.24                             123   -0.29 9  205 292 
 ZAR  HZ I        1053 50.53        11.1 0.34            123            205 292 
 NOR  HE ES   1   1053 51.26                             119   -0.19 6  236 234 
 NOR  HZ I        1053 58.08         5.0 0.18            119            236 234 
 SML  HZ EP   1   1053 23.64                             118   -0.36 6  244 335 
 SML  HE ES   1   1053 52.77                             118    0.06 6  244 335 
 SML  HZ I        1053 56.45        12.6 0.32            119            244 335 
 CHI  HZ EP       1053 25.44                             118    0.24 8  250 195 
 CHI  HN ES       1053 54.88                             118    0.02 8  250 195 
 CHI  HZ I        1054  0.04         5.1 0.32            119            250 195 
 GUY2CHZ EP   4   1053 33.26                             113    2.13 0  303 235 
 GUY2CHE ES   1   1054  6.00                             113    0.59 5  303 235 
 GUY2CHZ I        1054 13.62         4.0 0.58                           303 235 
 PTGC HZ EP   1   1053 30.47                             112   -0.76 5  309 159 
                                                                                
