 2010  3 6 1043 27.8 L   6.810 -73.071142.4  RSN 11 0.4 2.5LRSN                1
 GAP=131        0.62       2.9     4.0  4.1 -0.1231E+01 -0.6835E+00  0.1120E+01E
 Epicentro: LOS SANTOS - SANTANDER                                             3
 ACTION:UP  10-08-24 09:52 OP:vdl  STATUS:               ID:20100306104327 L   I
 2010-03-06-1041-46S.COL___101                                                 6
 STAT SP IPHASW D HRMM SECON CODA AMPLIT PERI AZIMU VELO SNR AR TRES W  DIS CAZ7
 BAR2 SZ EP       1043 47.11                             169     0.010   27 207 
 BAR2 SZ ES   1   1044  2.08                             169    -0.1 7   27 207 
 BRR  HZ EP       1043 49.06                             150     0.010   78 295 
 BRR  HZ I        1043 49.40        90.6 0.11                            78 295 
 BRR  HE ES       1044  5.87                             150     0.310   78 295 
 RUS  BZ EP       1043 51.13                             143    -0.210  101 181 
 RUS  BE ES   2   1044  9.35                             143    -0.3 5  101 181 
 RUS  BZ I        1044 11.34        22.3 0.30                           101 181 
 OCA  SZ EP       1043 55.89                             129     0.0 9  160 350 
 OCA  SZ ES   2   1044 17.14                             129    -0.6 5  160 350 
 OCA  SZ I        1044 24.64        59.9 0.28                           160 350 
 CHI  HZ EP   1   1044  6.06                             116     0.4 6  252 197 
 CHI  HN ES   2   1044 34.90                             116    -0.3 4  252 197 
 HEL  HZ EP   1   1044  9.14                             113     0.4 6  280 256 
 HEL  HN ES   3   1044 40.71                             113     0.0 2  280 256 
 HEL  HZ I        1044 46.15        16.0 0.51                           280 256 
 RREF BZ EP   1   1044 15.23                             110     0.6 5  329 230 
 RREF BN ES   2   1044 50.35                             110    -0.8 3  329 230 
 RREF BZ I        1044 55.24        11.6 0.29                           329 230 
 DBB  SZ EP       1044 15.66                             108    -0.4 6  348 274 
 DBB  SZ ES   2   1044 52.83                             108    -0.9 3  348 274 
 TOL  SZ ES   2   1044 55.41                             108     0.6 3  350 225 
 SDV  BZ EP       1044 17.09                             108     0.2 6  353  49 
 SDV  BZ I        1044 17.72        11.6 0.19                           353  49 
 PRA  HZ EP   1   1044 21.75                             106    -0.1 4  397 211 
 PRA  HN ES   2   1045  3.90                             106     0.0 3  397 211 
 PRA  HZ I        1045  9.44         7.4 0.32                           397 211 
                                                                                
