 2013  9 6 1609 18.6 L   6.809 -73.143133.8  RSN  6 0.4 1.8LRSN                1
 GAP=136        0.93       4.9     4.8  8.7 -0.1272E+01  0.1505E+02 -0.1131E+01E
 Epicentro: LOS SANTOS - SANTANDER                                             3
 ACTION:UPD 13-10-22 09:20 OP:ep   STATUS:               ID:20130906160918 L   I
 OLDACT:REG 13-09-06 21:34 OP:mh   STATUS:               ID:20130906160739     3
 2013-09-06-1607-39M.COL___247                                                 6
 STAT SP IPHASW D HRMM SECON CODA AMPLIT PERI AZIMU VELO AIN AR TRES W  DIS CAZ7
 BAR2 SZ EP   1   16 9 36.84                             169    0.06 7 24.3 190 
 BAR2 SZ I        16 9 54.39         9.4 0.12            168           24.3 190 
 BRR  HZ EP   1   16 9 38.46                             150    0.05 7 71.0 298 
 BRR  HN ES   1   16 9 54.53                             150    0.63 7 71.0 298 
 BRR  HZ I        16 9 57.42        10.5 0.36            148           71.0 298 
 PAM  SZ EP   1   16 9 39.44                             149   -0.02 7 76.5  40 
 PAM  SN ES       16 9 55.43                             149   -0.3310 76.5  40 
 PAM  SZ I        16 9 58.41        15.5 0.46            149           76.5  40 
 RUS  HZ EP   1   16 9 41.29                             141    0.06 7  102 176 
 RUS  HN ES       16 9 59.17                             141    0.2610  102 176 
 RUS  HZ I        1610  1.38         7.5 0.40            139            102 176 
 PTB  HZ EP   1   16 9 43.70                             129   -0.92 7  148 258 
 PTB  HN ES       1610  4.49                             129   -0.46 9  148 258 
 PTB  HZ I        1610 11.75         8.3 0.40            127            148 258 
 ZAR  HZ EP       16 9 50.88                             120    0.64 9  204 292 
 ZAR  HN ES   2   1610 15.02                             120    0.07 4  204 292 
 ZAR  HZ I        1610 21.35        10.8 0.42            118            204 292 
 SML  HN ES   4   1610 20.50                             115   -1.96 0  243 335 
                                                                                
