 2017  2 6 1240 23.9 L   6.771 -73.140148.9  RSN  5 0.4 1.6LRSN                1
 GAP=139        1.02       5.3     4.7  8.1  0.2060E+01  0.8710E+01  0.1061E+01E
 Epicentro: LOS SANTOS - SANTANDER                                             3
 ACTION:UPD 17-05-24 15:33 OP:jn   STATUS:               ID:20170206124023 L   I
 OLDACT:REG 17-02-06 20:16 OP:and  STATUS:               ID:20170206123741     3
 2017-02-06-1238-00M.COL___325                                                 6
 STAT SP IPHASW D HRMM SECON CODA AMPLIT PERI AZIMU VELO AIN AR TRES W  DIS CAZ7
 BRR  HZ EP       1240 45.59                             152    0.1010 73.3 300 
 BRR  HN ES       1241  2.74                             152    0.3910 73.3 300 
 BRR  HZ I        1241  7.50        10.5 0.17            151           73.3 300 
 PAM  EZ EP       1240 46.53                             151   -0.0310 79.5  38 
 PAM  EE ES       1241  3.87                             151   -0.3710 79.5  38 
 PAM  EZ I        1241  4.53         5.2 0.16            153           79.5  38 
 RUS  HZ EP       1240 48.23                             145    0.5110 97.3 176 
 RUS  HN ES       1241  6.37                             145    0.0710 97.3 176 
 RUS  HZ I        1241  6.98         3.4 0.30            149           97.3 176 
 PTB  HZ EP       1240 50.52                             133   -0.59 9  148 260 
 PTB  HN ES       1241 11.72                             133   -0.63 9  148 260 
 PTB  HZ I        1241 13.90         4.3 0.44            133            148 260 
 ZAR  HZ EP       1240 56.71                             123   -0.01 8  206 293 
 ZAR  HN ES       1241 22.90                             123    0.56 8  206 293 
 ZAR  HZ I        1241 28.05         4.0 0.10            124            206 293 
                                                                                
