 2013  4 6 1040 25.7 L   6.158 -73.678112.6  RSN 18 0.5 2.6LRSN                1
 GAP= 66        0.91       2.0     2.7  5.5 -0.4276E+00  0.2014E+01  0.1748E+01E
 Epicentro: LA PAZ - SANTANDER                                                 3
 ACTION:UPD 13-05-22 14:36 OP:EP   STATUS:               ID:20130406104025 L   I
 2013-04-06-1040-00M.COL___245                                                 6
 STAT SP IPHASW D HRMM SECON CODA AMPLIT PERI AZIMU VELO AIN AR TRES W  DIS CAZ7
 RUS  HZ IP     D 1040 43.93                             145   -0.2110 72.1 114 
 RUS  HN ES   1   1040 57.74                             145   -0.78 7 72.1 114 
 RUS  HZ I        1040 59.66        44.0 0.26            147           72.1 114 
 BAR2 SZ EP       1040 44.09                             145    0.2510 72.9  49 
 BAR2 SZ ES   1   1040 58.65                             145    0.67 7 72.9  49 
 BAR2 SZ I        1041  1.15       268.9 0.38            146           72.9  49 
 PTB  HZ IP     D 1040 44.53                             136   -0.7810 95.9 296 
 PTB  HN ES   1   1040 59.64                             136   -0.97 7 95.9 296 
 PTB  HZ I        1041  0.84        33.3 0.16            136           95.9 296 
 BRR  HZ IP     C 1040 46.27                             133    0.1910  105 358 
 BRR  HE ES   1   1041  2.45                             133    0.49 7  105 358 
 BRR  HZ I        1041  3.60        52.8 0.14            134            105 358 
 CTAU SZ EP   4   1040 49.84                             132    2.34 0  113 201 
 GIR2 SZ IP     C 1040 47.51                             131    0.3410  115  28 
 GIR2 SZ ES   2   1041  5.41                             131    1.49 5  115  28 
 GIR2 SZ I        1041  7.51        60.2 0.44            132            115  28 
 NOR  HN ES   1   1041  9.76                             123    0.43 7  147 244 
 NOR  HZ I        1041 11.18        81.2 0.18            123            147 244 
 ROSC BZ EP   2   1040 52.47                             120    0.29 5  162 206 
 ROSC BE ES   2   1041 13.35                             120    0.52 5  162 206 
 ROSC BZ I        1041 20.26        30.5 0.30            121            162 206 
 CHI  HZ IP     D 1040 52.97                             119    0.03 9  169 182 
 CHI  HN ES   1   1041 14.14                             119   -0.05 7  169 182 
 CHI  HZ I        1041 20.05        32.6 0.46            120            169 182 
 ZAR  HZ EP       1040 55.45                             115    0.00 9  197 319 
 ZAR  HE ES   1   1041 18.44                             115   -0.20 6  197 319 
 ZAR  HZ I        1041 21.01        59.0 0.30            115            197 319 
 HEL  HZ EP       1040 57.48                             114    0.69 9  205 271 
 HEL  HN ES   1   1041 21.00                             114   -0.03 6  205 271 
 HEL  HZ I        1041 27.67        14.0 0.22            114            205 271 
 TAM  HZ EP   1   1040 56.57                             113   -0.48 6  211  82 
 TAM  HE ES   1   1041 21.06                             113   -0.44 6  211  82 
 TAM  HZ I        1041 21.63        37.1 0.16            114            211  82 
 VIL  SZ EP       1040 58.88                             111   -0.01 8  226 180 
 VIL  SN ES   1   1041 24.92                             111    0.15 6  226 180 
 VIL  SZ I        1041 29.60        58.7 0.34            112            226 180 
 OCA  HZ EP   1   1040 59.91                             110    0.17 6  234  10 
 OCA  HE ES   1   1041 25.76                             110   -0.53 6  234  10 
 OCA  HZ I        1041 33.52        44.1 0.26            111            234  10 
 SML  HZ EP       1041  6.53                             105   -0.21 7  296 352 
 SML  HE ES   1   1041 38.37                             105   -0.38 5  296 352 
 SML  HZ I        1041 43.94        35.2 0.10            106            296 352 
 PRA  HZ IP     D 1041  7.34                             105   -0.18 7  302 206 
 PRA  HN ES   1   1041 39.83                             105   -0.31 5  302 206 
 PRA  HZ I        1041 45.50        22.4 0.28            105            302 206 
 SJA  SZ EP       1041 10.31                             104    0.48 7  320 185 
 SJA  SZ ES       1041 44.32                             104    0.08 7  320 185 
 SJA  SZ I        1041 47.70        44.6 0.38            104            320 185 
 COD  HZ EP   2   1041 21.60                              99    0.18 3  419   4 
 COD  HN ES   2   1042  5.59                              99    0.72 3  419   4 
 COD  HZ I        1042 14.47         4.7 0.50             99            419   4 
 SJC  HN ES   4   1042  6.48                              98   -4.31 0  445 338 
 SDV  BZ EP   1   1041 25.15                              98   -0.49 4  451  48 
 SDV  BN ES   2   1042 12.40                              98    0.01 2  451  48 
 SDV  BZ I        1042 16.75         5.6 0.55             98            451  48 
                                                                                
