 2017  5 6 1900 15.8 L   6.783 -73.133153.0  RSN  6 0.4 1.8LRSN                1
 GAP=238        0.97       5.2     5.9  7.9  0.9820E+01  0.2802E+01  0.3549E+01E
 Epicentro: LOS SANTOS - SANTANDER                                             3
 ACTION:UPD 17-06-16 13:33 OP:jn   STATUS:               ID:20170506190015 L   I
 OLDACT:DUP 17-05-06 22:00 OP:ar   STATUS:               ID:20170506185748d    3
 2017-05-06-1858-00M.COL___370                                                 6
 STAT SP IPHASW D HRMM SECON CODA AMPLIT PERI AZIMU VELO AIN AR TRES W  DIS CAZ7
 BRR  HZ EP       19 0 38.11                             153    0.2310 73.3 299 
 BRR  HN ES       19 0 55.49                             153    0.4110 73.3 299 
 RUS  HZ EP       19 0 40.08                             146   -0.0910 98.7 177 
 RUS  HE ES       19 0 58.77                             146   -0.3810 98.7 177 
 RUS  HZ I        19 0 59.94         5.4 0.40            144           98.7 177 
 PTB  HZ EP       19 0 43.12                             133   -0.37 9  149 260 
 PTB  HN ES       19 1  4.28                             133   -0.78 9  149 260 
 PTB  HZ I        19 1  9.60         4.9 0.68            130            149 260 
 SPBC HZ EP       19 0 45.13                             131    0.28 9  163 220 
 SPBC HN ES       19 1  8.04                             131    0.57 9  163 220 
 SPBC HZ I        19 1 13.17        12.7 0.20            128            163 220 
 ZAR  HN ES       19 1 14.72                             124   -0.08 8  206 292 
 ZAR  HZ I        19 1 19.38         5.0 0.10            122            206 292 
 NOR  HZ EP       19 0 51.97                             120   -0.03 8  235 235 
 NOR  HN ES       19 1 20.51                             120    0.30 8  235 235 
 NOR  HZ I        19 1 26.34         4.3 0.18            118            235 235 
                                                                                
