 2017  8 6 1021  6.3 L   6.716 -73.159143.0  RSN 14 0.5 1.6LRSN                1
 GAP=204        1.26       5.0     5.2  6.7  0.6880E+01  0.4804E+00  0.6264E+01E
 Epicentro: VILLANUEVA - SANTANDER                                             3
 ACTION:UPD 17-09-04 20:17 OP:rebc STATUS:               ID:20170806102106 L   I
 OLDACT:UP  17-08-06 22:04 OP:edw  STATUS:               ID:20170806101739d    3
 OLDACT:UP  17-08-06 22:01 OP:edw  STATUS:               ID:20170806101739d    3
 OLDACT:DUP 17-08-06 21:56 OP:edw  STATUS:               ID:20170806101739d    3
 OLDACT:UP  17-08-06 21:55 OP:edw  STATUS:               ID:20170806101738     3
 OLDACT:UP  17-08-06 21:54 OP:edw  STATUS:               ID:20170806101738     3
 OLDACT:REG 17-08-06 20:21 OP:edw  STATUS:               ID:20170806101738     3
 2017-08-06-1018-00M.COL___386                                                 6
 STAT SP IPHASW D HRMM SECON CODA AMPLIT PERI AZIMU VELO AIN AR TRES W  DIS CAZ7
 BAR2 EZ IP     D 1021 24.99                             175   -0.4310 14.0 191 
 BAR2 EZ ES       1021 40.68                             175    0.3210 14.0 191 
 BAR2 EZ I        1021 41.14        11.2 0.20            170           14.0 191 
 BRR  HZ EP       1021 27.27                             151   -0.0810 74.9 305 
 BRR  HN ES       1021 44.46                             151    0.6810 74.9 305 
 RUS  HZ EP       1021 29.17                             146    0.0510 91.5 175 
 RUS  HN ES       1021 46.70                             146   -0.2310 91.5 175 
 RUS  HZ I        1021 48.77         5.8 0.32            143           91.5 175 
 PTB  HZ EP   9   1021 31.97                             132   -0.78 0  145 262 
 PTB  HN ES       1021 51.92                             132   -0.70 9  145 262 
 PTB  HZ I        1021 53.75         3.5 0.14            130            145 262 
 SPBC HZ EP       1021 33.57                             130   -0.24 9  155 221 
 SPBC HN ES       1021 55.28                             130   -0.00 9  155 221 
 SPBC HZ I        1021 58.66         5.0 0.10            128            155 221 
 YPLC HZ EP       1021 35.02                             127   -0.14 9  169 149 
 ZAR  HZ EP       1021 39.66                             121    0.87 8  206 295 
 ZAR  HN ES       1022  3.26                             121   -0.89 8  206 295 
 ZAR  HZ I        1022  9.73         6.6 0.36            121            206 295 
 NOR  HN ES       1022  7.66                             119   -0.70 8  228 236 
 CHI  HZ EP       1021 42.94                             118    0.13 8  239 195 
 CHI  HN ES       1022 11.98                             118    0.67 8  239 195 
 CHI  HZ I        1022 22.91         1.4 0.50            116            239 195 
 HEL  HE ES       1022 17.10                             115    0.19 8  269 258 
 GUY2CHZ EP   4   1021 51.50                             112    2.47 0  295 236 
 GUY2CHN ES   4   1022 25.83                             112    3.45 0  295 236 
 GUY2CHZ I        1022 30.16         1.9 0.30                           295 236 
 PTGC HZ EP       1021 48.14                             112   -0.96 7  301 158 
 PTGC HN ES   4   1022 19.91                             112   -2.59 0  301 158 
 PRA  HZ EP       1021 59.64                             106    0.96 6  383 210 
 PRA  HN ES   4   1022 38.44                             106   -1.11 0  383 210 
 PRA  HZ I        1022 43.50         1.1 0.34            106            383 210 
 SJC  HZ EP   4   1022  0.03                             105   -2.55 0  416 328 
 SJC  HN ES   4   1022 43.48                             105   -3.01 0  416 328 
 SJC  HZ I        1022 48.06         1.2 0.58            105            416 328 
                                                                                
