 2014 10 6 1258 19.5 L   6.792 -73.151143.2  RSN  6 0.6 1.6LRSN                1
 GAP=136        1.43       6.3     7.5 11.3 -0.8562E+01  0.1860E+02 -0.1017E+02E
 Epicentro: LOS SANTOS - SANTANDER                                             3
 ACTION:UPD 14-11-29 23:47 OP:nd   STATUS:               ID:20141006125819 L   I
 OLDACT:REG 14-10-06 21:15 OP:stll STATUS:               ID:20141006124748     3
 2014-10-06-1247-48M.COL___292                                                 6
 STAT SP IPHASW D HRMM SECON CODA AMPLIT PERI AZIMU VELO AIN AR TRES W  DIS CAZ7
 BAR2 SZ EP       1258 38.84                             171    0.0510 22.3 189 
 BAR2 SZ ES       1258 53.06                             171   -0.7810 22.3 189 
 BAR2 SZ I        1258 54.67        11.0 0.16            172           22.3 189 
 BRR  HZ EP       1258 40.91                             152    0.5510 71.1 299 
 BRR  HN ES       1258 57.66                             152    1.0310 71.1 299 
 BRR  HZ I        1259  3.73         6.8 0.44            151           71.1 299 
 PAM  SZ EP       1258 41.80                             150    0.3010 78.5  39 
 PAM  SZ I        1258 42.15        14.5 0.18            153           78.5  39 
 PAM  SN ES       1258 58.74                             150    0.0810 78.5  39 
 RUS  HN ES       1259  1.33                             144    0.1310 99.7 176 
 RUS  HZ I        1259  3.07         2.7 0.26            148           99.7 176 
 PTB  HZ EP       1258 45.71                             132   -0.47 9  147 259 
 PTB  HN ES       1259  6.66                             132   -0.33 9  147 259 
 PTB  HZ I        1259  9.31         5.7 0.14            133            147 259 
 OCA  HN ES       1259  8.89                             129   -0.78 9  161 353 
 OCA  HZ I        1259 12.42         9.4 0.34            131            161 353 
                                                                                
