 2015  9 6 1232 56.3 L   6.816 -73.122144.3  RSN 19 0.4 2.6LRSN                1
 GAP=185        0.93       2.4     3.8  4.5 -0.6911E+00  0.3421E+01  0.1405E+01E
 Epicentro: LOS SANTOS - SANTANDER                                             3
 ACTION:UPD 15-10-28 16:24 OP:cam  STATUS:               ID:20150906123256 L   I
 OLDACT:UP  15-09-06 22:45 OP:mh   STATUS:               ID:20150906122750d    3
 OLDACT:UP  15-09-06 22:44 OP:mh   STATUS:               ID:20150906122750d    3
 OLDACT:DUP 15-09-06 22:38 OP:mh   STATUS:               ID:20150906122750d    3
 OLDACT:UP  15-09-06 22:37 OP:mh   STATUS:               ID:20150906122749     3
 OLDACT:REG 15-09-06 21:13 OP:mh   STATUS:               ID:20150906122749     3
 2015-09-06-1227-49M.COL___349                                                 6
 STAT SP IPHASW D HRMM SECON CODA AMPLIT PERI AZIMU VELO AIN AR TRES W  DIS CAZ7
 BAR2 EZ EP       1233 16.06                             169    0.2310 25.6 195 
 BAR2 EZ ES       1233 30.94                             169   -0.1010 25.6 195 
 BAR2 EZ I        1233 32.01        71.5 0.42            163           25.6 195 
 BRR  HZ EP     D 1233 17.95                             152    0.5510 72.7 296 
 BRR  HN ES       1233 34.52                             152    0.6710 72.7 296 
 BRR  HZ I        1233 38.76        45.3 0.16            143           72.7 296 
 RUS  HZ EP       1233 19.92                             143   -0.1310  102 178 
 RUS  HN ES       1233 38.22                             143   -0.3310  102 178 
 RUS  HZ I        1233 39.63        28.5 0.30            141            102 178 
 PTB  HZ EP       1233 23.08                             131   -0.36 9  151 258 
 PTB  HN ES       1233 43.65                             131   -0.94 9  151 258 
 PTB  HZ I        1233 49.12        39.9 0.14            125            151 258 
 OCA  HZ EP       1233 24.38                             130   -0.01 9  159 352 
 OCA  HN ES       1233 46.27                             130   -0.02 9  159 352 
 OCA  HZ I        1233 48.92        78.2 0.22            127            159 352 
 SPBC HZ EP     C 1233 25.02                             128    0.02 9  166 219 
 SPBC HN ES       1233 47.50                             128    0.14 9  166 219 
 SPBC HZ I        1233 50.69        64.9 0.12            124            166 219 
 ZAR  HZ EP   1   1233 29.17                             122    0.31 6  206 291 
 ZAR  HN ES       1233 54.32                             122    0.08 8  206 291 
 ZAR  HZ I        1234  1.85        41.3 0.26            117            206 291 
 NOR  HZ EP       1233 32.10                             118   -0.20 8  238 234 
 NOR  HN ES       1233 59.93                             118   -0.44 8  238 234 
 NOR  HZ I        1234  5.66        37.3 0.22            114            238 234 
 SML  HZ EP   1   1233 32.38                             117   -0.44 6  243 335 
 SML  HN ES       1234  0.86                             117   -0.43 8  243 335 
 SML  HZ I        1234  2.66        34.2 0.38            114            243 335 
 ROSC BZ EP       1233 34.88                             116    0.21 8  256 211 
 ROSC BN ES   4   1234  6.36                             116    1.77 0  256 211 
 ROSC BZ I        1234 13.47        40.9 0.35            113            256 211 
 HEL  HZ EP   1   1233 37.41                             114    0.62 6  275 256 
 HEL  HN ES       1234  8.38                             114    0.02 8  275 256 
 HEL  HZ I        1234 14.16        18.1 0.36            111            275 256 
 URE  HN ES   4   1234  6.87                             113   -2.79 0  286 291 
 URE  HZ I        1234 18.31        21.5 0.26            110            286 291 
 GUY2CHZ EP       1233 40.33                             112    0.11 7  304 235 
 GUY2CHN ES       1234 15.11                             112    0.65 7  304 235 
 GUY2CHZ I        1234 22.07        26.7 0.34                           304 235 
 VIL  SZ EP   1   1233 39.25                             112   -0.67 5  306 192 
 VIL  SN ES   4   1234 12.37                             112   -1.57 0  306 192 
 DBB  SZ EP   1   1233 43.24                             109   -0.79 5  342 274 
 DBB  SZ I        1234 23.13        32.4 0.57            106            342 274 
 TOL  SZ EP       1233 45.82                             109    0.95 6  347 225 
 TOL  SN ES   4   1234 24.63                             109    1.89 0  347 225 
 TOL  SZ I        1234 32.29        15.8 0.46            106            347 225 
 PRA  HZ EP       1233 49.66                             106   -0.46 6  395 210 
 PRA  HE ES       1234 32.41                             106    0.33 6  395 210 
 PRA  HZ I        1234 38.03        18.7 0.26            104            395 210 
 ORTC HZ EP       1233 50.47                             106   -0.07 6  398 216 
 ORTC HN ES       1234 33.11                             106    0.29 6  398 216 
 ORTC HZ I        1234 39.83        12.3 0.52            104            398 216 
 SJC  HZ EP   4   1233 49.98                             105   -1.86 0  409 327 
 SJC  HN ES   4   1234 30.75                             105   -4.39 0  409 327 
 SJC  HZ I        1234 37.28         4.1 0.32            103            409 327 
                                                                                
