 2016  6 6 1855  9.3 L   6.545 -73.582115.5  RSN 10 0.5 1.9LRSN                1
 GAP= 59        1.26       3.2     3.9  7.5 -0.2338E+01  0.3937E+01 -0.1056E+01E
 Epicentro: EL CARMEN - SANTANDER                                              3
 ACTION:UPD 16-07-21 22:16 OP:rebc STATUS:               ID:20160606185509 L   I
 OLDACT:UP  16-06-07 00:42 OP:edw  STATUS:               ID:20160606184742d    3
 OLDACT:UP  16-06-07 00:40 OP:edw  STATUS:               ID:20160606184742d    3
 OLDACT:UP  16-06-07 00:38 OP:edw  STATUS:               ID:20160606184742d    3
 OLDACT:DUP 16-06-07 00:34 OP:edw  STATUS:               ID:20160606184742d    3
 OLDACT:UP  16-06-07 00:33 OP:edw  STATUS:               ID:20160606184741     3
 OLDACT:REG 16-06-06 20:43 OP:edw  STATUS:               ID:20160606184741     3
 2016-06-06-1847-41M.COL___334                                                 6
 STAT SP IPHASW D HRMM SECON CODA AMPLIT PERI AZIMU VELO AIN AR TRES W  DIS CAZ7
 BAR2 EZ IP     C 1855 26.25                             158    0.1710 44.6  83 
 BAR2 EZ ES       1855 38.87                             158   -0.2910 44.6  83 
 BRR  HZ EP       1855 27.12                             149    0.3310 63.8 347 
 BRR  HN ES       1855 41.65                             149    1.2210 63.8 347 
 RUS  HZ EP       1855 29.37                             139   -0.0510 90.8 143 
 RUS  HN ES       1855 44.81                             139   -0.3010 90.8 143 
 RUS  HZ I        1855 45.16        12.5 0.28                          90.8 143 
 PTB  HZ EP     C 1855 29.02                             137   -0.2110 96.6 270 
 PTB  HN ES       1855 43.85                             137   -0.9210 96.6 270 
 PTB  HZ I        1855 45.28        22.5 0.32                          96.6 270 
 SPBC HZ EP   4   1855 31.62                             133    0.91 0  113 209 
 SPBC HE ES       1855 47.47                             133    0.0510  113 209 
 SPBC HZ I        1855 52.37        19.6 0.18                           113 209 
 PAM  EZ EP       1855 32.75                             128   -0.2410  131  48 
 PAM  EN ES       1855 51.39                             128   -0.0810  131  48 
 PAM  EZ I        1855 51.85         9.3 0.20                           131  48 
 NOR  HZ EP   4   1855 32.02                             118   -5.29 0  179 233 
 NOR  HE ES       1855 58.86                             118   -0.29 9  179 233 
 OCA  HZ EP       1855 38.02                             117   -0.55 9  190   9 
 OCA  HN ES       1856  1.25                             117   -0.16 9  190   9 
 OCA  HZ I        1856  7.26        25.9 0.44                           190   9 
 CHI  HZ EP       1855 41.93                             114    0.51 8  212 184 
 CHI  HN ES       1856  7.07                             114    0.60 8  212 184 
 CHI  HZ I        1856 16.90         2.9 0.42                           212 184 
 URE  HN ES       1856 14.29                             109    0.44 8  253 302 
 ANIL HN ES   4   1856 29.39                             106    4.50 0  304 222 
                                                                                
