 2011  2 6 1144 48.7 L   6.922 -73.196137.7  RSN  5 0.3 1.7LRSN                1
 GAP=303        0.55       9.8     7.4  7.5 -0.1877E+02  0.2400E+02  0.4423E+01E
 Epicentro: BETULIA - SANTANDER                                                3
 ACTION:UP  11-03-28 15:06 OP:jfem STATUS:               ID:20110206114449 L   I
 2011-02-06-1140-00M.COL___139                                                 6
 STAT SP IPHASW D HRMM SECON CODA AMPLIT PERI AZIMU VELO SNR AR TRES W  DIS CAZ7
 BAR2 SZ EP   1   1145  7.92                             165     0.210   37 178 
 BAR2 SZ ES   2   1145 22.28                             165    -0.3 6   37 178 
 BAR2 SZ I        1145 26.50        11.9 0.28                            37 178 
 RUS  HZ EP   1   1145 12.84                             138     0.110  114 174 
 RUS  HN ES   2   1145 31.73                             138     0.2 6  114 174 
 RUS  HZ I        1145 32.60         5.3 0.31                           114 174 
 NOR  SZ EP   1   1145 24.18                             116    -0.2 8  239 231 
 NOR  SN ES   2   1145 51.64                             116    -0.6 5  239 231 
 CHI  HZ EP       1145 26.98                             114    -0.310  260 193 
 RREF HZ EP   2   1145 35.45                             109     0.4 4  327 227 
 RREF HE ES   2   1146 11.91                             109     0.7 4  327 227 
 RREF HZ I        1146 20.35         2.6 0.42                           327 227 
                                                                                
