 2016 11 6 1026  5.0 L   6.823 -73.174149.5  RSN  6 0.3 1.4LRSN                1
 GAP=152        0.80       3.6     3.8  6.3 -0.2473E+01  0.9724E+00  0.8214E+01E
 Epicentro: ZAPATOCA - SANTANDER                                               3
 ACTION:UPD 17-10-26 21:05 OP:lp   STATUS:               ID:20161106102605 L   I
 OLDACT:DUP 16-11-06 21:54 OP:cog  STATUS:               ID:20161106101745d    3
 2016-11-06-1018-00M.COL___334                                                 6
 STAT SP IPHASW D HRMM SECON CODA AMPLIT PERI AZIMU VELO AIN AR TRES W  DIS CAZ7
 BRR  HZ EP       1026 26.53                             154    0.1610 67.3 298 
 BRR  HE ES       1026 43.64                             154    0.6210 67.3 298 
 BRR  HZ I        1026 48.74         4.0 0.23            154           67.3 298 
 PAM  EZ EP       1026 27.94                             151    0.3010 77.5  43 
 PAM  EE ES       1026 44.77                             151   -0.5210 77.5  43 
 PAM  EZ I        1026 47.09         3.6 0.52            155           77.5  43 
 PTB  HZ EP       1026 31.79                             133   -0.29 9  145 258 
 PTB  HE ES       1026 53.01                             133   -0.17 9  145 258 
 PTB  HZ I        1026 54.78         3.4 0.18            135            145 258 
 SPBC HZ EP       1026 34.02                             130    0.20 9  163 218 
 SPBC HE ES       1026 56.21                             130   -0.08 9  163 218 
 ZAR  HZ EP       1026 37.16                             124   -0.17 9  200 292 
 ZAR  HN ES       1027  2.29                             124   -0.23 9  200 292 
 ZAR  HZ I        1027  8.12         2.7 0.44            126            200 292 
 CHI  HZ EP       1026 43.36                             118    0.24 8  250 194 
 CHI  HN ES       1027 12.63                             118   -0.20 8  250 194 
 CHI  HZ I        1027 15.76         1.7 0.38            120            250 194 
                                                                                
