 2014 10 6 1008 22.7 L   6.764 -73.161143.3  RSN  6 0.6 1.2LRSN                1
 GAP=181        1.49       5.9     9.4 13.7  0.6380E+00 -0.8716E+01  0.6049E+01E
 Epicentro: LOS SANTOS - SANTANDER                                             3
 ACTION:UPD 14-11-29 23:47 OP:nd   STATUS:               ID:20141006100822 L   I
 OLDACT:DUP 14-10-06 21:47 OP:stll STATUS:               ID:20141006095749d    3
 2014-10-06-0957-48M.COL___289                                                 6
 STAT SP IPHASW D HRMM SECON CODA AMPLIT PERI AZIMU VELO AIN AR TRES W  DIS CAZ7
 BAR2 SZ EP       10 8 42.10                             172    0.1610 19.1 187 
 BAR2 SZ I        10 8 58.59         4.8 0.18            173           19.1 187 
 BRR  HZ EP       10 8 44.12                             152    0.5210 71.7 302 
 BRR  HN ES       10 9  0.96                             152    1.0510 71.7 302 
 RUS  HZ EP       10 8 45.90                             144   -0.0210 96.7 175 
 RUS  HE ES       10 9  3.50                             144   -0.5410 96.7 175 
 RUS  HZ I        10 9  6.09         1.6 0.34            145           96.7 175 
 PTB  HZ EP       10 8 49.02                             132   -0.21 9  145 260 
 PTB  HE ES       10 9  9.00                             132   -0.94 9  145 260 
 PTB  HZ I        10 9 17.25         2.1 0.40            134            145 260 
 SPBC HZ EP       10 8 51.01                             129    0.41 9  159 219 
 SPBC HZ I        10 8 51.31         3.0 0.10            131            159 219 
 SPBC HN ES       10 9 12.56                             129    0.19 9  159 219 
 OCA  HN ES       10 9 12.59                             128   -0.79 9  164 354 
                                                                                
