 2013 10 6 1343 10.6 L   6.805 -73.165149.2  RSN  8 0.4 1.6LRSN                1
 GAP=181        1.08       3.4     6.5  6.8  0.1041E+01  0.2956E+00 -0.1166E+01E
 Epicentro: LOS SANTOS - SANTANDER                                             3
 ACTION:UPD 13-11-25 09:19 OP:ep   STATUS:               ID:20131006134310 L   I
 OLDACT:REG 13-10-06 16:09 OP:stll STATUS:               ID:20131006133843     3
 2013-10-06-1338-43M.COL___235                                                 6
 STAT SP IPHASW D HRMM SECON CODA AMPLIT PERI AZIMU VELO AIN AR TRES W  DIS CAZ7
 BAR2 SZ EP       1343 30.49                             171   -0.1610 23.6 185 
 BAR2 SZ ES       1343 45.87                             171   -0.4210 23.6 185 
 BAR2 SZ I        1343 48.36        12.6 0.38            163           23.6 185 
 BRR  HZ EP       1343 32.48                             154    0.4710 69.1 299 
 BRR  HN ES       1343 49.49                             154    0.7810 69.1 299 
 RUS  HZ EP       1343 34.67                             144   -0.0710  101 175 
 RUS  HZ I        1343 35.56         3.2 0.30            133            101 175 
 RUS  HN ES       1343 53.30                             144   -0.2710  101 175 
 PTB  HZ EP       1343 37.31                             133   -0.36 9  146 258 
 PTB  HN ES       1343 58.18                             133   -0.61 9  146 258 
 PTB  HZ I        1344  1.23         5.9 0.22            125            146 258 
 OCA  HZ EP       1343 39.04                             130   -0.07 9  160 354 
 OCA  HN ES       1344  1.66                             130    0.31 9  160 354 
 OCA  HZ I        1344  5.41         5.3 0.24            124            160 354 
 SPBC HZ EP       1343 39.61                             130    0.33 9  162 218 
 SPBC HN ES       1344  2.04                             130    0.39 9  162 218 
 SML  HN ES       1344 15.16                             118   -0.72 8  242 336 
 CHI  HZ EP       1343 48.74                             118    0.26 8  249 195 
 CHI  HZ I        1344 23.51         2.2 0.62            109            249 195 
                                                                                
