 2015  3 6 1253 43.6 L   6.832 -73.155143.4  RSN 12 0.4 2.1LRSN                1
 GAP= 69        1.37       3.7     5.1  7.2 -0.2744E+01  0.3298E+01  0.3093E+01E
 Epicentro: LOS SANTOS - SANTANDER                                             3
 ACTION:UPD 15-04-30 16:23 OP:nd   STATUS:               ID:20150306125343 L   I
 OLDACT:REG 15-03-06 20:23 OP:stll STATUS:               ID:20150306124748     3
 2015-03-06-1247-48M.COL___284                                                 6
 STAT SP IPHASW D HRMM SECON CODA AMPLIT PERI AZIMU VELO AIN AR TRES W  DIS CAZ7
 BAR2 EZ EP       1254  2.87                             169   -0.1010 26.7 186 
 BAR2 EZ ES       1254 17.45                             169   -0.6610 26.7 186 
 BAR2 EZ I        1254 18.99        31.5 0.16            167           26.7 186 
 BRR  HZ EP       1254  4.88                             153    0.5810 68.6 296 
 BRR  HN ES       1254 21.53                             153    1.0510 68.6 296 
 BRR  HZ I        1254 25.67        28.6 0.10            153           68.6 296 
 PAM  SZ EP       1254  5.69                             151    0.3010 75.4  42 
 PAM  SZ I        1254  6.04        45.1 0.22            155           75.4  42 
 PAM  SN ES       1254 22.78                             151    0.3510 75.4  42 
 RUS  HZ EP       1254  7.18                             142   -0.1610  104 176 
 RUS  HN ES       1254 25.42                             142   -0.4710  104 176 
 RUS  HZ I        1254 26.67        10.6 0.28            143            104 176 
 PTB  HZ EP       1254 10.37                             132    0.07 9  147 257 
 PTB  HN ES       1254 31.39                             132    0.23 9  147 257 
 PTB  HZ I        1254 33.23        11.2 0.10            132            147 257 
 OCA  HN ES       1254 32.62                             130   -0.38 9  157 353 
 TAM  HZ EP       1254 11.20                             129   -0.03 9  157 106 
 SPBC HZ EP       1254 12.11                             128    0.04 9  165 218 
 SPBC HE ES       1254 34.26                             128   -0.06 9  165 218 
 SPBC HZ I        1254 44.45        34.0 0.10            128            165 218 
 NOR  HZ EP       1254 19.46                             118    0.18 8  236 234 
 NOR  HN ES       1254 46.69                             118   -0.45 8  236 234 
 SML  HZ EP       1254 19.38                             117   -0.26 8  240 335 
 SML  HN ES       1254 46.86                             117   -0.94 8  240 335 
 CHI  HZ EP       1254 21.37                             116   -0.10 8  252 195 
 CHI  HN ES       1254 51.34                             116    0.30 8  252 195 
 CHI  HZ I        1254 54.92         4.3 0.34            117            252 195 
 MON  HZ EP   9   1254 30.56                             108   -1.55 0  351 308 
 MON  HN ES       1255  6.28                                   -2.15 6  351 308 
 MON  HZ I        1255  9.93         3.8 0.20            110            351 308 
                                                                                
