 2011  4 6 1114 11.6 L   6.746 -73.122148.4  RSN  8 0.5 1.8LRSN                1
 GAP=181        1.11       7.7    11.1 10.5 -0.3711E+02 -0.2325E+02  0.2073E+02E
 Epicentro: JORDAN - SANTANDER                                                 3
 ACTION:UP  11-06-22 15:29 OP:REBC STATUS:               ID:20110406111411 L   I
 2011-04-06-1110-33S.COL___125                                                 6
 STAT SP IPHASW D HRMM SECON CODA AMPLIT PERI AZIMU VELO SNR AR TRES W  DIS CAZ7
 BAR2 SZ IP       1114 31.16                             173    -0.310   18 201 
 BAR2 SZ ES   1   1114 46.48                             173    -0.5 7   18 201 
 BAR2 SZ I        1114 47.41        14.9 0.36                            18 201 
 BTL  SZ IP       1114 32.33                             170     0.710   25 320 
 GIR2 SZ EP   2   1114 31.03                             165    -0.7 5   38 348 
 BRR  HZ IP     D 1114 33.12                             151    -0.210   76 302 
 BRR  HN ES   1   1114 50.88                             151     0.6 7   76 302 
 BRR  HZ I        1114 53.35        14.8 0.32                            76 302 
 GRA  SZ EP       1114 37.35                             136    -0.110  131  16 
 GRA  SZ I        1115  1.49         5.0 0.18                           131  16 
 OCA  SZ EP   3   1114 39.92                             129    -0.8 2  167 352 
 OCA  SZ I        1115 10.09        10.2 0.54                           167 352 
 NOR  SZ EP   2   1114 47.12                             119    -0.2 4  233 236 
 NOR  SN ES   1   1115 14.69                             119    -0.5 6  233 236 
 CHI  HZ EP       1114 49.33                             118     0.4 8  244 196 
 CHI  HN ES   2   1115 18.25                             118     0.2 4  244 196 
 CHI  HZ I        1115 24.50         4.5 0.49                           244 196 
                                                                                
