 2011 10 6 1419  5.6 L   6.694 -73.162141.6  RSN  4 0.1 1.6LRSN                1
 GAP=227        0.34       3.2     4.3  4.7  0.5784E+01  0.1565E+01  0.1721E+01E
 Epicentro: VILLANUEVA - SANTANDER                                             3
 ACTION:UPD 12-07-13 16:02 OP:ep   STATUS:               ID:20111006141905 L   I
 2011-10-06-1416-38S.COL___169                                                 6
 STAT SP IPHASW D HRMM SECON CODA AMPLIT PERI AZIMU VELO AIN AR TRES W  DIS CAZ7
 BAR2 SZ EP   1   1419 24.38                             175   -0.13 7 11.5 191 
 BAR2 SZ I        1419 41.16         9.0 0.43                          11.5 191 
 BRR  HZ EP   1   1419 26.48                             150   -0.07 7 76.1 307 
 BRR  HZ I        1419 26.79        11.5 0.12                          76.1 307 
 BRR  HN ES   1   1419 42.99                             150    0.07 7 76.1 307 
 RUS  HZ EP   1   1419 28.10                             146    0.01 7 89.0 174 
 RUS  HN ES   1   1419 45.73                             146    0.07 7 89.0 174 
 RUS  HZ I        1419 47.83         4.4 0.21                          89.0 174 
 NOR  SZ EP   2   1419 40.52                             119    0.34 4  227 237 
 NOR  SN ES   2   1420  6.98                             119   -0.20 4  227 237 
                                                                                
