 2011  9 6 1959  3.9 L   6.784 -73.109143.5  RSN 14 0.4 3.5LRSN                1
 GAP=142        0.78       2.7     4.2  5.0 -0.4744E+00  0.6476E+01  0.3664E+01E
 Epicentro: LOS SANTOS - SANTANDER                                             3
 ACTION:UPD 12-07-13 15:56 OP:ep   STATUS:               ID:20110906195903 L   I
 2011-09-06-1956-26S.COL___170                                                 6
 STAT SP IPHASW D HRMM SECON CODA AMPLIT PERI AZIMU VELO AIN AR TRES W  DIS CAZ7
 BAR2 SZ EP       1959 23.64                             171    0.3810 22.7 201 
 BAR2 SZ ES   1   1959 38.17                             171   -0.18 7 22.7 201 
 BAR2 SZ I        1959 40.24       816.1 0.31                          22.7 201 
 BRR  HZ EP       1959 25.38                             151    0.3010 75.6 298 
 BRR  HN ES   1   1959 41.77                             151    0.18 7 75.6 298 
 BRR  HZ I        1959 46.77       300.9 0.25                          75.6 298 
 PAM  SZ EP       1959 26.34                             151    0.5110 76.3  36 
 PAM  SN ES   1   1959 42.62                             151   -0.30 7 76.3  36 
 PAM  SZ I        1959 45.83       227.4 0.35                          76.3  36 
 RUS  HZ IP     D 1959 27.51                             144    0.2110 98.6 178 
 RUS  HE ES   1   1959 45.35                             144   -0.19 7 98.6 178 
 RUS  HZ I        1959 48.33       348.9 0.63                          98.6 178 
 OCA  SZ EP       1959 31.84                             129   -0.43 9  163 352 
 OCA  SZ ES   1   1959 53.89                             129   -0.50 7  163 352 
 OCA  SZ I        1959 57.49       319.8 0.49                           163 352 
 ZAR  HZ EP   1   1959 36.21                             121   -0.46 6  208 292 
 ZAR  HE ES   1   20 0  1.53                             121   -0.69 6  208 292 
 ZAR  HZ I        20 0  7.40       234.5 0.31                           208 292 
 CHI  HZ EP       1959 41.49                             117    0.07 8  248 196 
 CHI  HE ES   1   20 0 10.33                             117   -0.34 6  248 196 
 CHI  HZ I        20 0 15.86       207.3 0.79                           248 196 
 HEL  HZ EP   2   1959 44.79                             114    0.39 4  276 256 
 HEL  HN ES   2   20 0 16.38                             114    0.40 4  276 256 
 HEL  HZ I        20 0 23.29       212.8 0.47                           276 256 
 VIL  SZ EP   1   1959 46.54                             112   -0.58 5  302 192 
 VIL  SE ES   2   20 0 20.62                             112   -0.21 4  302 192 
 VIL  SZ I        20 0 27.86       143.6 0.48                           302 192 
 RREF HZ EP   1   1959 50.66                             110    0.48 5  324 230 
 RREF HN ES   1   20 0 26.34                             110    0.08 5  324 230 
 RREF HZ I        20 0 37.97       185.7 0.54                           324 230 
 DBB  SZ EP   1   1959 51.95                             109    0.17 5  344 274 
 TOL  SZ EP       1959 52.97                             109    0.71 7  345 225 
 PRA  HZ EP   1   1959 56.93                             106   -0.48 4  392 210 
 PRA  HE ES   1   20 0 38.97                             106   -0.16 4  392 210 
 SJA  SZ EP       1959 57.44                             106   -0.85 6  399 194 
 SJA  SZ I        20 0 54.37       270.9 0.47                           399 194 
                                                                                
