 2016  7 6 1213 35.6 L   6.799 -73.134143.6  RSN  9 0.4 2.0LRSN                1
 GAP=239        0.92       4.5     4.7  6.0  0.5342E+01  0.7605E+01  0.3645E+01E
 Epicentro: LOS SANTOS - SANTANDER                                             3
 ACTION:UPD 17-03-29 16:47 OP:lp   STATUS:               ID:20160706121335 L   I
 OLDACT:REG 16-07-06 20:34 OP:dnl  STATUS:               ID:20160706120745     3
 2016-07-06-1207-45M.COL___322                                                 6
 STAT SP IPHASW D HRMM SECON CODA AMPLIT PERI AZIMU VELO AIN AR TRES W  DIS CAZ7
 BAR2 EZ IP     C 1213 54.99                             170    0.0610 23.5 193 
 BAR2 EZ ES       1214  9.63                             170   -0.4210 23.5 193 
 BAR2 EZ I        1214 11.37        27.2 0.20            168           23.5 193 
 BRR  HZ IP       1213 56.78                             152    0.2310 72.4 298 
 BRR  HN ES       1214 13.65                             152    0.7310 72.4 298 
 BRR  HZ I        1214 17.50        22.7 0.12            150           72.4 298 
 RUS  HZ EP       1213 59.02                             144   -0.0710  100 177 
 RUS  HE ES       1214 17.63                             144    0.1910  100 177 
 RUS  HZ I        1214 19.82         5.5 0.10            146            100 177 
 PTB  HZ EP       1214  1.88                             131   -0.59 9  149 259 
 PTB  HN ES       1214 22.73                             131   -0.73 9  149 259 
 PTB  HZ I        1214 28.46         9.7 0.16            132            149 259 
 SPBC HZ EP       1214  3.91                             129   -0.05 9  164 219 
 SPBC HN ES       1214 26.24                             129    0.12 9  164 219 
 SPBC HZ I        1214 32.16        19.2 0.10            130            164 219 
 ZAR  HZ EP   2   1214  8.15                             122    0.15 4  205 292 
 ZAR  HN ES       1214 33.14                             122   -0.16 8  205 292 
 ZAR  HZ I        1214 38.88        16.5 0.50            123            205 292 
 NOR  HZ EP       1214 11.52                             118    0.25 8  236 235 
 NOR  HE ES       1214 39.32                             118    0.19 8  236 235 
 NOR  HZ I        1214 41.04         9.1 0.20            119            236 235 
 GUY2CHZ EP   2   1214 19.47                             112    0.29 4  302 235 
 GUY2CHN ES   2   1214 54.12                             112    0.91 4  302 235 
 GUY2CHZ I        1215  3.11         3.7 0.24                           302 235 
 SJC  HZ EP   4   1214 29.18                             105   -1.97 0  410 327 
 SJC  HN ES   4   1215  9.26                             105   -5.25 0  410 327 
 SJC  HZ I        1215 14.67         2.4 0.32            107            410 327 
                                                                                
