 2013  5 6 1154 15.9 L   6.796 -73.120152.0  RSN  5 0.3 1.6LRSN                1
 GAP=140        0.63       4.3     4.9  6.9 -0.4222E+01 -0.7692E+01  0.5392E+01E
 Epicentro: LOS SANTOS - SANTANDER                                             3
 ACTION:UPD 13-06-20 09:48 OP:ep   STATUS:               ID:20130506115415 L   I
 2013-05-06-1150-00M.COL___253                                                 6
 STAT SP IPHASW D HRMM SECON CODA AMPLIT PERI AZIMU VELO AIN AR TRES W  DIS CAZ7
 BAR2 SZ EP   2   1154 35.92                             171   -0.33 5 23.6 197 
 BAR2 SZ ES   1   1154 52.13                             171   -0.02 7 23.6 197 
 BAR2 SZ I        1154 52.58         8.6 0.27            171           23.6 197 
 BRR  HN ES       1154 55.18                             153    0.2010 73.9 298 
 BRR  HN I        1154 55.41        13.2 0.26            152           73.9 298 
 PAM  SZ EP       1154 38.98                             152    0.3210 75.9  38 
 PAM  SZ I        1154 39.18         4.6 0.24            152           75.9  38 
 PAM  SN ES       1154 56.16                             152   -0.2910 75.9  38 
 RUS  HZ EP   1   1154 40.01                             145   -0.18 7  100 178 
 RUS  HE ES   1   1154 59.38                             145    0.21 7  100 178 
 PTB  HN ES   2   1155  4.50                             133   -0.71 5  150 259 
                                                                                
