 2016  5 6 1939 13.5 L   6.789 -73.117148.0  RSN 17 0.5 2.5LRSN                1
 GAP=141        1.06       2.9     3.7  5.3 -0.1958E+01  0.4732E+01  0.2652E+01E
 Epicentro: LOS SANTOS - SANTANDER                                             3
 ACTION:UPD 16-08-18 17:42 OP:cam  STATUS:               ID:20160506193913 L   I
 OLDACT:UP  16-05-15 07:31 OP:ar   STATUS:               ID:20160506193913 L   3
 OLDACT:REG 16-05-06 20:41 OP:dnl  STATUS:               ID:20160506193750     3
 2016-05-06-1937-50M.COL___297                                                 6
 STAT SP IPHASW D HRMM SECON CODA AMPLIT PERI AZIMU VELO AIN AR TRES W  DIS CAZ7
 BAR2 EZ EP       1939 33.31                             171   -0.1110 22.9 198 
 BAR2 EZ ES       1939 48.67                             171   -0.2610 22.9 198 
 BAR2 EZ I        1939 50.88        54.8 0.36            167           22.9 198 
 BRR  HZ EP       1939 35.26                             152    0.1510 74.6 298 
 BRR  HE ES       1939 52.81                             152    0.8610 74.6 298 
 BRR  HZ I        1939 55.73        52.4 0.20            149           74.6 298 
 PAM  EZ EP       1939 36.11                             152    0.1910 76.4  37 
 PAM  EN ES       1939 53.42                             152    0.0310 76.4  37 
 PAM  EZ I        1939 55.57        60.0 0.56            156           76.4  37 
 RUS  HZ EP       1939 37.18                             145   -0.2210 99.1 178 
 RUS  HE ES       1939 55.99                             145   -0.0310 99.1 178 
 RUS  HZ I        1939 57.72        16.2 0.18            145           99.1 178 
 PTB  HZ EP       1939 40.13                             132   -0.81 9  151 260 
 PTB  HE ES       1940  1.33                             132   -0.99 9  151 260 
 PTB  HZ I        1940  8.80        62.1 0.21            131            151 260 
 OCA  HZ EP       1939 41.69                             130   -0.48 9  162 352 
 OCA  HN ES       1940  5.30                             130    0.79 9  162 352 
 OCA  HZ I        1940  8.29        98.3 0.36            132            162 352 
 SPBC HZ EP       1939 42.29                             130   -0.01 9  164 220 
 SPBC HE ES       1940  4.89                             130    0.15 9  164 220 
 SPBC HZ I        1940 11.46        71.8 0.34            129            164 220 
 ZAR  HZ EP       1939 45.95                             123   -0.52 8  207 292 
 ZAR  HE ES       1940 11.78                             123   -0.39 8  207 292 
 ZAR  HZ I        1940 17.82        40.4 0.16            122            207 292 
 NOR  HN ES       1940 17.54                             119   -0.18 8  237 235 
 NOR  HZ I        1940 22.22        27.9 0.20            119            237 235 
 SML  HZ EP   9   1939 49.33                             118   -1.22 0  246 335 
 SML  HN ES       1940 18.15                             118   -0.06 8  246 335 
 SML  HZ I        1940 22.94        65.8 0.24            119            246 335 
 CHI  HZ EP       1939 51.16                             118   -0.15 8  248 196 
 CHI  HN ES       1940 21.13                             118    0.35 8  248 196 
 CHI  HZ I        1940 28.47        10.0 0.60            118            248 196 
 HEL  HZ EP       1939 54.64                             115    0.48 8  275 256 
 HEL  HE ES       1940 26.28                             115    0.42 8  275 256 
 HEL  HZ I        1940 33.04        19.0 0.24            115            275 256 
 URE  HZ EP   3   1939 53.91                             114   -1.18 2  287 292 
 URE  HN ES   4   1940 24.39                             114   -3.12 0  287 292 
 URE  HZ I        1940 32.28        23.5 0.16            114            287 292 
 ELA  HZ EP   9   1940  2.68                             111    2.02 0  331 230 
 ELA  HN ES       1940 40.26                             111    0.82 7  331 230 
 ELA  HZ I        1940 48.96         9.8 0.26            111            331 230 
 CBOC HZ EP   2   1940  1.01                             110    0.17 3  336 252 
 CBOC HN ES       1940 38.34                             110    0.60 7  336 252 
 CBOC HZ I        1940 42.77         6.0 0.24            110            336 252 
 PRA  HZ EP   2   1940  7.17                             107   -0.01 3  393 210 
 PRA  HN ES       1940 49.41                             107    0.38 6  393 210 
 PRA  HZ I        1940 56.65         9.1 0.30            108            393 210 
 ORTC HZ EP       1940  8.12                             107    0.49 6  396 217 
 ORTC HN ES       1940 50.35                             107    0.53 6  396 217 
 ORTC HZ I        1940 56.23         7.6 0.22            107            396 217 
                                                                                
