 2013 10 6 1838 47.3 L   6.808 -73.121146.3  RSN 12 0.6 2.0LRSN 2.7WRSN        1
 SPEC AVERAGE  MO 13.1 ST 41.3 OM  1.4 f0 12.3 R0.3601 AL 0.00 WI 20.0 MW  2.7 3
 SPEC SD       MO  0.2 ST 60.5 OM  0.3 f0 7.87 R0.4227 AL      WI      MW  0.1 3
 GAP=121        1.53       4.4     6.0  8.2 -0.7434E+01  0.5192E+01  0.4703E+01E
 Epicentro: LOS SANTOS - SANTANDER                                             3
 SPEC BAR2SH Z MO 13.2 ST 47.0 OM  1.4 f0 16.3 R0.1180 AL-0.00 WI 20.0 MW  2.8 3
 SPEC BAR2SH Z T183920 K 0.050 GD  148 VS 5.20 DE 3.20 Q0750.0 QA 1.50 VS 5.20 3
 SPEC BRR HH Z MO 13.1 ST 25.5 OM  1.2 f0 15.0 R0.1283 AL-0.00 WI 20.0 MW  2.7 3
 SPEC BRR HH Z T183924 K 0.050 GD  163 VS 5.20 DE 3.20 Q0750.0 QA 1.50 VS 5.20 3
 SPEC PAM SH Z MO 12.8 ST  3.7 OM  0.9 f0 9.91 R0.1941 AL-0.00 WI 20.0 MW  2.5 3
 SPEC PAM SH Z T183925 K 0.050 GD  164 VS 5.20 DE 3.20 Q0750.0 QA 1.50 VS 5.20 3
 SPEC RUS HH Z MO 12.8 ST0.615 OM  0.9 f0 5.31 R0.3623 AL-0.00 WI 20.0 MW  2.5 3
 SPEC RUS HH Z T183927 K 0.050 GD  177 VS 5.20 DE 3.20 Q0750.0 QA 1.50 VS 5.20 3
 SPEC PTB HH Z MO 13.4 ST0.052 OM  1.4 f0 1.50 R1.2827 AL-0.00 WI 20.0 MW  2.9 3
 SPEC PTB HH Z T183933 K 0.050 GD  210 VS 5.20 DE 3.20 Q0750.0 QA 1.50 VS 5.20 3
 SPEC SPBCHH Z MO 13.2 ST171.3 OM  1.2 f0 25.6 R0.0752 AL-0.00 WI 20.0 MW  2.8 3
 SPEC SPBCHH Z T183936 K 0.050 GD  221 VS 5.20 DE 3.20 Q0750.0 QA 1.50 VS 5.20 3
 SPECGUY2CHH Z MO 13.3 ST  0.1 OM  1.1 f0 2.22 R 0.868 AL-0.00 WI 20.0 MW  2.8 3
 SPECGUY2CHH Z T1840 4 K 0.050 GD337.4 VS 5.20 DE 3.20 Q0750.0 QA 1.50 VS 5.20 3
 OLDACT:DUP 13-10-06 21:01 OP:stll STATUS:               ID:20131006182849d    3
 ACTION:UPD 13-11-25 09:19 OP:ep   STATUS:               ID:20131006183847 L   I
 OLDACT:UP  13-10-06 21:07 OP:stll STATUS:               ID:20131006182849d    3
 2013-10-06-1828-48M.COL___235                                                 6
 STAT SP IPHASW D HRMM SECON CODA AMPLIT PERI AZIMU VELO AIN AR TRES W  DIS CAZ7
 BAR2 SZ EP       1839  7.09                             170    0.0710 24.8 196 
 BAR2 SZ ES       1839 22.13                             170   -0.2810 24.8 196 
 BAR2 SZ I        1839 24.63        50.8 0.30            170           24.8 196 
 BRR  HZ IP     C 1839  9.04                             152    0.4210 73.2 297 
 BRR  HN ES       1839 26.47                             152    1.2310 73.2 297 
 BRR  SZ I        1839 31.20        17.6 0.18            152           73.2 297 
 PAM  SZ EP       1839  9.95                             152    0.5210 75.0  38 
 PAM  SN ES       1839 27.10                             152    0.4110 75.0  38 
 PAM  SZ I        1839 28.83        10.4 0.58            154           75.0  38 
 RUS  HZ EP       1839 11.27                             144    0.1210  101 178 
 RUS  HN ES       1839 29.35                             144   -0.4110  101 178 
 RUS  SZ I        1839 30.40        14.4 0.28            146            101 178 
 PTB  HZ EP       1839 13.86                             132   -0.70 9  151 259 
 PTB  HN ES       1839 34.84                             132   -0.99 9  151 259 
 PTB  SZ I        1839 40.87        11.5 0.32            133            151 259 
 OCA  HN ES       1839 36.97                             130   -0.70 9  160 352 
 SPBC HZ EP       1839 16.38                             129    0.32 9  166 220 
 SPBC HN ES       1839 37.95                             129   -0.55 9  166 220 
 SPBC SZ I        1839 39.50        25.7 0.18            130            166 220 
 NOR  HN ES       1839 51.59                             118    0.12 8  237 235 
 SML  HN ES       1839 52.01                             117   -0.60 8  244 335 
 CHI  HZ EP       1839 25.00                             117   -0.19 8  250 196 
 CHI  HZ I        1839 27.93         4.6 0.40            119            250 196 
 CHI  HE ES       1839 54.54                             117   -0.22 8  250 196 
 SOCV BZ EP       1839 29.35                             112   -0.71 7  299  57 
 GUY2CHZ EP       1839 32.73                             112    1.49 7  304 235 
 GUY2CHN ES       1840  6.15                             112    0.64 7  304 235 
 GUY2CSZ I        1840 13.25         4.6 0.38                           304 235 
                                                                                
