 2016  9 6 1110 51.2 L   6.771 -73.123142.7  RSN 10 0.4 1.9LRSN                1
 GAP=141        0.89       3.6     3.4  5.3 -0.2189E+01  0.5255E+01  0.1870E+01E
 Epicentro: LOS SANTOS - SANTANDER                                             3
 ACTION:UPD 17-08-17 21:07 OP:lp   STATUS:               ID:20160906111051 L   I
 OLDACT:REG 16-09-06 21:05 OP:lv   STATUS:               ID:20160906110734     3
 2016-09-06-1108-00M.COL___337                                                 6
 STAT SP IPHASW D HRMM SECON CODA AMPLIT PERI AZIMU VELO AIN AR TRES W  DIS CAZ7
 BAR2 EZ IP     C 1111 10.33                             171   -0.0710 20.8 198 
 BAR2 EZ ES       1111 25.22                             171   -0.1610 20.8 198 
 BAR2 EZ I        1111 26.49        13.3 0.13            170           20.8 198 
 BRR  HZ EP       1111 12.19                             151   -0.0310 75.0 300 
 BRR  HN ES       1111 29.20                             151    0.5710 75.0 300 
 BRR  HZ I        1111 32.37        18.0 0.24            149           75.0 300 
 PAM  EZ EP       1111 13.30                             150    0.1710 78.4  37 
 PAM  EN ES       1111 30.25                             150   -0.0010 78.4  37 
 PAM  EZ I        1111 30.86        11.0 0.16            153           78.4  37 
 RUS  HZ EP       1111 14.25                             144   -0.1410 97.2 177 
 RUS  HE ES       1111 32.67                             144    0.1810 97.2 177 
 RUS  HZ I        1111 33.99         5.8 0.28            146           97.2 177 
 PTB  HZ EP       1111 17.55                             131   -0.53 9  150 260 
 PTB  HN ES       1111 38.35                             131   -0.70 9  150 260 
 PTB  HZ I        1111 40.00         5.5 0.10            130            150 260 
 SPBC HZ EP       1111 19.05                             129   -0.32 9  162 220 
 SPBC HN ES       1111 41.57                             129    0.23 9  162 220 
 SPBC HZ I        1111 44.04        16.0 0.09            129            162 220 
 ZAR  HZ EP   4   1111 27.18                             121    3.38 0  208 293 
 ZAR  HN ES       1111 48.87                             121   -0.37 8  208 293 
 ZAR  HZ I        1111 55.15         7.5 0.26            121            208 293 
 NOR  HZ EP       1111 26.86                             118    0.10 8  235 235 
 NOR  HE ES       1111 54.52                             118    0.01 8  235 235 
 NOR  HZ I        1112  0.35        10.9 0.07            118            235 235 
 HEL  HZ EP       1111 32.22                             114    0.79 8  274 257 
 HEL  HN ES       1112  3.44                             114    0.62 8  274 257 
 HEL  HZ I        1112  8.48         4.1 0.37            114            274 257 
 GUY2CHZ EP   9   1111 35.92                             112    1.24 0  301 236 
 GUY2CHN ES       1112  9.79                                   -0.05 7  301 236 
 GUY2CHZ I        1112 17.01         3.4 0.34                           301 236 
                                                                                
