 2014  7 6 1730 21.3 L   6.738 -73.139126.0  RSN  8 0.4 1.5LRSN                1
 GAP=140        0.86       2.9     4.0  5.5 -0.3588E+01  0.7797E+01 -0.1915E+01E
 Epicentro: LOS SANTOS - SANTANDER                                             3
 ACTION:UPD 15-03-16 20:41 OP:nd   STATUS:               ID:20140706173021 L   I
 OLDACT:REG 14-07-06 20:21 OP:spq  STATUS:               ID:20140706172818     3
 2014-07-06-1728-18M.COL___265                                                 6
 STAT SP IPHASW D HRMM SECON CODA AMPLIT PERI AZIMU VELO AIN AR TRES W  DIS CAZ7
 BAR2 SZ EP       1730 38.39                             172    0.0110 16.8 196 
 BAR2 SZ ES   1   1730 50.92                             172   -0.82 7 16.8 196 
 BAR2 SZ I        1730 54.66         5.6 0.16            173           16.8 196 
 BRR  HZ EP       1730 40.70                             147    0.1310 75.3 303 
 BRR  HN ES       1730 55.97                             147    0.3310 75.3 303 
 BRR  HZ I        1730 57.52         9.6 0.33            149           75.3 303 
 PAM  SZ EP       1730 41.69                             145   -0.0610 82.3  36 
 PAM  SN ES       1730 57.89                             145    0.1610 82.3  36 
 PAM  SZ I        1731  0.92         7.7 0.41            148           82.3  36 
 RUS  HN ES       1730 59.24                             141    0.0210 93.7 176 
 RUS  HZ I        1731  2.26         3.6 0.32            144           93.7 176 
 PTB  HZ EP       1730 47.28                             127    0.64 9  147 261 
 PTB  HN ES       1731  5.98                             127   -0.46 9  147 261 
 PTB  HZ I        1731  8.52         3.6 0.04            130            147 261 
 SPBC HZ IP     C 1730 47.77                             125   -0.07 9  158 221 
 SPBC HN ES       1731  9.02                             125    0.45 9  158 221 
 SPBC HZ I        1731 10.72         3.4 0.16            128            158 221 
 SML  HZ EP       1730 57.20                             112   -0.39 8  250 336 
 SML  HN ES       1731 25.87                             112   -0.05 8  250 336 
 SML  HZ I        1731 28.09         4.6 0.10            115            250 336 
 GUY2CHZ EP       1731  3.20                             108   -0.45 7  298 236 
 GUY2CHN ES       1731 36.53                             108   -0.18 7  298 236 
 GUY2CHZ I        1731 45.98         1.4 0.26                           298 236 
                                                                                
