 2016 11 6 1237  0.8 L   6.543 -73.580103.1  RSN  4 0.4 1.5LRSN                1
 GAP=136        0.91       5.4     4.7  8.5 -0.4506E+01  0.1650E+02 -0.7729E+01E
 Epicentro: EL CARMEN - SANTANDER                                              3
 ACTION:UPD 17-10-26 21:05 OP:lp   STATUS:               ID:20161106123700 L   I
 OLDACT:REG 16-11-06 20:04 OP:cog  STATUS:               ID:20161106122745     3
 2016-11-06-1228-00M.COL___346                                                 6
 STAT SP IPHASW D HRMM SECON CODA AMPLIT PERI AZIMU VELO AIN AR TRES W  DIS CAZ7
 BAR2 EZ EP       1237 16.11                             154   -0.0510 44.3  83 
 BAR2 EZ ES       1237 28.26                             154    0.1110 44.3  83 
 BAR2 EZ I        1237 29.75        28.0 0.40            161           44.3  83 
 PTB  HZ EP       1237 19.05                             133   -0.6210 96.9 270 
 PTB  HN ES       1237 34.11                             133   -0.2810 96.9 270 
 PTB  HZ I        1237 38.63         4.0 0.11            134           96.9 270 
 SPBC HZ EP       1237 21.23                             128    0.0110  113 209 
 SPBC HE ES       1237 37.49                             128    0.3410  113 209 
 ZAR  HZ EP       1237 28.29                             115    0.57 9  176 307 
 ZAR  HE ES   3   1237 49.89                             115    1.17 2  176 307 
 ZAR  HZ I        1237 52.82         3.0 0.36            117            176 307 
                                                                                
