 2012  5 6 1154 55.7 L   6.775 -73.174147.5  RSN  6 0.3 1.6LRSN                1
 GAP=134        0.76       5.1     4.5  7.9  0.2204E+01  0.7636E+01  0.6621E+00E
 Epicentro: LOS SANTOS - SANTANDER                                             3
 ACTION:UP  12-07-05 12:02 OP:pat  STATUS:               ID:20120506115455 L   I
 2012-05-06-1150-00M.COL___192                                                 6
 STAT SP IPHASW D HRMM SECON CODA AMPLIT PERI AZIMU VELO SNR AR TRES W  DIS CAZ7
 BAR2 SZ EP   2   1155 15.96                             172     0.4 5   20 183 
 BAR2 SZ I        1155 32.14         8.4 0.17                            20 183 
 BRR  HZ EP       1155 17.32                             153     0.310   70 302 
 BRR  HN ES   1   1155 34.08                             153     0.5 7   70 302 
 BRR  HZ I        1155 41.75         7.8 0.04                            70 302 
 PAM  SZ EP   1   1155 18.37                             150     0.0 7   82  40 
 PAM  SN ES   1   1155 35.55                             150    -0.5 7   82  40 
 RUS  HZ EP   1   1155 19.63                             145     0.2 7   98 174 
 RUS  HN ES   1   1155 37.92                             145    -0.1 7   98 174 
 RUS  HZ I        1155 39.41         5.2 0.26                            98 174 
 PTB  HZ EP   1   1155 22.04                             133    -0.5 7  144 260 
 PTB  HN ES   1   1155 43.10                             133    -0.3 7  144 260 
 ZAR  HZ EP   1   1155 28.04                             123    -0.1 6  202 293 
 ZAR  HN ES   1   1155 53.33                             123     0.0 6  202 293 
 ZAR  HZ I        1155 59.17         6.8 0.52                           202 293 
                                                                                
