 2015  7 6 1453 12.3 L   6.885 -73.185142.0  RSN  6 0.5 1.9LRSN                1
 GAP=199        0.93       3.8     5.5  8.5  0.2104E+01  0.1804E+02 -0.7972E+01E
 Epicentro: BETULIA - SANTANDER                                                3
 ACTION:UPD 15-09-08 21:47 OP:cam  STATUS:               ID:20150706145312 L   I
 OLDACT:UP  15-07-07 01:58 OP:ar   STATUS:               ID:20150706144750     3
 OLDACT:REG 15-07-06 21:44 OP:ar   STATUS:               ID:20150706144750     3
 2015-07-06-1447-50M.COL___324                                                 6
 STAT SP IPHASW D HRMM SECON CODA AMPLIT PERI AZIMU VELO AIN AR TRES W  DIS CAZ7
 BAR2 EZ EP       1453 31.92                             167    0.2310 32.4 179 
 BAR2 EZ ES       1453 46.94                             167    0.1210 32.4 179 
 BAR2 EZ I        1453 48.50        12.8 0.28            169           32.4 179 
 RUS  HZ EP       1453 36.59                             140    0.1810  110 174 
 RUS  HN ES       1453 54.97                             140   -0.2510  110 174 
 RUS  HZ I        1453 58.06         6.6 0.44            145            110 174 
 ZAR  HN ES       1454  8.80                             123    0.56 9  197 290 
 ZAR  HZ I        1454 14.63        14.6 0.44            124            197 290 
 SML  HZ EP       1453 47.08                             118   -0.50 8  233 335 
 SML  HE ES       1454 14.81                             118   -0.30 8  233 335 
 SML  HZ I        1454 20.71        11.5 0.10            119            233 335 
 NOR  HE ES       1454 15.51                             117   -0.40 8  237 232 
 NOR  HZ I        1454 19.08         5.2 0.08            119            237 232 
 GUY2CHZ EP   2   1453 57.79                             111    1.83 4  303 233 
 GUY2CHE ES       1454 29.72                             111   -0.30 7  303 233 
 GUY2CHZ I        1454 39.92         3.3 0.32                           303 233 
                                                                                
