 2012  1 6 1313  3.4 L   6.805 -73.157144.6  RSN  5 0.1 1.2LRSN                1
 GAP=135        0.33       2.4     5.1  4.1 -0.2443E+01 -0.5714E+01  0.1475E+01E
 Epicentro: LOS SANTOS - SANTANDER                                             3
 ACTION:UP  12-02-03 08:14 OP:REBC STATUS:               ID:20120106131303 L   I
 2012-01-06-1310-00M.COL___186                                                 6
 STAT SP IPHASW D HRMM SECON CODA AMPLIT PERI AZIMU VELO SNR AR TRES W  DIS CAZ7
 BAR2 SZ EP       1313 22.80                             170    -0.110   24 187 
 BAR2 SZ ES   3   1313 38.22                             170     0.1 2   24 187 
 BAR2 SZ I        1313 41.17         4.8 0.66                            24 187 
 GIR2 SZ EP   3   1313 22.84                             167    -0.1 2   31 352 
 GIR2 SZ ES   2   1313 38.32                             167     0.2 5   31 352 
 BRR  HZ EP   3   1313 24.60                             153     0.3 2   70 299 
 BRR  HE ES   2   1313 40.52                             153    -0.1 5   70 299 
 PAM  SZ EP       1313 25.61                             150     0.110   78  41 
 PAM  SN ES   2   1313 42.46                             150    -0.3 5   78  41 
 RUS  HZ EP       1313 27.04                             143     0.010  101 175 
 RUS  HE ES   1   1313 45.59                             143     0.0 7  101 175 
 RUS  HZ I        1313 46.52         1.7 0.28                           101 175 
                                                                                
