 2015  9 6 1152 52.8 L   6.808 -73.110143.2  RSN  9 0.5 1.8LRSN                1
 GAP=187        1.09       3.6     5.6  7.4 -0.2416E+01  0.8318E+01 -0.5810E+01E
 Epicentro: LOS SANTOS - SANTANDER                                             3
 ACTION:UPD 15-10-28 16:24 OP:cam  STATUS:               ID:20150906115252 L   I
 OLDACT:UP  15-09-06 22:10 OP:mh   STATUS:               ID:20150906114749     3
 OLDACT:REG 15-09-06 21:08 OP:mh   STATUS:               ID:20150906114749     3
 2015-09-06-1147-49M.COL___352                                                 6
 STAT SP IPHASW D HRMM SECON CODA AMPLIT PERI AZIMU VELO AIN AR TRES W  DIS CAZ7
 BAR2 EZ EP       1153 12.62                             170    0.5110 25.2 198 
 BAR2 EZ ES       1153 26.89                             170   -0.3210 25.2 198 
 BAR2 EZ I        1153 30.53         8.7 0.26            169           25.2 198 
 BRR  HZ EP       1153 14.59                             151    0.7910 74.3 296 
 BRR  HE ES       1153 30.68                             151    0.4610 74.3 296 
 BRR  HZ I        1153 33.25         8.7 0.24            148           74.3 296 
 RUS  HN ES       1153 34.41                             143   -0.2610  101 178 
 PTB  HZ EP       1153 19.35                             131   -0.53 9  152 259 
 PTB  HN ES       1153 40.49                             131   -0.55 9  152 259 
 PTB  HZ I        1153 43.69         6.4 0.16            130            152 259 
 OCA  HZ EP       1153 21.14                             129    0.31 9  160 352 
 OCA  HN ES       1153 42.50                             129   -0.23 9  160 352 
 OCA  HZ I        1153 49.40        10.5 0.22            130            160 352 
 SPBC HZ EP       1153 21.20                             128   -0.16 9  166 220 
 SPBC HN ES       1153 43.54                             128   -0.14 9  166 220 
 SPBC HZ I        1153 50.24         9.5 0.32            129            166 220 
 ZAR  HN ES       1153 51.21                             121    0.39 8  207 292 
 ZAR  HZ I        1153 56.97        11.3 0.28            121            207 292 
 NOR  HN ES       1153 57.03                             117    0.23 8  238 235 
 NOR  HZ I        1154  2.38         6.4 0.18            119            238 235 
 SML  HZ EP   1   1153 28.71                             117   -0.62 6  245 334 
 SML  HN ES   1   1153 57.10                             117   -0.75 6  245 334 
 SML  HZ I        1154  3.79         4.4 0.10            117            245 334 
                                                                                
