 2017  2 6 1032  8.3 L   6.801 -73.190145.3  RSN  5 0.4 1.5LRSN                1
 GAP=131        1.07       5.7     4.9  8.4  0.1840E+00  0.1503E+02 -0.7447E+01E
 Epicentro: ZAPATOCA - SANTANDER                                               3
 ACTION:UPD 17-05-24 15:33 OP:jn   STATUS:               ID:20170206103208 L   I
 OLDACT:UP  17-02-07 00:12 OP:ar   STATUS:               ID:20170206102740     3
 OLDACT:REG 17-02-06 20:03 OP:and  STATUS:               ID:20170206102740     3
 2017-02-06-1028-00M.COL___325                                                 6
 STAT SP IPHASW D HRMM SECON CODA AMPLIT PERI AZIMU VELO AIN AR TRES W  DIS CAZ7
 BAR2 EZ EP       1032 28.35                             170    0.5010 23.1 178 
 BAR2 EZ ES       1032 43.19                             170    0.0810 23.1 178 
 BAR2 EZ I        1032 44.11         6.6 0.44            172           23.1 178 
 PAM  EZ EP       1032 30.25                             150   -0.3810 80.5  42 
 PAM  EN ES       1032 47.90                             150   -0.1610 80.5  42 
 PAM  EZ I        1032 49.35         3.5 0.15            152           80.5  42 
 RUS  HZ EP       1032 32.00                             143   -0.0310  101 173 
 RUS  HN ES       1032 50.85                             143    0.3010  101 173 
 RUS  HZ I        1032 51.93         5.5 0.28            147            101 173 
 PTB  HZ EP       1032 34.25                             133   -0.53 9  143 258 
 PTB  HN ES       1032 54.76                             133   -0.69 9  143 258 
 PTB  HZ I        1032 57.96         5.1 0.20            133            143 258 
 ZAR  HZ EP       1032 40.68                             123    0.45 9  199 293 
 ZAR  HE ES       1033  5.74                             123    0.60 9  199 293 
 ZAR  HZ I        1033 11.10         2.2 0.09            123            199 293 
                                                                                
