 2010  8 6 1656 44.4 L   6.784 -73.038146.1  RSN  7 0.3 1.8LRSN                1
 GAP=171        0.67       3.4     7.5  5.5 -0.5276E+01 -0.1212E+02 -0.1195E+01E
 Epicentro: CEPITA - SANTANDER                                                 3
 ACTION:UP  10-09-07 10:52 OP:vdl  STATUS:               ID:20100806165644 L   I
 2010-08-06-1654-42S.COL___124                                                 6
 STAT SP IPHASW D HRMM SECON CODA AMPLIT PERI AZIMU VELO SNR AR TRES W  DIS CAZ7
 BAR2 SZ IP       1657  4.18                             169     0.010   27 217 
 BAR2 SZ ES   1   1657 19.14                             169    -0.4 7   27 217 
 BAR2 SZ I        1657 22.08        16.0 0.42                            27 217 
 BTL  SZ IP       1657  4.27                             168     0.010   29 300 
 BTL  SZ ES   1   1657 19.96                             168     0.3 7   29 300 
 BRR  HZ IP     C 1657  6.03                             149    -0.310   83 296 
 BRR  HZ I        1657  6.37        20.8 0.26                            83 296 
 BRR  HN ES   1   1657 23.55                             149     0.2 7   83 296 
 RUS  HZ EP   1   1657  8.01                             144    -0.1 7   99 183 
 RUS  HN ES   1   1657 26.68                             144     0.2 7   99 183 
 RUS  HZ I        1657 28.12         6.6 0.24                            99 183 
 GUE  SZ EP       1657  9.06                             140    -0.110  116   6 
 GUE  SZ I        1657  9.75         4.4 0.12                           116   6 
 GUE  SZ ES   2   1657 27.61                             140    -0.8 5  116   6 
 GRA  SZ IP       1657  9.92                             137     0.310  124  12 
 GRA  SZ I        1657 11.06        10.8 0.36                           124  12 
 GRA  SZ ES   1   1657 29.32                             137     0.1 7  124  12 
 CHI  HZ EP   2   1657 22.31                             117     0.0 4  250 198 
                                                                                
