 2010  9 6 1932 44.9 L   6.814 -73.030146.0  RSN  4 0.3 1.8LRSN                1
 GAP=249        0.63      12.9    23.3 11.7  0.2450E+03 -0.1443E+03 -0.7203E+02E
 Epicentro: CEPITA - SANTANDER                                                 3
 ACTION:UP  11-02-18 11:00 OP:tino STATUS:               ID:20100906193244 L   I
 2010-09-06-1931-44S.COL___120                                                 6
 STAT SP IPHASW D HRMM SECON CODA AMPLIT PERI AZIMU VELO SNR AR TRES W  DIS CAZ7
 BTL  SZ EP   1   1933  4.97                             169     0.3 7   29 294 
 BAR2 SZ EP   1   1933  4.74                             169     0.0 7   30 215 
 BAR2 SZ ES   2   1933 19.81                             169    -0.4 5   30 215 
 BRR  HZ EP   1   1933  6.26                             150    -0.5 7   82 293 
 BRR  HZ I        1933  6.81        20.7 0.15                            82 293 
 BRR  HN ES   2   1933 24.27                             150     0.5 5   82 293 
 RUS  HZ EP   1   1933  8.85                             144     0.1 7  102 183 
 RUS  HE ES   2   1933 27.45                             144     0.0 5  102 183 
 RUS  HZ I        1933 28.63         4.8 0.45                           102 183 
                                                                                
