 2012  8 6 1300 58.5 L   6.737 -73.225150.6  RSN  5 0.2 1.2LRSN                1
 GAP=216        0.40       4.2     3.8  5.2  0.1012E+02 -0.1461E+01 -0.1948E+01E
 Epicentro: VILLANUEVA - SANTANDER                                             3
 ACTION:UPD 12-09-10 11:54 OP:ep   STATUS:               ID:20120806130058 L   I
 2012-08-06-1300-00M.COL___216                                                 6
 STAT SP IPHASW D HRMM SECON CODA AMPLIT PERI AZIMU VELO AIN AR TRES W  DIS CAZ7
 BAR2 SZ EP   1   13 1 18.36                             173   -0.22 7 16.7 164 
 BAR2 SZ I        13 1 33.96         3.4 0.30                          16.7 164 
 BRR  HZ EP   1   13 1 19.80                             155   -0.16 7 67.6 307 
 BRR  HZ I        13 1 19.95         4.4 0.10                          67.6 307 
 BRR  HN ES   1   13 1 36.85                             155    0.13 7 67.6 307 
 RUS  HZ EP   1   13 1 22.47                             146    0.17 7 94.7 170 
 RUS  HN ES   1   13 1 40.92                             146    0.04 7 94.7 170 
 RUS  HZ I        13 1 41.73         2.2 0.21                          94.7 170 
 PTB  HZ EP   1   13 1 25.12                             135    0.14 7  138 261 
 PTB  HN ES   1   13 1 45.44                             135   -0.21 7  138 261 
 PTB  HZ I        13 1 47.60         1.6 0.14                           138 261 
 ZAR  HN ES   1   13 1 55.99                             124    0.14 6  199 295 
                                                                                
