 2011 10 6 1508 42.4 L   7.381 -73.230122.6  RSN  5 0.4 1.9LRSN                1
 GAP=128        0.74       4.9     4.6  7.9 -0.5441E+01  0.1072E+02  0.7757E+01E
 Epicentro: EL PLAYON - SANTANDER                                              3
 ACTION:UPD 12-07-13 16:02 OP:ep   STATUS:               ID:20111006150842 L   I
 2011-10-06-1500-00M.COL___171                                                 6
 STAT SP IPHASW D HRMM SECON CODA AMPLIT PERI AZIMU VELO AIN AR TRES W  DIS CAZ7
 PAM  SZ EP   1   15 9  0.68                             153   -0.35 7 58.7  94 
 PAM  SZ I        15 9  1.37         8.4 0.10                          58.7  94 
 PAM  SN ES   1   15 9 15.78                             153    0.21 7 58.7  94 
 BRR  HZ EP       15 9  0.17                             152   -0.2910 61.2 240 
 BRR  HN ES   1   15 9 14.55                             152   -0.01 7 61.2 240 
 BRR  HZ I        15 9 15.92        61.7 0.12                          61.2 240 
 OCA  SZ EP   1   15 9  3.73                             139    0.69 7 95.4 354 
 OCA  SZ ES   1   15 9 19.03                             139   -0.13 7 95.4 354 
 OCA  SZ I        15 9 22.49         9.8 0.17                          95.4 354 
 ZAR  HZ I        15 2 36.02        15.0 0.76                           180 274 
 ZAR  HN ES   1   15 9 32.93                             120   -0.15 7  180 274 
 NOR  SZ EP   1   15 9 20.65                             110   -0.31 6  271 222 
 NOR  SN ES   1   15 9 51.74                             110    0.69 6  271 222 
                                                                                
