 2014  1 6 1839 15.7 L   6.773 -73.186138.9  RSN 11 0.8 1.8LRSN                1
 GAP= 70        1.93       4.9     6.8  9.9 -0.4664E+00  0.6557E+01 -0.1240E+01E
 Epicentro: LOS SANTOS - SANTANDER                                             3
 ACTION:UPD 14-03-13 09:52 OP:ep   STATUS:               ID:20140106183915 L   I
 OLDACT:REG 14-01-06 15:57 OP:stll STATUS:               ID:20140106183819     3
 2014-01-06-1838-19M.COL___246                                                 6
 STAT SP IPHASW D HRMM SECON CODA AMPLIT PERI AZIMU VELO AIN AR TRES W  DIS CAZ7
 BAR2 SZ EP       1839 34.51                             171    0.0810 20.0 179 
 BAR2 SZ ES       1839 48.74                             171   -0.3010 20.0 179 
 BAR2 SZ I        1839 50.51        46.9 0.18            171           20.0 179 
 BRR  HZ IP     C 1839 36.51                             152    0.5510 68.8 302 
 BRR  HZ I        1839 36.79        17.8 0.30            153           68.8 302 
 BRR  HN ES       1839 52.75                             152    0.9810 68.8 302 
 PAM  SZ EP       1839 37.71                             148    0.2110 82.5  41 
 PAM  SN ES       1839 54.52                             148    0.0110 82.5  41 
 PAM  SZ I        1839 55.53        11.5 0.20            150           82.5  41 
 RUS  HZ EP       1839 38.47                             143   -0.1110 98.1 173 
 RUS  HN ES       1839 56.00                             143   -0.4410 98.1 173 
 RUS  HZ I        1839 59.55         5.3 0.28            144           98.1 173 
 PTB  HZ EP       1839 41.53                             131   -0.12 9  143 260 
 PTB  HN ES       1840  1.51                             131   -0.38 9  143 260 
 PTB  HZ I        1840  5.19        12.5 0.14            132            143 260 
 SPBC HZ EP       1839 43.98                             128    0.80 9  158 218 
 SPBC HN ES       1840  4.83                             128    0.21 9  158 218 
 TAM  HZ EP       1839 42.99                             128   -0.18 9  159 104 
 OCA  HZ EP       1839 45.65                             128    1.94 9  163 355 
 OCA  HN ES       1840  4.98                             128   -0.58 9  163 355 
 OCA  HZ I        1840  8.63         9.1 0.16            129            163 355 
 ZAR  HZ EP       1839 46.91                             121   -0.47 9  201 293 
 ZAR  HN ES       1840 12.64                             121    0.54 9  201 293 
 SML  HZ EP       1839 51.06                             116   -0.97 8  245 337 
 SML  HN ES       1840 18.30                             116   -2.08 8  245 337 
 CHI  HZ EP       1839 53.02                             116    0.44 8  245 194 
 CHI  HN ES       1840 20.12                             116   -1.23 8  245 194 
 CHI  HZ I        1840 25.73         1.2 0.68            117            245 194 
                                                                                
