 2010  4 6 1153 30.0 L   6.823 -73.040142.2  RSN  4 0.4 2.3LRSN                1
 GAP=209        0.61       6.0    13.1  9.2  0.1499E+02 -0.4485E+02 -0.1913E+02E
 Epicentro: CEPITA - SANTANDER                                                 3
 ACTION:UPD 10-08-24 09:58 OP:vdl  STATUS:               ID:20100406115330 L   I
 2010-04-06-1150-29S.COL___098                                                 6
 STAT SP IPHASW D HRMM SECON CODA AMPLIT PERI AZIMU VELO AIN AR TRES W  DIS CAZ7
 BAR2 SZ IP       1153 49.49                             166     0.110   30 212 
 BAR2 SZ ES   2   1154  4.08                             166    -0.4 5   30 212 
 BRR  HZ IP       1153 51.44                             148     0.110   81 293 
 BRR  HZ I        1153 51.60        29.8 0.13                            81 293 
 BRR  HN ES   2   1154  8.03                             148     0.0 5   81 293 
 OCA  SZ EP       1153 57.85                             128    -0.1 9  160 349 
 OCA  SZ I        1154 22.75        29.7 0.09                           160 349 
 CHI  HZ EP   2   1154  8.77                             115     0.6 4  254 198 
 CHI  HN ES   3   1154 36.15                             115    -1.8 2  254 198 
                                                                                
