 2015  5 6 1507 43.4 L   6.792 -73.145142.9  RSN  6 0.4 1.7LRSN                1
 GAP=119        1.90       9.1    12.1 13.8 -0.3717E+02  0.1708E+02  0.1929E+02E
 Epicentro: LOS SANTOS - SANTANDER                                             3
 ACTION:UPD 15-09-10 22:02 OP:cam  STATUS:               ID:20150506150743 L   I
 OLDACT:DUP 15-05-06 23:34 OP:stll STATUS:               ID:20150506145752d    3
 2015-05-06-1457-50M.COL___288                                                 6
 STAT SP IPHASW D HRMM SECON CODA AMPLIT PERI AZIMU VELO AIN AR TRES W  DIS CAZ7
 BAR2 EZ EP       15 8  2.63                             170   -0.0110 22.5 191 
 BAR2 EZ ES       15 8 18.02                             170    0.3410 22.5 191 
 BAR2 EZ I        15 8 19.25         5.9 0.40            163           22.5 191 
 BRR  HZ EP       15 8  4.49                             151    0.2510 71.7 299 
 BRR  HZ I        15 8  4.70        16.8 0.26            154           71.7 299 
 BRR  HN ES       15 8 20.83                             151    0.3110 71.7 299 
 PAM  SZ EP       15 8  5.38                             151    0.0610 78.0  39 
 PAM  SZ I        15 8  5.71        10.4 0.24            148           78.0  39 
 PAM  SN ES       15 8 21.98                             151   -0.4610 78.0  39 
 RUS  HZ EP       15 8  6.65                             143   -0.1310 99.7 176 
 RUS  HZ I        15 8 20.48         5.2 0.36            136           99.7 176 
 RUS  HN ES       15 8 25.43                             143    0.3910 99.7 176 
 SPBC HZ EP       15 8 11.60                             128    0.00 9  163 219 
 SPBC HN ES       15 8 32.73                             128   -0.88 9  163 219 
 SPBC HZ I        15 8 36.23        10.5 0.20            124            163 219 
 SOCV BZ EP   9   15 8 25.29                             112   -1.04 0  302  57 
 SOCV BN ES       15 8 55.87                                   -2.93 7  302  57 
                                                                                
