 2012 11 6 1341 10.0 L   6.761 -73.122144.3  RSN  7 0.4 2.3LRSN                1
 GAP=141        0.85       3.8     5.9  7.8  0.1282E+01  0.5373E+01  0.2922E+01E
 Epicentro: LOS SANTOS - SANTANDER                                             3
 ACTION:UPD 12-12-05 15:31 OP:}ep  STATUS:               ID:20121106134110 L   I
 2012-11-06-1340-00M.COL___230                                                 6
 STAT SP IPHASW D HRMM SECON CODA AMPLIT PERI AZIMU VELO AIN AR TRES W  DIS CAZ7
 BAR2 SZ EP       1341 29.33                             172   -0.1010 19.8 200 
 BAR2 SZ ES   1   1341 43.98                             172   -0.57 7 19.8 200 
 BAR2 SZ I        1341 45.16        49.7 0.26                          19.8 200 
 BRR  HZ EP       1341 31.33                             151    0.0510 75.6 300 
 BRR  HN ES   1   1341 48.27                             151    0.42 7 75.6 300 
 BRR  HN I        1341 50.76        49.5 0.18                          75.6 300 
 PAM  SZ EP       1341 32.19                             150   -0.0210 79.2  36 
 PAM  SN ES   1   1341 49.00                             150   -0.50 7 79.2  36 
 PAM  SN I        1341 50.51        59.6 0.44                          79.2  36 
 RUS  HZ EP   1   1341 33.26                             145   -0.07 7 96.1 177 
 RUS  HN ES   1   1341 52.19                             145    0.70 7 96.1 177 
 RUS  HN I        1341 53.40        16.7 0.24                          96.1 177 
 OCA  HE ES   1   1342  1.78                             128    0.78 7  165 352 
 ZAR  HN ES   1   1342  7.76                             121   -0.60 6  208 293 
 ZAR  HN I        1342 14.74        33.2 0.28                           208 293 
 CHI  HZ EP   2   1341 46.95                             117   -0.33 4  245 196 
 CHI  HN ES   1   1342 16.36                             117    0.03 6  245 196 
 CHI  HN I        1342 20.54        11.8 0.26                           245 196 
                                                                                
