 2015  2 6 1217  9.3 L   6.822 -73.115139.6  RSN 22 0.6 2.8LRSN                1
 GAP= 68        1.66       3.6     4.3  7.2 -0.2272E+01  0.8713E+01  0.4489E+01E
 Epicentro: LOS SANTOS - SANTANDER                                             3
 ACTION:UPD 15-04-30 21:22 OP:nd   STATUS:               ID:20150206121709 L   I
 OLDACT:ARG 15-02-06 20:23 OP:stll STATUS:               ID:20150206120748     3
 2015-02-06-1207-48M.COL___286                                                 6
 STAT SP IPHASW D HRMM SECON CODA AMPLIT PERI AZIMU VELO AIN AR TRES W  DIS CAZ7
 BAR2 EZ EP     D 1217 28.56                             169    0.3010 26.5 196 
 BAR2 EZ ES       1217 42.47                             169   -0.5810 26.5 196 
 BAR2 EZ I        1217 46.29       147.3 0.24            168           26.5 196 
 BRR  HZ IP     C 1217 30.52                             151    0.6210 73.1 296 
 BRR  HZ I        1217 30.79       139.8 0.18            150           73.1 296 
 BRR  HN ES       1217 46.75                             151    0.7810 73.1 296 
 PAM  SZ IP     C 1217 31.35                             151    0.7410 73.4  39 
 PAM  SN ES       1217 47.75                             151    0.5010 73.4  39 
 PAM  SZ I        1217 50.69        93.8 0.56            155           73.4  39 
 RUS  HZ IP     D 1217 32.45                             142   -0.1610  103 178 
 RUS  HN ES       1217 50.45                             142   -0.3510  103 178 
 RUS  HZ I        1217 52.44        43.1 0.28            145            103 178 
 PTB  HZ EP       1217 35.16                             130   -0.96 9  152 258 
 PTB  HN ES       1217 56.32                             130   -0.73 9  152 258 
 PTB  HZ I        1218  3.73        77.3 0.36            131            152 258 
 TAM  HZ IP     D 1217 36.79                             129    0.55 9  152 106 
 TAM  HZ I        1217 36.93        74.4 0.20            135            152 106 
 TAM  HN ES       1217 57.45                             129    0.19 9  152 106 
 OCA  HZ EP       1217 36.69                             128   -0.26 9  158 352 
 OCA  HE ES       1217 58.58                             128    0.06 9  158 352 
 OCA  HZ I        1218  4.39        86.4 0.44            131            158 352 
 SPBC HZ EP       1217 37.54                             127   -0.18 9  167 219 
 SPBC HN ES       1217 59.50                             127   -0.39 9  167 219 
 SPBC HZ I        1218  6.86        98.1 0.14            129            167 219 
 ZAR  HZ EP       1217 41.34                             120   -0.24 8  206 291 
 ZAR  HN ES       1218  6.33                             120   -0.44 8  206 291 
 ZAR  HZ I        1218 16.40        56.2 0.64            122            206 291 
 NOR  HZ EP       1217 44.91                             116   -0.22 8  239 234 
 NOR  HN ES       1218 12.46                             116   -0.62 8  239 234 
 NOR  HZ I        1218 17.93        46.6 0.32            118            239 234 
 SML  HZ EP       1217 44.69                             116   -0.81 8  243 334 
 SML  HN ES       1218 12.88                             116   -0.86 8  243 334 
 SML  HZ I        1218 16.77        80.2 0.28            118            243 334 
 CHI  HZ EP     D 1217 46.35                             115   -0.66 8  252 196 
 CHI  HZ I        1217 47.37        12.2 0.16            118            252 196 
 CHI  HN ES       1218 15.74                             115   -0.69 8  252 196 
 ROSC BZ EP       1217 47.63                             115    0.12 8  257 211 
 ROSC BN ES       1218 17.27                             115   -0.04 8  257 211 
 ROSC BZ I        1218 26.23        51.9 0.35            117            257 211 
 HEL  HZ EP       1217 49.78                             113    0.14 7  276 255 
 HEL  HN ES       1218 23.32                             113    2.21 7  276 255 
 HEL  HZ I        1218 27.95        37.2 0.26            115            276 255 
 GUY2CHZ EP       1217 53.60                             111    0.50 7  305 235 
 GUY2CHN ES       1218 27.74                             111    0.47 7  305 235 
 GUY2CHZ I        1218 33.73        28.6 0.48                           305 235 
 PTGC HZ EP   9   1217 51.51                             110   -1.49 0  310 159 
 PTGC HN ES       1218 23.78                                   -1.82 7  310 159 
 RREF HZ EP       1217 56.79                             109    1.14 7  326 229 
 RREF HN ES       1218 32.73                             109    0.91 7  326 229 
 RREF HZ I        1218 40.50        39.1 0.24            111            326 229 
 TOL  SZ EP       1217 57.90                             108    0.11 6  348 225 
 TOL  SN ES       1218 35.77                             108    0.16 6  348 225 
 MON  HZ EP   9   1217 55.81                             107   -2.39 0  355 308 
 MON  HN ES       1218 32.28                                   -1.68 6  355 308 
 MON  HZ I        1218 36.14        13.7 0.20            109            355 308 
 ANIL HZ EP       1217 59.16                             107   -0.19 6  361 225 
 ANIL HE ES       1218 38.05                             107   -0.34 6  361 225 
 ORTC HZ EP       1218  2.76                             105   -0.71 6  399 216 
 ORTC HN ES       1218 45.84                             105    0.10 6  399 216 
 ORTC HZ I        1218 50.39        11.4 0.36            107            399 216 
 CRJC HZ EP   9   1218  8.86                             102   -2.46 0  465   3 
 CRJC HE ES       1218 54.41                                   -2.83 5  465   3 
 CRJC HZ I        1218 59.63         8.7 0.18            104            465   3 
                                                                                
