 2010  5 6 1540  2.0 L   6.795 -73.084148.5  RSN 10 0.5 2.4LRSN                1
 GAP=179        0.77       5.2     8.1  7.1 -0.2374E+02  0.3794E+01  0.7199E+01E
 Epicentro: LOS SANTOS - SANTANDER                                             3
 ACTION:UP  10-08-24 10:03 OP:vdl  STATUS:               ID:20100506154002 L   I
 2010-05-06-1536-02S.COL___105                                                 6
 STAT SP IPHASW D HRMM SECON CODA AMPLIT PERI AZIMU VELO SNR AR TRES W  DIS CAZ7
 BAR2 SZ IP     C 1540 21.78                             170    -0.210   25 206 
 BAR2 SZ ES   2   1540 37.25                             170    -0.4 5   25 206 
 GIR2 SZ EP   1   1540 21.94                             167    -0.2 7   34 339 
 GIR2 SZ ES   2   1540 37.53                             167    -0.2 5   34 339 
 BRR  HZ EP   1   1540 24.39                             151     0.5 7   78 296 
 BRR  HN ES   2   1540 41.91                             151     1.1 5   78 296 
 BRR  HZ I        1540 44.08        40.8 0.11                            78 296 
 BRI  SZ EP   1   1540 26.42                             142     0.4 7  107  17 
 BRI  SZ ES   2   1540 44.80                             142     0.0 5  107  17 
 GUE  SZ EP   1   1540 26.93                             140     0.0 7  116   9 
 GUE  SZ ES   2   1540 46.15                             140    -0.2 5  116   9 
 GRA  SZ EP   1   1540 27.62                             138     0.2 7  124  14 
 GRA  SZ ES   2   1540 47.11                             138    -0.1 5  124  14 
 OCA  SZ EP   1   1540 30.19                             130    -0.5 7  162 351 
 CHI  HZ IP   2   1540 40.33                             117     0.3 4  250 197 
 CHI  HE ES   2   1541  9.54                             117    -0.1 4  250 197 
 CHI  HZ I        1541 13.29        10.7 0.45                           250 197 
 HEL  HZ EP   1   1540 43.09                             115     0.0 6  279 256 
 HEL  HE ES   2   1541 13.75                             115    -1.4 4  279 256 
 HEL  HZ I        1541 20.25        10.2 0.58                           279 256 
 PRA  HZ EP   1   1540 56.05                             107     0.1 4  395 210 
 PRA  HE ES   2   1541 39.27                             107     1.2 3  395 210 
 PRA  HZ I        1541 43.60        14.2 0.42                           395 210 
                                                                                
