 2012  1 6 1515 45.6 L   6.771 -73.155145.4  RSN 10 0.4 2.3LRSN                1
 GAP=137        1.08       5.3     5.4  7.1 -0.4869E+01  0.5671E+01  0.8136E+01E
 Epicentro: LOS SANTOS - SANTANDER                                             3
 ACTION:UP  12-02-03 08:14 OP:REBC STATUS:               ID:20120106151545 L   I
 2012-01-06-1510-00M.COL___186                                                 6
 STAT SP IPHASW D HRMM SECON CODA AMPLIT PERI AZIMU VELO SNR AR TRES W  DIS CAZ7
 BAR2 SZ IP       1516  5.19                             172     0.110   20 189 
 BAR2 SZ ES   1   1516 20.31                             172    -0.1 7   20 189 
 BAR2 SZ I        1516 22.07        36.2 0.22                            20 189 
 GIR2 SZ EP       1516  5.30                             166     0.010   34 353 
 GIR2 SZ ES   1   1516 19.52                             166    -1.2 7   34 353 
 BRR  HZ IP     C 1516  7.09                             152     0.310   72 301 
 BRR  HZ I        1516  7.31        63.2 0.18                            72 301 
 BRR  HN ES   1   1516 24.59                             152     1.3 7   72 301 
 PAM  SZ EP       1516  8.01                             150     0.010   81  39 
 PAM  SN ES   1   1516 25.30                             150    -0.1 7   81  39 
 RUS  HZ EP       1516  9.20                             145     0.110   97 175 
 RUS  HN ES   2   1516 27.66                             145     0.2 5   97 175 
 RUS  HZ I        1516 28.99        11.3 0.20                            97 175 
 PTB  HZ EP       1516 12.13                             132    -0.3 9  146 260 
 PTB  HN ES   1   1516 33.06                             132    -0.2 7  146 260 
 PTB  HZ I        1516 40.58        35.4 0.40                           146 260 
 OCA  SZ EP       1516 14.20                             129     0.0 9  163 354 
 OCA  SZ I        1516 45.43        23.1 0.50                           163 354 
 ZAR  HZ EP   2   1516 17.57                             122    -0.5 4  204 293 
 ZAR  HE ES   1   1516 43.29                             122    -0.1 6  204 293 
 ZAR  HZ I        1516 48.89        22.8 0.28                           204 293 
 NOR  SZ EP       1516 20.83                             119    -0.2 8  232 235 
 NOR  SN ES   1   1516 48.36                             119    -0.3 6  232 235 
 CHI  HZ EP       1516 23.16                             117     0.2 8  245 195 
 CHI  HE ES   3   1516 52.27                             117     0.2 2  245 195 
 CHI  HZ I        1517  0.35         7.8 0.32                           245 195 
                                                                                
