 2017  6 6 1459  5.6 L   6.785 -73.190150.0  RSN  5 0.3 2.0LRSN                1
 GAP=208        0.83       4.8     4.5  7.6  0.5731E+01 -0.2376E+01  0.7399E+01E
 Epicentro: ZAPATOCA - SANTANDER                                               3
 ACTION:UPD 17-09-14 16:50 OP:jn   STATUS:               ID:20170606145905 L   I
 OLDACT:UP  17-06-20 13:43 OP:nlst STATUS:               ID:20170606145905 L   3
 OLDACT:REG 17-06-06 21:02 OP:osc  STATUS:               ID:20170606145737     3
 2017-06-06-1458-00M.COL___353                                                 6
 STAT SP IPHASW D HRMM SECON CODA AMPLIT PERI AZIMU VELO AIN AR TRES W  DIS CAZ7
 BRR  HZ IP     C 1459 27.09                             154    0.0510 67.8 302 
 BRR  HN ES       1459 43.92                             154    0.1710 67.8 302 
 BRR  HZ I        1459 44.82        20.0 0.32            154           67.8 302 
 RUS  HZ EP       1459 29.31                             145   -0.3910 99.3 173 
 RUS  HN ES   1   1459 47.89                             145   -0.59 7 99.3 173 
 RUS  HZ I        1459 48.58        13.4 0.24            145           99.3 173 
 SPBC HE ES       1459 56.11                             131   -0.09 9  159 218 
 SPBC HZ I        1459 59.04        15.9 0.20            130            159 218 
 YPLC HZ EP       1459 35.62                             128   -0.19 9  178 150 
 YPLC HN ES       15 0  0.07                             128    0.70 9  178 150 
 NOR  HZ EP       1459 41.13                             120    0.07 8  230 234 
 NOR  HN ES       15 0  8.92                             120    0.21 8  230 234 
 NOR  HZ I        15 0 10.87         5.1 0.20            120            230 234 
                                                                                
