 2014  9 6 1600 26.0 L   7.306 -73.522 99.0  RSN  5 0.3 1.7LRSN                1
 GAP=142        0.64       1.8     4.2  7.2  0.2102E+01  0.8896E+01  0.7126E+00E
 Epicentro: SABANA DE TORRES - SANTANDER                                       3
 ACTION:UPD 14-10-03 23:02 OP:nd   STATUS:               ID:20140906160026 L   I
 OLDACT:UP  14-09-07 00:07 OP:mh   STATUS:               ID:20140906155818     3
 OLDACT:REG 14-09-06 22:19 OP:mh   STATUS:               ID:20140906155818     3
 2014-09-06-1558-18M.COL___260                                                 6
 STAT SP IPHASW D HRMM SECON CODA AMPLIT PERI AZIMU VELO AIN AR TRES W  DIS CAZ7
 BAR2 SZ EP       16 0 43.96                             136   -0.0210 87.4 155 
 BAR2 SZ ES       16 0 58.27                             136    0.2510 87.4 155 
 BAR2 SZ I        16 0 59.58        19.8 0.35            142           87.4 155 
 OCA  HZ EP   1   16 0 45.41                             130   -0.11 7  106  12 
 OCA  HN ES       16 1  0.75                             130   -0.0010  106  12 
 OCA  HZ I        16 1  3.58        17.3 0.36            135            106  12 
 PTB  HZ EP   1   16 0 48.00                             123   -0.12 7  134 231 
 PTB  HN ES   1   16 1  5.49                             123    0.10 7  134 231 
 PTB  HZ I        16 1 10.19         5.6 0.15            125            134 231 
 RUS  HZ EP       16 0 52.37                             117    0.42 9  164 163 
 RUS  HN ES       16 1 11.64                             117   -0.57 9  164 163 
 RUS  HZ I        16 1 13.64         2.8 0.27            122            164 163 
 SML  HZ EP   1   16 0 52.88                             115    0.18 7  176 340 
 SML  HN ES       16 1 13.40                             115   -0.14 9  176 340 
 SML  HZ I        16 1 18.98        12.2 0.17            118            176 340 
                                                                                
