 2017  9 6 1508 51.7 L   6.785 -73.085151.8  RSN  6 0.3 1.5LRSN                1
 GAP=145        0.78       3.5     4.1  5.7 -0.6012E+00  0.3964E+01  0.1880E+01E
 Epicentro: LOS SANTOS - SANTANDER                                             3
 ACTION:UPD 17-10-05 19:09 OP:rebc STATUS:               ID:20170906150851 L   I
 OLDACT:REG 17-09-06 20:15 OP:lv   STATUS:               ID:20170906150741     3
 2017-09-06-1508-00M.COL___426                                                 6
 STAT SP IPHASW D HRMM SECON CODA AMPLIT PERI AZIMU VELO AIN AR TRES W  DIS CAZ7
 BAR2 EZ EP       15 9 11.85                             171   -0.1910 23.9 207 
 BAR2 EZ ES       15 9 27.81                             171   -0.1210 23.9 207 
 BAR2 EZ I        15 9 29.92         7.0 0.20            170           23.9 207 
 PAM  EZ EP       15 9 14.22                             153   -0.1610 74.6  35 
 PAM  EN ES       15 9 32.36                             153    0.2710 74.6  35 
 PAM  EZ I        15 9 34.15         7.8 0.56            155           74.6  35 
 BRR  HZ EP       15 9 13.94                             151    0.0810 77.9 297 
 BRR  HE ES       15 9 31.35                             151    0.1910 77.9 297 
 RUS  HZ EP       15 9 16.25                             146    0.3510 98.7 180 
 RUS  HN ES       15 9 34.31                             146   -0.4810 98.7 180 
 RUS  HZ I        15 9 35.51         2.5 0.36            146           98.7 180 
 SPBC HZ EP       15 9 20.84                             130   -0.09 9  166 221 
 SPBC HE ES       15 9 44.27                             130    0.51 9  166 221 
 SPBC HZ I        15 9 47.41         6.0 0.09            131            166 221 
 ZAR  HN ES       15 9 50.98                             123   -0.41 8  211 292 
                                                                                
