 2010  7 6 1300  6.4 L   6.829 -73.147137.9  RSN  6 0.2 1.7LRSN                1
 GAP=155        0.54       5.4     8.8  8.4 -0.9862E+01 -0.5162E+00 -0.3012E+02E
 Epicentro: LOS SANTOS - SANTANDER                                             3
 ACTION:UPD 10-12-01 15:15 OP:pat  STATUS:               ID:20100706130006 L   I
 2010-07-06-1256-24S.COL___117                                                 6
 STAT SP IPHASW D HRMM SECON CODA AMPLIT PERI AZIMU VELO AIN AR TRES W  DIS CAZ7
 BAR2 SZ EP       13 0 24.91                             169    -0.210   27 189 
 BAR2 SZ ES   1   13 0 39.67                             169    -0.1 7   27 189 
 BRR  HZ EP       13 0 26.71                             152     0.110   70 296 
 BRR  HZ I        13 0 47.65        13.6 0.19                            70 296 
 RUS  HZ EP   2   13 0 29.32                             141    -0.3 5  104 176 
 RUS  HN ES   2   13 0 48.20                             141     0.5 5  104 176 
 RUS  HZ I        13 0 49.13         5.2 0.30                           104 176 
 BRI  SZ EP       13 0 29.50                             140     0.210  105  22 
 GUE  SZ EP   1   13 0 29.91                             138    -0.2 7  113  13 
 GRA  SZ EP   1   13 0 30.75                             136     0.1 7  123  18 
                                                                                
