 2016  9 6 1218  7.0 L   6.806 -73.134146.8  RSN  5 0.3 1.5LRSN                1
 GAP=239        0.81       6.4     5.8  6.5  0.2357E+02  0.3813E+01 -0.1229E+01E
 Epicentro: LOS SANTOS - SANTANDER                                             3
 ACTION:UPD 17-08-17 21:07 OP:lp   STATUS:               ID:20160906121807 L   I
 OLDACT:REG 16-09-06 21:09 OP:lv   STATUS:               ID:20160906120734     3
 2016-09-06-1208-00M.COL___349                                                 6
 STAT SP IPHASW D HRMM SECON CODA AMPLIT PERI AZIMU VELO AIN AR TRES W  DIS CAZ7
 BAR2 EZ EP       1218 26.84                             170    0.1110 24.2 193 
 BAR2 EZ ES       1218 41.82                             170   -0.3310 24.2 193 
 BAR2 EZ I        1218 42.66         9.1 0.22            161           24.2 193 
 BRR  HZ EP       1218 28.32                             152    0.0510 72.0 298 
 BRR  HN ES       1218 45.09                             152    0.2110 72.0 298 
 BRR  HZ I        1218 48.61         8.6 0.17            141           72.0 298 
 RUS  HZ EP       1218 31.26                             144    0.4110  101 177 
 RUS  HE ES       1218 49.40                             144   -0.0910  101 177 
 RUS  HZ I        1218 51.23         2.2 0.18            134            101 177 
 PTB  HZ EP       1218 33.48                             132   -0.66 9  149 259 
 PTB  HZ I        1218 55.56         3.0 0.13            120            149 259 
 PTB  HE ES       1218 55.64                             132    0.31 9  149 259 
 ZAR  HZ EP   4   1218 41.14                             122    1.57 0  205 292 
 ZAR  HE ES       1219  4.92                             122   -0.08 9  205 292 
 ZAR  HZ I        1219  9.68         3.0 0.12            113            205 292 
                                                                                
