 2011  3 6 1415 13.9 L   6.055 -73.655111.5  RSN  5 0.1 1.6LRSN                1
 GAP=127        0.41       2.5     3.0  6.4 -0.1725E+01  0.1158E+02  0.2304E+01E
 Epicentro: CHIPATA - SANTANDER                                                3
 ACTION:DUP 11-06-16 14:32 OP:jfem STATUS:               ID:20110306141515dL   I
 2011-03-06-1411-20S.COL___135                                                 6
 STAT SP IPHASW D HRMM SECON CODA AMPLIT PERI AZIMU VELO SNR AR TRES W  DIS CAZ7
 RUS  HZ EP       1415 31.77                             147    -0.110   66 106 
 RUS  HE ES   1   1415 45.95                             147     0.1 7   66 106 
 RUS  HZ I        1415 49.30         7.6 0.50                            66 106 
 BAR2 SZ EP   1   1415 32.61                             142     0.2 7   79  41 
 BAR2 SZ ES   1   1415 46.63                             142    -0.2 7   79  41 
 BAR2 SZ I        1415 48.55        26.8 0.15                            79  41 
 CHI  HZ EP   1   1415 39.75                             121    -0.2 7  158 183 
 CHI  HN ES   1   1416  0.26                             121     0.1 7  158 183 
 CHI  HZ I        1416  4.42         4.3 0.58                           158 183 
 HEL  HZ EP   2   1415 45.59                             113     0.3 4  208 274 
 HEL  HE ES   2   1416  9.78                             113     0.0 4  208 274 
 HEL  HZ I        1416 16.27         3.1 0.23                           208 274 
 RREF HE ES   1   1416 14.10                             111    -0.1 6  227 236 
 RREF HZ I        1416 20.90         4.1 0.28                           227 236 
                                                                                
