 2014 12 6 1641  1.6 L   6.828 -73.183146.2  RSN  4 0.2 1.1LRSN                1
 GAP=146        0.58       3.6     3.5  5.0 -0.3896E+01  0.5032E+01 -0.1715E+01E
 Epicentro: ZAPATOCA - SANTANDER                                               3
 ACTION:UPD 15-02-10 17:01 OP:nd   STATUS:               ID:20141206164101 L   I
 OLDACT:REG 14-12-06 20:35 OP:spq  STATUS:               ID:20141206163744     3
 2014-12-06-1637-44M.COL___315                                                 6
 STAT SP IPHASW D HRMM SECON CODA AMPLIT PERI AZIMU VELO AIN AR TRES W  DIS CAZ7
 BAR2 SZ ES       1641 36.87                             169    0.1310 26.0 180 
 BAR2 SZ I        1641 39.16         3.9 0.32            170           26.0 180 
 PAM  SZ EP       1641 24.22                             151    0.3210 77.8  43 
 PAM  SZ I        1641 24.44         3.1 0.24            154           77.8  43 
 PAM  SN ES       1641 41.04                             151   -0.2410 77.8  43 
 RUS  HZ EP       1641 25.35                             143   -0.3110  104 174 
 RUS  HE ES       1641 44.51                             143    0.1110  104 174 
 RUS  HZ I        1641 45.02         2.0 0.84            146            104 174 
 PTB  HZ EP       1641 28.36                             133    0.05 9  144 257 
 PTB  HN ES       1641 49.06                             133   -0.07 9  144 257 
 PTB  HZ I        1641 55.02         1.3 0.12            132            144 257 
                                                                                
