 2010  2 6 1457 37.5 L   6.725 -73.031151.0  RSN  5 0.5 1.2LRSN                1
 GAP=178        0.81       8.8    35.1 10.6 -0.2410E+03  0.1660E+03 -0.2036E+02E
 Epicentro: ARATOCA - SANTANDER                                                3
 ACTION:UP  10-08-24 09:47 OP:vdl  STATUS:               ID:20100206145737 L   I
 2010-02-06-1439-50S.COL___088                                                 6
 STAT SP IPHASW D HRMM SECON CODA AMPLIT PERI AZIMU VELO SNR AR TRES W  DIS CAZ7
 BAR2 SZ EP   1   1457 56.95                             172    -0.813   22 229 
 BAR2 SZ ES   2   1458 13.20                             172    -0.3 9   22 229 
 RUS  HZ EP   2   1458  0.86                             147    -0.3 9   92 184 
 RUS  HN ES   2   1458 20.14                             147     0.5 9   92 184 
 RUS  HZ I        1458 21.44         1.6 0.38                            92 184 
 GUE  SZ EP   1   1458  3.44                             139     0.312  123   5 
 GUE  SZ ES   2   1458 23.81                             139     0.6 8  123   5 
 CHI  HZ EP   1   1458 15.19                             119     0.210  244 199 
 CHI  HE ES   2   1458 45.02                             119     0.7 7  244 199 
 CHI  HZ I        1458 52.24         2.1 0.83                           244 199 
 PRA  HZ EP       1458 31.15                             107     0.010  391 212 
                                                                                
