 2010  8 6 1003 39.4 L   6.761 -73.043146.2  RSN  5 0.2 1.6LRSN                1
 GAP=171        0.51       4.4     7.7  6.3  0.1039E+02 -0.2223E+02 -0.1063E+02E
 Epicentro: LOS SANTOS - SANTANDER                                             3
 ACTION:UP  10-09-07 10:52 OP:vdl  STATUS:               ID:20100806100339 L   I
 2010-08-06-1001-48S.COL___125                                                 6
 STAT SP IPHASW D HRMM SECON CODA AMPLIT PERI AZIMU VELO SNR AR TRES W  DIS CAZ7
 BAR2 SZ EP   1   10 3 59.00                             171    -0.1 7   24 220 
 BAR2 SZ ES   1   10 4 14.28                             171    -0.2 7   24 220 
 BAR2 SZ I        10 4 16.02        11.1 0.45                            24 220 
 BRR  HZ EP       10 4  1.15                             149    -0.210   83 297 
 BRR  HN ES   1   10 4 18.68                             149     0.2 7   83 297 
 RUS  HZ EP   1   10 4  2.97                             146     0.1 7   96 183 
 RUS  HN ES   2   10 4 21.61                             146     0.4 5   96 183 
 RUS  HZ I        10 4 23.07         5.7 0.19                            96 183 
 GUE  SZ EP       10 4  4.54                             139     0.210  119   6 
 GRA  SZ ES   3   10 4 24.59                             137     0.0 2  127  12 
 GRA  SZ I        10 4 26.53         3.9 0.38                           127  12 
                                                                                
