 2014  5 6 1956 14.8 L   7.466 -73.220131.0  RSN  5 0.3 1.8LRSN                1
 GAP=136        0.86       4.0     4.3  7.2  0.1351E+01  0.6612E+01  0.3281E+01E
 Epicentro: EL PLAYON - SANTANDER                                              3
 ACTION:UPD 15-03-16 16:55 OP:nd   STATUS:               ID:20140506195614 L   I
 OLDACT:UP  14-05-07 01:34 OP:mh   STATUS:               ID:20140506195000     3
 OLDACT:REG 14-05-06 21:43 OP:mh   STATUS:               ID:20140506195000     3
 2014-05-06-1950-00M.COL___273                                                 6
 STAT SP IPHASW D HRMM SECON CODA AMPLIT PERI AZIMU VELO AIN AR TRES W  DIS CAZ7
 PAM  SZ EP       1956 34.84                             154    0.4110 59.1 104 
 PAM  SN ES       1956 49.69                             154   -0.0110 59.1 104 
 PAM  SZ I        1956 51.83        13.3 0.28            156           59.1 104 
 BRR  HZ EP       1956 34.63                             151    0.4610 67.3 234 
 BRR  HN ES       1956 49.05                             151   -0.2010 67.3 234 
 BRR  HZ I        1956 50.32        14.5 0.14            151           67.3 234 
 PTB  HZ EP       1956 42.91                             124    0.00 9  171 233 
 PTB  HN ES       1957  5.10                             124    0.30 9  171 233 
 PTB  HZ I        1957  7.76        10.1 0.05            125            171 233 
 SML  HN ES       1957  5.11                             123   -0.40 9  175 328 
 RUS  HZ EP       1956 43.43                             124   -0.50 9  175 175 
 RUS  HN ES   1   1957  6.16                             124   -0.45 7  175 175 
                                                                                
