 2011  9 6 1259  0.0 L   6.585 -73.699 98.1  RSN  6 0.1 1.9LRSN                1
 GAP= 91        0.32       2.8     3.1  4.6  0.6600E+01  0.9307E+01  0.7102E+01E
 Epicentro: EL CARMEN DE CHUCURI - SANTANDER                                   3
 ACTION:UPD 12-07-13 15:55 OP:ep   STATUS:               ID:20110906125900 L   I
 2011-09-06-1256-10S.COL___170                                                 6
 STAT SP IPHASW D HRMM SECON CODA AMPLIT PERI AZIMU VELO AIN AR TRES W  DIS CAZ7
 BAR2 SZ EP   1   1259 15.67                             148    0.04 7 57.1  89 
 BAR2 SZ ES   1   1259 27.77                             148   -0.02 7 57.1  89 
 BAR2 SZ I        1259 29.36        35.3 0.37                          57.1  89 
 BRR  HZ EP       1259 15.14                             148   -0.1910 57.8 359 
 BRR  HZ I        1259 21.14        16.2 0.18                          57.8 359 
 BRR  HE ES   1   1259 27.27                             148    0.01 7 57.8 359 
 GIR2 SZ EP   2   1259 17.20                             139    0.15 5 78.1  46 
 RUS  HZ EP   1   1259 19.73                             131    0.07 7  102 138 
 RUS  HN ES   1   1259 35.01                             131    0.04 7  102 138 
 ZAR  HZ EP   2   1259 25.37                             117    0.13 5  163 308 
 ZAR  HN ES   1   1259 45.05                             117    0.16 7  163 308 
 ZAR  HZ I        1259 49.62        14.1 0.38                           163 308 
 NOR  SZ EP   2   1259 26.19                             116   -0.12 4  172 229 
                                                                                
