 2015  9 6 1250 22.4 L   6.697 -73.193139.4  RSN  5 0.3 1.6LRSN                1
 GAP=224        0.69       5.0     4.7  5.0  0.1430E+02  0.4534E+01 -0.1043E+01E
 Epicentro: VILLANUEVA - SANTANDER                                             3
 ACTION:UPD 15-10-28 16:24 OP:cam  STATUS:               ID:20150906125022 L   I
 OLDACT:UP  15-09-06 22:50 OP:mh   STATUS:               ID:20150906124750     3
 OLDACT:UP  15-09-06 22:49 OP:mh   STATUS:               ID:20150906124750     3
 OLDACT:REG 15-09-06 21:13 OP:mh   STATUS:               ID:20150906124750     3
 2015-09-06-1247-50M.COL___358                                                 6
 STAT SP IPHASW D HRMM SECON CODA AMPLIT PERI AZIMU VELO AIN AR TRES W  DIS CAZ7
 BAR2 EZ EP       1250 40.91                             175   -0.1610 11.7 174 
 BAR2 EZ ES       1250 55.78                             175    0.1410 11.7 174 
 BAR2 EZ I        1250 56.80         8.3 0.18            171           11.7 174 
 BRR  HZ EP       1250 42.82                             151   -0.1510 73.1 308 
 BRR  HN ES       1250 59.19                             151    0.1810 73.1 308 
 BRR  HZ I        1251  1.86         7.6 0.16            148           73.1 308 
 RUS  HZ EP       1250 44.92                             146    0.1710 89.8 172 
 RUS  HN ES       1251  1.93                             146   -0.2610 89.8 172 
 RUS  HZ I        1251  3.54         6.3 0.44            147           89.8 172 
 PTB  HZ EP       1250 48.24                             132    0.03 9  141 263 
 PTB  HN ES       1251  8.56                             132    0.22 9  141 263 
 PTB  HZ I        1251 13.18         5.3 0.28            131            141 263 
 ZAR  HZ EP       1250 54.81                             121    0.40 9  204 296 
 ZAR  HN ES       1251 18.79                             121   -0.59 9  204 296 
 ZAR  HZ I        1251 25.48         7.3 0.44            121            204 296 
                                                                                
