 2011  8 6 1049 46.3 L   6.739 -73.099151.5  RSN  4 0.1 1.7LRSN                1
 GAP=238        0.30       3.7     4.6  4.9  0.3131E+01  0.2048E+01 -0.7713E+00E
 Epicentro: JORDAN - SANTANDER                                                 3
 ACTION:UPD 12-07-25 14:06 OP:epov STATUS:               ID:20110806104946 L   I
 2011-08-06-1040-00M.COL___145                                                 6
 STAT SP IPHASW D HRMM SECON CODA AMPLIT PERI AZIMU VELO AIN AR TRES W  DIS CAZ7
 BAR2 SZ EP   1   1050  6.72                             173    0.14 7 18.6 210 
 BAR2 SZ ES   2   1050 22.37                             173    0.01 5 18.6 210 
 BAR2 SZ I        1050 23.02         8.4 0.26                          18.6 210 
 BRR  HZ EP   1   1050  8.50                             151   -0.06 7 79.1 301 
 BRR  HZ I        1050  8.66        15.7 0.42                          79.1 301 
 BRR  HN ES   2   1050 25.86                             151   -0.03 5 79.1 301 
 RUS  HZ EP   2   1050 10.04                             147   -0.14 5 93.6 179 
 RUS  HN ES   2   1050 28.72                             147   -0.05 5 93.6 179 
 RUS  HZ I        1050 30.79         5.7 0.35                          93.6 179 
 NOR  SN ES   2   1050 50.67                             120    0.05 4  235 237 
                                                                                
