 2016  4 6 1314 57.5 L   6.800 -73.163151.6  RSN  6 0.2 1.7LRSN                1
 GAP=243        0.58       3.4     3.2  4.3  0.2697E+01  0.3466E+01 -0.2235E+01E
 Epicentro: LOS SANTOS - SANTANDER                                             3
 ACTION:UPD 16-05-05 14:19 OP:rebc STATUS:               ID:20160406131457 L   I
 OLDACT:REG 16-04-06 20:52 OP:drio STATUS:               ID:20160406130749     3
 2016-04-06-1307-49M.COL___276                                                 6
 STAT SP IPHASW D HRMM SECON CODA AMPLIT PERI AZIMU VELO AIN AR TRES W  DIS CAZ7
 BAR2 EZ EP       1315 17.75                             171   -0.0410 23.1 185 
 BAR2 EZ ES       1315 33.79                             171    0.1410 23.1 185 
 BAR2 EZ I        1315 34.77         7.7 0.28            167           23.1 185 
 RUS  HZ EP       1315 21.68                             145   -0.1310  101 175 
 RUS  HE ES       1315 40.62                             145   -0.1710  101 175 
 RUS  HZ I        1315 43.79         3.5 0.40            145            101 175 
 PTB  HZ EP       1315 24.43                             134   -0.32 9  146 259 
 PTB  HE ES       1315 46.12                             134    0.10 9  146 259 
 PTB  HZ I        1315 47.80         8.2 0.14            132            146 259 
 SPBC HZ EP       1315 26.74                             131    0.43 9  162 218 
 SPBC HE ES       1315 48.97                             131    0.17 9  162 218 
 SPBC HZ I        1315 52.12         6.6 0.14            130            162 218 
 ZAR  HZ EP       1315 30.47                             124    0.36 9  202 292 
 ZAR  HE ES       1315 55.35                             124   -0.23 9  202 292 
 ZAR  HZ I        1316  1.58         8.1 0.76            124            202 292 
 NOR  HZ EP       1315 33.22                             120   -0.15 8  233 234 
 NOR  HE ES       1316  1.23                             120   -0.15 8  233 234 
 NOR  HZ I        1316  9.57         3.0 0.26            120            233 234 
                                                                                
