 2013  2 6 1137 22.6 L   6.790 -73.132144.9  RSN  6 0.4 1.7LRSN                1
 GAP=139        0.78       4.3     5.3  6.2 -0.1866E+01  0.4729E+01  0.5036E+01E
 Epicentro: LOS SANTOS - SANTANDER                                             3
 ACTION:UPD 13-03-12 09:31 OP:ep   STATUS:               ID:20130206113722 L   I
 2013-02-06-1130-00M.COL___240                                                 6
 STAT SP IPHASW D HRMM SECON CODA AMPLIT PERI AZIMU VELO AIN AR TRES W  DIS CAZ7
 BAR2 SZ EP       1137 42.19                             171    0.0310 22.6 194 
 BAR2 SZ ES       1137 57.43                             171    0.0610 22.6 194 
 BAR2 SZ I        1137 58.46        23.7 0.19            169           22.6 194 
 BRR  HZ EP       1137 44.01                             152    0.2010 73.0 299 
 BRR  HN ES   1   1138  0.94                             152    0.63 7 73.0 299 
 BRR  HN I        1138  5.02        21.0 0.28            150           73.0 299 
 PAM  SZ EP   1   1137 45.19                             151    0.43 7 77.3  38 
 PAM  SN ES   1   1138  1.28                             151   -0.73 7 77.3  38 
 PAM  SZ I        1138  3.84         4.3 0.25            155           77.3  38 
 RUS  HZ EP   1   1137 46.15                             144   -0.08 7 99.4 177 
 RUS  HN ES   1   1138  4.59                             144   -0.02 7 99.4 177 
 RUS  HN I        1138  5.57         5.5 0.17            145           99.4 177 
 PTB  HZ EP   1   1137 49.15                             131   -0.51 7  149 259 
 PTB  HE ES   1   1138 10.19                             131   -0.53 7  149 259 
 PTB  HZ I        1138 14.87         5.8 0.33            131            149 259 
 CHI  HZ EP   1   1138  0.21                             117   -0.01 6  248 196 
 CHI  HE ES   1   1138 29.77                             117    0.24 6  248 196 
 CHI  HZ I        1138 34.75         1.7 0.28            118            248 196 
                                                                                
