 2012  1 6 1315  7.5 L   6.778 -73.166144.4  RSN 10 0.5 1.9LRSN                1
 GAP=135        1.03       6.0     5.8  9.9 -0.4249E+01  0.1184E+02  0.6756E+01E
 Epicentro: LOS SANTOS - SANTANDER                                             3
 ACTION:UP  12-02-03 08:14 OP:REBC STATUS:               ID:20120106131507 L   I
 2012-01-06-1310-00M.COL___186                                                 6
 STAT SP IPHASW D HRMM SECON CODA AMPLIT PERI AZIMU VELO SNR AR TRES W  DIS CAZ7
 BAR2 SZ IP       1315 26.95                             171     0.110   21 185 
 BAR2 SZ I        1315 45.12        21.0 0.64                            21 185 
 GIR2 SZ EP       1315 27.05                             166     0.010   33 355 
 GIR2 SZ ES   2   1315 41.65                             166    -0.7 5   33 355 
 BRR  HZ IP     D 1315 28.87                             153     0.410   70 301 
 BRR  HN ES   2   1315 45.94                             153     1.2 5   70 301 
 BRR  HZ I        1315 49.95        18.3 0.16                            70 301 
 PAM  SZ EP       1315 29.78                             149     0.010   81  40 
 PAM  SN ES   1   1315 46.80                             149    -0.3 7   81  40 
 RUS  HZ EP       1315 30.83                             144    -0.110   98 175 
 RUS  HN ES   1   1315 49.57                             144     0.3 7   98 175 
 RUS  HZ I        1315 51.03        13.1 0.46                            98 175 
 PTB  HZ EP       1315 33.58                             132    -0.5 9  145 260 
 PTB  HN ES   1   1315 53.96                             132    -0.9 7  145 260 
 PTB  HZ I        1315 56.89         6.4 0.16                           145 260 
 OCA  SZ EP   3   1315 36.61                             129     0.7 2  162 354 
 OCA  SZ I        1316  3.34        12.2 0.50                           162 354 
 ZAR  HZ EP   2   1315 40.15                             122     0.4 4  203 293 
 ZAR  HN ES   2   1316  5.32                             122     0.5 4  203 293 
 ZAR  HZ I        1316 15.01         7.0 0.12                           203 293 
 NOR  SN ES   2   1316 10.97                             118     0.7 4  231 235 
 CHI  HZ EP   2   1315 45.08                             117     0.3 4  246 195 
 CHI  HZ I        1316 17.93         5.0 0.44                           246 195 
                                                                                
