 2014 10 6 1418 48.4 L   6.813 -73.234144.1  RSN  6 0.4 1.6LRSN                1
 GAP=122        0.94       3.9     4.6  6.4  0.2775E+00  0.5223E+01 -0.5406E+01E
 Epicentro: ZAPATOCA - SANTANDER                                               3
 ACTION:UPD 14-11-29 23:47 OP:nd   STATUS:               ID:20141006141848 L   I
 OLDACT:REG 14-10-06 21:23 OP:stll STATUS:               ID:20141006141747     3
 2014-10-06-1417-47M.COL___292                                                 6
 STAT SP IPHASW D HRMM SECON CODA AMPLIT PERI AZIMU VELO AIN AR TRES W  DIS CAZ7
 BAR2 SZ ES       1419 22.91        14.0 0.34            170   -0.1610 25.0 167 
 BAR2 SZ I        1419 24.26         9.3 0.26            171           25.0 167 
 BRR  HN ES       1419 25.45                             155    0.5810 62.1 302 
 PAM  SZ EP       1419 10.95                             149    0.1410 82.9  45 
 PAM  SN ES       1419 28.39                             149    0.1310 82.9  45 
 PAM  SZ I        1419 30.21         7.4 0.48            151           82.9  45 
 RUS  HZ EP       1419 12.12                             143   -0.0810  103 171 
 RUS  HN ES       1419 30.40                             143   -0.3410  103 171 
 RUS  HZ I        1419 31.84         3.7 0.34            145            103 171 
 PTB  HZ EP       1419 14.88                             134    0.45 9  139 257 
 PTB  HN ES       1419 34.43                             134   -0.28 9  139 257 
 PTB  HZ I        1419 39.90         2.7 0.36            133            139 257 
 SML  HZ EP       1419 24.58                             118    0.18 8  239 337 
 SML  HN ES       1419 51.64                             118   -0.82 8  239 337 
 SML  HZ I        1419 56.40         5.2 0.26            118            239 337 
                                                                                
