 2013  1 6 1009 57.1 L   6.805 -73.063147.1  RSN  8 0.4 1.8LRSN                1
 GAP=191        0.90       3.8     6.2  6.7  0.6292E+01  0.9376E+01 -0.3051E+01E
 Epicentro: LOS SANTOS - SANTANDER                                             3
 ACTION:UPD 13-02-15 09:12 OP:ep   STATUS:               ID:20130106100957 L   I
 2013-01-06-1010-00M.COL___242                                                 6
 STAT SP IPHASW D HRMM SECON CODA AMPLIT PERI AZIMU VELO AIN AR TRES W  DIS CAZ7
 BAR2 SZ EP       1010 17.26                             169    0.2910 27.0 209 
 BAR2 SZ ES   1   1010 32.68                             169    0.21 7 27.0 209 
 BAR2 SZ I        1010 33.92        18.2 0.38            168           27.0 209 
 BRR  HZ IP     C 1010 19.12                             150    0.2710 79.1 295 
 BRR  HN ES   1   1010 36.56                             150    0.73 7 79.1 295 
 BRR  HZ I        1010 42.86         7.6 0.50            149           79.1 295 
 RUS  HN IS   1   1010 39.38                             144   -0.27 7  101 181 
 RUS  HN ES       1010 39.38                             144   -0.2710  101 181 
 RUS  HZ I        1010 41.07         8.1 0.22            146            101 181 
 PTB  HZ IPg      1010 24.34                             131   -0.66 9  157 259 
 PTB  HE ES   1   1010 46.40                             131   -0.37 7  157 259 
 PTB  HZ I        1010 48.74         6.1 0.12            131            157 259 
 OCA  HZ EP   1   1010 25.27                             130   -0.32 7  161 350 
 OCA  HN ES   1   1010 47.37                             130   -0.44 7  161 350 
 OCA  HZ I        1010 53.14        11.4 0.20            131            161 350 
 ZAR  HZ EP       1010 31.03                             122    0.54 8  212 291 
 ZAR  HN ES   1   1010 55.99                             122   -0.54 6  212 291 
 ZAR  HZ I        1011  2.30        10.6 0.42            122            212 291 
 CHI  HZ EP       1010 35.51                             117    0.31 8  252 197 
 CHI  HN ES   1   1011  4.86                             117   -0.06 6  252 197 
 CHI  HZ I        1011 14.41         2.4 0.44            119            252 197 
 HEL  HN ES   2   1011 11.29                             114    0.72 4  281 256 
                                                                                
