 2017  4 6 1503 25.3 L   6.564 -73.609114.4  RSN  4 0.4 1.3LRSN                1
 GAP=127        0.96       7.6     4.8  9.5  0.1391E+02  0.8052E+01 -0.4865E+01E
 Epicentro: EL CARMEN - SANTANDER                                              3
 ACTION:UPD 17-05-30 21:09 OP:jn   STATUS:               ID:20170406150325 L   I
 OLDACT:UP  17-05-08 16:12 OP:nlst STATUS:               ID:20170406150325 L   3
 OLDACT:DUP 17-04-07 00:49 OP:ar   STATUS:               ID:20170406145738d    3
 OLDACT:REG 17-04-06 21:29 OP:ar   STATUS:               ID:20170406145737     3
 2017-04-06-1458-00M.COL___363                                                 6
 STAT SP IPHASW D HRMM SECON CODA AMPLIT PERI AZIMU VELO AIN AR TRES W  DIS CAZ7
 BAR2 EZ EP       15 3 42.79                             156    0.6710 47.3  86 
 BAR2 EZ ES       15 3 55.28                             156    0.0710 47.3  86 
 BRR  HZ EP       15 3 41.94                             150   -0.6010 61.2 349 
 PTB  HZ EP       15 3 45.09                             138    0.1710 93.7 268 
 PTB  HE ES       15 4  0.23                             138    0.0410 93.7 268 
 PTB  HZ I        15 4  2.06         5.6 0.38            138           93.7 268 
 RUS  HZ EP       15 3 45.49                             138   -0.1410 94.3 142 
 RUS  HN ES       15 4  1.24                             138   -0.2210 94.3 142 
 RUS  HZ I        15 4  1.45         3.4 0.12            140           94.3 142 
                                                                                
