 2016  4 6 1659 22.2 L   6.866 -73.114143.6  RSN  5 0.2 1.4LRSN                1
 GAP=282        0.50       4.2     3.0  4.0 -0.6385E+00  0.3745E+01 -0.2275E+01E
 Epicentro: LOS SANTOS - SANTANDER                                             3
 ACTION:UPD 16-05-05 14:19 OP:rebc STATUS:               ID:20160406165922 L   I
 OLDACT:REG 16-04-06 21:01 OP:drio STATUS:               ID:20160406165744     3
 2016-04-06-1657-44M.COL___292                                                 6
 STAT SP IPHASW D HRMM SECON CODA AMPLIT PERI AZIMU VELO AIN AR TRES W  DIS CAZ7
 BAR2 EZ EP       1659 42.06                             167    0.3010 31.2 194 
 BAR2 EZ ES       1659 56.98                             167   -0.0410 31.2 194 
 RUS  HZ EP       1659 46.00                             141   -0.2710  108 178 
 RUS  HN IS       17 0  4.97                             141   -0.0810  108 178 
 RUS  HZ I        17 0  6.14         1.9 0.48            142            108 178 
 PTB  HZ EP       1659 49.26                             130   -0.19 9  153 256 
 PTB  HE ES       17 0 10.66                             130   -0.05 9  153 256 
 PTB  HZ I        17 0 16.27         3.6 0.52            129            153 256 
 SPBC HZ EP       1659 51.44                             127    0.15 9  171 218 
 SPBC HN ES       17 0 14.23                             127    0.24 9  171 218 
 SPBC HZ I        17 0 15.82         5.0 0.22            127            171 218 
 NOR  HZ EP       1659 58.66                             117    0.09 8  242 234 
 NOR  HE ES       17 0 26.80                             117   -0.15 8  242 234 
 NOR  HZ I        17 0 32.40         1.8 0.14            117            242 234 
                                                                                
