 2017  2 6 1657  6.2 L   6.815 -73.184149.4  RSN  5 0.3 1.5LRSN                1
 GAP=131        0.72       3.9     3.4  6.0 -0.9169E-01  0.5809E+01 -0.1687E+01E
 Epicentro: ZAPATOCA - SANTANDER                                               3
 ACTION:UPD 17-05-24 15:33 OP:jn   STATUS:               ID:20170206165706 L   I
 OLDACT:REG 17-02-06 20:42 OP:and  STATUS:               ID:20170206164745     3
 2017-02-06-1648-00M.COL___340                                                 6
 STAT SP IPHASW D HRMM SECON CODA AMPLIT PERI AZIMU VELO AIN AR TRES W  DIS CAZ7
 BAR2 EZ EP       1657 25.98                             170   -0.2810 24.7 180 
 BAR2 EZ ES       1657 41.89                             170   -0.0510 24.7 180 
 BAR2 EZ I        1657 42.66        10.2 0.20            170           24.7 180 
 PAM  EZ EP       1657 29.12                             151    0.2610 78.9  43 
 PAM  EN ES       1657 46.39                             151   -0.1710 78.9  43 
 PAM  EZ I        1657 46.81         3.3 0.18            154           78.9  43 
 RUS  HZ EP       1657 30.58                             144    0.1510  103 174 
 RUS  HN ES       1657 49.62                             144    0.2710  103 174 
 RUS  HZ I        1657 50.25         3.3 0.26            145            103 174 
 PTB  HZ EP       1657 32.71                             134   -0.39 9  144 258 
 PTB  HN ES       1657 53.91                             134   -0.20 9  144 258 
 PTB  HZ I        1657 58.52         4.7 0.42            133            144 258 
 ZAR  HE ES       1658  4.00                             124    0.47 9  200 292 
                                                                                
