 2016 11 6 1046 59.0 L   6.783 -73.159143.8  RSN  9 0.4 1.9LRSN                1
 GAP=148        0.98       3.8     4.0  5.9 -0.2158E+01  0.5889E+01  0.6451E+01E
 Epicentro: LOS SANTOS - SANTANDER                                             3
 ACTION:UPD 17-10-26 21:05 OP:lp   STATUS:               ID:20161106104659 L   I
 OLDACT:UP  16-11-06 22:29 OP:cog  STATUS:               ID:20161106103744     3
 OLDACT:REG 16-11-06 19:51 OP:cog  STATUS:               ID:20161106103744     3
 2016-11-06-1038-00M.COL___334                                                 6
 STAT SP IPHASW D HRMM SECON CODA AMPLIT PERI AZIMU VELO AIN AR TRES W  DIS CAZ7
 BAR2 EZ EP       1047 18.10                             171   -0.2910 21.2 187 
 BAR2 EZ ES       1047 33.61                             171    0.1310 21.2 187 
 BRR  HZ EP       1047 20.13                             152    0.1810 70.9 300 
 BRR  HE ES       1047 36.69                             152    0.4210 70.9 300 
 BRR  HZ I        1047 40.40        10.3 0.14            151           70.9 300 
 PAM  EZ EP       1047 21.29                             150    0.1010 79.8  39 
 PAM  EN ES       1047 38.31                             150   -0.1610 79.8  39 
 PAM  EZ I        1047 39.08         9.6 0.20            154           79.8  39 
 PTB  HZ EP       1047 25.02                             132   -0.66 9  146 259 
 PTB  HN ES       1047 46.04                             132   -0.42 9  146 259 
 PTB  HZ I        1047 48.09         8.7 0.15            132            146 259 
 SPBC HZ EP       1047 27.63                             129    0.48 9  161 219 
 SPBC HN ES       1047 48.62                             129   -0.47 9  161 219 
 SPBC HZ I        1047 53.69        17.7 0.20            129            161 219 
 ZAR  HZ EP       1047 31.09                             122   -0.20 9  203 293 
 ZAR  HN ES       1047 56.22                             122   -0.22 9  203 293 
 ZAR  HZ I        1048  1.50         9.7 0.32            123            203 293 
 CHI  HZ EP       1047 36.66                             117    0.28 8  246 195 
 CHI  HN ES       1048  6.01                             117    0.50 8  246 195 
 CHI  HZ I        1048  8.18         4.6 0.43            118            246 195 
 HEL  HZ EP       1047 39.38                             114    0.44 8  270 256 
 HEL  HN ES       1048 10.84                             114    0.78 8  270 256 
 HEL  HZ I        1048 16.37         5.9 0.32            115            270 256 
 PRA  HZ EP   3   1047 50.81                             106   -1.40 1  390 210 
 PRA  HN ES       1048 32.78                             106   -0.90 6  390 210 
 PRA  HZ I        1048 36.60         5.2 0.55            107            390 210 
                                                                                
