 2010  6 6 1648 57.1 L   6.823 -73.075142.7  RSN 14 0.7 3.8LRSN                1
 GAP=147        1.68       6.7    10.7  8.5 -0.4924E+02  0.1144E+02  0.7398E+01E
 Epicentro: LOS SANTOS - SANTANDER                                             3
 ACTION:UP  10-08-24 10:08 OP:vdl  STATUS:               ID:20100606164857 L   I
 2010-06-06-1646-54S.COL___111                                                 6
 STAT SP IPHASW D HRMM SECON CODA AMPLIT PERI AZIMU VELO SNR AR TRES W  DIS CAZ7
 BAR2 SZ IP       1649 16.16                             168    -0.310   28 205 
 BAR2 SZ ES       1649 30.78                             168    -0.810   28 205 
 GIR2 SZ EP       1649 17.25                             167     0.810   31 335 
 GIR2 SZ ES       1649 32.07                             167     0.610   31 335 
 GUE  SZ EP       1649 20.14                             140    -1.110  113   8 
 GRA  SZ IP       1649 23.13                             137     1.410  121  14 
 GRA  SZ ES   1   1649 40.85                             137     0.0 7  121  14 
 OCA  SZ IP       1649 24.74                             129    -0.3 9  159 350 
 OCA  SZ ES   1   1649 46.69                             129    -0.2 7  159 350 
 OCA  SZ I        1649 53.06      1048.3 1.58                           159 350 
 CHI  HZ EP       1649 34.96                             116    -0.2 8  253 197 
 CHI  HN ES   1   1650  4.06                             116    -0.8 6  253 197 
 CHI  HZ I        1650  7.02       251.8 0.15                           253 197 
 ROSC BZ EP       1649 36.06                             115     0.3 8  259 212 
 ROSC BN ES       1650  6.62                             115     0.7 8  259 212 
 ROSC BZ I        1650 11.10       286.8 0.48                           259 212 
 CVER SZ EP       1649 38.86                             114     0.9 7  278 204 
 CVER SZ ES   2   1650  9.12                             114    -0.6 4  278 204 
 HEL  HZ EP       1649 37.83                             113    -0.3 7  280 256 
 HEL  HZ I        1650 13.47       205.6 0.85                           280 256 
 RREF BZ EP       1649 44.89                             110     0.9 7  329 230 
 RREF BN ES       1650 19.81                             110    -0.8 7  329 230 
 RREF BZ I        1650 24.45       238.0 0.53                           329 230 
 DBB  SZ EP       1649 44.43                             108    -0.9 6  347 274 
 TOL  SZ EP       1649 45.90                             108    -0.2 6  351 225 
 TOL  SZ ES       1650 23.98                             108    -0.3 6  351 225 
 SDV  BZ EP       1649 45.82                             108    -0.3 6  353  50 
 SDV  BZ I        1649 46.81       186.0 0.42                           353  50 
 SDV  BN ES   1   1650 23.71                             108    -0.7 5  353  50 
 ANIL BZ EP       1649 47.72                             107     0.1 6  365 225 
 ANIL BN ES       1650 27.36                             107     0.3 6  365 225 
 ANIL BZ I        1650 30.00       360.1 0.06                           365 225 
                                                                                
