 2010  9 6 1233 16.4 L   6.795 -73.080147.8  RSN  4 0.1 1.0LRSN                1
 GAP=237        0.33       5.9    11.0  4.6  0.5097E+02 -0.1638E+02 -0.6110E+01E
 Epicentro: LOS SANTOS - SANTANDER                                             3
 ACTION:UP  11-02-18 11:00 OP:tino STATUS:               ID:20100906123316 L   I
 2010-09-06-1231-07S.COL___120                                                 6
 STAT SP IPHASW D HRMM SECON CODA AMPLIT PERI AZIMU VELO SNR AR TRES W  DIS CAZ7
 BTL  SZ EP   1   1233 36.44                             170     0.1 7   25 303 
 BTL  SZ ES   2   1233 51.93                             170     0.1 5   25 303 
 BAR2 SZ EP   1   1233 36.20                             170    -0.1 7   25 207 
 BAR2 SZ ES   2   1233 51.63                             170    -0.2 5   25 207 
 BRR  HZ EP   1   1233 38.04                             151    -0.1 7   78 296 
 BRR  HE ES   2   1233 55.24                             151     0.1 5   78 296 
 RUS  HZ EP   1   1233 40.35                             144     0.1 7  100 180 
 RUS  HN ES   2   1233 58.96                             144     0.0 5  100 180 
 RUS  HZ I        1233 59.65         1.6 0.16                           100 180 
                                                                                
