 2013 10 6 1103  7.3 L   6.745 -73.178143.9  RSN  6 0.6 1.5LRSN                1
 GAP=197        1.37       5.5     8.4  9.1  0.8443E+01  0.6181E+01 -0.1042E+02E
 Epicentro: VILLANUEVA - SANTANDER                                             3
 ACTION:UPD 13-11-25 09:19 OP:ep   STATUS:               ID:20131006110307 L   I
 OLDACT:DUP 13-10-06 17:15 OP:stll STATUS:               ID:20131006105837d    3
 2013-10-06-1058-36M.COL___232                                                 6
 STAT SP IPHASW D HRMM SECON CODA AMPLIT PERI AZIMU VELO AIN AR TRES W  DIS CAZ7
 BAR2 SZ EP       11 3 26.56                             173   -0.0010 16.9 182 
 BAR2 SZ I        11 3 26.70        10.1 0.32            173           16.9 182 
 BAR2 SZ ES       11 3 41.56                             173   -0.0510 16.9 182 
 BRR  HZ EP       11 3 28.71                             152    0.4910 71.3 304 
 BRR  HN ES       11 3 45.36                             152    0.8010 71.3 304 
 BRR  HZ I        11 3 50.39         4.7 0.12            150           71.3 304 
 RUS  HZ EP       11 3 29.95                             145   -0.4810 94.8 174 
 RUS  HZ I        11 3 31.39         2.9 0.16            149           94.8 174 
 RUS  HN ES       11 3 48.20                             145   -0.2910 94.8 174 
 PTB  HZ EP       11 3 33.74                             133    0.07 9  143 261 
 PTB  HN ES       11 3 53.49                             133   -0.77 9  143 261 
 PTB  HZ I        11 3 59.40         3.7 0.52            133            143 261 
 SPBC HZ EP       11 3 35.11                             130    0.15 9  156 219 
 SPBC HN ES       11 3 56.91                             130    0.35 9  156 219 
 SML  HZ EP       11 3 45.01                             117    0.77 8  248 337 
 SML  HN ES       11 4 11.85                             117   -1.23 8  248 337 
 SML  HZ I        11 4 15.99         2.8 0.10            118            248 337 
                                                                                
