 2014  1 6 1443  2.4 L   6.747 -73.146141.2  RSN  5 0.4 1.5LRSN                1
 GAP=139        1.08       5.6     5.5  7.9 -0.2757E+01  0.5609E+01  0.1545E+01E
 Epicentro: LOS SANTOS - SANTANDER                                             3
 ACTION:UPD 14-03-13 09:52 OP:ep   STATUS:               ID:20140106144302 L   I
 OLDACT:REG 14-01-06 15:49 OP:stll STATUS:               ID:20140106143805     3
 2014-01-06-1438-05M.COL___237                                                 6
 STAT SP IPHASW D HRMM SECON CODA AMPLIT PERI AZIMU VELO AIN AR TRES W  DIS CAZ7
 BAR2 SZ EP       1443 21.49                             173    0.0910 17.6 193 
 BAR2 SZ ES       1443 36.47                             173    0.2710 17.6 193 
 BAR2 SZ I        1443 37.38        10.0 0.10            171           17.6 193 
 BRR  HZ EP       1443 23.43                             151    0.1810 74.1 302 
 BRR  HZ I        1443 26.67         5.1 0.58            151           74.1 302 
 BRR  HN ES       1443 40.16                             151    0.6610 74.1 302 
 PAM  SZ EP       1443 24.34                             148   -0.1010 82.0  37 
 PAM  SZ I        1443 24.62        12.5 0.24            149           82.0  37 
 PAM  SN ES       1443 41.08                             148   -0.5410 82.0  37 
 RUS  HZ EP       1443 25.81                             145    0.5010 94.8 176 
 RUS  HN ES       1443 42.86                             145   -0.3010 94.8 176 
 RUS  HZ I        1443 45.84         2.4 0.34            143           94.8 176 
 PTB  HZ EP       1443 28.75                             131   -0.18 9  147 261 
 PTB  HZ I        1443 30.74         3.2 0.38            130            147 261 
 PTB  HN ES       1443 48.92                             131   -0.68 9  147 261 
                                                                                
