 2010  5 6 1934 53.0 L   6.761 -72.952140.0  RSN  8 0.5 2.2LRSN                1
 GAP=191        0.91       7.2    12.8  9.8 -0.5831E+02 -0.2694E+02  0.3519E+02E
 Epicentro: CEPITA - SANTANDER                                                 3
 ACTION:UP  10-08-24 10:03 OP:vdl  STATUS:               ID:20100506193453 L   I
 2010-05-06-1932-33S.COL___105                                                 6
 STAT SP IPHASW D HRMM SECON CODA AMPLIT PERI AZIMU VELO SNR AR TRES W  DIS CAZ7
 BAR2 SZ EP   1   1935 12.23                             166     0.1 7   32 234 
 BAR2 SZ ES   2   1935 27.51                             166     0.4 5   32 234 
 GIR2 SZ EP   1   1935 11.41                             161    -1.0 7   44 323 
 GIR2 SZ ES   2   1935 27.08                             161    -0.5 5   44 323 
 BRR  HZ EP   1   1935 14.87                             144     0.0 7   92 295 
 BRR  HE ES   2   1935 32.02                             144     0.0 5   92 295 
 BRR  HZ I        1935 35.24        22.8 0.24                            92 295 
 BRI  SZ EP   1   1935 16.80                             140     0.5 7  107   9 
 BRI  SZ ES   2   1935 34.53                             140     0.1 5  107   9 
 GUE  SZ EP   1   1935 17.55                             137     0.2 7  118   1 
 GUE  SZ ES   2   1935 36.70                             137     0.4 5  118   1 
 CHI  HZ EP   1   1935 30.36                             116    -0.3 6  251 200 
 CHI  HN ES   2   1936  0.86                             116     0.8 4  251 200 
 CHI  HZ I        1936  8.30         6.5 0.62                           251 200 
 RREF BZ EP   1   1935 41.36                             109     0.8 5  336 232 
 RREF BN ES   2   1936 17.81                             109     0.3 3  336 232 
 RREF BZ I        1936 23.07         7.8 0.27                           336 232 
 PRA  HZ EP   1   1935 46.32                             105    -0.9 4  399 213 
 PRA  HN ES   2   1936 29.12                             105    -0.4 3  399 213 
 PRA  HZ I        1936 33.98         7.9 0.45                           399 213 
                                                                                
