 2011  9 6 1406 46.2 L   6.773 -73.088137.7  RSN  4 0.3 1.9LRSN                1
 GAP=189        0.59       6.8    13.5  8.1  0.6858E+02 -0.6493E+02 -0.3330E+02E
 Epicentro: LOS SANTOS - SANTANDER                                             3
 ACTION:UPD 12-07-13 15:55 OP:ep   STATUS:               ID:20110906140646 L   I
 2011-09-06-1404-19S.COL___171                                                 6
 STAT SP IPHASW D HRMM SECON CODA AMPLIT PERI AZIMU VELO AIN AR TRES W  DIS CAZ7
 BAR2 SZ EP       14 7  4.52                             170   -0.3210 22.5 208 
 BAR2 SZ ES   1   14 7 19.43                             170    0.04 7 22.5 208 
 BAR2 SZ I        14 7 23.50        12.4 0.22                          22.5 208 
 BRR  HZ EP   1   14 7  6.64                             149   -0.28 7 78.3 298 
 BRR  HN ES   1   14 7 23.25                             149    0.17 7 78.3 298 
 BRR  HZ I        14 7 24.80        24.7 0.34                          78.3 298 
 RUS  HZ EP   1   14 7  9.35                             143    0.43 7 97.3 180 
 RUS  HN ES   1   14 7 26.65                             143    0.00 7 97.3 180 
 RUS  HZ I        14 7 29.45         9.8 0.30                          97.3 180 
 OCA  SZ EP   1   14 7 14.53                             127    0.26 7  164 351 
 OCA  SZ I        14 7 20.85        18.1 0.35                           164 351 
                                                                                
