 2010  2 6 1006 53.9 L   6.806 -73.060134.9  RSN  7 0.3 2.0LRSN                1
 GAP=192        0.53       3.2     7.8  6.7 -0.4463E+01  0.2961E+02 -0.7673E+00E
 Epicentro: LOS SANTOS - SANTANDER                                             3
 ACTION:UP  10-08-24 09:47 OP:vdl  STATUS:               ID:20100206100653 L   I
 2010-02-06-1007-11S.COL___093                                                 6
 STAT SP IPHASW D HRMM SECON CODA AMPLIT PERI AZIMU VELO SNR AR TRES W  DIS CAZ7
 BAR2 SZ EP   1   10 7 12.55                             168     0.210   27 210 
 BAR2 SZ ES   2   10 7 26.32                             168    -0.3 7   27 210 
 RUS  BZ EP   1   10 7 16.57                             141     0.010  101 181 
 RUS  BE ES   2   10 7 34.39                             141     0.0 7  101 181 
 RUS  BZ I        10 7 37.03         7.5 0.31                           101 181 
 OCA  SZ EP   1   10 7 21.72                             127     0.3 9  161 350 
 OCA  SZ ES   2   10 7 42.61                             127    -0.3 6  161 350 
 CHI  HZ EP   1   10 7 31.02                             114    -0.3 8  252 197 
 CHI  HE ES   2   10 8  1.13                             114     0.5 5  252 197 
 CHI  HZ I        10 8  7.40         4.6 0.48                           252 197 
 HEL  HZ EP       10 7 34.43                             112    -0.210  281 256 
 RREF BZ EP   1   10 7 40.89                             108     0.4 7  329 230 
 RREF BE ES   2   10 8 17.19                             108     0.4 5  329 230 
 RREF BZ I        10 8 26.90         4.5 0.26                           329 230 
 PRA  HZ EP   1   10 7 47.18                             104    -0.5 6  397 211 
 PRA  HE ES   2   10 8 29.49                             104    -0.1 4  397 211 
 PRA  HZ I        10 8 34.95         6.1 0.27                           397 211 
                                                                                
