 2015  2 6 1031 47.0 L   6.813 -73.125140.3  RSN 25 0.6 2.8LRSN                1
 GAP= 53        1.41       3.0     3.3  5.8 -0.2434E+01  0.3530E+01  0.2048E+01E
 Epicentro: LOS SANTOS - SANTANDER                                             3
 ACTION:UPD 15-04-30 21:22 OP:nd   STATUS:               ID:20150206103147 L   I
 OLDACT:ARG 15-02-06 20:23 OP:stll STATUS:               ID:20150206102746     3
 2015-02-06-1027-46M.COL___287                                                 6
 STAT SP IPHASW D HRMM SECON CODA AMPLIT PERI AZIMU VELO AIN AR TRES W  DIS CAZ7
 BAR2 EZ IP     C 1032  6.43                             169    0.4510 25.3 194 
 BAR2 EZ I        1032  6.72       165.7 0.10            169           25.3 194 
 BAR2 EZ ES       1032 20.78                             169   -0.0310 25.3 194 
 BRR  HZ IP     C 1032  8.28                             151    0.6810 72.5 297 
 BRR  HN ES       1032 24.51                             151    0.8110 72.5 297 
 BRR  HZ I        1032 28.55       167.7 0.34            145           72.5 297 
 PAM  SZ IP     C 1032  9.19                             151    0.7410 74.8  39 
 PAM  SN ES       1032 25.50                             151    0.3010 74.8  39 
 PAM  SZ I        1032 28.60       107.7 0.50            149           74.8  39 
 RUS  HZ IP     C 1032 10.18                             142   -0.1010  102 177 
 RUS  HZ I        1032 11.23        54.7 0.48            143            102 177 
 RUS  HN ES       1032 28.23                             142   -0.2410  102 177 
 PTB  HZ EP       1032 12.94                             130   -0.79 9  150 258 
 PTB  HN ES       1032 33.91                             130   -0.69 9  150 258 
 PTB  HZ I        1032 37.02        61.8 0.10            127            150 258 
 TAM  HZ IP     C 1032 14.69                             130    0.64 9  153 106 
 TAM  HZ I        1032 14.83        44.8 0.18            131            153 106 
 TAM  HE ES       1032 35.20                             130    0.03 9  153 106 
 OCA  HZ EP       1032 14.70                             129   -0.04 9  159 352 
 OCA  HN ES       1032 36.62                             129    0.21 9  159 352 
 OCA  HZ I        1032 41.62        56.6 0.24            125            159 352 
 SPBC HZ EP       1032 15.40                             127    0.10 9  166 219 
 SPBC HN ES       1032 36.52                             127   -0.88 9  166 219 
 SPBC HZ I        1032 40.79       120.2 0.24            125            166 219 
 ZAR  HZ EP       1032 18.60                             121   -0.62 8  206 292 
 ZAR  HN ES       1032 44.49                             121    0.11 8  206 292 
 ZAR  HZ I        1032 50.27        83.9 0.24            118            206 292 
 NOR  HZ EP       1032 22.63                             117   -0.05 8  237 234 
 NOR  HN ES       1032 50.07                             117   -0.46 8  237 234 
 NOR  HZ I        1032 53.82        37.8 0.18            115            237 234 
 SML  HZ EP       1032 22.48                             116   -0.77 8  243 335 
 SML  HN ES       1032 51.19                             116   -0.36 8  243 335 
 SML  HZ I        1032 56.13       100.3 0.28            114            243 335 
 CHI  HZ EP       1032 24.50                             116   -0.09 8  251 196 
 CHI  HN ES       1032 53.54                             116   -0.40 8  251 196 
 CHI  HZ I        1032 55.97        31.4 0.34            115            251 196 
 ROSC BZ EP       1032 26.06                             115    1.00 8  255 211 
 ROSC BN ES       1032 53.98                             115   -0.80 8  255 211 
 ROSC BZ I        1033  0.96        62.5 0.40            114            255 211 
 HEL  HZ EP       1032 26.89                             113   -0.30 8  275 256 
 HEL  HN ES       1032 58.57                             113    0.00 8  275 256 
 HEL  HZ I        1033  5.31        43.2 0.32            111            275 256 
 SOCV BZ EP       1032 29.18                             111   -0.28 7  299  57 
 SOCV BN ES       1033  0.80                             111   -1.81 7  299  57 
 GUY2CHZ EP       1032 31.13                             111    0.49 7  304 235 
 GUY2CHE ES       1033  5.36                             111    0.67 7  304 235 
 GUY2CHZ I        1033 12.40        31.0 0.38                           304 235 
 PTGC HZ EP   9   1032 29.36                             110   -1.29 0  309 159 
 PTGC HZ I        1032 30.02        30.7 0.24            110            309 159 
 PTGC HN ES       1033  2.13                                   -1.30 7  309 159 
 RREF HZ EP       1032 34.62                             110    1.43 7  324 229 
 RREF HN ES       1033  9.17                             110   -0.07 7  324 229 
 RREF HZ I        1033 17.98        38.8 0.26            108            324 229 
 DBB  SZ EP       1032 33.76                             108   -0.72 7  342 274 
 DBB  SZ I        1033 12.82        66.8 0.56            106            342 274 
 TOL  SZ EP       1032 36.08                             108    0.76 6  346 225 
 TOL  SN ES       1033 13.48                             108    0.46 6  346 225 
 MON  HZ EP   9   1032 33.44                             107   -2.42 0  355 308 
 MON  HN ES       1033 11.32                                   -0.26 6  355 308 
 MON  HZ I        1033 27.11        20.4 0.62            106            355 308 
 ARGC HZ EP   9   1032 36.09                             107   -0.26 0  359 340 
 ARGC HZ I        1032 38.76        18.8 0.30            105            359 340 
 ARGC HN ES       1033 14.20                                   -0.40 6  359 340 
 ANIL HZ EP       1032 37.65                             107    0.78 6  360 225 
 ANIL HN ES       1033 15.36                             107   -0.44 6  360 225 
 ORTC HZ EP       1032 40.71                             105   -0.29 6  398 216 
 ORTC HE ES       1033 23.05                             105   -0.10 6  398 216 
 ORTC HZ I        1033 28.98        14.1 0.44            104            398 216 
 CRJC HZ EP   9   1032 46.53                             102   -2.60 0  466   3 
 CRJC HN ES       1033 33.04                                   -1.97 5  466   3 
 CRJC HZ I        1033 41.72        13.4 0.20            101            466   3 
                                                                                
