 2011 11 6 1705 52.2 L   6.776 -73.133142.6  RSN  6 0.3 1.7LRSN                1
 GAP=139        0.67       3.8     5.4  5.8  0.1992E+01 -0.3105E+00 -0.4465E+01E
 Epicentro: LOS SANTOS - SANTANDER                                             3
 ACTION:UPD 12-07-13 16:08 OP:ep   STATUS:               ID:20111106170552 L   I
 2011-11-06-1704-21S.COL___175                                                 6
 STAT SP IPHASW D HRMM SECON CODA AMPLIT PERI AZIMU VELO AIN AR TRES W  DIS CAZ7
 BAR2 SZ EP       17 6 11.36                             171   -0.0910 21.1 195 
 BAR2 SZ ES   1   17 6 26.18                             171   -0.25 7 21.1 195 
 BAR2 SZ I        17 6 28.07        11.0 0.24                          21.1 195 
 BRR  HZ EP       17 6 13.32                             151    0.1210 73.7 300 
 BRR  HZ I        17 6 14.85        12.3 0.38                          73.7 300 
 BRR  HN ES   1   17 6 30.00                             151    0.45 7 73.7 300 
 PAM  SZ EP       17 6 14.32                             150    0.1210 78.6  38 
 PAM  SN ES   1   17 6 31.02                             150   -0.30 7 78.6  38 
 RUS  HZ EP       17 6 15.31                             144   -0.1810 97.9 177 
 RUS  HN ES   1   17 6 33.91                             144    0.29 7 97.9 177 
 RUS  HZ I        17 6 35.34         3.8 0.32                          97.9 177 
 OCA  SZ EP       17 6 20.74                             128    0.16 9  163 353 
 OCA  SZ I        17 6 46.68         6.9 0.53                           163 353 
 ZAR  HE ES   2   17 6 48.92                             121   -1.15 4  206 293 
 ZAR  HZ I        17 6 55.32         5.5 0.30                           206 293 
                                                                                
