 2013  3 6 1423  3.0 L   6.653 -73.231142.8  RSN  4 0.2 1.8LRSN                1
 GAP=188        0.59       5.4     4.9  5.7  0.1625E+02  0.1090E+02  0.1069E+02E
 Epicentro: BARICHARA - SANTANDER                                              3
 ACTION:UPD 13-04-09 14:00 OP:ep   STATUS:               ID:20130306142303 L   I
 2013-03-06-1418-51M.COL___205                                                 6
 STAT SP IPHASW D HRMM SECON CODA AMPLIT PERI AZIMU VELO AIN AR TRES W  DIS CAZ7
 BAR2 SZ EP   3   1423 21.65                             176   -0.38 2 8.59 141 
 BAR2 SZ ES       1423 36.52                             176   -0.3810 8.59 141 
 BAR2 SZ I        1423 37.54        14.1 0.14            176           8.59 141 
 BRR  HZ EP   3   1423 23.62                             151   -0.29 2 73.1 313 
 BRR  HN ES       1423 40.57                             151    0.3310 73.1 313 
 RUS  HZ EP       1423 25.44                             148    0.0510 85.6 169 
 RUS  HN ES       1423 43.09                             148    0.2110 85.6 169 
 PTB  HZ EP       1423 28.65                             134    0.01 9  136 265 
 PTB  HE ES       1423 48.48                             134   -0.19 9  136 265 
                                                                                
