 2011 12 6 1550 45.2 L   6.796 -73.172138.3  RSN  5 0.1 1.7LRSN                1
 GAP=179        0.29       2.2     4.7  3.2 -0.4185E+00  0.3377E+01  0.1355E+01E
 Epicentro: LOS SANTOS - SANTANDER                                             3
 ACTION:UPD 12-07-13 16:14 OP:ep   STATUS:               ID:20111206155045 L   I
 2011-12-06-1550-00M.COL___182                                                 6
 STAT SP IPHASW D HRMM SECON CODA AMPLIT PERI AZIMU VELO AIN AR TRES W  DIS CAZ7
 BAR2 SZ ES   1   1551 18.52                             170    0.03 7 22.5 183 
 BAR2 SZ I        1551 20.49        24.5 0.19                          22.5 183 
 GIR2 SZ EP   2   1551  4.13                             167    0.16 5 31.4 356 
 GIR2 SZ ES       1551 18.59                             167   -0.0310 31.4 356 
 RUS  HZ EP   1   1551  8.12                             142   -0.07 7  100 174 
 RUS  HN ES   1   1551 26.17                             142    0.03 7  100 174 
 RUS  HZ I        1551 27.83         3.8 0.29                           100 174 
 OCA  SZ EP   2   1551 12.95                             128    0.01 5  160 354 
 OCA  SZ I        1551 26.11         7.7 0.39                           160 354 
 NOR  SE ES   2   1551 47.51                             117    0.00 4  232 234 
                                                                                
