 2014  3 6 1955 19.3 L   6.749 -73.169142.0  RSN  5 0.3 1.7LRSN                1
 GAP=136        0.81       4.2     4.1  6.0 -0.1708E+01  0.3733E+01  0.5791E+00E
 Epicentro: VILLANUEVA - SANTANDER                                             3
 ACTION:UPD 14-04-09 23:15 OP:nd   STATUS:               ID:20140306195519 L   I
 OLDACT:REG 14-03-06 15:29 OP:stll STATUS:               ID:20140306194814     3
 2014-03-06-1948-14M.COL___242                                                 6
 STAT SP IPHASW D HRMM SECON CODA AMPLIT PERI AZIMU VELO AIN AR TRES W  DIS CAZ7
 BAR2 SZ ES       1955 52.88                             173   -0.3310 17.4 185 
 BAR2 SZ I        1955 54.21        15.9 0.28            174           17.4 185 
 BRR  HZ EP       1955 40.30                             152    0.2610 71.8 303 
 BRR  HN ES       1955 56.74                             152    0.4910 71.8 303 
 BRR  SZ I        1955 59.40        10.2 0.12            150           71.8 303 
 PAM  SZ EP       1955 41.21                             148   -0.2510 83.4  38 
 PAM  SN ES       1955 58.67                             148   -0.1010 83.4  38 
 PAM  SZ I        1956  0.51         7.5 0.62            150           83.4  38 
 RUS  HZ EP       1955 42.26                             145    0.0010 95.2 174 
 RUS  HN ES       1956  0.49                             145    0.2910 95.2 174 
 PTB  HZ EP       1955 45.69                             132    0.09 9  144 261 
 PTB  HN ES       1956  5.64                             132   -0.50 9  144 261 
 PTB  SZ I        1956  9.24         6.8 0.16            132            144 261 
                                                                                
