 2014  3 6 1812 59.3 L   6.777 -73.138141.7  RSN 10 0.5 1.9LRSN                1
 GAP=120        1.10       3.7     4.0  5.8 -0.2463E+01  0.2857E+01  0.2300E+01E
 Epicentro: LOS SANTOS - SANTANDER                                             3
 ACTION:UPD 14-04-09 23:15 OP:nd   STATUS:               ID:20140306181259 L   I
 OLDACT:REG 14-03-06 15:27 OP:stll STATUS:               ID:20140306180816     3
 2014-03-06-1808-16M.COL___244                                                 6
 STAT SP IPHASW D HRMM SECON CODA AMPLIT PERI AZIMU VELO AIN AR TRES W  DIS CAZ7
 BAR2 SZ IP     D 1813 18.51                             171    0.1510 21.0 193 
 BAR2 SZ ES       1813 33.45                             171    0.2010 21.0 193 
 BAR2 SZ I        1813 34.20        26.8 0.28            169           21.0 193 
 BRR  HZ IP     C 1813 20.29                             151    0.2010 73.1 300 
 BRR  HE ES       1813 36.81                             151    0.4810 73.1 300 
 BRR  SZ I        1813 41.32        17.6 0.14            150           73.1 300 
 PAM  SZ EP       1813 21.32                             150    0.1810 78.9  38 
 PAM  SN ES       1813 38.14                             150   -0.0610 78.9  38 
 PAM  SZ I        1813 39.27        11.0 0.18            154           78.9  38 
 RUS  HZ EP       1813 22.49                             144    0.0610 98.0 176 
 RUS  HN ES       1813 40.38                             144   -0.1210 98.0 176 
 RUS  SZ I        1813 43.06         6.2 0.86            144           98.0 176 
 PTB  HZ EP       1813 25.66                             131   -0.27 9  148 260 
 PTB  HN ES       1813 45.41                             131   -1.32 9  148 260 
 PTB  SZ I        1813 49.72         8.3 0.10            131            148 260 
 SPBC HZ EP       1813 27.30                             128   -0.02 9  162 220 
 SPBC HN ES       1813 49.13                             128   -0.06 9  162 220 
 SPBC SZ I        1813 52.10        12.8 0.12            128            162 220 
 ZAR  HZ EP       1813 32.16                             121    0.53 8  206 293 
 ZAR  HN ES       1813 56.91                             121    0.04 8  206 293 
 ZAR  SZ I        1814  3.26        16.0 0.42            122            206 293 
 NOR  HZ EP       1813 35.10                             118    0.42 8  234 235 
 NOR  HE ES       1814  2.32                             118    0.03 8  234 235 
 NOR  SZ I        1814  8.00         4.5 1.02            118            234 235 
 CHI  HZ EP       1813 36.84                             116    0.34 8  246 196 
 CHI  HN ES       1814  5.59                             116    0.05 8  246 196 
 CHI  HZ I        1814 13.94         2.0 0.34            117            246 196 
 SOCV BZ EP       1813 41.05                             111   -1.16 7  302  56 
                                                                                
