 2010 10 6 1025 41.7 L   6.736 -73.070138.0  RSN  5 0.6 1.8LRSN                1
 GAP=211        1.63      13.1    21.0 22.0 -0.1326E+03 -0.2521E+03  0.1204E+03E
 Epicentro: JORDAN - SANTANDER                                                 3
 ACTION:UP  11-02-18 11:08 OP:tino STATUS:               ID:20101006102541 L   I
 2010-10-06-1021-12S.COL___121                                                 6
 STAT SP IPHASW D HRMM SECON CODA AMPLIT PERI AZIMU VELO SNR AR TRES W  DIS CAZ7
 BAR2 SZ EP       1026  0.09                             171    -0.310   20 218 
 BAR2 SZ I        1026 16.85        12.3 1.02                            20 218 
 BRR  HZ EP       1026  2.12                             148    -0.610   82 300 
 BRR  HN ES       1026 19.35                             148     0.310   82 300 
 BRR  HZ I        1026 20.88        12.0 0.59                            82 300 
 GUE  SZ EP       1026  7.12                             137     0.910  122   8 
 OCA  SZ EP   1   1026  9.07                             127    -1.2 7  168 351 
 OCA  SZ ES   1   1026 32.46                             127     0.0 7  168 351 
 OCA  SZ I        1026 36.08         7.3 0.04                           168 351 
 RREF HZ EP   1   1026 28.35                             110     0.6 5  324 231 
 RREF HN ES   2   1027  4.37                             110     0.7 3  324 231 
 RREF HZ I        1027 12.31         3.8 0.27                           324 231 
                                                                                
