 2010  3 6 1734 44.5 L   6.778 -73.029145.3  RSN  8 0.4 2.1LRSN                1
 GAP=248        0.71       4.6     6.8  5.8  0.9708E+01  0.9825E+01  0.1209E+02E
 Epicentro: CEPITA - SANTANDER                                                 3
 ACTION:UP  10-08-24 09:52 OP:vdl  STATUS:               ID:20100306173444 L   I
 2010-03-06-1733-50S.COL___101                                                 6
 STAT SP IPHASW D HRMM SECON CODA AMPLIT PERI AZIMU VELO SNR AR TRES W  DIS CAZ7
 BAR2 SZ EP       1735  4.24                             169     0.110   27 220 
 BAR2 SZ ES   2   1735 18.85                             169    -0.6 5   27 220 
 BRR  HZ EP       1735  6.21                             148    -0.110   84 296 
 BRR  HZ I        1735 12.10        17.8 0.11                            84 296 
 BRR  HN ES       1735 23.48                             148     0.110   84 296 
 RUS  BZ EP       1735  8.03                             144     0.010   98 184 
 RUS  BE ES   1   1735 26.32                             144     0.0 7   98 184 
 RUS  BZ I        1735 27.77        15.6 0.28                            98 184 
 CHI  HZ EP       1735 22.27                             117     0.0 8  250 198 
 CHI  HE ES   2   1735 52.27                             117     0.5 4  250 198 
 CHI  HZ I        1735 59.05         5.0 0.55                           250 198 
 RREF BZ EP       1735 32.32                             110     0.8 7  330 231 
 RREF BN ES   2   1736  8.72                             110     0.5 3  330 231 
 RREF BZ I        1736 14.10         6.8 0.20                           330 231 
 TOL  SZ EP   1   1735 33.09                             109    -0.5 5  351 226 
 TOL  SZ ES   2   1736 11.06                             109    -0.8 3  351 226 
 DBB  SZ EP   1   1735 33.06                             109    -0.4 5  353 275 
 PRA  HZ EP   1   1735 37.69                             106    -0.8 4  396 211 
 PRA  HE ES   1   1736 20.48                             106    -0.1 4  396 211 
 PRA  HZ I        1736 26.12         5.1 0.52                           396 211 
                                                                                
