 2016  2 6 1517 22.0 L   7.431 -73.179133.9  RSN  6 0.2 1.8LRSN                1
 GAP=111        0.59       2.5     2.9  5.1 -0.6541E+00  0.6622E+01 -0.2275E+01E
 Epicentro: EL PLAYON - SANTANDER                                              3
 ACTION:UPD 16-03-04 21:23 OP:rebc STATUS:               ID:20160206151722 L   I
 OLDACT:REG 16-02-06 22:06 OP:cara STATUS:               ID:20160206150749     3
 2016-02-06-1507-49M.COL___334                                                 6
 STAT SP IPHASW D HRMM SECON CODA AMPLIT PERI AZIMU VELO AIN AR TRES W  DIS CAZ7
 PAM  EZ IP     C 1517 42.08                             157    0.4210 53.9 101 
 PAM  EN ES       1517 56.96                             157   -0.0310 53.9 101 
 PAM  EZ I        1518  0.35         5.7 0.38            161           53.9 101 
 OCA  HZ EP       1517 43.35                             144   -0.0510 90.6 350 
 OCA  HN ES       1518  0.14                             144    0.0610 90.6 350 
 OCA  HZ I        1518  2.21        18.8 0.42            146           90.6 350 
 BAR2 EZ EP       1517 43.67                             143   -0.0010 92.8 180 
 BAR2 EZ ES       1518  0.28                             143   -0.2910 92.8 180 
 BAR2 EZ I        1518  1.06        10.9 0.36            147           92.8 180 
 PTB  HN ES       1518 12.67                             124    0.09 9  172 235 
 PTB  HZ I        1518 14.72         3.2 0.30            127            172 235 
 SML  HZ EP       1517 50.82                             123   -0.43 9  181 327 
 SML  HN ES   4   1518 12.69                             123   -1.36 0  181 327 
 SML  HZ I        1518 15.03        12.1 0.10            126            181 327 
 ZAR  HZ EP       1517 51.83                             122    0.07 9  185 272 
 ZAR  HN ES       1518 15.10                             122    0.13 9  185 272 
 ZAR  HZ I        1518 18.36         8.9 0.26            125            185 272 
                                                                                
