 2012 12 6 1527 59.7 L   6.738 -73.575100.4  RSN  4 0.2 1.4LRSN                1
 GAP=170        0.47       3.4     2.3  4.5  0.4928E+01  0.2255E+01 -0.2150E+01E
 Epicentro: EL CARMEN DE CHUCURI - SANTANDER                                   3
 ACTION:UPD 13-01-04 14:26 OP:ep   STATUS:               ID:20121206152759 L   I
 2012-12-06-1520-00M.COL___232                                                 6
 STAT SP IPHASW D HRMM SECON CODA AMPLIT PERI AZIMU VELO AIN AR TRES W  DIS CAZ7
 BAR2 SZ EP       1528 14.87                             153    0.0010 46.3 110 
 BAR2 SZ ES       1528 26.63                             153   -0.0810 46.3 110 
 BAR2 SZ I        1528 28.39         9.1 0.28                          46.3 110 
 PTB  HZ EP       1528 18.25                             131   -0.3610 99.9 257 
 PTB  HN ES       1528 33.46                             131    0.0810 99.9 257 
 PTB  HN I        1528 34.75         8.4 0.22                          99.9 257 
 RUS  HZ EP       1528 20.06                             129    0.0410  108 150 
 RUS  HN ES       1528 36.01                             129    0.1310  108 150 
 RUS  HN I        1528 40.04         2.5 0.26                           108 150 
 ZAR  HZ EP       1528 25.39                             116    0.19 9  164 301 
 ZAR  HN ES       1528 45.17                             116    0.05 9  164 301 
 ZAR  HN I        1528 47.80         6.8 0.14                           164 301 
                                                                                
