 2014 11 6 1609 31.7 L   6.778 -73.175141.6  RSN  4 0.1 1.5LRSN                1
 GAP=134        0.40       2.4     2.4  4.6 -0.1875E+01  0.4270E+01 -0.2068E+01E
 Epicentro: LOS SANTOS - SANTANDER                                             3
 ACTION:UPD 14-12-19 15:40 OP:nd   STATUS:               ID:20141106160931 L   I
 OLDACT:UP  14-11-06 23:31 OP:cam  STATUS:               ID:20141106160818     3
 OLDACT:REG 14-11-06 22:11 OP:cam  STATUS:               ID:20141106160818     3
 2014-11-06-1608-18M.COL___286                                                 6
 STAT SP IPHASW D HRMM SECON CODA AMPLIT PERI AZIMU VELO AIN AR TRES W  DIS CAZ7
 BRR  HZ EP       16 9 52.49                             152    0.1810 69.6 302 
 PAM  SZ EP     D 16 9 53.67                             149   -0.0510 81.3  40 
 PAM  SN ES       1610 10.85                             149   -0.0410 81.3  40 
 PAM  SN I        1610 12.10         8.4 0.46            155           81.3  40 
 RUS  HZ EP   1   16 9 55.05                             144    0.17 7 98.4 174 
 RUS  HE ES       1610 12.93                             144   -0.0410 98.4 174 
 RUS  HE I        1610 15.01         4.8 0.22            148           98.4 174 
 PTB  HZ EP       16 9 57.79                             132   -0.21 9  144 260 
 PTB  HN ES       1610 18.54                             132    0.03 9  144 260 
 PTB  HZ I        1610 26.00         3.5 0.28            133            144 260 
                                                                                
