 2017  8 6 1012 58.1 L   6.823 -73.140153.5  RSN 30 0.5 2.7LRSN                1
 GAP= 66        1.09       3.2     3.0  4.7  0.5409E+00  0.3519E+01  0.6997E+00E
 Epicentro: LOS SANTOS - SANTANDER                                             3
 ACTION:UPD 17-09-04 20:17 OP:rebc STATUS:               ID:20170806101258 L   I
 OLDACT:UP  17-08-06 21:45 OP:edw  STATUS:               ID:20170806100740     3
 OLDACT:UP  17-08-06 21:26 OP:edw  STATUS:               ID:20170806100740     3
 OLDACT:REG 17-08-06 20:20 OP:edw  STATUS:               ID:20170806100740     3
 2017-08-06-1008-00M.COL___386                                                 6
 STAT SP IPHASW D HRMM SECON CODA AMPLIT PERI AZIMU VELO AIN AR TRES W  DIS CAZ7
 BAR2 EZ IP     D 1013 18.55                             170   -0.1410 26.0 190 
 BAR2 EZ ES       1013 34.39                             170   -0.3810 26.0 190 
 BAR2 EZ I        1013 35.07       317.6 0.14            167           26.0 190 
 BRR  HZ IP     C 1013 20.41                             154    0.3710 70.6 296 
 BRR  HN ES       1013 37.87                             154    0.7010 70.6 296 
 BRR  HZ I        1013 40.86        78.8 0.28            152           70.6 296 
 PAM  EZ EP     C 1013 21.32                             152    0.3310 75.0  40 
 PAM  EN ES       1013 38.83                             152   -0.0310 75.0  40 
 PAM  EZ I        1013 40.81        66.0 0.46            156           75.0  40 
 RUS  HZ EP     D 1013 22.46                             144   -0.3110  103 177 
 RUS  HN ES       1013 40.80                             144   -1.2410  103 177 
 RUS  HZ I        1013 42.35       124.1 0.42            144            103 177 
 PTB  HZ EP   9   1013 25.31                             133   -0.48 0  149 258 
 PTB  HN ES       1013 46.39                             133   -0.53 9  149 258 
 PTB  HZ I        1013 53.85        44.9 0.44            131            149 258 
 TAM  HZ EP     D 1013 26.79                             132    0.40 9  155 106 
 TAM  HN ES       1013 48.60                             132    0.14 9  155 106 
 TAM  HZ I        1013 49.75        27.8 0.22            134            155 106 
 SPBC HZ EP       1013 27.52                             130    0.11 9  166 219 
 SPBC HN ES       1013 50.47                             130    0.19 9  166 219 
 SPBC HZ I        1013 52.38        99.9 0.12            129            166 219 
 YPLC HZ IP     D 1013 28.76                             128    0.13 9  179 152 
 YPLC HN ES       1013 52.95                             128    0.49 9  179 152 
 YPLC HZ I        1014  1.71        20.5 0.26            128            179 152 
 ZAR  HZ EP       1013 31.31                             124    0.30 9  204 291 
 ZAR  HN ES       1013 56.55                             124   -0.14 9  204 291 
 ZAR  HZ I        1014  2.59        51.2 0.30            123            204 291 
 TABC EZ EP   4   1013 36.44                             120    1.87 0  232 211 
 TABC EZ ES   4   1014  5.97                             120    2.94 0  232 211 
 TABC EZ I        1014 11.29        70.0 0.40            120            232 211 
 NOR  HZ EP       1013 34.56                             120    0.08 8  237 234 
 NOR  HN ES       1014  2.77                             120   -0.11 8  237 234 
 NOR  HZ I        1014  6.91        38.2 0.36            119            237 234 
 CHI  HZ EP       1013 36.67                             118    0.17 8  251 195 
 CHI  HN ES   4   1014  5.76                             118   -0.71 0  251 195 
 CHI  HZ I        1014 11.14        20.9 0.26            118            251 195 
 ROSC BZ EP   4   1013 38.75                             118    1.84 0  255 211 
 ROSC BN ES   4   1014  9.01                             118    1.82 0  255 211 
 ROSC BZ I        1014 16.34        58.1 0.40            117            255 211 
 HEL  HZ EP   4 C 1013 40.64                             116    1.80 0  273 255 
 HEL  HN ES   4   1014  9.82                             116   -0.81 0  273 255 
 HEL  HZ I        1014 16.61        26.4 0.32            115            273 255 
 URE  HZ EP       1013 38.66                             115   -0.84 7  283 291 
 URE  HN ES   4   1014  9.35                             115   -2.46 0  283 291 
 URE  HZ I        1014 21.07        31.2 0.18            114            283 291 
 GUY2CHZ EP   4   1013 43.65                             113    1.37 0  303 234 
 GUY2CHN ES   4   1014 19.08                             113    2.32 0  303 234 
 GUY2CHZ I        1014 30.46        22.0 0.58                           303 234 
 PTGC HZ IP   9 D 1013 41.42                             112   -1.11 0  311 159 
 PTGC HN ES       1014 15.05                             113   -1.04 7  311 159 
 PTGC HZ I        1014 21.66        12.4 0.24            113            311 159 
 LL6C HZ EP       1013 43.03                             112   -0.80 7  322 357 
 LL6C HN ES   4   1014 16.08                             112   -3.44 0  322 357 
 LL6C HZ I        1014 22.18        13.1 0.60            112            322 357 
 DBB  EZ EP       1013 46.59                             111    0.66 7  340 274 
 DBB  EN ES       1014 22.62                             111   -0.64 7  340 274 
 DBB  EZ I        1014 26.53        13.9 0.24            110            340 274 
 ARGC HZ EP   4   1013 48.63                             109    0.84 0  357 340 
 ARGC HN ES   4   1014 28.34                             109    1.78 0  357 340 
 ARGC HZ I        1014 34.38         7.7 0.26            110            357 340 
 PRA  HZ EP       1013 52.06                             107   -0.11 6  395 209 
 PRA  HN ES       1014 34.81                             107    0.45 6  395 209 
 PRA  HZ I        1014 40.25        36.1 0.24            107            395 209 
 ORTC HZ EP       1013 52.80                             107    0.24 6  398 216 
 ORTC HN ES       1014 35.70                             107    0.65 6  398 216 
 ORTC HZ I        1014 43.04        16.9 0.42            107            398 216 
 SJC  HZ EP     C 1013 52.71                             107   -0.99 6  407 327 
 SJC  HN ES   4   1014 33.66                             107   -3.42 0  407 327 
 SJC  HZ I        1014 41.07         7.4 0.30            107            407 327 
 PAL  HZ EP       1013 54.03                             107    0.31 6  408 239 
 PAL  HN ES   4   1014 36.31                             107   -0.82 0  408 239 
 PAL  HZ I        1014 42.33         8.3 0.24            106            408 239 
 LCBC HZ EP   4   1014  6.71                             106   11.51 0  421 302 
 LCBC HN ES   4   1014 40.78                             106    1.02 0  421 302 
 YOT  HZ EP   4   1014  0.50                             104   -1.10 0  474 229 
 YOT  HN ES   3   1014 52.19                             104    1.04 1  474 229 
 SMAR HZ EP   2   1014  3.74                             103   -0.14 2  495 346 
 SMAR HN ES   4   1014 51.76                             103   -3.45 0  495 346 
 SMAR HZ I        1014 58.04         6.8 0.46            104            495 346 
 MACC HZ EP   4   1014  5.69                             102   -1.61 0  523 189 
 MACC HN ES   4   1014 55.36                             102   -5.93 0  523 189 
 MACC HZ I        1015  5.38         3.9 0.40            102            523 189 
 URI  HZ EP   4   1014  9.01                             101   -1.94 0  554  13 
 URI  HN ES   4   1015  4.58                             101   -3.21 0  554  13 
 JAMC HZ EP   2   1014 11.32                             101   -0.53 2  559 225 
 GARC HZ EP   4   1014 12.19                             101   -1.63 0  575 207 
 GARC HN ES   4   1015  8.28                             101   -4.61 0  575 207 
 GARC HZ I        1015 13.23         9.0 0.18            101            575 207 
 POP2 HZ EP       1014 17.74                             100   -0.80 3  615 220 
 POP2 HE ES   4   1015 17.06                             100   -4.24 0  615 220 
                                                                                
