 2014  7 6 1845 54.3 L   6.793 -73.129142.2  RSN 13 0.4 1.9LRSN                1
 GAP=202        0.96       2.8     4.3  5.5  0.6994E+00  0.3382E+01  0.2247E+01E
 Epicentro: LOS SANTOS - SANTANDER                                             3
 ACTION:UPD 15-03-16 20:41 OP:nd   STATUS:               ID:20140706184554 L   I
 OLDACT:REG 14-07-06 20:36 OP:spq  STATUS:               ID:20140706183818     3
 2014-07-06-1838-18M.COL___265                                                 6
 STAT SP IPHASW D HRMM SECON CODA AMPLIT PERI AZIMU VELO AIN AR TRES W  DIS CAZ7
 BAR2 SZ EP       1846 13.96                             170    0.4910 23.0 195 
 BAR2 SZ ES   1   1846 27.82                             170   -0.62 7 23.0 195 
 BAR2 SZ I        1846 30.62        14.7 0.26            166           23.0 195 
 BRR  HZ IP     C 1846 15.89                             151    0.7310 73.2 298 
 BRR  HE ES       1846 31.84                             151    0.4010 73.2 298 
 BRR  HZ I        1846 35.54        11.8 0.32            149           73.2 298 
 RUS  HZ EP       1846 17.04                             143   -0.5810 99.7 177 
 RUS  HN ES   1   1846 35.82                             143    0.01 7 99.7 177 
 RUS  HZ I        1846 38.15         5.8 0.26            143           99.7 177 
 PTB  HZ EP       1846 20.82                             131   -0.29 9  149 259 
 PTB  HN ES       1846 41.52                             131   -0.52 9  149 259 
 PTB  HZ I        1846 44.43         7.4 0.16            130            149 259 
 SPBC HZ EP       1846 22.78                             128    0.22 9  164 220 
 SPBC HN ES       1846 44.86                             128    0.24 9  164 220 
 SPBC HZ I        1846 49.97         9.3 0.20            128            164 220 
 ZAR  HZ EP       1846 26.63                             121   -0.07 8  206 292 
 ZAR  HN ES       1846 51.38                             121   -0.61 8  206 292 
 ZAR  HZ I        1846 57.28         4.9 0.26            122            206 292 
 SML  HZ EP       1846 31.14                             116    0.27 8  245 335 
 SML  HN ES       1846 59.33                             116   -0.08 8  245 335 
 SML  HZ I        1847  1.25         7.4 0.18            118            245 335 
 CHI  HZ EP       1846 31.28                             116   -0.48 8  248 196 
 CHI  HN ES       1847  1.06                             116    0.08 8  248 196 
 CHI  HZ I        1847  7.12         3.1 0.41            117            248 196 
 HEL  HN ES       1847  5.97                             114    0.11 8  274 256 
 HEL  HZ I        1847 14.38         3.5 0.34            114            274 256 
 GUY2CHZ EP   1   1846 37.47                             112   -0.38 5  302 235 
 GUY2CHN ES       1847 12.28                             112    0.45 7  302 235 
 GUY2CHZ I        1847 20.50         3.8 0.62                           302 235 
 RREF HZ EP       1846 39.97                             110   -0.41 7  323 230 
 RREF HN ES       1847 16.03                             110   -0.30 7  323 230 
 RREF HZ I        1847 21.26         3.5 0.28            111            323 230 
 TOL  SN ES       1847 20.94                             109    0.86 7  344 225 
 TOL  SZ I        1847 30.51         6.6 0.30            109            344 225 
 PRA  HZ EP       1846 47.90                             106    0.19 6  392 210 
 PRA  HN ES       1847 29.27                             106   -0.11 6  392 210 
 PRA  HZ I        1847 36.38         3.9 0.42            107            392 210 
                                                                                
