 2012 11 6 1736 42.1 L   6.826 -73.131147.7  RSN  6 0.4 2.1LRSN                1
 GAP=241        0.68       4.8     6.8  6.5  0.1624E+02  0.1283E+02  0.1233E+02E
 Epicentro: LOS SANTOS - SANTANDER                                             3
 ACTION:UPD 12-12-05 15:31 OP:}ep  STATUS:               ID:20121106173642 L   I
 2012-11-06-1730-00M.COL___230                                                 6
 STAT SP IPHASW D HRMM SECON CODA AMPLIT PERI AZIMU VELO AIN AR TRES W  DIS CAZ7
 BAR2 SZ EP       1737  1.96                             169   -0.0510 26.5 192 
 BAR2 SZ ES   1   1737 17.13                             169   -0.42 7 26.5 192 
 BAR2 SZ I        1737 17.91        15.8 0.26                          26.5 192 
 BRR  HZ EP   1   1737  3.89                             153    0.44 7 71.4 296 
 BRR  HN ES   1   1737 20.69                             153    0.58 7 71.4 296 
 BRR  HN I        1737 21.29        28.0 0.32                          71.4 296 
 RUS  HZ EP   1   1737  6.05                             143   -0.17 7  103 177 
 RUS  HN ES   1   1737 25.13                             143    0.08 7  103 177 
 RUS  HN I        1737 26.28        16.0 0.32                           103 177 
 ZAR  HN ES   1   1737 39.47                             123   -0.67 6  205 291 
 ZAR  HN I        1737 48.08        11.9 0.14                           205 291 
 CHI  HZ EP   1   1737 20.06                             117   -0.17 6  252 195 
 CHI  HN ES   1   1737 49.96                             117   -0.03 6  252 195 
 PRA  HZ EP   1   1737 36.23                             107    0.18 4  395 210 
 PRA  HN ES   1   1738 18.51                             107    0.36 4  395 210 
 PRA  HN I        1738 23.88         3.4 0.34                           395 210 
                                                                                
