 2016  1 6 1200 36.7 L   6.805 -73.160148.6  RSN 14 0.4 2.3LRSN                1
 GAP=118        0.95       2.3     3.4  4.6  0.4750E-01  0.1390E+01  0.8113E+00E
 Epicentro: LOS SANTOS - SANTANDER                                             3
 ACTION:UPD 16-03-09 23:23 OP:cam  STATUS:               ID:20160106120036 L   I
 OLDACT:UP  16-02-01 09:16 OP:mHER STATUS:               ID:20160106120036 L   3
 OLDACT:REG 16-01-06 20:57 OP:ar   STATUS:               ID:20160106115748     3
 2016-01-06-1157-48M.COL___286                                                 6
 STAT SP IPHASW D HRMM SECON CODA AMPLIT PERI AZIMU VELO AIN AR TRES W  DIS CAZ7
 BAR2 EZ EP       12 0 56.79                             171    0.0910 23.6 186 
 BAR2 EZ ES       12 1 11.99                             171   -0.2910 23.6 186 
 BAR2 EZ I        12 1 13.33        54.9 0.26            169           23.6 186 
 BRR  HZ IP     C 12 0 58.49                             154    0.4110 69.5 299 
 BRR  HN ES       12 1 15.62                             154    0.8710 69.5 299 
 BRR  HZ I        12 1 19.73        33.2 0.38            150           69.5 299 
 PAM  EZ EP       12 0 59.63                             151    0.3610 78.0  41 
 PAM  EN ES       12 1 16.66                             151   -0.2110 78.0  41 
 PAM  EZ I        12 1 18.79        33.4 0.58            155           78.0  41 
 RUS  HZ EP       12 1  0.65                             144   -0.1510  101 175 
 RUS  HN ES       12 1 19.55                             144   -0.0310  101 175 
 RUS  HZ I        12 1 20.25        15.1 0.32            146            101 175 
 PTB  HZ EP       12 1  3.62                             133   -0.17 9  146 259 
 PTB  HN ES       12 1 24.29                             133   -0.61 9  146 259 
 PTB  HZ I        12 1 29.96        19.8 0.16            131            146 259 
 OCA  HZ EP       12 1  4.77                             130   -0.41 9  160 354 
 OCA  HN ES       12 1 27.09                             130   -0.30 9  160 354 
 OCA  HZ I        12 1 35.05        42.7 0.44            131            160 354 
 SPBC HZ EP       12 1  5.77                             130    0.39 9  163 218 
 SPBC HN ES       12 1 27.57                             130   -0.17 9  163 218 
 SPBC HZ I        12 1 31.88        26.9 0.14            130            163 218 
 ZAR  HZ EP       12 1  9.60                             123    0.42 9  202 292 
 ZAR  HN ES       12 1 34.29                             123   -0.20 9  202 292 
 ZAR  HZ I        12 1 41.52        21.9 0.42            122            202 292 
 NOR  HZ EP       12 1 12.69                             119    0.18 8  234 234 
 NOR  HN ES       12 1 40.10                             119   -0.33 8  234 234 
 NOR  HZ I        12 1 46.55        10.2 0.24            119            234 234 
 SML  HZ EP       12 1 13.08                             118   -0.30 8  243 336 
 SML  HE ES       12 1 42.19                             118    0.21 8  243 336 
 SML  HZ I        12 1 43.82        31.1 0.28            119            243 336 
 CHI  HZ EP       12 1 14.93                             118    0.34 8  249 195 
 CHI  HN ES       12 1 44.29                             118    0.16 8  249 195 
 CHI  HZ I        12 1 47.67        11.2 0.62            119            249 195 
 ROSC BZ EP   9   12 1 17.23                             117    2.27 0  252 211 
 ROSC BN ES       12 1 47.49                             117    0.44 8  252 211 
 ROSC BZ I        12 1 51.30        24.3 0.40            118            252 211 
 URE  HZ EP   4   12 1 21.34                             114    3.60 0  282 292 
 URE  HE ES   4   12 1 47.71                             114   -2.02 0  282 292 
 URE  HZ I        12 2  0.57        13.6 0.16            114            282 292 
 PTGC HZ EP       12 1 19.88                             112   -0.95 7  310 158 
 PTGC HE ES       12 1 55.62                             112    0.39 7  310 158 
                                                                                
