 2013  3 6 1844 48.1 L   6.819 -73.145148.3  RSN 16 0.5 3.0LRSN 3.2WRSN        1
 SPEC AVERAGE  MO 13.9 ST 11.0 OM  2.2 f0 4.09 R0.3796 AL 2.30 WI 27.4 MW  3.2 3
 SPEC SD       MO  0.3 ST 10.0 OM  0.4 f00.930 R0.0944 AL      WI      MW  0.2 3
 GAP= 70        1.18       2.8     3.9  5.3 -0.1869E+01  0.1889E+01  0.1257E+00E
 Epicentro: LOS SANTOS - SANTANDER                                             3
 SPEC PTB HH N MO 14.0 ST  5.7 OM  2.3 f0 3.41 R0.4311 AL 1.26 WI 29.7 MW  3.3 3
 SPEC PTB HH N T184535 K 0.000 GD  209 VS 4.20 DE 3.20 Q0300.0 QA 0.60 VS 4.20 3
 SPEC RUS HH N MO 13.7 ST  2.1 OM  2.0 f0 3.23 R0.4551 AL 2.21 WI 18.7 MW  3.0 3
 SPEC RUS HH N T184530 K 0.000 GD  180 VS 4.20 DE 3.20 Q0300.0 QA 0.60 VS 4.20 3
 SPEC PRA HH N MO 13.7 ST  3.1 OM  1.7 f0 3.51 R0.4188 AL 2.16 WI 20.3 MW  3.1 3
 SPEC PRA HH N T184622 K 0.000 GD  420 VS 4.20 DE 3.20 Q0300.0 QA 0.60 VS 4.20 3
 SPEC NOR HH E MO 14.2 ST 27.6 OM  2.4 f0 4.86 R0.3025 AL 2.87 WI 32.3 MW  3.4 3
 SPEC NOR HH E T184551 K 0.000 GD  278 VS 4.20 DE 3.20 Q0300.0 QA 0.60 VS 4.20 3
 SPEC NOR HH Z MO 13.9 ST 23.5 OM  1.3 f0 5.92 R0.2483 AL 2.58 WI 28.2 MW  3.2 3
 SPEC NOR HH Z T184523 K 0.000 GD  278 VP 7.60 DE 3.20 Q0300.0 QA 0.60 VS 4.20 3
 SPEC OCA HH N MO 14.2 ST 24.2 OM  2.5 f0 4.68 R0.3141 AL 2.34 WI 38.3 MW  3.4 3
 SPEC OCA HH N T184539 K 0.000 GD  216 VS 4.20 DE 3.20 Q0300.0 QA 0.60 VS 4.20 3
 SPEC PAM SH N MO 13.4 ST  3.0 OM  1.8 f0 4.34 R0.3387 AL 2.78 WI 25.0 MW  2.9 3
 SPEC PAM SH N T184527 K 0.000 GD  166 VS 4.20 DE 3.20 Q0300.0 QA 0.60 VS 4.20 3
 SPEC COD HH E MO 13.6 ST  3.6 OM  1.6 f0 4.12 R0.3568 AL 1.79 WI 30.7 MW  3.0 3
 SPEC COD HH E T184613 K 0.000 GD  376 VS 4.20 DE 3.20 Q0300.0 QA 0.60 VS 4.20 3
 SPEC CHI HH N MO 13.9 ST  1.5 OM  2.0 f0 2.46 R0.5976 AL 1.95 WI 28.4 MW  3.2 3
 SPEC CHI HH N T184555 K 0.000 GD  291 VS 4.20 DE 3.20 Q0300.0 QA 0.60 VS 4.20 3
 SPEC BRR HH N MO 14.1 ST 15.3 OM  2.5 f0 4.41 R0.3333 AL 3.04 WI 22.5 MW  3.4 3
 SPEC BRR HH N T184527 K 0.000 GD  164 VS 4.20 DE 3.20 Q0300.0 QA 0.60 VS 4.20 3
 ACTION:UPD 13-04-09 14:00 OP:ep   STATUS:               ID:20130306184448 L   I
 2013-03-06-1838-50M.COL___199                                                 6
 STAT SP IPHASW D HRMM SECON CODA AMPLIT PERI AZIMU VELO AIN AR TRES W  DIS CAZ7
 BAR2 SZ IP       1845  8.22                             170    0.1410 25.4 189 
 BAR2 SZ ES       1845 23.22                             170   -0.4410 25.4 189 
 BAR2 SZ I        1845 25.11       137.4 0.42            169           25.4 189 
 BRR  HZ IP     C 1845 10.12                             153    0.6510 70.3 297 
 BRR  HE ES       1845 27.03                             153    0.8810 70.3 297 
 BRR  HN I        1845 28.64       219.5 0.22            148           70.3 297 
 PAM  SZ IP     D 1845 11.05                             152    0.5610 75.8  41 
 PAM  SE ES       1845 27.26                             152   -0.7010 75.8  41 
 PAM  SN I        1845 29.39        97.4 0.46            151           75.8  41 
 RUS  HZ IP     C 1845 12.12                             144   -0.1310  103 176 
 RUS  HN ES       1845 30.84                             144   -0.2510  103 176 
 RUS  HE I        1845 32.79        97.5 0.26            143            103 176 
 PTB  HZ EP       1845 14.73                             132   -0.59 9  148 258 
 PTB  HN ES       1845 36.22                             132   -0.33 9  148 258 
 PTB  HE I        1845 43.43       145.6 0.30            129            148 258 
 TAM  HZ IP     D 1845 16.37                             131    0.35 9  156 106 
 TAM  HZ I        1845 16.54        65.3 0.34            131            156 106 
 OCA  HZ EP       1845 16.65                             131    0.23 9  158 353 
 OCA  HN ES       1845 39.33                             131    0.82 9  158 353 
 OCA  HE I        1845 44.29       147.8 0.16            128            158 353 
 ZAR  HN ES       1845 45.55                             123   -0.47 9  203 292 
 NOR  HZ EP       1845 24.14                             119    0.03 8  236 234 
 NOR  HE ES       1845 52.51                             119    0.31 8  236 234 
 NOR  HN I        1845 57.19       104.3 0.16            116            236 234 
 SML  HZ EP       1845 24.65                             118   -0.02 8  242 335 
 SML  HN ES       1845 52.72                             118   -0.47 8  242 335 
 CHI  HZ EP       1845 26.39                             117    0.23 8  251 195 
 CHI  HN ES       1845 55.47                             117   -0.37 8  251 195 
 CHI  HE I        1846  0.52        37.3 0.26            116            251 195 
 RREF HZ EP       1845 35.39                             111    0.88 7  323 229 
 RREF HE ES       1846 10.60                             111   -0.11 7  323 229 
 RREF HZ I        1846 19.19        30.3 0.24            109            323 229 
 COD  HZ EP       1845 35.82                             109   -0.52 6  346 355 
 COD  HN ES       1846 13.61                             109   -0.36 6  346 355 
 SDV  BZ EP       1845 37.44                             109   -0.64 6  359  50 
 PRA  HZ EP       1845 42.09                             107    0.17 6  394 209 
 PRA  HN ES       1846 23.98                             107    0.08 6  394 209 
 SJC  HN EP       1845 42.25                             106   -1.29 6  408 327 
 SJC  HE I        1846 27.86       118.5 0.42            104            408 327 
                                                                                
