 2011  8 6 1614 14.2 L   6.874 -73.088141.3  RSN  5 0.2 1.6LRSN                1
 GAP=249        0.40       4.4     6.1  4.9  0.8128E+01  0.4391E+01  0.2301E+00E
 Epicentro: LOS SANTOS - SANTANDER                                             3
 ACTION:UPD 12-07-25 14:06 OP:epov STATUS:               ID:20110806161414 L   I
 2011-08-06-1600-00M.COL___145                                                 6
 STAT SP IPHASW D HRMM SECON CODA AMPLIT PERI AZIMU VELO AIN AR TRES W  DIS CAZ7
 BAR2 SZ EP   1   1614 33.48                             166   -0.04 7 32.8 199 
 BAR2 SZ ES   1   1614 48.34                             166   -0.26 7 32.8 199 
 BAR2 SZ I        1614 50.62         9.7 0.30                          32.8 199 
 BRR  HZ EP       1614 35.04                             151    0.0410 73.6 291 
 BRR  HZ I        1614 42.63        20.2 0.39                          73.6 291 
 BRR  HN ES   2   1614 51.46                             151    0.22 5 73.6 291 
 RUS  HZ EP   2   1614 38.16                             141    0.06 5  108 180 
 RUS  HN ES   2   1614 57.22                             141    0.46 5  108 180 
 RUS  HZ I        1615  0.09         2.7 0.35                           108 180 
 NOR  SN ES   2   1615 19.10                             116   -0.16 4  245 234 
 CHI  HZ EP   2   1614 52.54                             115   -0.16 4  258 196 
 CHI  HZ I        1615 27.19         2.7 0.43                           258 196 
                                                                                
