 2011  7 6 1116  3.1 L   6.777 -73.160153.5  RSN  5 0.3 1.6LRSN                1
 GAP=154        0.58       3.7     9.0  6.6 -0.5353E+01 -0.5210E+01 -0.5067E+01E
 Epicentro: LOS SANTOS - SANTANDER                                             3
 ACTION:UPD 12-07-25 13:58 OP:epov STATUS:               ID:20110706111603 L   I
 2011-07-06-1112-09S.COL___123                                                 6
 STAT SP IPHASW D HRMM SECON CODA AMPLIT PERI AZIMU VELO AIN AR TRES W  DIS CAZ7
 BAR2 SZ EP   1   1116 23.09                             172   -0.49 7 20.6 187 
 BAR2 SZ ES   1   1116 39.24                             172   -0.34 7 20.6 187 
 BAR2 SZ I        1116 39.32         8.4 0.45                          20.6 187 
 BRR  HZ EP   1   1116 25.00                             154   -0.05 7 71.1 301 
 BRR  HZ I        1116 25.29        16.1 0.14                          71.1 301 
 BRR  HE ES   2   1116 42.51                             154    0.31 5 71.1 301 
 RUS  HZ EP   1   1116 27.47                             146    0.05 7 98.2 175 
 RUS  HN ES   1   1116 46.79                             146    0.37 7 98.2 175 
 RUS  HZ I        1116 49.19         3.4 0.22                          98.2 175 
 BRI  SZ EP   2   1116 27.78                             142   -0.14 5  111  21 
 GRA  SZ EP   1   1116 29.60                             138    0.35 7  129  18 
 GRA  SZ ES   1   1116 49.73                             138    0.07 7  129  18 
 GRA  SZ I        1116 51.45         6.5 0.31                           129  18 
                                                                                
