 2011  1 6 1104 43.4 L   6.809 -73.131147.6  RSN 13 0.4 4.5LRSN                1
 GAP=154        0.94       5.2     4.7  6.5 -0.3903E+01  0.8861E+01 -0.3914E+01E
 Epicentro: LOS SANTOS - SANTANDER                                             3
 Evento Sentido                                                                2
 Reportado como Sentido:                                                       3
 LOS SANTOS (SANTANDER), MEDELLIN (ANTIOQUIA)                                  3
 ACTION:UP  11-02-08 08:39 OP:pat  STATUS:               ID:20110106110443 L   I
 2011-01-06-1100-00M.COL___121                                                 6
 STAT SP IPHASW D HRMM SECON CODA AMPLIT PERI AZIMU VELO SNR AR TRES W  DIS CAZ7
 BAR2 SZ IP       11 5  3.64                             170     0.310   25 194 
 BAR2 SZ ES   1   11 5 18.94                             170     0.1 7   25 194 
 BAR2 SZ I        11 5 22.38      6283.1 0.73                            25 194 
 RUS  HZ IP       11 5  7.41                             144     0.010  102 177 
 RUS  HN ES   1   11 5 25.88                             144    -0.3 7  102 177 
 RUS  HZ I        11 5 28.97      3387.1 0.44                           102 177 
 YOP  SZ IP       11 5 14.09                             127     0.4 9  179 154 
 YOP  SZ I        11 5 14.71      1663.2 0.90                           179 154 
 YOP  SN ES   1   11 5 37.01                             127    -0.2 7  179 154 
 NOR  SZ IP       11 5 19.39                             119    -0.1 8  237 235 
 NOR  SN ES   1   11 5 47.73                             119     0.1 6  237 235 
 CHI  HZ IP       11 5 21.24                             117    -0.2 8  250 195 
 CHI  HN ES   1   11 5 51.13                             117     0.1 6  250 195 
 CHI  HZ I        11 5 59.78      2181.4 0.27                           250 195 
 ROSC BE ES   1   11 5 51.41                             117    -0.4 6  254 211 
 ROSC BZ I        11 5 58.33      4407.4 0.39                           254 211 
 HEL  HZ EP       11 5 23.62                             115    -0.3 8  274 256 
 HEL  HN ES   1   11 5 54.83                             115    -0.7 6  274 256 
 HEL  HZ I        11 6  2.35      1886.2 0.47                           274 256 
 VIL  SZ IP       11 5 26.55                             112    -0.3 7  303 190 
 VIL  SN ES   1   11 6  0.54                             112    -0.2 5  303 190 
 VIL  SZ I        11 6  8.11      1122.7 0.70                           303 190 
 GUY  SZ EP       11 5 28.04                             112     0.7 7  303 235 
 RREF HZ EP       11 5 30.85                             111     1.0 7  324 229 
 RREF HZ I        11 6 15.36      2508.9 0.37                           324 229 
 TOL  SZ EP       11 5 32.08                             109     0.1 6  345 225 
 SDV  BZ IP       11 5 32.74                             109    -0.6 6  358  50 
 SDV  BZ I        11 5 34.09       667.7 0.58                           358  50 
 PRA  HZ EP       11 5 36.47                             107    -0.7 6  394 210 
 PRA  HN ES   1   11 6 19.41                             107     0.2 4  394 210 
                                                                                
