 2014  1 6 1941 45.1 L   6.744 -73.146142.7  RSN  8 0.4 1.6LRSN                1
 GAP=139        1.11       4.1     5.1  6.7 -0.3999E+01  0.5964E+01  0.2823E+01E
 Epicentro: JORDAN - SANTANDER                                                 3
 ACTION:UPD 14-03-13 09:52 OP:ep   STATUS:               ID:20140106194145 L   I
 OLDACT:REG 14-01-06 16:02 OP:stll STATUS:               ID:20140106193814     3
 2014-01-06-1938-14M.COL___246                                                 6
 STAT SP IPHASW D HRMM SECON CODA AMPLIT PERI AZIMU VELO AIN AR TRES W  DIS CAZ7
 BAR2 SZ EP       1942  4.37                             173    0.1010 17.2 194 
 BAR2 SZ ES       1942 19.17                             173   -0.0410 17.2 194 
 BAR2 SZ I        1942 20.25        16.9 0.32            171           17.2 194 
 BRR  HZ EP       1942  6.36                             151    0.2410 74.3 303 
 BRR  HZ I        1942  6.58        13.9 0.26            152           74.3 303 
 BRR  HN ES       1942 23.30                             151    0.8010 74.3 303 
 PAM  SZ EP       1942  7.25                             149   -0.0610 82.3  37 
 PAM  SZ I        1942  7.57        10.6 0.24            150           82.3  37 
 PAM  SN ES       1942 24.24                             149   -0.3810 82.3  37 
 RUS  HZ EP       1942  8.85                             145    0.7210 94.4 176 
 RUS  HN ES       1942 25.71                             145   -0.3610 94.4 176 
 RUS  HZ I        1942 27.76         4.2 0.24            144           94.4 176 
 PTB  HZ EP       1942 11.47                             131   -0.27 9  147 261 
 PTB  HN ES       1942 31.85                             131   -0.65 9  147 261 
 PTB  HZ I        1942 33.88         4.8 0.34            132            147 261 
 NOR  HN ES       1942 47.97                             118    0.26 8  231 236 
 CHI  HZ EP       1942 22.32                             117    0.32 8  243 196 
 CHI  HN ES       1942 50.35                             117   -0.41 8  243 196 
 CHI  HZ I        1942 53.84         1.4 0.32            117            243 196 
 SML  HZ EP       1942 21.65                             116   -0.54 8  249 336 
                                                                                
