 2011  1 6 1701 11.0 L   6.771 -73.224128.0  RSN  7 0.2 1.8LRSN                1
 GAP=147        0.33       2.6     3.6  6.9 -0.3603E+01  0.1282E+02 -0.1568E+01E
 Epicentro: ZAPATOCA - SANTANDER                                               3
 ACTION:UP  11-02-08 08:39 OP:pat  STATUS:               ID:20110106170111 L   I
 2011-01-06-1658-15S.COL___134                                                 6
 STAT SP IPHASW D HRMM SECON CODA AMPLIT PERI AZIMU VELO SNR AR TRES W  DIS CAZ7
 BAR2 SZ EP   2   17 1 28.38                             170     0.0 5   20 167 
 BAR2 SZ I        17 1 44.83        17.0 0.07                            20 167 
 GIR2 SZ EP   2   17 1 28.78                             164     0.2 5   34   6 
 RUS  HZ EP   1   17 1 32.68                             140    -0.2 7   98 171 
 RUS  HN ES   2   17 1 50.05                             140     0.2 5   98 171 
 RUS  HZ I        17 1 53.01         7.4 0.28                            98 171 
 GRA  SZ EP   2   17 1 35.18                             131     0.0 5  132  21 
 GRA  SZ ES   2   17 1 54.06                             131    -0.1 5  132  21 
 GRA  SZ I        17 1 56.26        17.7 0.34                           132  21 
 NOR  SZ EP   2   17 1 44.78                             115     0.0 4  226 234 
 NOR  SE ES   2   17 2 11.04                             115    -0.1 4  226 234 
 CHI  HZ EP   2   17 1 47.22                             114     0.1 4  243 193 
 CHI  HZ I        17 2 23.88         5.0 1.03                           243 193 
 HEL  HZ EP   2   17 1 49.71                             112     0.4 4  263 256 
 HEL  HE ES   2   17 2 18.97                             112    -0.2 4  263 256 
 HEL  HZ I        17 2 27.05         6.0 0.36                           263 256 
                                                                                
