 2012  7 6 1957 20.4 L   6.777 -73.163143.5  RSN  6 0.3 1.6LRSN                1
 GAP=135        0.74       5.1     4.7  7.3  0.5063E-01  0.5479E+01  0.9908E+00E
 Epicentro: LOS SANTOS - SANTANDER                                             3
 ACTION:UPD 12-08-14 11:43 OP:ep   STATUS:               ID:20120706195720 L   I
 2012-07-06-1950-00M.COL___201                                                 6
 STAT SP IPHASW D HRMM SECON CODA AMPLIT PERI AZIMU VELO AIN AR TRES W  DIS CAZ7
 BAR2 SZ EP   1   1957 39.78                             171     0.1 7   21 186 
 BAR2 SZ ES   1   1957 54.96                             171     0.2 7   21 186 
 BAR2 SZ I        1957 55.88        11.5 0.24            169             21 186 
 BRR  HZ EP   1   1957 41.56                             152     0.3 7   71 301 
 BRR  HZ I        1957 41.85        11.0 0.19            151             71 301 
 BRR  HN ES   1   1957 57.73                             152     0.2 7   71 301 
 PAM  SZ EP   1   1957 42.70                             149     0.1 7   81  39 
 PAM  SN ES   1   1957 59.38                             149    -0.5 7   81  39 
 RUS  HZ EP   1   1957 43.79                             144     0.0 7   98 175 
 RUS  HZ I        1957 45.00         4.2 0.16            143             98 175 
 RUS  HN ES   1   1958  2.08                             144     0.1 7   98 175 
 PTB  HZ EP   1   1957 46.59                             132    -0.4 7  145 260 
 PTB  HN ES   1   1958  7.06                             132    -0.6 7  145 260 
 PTB  HZ I        1958 10.87         4.5 0.10            131            145 260 
 ZAR  HN ES   2   1958 18.45                             122     0.7 4  203 293 
