 2012  7 6 1724 20.4 L   6.679 -73.202156.1  RSN  5 0.2 1.5LRSN                1
 GAP=217        0.51       6.4     5.1  6.0  0.1225E+02  0.6670E+01 -0.6723E+00E
 Epicentro: VILLANUEVA - SANTANDER                                             3
 ACTION:UPD 12-08-14 11:43 OP:ep   STATUS:               ID:20120706172420 L   I
 2012-07-06-1720-00M.COL___201                                                 6
 STAT SP IPHASW D HRMM SECON CODA AMPLIT PERI AZIMU VELO AIN AR TRES W  DIS CAZ7
 BAR2 SZ EP   1   1724 41.05                             176     0.0 7   10 167 
 BAR2 SZ I        1724 41.32         4.2 0.21            167             10 167 
 BAR2 SZ ES   1   1724 56.93                             176    -0.3 7   10 167 
 BRR  HZ EP   1   1724 42.99                             153     0.2 7   74 310 
 BRR  HZ I        1724 43.37         9.6 0.11            150             74 310 
 BRR  HN ES   1   1725  0.31                             153     0.1 7   74 310 
 RUS  HN ES   2   1725  3.45                             149     0.4 5   88 171 
 PTB  HZ EP   1   1724 47.20                             136    -0.3 7  140 264 
 PTB  HN ES   1   1725  8.64                             136     0.0 7  140 264 
 PTB  HZ I        1725 14.95         3.3 0.29            131            140 264 
 ZAR  HN ES   2   1725 19.48                             125     0.2 4  204 296 
