 2016  5 6 1844 58.4 L   6.745 -73.442133.6  RSN  7 0.5 1.7LRSN                1
 GAP=157        1.05       6.2     5.1  9.8  0.3950E+01  0.3839E+01 -0.1702E+01E
 Epicentro: EL CARMEN - SANTANDER                                              3
 ACTION:UPD 16-08-18 17:42 OP:cam  STATUS:               ID:20160506184458 L   I
 OLDACT:REG 16-05-06 20:37 OP:dnl  STATUS:               ID:20160506183746     3
 2016-05-06-1837-46M.COL___282                                                 6
 STAT SP IPHASW D HRMM SECON CODA AMPLIT PERI AZIMU VELO AIN AR TRES W  DIS CAZ7
 BAR2 EZ EP       1845 16.88                             165    0.0410 33.3 120 
 BAR2 EZ I        1845 31.92        20.9 0.16            162           33.3 120 
 BRR  HZ EP   2   1845 17.79                             158    0.66 5 49.9 323 
 BRR  HE ES   2   1845 32.65                             158    0.93 5 49.9 323 
 RUS  HZ EP       1845 21.01                             140   -0.1110  102 157 
 RUS  HN ES       1845 38.56                             140   -0.2710  102 157 
 RUS  HZ I        1845 39.94         3.7 0.18            140            102 157 
 PTB  HZ EP       1845 21.02                             136   -0.4110  114 259 
 PTB  HN ES       1845 38.57                             136   -0.8210  114 259 
 SPBC HZ EP       1845 23.69                             130   -0.05 9  140 210 
 SPBC HE ES       1845 44.03                             130    0.53 9  140 210 
 SPBC HZ I        1845 49.04        10.9 0.10            132            140 210 
 ZAR  HZ EP   4   1845 29.57                             123    2.30 0  177 298 
 ZAR  HE ES   2   1845 50.56                             123    0.78 4  177 298 
 NOR  HZ EP       1845 30.69                             119    0.44 9  205 230 
 NOR  HE ES       1845 55.40                             119    0.32 9  205 230 
 NOR  HZ I        1845 59.85         4.8 0.22            120            205 230 
                                                                                
