 2016  9 6 1134 38.4 L   7.457 -73.340121.6  RSN  5 0.2 1.4LRSN                1
 GAP=258        0.60       5.1     4.0  5.2  0.1389E+02 -0.4117E+01 -0.8332E+01E
 Epicentro: EL PLAYON - SANTANDER                                              3
 ACTION:UPD 17-08-17 21:07 OP:lp   STATUS:               ID:20160906113438 L   I
 OLDACT:REG 16-09-06 21:07 OP:lv   STATUS:               ID:20160906112736     3
 2016-09-06-1128-00M.COL___337                                                 6
 STAT SP IPHASW D HRMM SECON CODA AMPLIT PERI AZIMU VELO AIN AR TRES W  DIS CAZ7
 BRR  HZ EP       1134 55.75                             153   -0.3110 56.4 227 
 BRR  HE ES       1135 10.13                             153    0.2610 56.4 227 
 BRR  HZ I        1135 11.11        12.1 0.15            149           56.4 227 
 BAR2 EZ EP       1134 58.93                             139   -0.2610 97.2 170 
 BAR2 EZ ES       1135 15.38                             139   -0.0610 97.2 170 
 BAR2 EZ I        1135 16.84         5.6 0.19            138           97.2 170 
 PTB  HZ EP       1135  4.61                             123   -0.06 9  160 231 
 PTB  HN ES       1135 25.07                             123   -0.13 9  160 231 
 PTB  HZ I        1135 27.97         3.1 0.22            122            160 231 
 ZAR  HZ EP       1135  5.84                             122    0.36 9  168 271 
 ZAR  HN ES       1135 26.52                             122   -0.11 9  168 271 
 ZAR  HZ I        1135 31.00         2.8 0.15            121            168 271 
 RUS  HZ EP       1135  7.21                             121    0.31 9  175 171 
 RUS  HE ES       1135 29.26                             121    0.10 9  175 171 
 RUS  HZ I        1135 31.09         1.3 0.17            121            175 171 
                                                                                
