 2014 12 6 1944 57.8 L   6.736 -73.137138.3  RSN  4 0.2 0.8LRSN                1
 GAP=140        0.52       3.0     3.2  5.6 -0.3405E+01  0.3626E+01  0.1559E+01E
 Epicentro: LOS SANTOS - SANTANDER                                             3
 ACTION:UPD 15-02-10 17:01 OP:nd   STATUS:               ID:20141206194457 L   I
 OLDACT:DUP 14-12-07 01:29 OP:stll STATUS:               ID:20141206193745d    3
 2014-12-06-1937-44M.COL___306                                                 6
 STAT SP IPHASW D HRMM SECON CODA AMPLIT PERI AZIMU VELO AIN AR TRES W  DIS CAZ7
 PAM  SZ EP       1945 19.21                             148   -0.2910 82.4  36 
 PAM  SN ES       1945 36.65                             148    0.1910 82.4  36 
 PAM  SZ I        1945 38.57         1.8 0.54            147           82.4  36 
 RUS  HZ EP       1945 20.36                             144    0.1010 93.5 176 
 RUS  HZ I        1945 20.88         0.9 0.22            146           93.5 176 
 RUS  HN ES       1945 37.69                             144   -0.1210 93.5 176 
 PTB  HN ES       1945 44.59                             130   -0.05 9  147 262 
 SPBC HZ EP       1945 25.41                             128    0.19 9  158 221 
                                                                                
