 2017  1 6 1800 24.3 L   6.786 -73.153145.4  RSN  9 0.5 1.8LRSN                1
 GAP=136        0.98       3.9     4.5  6.8 -0.5713E-01  0.9163E+01  0.4739E+01E
 Epicentro: LOS SANTOS - SANTANDER                                             3
 ACTION:UPD 17-05-22 15:56 OP:jn   STATUS:               ID:20170106180024 L   I
 OLDACT:UP  17-01-07 00:17 OP:dnl  STATUS:               ID:20170106175742     3
 OLDACT:REG 17-01-06 21:02 OP:dnl  STATUS:               ID:20170106175742     3
 2017-01-06-1758-00M.COL___368                                                 6
 STAT SP IPHASW D HRMM SECON CODA AMPLIT PERI AZIMU VELO AIN AR TRES W  DIS CAZ7
 BAR2 EZ EP       18 0 43.67                             171   -0.1810 21.7 189 
 BAR2 EZ ES       18 0 58.87                             171   -0.2310 21.7 189 
 BAR2 EZ I        18 1  0.27        20.5 0.24            169           21.7 189 
 BRR  HZ EP       18 0 45.53                             153    0.1210 71.2 300 
 BRR  HN ES       18 1  2.58                             153    0.7110 71.2 300 
 BRR  HZ I        18 1  3.17        16.0 0.34            151           71.2 300 
 PAM  EZ EP       18 0 46.59                             151    0.0110 79.1  39 
 PAM  EN ES       18 1  3.72                             151   -0.2310 79.1  39 
 PAM  EZ I        18 1  5.84        13.2 0.50            154           79.1  39 
 RUS  HZ EP       18 0 47.76                             144   -0.1410 99.1 176 
 RUS  HN ES       18 1  6.67                             144    0.3610 99.1 176 
 RUS  HZ I        18 1  7.93         5.5 0.46            145           99.1 176 
 PTB  HZ EP       18 0 50.43                             132   -0.70 9  147 259 
 PTB  HE ES   2   18 1 11.58                             132   -0.48 5  147 259 
 PTB  HZ I        18 1 17.71         7.4 0.30            132            147 259 
 ZAR  HZ EP   2   18 0 58.58                             123    1.88 4  204 293 
 ZAR  HE ES       18 1 21.74                             123   -0.23 9  204 293 
 ZAR  HZ I        18 1 26.86         7.0 0.36            123            204 293 
 NOR  HZ EP   2   18 0 59.93                             119    0.10 4  233 235 
 NOR  HE ES       18 1 27.33                             119   -0.22 8  233 235 
 NOR  HZ I        18 1 30.29         4.5 0.40            119            233 235 
 CHI  HZ EP   2   18 1  2.06                             117    0.27 4  247 195 
 CHI  HN ES       18 1 31.35                             117    0.32 8  247 195 
 CHI  HZ I        18 1 34.92         4.5 0.50            118            247 195 
 GUY2CHZ EP   4   18 1  9.32                             113    1.61 0  300 235 
 GUY2CHE ES   4   18 1 45.20                             113    3.63 0  300 235 
 GUY2CHZ  IAML    18 1 49.89         4.0 0.34                           300 235 
                                                                                
