 2010  8 6 1621 15.6 L   6.799 -73.093141.6  RSN 10 0.4 2.2LRSN                1
 GAP=165        0.81       3.6     9.8  6.6 -0.7606E+01 -0.5476E+01 -0.2527E+01E
 Epicentro: LOS SANTOS - SANTANDER                                             3
 ACTION:UP  10-09-07 10:52 OP:vdl  STATUS:               ID:20100806162115 L   I
 2010-08-06-1618-32S.COL___125                                                 6
 STAT SP IPHASW D HRMM SECON CODA AMPLIT PERI AZIMU VELO SNR AR TRES W  DIS CAZ7
 BTL  SZ IP       1621 35.04                             170     0.310   23 304 
 BTL  SZ ES   3   1621 49.98                             170     0.3 2   23 304 
 BAR2 SZ EP       1621 34.81                             169     0.010   25 204 
 BAR2 SZ ES   1   1621 49.83                             169     0.1 7   25 204 
 BAR2 SZ I        1621 52.53        31.8 0.28                            25 204 
 GIR2 SZ EP   1   1621 34.99                             166     0.1 7   33 340 
 GIR2 SZ ES   2   1621 48.62                             166    -1.2 5   33 340 
 BRR  HZ IP     C 1621 36.78                             150     0.110   77 297 
 BRR  HZ I        1621 37.12        52.4 0.14                            77 297 
 BRR  HN ES   2   1621 53.75                             150     0.7 5   77 297 
 RUS  HZ EP       1621 38.74                             143    -0.210  100 179 
 RUS  HE ES   1   1621 57.10                             143     0.0 7  100 179 
 RUS  HZ I        1621 59.68        11.3 0.33                           100 179 
 GUE  SZ EP       1621 39.77                             139    -0.110  116   9 
 GRA  SZ EP       1621 40.68                             136     0.310  124  15 
 GRA  SZ ES   1   1621 59.85                             136     0.2 7  124  15 
 GRA  SZ I        1622  3.14        21.2 0.08                           124  15 
 OCA  SZ EP   1   1621 43.36                             128    -0.3 7  161 351 
 OCA  SZ ES   2   1622  4.35                             128    -1.3 5  161 351 
 OCA  SZ I        1622 10.83        17.3 0.37                           161 351 
 CHI  HZ EP   2   1621 52.92                             116    -0.3 4  250 196 
 CHI  HN ES   3   1622 22.27                             116    -0.3 2  250 196 
 CHI  HZ I        1622 31.94         6.1 0.75                           250 196 
 PRA  HZ EP   2   1622  8.94                             106    -0.4 3  395 210 
 PRA  HE ES   3   1622 50.88                             106    -0.3 1  395 210 
 PRA  HZ I        1622 54.94         6.7 0.51                           395 210 
                                                                                
