 2011  9 6 1810 34.6 L   6.831 -73.013143.1  RSN  8 0.3 2.1LRSN                1
 GAP=197        0.54       3.1     4.8  4.2  0.3432E+01  0.3835E+01  0.1684E+01E
 Epicentro: CEPITA - SANTANDER                                                 3
 ACTION:UPD 12-07-13 15:56 OP:ep   STATUS:               ID:20110906181034 L   I
 2011-09-06-1808-34S.COL___170                                                 6
 STAT SP IPHASW D HRMM SECON CODA AMPLIT PERI AZIMU VELO AIN AR TRES W  DIS CAZ7
 BAR2 SZ EP   1   1810 54.46                             167    0.29 7 32.3 215 
 BAR2 SZ ES   1   1811  9.25                             167   -0.15 7 32.3 215 
 BAR2 SZ I        1811 11.25        31.7 0.17                          32.3 215 
 BRR  HZ EP       1810 56.36                             148    0.1410 83.1 292 
 BRR  HN ES       1811 13.09                             148    0.0310 83.1 292 
 BRR  HZ I        1811 15.51        20.9 0.17                          83.1 292 
 RUS  HZ EP   1   1810 58.53                             142    0.15 7  104 184 
 RUS  HN ES   1   1811 16.84                             142   -0.06 7  104 184 
 RUS  HZ I        1811 18.94         8.5 0.57                           104 184 
 OCA  SZ EP   2   1811  2.99                             129    0.33 5  159 348 
 OCA  SZ ES   2   1811 24.41                             129   -0.10 5  159 348 
 OCA  SZ I        1811 26.57        15.7 0.67                           159 348 
 ZAR  HZ EP   1   1811  7.47                             120   -0.75 6  217 290 
 ZAR  HZ I        1811 38.34        13.3 0.21                           217 290 
 CHI  HZ EP   1   1811 12.62                             116   -0.39 6  256 198 
 CHI  HZ I        1811 45.72         6.2 0.48                           256 198 
 HEL  HZ EP   1   1811 16.19                             113   -0.21 5  287 256 
 HEL  HN ES   2   1811 49.28                             113    0.31 4  287 256 
 HEL  HZ I        1811 53.55         6.4 0.25                           287 256 
 RREF HZ EP   2   1811 23.07                             109    0.86 3  335 231 
 RREF HN ES   1   1811 59.37                             109    0.06 5  335 231 
 RREF HZ I        1812  1.70         7.2 0.65                           335 231 
                                                                                
