 2015  3 6 1605 49.6 L   6.813 -73.179144.3  RSN 13 0.4 2.4LRSN                1
 GAP=132        0.85       2.5     3.4  4.3 -0.1686E+01  0.4145E+01  0.1213E+01E
 Epicentro: ZAPATOCA - SANTANDER                                               3
 ACTION:UPD 15-04-30 16:23 OP:nd   STATUS:               ID:20150306160549 L   I
 OLDACT:REG 15-03-06 20:28 OP:stll STATUS:               ID:20150306155737     3
 2015-03-06-1557-37M.COL___275                                                 6
 STAT SP IPHASW D HRMM SECON CODA AMPLIT PERI AZIMU VELO AIN AR TRES W  DIS CAZ7
 BAR2 EZ IP     C 16 6  9.14                             170    0.1010 24.5 181 
 BAR2 EZ ES       16 6 24.30                             170    0.0710 24.5 181 
 BAR2 EZ I        16 6 25.65        81.5 0.18            169           24.5 181 
 BRR  HZ EP       16 6 10.98                             154    0.6510 67.3 299 
 BRR  HN ES       16 6 27.11                             154    0.5710 67.3 299 
 BRR  HZ I        16 6 31.47        35.0 0.44            148           67.3 299 
 PAM  SZ EP       16 6 11.89                             150    0.1910 78.7  42 
 PAM  SZ I        16 6 12.15        59.1 0.22            152           78.7  42 
 PAM  SE ES       16 6 28.75                             150   -0.2110 78.7  42 
 RUS  HZ EP       16 6 13.04                             143   -0.2610  102 174 
 RUS  HZ I        16 6 14.21        18.7 0.16            144            102 174 
 RUS  HN ES       16 6 31.80                             143   -0.0210  102 174 
 PTB  HZ EP       16 6 15.99                             132   -0.12 9  144 258 
 PTB  HE ES       16 6 36.26                             132   -0.56 9  144 258 
 PTB  HZ I        16 6 40.09        23.0 0.14            129            144 258 
 SPBC HN ES       16 6 39.79                             129   -0.11 9  162 218 
 SPBC HZ I        16 6 42.76        36.3 0.20            128            162 218 
 NOR  HZ EP       16 6 25.04                             118    0.06 8  233 234 
 NOR  HN ES       16 6 52.34                             118   -0.27 8  233 234 
 NOR  HZ I        16 6 58.46        19.1 0.16            117            233 234 
 SML  HZ EP       16 6 25.29                             117   -0.51 8  241 336 
 SML  HN ES       16 6 53.50                             117   -0.56 8  241 336 
 SML  HZ I        16 7  2.08        28.3 0.24            116            241 336 
 CHI  HZ EP       16 6 27.20                             117   -0.03 8  249 194 
 CHI  HN ES       16 6 56.33                             117   -0.29 8  249 194 
 CHI  HZ I        16 7  5.20         7.7 0.34            117            249 194 
 GUY2CHZ EP       16 6 33.25                             112    0.39 7  299 234 
 GUY2CHN ES       16 7  6.74                             112    0.10 7  299 234 
 GUY2CHZ I        16 7 16.08        11.5 0.76                           299 234 
 CBOC HZ EP       16 6 36.99                             110    0.92 7  331 252 
 MON  HZ EP   9   16 6 36.24                             109   -1.83 0  350 309 
 MON  HN ES       16 7 14.16                                    0.09 6  350 309 
 MON  HZ I        16 7 29.85         4.9 0.58            108            350 309 
 PRA  HZ EP       16 6 42.77                             106   -0.20 6  392 209 
 PRA  HE ES       16 7 24.71                             106    0.08 6  392 209 
 PRA  HZ I        16 7 31.33        10.7 0.34            106            392 209 
                                                                                
