 2011  5 6 1423 24.9 L   6.488 -73.574112.7  RSN  7 0.2 1.8LRSN                1
 GAP=113        0.51       2.9     4.1  5.0 -0.2513E+01  0.7506E+00 -0.1551E+01E
 Epicentro: SANTA HELENA DEL OPON - SANTANDER                                  3
 ACTION:UP  11-06-29 08:51 OP:tino STATUS:               ID:20110506142324 L   I
 2011-05-06-1421-54S.COL___132                                                 6
 STAT SP IPHASW D HRMM SECON CODA AMPLIT PERI AZIMU VELO SNR AR TRES W  DIS CAZ7
 BAR2 SZ EP   1   1423 41.54                             157     0.1 7   45  75 
 BAR2 SZ I        1423 41.85        46.3 0.25                            45  75 
 BAR2 SZ ES   1   1423 54.21                             157     0.0 7   45  75 
 BTL  SZ EP   1   1423 42.53                             151     0.4 7   58  35 
 BRR  HZ EP   1   1423 42.34                             146    -0.2 7   70 347 
 BRR  HN ES   1   1423 56.42                             146     0.1 7   70 347 
 BRR  HZ I        1424  5.94        18.3 0.52                            70 347 
 RUS  HZ EP   1   1423 44.51                             140     0.2 7   85 140 
 RUS  HN ES   2   1423 59.11                             140    -0.4 5   85 140 
 RUS  HZ I        1424  1.30         7.6 0.37                            85 140 
 BRI  SZ EP   1   1423 50.90                             121    -0.1 7  161  32 
 BRI  SZ ES   1   1424 11.14                             121    -0.2 7  161  32 
 BRI  SZ I        1424 13.31         8.7 0.49                           161  32 
 GRA  SZ EP   1   1423 52.66                             118     0.0 7  176  29 
 GRA  SZ ES   2   1424 13.79                             118    -0.4 4  176  29 
 GRA  SZ I        1424 15.61         9.0 0.58                           176  29 
 NOR  SN ES   2   1424 13.60                             118    -0.3 4  176 235 
                                                                                
