 2017  8 6 1022 39.4 L   6.729 -73.148148.0  RSN 16 0.4 1.9LRSN                1
 GAP=206        0.94       3.7     3.7  4.9  0.5982E+01  0.1221E+01  0.2318E+01E
 Epicentro: JORDAN - SANTANDER                                                 3
 ACTION:UPD 17-09-04 20:17 OP:rebc STATUS:               ID:20170806102239 L   I
 OLDACT:UP  17-08-06 21:55 OP:edw  STATUS:               ID:20170806101738     3
 OLDACT:UP  17-08-06 21:54 OP:edw  STATUS:               ID:20170806101738     3
 OLDACT:REG 17-08-06 20:21 OP:edw  STATUS:               ID:20170806101738     3
 2017-08-06-1018-00M.COL___386                                                 6
 STAT SP IPHASW D HRMM SECON CODA AMPLIT PERI AZIMU VELO AIN AR TRES W  DIS CAZ7
 BAR2 EZ IP     D 1022 58.84                             174   -0.3010 15.6 194 
 BAR2 EZ ES       1023 14.47                             174   -0.0910 15.6 194 
 BAR2 EZ I        1023 15.14        14.9 0.18             47           15.6 194 
 BRR  HZ EP       1023  0.77                             151   -0.2110 75.1 304 
 BRR  HN ES       1023 18.05                             151    0.2110 75.1 304 
 BRR  HZ I        1023 23.16        16.1 0.46             47           75.1 304 
 RUS  HZ EP       1023  2.76                             146   -0.0310 92.8 176 
 RUS  HN ES       1023 21.07                             146    0.0010 92.8 176 
 RUS  HZ I        1023 22.01        12.0 0.46             47           92.8 176 
 PTB  HZ EP   9   1023  6.02                             133   -0.36 0  146 262 
 PTB  HN ES       1023 26.51                             132   -0.58 9  146 262 
 PTB  HZ I        1023 29.21         9.1 0.14             47            146 262 
 SPBC HZ EP       1023  7.86                             130    0.40 9  157 221 
 SPBC HN ES       1023 29.80                             130    0.43 9  157 221 
 SPBC HZ I        1023 34.74        10.2 0.18             47            157 221 
 YPLC HZ EP     C 1023  9.14                             128    0.47 9  170 150 
 YPLC HN ES   4   1023 29.66                             128   -1.87 0  170 150 
 YPLC HZ I        1023 33.73         5.6 0.30             47            170 150 
 ZAR  HZ EP       1023 12.96                             122    0.71 8  207 294 
 ZAR  HN ES       1023 37.29                             122   -0.62 8  207 294 
 ZAR  HZ I        1023 43.08        13.0 0.28             37            207 294 
 NOR  HN ES   1   1023 41.72                             119   -0.59 6  230 236 
 CHI  HZ EP   4   1023 17.50                             118    1.14 0  241 196 
 CHI  HN ES       1023 45.25                             118    0.03 8  241 196 
 CHI  HZ I        1023 52.12         3.2 0.24             37            241 196 
 HEL  HZ EP   4   1023 21.03                             115    1.56 0  270 257 
 HEL  HN ES       1023 50.49                             115   -0.26 8  270 257 
 HEL  HZ I        1023 57.63         6.6 0.40             37            270 257 
 URE  HZ EP   4   1023 19.74                             113   -1.12 0  287 293 
 URE  HN ES   4   1023 55.48                             113    2.26 0  287 293 
 URE  HZ I        1024  3.70         8.9 0.20             37            287 293 
 GUY2CHZ EP   4   1023 20.24                             113   -2.31 0  297 236 
 GUY2CHN ES   4   1023 59.92                             113    3.68 0  297 236 
 GUY2CHZ I        1024  5.97         3.3 0.64                           297 236 
 PTGC HZ EP       1023 21.89                             112   -0.61 7  301 158 
 PTGC HN ES       1023 55.46                             112   -0.69 7  301 158 
 PTGC HZ I        1024  2.28         5.0 0.40             37            301 158 
 DBB  EZ EP       1023 26.99                             110    0.01 7  340 276 
 DBB  EN ES       1024  4.29                             110    0.16 7  340 276 
 DBB  EZ I        1024  8.90         3.9 0.22             36            340 276 
 PRA  HZ EP       1023 32.72                             107    0.57 6  385 210 
 PRA  HN ES   4   1024 11.90                             107   -1.43 0  385 210 
 PRA  HZ I        1024 21.16         2.4 0.52             36            385 210 
 SJC  HZ EP   4 D 1023 33.50                             105   -2.26 0  416 328 
 SJC  HN ES   4   1024 14.34                             105   -5.41 0  416 328 
 SJC  HZ I        1024 18.65         1.8 0.72             36            416 328 
                                                                                
