 2012  3 6 1922 45.1 L   6.759 -73.162136.4  RSN  7 0.2 1.8LRSN                1
 GAP=136        0.58       3.3     3.1  5.2  0.2420E+00  0.2919E+01 -0.1376E+01E
 ACTION:UP  12-03-31 23:17 OP:EP   STATUS:               ID:20120306192245 L   I
 2012-03-06-1920-00M.COL___194                                                 6
 STAT SP IPHASW D HRMM SECON CODA AMPLIT PERI AZIMU VELO SNR AR TRES W  DIS CAZ7
 BAR2 SZ EP       1923  3.72                             172     0.210   19 187 
 BAR2 SZ ES   1   1923 17.90                             172     0.0 7   19 187 
 BAR2 SZ I        1923 22.29        11.6 0.23                            19 187 
 BRR  HZ EP       1923  5.54                             150     0.210   72 302 
 BRR  HE ES   1   1923 21.45                             150     0.4 7   72 302 
 BRR  HZ I        1923 23.87        23.1 0.16                            72 302 
 PAM  SZ EP       1923  6.63                             147     0.010   82  39 
 PAM  SN ES   1   1923 23.08                             147    -0.4 7   82  39 
 RUS  HZ EP   1   1923  7.74                             143     0.1 7   96 175 
 RUS  HN ES   1   1923 25.09                             143    -0.1 7   96 175 
 RUS  HZ I        1923 27.83         5.8 0.31                            96 175 
 PTB  HZ EP   1   1923 10.76                             130    -0.3 7  145 260 
 PTB  HE ES   1   1923 30.94                             130    -0.4 7  145 260 
 OCA  SZ ES   2   1923 34.78                             127    -0.2 5  165 354 
 ZAR  HZ EP   2   1923 16.88                             120    -0.1 4  204 294 
 ZAR  HN ES   1   1923 41.89                             120     0.1 6  204 294 
 ZAR  HZ I        1923 48.48         6.3 0.20                           204 294 
                                                                                
