 2014  6 6 1030 51.9 L   6.719 -73.204137.6  RSN  4 0.5 1.4LRSN                1
 GAP=235        1.29      11.9     9.3 11.2  0.7004E+02  0.1398E+02 -0.3355E+02E
 Epicentro: VILLANUEVA - SANTANDER                                             3
 ACTION:UPD 14-07-01 22:51 OP:nd   STATUS:               ID:20140606103051 L   I
 OLDACT:DUP 14-06-06 21:37 OP:stll STATUS:               ID:20140606102817d    3
 2014-06-06-1028-16M.COL___259                                                 6
 STAT SP IPHASW D HRMM SECON CODA AMPLIT PERI AZIMU VELO AIN AR TRES W  DIS CAZ7
 BAR2 SZ EP       1031  9.98                             174   -0.4410 14.2 170 
 BAR2 SZ I        1031 10.29         9.2 0.40            174           14.2 170 
 BAR2 SZ ES       1031 24.68                             174   -0.1610 14.2 170 
 RUS  HZ EP       1031 14.00                             144   -0.2810 92.3 172 
 RUS  HZ I        1031 15.20         2.2 0.28            146           92.3 172 
 RUS  HN ES       1031 32.48                             144    0.7610 92.3 172 
 PTB  HZ EP       1031 17.05                             132   -0.47 9  140 262 
 PTB  HN ES       1031 37.06                             132   -0.43 9  140 262 
 PTB  HZ I        1031 40.70         3.8 0.22            130            140 262 
 ZAR  HZ EP       1031 24.51                             121    0.89 9  202 295 
 ZAR  HN ES       1031 48.72                             121    0.38 9  202 295 
 ZAR  HZ I        1031 54.54         3.6 0.44            120            202 295 
                                                                                
