 2012  5 6 1642 26.7 L   6.757 -73.186151.7  RSN  5 0.3 1.3LRSN                1
 GAP=133        0.68       6.2     5.6  7.4  0.7332E+01 -0.2348E+01 -0.3558E+01E
 Epicentro: VILLANUEVA - SANTANDER                                             3
 ACTION:UP  12-07-05 12:02 OP:pat  STATUS:               ID:20120506164226 L   I
 2012-05-06-1640-00M.COL___192                                                 6
 STAT SP IPHASW D HRMM SECON CODA AMPLIT PERI AZIMU VELO SNR AR TRES W  DIS CAZ7
 BAR2 SZ ES   1   1643  2.41                             173    -0.4 7   18 179 
 BAR2 SZ I        1643  3.38         6.0 0.12                            18 179 
 BRR  HZ I        1642 57.93         8.5 0.29                            70 304 
 BRR  HN ES   1   1643  5.81                             154     0.4 7   70 304 
 PAM  SZ EP   1   1642 49.89                             150    -0.1 7   84  40 
 RUS  HZ EP   1   1642 50.79                             146     0.0 7   96 173 
 RUS  HN ES   1   1643  9.82                             146     0.3 7   96 173 
 RUS  HZ I        1643 11.31         1.8 0.38                            96 173 
 PTB  HZ EP   1   1642 53.82                             134     0.1 7  142 260 
 PTB  HN ES   1   1643 14.52                             134    -0.3 7  142 260 
 PTB  HZ I        1643 19.79         1.7 0.27                           142 260 
                                                                                
