 2014 10 6 1811 12.3 L   6.514 -73.587100.5  RSN  5 0.5 1.4LRSN                1
 GAP= 91        1.36       7.2     6.3 12.7  0.1793E+02  0.3162E+02  0.3862E+02E
 Epicentro: SANTA HELENA DEL OPON - SANTANDER                                  3
 ACTION:UPD 14-11-29 23:47 OP:nd   STATUS:               ID:20141006181112 L   I
 OLDACT:REG 14-10-06 21:41 OP:stll STATUS:               ID:20141006180737     3
 2014-10-06-1807-37M.COL___289                                                 6
 STAT SP IPHASW D HRMM SECON CODA AMPLIT PERI AZIMU VELO AIN AR TRES W  DIS CAZ7
 BAR2 SZ EP       1811 27.28                             154   -0.1710 45.5  79 
 BAR2 SZ ES       1811 39.24                             154   -0.0410 45.5  79 
 BAR2 SZ I        1811 40.88        61.5 0.36            155           45.5  79 
 BRR  HZ EP       1811 28.08                             143   -0.4010 67.0 348 
 BRR  HN ES       1811 41.82                             143    0.7210 67.0 348 
 RUS  HZ EP       1811 30.46                             135   -0.4110 88.5 141 
 RUS  HZ I        1811 31.64         2.1 0.54            137           88.5 141 
 RUS  HN ES       1811 45.30                             135   -0.0610 88.5 141 
 PTB  HZ EP       1811 30.81                             132   -0.0910 96.2 272 
 PTB  HN ES       1811 44.81                             132   -0.6010 96.2 272 
 PTB  HZ I        1811 46.50         2.8 0.28            134           96.2 272 
 SPBC HZ EP       1811 33.32                             128    1.0910  109 209 
                                                                                
