 2015 10 6 1138 56.4 L   6.814 -73.126148.6  RSN 22 0.4 2.6LRSN                1
 GAP= 67        0.93       2.3     3.0  4.5 -0.1196E+01  0.1739E+01  0.1092E+01E
 Epicentro: LOS SANTOS - SANTANDER                                             3
 ACTION:UPD 15-12-22 20:37 OP:cam  STATUS:               ID:20151006113856 L   I
 OLDACT:REG 15-10-06 21:06 OP:spq  STATUS:               ID:20151006113752     3
 2015-10-06-1137-52M.COL___316                                                 6
 STAT SP IPHASW D HRMM SECON CODA AMPLIT PERI AZIMU VELO AIN AR TRES W  DIS CAZ7
 BAR2 EZ IP     D 1139 16.28                             170   -0.1010 25.3 194 
 BAR2 EZ ES   1   1139 31.64                             170   -0.35 7 25.3 194 
 BAR2 EZ I        1139 32.64        69.0 0.29            170           25.3 194 
 BRR  HZ EP       1139 18.17                             153    0.2810 72.4 297 
 BRR  HN ES       1139 35.14                             153    0.4610 72.4 297 
 BRR  HZ I        1139 39.06        72.7 0.48            150           72.4 297 
 PAM  EZ EP     D 1139 19.25                             152    0.5110 74.8  39 
 PAM  EE ES       1139 36.47                             152    0.2810 74.8  39 
 PAM  EZ I        1139 38.45        98.9 0.50            153           74.8  39 
 RUS  HZ EP       1139 20.67                             144    0.1710  102 177 
 RUS  HN ES   1   1139 39.22                             144   -0.10 7  102 177 
 RUS  HZ I        1139 40.17        26.9 0.30            145            102 177 
 TAM  HZ EP     D 1139 24.72                             131    0.61 9  153 106 
 OCA  HZ EP       1139 24.50                             131   -0.28 9  159 352 
 OCA  HN ES       1139 46.28                             131   -0.67 9  159 352 
 OCA  HZ I        1139 51.88        48.9 0.18            130            159 352 
 SPBC HZ EP       1139 25.17                             129   -0.16 9  166 219 
 SPBC HE ES       1139 47.55                             129   -0.37 9  166 219 
 SPBC HZ I        1139 50.54        44.9 0.10            129            166 219 
 ZAR  HZ EP       1139 28.82                             123   -0.33 8  206 292 
 ZAR  HN ES       1139 54.32                             123   -0.40 8  206 292 
 ZAR  HZ I        1140  0.34        33.6 0.30            122            206 292 
 NOR  HZ EP       1139 32.64                             119    0.09 8  237 234 
 NOR  HE ES       1140  0.75                             119   -0.02 8  237 234 
 NOR  HZ I        1140  4.96        17.0 0.14            119            237 234 
 SML  HZ EP       1139 32.61                             118   -0.49 8  243 335 
 SML  HE ES   1   1140  2.08                             118    0.32 6  243 335 
 SML  HZ I        1140  4.34        51.2 0.10            118            243 335 
 CHI  HZ EP       1139 34.29                             117   -0.16 8  251 196 
 CHI  HN ES       1140  3.58                             117   -0.57 8  251 196 
 CHI  HZ I        1140  7.34        21.3 0.40            118            251 196 
 ROSC BN ES   4   1140  6.44                             117    1.47 0  255 211 
 ROSC BZ I        1140  9.84        33.5 0.35            117            255 211 
 HEL  HZ EP   1   1139 37.57                             115    0.57 6  275 256 
 HEL  HN ES       1140  8.50                             115   -0.19 8  275 256 
 HEL  HZ I        1140 15.28         8.2 0.34            115            275 256 
 GUY2CHZ EP   1   1139 41.31                             113    0.90 5  304 235 
 GUY2CHN ES   1   1140 15.57                             113    0.81 5  304 235 
 GUY2CHZ I        1140 20.48         9.1 0.36                           304 235 
 LL2C HZ EP       1139 39.86                             112   -0.07 7  305 354 
 LL2C HE ES   4   1140 15.00                             112    1.09 0  305 354 
 LL2C HZ I        1140 24.94        26.2 0.38            113            305 354 
 PTGC HZ EP       1139 39.52                             112   -0.90 7  309 159 
 PTGC HE ES   4   1140 12.90                             112   -1.89 0  309 159 
 PTGC HZ I        1140 17.91        23.2 0.36            113            309 159 
 LL4C HZ EP       1139 42.20                             111    0.34 7  322 352 
 DBB  SZ ES   1   1140 21.53                             110    0.03 5  342 274 
 DBB  SZ I        1140 24.03        24.4 0.44            110            342 274 
 ANIL HE ES   4   1140 27.44                             109    1.69 0  360 225 
 ANIL HZ I        1140 30.90        37.1 0.40            109            360 225 
 ORTC HZ EP       1139 50.48                             107   -0.20 6  398 216 
 ORTC HN ES       1140 33.95                             107    0.91 6  398 216 
 ORTC HZ I        1140 37.64        10.3 0.32            107            398 216 
 SJC  HZ EP   4   1139 50.72                             106   -1.29 0  409 327 
 SJC  HN ES   4   1140 31.67                             106   -3.75 0  409 327 
 SJC  HZ I        1140 36.06         5.2 0.50            106            409 327 
 CRJC HZ EP   4   1139 56.62                             104   -2.13 0  466   3 
 CRJC HN ES   4   1140 46.04                             104   -1.37 0  466   3 
 CRJC HZ I        1140 51.63         8.4 0.22            104            466   3 
                                                                                
