 2013  5 6 1700 44.3 L   6.798 -73.146150.0  RSN  7 0.4 1.8LRSN                1
 GAP=137        0.72       5.4     4.3  6.5 -0.5924E+01 -0.6071E+00  0.1514E+02E
 Epicentro: LOS SANTOS - SANTANDER                                             3
 ACTION:UPD 13-06-20 09:48 OP:ep   STATUS:               ID:20130506170044 L   I
 2013-05-06-1700-00M.COL___253                                                 6
 STAT SP IPHASW D HRMM SECON CODA AMPLIT PERI AZIMU VELO AIN AR TRES W  DIS CAZ7
 BAR2 SZ EP       17 1  4.30                             171   -0.1610 23.1 190 
 BAR2 SZ I        17 1  4.46        11.7 0.19            167           23.1 190 
 BAR2 SZ ES   2   17 1 19.91                             171   -0.26 5 23.1 190 
 GIR2 SZ EP   2   17 1  4.40                             168   -0.11 5 31.5 350 
 GIR2 SZ ES   2   17 1 20.76                             168    0.51 5 31.5 350 
 BRR  HZ EP       17 1  5.90                             153   -0.0410 71.3 299 
 BRR  HZ I        17 1  6.37        16.4 0.28            151           71.3 299 
 BRR  HN ES       17 1 22.95                             153    0.1510 71.3 299 
 PAM  SZ EP   1   17 1  7.22                             152    0.22 7 77.5  39 
 PAM  SN ES   1   17 1 24.75                             152    0.06 7 77.5  39 
 RUS  HZ EP     C 17 1  8.35                             145   -0.1310  100 176 
 RUS  HE ES   2   17 1 27.37                             145    0.05 5  100 176 
 PTB  HZ EP   1   17 1 11.06                             133   -0.58 7  148 259 
 PTB  HN ES   1   17 1 32.35                             133   -0.59 7  148 259 
 PTB  HZ I        17 1 36.97         7.2 0.22            131            148 259 
 NOR  HZ EP   1   17 1 21.09                             119    0.80 6  235 235 
 NOR  HN ES   1   17 1 49.04                             119    0.70 6  235 235 
 NOR  HZ I        17 1 54.36         4.5 0.20            118            235 235 
                                                                                
