 2012  5 6 1912 19.5 L   6.794 -73.157141.4  RSN 10 0.4 2.4LRSN                1
 GAP=135        0.80       3.8     3.8  6.0 -0.8939E+00  0.6103E+01  0.4339E+01E
 Epicentro: LOS SANTOS - SANTANDER                                             3
 ACTION:UP  12-07-05 12:02 OP:pat  STATUS:               ID:20120506191219 L   I
 2012-05-06-1910-00M.COL___192                                                 6
 STAT SP IPHASW D HRMM SECON CODA AMPLIT PERI AZIMU VELO SNR AR TRES W  DIS CAZ7
 BAR2 SZ EP   1   1912 38.53                             170     0.0 7   23 187 
 BAR2 SZ ES   1   1912 53.14                             170    -0.3 7   23 187 
 BAR2 SZ I        1912 56.34        28.4 0.25                            23 187 
 BRR  HZ EP       1912 40.30                             152     0.210   70 299 
 BRR  HN ES   1   1912 56.90                             152     0.7 7   70 299 
 BRR  HZ I        1913  0.69        66.5 0.12                            70 299 
 PAM  SZ EP       1912 41.27                             150     0.010   79  40 
 PAM  SN ES   1   1912 58.05                             150    -0.3 7   79  40 
 RUS  HZ EP   1   1912 42.80                             143     0.1 7  100 175 
 RUS  HN ES   1   1913  1.09                             143     0.2 7  100 175 
 RUS  HZ I        1913  3.66        25.4 0.31                           100 175 
 PTB  HZ EP   1   1912 45.15                             131    -0.8 7  146 259 
 PTB  HN ES   1   1913  6.31                             131    -0.3 7  146 259 
 PTB  HZ I        1913  8.81        38.1 0.12                           146 259 
 ZAR  HZ EP   1   1912 51.41                             121    -0.1 6  203 292 
 ZAR  HN ES   1   1913 16.45                             121    -0.1 6  203 292 
 ZAR  HZ I        1913 21.99        36.3 0.07                           203 292 
 NOR  SZ EP   1   1912 55.01                             118     0.2 6  233 234 
 NOR  SN ES   1   1913 22.57                             118     0.2 6  233 234 
 CHI  HZ EP   1   1912 57.10                             116     0.3 6  248 195 
 CHI  HN ES   1   1913 25.50                             116    -0.5 6  248 195 
 CHI  HZ I        1913 33.40        13.3 0.48                           248 195 
 HEL  HN ES   1   1913 30.22                             114    -0.2 6  271 256 
 HEL  HZ I        1913 38.34        20.2 0.36                           271 256 
 PRA  HZ EP   1   1913 13.52                             106     0.8 4  391 209 
                                                                                
