 2012  4 6 1137 49.3 L   6.780 -73.142141.3  RSN  5 0.4 1.5LRSN                1
 GAP=138        0.76       6.7     7.4  8.0  0.9217E+00 -0.4291E+01 -0.5910E+01E
 Epicentro: LOS SANTOS - SANTANDER                                             3
 ACTION:UPD 12-07-05 11:51 OP:tino STATUS:               ID:20120406113749 L   I
 2012-04-06-1130-00M.COL___196                                                 6
 STAT SP IPHASW D HRMM SECON CODA AMPLIT PERI AZIMU VELO AIN AR TRES W  DIS CAZ7
 BAR2 SZ EP       1138  8.41                             171     0.010   21 192 
 BAR2 SZ ES   1   1138 22.86                             171    -0.4 7   21 192 
 BAR2 SZ I        1138 26.62         8.1 0.68                            21 192 
 BRR  HZ EP       1138 10.17                             151     0.110   73 300 
 BRR  HE ES   1   1138 26.58                             151     0.3 7   73 300 
 BRR  HZ I        1138 29.29        12.2 0.26                            73 300 
 PAM  SZ EP       1138 11.29                             149     0.110   79  38 
 PAM  SN ES   2   1138 27.77                             149    -0.4 5   79  38 
 RUS  HZ EP   2   1138 12.81                             143     0.3 5   98 176 
 RUS  HN ES   2   1138 30.85                             143     0.3 5   98 176 
 PTB  HZ EP   2   1138 14.84                             131    -1.1 5  148 260 
 PTB  HZ I        1138 17.57         2.5 0.14                           148 260 
                                                                                
