 2013  3 6 1755 52.5 L   6.808 -73.187138.0  RSN  5 0.2 1.4LRSN                1
 GAP=131        0.47       3.2     3.4  5.9 -0.3660E+01  0.5682E+01  0.1931E+01E
 Epicentro: ZAPATOCA - SANTANDER                                               3
 ACTION:UPD 13-04-09 14:00 OP:ep   STATUS:               ID:20130306175551 L   I
 2013-03-06-1748-50M.COL___202                                                 6
 STAT SP IPHASW D HRMM SECON CODA AMPLIT PERI AZIMU VELO AIN AR TRES W  DIS CAZ7
 BAR2 SZ EP   2   1756 10.91                             170   -0.27 5 23.9 179 
 BRR  HZ EP   2   1756 13.30                             153    0.77 5 66.8 300 
 PAM  SZ EP       1756 13.98                             149   -0.0310 79.7  42 
 PAM  SN ES       1756 30.79                             149   -0.0210 79.7  42 
 PAM  SE I        1756 33.06        10.5 0.50            149           79.7  42 
 RUS  HZ EP       1756 15.54                             142   -0.0310  102 174 
 RUS  HZ I        1756 15.83         2.4 0.09            144            102 174 
 RUS  HN ES   1   1756 33.68                             142    0.10 7  102 174 
 PTB  HZ EP   1   1756 18.30                             131   -0.12 7  143 258 
 PTB  HN ES   1   1756 38.57                             131   -0.09 7  143 258 
                                                                                
