 2012  5 6 1400 54.2 L   7.476 -73.047151.8  RSN  5 0.1 1.5LRSN                1
 GAP=231        0.36       7.7     3.4  4.1 -0.1398E+02 -0.9107E+00  0.1133E+02E
 Epicentro: SURATA - SANTANDER                                                 3
 ACTION:UP  12-07-05 12:02 OP:pat  STATUS:               ID:20120506140054 L   I
 2012-05-06-1400-00M.COL___192                                                 6
 STAT SP IPHASW D HRMM SECON CODA AMPLIT PERI AZIMU VELO SNR AR TRES W  DIS CAZ7
 PAM  SZ EP   1   14 1 15.61                             164     0.2 7   41 111 
 PAM  SN ES   1   14 1 31.90                             164    -0.1 7   41 111 
 BRR  HZ EP   1   14 1 16.68                             149    -0.1 7   84 241 
 BRR  HZ I        14 1 22.38        10.5 0.42                            84 241 
 BRR  HN ES   1   14 1 34.37                             149     0.0 7   84 241 
 BAR2 SZ EP   1   14 1 18.27                             145     0.2 7   99 189 
 BAR2 SZ I        14 1 25.22         5.5 0.56                            99 189 
 RUS  HZ EP   1   14 1 24.75                             128    -0.1 7  175 181 
 PTB  HZ EP   1   14 1 25.29                             126    -0.1 7  187 236 
 PTB  HN ES   1   14 1 49.80                             126     0.1 7  187 236 
 PTB  HZ I        14 1 53.33         1.6 0.13                           187 236 
                                                                                
