 2014  6 6 1140 56.7 L   6.789 -73.164129.6  RSN  6 0.6 1.6LRSN                1
 GAP=141        1.36       7.5     7.6  9.7 -0.1769E+02  0.2649E+02  0.1678E+01E
 Epicentro: LOS SANTOS - SANTANDER                                             3
 ACTION:UPD 14-07-01 22:51 OP:nd   STATUS:               ID:20140606114056 L   I
 OLDACT:REG 14-06-06 20:29 OP:stll STATUS:               ID:20140606113816     3
 2014-06-06-1138-16M.COL___259                                                 6
 STAT SP IPHASW D HRMM SECON CODA AMPLIT PERI AZIMU VELO AIN AR TRES W  DIS CAZ7
 BAR2 SZ EP       1141 14.36                             170   -0.0010 21.9 185 
 BAR2 SZ ES       1141 28.54                             170    0.4110 21.9 185 
 BAR2 SZ I        1141 31.77         8.1 0.20            169           21.9 185 
 PAM  SZ EP       1141 17.12                             147   -0.2510 79.6  40 
 PAM  SZ I        1141 17.42        18.4 0.22            152           79.6  40 
 PAM  SN ES       1141 33.62                             147    0.1310 79.6  40 
 RUS  HZ EP       1141 19.09                             140    0.2710 99.6 175 
 RUS  HN ES       1141 35.63                             140   -0.4510 99.6 175 
 RUS  HZ I        1141 38.68         6.8 0.28            143           99.6 175 
 PTB  HZ EP       1141 21.38                             128   -0.81 9  145 259 
 PTB  HN ES       1141 41.97                             128   -0.09 9  145 259 
 PTB  HZ I        1141 47.34         5.0 0.22            130            145 259 
 GUY2CHZ EP       1141 41.02                             109    1.68 7  299 235 
 GUY2CHZ I        1142 18.58         2.4 0.30                           299 235 
 PRA  HZ EP       1141 48.96                             104   -0.51 6  390 209 
                                                                                
