 2014  7 6 1004 34.7 L   6.775 -73.184136.0  RSN 15 0.4 1.7LRSN                1
 GAP=179        0.86       2.3     3.7  5.3 -0.1287E+01  0.4964E+01  0.1050E+01E
 Epicentro: LOS SANTOS - SANTANDER                                             3
 ACTION:UPD 15-03-16 20:41 OP:nd   STATUS:               ID:20140706100434 L   I
 OLDACT:REG 14-07-06 19:42 OP:spq  STATUS:               ID:20140706095818     3
 2014-07-06-0958-18M.COL___259                                                 6
 STAT SP IPHASW D HRMM SECON CODA AMPLIT PERI AZIMU VELO AIN AR TRES W  DIS CAZ7
 BAR2 SZ EP       10 4 53.14                             171    0.0110 20.2 179 
 BAR2 SZ ES   1   10 5  8.04                             171    0.56 7 20.2 179 
 BAR2 SZ I        10 5 10.04         7.3 0.38            169           20.2 179 
 RUS  HZ EP       10 4 57.10                             142   -0.2610 98.2 173 
 RUS  HN ES   1   10 5 14.65                             142   -0.36 7 98.2 173 
 RUS  HZ I        10 5 19.27         2.8 0.22            146           98.2 173 
 PTB  HZ EP       10 5  0.14                             131   -0.35 9  143 260 
 PTB  HN ES       10 5 20.81                             131    0.24 9  143 260 
 PTB  HZ I        10 5 27.36         6.4 0.38            132            143 260 
 SPBC HZ EP       10 5  1.59                             128   -0.44 9  158 218 
 SPBC HN ES       10 5 23.93                             128    0.61 9  158 218 
 SPBC HZ I        10 5 31.52         9.7 0.30            130            158 218 
 OCA  HZ EP   1   10 5  2.67                             127    0.13 7  163 355 
 OCA  HN ES       10 5 23.99                             127   -0.23 9  163 355 
 OCA  HZ I        10 5 29.43         4.4 0.18            132            163 355 
 ZAR  HN ES       10 5 30.61                             121   -0.25 9  201 293 
 ZAR  HZ I        10 5 37.89         6.3 0.46            123            201 293 
 SML  HZ EP       10 5 11.30                             115    0.37 8  245 336 
 SML  HN ES       10 5 39.13                             115   -0.02 8  245 336 
 SML  HZ I        10 5 43.11         8.1 0.10            119            245 336 
 CHI  HE ES   1   10 5 39.54                             115   -0.62 6  245 194 
 CHI  HZ I        10 5 46.22         2.5 0.10            119            245 194 
 HEL  HZ EP       10 5 14.68                             113    0.75 8  267 256 
 HEL  HN ES       10 5 43.95                             113   -0.55 8  267 256 
 HEL  HZ I        10 5 52.14         2.0 0.28            116            267 256 
 GUY2CHZ EP       10 5 18.06                             111    0.73 7  296 235 
 GUY2CHN ES       10 5 50.17                             111   -0.38 7  296 235 
 GUY2CHZ I        10 6  0.42         2.7 0.36                           296 235 
 RREF HZ EP       10 5 19.47                             109   -0.42 7  317 229 
 RREF HN ES       10 5 55.27                             109    0.16 7  317 229 
 RREF HZ I        10 6  2.71         2.8 0.26            112            317 229 
 TOL  SZ EP       10 5 22.46                             108    0.42 7  338 224 
 TOL  SE ES       10 5 58.74                             108   -0.19 7  338 224 
 TOL  SZ I        10 6  6.86         4.9 0.50            111            338 224 
 PRA  HZ EP       10 5 27.79                             105    0.39 6  387 209 
 PRA  HN ES       10 6  9.02                             105    0.54 6  387 209 
 PRA  HZ I        10 6 15.13         1.9 0.32            108            387 209 
 ORTC HZ EP       10 5 27.70                             105   -0.08 6  391 216 
 ORTC HN ES       10 6  8.70                             105   -0.45 6  391 216 
 ORTC HZ I        10 6 15.22         1.2 0.37            108            391 216 
 SJC  HZ EP   4   10 5 27.61                             104   -2.39 0  409 328 
 SJC  HN ES   4   10 6 10.10                             104   -3.01 0  409 328 
 SJC  HZ I        10 6 14.16         1.8 0.48            107            409 328 
                                                                                
