 2016 10 6 1048 40.4 L   6.642 -73.651 84.7  RSN  5 0.3 1.2LRSN                1
 GAP=151        0.77       3.5     3.0  9.0  0.2520E+01  0.1049E+02 -0.7722E+01E
 Epicentro: EL CARMEN - SANTANDER                                              3
 ACTION:UPD 16-11-09 19:16 OP:rebc STATUS:               ID:20161006104840 L   I
 OLDACT:REG 16-10-06 19:55 OP:lv   STATUS:               ID:20161006104740     3
 2016-10-06-1048-00M.COL___360                                                 6
 STAT SP IPHASW D HRMM SECON CODA AMPLIT PERI AZIMU VELO AIN AR TRES W  DIS CAZ7
 BAR2 EZ EP       1048 53.86                             146   -0.3710 52.1  96 
 BAR2 EZ ES       1049  5.33                             146    0.2910 52.1  96 
 BAR2 EZ I        1049  6.49        17.5 0.17            152           52.1  96 
 PTB  HZ EP   4   1048 55.67                             129   -1.42 0 89.8 263 
 PTB  HN ES       1049  9.73                             129   -0.4010 89.8 263 
 PTB  HZ I        1049 14.02         3.0 0.10            132           89.8 263 
 RUS  HE ES       1049 13.62                             125   -0.1210  104 143 
 RUS  HZ I        1049 16.04         1.3 0.16            131            104 143 
 SPBC HN ES       1049 15.90                             121    0.3310  119 203 
 ZAR  HZ EP       1049  5.03                             112    0.10 9  163 305 
 ZAR  HN ES       1049 24.34                             112    0.25 9  163 305 
 ZAR  HZ I        1049 27.16         3.0 0.32            116            163 305 
                                                                                
