 2014 12 6 1125 14.5 L   6.794 -73.140147.8  RSN  6 0.3 1.3LRSN                1
 GAP=138        0.66       3.5     3.3  5.8 -0.3531E+01  0.4787E+01  0.6516E+00E
 Epicentro: LOS SANTOS - SANTANDER                                             3
 ACTION:UPD 15-02-10 17:00 OP:nd   STATUS:               ID:20141206112514 L   I
 OLDACT:REG 14-12-06 20:04 OP:spq  STATUS:               ID:20141206111744     3
 2014-12-06-1117-44M.COL___311                                                 6
 STAT SP IPHASW D HRMM SECON CODA AMPLIT PERI AZIMU VELO AIN AR TRES W  DIS CAZ7
 BAR2 SZ EP   1   1125 34.40                             171    0.08 7 22.8 192 
 BAR2 SZ ES   1   1125 50.23                             171    0.42 7 22.8 192 
 BAR2 SZ I        1125 52.03         4.7 0.31            169           22.8 192 
 PAM  SZ EP       1125 37.05                             151    0.1610 77.5  39 
 PAM  SN ES       1125 54.17                             151   -0.2210 77.5  39 
 PAM  SZ I        1125 56.05         2.8 0.70            155           77.5  39 
 RUS  HZ EP       1125 38.33                             144   -0.0310 99.9 176 
 RUS  HN ES   1   1125 56.81                             144   -0.19 7 99.9 176 
 RUS  HZ I        1125 57.99         1.6 0.26            145           99.9 176 
 PTB  HZ EP       1125 41.76                             132    0.12 9  148 259 
 PTB  HN ES       1126  2.32                             132   -0.52 9  148 259 
 PTB  HZ I        1126  3.90         2.5 0.23            134            148 259 
 SPBC HZ EP   1   1125 42.82                             129   -0.28 7  163 219 
 SPBC HE ES       1126  5.71                             129    0.27 9  163 219 
 SPBC HZ I        1126 11.77         3.4 0.38            131            163 219 
 ZAR  HE ES   1   1126 13.01                             123    0.41 6  205 292 
                                                                                
