 2012  1 6 1151 35.9 L   6.788 -73.130142.8  RSN  7 0.2 1.4LRSN                1
 GAP=139        0.29       4.3     5.2  5.4  0.2829E+01 -0.1139E+01  0.3521E+01E
 Epicentro: LOS SANTOS - SANTANDER                                             3
 ACTION:UP  12-02-03 08:14 OP:REBC STATUS:               ID:20120106115135 L   I
 2012-01-06-1150-00M.COL___186                                                 6
 STAT SP IPHASW D HRMM SECON CODA AMPLIT PERI AZIMU VELO SNR AR TRES W  DIS CAZ7
 BAR2 SZ EP   2   1151 55.21                             171     0.0 5   22 195 
 BAR2 SZ ES   2   1152 10.25                             171     0.0 5   22 195 
 BAR2 SZ I        1152 12.20         8.2 0.38                            22 195 
 GIR2 SZ EP   3   1151 55.36                             166     0.1 2   33 348 
 BRR  HZ EP   2   1151 56.92                             151     0.0 5   73 299 
 BRR  HE ES   2   1152 13.32                             151     0.1 5   73 299 
 PAM  SZ EP   3   1151 58.07                             150     0.2 2   77  38 
 PAM  SN ES   3   1152 14.51                             150    -0.4 2   77  38 
 RUS  HZ EP   3   1151 59.27                             144     0.0 2   99 177 
 RUS  HN ES   3   1152 17.33                             144    -0.2 2   99 177 
 RUS  HZ I        1152 19.58         2.9 0.18                            99 177 
 PTB  HN ES   3   1152 23.25                             131    -0.5 2  149 259 
 PTB  HZ I        1152 29.12         4.3 0.28                           149 259 
 CHI  HZ EP   3   1152 12.90                             117    -0.5 2  248 196 
 CHI  HE ES   3   1152 43.12                             117     0.5 2  248 196 
 CHI  HZ I        1152 48.15         2.0 0.96                           248 196 
                                                                                
