 2011  3 6 1029  5.9 L   6.824 -73.087135.6  RSN  4 0.2 1.2LRSN                1
 GAP=165        0.43       3.1    11.0  6.4 -0.4467E+01  0.3755E+01 -0.2375E+01E
 Epicentro: LOS SANTOS - SANTANDER                                             3
 ACTION:UP  11-06-16 14:32 OP:jfem STATUS:               ID:20110306102905 L   I
 2011-03-06-1026-34S.COL___135                                                 6
 STAT SP IPHASW D HRMM SECON CODA AMPLIT PERI AZIMU VELO SNR AR TRES W  DIS CAZ7
 BAR2 SZ EP   3   1029 24.45                             168     0.1 2   28 202 
 BAR2 SZ ES   2   1029 38.77                             168     0.0 5   28 202 
 BAR2 SZ I        1029 41.65         5.4 0.76                            28 202 
 RUS  HZ EP   2   1029 28.91                             141     0.1 5  103 180 
 RUS  HN ES   3   1029 46.62                             141    -0.1 2  103 180 
 RUS  HZ I        1029 48.35         1.5 0.24                           103 180 
 GRA  SZ EP   1   1029 30.04                             136     0.2 7  121  15 
 GRA  SZ ES   1   1029 48.42                             136    -0.1 7  121  15 
 GRA  SZ I        1029 51.73         2.5 0.34                           121  15 
 OCA  SZ EP   1   1029 32.91                             128    -0.3 7  159 351 
 OCA  SZ I        1029 38.20         2.0 0.30                           159 351 
 OCA  SZ ES   1   1029 54.77                             128     0.2 7  159 351 
                                                                                
