 2012  3 6 1927 42.8 L   6.785 -73.200139.9  RSN  5 0.2 1.8LRSN                1
 GAP=230        0.65       4.6     5.7  7.1  0.1534E+02  0.9384E+00  0.5689E+01E
 ACTION:UP  12-03-31 23:17 OP:EP   STATUS:               ID:20120306192742 L   I
 2012-03-06-1920-00M.COL___194                                                 6
 STAT SP IPHASW D HRMM SECON CODA AMPLIT PERI AZIMU VELO SNR AR TRES W  DIS CAZ7
 BRR  HZ EP       1928  3.44                             153     0.410   67 302 
 BRR  HZ I        1928  4.21        21.5 0.29                            67 302 
 BRR  HN ES   1   1928 18.54                             153    -0.3 7   67 302 
 RUS  HZ EP       1928  5.79                             143    -0.110  100 173 
 RUS  HN ES   1   1928 23.97                             143     0.1 7  100 173 
 RUS  HZ I        1928 26.07         5.4 0.64                           100 173 
 PTB  HZ EP       1928  8.38                             132    -0.3 9  142 259 
 PTB  HE ES   1   1928 29.10                             132     0.2 7  142 259 
 ZAR  HN ES   1   1928 39.01                             122     0.1 6  199 293 
 ZAR  HZ I        1928 46.76         8.9 0.26                           199 293 
 CHI  HZ EP   1   1928 19.82                             116     0.0 6  246 194 
 CHI  HE ES   1   1928 48.81                             116     0.1 6  246 194 
 CHI  HZ I        1928 54.98         2.7 0.41                           246 194 
                                                                                
