 2015  4 6 1419 36.0 L   6.804 -73.146152.5  RSN 10 0.4 3.0LRSN                1
 GAP=136        0.90       2.6     3.7  5.0 -0.1651E+01  0.4662E+01 -0.1492E+01E
 Epicentro: LOS SANTOS - SANTANDER                                             3
 ACTION:UPD 15-06-03 16:53 OP:cam  STATUS:               ID:20150406141936 L   I
 OLDACT:REG 15-04-06 20:52 OP:carl STATUS:               ID:20150406141747     3
 2015-04-06-1417-47M.COL___258                                                 6
 STAT SP IPHASW D HRMM SECON CODA AMPLIT PERI AZIMU VELO AIN AR TRES W  DIS CAZ7
 BAR2 EZ IP     D 1419 56.43                             171   -0.0410 23.7 190 
 BAR2 EZ ES       1420 12.35                             171   -0.0610 23.7 190 
 BAR2 EZ I        1420 14.12       123.4 0.40            170           23.7 190 
 BRR  HZ EP       1419 58.35                             154    0.4610 70.9 298 
 BRR  HN ES       1420 15.69                             154    0.7510 70.9 298 
 BRR  HZ I        1420 22.73       104.5 0.54            150           70.9 298 
 PAM  SZ IP       1419 59.27                             152    0.3310 77.1  40 
 PAM  SZ EP       1419 59.27                             152           77.1  40 
 PAM  SN ES       1420 16.68                             152   -0.1410 77.1  40 
 PAM  SZ I        1420 18.47        70.8 0.50            156           77.1  40 
 RUS  HZ EP       1420  0.31                             145   -0.1610  101 176 
 RUS  HN ES       1420 19.24                             145   -0.3010  101 176 
 RUS  HZ I        1420 20.58        77.0 0.44            150            101 176 
 PTB  HZ EP       1420  3.03                             133   -0.52 9  148 259 
 PTB  HN ES       1420 24.63                             133   -0.38 9  148 259 
 PTB  HZ I        1420 31.93       204.1 0.44            133            148 259 
 OCA  HZ EP       1420  5.29                             131    0.46 9  160 353 
 OCA  HN ES       1420 26.76                             131   -0.53 9  160 353 
 OCA  HZ I        1420 31.49       207.3 0.44            133            160 353 
 SPBC HZ EP       1420  5.22                             130    0.15 9  163 219 
 SPBC HN ES       1420 27.89                             130    0.16 9  163 219 
 SPBC HZ I        1420 30.82       139.4 0.16            132            163 219 
 ZAR  HZ EP       1420  9.16                             124    0.27 9  204 292 
 ZAR  HN ES       1420 34.65                             124    0.12 9  204 292 
 ZAR  HZ I        1420 40.01       133.5 0.56            124            204 292 
 NOR  HZ EP       1420 12.21                             120    0.04 8  235 234 
 NOR  HE ES       1420 40.23                             120   -0.13 8  235 234 
 NOR  HZ I        1420 48.31        69.7 0.42            122            235 234 
 SML  HZ EP       1420 12.80                             119   -0.19 8  243 335 
 SML  HN ES       1420 41.27                             119   -0.56 8  243 335 
 SML  HZ I        1420 49.66        79.8 0.44            120            243 335 
                                                                                
