 2011  8 6 1758 14.7 L   6.772 -73.112149.4  RSN  4 0.2 1.6LRSN                1
 GAP=239        0.40       4.4     5.6  5.6  0.8372E+01 -0.2701E+01  0.1977E+00E
 Epicentro: LOS SANTOS - SANTANDER                                             3
 ACTION:UPD 12-07-25 14:06 OP:epov STATUS:               ID:20110806175814 L   I
 2011-08-06-1740-00M.COL___145                                                 6
 STAT SP IPHASW D HRMM SECON CODA AMPLIT PERI AZIMU VELO AIN AR TRES W  DIS CAZ7
 BAR2 SZ EP       1758 34.73                             172   -0.0210 21.3 201 
 BAR2 SZ I        1758 35.07         8.0 0.10                          21.3 201 
 BAR2 SZ ES   2   1758 50.01                             172   -0.36 5 21.3 201 
 BRR  HZ EP       1758 36.61                             152    0.0710 76.0 299 
 BRR  HZ I        1758 48.50         8.3 0.64                          76.0 299 
 BRR  HE ES   1   1758 53.59                             152    0.04 7 76.0 299 
 RUS  HZ EP   2   1758 38.37                             145   -0.23 5 97.2 178 
 RUS  HN ES   2   1758 57.62                             145    0.40 5 97.2 178 
 RUS  HZ I        1758 57.86         4.5 0.59                          97.2 178 
 NOR  SN ES   2   1759 18.78                             119   -0.16 4  236 236 
                                                                                
