 2010 12 6 1640  9.7 L   6.811 -73.182142.5  RSN  9 0.3 2.1LRSN                1
 GAP=161        0.69       4.0     7.6  6.1 -0.2120E+02  0.1283E+02 -0.7661E+00E
 Epicentro: LOS SANTOS - SANTANDER                                             3
 ACTION:UP  11-01-14 15:23 OP:pat  STATUS:               ID:20101206164009 L   I
 2010-12-06-1636-31S.COL___135                                                 6
 STAT SP IPHASW D HRMM SECON CODA AMPLIT PERI AZIMU VELO SNR AR TRES W  DIS CAZ7
 BTL  SZ EP       1640 29.06                             173     0.310   15 322 
 BAR2 SZ EP       1640 28.89                             170    -0.110   24 180 
 BAR2 SZ ES   1   1640 43.68                             170    -0.3 7   24 180 
 BAR2 SZ I        1640 45.30        22.9 0.20                            24 180 
 GUE  SZ EP       1640 33.59                             139    -0.510  116  14 
 GRA  SZ EP       1640 34.91                             136     0.310  126  19 
 GRA  SZ ES   1   1640 54.36                             136     0.2 7  126  19 
 GRA  SZ I        1640 55.58        16.7 0.37                           126  19 
 OCA  SZ EP       1640 37.57                             129     0.0 9  159 355 
 OCA  SZ ES   2   1640 59.51                             129     0.2 5  159 355 
 OCA  SZ I        1641  7.44        15.6 0.22                           159 355 
 NOR  SZ EP       1640 45.26                             118     0.3 8  232 234 
 NOR  SN ES   1   1641 12.59                             118     0.1 6  232 234 
 CHI  HZ EP       1640 46.98                             116    -0.2 8  249 194 
 CHI  HE ES   2   1641 17.23                             116     0.7 4  249 194 
 CHI  HZ I        1641 22.34         6.0 0.41                           249 194 
 RREF HE ES   2   1641 30.47                             110    -0.6 3  320 229 
 RREF HZ I        1641 41.38         7.3 0.16                           320 229 
 PRA  HZ EP       1641  2.77                             106    -0.2 6  391 209 
 PRA  HN ES   2   1641 44.73                             106     0.2 3  391 209 
                                                                                
