 2012  8 6 1804 30.8 L   6.781 -73.156139.3  RSN 11 0.4 2.1LRSN                1
 GAP=113        0.77       3.8     3.8  6.0  0.2167E+01  0.7215E+01  0.8061E+01E
 Epicentro: LOS SANTOS - SANTANDER                                             3
 ACTION:UPD 12-09-10 11:54 OP:ep   STATUS:               ID:20120806180430 L   I
 2012-08-06-1800-00M.COL___216                                                 6
 STAT SP IPHASW D HRMM SECON CODA AMPLIT PERI AZIMU VELO AIN AR TRES W  DIS CAZ7
 BAR2 SZ EP   1   18 4 49.53                             171   -0.06 7 21.1 188 
 BAR2 SZ ES   1   18 5  4.19                             171   -0.07 7 21.1 188 
 BAR2 SZ I        18 5  5.55        37.9 0.21                          21.1 188 
 BRR  HZ EP   1   18 4 51.43                             151    0.19 7 71.2 300 
 BRR  HN ES   1   18 5  8.03                             151    0.84 7 71.2 300 
 BRR  HZ I        18 5 12.29        31.1 0.15                          71.2 300 
 PAM  SZ EP   1   18 4 52.42                             149   -0.04 7 79.7  39 
 PAM  SN ES   1   18 5  9.26                             149   -0.11 7 79.7  39 
 RUS  HZ EP   1   18 4 53.49                             143   -0.27 7 98.6 175 
 RUS  HN ES   1   18 5 11.52                             143   -0.16 7 98.6 175 
 RUS  HZ I        18 5 13.65        19.2 0.26                          98.6 175 
 PTB  HZ EP   1   18 4 56.39                             131   -0.70 7  146 260 
 PTB  HN ES   1   18 5 16.65                             131   -0.96 7  146 260 
 PTB  HZ I        18 5 20.28         7.9 0.22                           146 260 
 YOP  SN ES   1   18 5 23.45                             125    0.24 7  178 153 
 ZAR  HN ES   1   18 5 27.83                             121    0.08 6  204 293 
 ZAR  HZ I        18 5 33.41        14.0 0.26                           204 293 
 NOR  SZ EP   1   18 5  6.11                             117    0.20 6  233 235 
 NOR  SN ES   1   18 5 33.80                             117    0.48 6  233 235 
 CHI  HZ EP   1   18 5  7.92                             116    0.04 6  246 195 
 CHI  HZ I        18 5 10.28         4.3 0.25                           246 195 
 GUY  SZ EP   1   18 5 14.54                             111    0.42 5  301 235 
 GUY  SZ I        18 5 56.71         6.1 0.29                           301 235 
 PRA  HZ EP   1   18 5 23.99                             105    0.18 4  390 210 
 PRA  HZ I        18 5 25.46         4.4 0.20                           390 210 
 PRA  HE ES   1   18 6  5.57                             105    0.40 4  390 210 
                                                                                
