 2013  1 6 1010 42.8 L   6.808 -73.088149.3  RSN  7 0.5 1.7LRSN                1
 GAP=189        0.76       5.2     8.9  8.7  0.1714E+02  0.9404E+01  0.1693E+02E
 Epicentro: LOS SANTOS - SANTANDER                                             3
 ACTION:UPD 13-02-15 09:12 OP:ep   STATUS:               ID:20130106101042 L   I
 2013-01-06-1010-00M.COL___242                                                 6
 STAT SP IPHASW D HRMM SECON CODA AMPLIT PERI AZIMU VELO AIN AR TRES W  DIS CAZ7
 BAR2 SZ EP   2   1011  2.50                             170   -0.42 5 26.0 204 
 BAR2 SZ ES   1   1011 18.41                             170   -0.20 7 26.0 204 
 BAR2 SZ I        1011 20.67        14.3 0.18            162           26.0 204 
 BRR  HZ EP   2   1011  4.26                             151   -0.38 5 76.5 296 
 BRR  HN ES       1011 22.04                             151    0.3710 76.5 296 
 RUS  HN ES   2   1011 25.05                             144   -0.73 5  101 180 
 PTB  HE ES   2   1011 31.92                             131   -0.44 5  154 259 
 PTB  HZ I        1011 36.90         7.0 0.44            127            154 259 
 OCA  HN ES   2   1011 34.11                             130    0.41 5  160 351 
 ZAR  HN ES   2   1011 41.07                             122   -0.92 4  210 291 
 ZAR  HZ I        1011 47.47         3.9 0.54            120            210 291 
 CHI  HZ EP   1   1011 21.15                             117    0.17 6  251 197 
 CHI  HE ES   1   1011 51.43                             117    0.68 6  251 197 
 CHI  HZ I        1011 54.32         2.0 0.40            116            251 197 
                                                                                
