 2012  5 6 1821 45.5 L   6.791 -73.163148.0  RSN  8 0.4 2.2LRSN                1
 GAP=145        0.94       5.5     5.2  7.9 -0.5275E+01  0.5201E+01  0.1209E+02E
 Epicentro: LOS SANTOS - SANTANDER                                             3
 ACTION:UP  12-07-05 12:02 OP:pat  STATUS:               ID:20120506182145 L   I
 2012-05-06-1820-00M.COL___192                                                 6
 STAT SP IPHASW D HRMM SECON CODA AMPLIT PERI AZIMU VELO SNR AR TRES W  DIS CAZ7
 BAR2 SZ EP       1822  5.20                             171    -0.210   22 186 
 BAR2 SZ ES   1   1822 20.98                             171     0.1 7   22 186 
 BAR2 SZ I        1822 22.02        25.2 0.36                            22 186 
 BRR  HZ EP       1822  7.10                             153     0.310   70 300 
 BRR  HN ES   1   1822 24.40                             153     0.9 7   70 300 
 BRR  HZ I        1822 26.76        41.0 0.17                            70 300 
 PAM  SZ EP       1822  8.00                             151    -0.110   79  40 
 PAM  SN ES   1   1822 25.23                             151    -0.4 7   79  40 
 PTB  HZ EP   1   1822 11.80                             133    -0.7 7  146 259 
 PTB  HN ES   1   1822 33.12                             133    -0.4 7  146 259 
 PTB  HZ I        1822 38.76        12.0 0.36                           146 259 
 ZAR  HZ EP   1   1822 17.95                             123     0.0 6  203 293 
 ZAR  HN ES   1   1822 43.16                             123    -0.1 6  203 293 
 ZAR  HZ I        1822 50.38        21.4 0.33                           203 293 
 NOR  SN ES   1   1822 48.38                             119    -0.5 6  233 234 
 CHI  HZ EP   1   1822 23.48                             118     0.3 6  247 195 
 CHI  HN ES   1   1822 52.79                             118     0.2 6  247 195 
 PRA  HZ EP   1   1822 39.67                             107     0.8 4  390 209 
                                                                                
