 2017  7 6 1938 21.2 L   6.441 -73.637104.8  RSN  8 0.4 1.8LRSN                1
 GAP=137        0.98       4.0     3.5  6.7 -0.6238E+01  0.5045E+01  0.3103E+01E
 Epicentro: SANTA HELENA DEL OPON - SANTANDER                                  3
 ACTION:UPD 17-08-30 15:30 OP:rebc STATUS:               ID:20170706193821 L   I
 OLDACT:REG 17-07-06 23:21 OP:ar   STATUS:               ID:20170706193743     3
 2017-07-06-1938-00M.COL___380                                                 6
 STAT SP IPHASW D HRMM SECON CODA AMPLIT PERI AZIMU VELO AIN AR TRES W  DIS CAZ7
 BAR2 EZ EP       1938 37.53                             151    0.2410 53.0  72 
 BAR2 EZ ES       1938 49.81                             151    0.0010 53.0  72 
 BAR2 EZ I        1938 51.57        68.0 0.20            153           53.0  72 
 BRR  HZ EP       1938 37.87                             142   -0.5110 74.1 354 
 BRR  HE ES       1938 52.00                             142    0.2610 74.1 354 
 PTB  HZ IP   9 D 1938 38.63                             135   -1.15 0 91.3 277 
 PTB  HE ES       1938 52.63                                   -0.4610 91.3 277 
 PTB  HZ I        1938 55.19         7.8 0.20            136           91.3 277 
 SPBC HE ES   2   1938 54.89                             132   -0.83 5 99.6 209 
 PAM  EZ EP       1938 45.43                             121    0.01 9  144  46 
 PAM  EE ES       1939  4.23                             121   -0.05 9  144  46 
 PAM  EZ I        1939  5.44         6.7 0.26            123            144  46 
 NOR  HZ EP       1938 48.11                             117    0.72 9  167 235 
 NOR  HE ES       1939  8.14                             117    0.37 9  167 235 
 NOR  HZ I        1939 11.75         5.6 0.16            118            167 235 
 ZAR  HZ EP       1938 48.10                             115   -0.40 9  178 311 
 ZAR  HE ES       1939  9.87                             115    0.11 9  178 311 
 ZAR  HZ I        1939 12.91        15.5 0.22            116            178 311 
 GUY2CHE ES       1939 21.44                             108   -0.62 8  234 235 
                                                                                
