 2013  7 6 1825 15.8 L   6.751 -73.152146.2  RSN  7 0.4 2.0LRSN                1
 GAP= 75        1.10       5.4     5.0  7.1 -0.2832E+01 -0.3965E+01 -0.1630E+01E
 Epicentro: LOS SANTOS - SANTANDER                                             3
 ACTION:UPD 13-08-12 10:35 OP:ep   STATUS:               ID:20130706182515 L   I
 OLDACT:REG 13-07-06 16:26 OP:stll STATUS:               ID:20130706181845     3
 2013-07-06-1818-45M.COL___221                                                 6
 STAT SP IPHASW D HRMM SECON CODA AMPLIT PERI AZIMU VELO AIN AR TRES W  DIS CAZ7
 BAR2 SZ EP       1825 35.32                             173   -0.0810 17.8 191 
 BAR2 SZ ES       1825 50.38                             173   -0.3010 17.8 191 
 BAR2 SZ I        1825 51.61        12.8 0.38            172           17.8 191 
 BRR  HZ EP       1825 37.25                             152    0.1210 73.4 303 
 BRR  HN ES       1825 54.46                             152    0.7010 73.4 303 
 BRR  HN I        1825 58.86        22.9 0.20            151           73.4 303 
 PAM  SZ EP       1825 38.21                             149   -0.1510 82.1  37 
 PAM  SN ES       1825 55.38                             149   -0.5710 82.1  37 
 PAM  SN I        1825 56.62        19.4 0.66            152           82.1  37 
 RUS  HZ EP       1825 39.28                             145    0.0510 95.2 175 
 RUS  HN ES       1825 57.98                             145    0.4910 95.2 175 
 RUS  HN I        1825 59.52        18.3 0.42            148           95.2 175 
 GRA  SZ EP       1825 42.25                             136    0.7010  131  17 
 PTB  HZ EP       1825 42.22                             132   -0.45 9  146 261 
 PTB  HN ES       1826  3.17                             132   -0.44 9  146 261 
 PTB  HN I        1826  6.80        17.0 0.20            133            146 261 
 TAM  HZ EP       1825 43.34                             131   -0.13 9  154 103 
                                                                                
