 2010  7 6 1000  5.1 L   6.770 -73.125145.8  RSN 13 0.4 2.2LRSN                1
 GAP=128        0.85       3.2     5.8  5.6 -0.7155E+01 -0.2182E+00  0.1070E+01E
 Epicentro: LOS SANTOS - SANTANDER                                             3
 ACTION:UPD 10-12-01 15:15 OP:pat  STATUS:               ID:20100706100005 L   I
 2010-07-06-0959-45S.COL___118                                                 6
 STAT SP IPHASW D HRMM SECON CODA AMPLIT PERI AZIMU VELO AIN AR TRES W  DIS CAZ7
 BAR2 SZ IP       10 0 24.58                             172    -0.110   21 198 
 BAR2 SZ ES   1   10 0 39.14                             172    -0.8 7   21 198 
 BRR  HZ EP   1   10 0 26.55                             151     0.1 7   75 300 
 BRR  HN ES   1   10 0 43.45                             151     0.4 7   75 300 
 BRR  HZ I        10 0 44.54        77.5 0.12                            75 300 
 RUS  HZ EP       10 0 28.60                             145     0.010   97 177 
 RUS  HE ES   1   10 0 47.11                             145     0.2 7   97 177 
 RUS  HZ I        10 0 48.24        23.3 0.30                            97 177 
 BRI  SZ EP       10 0 29.31                             141     0.210  111  19 
 BRI  SZ ES   1   10 0 47.84                             141    -0.1 7  111  19 
 GUE  SZ EP   1   10 0 30.65                             139     0.6 7  119  11 
 GUE  SZ ES   1   10 0 50.16                             139     0.7 7  119  11 
 GRA  SZ IP       10 0 30.64                             136     0.110  128  16 
 GRA  SZ ES   1   10 0 50.46                             136     0.1 7  128  16 
 OCA  SZ EP       10 0 33.28                             129    -0.4 9  164 353 
 OCA  SZ ES   1   10 0 55.49                             129    -0.6 7  164 353 
 CHI  HZ EP   2   10 0 42.93                             117     0.4 4  246 196 
 CHI  HE ES   2   10 1 11.44                             117    -0.2 4  246 196 
 CHI  HZ I        10 1 16.20         5.6 0.48                           246 196 
 HEL  HN ES   2   10 1 16.32                             115    -0.6 4  273 257 
 HEL  HZ I        10 1 24.21         7.7 0.24                           273 257 
 RREF HE ES   2   10 1 27.52                             111     0.4 3  321 230 
 RREF HZ I        10 1 32.85         5.6 0.40                           321 230 
 DBB  SZ EP   1   10 0 52.71                             109    -0.1 5  342 275 
 SDV  BZ EP       10 0 54.52                             108    -0.6 6  361  50 
 SDV  BZ I        10 1 36.35         6.6 0.47                           361  50 
 PRA  HZ EP   1   10 0 58.69                             107     0.3 4  390 210 
 PRA  HN ES   2   10 1 40.26                             107     0.3 3  390 210 
 PRA  HZ I        10 1 47.92         8.3 0.49                           390 210 
                                                                                
