 2012  8 6 1935 34.7 L   6.779 -73.146145.5  RSN 12 0.4 2.5LRSN                1
 GAP=137        0.79       3.2     4.0  5.7 -0.6745E+00  0.7508E+01  0.4551E+01E
 Epicentro: LOS SANTOS - SANTANDER                                             3
 ACTION:UPD 12-09-10 11:54 OP:ep   STATUS:               ID:20120806193534 L   I
 2012-08-06-1930-00M.COL___216                                                 6
 STAT SP IPHASW D HRMM SECON CODA AMPLIT PERI AZIMU VELO AIN AR TRES W  DIS CAZ7
 BAR2 SZ EP   1   1935 54.31                             171    0.05 7 21.1 191 
 BAR2 SZ ES   1   1936  8.91                             171   -0.60 7 21.1 191 
 BAR2 SZ I        1936 12.30        58.2 0.26                          21.1 191 
 BRR  HZ EP       1935 56.19                             152    0.3010 72.3 300 
 BRR  HZ I        1935 56.49       132.2 0.16                          72.3 300 
 BRR  HN ES   1   1936 13.40                             152    0.99 7 72.3 300 
 PAM  SZ EP   1   1935 57.26                             150    0.26 7 79.2  38 
 PAM  SN ES   1   1936 14.19                             150   -0.19 7 79.2  38 
 RUS  HZ EP   1   1935 58.14                             144   -0.12 7 98.3 176 
 RUS  HN ES   1   1936 17.01                             144    0.37 7 98.3 176 
 RUS  HZ I        1936 18.17        20.1 0.24                          98.3 176 
 PTB  HZ EP   1   1936  1.23                             132   -0.38 7  147 260 
 PTB  HN ES   1   1936 22.05                             132   -0.54 7  147 260 
 PTB  HZ I        1936 30.00        42.3 0.36                           147 260 
 OCA  HE ES   1   1936 25.09                             129   -0.35 7  163 353 
 ZAR  HZ EP   1   1936  6.71                             122   -0.51 6  205 293 
 ZAR  HE ES   1   1936 32.33                             122   -0.25 6  205 293 
 NOR  SZ EP   1   1936 10.38                             119    0.11 6  233 235 
 NOR  SN ES   1   1936 38.20                             119    0.18 6  233 235 
 CHI  HZ EP   1   1936 12.14                             117    0.00 6  246 195 
 CHI  HN ES   1   1936 40.72                             117   -0.63 6  246 195 
 CHI  HZ I        1936 49.40        11.2 0.60                           246 195 
 HEL  HZ EP   1   1936 15.52                             115    0.68 6  272 256 
 HEL  HN ES   1   1936 46.17                             115    0.03 6  272 256 
 GUY  SZ EP   1   1936 18.39                             112   -0.02 5  302 235 
 GUY  SZ I        1936 58.49        21.9 0.54                           302 235 
 PRA  HZ EP   1   1936 27.83                             107   -0.15 4  390 210 
 PRA  HN ES   1   1937 10.09                             107    0.56 4  390 210 
                                                                                
