 2015  3 6 1104 11.3 L   6.789 -73.185139.3  RSN  5 0.2 1.3LRSN                1
 GAP=132        0.53       3.3     3.1  4.1  0.2219E+01 -0.8277E+00 -0.1929E+01E
 Epicentro: ZAPATOCA - SANTANDER                                               3
 ACTION:UPD 15-04-30 16:23 OP:nd   STATUS:               ID:20150306110411 L   I
 OLDACT:REG 15-03-06 20:19 OP:stll STATUS:               ID:20150306105746     3
 2015-03-06-1057-46M.COL___287                                                 6
 STAT SP IPHASW D HRMM SECON CODA AMPLIT PERI AZIMU VELO AIN AR TRES W  DIS CAZ7
 BAR2 EZ EP       11 4 30.20                             171    0.0610 21.7 179 
 BAR2 EZ I        11 4 30.29         5.6 0.40            168           21.7 179 
 BAR2 EZ ES       11 4 44.75                             171   -0.0710 21.7 179 
 BRR  HZ EP       11 4 31.92                             152    0.3210 68.1 301 
 BRR  HN ES       11 4 47.22                             152   -0.1910 68.1 301 
 PAM  SZ EP       11 4 33.13                             148    0.0410 81.2  41 
 PAM  SZ I        11 4 33.32         4.9 0.24            151           81.2  41 
 RUS  HZ EP       11 4 34.13                             143   -0.2510 99.7 174 
 RUS  HZ I        11 4 35.26         1.5 0.20            141           99.7 174 
 RUS  HN ES       11 4 52.52                             143    0.1610 99.7 174 
 PTB  HZ EP       11 4 37.14                             131   -0.21 9  143 259 
 PTB  HN ES       11 4 57.80                             131    0.14 9  143 259 
 PTB  HZ I        11 5  4.25         2.9 0.68            128            143 259 
                                                                                
