 2013  6 6 1118  7.6 L   6.802 -73.171127.2  RSN  4 0.4 1.3LRSN                1
 GAP=235        0.99       7.3     7.0  7.9  0.2697E+02  0.8087E+01  0.4198E+01E
 Epicentro: LOS SANTOS - SANTANDER                                             3
 ACTION:UPD 14-01-08 09:52 OP:ep   STATUS:               ID:20130606111807 L   I
 OLDACT:REG 13-06-06 14:56 OP:nd   STATUS:               ID:20130606110959     3
 2013-06-06-1109-59M.COL___260                                                 6
 STAT SP IPHASW D HRMM SECON CODA AMPLIT PERI AZIMU VELO AIN AR TRES W  DIS CAZ7
 BAR2 SZ EP       1118 25.27                             169    0.2610 23.2 183 
 BAR2 SZ ES       1118 38.50                             169   -0.0810 23.2 183 
 BAR2 SZ I        1118 42.19         2.8 0.40            163           23.2 183 
 BRR  HZ IP     C 1118 27.12                             150    0.5010 68.7 300 
 BRR  HN ES       1118 41.13                             150   -0.3310 68.7 300 
 BRR  HZ I        1118 41.72        10.9 0.34            149           68.7 300 
 RUS  HZ EP       1118 29.57                             139   -0.0410  101 174 
 RUS  HN ES       1118 46.76                             139   -0.0210  101 174 
 RUS  HZ I        1118 49.28         3.0 0.28            138            101 174 
 PTB  HZ EP       1118 32.11                             128   -0.76 9  145 259 
 PTB  HN ES       1118 53.00                             128    0.43 9  145 259 
 PTB  HZ I        1118 58.31         2.3 0.26            127            145 259 
                                                                                
