 2012 12 6 1145 29.9 L   6.620 -73.587 98.7  RSN  4 0.5 1.5LRSN                1
 GAP=149        1.22       9.8     6.9 13.3  0.4656E+02  0.3746E+02  0.2327E+02E
 Epicentro: EL CARMEN DE CHUCURI - SANTANDER                                   3
 ACTION:UPD 13-01-04 14:26 OP:ep   STATUS:               ID:20121206114529 L   I
 2012-12-06-1140-00M.COL___232                                                 6
 STAT SP IPHASW D HRMM SECON CODA AMPLIT PERI AZIMU VELO AIN AR TRES W  DIS CAZ7
 BAR2 SZ ES       1145 56.16                             154   -0.3510 44.9  94 
 BAR2 SZ I        1145 57.33        13.0 0.18                          44.9  94 
 PTB  HZ EP       1145 47.79                             132   -0.6310 96.5 265 
 PTB  HN ES       1146  2.71                             132   -0.1310 96.5 265 
 PTB  HN I        1146  3.41        12.6 0.24                          96.5 265 
 RUS  HZ EP       1145 49.09                             132   -0.1010 97.9 145 
 RUS  HN ES       1146  4.84                             132    0.6310 97.9 145 
 RUS  HN I        1146  7.93         3.2 0.30                          97.9 145 
 ZAR  HN ES       1146 17.07                             116    0.71 9  170 305 
 ZAR  HE I        1146 20.96         8.0 0.18                           170 305 
                                                                                
