 2010  9 6 1002 56.5 L   6.783 -73.047148.5  RSN  8 0.4 1.6LRSN                1
 GAP=170        0.70       4.5    11.4  8.1 -0.1283E+01 -0.2747E+02 -0.6513E+01E
 Epicentro: LOS SANTOS - SANTANDER                                             3
 ACTION:UP  11-02-18 11:00 OP:tino STATUS:               ID:20100906100256 L   I
 2010-09-06-1000-19S.COL___120                                                 6
 STAT SP IPHASW D HRMM SECON CODA AMPLIT PERI AZIMU VELO SNR AR TRES W  DIS CAZ7
 BAR2 SZ EP   1   10 3 16.40                             170    -0.1 7   26 215 
 BAR2 SZ ES   2   10 3 31.65                             170    -0.4 5   26 215 
 BAR2 SZ I        10 3 33.11        16.5 0.14                            26 215 
 BTL  SZ EP   1   10 3 16.75                             169     0.2 7   29 302 
 GIR2 SZ EP   1   10 3 16.59                             165     0.0 7   36 334 
 GIR2 SZ ES   2   10 3 32.33                             165     0.0 5   36 334 
 BRR  HZ EP   1   10 3 18.37                             150    -0.2 7   82 296 
 BRR  HE ES   2   10 3 35.53                             150    -0.2 5   82 296 
 BRR  HZ I        10 3 37.38        11.3 0.41                            82 296 
 RUS  HZ EP   1   10 3 20.33                             145     0.0 7   99 182 
 RUS  HE ES   2   10 3 39.61                             145     0.6 5   99 182 
 RUS  HZ I        10 3 40.90         4.5 0.34                            99 182 
 GUE  SZ EP   1   10 3 21.82                             140     0.4 7  117   7 
 GRA  SZ EP   1   10 3 21.20                             138    -0.7 7  125  12 
 GRA  SZ ES   2   10 3 41.64                             138    -0.1 5  125  12 
 GRA  SZ I        10 3 42.61         3.5 0.46                           125  12 
 OCA  SZ EP   1   10 3 25.54                             130     0.2 7  164 349 
 OCA  SZ ES   2   10 3 48.56                             130     0.7 5  164 349 
 OCA  SZ I        10 3 51.54         4.2 0.32                           164 349 
                                                                                
