 2017  5 6 1717 18.8 L   6.783 -73.157146.0  RSN  8 0.5 1.8LRSN                1
 GAP=111        1.30       5.4     5.6  9.3 -0.7254E+01  0.5671E+00  0.1592E+02E
 Epicentro: LOS SANTOS - SANTANDER                                             3
 ACTION:UPD 17-06-16 13:33 OP:jn   STATUS:               ID:20170506171718 L   I
 OLDACT:UP  17-05-06 22:37 OP:ar   STATUS:               ID:20170506170746d    3
 OLDACT:DUP 17-05-06 22:27 OP:ar   STATUS:               ID:20170506170746d    3
 2017-05-06-1708-00M.COL___370                                                 6
 STAT SP IPHASW D HRMM SECON CODA AMPLIT PERI AZIMU VELO AIN AR TRES W  DIS CAZ7
 BRR  HZ EP       1717 40.04                             153    0.0610 71.0 300 
 BRR  HN ES       1717 57.11                             153    0.6210 71.0 300 
 PAM  EZ EP       1717 41.29                             150    0.0910 79.7  39 
 PAM  EN ES       1717 58.57                             150   -0.0810 79.7  39 
 PAM  EZ I        1718  0.44        12.5 0.50            145           79.7  39 
 RUS  HZ EP       1717 42.07                             144   -0.3910 98.8 175 
 RUS  HN ES       1718  0.65                             144   -0.2510 98.8 175 
 RUS  HZ I        1718  2.10         5.1 0.38            136           98.8 175 
 PTB  HZ EP       1717 45.03                             132   -0.63 9  146 259 
 PTB  HN ES       1718  5.47                             132   -1.12 9  146 259 
 PTB  HZ I        1718 12.25         6.3 0.30            127            146 259 
 SPBC HZ EP       1717 47.46                             130    0.34 9  161 219 
 SPBC HN ES       1718  9.90                             130    0.71 9  161 219 
 SPBC HZ I        1718 13.80        14.1 0.36            123            161 219 
 YPLC HZ EP       1717 48.88                             127    0.36 9  176 151 
 YPLC HZ I        1718 12.06         8.0 0.32            119            176 151 
 NOR  HZ EP       1717 54.51                             119    0.18 8  233 235 
 NOR  HN ES       1718 22.81                             119    0.78 8  233 235 
 NOR  HZ I        1718 29.59         4.4 0.26            113            233 235 
 CHI  HE ES       1718 25.02                             117   -0.50 8  246 195 
 CHI  HZ I        1718 29.08         5.4 0.64            111            246 195 
                                                                                
