 2013  8 6 1955 51.7 L   6.797 -73.150146.0  RSN 10 0.4 1.9LRSN                1
 GAP=136        0.84       4.0     3.8  6.2 -0.1739E+00  0.6559E+01  0.1030E+02E
 Epicentro: LOS SANTOS - SANTANDER                                             3
 ACTION:UPD 14-01-14 08:59 OP:ep   STATUS:               ID:20130806195551 L   I
 OLDACT:DUP 13-08-06 17:12 OP:carl STATUS:               ID:20130806194960d    3
 2013-08-06-1949-59M.COL___268                                                 6
 STAT SP IPHASW D HRMM SECON CODA AMPLIT PERI AZIMU VELO AIN AR TRES W  DIS CAZ7
 BAR2 SZ ES   1   1956 26.50                             171   -0.19 7 22.9 189 
 BAR2 SZ I        1956 27.65        14.4 0.22            170           22.9 189 
 GIR2 SZ EP   1   1956 11.39                             167   -0.03 7 31.5 351 
 GIR2 SZ ES   1   1956 26.76                             167   -0.03 7 31.5 351 
 GIR2 SZ I        1956 27.96        13.2 0.30            167           31.5 351 
 BRR  HN ES       1956 29.83                             153    0.4610 70.9 299 
 BRR  HN I        1956 31.04        47.0 0.22            151           70.9 299 
 PAM  SZ EP   1   1956 14.34                             151    0.35 7 78.0  40 
 PAM  SE ES   1   1956 30.88                             151   -0.48 7 78.0  40 
 PAM  SZ I        1956 33.57        13.5 0.44            153           78.0  40 
 RUS  HZ EP       1956 15.66                             144    0.1910  100 176 
 RUS  HN ES   1   1956 34.39                             144    0.39 7  100 176 
 RUS  HZ I        1956 35.17        11.1 0.24            144            100 176 
 PTB  HZ EP       1956 18.09                             132   -0.56 9  147 259 
 PTB  HN ES   1   1956 39.24                             132   -0.42 7  147 259 
 PTB  HZ I        1956 40.78         7.5 0.30            131            147 259 
 ZAR  HN ES       1956 49.34                             123   -0.09 9  204 292 
 ZAR  HN I        1956 54.74        12.5 0.16            122            204 292 
 NOR  HZ EP   1   1956 27.67                             119    0.28 6  234 234 
 NOR  HE ES       1956 55.25                             119    0.03 8  234 234 
 NOR  HZ I        1957  3.24         5.2 0.18            119            234 234 
 CHI  HZ EP   1   1956 29.61                             117    0.23 6  248 195 
 CHI  HN ES   1   1956 57.71                             117   -1.04 6  248 195 
 CHI  HN I        1957  1.39         7.5 0.54            118            248 195 
 GUY2CHN ES       1957  9.76                             112    0.52 7  301 235 
                                                                                
