 2011 11 6 1259 32.9 L   6.773 -73.093140.0  RSN  4 0.2 1.4LRSN                1
 GAP=145        0.49       3.7     6.1  7.4  0.6879E+01 -0.1980E+02 -0.5933E+01E
 Epicentro: LOS SANTOS - SANTANDER                                             3
 ACTION:UPD 12-07-13 16:08 OP:ep   STATUS:               ID:20111106125933 L   I
 2011-11-06-1256-17S.COL___175                                                 6
 STAT SP IPHASW D HRMM SECON CODA AMPLIT PERI AZIMU VELO AIN AR TRES W  DIS CAZ7
 BAR2 SZ EP       1259 51.78                             171   -0.0510 22.3 206 
 BAR2 SZ I        13 0  8.06         4.9 0.28                          22.3 206 
 PAM  SZ EP       1259 54.69                             150    0.2410 76.2  35 
 PAM  SN ES   3   13 0 10.47                             150   -0.77 2 76.2  35 
 BRR  HZ EP       1259 53.65                             150   -0.1910 77.8 298 
 BRR  HZ I        13 0  2.97         8.8 0.38                          77.8 298 
 BRR  HN ES   1   13 0 10.29                             150    0.13 7 77.8 298 
 RUS  HZ EP       1259 55.74                             144   -0.1310 97.4 179 
 RUS  HN ES   1   13 0 13.94                             144    0.17 7 97.4 179 
 RUS  HZ I        13 0 15.86         3.2 0.28                          97.4 179 
                                                                                
