 2014  7 6 1047  2.7 L   6.835 -73.196136.0  RSN 17 0.3 2.1LRSN                1
 GAP=129        0.70       1.6     2.5  3.8 -0.8228E+00  0.3866E+01  0.3043E+00E
 Epicentro: ZAPATOCA - SANTANDER                                               3
 ACTION:UPD 15-03-16 20:41 OP:nd   STATUS:               ID:20140706104702 L   I
 OLDACT:REG 14-07-06 19:45 OP:spq  STATUS:               ID:20140706103806     3
 2014-07-06-1038-06M.COL___256                                                 6
 STAT SP IPHASW D HRMM SECON CODA AMPLIT PERI AZIMU VELO AIN AR TRES W  DIS CAZ7
 BAR2 SZ IP     D 1047 21.57                             168    0.3410 26.8 177 
 BAR2 SZ ES   1   1047 35.71                             168    0.02 7 26.8 177 
 BAR2 SZ I        1047 37.42        31.0 0.16            168           26.8 177 
 PAM  SZ EP       1047 24.38                             148    0.4510 78.3  44 
 PAM  SN ES       1047 40.33                             148   -0.1710 78.3  44 
 PAM  SZ I        1047 43.46        34.3 0.50            154           78.3  44 
 RUS  HZ EP       1047 25.74                             140   -0.0910  105 173 
 RUS  HN ES       1047 43.43                             140   -0.4410  105 173 
 RUS  HZ I        1047 45.89        21.8 0.36            143            105 173 
 PTB  HZ EP       1047 28.54                             130    0.09 9  143 257 
 PTB  HN ES       1047 48.68                             130    0.15 9  143 257 
 PTB  HZ I        1047 52.49        19.5 0.11            131            143 257 
 OCA  HZ EP       1047 29.80                             128   -0.04 9  156 355 
 OCA  HN ES       1047 51.02                             128    0.01 9  156 355 
 OCA  HZ I        1047 55.78        11.2 0.18            131            156 355 
 SPBC HZ EP       1047 30.26                             127   -0.16 9  163 217 
 SPBC HN ES       1047 52.23                             127    0.18 9  163 217 
 SPBC HZ I        1047 54.99        21.7 0.24            128            163 217 
 ZAR  HZ EP       1047 34.24                             121    0.42 9  197 292 
 ZAR  HN ES       1047 57.86                             121   -0.25 9  197 292 
 ZAR  HZ I        1048  1.95        13.0 0.15            122            197 292 
 SML  HZ EP       1047 38.23                             116    0.08 8  238 336 
 SML  HE ES       1048  5.32                             116   -0.49 8  238 336 
 SML  HZ I        1048 10.64        13.5 0.10            118            238 336 
 CHI  HZ EP       1047 40.34                             115    0.22 8  251 194 
 CHI  HN ES       1048  8.95                             115   -0.37 8  251 194 
 CHI  HZ I        1048 12.26         5.8 0.34            117            251 194 
 ROSC BZ EP   4   1047 42.20                             114    1.85 0  253 209 
 ROSC BN ES       1048 10.18                             114    0.46 8  253 209 
 ROSC BZ I        1048 20.93         8.1 0.60            116            253 209 
 HEL  HZ EP       1047 41.74                             113   -0.19 8  268 255 
 HEL  HE ES       1048 12.34                             113   -0.19 8  268 255 
 HEL  HZ I        1048 21.01         7.4 0.30            114            268 255 
 GUY2CHZ EP       1047 45.90                             110    0.30 7  299 234 
 GUY2CHN ES       1048 19.00                             110   -0.08 7  299 234 
 GUY2CHZ I        1048 26.63         6.4 0.24                           299 234 
 CBOC HZ EP       1047 49.35                             108    0.61 7  330 251 
 CBOC HN ES   4   1048 21.37                             108   -3.30 0  330 251 
 CBOC HZ I        1048 29.72         2.4 0.48            110            330 251 
 TOL  SZ EP       1047 50.79                             107    0.35 7  342 224 
 TOL  SN ES       1048 27.75                             107    0.07 7  342 224 
 TOL  SZ I        1048 35.36         9.8 0.20            109            342 224 
 PRA  HZ EP       1047 55.46                             105   -0.50 6  393 209 
 PRA  HN ES       1048 37.37                             105   -0.15 6  393 209 
 PRA  HZ I        1048 43.63         3.7 0.30            106            393 209 
 ORTC HZ EP       1047 55.54                             105   -0.73 6  395 215 
 ORTC HN ES       1048 37.81                             105   -0.26 6  395 215 
 ORTC HZ I        1048 44.61         3.1 0.46            106            395 215 
 SJC  HZ EP   1   1047 56.33                             104   -0.88 4  403 327 
 SJC  HN ES   4   1048 36.03                             104   -3.70 0  403 327 
 SJC  HZ I        1048 41.38         4.7 0.46            106            403 327 
                                                                                
