 2014  1 6 1857 42.0 L   5.718 -73.892 40.0  RSN  5 0.4 1.0LRSN                1
 GAP=106        1.17       3.8     4.2 13.2 -0.5077E+01  0.1052E+02 -0.8787E+01E
 Epicentro: ALBANIA - SANTANDER                                                3
 ACTION:UPD 14-03-13 09:52 OP:ep   STATUS:               ID:20140106185742 L   I
 OLDACT:DUP 14-01-06 19:56 OP:stll STATUS:               ID:20140106184819d    3
 2014-01-06-1848-17M.COL___246                                                 6
 STAT SP IPHASW D HRMM SECON CODA AMPLIT PERI AZIMU VELO AIN AR TRES W  DIS CAZ7
 RUS  HZ EP       1858  0.65                             131    0.3710 91.7  78 
 RUS  HN ES       1858 13.55                             131   -0.9610 91.7  78 
 RUS  HZ I        1858 17.36         0.9 0.34            135           91.7  78 
 NOR  HZ EP       1858  1.26                             125   -0.1710  110 261 
 NOR  HN ES       1858 16.38                             125   -0.1710  110 261 
 NOR  HZ I        1858 17.95         3.1 0.14            130            110 261 
 CHI  HZ EP       1858  3.02                             122   -0.1210  122 172 
 CHI  HZ I        1858  3.56         1.3 0.52            127            122 172 
 CHI  HN ES       1858 20.11                             122    0.5110  122 172 
 BAR2 SZ EP       1858  3.64                             121    0.4210  125  39 
 BAR2 SZ ES       1858 19.98                             121    0.2410  125  39 
 BAR2 SZ I        1858 23.01         6.0 0.26            125            125  39 
 BRR  HZ EP       1858  5.75                             115   -0.46 9  155   7 
 BRR  HZ I        1858  7.04         7.5 0.12            118            155   7 
 BRR  HN ES       1858 25.45                             115    0.38 9  155   7 
                                                                                
