 2010  9 6 1623 20.5 L   6.787 -73.014148.0  RSN 16 0.4 3.2LRSN                1
 GAP=136        0.81       2.9     5.3  4.6 -0.7047E+01  0.4720E+01  0.1603E+01E
 Epicentro: CEPITA - SANTANDER                                                 3
 ACTION:UP  11-02-18 11:00 OP:tino STATUS:               ID:20100906162320 L   I
 2010-09-06-1620-41S.COL___120                                                 6
 STAT SP IPHASW D HRMM SECON CODA AMPLIT PERI AZIMU VELO SNR AR TRES W  DIS CAZ7
 BAR2 SZ IP       1623 40.50                             169     0.010   29 221 
 BAR2 SZ ES   1   1623 55.74                             169    -0.4 7   29 221 
 BAR2 SZ I        1623 57.40       543.5 0.23                            29 221 
 GIR2 SZ IP       1623 40.63                             165     0.010   38 328 
 GIR2 SZ ES   1   1623 56.61                             165     0.3 7   38 328 
 BRR  HZ IP     C 1623 42.43                             149    -0.310   85 295 
 BRR  HZ I        1623 42.74       747.2 0.20                            85 295 
 BRR  HE ES   1   1623 59.90                             149    -0.2 7   85 295 
 RUS  HZ IP     D 1623 44.37                             145     0.010   99 184 
 RUS  HE ES   1   1624  3.04                             145     0.0 7   99 184 
 RUS  HZ I        1624  4.00       132.6 0.37                            99 184 
 GUE  SZ EP       1623 45.45                             140     0.110  116   5 
 GUE  SZ I        1623 47.16        32.1 0.08                           116   5 
 GRA  SZ IP       1623 46.34                             138     0.610  124  11 
 GRA  SZ ES   1   1624  5.92                             138     0.4 7  124  11 
 GRA  SZ I        1624  9.00       189.3 0.29                           124  11 
 OCA  SZ IP       1623 48.87                             129    -0.5 9  164 348 
 OCA  SZ ES   2   1624 11.55                             129    -0.3 5  164 348 
 OCA  SZ I        1624 17.44       241.5 0.31                           164 348 
 CHI  HZ EP   1   1623 58.23                             117    -0.4 6  251 198 
 CHI  HE ES   1   1624 28.31                             117    -0.1 6  251 198 
 CHI  HZ I        1624 35.79        66.6 0.38                           251 198 
 ROSC BZ IP     D 1624  0.08                             116     0.6 8  259 214 
 ROSC BE ES   1   1624 30.66                             116     0.8 6  259 214 
 ROSC BZ I        1624 38.28       130.6 0.35                           259 214 
 HEL  HZ EP   1   1624  2.35                             114     0.0 6  286 257 
 HEL  HN ES   2   1624 35.01                             114     0.0 4  286 257 
 HEL  HZ I        1624 39.26       125.3 0.26                           286 257 
 GUY  SZ EP   1   1624  5.55                             112     0.0 5  313 237 
 GUY  SE ES   2   1624 41.48                             112     0.9 3  313 237 
 GUY  SZ I        1624 48.61       305.8 0.50                           313 237 
 SDV  BZ EP   2   1624  9.29                             109    -0.2 3  350  48 
 SDV  BZ I        1624 52.45        23.8 0.27                           350  48 
 TOL  SZ EP       1624  9.93                             109     0.0 6  353 226 
 TOL  SZ ES   2   1624 49.08                             109     0.6 3  353 226 
 DBB  SZ EP       1624  9.72                             109     0.0 6  354 274 
 ANIL HZ EP   1   1624 11.62                             108     0.1 5  367 226 
 ANIL HE ES   1   1624 50.85                             108    -0.4 5  367 226 
 ANIL HZ I        1625  4.68       169.4 0.43                           367 226 
 PRA  HZ EP   1   1624 13.83                             107    -1.0 4  398 212 
 PRA  HN ES   1   1624 56.60                             107    -0.6 4  398 212 
                                                                                
