 2014  8 6 1123 34.2 L   6.530 -73.542105.7  RSN 10 0.5 2.2LRSN                1
 GAP= 67        1.37       3.6     4.0  7.7 -0.3091E+01  0.1108E+02 -0.2814E+01E
 Epicentro: EL CARMEN - SANTANDER                                              3
 ACTION:UPD 14-09-15 21:47 OP:nd   STATUS:               ID:20140806112334 L   I
 OLDACT:REG 14-08-06 21:01 OP:carl STATUS:               ID:20140806111818     3
 2014-08-06-1118-18M.COL___245                                                 6
 STAT SP IPHASW D HRMM SECON CODA AMPLIT PERI AZIMU VELO AIN AR TRES W  DIS CAZ7
 BAR2 SZ EP       1123 50.04                             157    0.4010 40.4  80 
 BAR2 SZ ES       1124  1.88                             157    0.1710 40.4  80 
 BRR  HZ EP       1123 50.78                             145   -0.0410 66.5 344 
 BRR  HN ES       1124  3.91                             145    0.0910 66.5 344 
 BRR  HZ I        1124 11.45        29.8 0.10            147           66.5 344 
 RUS  HZ EP       1123 53.36                             138    0.3010 86.9 144 
 RUS  HN ES       1124  8.25                             138    0.4410 86.9 144 
 RUS  HZ I        1124 10.14        16.7 0.30            144           86.9 144 
 PTB  HZ IP     D 1123 52.90                             133   -0.7310  101 271 
 PTB  HN ES       1124  7.81                             133   -1.0110  101 271 
 PTB  HZ I        1124  9.23        35.0 0.46            136            101 271 
 SPBC HZ EP       1123 54.97                             129    0.1010  113 211 
 SPBC HN ES       1124 11.17                             129    0.1510  113 211 
 SPBC HZ I        1124 13.40        34.3 0.16            134            113 211 
 PAM  SZ EP       1123 56.59                             125   -0.3410  129  46 
 PAM  SN ES       1124 14.06                             125   -0.6310  129  46 
 PAM  SZ I        1124 15.86        20.2 0.42            130            129  46 
 ZAR  HZ EP       1124  1.80                             115    0.11 9  180 306 
 ZAR  HN ES       1124 24.55                             115    1.39 9  180 306 
 ZAR  HZ I        1124 26.41        33.5 0.56            119            180 306 
 NOR  HZ EP       1124  1.52                             115   -0.40 9  182 234 
 NOR  HN ES       1124 23.08                             115   -0.48 9  182 234 
 NOR  HZ I        1124 26.84        23.7 0.20            119            182 234 
 GUY2CHZ EP       1124 10.72                             107    0.70 8  248 235 
 GUY2CHN ES       1124 38.23                             107    0.24 8  248 235 
 GUY2CHZ I        1124 47.85         9.4 0.40                           248 235 
 SML  HZ EP       1124  9.96                             106   -0.59 8  258 347 
 SML  HE ES       1124 39.41                             106    0.49 8  258 347 
 SML  HZ I        1124 42.59        23.5 0.26            110            258 347 
                                                                                
