 2017  2 6 1147 16.0 L   6.791 -73.153148.7  RSN 16 0.4 2.7LRSN                1
 GAP=100        0.89       3.3     2.7  4.3  0.1388E+01  0.3252E+01  0.3245E+01E
 Epicentro: LOS SANTOS - SANTANDER                                             3
 ACTION:UPD 17-05-24 15:33 OP:jn   STATUS:               ID:20170206114716 L   I
 OLDACT:UP  17-02-07 01:08 OP:ar   STATUS:               ID:20170206113741     3
 OLDACT:UP  17-02-07 01:06 OP:ar   STATUS:               ID:20170206113741     3
 OLDACT:UP  17-02-07 01:06 OP:ar   STATUS:               ID:20170206113741     3
 OLDACT:REG 17-02-06 20:10 OP:and  STATUS:               ID:20170206113741     3
 2017-02-06-1138-00M.COL___322                                                 6
 STAT SP IPHASW D HRMM SECON CODA AMPLIT PERI AZIMU VELO AIN AR TRES W  DIS CAZ7
 BAR2 EZ IP     D 1147 35.80                             171   -0.1610 22.3 188 
 BAR2 EZ ES       1147 51.54                             171    0.0210 22.3 188 
 BAR2 EZ I        1147 51.90       189.9 0.38            171           22.3 188 
 BRR  HZ IP     C 1147 37.60                             153    0.1510 71.0 300 
 BRR  HN ES       1147 54.71                             153    0.5310 71.0 300 
 BRR  HZ I        1147 58.67        80.4 0.24            150           71.0 300 
 PAM  EZ IP     C 1147 38.61                             151    0.0210 78.6  40 
 PAM  EN ES       1147 55.84                             151   -0.3810 78.6  40 
 PAM  EZ I        1147 57.97        76.7 0.52            148           78.6  40 
 RUS  HZ EP       1147 39.82                             145   -0.1510 99.7 176 
 RUS  HN ES       1147 58.46                             145   -0.2110 99.7 176 
 RUS  HZ I        1148  0.03        53.8 0.50            143           99.7 176 
 PTB  HZ EP       1147 42.57                             133   -0.55 9  147 259 
 PTB  HE ES       1148  4.31                             133    0.04 9  147 259 
 PTB  HZ I        1148  9.98        60.3 0.42            129            147 259 
 TAM  HZ EP       1147 44.30                             131    0.35 9  156 105 
 TAM  HZ I        1148  5.10        39.1 0.42            129            156 105 
 TAM  HN ES       1148  6.11                             131    0.35 9  156 105 
 ZAR  HZ EP       1147 48.56                             123   -0.04 9  204 292 
 ZAR  HN ES       1148 13.84                             123   -0.18 9  204 292 
 ZAR  HZ I        1148 18.90        82.6 0.42            120            204 292 
 CHI  HZ EP       1147 54.05                             118    0.31 8  248 195 
 CHI  HN ES       1148 23.30                             118    0.13 8  248 195 
 CHI  HZ I        1148 26.68        49.6 0.64            115            248 195 
 ROSC BZ EP   4   1147 55.77                             117    1.63 0  252 211 
 ROSC BN ES   4   1148 26.58                             117    2.68 0  252 211 
 URE  HZ EP       1147 56.49                             114   -0.68 7  283 292 
 URE  HN ES   4   1148 26.36                             114   -2.92 0  283 292 
 URE  HZ I        1148 39.42        39.5 0.34            111            283 292 
 PTGC HZ IP     D 1147 58.96                             112   -0.96 7  308 158 
 PTGC HN ES   4   1148 32.77                             112   -1.40 0  308 158 
 PTGC HZ I        1148 34.21        24.3 0.26            110            308 158 
 ELA  HZ EP   4   1148  5.09                             111    2.26 0  328 230 
 ELA  HE ES   4   1148 42.95                             111    3.58 0  328 230 
 ELA  HZ I        1148 48.50        33.3 0.54            108            328 230 
 CBOC HZ EP       1148  3.70                             110    0.78 7  333 252 
 CBOC HN ES   4   1148 41.03                             110    1.52 0  333 252 
 CBOC HZ I        1148 54.38         9.9 0.38            108            333 252 
 DBB  EZ EP       1148  4.11                             110    0.60 7  339 274 
 DBB  EN ES   4   1148 39.45                             110   -1.12 0  339 274 
 DBB  EZ I        1148 40.53        17.0 0.24            107            339 274 
 ORTC HZ EP       1148 10.41                             107    0.54 6  394 216 
 ORTC HE ES   4   1148 54.60                             107    2.71 0  394 216 
 PAL  HZ EP       1148 11.37                             106    0.25 6  405 239 
 PAL  HN ES       1148 53.73                             106   -0.38 6  405 239 
 PAL  HZ I        1148 59.32         8.6 0.24            104            405 239 
 CRJC HZ EP   4   1148 16.30                             104   -2.40 0  469   4 
 CRJC HN ES   4   1149  4.02                             104   -3.58 0  469   4 
 CRJC HZ I        1149 10.96        19.7 0.38            102            469   4 
                                                                                
