 2012  2 6 1048 28.2 L   6.684 -73.173139.9  RSN  6 0.3 1.6LRSN                1
 GAP=176        0.66       6.1     5.4  6.8  0.1337E+02  0.7320E+01 -0.1008E+02E
 ACTION:UP  12-03-07 16:28 OP:epov STATUS:               ID:20120206104828 L   I
 2012-02-06-1046-44S.COL___159                                                 6
 STAT SP IPHASW D HRMM SECON CODA AMPLIT PERI AZIMU VELO SNR AR TRES W  DIS CAZ7
 BAR2 SZ EP   1   1048 46.50                             176   -0.41 7 10.2 186 
 BAR2 SZ ES   1   1049  1.32                             176   -0.19 7 10.2 186 
 BAR2 SZ I        1049  4.68         7.8 0.26                          10.2 186 
 GIR2 SZ EP   1   1048 47.74                             162    0.17 7 43.7 357 
 BRR  HZ EP   1   1048 49.62                             150    0.65 7 75.8 308 
 BRR  HZ I        1048 49.96        11.3 0.12                          75.8 308 
 BRR  HE ES   1   1049  5.17                             150   -0.01 7 75.8 308 
 RUS  HN ES   1   1049  7.92                             146    0.07 7 88.1 174 
 PTB  HZ EP   1   1048 54.43                             132    0.21 7  143 264 
 PTB  HN ES   1   1049 14.59                             132    0.06 7  143 264 
 PTB  HZ I        1049 18.24         0.0 0.13                           143 264 
 ZAR  HZ EP   1   1048 59.88                             121   -0.63 6  207 296 
 ZAR  HN ES   1   1049 25.65                             121   -0.07 6  207 296 
 ZAR  HZ I        1049 31.79         2.7 0.10                           207 296 
                                                                                
