 2014 10 6 1240 17.9 L   6.790 -73.083144.1  RSN  5 0.3 1.6LRSN                1
 GAP=145        0.70       3.5     5.4  5.0  0.9672E+00  0.1147E+01 -0.2789E+01E
 Epicentro: LOS SANTOS - SANTANDER                                             3
 ACTION:UPD 14-11-29 23:47 OP:nd   STATUS:               ID:20141006124017 L   I
 OLDACT:REG 14-10-06 21:15 OP:stll STATUS:               ID:20141006123748     3
 2014-10-06-1237-48M.COL___289                                                 6
 STAT SP IPHASW D HRMM SECON CODA AMPLIT PERI AZIMU VELO AIN AR TRES W  DIS CAZ7
 BAR2 SZ EP       1240 37.33                             170    0.0210 24.5 207 
 BAR2 SZ ES       1240 52.32                             170   -0.1610 24.5 207 
 BAR2 SZ I        1240 53.15         7.2 0.18            170           24.5 207 
 PAM  SZ EP       1240 39.97                             151    0.2710 74.0  35 
 PAM  SZ I        1240 40.29        10.3 0.20            151           74.0  35 
 PAM  SN ES       1240 56.69                             151   -0.0410 74.0  35 
 BRR  HZ EP       1240 39.46                             150    0.2410 77.9 297 
 BRR  HN ES       1240 56.05                             150    0.1710 77.9 297 
 BRR  HZ I        1240 56.48        12.2 0.34            149           77.9 297 
 RUS  HZ EP       1240 41.56                             144    0.2110 99.2 180 
 RUS  HN ES       1240 59.40                             144   -0.2710 99.2 180 
 RUS  HZ I        1241  0.40         3.5 0.52            144           99.2 180 
 SML  HZ EP       1240 54.16                             117   -0.67 8  248 334 
 SML  HZ I        1240 57.11         4.1 0.10            116            248 334 
                                                                                
