 2011  1 6 1116 39.5 L   6.801 -73.160142.0  RSN  5 0.4 1.5LRSN                1
 GAP=301        0.56       9.3    10.2  9.3 -0.3026E+02  0.3043E+02  0.2004E+02E
 Epicentro: LOS SANTOS - SANTANDER                                             3
 ACTION:UP  11-02-08 08:39 OP:pat  STATUS:               ID:20110106111639 L   I
 2011-01-06-1100-00M.COL___121                                                 6
 STAT SP IPHASW D HRMM SECON CODA AMPLIT PERI AZIMU VELO SNR AR TRES W  DIS CAZ7
 BAR2 SZ EP   2   1116 58.79                             170     0.1 5   23 187 
 BAR2 SZ ES   2   1117 13.94                             170     0.3 5   23 187 
 BAR2 SZ I        1117 15.49        10.9 0.51                            23 187 
 RUS  HZ EP   2   1117  2.33                             143    -0.6 5  101 175 
 RUS  HE ES   2   1117 20.91                             143    -0.2 5  101 175 
 RUS  HZ I        1117 22.17         3.5 0.41                           101 175 
 NOR  SE ES   2   1117 42.29                             118    -0.2 4  234 234 
 CHI  HZ EP   2   1117 17.03                             116     0.1 4  248 195 
 CHI  HE ES   2   1117 46.88                             116     0.7 4  248 195 
 CHI  HZ I        1117 50.56         2.1 0.38                           248 195 
 PRA  HZ EP   2   1117 33.32                             106     0.5 3  391 209 
 PRA  HN ES   2   1118 13.81                             106    -0.6 3  391 209 
                                                                                
