 2016  4 6 1829  6.8 L   6.822 -73.190142.3  RSN 13 0.4 2.4LRSN                1
 GAP=130        0.88       2.9     3.4  5.2 -0.6007E+00  0.7238E+01  0.1105E+01E
 Epicentro: ZAPATOCA - SANTANDER                                               3
 ACTION:UPD 16-05-05 14:19 OP:rebc STATUS:               ID:20160406182906 L   I
 OLDACT:UP  16-04-06 23:30 OP:drio STATUS:               ID:20160406182744     3
 OLDACT:UP  16-04-06 23:27 OP:drio STATUS:               ID:20160406182744     3
 OLDACT:UP  16-04-06 23:27 OP:drio STATUS:               ID:20160406182744     3
 OLDACT:REG 16-04-06 21:04 OP:drio STATUS:               ID:20160406182744     3
 2016-04-06-1827-44M.COL___307                                                 6
 STAT SP IPHASW D HRMM SECON CODA AMPLIT PERI AZIMU VELO AIN AR TRES W  DIS CAZ7
 BAR2 EZ EP       1829 25.98                             169   -0.0310 25.4 178 
 BAR2 EZ ES       1829 40.75                             169   -0.2810 25.4 178 
 BAR2 EZ I        1829 41.90       113.1 0.36            169           25.4 178 
 PAM  EZ EP       1829 28.85                             150    0.1610 78.8  43 
 PAM  EE ES       1829 46.18                             150    0.3910 78.8  43 
 PAM  EZ I        1829 48.19        56.8 0.70            154           78.8  43 
 RUS  HZ EP       1829 29.90                             142   -0.4810  103 173 
 RUS  HN ES       1829 48.75                             142   -0.0610  103 173 
 RUS  HZ I        1829 49.50        23.2 0.28            146            103 173 
 PTB  HZ EP       1829 32.46                             132   -0.59 9  143 257 
 PTB  HE ES       1829 53.55                             132   -0.01 9  143 257 
 PTB  HZ I        1829 58.98        36.7 0.16            130            143 257 
 SPBC HZ EP       1829 34.93                             128    0.05 9  162 217 
 SPBC HE ES       1829 57.01                             128    0.19 9  162 217 
 SPBC HZ I        1830  3.05        28.1 0.24            129            162 217 
 ZAR  HZ EP       1829 38.68                             122    0.27 9  199 292 
 ZAR  HE ES       1830  3.62                             122    0.52 9  199 292 
 ZAR  HZ I        1830 10.51        28.5 0.34            121            199 292 
 NOR  HZ EP       1829 42.15                             118    0.14 8  232 233 
 NOR  HE ES       1830  9.81                             118    0.30 8  232 233 
 NOR  HZ I        1830 14.97        16.1 0.18            118            232 233 
 CHI  HZ EP       1829 44.08                             116   -0.31 8  250 194 
 CHI  HN ES       1830 13.73                             116   -0.01 8  250 194 
 CHI  HZ I        1830 16.15         8.3 0.34            118            250 194 
 HEL  HZ EP   4   1829 49.02                             114    2.69 0  268 255 
 HEL  HE ES   4   1830 19.50                             114    2.30 0  268 255 
 HEL  HZ I        1830 26.08        11.6 0.26            114            268 255 
 URE  HZ EP   4   1829 50.33                             113    3.29 0  278 292 
 URE  HN ES   4   1830 14.21                             113   -4.26 0  278 292 
 GUY2CHZ EP       1829 50.50                             112    0.59 7  299 234 
 GUY2CHN ES       1830 23.47                             112   -0.11 7  299 234 
 GUY2CHZ I        1830 31.53         9.4 0.46                           299 234 
 PTGC HZ EP   4   1829 48.70                             111   -2.22 0  313 158 
 PTGC HN ES   4   1830 22.52                             111   -2.85 0  313 158 
 MON  HZ EP   4   1829 53.24                             108   -1.76 0  348 309 
 MON  HE ES       1830 31.48                             108   -1.15 6  348 309 
 MON  HZ I        1830 47.31         8.2 0.48            109            348 309 
 ORTC HZ EP       1830  0.98                             106    0.53 6  395 215 
 ORTC HE ES   4   1830 43.75                             106    1.41 0  395 215 
 ORTC HZ I        1830 49.53         6.3 0.58            107            395 215 
 SJC  HZ EP   4   1829 59.46                             105   -2.19 0  404 327 
 SJC  HE ES   4   1830 41.27                             105   -3.19 0  404 327 
 SJC  HZ I        1830 48.88         5.6 0.34            106            404 327 
                                                                                
