 2013  2 6 1431 14.5 L   6.840 -73.294124.7  RSN  9 0.5 2.2LRSN                1
 GAP= 64        1.06       4.1     4.3  6.5  0.3458E+01  0.4591E+01  0.1690E+01E
 Epicentro: ZAPATOCA - SANTANDER                                               3
 ACTION:UPD 13-03-12 09:31 OP:ep   STATUS:               ID:20130206143114 L   I
 2013-02-06-1430-00M.COL___240                                                 6
 STAT SP IPHASW D HRMM SECON CODA AMPLIT PERI AZIMU VELO AIN AR TRES W  DIS CAZ7
 BAR2 SZ IP       1431 32.02                             166    0.2910 30.0 156 
 BAR2 SZ I        1431 32.39       123.0 0.10            146           30.0 156 
 BAR2 SZ ES       1431 45.43                             166    0.2110 30.0 156 
 BRR  HZ IP     D 1431 32.62                             155    0.2110 54.9 303 
 BRR  HE ES       1431 46.77                             155    0.3410 54.9 303 
 BRR  HE I        1431 47.83        82.4 0.26            134           54.9 303 
 PAM  SZ EP   1   1431 35.29                             144    0.23 7 85.8  50 
 PAM  SZ I        1431 36.70         5.2 0.11            134           85.8  50 
 PAM  SE ES       1431 50.88                             144   -0.2610 85.8  50 
 RUS  HZ EP       1431 36.70                             137   -0.0410  107 167 
 RUS  HN ES       1431 53.46                             137   -0.6710  107 167 
 RUS  HN I        1431 55.39        39.8 0.22            115            107 167 
 PTB  HZ EP       1431 37.51                             130   -0.8510  133 256 
 PTB  HZ I        1431 59.35        44.4 0.32            109            133 256 
 OCA  HZ EP   1   1431 40.22                             125   -0.44 7  155 359 
 OCA  HN ES   1   1432  0.38                             125   -0.73 7  155 359 
 OCA  HZ I        1432  1.67        34.7 0.57            111            155 359 
 TAM  HZ EP   1   1431 42.74                             122    0.47 7  172 105 
 TAM  HN ES   1   1432  4.61                             122    0.65 7  172 105 
 TAM  HZ I        1432  5.81        13.4 0.24            107            172 105 
 ZAR  HZ EP   1   1431 44.25                             120    0.43 7  187 293 
 ZAR  HE ES   1   1432  7.36                             120    0.63 7  187 293 
 ZAR  HZ I        1432 10.77        12.5 0.49            104            187 293 
 CHI  HZ EP   1   1431 51.53                             112    0.40 6  249 191 
 CHI  HZ I        1432 25.80         6.1 0.46             99            249 191 
                                                                                
