 2011  3 6 1138 50.5 L   6.774 -73.057143.5  RSN  5 0.2 1.7LRSN                1
 GAP=158        0.47       3.4     9.2  4.7 -0.2052E+02 -0.1375E+02  0.4322E+00E
 Epicentro: LOS SANTOS - SANTANDER                                             3
 ACTION:UP  11-06-16 14:32 OP:jfem STATUS:               ID:20110306113850 L   I
 2011-03-06-1135-11S.COL___135                                                 6
 STAT SP IPHASW D HRMM SECON CODA AMPLIT PERI AZIMU VELO SNR AR TRES W  DIS CAZ7
 BAR2 SZ EP       1139  9.87                             169     0.010   25 215 
 BAR2 SZ ES   1   1139 24.94                             169     0.0 7   25 215 
 BAR2 SZ I        1139 26.22        14.2 0.33                            25 215 
 RUS  HZ EP   1   1139 13.82                             144     0.0 7   98 182 
 RUS  HN ES   1   1139 31.96                             144     0.0 7   98 182 
 RUS  HZ I        1139 33.37         3.9 0.23                            98 182 
 GRA  SZ EP       1139 15.83                             136     0.310  126  13 
 GRA  SZ I        1139 17.23         8.3 0.31                           126  13 
 GRA  SZ ES   1   1139 34.77                             136    -0.3 7  126  13 
 SDV  BZ EP       1139 39.62                             108    -0.2 6  355  49 
 SDV  BZ I        1139 40.41         1.7 0.36                           355  49 
 PRA  HZ EP   2   1139 43.99                             106    -0.2 3  394 211 
 PRA  HE ES   2   1140 25.90                             106    -0.2 3  394 211 
                                                                                
