 2014 10 6 1534 59.3 L   6.817 -73.173147.4  RSN  6 0.3 1.7LRSN                1
 GAP=132        0.78       3.5     4.4  6.4 -0.2166E+01  0.1063E+02 -0.8373E+01E
 Epicentro: LOS SANTOS - SANTANDER                                             3
 ACTION:UPD 14-11-29 23:47 OP:nd   STATUS:               ID:20141006153459 L   I
 OLDACT:REG 14-10-06 21:31 OP:stll STATUS:               ID:20141006152748     3
 2014-10-06-1527-48M.COL___286                                                 6
 STAT SP IPHASW D HRMM SECON CODA AMPLIT PERI AZIMU VELO AIN AR TRES W  DIS CAZ7
 BAR2 SZ EP       1535 19.05                             170   -0.0810 24.8 182 
 BAR2 SZ ES       1535 34.37                             170   -0.2510 24.8 182 
 BAR2 SZ I        1535 35.23         9.3 0.28            171           24.8 182 
 BRR  HZ EP       1535 21.04                             154    0.6310 67.7 298 
 PAM  SZ EP       1535 21.95                             151    0.2510 77.9  42 
 PAM  SN ES       1535 39.17                             151   -0.0110 77.9  42 
 PAM  SZ I        1535 41.22        11.0 0.54            152           77.9  42 
 RUS  HZ EP   1   1535 23.29                             144   -0.05 7  103 174 
 RUS  HN ES       1535 42.05                             144   -0.0510  103 174 
 RUS  HZ I        1535 44.52         5.1 0.36            146            103 174 
 PTB  HZ EP       1535 25.63                             133   -0.52 9  145 258 
 PTB  HN ES       1535 47.38                             133    0.28 9  145 258 
 PTB  HZ I        1535 49.32         6.0 0.36            134            145 258 
 SML  HZ EP       1535 35.55                             118   -0.13 8  241 336 
 SML  HN ES       1536  3.80                             118   -0.27 8  241 336 
 SML  HZ I        1536  7.13         8.8 0.10            119            241 336 
                                                                                
