 2012  5 6 1256 17.4 L   6.341 -73.625112.5  RSN  7 0.5 1.7LRSN                1
 GAP=109        1.07       6.1     5.1  9.9 -0.2166E+01  0.1500E+02  0.1837E+01E
 Epicentro: SANTA HELENA DEL OPON - SANTANDER                                  3
 ACTION:UP  12-07-05 12:02 OP:pat  STATUS:               ID:20120506125617 L   I
 2012-05-06-1250-00M.COL___192                                                 6
 STAT SP IPHASW D HRMM SECON CODA AMPLIT PERI AZIMU VELO SNR AR TRES W  DIS CAZ7
 BAR2 SZ EP   1   1256 34.64                             152     0.1 7   56  60 
 BAR2 SZ ES   1   1256 48.25                             152     0.5 7   56  60 
 BAR2 SZ I        1256 49.31        17.8 0.25                            56  60 
 RUS  HZ EP   1   1256 36.03                             143    -0.2 7   78 130 
 RUS  HN ES   1   1256 50.49                             143    -0.5 7   78 130 
 BRR  HZ EP   1   1256 36.35                             140     0.2 7   85 354 
 BRR  HN ES   1   1256 51.24                             140     0.5 7   85 354 
 BRR  HZ I        1257  2.02         9.7 0.50                            85 354 
 PTB  HZ EP       1256 36.52                             137    -0.410   95 283 
 PTB  HN ES   1   1256 51.31                             137    -0.8 7   95 283 
 PTB  HZ I        1256 54.29         8.2 0.09                            95 283 
 PAM  SZ EP   1   1256 42.84                             123     0.0 7  151  43 
 NOR  SZ EP   1   1256 44.07                             120     0.6 7  162 238 
 NOR  SN ES   1   1257  4.68                             120     0.9 7  162 238 
 ZAR  HZ EP   1   1256 45.77                             116    -0.3 7  187 313 
                                                                                
