 2011 11 6 1016 40.8 L   6.788 -73.150147.8  RSN  5 0.4 1.1LRSN                1
 GAP=137        0.71       5.4     6.2  7.4 -0.5342E+00 -0.6485E+01  0.7941E+01E
 Epicentro: LOS SANTOS - SANTANDER                                             3
 ACTION:UPD 12-07-13 16:08 OP:ep   STATUS:               ID:20111106101640 L   I
 2011-11-06-1015-16S.COL___175                                                 6
 STAT SP IPHASW D HRMM SECON CODA AMPLIT PERI AZIMU VELO AIN AR TRES W  DIS CAZ7
 BAR2 SZ EP       1017  0.75                             171    0.0610 21.9 189 
 BAR2 SZ ES   1   1017 15.79                             171   -0.38 7 21.9 189 
 BRR  HN ES   1   1017 19.47                             153    0.57 7 71.4 300 
 PAM  SZ EP       1017  3.51                             151    0.1610 78.7  39 
 PAM  SN ES   1   1017 20.66                             151   -0.25 7 78.7  39 
 RUS  HZ EP       1017  4.62                             145   -0.0810 99.3 176 
 RUS  HE ES   2   1017 23.64                             145    0.33 5 99.3 176 
 RUS  HZ I        1017 24.38         2.1 0.40                          99.3 176 
 ZAR  HE ES   2   1017 37.88                             123   -0.96 4  204 293 
                                                                                
