 2011 12 6 1857 44.6 L   6.768 -73.075139.4  RSN  6 0.2 1.8LRSN                1
 GAP=147        0.39       2.5     3.9  3.7 -0.1014E+01  0.6045E+00  0.1446E+01E
 Epicentro: LOS SANTOS - SANTANDER                                             3
 ACTION:UPD 12-07-13 16:14 OP:ep   STATUS:               ID:20111206185744 L   I
 2011-12-06-1850-00M.COL___183                                                 6
 STAT SP IPHASW D HRMM SECON CODA AMPLIT PERI AZIMU VELO AIN AR TRES W  DIS CAZ7
 BAR2 SZ EP       1858  3.48                             170   -0.0210 22.7 211 
 BAR2 SZ ES   1   1858 17.98                             170   -0.22 7 22.7 211 
 BAR2 SZ I        1858 19.72        27.8 0.27                          22.7 211 
 GIR2 SZ EP   1   1858  3.64                             164   -0.09 7 36.8 339 
 PAM  SZ EP   1   1858  6.36                             150    0.28 7 75.6  33 
 PAM  SN ES   1   1858 22.69                             150   -0.10 7 75.6  33 
 BRR  HZ EP   1   1858  5.50                             148   -0.13 7 79.7 298 
 BRR  HE ES   1   1858 22.19                             148    0.19 7 79.7 298 
 BRR  HZ I        1858 25.66        14.8 0.13                          79.7 298 
 RUS  HZ EP   1   1858  7.44                             144   -0.06 7 96.8 181 
 RUS  HN ES   1   1858 25.52                             144    0.20 7 96.8 181 
 RUS  HZ I        1858 27.31         5.3 0.41                          96.8 181 
 CTAU SZ EP   1   1858 17.21                             121   -0.09 6  204 212 
                                                                                
