 2011  4 6 1735 59.8 L   6.751 -73.091146.0  RSN 10 0.4 2.4LRSN                1
 GAP=196        0.92       6.5     8.9  7.7 -0.3535E+02 -0.2818E+01  0.1951E+02E
 Epicentro: LOS SANTOS - SANTANDER                                             3
 ACTION:UP  11-06-22 15:29 OP:REBC STATUS:               ID:20110406173559 L   I
 2011-04-06-1734-54S.COL___125                                                 6
 STAT SP IPHASW D HRMM SECON CODA AMPLIT PERI AZIMU VELO SNR AR TRES W  DIS CAZ7
 BAR2 SZ EP       1736 19.66                             172     0.210   20 210 
 BAR2 SZ I        1736 36.23        92.5 0.27                            20 210 
 BTL  SZ EP       1736 19.07                             169    -0.510   27 313 
 GIR2 SZ EP       1736 19.78                             165     0.010   38 343 
 GIR2 SZ ES   1   1736 35.09                             165    -0.2 7   38 343 
 BRR  HZ IP       1736 21.54                             150     0.110   79 300 
 BRR  HN ES   1   1736 39.01                             150     0.6 7   79 300 
 BRR  HZ I        1736 41.83        55.1 0.07                            79 300 
 GRA  SZ EP       1736 25.44                             136     0.010  129  14 
 GRA  SZ ES   1   1736 45.75                             136     0.4 7  129  14 
 GRA  SZ I        1736 51.25        14.1 0.24                           129  14 
 OCA  SZ EP       1736 28.46                             129    -0.3 9  166 351 
 OCA  SZ ES   2   1736 50.81                             129    -0.5 5  166 351 
 OCA  SZ I        1736 55.86        17.4 0.35                           166 351 
 NOR  SZ EP       1736 35.43                             118    -0.4 8  237 236 
 NOR  SN ES   2   1737  2.87                             118    -1.0 4  237 236 
 HEL  HZ EP       1736 41.00                             114     0.4 7  277 257 
 HEL  HZ I        1737 18.45        10.5 0.53                           277 257 
 RREF HZ EP   2   1736 46.61                             111     0.5 3  323 231 
 RREF HZ I        1737 30.35        12.8 0.23                           323 231 
 PRA  HZ EP       1736 53.73                             107     0.5 6  390 211 
 PRA  HN ES   2   1737 34.61                             107    -0.2 3  390 211 
 PRA  HZ I        1737 39.37        34.4 0.24                           390 211 
                                                                                
