 2017  8 6 1337 34.5 L   6.709 -73.204153.1  RSN  5 0.3 1.5LRSN                1
 GAP=221        0.89       5.5     6.0  7.4  0.8142E+01  0.7984E+01  0.1858E+01E
 Epicentro: VILLANUEVA - SANTANDER                                             3
 ACTION:UPD 17-09-04 20:17 OP:rebc STATUS:               ID:20170806133734 L   I
 OLDACT:UP  17-08-06 23:38 OP:edw  STATUS:               ID:20170806132742     3
 OLDACT:REG 17-08-06 20:41 OP:edw  STATUS:               ID:20170806132742     3
 2017-08-06-1328-00M.COL___392                                                 6
 STAT SP IPHASW D HRMM SECON CODA AMPLIT PERI AZIMU VELO AIN AR TRES W  DIS CAZ7
 BAR2 EZ ES       1338 10.19                             175   -0.5810 13.1 169 
 BAR2 EZ I        1338 11.87         6.3 0.40            175           13.1 169 
 BRR  HZ EP       1337 56.73                             154    0.2510 71.3 308 
 BRR  HN ES       1338 13.93                             154    0.3210 71.3 308 
 BRR  HZ I        1338 16.38        19.3 0.38            155           71.3 308 
 RUS  HZ EP       1337 58.54                             148    0.1610 91.3 172 
 RUS  HN ES       1338 17.26                             148    0.2710 91.3 172 
 RUS  HZ I        1338 19.53         3.2 0.26            150           91.3 172 
 PTB  HZ EP       1338  0.85                             135   -0.55 9  140 262 
 PTB  HN ES       1338 22.44                             135    0.07 9  140 262 
 PTB  HZ I        1338 23.68         2.2 0.26            137            140 262 
 SPBC HN ES       1338 24.36                             133    0.01 9  151 219 
 NOR  HN ES   4   1338 38.91                             121    2.08 0  224 236 
                                                                                
