 2017  1 6 1836 19.4 L   6.801 -73.137134.6  RSN  9 0.4 1.6LRSN                1
 GAP=138        0.67       3.5     4.5  5.2  0.5240E+01  0.9066E+01  0.4708E+01E
 Epicentro: LOS SANTOS - SANTANDER                                             3
 ACTION:UPD 17-05-22 15:56 OP:jn   STATUS:               ID:20170106183619 L   I
 OLDACT:UP  17-01-07 00:25 OP:dnl  STATUS:               ID:20170106182751d    3
 OLDACT:UP  17-01-07 00:25 OP:dnl  STATUS:               ID:20170106182751d    3
 OLDACT:DUP 17-01-07 00:22 OP:dnl  STATUS:               ID:20170106182751d    3
 2017-01-06-1828-00M.COL___379                                                 6
 STAT SP IPHASW D HRMM SECON CODA AMPLIT PERI AZIMU VELO AIN AR TRES W  DIS CAZ7
 BAR2 EZ EP   2   1836 37.79                             169    0.09 5 23.6 192 
 BAR2 EZ ES       1836 51.84                             169   -0.1310 23.6 192 
 BAR2 EZ I        1836 53.41        13.1 0.42            169           23.6 192 
 BRR  HZ EP   2   1836 39.67                             150    0.26 5 72.0 298 
 BRR  HE ES       1836 55.23                             150    0.2210 72.0 298 
 BRR  HZ I        1836 57.10        19.4 0.34            150           72.0 298 
 PAM  EZ EP   2   1836 40.61                             149    0.21 5 76.7  39 
 PAM  EE ES   2   1836 56.19                             149   -0.59 5 76.7  39 
 PAM  EZ I        1837  1.91         5.9 0.46            148           76.7  39 
 RUS  HZ EP   2   1836 41.99                             141   -0.09 5  101 177 
 RUS  HE ES   2   1837  0.04                             141    0.28 5  101 177 
 RUS  HZ I        1837  1.70         2.8 0.40            140            101 177 
 PTB  HZ EP   2   1836 44.44                             129   -1.15 5  149 259 
 PTB  HN ES   2   1837  4.94                             129   -1.06 5  149 259 
 PTB  HZ I        1837  7.92         6.6 0.16            128            149 259 
 ZAR  HZ EP       1836 51.25                             120    0.00 9  205 292 
 ZAR  HE ES       1837 16.36                             120    0.28 9  205 292 
 ZAR  HZ I        1837 22.47         6.8 0.26            119            205 292 
 NOR  HZ EP   4   1836 56.49                             116    1.88 0  236 235 
 NOR  HN ES   2   1837 21.57                             116   -0.50 4  236 235 
 NOR  HZ I        1837 25.90         3.8 0.32            115            236 235 
 CHI  HZ EP   2   1836 56.37                             115   -0.19 4  249 195 
 CHI  HN ES       1837 25.86                             115    0.33 8  249 195 
 CHI  HZ I        1837 32.93         1.6 0.40            114            249 195 
 GUY2CHZ EP   2   1837  3.04                             110    0.41 4  302 235 
 GUY2CHN ES   4   1837 34.57                             110   -1.76 0  302 235 
 GUY2CHZ  IAML    1837 42.95         2.5 0.24                           302 235 
                                                                                
