 2011  3 6 1022  4.1 L   6.793 -73.214136.3  RSN 12 0.4 2.5LRSN                1
 GAP=131        0.74       2.8     5.4  6.6 -0.3159E+01  0.1701E+02 -0.6513E+00E
 Epicentro: ZAPATOCA - SANTANDER                                               3
 ACTION:UP  11-06-16 14:32 OP:jfem STATUS:               ID:20110306102204 L   I
 2011-03-06-1019-44S.COL___135                                                 6
 STAT SP IPHASW D HRMM SECON CODA AMPLIT PERI AZIMU VELO SNR AR TRES W  DIS CAZ7
 BAR2 SZ IP       1022 22.73                             170     0.110   22 171 
 BAR2 SZ ES   1   1022 37.10                             170     0.1 7   22 171 
 BAR2 SZ I        1022 38.96        82.2 0.51                            22 171 
 RUS  HZ EP   1   1022 26.70                             142    -0.2 7  101 172 
 RUS  HN ES   2   1022 44.01                             142    -0.7 5  101 172 
 RUS  HZ I        1022 46.61        32.0 0.11                           101 172 
 GRA  SZ EP       1022 28.66                             134    -0.210  129  21 
 GRA  SZ ES   1   1022 48.61                             134     0.5 7  129  21 
 GRA  SZ I        1022 49.31        52.5 0.32                           129  21 
 OCA  SZ EP       1022 31.31                             127    -0.4 9  160 356 
 OCA  SZ ES   1   1022 53.38                             127     0.1 7  160 356 
 OCA  SZ I        1022 56.25        58.0 0.43                           160 356 
 YOP  SZ EP   2   1022 33.34                             124    -0.4 4  182 151 
 YOP  SE ES   2   1022 57.30                             124     0.4 4  182 151 
 YOP  SZ I        1023  1.97        16.0 0.10                           182 151 
 CHI  HZ EP   3   1022 40.28                             115    -0.7 2  246 194 
 CHI  HN ES   2   1023  9.44                             115    -0.3 4  246 194 
 CHI  HZ I        1023 16.82        11.1 0.52                           246 194 
 HEL  HZ EP   2   1022 43.04                             114     0.0 4  265 256 
 HEL  HE ES   2   1023 12.76                             114    -0.6 4  265 256 
 HEL  HZ I        1023 22.13        22.5 0.65                           265 256 
 GUY  SN ES   3   1023 19.58                             111    -0.1 2  295 234 
 GUY  SZ I        1023 29.80        30.5 0.28                           295 234 
 RREF HN ES   2   1023 24.44                             110     0.2 3  316 229 
 RREF HZ I        1023 31.73        13.8 0.25                           316 229 
 DBB  SZ EP       1022 50.80                             108     0.4 7  332 274 
 MON  HE ES   2   1023 29.07                             107    -0.5 3  347 309 
 MON  HZ I        1023 44.86        12.6 0.48                           347 309 
 PRA  HZ EP       1022 57.16                             105     0.4 6  388 209 
 PRA  HN ES   1   1023 38.69                             105     0.8 4  388 209 
                                                                                
