 2011 11 6 1925  8.2 L   6.757 -73.095146.0  RSN  9 0.2 2.0LRSN                1
 GAP=145        0.38       2.6     2.8  4.5 -0.7743E+00  0.1813E+01  0.2626E+01E
 Epicentro: LOS SANTOS - SANTANDER                                             3
 ACTION:UPD 12-07-13 16:08 OP:ep   STATUS:               ID:20111106192508 L   I
 2011-11-06-1922-46S.COL___175                                                 6
 STAT SP IPHASW D HRMM SECON CODA AMPLIT PERI AZIMU VELO AIN AR TRES W  DIS CAZ7
 BAR2 SZ EP   1   1925 27.79                             172   -0.05 7 20.6 208 
 BAR2 SZ ES   2   1925 42.79                             172   -0.34 5 20.6 208 
 BAR2 SZ I        1925 44.21        35.2 0.19                          20.6 208 
 PAM  SZ EP   1   1925 30.70                             151    0.20 7 77.9  34 
 PAM  SN ES   2   1925 47.77                             151   -0.10 5 77.9  34 
 BRR  HZ EP   1   1925 29.72                             150   -0.10 7 78.4 300 
 BRR  HN ES   1   1925 47.01                             150    0.35 7 78.4 300 
 BRR  HZ I        1925 49.23        17.7 0.17                          78.4 300 
 RUS  HZ EP   1   1925 31.77                             145    0.12 7 95.6 179 
 RUS  HZ I        1925 32.62         6.5 0.11                          95.6 179 
 RUS  HN ES   2   1925 49.87                             145   -0.05 5 95.6 179 
 OCA  SZ ES   2   1925 59.03                             129   -0.54 5  166 351 
 OCA  SZ I        1926  1.56        12.0 0.28                           166 351 
 ZAR  HN ES   2   1926  7.34                             121    0.05 4  211 293 
 ZAR  HZ I        1926 11.78        11.1 0.48                           211 293 
 NOR  SZ EP   2   1925 44.12                             118   -0.05 4  237 236 
 NOR  SN ES   2   1926 11.92                             118   -0.29 4  237 236 
 HEL  HN ES   2   1926 20.62                             114   -0.05 4  276 257 
 HEL  HZ I        1926 26.34         4.7 0.40                           276 257 
 RREF HN ES   2   1926 30.60                             111   -0.02 3  323 231 
 RREF HZ I        1926 37.54         5.5 0.32                           323 231 
                                                                                
