 2015 12 6 1804 36.1 L   6.673 -73.168145.3  RSN  4 0.3 1.6LRSN                1
 GAP=241        0.73       9.7     5.8  6.7  0.5058E+01  0.7370E+01  0.9456E+01E
 Epicentro: VILLANUEVA - SANTANDER                                             3
 ACTION:UPD 16-02-04 15:02 OP:cam  STATUS:               ID:20151206180436 L   I
 OLDACT:REG 15-12-06 20:03 OP:drio STATUS:               ID:20151206175751     3
 2015-12-06-1757-51M.COL___323                                                 6
 STAT SP IPHASW D HRMM SECON CODA AMPLIT PERI AZIMU VELO AIN AR TRES W  DIS CAZ7
 BAR2 EZ EP       18 4 55.94                             176    0.4410 9.07 190 
 BAR2 EZ ES       18 5 10.36                             176   -0.2510 9.07 190 
 BAR2 EZ I        18 5 11.90        10.5 0.24            174           9.07 190 
 BRR  HZ EP       18 4 57.46                             151   -0.1010 76.9 309 
 BRR  HN ES       18 5 14.33                             151    0.0510 76.9 309 
 PTB  HZ EP       18 5  2.27                             133   -0.38 9  143 264 
 PTB  HN ES       18 5 23.54                             133    0.21 9  143 264 
 PTB  HZ I        18 5 26.18         3.9 0.26            131            143 264 
 ZAR  HZ EP   4   18 5  9.99                             122    1.09 0  208 296 
 ZAR  HE ES   4   18 5 31.40                             122   -3.06 0  208 296 
 ZAR  HZ I        18 5 39.91         4.5 0.34            120            208 296 
                                                                                
