 2013  5 6 1305 22.5 L   6.757 -73.159145.0  RSN  5 0.4 1.7LRSN                1
 GAP=137        1.00       6.1     5.2  8.2 -0.5472E+01  0.1689E+01  0.1007E+02E
 Epicentro: LOS SANTOS - SANTANDER                                             3
 ACTION:UPD 13-06-20 09:48 OP:ep   STATUS:               ID:20130506130522 L   I
 2013-05-06-1300-00M.COL___253                                                 6
 STAT SP IPHASW D HRMM SECON CODA AMPLIT PERI AZIMU VELO AIN AR TRES W  DIS CAZ7
 BAR2 SZ EP     C 13 5 41.97                             172    0.0510 18.4 188 
 BAR2 SZ ES   1   13 5 56.56                             172   -0.53 7 18.4 188 
 BAR2 SZ I        13 5 57.69        13.0 0.20            171           18.4 188 
 BRR  HZ EP   1   13 5 44.19                             152    0.58 7 72.3 302 
 BRR  HN ES       13 6  0.73                             152    0.6410 72.3 302 
 PAM  SZ EP     C 13 5 44.99                             149    0.1010 82.0  38 
 PAM  SZ I        13 5 45.20        10.3 0.20            151           82.0  38 
 PAM  SN ES       13 6  1.96                             149   -0.4110 82.0  38 
 RUS  HZ EP       13 5 45.87                             145    0.0510 96.0 175 
 RUS  HN ES   1   13 6  4.51                             145    0.48 7 96.0 175 
 RUS  HZ I        13 6  5.96         4.8 0.38            144           96.0 175 
 PTB  HZ EP     D 13 5 48.82                             132   -0.35 9  145 261 
 PTB  HN ES       13 6  9.54                             132   -0.46 9  145 261 
 PTB  HZ I        13 6 12.53         6.0 0.46            132            145 261 
                                                                                
