 2011  7 6 1912 31.2 L   6.787 -73.103141.3  RSN  5 0.3 1.9LRSN                1
 GAP=161        0.56       2.8     6.8  7.2  0.2251E+00 -0.1791E+02 -0.3313E+01E
 Epicentro: LOS SANTOS - SANTANDER                                             3
 ACTION:UPD 12-07-25 13:58 OP:epov STATUS:               ID:20110706191231 L   I
 2011-07-06-1908-00S.COL___123                                                 6
 STAT SP IPHASW D HRMM SECON CODA AMPLIT PERI AZIMU VELO AIN AR TRES W  DIS CAZ7
 BRR  HZ EP   1   1912 51.92                             150   -0.18 7 76.1 298 
 BRR  HE ES   1   1913  8.39                             150   -0.06 7 76.1 298 
 BRR  HZ I        1913 10.13        30.0 0.19                          76.1 298 
 RUS  HZ EP   1   1912 53.94                             143   -0.40 7 99.0 179 
 RUS  HN ES   1   1913 12.77                             143    0.34 7 99.0 179 
 RUS  HZ I        1913 13.79         5.4 0.29                          99.0 179 
 BRI  SZ EP   1   1912 54.67                             140    0.08 7  108  18 
 BRI  SZ I        1913 15.04        10.2 0.40                           108  18 
 GRA  SZ EP   1   1912 55.92                             136   -0.08 7  126  15 
 GRA  SZ ES   1   1913 15.16                             136   -0.22 7  126  15 
 GRA  SZ I        1913 16.59        12.1 0.40                           126  15 
 OCA  SZ EP   1   1912 59.84                             128    0.53 7  162 352 
 OCA  SZ ES   1   1913 21.34                             128    0.07 7  162 352 
 OCA  SZ I        1913 23.91        11.4 0.31                           162 352 
                                                                                
