 2011 11 6 1529  0.9 L   6.791 -73.125145.9  RSN  5 0.3 1.6LRSN                1
 GAP=140        0.59       3.2     4.5  6.1  0.1380E+00  0.4134E+01  0.1669E+01E
 Epicentro: LOS SANTOS - SANTANDER                                             3
 ACTION:UPD 12-07-13 16:08 OP:ep   STATUS:               ID:20111106152900 L   I
 2011-11-06-1526-50S.COL___175                                                 6
 STAT SP IPHASW D HRMM SECON CODA AMPLIT PERI AZIMU VELO AIN AR TRES W  DIS CAZ7
 BAR2 SZ EP       1529 20.59                             171    0.0810 22.8 196 
 BAR2 SZ I        1529 36.65         7.8 0.62                          22.8 196 
 BRR  HZ EP       1529 22.51                             151    0.3310 73.7 298 
 BRR  HN ES   1   1529 38.94                             151    0.14 7 73.7 298 
 BRR  HZ I        1529 42.05        14.6 0.48                          73.7 298 
 PAM  SZ EP       1529 23.10                             151    0.0310 76.8  38 
 PAM  SN ES       1529 40.20                             151   -0.1810 76.8  38 
 RUS  HZ EP       1529 24.40                             144   -0.1610 99.4 177 
 RUS  HZ I        1529 25.87         3.5 0.16                          99.4 177 
 RUS  HN ES       1529 43.01                             144   -0.0210 99.4 177 
 ZAR  HN ES   2   1529 58.16                             122   -0.94 4  207 292 
                                                                                
