 2012  2 6 1102  2.0 L   6.519 -73.543102.1  RSN 13 0.5 2.1LRSN                1
 GAP= 65        1.03       3.6     3.7  7.3 -0.2527E+01  0.9630E+01  0.3122E+01E
 ACTION:UP  12-03-07 16:28 OP:epov STATUS:               ID:20120206110202 L   I
 2012-02-06-1100-00M.COL___187                                                 6
 STAT SP IPHASW D HRMM SECON CODA AMPLIT PERI AZIMU VELO SNR AR TRES W  DIS CAZ7
 BAR2 SZ EP       11 2 17.65                             157    0.5810 40.7  79 
 BAR2 SZ ES   1   11 2 29.34                             157    0.51 7 40.7  79 
 BAR2 SZ I        11 2 31.50       231.9 0.48                          40.7  79 
 BRR  HZ EP   1   11 2 18.46                             144    0.09 7 67.6 344 
 BRR  HZ I        11 2 26.72        38.7 0.11                          67.6 344 
 BRR  HN ES   1   11 2 31.68                             144    0.53 7 67.6 344 
 GIR2 SZ EP   1   11 2 19.21                             142    0.25 7 72.9  32 
 RUS  HZ EP   1   11 2 20.53                             137    0.05 7 86.0 144 
 RUS  HZ I        11 2 22.05         9.4 0.10                          86.0 144 
 RUS  HE ES   1   11 2 34.73                             137   -0.19 7 86.0 144 
 PTB  HZ EP   1   11 2 20.42                             132   -0.73 7  101 271 
 PTB  HE ES   1   11 2 35.27                             132   -0.84 7  101 271 
 PAM  SZ EP   1   11 2 24.06                             124   -0.52 7  130  46 
 PAM  SE ES   1   11 2 41.55                             124   -0.67 7  130  46 
 PAM  SZ I        11 2 43.81        18.8 0.21                           130  46 
 ZAR  HZ EP   1   11 2 29.80                             114    0.40 7  181 307 
 ZAR  HN ES   1   11 2 51.34                             114    0.55 7  181 307 
 ZAR  HZ I        11 2 54.51        22.4 0.29                           181 307 
 NOR  SZ EP   1   11 2 29.06                             114   -0.41 7  181 234 
 NOR  SN ES   1   11 2 50.00                             114   -0.91 7  181 234 
 OCA  SZ EP   1   11 2 30.15                             113   -0.66 7  192   7 
 OCA  SZ ES   1   11 2 53.11                             113   -0.19 7  192   7 
 HEL  HZ EP   1   11 2 34.94                             109    0.33 6  223 261 
 HEL  HN ES   1   11 3  0.32                             109    0.25 6  223 261 
 HEL  HZ I        11 3  2.92         8.7 0.30                           223 261 
 RREF HZ EP   1   11 2 41.21                             105    0.94 6  268 228 
 RREF HZ I        11 3 16.48         8.0 0.45                           268 228 
 TOL  SZ EP   1   11 2 43.45                             103    0.89 5  291 223 
 PRA  HZ EP   1   11 2 48.20                              99   -0.39 5  344 206 
 PRA  HN ES   1   11 3 25.05                              99    0.11 5  344 206 
                                                                                
