 2014  9 6 1920  5.0 L   6.776 -73.106146.0  RSN  4 0.2 1.5LRSN                1
 GAP=143        0.52       3.1     4.2  5.0 -0.6592E+00 -0.4486E+00 -0.2889E+01E
 Epicentro: LOS SANTOS - SANTANDER                                             3
 ACTION:UPD 14-10-03 23:02 OP:nd   STATUS:               ID:20140906192005 L   I
 OLDACT:UP  14-09-07 00:22 OP:mh   STATUS:               ID:20140906191818     3
 OLDACT:UP  14-09-07 00:22 OP:mh   STATUS:               ID:20140906191818     3
 OLDACT:REG 14-09-06 22:23 OP:mh   STATUS:               ID:20140906191818     3
 2014-09-06-1918-18M.COL___260                                                 6
 STAT SP IPHASW D HRMM SECON CODA AMPLIT PERI AZIMU VELO AIN AR TRES W  DIS CAZ7
 BAR2 SZ EP   1   1920 24.73                             171    0.07 7 22.0 202 
 BAR2 SZ ES       1920 40.01                             171    0.0410 22.0 202 
 BAR2 SZ I        1920 42.07         5.9 0.17            169           22.0 202 
 BRR  HZ EP       1920 26.20                             151   -0.3010 76.3 299 
 BRR  HN ES       1920 43.39                             151    0.1510 76.3 299 
 PAM  SZ EP       1920 27.51                             151    0.2710 76.8  36 
 PAM  SN ES       1920 44.39                             151   -0.1710 76.8  36 
 RUS  HZ EP   4   1920 23.91                             145   -4.69 0 97.7 178 
 RUS  HN ES       1920 46.95                             145   -0.0310 97.7 178 
 RUS  HZ I        1920 49.28         5.8 0.10            144           97.7 178 
 GUY2CHZ EP   4   1920 50.20                             112    1.32 0  303 236 
 GUY2CHN ES   4   1921 25.23                             112    2.15 0  303 236 
                                                                                
