 2014 12 6 1023  6.8 L   6.724 -73.195150.2  RSN  5 0.2 1.2LRSN                1
 GAP=226        0.54       3.8     3.8  4.6  0.3524E+01  0.6287E+00  0.2522E+01E
 Epicentro: VILLANUEVA - SANTANDER                                             3
 ACTION:UPD 15-02-10 17:00 OP:nd   STATUS:               ID:20141206102306 L   I
 OLDACT:DUP 14-12-06 21:10 OP:spq  STATUS:               ID:20141206101739d    3
 2014-12-06-1017-38M.COL___309                                                 6
 STAT SP IPHASW D HRMM SECON CODA AMPLIT PERI AZIMU VELO AIN AR TRES W  DIS CAZ7
 BAR2 SZ EP   1   1023 26.62                             174   -0.16 7 14.6 175 
 BAR2 SZ ES   1   1023 41.97                             174   -0.42 7 14.6 175 
 BAR2 SZ I        1023 43.90         3.3 0.22            168           14.6 175 
 BRR  HZ EP       1023 28.41                             153    0.0310 71.1 307 
 BRR  HN ES       1023 45.40                             153    0.1510 71.1 307 
 BRR  HZ I        1023 51.25         5.4 0.44            153           71.1 307 
 RUS  HZ EP       1023 30.34                             147   -0.0710 92.7 172 
 RUS  HN ES   1   1023 49.30                             147    0.45 7 92.7 172 
 RUS  HZ I        1023 50.20         1.3 0.28            147           92.7 172 
 PTB  HZ EP       1023 33.73                             134    0.24 9  141 262 
 PTB  HN ES       1023 54.21                             134   -0.13 9  141 262 
 PTB  HZ I        1023 56.14         1.8 0.48            134            141 262 
 SPBC HZ EP   1   1023 34.43                             132   -0.25 7  153 219 
 SPBC HN ES   1   1023 56.41                             132   -0.05 7  153 219 
 SPBC HZ I        1024  6.64         2.4 0.20            131            153 219 
                                                                                
