 2010 10 6 1945 32.9 L   6.734 -73.097140.0  RSN  6 0.6 2.2LRSN                1
 GAP=197        1.53      16.5    18.4 17.2 -0.2386E+03 -0.1409E+03  0.1078E+03E
 Epicentro: JORDAN - SANTANDER                                                 3
 ACTION:UP  11-02-18 11:08 OP:tino STATUS:               ID:20101006194532 L   I
 2010-10-06-1942-57S.COL___123                                                 6
 STAT SP IPHASW D HRMM SECON CODA AMPLIT PERI AZIMU VELO SNR AR TRES W  DIS CAZ7
 BAR2 SZ ES   2   1946  5.57                             172    -0.9 5   18 211 
 BAR2 SZ I        1946  7.91        35.4 0.64                            18 211 
 BTL  SZ EP       1945 52.96                             169     1.010   28 317 
 BRR  HZ EP       1945 53.50                             149    -0.410   80 301 
 BRR  HN ES       1946 10.27                             149    -0.110   80 301 
 BRR  HZ I        1946 11.23        30.3 0.06                            80 301 
 GUE  SZ EP       1945 56.74                             136    -0.810  123   9 
 GRA  SZ EP       1945 58.44                             134     0.310  131  14 
 GRA  SZ ES       1946 17.88                             134     0.110  131  14 
 NOR  SN ES   1   1946 35.98                             117     0.0 6  235 237 
                                                                                
