 2016  3 6 1312 44.5 L   6.796 -73.178135.8  RSN  7 0.4 1.6LRSN                1
 GAP=133        1.05       3.6     4.7  7.4  0.2838E+00  0.1251E+02  0.1632E+01E
 Epicentro: LOS SANTOS - SANTANDER                                             3
 ACTION:UPD 16-05-13 21:21 OP:cam  STATUS:               ID:20160306131244 L   I
 OLDACT:UP  16-03-06 23:14 OP:mh   STATUS:               ID:20160306130748     3
 OLDACT:UP  16-03-06 23:12 OP:mh   STATUS:               ID:20160306130748     3
 OLDACT:UP  16-03-06 23:11 OP:mh   STATUS:               ID:20160306130748     3
 OLDACT:REG 16-03-06 21:12 OP:mh   STATUS:               ID:20160306130748     3
 2016-03-06-1307-48M.COL___318                                                 6
 STAT SP IPHASW D HRMM SECON CODA AMPLIT PERI AZIMU VELO AIN AR TRES W  DIS CAZ7
 BAR2 EZ EP     C 1313  2.86                             170   -0.1010 22.6 181 
 BAR2 EZ ES       1313 17.57                             170    0.2410 22.6 181 
 BAR2 EZ I        1313 18.86         6.7 0.23            169           22.6 181 
 PAM  EZ EP     D 1313  5.89                             148    0.0110 80.0  41 
 PAM  EN ES       1313 22.74                             148    0.2210 80.0  41 
 PAM  EZ I        1313 24.55         8.7 0.42            152           80.0  41 
 RUS  HZ EP       1313  7.39                             142    0.0610  101 174 
 RUS  HN ES       1313 25.16                             142    0.0710  101 174 
 RUS  HZ I        1313 25.87         6.5 0.36            143            101 174 
 PTB  HE EP       1313  9.83                             130   -0.56 9  144 259 
 PTB  HN ES       1313 30.20                             130   -0.34 9  144 259 
 PTB  HE I        1313 33.47         9.0 0.30            129            144 259 
 OCA  HN ES       1313 32.82                             127   -0.78 9  160 354 
 OCA  HZ I        1313 34.93        10.7 0.09            128            160 354 
 ZAR  HZ EP       1313 16.73                             120    0.70 9  201 293 
 ZAR  HN ES       1313 41.15                             120    0.56 9  201 293 
 ZAR  HZ I        1313 50.83         4.8 0.38            120            201 293 
 CHI  HZ EP       1313 22.05                             115    0.48 8  247 194 
 CHI  HN ES   1   1313 49.65                             115   -0.80 6  247 194 
 CHI  HZ I        1313 57.00         1.2 0.38            116            247 194 
                                                                                
