 2014  3 6 1219 51.0 L   6.274 -73.671105.9  RSN  5 0.5 1.2LRSN                1
 GAP=128        1.16       7.5     4.3 10.7  0.4079E+00  0.1982E+02  0.2753E+02E
 Epicentro: SANTA HELENA DEL OPON - SANTANDER                                  3
 ACTION:UPD 14-04-09 23:14 OP:nd   STATUS:               ID:20140306121951 L   I
 OLDACT:DUP 14-03-06 16:39 OP:stll STATUS:               ID:20140306121813d    3
 2014-03-06-1218-12M.COL___234                                                 6
 STAT SP IPHASW D HRMM SECON CODA AMPLIT PERI AZIMU VELO AIN AR TRES W  DIS CAZ7
 BAR2 SZ EP       1220  8.43                             146    0.5010 64.5  57 
 BAR2 SZ I        1220  8.57        12.4 0.26            151           64.5  57 
 BAR2 SZ ES       1220 21.28                             146    0.1910 64.5  57 
 RUS  HZ EP       1220  8.63                             141   -0.5910 77.5 123 
 RUS  HN ES       1220 23.40                             141    0.0010 77.5 123 
 RUS  HZ I        1220 25.49         3.0 0.30            143           77.5 123 
 PTB  HZ EP       1220  9.50                             136   -0.2110 91.7 289 
 PTB  HE ES       1220 24.03                             136   -0.2410 91.7 289 
 PTB  HZ I        1220 25.14         3.3 0.42            138           91.7 289 
 NOR  HZ EP       1220 15.18                             120   -0.65 9  154 239 
 NOR  HN ES       1220 35.55                             120    0.39 9  154 239 
 NOR  HZ I        1220 39.10         1.9 0.24            121            154 239 
 GUY2CHZ EP       1220 24.56                             110    0.83 8  221 238 
 GUY2CHZ I        1220 26.50         1.2 0.56                           221 238 
                                                                                
