 2016 10 6 1206 30.0 L   6.807 -73.162141.4  RSN 19 0.5 2.4LRSN                1
 GAP=117        1.02       2.7     3.4  4.8 -0.2351E+01  0.5385E+01  0.1049E+01E
 Epicentro: LOS SANTOS - SANTANDER                                             3
 ACTION:UPD 16-11-09 19:16 OP:rebc STATUS:               ID:20161006120630 L   I
 OLDACT:REG 16-10-06 20:22 OP:lv   STATUS:               ID:20161006115745     3
 2016-10-06-1158-00M.COL___360                                                 6
 STAT SP IPHASW D HRMM SECON CODA AMPLIT PERI AZIMU VELO AIN AR TRES W  DIS CAZ7
 BAR2 EZ EP       12 6 49.04                             170   -0.0710 23.9 185 
 BAR2 EZ ES       12 7  4.30                             170    0.2710 23.9 185 
 BAR2 EZ I        12 7  5.25        84.3 0.24            169           23.9 185 
 BRR  HZ EP       12 6 50.79                             152    0.2310 69.2 299 
 BRR  HN ES       12 7  7.33                             152    0.7310 69.2 299 
 BRR  HZ I        12 7 11.16        56.6 0.27            150           69.2 299 
 PAM  EZ EP       12 6 52.02                             150    0.2310 78.0  41 
 PAM  EN ES       12 7  8.87                             150    0.0910 78.0  41 
 PAM  EZ I        12 7  9.78        33.2 0.18            154           78.0  41 
 RUS  HZ EP       12 6 53.07                             143   -0.3210  102 175 
 RUS  HN ES       12 7 11.63                             143   -0.0110  102 175 
 RUS  HZ I        12 7 12.91        36.0 0.28            144            102 175 
 PTB  HZ EP       12 6 55.73                             131   -0.73 9  146 258 
 PTB  HN ES       12 7 16.65                             131   -0.45 9  146 258 
 PTB  HZ I        12 7 18.71        36.5 0.17            130            146 258 
 OCA  HZ EP       12 6 57.79                             129   -0.09 9  159 354 
 OCA  HN ES       12 7 19.27                             129   -0.35 9  159 354 
 SPBC HZ EP       12 6 57.84                             128   -0.27 9  163 218 
 SPBC HE ES       12 7 20.01                             128   -0.03 9  163 218 
 SPBC HZ I        12 7 24.27        49.6 0.16            128            163 218 
 ZAR  HZ EP       12 7  1.73                             122   -0.22 9  202 292 
 ZAR  HE ES       12 7 26.30                             122   -0.58 9  202 292 
 ZAR  HZ I        12 7 32.33        36.3 0.31            121            202 292 
 NOR  HZ EP       12 7  5.17                             118   -0.19 8  234 234 
 NOR  HE ES       12 7 32.31                             118   -0.64 8  234 234 
 NOR  HZ I        12 7 42.43        17.6 0.17            118            234 234 
 CHI  HZ EP       12 7  7.22                             116   -0.27 8  249 195 
 CHI  HN ES       12 7 36.47                             116   -0.26 8  249 195 
 CHI  HZ I        12 7 38.70        20.8 0.34            117            249 195 
 ROSC BZ EP   9   12 7  9.50                             116    1.65 0  252 211 
 ROSC BE ES       12 7 39.15                                    0.12 8  252 211 
 ROSC BZ I        12 7 43.72        52.7 0.40            116            252 211 
 HEL  HZ EP       12 7 10.40                             114    0.59 8  270 256 
 HEL  HE ES       12 7 40.35                             114   -0.52 8  270 256 
 HEL  HZ I        12 7 47.10        17.6 0.26            114            270 256 
 GUY2CHZ EP       12 7 13.97                             112    0.69 7  300 234 
 GUY2CHE ES       12 7 47.06                             112    0.01 7  300 234 
 GUY2CHZ I        12 7 55.26        17.3 0.34                           300 234 
 PTGC HZ EP   9   12 7 12.19                             111   -1.63 0  310 158 
 PTGC HN ES       12 7 45.77                                   -0.60 7  310 158 
 PTGC HZ I        12 7 47.52        13.4 0.28            112            310 158 
 ELA  HZ EP       12 7 17.65                             109    1.09 7  328 229 
 ELA  HE ES       12 7 53.38                             109    0.50 7  328 229 
 ELA  HZ I        12 8  1.02        10.8 0.38            110            328 229 
 CBOC HZ EP       12 7 17.44                             109    0.88 7  332 252 
 CBOC HN ES       12 7 53.68                             109    0.81 7  332 252 
 CBOC HZ I        12 7 57.47         4.7 0.26            110            332 252 
 ANIL HZ EP   9   12 7 20.93                             108    1.38 0  357 224 
 ANIL HE ES       12 7 59.45                                   -0.13 6  357 224 
 PAL  HZ EP       12 7 24.55                             105   -0.32 6  404 239 
 PAL  HN ES       12 8  8.21                             105    0.53 6  404 239 
 PAL  HZ I        12 8 10.49         3.9 0.26            106            404 239 
 SJC  HZ IP   4 C 12 7 23.20                             105   -2.02 0  408 327 
 SJC  HN ES   4   12 8  4.28                             105   -4.02 0  408 327 
 SJC  HZ I        12 8 19.14         5.3 0.53            106            408 327 
                                                                                
