 2017  8 6 1121 43.2 L   6.848 -73.145152.7  RSN 23 0.5 2.5LRSN                1
 GAP= 56        1.28       3.4     2.9  5.6 -0.5497E+00  0.2574E+01 -0.1007E+01E
 Epicentro: LOS SANTOS - SANTANDER                                             3
 ACTION:UPD 17-09-04 20:17 OP:rebc STATUS:               ID:20170806112143 L   I
 OLDACT:UP  17-08-06 22:43 OP:edw  STATUS:               ID:20170806111738     3
 OLDACT:REG 17-08-06 20:26 OP:edw  STATUS:               ID:20170806111738     3
 2017-08-06-1118-00M.COL___380                                                 6
 STAT SP IPHASW D HRMM SECON CODA AMPLIT PERI AZIMU VELO AIN AR TRES W  DIS CAZ7
 BAR2 EZ IP     D 1122  3.71                             169   -0.0510 28.5 188 
 BAR2 EZ ES       1122 19.43                             169   -0.3810 28.5 188 
 BRR  HZ IP     D 1122  5.61                             154    0.6510 68.9 295 
 BRR  HN ES       1122 22.80                             154    0.8510 68.9 295 
 BRR  HZ I        1122 24.50        38.0 0.12            152           68.9 295 
 PAM  EZ EP     C 1122  6.79                             153    0.8710 73.4  42 
 PAM  EN ES       1122 23.89                             153    0.2410 73.4  42 
 PAM  EZ I        1122 25.93        68.0 0.50            154           73.4  42 
 RUS  HZ EP       1122  7.75                             144   -0.2410  106 176 
 RUS  HN ES       1122 27.09                             144   -0.2610  106 176 
 RUS  HZ I        1122 27.48        73.0 0.24            144            106 176 
 PTB  HZ EP       1122 10.24                             133   -0.59 9  149 257 
 PTB  HN ES       1122 31.55                             133   -0.83 9  149 257 
 PTB  HZ I        1122 33.41        30.0 0.40            132            149 257 
 TAM  HZ IP       1122 12.14                             132    0.59 9  157 107 
 TAM  HN ES       1122 33.82                             132    0.15 9  157 107 
 TAM  HZ I        1122 33.87        11.2 0.40            132            157 107 
 SPBC HZ EP       1122 12.56                             130   -0.05 9  167 218 
 SPBC HN ES       1122 34.95                             130   -0.61 9  167 218 
 SPBC HZ I        1122 37.14        67.4 0.26            129            167 218 
 YPLC HZ IP     D 1122 14.17                             127    0.23 9  181 152 
 YPLC HN ES       1122 37.39                             127   -0.53 9  181 152 
 YPLC HZ I        1122 40.94        33.0 0.30            128            181 152 
 ZAR  HZ EP   4   1122 16.96                             124    1.06 0  202 291 
 ZAR  HN ES       1122 41.49                             124    0.08 9  202 291 
 ZAR  HZ I        1122 46.73        31.4 0.38            123            202 291 
 TABC EZ EP   4   1122 21.41                             120    1.58 0  234 210 
 TABC EZ ES   4   1122 45.25                             120   -3.17 0  234 210 
 TABC EZ I        1122 55.04        26.8 0.38            120            234 210 
 NOR  HZ EP       1122 19.77                             120    0.12 8  238 233 
 NOR  HN ES       1122 48.24                             120    0.14 8  238 233 
 NOR  HZ I        1122 50.35        17.1 0.28            119            238 233 
 CHI  HZ EP       1122 21.91                             118    0.09 8  254 195 
 CHI  HN ES       1122 51.60                             118   -0.36 8  254 195 
 CHI  HZ I        1122 54.70        20.4 0.54            118            254 195 
 ROSC BZ EP   4   1122 24.02                             118    1.84 0  257 210 
 ROSC BN ES   4   1122 54.50                             118    1.90 0  257 210 
 ROSC BZ I        1122 58.29        36.1 0.45            117            257 210 
 HEL  HZ EP   4   1122 25.94                             116    2.03 0  273 255 
 HEL  HN ES       1122 56.20                             116    0.53 8  273 255 
 HEL  HZ I        1123  1.78        19.3 0.28            115            273 255 
 URE  HZ EP       1122 23.93                             115   -0.46 7  282 291 
 URE  HN ES       1122 56.38                             115   -0.15 7  282 291 
 URE  HZ I        1123  6.43        19.2 0.26            114            282 291 
 GUY2CHZ EP   4   1122 28.95                             113    1.48 0  304 234 
 GUY2CHN ES       1123  2.65                             113    0.64 7  304 234 
 GUY2CHZ I        1123  9.97        15.6 0.38                           304 234 
 PTGC HZ IP   9 C 1122 26.96                             112   -0.95 0  314 159 
 PTGC HN ES       1123  0.49                             112   -1.36 7  314 159 
 PTGC HZ I        1123  5.15        20.4 0.30            112            314 159 
 LL6C HZ EP       1122 28.38                             112   -0.21 7  320 358 
 LL6C HN ES   4   1123  1.85                             112   -2.16 0  320 358 
 LL6C HZ I        1123  9.77         8.3 0.46            111            320 358 
 CBOC HZ EP   4   1122 31.62                             111    1.04 0  335 251 
 CBOC HN ES   4   1123  5.93                             111   -1.63 0  335 251 
 CBOC HZ I        1123 12.89         5.4 0.42            110            335 251 
 DBB  EZ EP       1122 30.87                             111   -0.04 7  339 273 
 DBB  EN ES       1123  7.56                             111   -0.58 7  339 273 
 DBB  EZ I        1123  8.37         8.1 0.46            110            339 273 
 SDV  BZ EP       1122 33.41                             110    0.30 6  357  51 
 SDV  B1 ES       1123 10.38                             110   -1.67 6  357  51 
 SDV  BZ I        1123 16.24         6.1 0.65            109            357  51 
 ORTC HZ EP       1122 38.14                             107    0.29 6  400 216 
 ORTC HN ES       1123 21.47                             107    0.99 6  400 216 
 ORTC HZ I        1123 25.08        10.6 0.24            107            400 216 
 SJC  HZ EP       1122 37.92                             107   -0.55 6  405 327 
 SJC  HN ES   4   1123 17.42                             107   -4.17 0  405 327 
 SJC  HZ I        1123 26.85         4.1 0.56            106            405 327 
 SMAR HZ EP   4   1122 42.90                             103   -5.74 0  492 346 
 SMAR HN ES   4   1123 35.87                             103   -3.82 0  492 346 
                                                                                
