 2015  3 6 1301  4.9 L   6.776 -73.113143.9  RSN 10 0.7 1.9LRSN                1
 GAP=142        1.57       6.2     6.8  8.7 -0.1195E+02  0.1457E+02  0.1257E+02E
 Epicentro: LOS SANTOS - SANTANDER                                             3
 ACTION:UPD 15-04-30 16:23 OP:nd   STATUS:               ID:20150306130104 L   I
 OLDACT:REG 15-03-06 20:23 OP:stll STATUS:               ID:20150306125748     3
 2015-03-06-1257-48M.COL___287                                                 6
 STAT SP IPHASW D HRMM SECON CODA AMPLIT PERI AZIMU VELO AIN AR TRES W  DIS CAZ7
 BAR2 EZ EP       13 1 24.16                             171   -0.1110 21.8 201 
 BAR2 EZ ES       13 1 39.69                             171    0.3110 21.8 201 
 BAR2 EZ I        13 1 42.38        14.1 0.20            169           21.8 201 
 BRR  HZ EP       13 1 26.15                             151    0.0510 75.6 299 
 BRR  HN ES       13 1 43.21                             151    0.5710 75.6 299 
 PAM  SZ EP       13 1 27.10                             150    0.2010 77.2  36 
 PAM  SN ES       13 1 44.03                             150   -0.0310 77.2  36 
 PAM  SZ I        13 1 46.41        15.0 0.20            155           77.2  36 
 RUS  HZ EP       13 1 28.62                             144    0.3610 97.8 178 
 RUS  HE ES       13 1 46.11                             144   -0.3710 97.8 178 
 RUS  HZ I        13 1 48.04         6.9 0.44            144           97.8 178 
 PTB  HZ EP       13 1 31.11                             131   -0.88 9  151 260 
 PTB  HN ES       13 1 51.69                             131   -1.44 9  151 260 
 PTB  HZ I        13 1 58.06        15.5 0.28            132            151 260 
 SPBC HZ EP       13 1 33.21                             129   -0.07 9  163 221 
 SPBC HE ES       13 1 55.78                             129    0.36 9  163 221 
 NOR  HZ EP       13 1 40.24                             118   -0.43 8  236 235 
 NOR  HN ES       13 2  8.52                             118   -0.06 8  236 235 
 NOR  HZ I        13 2 11.99        10.3 0.26            119            236 235 
 CHI  HZ EP       13 1 42.33                             117    0.01 8  247 196 
 CHI  HN ES       13 2 10.84                             117   -0.67 8  247 196 
 CHI  HZ I        13 2 20.07         4.1 0.64            118            247 196 
 GUY2CHZ EP       13 1 49.34                             112    0.76 7  303 236 
 GUY2CHN ES       13 2 24.79                             112    2.13 7  303 236 
 GUY2CHZ I        13 2 30.78         6.2 0.36                           303 236 
 CBOC HZ EP       13 1 52.14                             109    0.10 7  336 253 
                                                                                
