 2017  4 6 1339 49.9 L   6.815 -73.152145.0  RSN 23 0.6 2.7LRSN                1
 GAP=111        1.41       4.0     4.3  6.2  0.2281E+01  0.8757E+01  0.6217E+01E
 Epicentro: LOS SANTOS - SANTANDER                                             3
 ACTION:UPD 17-05-30 21:09 OP:jn   STATUS:               ID:20170406133949 L   I
 OLDACT:UP  17-04-07 00:34 OP:ar   STATUS:               ID:20170406133742     3
 OLDACT:UP  17-04-07 00:34 OP:ar   STATUS:               ID:20170406133742     3
 OLDACT:UP  17-04-07 00:21 OP:ar   STATUS:               ID:20170406133742     3
 OLDACT:UP  17-04-07 00:21 OP:ar   STATUS:               ID:20170406133742     3
 OLDACT:UP  17-04-07 00:18 OP:ar   STATUS:               ID:20170406133742     3
 OLDACT:REG 17-04-06 21:22 OP:ar   STATUS:               ID:20170406133742     3
 2017-04-06-1338-00M.COL___371                                                 6
 STAT SP IPHASW D HRMM SECON CODA AMPLIT PERI AZIMU VELO AIN AR TRES W  DIS CAZ7
 BAR2 EZ EP       1340  9.16                             170   -0.3010 24.8 188 
 BAR2 EZ ES       1340 24.42                             170   -0.3010 24.8 188 
 BAR2 EZ I        1340 26.77       150.0 0.32            165           24.8 188 
 BRR  HZ EP       1340 10.98                             153    0.1010 69.8 298 
 BRR  HN ES       1340 27.97                             153    0.7210 69.8 298 
 BRR  HZ I        1340 31.89        73.2 0.24            151           69.8 298 
 PAM  EZ EP       1340 12.20                             151    0.2210 76.6  41 
 PAM  EE ES       1340 29.39                             151    0.1910 76.6  41 
 PAM  EZ I        1340 32.40        64.8 0.50            159           76.6  41 
 RUS  HZ EP       1340 13.14                             143   -0.5510  102 176 
 RUS  HE ES       1340 31.89                             143   -0.3610  102 176 
 RUS  HZ I        1340 32.73        36.9 0.18            144            102 176 
 PTB  HZ EP       1340 15.83                             132   -0.93 9  147 258 
 PTB  HE ES       1340 37.47                             132   -0.25 9  147 258 
 PTB  HZ I        1340 43.17        50.3 0.44            131            147 258 
 SPBC HZ EP       1340 18.13                             129   -0.28 9  164 218 
 SPBC HN ES       1340 40.80                             129    0.14 9  164 218 
 SPBC HZ I        1340 44.24        98.5 0.40            129            164 218 
 YPLC HZ EP       1340 19.62                             126   -0.18 9  179 151 
 YPLC HE ES       1340 44.25                             126    1.12 9  179 151 
 YPLC HZ I        1340 44.40        45.9 0.24            129            179 151 
 ZAR  HZ EP       1340 21.57                             122   -0.59 9  203 292 
 ZAR  HN ES       1340 47.13                             122   -0.20 9  203 292 
 ZAR  HZ I        1340 52.28        62.9 0.36            124            203 292 
 TABC EZ EP       1340 26.79                             119    1.08 8  231 210 
 TABC EZ ES   4   1340 57.00                             119    3.36 0  231 210 
 TABC EZ I        1341  0.46        69.5 0.38            120            231 210 
 NOR  HZ EP       1340 25.33                             118   -0.29 8  235 234 
 NOR  HE ES       1340 52.88                             118   -0.61 8  235 234 
 NOR  HZ I        1341  2.60        35.7 0.40            119            235 234 
 CHI  HZ EP       1340 27.44                             117   -0.26 8  250 195 
 CHI  HN ES       1340 56.65                             117   -0.54 8  250 195 
 CHI  HZ I        1341  1.53        31.5 0.42            118            250 195 
 ROSC BZ EP       1340 29.27                             116    1.19 8  254 211 
 ROSC BN ES   4   1340 59.84                             116    1.97 0  254 211 
 ROSC BZ I        1341  3.75       105.0 0.45            118            254 211 
 HEL  HZ EP       1340 31.29                             115    1.25 8  272 255 
 HEL  HE ES       1341  1.66                             115    0.31 8  272 255 
 HEL  HZ I        1341  7.09        25.3 0.32            116            272 255 
 URE  HZ EP       1340 29.70                             113   -1.08 7  283 292 
 URE  HE ES   4   1341  0.25                             113   -2.43 0  283 292 
 URE  HZ I        1341  8.24        33.3 0.16            115            283 292 
 VIL  EZ EP       1340 33.03                             112   -0.41 7  305 191 
 VIL  EN ES       1341  6.72                             112   -0.69 7  305 191 
 VIL  EZ I        1341 16.70        50.6 0.46            113            305 191 
 PTGC HZ EP   9   1340 32.37                             111   -1.54 0  310 159 
 PTGC HE ES       1341  6.18                             112   -0.53 7  310 159 
 ELA  HZ EP   4   1340 39.21                             110    2.44 0  330 229 
 ELA  HN ES       1341 14.83                             110    1.49 7  330 229 
 ELA  HZ I        1341 21.65        25.1 0.60            111            330 229 
 CBOC HZ EP       1340 37.36                             110    0.60 7  333 252 
 CBOC HN ES   4   1341 15.35                             110    2.04 0  333 252 
 CBOC HZ I        1341 24.07         7.5 0.32            111            333 252 
 ANIL HZ EP       1340 40.67                             108    0.92 6  358 224 
 ANIL HE ES   4   1341 20.94                             108    2.31 0  358 224 
 PRA  HZ EP       1340 42.95                             106   -0.56 6  393 209 
 PRA  HE ES   4   1341 24.37                             106   -0.97 0  393 209 
 PRA  HZ I        1341 31.35        34.3 0.28            108            393 209 
 ORTC HZ EP       1340 43.63                             106   -0.26 6  396 216 
 ORTC HE ES   4   1341 27.93                             106    1.92 0  396 216 
 ORTC HZ I        1341 30.46        12.0 0.22            108            396 216 
 APAC HZ EP       1340 44.65                             106    0.73 6  397 288 
 APAC HN ES   4   1341 24.02                             106   -2.04 0  397 288 
 APAC HZ I        1341 25.67        11.1 0.54            108            397 288 
 PAL  HZ EP       1340 44.69                             106   -0.37 6  406 239 
 PAL  HE ES       1341 28.00                             106   -0.08 6  406 239 
 PAL  HZ I        1341 32.52         7.7 0.20            107            406 239 
                                                                                
