 2014  8 6 1018 12.6 L   6.752 -73.126149.3  RSN  7 0.4 1.4LRSN                1
 GAP=236        1.05       5.2     5.6  7.2  0.7111E+01  0.8658E+01 -0.5641E+00E
 Epicentro: LOS SANTOS - SANTANDER                                             3
 ACTION:UPD 14-09-15 21:47 OP:nd   STATUS:               ID:20140806101812 L   I
 OLDACT:UP  14-08-06 21:22 OP:carl STATUS:               ID:20140806100817     3
 OLDACT:REG 14-08-06 21:00 OP:carl STATUS:               ID:20140806100817     3
 2014-08-06-1008-17M.COL___248                                                 6
 STAT SP IPHASW D HRMM SECON CODA AMPLIT PERI AZIMU VELO AIN AR TRES W  DIS CAZ7
 BAR2 SZ EP       1018 32.74                             173    0.1410 18.8 199 
 BAR2 SZ ES       1018 48.05                             173   -0.1310 18.8 199 
 BAR2 SZ I        1018 50.83         4.9 0.26            169           18.8 199 
 BRR  HZ EP       1018 34.63                             152    0.2110 75.7 301 
 BRR  HN ES       1018 52.01                             152    0.6010 75.7 301 
 BRR  HZ I        1018 56.39         4.2 0.24            150           75.7 301 
 RUS  HZ EP       1018 36.59                             146    0.2310 95.2 177 
 RUS  HE ES       1018 54.29                             146   -0.5710 95.2 177 
 RUS  HZ I        1018 57.23         2.9 0.30            149           95.2 177 
 PTB  HZ EP       1018 39.95                             133   -0.05 9  149 261 
 PTB  HN ES       1019  0.64                             133   -0.71 9  149 261 
 PTB  HZ I        1019  6.64         4.4 0.42            133            149 261 
 SPBC HZ EP       1018 40.81                             130   -0.35 9  161 221 
 SPBC HN ES       1019  4.12                             130    0.71 9  161 221 
 SPBC HZ I        1019  9.55         5.1 0.16            132            161 221 
 ZAR  HZ EP       1018 45.59                             123   -0.14 8  208 293 
 ZAR  HN ES       1019 11.17                             123   -0.37 8  208 293 
 ZAR  HZ I        1019 19.46         2.4 0.38            124            208 293 
 NOR  HN ES       1019 16.72                             119    0.35 8  233 236 
                                                                                
