 2014  3 6 2246 49.4 L   5.875 -73.952 23.7  RSN  5 0.4 1.4LRSN                1
 GAP=129        0.91       3.0     8.2  5.6 -0.7210E+01 -0.3574E+02  0.3906E+00E
 Epicentro: LA BELLEZA - SANTANDER                                             3
 ACTION:UPD 14-04-09 23:15 OP:nd   STATUS:               ID:20140306224649 L   I
 OLDACT:UP  14-03-06 23:00 OP:cam  STATUS:               ID:20140306223816     3
 OLDACT:REG 14-03-06 21:50 OP:cam  STATUS:               ID:20140306223816     3
 2014-03-06-2238-16M.COL___234                                                 6
 STAT SP IPHASW D HRMM SECON CODA AMPLIT PERI AZIMU VELO AIN AR TRES W  DIS CAZ7
 SPBC HZ EP       2246 54.71                             129   -0.6410 27.9 208 
 SPBC HE ES       2247  0.54                             129    0.5210 27.9 208 
 SPBC HZ I        2247  1.61        45.8 0.18             47           27.9 208 
 PTB  HN ES   2   2247 15.84                             103   -0.08 5 92.3 323 
 CHI  HN ES       2247 27.67                              56   -0.04 9  140 170 
 CHI  HZ I        2247 34.31         2.6 0.30             47            140 170 
 GUY2CHZ EP   2   2247 15.32                              56    0.29 4  172 245 
 PAM  SZ EP       2247 19.95                              56   -0.21 8  213  40 
 PAM  SN ES       2247 44.56                              56    0.37 8  213  40 
 PAM  SZ I        2247 45.85         3.9 0.16             37            213  40 
                                                                                
