 2013  5 6 2116  5.8 L   6.818 -73.170145.3  RSN 16 0.5 2.8LRSN 3.0WRSN        1
 SPEC AVERAGE  MO 13.6 ST  5.7 OM  2.3 f0 4.00 R0.4090 AL 2.51 WI 33.6 MW  3.0 3
 SPEC SD       MO  0.2 ST  8.9 OM  0.5 f00.944 R0.0894 AL      WI      MW  0.2 3
 GAP= 69        0.92       3.5     3.5  5.3 -0.1573E+01  0.1931E+01  0.1696E+01E
 Epicentro: LOS SANTOS - SANTANDER                                             3
 SPEC COD HH N MO 13.5 ST  1.9 OM  1.5 f0 3.80 R0.4089 AL 2.28 WI 34.8 MW  2.9 3
 SPEC COD HH N T211728 K 0.000 GD  375 VS 4.20 DE 3.20 Q0300.0 QA 0.60 VS 4.20 3
 SPEC PTB HH N MO 13.4 ST  2.1 OM  1.7 f0 4.13 R0.3763 AL 1.20 WI 39.8 MW  2.9 3
 SPEC PTB HH N T211651 K 0.000 GD  205 VS 4.20 DE 3.20 Q0300.0 QA 0.60 VS 4.20 3
 SPEC PRA HH N MO 13.6 ST  1.7 OM  1.6 f0 3.29 R0.4723 AL 2.28 WI 36.9 MW  3.0 3
 SPEC PRA HH N T211738 K 0.000 GD  418 VS 4.20 DE 3.20 Q0300.0 QA 0.60 VS 4.20 3
 SPEC HEL HH N MO 13.7 ST  3.3 OM  1.8 f0 3.88 R0.4005 AL 3.26 WI 52.1 MW  3.1 3
 SPEC HEL HH N T211712 K 0.000 GD  306 VS 4.20 DE 3.20 Q0300.0 QA 0.60 VS 4.20 3
 SPEC NOR HH N MO 14.0 ST 27.3 OM  2.2 f0 5.99 R0.2594 AL 4.34 WI 33.9 MW  3.3 3
 SPEC NOR HH N T2117 6 K 0.000 GD  275 VS 4.20 DE 3.20 Q0300.0 QA 0.60 VS 4.20 3
 SPEC PAM SH N MO 13.8 ST  1.5 OM  2.2 f0 2.71 R0.5734 AL 2.84 WI 16.3 MW  3.2 3
 SPEC PAM SH N T211643 K 0.000 GD  164 VS 4.20 DE 3.20 Q0300.0 QA 0.60 VS 4.20 3
 SPEC BRR HH Z MO 13.3 ST  1.7 OM  1.7 f0 4.18 R0.3718 AL 1.39 WI 21.7 MW  2.8 3
 SPEC BRR HH Z T211642 K 0.000 GD  160 VS 4.20 DE 3.20 Q0300.0 QA 0.60 VS 4.20 3
 ACTION:UPD 13-06-20 09:48 OP:ep   STATUS:               ID:20130506211605 L   I
 2013-05-06-2110-00M.COL___256                                                 6
 STAT SP IPHASW D HRMM SECON CODA AMPLIT PERI AZIMU VELO AIN AR TRES W  DIS CAZ7
 BAR2 SZ EP     D 2116 25.41                             170   -0.0210 25.0 183 
 BAR2 SZ ES   1   2116 40.62                             170   -0.10 7 25.0 183 
 BAR2 SZ I        2116 41.70        77.9 0.42            166           25.0 183 
 GIR2 SZ EP     C 2116 25.45                             168    0.0710 28.9 355 
 GIR2 SZ ES   1   2116 40.82                             168    0.19 7 28.9 355 
 GIR2 SZ I        2116 41.99        67.6 0.30            167           28.9 355 
 BRR  HZ IP     C 2116 27.22                             154    0.4810 67.9 298 
 BRR  HN ES   1   2116 43.71                             154    0.66 7 67.9 298 
 BRR  HN I        2116 44.85       289.3 0.18            149           67.9 298 
 PAM  SZ EP     C 2116 28.20                             151    0.2010 77.6  42 
 PAM  SN ES   1   2116 45.06                             151   -0.23 7 77.6  42 
 PAM  SN I        2116 46.74       117.3 0.32            155           77.6  42 
 RUS  HZ EP     C 2116 29.42                             143   -0.2710  103 175 
 RUS  HN ES   2   2116 47.82                             143   -0.48 5  103 175 
 RUS  HN I        2116 49.59       108.8 0.32            142            103 175 
 PTB  HZ EP   1   2116 32.19                             132   -0.36 7  146 258 
 PTB  HN ES       2116 53.05                             132   -0.35 9  146 258 
 PTB  HN I        2116 58.46        83.3 0.32            129            146 258 
 TAM  HZ IP     C 2116 33.79                             130    0.04 9  158 105 
 ZAR  HZ EP   1   2116 37.46                             123   -0.45 6  201 292 
 ZAR  HN ES   1   2117  2.36                             123   -0.57 6  201 292 
 ZAR  HN I        2117  9.62        76.3 0.22            121            201 292 
 NOR  HZ EP   1   2116 41.30                             118   -0.12 6  234 234 
 NOR  HN ES   1   2117  8.68                             118   -0.51 6  234 234 
 NOR  HN I        2117 14.77       105.4 0.14            117            234 234 
 SML  HZ EP   1   2116 41.67                             118   -0.43 6  241 336 
 SML  HN ES   1   2117  9.79                             118   -0.61 6  241 336 
 SML  HN I        2117 12.57       109.4 0.10            117            241 336 
 ROSC BZ EP   1   2116 45.13                             117    1.17 6  253 210 
 ROSC BN ES   4   2117 14.92                             117    1.21 0  253 210 
 ROSC BZ I        2117 23.39        29.6 0.40            116            253 210 
 HEL  HZ EP   1   2116 46.83                             115    1.05 6  270 255 
 HEL  HE ES   1   2117 18.07                             115    1.12 6  270 255 
 HEL  HN I        2117 23.06        23.5 0.24            114            270 255 
 URE  HZ EP   4   2116 45.15                             114   -1.36 0  281 292 
 URE  HN ES   4   2117 16.42                             114   -1.82 0  281 292 
 URE  HN I        2117 26.06        42.7 0.28            113            281 292 
 COD  HZ EP   1   2116 53.23                             109   -0.69 5  346 355 
 COD  HN ES   1   2117 31.90                             109    0.47 5  346 355 
 COD  HN I        2117 34.45        11.4 0.36            109            346 355 
 PRA  HZ EP   1   2116 58.89                             106   -0.49 4  392 209 
 PRA  HN ES   1   2117 40.56                             106   -0.60 4  392 209 
 PRA  HZ I        2117 47.51        17.3 0.48            106            392 209 
 SJC  HZ EP   4   2116 59.54                             106   -1.46 0  406 327 
 SJC  HN ES   4   2117 39.26                             106   -4.78 0  406 327 
 SJC  HN I        2117 46.22        14.3 0.36            106            406 327 
                                                                                
