 2012  1 6 2309 43.8 L   6.735 -73.131148.8  RSN  7 0.3 1.9LRSN                1
 GAP=141        0.76       4.0     4.9  6.2 -0.1677E+01 -0.9607E+00 -0.2422E+01E
 Epicentro: JORDAN - SANTANDER                                                 3
 ACTION:UP  12-02-03 08:14 OP:REBC STATUS:               ID:20120106230943 L   I
 2012-01-06-2304-59S.COL___186                                                 6
 STAT SP IPHASW D HRMM SECON CODA AMPLIT PERI AZIMU VELO SNR AR TRES W  DIS CAZ7
 BAR2 SZ EP   1   2310  3.71                             173     0.1 7   17 200 
 BAR2 SZ ES   1   2310 18.98                             173    -0.2 7   17 200 
 BAR2 SZ I        2310 19.94        18.1 0.15                            17 200 
 GIR2 SZ EP   1   2310  3.84                             165    -0.2 7   39 350 
 BRR  HZ EP       2310  5.60                             151     0.110   76 303 
 BRR  HZ I        2310  5.99        22.6 0.12                            76 303 
 BRR  HN ES       2310 22.90                             151     0.410   76 303 
 PAM  SZ EP       2310  6.52                             150    -0.110   82  35 
 PAM  SN ES   1   2310 23.87                             150    -0.5 7   82  35 
 RUS  HZ EP   1   2310  7.68                             146     0.4 7   93 177 
 RUS  HE ES   1   2310 25.89                             146     0.2 7   93 177 
 RUS  HZ I        2310 27.23         5.5 0.31                            93 177 
 PTB  HZ EP   1   2310 10.52                             133    -0.5 7  148 262 
 PTB  HN ES   1   2310 31.78                             133    -0.5 7  148 262 
 OCA  SZ EP   1   2310 13.33                             129     0.3 7  168 353 
 OCA  SZ ES   1   2310 35.96                             129     0.2 7  168 353 
 OCA  SZ I        2310 39.79        12.9 0.28                           168 353 
                                                                                
