 2012  7 6 2042 28.0 L   6.742 -73.201148.0  RSN  4 0.3 1.2LRSN                1
 GAP=226        0.56       5.8     6.0  6.5  0.1895E+02 -0.1986E+01 -0.1419E+01E
 Epicentro: VILLANUEVA - SANTANDER                                             3
 ACTION:UPD 12-08-14 11:43 OP:ep   STATUS:               ID:20120706204227 L   I
 2012-07-06-2040-00M.COL___201                                                 6
 STAT SP IPHASW D HRMM SECON CODA AMPLIT PERI AZIMU VELO AIN AR TRES W  DIS CAZ7
 BAR2 SZ ES   3   2043  2.09                             173    -1.1 2   17 173 
 BRR  HZ EP       2042 49.26                             154     0.010   69 306 
 BRR  HN ES   1   2043  6.11                             154     0.3 7   69 306 
 RUS  HZ EP       2042 51.50                             146     0.010   95 172 
 RUS  HN ES   1   2043 10.10                             146     0.2 7   95 172 
 RUS  HZ I        2043 11.96         2.3 0.40            145             95 172 
 PTB  HZ EP       2042 54.20                             135    -0.3 9  141 261 
 PTB  HN ES   1   2043 15.29                             135     0.1 7  141 261 
 PTB  HZ I        2043 17.25         2.6 0.14            134            141 261 
