 2017  8 6 2129  6.4 L   6.784 -73.194135.4  RSN  6 0.3 1.2LRSN                1
 GAP=131        0.82       4.0     3.5  6.1  0.1067E+01  0.5042E+01  0.7781E-01E
 Epicentro: ZAPATOCA - SANTANDER                                               3
 ACTION:UPD 17-09-04 20:17 OP:rebc STATUS:               ID:20170806212906 L   I
 OLDACT:REG 17-08-07 02:48 OP:lv   STATUS:               ID:20170806212738     3
 2017-08-06-2128-00M.COL___393                                                 6
 STAT SP IPHASW D HRMM SECON CODA AMPLIT PERI AZIMU VELO AIN AR TRES W  DIS CAZ7
 BAR2 EZ ES       2129 38.65                             171   -0.3610 21.3 176 
 BRR  HZ EP       2129 26.29                             152    0.1210 67.4 302 
 BRR  HN ES       2129 41.55                             152   -0.0810 67.4 302 
 BRR  HZ I        2129 44.33         5.0 0.14            153           67.4 302 
 PAM  EZ IP     D 2129 27.33                             147   -0.4610 82.2  42 
 PAM  EN ES       2129 44.84                             147    0.3310 82.2  42 
 PAM  EZ I        2129 47.31                             149           82.2  42 
 RUS  HZ EP       2129 29.15                             142    0.1410 99.4 173 
 RUS  HN ES       2129 47.03                             142    0.3510 99.4 173 
 RUS  HZ I        2129 47.78         3.0 0.32            145           99.4 173 
 PTB  HZ EP       2129 31.77                             131   -0.21 9  142 259 
 PTB  HN ES       2129 51.70                             131   -0.26 9  142 259 
 PTB  HZ I        2129 54.27         1.4 0.14            133            142 259 
 ZAR  HE ES       2130  2.67                             121    0.53 9  200 293 
                                                                                
