 2016  8 6 2225 12.4 L   6.795 -73.183143.2  RSN  7 0.4 1.4LRSN                1
 GAP=132        1.08       4.6     4.5  7.7 -0.1008E+01  0.6779E+01  0.1080E+01E
 Epicentro: ZAPATOCA - SANTANDER                                               3
 ACTION:UPD 16-10-29 15:32 OP:rebc STATUS:               ID:20160806222512 L   I
 OLDACT:REG 16-08-07 02:44 OP:ak   STATUS:               ID:20160806221737     3
 2016-08-06-2218-00M.COL___368                                                 6
 STAT SP IPHASW D HRMM SECON CODA AMPLIT PERI AZIMU VELO AIN AR TRES W  DIS CAZ7
 BAR2 EZ EP       2225 31.60                             171   -0.0810 22.4 180 
 BAR2 EZ ES       2225 46.24                             171   -0.4910 22.4 180 
 BAR2 EZ I        2225 47.89         9.3 0.05                          22.4 180 
 BRR  HZ EP       2225 33.45                             153    0.3910 67.9 301 
 BRR  HE ES       2225 49.91                             153    0.7210 67.9 301 
 PAM  EZ EP       2225 34.83                             149    0.3210 80.5  42 
 PAM  EN ES       2225 51.57                             149   -0.2010 80.5  42 
 PAM  EZ I        2225 52.36         3.3 0.29                          80.5  42 
 RUS  HZ EP       2225 35.84                             143   -0.0210  100 174 
 RUS  HN ES       2225 54.07                             143   -0.1010  100 174 
 RUS  HZ I        2225 56.25         2.4 0.18                           100 174 
 PTB  HZ EP       2225 38.16                             132   -0.59 9  144 259 
 PTB  HN ES       2225 58.89                             132   -0.43 9  144 259 
 PTB  HZ I        2226  2.28         2.9 0.29                           144 259 
 SPBC HZ EP   2   2225 40.39                             129    0.00 5  160 218 
 SPBC HN ES       2226  2.95                             129    0.72 9  160 218 
 SPBC HZ I        2226  4.83         3.0 0.16                           160 218 
 ZAR  HN ES       2226  8.84                             122   -0.32 9  200 293 
 ZAR  HZ I        2226 16.96         2.6 0.17                           200 293 
                                                                                
