 2012  9 6 2340 46.7 L   6.763 -73.128149.2  RSN  7 0.4 2.2LRSN                1
 GAP=140        0.70       4.3     5.0  6.3  0.1512E+01  0.8091E+01  0.7111E+01E
 Epicentro: LOS SANTOS - SANTANDER                                             3
 ACTION:UPD 12-10-22 14:17 OP:ep   STATUS:               ID:20120906234046 L   I
 2012-09-06-2340-00M.COL___227                                                 6
 STAT SP IPHASW D HRMM SECON CODA AMPLIT PERI AZIMU VELO AIN AR TRES W  DIS CAZ7
 BAR2 SZ ES   2   2341 21.69                             172   -0.55 5 19.8 198 
 BAR2 SZ I        2341 24.30        32.2 0.30                          19.8 198 
 BRR  HZ EP       2341  8.58                             152    0.1710 74.9 301 
 BRR  HZ I        2341  9.09        57.1 0.17                          74.9 301 
 BRR  HE ES   1   2341 26.08                             152    0.72 7 74.9 301 
 PAM  SZ EP   1   2341  9.48                             151    0.10 7 79.4  37 
 PAM  SZ I        2341  9.96        24.9 0.23                          79.4  37 
 PAM  SE ES   1   2341 26.81                             151   -0.27 7 79.4  37 
 RUS  HZ EP       2341 10.54                             146    0.0610 96.4 177 
 RUS  HN ES   1   2341 29.01                             146   -0.03 7 96.4 177 
 RUS  HZ I        2341 30.75        12.0 0.16                          96.4 177 
 PTB  HZ EP   1   2341 13.44                             132   -0.60 7  149 261 
 PTB  HN ES   2   2341 34.79                             132   -0.58 5  149 261 
 PTB  HZ I        2341 40.65        21.5 0.58                           149 261 
 ZAR  HZ EP   2   2341 19.16                             123   -0.54 4  207 293 
 ZAR  HN ES   2   2341 45.25                             123   -0.20 4  207 293 
 ZAR  HZ I        2341 50.55        11.9 0.38                           207 293 
 PRA  HZ EP       2341 40.44                             107    0.41 6  389 210 
 PRA  HN ES   2   2342 21.88                             107    0.25 3  389 210 
 PRA  HN I        2342 27.44         4.9 0.40                           389 210 
                                                                                
