 2010 11 6 2248 39.0 L   6.843 -73.117143.1  RSN 13 0.4 2.8LRSN                1
 GAP=161        0.68       3.6     6.5  5.3 -0.9407E+01  0.8307E+01  0.2171E+01E
 Epicentro: LOS SANTOS - SANTANDER                                             3
 ACTION:UP  10-12-17 16:50 OP:REBC STATUS:               ID:20101106224839 L   I
 2010-11-06-2246-44S.COL___128                                                 6
 STAT SP IPHASW D HRMM SECON CODA AMPLIT PERI AZIMU VELO SNR AR TRES W  DIS CAZ7
 BTL  SZ IP     C 2248 58.34                             172     0.110   19 297 
 BTL  SZ ES   2   2249 13.45                             172     0.2 5   19 297 
 GIR2 SZ EP   1   2248 58.22                             169     0.0 7   27 342 
 GIR2 SZ ES   2   2249 12.99                             169    -0.3 5   27 342 
 BAR2 SZ IP     D 2248 58.43                             168     0.010   29 195 
 BAR2 SZ I        2248 59.01        95.7 0.37                            29 195 
 BAR2 SZ ES   2   2249 13.36                             168    -0.2 5   29 195 
 BRR  HZ IP     C 2248 59.96                             152     0.010   72 294 
 BRR  HZ I        2249  0.26       176.5 0.17                            72 294 
 BRR  HE ES   2   2249 16.75                             152     0.5 5   72 294 
 RUS  HZ EP   1   2249  2.62                             142    -0.2 7  105 178 
 RUS  HN ES   2   2249 21.26                             142    -0.2 5  105 178 
 RUS  HZ I        2249 23.25        51.2 0.39                           105 178 
 GUE  SZ EP   1   2249  3.00                             140    -0.1 7  111  11 
 GRA  SZ EP   1   2249  3.83                             138     0.3 7  120  17 
 GRA  SZ ES   2   2249 22.75                             138     0.0 5  120  17 
 GRA  SZ I        2249 24.11       100.1 0.47                           120  17 
 OCA  SZ EP   1   2249  6.32                             130    -0.4 7  156 352 
 OCA  SZ ES   2   2249 27.90                             130    -0.4 5  156 352 
 OCA  SZ I        2249 36.06        55.5 0.29                           156 352 
 NOR  SZ EP   1   2249 15.14                             117     0.0 6  240 234 
 NOR  SE ES   2   2249 42.75                             117    -0.6 4  240 234 
 ROSC BZ EP   1   2249 18.58                             115     1.0 6  258 211 
 ROSC BZ I        2249 58.60        31.3 0.48                           258 211 
 HEL  HZ EP   1   2249 19.37                             114    -0.2 6  276 255 
 HEL  HZ I        2249 57.16        85.7 0.25                           276 255 
 RREF HZ EP   1   2249 26.29                             110     0.6 5  327 229 
 RREF HZ I        2250  9.79        35.4 0.11                           327 229 
 PRA  HZ EP   1   2249 32.28                             106    -0.8 4  398 210 
 PRA  HN ES   2   2250 14.76                             106    -0.5 3  398 210 
                                                                                
