 2011  7 6 2202 42.4 L   6.774 -73.313125.0  RSN  6 0.3 1.9LRSN                1
 GAP=145        0.47       3.0     5.2  4.3  0.4825E+01 -0.2388E+01 -0.2224E+01E
 Epicentro: ZAPATOCA - SANTANDER                                               3
 ACTION:UPD 12-07-25 13:58 OP:epov STATUS:               ID:20110706220242 L   I
 2011-07-06-2202-38S.COL___139                                                 6
 STAT SP IPHASW D HRMM SECON CODA AMPLIT PERI AZIMU VELO AIN AR TRES W  DIS CAZ7
 BTL  SZ EP       22 2 59.61                             172    0.2210 16.7  17 
 BAR2 SZ EP       22 2 59.53                             168   -0.0210 24.8 144 
 BAR2 SZ ES   1   22 3 12.71                             168   -0.23 7 24.8 144 
 BAR2 SZ I        22 3 13.73        50.2 0.32                          24.8 144 
 BRR  HZ EP       22 3  0.34                             154   -0.1710 57.4 310 
 BRR  HZ I        22 3  0.48        36.7 0.12                          57.4 310 
 BRR  HN ES   1   22 3 14.86                             154    0.21 7 57.4 310 
 PAM  SZ EP   2   22 3  3.84                             141    0.34 5 92.2  47 
 PAM  SN ES   2   22 3 20.17                             141    0.21 5 92.2  47 
 RUS  HZ EP       22 3  4.13                             139   -0.0310  101 165 
 RUS  HN ES   2   22 3 21.08                             139   -0.07 5  101 165 
 RUS  HZ I        22 3 23.28         6.2 0.32                           101 165 
 OCA  SZ EP       22 3  9.30                             124   -0.04 9  162 360 
 OCA  SZ ES   3   22 3 29.06                             124   -1.31 2  162 360 
 OCA  SZ I        22 3 33.90         8.8 0.13                           162 360 
                                                                                
