 2014  3 6 2233 50.7 L   6.810 -73.171142.0  RSN  6 0.2 1.9LRSN                1
 GAP=236        0.54       4.4     3.8  4.9  0.9829E+01  0.2452E+01 -0.3046E+01E
 Epicentro: LOS SANTOS - SANTANDER                                             3
 ACTION:UPD 14-04-09 23:15 OP:nd   STATUS:               ID:20140306223350 L   I
 OLDACT:UP  14-03-06 22:57 OP:cam  STATUS:               ID:20140306222815     3
 OLDACT:REG 14-03-06 21:50 OP:cam  STATUS:               ID:20140306222815     3
 2014-03-06-2228-15M.COL___234                                                 6
 STAT SP IPHASW D HRMM SECON CODA AMPLIT PERI AZIMU VELO AIN AR TRES W  DIS CAZ7
 BAR2 SZ EP       2234  9.91                             170   -0.0210 24.1 183 
 BAR2 SZ ES       2234 24.61                             170   -0.2910 24.1 183 
 BAR2 SZ I        2234 26.56        29.2 0.14            169           24.1 183 
 BRR  HZ EP     C 2234 11.60                             153    0.2910 68.2 299 
 BRR  HN ES   4   2234 28.85                             153    1.50 0 68.2 299 
 RUS  HZ EP   1   2234 14.21                             142   -0.01 7  102 175 
 RUS  HN ES       2234 32.77                             142    0.2310  102 175 
 RUS  HZ I        2234 34.09         6.8 0.24            143            102 175 
 PTB  HZ EP   1   2234 16.80                             132   -0.36 7  145 258 
 PTB  HN ES       2234 37.82                             132    0.04 9  145 258 
 PTB  HZ I        2234 39.53         9.7 0.40            132            145 258 
 ZAR  HN ES       2234 47.50                             122    0.01 9  201 292 
 CHI  HZ EP   1   2234 28.05                             116   -0.22 6  249 194 
 GUY2CHZ EP   4   2234 35.19                             112    1.21 0  300 234 
                                                                                
