 2012  3 6 2353 26.4 L   6.419 -73.353 22.0  RSN  4 0.3 0.8LRSN                1
 GAP=123        0.73       3.0     5.6  6.5  0.6352E+00  0.3120E+02  0.2151E+00E
 ACTION:UP  12-03-31 23:17 OP:EP   STATUS:               ID:20120306235326 L   I
 2012-03-06-2350-00M.COL___194                                                 6
 STAT SP IPHASW D HRMM SECON CODA AMPLIT PERI AZIMU VELO SNR AR TRES W  DIS CAZ7
 BAR2 SZ EP   1   2353 32.30                             128     0.0 7   27  45 
 BAR2 SZ ES   1   2353 36.73                             128    -0.1 7   27  45 
 BAR2 SZ I        2353 37.54        11.8 0.12                            27  45 
 RUS  HZ EP   1   2353 38.21                             107     0.4 7   65 153 
 RUS  HN ES   1   2353 46.39                             107    -0.3 7   65 153 
 RUS  HZ I        2353 47.67         4.3 0.35                            65 153 
 PTB  HZ EP   1   2353 45.85                              56     0.4 7  123 276 
 PTB  HE ES   1   2353 59.97                              56    -0.4 7  123 276 
 PTB  HZ I        2354  1.91         0.0 0.15                           123 276 
 PAM  SZ EP   1   2353 46.23                              56     0.0 7  125  35 
 PAM  SZ I        2353 47.43         1.1 0.22                           125  35 
                                                                                
