 2014  2 6 2235 56.0 L   6.773 -73.139147.6  RSN 15 0.5 2.3LRSN                1
 GAP= 72        1.09       3.8     3.3  6.1 -0.2043E+01  0.3761E+01  0.2126E+01E
 Epicentro: LOS SANTOS - SANTANDER                                             3
 2014-02-06-2228-09M.COL___249                                                 6
 OLDACT:REG 14-02-06 23:18 OP:stll STATUS:               ID:20140206222809     3
 ACTION:UPD 14-03-10 08:08 OP:ep   STATUS:               ID:20140206223556 L   I
 OLDACT:UP  14-02-07 09:26 OP:ep   STATUS:               ID:20140206223556 L   3
 OLDACT:UP  14-02-07 05:11 OP:stll STATUS:               ID:20140206223556 L   3
 OLDACT:UP  14-02-07 02:43 OP:stll STATUS:               ID:20140206222809     3
 STAT SP IPHASW D HRMM SECON CODA AMPLIT PERI AZIMU VELO AIN AR TRES W  DIS CAZ7
 BAR2 SZ EP       2236 15.63                             172   -0.1310 20.5 193 
 BAR2 SZ ES   1   2236 31.67                             172    0.47 7 20.5 193 
 BAR2 SZ I        2236 32.27       111.4 0.16            172           20.5 193 
 BRR  HZ IP     C 2236 17.60                             152    0.1710 73.3 300 
 BRR  HN ES       2236 35.12                             152    0.9510 73.3 300 
 BRR  HZ I        2236 35.94        32.4 0.16            152           73.3 300 
 PAM  SZ EP   1   2236 18.63                             151    0.14 7 79.3  38 
 PAM  SN ES   1   2236 35.88                             151   -0.17 7 79.3  38 
 PAM  SZ I        2236 37.84        18.7 0.40            150           79.3  38 
 RUS  HZ EP       2236 19.63                             145   -0.0510 97.5 176 
 RUS  HN ES       2236 37.75                             145   -0.4210 97.5 176 
 RUS  SZ I        2236 39.48        25.7 0.46            145           97.5 176 
 PTB  HZ EP       2236 22.23                             133   -0.87 9  148 260 
 PTB  HN ES       2236 43.56                             133   -0.69 9  148 260 
 PTB  SZ I        2236 46.13        23.5 0.16            132            148 260 
 TAM  HZ IP     D 2236 23.90                             131    0.25 9  154 104 
 TAM  HN ES       2236 45.08                             131   -0.17 9  154 104 
 TAM  SZ I        2236 55.93        11.0 2.38            131            154 104 
 SPBC HZ EP       2236 24.59                             130    0.16 9  161 220 
 SPBC HN ES       2236 46.59                             130   -0.03 9  161 220 
 SPBC SZ I        2236 50.77        35.6 0.24            130            161 220 
 ZAR  HZ EP   1   2236 29.86                             123    1.14 6  206 293 
 ZAR  HE ES   1   2236 54.11                             123   -0.15 6  206 293 
 ZAR  HZ I        2237  0.33        18.4 0.22            122            206 293 
 NOR  HZ EP       2236 31.46                             119   -0.22 8  234 235 
 NOR  HN ES       2236 58.98                             119   -0.55 8  234 235 
 NOR  SZ I        2237  3.17        14.4 0.22            119            234 235 
 CHI  HZ EP   1   2236 33.76                             118    0.29 6  246 196 
 CHI  HN ES   1   2237  3.49                             118    0.77 6  246 196 
 CHI  HZ I        2237  9.39         7.0 0.72            118            246 196 
 SML  HZ EP       2236 32.45                             118   -0.57 8  247 335 
 SML  HN ES   4   2236 59.86                             118   -2.07 0  247 335 
 SML  SZ I        2237 10.64        27.0 0.08            117            247 335 
 HEL  HZ EP   4   2236 37.52                             115    1.25 0  272 256 
 HEL  HN ES   4   2237  6.35                             115   -1.35 0  272 256 
 HEL  SZ I        2237 14.18         8.4 0.28            115            272 256 
 GUY2CHZ EP   1   2236 40.27                             113    0.74 5  300 235 
 GUY2CHN ES   1   2237 13.37                             113   -0.14 5  300 235 
 GUY2CHZ I        2237 19.72         5.6 0.36                           300 235 
 RREF BZ EP   4   2236 43.83                             111    1.80 0  320 230 
 RREF BN ES       2237 18.22                             111    0.27 7  320 230 
 RREF BZ I        2237 24.76         9.7 0.42            111            320 230 
 ANIL BN ES       2237 24.91                             109    0.51 6  356 225 
                                                                                
