 2017  7 6 2116  8.3 L   6.768 -73.155141.9  RSN  8 0.4 2.1LRSN                1
 GAP=112        0.93       4.3     3.3  6.8  0.1319E+01  0.1825E+01  0.9081E+01E
 Epicentro: LOS SANTOS - SANTANDER                                             3
 ACTION:UPD 17-08-30 15:30 OP:rebc STATUS:               ID:20170706211608 L   I
 OLDACT:REG 17-07-07 03:12 OP:dhb  STATUS:               ID:20170706210702     3
 2017-07-06-2108-00M.COL___377                                                 6
 STAT SP IPHASW D HRMM SECON CODA AMPLIT PERI AZIMU VELO AIN AR TRES W  DIS CAZ7
 BAR2 EZ IP     C 2116 27.30                             172   -0.1410 19.7 189 
 BAR2 EZ ES       2116 42.05                             172   -0.2810 19.7 189 
 BAR2 EZ I        2116 43.19        29.5 0.18            170           19.7 189 
 BRR  HN ES       2116 46.04                             152    0.7110 72.1 301 
 BRR  HZ I        2116 49.24        22.2 0.26            150           72.1 301 
 PAM  EZ IP     D 2116 30.36                             149    0.0110 80.7  39 
 PAM  EN ES       2116 47.14                             149   -0.3810 80.7  39 
 PAM  EZ I        2116 49.22        40.1 0.46            152           80.7  39 
 PTB  HZ EP       2116 34.49                             132   -0.35 9  146 260 
 PTB  HE ES       2116 55.30                             132   -0.22 9  146 260 
 PTB  HZ I        2116 58.36         7.5 0.26            130            146 260 
 YPLC HZ EP       2116 37.77                             126    0.17 9  174 150 
 YPLC HN ES       2117  0.99                             126    0.56 9  174 150 
 YPLC HZ I        2117  3.93        20.8 0.52            127            174 150 
 ZAR  HZ EP   4   2116 40.56                             122   -0.02 0  204 293 
 ZAR  HN ES       2117  6.08                             122    0.36 9  204 293 
 ZAR  HZ I        2117 12.01        10.2 0.17            121            204 293 
 NOR  HZ EP   4   2116 43.68                             118    0.14 0  232 235 
 NOR  HE ES       2117 10.62                             118   -0.38 8  232 235 
 NOR  HZ I        2117 18.56         7.7 0.18            117            232 235 
 GUY2CHZ EP   9   2116 53.31                             112    1.86 0  298 235 
 GUY2CHE ES       2117 27.27                                    0.33 7  298 235 
 GUY2CHZ I        2117 32.44         4.4 0.29                           298 235 
                                                                                
