 2016  7 6 2115 19.3 L   6.929 -73.092145.9  RSN  4 0.4 1.5LRSN                1
 GAP=252        0.62       7.1     6.1  8.1  0.2866E+02  0.1088E+02 -0.1204E+02E
 Epicentro: PIEDECUESTA - SANTANDER                                            3
 ACTION:UPD 17-03-29 16:47 OP:lp   STATUS:               ID:20160706211519 L   I
 OLDACT:REG 16-07-07 03:52 OP:ak   STATUS:               ID:20160706210743     3
 2016-07-06-2107-43M.COL___328                                                 6
 STAT SP IPHASW D HRMM SECON CODA AMPLIT PERI AZIMU VELO AIN AR TRES W  DIS CAZ7
 BAR2 EZ EP   2   2115 39.76                             164    0.42 5 38.5 195 
 BAR2 EZ ES       2115 54.77                             164   -0.2010 38.5 195 
 BAR2 EZ I        2115 57.11        11.3 0.13            164           38.5 195 
 RUS  HZ EP   2   2115 44.64                             140    0.53 5  115 179 
 RUS  HN ES       2116  3.44                             140   -0.0310  115 179 
 RUS  HZ I        2116  4.05         2.2 0.34            143            115 179 
 PTB  HZ EP   2   2115 46.54                             130   -0.56 5  157 254 
 PTB  HE ES       2116  8.81                             130    0.02 9  157 254 
 PTB  HZ I        2116 13.93         2.4 0.07            130            157 254 
 ZAR  HZ EP   2   2115 51.09                             122   -0.72 4  205 288 
 ZAR  HN ES       2116 17.48                             122    0.31 9  205 288 
 ZAR  HZ I        2116 25.22         4.1 0.24            122            205 288 
                                                                                
