 2011  1 6 2350 10.2 L   6.838 -73.324141.6  RSN  4 0.4 1.6LRSN                1
 GAP=194        0.93       5.8    27.0 14.1 -0.5160E+02  0.1965E+03 -0.1798E+02E
 Epicentro: ZAPATOCA - SANTANDER                                               3
 ACTION:UP  11-02-08 08:39 OP:pat  STATUS:               ID:20110106235010 L   I
 2011-01-06-2340-00M.COL___137                                                 6
 STAT SP IPHASW D HRMM SECON CODA AMPLIT PERI AZIMU VELO SNR AR TRES W  DIS CAZ7
 GIR2 SZ EP   2   2350 30.14                             167     0.8 5   30  28 
 GIR2 SZ ES   2   2350 44.55                             167     0.3 5   30  28 
 RUS  HZ EP       2350 34.28                             140     0.210  108 166 
 RUS  HN ES   2   2350 51.77                             140    -1.0 5  108 166 
 RUS  HZ I        2350 54.35         4.6 0.41                           108 166 
 GRA  SZ EP       2350 35.56                             135     0.210  129  26 
 GRA  SZ ES   1   2350 54.85                             135    -0.1 7  129  26 
 GRA  SZ I        2350 56.98         7.1 0.53                           129  26 
 OCA  SZ EP       2350 37.30                             129    -0.4 9  155   0 
 OCA  SZ I        2351  3.82         7.8 0.57                           155   0 
                                                                                
