 2010  8 6 2326 35.6 L   6.784 -73.077144.4  RSN  4 0.3 1.6LRSN                1
 GAP=235        0.54       7.2    17.4  6.0  0.9475E+02 -0.2735E+01 -0.4762E+01E
 Epicentro: LOS SANTOS - SANTANDER                                             3
 ACTION:UP  10-09-07 10:52 OP:vdl  STATUS:               ID:20100806232635 L   I
 2010-08-06-2323-49S.COL___125                                                 6
 STAT SP IPHASW D HRMM SECON CODA AMPLIT PERI AZIMU VELO SNR AR TRES W  DIS CAZ7
 BAR2 SZ EP       2326 55.08                             171     0.010   24 209 
 BAR2 SZ ES   2   2327 10.23                             171     0.0 5   24 209 
 BAR2 SZ I        2327 11.74         8.5 0.20                            24 209 
 BTL  SZ EP       2326 55.24                             170     0.110   26 305 
 BTL  SZ ES   1   2327 10.22                             170    -0.1 7   26 305 
 BRR  HZ EP       2326 56.89                             150    -0.110   79 297 
 BRR  HZ I        2327  5.83        13.3 0.42                            79 297 
 BRR  HN ES   3   2327 14.67                             150     0.9 2   79 297 
 RUS  HZ EP   1   2326 59.36                             144     0.3 7   99 180 
 RUS  HE ES   1   2327 17.09                             144    -0.3 7   99 180 
 RUS  HZ I        2327 18.94         3.1 0.30                            99 180 
                                                                                
