 2016  9 6 2238  2.0 L   6.765 -73.103140.4  RSN  6 0.2 1.9LRSN                1
 GAP=144        0.56       2.8     2.5  4.0  0.7186E+00  0.2148E+01 -0.9422E+00E
 Epicentro: LOS SANTOS - SANTANDER                                             3
 ACTION:UPD 17-08-17 21:07 OP:lp   STATUS:               ID:20160906223802 L   I
 OLDACT:REG 16-09-07 02:50 OP:drio STATUS:               ID:20160906222734     3
 2016-09-06-2228-00M.COL___358                                                 6
 STAT SP IPHASW D HRMM SECON CODA AMPLIT PERI AZIMU VELO AIN AR TRES W  DIS CAZ7
 BAR2 EZ EP       2238 20.82                             171   -0.0910 21.1 205 
 BAR2 EZ ES       2238 35.44                             171   -0.2410 21.1 205 
 BAR2 EZ I        2238 36.56        23.0 0.16            171           21.1 205 
 BRR  HZ EP       2238 22.68                             149   -0.2310 77.2 299 
 BRR  HE ES       2238 39.52                             149    0.2910 77.2 299 
 PAM  EZ EP       2238 23.85                             150    0.2210 77.6  35 
 PAM  HN ES       2238 40.50                             150   -0.0210 77.6  35 
 PAM  EZ I        2238 42.97        13.3 0.52            151           77.6  35 
 RUS  HZ EP       2238 24.78                             144   -0.1310 96.5 179 
 RUS  HE ES       2238 42.94                             144    0.1510 96.5 179 
 RUS  HZ I        2238 44.65         8.8 0.48            145           96.5 179 
 PTB  HZ EP   4   2238 27.64                             130   -1.24 0  152 261 
 PTB  HE ES       2238 50.02                             130    0.15 9  152 261 
 PTB  HZ I        2238 51.81        11.0 0.20            131            152 261 
 ZAR  HZ EP       2238 34.92                             120    0.23 8  210 293 
 ZAR  HE ES       2238 59.88                             120   -0.33 8  210 293 
 ZAR  HZ I        2239  1.10         9.8 0.38            122            210 293 
                                                                                
