 2014  2 6 2059 38.7 L   6.769 -73.132140.6  RSN  7 0.3 1.6LRSN                1
 GAP=140        0.81       3.4     3.7  5.1 -0.2293E+01  0.3596E+01  0.4870E+01E
 Epicentro: LOS SANTOS - SANTANDER                                             3
 ACTION:UPD 14-03-10 08:08 OP:ep   STATUS:               ID:20140206205938 L   I
 OLDACT:REG 14-02-06 23:16 OP:stll STATUS:               ID:20140206205812     3
 2014-02-06-2058-12M.COL___242                                                 6
 STAT SP IPHASW D HRMM SECON CODA AMPLIT PERI AZIMU VELO AIN AR TRES W  DIS CAZ7
 BAR2 SZ EP       2059 57.47                             171   -0.1910 20.3 196 
 BAR2 SZ ES       21 0 12.20                             171   -0.2410 20.3 196 
 BAR2 SZ I        21 0 15.32        12.4 0.24            169           20.3 196 
 BRR  HZ EP       2059 59.29                             151   -0.1910 74.2 300 
 BRR  HN ES       21 0 16.36                             151    0.6810 74.2 300 
 PAM  SZ EP       21 0  0.64                             149    0.1610 79.1  37 
 PAM  SN ES       21 0 17.44                             149   -0.0310 79.1  37 
 PAM  SZ I        21 0 19.71         6.5 0.48            153           79.1  37 
 RUS  HZ EP       21 0  1.68                             144   -0.0210 97.1 177 
 RUS  HN ES       21 0 19.50                             144   -0.1310 97.1 177 
 RUS  HZ I        21 0 22.46         4.5 0.40            143           97.1 177 
 PTB  HZ EP       21 0  5.43                             131    0.09 9  149 260 
 PTB  HN ES       21 0 25.54                             131   -0.57 9  149 260 
 PTB  HZ I        21 0 27.93         8.1 0.44            132            149 260 
 NOR  HZ EP       21 0 13.73                             117   -0.33 8  234 235 
 NOR  HN ES       21 0 41.86                             117    0.23 8  234 235 
 NOR  HZ I        21 0 45.39         5.8 0.28            119            234 235 
 CHI  HZ EP       21 0 15.96                             116    0.16 8  246 196 
 CHI  HE ES       21 0 45.27                             116    0.53 8  246 196 
 CHI  HZ I        21 0 50.54         1.7 0.36            117            246 196 
                                                                                
