 2011  3 6 2222 35.0 L   6.754 -72.922140.0  RSN  4 0.2 1.5LRSN                1
 GAP=185        0.44       4.5    21.4  6.6 -0.7398E+02 -0.9236E+02  0.1297E+02E
 Epicentro: CEPITA - SANTANDER                                                 3
 ACTION:UP  11-06-16 14:32 OP:jfem STATUS:               ID:20110306222235 L   I
 2011-03-06-2218-35S.COL___135                                                 6
 STAT SP IPHASW D HRMM SECON CODA AMPLIT PERI AZIMU VELO SNR AR TRES W  DIS CAZ7
 BAR2 SZ EP       2222 54.09                             166    -0.110   34 238 
 BAR2 SZ ES   1   2223  9.38                             166     0.2 7   34 238 
 BAR2 SZ I        2223 10.90         8.9 0.66                            34 238 
 RUS  HZ EP       2222 58.08                             144     0.210   97 191 
 RUS  HN ES   2   2223 15.48                             144    -0.3 5   97 191 
 RUS  HZ I        2223 17.98         4.9 0.21                            97 191 
 GRA  SZ EP       2222 59.79                             136     0.010  126   6 
 GRA  SZ ES   2   2223 18.86                             136    -0.2 5  126   6 
 CHI  HZ EP   2   2223 12.46                             116    -0.2 4  251 201 
                                                                                
