 2015  3 6 2334 22.9 L   6.435 -73.549103.6  RSN  4 0.3 1.3LRSN                1
 GAP=127        0.62       3.3     2.8  7.9 -0.1726E+01 -0.1571E+01 -0.7917E+01E
 Epicentro: SANTA HELENA DEL OPON - SANTANDER                                  3
 ACTION:UPD 15-04-30 16:23 OP:nd   STATUS:               ID:20150306233422 L   I
 OLDACT:UP  15-03-07 08:07 OP:mh   STATUS:               ID:20150306232749     3
 OLDACT:REG 15-03-07 04:33 OP:mh   STATUS:               ID:20150306232749     3
 2015-03-06-2327-49M.COL___283                                                 6
 STAT SP IPHASW D HRMM SECON CODA AMPLIT PERI AZIMU VELO AIN AR TRES W  DIS CAZ7
 RUS  HZ EP   1   2334 40.95                             140    0.01 8 79.1 139 
 RUS  HN ES   1   2334 54.63                             140   -0.41 8 79.1 139 
 RUS  HZ I        2334 58.88         2.7 0.66            147           79.1 139 
 PTB  HZ EP       2334 42.10                             132   -0.0510  101 277 
 PTB  HN ES       2334 57.04                             132   -0.1610  101 277 
 PTB  HZ I        2335  0.48         5.2 0.10            141            101 277 
 SPBC HZ EP       2334 42.59                             131    0.0610  104 214 
 SPBC HN ES       2334 58.17                             131    0.2910  104 214 
 SPBC HZ I        2335  3.49         8.9 0.10            139            104 214 
 PAM  SZ EP   1   2334 45.97                             123   -0.32 7  137  43 
 PAM  SN ES   1   2335  5.06                             123    0.50 7  137  43 
 PAM  SZ I        2335  6.97         4.5 0.16            132            137  43 
                                                                                
