 2013  1 6 2352 29.4 L   6.743 -73.159147.5  RSN  6 0.4 1.7LRSN                1
 GAP=231        0.81       7.5     7.6  7.1  0.3617E+02  0.1029E+02  0.5249E+01E
 Epicentro: VILLANUEVA - SANTANDER                                             3
 ACTION:UPD 13-02-15 09:12 OP:ep   STATUS:               ID:20130106235229 L   I
 2013-01-06-2350-00M.COL___242                                                 6
 STAT SP IPHASW D HRMM SECON CODA AMPLIT PERI AZIMU VELO AIN AR TRES W  DIS CAZ7
 BAR2 SZ EP   1   2352 48.54                             173   -0.56 7 16.9 189 
 BAR2 SZ ES   1   2353  4.02                             173   -0.47 7 16.9 189 
 BAR2 SZ I        2353  5.83        21.3 0.38            162           16.9 189 
 BRR  HZ EP   1   2352 50.79                             152   -0.03 7 73.1 303 
 BRR  HN ES   1   2353  8.27                             152    0.72 7 73.1 303 
 BRR  HZ I        2353 13.17         7.2 0.16            144           73.1 303 
 RUS  HZ EP   1   2352 53.09                             146    0.23 7 94.4 175 
 RUS  HN ES   1   2353 11.51                             146    0.32 7 94.4 175 
 RUS  HZ I        2353 13.26         5.3 0.40            129           94.4 175 
 PTB  HZ EP   1   2352 55.79                             133   -0.46 7  145 261 
 PTB  HN ES   1   2353 17.00                             133   -0.21 7  145 261 
 PTB  HZ I        2353 19.07         6.6 0.11            120            145 261 
 ZAR  HZ EP   1   2353  2.52                             123    0.48 6  205 294 
 ZAR  HN ES   1   2353 27.30                             123   -0.22 6  205 294 
 ZAR  HZ I        2353 34.02         6.4 0.47            112            205 294 
 CHI  HZ EP   1   2353  6.75                             118    0.28 6  242 195 
 CHI  HZ I        2353 40.36         1.6 0.34            107            242 195 
                                                                                
