 2016  6 6 2035  8.5 L   6.794 -73.144143.2  RSN  6 0.4 1.9LRSN                1
 GAP=137        0.98       3.8     5.0  6.6 -0.2255E+01  0.3612E+01 -0.2894E+01E
 Epicentro: LOS SANTOS - SANTANDER                                             3
 ACTION:UPD 16-07-21 22:16 OP:rebc STATUS:               ID:20160606203508 L   I
 OLDACT:UP  16-06-08 16:53 OP:nlst STATUS:               ID:20160606203508 L   3
 OLDACT:REG 16-06-07 03:18 OP:ar   STATUS:               ID:20160606202748     3
 2016-06-06-2027-48M.COL___334                                                 6
 STAT SP IPHASW D HRMM SECON CODA AMPLIT PERI AZIMU VELO AIN AR TRES W  DIS CAZ7
 BAR2 EZ EP       2035 27.86                             171    0.0710 22.7 191 
 BAR2 EZ ES       2035 42.47                             171   -0.3810 22.7 191 
 BAR2 EZ I        2035 43.49        19.1 0.14                          22.7 191 
 BRR  HZ EP       2035 29.81                             152    0.4310 71.7 299 
 BRR  HN ES       2035 46.42                             152    0.7410 71.7 299 
 BRR  HZ I        2035 46.92        19.7 0.26                          71.7 299 
 PAM  EZ EP       2035 30.71                             150    0.2610 77.8  39 
 PAM  EN ES       2035 47.52                             150   -0.0610 77.8  39 
 PAM  EZ I        2035 49.91        16.2 0.52                          77.8  39 
 RUS  HZ EP       2035 31.84                             143   -0.0810 99.9 176 
 RUS  HN ES       2035 50.25                             143    0.0410 99.9 176 
 RUS  HZ I        2035 51.04         5.7 0.40                          99.9 176 
 PTB  HZ EP       2035 34.83                             131   -0.41 9  148 259 
 PTB  HN ES       2035 55.85                             131   -0.27 9  148 259 
 PTB  HZ I        2035 58.51        14.8 0.18                           148 259 
 OCA  HZ EP       2035 36.82                             129    0.16 9  161 353 
 OCA  HN ES       2035 57.97                             129   -0.67 9  161 353 
                                                                                
