 2011  2 6 2050 29.6 L   6.797 -72.838134.8  RSN  5 0.3 1.6LRSN                1
 GAP=193        0.92       8.2    30.8 18.2 -0.1398E+03 -0.3071E+03  0.2873E+02E
 Epicentro: SAN ANDRES - SANTANDER                                             3
 ACTION:UP  11-03-28 15:06 OP:jfem STATUS:               ID:20110206205029 L   I
 2011-02-06-2047-52S.COL___137                                                 6
 STAT SP IPHASW D HRMM SECON CODA AMPLIT PERI AZIMU VELO SNR AR TRES W  DIS CAZ7
 BAR2 SZ EP       2050 48.29                             160    -0.310   44 239 
 BAR2 SZ I        2050 48.62        11.6 0.03                            44 239 
 BTL  SZ IP       2050 49.37                             158     0.610   49 286 
 GIR2 SZ EP       2050 48.19                             158    -0.510   50 308 
 GIR2 SZ ES   2   2051  3.43                             158    -0.1 5   50 308 
 RUS  HZ EP   2   2050 52.41                             140    -0.1 5  104 195 
 RUS  HN ES   2   2051 10.58                             140     0.2 5  104 195 
 RUS  HZ I        2051 14.82         3.2 0.40                           104 195 
 GRA  SZ IP       2050 53.51                             135     0.110  120   2 
 GRA  SZ I        2050 54.89         9.9 0.07                           120   2 
 GRA  SZ ES   2   2051 11.92                             135    -0.1 5  120   2 
                                                                                
