 2014 12 6 2119  3.9 L   6.768 -73.140145.2  RSN  5 0.5 1.8LRSN                1
 GAP=139        1.18       5.1     5.7 11.3 -0.3002E+00  0.2026E+02 -0.1522E+02E
 Epicentro: LOS SANTOS - SANTANDER                                             3
 ACTION:UPD 15-02-10 17:01 OP:nd   STATUS:               ID:20141206211903 L   I
 OLDACT:UP  14-12-07 07:31 OP:mh   STATUS:               ID:20141206211748     3
 OLDACT:REG 14-12-07 03:57 OP:mh   STATUS:               ID:20141206211748     3
 2014-12-06-2117-48M.COL___315                                                 6
 STAT SP IPHASW D HRMM SECON CODA AMPLIT PERI AZIMU VELO AIN AR TRES W  DIS CAZ7
 PAM  SZ EP       2119 26.75                             150    0.5910 79.7  38 
 PAM  SN ES       2119 43.72                             150    0.1710 79.7  38 
 PAM  SZ I        2119 45.86        18.1 0.60            150           79.7  38 
 RUS  HZ EP       2119 27.55                             145    0.2410 97.0 176 
 RUS  HN ES       2119 44.93                             145   -0.6610 97.0 176 
 RUS  HZ I        2119 47.71         3.6 0.30            149           97.0 176 
 PTB  HZ EP       2119 30.91                             132    0.13 9  148 260 
 PTB  HN ES       2119 51.79                             132    0.01 9  148 260 
 PTB  HZ I        2119 53.72        12.3 0.20            134            148 260 
 ZAR  HE ES       2120  2.50                             122    0.60 8  206 293 
 SML  HZ EP       2119 40.18                             117   -0.65 8  247 335 
 SML  HN ES       2120  8.88                             117   -0.79 8  247 335 
 SML  HZ I        2120 18.53         7.8 0.32            118            247 335 
                                                                                
