 2014  3 6 2059 54.5 L   6.815 -73.138152.0  RSN  6 0.4 1.7LRSN                1
 GAP=137        0.94       4.3     5.4  8.2  0.1908E+01  0.9824E-01 -0.1002E+01E
 Epicentro: LOS SANTOS - SANTANDER                                             3
 ACTION:UPD 14-04-09 23:15 OP:nd   STATUS:               ID:20140306205954 L   I
 OLDACT:UP  14-03-06 22:08 OP:cam  STATUS:               ID:20140306205815d    3
 OLDACT:DUP 14-03-06 22:03 OP:cam  STATUS:               ID:20140306205815d    3
 OLDACT:UP  14-03-06 22:03 OP:cam  STATUS:               ID:20140306205814     3
 OLDACT:REG 14-03-06 21:36 OP:cam  STATUS:               ID:20140306205814     3
 2014-03-06-2058-14M.COL___234                                                 6
 STAT SP IPHASW D HRMM SECON CODA AMPLIT PERI AZIMU VELO AIN AR TRES W  DIS CAZ7
 BRR  HZ EP   1   21 0 16.75                             154    0.38 7 71.1 297 
 BRR  HN ES       21 0 34.06                             154    0.6710 71.1 297 
 BRR  HZ I        21 0 39.68         8.1 0.50            152           71.1 297 
 PAM  SZ EP       21 0 17.64                             153    0.3210 75.5  40 
 PAM  SN ES   1   21 0 34.65                             153   -0.44 7 75.5  40 
 PAM  SZ I        21 0 39.29         2.9 0.66            155           75.5  40 
 RUS  HZ EP   1   21 0 19.10                             145    0.07 7  102 177 
 RUS  HN ES       21 0 37.78                             145   -0.3510  102 177 
 PTB  HZ EP   1   21 0 21.77                             133   -0.36 7  149 258 
 PTB  HN ES       21 0 43.42                             133   -0.23 9  149 258 
 PTB  HZ I        21 0 50.13         7.5 0.42            135            149 258 
 SML  HN ES       21 0 59.56                             119   -0.58 8  242 335 
 SML  HZ I        21 1  5.05         9.1 0.20            121            242 335 
 CHI  HZ EP   1   21 0 33.06                             118    0.26 6  251 195 
 GUY2CHZ EP   4   21 0 40.03                             113    1.40 0  303 235 
                                                                                
