 2015  4 6 2317  6.3 L   7.415 -73.198131.8  RSN 15 0.5 2.6LRSN                1
 GAP=131        1.09       3.7     3.1  6.6  0.4439E+00  0.5642E+01  0.5314E+01E
 Epicentro: EL PLAYON - SANTANDER                                              3
 ACTION:UPD 15-06-03 16:53 OP:cam  STATUS:               ID:20150406231706 L   I
 OLDACT:DUP 15-04-07 05:30 OP:fm   STATUS:               ID:20150406230750d    3
 2015-04-06-2307-49M.COL___264                                                 6
 STAT SP IPHASW D HRMM SECON CODA AMPLIT PERI AZIMU VELO AIN AR TRES W  DIS CAZ7
 PAM  SZ EP     C 2317 26.44                             156    0.6310 55.7  99 
 PAM  SN ES       2317 40.59                             156   -0.4410 55.7  99 
 PAM  SZ I        2317 43.17        53.3 0.36            158           55.7  99 
 BRR  HZ EP       2317 26.15                             152    0.4910 66.1 239 
 BRR  HN ES       2317 41.43                             152    0.6710 66.1 239 
 BRR  HZ I        2317 41.98        45.3 0.10            147           66.1 239 
 BAR2 EZ EP       2317 27.96                             143    0.3310 91.0 179 
 BAR2 EZ ES       2317 44.24                             143   -0.0310 91.0 179 
 BAR2 EZ I        2317 45.61        97.8 0.12            140           91.0 179 
 PTB  HZ EP       2317 34.69                             124    0.40 9  169 235 
 PTB  HE ES       2317 55.37                             124   -0.75 9  169 235 
 PTB  HZ I        2318  0.65        34.9 0.12            122            169 235 
 RUS  HZ EP       2317 35.06                             125    0.20 9  169 176 
 RUS  HE ES       2317 56.79                             125   -0.35 9  169 176 
 SML  HE ES       2317 57.24                             122   -0.94 9  181 328 
 SML  HZ I        2317 59.08        61.2 0.10            122            181 328 
 ZAR  HN ES       2317 59.13                             122    0.48 9  183 273 
 ZAR  HZ I        2318  4.14        49.2 0.38            120            183 273 
 TAM  HZ EP       2317 36.67                             121    0.28 9  190 125 
 TAM  HN ES       2317 59.22                             121   -0.64 9  190 125 
 TAM  HZ I        2318  1.65        39.4 0.24            121            190 125 
 SPBC HN ES       2318  5.21                             117   -0.07 8  218 206 
 SPBC HZ I        2318  9.36        36.3 0.28            115            218 206 
 NOR  HE ES       2318 16.54                             111   -0.19 7  276 222 
 NOR  HZ I        2318 22.71        26.0 0.20            110            276 222 
 HEL  HZ EP       2317 47.60                             110   -0.40 7  291 242 
 HEL  HN ES       2318 20.33                             110   -0.19 7  291 242 
 HEL  HZ I        2318 31.11        15.6 0.26            109            291 242 
 GUY2CHN ES       2318 30.85                             107   -0.16 7  341 225 
 GUY2CHZ I        2318 43.96        17.6 0.44                           341 225 
 RREF HE ES       2318 36.40                             105   -0.19 6  366 221 
 RREF HN I        2318 46.16        24.9 0.36            104            366 221 
 ANIL HZ EP   4   2317 58.51                             103   -2.73 0  405 217 
 ANIL HE ES       2318 44.14                             103    0.05 6  405 217 
 ANIL HZ I        2318 55.56         3.7 0.38            102            405 217 
 ORTC HN ES       2318 52.84                             102   -0.02 5  449 210 
 ORTC HZ I        2319  2.54         6.8 0.64            101            449 210 
                                                                                
