 2015  2 6 2317 41.2 L   6.801 -73.135148.0  RSN 15 0.4 2.1LRSN                1
 GAP= 72        0.92       2.5     2.8  4.8 -0.3138E+00  0.2897E+01  0.1228E+01E
 Epicentro: LOS SANTOS - SANTANDER                                             3
 ACTION:UPD 15-04-30 21:23 OP:nd   STATUS:               ID:20150206231741 L   I
 OLDACT:UP  15-02-07 06:37 OP:spq  STATUS:               ID:20150206230749     3
 OLDACT:REG 15-02-07 05:32 OP:spq  STATUS:               ID:20150206230749     3
 2015-02-06-2307-49M.COL___293                                                 6
 STAT SP IPHASW D HRMM SECON CODA AMPLIT PERI AZIMU VELO AIN AR TRES W  DIS CAZ7
 BAR2 EZ EP       2318  0.92                             170   -0.2010 23.7 193 
 BAR2 EZ ES   1   2318 16.54                             170   -0.11 7 23.7 193 
 BAR2 EZ I        2318 18.68        27.1 0.28            171           23.7 193 
 BRR  HZ EP       2318  2.81                             153    0.1510 72.1 298 
 BRR  HN ES       2318 20.33                             153    0.9410 72.1 298 
 BRR  HZ I        2318 25.06        15.6 0.28            151           72.1 298 
 PAM  SZ EP       2318  3.76                             152    0.1410 76.5  39 
 PAM  SN ES       2318 21.06                             152   -0.0410 76.5  39 
 PAM  SZ I        2318 23.18        13.1 0.52            154           76.5  39 
 RUS  HZ EP       2318  4.82                             144   -0.3710  101 177 
 RUS  HE ES       2318 23.72                             144   -0.1810  101 177 
 RUS  HZ I        2318 24.35         9.3 0.42            147            101 177 
 PTB  HZ EP       2318  8.06                             132   -0.41 9  149 259 
 PTB  HE ES   1   2318 29.40                             132   -0.33 7  149 259 
 PTB  HZ I        2318 30.98        16.4 0.46            133            149 259 
 TAM  HZ EP       2318  9.13                             131    0.15 9  154 105 
 TAM  HE ES       2318 30.74                             131    0.11 9  154 105 
 TAM  HZ I        2318 32.34         8.7 0.34            135            154 105 
 OCA  HZ EP   1   2318  9.11                             130   -0.59 7  160 353 
 OCA  HN ES       2318 31.91                             130   -0.01 9  160 353 
 OCA  HZ I        2318 37.67        20.3 0.26            132            160 353 
 SPBC HZ EP       2318 10.09                             129    0.12 9  164 219 
 SPBC HE ES       2318 32.11                             129   -0.28 9  164 219 
 SPBC HZ I        2318 36.02        23.1 0.36            131            164 219 
 ZAR  HZ EP       2318 14.41                             123    0.50 9  205 292 
 ZAR  HE ES       2318 39.25                             123   -0.16 9  205 292 
 ZAR  HZ I        2318 46.24        12.2 0.38            124            205 292 
 NOR  HZ EP       2318 17.29                             119    0.10 8  236 235 
 NOR  HE ES       2318 44.98                             119   -0.26 8  236 235 
 NOR  HZ I        2318 48.76         7.8 0.22            120            236 235 
 SML  HZ EP       2318 17.43                             118   -0.58 8  244 335 
 SML  HE ES   1   2318 46.34                             118   -0.36 6  244 335 
 SML  HZ I        2318 50.88        16.0 0.22            119            244 335 
 CHI  HZ EP       2318 18.90                             118   -0.19 8  249 195 
 CHI  HE ES   1   2318 49.09                             118    0.46 6  249 195 
 CHI  HZ I        2318 53.43         3.3 0.32            120            249 195 
 HEL  HZ EP   4   2318 23.27                             115    1.60 0  273 256 
 HEL  HE ES   1   2318 52.92                             115   -0.30 6  273 256 
 HEL  HZ I        2318 59.47         6.9 0.28            116            273 256 
 GUY2CHZ EP   1   2318 26.10                             113    1.06 5  302 235 
 GUY2CHN ES   4   2319  3.11                             113    3.88 0  302 235 
 GUY2CHZ I        2319  7.87         7.3 0.78                           302 235 
 TOL  SZ EP       2318 30.69                             110    1.02 7  344 225 
 TOL  SN ES   4   2319  9.05                             110    1.59 0  344 225 
 TOL  SZ I        2319 12.71         4.0 0.48            111            344 225 
                                                                                
