 2013  5 6 2255 23.2 L   6.745 -73.167141.1  RSN  7 0.3 2.3LRSN                1
 GAP=136        0.69       3.5     3.8  5.7 -0.8226E+00  0.3505E+01  0.1709E+01E
 Epicentro: VILLANUEVA - SANTANDER                                             3
 ACTION:UPD 13-06-20 09:48 OP:ep   STATUS:               ID:20130506225523 L   I
 2013-05-06-2250-00M.COL___256                                                 6
 STAT SP IPHASW D HRMM SECON CODA AMPLIT PERI AZIMU VELO AIN AR TRES W  DIS CAZ7
 BAR2 SZ EP       2255 42.18                             173    0.0510 16.9 186 
 BAR2 SZ ES   1   2255 56.95                             173    0.03 7 16.9 186 
 BAR2 SZ I        2255 59.56        31.5 0.28            170           16.9 186 
 BRR  HZ EP   1   2255 44.08                             151    0.19 7 72.3 304 
 BRR  HN ES   1   2256  0.76                             151    0.71 7 72.3 304 
 BRR  HN I        2256  1.30        63.2 0.22            150           72.3 304 
 PAM  SZ EP   1   2255 45.08                             148   -0.21 7 83.7  38 
 PAM  SN ES   1   2256  2.08                             148   -0.47 7 83.7  38 
 PAM  SN I        2256  3.12        15.7 0.40            153           83.7  38 
 RUS  HZ EP       2255 46.14                             144    0.0910 94.7 174 
 RUS  HN ES   1   2256  3.99                             144    0.10 7 94.7 174 
 RUS  HN I        2256  5.74        21.1 0.18            145           94.7 174 
 PTB  HN ES       2256  9.49                             132   -0.46 9  144 261 
 PTB  HN I        2256 15.37        27.0 0.28            131            144 261 
 NOR  HZ EP       2255 58.26                             118    0.21 8  229 235 
 NOR  HN ES   2   2256 24.77                             118   -0.48 4  229 235 
 NOR  HN I        2256 30.96        32.1 0.14            118            229 235 
 SML  HN ES   1   2256 28.83                             116    0.02 6  248 336 
 SML  HN I        2256 30.62        41.5 0.32            118            248 336 
                                                                                
