 2017  7 6 2216 21.3 L   6.574 -73.457117.3  RSN 10 0.4 1.9LRSN                1
 GAP= 76        1.11       3.6     3.0  6.9 -0.1158E+01  0.3284E+01  0.6484E+01E
 Epicentro: EL CARMEN - SANTANDER                                              3
 ACTION:UPD 17-08-30 15:30 OP:rebc STATUS:               ID:20170706221621 L   I
 OLDACT:REG 17-07-07 03:27 OP:dhb  STATUS:               ID:20170706220744     3
 2017-07-06-2208-00M.COL___374                                                 6
 STAT SP IPHASW D HRMM SECON CODA AMPLIT PERI AZIMU VELO AIN AR TRES W  DIS CAZ7
 BAR2 EZ EP       2216 37.78                             165    0.0410 30.4  86 
 BAR2 EZ ES       2216 50.64                             165    0.0910 30.4  86 
 BAR2 EZ I        2216 52.29        47.9 0.26            168           30.4  86 
 BRR  HZ IP     C 2216 39.25                             149    0.1610 65.3 334 
 BRR  HE ES       2216 53.45                             149    0.5010 65.3 334 
 BRR  HZ I        2217  0.07        15.8 0.20            148           65.3 334 
 PTB  HZ EP   4   2216 41.58                             133   -1.02 0  111 268 
 PTB  HN ES       2216 58.47                             133   -0.7310  111 268 
 PTB  HZ I        2217  2.17        17.1 0.16            135            111 268 
 PAM  EZ IP     D 2216 43.83                             132   -0.1710  119  45 
 PAM  EE ES       2217  1.68                             132   -0.0110  119  45 
 PAM  EZ I        2217  5.67         9.8 0.22            135            119  45 
 SPBC HZ EP       2216 44.55                             130    0.7610  123 214 
 SPBC HN ES       2217  1.54                             130    0.2210  123 214 
 SPBC HZ I        2217  3.89        13.1 0.12            134            123 214 
 YPLC HZ IP     C 2216 49.24                             119    0.05 9  177 137 
 YPLC HN ES       2217 10.03                             119   -0.90 9  177 137 
 ZAR  HZ EP       2216 50.26                             118    0.25 9  185 303 
 ZAR  HN ES       2217 11.81                             118   -0.59 9  185 303 
 ZAR  HZ I        2217 18.02        14.5 0.08            120            185 303 
 NOR  HZ EP       2216 51.09                             117    0.25 9  192 235 
 NOR  HN ES       2217 14.37                             117    0.50 9  192 235 
 NOR  HZ I        2217 16.43         8.9 0.27            120            192 235 
 HEL  HZ EP   4   2216 56.88                             112    1.10 0  233 260 
 HEL  HN ES       2217 22.12                             112   -0.55 8  233 260 
 HEL  HZ I        2217 27.74         7.4 0.42            115            233 260 
 GUY2CHZ EP   4   2217  0.32                             110    1.48 0  259 235 
 GUY2CHE ES       2217 27.94                             110   -0.17 8  259 235 
 GUY2CHZ I        2217 36.85         5.4 0.50                           259 235 
                                                                                
