 2012  5 6 2247 18.3 L   6.831 -73.211151.3  RSN  4 0.4 1.5LRSN                1
 GAP=212        0.90      15.7     6.7 12.6 -0.5157E+02 -0.5285E+01  0.7448E+02E
 Epicentro: ZAPATOCA - SANTANDER                                               3
 ACTION:UP  12-07-05 12:02 OP:pat  STATUS:               ID:20120506224718 L   I
 2012-05-06-2240-00M.COL___192                                                 6
 STAT SP IPHASW D HRMM SECON CODA AMPLIT PERI AZIMU VELO SNR AR TRES W  DIS CAZ7
 BRR  HZ EP   1   2247 40.19                             156     0.6 7   63 299 
 BRR  HZ I        2247 40.43        15.8 0.13                            63 299 
 BRR  HE ES   1   2247 56.73                             156     0.5 7   63 299 
 PAM  SZ EP   1   2247 41.01                             151    -0.2 7   80  45 
 PAM  SN ES   1   2247 58.77                             151    -0.3 7   80  45 
 PAM  SZ I        2248  1.44         3.0 0.51                            80  45 
 PTB  HZ EP   1   2247 45.17                             134     0.0 7  141 257 
 PTB  HN ES   1   2248  5.64                             134    -0.4 7  141 257 
 PTB  HZ I        2248  7.97         2.6 0.16                           141 257 
 ZAR  HN ES   1   2248 14.92                             125    -0.3 6  196 292 
                                                                                
