 2014  4 6 2309 34.8 L   6.794 -73.136139.9  RSN  8 0.4 1.8LRSN                1
 GAP=138        0.75       2.9     3.8  6.9 -0.4988E+00  0.1050E+02 -0.1770E+01E
 Epicentro: LOS SANTOS - SANTANDER                                             3
 ACTION:UPD 14-05-13 23:06 OP:nd   STATUS:               ID:20140406230934 L   I
 OLDACT:UP  14-04-07 04:57 OP:mh   STATUS:               ID:20140406230806     3
 OLDACT:UP  14-04-07 04:57 OP:mh   STATUS:               ID:20140406230806     3
 OLDACT:REG 14-04-07 04:22 OP:mh   STATUS:               ID:20140406230806     3
 2014-04-06-2308-06M.COL___259                                                 6
 STAT SP IPHASW D HRMM SECON CODA AMPLIT PERI AZIMU VELO AIN AR TRES W  DIS CAZ7
 PAM  SZ EP       23 9 56.35                             150   -0.0310 77.2  39 
 PAM  SN ES   1   2310 13.34                             150    0.12 7 77.2  39 
 PAM  SZ I        2310 16.05         9.5 0.56            152           77.2  39 
 RUS  HZ EP   1   23 9 57.80                             143   -0.12 7 99.8 177 
 RUS  HN ES       2310 15.94                             143   -0.0210 99.8 177 
 RUS  HZ I        2310 17.37         5.2 0.28            146           99.8 177 
 PTB  HZ EP   1   2310  1.01                             130   -0.37 7  149 259 
 PTB  HN ES   1   2310 22.07                             130   -0.05 7  149 259 
 ZAR  HZ EP       2310  7.69                             121    0.69 8  205 292 
 ZAR  HN ES       2310 32.23                             121    0.11 8  205 292 
 ZAR  HZ I        2310 38.02         5.8 0.24            122            205 292 
 NOR  HN ES   1   2310 37.32                             117   -0.58 6  235 235 
 SML  HZ EP   1   2310 11.00                             116   -0.22 6  245 335 
 SML  HN ES   1   2310 39.29                             116   -0.34 6  245 335 
 SML  HZ I        2310 43.99         4.8 0.09            117            245 335 
 CHI  HZ E      C 2310 48.46                                            248 195 
 PRA  HZ EP       2310 27.57                             105   -0.55 6  392 210 
 PRA  HN ES       2311 10.52                             105    0.81 6  392 210 
 PRA  HZ I        2311 16.13         2.8 0.37            107            392 210 
                                                                                
