 2017  9 6 2324 59.9 L   6.775 -73.163140.0  RSN  4 0.2 1.2LRSN                1
 GAP=135        0.62       3.7     7.7  5.9 -0.1108E+02  0.1463E+02 -0.4677E+01E
 Epicentro: LOS SANTOS - SANTANDER                                             3
 ACTION:UPD 17-10-05 19:09 OP:rebc STATUS:               ID:20170906232459 L   I
 OLDACT:UP  17-09-07 06:02 OP:edw  STATUS:               ID:20170906231745     3
 OLDACT:REG 17-09-07 03:40 OP:edw  STATUS:               ID:20170906231745     3
 2017-09-06-2318-00M.COL___426                                                 6
 STAT SP IPHASW D HRMM SECON CODA AMPLIT PERI AZIMU VELO AIN AR TRES W  DIS CAZ7
 BAR2 EZ ES       2325 33.17                             171   -0.3210 20.3 186 
 BAR2 EZ I        2325 34.43         5.7 0.28            171           20.3 186 
 BRR  HZ EP       2325 20.59                             152    0.1910 70.9 301 
 PAM  EZ EP       2325 21.54                             149   -0.1710 80.8  39 
 PAM  EN ES       2325 38.90                             149    0.1810 80.8  39 
 PAM  EZ I        2325 40.93         3.2 0.68            148           80.8  39 
 RUS  HZ EP       2325 22.73                             143   -0.1610 98.0 175 
 RUS  HN ES       2325 41.09                             143    0.2710 98.0 175 
 RUS  HZ I        2325 42.27         2.3 0.26            144           98.0 175 
                                                                                
