 2016  4 6 2042 21.5 L   6.773 -73.160142.4  RSN  4 0.3 1.5LRSN                1
 GAP=139        0.51       3.5     4.4  7.0 -0.9487E+01  0.1734E+02 -0.6659E+01E
 Epicentro: LOS SANTOS - SANTANDER                                             3
 ACTION:UPD 16-05-05 14:19 OP:rebc STATUS:               ID:20160406204221 L   I
 OLDACT:UP  16-04-07 07:12 OP:ak   STATUS:               ID:20160406203746d    3
 OLDACT:DUP 16-04-07 07:09 OP:ak   STATUS:               ID:20160406203746d    3
 2016-04-06-2037-45M.COL___311                                                 6
 STAT SP IPHASW D HRMM SECON CODA AMPLIT PERI AZIMU VELO AIN AR TRES W  DIS CAZ7
 PAM  EZ EP       2042 43.70                             149    0.1610 80.7  39 
 PAM  EN ES       2043  0.67                             149   -0.0810 80.7  39 
 PAM  EZ I        2043  2.89         8.4 0.46            153           80.7  39 
 RUS  HZ EP   2   2042 44.26                             144   -0.43 5 97.7 175 
 RUS  HE ES       2043  2.75                             144   -0.0410 97.7 175 
 RUS  HZ I        2043  4.61         4.8 0.32            147           97.7 175 
 PTB  HZ EP   2   2042 47.80                             131   -0.17 5  146 260 
 PTB  HN ES   2   2043  8.17                             131   -0.47 5  146 260 
 PTB  HZ I        2043 11.52         2.5 0.19            132            146 260 
 NOR  HZ EP   2   2042 56.42                             118   -0.26 4  232 235 
 NOR  HE ES       2043 24.51                             118    0.37 8  232 235 
 NOR  HZ I        2043 30.37         2.9 0.18            119            232 235 
                                                                                
