 2010  3 6 2032 31.7 L   6.847 -73.049135.5  RSN 12 0.4 2.4LRSN                1
 GAP=132        0.79       3.1     5.4  5.9 -0.3060E+01 -0.1132E+01  0.1284E+01E
 Epicentro: LOS SANTOS - SANTANDER                                             3
 ACTION:UP  10-08-24 09:52 OP:vdl  STATUS:               ID:20100306203231 L   I
 2010-03-06-2029-59S.COL___101                                                 6
 STAT SP IPHASW D HRMM SECON CODA AMPLIT PERI AZIMU VELO SNR AR TRES W  DIS CAZ7
 BAR2 SZ IP       2032 50.58                             166     0.310   32 208 
 BAR2 SZ ES   2   2033  4.61                             166    -0.2 5   32 208 
 BRR  HZ IP       2032 52.37                             148     0.110   79 291 
 BRR  HN ES   1   2033  8.69                             148     0.5 7   79 291 
 BRR  HZ I        2033 13.46        87.4 0.13                            79 291 
 RUS  BZ IP       2032 54.61                             140    -0.210  106 182 
 RUS  BN ES   1   2033 12.62                             140    -0.3 7  106 182 
 RUS  BZ I        2033 14.71        20.5 0.33                           106 182 
 OCA  SZ EP       2032 58.97                             128     0.1 9  157 349 
 OCA  SZ ES   1   2033 19.56                             128    -0.6 7  157 349 
 OCA  SZ I        2033 23.90        58.0 0.15                           157 349 
 CHI  HZ EP   1   2033  9.17                             114    -0.6 6  257 197 
 CHI  HN ES   1   2033 39.55                             114     0.1 6  257 197 
 CHI  HZ I        2033 41.64         8.3 0.44                           257 197 
 ROSC BN ES   2   2033 41.83                             113     1.2 4  263 212 
 ROSC BZ I        2033 46.62        20.6 0.29                           263 212 
 HEL  HZ EP   1   2033 12.76                             112     0.0 6  284 255 
 HEL  HN ES   2   2033 43.95                             112    -0.8 4  284 255 
 HEL  HZ I        2033 48.93        12.3 0.33                           284 255 
 GUY  HZ EP   1   2033 16.07                             109    -0.2 5  313 235 
 GUY  HN ES   2   2033 50.30                             109    -0.7 3  313 235 
 RREF BZ EP   1   2033 19.44                             108     0.7 5  333 230 
 RREF BN ES   3   2033 54.55                             108    -0.9 2  333 230 
 RREF BZ I        2033 59.80        16.3 0.23                           333 230 
 SDV  BZ EP       2033 20.29                             107     0.3 6  349  50 
 TOL  SZ EP   1   2033 20.83                             107    -0.1 5  355 225 
 PRA  HZ EP   2   2033 25.30                             104    -0.8 3  402 211 
 PRA  HZ I        2034 12.64        11.1 0.24                           402 211 
                                                                                
