 2011  9 6 2350 13.2 L   6.750 -73.175143.3  RSN  4 0.2 1.5LRSN                1
 GAP=230        0.45       6.6     7.5  5.4  0.4135E+02  0.2458E+01 -0.5743E+00E
 Epicentro: VILLANUEVA - SANTANDER                                             3
 ACTION:UPD 12-07-13 15:56 OP:ep   STATUS:               ID:20110906235013 L   I
 2011-09-06-2346-00S.COL___170                                                 6
 STAT SP IPHASW D HRMM SECON CODA AMPLIT PERI AZIMU VELO AIN AR TRES W  DIS CAZ7
 BAR2 SZ EP   1   2350 32.34                             173   -0.05 7 17.5 183 
 BAR2 SZ ES   1   2350 47.10                             173   -0.29 7 17.5 183 
 BAR2 SZ I        2350 48.93         6.5 0.15                          17.5 183 
 BRR  HZ EP   1   2350 34.00                             152   -0.04 7 71.2 304 
 BRR  HZ I        2350 42.69        11.1 0.39                          71.2 304 
 BRR  HE ES   1   2350 50.68                             152    0.35 7 71.2 304 
 RUS  HZ EP   1   2350 36.41                             145    0.11 7 95.4 174 
 RUS  HN ES   1   2350 54.41                             145    0.06 7 95.4 174 
 RUS  HZ I        2350 57.26         3.4 0.26                          95.4 174 
 ZAR  HN ES   1   2351 10.26                             122   -0.20 6  203 294 
 ZAR  HZ I        2351 16.03         4.3 0.28                           203 294 
                                                                                
