 2015  1 6 2020  4.1 L   6.786 -73.141145.3  RSN 13 0.5 2.0LRSN                1
 GAP= 72        1.24       3.2     4.3  6.4 -0.8937E+00  0.2322E+01  0.3828E-01E
 Epicentro: LOS SANTOS - SANTANDER                                             3
 ACTION:UPD 15-03-02 15:37 OP:nd   STATUS:               ID:20150106202004 L   I
 OLDACT:REG 15-01-07 06:12 OP:stll STATUS:               ID:20150106201747     3
 2015-01-06-2017-47M.COL___268                                                 6
 STAT SP IPHASW D HRMM SECON CODA AMPLIT PERI AZIMU VELO AIN AR TRES W  DIS CAZ7
 BAR2 EZ EP       2020 23.61                             171    0.0010 21.9 192 
 BAR2 EZ ES       2020 38.36                             171   -0.4910 21.9 192 
 BAR2 EZ I        2020 39.47        34.4 0.36            170           21.9 192 
 BRR  HZ EP       2020 25.46                             152    0.2410 72.4 299 
 BRR  HE ES       2020 42.58                             152    0.8510 72.4 299 
 BRR  HZ I        2020 42.85        26.9 0.30            144           72.4 299 
 PAM  SZ EP       2020 26.46                             150    0.1810 78.2  39 
 PAM  SN ES       2020 43.61                             150    0.0110 78.2  39 
 PAM  SZ I        2020 45.59        20.1 0.52            142           78.2  39 
 RUS  HZ EP       2020 27.66                             144    0.0110 99.0 176 
 RUS  HZ I        2020 28.33         7.7 0.30            137           99.0 176 
 RUS  HN ES       2020 45.68                             144   -0.3810 99.0 176 
 PTB  HZ EP       2020 30.67                             132   -0.34 9  148 259 
 PTB  HN ES       2020 51.49                             132   -0.54 9  148 259 
 PTB  HZ I        2020 53.60        15.4 0.16            123            148 259 
 TAM  HZ EP       2020 31.85                             131    0.23 9  154 104 
 SPBC HZ EP       2020 32.74                             129    0.30 9  162 219 
 SPBC HE ES       2020 55.23                             129    0.65 9  162 219 
 SPBC HZ I        2020 56.62        10.8 0.24            120            162 219 
 OCA  HZ EP       2020 32.45                             129   -0.03 9  162 353 
 OCA  HE ES       2020 54.97                             129    0.32 9  162 353 
 OCA  HZ I        2020 58.14        12.8 0.32            120            162 353 
 ZAR  HZ EP       2020 37.47                             122    0.89 9  205 292 
 ZAR  HE ES       2021  2.33                             122    0.38 9  205 292 
 ZAR  HZ I        2021  7.89        14.7 0.34            113            205 292 
 NOR  HN ES       2021  7.23                             118   -0.29 8  234 235 
 NOR  HZ I        2021 12.59         5.8 0.20            110            234 235 
 SML  HZ EP       2020 40.17                             117   -0.66 8  245 335 
 SML  HN ES       2021  8.02                             117   -1.49 8  245 335 
 SML  HZ I        2021 17.61        14.8 0.24            109            245 335 
 CHI  HZ EP       2020 41.71                             117    0.12 8  247 195 
 CHI  HN ES       2021 10.32                             117   -0.54 8  247 195 
 CHI  HZ I        2021 20.43         3.3 0.60            109            247 195 
 MON  HZ EP   9   2020 51.26                             108   -1.94 0  355 309 
 MON  HZ I        2020 58.14         2.1 0.24            101            355 309 
 MON  HN ES       2021 29.56                                   -0.03 6  355 309 
                                                                                
