 2012  1 6 2030 55.0 L   7.366 -73.097137.3  RSN  8 0.4 2.1LRSN                1
 GAP=108        0.91       4.6     5.0  8.2 -0.4114E+00  0.6658E+01  0.7699E+01E
 Epicentro: MATANZA - SANTANDER                                                3
 ACTION:UP  12-02-03 08:14 OP:REBC STATUS:               ID:20120106203055 L   I
 2012-01-06-2030-00M.COL___185                                                 6
 STAT SP IPHASW D HRMM SECON CODA AMPLIT PERI AZIMU VELO SNR AR TRES W  DIS CAZ7
 GIR2 SZ EP   1   2031 13.86                             166     0.1 7   34 199 
 PAM  SZ EP       2031 14.79                             161     0.210   44  94 
 PAM  SN ES   1   2031 30.39                             161     0.5 7   44  94 
 BRR  HZ EP       2031 16.11                             150     0.710   74 247 
 BRR  HN ES   1   2031 31.02                             150    -0.3 7   74 247 
 BAR2 SZ EP   2   2031 16.05                             146    -0.5 5   86 186 
 BAR2 SZ I        2031 37.52        20.5 0.19                            86 186 
 OCA  SZ EP       2031 17.01                             142    -0.410  100 346 
 OCA  SZ ES   1   2031 34.44                             142    -0.4 7  100 346 
 OCA  SZ I        2031 37.47        26.4 0.42                           100 346 
 RUS  HZ EP       2031 23.07                             127    -0.3 9  163 179 
 RUS  HN ES   1   2031 45.11                             127    -0.4 7  163 179 
 PTB  HZ EP       2031 24.00                             125     0.0 9  176 239 
 PTB  HE ES   1   2031 46.60                             125    -0.1 7  176 239 
 ZAR  HZ EP   2   2031 26.76                             122     0.8 4  195 274 
 ZAR  HN ES   1   2031 50.06                             122     0.0 6  195 274 
 ZAR  HZ I        2031 55.30        11.5 0.13                           195 274 
                                                                                
