 2014  9 6 2005  0.6 L   6.750 -73.170136.0  RSN  9 0.6 1.7LRSN                1
 GAP= 95        1.49       6.5     5.9  8.5 -0.1160E+02  0.3351E+01  0.1289E+02E
 Epicentro: LOS SANTOS - SANTANDER                                             3
 ACTION:UPD 14-10-03 23:02 OP:nd   STATUS:               ID:20140906200500 L   I
 OLDACT:REG 14-09-07 06:25 OP:stll STATUS:               ID:20140906195820     3
 2014-09-06-1958-20M.COL___262                                                 6
 STAT SP IPHASW D HRMM SECON CODA AMPLIT PERI AZIMU VELO AIN AR TRES W  DIS CAZ7
 BAR2 SZ EP       20 5 19.14                             172    0.1710 17.5 184 
 BAR2 SZ ES       20 5 33.62                             172    0.3410 17.5 184 
 BAR2 SZ I        20 5 34.93        11.8 0.16            171           17.5 184 
 BRR  HZ EP       20 5 21.35                             151    0.5910 71.7 303 
 BRR  HE ES       20 5 37.36                             151    0.9010 71.7 303 
 PAM  SZ EP       20 5 21.67                             147   -0.5310 83.4  39 
 PAM  SN ES       20 5 38.59                             147   -0.4410 83.4  39 
 PAM  SZ I        20 5 40.81        16.0 0.50            151           83.4  39 
 RUS  HZ EP       20 5 23.10                             143    0.0710 95.3 174 
 RUS  HE ES       20 5 40.61                             143    0.1010 95.3 174 
 RUS  HZ I        20 5 42.46         7.0 0.38            144           95.3 174 
 PTB  HZ EP       20 5 25.74                             131   -0.73 9  144 261 
 PTB  HN ES       20 5 45.75                             131   -0.88 9  144 261 
 PTB  HZ I        20 5 49.98         7.1 0.12            132            144 261 
 TAM  HZ EP       20 5 27.35                             128   -0.33 9  156 103 
 SPBC HZ EP       20 5 28.00                             128    0.19 9  157 219 
 SPBC HN ES       20 5 48.95                             128   -0.06 9  157 219 
 SPBC HZ I        20 5 53.78         7.6 0.18            129            157 219 
 GUY2CHZ EP       20 5 44.66                             111    1.48 7  296 235 
 GUY2CHN ES       20 6 15.32                             111   -1.05 7  296 235 
 PRA  HZ EP       20 5 53.57                             105    0.47 6  386 210 
                                                                                
