 2017  5 6 2138  7.0 L   6.774 -73.158149.0  RSN  5 0.4 1.4LRSN                1
 GAP=136        0.96       5.0     4.4  8.3  0.1506E+01  0.5897E+01  0.3912E+01E
 Epicentro: LOS SANTOS - SANTANDER                                             3
 ACTION:UPD 17-06-16 13:33 OP:jn   STATUS:               ID:20170506213807 L   I
 OLDACT:DUP 17-05-07 06:33 OP:dani STATUS:               ID:20170506212747d    3
 OLDACT:UP  17-05-07 06:30 OP:dani STATUS:               ID:20170506212745d    3
 OLDACT:REG 17-05-07 05:35 OP:dani STATUS:               ID:20170506212744     3
 2017-05-06-2128-00M.COL___370                                                 6
 STAT SP IPHASW D HRMM SECON CODA AMPLIT PERI AZIMU VELO AIN AR TRES W  DIS CAZ7
 BRR  HZ EP       2138 28.51                             153   -0.0410 71.4 301 
 BRR  HE ES       2138 45.93                             153    0.6010 71.4 301 
 BRR  HZ I        2138 50.77         8.2 0.36            153           71.4 301 
 PAM  EZ EP       2138 29.41                             150   -0.3710 80.5  39 
 PAM  EN ES       2138 47.38                             150   -0.1410 80.5  39 
 PAM  EZ I        2138 48.94         3.7 0.62            154           80.5  39 
 RUS  HZ EP       2138 31.41                             145    0.4910 97.8 175 
 RUS  HN ES       2138 49.38                             145   -0.1610 97.8 175 
 RUS  HZ I        2138 49.96         3.3 0.24            149           97.8 175 
 PTB  HZ EP       2138 34.29                             133    0.18 9  146 260 
 PTB  HN ES       2138 54.61                             133   -0.61 9  146 260 
 PTB  HZ I        2138 59.32         2.6 0.50            135            146 260 
 ZAR  HE ES       2139  5.13                             123   -0.01 9  204 293 
                                                                                
