 2011 10 6 2323 26.4 L   6.814 -73.132141.1  RSN 10 0.4 2.1LRSN                1
 GAP=138        0.71       3.5     4.1  5.1 -0.2110E+01  0.6645E+01 -0.2113E+01E
 Epicentro: LOS SANTOS - SANTANDER                                             3
 ACTION:UPD 12-07-13 16:02 OP:ep   STATUS:               ID:20111006232326 L   I
 2011-10-06-2320-50S.COL___167                                                 6
 STAT SP IPHASW D HRMM SECON CODA AMPLIT PERI AZIMU VELO AIN AR TRES W  DIS CAZ7
 BAR2 SZ EP       2323 45.39                             169   -0.1010 25.2 193 
 BAR2 SZ ES       2324  0.78                             169    0.3910 25.2 193 
 BAR2 SZ I        2324  2.81        16.9 0.21                          25.2 193 
 BRR  HZ EP       2323 47.25                             151    0.1910 71.8 297 
 BRR  HE ES   1   2324  3.48                             151    0.29 7 71.8 297 
 BRR  HZ I        2324  7.55        34.2 0.05                          71.8 297 
 PAM  SZ EP       2323 48.23                             151    0.2610 75.2  39 
 PAM  SE ES   1   2324  4.22                             151   -0.59 7 75.2  39 
 RUS  HZ EP   1   2323 49.55                             143   -0.23 7  102 177 
 RUS  HN ES   1   2324  7.53                             143   -0.50 7  102 177 
 OCA  SZ EP       2323 54.08                             129   -0.12 9  159 353 
 OCA  SZ I        2324 19.49        14.1 0.27                           159 353 
 ZAR  HZ EP   2   2323 58.62                             121    0.01 4  205 292 
 ZAR  HN ES   1   2324 23.39                             121   -0.36 6  205 292 
 ZAR  HZ I        2324 29.07        12.4 0.27                           205 292 
 NOR  SZ EP   2   2324  1.41                             117   -0.66 4  237 234 
 NOR  SE ES   2   2324 29.50                             117   -0.41 4  237 234 
 CHI  HN ES   2   2324 33.71                             116    0.31 4  251 195 
 CHI  HZ I        2324 41.24         6.6 0.33                           251 195 
 HEL  HZ EP   1   2324  7.31                             114    0.75 6  274 256 
 HEL  HN ES   2   2324 37.05                             114   -0.86 4  274 256 
 HEL  HZ I        2324 45.58         6.0 0.48                           274 256 
 RREF HZ EP   2   2324 12.71                             110    0.14 3  324 229 
 RREF HN ES   2   2324 49.18                             110    0.58 3  324 229 
 RREF HZ I        2324 55.71         5.7 0.32                           324 229 
                                                                                
