 2013 11 6 2255 28.1 L   6.731 -73.104146.4  RSN  6 0.3 1.5LRSN                1
 GAP=176        0.88       6.2     4.3  7.2 -0.9888E+01  0.7057E+01  0.5380E+01E
 Epicentro: JORDAN - SANTANDER                                                 3
 ACTION:UPD 14-01-09 16:26 OP:ep   STATUS:               ID:20131106225528 L   I
 OLDACT:REG 13-11-07 01:33 OP:carl STATUS:               ID:20131106224846     3
 2013-11-06-2248-46M.COL___209                                                 6
 STAT SP IPHASW D HRMM SECON CODA AMPLIT PERI AZIMU VELO AIN AR TRES W  DIS CAZ7
 BAR2 SZ EP       2255 47.90                             173    0.2310 17.6 210 
 BAR2 SZ ES       2256  2.86                             173   -0.1010 17.6 210 
 BAR2 SZ I        2256  4.69        15.3 0.36            173           17.6 210 
 BRR  HZ EP   1   2255 49.70                             150   -0.04 7 79.1 302 
 BRR  HN ES       2256  7.29                             150    0.6410 79.1 302 
 PAM  SZ EP       2255 50.92                             150    0.3710 80.8  34 
 PAM  SN ES       2256  7.52                             150   -0.5710 80.8  34 
 PAM  SZ I        2256 10.18         3.6 0.44            152           80.8  34 
 PTB  HZ EP       2255 55.16                             131   -0.22 9  151 262 
 PTB  HE ES       2256 16.61                             131   -0.08 9  151 262 
 PTB  HZ I        2256 19.76         3.9 0.22            133            151 262 
 ZAR  HN ES       2256 26.93                             121   -0.30 8  211 294 
 NOR  HN ES       2256 31.50                             119   -0.13 8  234 237 
                                                                                
