 2011 10 6 2354  1.4 L   6.767 -73.107141.1  RSN  6 0.2 1.6LRSN                1
 GAP=143        0.42       2.7     4.4  4.8  0.1246E+01 -0.4730E+01 -0.2274E+01E
 Epicentro: LOS SANTOS - SANTANDER                                             3
 ACTION:UPD 12-07-13 16:02 OP:ep   STATUS:               ID:20111006235401 L   I
 2011-10-06-2340-00M.COL___171                                                 6
 STAT SP IPHASW D HRMM SECON CODA AMPLIT PERI AZIMU VELO AIN AR TRES W  DIS CAZ7
 BAR2 SZ EP       2354 20.17                             171   -0.2110 21.1 203 
 BAR2 SZ ES   2   2354 34.86                             171   -0.35 5 21.1 203 
 BAR2 SZ I        2354 37.09         9.4 0.40                          21.1 203 
 GIR2 SZ EP   2   2354 20.56                             165   -0.04 5 35.8 344 
 BRR  HZ EP       2354 22.23                             150   -0.1010 76.7 299 
 BRR  HZ I        2354 22.61        17.1 0.12                          76.7 299 
 BRR  HN ES   1   2354 38.91                             150    0.22 7 76.7 299 
 PAM  SZ EP       2354 23.12                             150    0.0310 77.7  35 
 PAM  SN ES   2   2354 40.27                             150    0.23 5 77.7  35 
 RUS  HZ EP   2   2354 24.76                             144    0.39 5 96.7 178 
 RUS  HE ES   2   2354 42.48                             144    0.16 5 96.7 178 
 RUS  HZ I        2354 43.86         3.3 0.35                          96.7 178 
 OCA  SZ EP   1   2354 29.92                             128    0.21 7  164 352 
 OCA  SZ ES   1   2354 51.72                             128   -0.10 7  164 352 
 OCA  SZ I        2354 55.47         4.7 0.52                           164 352 
                                                                                
