 2011  6 6 2344 32.9 L   6.776 -73.066147.7  RSN  6 0.4 1.6LRSN                1
 GAP=148        1.01       6.2    10.0  9.2 -0.5185E+01 -0.1037E+02 -0.7235E+01E
 Epicentro: LOS SANTOS - SANTANDER                                             3
 ACTION:UP  11-07-14 19:03 OP:ep   STATUS:               ID:20110606234432 L   I
 2011-06-06-2341-42S.COL___132                                                 6
 STAT SP IPHASW D HRMM SECON CODA AMPLIT PERI AZIMU VELO SNR AR TRES W  DIS CAZ7
 BAR2 SZ EP   1   2344 52.33                             170    -0.5 7   24 212 
 BAR2 SZ ES   1   2345  7.90                             170    -0.4 7   24 212 
 BAR2 SZ I        2345 10.35        11.9 0.21                            24 212 
 BTL  SZ EP       2344 53.67                             169     0.810   27 305 
 PAM  SZ EP   1   2344 55.16                             152     0.0 7   74  33 
 PAM  SZ I        2344 55.68         3.2 0.17                            74  33 
 PAM  SN ES   1   2345 12.49                             152     0.0 7   74  33 
 BRR  HZ EP       2344 54.48                             150    -0.310   80 297 
 BRR  HZ I        2344 54.80        21.4 0.20                            80 297 
 BRR  HN ES   1   2345 11.98                             150     0.1 7   80 297 
 RUS  HZ EP       2344 56.54                             145    -0.110   98 181 
 RUS  HN ES   1   2345 15.37                             145     0.2 7   98 181 
 RUS  HZ I        2345 16.48         3.3 0.25                            98 181 
 GRA  SZ EP       2344 58.22                             137    -0.110  126  13 
                                                                                
