 2013  2 6 2024 15.5 L   6.771 -73.166141.9  RSN  7 0.4 2.0LRSN                1
 GAP= 98        1.00       5.0     3.9  6.7  0.2228E+01  0.3952E+00  0.8828E+00E
 Epicentro: LOS SANTOS - SANTANDER                                             3
 ACTION:UPD 13-03-12 09:31 OP:ep   STATUS:               ID:20130206202415 L   I
 2013-02-06-2018-39M.COL___200                                                 6
 STAT SP IPHASW D HRMM SECON CODA AMPLIT PERI AZIMU VELO AIN AR TRES W  DIS CAZ7
 BAR2 SZ EP   1   2024 34.44                             172   -0.15 7 19.9 185 
 BAR2 SZ ES       2024 48.84                             172   -0.6510 19.9 185 
 BAR2 SZ I        2024 50.51        18.1 0.36            171           19.9 185 
 BRR  HZ EP       2024 36.42                             152    0.2110 70.9 302 
 BRR  HN ES       2024 53.07                             152    0.7110 70.9 302 
 BRR  HN I        2024 54.83        22.4 0.14            149           70.9 302 
 PAM  SZ EP       2024 37.48                             149   -0.0610 81.2  39 
 PAM  SN ES       2024 54.57                             149   -0.1610 81.2  39 
 PAM  SN I        2024 55.72        25.8 0.42            151           81.2  39 
 RUS  HZ EP       2024 38.95                             144    0.3010 97.6 175 
 RUS  HN ES       2024 57.13                             144    0.4210 97.6 175 
 RUS  HN I        2024 59.06         9.5 0.44            145           97.6 175 
 PTB  HZ EP       2024 41.44                             132   -0.46 9  145 260 
 PTB  HN ES       2025  2.05                             132   -0.44 9  145 260 
 PTB  HN I        2025  7.57        11.6 0.34            130            145 260 
 TAM  HZ EP       2024 42.99                             129   -0.01 9  156 104 
 ZAR  HN ES       2025 12.81                             122    0.16 9  203 293 
 ZAR  HE I        2025 20.37        17.9 0.16            121            203 293 
                                                                                
