 2016 10 6 2337 54.7 L   6.809 -73.173149.0  RSN  5 0.2 1.3LRSN                1
 GAP=133        0.61       3.2     2.8  5.3  0.6237E+00  0.2286E+01  0.1871E+01E
 Epicentro: LOS SANTOS - SANTANDER                                             3
 ACTION:UPD 16-11-09 19:16 OP:rebc STATUS:               ID:20161006233754 L   I
 OLDACT:DUP 16-10-07 03:36 OP:cara STATUS:               ID:20161006232741d    3
 2016-10-06-2328-00M.COL___357                                                 6
 STAT SP IPHASW D HRMM SECON CODA AMPLIT PERI AZIMU VELO AIN AR TRES W  DIS CAZ7
 BRR  HE EP       2338 16.00                             154    0.0110 68.1 299 
 BRR  HE ES       2338 32.84                             154    0.2110 68.1 299 
 PAM  EZ EP       2338 17.46                             151    0.1710 78.6  42 
 PAM  EZ ES       2338 34.66                             151   -0.2810 78.6  42 
 RUS  HZ EP       2338 19.01                             144    0.1910  102 174 
 RUS  HZ ES       2338 37.71                             144    0.0510  102 174 
 RUS  HZ I        2338 38.24         2.0 0.30            145            102 174 
 PTB  HZ EP       2338 21.26                             133   -0.39 9  145 258 
 PTB  HN ES       2338 42.47                             133   -0.23 9  145 258 
 PTB  HZ I        2338 44.19         2.6 0.42            132            145 258 
 ZAR  HE ES       2338 52.46                             123    0.24 9  201 292 
 ZAR  HZ I        2338 57.90         2.5 0.36            122            201 292 
                                                                                
