 2016 11 6 2223  2.6 L   6.746 -73.143132.0  RSN  5 0.3 1.7LRSN                1
 GAP=184        0.72       4.0     3.5  6.2 -0.5129E+01  0.2211E+01  0.6395E+01E
 Epicentro: LOS SANTOS - SANTANDER                                             3
 ACTION:UPD 17-10-26 21:05 OP:lp   STATUS:               ID:20161106222302 L   I
 OLDACT:UP  16-11-07 03:39 OP:cara STATUS:               ID:20161106221746     3
 OLDACT:REG 16-11-07 03:28 OP:cara STATUS:               ID:20161106221746     3
 2016-11-06-2218-00M.COL___340                                                 6
 STAT SP IPHASW D HRMM SECON CODA AMPLIT PERI AZIMU VELO AIN AR TRES W  DIS CAZ7
 BRR  HZ EP       2223 22.49                             149   -0.0310 74.5 302 
 BRR  HN ES       2223 38.45                             149    0.4310 74.5 302 
 BRR  HZ I        2223 42.37        11.5 0.14            151           74.5 302 
 PAM  EZ IP       2223 23.47                             147   -0.2310 81.9  37 
 PAM  EN ES       2223 40.06                             147   -0.0710 81.9  37 
 PAM  EZ I        2223 44.31         3.6 0.16            152           81.9  37 
 PTB  HZ EP       2223 28.42                             129   -0.03 9  147 261 
 PTB  HN ES       2223 48.23                             129   -0.35 9  147 261 
 PTB  HZ I        2223 53.51         9.4 0.12            132            147 261 
 SPBC HZ EP       2223 29.76                             127    0.08 9  159 220 
 SPBC HN ES       2223 50.83                             127    0.05 9  159 220 
 SPBC HZ I        2223 55.19        13.1 0.22            131            159 220 
 ZAR  HZ EP       2223 35.05                             119    0.55 8  207 294 
 ZAR  HN ES       2223 58.97                             119   -0.38 8  207 294 
 ZAR  HZ I        2224  5.01         6.8 0.26            123            207 294 
                                                                                
