 2016  3 6 2139  6.8 L   6.281 -74.026 32.1  RSN  7 0.2 1.5LRSN                1
 GAP=110        0.43       2.4     1.3  3.2  0.3784E+00 -0.9841E+00  0.5523E+01E
 Epicentro: CIMITARRA - SANTANDER                                              3
 ACTION:UPD 16-05-13 21:22 OP:cam  STATUS:               ID:20160306213906 L   I
 OLDACT:UP  16-03-14 10:32 OP:Ak   STATUS:               ID:20160306213906 L   3
 OLDACT:REG 16-03-07 03:22 OP:dnl  STATUS:               ID:20160306213747     3
 2016-03-06-2137-47M.COL___325                                                 6
 STAT SP IPHASW D HRMM SECON CODA AMPLIT PERI AZIMU VELO AIN AR TRES W  DIS CAZ7
 PTB  HZ IP     D 2139 16.48                             112   -0.1410 55.5 301 
 PTB  HE ES       2139 24.24                             112   -0.0710 55.5 301 
 PTB  HZ I        2139 25.49        26.2 0.18            110           55.5 301 
 SPBC HZ EP       2139 18.55                              61    0.0710 69.7 184 
 SPBC HE ES       2139 27.61                              61   -0.0210 69.7 184 
 SPBC HZ I        2139 28.48        41.8 0.08            105           69.7 184 
 BAR2 EZ EP   2   2139 22.64                              61    0.27 5 99.4  70 
 BAR2 EZ ES   3   2139 34.06                              61   -0.49 2 99.4  70 
 BAR2 EZ I        2139 35.49        12.3 0.10             61           99.4  70 
 RUS  HZ EP     D 2139 24.40                              61    0.0510  113 112 
 RUS  HN ES       2139 37.87                              61   -0.2110  113 112 
 RUS  HZ I        2139 38.99         8.2 0.08             61            113 112 
 HEL  HZ EP       2139 31.28                              61    0.35 9  167 267 
 HEL  HE ES       2139 49.77                              61   -0.02 9  167 267 
 HEL  HZ I        2139 51.43         5.6 0.32             61            167 267 
 PAM  EZ EP   3   2139 34.46                              61    0.77 2  188  51 
 PAM  EE ES   4   2139 56.49                              61    1.79 0  188  51 
 PAM  EZ I        2139 58.31         4.1 0.16             61            188  51 
 GUY2CHZ EP   4   2139 35.18                              61    1.34 0  189 232 
 GUY2CHE ES   3   2139 54.64                              61   -0.32 2  189 232 
 GUY2CHZ I        2139 57.44         1.7 0.30                           189 232 
                                                                                
