 2013  8 6 2232 34.3 L   6.728 -73.196150.9  RSN  4 0.1 1.3LRSN                1
 GAP=226        0.41       3.7     3.9  4.1  0.1050E+02  0.6330E+00 -0.3236E+00E
 Epicentro: VILLANUEVA - SANTANDER                                             3
 ACTION:UPD 14-01-14 08:59 OP:ep   STATUS:               ID:20130806223234 L   I
 OLDACT:REG 13-08-06 22:23 OP:cam  STATUS:               ID:20130806222959     3
 2013-08-06-2229-59M.COL___269                                                 6
 STAT SP IPHASW D HRMM SECON CODA AMPLIT PERI AZIMU VELO AIN AR TRES W  DIS CAZ7
 BRR  HZ EP       2232 55.81                             154   -0.2210 70.8 306 
 BRR  HE ES       2233 13.07                             154    0.1210 70.8 306 
 RUS  HZ EP       2232 58.24                             147    0.1410 93.2 172 
 RUS  HE ES       2233 16.54                             147   -0.0910 93.2 172 
 RUS  HZ I        2233 17.30         2.8 0.26            146           93.2 172 
 PTB  HZ EP       2233  1.22                             135    0.09 9  141 262 
 PTB  HN ES   1   2233 21.96                             135   -0.07 7  141 262 
 PTB  HZ I        2233 24.17         3.0 0.20            133            141 262 
 ZAR  HE ES       2233 32.34                             124   -0.01 9  202 295 
                                                                                
