 2015  6 6 2112 45.4 L   6.803 -73.098144.3  RSN 10 0.4 1.8LRSN                1
 GAP=143        0.84       3.1     4.0  5.5 -0.2513E+01  0.6855E+01 -0.1566E+01E
 Epicentro: LOS SANTOS - SANTANDER                                             3
 ACTION:UPD 15-09-10 22:10 OP:cam  STATUS:               ID:20150606211245 L   I
 OLDACT:DUP 15-06-07 06:03 OP:spq  STATUS:               ID:20150606210751d    3
 OLDACT:REG 15-06-07 03:06 OP:spq  STATUS:               ID:20150606210750     3
 2015-06-06-2107-50M.COL___308                                                 6
 STAT SP IPHASW D HRMM SECON CODA AMPLIT PERI AZIMU VELO AIN AR TRES W  DIS CAZ7
 BAR2 EZ EP   1   2113  4.59                             170   -0.31 7 25.1 202 
 BAR2 EZ ES   1   2113 19.89                             170   -0.20 7 25.1 202 
 BAR2 EZ I        2113 22.03         8.3 0.14            170           25.1 202 
 PAM  SZ EP       2113  7.35                             152    0.0910 73.9  37 
 PAM  SE ES       2113 24.61                             152    0.3110 73.9  37 
 PAM  SZ I        2113 26.98         8.7 0.64            153           73.9  37 
 BRR  HZ EP   1   2113  6.70                             151    0.04 7 75.7 296 
 BRR  HE ES       2113 23.68                             151    0.4510 75.7 296 
 BRR  HZ I        2113 24.22         7.1 0.17            148           75.7 296 
 RUS  HZ EP   1   2113  9.34                             144    0.32 7  101 179 
 RUS  HE ES   1   2113 26.82                             144   -0.62 7  101 179 
 RUS  HZ I        2113 28.28         5.7 0.28            146            101 179 
 OCA  HZ EP       2113 13.69                             129    0.05 9  161 351 
 OCA  HE ES   1   2113 34.87                             129   -0.79 7  161 351 
 OCA  HZ I        2113 39.64        11.8 0.32            129            161 351 
 SPBC HE ES   1   2113 36.46                             128   -0.09 7  167 220 
 SPBC HZ I        2113 38.82         8.6 0.10            129            167 220 
 ZAR  HZ EP       2113 18.87                             121    0.62 8  209 292 
 ZAR  HE ES       2113 43.89                             121    0.02 8  209 292 
 ZAR  HZ I        2113 49.00         6.4 0.44            121            209 292 
 NOR  HZ EP   1   2113 21.24                             118   -0.29 6  239 235 
 NOR  HN ES       2113 49.41                             118   -0.30 8  239 235 
 NOR  HZ I        2113 55.03         4.3 0.20            118            239 235 
 SML  HZ EP   1   2113 21.56                             117   -0.60 6  246 334 
 SML  HE ES   1   2113 50.32                             117   -0.51 6  246 334 
 SML  HZ I        2113 58.74         8.1 0.10            117            246 334 
 GUY2CHZ EP   1   2113 30.11                             112    0.65 5  306 235 
 GUY2CHE ES   4   2114  6.06                             112    2.25 0  306 235 
 GUY2CHZ I        2114  9.67         2.4 0.40                           306 235 
                                                                                
