 2012  7 6 2155  1.6 L   6.761 -73.137146.0  RSN  4 0.4 1.1LRSN                1
 GAP=139        0.64       6.4     8.4  8.7  0.2543E+02  0.7088E+01 -0.3065E+01E
 Epicentro: LOS SANTOS - SANTANDER                                             3
 ACTION:UPD 12-08-14 11:43 OP:ep   STATUS:               ID:20120706215501 L   I
 2012-07-06-2150-00M.COL___201                                                 6
 STAT SP IPHASW D HRMM SECON CODA AMPLIT PERI AZIMU VELO AIN AR TRES W  DIS CAZ7
 BRR  HZ EP       2155 23.09                             152     0.210   74 301 
 BRR  HN ES   1   2155 39.75                             152     0.2 7   74 301 
 PAM  SE ES   3   2155 39.99                             150    -1.5 2   80  37 
 RUS  HZ EP   2   2155 24.97                             145     0.0 5   96 176 
 RUS  HN ES   1   2155 43.36                             145     0.0 7   96 176 
 RUS  HZ I        2155 45.77         1.6 0.28            144             96 176 
 PTB  HZ EP   1   2155 28.34                             132    -0.2 7  148 261 
 PTB  HN ES   2   2155 49.07                             132    -0.5 5  148 261 
 PTB  HZ I        2155 54.98         2.4 0.48            131            148 261 
