 2013  2 6 2053 54.9 L   6.726 -73.180146.1  RSN  5 0.5 1.6LRSN                1
 GAP=135        1.21       6.5     6.3  9.6 -0.4113E+01  0.7235E+01  0.2963E+01E
 Epicentro: VILLANUEVA - SANTANDER                                             3
 ACTION:UPD 13-03-12 09:31 OP:ep   STATUS:               ID:20130206205354 L   I
 2013-02-06-2048-44M.COL___199                                                 6
 STAT SP IPHASW D HRMM SECON CODA AMPLIT PERI AZIMU VELO AIN AR TRES W  DIS CAZ7
 BAR2 SZ ES   1   2054 29.55                             174   -0.08 7 14.8 181 
 BAR2 SZ I        2054 30.37        13.2 0.38            172           14.8 181 
 BRR  HZ EP       2054 16.71                             152    0.5810 72.4 306 
 BRR  HN ES       2054 33.44                             152    0.7410 72.4 306 
 PAM  SZ EP       2054 17.64                             148   -0.0310 86.2  38 
 PAM  SN ES       2054 34.82                             148   -0.6310 86.2  38 
 RUS  HZ EP       2054 18.19                             146    0.0810 92.7 173 
 RUS  HN ES       2054 36.40                             146    0.1710 92.7 173 
 RUS  HN I        2054 38.24         5.7 0.32            145           92.7 173 
 PTB  HZ EP       2054 21.21                             133   -0.20 9  143 262 
 PTB  HN ES       2054 41.33                             133   -0.78 9  143 262 
 PTB  HN I        2054 42.72         4.8 0.32            134            143 262 
                                                                                
