 2013  4 6 2210 46.7 L   6.794 -73.162150.4  RSN  4 0.3 2.0LRSN                1
 GAP=243        0.66      10.6     8.3  8.0  0.7440E+02 -0.2279E+02 -0.3404E+02E
 Epicentro: LOS SANTOS - SANTANDER                                             3
 ACTION:UPD 13-05-22 14:36 OP:EP   STATUS:               ID:20130406221046 L   I
 2013-04-06-2210-00M.COL___245                                                 6
 STAT SP IPHASW D HRMM SECON CODA AMPLIT PERI AZIMU VELO AIN AR TRES W  DIS CAZ7
 RUS  HZ EP       2211 10.71                             145   -0.1910  100 175 
 RUS  HN ES       2211 29.87                             145    0.1210  100 175 
 RUS  HN I        2211 30.88        12.2 0.24            141            100 175 
 PTB  HZ EP       2211 13.66                             133   -0.25 9  146 259 
 PTB  HN ES       2211 34.93                             133   -0.18 9  146 259 
 PTB  HN I        2211 39.78        18.8 0.52            130            146 259 
 ZAR  HN ES   1   2211 45.32                             124    0.55 6  203 292 
 CHI  HZ EP       2211 24.92                             118    0.35 8  248 195 
                                                                                
