 2017  8 6 2345 46.4 L   6.018 -73.269191.3  RSN  5 0.2 2.0LRSN                1
 GAP=130        0.50       3.9     3.0  4.7 -0.6266E+00 -0.9371E+00 -0.1975E+01E
 Epicentro: GAMBITA - SANTANDER                                                3
 ACTION:UPD 17-09-04 20:17 OP:rebc STATUS:               ID:20170806234546 L   I
 OLDACT:REG 17-08-07 02:55 OP:lv   STATUS:               ID:20170806233744     3
 2017-08-06-2338-00M.COL___393                                                 6
 STAT SP IPHASW D HRMM SECON CODA AMPLIT PERI AZIMU VELO AIN AR TRES W  DIS CAZ7
 RUS  HZ EP       2346 12.12                             172    0.2110 24.9 124 
 RUS  HN ES       2346 31.73                             172   -0.0910 24.9 124 
 RUS  HZ I        2346 33.76        28.2 0.04            175           24.9 124 
 BRR  HN ES       2346 39.37                             144    0.2110  130 338 
 BRR  HZ I        2346 43.76        11.0 0.49            145            130 338 
 PTB  HZ EP       2346 17.13                             142    0.09 9  143 294 
 PTB  HN ES       2346 40.79                             142   -0.17 9  143 294 
 PAM  EZ EP       2346 18.66                             139   -0.27 9  159  23 
 NOR  HZ EP   4   2346 23.04                             134    2.60 0  184 254 
 NOR  HN ES       2346 46.98                             134   -0.02 9  184 254 
 NOR  HZ I        2346 52.82         3.4 0.16            135            184 254 
                                                                                
