 2014  1 6 2215 15.4 L   6.493 -73.690 98.9  RSN 12 0.4 2.0LRSN                1
 GAP= 56        1.01       2.9     3.3  6.8 -0.2204E+01  0.1047E+02 -0.2924E+00E
 Epicentro: SANTA HELENA DEL OPON - SANTANDER                                  3
 ACTION:UPD 14-03-13 09:52 OP:ep   STATUS:               ID:20140106221515 L   I
 OLDACT:UP  14-01-07 01:57 OP:mh   STATUS:               ID:20140106221000     3
 OLDACT:UP  14-01-07 01:56 OP:mh   STATUS:               ID:20140106221000     3
 OLDACT:UP  14-01-07 01:54 OP:mh   STATUS:               ID:20140106221000     3
 OLDACT:REG 14-01-06 21:47 OP:mh   STATUS:               ID:20140106221000     3
 2014-01-06-2210-00M.COL___285                                                 6
 STAT SP IPHASW D HRMM SECON CODA AMPLIT PERI AZIMU VELO AIN AR TRES W  DIS CAZ7
 BAR2 SZ EP     C 2215 31.42                             148    0.3110 57.2  79 
 BAR2 SZ ES       2215 43.72                             148    0.3810 57.2  79 
 BAR2 SZ IS       2215 43.75                                           57.2  79 
 BRR  HZ EP       2215 31.46                             143   -0.0610 68.0 358 
 BRR  HN ES       2215 44.30                             143    0.2310 68.0 358 
 BRR  HZ I        2215 45.66        35.0 0.12            142           68.0 358 
 PTB  HZ IP     C 2215 31.94                             136   -0.9510 84.9 274 
 PTB  HZ I        2215 46.78        49.6 0.16            134           84.9 274 
 RUS  HZ EP       2215 34.34                             133   -0.0410 94.5 135 
 RUS  HN ES       2215 48.84                             133   -0.3210 94.5 135 
 RUS  HZ I        2215 51.21        11.1 0.24            138           94.5 135 
 SPBC HZ EP   1   2215 34.17                             131   -0.37 7  102 204 
 SPBC HN ES   1   2215 49.57                             131    0.13 7  102 204 
 SPBC HZ I        2215 51.36        22.5 0.15            131            102 204 
 PAM  SZ EP       2215 39.32                             121    0.05 9  144  49 
 PAM  SE ES   1   2215 57.51                             121   -0.37 7  144  49 
 PAM  SZ I        2215 59.31        10.1 0.22            123            144  49 
 NOR  HZ EP       2215 40.80                             117   -0.30 9  166 232 
 NOR  HN ES       2216  0.42                             117   -0.71 9  166 232 
 NOR  HZ I        2216  5.90        14.4 0.15            116            166 232 
 ZAR  HZ EP       2215 41.54                             116    0.08 9  170 311 
 ZAR  HN ES   4   2216  3.02                             116    1.25 0  170 311 
 CHI  HZ EP   1   2215 46.22                             111    0.15 6  206 181 
 CHI  HN ES   1   2216 10.90                             111    0.93 6  206 181 
 HEL  HZ EP       2215 46.42                             111    0.41 8  206 261 
 HEL  HN ES   1   2216 10.59                             111    0.71 6  206 261 
 HEL  HZ I        2216 15.75         8.6 0.24            110            206 261 
 GUY2CHZ EP   1   2215 50.03                             109    0.82 6  233 233 
 GUY2CHN ES   1   2216 15.90                             109    0.34 6  233 233 
 GUY2CHZ I        2216 23.28         8.0 0.35                           233 233 
 SML  HZ EP   1   2215 51.67                             107   -0.01 6  259 351 
 SML  HN ES   2   2216 20.16                             107    0.19 4  259 351 
 SML  HZ I        2216 24.65        17.4 0.06            105            259 351 
                                                                                
