 2017  7 6 2124 11.7 L   6.808 -73.173142.1  RSN 11 0.4 2.2LRSN                1
 GAP=109        1.03       3.9     3.5  6.7 -0.8853E+00  0.2713E+01  0.8568E+01E
 Epicentro: LOS SANTOS - SANTANDER                                             3
 ACTION:UPD 17-08-30 15:30 OP:rebc STATUS:               ID:20170706212411 L   I
 OLDACT:REG 17-07-07 03:14 OP:dhb  STATUS:               ID:20170706211740     3
 2017-07-06-2118-00M.COL___383                                                 6
 STAT SP IPHASW D HRMM SECON CODA AMPLIT PERI AZIMU VELO AIN AR TRES W  DIS CAZ7
 BAR2 EZ EP       2124 30.75                             170   -0.1710 23.9 183 
 BAR2 EZ I        2124 46.76        48.4 0.28            168           23.9 183 
 BRR  HZ IP     C 2124 32.33                             153    0.0310 68.1 299 
 BRR  HE ES       2124 48.87                             153    0.5210 68.1 299 
 BRR  HZ I        2124 50.52        49.4 0.22            156           68.1 299 
 PAM  EZ IP     C 2124 33.60                             150   -0.0210 78.6  42 
 PAM  EN ES       2124 50.57                             150   -0.1310 78.6  42 
 PAM  EZ I        2124 53.30        20.7 0.44            152           78.6  42 
 PTB  HZ EP       2124 37.26                             132   -0.88 9  145 258 
 PTB  HN ES       2124 58.26                             132   -0.49 9  145 258 
 PTB  HZ I        2125  0.24         9.8 0.14            134            145 258 
 SPBC HZ EP       2124 39.48                             128   -0.35 9  162 218 
 SPBC HN ES       2125  1.69                             128   -0.07 9  162 218 
 SPBC HZ I        2125  6.62        30.6 0.22            129            162 218 
 YPLC HZ IP     D 2124 41.06                             125   -0.41 9  179 151 
 YPLC HE ES       2125  5.24                             125    0.56 9  179 151 
 YPLC HZ I        2125  9.45         7.3 0.28            126            179 151 
 ZAR  HZ EP       2124 44.17                             122    0.57 9  201 292 
 ZAR  HN ES       2125  8.60                             122    0.13 9  201 292 
 ZAR  HZ I        2125 14.11        17.9 0.13            125            201 292 
 TABC EZ EP   9   2124 48.97                             119    1.80 0  229 210 
 TABC EZ ES       2125 16.39                                   -0.24 8  229 210 
 TABC EZ I        2125 22.16        18.7 0.40            120            229 210 
 NOR  HZ EP       2124 46.73                             118   -0.30 8  233 234 
 NOR  HN ES       2125 14.57                             118   -0.01 8  233 234 
 NOR  HZ I        2125 16.22         9.1 0.26            119            233 234 
 GUY2CHZ EP       2124 55.94                             112    1.00 7  299 234 
 GUY2CHN ES       2125 29.07                             112    0.41 7  299 234 
 GUY2CHZ I        2125 37.05         7.1 0.56                           299 234 
 ORTC HZ EP       2125  5.89                             106    0.50 6  394 216 
 ORTC HN ES   4   2125 48.55                             106    1.29 0  394 216 
 ORTC HZ I        2125 54.73         3.8 0.52            107            394 216 
                                                                                
