 2011  1 6 2134 57.4 L   6.737 -73.053141.9  RSN  5 0.4 1.9LRSN                1
 GAP=170        1.16       7.4    33.2 12.4 -0.1225E+03 -0.1278E+03  0.1176E+01E
 Epicentro: ARATOCA - SANTANDER                                                3
 ACTION:UP  11-02-08 08:39 OP:pat  STATUS:               ID:20110106213457 L   I
 2011-01-06-2120-00M.COL___137                                                 6
 STAT SP IPHASW D HRMM SECON CODA AMPLIT PERI AZIMU VELO SNR AR TRES W  DIS CAZ7
 BAR2 SZ EP       2135 16.01                             171    -0.510   22 222 
 BAR2 SZ ES   1   2135 31.35                             171    -0.1 7   22 222 
 BAR2 SZ I        2135 32.27        22.2 0.62                            22 222 
 BTL  SZ EP       2135 17.52                             167     0.810   31 310 
 GIR2 SZ EP   1   2135 16.23                             163    -0.7 7   41 338 
 GIR2 SZ ES   2   2135 32.21                             163     0.1 5   41 338 
 RUS  HZ EP       2135 20.18                             145    -0.110   93 182 
 RUS  HN ES   1   2135 38.46                             145     0.3 7   93 182 
 RUS  HZ I        2135 40.00        12.1 0.47                            93 182 
 GRA  SZ EP       2135 22.91                             135     0.210  130  12 
 GRA  SZ ES   1   2135 42.19                             135    -0.2 7  130  12 
 GRA  SZ I        2135 43.56        13.9 0.27                           130  12 
                                                                                
