 2013  1 6 2355 26.7 L   6.789 -73.136146.7  RSN  8 0.4 1.9LRSN                1
 GAP=238        0.78       5.5     6.8  6.3  0.2063E+02  0.1209E+02  0.8261E+01E
 Epicentro: LOS SANTOS - SANTANDER                                             3
 ACTION:UPD 13-02-15 09:12 OP:ep   STATUS:               ID:20130106235526 L   I
 2013-01-06-2350-00M.COL___242                                                 6
 STAT SP IPHASW D HRMM SECON CODA AMPLIT PERI AZIMU VELO AIN AR TRES W  DIS CAZ7
 BAR2 SZ EP   1   2355 46.33                             171   -0.06 7 22.3 193 
 BAR2 SZ ES   1   2356  1.61                             171   -0.17 7 22.3 193 
 BAR2 SZ I        2356  4.25        21.1 0.16            160           22.3 193 
 BRR  HZ EP   1   2355 48.27                             152    0.26 7 72.7 299 
 BRR  HN ES   1   2356  5.35                             152    0.70 7 72.7 299 
 BRR  HZ I        2356 10.00        14.2 0.14            133           72.7 299 
 RUS  HZ EP   1   2355 50.13                             144   -0.29 7 99.2 177 
 RUS  HN ES   1   2356  8.82                             144   -0.12 7 99.2 177 
 RUS  HZ I        2356 10.16         5.5 0.42            125           99.2 177 
 PTB  HZ EP   1   2355 53.19                             132   -0.60 7  149 259 
 PTB  HN ES   1   2356 14.53                             132   -0.41 7  149 259 
 PTB  HZ I        2356 19.65        13.6 0.24            113            149 259 
 ZAR  HZ EP   1   2355 58.74                             122   -0.59 6  206 292 
 ZAR  HE ES   1   2356 24.76                             122   -0.04 6  206 292 
 ZAR  HZ I        2356 30.77        12.9 0.38            106            206 292 
 CHI  HZ EP   1   2356  4.65                             117    0.33 6  248 195 
 CHI  HN ES   1   2356 33.77                             117    0.09 6  248 195 
 CHI  HZ I        2356 37.73         3.8 0.42            103            248 195 
 ROSC BZ EP   1   2356  5.23                             117    0.45 6  252 211 
 ROSC BZ I        2356 42.36        10.6 0.55            103            252 211 
 HEL  HZ EP   1   2356  7.85                             115    0.84 6  273 256 
 HEL  HZ I        2356 45.09         4.0 0.30            102            273 256 
                                                                                
