 2012  2 6 2247  3.2 L   6.739 -73.233137.2  RSN  4 0.4 1.1LRSN                1
 GAP=213        0.76       7.2     7.1  8.0  0.2423E+02  0.7037E+01  0.3245E+00E
 ACTION:UP  12-03-07 16:28 OP:epov STATUS:               ID:20120206224703 L   I
 2012-02-06-2240-00M.COL___188                                                 6
 STAT SP IPHASW D HRMM SECON CODA AMPLIT PERI AZIMU VELO SNR AR TRES W  DIS CAZ7
 BAR2 SZ EP   1   2247 20.82                             173   -0.82 7 17.1 161 
 BAR2 SZ ES   1 D 2247 35.87                             173   -0.19 7 17.1 161 
 BAR2 SZ I        2247 37.52         4.1 0.41                          17.1 161 
 BRR  HZ EP       2247 23.37                             152    0.2410 66.8 308 
 BRR  HE ES   1   2247 38.99                             152    0.28 7 66.8 308 
 RUS  HZ EP   1   2247 25.94                             144    0.28 7 95.0 170 
 RUS  HN ES   1   2247 43.48                             144    0.26 7 95.0 170 
 RUS  HZ I        2247 46.19         1.9 0.40                          95.0 170 
 PTB  HZ EP   1   2247 28.48                             132    0.03 7  137 261 
 PTB  HE ES   1   2247 47.89                             132   -0.29 7  137 261 
                                                                                
