 2016  6 6 2157 36.9 L   6.793 -73.108147.2  RSN  6 0.2 1.8LRSN                1
 GAP=142        0.56       2.7     3.8  3.9 -0.3709E+01  0.2749E+00  0.9412E+00E
 Epicentro: LOS SANTOS - SANTANDER                                             3
 ACTION:UPD 16-07-21 22:16 OP:rebc STATUS:               ID:20160606215736 L   I
 OLDACT:REG 16-06-07 03:24 OP:ar   STATUS:               ID:20160606214742     3
 2016-06-06-2147-42M.COL___334                                                 6
 STAT SP IPHASW D HRMM SECON CODA AMPLIT PERI AZIMU VELO AIN AR TRES W  DIS CAZ7
 BAR2 EZ EP       2157 56.57                             170   -0.0910 23.7 200 
 BAR2 EZ ES       2158 11.79                             170   -0.3210 23.7 200 
 BAR2 EZ I        2158 12.41        14.5 0.38                          23.7 200 
 BRR  HZ EP       2157 58.22                             151   -0.1610 75.2 297 
 BRR  HN ES       2158 15.28                             151    0.1010 75.2 297 
 BRR  HZ I        2158 16.12        12.1 0.46                          75.2 297 
 PAM  EZ EP       2157 59.39                             152    0.2910 75.4  37 
 PAM  EN ES       2158 16.55                             152    0.1010 75.4  37 
 PAM  EZ I        2158 18.53         8.7 0.60                          75.4  37 
 RUS  HZ EP       2158  0.45                             144   -0.2310 99.7 178 
 RUS  HE ES       2158 19.46                             144    0.2010 99.7 178 
 RUS  HZ I        2158 20.49         4.1 0.30                          99.7 178 
 SPBC HZ EP       2158  5.64                             129   -0.02 9  165 220 
 SPBC HN ES       2158 28.28                             129    0.15 9  165 220 
 SPBC HZ I        2158 32.02        11.7 0.44                           165 220 
 ROSC BZ EP   9   2158 17.36                             117    2.14 0  254 212 
 ROSC BN ES       2158 47.61                                    0.33 8  254 212 
 ROSC BZ I        2158 50.90        10.7 0.50                           254 212 
                                                                                
