 2013 11 6 2037 14.4 L   6.811 -73.158146.3  RSN 13 0.5 2.5LRSN 2.8WRSN        1
 SPEC AVERAGE  MO 13.3 ST 19.5 OM  1.8 f0 6.96 R0.3339 AL 0.00 WI 20.0 MW  2.8 3
 SPEC SD       MO  0.2 ST 38.4 OM  0.3 f0 4.42 R0.2637 AL      WI      MW  0.2 3
 GAP=134        1.13       3.0     4.2  5.8 -0.3357E+01  0.7937E+01 -0.2220E+01E
 Epicentro: LOS SANTOS - SANTANDER                                             3
 SPEC BAR2SH Z MO 13.7 ST  1.3 OM  2.1 f0 2.86 R0.5434 AL-0.00 WI 20.0 MW  3.1 3
 SPEC BAR2SH Z T203747 K 0.000 GD  148 VS 4.20 DE 3.20 Q0300.0 QA 0.60 VS 4.20 3
 SPEC BRR HH Z MO 13.2 ST  4.0 OM  1.6 f0 5.98 R0.2599 AL-0.00 WI 20.0 MW  2.7 3
 SPEC BRR HH Z T203751 K 0.000 GD  161 VS 4.20 DE 3.20 Q0300.0 QA 0.60 VS 4.20 3
 SPEC PAM SH Z MO 13.2 ST0.528 OM  1.6 f0 3.02 R0.5146 AL-0.00 WI 20.0 MW  2.8 3
 SPEC PAM SH Z T203752 K 0.000 GD  165 VS 4.20 DE 3.20 Q0300.0 QA 0.60 VS 4.20 3
 SPEC RUS HH Z MO 13.4 ST0.170 OM  1.8 f0 1.73 R0.8983 AL-0.00 WI 20.0 MW  2.9 3
 SPEC RUS HH Z T203754 K 0.000 GD  178 VS 4.20 DE 3.20 Q0300.0 QA 0.60 VS 4.20 3
 SPEC PTB HH Z MO 13.1 ST 31.8 OM  1.4 f0 12.8 R0.1214 AL-0.00 WI 20.0 MW  2.7 3
 SPEC PTB HH Z T203760 K 0.000 GD  207 VS 4.20 DE 3.20 Q0300.0 QA 0.60 VS 4.20 3
 SPEC SPBCHH Z MO 13.4 ST 12.3 OM  1.7 f0 7.27 R0.2138 AL-0.00 WI 20.0 MW  2.9 3
 SPEC SPBCHH Z T2038 3 K 0.000 GD  219 VS 4.20 DE 3.20 Q0300.0 QA 0.60 VS 4.20 3
 SPEC ZAR HH Z MO 13.3 ST 11.8 OM  1.5 f0 8.01 R0.1940 AL-0.00 WI 20.0 MW  2.8 3
 SPEC ZAR HH Z T203810 K 0.000 GD  249 VS 4.20 DE 3.20 Q0300.0 QA 0.60 VS 4.20 3
 SPEC NOR HH Z MO 13.2 ST  4.5 OM  1.4 f0 6.08 R0.2556 AL-0.00 WI 20.0 MW  2.8 3
 SPEC NOR HH Z T203816 K 0.000 GD  275 VS 4.20 DE 3.20 Q0300.0 QA 0.60 VS 4.20 3
 SPEC SML HH Z MO 13.4 ST136.8 OM  1.6 f0 16.1 R0.0965 AL-0.00 WI 20.0 MW  2.9 3
 SPEC SML HH Z T203818 K 0.000 GD  282 VS 4.20 DE 3.20 Q0300.0 QA 0.60 VS 4.20 3
 SPEC HEL HH Z MO 13.3 ST  1.3 OM  1.4 f0 3.88 R0.4005 AL-0.00 WI 20.0 MW  2.8 3
 SPEC HEL HH Z T203823 K 0.000 GD  307 VS 4.20 DE 3.20 Q0300.0 QA 0.60 VS 4.20 3
 SPECGUY2CHH Z MO 13.8 ST  0.5 OM  1.9 f0 1.88 R 0.825 AL-0.00 WI 20.0 MW  3.1 3
 SPECGUY2CHH Z T203830 K       GD334.7 VS 4.20 DE 3.20 Q0300.0 QA 0.60 VS 4.20 3
 SPEC COD HH Z MO 13.1 ST  9.7 OM  1.1 f0 8.88 R0.1750 AL-0.00 WI 20.0 MW  2.7 3
 SPEC COD HH Z T203837 K 0.000 GD  376 VS 4.20 DE 3.20 Q0300.0 QA 0.60 VS 4.20 3
 OLDACT:REG 13-11-07 01:50 OP:carl STATUS:               ID:20131106203548     3
 ACTION:UPD 14-01-09 16:26 OP:ep   STATUS:               ID:20131106203714 L   I
 OLDACT:UP  13-11-07 01:55 OP:carl STATUS:               ID:20131106203548     3
 2013-11-06-2035-48M.COL___209                                                 6
 STAT SP IPHASW D HRMM SECON CODA AMPLIT PERI AZIMU VELO AIN AR TRES W  DIS CAZ7
 BAR2 SZ IP     C 2037 34.28                             170    0.2010 24.3 186 
 BAR2 SZ ES       2037 48.91                             170   -0.5510 24.3 186 
 BAR2 SZ I        2038 15.25       322.3 1.00            172           24.3 186 
 BRR  HZ EP       2037 36.17                             153    0.6910 69.4 298 
 BRR  HN ES       2037 52.66                             153    0.7210 69.4 298 
 BRR  HZ I        2037 57.16        40.4 0.54            155           69.4 298 
 BRR  SZ I        2037 59.74        37.1 0.14                          69.4 298 
 PAM  SZ IP     C 2037 37.06                             151    0.4210 77.4  41 
 PAM  SN ES       2037 54.36                             151    0.3510 77.4  41 
 PAM  SZ I        2037 56.25        44.3 0.30            158           77.4  41 
 RUS  HZ IP     D 2037 38.15                             144   -0.1210  102 175 
 RUS  HN ES       2037 56.41                             144   -0.4910  102 175 
 RUS  SZ I        2037 57.88        27.8 0.32            151            102 175 
 PTB  HZ EP       2037 41.04                             132   -0.24 9  147 258 
 PTB  HN ES       2038  1.95                             132   -0.32 9  147 258 
 PTB  SZ I        2038  7.81        35.8 0.52            138            147 258 
 OCA  HN ES       2038  4.10                             130   -0.51 9  159 354 
 SPBC HZ EP       2037 43.27                             129    0.35 9  163 218 
 SPBC HN ES       2038  4.61                             129   -0.57 9  163 218 
 SPBC SZ I        2038 10.28        64.1 0.40            136            163 218 
 ZAR  HZ EP       2037 47.15                             123    0.48 9  202 292 
 ZAR  HN ES       2038 11.99                             123    0.12 9  202 292 
 ZAR  SZ I        2038 18.27        39.7 0.34            128            202 292 
 NOR  HZ EP       2037 50.17                             119    0.08 8  234 234 
 NOR  HN ES       2038 17.77                             119   -0.17 8  234 234 
 NOR  SZ I        2038 25.28        23.1 0.22            125            234 234 
 SML  HZ EP       2037 50.42                             118   -0.43 8  242 335 
 SML  HN ES       2038 19.67                             118    0.37 8  242 335 
 SML  SZ I        2038 25.61        68.8 0.08            124            242 335 
 HEL  HZ EP   1   2037 54.53                             115    0.03 6  271 255 
 HEL  HN ES       2038 25.23                             115   -0.56 8  271 255 
 HEL  SZ I        2038 32.94        14.4 0.40            121            271 255 
 GUY2CHZ EP       2037 58.64                             112    0.68 7  301 234 
 GUY2CHN ES       2038 32.44                             112    0.49 7  301 234 
 GUY2CSZ I        2038 40.77        18.9 0.38                           301 234 
 COD  HZ EP       2038  1.65                             109   -0.97 6  347 355 
 COD  HN ES       2038 39.41                             109   -0.84 6  347 355 
 COD  SZ I        2038 45.99         4.8 0.20            115            347 355 
                                                                                
