 2012  3 6 2031  9.7 L   6.739 -73.135144.4  RSN  5 0.3 1.7LRSN                1
 GAP=141        0.77       5.4     5.3  8.2 -0.1870E+01  0.9132E+01  0.6591E+00E
 ACTION:UP  12-03-31 23:17 OP:EP   STATUS:               ID:20120306203109 L   I
 2012-03-06-2030-00M.COL___193                                                 6
 STAT SP IPHASW D HRMM SECON CODA AMPLIT PERI AZIMU VELO SNR AR TRES W  DIS CAZ7
 BRR  HZ EP   1   2031 30.95                             151     0.0 7   76 303 
 BRR  HN ES   1   2031 48.12                             151     0.6 7   76 303 
 PAM  SZ EP   1   2031 32.06                             149     0.0 7   82  36 
 PAM  SN ES   1   2031 49.10                             149    -0.4 7   82  36 
 PAM  SZ I        2031 50.83         4.4 0.18                            82  36 
 RUS  HZ EP   1   2031 33.15                             145     0.3 7   94 177 
 RUS  HN ES   1   2031 50.90                             145     0.0 7   94 177 
 RUS  HZ I        2031 53.37         6.0 0.26                            94 177 
 PTB  HZ EP   1   2031 36.16                             132    -0.4 7  148 261 
 PTB  HN ES   1   2031 57.08                             132    -0.4 7  148 261 
 ZAR  HZ EP   1   2031 42.76                             122     0.3 6  208 294 
 ZAR  HZ I        2032 12.99         9.2 0.32                           208 294 
                                                                                
