 2016  3 6 2115 51.3 L   6.809 -73.173144.2  RSN 10 0.3 2.0LRSN                1
 GAP=133        0.50       2.5     2.8  5.2 -0.2200E+01  0.4217E+01  0.5984E+00E
 Epicentro: LOS SANTOS - SANTANDER                                             3
 ACTION:UPD 16-05-13 21:22 OP:cam  STATUS:               ID:20160306211551 L   I
 OLDACT:REG 16-03-07 03:22 OP:dnl  STATUS:               ID:20160306210750     3
 2016-03-06-2107-50M.COL___325                                                 6
 STAT SP IPHASW D HRMM SECON CODA AMPLIT PERI AZIMU VELO AIN AR TRES W  DIS CAZ7
 BAR2 EZ EP   2   2116 10.72                             170    0.02 5 24.0 182 
 BAR2 EZ ES   2   2116 25.39                             170   -0.48 5 24.0 182 
 BAR2 EZ I        2116 29.01        12.2 0.26            170           24.0 182 
 PAM  EZ EP       2116 13.44                             150    0.0710 78.6  42 
 PAM  EN ES       2116 30.80                             150    0.1810 78.6  42 
 PAM  EZ I        2116 33.12        11.5 0.58            152           78.6  42 
 RUS  HZ EP   2   2116 14.32                             143   -0.61 5  102 174 
 RUS  HN ES       2116 33.52                             143    0.1110  102 174 
 RUS  HZ I        2116 34.99        11.2 0.36            145            102 174 
 PTB  HN ES       2116 38.42                             132   -0.15 9  145 258 
 PTB  HZ I        2116 40.95        12.9 0.14            131            145 258 
 OCA  HE ES   2   2116 40.52                             129   -0.68 5  159 354 
 OCA  HZ I        2116 45.57        21.4 0.30            129            159 354 
 SPBC HZ EP   2   2116 19.73                             129    0.21 5  162 218 
 SPBC HN ES   2   2116 41.49                             129   -0.08 5  162 218 
 SPBC HZ I        2116 43.54        18.3 0.10            129            162 218 
 ZAR  HE ES   2   2116 48.70                             122    0.47 4  201 292 
 ZAR  HZ I        2116 57.58         8.2 0.13            122            201 292 
 NOR  HZ EP   2   2116 27.02                             118    0.34 4  233 234 
 NOR  HE ES   2   2116 54.51                             118    0.19 4  233 234 
 NOR  HZ I        2116 58.35         7.3 0.15            118            233 234 
 CHI  HZ EP   2   2116 28.51                             117   -0.37 4  249 194 
 CHI  HN ES   2   2116 57.93                             117   -0.30 4  249 194 
 CHI  HZ I        2117  6.37         3.5 0.48            118            249 194 
 GUY2CHZ EP   4   2116 36.08                             112    1.51 0  299 234 
 GUY2CHE ES   2   2117  9.03                             112    0.67 4  299 234 
 GUY2CHZ I        2117 16.02         5.4 0.26                           299 234 
                                                                                
