 2014 10 6 2228 46.1 L   6.809 -73.152145.9  RSN  8 0.5 2.1LRSN                1
 GAP=135        1.23       4.7     5.4  7.2  0.3949E+01  0.8479E+01 -0.2310E+01E
 Epicentro: LOS SANTOS - SANTANDER                                             3
 ACTION:UPD 14-11-29 23:47 OP:nd   STATUS:               ID:20141006222846 L   I
 OLDACT:UP  14-10-07 05:06 OP:cam  STATUS:               ID:20141006222745     3
 OLDACT:UP  14-10-07 05:06 OP:cam  STATUS:               ID:20141006222745     3
 OLDACT:REG 14-10-07 05:02 OP:cam  STATUS:               ID:20141006222745     3
 2014-10-06-2227-45M.COL___262                                                 6
 STAT SP IPHASW D HRMM SECON CODA AMPLIT PERI AZIMU VELO AIN AR TRES W  DIS CAZ7
 BAR2 SZ EP     D 2229  5.87                             170    0.0810 24.2 188 
 BAR2 SZ ES       2229 20.28                             170   -0.8510 24.2 188 
 BAR2 SZ I        2229 23.97        19.3 0.18            172           24.2 188 
 BRR  HZ IP     C 2229  7.65                             153    0.4310 70.1 298 
 BRR  HN ES       2229 24.58                             153    0.9010 70.1 298 
 BRR  HZ I        2229 26.99        25.6 0.18            151           70.1 298 
 PAM  SZ EP       2229  8.64                             151    0.3010 77.1  40 
 PAM  SN ES       2229 25.68                             151    0.0210 77.1  40 
 PAM  SZ I        2229 26.32        13.3 0.18            152           77.1  40 
 RUS  HZ EP       2229  9.90                             144   -0.0610  102 176 
 RUS  HN ES       2229 28.68                             144    0.1210  102 176 
 RUS  HZ I        2229 29.85        10.7 0.26            147            102 176 
 PTB  HZ EP       2229 12.46                             132   -0.60 9  147 258 
 PTB  HN ES       2229 33.58                             132   -0.48 9  147 258 
 PTB  HZ I        2229 35.38        16.7 0.20            133            147 258 
 ZAR  HZ EP       2229 18.64                             123    0.17 9  203 292 
 ZAR  HE ES       2229 44.15                             123    0.45 9  203 292 
 ZAR  HZ I        2229 49.53        19.1 0.66            123            203 292 
 SML  HZ EP       2229 22.01                             118   -0.61 8  242 335 
 SML  HN ES       2229 50.52                             118   -0.58 8  242 335 
 SML  HZ I        2229 59.55        15.5 0.30            118            242 335 
 CHI  HZ EP       2229 24.40                             117    0.49 8  249 195 
                                                                                
