 2013 11 6 2106 36.0 L   6.804 -73.164145.7  RSN 10 0.3 2.3LRSN                1
 GAP=134        0.73       2.3     2.9  4.0 -0.1177E+01  0.3824E+01 -0.1431E+01E
 Epicentro: LOS SANTOS - SANTANDER                                             3
 ACTION:UPD 14-01-09 16:26 OP:ep   STATUS:               ID:20131106210636 L   I
 OLDACT:REG 13-11-07 01:31 OP:carl STATUS:               ID:20131106205848     3
 2013-11-06-2058-48M.COL___209                                                 6
 STAT SP IPHASW D HRMM SECON CODA AMPLIT PERI AZIMU VELO AIN AR TRES W  DIS CAZ7
 BAR2 SZ EP       21 6 55.75                             170    0.1310 23.5 185 
 BAR2 SZ ES       21 7 11.07                             170    0.1410 23.5 185 
 BAR2 SZ I        21 7 12.37        54.1 0.36            171           23.5 185 
 BRR  HZ EP       21 6 57.34                             153    0.3110 69.2 299 
 BRR  HN ES       21 7 13.49                             153    0.0610 69.2 299 
 PAM  SZ IP     C 21 6 58.52                             150    0.2610 78.3  41 
 PAM  SN ES       21 7 15.85                             150    0.2310 78.3  41 
 PAM  SZ I        21 7 17.88        23.7 0.22            154           78.3  41 
 RUS  HZ EP       21 6 59.60                             144   -0.1910  101 175 
 RUS  HN ES       21 7 17.94                             144   -0.4010  101 175 
 RUS  HZ I        21 7 19.45        14.1 0.42            148            101 175 
 PTB  HZ EP       21 7  2.60                             132   -0.19 9  146 258 
 PTB  HN ES       21 7 23.32                             132   -0.37 9  146 258 
 PTB  HZ I        21 7 31.33        18.4 0.28            133            146 258 
 ZAR  HZ EP       21 7  8.10                             123   -0.13 9  202 292 
 ZAR  HN ES       21 7 33.69                             123    0.32 9  202 292 
 ZAR  HZ I        21 7 39.48        23.5 0.70            123            202 292 
 NOR  HZ EP       21 7 11.71                             119    0.13 8  233 234 
 NOR  HN ES       21 7 39.03                             119   -0.30 8  233 234 
 NOR  HZ I        21 7 43.52        12.4 0.22            120            233 234 
 SML  HZ EP       21 7 12.27                             118   -0.22 8  242 336 
 SML  HN ES       21 7 40.77                             118   -0.17 8  242 336 
 SML  HZ I        21 7 47.09        38.1 0.10            119            242 336 
 GUY2CHZ EP       21 7 20.29                             112    0.84 7  300 234 
 GUY2CHE ES       21 7 53.53                             112    0.19 7  300 234 
 GUY2CHZ I        21 8  2.41         9.3 0.40                           300 234 
 COD  HZ EP   1   21 7 23.54                             109   -0.76 5  348 355 
 COD  HN ES       21 8  1.55                             109   -0.42 6  348 355 
                                                                                
