 2013  1 6 2230 12.5 L   6.746 -73.179145.8  RSN  6 0.4 1.5LRSN                1
 GAP=229        0.76       7.3     7.1  7.3  0.3232E+02  0.1092E+02  0.1056E+02E
 Epicentro: VILLANUEVA - SANTANDER                                             3
 ACTION:UPD 13-02-15 09:12 OP:ep   STATUS:               ID:20130106223012 L   I
 2013-01-06-2230-00M.COL___242                                                 6
 STAT SP IPHASW D HRMM SECON CODA AMPLIT PERI AZIMU VELO AIN AR TRES W  DIS CAZ7
 BAR2 SZ EP   1   2230 31.68                             173   -0.38 7 17.0 181 
 BAR2 SZ ES   1   2230 46.91                             173   -0.37 7 17.0 181 
 BAR2 SZ I        2230 47.81        13.4 0.36            155           17.0 181 
 BRR  HZ EP   1   2230 33.63                             153   -0.05 7 71.2 304 
 BRR  HN ES   1   2230 50.81                             153    0.63 7 71.2 304 
 BRR  HZ I        2230 53.92         7.1 0.26            139           71.2 304 
 RUS  HZ EP   1   2230 35.89                             145    0.00 7 94.9 174 
 RUS  HN ES   1   2230 54.40                             145    0.30 7 94.9 174 
 RUS  HZ I        2230 55.22         4.5 0.30            122           94.9 174 
 PTB  HZ EP   1   2230 38.70                             133   -0.38 7  143 261 
 PTB  HN ES   1   2230 59.36                             133   -0.43 7  143 261 
 PTB  HZ I        2231  2.50         4.4 0.16            114            143 261 
 ZAR  HE ES   1   2231 10.35                             123    0.25 6  203 294 
 ZAR  HZ I        2231 16.86         3.2 0.28            107            203 294 
 CHI  HZ EP   1   2230 50.13                             118    0.63 6  242 195 
 CHI  HZ I        2231 27.40         1.6 0.40            103            242 195 
                                                                                
