 2011 11 6 2302 22.0 L   6.775 -73.088138.7  RSN  5 0.2 1.4LRSN                1
 GAP=145        0.38       3.8     4.2  6.0  0.3044E+01  0.3310E+01 -0.3972E+00E
 Epicentro: LOS SANTOS - SANTANDER                                             3
 ACTION:UPD 12-07-13 16:08 OP:ep   STATUS:               ID:20111106230222 L   I
 2011-11-06-2300-16S.COL___175                                                 6
 STAT SP IPHASW D HRMM SECON CODA AMPLIT PERI AZIMU VELO AIN AR TRES W  DIS CAZ7
 BAR2 SZ EP   2   23 2 40.67                             170   -0.13 5 22.8 207 
 BAR2 SZ ES   2   23 2 54.98                             170   -0.46 5 22.8 207 
 BAR2 SZ I        23 2 57.09         5.5 0.34                          22.8 207 
 PAM  SZ EP   2   23 2 43.38                             150   -0.02 5 75.7  34 
 PAM  SN ES   2   23 3  0.17                             150    0.11 5 75.7  34 
 BRR  HZ EP   2   23 2 42.73                             149   -0.11 5 78.1 298 
 BRR  HZ I        23 2 57.88         6.9 0.45                          78.1 298 
 BRR  HN ES   2   23 2 59.43                             149    0.36 5 78.1 298 
 RUS  HZ EP   2   23 2 45.00                             143    0.12 5 97.6 180 
 RUS  HZ I        23 3  2.56         2.4 0.49                          97.6 180 
 RUS  HN ES   2   23 3  2.90                             143    0.21 5 97.6 180 
 ZAR  HN ES   2   23 3 20.18                             120   -0.11 4  211 292 
 ZAR  HZ I        23 3 30.34         2.4 0.12                           211 292 
                                                                                
