 2015  8 6 2356  1.6 L   6.510 -73.520110.7  RSN 10 0.5 2.0LRSN                1
 GAP= 90        1.24       3.6     5.0  8.1 -0.5160E+01  0.2327E+02 -0.5974E+01E
 Epicentro: EL CARMEN - SANTANDER                                              3
 ACTION:UPD 15-09-15 23:00 OP:cam  STATUS:               ID:20150806235601 L   I
 OLDACT:REG 15-08-07 03:54 OP:stll STATUS:               ID:20150806234747     3
 2015-08-06-2347-47M.COL___355                                                 6
 STAT SP IPHASW D HRMM SECON CODA AMPLIT PERI AZIMU VELO AIN AR TRES W  DIS CAZ7
 BAR2 EZ EP     C 2356 18.02                             160    0.4210 38.4  76 
 BAR2 EZ ES       2356 29.95                             160   -0.0910 38.4  76 
 BAR2 EZ I        2356 31.59        52.4 0.44            162           38.4  76 
 BRR  HZ EP       2356 18.61                             145   -0.4010 69.4 342 
 BRR  HN ES       2356 32.54                             145   -0.0110 69.4 342 
 BRR  HZ I        2356 33.11        13.5 0.38            143           69.4 342 
 RUS  HN ES       2356 35.79                             140    0.1510 83.6 145 
 CPBEREZ EP       2356 20.61                             133   -1.1510  104 272 
 NOR  HZ EP       2356 29.62                             116   -0.12 9  182 235 
 NOR  HE ES       2356 51.34                             116   -0.31 9  182 235 
 NOR  HZ I        2356 55.11        10.6 0.18            117            182 235 
 ZAR  HZ EP       2356 29.82                             116    0.02 9  183 306 
 ZAR  HN ES       2356 52.36                             116    0.60 9  183 306 
 ZAR  HZ I        2356 54.68        13.9 0.44            116            183 306 
 OCA  HZ EP       2356 30.81                             115   -0.17 9  193   7 
 OCA  HE ES       2356 54.56                             115    0.70 9  193   7 
 OCA  HZ I        2356 59.52        19.8 0.28            115            193   7 
 HEL  HZ EP       2356 35.64                             111    0.74 8  225 261 
 HEL  HE ES       2357  1.08                             111    0.24 8  225 261 
 HEL  HZ I        2357  6.16         5.3 0.24            111            225 261 
 GUY2CHZ EP       2356 38.67                             109    0.90 8  249 235 
 GUY2CHN ES       2357  5.85                             109   -0.10 8  249 235 
 GUY2CHZ I        2357 15.96         4.4 0.60                           249 235 
 SML  HZ EP       2356 37.79                             107   -0.74 8  261 347 
 SML  HE ES       2357  6.96                             107   -0.34 8  261 347 
 SML  HZ I        2357 15.67        13.4 0.10            107            261 347 
                                                                                
