 2012  1 6 2246 26.5 L   6.738 -73.108140.0  RSN  8 0.3 1.9LRSN                1
 GAP=144        0.84       3.4     5.2  6.3 -0.1860E+01 -0.1105E+01  0.2849E+01E
 Epicentro: JORDAN - SANTANDER                                                 3
 ACTION:UP  12-02-03 08:14 OP:REBC STATUS:               ID:20120106224626 L   I
 2012-01-06-2240-00M.COL___186                                                 6
 STAT SP IPHASW D HRMM SECON CODA AMPLIT PERI AZIMU VELO SNR AR TRES W  DIS CAZ7
 BAR2 SZ ES   1   2247  0.08                             172     0.1 7   18 207 
 BAR2 SZ I        2247  1.92        24.0 0.24                            18 207 
 GIR2 SZ EP   1   2246 45.59                             164    -0.1 7   39 346 
 BRR  HZ EP       2246 47.35                             149    -0.110   78 301 
 BRR  HZ I        2246 47.55        22.7 0.16                            78 301 
 BRR  HE ES       2247  4.28                             149     0.510   78 301 
 PAM  SZ EP       2246 48.31                             149     0.110   80  34 
 PAM  SE ES   1   2247  4.87                             149    -0.4 7   80  34 
 RUS  HZ EP       2246 49.09                             145    -0.110   94 178 
 RUS  HE ES   1   2247  6.66                             145    -0.2 7   94 178 
 RUS  HZ I        2247  9.68        10.2 0.29                            94 178 
 PTB  HZ EP   1   2246 52.60                             130    -0.7 7  151 262 
 PTB  HE ES   1   2247 13.58                             130    -0.6 7  151 262 
 OCA  SZ EP   1   2246 55.42                             127     0.4 7  168 352 
 OCA  SZ ES   1   2247 17.31                             127     0.0 7  168 352 
 OCA  SZ I        2247 20.21        13.1 0.26                           168 352 
 CHI  HZ EP   1   2247  3.69                             116     0.4 6  243 197 
 CHI  HE ES   1   2247 32.46                             116     0.5 6  243 197 
 CHI  HZ I        2247 44.43         2.5 0.31                           243 197 
                                                                                
