 2013  5 6 2254 31.3 L   6.826 -73.186142.4  RSN  8 0.3 2.1LRSN                1
 GAP=130        0.61       2.9     4.0  5.4 -0.2903E+01  0.9048E+01 -0.1688E+01E
 Epicentro: ZAPATOCA - SANTANDER                                               3
 ACTION:UPD 13-06-20 09:48 OP:ep   STATUS:               ID:20130506225431 L   I
 2013-05-06-2250-00M.COL___256                                                 6
 STAT SP IPHASW D HRMM SECON CODA AMPLIT PERI AZIMU VELO AIN AR TRES W  DIS CAZ7
 BAR2 SZ EP   1   2254 50.61                             169    0.05 7 25.9 179 
 BAR2 SZ ES   1   2255  5.71                             169    0.11 7 25.9 179 
 BAR2 SZ I        2255  7.42        11.5 0.44            169           25.9 179 
 BRR  HZ EP   1   2254 52.00                             154    0.23 7 65.9 298 
 BRR  HN ES   4   2255 10.03                             154    2.28 0 65.9 298 
 BRR  HN I        2255 14.18        29.6 0.18            151           65.9 298 
 PAM  SZ EP   1   2254 53.50                             150    0.31 7 78.2  43 
 PAM  SN ES   1   2255 10.47                             150    0.19 7 78.2  43 
 PAM  SN I        2255 12.03        22.6 0.46            155           78.2  43 
 RUS  HZ EP   1   2254 55.00                             142    0.05 7  104 174 
 RUS  HN ES   1   2255 12.70                             142   -0.71 7  104 174 
 RUS  HN I        2255 14.76        22.8 0.40            146            104 174 
 PTB  HN ES   1   2255 18.23                             132    0.05 7  144 257 
 PTB  HN I        2255 20.90        17.8 0.24            132            144 257 
 NOR  HZ EP   1   2255  6.64                             118    0.03 6  233 233 
 NOR  HN ES   1   2255 34.35                             118    0.18 6  233 233 
 NOR  HN I        2255 40.13        19.7 0.16            119            233 233 
 SML  HZ EP   1   2255  6.49                             117   -0.74 6  239 336 
 SML  HN ES   1   2255 35.07                             117   -0.20 6  239 336 
 SML  HN I        2255 38.83        26.2 0.10            119            239 336 
 PRA  HZ EP   1   2255 24.99                             106    0.26 4  392 209 
 PRA  HN ES   1   2256  6.67                             106    0.26 4  392 209 
 PRA  HN I        2256 13.55         1.7 0.22            108            392 209 
                                                                                
