 2016  8 6 2147 57.5 L   6.796 -73.155140.0  RSN  9 0.5 1.9LRSN                1
 GAP=135        1.12       4.6     4.4  7.1 -0.1388E+01  0.9165E+01  0.3985E+01E
 Epicentro: LOS SANTOS - SANTANDER                                             3
 ACTION:UPD 16-10-29 15:32 OP:rebc STATUS:               ID:20160806214757 L   I
 OLDACT:DUP 16-08-07 03:19 OP:ak   STATUS:               ID:20160806212829d    3
 OLDACT:REG 16-08-07 02:41 OP:ak   STATUS:               ID:20160806212828     3
 2016-08-06-2138-00M.COL___368                                                 6
 STAT SP IPHASW D HRMM SECON CODA AMPLIT PERI AZIMU VELO AIN AR TRES W  DIS CAZ7
 BAR2 EZ EP       2148 16.29                             170   -0.1710 22.8 188 
 BAR2 EZ ES       2148 31.26                             170    0.0310 22.8 188 
 BAR2 EZ I        2148 32.32        14.5 0.26                          22.8 188 
 BRR  HZ EP       2148 18.15                             152    0.1310 70.4 299 
 BRR  HN ES       2148 34.67                             152    0.6710 70.4 299 
 BRR  HZ I        2148 39.45         9.8 0.11                          70.4 299 
 PAM  EZ EP       2148 19.11                             149   -0.0910 78.4  40 
 PAM  EN ES       2148 35.98                             149   -0.1210 78.4  40 
 PAM  EZ I        2148 38.23        17.8 0.54                          78.4  40 
 RUS  HZ EP       2148 19.98                             143   -0.7210  100 175 
 RUS  HN ES       2148 39.28                             143    0.5110  100 175 
 RUS  HZ I        2148 40.91        10.1 0.38                           100 175 
 PTB  HZ EP   2   2148 23.46                             131   -0.48 5  147 259 
 PTB  HN ES       2148 43.74                             131   -0.79 9  147 259 
 PTB  HZ I        2148 46.81         9.3 0.19                           147 259 
 SPBC HZ EP       2148 26.13                             128    0.62 9  162 219 
 SPBC HE ES       2148 46.83                             128   -0.49 9  162 219 
 SPBC HZ I        2148 53.82                                            162 219 
 ZAR  HZ EP   2   2148 29.49                             121   -0.04 4  203 292 
 ZAR  HN ES       2148 54.23                             121   -0.25 9  203 292 
 ZAR  HZ I        2149  2.47        15.0 0.05                           203 292 
 HEL  HZ EP   2   2148 37.33                             114   -0.01 4  271 256 
 HEL  HN ES       2149  8.85                             114    0.47 8  271 256 
 HEL  HZ I        2149 15.64         5.2 0.54                           271 256 
 GUY2CHZ EP       2148 41.49                             111    0.73 7  300 235 
 GUY2CHE ES   4   2149 18.01                             111    3.54 0  300 235 
                                                                                
