 2014  3 6 2103 25.7 L   6.814 -73.143151.0  RSN 10 0.4 1.8LRSN                1
 GAP=136        0.93       3.3     4.0  5.8  0.1566E+00  0.6728E+01  0.2641E+01E
 Epicentro: LOS SANTOS - SANTANDER                                             3
 ACTION:UPD 14-04-09 23:15 OP:nd   STATUS:               ID:20140306210325 L   I
 OLDACT:UP  14-03-06 22:03 OP:cam  STATUS:               ID:20140306205814     3
 OLDACT:REG 14-03-06 21:36 OP:cam  STATUS:               ID:20140306205814     3
 2014-03-06-2058-14M.COL___234                                                 6
 STAT SP IPHASW D HRMM SECON CODA AMPLIT PERI AZIMU VELO AIN AR TRES W  DIS CAZ7
 BAR2 SZ ES       21 4  1.76                             170   -0.0110 24.8 190 
 BRR  HZ EP       21 3 47.69                             154    0.3410 70.7 297 
 BRR  HN ES       21 4  4.76                             154    0.4910 70.7 297 
 PAM  SZ EP       21 3 48.70                             152    0.3510 76.1  40 
 PAM  SN ES       21 4  5.90                             152   -0.1610 76.1  40 
 PAM  SZ I        21 4  7.59         5.4 0.62            155           76.1  40 
 RUS  HZ EP   1   21 3 50.17                             144    0.14 7  102 176 
 RUS  HN ES       21 4  8.56                             144   -0.4810  102 176 
 RUS  HZ I        21 4  9.78         4.6 0.18            144            102 176 
 PTB  HZ EP       21 3 52.79                             133   -0.31 9  148 258 
 PTB  HN ES       21 4 13.97                             133   -0.54 9  148 258 
 PTB  HZ I        21 4 18.17         6.3 0.38            132            148 258 
 ZAR  HN ES       21 4 24.15                             123    0.18 9  204 292 
 ZAR  HZ I        21 4 30.16         5.8 0.26            123            204 292 
 NOR  HZ EP       21 4  1.32                             119   -0.49 8  236 234 
 NOR  HN ES       21 4 30.53                             119    0.52 8  236 234 
 NOR  HZ I        21 4 33.32         6.0 0.20            119            236 234 
 SML  HZ EP   4   21 4  1.28                             119   -1.17 0  242 335 
 SML  HN ES       21 4 30.67                             119   -0.47 8  242 335 
 SML  HZ I    4   21 4 34.24        12.1 0.10            119            242 335 
 CHI  HZ EP       21 4  3.90                             118    0.09 8  250 195 
 CHI  HE ES   1   21 4 34.19                             118    0.62 6  250 195 
 CHI  HZ I        21 4 41.59         2.1 0.52            118            250 195 
 GUY2CHN ES   4   21 4 45.90                             113    1.97 0  302 235 
 GUY2CHZ I        21 4 50.01         3.1 0.30                           302 235 
                                                                                
