 2012  7 6 2105 32.4 L   6.791 -73.169143.4  RSN  5 0.2 1.4LRSN                1
 GAP=134        0.41       3.0     4.5  5.0 -0.2581E+01  0.8413E+00 -0.9754E+00E
 Epicentro: LOS SANTOS - SANTANDER                                             3
 ACTION:UPD 12-08-14 11:43 OP:ep   STATUS:               ID:20120706210532 L   I
 2012-07-06-2100-00M.COL___201                                                 6
 STAT SP IPHASW D HRMM SECON CODA AMPLIT PERI AZIMU VELO AIN AR TRES W  DIS CAZ7
 BAR2 SZ ES   2   21 6  6.55                             171    -0.3 5   22 184 
 BAR2 SZ I        21 6  8.33         9.1 0.20            171             22 184 
 BRR  HZ EP   1   21 5 53.01                             153    -0.2 7   69 300 
 BRR  HN ES   2   21 6  9.84                             153     0.4 5   69 300 
 PAM  SZ EP       21 5 54.61                             150     0.010   80  41 
 PAM  SZ I        21 5 54.84         3.2 0.22            151             80  41 
 PAM  SN ES   1   21 6 11.77                             150     0.0 7   80  41 
 RUS  HZ EP   1   21 5 56.04                             143     0.1 7  100 175 
 RUS  HN ES   1   21 6 14.25                             143     0.0 7  100 175 
 PTB  HN ES   3   21 6 19.60                             132    -0.1 2  145 259 
