 2015 12 6 2124 52.5 L   6.792 -73.148149.7  RSN 11 0.4 1.9LRSN                1
 GAP=137        1.04       3.4     4.1  5.8 -0.2265E+01  0.7745E+01 -0.1323E+01E
 Epicentro: LOS SANTOS - SANTANDER                                             3
 ACTION:UPD 16-02-04 15:03 OP:cam  STATUS:               ID:20151206212452 L   I
 OLDACT:REG 15-12-07 06:56 OP:ak   STATUS:               ID:20151206211750     3
 2015-12-06-2117-50M.COL___326                                                 6
 STAT SP IPHASW D HRMM SECON CODA AMPLIT PERI AZIMU VELO AIN AR TRES W  DIS CAZ7
 BAR2 EZ EP       2125 12.28                             171   -0.3110 22.4 190 
 BAR2 EZ ES       2125 28.30                             171    0.0510 22.4 190 
 BAR2 EZ I        2125 29.58        13.4 0.34            171           22.4 190 
 BRR  HZ EP       2125 14.40                             153    0.3110 71.4 299 
 BRR  HN ES       2125 31.73                             153    0.8010 71.4 299 
 BRR  HZ I        2125 32.84        10.1 0.33            151           71.4 299 
 PAM  EZ EP       2125 15.32                             151    0.1410 78.2  39 
 PAM  EN ES       2125 32.76                             151   -0.1110 78.2  39 
 PAM  EZ I        2125 34.80         9.9 0.54            154           78.2  39 
 RUS  HZ EP       2125 16.85                             145    0.2710 99.7 176 
 RUS  HN ES       2125 34.91                             145   -0.4510 99.7 176 
 RUS  HZ I        2125 36.21         9.2 0.24            147           99.7 176 
 PTB  HZ EP       2125 19.23                             133   -0.53 9  147 259 
 PTB  HN ES       2125 40.45                             133   -0.57 9  147 259 
 PTB  HZ I        2125 44.05                             133            147 259 
 SPBC HZ EP       2125 21.57                             130    0.34 9  162 219 
 SPBC HN ES       2125 43.68                             130    0.05 9  162 219 
 SPBC HZ I        2125 48.65        12.4 0.20            131            162 219 
 ZAR  HZ EP       2125 26.13                             123    0.91 9  204 292 
 ZAR  HN ES       2125 50.60                             123   -0.14 9  204 292 
 ZAR  HZ I        2125 56.86         8.5 0.26            124            204 292 
 NOR  HZ EP       2125 28.69                             119    0.30 8  234 235 
 NOR  HN ES       2125 56.50                             119    0.12 8  234 235 
 NOR  HZ I        2125 58.80         5.8 0.28            120            234 235 
 SML  HZ EP       2125 28.66                             118   -0.77 8  244 335 
 SML  HN ES       2125 57.81                             118   -0.42 8  244 335 
 SML  HZ I        2126  2.34         9.7 0.10            119            244 335 
 HEL  HZ EP   3   2125 32.87                             116   -0.00 2  272 256 
 GUY2CHZ EP   2   2125 36.33                             113    0.11 4  301 235 
 GUY2CHN ES       2126  9.98                             113   -0.34 7  301 235 
 GUY2CHZ I        2126 21.36         3.4 0.34                           301 235 
                                                                                
