 2012  4 6 2009 21.5 L   6.769 -73.138146.7  RSN  6 0.4 1.7LRSN                1
 GAP=139        1.07       6.8     5.9  8.1  0.3800E+01  0.7420E+01 -0.5129E+01E
 Epicentro: LOS SANTOS - SANTANDER                                             3
 ACTION:UPD 12-07-05 11:51 OP:tino STATUS:               ID:20120406200921 L   I
 2012-04-06-2007-59S.COL___204                                                 6
 STAT SP IPHASW D HRMM SECON CODA AMPLIT PERI AZIMU VELO AIN AR TRES W  DIS CAZ7
 BAR2 SZ EP   1   20 9 41.19                             172     0.0 7   20 194 
 BAR2 SZ I        20 9 41.54        11.3 0.08                            20 194 
 BAR2 SZ ES       20 9 56.34                             172    -0.210   20 194 
 BRR  HZ EP       20 9 43.10                             152     0.210   74 301 
 BRR  HN ES       2010  0.25                             152     0.710   74 301 
 BRR  HZ I        2010  3.45        14.7 0.39                            74 301 
 PAM  SZ EP       20 9 44.03                             150     0.110   79  38 
 PAM  SN ES   1   2010  0.72                             150    -0.7 7   79  38 
 RUS  HZ EP   1   20 9 45.23                             145     0.1 7   97 176 
 RUS  HE ES   1   2010  3.72                             145     0.2 7   97 176 
 RUS  HZ I        2010  4.91         3.8 0.48                            97 176 
 PTB  HZ EP   1   20 9 48.06                             132    -0.5 7  148 260 
 PTB  HN ES   1   2010  8.88                             132    -0.8 7  148 260 
 PTB  HZ I        2010 11.43         5.2 0.13                           148 260 
 ZAR  HZ EP   1   20 9 54.21                             122     0.0 6  206 293 
 ZAR  HN ES   1   2010 19.60                             122    -0.1 6  206 293 
 ZAR  HZ I        2010 25.24         9.5 0.37                           206 293 
                                                                                
