 2011  3 6 2005 50.7 L   6.807 -73.094144.6  RSN  9 0.4 1.9LRSN                1
 GAP=164        0.70       4.8    10.4  9.9 -0.1836E+02  0.2529E+02 -0.9883E+01E
 Epicentro: LOS SANTOS - SANTANDER                                             3
 ACTION:UP  11-06-16 14:32 OP:jfem STATUS:               ID:20110306200550 L   I
 2011-03-06-2000-00M.COL___135                                                 6
 STAT SP IPHASW D HRMM SECON CODA AMPLIT PERI AZIMU VELO SNR AR TRES W  DIS CAZ7
 BAR2 SZ EP       20 6 10.00                             169    -0.210   26 203 
 BAR2 SZ I        20 6 10.74        19.7 0.18                            26 203 
 BAR2 SZ ES   2   20 6 24.86                             169    -0.6 5   26 203 
 RUS  HZ EP       20 6 14.21                             143    -0.110  101 179 
 RUS  HZ I        20 6 14.98         7.0 0.41                           101 179 
 RUS  HN ES   2   20 6 33.91                             143     1.1 5  101 179 
 GRA  SZ EP       20 6 15.68                             137     0.110  123  15 
 GRA  SZ I        20 6 36.35         7.6 0.14                           123  15 
 OCA  SZ ES   2   20 6 41.13                             129     0.3 5  160 351 
 OCA  SZ I        20 6 46.01        11.8 0.20                           160 351 
 CHI  HZ EP   3   20 6 28.53                             117     0.0 2  251 196 
 CHI  HE ES   3   20 6 57.89                             117    -0.2 2  251 196 
 HEL  HZ EP   2   20 6 32.12                             114     0.7 4  278 256 
 HEL  HZ I        20 7 10.07         5.9 0.66                           278 256 
 RREF HN ES   2   20 7 13.50                             110    -0.2 3  327 230 
 DBB  SZ EP   3   20 6 38.47                             109    -0.3 2  345 274 
 PRA  HE ES   3   20 7 26.15                             106    -0.4 1  396 210 
                                                                                
