 2015  9 6 2114 59.1 L   6.771 -73.114146.0  RSN 11 0.3 1.7LRSN                1
 GAP=142        0.60       2.2     2.9  4.5 -0.1166E+01  0.3138E+01  0.1200E+01E
 Epicentro: LOS SANTOS - SANTANDER                                             3
 ACTION:UPD 15-10-28 16:24 OP:cam  STATUS:               ID:20150906211459 L   I
 OLDACT:REG 15-09-07 02:45 OP:spq  STATUS:               ID:20150906210748     3
 2015-09-06-2107-48M.COL___346                                                 6
 STAT SP IPHASW D HRMM SECON CODA AMPLIT PERI AZIMU VELO AIN AR TRES W  DIS CAZ7
 BAR2 EZ EP       2115 18.55                             171   -0.1310 21.1 201 
 BAR2 EZ ES   1   2115 33.70                             171   -0.28 7 21.1 201 
 BAR2 EZ I        2115 34.50         7.2 0.16            171           21.1 201 
 BRR  HZ EP     D 2115 20.42                             151   -0.0910 75.8 299 
 BRR  HN ES       2115 37.70                             151    0.4710 75.8 299 
 BRR  HZ I        2115 38.58         8.9 0.46            147           75.8 299 
 PAM  EZ EP     C 2115 21.52                             151    0.1910 77.8  36 
 PAM  EN ES   1   2115 38.72                             151    0.02 7 77.8  36 
 PAM  EZ I        2115 40.87         8.1 0.45            150           77.8  36 
 RUS  HZ EP   1   2115 22.83                             145    0.23 7 97.2 178 
 RUS  HN ES   1   2115 40.89                             145   -0.06 7 97.2 178 
 RUS  HZ I        2115 42.11         3.7 0.28            147           97.2 178 
 PTB  HN ES   4   2115 46.41                             131   -1.16 0  151 260 
 PTB  HZ I        2115 49.03         4.7 0.24            130            151 260 
 SPBC HZ EP       2115 27.48                             129   -0.08 9  163 221 
 SPBC HE ES       2115 49.83                             129    0.04 9  163 221 
 SPBC HZ I        2115 53.42         6.6 0.10            129            163 221 
 OCA  HE ES   1   2115 49.43                             129   -0.68 7  164 352 
 OCA  HZ I        2115 54.88        11.0 0.30            128            164 352 
 ZAR  HE ES       2115 57.49                             122   -0.18 8  209 293 
 ZAR  HZ I        2116  3.03         5.2 0.42            120            209 293 
 NOR  HZ EP       2115 34.97                             118    0.05 8  236 236 
 NOR  HE ES       2116  3.01                             118    0.13 8  236 236 
 NOR  HZ I        2116  8.16         3.1 0.26            118            236 236 
 SML  HE ES   1   2116  5.49                             117    0.35 6  248 335 
 SML  HZ I        2116 12.87         4.3 0.10            116            248 335 
 GUY2CHZ EP   4   2115 44.68                             112    1.88 0  302 236 
 GUY2CHN ES   1   2116 16.40                             112   -0.52 5  302 236 
 GUY2CHZ I        2116 26.01         2.7 0.30                           302 236 
                                                                                
