 2012  6 6 2159 55.1 L   6.812 -73.165141.7  RSN 10 0.4 2.1LRSN                1
 GAP=134        0.88       3.0     3.8  6.0 -0.2424E+01  0.7254E+01  0.1441E+01E
 Epicentro: LOS SANTOS - SANTANDER                                             3
 ACTION:UP  12-08-06 17:47 OP:ep   STATUS:               ID:20120606215954 L   I
 2012-06-06-2200-00M.COL___201                                                 6
 STAT SP IPHASW D HRMM SECON CODA AMPLIT PERI AZIMU VELO AIN AR TRES W  DIS CAZ7
 BAR2 SZ ES   1   22 0 29.13                             170   -0.12 7 24.4 184 
 BAR2 SZ I        22 0 31.12        39.9 0.21                          24.4 184 
 PAM  SZ EP       22 0 17.45                             150    0.5110 77.8  41 
 PAM  SE ES       22 0 34.48                             150    0.5310 77.8  41 
 RUS  HZ EP       22 0 18.59                             142    0.0010  102 175 
 RUS  HE ES       22 0 36.40                             142   -0.5010  102 175 
 RUS  HZ I        22 0 38.19        16.6 0.23            144            102 175 
 PTB  HZ EP       22 0 21.16                             131   -0.44 9  146 258 
 PTB  HN ES       22 0 42.40                             131    0.15 9  146 258 
 PTB  HZ I        22 0 46.20        10.9 0.16            130            146 258 
 OCA  HZ EP       22 0 22.50                             129   -0.48 9  159 354 
 OCA  HN ES   1   22 0 44.15                             129   -0.55 7  159 354 
 OCA  HZ I        22 0 47.63        50.0 0.21            130            159 354 
 ZAR  HZ EP   1   22 0 27.72                             122    0.67 6  202 292 
 ZAR  HN ES   1   22 0 51.61                             122   -0.34 6  202 292 
 ZAR  HZ I        22 0 58.44        12.0 0.17            121            202 292 
 NOR  SE ES       22 0 58.52                             118    0.40 8  234 234 
 CHI  HZ EP       22 0 32.74                             116    0.06 8  249 195 
 CHI  HE ES   1   22 1  1.71                             116   -0.27 6  249 195 
 CHI  HZ I        22 1  7.92         5.5 0.41            117            249 195 
 HEL  HE ES   1   22 1  5.95                             114   -0.04 6  270 255 
 HEL  HZ I        22 1 13.66         8.2 0.34            114            270 255 
 PRA  HZ EP       22 0 48.42                             106   -0.10 6  392 209 
 PRA  HE ES       22 1 30.61                             106    0.44 6  392 209 
                                                                                
