 2010  8 6 2110 10.1 L   6.780 -73.057146.9  RSN  9 0.3 2.1LRSN                1
 GAP=169        0.65       3.1     6.5  5.3 -0.5162E+01 -0.1945E+01 -0.1966E+01E
 Epicentro: LOS SANTOS - SANTANDER                                             3
 ACTION:UP  10-09-07 10:52 OP:vdl  STATUS:               ID:20100806211010 L   I
 2010-08-06-2108-17S.COL___124                                                 6
 STAT SP IPHASW D HRMM SECON CODA AMPLIT PERI AZIMU VELO SNR AR TRES W  DIS CAZ7
 BAR2 SZ EP   1   2110 29.93                             169     0.0 7   25 214 
 BAR2 SZ ES   1   2110 44.89                             169    -0.5 7   25 214 
 BAR2 SZ I        2110 46.68        49.0 0.11                            25 214 
 GIR2 SZ EP   2   2110 30.07                             165     0.0 5   36 335 
 BRR  HZ EP       2110 31.82                             149    -0.110   81 297 
 BRR  HN ES   1   2110 49.30                             149     0.3 7   81 297 
 BRR  HZ I        2110 53.19        19.2 0.27                            81 297 
 RUS  HZ EP   1   2110 33.85                             144     0.1 7   98 182 
 RUS  HE ES   1   2110 52.54                             144     0.3 7   98 182 
 RUS  HZ I        2110 54.19        12.1 0.09                            98 182 
 GUE  SZ EP       2110 34.96                             139     0.010  117   7 
 GRA  SZ EP       2110 35.76                                     0.410  125  13 
 GRA  SZ ES   1   2110 54.69                             137    -0.5 7  125  13 
 GRA  SZ I        2110 56.93        12.9 0.13                           125  13 
 OCA  SZ EP   1   2110 38.69                             129    -0.1 7  164 350 
 OCA  SZ ES   2   2111  1.33                                     0.1 5  164 350 
 OCA  SZ I        2111  4.43        10.0 0.35                           164 350 
 HEL  HZ EP   2   2110 51.60                             114     0.2 4  281 257 
 HEL  HZ I        2111 27.83         4.4 0.24                           281 257 
 PRA  HZ EP   1   2111  3.72                             106    -0.3 4  395 211 
 PRA  HN ES   2   2111 45.30                                    -0.8 3  395 211 
 PRA  HZ I        2111 51.70         6.1 0.37                           395 211 
                                                                                
