 2015 11 6 2318  7.8 L   6.806 -73.157144.8  RSN  9 0.5 2.0LRSN                1
 GAP=135        1.13       3.5     5.9  6.5 -0.1945E+00  0.1264E+02 -0.2374E+01E
 Epicentro: LOS SANTOS - SANTANDER                                             3
 ACTION:UPD 15-12-28 16:09 OP:cam  STATUS:               ID:20151106231808dL   I
 OLDACT:REG 15-11-07 04:54 OP:mh   STATUS:               ID:20151106231747     3
 2015-11-06-2317-47M.COL___316                                                 6
 STAT SP IPHASW D HRMM SECON CODA AMPLIT PERI AZIMU VELO AIN AR TRES W  DIS CAZ7
 BAR2 EZ EP   1   2318 27.10                             170   -0.18 7 23.7 187 
 BAR2 EZ ES       2318 41.87                             170   -0.6410 23.7 187 
 BAR2 EZ I        2318 43.46        21.6 0.34            171           23.7 187 
 BRR  HZ EP       2318 29.18                             153    0.4610 69.8 299 
 BRR  HN ES       2318 45.84                             153    0.7710 69.8 299 
 BRR  HZ I        2318 50.05        21.3 0.46            149           69.8 299 
 PAM  EZ EP       2318 30.21                             151    0.3210 77.7  41 
 PAM  EN ES       2318 47.27                             151    0.1210 77.7  41 
 PAM  EZ I        2318 49.10        20.1 0.50            152           77.7  41 
 RUS  HZ EP       2318 31.25                             143   -0.2210  101 175 
 RUS  HN ES       2318 50.06                             143    0.1010  101 175 
 RUS  HZ I        2318 50.84         6.6 0.26            149            101 175 
 OCA  HZ EP       2318 36.45                             130    0.53 9  160 354 
 OCA  HN ES       2318 57.36                             130   -0.53 9  160 354 
 OCA  HZ I        2319  7.20        23.1 0.26            130            160 354 
 SPBC HZ EP       2318 36.00                             129   -0.15 9  163 219 
 SPBC HN ES   1   2318 58.01                             129   -0.29 7  163 219 
 SPBC HZ I        2319  0.71        16.3 0.40            131            163 219 
 ZAR  HZ EP       2318 40.56                             122    0.56 9  203 292 
 ZAR  HN ES   1   2319  4.74                             122   -0.40 6  203 292 
 ZAR  HZ I        2319 11.76         7.9 0.36            122            203 292 
 SML  HZ EP       2318 43.23                             117   -0.98 8  243 336 
 SML  HN ES       2319 12.32                             117   -0.33 8  243 336 
 SML  HZ I        2319 21.91        13.9 0.10            118            243 336 
 GUY2CHZ EP       2318 51.35                             112    0.10 7  301 235 
 GUY2CHN ES   4   2319 29.60                             112    4.43 0  301 235 
 GUY2CHZ I        2319 31.20         3.6 0.34                           301 235 
                                                                                
