 2016 10 6 2035  7.7 L   6.804 -73.104148.0  RSN 12 0.5 2.1LRSN                1
 GAP=142        1.00       3.7     4.5  5.7 -0.7593E+00  0.4829E+01  0.5161E+01E
 Epicentro: LOS SANTOS - SANTANDER                                             3
 ACTION:UPD 16-11-09 19:16 OP:rebc STATUS:               ID:20161006203507 L   I
 OLDACT:UP  16-10-07 03:36 OP:edw  STATUS:               ID:20161006202743     3
 OLDACT:UP  16-10-07 03:34 OP:edw  STATUS:               ID:20161006202743     3
 OLDACT:REG 16-10-07 02:52 OP:edw  STATUS:               ID:20161006202743     3
 2016-10-06-2028-00M.COL___354                                                 6
 STAT SP IPHASW D HRMM SECON CODA AMPLIT PERI AZIMU VELO AIN AR TRES W  DIS CAZ7
 BAR2 EZ EP       2035 27.33                             170   -0.3210 25.0 200 
 BAR2 EZ ES       2035 43.15                             170   -0.0410 25.0 200 
 BAR2 EZ I        2035 44.07        31.1 0.36            167           25.0 200 
 PAM  EZ IP     C 2035 30.07                             152    0.0910 74.1  37 
 PAM  EN ES       2035 47.53                             152    0.1910 74.1  37 
 PAM  EZ I        2035 49.88        12.5 0.62            155           74.1  37 
 BRR  HZ IP     C 2035 29.19                             152   -0.1310 75.1 297 
 BRR  HN ES       2035 46.78                             152    0.6010 75.1 297 
 BRR  HZ I        2036  1.70        26.4 0.38            147           75.1 297 
 RUS  HZ EP       2035 31.55                             144   -0.1510  101 179 
 RUS  HN ES       2035 50.01                             144   -0.4110  101 179 
 RUS  HZ I        2035 51.16        13.5 0.26            149            101 179 
 PTB  HZ EP   9   2035 34.06                             132   -1.22 0  152 259 
 PTB  HN ES       2035 55.67                             131    0.10 9  152 259 
 PTB  HZ I        2036  2.59        19.7 0.44            131            152 259 
 SPBC HZ EP       2035 36.35                             129   -0.35 9  167 220 
 SPBC HN ES   4   2035 58.41                             129   -0.90 0  167 220 
 SPBC HZ I        2036  1.13        23.8 0.30            131            167 220 
 ZAR  HZ EP       2035 41.39                             122    0.66 8  208 292 
 ZAR  HN ES       2036  5.73                             122   -0.75 8  208 292 
 ZAR  HZ I        2036 12.43        25.6 0.30            122            208 292 
 NOR  HZ EP   4   2035 46.25                             119    2.24 0  239 235 
 NOR  HN ES       2036 12.01                             119   -0.31 8  239 235 
 NOR  HZ I        2036 15.89         7.3 0.20            120            239 235 
 CHI  HZ EP       2035 45.64                             117   -0.08 8  250 196 
 CHI  HN ES       2036 16.13                             117    0.76 8  250 196 
 CHI  HZ I        2036 18.88         3.3 0.22            121            250 196 
 GUY2CHZ EP   4   2035 53.13                             112    1.25 0  305 235 
 GUY2CHN ES   4   2036 28.97                             112    2.63 0  305 235 
 GUY2CHZ I        2036 34.71         5.3 0.30                           305 235 
 ANIL HN ES   4   2036 37.19                             109   -0.07 0  361 225 
 PRA  HZ EP   2   2036  1.19                             107   -0.44 3  395 210 
 PRA  HN ES       2036 44.66                             107    0.97 6  395 210 
 PRA  HZ I        2036 45.45         3.1 0.26            109            395 210 
 SJC  HZ EP   4   2036  0.87                             106   -2.73 0  411 326 
 SJC  HN ES   4   2036 44.05                             106   -3.14 0  411 326 
 SJC  HZ I        2036 54.10         2.1 0.44            107            411 326 
                                                                                
