 2015  1 6 2152 40.3 L   6.825 -73.182143.3  RSN 11 0.4 2.2LRSN                1
 GAP= 68        0.93       2.5     3.7  5.3 -0.2190E+01  0.4240E+01 -0.6577E+00E
 Epicentro: ZAPATOCA - SANTANDER                                               3
 ACTION:UPD 15-03-02 15:37 OP:nd   STATUS:               ID:20150106215240 L   I
 OLDACT:DUP 15-01-07 07:28 OP:stll STATUS:               ID:20150106214747d    3
 2015-01-06-2147-46M.COL___280                                                 6
 STAT SP IPHASW D HRMM SECON CODA AMPLIT PERI AZIMU VELO AIN AR TRES W  DIS CAZ7
 BAR2 EZ EP       2152 59.70                             169   -0.0310 25.8 180 
 BAR2 EZ ES       2153 14.89                             169    0.0410 25.8 180 
 BAR2 EZ I        2153 16.09        26.7 0.24            169           25.8 180 
 BRR  HZ EP       2153  1.85                             154    0.8910 66.3 298 
 PAM  SZ EP       2153  2.88                             150    0.5510 77.9  43 
 PAM  SN ES       2153 19.29                             150   -0.1910 77.9  43 
 PAM  SZ I        2153 21.93        27.0 0.50            153           77.9  43 
 RUS  HZ EP       2153  3.77                             142   -0.3210  104 174 
 RUS  HE ES       2153 22.32                             142   -0.2910  104 174 
 RUS  HZ I        2153 23.59        15.0 0.26            143            104 174 
 PTB  HZ EP       2153  6.62                             132   -0.19 9  144 257 
 PTB  HE ES       2153 27.51                             132    0.06 9  144 257 
 PTB  HZ I        2153 29.64        15.5 0.16            132            144 257 
 OCA  HN EP       2153  8.04                             130   -0.12 9  157 354 
 OCA  HN ES       2153 29.94                             130    0.08 9  157 354 
 TAM  HZ EP       2153  8.28                             129    0.02 9  160 106 
 SPBC HZ EP       2153  9.25                             128    0.62 9  163 217 
 SPBC HN ES       2153 30.67                             128   -0.02 9  163 217 
 SPBC HZ I        2153 32.23        22.1 0.38            129            163 217 
 NOR  HZ EP       2153 15.86                             118    0.10 8  233 233 
 NOR  HE ES       2153 43.41                             118    0.02 8  233 233 
 NOR  HZ I        2153 49.82        10.3 0.20            119            233 233 
 SML  HZ EP       2153 15.80                             117   -0.58 8  239 336 
 SML  HN ES       2153 43.89                             117   -0.59 8  239 336 
 SML  HZ I        2153 48.81        19.4 0.32            118            239 336 
 CHI  HZ EP       2153 18.05                             116   -0.05 8  250 194 
 CHI  HN ES       2153 47.03                             116   -0.51 8  250 194 
 CHI  HZ I        2153 52.42         8.8 0.64            117            250 194 
                                                                                
