 2016  1 6 2013 58.4 L   6.793 -73.149144.1  RSN 14 0.4 2.1LRSN                1
 GAP=136        0.88       2.5     3.4  4.9 -0.1369E+01  0.3944E+01  0.1546E+01E
 Epicentro: LOS SANTOS - SANTANDER                                             3
 ACTION:UPD 16-03-09 23:23 OP:cam  STATUS:               ID:20160106201358 L   I
 OLDACT:REG 16-01-07 02:57 OP:dnl  STATUS:               ID:20160106200748     3
 2016-01-06-2007-48M.COL___286                                                 6
 STAT SP IPHASW D HRMM SECON CODA AMPLIT PERI AZIMU VELO AIN AR TRES W  DIS CAZ7
 BAR2 EZ EP       2014 18.03                             171    0.1810 22.5 189 
 BAR2 EZ ES       2014 32.72                             171   -0.2810 22.5 189 
 BAR2 EZ I        2014 36.21        13.9 0.12            169           22.5 189 
 BRR  HZ EP   1   2014 19.89                             152    0.48 7 71.2 299 
 BRR  HN ES       2014 36.48                             152    0.7210 71.2 299 
 BRR  HZ I        2014 41.84        27.6 0.28            151           71.2 299 
 PAM  EZ EP       2014 20.78                             150    0.2510 78.2  39 
 PAM  EE ES       2014 37.88                             150    0.1210 78.2  39 
 PAM  EZ E        2014 40.27                                           78.2  39 
 PAM  EZ I        2014 40.27         9.4 0.19            155           78.2  39 
 RUS  HZ EP       2014 21.89                             144   -0.0810 99.9 176 
 RUS  HE ES       2014 39.95                             144   -0.3810 99.9 176 
 RUS  HZ I        2014 41.78        11.7 0.34            145           99.9 176 
 PTB  HZ EP   1   2014 24.73                             132   -0.49 7  147 259 
 PTB  HN ES       2014 46.25                             132    0.14 9  147 259 
 PTB  HZ I        2014 48.19        20.7 0.14            131            147 259 
 OCA  HZ EP       2014 26.45                             129   -0.23 9  161 353 
 OCA  HE ES       2014 48.40                             129   -0.32 9  161 353 
 OCA  HZ I        2014 52.32        32.2 0.18            131            161 353 
 SPBC HZ EP   2   2014 27.13                             129    0.40 5  162 219 
 SPBC HE ES   2   2014 48.75                             129   -0.04 5  162 219 
 SPBC HZ I        2014 52.79        26.7 0.18            129            162 219 
 ZAR  HZ EP   2   2014 31.09                             122    0.33 4  204 292 
 ZAR  HE ES       2014 55.46                             122   -0.52 9  204 292 
 ZAR  HZ I        2015  3.06        20.9 0.18            123            204 292 
 NOR  HZ EP   2   2014 33.71                             118   -0.28 4  234 235 
 NOR  HN ES       2015  0.96                             118   -0.75 8  234 235 
 NOR  HZ I        2015  6.52        11.0 0.23            119            234 235 
 SML  HZ EP   2   2014 34.51                             117   -0.52 4  244 335 
 SML  HE ES   2   2015  2.92                             117   -0.64 4  244 335 
 SML  HZ I        2015  5.95        21.7 0.08            119            244 335 
 CHI  HZ EP       2014 36.21                             117    0.26 8  248 195 
 CHI  HN ES       2015  5.09                             117   -0.12 8  248 195 
 CHI  HZ I        2015 15.25         4.4 0.32            118            248 195 
 HEL  HZ EP   4   2014 39.75                             114    1.25 0  271 256 
 HEL  HE ES   2   2015  9.62                             114   -0.13 4  271 256 
 HEL  HZ I        2015 17.19        11.0 0.31            115            271 256 
 GUY2CHZ EP       2014 42.55                             112    0.67 7  300 235 
 GUY2CHE ES       2015 16.56                             112    0.79 7  300 235 
 GUY2CHZ I        2015 24.28         6.4 0.28                           300 235 
 PRA  HZ EP   2   2014 50.98                             106   -0.82 3  391 210 
 PRA  HN ES   4   2015 29.54                             106   -3.88 0  391 210 
 PRA  HZ I        2015 38.28         5.7 0.36            107            391 210 
                                                                                
