 2015  9 6 2321 46.7 L   6.860 -73.288121.1  RSN 11 0.4 1.7LRSN                1
 GAP=160        0.80       2.4     3.5  5.2 -0.1012E+01  0.2915E+01 -0.2061E+01E
 Epicentro: BETULIA - SANTANDER                                                3
 ACTION:UPD 15-10-28 16:24 OP:cam  STATUS:               ID:20150906232146 L   I
 OLDACT:REG 15-09-07 03:05 OP:spq  STATUS:               ID:20150906231741     3
 2015-09-06-2317-41M.COL___343                                                 6
 STAT SP IPHASW D HRMM SECON CODA AMPLIT PERI AZIMU VELO AIN AR TRES W  DIS CAZ7
 BAR2 EZ EP       2322  3.79                             164    0.1410 31.8 158 
 BAR2 EZ ES   1   2322 16.87                             164    0.03 7 31.8 158 
 BRR  HZ EP     C 2322  4.11                             154   -0.1510 54.2 300 
 BRR  HE ES       2322 18.25                             154    0.3110 54.2 300 
 BRR  HZ I        2322 19.44        15.0 0.14            152           54.2 300 
 RUS  HZ EP   1   2322  9.22                             135    0.34 7  109 168 
 RUS  HE ES   1   2322 26.46                             135    0.30 7  109 168 
 RUS  HZ I        2322 27.43         3.8 0.18            137            109 168 
 PTB  HZ EP   4 C 2322  9.03                             129   -1.44 0  134 255 
 PTB  HN ES       2322 28.86                             129   -0.1210  134 255 
 PTB  HZ I        2322 30.84         9.8 0.38            128            134 255 
 OCA  HZ EP       2322 12.04                             125   -0.43 9  153 359 
 OCA  HN ES       2322 32.00                             125   -0.54 9  153 359 
 OCA  HZ I        2322 35.90        11.0 0.44            124            153 359 
 SPBC HZ EP   1   2322 13.05                             123   -0.02 7  159 213 
 SPBC HN ES       2322 33.18                             123   -0.43 9  159 213 
 SPBC HZ I        2322 34.35         8.1 0.09            124            159 213 
 ZAR  HZ EP       2322 16.03                             119    0.18 9  187 292 
 ZAR  HE ES       2322 38.90                             119    0.33 9  187 292 
 ZAR  HZ I        2322 41.17         5.9 0.08            118            187 292 
 NOR  HE ES   1   2322 45.97                             114   -0.35 6  226 231 
 NOR  HZ I        2322 51.95         3.5 0.16            114            226 231 
 SML  HZ EP       2322 21.17                             113    0.46 8  231 338 
 SML  HE ES   1   2322 47.28                             113    0.06 6  231 338 
 SML  HZ I        2322 53.56         7.2 0.10            113            231 338 
 HEL  HZ EP   1   2322 25.09                             111    0.82 6  259 254 
 GUY2CHZ EP   4   2322 29.54                             108    1.23 0  293 232 
 GUY2CHE ES   1   2323  0.03                             108   -0.72 5  293 232 
 GUY2CHZ I        2323  7.40         2.4 0.42                           293 232 
                                                                                
