 2017  5 6 2048 46.6 L   6.828 -73.172155.9  RSN  5 0.4 1.4LRSN                1
 GAP=132        0.95       5.3     4.5  9.8  0.1804E+01  0.1590E+01  0.6276E+01E
 Epicentro: ZAPATOCA - SANTANDER                                               3
 ACTION:UPD 17-06-16 13:33 OP:jn   STATUS:               ID:20170506204847 L   I
 OLDACT:UP  17-05-08 12:29 OP:nlst STATUS:               ID:20170506204847 L   3
 OLDACT:DUP 17-05-07 06:11 OP:dani STATUS:               ID:20170506204743d    3
 OLDACT:UP  17-05-07 06:10 OP:dani STATUS:               ID:20170506204742     3
 OLDACT:UP  17-05-07 06:10 OP:dani STATUS:               ID:20170506204742     3
 OLDACT:REG 17-05-07 05:32 OP:dani STATUS:               ID:20170506204742     3
 2017-05-06-2048-00M.COL___370                                                 6
 STAT SP IPHASW D HRMM SECON CODA AMPLIT PERI AZIMU VELO AIN AR TRES W  DIS CAZ7
 BRR  HZ EP   3   2049  9.52                             155    0.87 2 67.2 297 
 BRR  HN ES       2049 26.02                             155    0.1810 67.2 297 
 BRR  HZ I        2049 29.37         8.0 0.40            156           67.2 297 
 PAM  EZ EP     C 2049 10.16                             153    0.2810 77.0  43 
 PAM  EN ES       2049 27.96                             153   -0.0710 77.0  43 
 RUS  HZ EP       2049 11.51                             145   -0.0810  104 175 
 RUS  HN ES       2049 30.75                             145   -0.3310  104 175 
 RUS  HZ I        2049 31.23         1.8 0.29            148            104 175 
 PTB  HN ES       2049 36.36                             135    0.60 9  146 257 
 ZAR  HE ES       2049 44.12                             125   -0.76 9  200 292 
                                                                                
