 2013 12 6 2104  4.4 L   6.811 -73.154147.2  RSN  7 0.4 1.8LRSN                1
 GAP=135        0.84       4.4     3.9  6.6 -0.1333E+01  0.3794E+01 -0.1712E+01E
 Epicentro: LOS SANTOS - SANTANDER                                             3
 ACTION:UPD 14-01-13 10:16 OP:ep   STATUS:               ID:20131206210404 L   I
 OLDACT:UP  13-12-07 01:22 OP:mh   STATUS:               ID:20131206210000     3
 OLDACT:REG 13-12-06 23:29 OP:mh   STATUS:               ID:20131206210000     3
 2013-12-06-2100-00M.COL___285                                                 6
 STAT SP IPHASW D HRMM SECON CODA AMPLIT PERI AZIMU VELO AIN AR TRES W  DIS CAZ7
 BAR2 SZ ES   1   21 4 39.91                             170    0.20 7 24.4 187 
 BAR2 SZ  AMP     21 4 40.84        46.2 0.08                          24.4 187 
 BRR  HZ EP       21 4 26.07                             153    0.4310 69.8 298 
 BRR  HN ES       21 4 42.36                             153    0.1610 69.8 298 
 BRR  HZ I        21 4 48.73        10.1 0.45            151           69.8 298 
 PAM  SN EP       21 4 26.44                             151   -0.3310 77.1  41 
 PAM  SZ EP   1   21 4 26.93                             151    0.16 7 77.1  41 
 PAM  SE ES       21 4 44.25                             151    0.0510 77.1  41 
 RUS  HZ EP   1   21 4 28.94                             144    0.54 7  102 176 
 RUS  HN ES   1   21 4 46.62                             144   -0.49 7  102 176 
 RUS  HZ I        21 4 48.21         5.2 0.25            148            102 176 
 PTB  HZ EP       21 4 31.24                             133   -0.20 9  147 258 
 PTB  HN ES       21 4 52.10                             133   -0.41 9  147 258 
 PTB  HZ I        21 4 55.38         5.4 0.09            133            147 258 
 ZAR  HN ES   1   21 5  2.66                             123    0.57 6  203 292 
 ZAR  HZ I        21 5  8.32         7.1 0.13            124            203 292 
 SML  HN ES   1   21 5  8.80                             118   -0.67 6  242 335 
 GUY2CHZ EP   4   21 4 50.27                             113    2.19 0  301 234 
 GUY2CHN ES   4   21 5 24.78                             113    2.64 0  301 234 
                                                                                
