 2017  8 6 2336 51.7 L   6.747 -73.140140.0  RSN  6 0.4 1.1LRSN                1
 GAP=140        1.07       5.4     5.5  7.9  0.5324E+01 -0.1055E+01 -0.4094E+01E
 Epicentro: LOS SANTOS - SANTANDER                                             3
 ACTION:UPD 17-09-04 20:17 OP:rebc STATUS:               ID:20170806233651 L   I
 OLDACT:REG 17-08-07 02:55 OP:lv   STATUS:               ID:20170806232741     3
 2017-08-06-2328-00M.COL___393                                                 6
 STAT SP IPHASW D HRMM SECON CODA AMPLIT PERI AZIMU VELO AIN AR TRES W  DIS CAZ7
 BAR2 EZ ES       2337 24.73                             172   -0.5010 17.8 195 
 BRR  HZ EP       2337 12.45                             150    0.0110 74.7 302 
 BRR  HN ES       2337 29.45                             150    0.8410 74.7 302 
 PAM  EZ EP       2337 13.40                             148   -0.1810 81.6  37 
 PAM  EE ES       2337 30.54                             148   -0.0910 81.6  37 
 PAM  EZ I        2337 32.61         2.6 0.15            149           81.6  37 
 RUS  HZ EP       2337 14.79                             144    0.3210 94.7 176 
 RUS  HN ES       2337 32.19                             144   -0.0310 94.7 176 
 RUS  HZ I        2337 33.64         4.6 0.05            145           94.7 176 
 PTB  HZ EP   9   2337 17.33                             130   -0.84 0  147 261 
 PTB  HN ES       2337 37.51                                   -0.46 9  147 261 
 PTB  HZ I        2337 41.04         0.9 0.08            131            147 261 
 ZAR  HN ES       2337 48.83                             120   -0.50 8  207 294 
                                                                                
