 2010 11 6 2130 24.4 L   6.778 -73.098142.7  RSN  5 0.4 1.6LRSN                1
 GAP=164        0.89       6.6    14.4 12.7 -0.6213E+01 -0.5717E+02 -0.1763E+02E
 Epicentro: LOS SANTOS - SANTANDER                                             3
 ACTION:UP  10-12-17 16:50 OP:REBC STATUS:               ID:20101106213024 L   I
 2010-11-06-2129-41S.COL___127                                                 6
 STAT SP IPHASW D HRMM SECON CODA AMPLIT PERI AZIMU VELO SNR AR TRES W  DIS CAZ7
 BAR2 SZ EP   1   2130 43.14                             170    -0.5 7   23 205 
 BAR2 SZ ES   2   2130 57.98                             170    -0.7 5   23 205 
 BAR2 SZ I        2131  1.79        12.0 0.71                            23 205 
 BRR  HZ EP   1   2130 45.43                             150    -0.1 7   77 298 
 BRR  HZ I        2130 49.81        13.9 0.44                            77 298 
 BRR  HE ES   2   2131  2.64                             150     0.6 5   77 298 
 RUS  HZ EP   1   2130 48.25                             144     0.6 7   98 179 
 RUS  HN ES   2   2131  5.91                             144     0.1 5   98 179 
 RUS  HZ I        2131  6.51         3.0 0.28                            98 179 
 GUE  SZ EP   1   2130 48.71                             138    -0.2 7  118   9 
 GRA  SZ EP   1   2130 49.44                             136     0.0 7  127  15 
 GRA  SZ ES   2   2131  9.63                             136     0.6 5  127  15 
 GRA  SZ I        2131 14.83         6.4 0.43                           127  15 
                                                                                
