 2012  8 6 2317 32.6 L   6.754 -73.166146.0  RSN  5 0.2 1.2LRSN                1
 GAP=136        0.43       3.7     3.9  5.4  0.2036E+01 -0.2435E+01  0.1479E+01E
 Epicentro: LOS SANTOS - SANTANDER                                             3
 ACTION:UPD 12-09-10 11:54 OP:ep   STATUS:               ID:20120806231732 L   I
 2012-08-06-2310-00M.COL___216                                                 6
 STAT SP IPHASW D HRMM SECON CODA AMPLIT PERI AZIMU VELO AIN AR TRES W  DIS CAZ7
 BAR2 SZ EP       2317 52.17                             173    0.0310 18.0 186 
 BAR2 SZ ES   3   2318  7.07                             173   -0.33 2 18.0 186 
 BAR2 SZ I        2318  9.48         5.0 0.16                          18.0 186 
 BRR  HZ EP       2317 54.03                             153    0.2410 71.8 303 
 BRR  HN ES   1   2318 10.45                             153    0.11 7 71.8 303 
 PAM  SZ EP       2317 55.00                             149   -0.1510 82.8  39 
 PAM  SZ I        2318 13.61         1.7 0.34                          82.8  39 
 RUS  HZ EP       2317 56.05                             146    0.0410 95.7 174 
 RUS  HN ES   2   2318 14.43                             146    0.15 5 95.7 174 
 RUS  HZ I        2318 15.78         2.3 0.18                          95.7 174 
 PTB  HZ EP       2317 59.03                             133   -0.25 9  145 261 
 PTB  HN ES   3   2318 19.86                             133   -0.25 2  145 261 
 PTB  HZ I        2318 21.75         2.3 0.44                           145 261 
                                                                                
