 2012  1 6 2339  0.1 L   6.726 -73.118142.6  RSN  6 0.3 1.6LRSN                1
 GAP=143        0.73       4.4     4.1  6.5 -0.7542E+00  0.8736E+01  0.1720E+01E
 Epicentro: JORDAN - SANTANDER                                                 3
 ACTION:UP  12-02-03 08:14 OP:REBC STATUS:               ID:20120106233900 L   I
 2012-01-06-2335-00S.COL___179                                                 6
 STAT SP IPHASW D HRMM SECON CODA AMPLIT PERI AZIMU VELO SNR AR TRES W  DIS CAZ7
 BAR2 SZ EP   1   2339 19.63                             173     0.4 7   16 205 
 BAR2 SZ ES   1   2339 34.29                             173     0.2 7   16 205 
 BRR  HZ EP       2339 21.55                             150     0.310   78 303 
 BRR  HZ I        2339 21.88        13.9 0.08                            78 303 
 BRR  HN ES   1   2339 37.69                             150    -0.1 7   78 303 
 PAM  SZ EP   1   2339 22.17                             149    -0.1 7   82  34 
 PAM  SE ES       2339 39.41                             149    -0.110   82  34 
 RUS  HZ EP   1   2339 23.22                             146     0.3 7   92 178 
 RUS  HZ I        2339 36.89         3.5 0.55                            92 178 
 RUS  HE ES   1   2339 40.48                             146    -0.3 7   92 178 
 PTB  HZ EP       2339 26.39                             131    -0.6 9  149 262 
 PTB  HE ES   1   2339 48.08                             131     0.2 7  149 262 
 ZAR  HE ES   1   2339 58.72                             121     0.1 6  210 294 
 ZAR  HZ I        2340  0.92         3.8 0.12                           210 294 
                                                                                
