 2014  6 6 2332 26.6 L   6.824 -73.181151.8  RSN  6 0.3 1.9LRSN                1
 GAP=190        0.66       3.5     4.3  6.3 -0.4866E+01 -0.6316E+01  0.2425E+01E
 Epicentro: ZAPATOCA - SANTANDER                                               3
 ACTION:UPD 14-07-01 22:51 OP:nd   STATUS:               ID:20140606233226 L   I
 OLDACT:UP  14-06-07 03:20 OP:cam  STATUS:               ID:20140606233000     3
 OLDACT:UP  14-06-07 03:20 OP:cam  STATUS:               ID:20140606233000     3
 OLDACT:REG 14-06-07 02:54 OP:cam  STATUS:               ID:20140606233000     3
 2014-06-06-2330-00M.COL___276                                                 6
 STAT SP IPHASW D HRMM SECON CODA AMPLIT PERI AZIMU VELO AIN AR TRES W  DIS CAZ7
 BRR  HZ EP       2332 48.27                             155    0.1410 66.5 298 
 BRR  HN ES       2333  5.11                             155    0.1710 66.5 298 
 BRR  HN I        2333  5.44        30.6 0.32            150           66.5 298 
 PAM  SZ EP       2332 49.32                             152   -0.1510 78.0  43 
 PTB  HN ES   1   2333 14.38                             134   -0.56 7  144 258 
 ZAR  HZ EP   4   2333  0.91                             124    1.96 0  199 292 
 ZAR  HN ES       2333 24.30                             124    0.10 9  199 292 
 ZAR  HZ I        2333 29.70         6.4 0.28            121            199 292 
 NOR  HZ EP       2333  2.98                             120    0.49 8  233 233 
 NOR  HE ES       2333 30.31                             120   -0.19 8  233 233 
 NOR  HZ I        2333 36.72         3.0 0.28            117            233 233 
 SML  HZ EP       2333  2.78                             119   -0.34 8  240 336 
 SML  HN ES       2333 31.70                             119    0.08 8  240 336 
                                                                                
