 2015  9 6 2348 12.4 L   6.816 -73.089144.1  RSN  6 0.4 1.4LRSN                1
 GAP=189        0.89       4.4     6.0  8.0  0.8232E+01  0.4331E+01  0.1548E+01E
 Epicentro: LOS SANTOS - SANTANDER                                             3
 ACTION:UPD 15-10-28 16:24 OP:cam  STATUS:               ID:20150906234812 L   I
 OLDACT:REG 15-09-07 03:07 OP:spq  STATUS:               ID:20150906233750     3
 2015-09-06-2337-50M.COL___343                                                 6
 STAT SP IPHASW D HRMM SECON CODA AMPLIT PERI AZIMU VELO AIN AR TRES W  DIS CAZ7
 BAR2 EZ EP   1   2348 31.94                             169    0.08 7 26.8 203 
 BAR2 EZ ES   1   2348 46.69                             169   -0.39 7 26.8 203 
 BAR2 EZ I        2348 48.01         8.1 0.20            172           26.8 203 
 BRR  HZ EP       2348 33.91                             151    0.3110 76.0 295 
 BRR  HE ES       2348 50.79                             151    0.6110 76.0 295 
 BRR  HZ I        2348 54.63         5.1 0.10            151           76.0 295 
 RUS  HZ EP       2348 36.31                             143    0.2610  102 180 
 RUS  HE ES   1   2348 54.33                             143   -0.21 7  102 180 
 RUS  HZ I        2348 55.67         1.8 0.26            147            102 180 
 PTB  HZ EP       2348 39.48                             130   -0.30 9  154 259 
 PTB  HE ES   1   2349  0.60                             130   -0.57 7  154 259 
 PTB  HZ I        2349  2.26         2.2 0.18            133            154 259 
 OCA  HN ES       2349  1.88                             129   -0.49 9  159 351 
 OCA  HZ I        2349  6.03         5.8 0.20            131            159 351 
 ZAR  HE ES       2349 10.94                             121    0.08 8  209 291 
 ZAR  HZ I        2349 12.52         2.3 0.12            123            209 291 
                                                                                
