 2012  7 6 2002 13.5 L   6.994 -73.396106.0  RSN  5 0.6 1.6LRSN                1
 GAP=134        0.86      16.2    13.6 16.8  0.2984E+02 -0.6742E+02  0.8120E+02E
 Epicentro: SAN VICENTE DE CHUCURI - SANTANDER                                 3
 ACTION:UPD 12-08-14 11:43 OP:ep   STATUS:               ID:20120706200213 L   I
 2012-07-06-2000-00M.COL___201                                                 6
 STAT SP IPHASW D HRMM SECON CODA AMPLIT PERI AZIMU VELO AIN AR TRES W  DIS CAZ7
 BRR  HZ EP       20 2 28.17                             161    -0.310   37 290 
 BRR  HN ES   1   20 2 40.40                             161     0.2 7   37 290 
 BRR  HZ I        20 2 45.84        15.2 0.28            173             37 290 
 BAR2 SZ EP   2   20 2 30.54                             152     1.1 5   50 152 
 BAR2 SZ I        20 2 45.53         9.4 0.14            137             50 152 
 PAM  SN ES   3   20 2 46.63                             139    -0.4 2   86  64 
 RUS  HN ES   3   20 2 52.60                             127    -1.0 2  127 164 
 PTB  HN ES   3   20 2 52.35                             127    -0.3 2  128 247 
