 2011  1 7 0553 14.9 L   6.803 -73.087144.0  RSN  6 0.3 1.5LRSN                1
 GAP=189        0.52       3.9     8.3  6.9 -0.8859E+01  0.2234E+02 -0.8242E+01E
 Epicentro: LOS SANTOS - SANTANDER                                             3
 ACTION:UP  11-02-08 08:39 OP:pat  STATUS:               ID:20110107055314 L   I
 2011-01-07-0549-03S.COL___134                                                 6
 STAT SP IPHASW D HRMM SECON CODA AMPLIT PERI AZIMU VELO SNR AR TRES W  DIS CAZ7
 BAR2 SZ EP   2    553 34.37                             169     0.0 5   26 205 
 BAR2 SZ ES   2    553 49.52                             169    -0.1 5   26 205 
 BAR2 SZ I         553 51.10        12.3 0.24                            26 205 
 RUS  HZ EP   1    553 38.48                             144     0.0 7  101 180 
 RUS  HE ES   1    553 57.15                             144     0.2 7  101 180 
 RUS  HZ I         553 58.41         3.0 0.32                           101 180 
 OCA  SZ EP   1    553 43.03                             129    -0.1 7  161 351 
 OCA  SZ I         554 11.34         3.6 0.63                           161 351 
 NOR  SE ES   2    554 19.26                             118    -0.2 4  240 235 
 CHI  HZ EP   1    553 52.81                             117     0.0 6  251 197 
 CHI  HE ES   1    554 21.91                             117    -0.4 6  251 197 
 CHI  HZ I         554 25.71         2.6 0.61                           251 197 
 HEL  HZ EP   2    553 56.58                             114     0.8 4  278 256 
 HEL  HZ I         554 33.06         1.8 0.33                           278 256 
                                                                                
