 2010 12 7 0138 51.4 L   6.779 -73.242139.4  RSN  9 0.4 2.4LRSN                1
 GAP=128        0.75       3.9     8.7  7.4 -0.1856E+02  0.1861E+02 -0.1489E+00E
 Epicentro: ZAPATOCA - SANTANDER                                               3
 ACTION:UP  11-01-14 15:23 OP:pat  STATUS:               ID:20101207013851 L   I
 2010-12-07-0135-35S.COL___135                                                 6
 STAT SP IPHASW D HRMM SECON CODA AMPLIT PERI AZIMU VELO SNR AR TRES W  DIS CAZ7
 BTL  SZ EP   1    139 10.37                             173     0.2 7   16 349 
 BAR2 SZ EP        139 10.06                             170    -0.210   22 163 
 BAR2 SZ ES   1    139 24.56                             170    -0.4 7   22 163 
 BAR2 SZ I         139 25.80        72.7 0.10                            22 163 
 GIR2 SZ EP   2    139 10.17                             165    -0.2 5   34   9 
 GRA  SZ EP        139 17.12                             133     0.510  131  22 
 GRA  SZ ES        139 36.37                             133     0.210  131  22 
 GRA  SZ I         139 37.57        28.7 0.32                           131  22 
 OCA  SZ EP   1    139 19.01                             127    -0.3 7  162 357 
 OCA  SZ ES   1    139 40.68                             127    -0.5 7  162 357 
 OCA  SZ I         139 46.32        19.0 0.18                           162 357 
 YOP  SZ EP   2    139 20.86                             124    -0.4 4  182 150 
 YOP  SZ I         139 47.66        24.9 0.35                           182 150 
 NOR  SZ EP   1    139 25.70                             118     0.0 6  225 233 
 NOR  SN ES   2    139 52.87                             118     0.4 4  225 233 
 CHI  HZ EP   2    139 28.28                             116     0.1 4  244 193 
 CHI  HN ES   2    139 57.58                             116     0.6 4  244 193 
 SJA  SZ EP   2    139 44.74                             105    -0.5 3  396 192 
 SJA  SZ I         140 30.81        14.0 0.52                           396 192 
                                                                                
