 2010  9 7 0218 39.8 L   6.968 -73.069139.9  RSN  4 0.3 1.4LRSN                1
 GAP=165        0.80       4.6     9.0 10.9 -0.8958E+01 -0.5408E+02  0.4248E+01E
 Epicentro: PIEDECUESTA - SANTANDER                                            3
 ACTION:UP  11-02-18 11:00 OP:tino STATUS:               ID:20100907021839 L   I
 2010-09-07-0215-44S.COL___120                                                 6
 STAT SP IPHASW D HRMM SECON CODA AMPLIT PERI AZIMU VELO SNR AR TRES W  DIS CAZ7
 BRR  HZ EP   1    218 59.89                             151    -0.5 7   73 282 
 BRR  HE ES        219 16.62                             151     0.110   73 282 
 BRR  HZ I         219 18.86         7.8 0.19                            73 282 
 GUE  SZ EP   1    219  3.05                             143     0.6 7   97   9 
 GRA  SZ EP        219  2.76                             141    -0.110  106  16 
 GRA  SZ ES   1    219 20.66                             141    -0.2 7  106  16 
 GRA  SZ I         219 22.49         5.3 0.32                           106  16 
 RUS  HZ EP   1    219  4.54                             138     0.1 7  119 181 
 RUS  HN ES   1    219 23.52                             138    -0.1 7  119 181 
 RUS  HZ I         219 25.17         2.3 0.27                           119 181 
                                                                                
