 2014  7 7 0919  6.8 L   6.772 -73.160140.9  RSN  5 0.4 1.5LRSN                1
 GAP=181        1.03       4.6     5.8  8.5  0.3374E+01  0.1097E+02 -0.1292E+02E
 Epicentro: LOS SANTOS - SANTANDER                                             3
 ACTION:UPD 15-03-16 20:41 OP:nd   STATUS:               ID:20140707091906 L   I
 OLDACT:REG 14-07-07 14:18 OP:stll STATUS:               ID:20140707091815     3
 2014-07-07-0918-15M.COL___250                                                 6
 STAT SP IPHASW D HRMM SECON CODA AMPLIT PERI AZIMU VELO AIN AR TRES W  DIS CAZ7
 BAR2 SZ ES        919 39.91                             171   -0.6710 20.0 187 
 BAR2 SZ I         919 42.12         4.1 0.12            169           20.0 187 
 RUS  HZ EP        919 29.85                             144   -0.0010 97.6 175 
 RUS  HN ES        919 48.45                             144    0.6110 97.6 175 
 RUS  HZ I         919 49.56         3.6 0.36            147           97.6 175 
 PTB  HZ EP        919 32.53                             131   -0.65 9  146 260 
 PTB  HN ES        919 54.00                             131    0.25 9  146 260 
 PTB  HZ I         920  1.46         4.7 0.42            131            146 260 
 OCA  HZ EP        919 35.17                             128    0.15 9  163 354 
 OCA  HN ES        919 57.25                             128    0.23 9  163 354 
 OCA  HZ I         919 59.67         5.4 0.18            130            163 354 
 ZAR  HZ EP        919 38.83                             121   -0.08 9  204 293 
 ZAR  HN ES        920  4.16                             121    0.21 9  204 293 
 ZAR  HZ I         920  9.78         5.9 0.32            122            204 293 
                                                                                
