 2013  9 7 0609 56.0 L   6.773 -73.145152.7  RSN  6 0.3 1.7LRSN                1
 GAP=235        0.73       4.7     5.2  5.9  0.1205E+02  0.5019E+01  0.1685E+01E
 Epicentro: LOS SANTOS - SANTANDER                                             3
 ACTION:UPD 13-10-22 09:20 OP:ep   STATUS:               ID:20130907060956 L   I
 OLDACT:UP  13-09-07 12:13 OP:cam  STATUS:               ID:20130907060960d    3
 OLDACT:DUP 13-09-07 12:11 OP:cam  STATUS:               ID:20130907060960d    3
 OLDACT:UP  13-09-07 12:11 OP:cam  STATUS:               ID:20130907060959     3
 OLDACT:REG 13-09-07 10:51 OP:cam  STATUS:               ID:20130907060959     3
 2013-09-07-0609-59M.COL___269                                                 6
 STAT SP IPHASW D HRMM SECON CODA AMPLIT PERI AZIMU VELO AIN AR TRES W  DIS CAZ7
 BAR2 SZ EP        610 16.13                             172   -0.2310 20.4 192 
 BAR2 SZ ES   1    610 32.32                             172    0.04 7 20.4 192 
 BAR2 SZ I         619 39.55        44.6 0.26             55           20.4 192 
 BRR  HZ EP        610 17.98                             153    0.0510 72.7 301 
 BRR  HN ES        610 35.40                             153    0.3210 72.7 301 
 BRR  HZ I         610 37.70         6.2 0.16             55           72.7 301 
 RUS  HZ EP   1    610 20.56                             146    0.37 7 97.6 176 
 RUS  HN ES        610 38.79                             146   -0.3010 97.6 176 
 RUS  HZ I         610 39.61         2.5 0.24             55           97.6 176 
 PTB  HZ EP        610 23.15                             134   -0.30 9  147 260 
 PTB  HN ES   1    610 44.35                             134   -0.54 7  147 260 
 PTB  HZ I         610 51.18         7.1 0.38             55            147 260 
 SPBC HZ EP        610 25.08                             131    0.30 9  161 220 
 SPBC HN ES   1    610 47.81                             131    0.54 7  161 220 
 SPBC HZ I         610 54.63         4.7 0.18             55            161 220 
 ZAR  HE ES        610 54.67                             124   -0.06 8  205 293 
                                                                                
