 2010 12 7 0403 23.7 L   6.800 -73.047148.5  RSN  5 0.3 1.8LRSN                1
 GAP=185        0.53       3.6     8.7  7.4 -0.1763E+02  0.1929E+02  0.2731E+01E
 Epicentro: LOS SANTOS - SANTANDER                                             3
 ACTION:UP  11-01-14 15:23 OP:pat  STATUS:               ID:20101207040323 L   I
 2010-12-07-0403-35S.COL___135                                                 6
 STAT SP IPHASW D HRMM SECON CODA AMPLIT PERI AZIMU VELO SNR AR TRES W  DIS CAZ7
 BAR2 SZ EP   1    4 3 44.09                             169     0.3 7   28 213 
 BAR2 SZ ES   2    4 3 59.57                             169     0.2 5   28 213 
 BAR2 SZ I         4 4  0.56        10.4 0.20                            28 213 
 GRA  SZ EP   2    4 3 48.80                             138    -0.2 5  123  13 
 GRA  SZ ES   1    4 4  8.34                             138    -0.3 7  123  13 
 GRA  SZ I         4 4  9.73        10.2 0.31                           123  13 
 OCA  SZ EP   1    4 3 52.37                             130     0.0 7  162 349 
 OCA  SZ ES   1    4 4 14.91                             130     0.2 7  162 349 
 OCA  SZ I         4 4 19.87        11.2 0.25                           162 349 
 NOR  SZ EP   1    4 4  0.56                             118     0.0 6  244 236 
 NOR  SN ES   2    4 4 29.14                             118    -0.2 4  244 236 
 CHI  HZ EP   2    4 4  2.36                             117     0.5 4  252 198 
 CHI  HN ES   2    4 4 31.05                             117    -0.6 4  252 198 
 CHI  HZ I         4 4 36.31         3.3 0.35                           252 198 
                                                                                
