 2015  2 7 0315  7.8 L   6.738 -73.198147.8  RSN  5 0.2 1.1LRSN                1
 GAP=227        0.53       4.1     4.2  4.1  0.9027E+01  0.4752E+01  0.3985E+01E
 Epicentro: VILLANUEVA - SANTANDER                                             3
 ACTION:UPD 15-04-30 21:23 OP:nd   STATUS:               ID:20150207031507 L   I
 OLDACT:DUP 15-02-07 16:28 OP:stll STATUS:               ID:20150207030736d    3
 2015-02-07-0307-35M.COL___290                                                 6
 STAT SP IPHASW D HRMM SECON CODA AMPLIT PERI AZIMU VELO AIN AR TRES W  DIS CAZ7
 BAR2 EZ ES        315 43.04                             173    0.1010 16.2 174 
 BAR2 EZ I         315 43.56         3.5 0.20            150           16.2 174 
 BRR  HZ EP        315 29.24                             153    0.1710 70.0 306 
 BRR  HN ES        315 45.61                             153   -0.0810 70.0 306 
 BRR  HZ I         315 49.74         4.4 0.42            137           70.0 306 
 RUS  HZ EP        315 31.15                             146   -0.1410 94.3 172 
 RUS  HZ I         315 31.61         1.1 0.48            127           94.3 172 
 RUS  HN ES        315 49.55                             146   -0.0810 94.3 172 
 PTB  HZ EP        315 33.98                             134   -0.32 9  141 261 
 PTB  HN ES        315 55.02                             134    0.03 9  141 261 
 PTB  HZ I         316  0.53         1.9 0.12            117            141 261 
 SPBC HZ EP        315 35.93                             131    0.33 9  154 219 
 SPBC HZ I         316  5.75         1.6 0.20            114            154 219 
                                                                                
