 2011  2 7 0450 59.9 L   6.783 -73.103146.5  RSN  5 0.3 1.2LRSN                1
 GAP=164        0.51       5.2    20.4  7.0 -0.7983E+02  0.2056E+02 -0.1735E+01E
 Epicentro: LOS SANTOS - SANTANDER                                             3
 ACTION:UP  11-03-28 15:06 OP:jfem STATUS:               ID:20110207045059 L   I
 2011-02-07-0448-25S.COL___138                                                 6
 STAT SP IPHASW D HRMM SECON CODA AMPLIT PERI AZIMU VELO SNR AR TRES W  DIS CAZ7
 BAR2 SZ EP   1    451 19.44                             171    -0.2 7   23 203 
 BAR2 SZ ES   2    451 34.52                             171    -0.5 5   23 203 
 BAR2 SZ I         451 37.19         5.4 0.49                            23 203 
 BTL  SZ EP   1    451 19.95                             170     0.3 7   24 309 
 RUS  HZ EP   1    451 23.48                             145    -0.1 7   99 179 
 RUS  HZ I         451 24.38         1.4 0.20                            99 179 
 RUS  HE ES   2    451 42.39                             145     0.3 5   99 179 
 GRA  SZ EP   1    451 25.19                             137    -0.1 7  126  15 
 GRA  SZ ES   2    451 45.19                             137     0.2 5  126  15 
 CHI  HZ EP   1    451 37.43                             117    -0.2 6  248 196 
 CHI  HN ES   2    452  7.36                             117     0.4 4  248 196 
 CHI  HZ I         452 16.72         1.3 0.68                           248 196 
                                                                                
