 2011  2 7 0029 14.7 L   6.778 -73.149146.0  RSN  7 0.2 1.9LRSN                1
 GAP=158        0.41       1.9     5.8  6.0 -0.4371E+01  0.1175E+02 -0.1578E+01E
 Epicentro: LOS SANTOS - SANTANDER                                             3
 ACTION:UP  11-03-28 15:06 OP:jfem STATUS:               ID:20110207002915 L   I
 2011-02-07-0026-14S.COL___137                                                 6
 STAT SP IPHASW D HRMM SECON CODA AMPLIT PERI AZIMU VELO SNR AR TRES W  DIS CAZ7
 BAR2 SZ EP   1    029 34.35                             171     0.1 7   21 190 
 BAR2 SZ I         029 51.12        15.4 0.37                            21 190 
 GIR2 SZ EP   2    029 34.39                             166    -0.1 5   34 352 
 RUS  HZ EP   1    029 38.30                             145     0.0 7   98 176 
 RUS  HN ES   1    029 56.71                             145     0.0 7   98 176 
 RUS  HZ I         029 58.21         8.7 0.21                            98 176 
 GRA  SZ EP   1    029 40.11                             137     0.0 7  128  17 
 GRA  SZ ES   1    029 59.89                             137    -0.1 7  128  17 
 GRA  SZ I         030  0.80        17.8 0.33                           128  17 
 OCA  SZ EP   1    029 42.98                             129    -0.3 7  163 353 
 OCA  SZ ES   1    030  5.84                             129     0.3 7  163 353 
 OCA  SZ I         030 10.75        16.3 0.25                           163 353 
 NOR  SZ EP   3    029 50.86                             119     0.6 2  233 235 
 NOR  SN ES   2    030 17.64                             119    -0.4 4  233 235 
 CHI  HZ EP   2    029 52.40                             118     0.3 4  246 195 
 CHI  HZ I         029 55.03         3.5 0.38                           246 195 
 CHI  HN ES   2    030 21.45                             118     0.1 4  246 195 
                                                                                
