 2015  3 7 0830 59.6 L   6.819 -73.144149.1  RSN 16 0.4 1.9LRSN                1
 GAP= 65        0.92       2.5     3.0  4.8 -0.6324E-01  0.1787E+01  0.2690E+01E
 Epicentro: LOS SANTOS - SANTANDER                                             3
 ACTION:UPD 15-04-30 16:23 OP:nd   STATUS:               ID:20150307083059 L   I
 OLDACT:DUP 15-03-07 17:49 OP:spq  STATUS:               ID:20150307082737d    3
 2015-03-07-0827-36M.COL___284                                                 6
 STAT SP IPHASW D HRMM SECON CODA AMPLIT PERI AZIMU VELO AIN AR TRES W  DIS CAZ7
 BAR2 EZ EP        831 19.57                             170   -0.1110 25.4 190 
 BAR2 EZ ES   1    831 35.36                             170    0.02 7 25.4 190 
 BAR2 EZ I         831 35.95        17.2 0.25            170           25.4 190 
 BRR  HZ EP     C  831 21.40                             153    0.3210 70.4 297 
 BRR  HN ES        831 38.43                             153    0.6110 70.4 297 
 BRR  HZ I         831 41.57        14.8 0.30            153           70.4 297 
 PAM  SZ EP        831 22.51                             152    0.4310 75.6  40 
 PAM  SN ES        831 39.47                             152   -0.1310 75.6  40 
 PAM  SZ I         831 41.68        18.8 0.52            155           75.6  40 
 RUS  HZ EP        831 23.76                             144   -0.0810  103 176 
 RUS  HE ES   1    831 42.53                             144   -0.20 7  103 176 
 RUS  HZ I         831 43.32         6.2 0.26            146            103 176 
 PTB  HZ EP        831 26.62                             133   -0.29 9  148 258 
 PTB  HE ES   1    831 47.90                             133   -0.30 7  148 258 
 PTB  HZ I         831 54.56         7.3 0.18            133            148 258 
 TAM  HZ EP        831 28.02                             131    0.43 9  155 106 
 TAM  HN ES   1    831 49.67                             131    0.27 7  155 106 
 TAM  HZ I         831 53.44         4.4 0.21            135            155 106 
 OCA  HZ EP   1    831 27.76                             131   -0.23 7  158 353 
 OCA  HN ES        831 49.49                             131   -0.63 9  158 353 
 OCA  HZ I         831 55.08         5.4 0.14            133            158 353 
 SPBC HZ EP        831 28.37                             129   -0.16 9  165 219 
 SPBC HE ES        831 50.73                             129   -0.36 9  165 219 
 SPBC HZ I         831 54.89        14.0 0.35            131            165 219 
 ZAR  HZ EP        831 32.09                             123   -0.12 9  203 292 
 ZAR  HN ES        831 57.39                             123   -0.25 9  203 292 
 ZAR  HZ I         832  4.70         7.7 0.26            124            203 292 
 SML  HZ EP        831 36.00                             118   -0.23 8  242 335 
 SML  HN ES   1    832  5.15                             118    0.36 6  242 335 
 SML  HZ I         832  6.68         8.8 0.24            120            242 335 
 CHI  HZ EP        831 37.78                             118    0.06 8  251 195 
 CHI  HN ES        832  7.24                             118   -0.20 8  251 195 
 CHI  HZ I         832 10.61         6.0 0.60            119            251 195 
 HEL  HN ES   1    832 11.87                             115    0.23 6  273 255 
 HEL  HZ I         832 17.64         4.3 0.30            117            273 255 
 GUY2CHZ EP        831 44.62                             113    1.09 7  303 234 
 GUY2CHE ES   4    832 20.92                             113    3.13 0  303 234 
 GUY2CHZ I         832 25.81         3.6 0.34                           303 234 
 PTGC HZ EP        831 42.83                             112   -1.00 7  311 159 
 PTGC HE ES   4    832 15.89                             112   -2.43 0  311 159 
 PTGC HZ I         832 18.10         6.0 0.27            114            311 159 
 MON  HZ EP   4    831 46.59                             109   -2.02 0  353 308 
 MON  HN ES   4    832 25.32                             109   -1.51 0  353 308 
 MON  HZ I         832 26.16         1.1 0.13            111            353 308 
 PRA  HZ EP        831 53.58                             107    0.11 6  394 209 
 PRA  HN ES        832 36.17                             107    0.68 6  394 209 
 PRA  HZ I         832 41.55         4.0 0.34            108            394 209 
                                                                                
