 2013  5 7 0732 40.5 L   6.846 -73.163144.8  RSN  9 0.5 1.6LRSN                1
 GAP=132        1.02       4.1     5.5  9.4  0.4596E+00  0.9651E+01 -0.3520E+01E
 Epicentro: LOS SANTOS - SANTANDER                                             3
 ACTION:UPD 13-06-20 09:48 OP:ep   STATUS:               ID:20130507073240 L   I
 2013-05-07-0730-00M.COL___256                                                 6
 STAT SP IPHASW D HRMM SECON CODA AMPLIT PERI AZIMU VELO AIN AR TRES W  DIS CAZ7
 GIR2 SZ EP        732 59.90                             169   -0.0410 26.0 353 
 BRR  HZ EP        733  1.73                             154    0.4010 67.2 296 
 BRR  HN ES   1    733 18.53                             154    0.96 7 67.2 296 
 BRR  HZ I         733 19.05         5.1 0.28            152           67.2 296 
 PAM  SZ EP        733  2.81                             151    0.3310 74.9  43 
 PAM  SN ES   1    733 19.63                             151    0.02 7 74.9  43 
 PAM  SZ I         733 21.22         4.5 0.36            151           74.9  43 
 RUS  HZ EP   1    733  4.40                             142   -0.15 7  106 175 
 RUS  HN ES        733 22.77                             142   -0.5310  106 175 
 RUS  HZ I         733 24.10         3.5 0.24            142            106 175 
 PTB  HZ EP   1    733  6.90                             132   -0.43 7  147 257 
 PTB  HN ES   1    733 27.34                             132   -0.90 7  147 257 
 PTB  HZ I         733 29.63         3.8 0.44            131            147 257 
 OCA  HE ES   1    733 29.93                             130    0.03 7  155 354 
 ZAR  HE ES   1    733 37.78                             123    0.30 6  200 291 
 SML  HZ EP   1    733 16.30                             118   -0.20 6  238 335 
 SML  HN ES   1    733 43.90                             118   -0.67 6  238 335 
 SML  HZ I         733 50.50         5.7 0.10            117            238 335 
 PRA  HN ES   1    734 17.46                             106    1.02 4  395 209 
 PRA  HZ I         734 22.72         1.7 0.36            106            395 209 
                                                                                
