 2010 11 7 0155 28.7 L   6.717 -73.154144.8  RSN  6 0.5 1.6LRSN                1
 GAP=158        1.03       6.6    12.8 12.0  0.5333E+01  0.1461E+01 -0.1197E+02E
 Epicentro: VILLANUEVA - SANTANDER                                             3
 ACTION:UP  10-12-17 16:50 OP:REBC STATUS:               ID:20101107015528 L   I
 2010-11-07-0154-05S.COL___128                                                 6
 STAT SP IPHASW D HRMM SECON CODA AMPLIT PERI AZIMU VELO SNR AR TRES W  DIS CAZ7
 BAR2 SZ EP        155 48.04                             173     0.010   14 193 
 BAR2 SZ ES   1    156  2.27                             173    -0.9 7   14 193 
 BAR2 SZ I         156  4.40         8.0 0.16                            14 193 
 BTL  SZ EP        155 48.39                             169     0.110   26 331 
 BRR  HZ IP     C  155 49.98                             150     0.010   75 305 
 BRR  HZ I         155 50.30        17.3 0.11                            75 305 
 BRR  HE ES   1    156  6.89                             150     0.3 7   75 305 
 RUS  HZ EP   3    155 52.16                             145     0.4 2   91 175 
 RUS  HE ES   1    156 10.32                             145     0.7 7   91 175 
 RUS  HZ I         156 11.72         4.5 0.36                            91 175 
 GRA  SZ ES   1    156 14.65                             134    -0.2 7  135  17 
 GRA  SZ I         156 15.67         4.9 0.40                           135  17 
 VIL  SE ES   3    156 41.77                             112    -1.9 2  292 190 
                                                                                
