 2014 10 7 0631  2.9 L   6.809 -73.147146.2  RSN 24 0.5 2.2LRSN                1
 GAP= 65        0.94       2.3     2.8  4.6 -0.1997E+00  0.2961E+01  0.2181E+01E
 Epicentro: LOS SANTOS - SANTANDER                                             3
 ACTION:UPD 14-11-29 23:47 OP:nd   STATUS:               ID:20141007063102 L   I
 OLDACT:REG 14-10-07 13:23 OP:fm   STATUS:               ID:20141007062750     3
 2014-10-07-0627-50M.COL___286                                                 6
 STAT SP IPHASW D HRMM SECON CODA AMPLIT PERI AZIMU VELO AIN AR TRES W  DIS CAZ7
 BAR2 SZ EP        631 22.63                             170    0.0210 24.3 189 
 BAR2 SZ ES   1    631 37.82                             170   -0.16 7 24.3 189 
 BAR2 SZ I         631 40.38        53.0 0.26            167           24.3 189 
 BRR  HZ EP        631 24.42                             153    0.3510 70.6 298 
 BRR  HN ES        631 40.99                             153    0.4110 70.6 298 
 BRR  HZ I         631 45.41        33.7 0.24            151           70.6 298 
 PAM  SZ EP        631 25.51                             151    0.3810 76.7  40 
 PAM  SN ES        631 42.46                             151   -0.0010 76.7  40 
 PAM  SZ I         631 45.82        20.7 0.54            157           76.7  40 
 RUS  HZ EP        631 26.58                             144   -0.1910  102 176 
 RUS  HE ES        631 45.21                             144   -0.1810  102 176 
 RUS  HZ I         631 46.65        17.4 0.28            144            102 176 
 PTB  HZ EP   1    631 29.79                             132   -0.12 7  148 258 
 PTB  HN ES        631 50.41                             132   -0.57 9  148 258 
 PTB  HZ I         631 56.59        15.1 0.13            131            148 258 
 TAM  HZ EP   1    631 31.04                             130    0.38 7  155 105 
 TAM  HN ES        631 52.53                             130    0.23 9  155 105 
 TAM  HZ I         631 53.71        13.8 0.38            136            155 105 
 OCA  HZ EP   1    631 30.82                             130   -0.34 7  159 353 
 OCA  HN ES        631 52.84                             130   -0.35 9  159 353 
 OCA  HZ I         631 56.18        16.2 0.16            133            159 353 
 SPBC HZ EP        631 31.55                             129    0.05 9  164 219 
 SPBC HN ES        631 53.66                             129   -0.15 9  164 219 
 SPBC HZ I         631 59.77        27.3 0.20            129            164 219 
 ZAR  HZ EP        631 35.33                             122    0.00 9  204 292 
 ZAR  HE ES        631 59.97                             122   -0.65 9  204 292 
 ZAR  HZ I         632  5.79        21.6 0.32            123            204 292 
 SML  HZ EP        631 38.72                             118   -0.73 8  243 335 
 SML  HE ES        632  8.84                             118    0.88 8  243 335 
 SML  HZ I         632 11.23        19.4 0.10            120            243 335 
 CHI  HZ EP   1    631 40.33                             117   -0.40 6  250 195 
 CHI  HN ES        632  9.99                             117   -0.24 8  250 195 
 CHI  HZ I         632 15.46        10.7 0.26            118            250 195 
 ROSC BZ EP   4    631 42.72                             117    1.58 0  254 211 
 ROSC BE ES   4    632 12.96                             117    2.01 0  254 211 
 ROSC BZ I         632 17.28        28.1 0.45            118            254 211 
 URE  HZ EP   4    631 41.90                             114   -2.04 0  283 292 
 URE  HE ES   4    632 12.73                             114   -3.22 0  283 292 
 URE  HZ I         632 23.98         9.4 0.16            115            283 292 
 GUY2CHZ EP        631 46.54                             112   -0.05 7  302 235 
 GUY2CHE ES   4    632 23.22                             112    2.56 0  302 235 
 GUY2CHZ I         632 28.97        10.6 0.60                           302 235 
 VIL  SE ES   4    632 18.43                             112   -1.99 0  304 192 
 VIL  SZ I         632 25.90        19.6 0.58            113            304 192 
 PTGC HZ EP        631 45.87                             111   -1.02 7  310 159 
 PTGC HN ES   4    632 18.20                             111   -3.00 0  310 159 
 PTGC HZ I         632 21.02         5.6 0.26            114            310 159 
 CBOC HZ EP   1    631 50.29                             110    0.43 5  334 252 
 CBOC HN ES   1    632 27.04                             110    0.56 5  334 252 
 CBOC HZ I         632 39.09         3.2 0.40            111            334 252 
 TOL  SZ EP   1    631 52.11                             109    0.86 5  344 225 
 TOL  SN ES        632 29.85                             109    0.89 7  344 225 
 TOL  SZ I         632 38.98        19.3 0.34            110            344 225 
 MON  HN ES   4    632 27.88                             109   -2.13 0  353 308 
 MON  HZ I         632 30.35         3.7 0.42            110            353 308 
 ANIL HN ES   4    632 33.74                             108    2.03 0  358 224 
 ANIL HZ I         632 37.45         2.4 0.28            109            358 224 
 PRA  HZ EP        631 56.61                             106    0.07 6  393 209 
 PRA  HN ES        632 38.65                             106    0.28 6  393 209 
 PRA  HZ I         632 44.79        12.7 0.72            108            393 209 
 ORTC HZ EP        631 56.99                             106    0.06 6  396 216 
 ORTC HN ES        632 39.95                             106    0.89 6  396 216 
 ORTC HZ I         632 44.05         5.1 0.22            107            396 216 
 PAL  HZ EP   1    631 57.73                             106   -0.40 4  406 239 
 PAL  HN ES   4    632 37.50                             106   -3.70 0  406 239 
 PAL  HZ I         632 46.12         2.9 0.22            107            406 239 
 SJC  HZ EP   4    631 56.65                             106   -1.72 0  408 327 
 SJC  HN ES   4    632 36.87                             106   -4.77 0  408 327 
 SJC  HZ I         632 41.94         3.2 0.32            107            408 327 
                                                                                
