 2011  6 7 0342 19.8 L   6.805 -73.086149.5  RSN  4 0.2 1.3LRSN                1
 GAP=165        0.49       4.6     8.2  9.3  0.6520E+01 -0.2704E+02  0.1000E+02E
 Epicentro: LOS SANTOS - SANTANDER                                             3
 ACTION:UP  11-07-14 19:03 OP:ep   STATUS:               ID:20110607034219 L   I
 2011-06-07-0340-29S.COL___132                                                 6
 STAT SP IPHASW D HRMM SECON CODA AMPLIT PERI AZIMU VELO SNR AR TRES W  DIS CAZ7
 BAR2 SZ EP   1    342 40.05                             170     0.2 7   26 204 
 BAR2 SZ I         342 52.48         5.8 0.70                            26 204 
 BRR  HZ EP   1    342 41.81                             151     0.2 7   77 296 
 BRR  HZ I         342 47.42         4.0 0.45                            77 296 
 BRR  HE ES   1    342 58.57                             151    -0.1 7   77 296 
 RUS  HZ EP   1    342 43.63                             144    -0.3 7  101 180 
 RUS  HN ES   2    343  2.93                             144     0.2 5  101 180 
 RUS  HZ I         343  4.81         2.0 0.37                           101 180 
 GRA  SZ ES   2    343  4.88                             138    -0.1 5  123  15 
 GRA  SZ I         343  8.42         4.4 0.38                           123  15 
                                                                                
