 2017  3 7 0337 55.8 L   6.788 -73.177144.1  RSN  7 0.3 1.4LRSN                1
 GAP=133        0.54       3.7     3.2  5.5  0.8988E+00  0.1336E+01 -0.9304E+01E
 Epicentro: LOS SANTOS - SANTANDER                                             3
 ACTION:UPD 17-05-25 18:37 OP:jn   STATUS:               ID:20170307033755 L   I
 OLDACT:UP  17-03-07 13:24 OP:and  STATUS:               ID:20170307032743     3
 OLDACT:UP  17-03-07 13:24 OP:and  STATUS:               ID:20170307032743     3
 OLDACT:UP  17-03-07 13:24 OP:and  STATUS:               ID:20170307032743     3
 OLDACT:REG 17-03-07 11:47 OP:and  STATUS:               ID:20170307032743     3
 2017-03-07-0328-00M.COL___367                                                 6
 STAT SP IPHASW D HRMM SECON CODA AMPLIT PERI AZIMU VELO AIN AR TRES W  DIS CAZ7
 BAR2 EZ EP        338 14.87                             171   -0.2810 21.6 181 
 BAR2 EZ ES        338 30.33                             171    0.0510 21.6 181 
 BAR2 EZ I         338 32.75         4.4 0.40            170           21.6 181 
 BRR  HZ EP        338 16.70                             153    0.1110 68.8 301 
 BRR  HN ES   3    338 34.24                             153    1.39 2 68.8 301 
 PAM  EZ IP     D  338 17.92                             149   -0.0710 80.7  41 
 RUS  HZ EP   2    338 19.37                             144    0.10 5 99.6 174 
 RUS  HN ES        338 37.68                             144    0.0710 99.6 174 
 RUS  HZ I         338 38.98         5.0 0.34            145           99.6 174 
 PTB  HZ EP   2    338 22.89                             132    0.64 5  144 259 
 PTB  HN ES        338 42.67                             132   -0.25 9  144 259 
 PTB  HZ I         338 44.79         2.1 0.06            131            144 259 
 ZAR  HZ EP   2    338 28.26                             122    0.45 4  201 293 
 ZAR  HN ES   2    338 52.77                             122   -0.05 4  201 293 
 ZAR  HZ I         338 58.61         3.1 0.22            122            201 293 
 CHI  HN ES   2    339  2.45                             117    0.18 4  246 194 
 CHI  HZ I         339  4.98         1.8 0.28            118            246 194 
                                                                                
