 2016  1 7 0710 42.5 L   6.820 -73.174140.1  RSN 10 0.4 1.6LRSN                1
 GAP=132        1.02       2.9     4.2  6.4 -0.2700E+01  0.1109E+02 -0.3643E+01E
 Epicentro: ZAPATOCA - SANTANDER                                               3
 ACTION:UPD 16-03-09 23:23 OP:cam  STATUS:               ID:20160107071042 L   I
 OLDACT:REG 16-01-07 12:40 OP:drio STATUS:               ID:20160107070750     3
 2016-01-07-0707-50M.COL___266                                                 6
 STAT SP IPHASW D HRMM SECON CODA AMPLIT PERI AZIMU VELO AIN AR TRES W  DIS CAZ7
 BAR2 EZ EP        711  1.64                             169    0.1210 25.2 182 
 BAR2 EZ ES        711 16.31                             169   -0.0210 25.2 182 
 BAR2 EZ I         711 18.00        10.2 0.42            171           25.2 182 
 BRR  HZ EP        711  3.58                             153    0.7310 67.4 298 
 BRR  HN ES   4    711 20.52                             153    1.82 0 67.4 298 
 BRR  HZ I         711 22.05         8.7 0.16            152           67.4 298 
 PAM  EZ EP        711  4.58                             150    0.4110 77.8  42 
 PAM  EE ES        711 21.41                             150    0.3610 77.8  42 
 PAM  EZ I         711 23.89         3.4 0.46            153           77.8  42 
 RUS  HZ EP        711  5.66                             142   -0.2510  103 174 
 RUS  HE ES        711 23.62                             142   -0.5210  103 174 
 RUS  HZ I         711 24.94         3.5 0.26            146            103 174 
 PTB  HZ EP        711  8.40                             131   -0.40 9  145 258 
 PTB  HN ES        711 29.46                             131    0.17 9  145 258 
 PTB  HZ I         711 32.10         3.9 0.16            133            145 258 
 OCA  HZ EP        711 10.00                             129   -0.17 9  158 354 
 OCA  HE ES        711 31.40                             129   -0.32 9  158 354 
 OCA  HZ I         711 32.85         6.7 0.34            131            158 354 
 SPBC HZ EP        711 10.62                             128    0.04 9  163 218 
 SPBC HN ES        711 32.33                             128   -0.12 9  163 218 
 SPBC HZ I         711 36.00         6.6 0.20            130            163 218 
 ZAR  HZ EP        711 14.82                             122    0.59 9  200 292 
 ZAR  HN ES        711 39.15                             122    0.20 9  200 292 
 ZAR  HZ I         711 42.62         3.4 0.14            123            200 292 
 SML  HZ EP        711 17.78                             117   -0.71 8  240 336 
 SML  HE ES        711 45.83                             117   -0.70 8  240 336 
 SML  HZ I         711 52.04         6.3 0.10            119            240 336 
 GUY2CHZ EP        711 26.35                             111    0.61 7  300 234 
 GUY2CHN ES        711 59.14                             111   -0.30 7  300 234 
 GUY2CHZ I         712  6.16         1.8 0.40                           300 234 
                                                                                
