 2015 10 7 0207 43.8 L   6.443 -73.807 55.7  RSN  6 0.3 1.4LRSN                1
 GAP= 71        0.84       2.4     2.9 12.8  0.9216E+00  0.2041E+02  0.7361E+01E
 Epicentro: CIMITARRA - SANTANDER                                              3
 ACTION:UPD 15-12-22 20:37 OP:cam  STATUS:               ID:20151007020743 L   I
 OLDACT:DUP 15-10-07 15:02 OP:spq  STATUS:               ID:20151007015752d    3
 2015-10-07-0157-49M.COL___346                                                 6
 STAT SP IPHASW D HRMM SECON CODA AMPLIT PERI AZIMU VELO AIN AR TRES W  DIS CAZ7
 BAR2 EZ EP     D  2 7 56.51                             121   -0.2910 71.0  77 
 BAR2 EZ ES   1    2 8  6.23                             121   -0.75 7 71.0  77 
 BAR2 EZ I         2 8  6.68         7.9 0.12             97           71.0  77 
 BRR  HZ EP        2 7 56.94                             119    0.1010 74.2   8 
 BRR  HN ES        2 8  7.49                             119    0.4510 74.2   8 
 BRR  HZ I         2 8  8.21        19.2 0.12             94           74.2   8 
 SPBC HZ EP        2 7 59.31                             113    0.3510 92.2 199 
 SPBC HN ES        2 8 10.86                             113    0.0410 92.2 199 
 SPBC HZ I         2 8 12.04        16.6 0.13             93           92.2 199 
 RUS  HZ EP     C  2 8  0.63                             111    0.2010  101 127 
 RUS  HE ES        2 8 13.41                             111   -0.0210  101 127 
 RUS  HZ I         2 8 14.49         8.5 0.32             61            101 127 
 ZAR  HE ES   1    2 8 25.58                             100   -0.31 7  164 315 
 ZAR  HZ I         2 8 32.60         2.2 0.13             61            164 315 
 HEL  HZ EP   1    2 8 11.57                              98    0.24 7  193 262 
 HEL  HE ES        2 8 32.33                              98   -0.50 9  193 262 
 HEL  HZ I         2 8 33.73         3.9 0.24             61            193 262 
                                                                                
