 2014 12 7 0846 20.1 L   6.789 -73.124146.0  RSN 15 0.4 1.6LRSN                1
 GAP=140        0.99       3.1     4.1  5.9 -0.1871E+01  0.6269E+01  0.1457E+01E
 Epicentro: LOS SANTOS - SANTANDER                                             3
 ACTION:UPD 15-02-10 17:01 OP:nd   STATUS:               ID:20141207084620 L   I
 OLDACT:DUP 14-12-07 20:08 OP:spq  STATUS:               ID:20141207083744d    3
 2014-12-07-0837-42M.COL___303                                                 6
 STAT SP IPHASW D HRMM SECON CODA AMPLIT PERI AZIMU VELO AIN AR TRES W  DIS CAZ7
 BAR2 SZ EP   1    846 39.71                             171   -0.06 7 22.7 196 
 BAR2 SZ ES   1    846 54.59                             171   -0.50 7 22.7 196 
 BAR2 SZ I         846 55.67         8.1 0.12            170           22.7 196 
 BRR  HZ EP        846 41.88                             152    0.4310 73.9 298 
 BRR  HE ES        846 58.66                             152    0.5810 73.9 298 
 BRR  HZ I         847  3.05         5.9 0.20            150           73.9 298 
 PAM  SZ EP        846 42.80                             151    0.4610 76.9  38 
 PAM  SN ES        846 59.26                             151   -0.4010 76.9  38 
 PAM  SZ I         847  1.68        10.2 0.52            154           76.9  38 
 RUS  HZ EP        846 44.08                             144    0.2810 99.2 177 
 RUS  HE ES   1    847  2.29                             144    0.02 7 99.2 177 
 RUS  HZ I         847  3.91         6.3 0.40            147           99.2 177 
 PTB  HZ EP        846 46.89                             132   -0.41 9  150 259 
 PTB  HE ES   1    847  8.17                             132   -0.33 7  150 259 
 PTB  HZ I         847 10.64         6.3 0.20            132            150 259 
 OCA  HN ES   1    847 10.46                             129   -0.34 7  162 352 
 OCA  HZ I         847 14.07         5.6 0.16            131            162 352 
 SPBC HZ EP        846 48.29                             129   -0.40 9  164 220 
 SPBC HE ES        847 11.54                             129    0.57 9  164 220 
 SPBC HZ I         847 13.90        15.0 0.22            130            164 220 
 ZAR  HZ EP        846 53.00                             122    0.14 8  207 292 
 ZAR  HN ES        847 18.65                             122    0.26 8  207 292 
 ZAR  HZ I         847 24.80         3.8 0.26            123            207 292 
 NOR  HZ EP        846 56.47                             118    0.47 8  236 235 
 NOR  HE ES        847 23.31                             118   -0.67 8  236 235 
 NOR  HZ I         847 31.06         2.7 0.16            120            236 235 
 SML  HZ EP        846 56.28                             117   -0.71 8  246 335 
 SML  HE ES   1    847 25.69                             117   -0.06 6  246 335 
 SML  HZ I         847 32.31         6.0 0.10            119            246 335 
 CHI  HZ EP   1    846 58.18                             117    0.41 6  248 196 
 CHI  HN ES   1    847 26.41                             117   -0.73 6  248 196 
 CHI  HZ I         847 30.65         1.4 0.50            119            248 196 
 HEL  HZ EP   4    847  2.10                             115    1.53 0  274 256 
 HEL  HN ES   1    847 31.81                             115   -0.30 6  274 256 
 HEL  HZ I         847 36.90         1.7 0.36            116            274 256 
 GUY2CHZ EP   4    847  5.73                             112    1.85 0  302 235 
 GUY2CHN ES   4    847 39.22                             112    1.21 0  302 235 
 GUY2CHZ I         847 46.42         1.3 0.40                           302 235 
 MON  HZ EP   4    847  7.83                             108   -1.61 0  356 308 
 MON  HE ES   4    847 45.22                             108   -2.68 0  356 308 
 MON  HZ I         847 46.97         0.8 0.24            110            356 308 
 SJC  HZ EP   4    847 14.46                             106   -1.51 0  412 327 
 SJC  HN ES   4    847 55.57                             106   -3.95 0  412 327 
 SJC  HZ I         847 59.91         1.4 0.72            107            412 327 
                                                                                
