 2012  2 7 0330  7.5 L   6.739 -73.155143.8  RSN 11 0.5 2.1LRSN                1
 GAP=138        0.91       4.1     4.8  6.7 -0.2910E+01  0.8726E+01  0.2228E+00E
 ACTION:UP  12-03-07 16:28 OP:epov STATUS:               ID:20120207033007 L   I
 2012-02-07-0330-00M.COL___188                                                 6
 STAT SP IPHASW D HRMM SECON CODA AMPLIT PERI AZIMU VELO SNR AR TRES W  DIS CAZ7
 BAR2 SZ EP        330 26.90                             173    0.1410 16.5 191 
 BAR2 SZ ES   1    330 41.97                             173    0.19 7 16.5 191 
 BAR2 SZ I         330 42.96        29.1 0.12                          16.5 191 
 GIR2 SZ EP        330 27.21                             165    0.0910 37.9 354 
 BRR  HZ EP        330 29.01                             151    0.4410 73.8 304 
 BRR  HN ES   1    330 46.00                             151    0.98 7 73.8 304 
 BRR  HZ I         330 51.81        21.3 0.13                          73.8 304 
 PAM  SZ EP   1    330 29.66                             149   -0.20 7 83.3  37 
 PAM  SE ES   1    330 46.61                             149   -0.70 7 83.3  37 
 RUS  HZ EP   1    330 30.88                             145    0.32 7 93.9 175 
 RUS  HN ES   1    330 48.45                             145   -0.12 7 93.9 175 
 RUS  HZ I         330 50.15        23.1 0.33                          93.9 175 
 PTB  HZ EP   1    330 33.53                             132   -0.56 7  146 261 
 PTB  HN ES   1    330 53.97                             132   -0.88 7  146 261 
 OCA  SZ EP   1    330 36.01                             128   -0.26 7  167 354 
 OCA  SZ ES   1    330 58.39                             128   -0.34 7  167 354 
 ZAR  HZ EP   1    330 40.38                             122    0.40 6  206 294 
 ZAR  HE ES   1    331  5.24                             122   -0.09 6  206 294 
 NOR  SZ EP   1    330 42.47                             119   -0.12 6  230 236 
 NOR  SN ES   1    331  9.56                             119   -0.42 6  230 236 
 HEL  HZ EP   2    330 48.39                             115    1.08 4  270 257 
 HEL  HZ I         331 26.13         6.6 0.31                           270 257 
 PRA  HZ EP   1    330 60.00                             106   -0.19 4  386 210 
                                                                                
