 2013  1 7 0007  1.3 L   6.815 -73.120139.5  RSN  8 0.6 2.3LRSN 3.1WRSN        1
 SPEC AVERAGE  MO 13.8 ST  9.2 OM  2.7 f0 4.43 R0.3524 AL 2.64 WI 18.1 MW  3.1 3
 SPEC SD       MO  0.2 ST  6.6 OM  0.6 f0 1.06 R0.0866 AL      WI      MW  0.1 3
 GAP=186        1.41       4.7     6.5  8.3  0.4976E+01  0.1069E+02  0.1265E+01E
 Epicentro: LOS SANTOS - SANTANDER                                             3
 SPEC ZAR HH E MO 13.9 ST 19.7 OM  2.1 f0 5.80 R0.2534 AL 2.61 WI 23.2 MW  3.2 3
 SPEC ZAR HH E T 0 758 K 0.000 GD  248 VS 4.20 DE 3.00 Q0230.0 QA 0.60 VS 4.20 3
 SPEC OCA HH N MO 14.0 ST  7.1 OM  2.3 f0 3.73 R0.3941 AL 2.35 WI 18.3 MW  3.3 3
 SPEC OCA HH N T 0 750 K 0.000 GD  211 VS 4.20 DE 3.00 Q0230.0 QA 0.60 VS 4.20 3
 SPEC PTB HH N MO 13.6 ST  1.6 OM  1.9 f0 3.11 R0.4727 AL 1.76 WI 17.2 MW  3.0 3
 SPEC PTB HH N T 0 747 K 0.000 GD  205 VS 4.20 DE 3.00 Q0230.0 QA 0.60 VS 4.20 3
 SPEC BRR HH N MO 13.7 ST  8.4 OM  2.1 f0 5.08 R0.2894 AL 3.83 WI 13.8 MW  3.1 3
 SPEC BRR HH N T 0 738 K 0.000 GD  157 VS 4.20 DE 3.00 Q0230.0 QA 0.60 VS 4.20 3
 ACTION:UPD 13-02-15 09:12 OP:ep   STATUS:               ID:20130107000701 L   I
 2013-01-06-2359-50M.COL___196                                                 6
 STAT SP IPHASW D HRMM SECON CODA AMPLIT PERI AZIMU VELO AIN AR TRES W  DIS CAZ7
 BAR2 SZ EP        0 7 20.46                             169    0.2410 25.6 196 
 BAR2 SZ ES        0 7 35.07                             169    0.0910 25.6 196 
 BAR2 SZ I         0 7 36.35        53.5 0.30            166           25.6 196 
 BRR  HZ EP        0 7 22.20                             151    0.3310 72.9 296 
 BRR  HN ES        0 7 38.91                             151    1.0010 72.9 296 
 BRR  HN I         0 7 39.82        99.7 0.22            148           72.9 296 
 RUS  HZ EP        0 7 24.50                             142   -0.0510  102 178 
 RUS  HZ I         0 7 25.69        11.0 0.12            142            102 178 
 RUS  HN ES        0 7 42.41                             142   -0.2810  102 178 
 PTB  HZ EP        0 7 27.25                             130   -0.79 9  151 258 
 PTB  HN ES        0 7 47.94                             130   -0.97 9  151 258 
 PTB  HN I         0 7 53.38        47.7 0.38            128            151 258 
 OCA  HZ EP        0 7 28.57                             128   -0.42 9  159 352 
 OCA  HE ES        0 7 50.29                             128   -0.31 9  159 352 
 OCA  HN ES        0 7 50.97                             128            159 352 
 ZAR  HZ EP        0 7 34.36                             121    0.82 8  206 291 
 ZAR  HN ES        0 7 57.89                             121   -0.81 8  206 291 
 ZAR  HN I         0 8  2.48        26.0 0.32            120            206 291 
 CHI  HZ EP        0 7 38.96                             116    0.05 8  251 196 
 CHI  HN ES        0 8  8.21                             116   -0.05 8  251 196 
 CHI  HN I         0 8 10.84        13.2 0.34            116            251 196 
 HEL  HZ EP        0 7 42.18                             113    0.64 8  275 256 
 HEL  HN ES        0 8 13.69                             113    0.75 8  275 256 
 HEL  HN I         0 8 19.38         8.1 0.34            113            275 256 
                                                                                
