 2017  6 7 0945 58.7 L   6.722 -73.186143.2  RSN  4 0.2 1.4LRSN                1
 GAP=227        0.49       3.9     4.0  4.8  0.1093E+02 -0.2075E+01 -0.4544E+01E
 Epicentro: VILLANUEVA - SANTANDER                                             3
 ACTION:UPD 17-09-14 16:50 OP:jn   STATUS:               ID:20170607094558 L   I
 OLDACT:DUP 17-06-07 17:56 OP:dhb  STATUS:               ID:20170607093742d    3
 2017-06-07-0938-00M.COL___356                                                 6
 STAT SP IPHASW D HRMM SECON CODA AMPLIT PERI AZIMU VELO AIN AR TRES W  DIS CAZ7
 BRR  HZ IP     C  946 19.39                             152   -0.2610 72.1 306 
 BRR  HN ES        946 36.08                             152    0.1110 72.1 306 
 BRR  HZ I         946 41.04         5.0 0.13            155           72.1 306 
 RUS  HZ EP        946 21.63                             146   -0.0210 92.4 173 
 RUS  HN ES        946 39.58                             146    0.0510 92.4 173 
 RUS  HZ I         946 42.57         3.6 0.36            152           92.4 173 
 PTB  HN ES        946 45.36                             133   -0.06 9  142 262 
 ZAR  HZ EP        946 31.28                             122    0.33 9  203 295 
 ZAR  HN ES        946 55.98                             122   -0.09 9  203 295 
 ZAR  HZ I         946 57.28         2.5 0.10            127            203 295 
                                                                                
