 2015  1 7 0345 52.9 L   6.829 -73.157146.5  RSN 12 0.4 1.7LRSN                1
 GAP=134        0.92       2.9     4.2  5.9 -0.5279E+00  0.8904E+00  0.3834E+00E
 Epicentro: LOS SANTOS - SANTANDER                                             3
 ACTION:UPD 15-03-02 15:37 OP:nd   STATUS:               ID:20150107034552 L   I
 OLDACT:REG 15-01-07 15:50 OP:spq  STATUS:               ID:20150107033815     3
 2015-01-07-0338-15M.COL___277                                                 6
 STAT SP IPHASW D HRMM SECON CODA AMPLIT PERI AZIMU VELO AIN AR TRES W  DIS CAZ7
 BAR2 EZ EP        346 12.52                             169   -0.2010 26.3 186 
 BAR2 EZ ES   1    346 28.26                             169    0.11 7 26.3 186 
 BAR2 EZ I         346 29.65         5.1 0.14            168           26.3 186 
 BRR  HZ EP        346 14.04                             154    0.0110 68.6 297 
 BRR  HN ES        346 31.30                             154    0.8310 68.6 297 
 BRR  HZ I         346 35.90        10.0 0.32            151           68.6 297 
 PAM  SZ EP        346 15.33                             151    0.1910 75.8  42 
 RUS  HN ES   1    346 35.60                             143   -0.16 7  104 176 
 RUS  HZ I         346 37.21         5.5 0.32            145            104 176 
 PTB  HZ EP        346 19.40                             132   -0.52 9  147 258 
 PTB  HN ES        346 40.42                             132   -0.54 9  147 258 
 PTB  HZ I         346 42.75         5.3 0.44            131            147 258 
 OCA  HN ES   1    346 42.06                             131   -0.82 7  157 353 
 OCA  HZ I         346 45.77         3.8 0.24            132            157 353 
 SPBC HZ EP        346 21.92                             129    0.26 9  165 218 
 SPBC HE ES        346 43.69                             129   -0.37 9  165 218 
 SPBC HZ I         346 50.90         9.5 0.41            129            165 218 
 ZAR  HZ EP   1    346 25.93                             123    0.73 6  202 291 
 ZAR  HE ES        346 50.40                             123    0.05 9  202 291 
 ZAR  HZ I         346 57.56         5.6 0.30            123            202 291 
 NOR  HZ EP   1    346 28.89                             119    0.08 6  236 234 
 NOR  HE ES   1    346 56.43                             119   -0.35 6  236 234 
 NOR  HZ I         347  2.52         3.8 0.32            119            236 234 
 SML  HZ EP        346 29.32                             118    0.08 8  240 335 
 SML  HN ES   1    346 57.25                             118   -0.30 6  240 335 
 SML  HZ I         347  1.09         5.8 0.10            119            240 335 
 CHI  HZ EP        346 31.07                             117    0.09 8  251 195 
 CHI  HN ES        347  0.98                             117    0.33 8  251 195 
 CHI  HZ I         347  4.25         1.9 0.40            119            251 195 
 HEL  HZ EP   4    346 34.45                             115    1.30 0  272 255 
 HEL  HE ES   1    347  5.01                             115    0.50 6  272 255 
 HEL  HZ I         347 11.25         3.1 0.32            116            272 255 
                                                                                
