 2010 12 7 0022 30.7 L   7.384 -73.213128.1  RSN 14 0.4 2.5LRSN                1
 GAP=119        0.82       4.3     8.5  8.4 -0.1081E+02  0.1787E+02  0.9544E+01E
 Epicentro: EL PLAYON - SANTANDER                                              3
 ACTION:UP  11-01-14 15:23 OP:pat  STATUS:               ID:20101207002230 L   I
 2010-12-07-0020-31S.COL___135                                                 6
 STAT SP IPHASW D HRMM SECON CODA AMPLIT PERI AZIMU VELO SNR AR TRES W  DIS CAZ7
 URB  SZ EP        022 48.48                             170     0.510   21 220 
 GIR2 SZ EP   1    022 48.09                             164    -0.3 7   34 176 
 BTL  SZ EP   1    022 49.00                             157    -0.3 7   52 187 
 GUE  SZ EP   1    022 49.35                             154    -0.4 7   59  33 
 GRA  SZ EP        022 50.81                             149     0.610   71  39 
 GRA  SZ ES   2    023  5.65                             149     0.2 5   71  39 
 GRA  SZ I         023  7.27       101.2 0.12                            71  39 
 BAR2 SZ EP        022 51.12                             143    -0.310   88 178 
 BAR2 SZ ES   1    023  7.61                             143     0.0 7   88 178 
 BAR2 SZ I         023  8.83       105.4 0.13                            88 178 
 OCA  SZ EP   1    022 51.33                             141    -0.6 7   95 353 
 OCA  SZ ES   2    023  7.88                             141    -0.5 5   95 353 
 OCA  SZ I         023  9.70        26.4 0.28                            95 353 
 YOP  SZ EP        023  6.17                             114    -0.1 8  241 159 
 YOP  SZ I         023 35.39        34.2 0.39                           241 159 
 NOR  SZ EP   1    023  9.76                             111     0.0 6  272 223 
 NOR  SE ES   2    023 40.19                             111     0.1 4  272 223 
 HEL  HZ EP   2    023 12.59                             110     0.7 4  288 243 
 HEL  HZ I         023 51.90        11.7 0.24                           288 243 
 CHI  HZ EP   2    023 15.04                             108     0.5 4  310 191 
 CHI  HE ES   2    023 48.78                             108     0.1 4  310 191 
 CHI  HZ I         023 58.70         6.5 0.13                           310 191 
 RREF HZ EP   2    023 21.03                             105     0.1 3  362 221 
 RREF HZ I         024 10.85         9.9 0.14                           362 221 
 PRA  HZ EP   2    023 30.25                             101     0.1 3  446 205 
 PRA  HE ES   2    024 16.26                             101    -0.2 3  446 205 
 SJA  SZ EP   2    023 31.39                             101    -0.7 2  462 190 
 SJA  SZ I         023 32.04        13.1 0.49                           462 190 
                                                                                
