 2010  9 7 0609 14.7 L   6.873 -73.276122.3  RSN  5 0.4 1.6LRSN                1
 GAP=140        0.96      17.2    16.2 11.8  0.1511E+03 -0.7443E+02 -0.1017E+03E
 Epicentro: BETULIA - SANTANDER                                                3
 ACTION:UP  11-02-18 11:00 OP:tino STATUS:               ID:20100907060914 L   I
 2010-09-07-0607-39S.COL___120                                                 6
 STAT SP IPHASW D HRMM SECON CODA AMPLIT PERI AZIMU VELO SNR AR TRES W  DIS CAZ7
 BTL  SZ EP        6 9 31.56                             178     0.310    5  11 
 BTL  SZ ES   1    6 9 43.83                             178    -0.4 7    5  11 
 GIR2 SZ EP   1    6 9 30.65                             168    -0.8 7   25  22 
 BAR2 SZ EP   2    6 9 31.53                             164    -0.3 5   33 162 
 BAR2 SZ ES   1    6 9 45.48                             164     0.3 7   33 162 
 BAR2 SZ I         6 9 46.48        16.0 0.27                            33 162 
 BRR  HZ EP   1    6 9 32.32                             154    -0.1 7   55 298 
 BRR  HN ES   1    6 9 46.36                             154     0.1 7   55 298 
 BRR  HZ I         6 9 47.24         9.7 0.16                            55 298 
 GUE  SZ EP   2    6 9 37.83                             135     0.8 5  113  20 
 GUE  SZ I         6 9 38.40         4.4 0.23                           113  20 
                                                                                
