 2015  4 7 0106  4.4 L   6.809 -73.132149.4  RSN 15 0.4 2.7LRSN                1
 GAP= 71        0.94       2.7     2.8  5.4 -0.6340E+00  0.3718E+01  0.1609E+01E
 Epicentro: LOS SANTOS - SANTANDER                                             3
 ACTION:UPD 15-06-03 16:53 OP:cam  STATUS:               ID:20150407010604 L   I
 OLDACT:UP  15-04-07 19:31 OP:mh   STATUS:               ID:20150407005749     3
 OLDACT:REG 15-04-07 19:19 OP:mh   STATUS:               ID:20150407005749     3
 2015-04-07-0057-49M.COL___264                                                 6
 STAT SP IPHASW D HRMM SECON CODA AMPLIT PERI AZIMU VELO AIN AR TRES W  DIS CAZ7
 BAR2 EZ EP        1 6 24.44                             170   -0.0510 24.6 193 
 BAR2 EZ I         1 6 40.64       106.9 0.46            169           24.6 193 
 BRR  HZ EP        1 6 26.37                             153    0.3810 72.1 297 
 BRR  HN ES        1 6 43.38                             153    0.5510 72.1 297 
 BRR  HZ ES        1 6 43.48                             153           72.1 297 
 BRR  HZ I         1 6 46.46        83.1 0.06            152           72.1 297 
 PAM  SZ EP        1 6 27.21                             152    0.3110 75.7  39 
 PAM  SN ES        1 6 44.28                             152   -0.1710 75.7  39 
 PAM  SZ I         1 6 45.09        53.1 0.16            156           75.7  39 
 RUS  HZ EP     C  1 6 28.39                             144   -0.1810  101 177 
 RUS  HN ES        1 6 47.01                             144   -0.4110  101 177 
 RUS  HZ I         1 6 49.95        36.0 0.30            145            101 177 
 PTB  HZ EP        1 6 31.02                             132   -0.80 9  149 259 
 PTB  HN ES   1    1 6 54.11                             132    0.91 7  149 259 
 PTB  HZ I         1 6 58.06        83.6 0.50            132            149 259 
 TAM  HZ EP        1 6 32.66                             132    0.40 9  154 105 
 TAM  HN ES        1 6 54.22                             132    0.24 9  154 105 
 TAM  HZ I         1 6 54.75        25.2 0.16            135            154 105 
 OCA  HZ EP        1 6 32.67                             131   -0.25 9  160 353 
 OCA  HN ES        1 6 54.86                             131   -0.31 9  160 353 
 OCA  HZ I         1 6 59.15       108.7 0.36            133            160 353 
 SPBC HZ EP        1 6 33.29                             130   -0.05 9  165 219 
 SPBC HN ES        1 6 55.42                             130   -0.49 9  165 219 
 SPBC HZ I         1 7  1.81        94.2 0.38            130            165 219 
 ZAR  HZ EP   1    1 6 37.06                             123   -0.13 6  205 292 
 ZAR  HN ES   1    1 7  3.27                             123    0.50 6  205 292 
 ZAR  HZ I         1 7  9.20        87.3 0.44            124            205 292 
 NOR  HZ EP        1 6 40.53                             119   -0.00 8  236 234 
 NOR  HN ES   1    1 7  7.97                             119   -0.74 6  236 234 
 NOR  HZ I         1 7 14.21        37.0 0.26            120            236 234 
 SML  HZ EP   1    1 6 41.25                             118    0.04 6  243 335 
 SML  HN ES        1 7  9.31                             118   -0.61 8  243 335 
 SML  HZ I         1 7 18.59        68.0 0.76            120            243 335 
 ROSC BZ EP        1 6 43.21                             117    0.32 8  254 211 
 ROSC BN ES   4    1 7 14.38                             117    1.46 0  254 211 
 ROSC BZ I         1 7 21.55        57.9 0.35            118            254 211 
 HEL  HZ EP   1    1 6 45.54                             115    0.55 6  274 256 
 HEL  HN ES        1 7 16.75                             115    0.11 8  274 256 
 HEL  HZ I         1 7 24.72        26.3 0.44            116            274 256 
 URE  HZ EP   4    1 6 44.01                             114   -1.76 0  285 292 
 URE  HN ES   4    1 7 14.63                             114   -3.40 0  285 292 
 GUY2CHZ EP        1 6 48.66                             113    0.28 7  303 235 
 GUY2CHN ES   1    1 7 23.03                             113    0.35 5  303 235 
 GUY2CHZ I         1 7 30.45        35.0 0.60                           303 235 
 PTGC HZ EP   4    1 6 47.37                             112   -1.09 0  309 159 
 PTGC HN ES   4    1 7 20.40                             112   -2.42 0  309 159 
 PTGC HZ I         1 7 28.23        18.3 0.28            114            309 159 
                                                                                
