 2014 12 7 0421 33.3 L   5.861 -73.886105.2  RSN  4 0.3 0.7LRSN                1
 GAP=134        0.72       4.4     3.1  6.0 -0.9852E+00  0.2694E+01  0.2180E+01E
 Epicentro: LA BELLEZA - SANTANDER                                             3
 ACTION:UPD 15-02-10 17:01 OP:nd   STATUS:               ID:20141207042133 L   I
 OLDACT:REG 14-12-07 13:02 OP:spq  STATUS:               ID:20141207041740     3
 2014-12-07-0417-40M.COL___309                                                 6
 STAT SP IPHASW D HRMM SECON CODA AMPLIT PERI AZIMU VELO AIN AR TRES W  DIS CAZ7
 SPBC HZ EP        421 47.85                             162   -0.2810 30.9 222 
 SPBC HE ES        421 59.52                             162   -0.1710 30.9 222 
 RUS  HZ EP        421 52.65                             137    0.3010 89.0  88 
 RUS  HN ES   1    422  7.29                             137    0.09 7 89.0  88 
 RUS  HZ I         422  9.13         0.6 0.72            138           89.0  88 
 PTB  HZ EP   1    421 52.28                             133   -0.20 7 98.1 320 
 PTB  HE ES        422  7.54                             133    0.1110 98.1 320 
 PTB  HZ I         422 10.43         1.5 0.20            133           98.1 320 
 GUY2CHZ EP        422  0.85                             116   -0.37 9  178 247 
 GUY2CHN ES        422 23.49                             116    0.50 9  178 247 
 GUY2CHZ I         422 27.87         0.9 0.32                           178 247 
                                                                                
