 2012  7 7 0742 17.6 L   6.696 -73.197143.0  RSN  4 0.3 1.2LRSN                1
 GAP=223        0.88       8.7     8.6  9.4  0.2600E+02  0.2246E+02 -0.7413E+01E
 Epicentro: VILLANUEVA - SANTANDER                                             3
 ACTION:UPD 12-08-14 11:43 OP:ep   STATUS:               ID:20120707074217 L   I
 2012-07-07-0740-00M.COL___201                                                 6
 STAT SP IPHASW D HRMM SECON CODA AMPLIT PERI AZIMU VELO AIN AR TRES W  DIS CAZ7
 BAR2 SZ EP   1    742 36.67                             175     0.0 7   12 172 
 BAR2 SZ ES   1    742 51.01                             175    -0.6 7   12 172 
 BAR2 SZ I         742 52.97         4.4 0.30            168             12 172 
 BRR  HZ EP        742 38.53                             151     0.010   73 309 
 BRR  HZ I         742 39.07         5.0 0.14            153             73 309 
 BRR  HN ES   1    742 55.39                             151     0.5 7   73 309 
 RUS  HN ES   1    742 58.44                             146     0.4 7   90 172 
 RUS  HZ I         743  2.09         1.6 0.38            143             90 172 
 PTB  HZ EP        742 43.62                             133     0.0 9  140 263 
 PTB  HN ES   1    743  3.79                             133    -0.2 7  140 263 
 PTB  HZ I         743  7.29         1.2 0.11            132            140 263 
