 2012  6 7 0440 53.0 L   6.812 -73.141142.5  RSN  9 0.3 2.1LRSN                1
 GAP=184        0.58       2.4     3.5  4.8  0.2569E+00  0.4974E+01  0.5656E+00E
 Epicentro: LOS SANTOS - SANTANDER                                             3
 ACTION:UPD 12-08-06 17:47 OP:ep   STATUS:               ID:20120607044052 L   I
 2012-06-07-0440-00M.COL___201                                                 6
 STAT SP IPHASW D HRMM SECON CODA AMPLIT PERI AZIMU VELO AIN AR TRES W  DIS CAZ7
 BAR2 SZ EP   1    441 12.67                             170    0.35 7 24.7 191 
 BAR2 SZ ES   1    441 27.53                             170    0.18 7 24.7 191 
 BAR2 SZ I         441 28.61        23.0 0.26            169           24.7 191 
 RUS  HZ EP   1    441 16.33                             143   -0.25 7  102 176 
 RUS  HN ES   1    441 35.00                             143    0.07 7  102 176 
 RUS  HZ I         441 35.63         8.2 0.45            146            102 176 
 PTB  HZ EP   1    441 19.35                             131   -0.48 7  149 258 
 PTB  HN ES   1    441 40.33                             131   -0.39 7  149 258 
 OCA  HZ EP   1    441 20.90                             129   -0.09 7  159 353 
 OCA  HN ES   1    441 42.96                             129    0.17 7  159 353 
 OCA  HZ I         441 46.20        21.2 0.29            130            159 353 
 ZAR  HZ EP   1    441 25.24                             122   -0.05 6  204 292 
 ZAR  HN ES   1    441 50.39                             122   -0.05 6  204 292 
 ZAR  HZ I         441 55.82        15.2 0.38            122            204 292 
 NOR  SZ EP   1    441 28.72                             118    0.00 6  236 234 
 NOR  SN ES   1    441 56.13                             118   -0.42 6  236 234 
 CHI  HZ EP   1    441 30.32                             116   -0.40 6  250 195 
 CHI  HN ES   1    442  0.13                             116    0.02 6  250 195 
 CHI  HZ I         442  1.64        12.5 0.54            118            250 195 
 HEL  HZ EP   1    441 33.47                             114    0.27 6  273 256 
 HEL  HN ES   1    442  5.26                             114    0.75 6  273 256 
 HEL  HZ I         442 11.06         4.4 0.28            115            273 256 
 PRA  HZ EP   1    441 46.89                             106    0.27 4  393 210 
 PRA  HN ES   1    442 29.13                             106    0.72 4  393 210 
                                                                                
