 2011  2 7 0403 52.4 L   6.790 -73.036143.0  RSN  6 0.1 1.5LRSN                1
 GAP=171        0.34       2.5     6.4  4.5 -0.7215E+01  0.1138E+02 -0.1038E+01E
 Epicentro: CEPITA - SANTANDER                                                 3
 ACTION:UP  11-03-28 15:06 OP:jfem STATUS:               ID:20110207040352 L   I
 2011-02-07-0401-28S.COL___138                                                 6
 STAT SP IPHASW D HRMM SECON CODA AMPLIT PERI AZIMU VELO SNR AR TRES W  DIS CAZ7
 BAR2 SZ EP   1    4 4 11.62                             169    -0.1 7   27 217 
 BAR2 SZ I         4 4 11.96         8.6 0.38                            27 217 
 BAR2 SZ ES   2    4 4 26.86                             169     0.0 5   27 217 
 BTL  SZ EP        4 4 11.72                             168    -0.110   29 299 
 RUS  HZ EP   1    4 4 15.76                             143     0.0 7   99 183 
 RUS  HZ I         4 4 16.94         4.2 0.17                            99 183 
 RUS  HE ES   2    4 4 34.17                             143     0.2 5   99 183 
 GRA  SZ EP   1    4 4 17.39                             137     0.2 7  124  12 
 GRA  SZ ES   2    4 4 36.52                             137     0.0 5  124  12 
 GRA  SZ I         4 4 38.08         4.9 0.35                           124  12 
 CHI  HZ EP   1    4 4 30.02                             116    -0.1 6  251 198 
 CHI  HE ES   2    4 4 59.85                             116     0.2 4  251 198 
 CHI  HZ I         4 5  6.43         2.1 0.54                           251 198 
 HEL  HZ EP   1    4 4 33.83                             113     0.1 6  284 257 
 HEL  HZ I         4 5 11.03         2.4 0.51                           284 257 
                                                                                
