 2011  5 7 0230 24.8 L   6.800 -73.006140.7  RSN  5 0.3 1.4LRSN                1
 GAP=174        0.66       6.6    14.2 11.1  0.3646E+02 -0.8466E+02 -0.4354E+02E
 Epicentro: CEPITA - SANTANDER                                                 3
 *BTL-BRR-RUS                                                                  3
 ACTION:UP  11-06-29 08:51 OP:tino STATUS:               ID:20110507022746 L   I
 2011-05-07-0227-46S.COL___133                                                 6
 STAT SP IPHASW D HRMM SECON CODA AMPLIT PERI AZIMU VELO SNR AR TRES W  DIS CAZ7
 BAR2 SZ EP   1    230 43.57                             167    -0.5 7   30 220 
 BAR2 SZ ES   1    230 58.75                             167    -0.2 7   30 220 
 BAR2 SZ I         231  0.72         9.2 0.15                            30 220 
 BTL  SZ EP   1    230 44.45                             167     0.4 7   32 294 
 BRR  HZ EP   2    230 46.00                             147    -0.3 5   85 294 
 BRR  HN ES   2    231  3.31                             147     0.3 5   85 294 
 BRR  HZ I         231  4.10         7.0 0.46                            85 294 
 RUS  HZ EP   2    230 48.12                             143     0.0 5  101 185 
 RUS  HN ES   1    231  6.48                             143     0.2 7  101 185 
 RUS  HZ I         231  8.56         3.6 0.48                           101 185 
 GRA  SZ EP   1    230 49.42                             137     0.1 7  122  11 
 GRA  SZ I         231  5.58         2.3 0.29                           122  11 
                                                                                
