 2014  7 7 0946 48.6 L   6.787 -73.179142.2  RSN  4 0.2 1.3LRSN                1
 GAP=241        0.58       5.9     4.4  5.6  0.1702E+02  0.3011E+01 -0.4993E+01E
 Epicentro: LOS SANTOS - SANTANDER                                             3
 ACTION:UPD 15-03-16 20:42 OP:nd   STATUS:               ID:20140707094648 L   I
 OLDACT:DUP 14-07-07 18:48 OP:stll STATUS:               ID:20140707093821d    3
 2014-07-07-0938-19M.COL___250                                                 6
 STAT SP IPHASW D HRMM SECON CODA AMPLIT PERI AZIMU VELO AIN AR TRES W  DIS CAZ7
 BAR2 SZ EP        947  7.69                             171   -0.0410 21.6 181 
 BAR2 SZ ES        947 22.55                             171   -0.1310 21.6 181 
 BAR2 SZ I         947 24.94         3.6 0.30            173           21.6 181 
 RUS  HZ EP        947 12.15                             143    0.2610 99.5 174 
 RUS  HN ES        947 30.15                             143    0.0710 99.5 174 
 RUS  HZ I         947 32.09         2.2 0.40            147           99.5 174 
 PTB  HZ EP        947 14.49                             132   -0.40 9  144 259 
 PTB  HN ES        947 35.40                             132   -0.02 9  144 259 
 PTB  HZ I         947 37.80         2.7 0.16            133            144 259 
 ZAR  HN ES        947 45.65                             122    0.27 9  201 293 
 ZAR  HZ I         947 51.02         2.2 0.30            123            201 293 
                                                                                
