 2011 11 7 0601  6.8 L   6.567 -73.468113.1  RSN  8 0.4 1.7LRSN                1
 GAP= 84        0.76       3.1     3.4  6.6 -0.2645E+01  0.9973E+01 -0.2792E+01E
 Epicentro: EL CARMEN DE CHUCURI - SANTANDER                                   3
 ACTION:UPD 12-07-13 16:08 OP:ep   STATUS:               ID:20111107060106 L   I
 2011-11-07-0559-36S.COL___175                                                 6
 STAT SP IPHASW D HRMM SECON CODA AMPLIT PERI AZIMU VELO AIN AR TRES W  DIS CAZ7
 BAR2 SZ EP   1    6 1 23.30                             163    0.48 9 31.8  85 
 BAR2 SZ ES   1    6 1 35.44                             163    0.15 9 31.8  85 
 BAR2 SZ I         6 1 36.86        57.0 0.42                          31.8  85 
 BRR  HZ EP   1    6 1 24.08                             148   -0.11 9 65.5 336 
 BRR  HN ES   1    6 1 37.82                             148    0.10 9 65.5 336 
 BRR  HZ I         6 1 46.10         9.0 0.12                          65.5 336 
 RUS  HZ EP   1    6 1 26.63                             140    0.27 9 85.9 150 
 RUS  HN ES   1    6 1 40.99                             140   -0.58 9 85.9 150 
 RUS  HZ I         6 1 43.34         3.9 0.21                          85.9 150 
 PAM  SZ EP   1    6 1 29.57                             130    0.24 8  120  45 
 PAM  SN ES   1    6 1 47.24                             130    0.38 8  120  45 
 ZAR  HZ EP   1    6 1 35.26                             117    0.02 8  184 304 
 ZAR  HN ES   1    6 1 57.43                             117    0.04 8  184 304 
 ZAR  HZ I         6 2  0.61         9.2 0.20                           184 304 
 OCA  SZ EP   1    6 1 35.13                             117   -0.42 8  186   5 
 OCA  SZ ES   1    6 1 57.18                             117   -0.76 8  186   5 
 OCA  SZ I         6 2  4.90         8.0 0.34                           186   5 
 NOR  SZ EP   2    6 1 35.34                             116   -0.64 5  191 234 
 NOR  SN ES        6 1 58.34                             116   -0.3710  191 234 
 HEL  HZ EP   1    6 1 41.56                             111    0.59 7  232 260 
 HEL  HN ES   1    6 2  8.06                             111    0.47 7  232 260 
 HEL  HZ I         6 2 13.71         2.8 0.30                           232 260 
                                                                                
