 2016  3 7 0538 33.5 L   6.806 -73.179141.9  RSN  5 0.2 1.3LRSN                1
 GAP=132        0.55       2.3     3.1  5.2 -0.1162E+01  0.3929E+01  0.2089E+01E
 Epicentro: ZAPATOCA - SANTANDER                                               3
 ACTION:UPD 16-05-13 21:22 OP:cam  STATUS:               ID:20160307053833 L   I
 OLDACT:UP  16-03-07 17:25 OP:cara STATUS:               ID:20160307053749     3
 OLDACT:REG 16-03-07 13:33 OP:cara STATUS:               ID:20160307053749     3
 2016-03-07-0537-49M.COL___315                                                 6
 STAT SP IPHASW D HRMM SECON CODA AMPLIT PERI AZIMU VELO AIN AR TRES W  DIS CAZ7
 PAM  EZ EP        538 55.49                             149    0.0710 79.3  42 
 PAM  EZ I         538 55.78         5.0 0.24            152           79.3  42 
 PAM  EE ES        539 12.79                             149    0.2710 79.3  42 
 RUS  HZ EP        538 57.00                             143    0.0710  102 174 
 RUS  HN ES        539 14.95                             143   -0.2710  102 174 
 RUS  HZ I         539 17.91         2.0 0.40            147            102 174 
 PTB  HZ EP        538 59.82                             132   -0.01 9  144 258 
 PTB  HN ES        539 20.54                             132    0.16 9  144 258 
 PTB  HZ I         539 24.10         2.4 0.20            133            144 258 
 OCA  HE ES        539 22.84                             129   -0.34 9  159 354 
 OCA  HZ I         539 28.24         4.2 0.16            131            159 354 
 CHI  HZ EP        539 10.96                             116    0.02 8  248 194 
 CHI  HN ES   4    539 38.41                             116   -1.74 0  248 194 
                                                                                
