 2015 12 7 0531 16.8 L   6.889 -73.101135.5  RSN  4 0.4 1.2LRSN                1
 GAP=250        0.86       8.8     7.3 15.8  0.4396E+02 -0.4643E+02 -0.9826E+02E
 Epicentro: PIEDECUESTA - SANTANDER                                            3
 ACTION:UPD 16-02-04 15:03 OP:cam  STATUS:               ID:20151207053116 L   I
 OLDACT:UP  15-12-07 19:34 OP:mh   STATUS:               ID:20151207052748     3
 OLDACT:REG 15-12-07 12:45 OP:mh   STATUS:               ID:20151207052748     3
 2015-12-07-0527-48M.COL___322                                                 6
 STAT SP IPHASW D HRMM SECON CODA AMPLIT PERI AZIMU VELO AIN AR TRES W  DIS CAZ7
 RUS  HZ EP        531 40.72                             139    0.4510  110 179 
 RUS  HN ES        531 58.34                             139   -0.2710  110 179 
 RUS  HZ I         532  0.08         1.5 0.26            127            110 179 
 PTB  HZ EP   1    531 43.39                             128   -0.18 7  155 256 
 PTB  HN ES        532  4.25                             128   -0.23 9  155 256 
 PTB  HZ I         532  6.23         1.7 0.16            119            155 256 
 SPBC HE ES        532  8.17                             124    0.15 9  174 218 
 SPBC HZ I         532 14.44         2.8 0.24            115            174 218 
 ZAR  HZ EP        531 48.16                             120   -0.52 9  205 289 
 ZAR  HE ES        532 14.07                             120    0.50 9  205 289 
                                                                                
