 2011  8 7 0944  7.4 L   6.784 -73.116146.6  RSN 12 0.4 2.4LRSN                1
 GAP=141        0.71       2.7     5.3  4.8 -0.2177E+01  0.8310E+01  0.1587E+01E
 Epicentro: LOS SANTOS - SANTANDER                                             3
 ACTION:UPD 12-07-25 14:06 OP:epov STATUS:               ID:20110807094407 L   I
 2011-08-07-0939-16S.COL___144                                                 6
 STAT SP IPHASW D HRMM SECON CODA AMPLIT PERI AZIMU VELO AIN AR TRES W  DIS CAZ7
 BAR2 SZ IP        944 27.19                             171    0.0510 22.4 199 
 BAR2 SZ ES   1    944 41.83                             171   -0.69 7 22.4 199 
 BAR2 SZ I         944 44.83        57.4 0.40                          22.4 199 
 BRR  HZ IP        944 29.08                             151    0.2010 74.9 299 
 BRR  HE ES   1    944 46.19                             151    0.58 7 74.9 299 
 BRR  HZ I         944 49.04        52.5 0.16                          74.9 299 
 PAM  SZ EP   3    944 30.08                             151    0.38 2 76.8  37 
 PAM  SE ES   2    944 46.52                             151   -0.55 5 76.8  37 
 RUS  HZ EP        944 30.98                             144   -0.1510 98.6 178 
 RUS  HN ES   1    944 49.80                             144    0.19 7 98.6 178 
 RUS  HZ I         944 51.21        15.0 0.26                          98.6 178 
 OCA  SZ EP        944 35.98                             129   -0.03 9  162 352 
 OCA  SZ ES   1    944 58.59                             129    0.28 7  162 352 
 NOR  SZ EP        944 43.03                             118   -0.35 8  236 235 
 NOR  SE ES   1    945 10.63                             118   -0.79 6  236 235 
 CHI  HZ EP        944 45.31                             117    0.23 8  248 196 
 CHI  HN ES   1    945 15.38                             117    0.93 6  248 196 
 CHI  HZ I         945 19.93         9.5 0.24                           248 196 
 RREF HZ EP   2    944 54.11                             111    0.35 3  323 230 
 RREF HE ES   3    945 29.10                             111   -0.79 2  323 230 
 RREF HZ I         945 39.29        11.2 0.70                           323 230 
 DBB  SZ EP        944 55.20                             109   -0.13 7  343 275 
 COD  HZ EP   2    944 55.64                             109   -0.44 3  350 354 
 ANIL HZ EP   2    944 57.38                             108    0.00 3  358 225 
 ANIL HE ES   2    945 37.03                             108    0.68 3  358 225 
 ANIL HZ I         945 45.25        26.2 0.40                           358 225 
 PRA  HZ EP        945  0.81                             107   -0.18 6  392 210 
 PRA  HE ES   2    945 42.66                             107   -0.10 3  392 210 
                                                                                
