 2016  7 7 0040  5.5 L   6.821 -73.162144.6  RSN 18 0.5 2.1LRSN                1
 GAP=133        1.10       3.5     4.1  6.1 -0.2357E+01  0.9746E+01  0.1542E+01E
 Epicentro: LOS SANTOS - SANTANDER                                             3
 ACTION:UPD 17-03-29 16:47 OP:lp   STATUS:               ID:20160707004005 L   I
 OLDACT:UP  16-07-07 14:24 OP:dani STATUS:               ID:20160707003745     3
 OLDACT:UP  16-07-07 14:24 OP:dani STATUS:               ID:20160707003745     3
 OLDACT:UP  16-07-07 14:19 OP:dani STATUS:               ID:20160707003745     3
 OLDACT:UP  16-07-07 14:18 OP:dani STATUS:               ID:20160707003745     3
 OLDACT:UP  16-07-07 14:18 OP:dani STATUS:               ID:20160707003745     3
 OLDACT:UP  16-07-07 14:18 OP:dani STATUS:               ID:20160707003745     3
 OLDACT:REG 16-07-07 12:50 OP:dani STATUS:               ID:20160707003745     3
 2016-07-07-0037-45M.COL___328                                                 6
 STAT SP IPHASW D HRMM SECON CODA AMPLIT PERI AZIMU VELO AIN AR TRES W  DIS CAZ7
 BAR2 EZ EP        040 25.04                             170   -0.0410 25.4 185 
 BAR2 EZ ES        040 39.93                             170   -0.3910 25.4 185 
 BAR2 EZ I         040 41.28        33.9 0.22            168           25.4 185 
 BRR  HZ EP        040 26.99                             153    0.5810 68.5 298 
 BRR  HN ES   2    040 44.21                             153    1.51 5 68.5 298 
 PAM  EZ EP        040 28.06                             150    0.4610 76.8  42 
 PAM  EE ES        040 45.08                             150    0.2810 76.8  42 
 PAM  EZ I         040 47.24        35.5 0.50            155           76.8  42 
 RUS  HZ EP        040 29.06                             143   -0.3010  103 175 
 RUS  HN ES        040 47.89                             143   -0.0510  103 175 
 RUS  HZ I         040 48.79        16.5 0.28            143            103 175 
 PTB  HZ EP        040 31.72                             132   -0.57 9  146 258 
 PTB  HN ES        040 52.87                             132   -0.29 9  146 258 
 PTB  HZ I         040 59.53        11.9 0.42            131            146 258 
 SPBC HZ EP        040 34.04                             128    0.02 9  164 218 
 SPBC HN ES        040 55.76                             128   -0.47 9  164 218 
 SPBC HZ I         040 59.29        24.7 0.18            128            164 218 
 ZAR  HZ EP        040 38.07                             122    0.43 9  201 292 
 ZAR  HE ES        041  2.18                             122   -0.51 9  201 292 
 ZAR  HZ I         041 10.42        10.0 0.24            123            201 292 
 NOR  HZ EP        040 41.22                             118    0.03 8  235 234 
 NOR  HN ES        041  8.82                             118   -0.18 8  235 234 
 NOR  HZ I         041 11.61        10.3 0.16            118            235 234 
 CHI  HZ EP   4    040 44.77                             116    1.40 0  250 195 
 CHI  HE ES     C  041 12.67                             116   -0.21 8  250 195 
 CHI  HZ I         041 16.77         8.7 0.20            117            250 195 
 ROSC BZ EP   4    040 45.22                             116    1.50 0  254 210 
 ROSC BN ES        041 13.72                             116    0.22 8  254 210 
 ROSC BZ I         041 18.88        13.1 0.45            117            254 210 
 HEL  HZ EP   4    040 47.38                             114    1.82 0  271 255 
 HEL  HN ES        041 16.34                             114   -0.44 8  271 255 
 GUY2CHZ EP        040 49.82                             112    0.74 7  301 234 
 GUY2CHE ES   4    041 25.72                             112    2.67 0  301 234 
 GUY2CHZ I         041 31.35         6.2 0.32                           301 234 
 PTGC HZ EP   4    040 48.24                             111   -1.43 0  312 158 
 PTGC HE ES   4    041 19.70                             111   -4.39 0  312 158 
 PTGC HZ I         041 26.61        10.1 0.48            112            312 158 
 CBOC HE ES        041 29.93                             110    1.17 7  333 252 
 CBOC HZ I         041 33.21         1.8 0.19            110            333 252 
 PRA  HZ EP        040 59.05                             106   -0.11 6  393 209 
 PRA  HN ES   4    041 38.61                             106   -2.37 0  393 209 
 PRA  HZ I         041 49.34         4.6 0.50            107            393 209 
 ORTC HZ EP        040 59.88                             106    0.36 6  396 216 
 ORTC HE ES        041 41.93                             106    0.31 6  396 216 
 ORTC HZ I         041 48.79         2.5 0.18            107            396 216 
 SJC  HZ EP        040 59.26                             105   -1.45 6  406 327 
 SJC  HE ES   4    041 40.57                             105   -3.18 0  406 327 
 SJC  HZ I         041 44.74         2.4 0.62            106            406 327 
 CRJC HZ EP   9    041  5.44                             103   -2.30 0  465   4 
 CRJC HN ES        041 54.00                             104    0.04 5  465   4 
 CRJC HZ I         041 54.54         7.8 0.56            104            465   4 
                                                                                
