 2014 12 7 0444 18.9 L   6.777 -73.141150.6  RSN  8 0.3 1.4LRSN                1
 GAP=138        0.76       3.1     3.8  5.3 -0.1349E+01  0.3342E+01  0.3977E+00E
 Epicentro: LOS SANTOS - SANTANDER                                             3
 ACTION:UPD 15-02-10 17:01 OP:nd   STATUS:               ID:20141207044418 L   I
 OLDACT:REG 14-12-07 13:03 OP:spq  STATUS:               ID:20141207043740     3
 2014-12-07-0437-40M.COL___309                                                 6
 STAT SP IPHASW D HRMM SECON CODA AMPLIT PERI AZIMU VELO AIN AR TRES W  DIS CAZ7
 BAR2 SZ EP        444 38.94                             172   -0.1410 21.0 193 
 BAR2 SZ ES   1    444 54.75                             172   -0.06 7 21.0 193 
 BAR2 SZ I         444 55.43         6.6 0.30            170           21.0 193 
 BRR  HZ EP     C  444 40.89                             153    0.2110 72.9 300 
 BRR  HN ES        444 58.30                             153    0.6510 72.9 300 
 BRR  HZ I         445  2.68         3.2 0.29            150           72.9 300 
 PAM  SZ EP        444 41.92                             151    0.1810 79.0  38 
 PAM  SN ES        444 59.15                             151   -0.3910 79.0  38 
 PAM  SZ I         445  0.22         2.5 0.22            155           79.0  38 
 RUS  HZ EP        444 43.08                             145    0.1210 98.1 176 
 RUS  HN ES   1    445  1.64                             145   -0.08 7 98.1 176 
 RUS  HZ I         445  2.63         2.2 0.34            148           98.1 176 
 PTB  HZ EP        444 45.97                             133   -0.31 9  148 260 
 PTB  HE ES   1    445  7.46                             133   -0.17 7  148 260 
 PTB  HZ I         445 12.24         2.7 0.30            132            148 260 
 SPBC HZ EP        444 48.08                             130    0.44 9  162 220 
 SPBC HE ES        445  9.72                             130   -0.32 9  162 220 
 SPBC HZ I         445 12.82         3.3 0.24            131            162 220 
 ZAR  HN ES   1    445 17.05                             123   -0.44 6  205 293 
 ZAR  HZ I         445 24.07         3.9 0.32            123            205 293 
 SML  HZ EP   1    444 55.98                             118   -0.10 6  246 335 
 SML  HE ES   1    445 24.83                             118   -0.24 6  246 335 
 SML  HZ I         445 26.58         3.6 0.10            119            246 335 
                                                                                
