 2012  3 7 0743 49.4 L   6.686 -73.518120.5  RSN  4 0.2 1.6LRSN                1
 GAP=130        0.55       4.3     4.3  6.6  0.7255E+01 -0.1331E+00  0.8365E+01E
 ACTION:UP  12-03-31 23:17 OP:EP   STATUS:               ID:20120307074349 L   I
 2012-03-07-0740-00M.COL___194                                                 6
 STAT SP IPHASW D HRMM SECON CODA AMPLIT PERI AZIMU VELO SNR AR TRES W  DIS CAZ7
 BAR2 SZ EP   1    744  6.10                             161    -0.4 7   39 106 
 BAR2 SZ I         744 19.96         9.6 0.48                            39 106 
 BRR  HZ EP        744  6.76                             155     0.110   51 335 
 BRR  HZ I         744  7.15        10.2 0.15                            51 335 
 BRR  HE ES        744 20.26                             155     0.110   51 335 
 RUS  HZ EP   1    744 10.64                             138    -0.1 7  100 151 
 RUS  HN ES   1    744 27.51                             138     0.2 7  100 151 
 PTB  HZ EP   1    744 10.77                             136     0.3 7  105 261 
 PTB  HE ES   1    744 26.66                             136    -0.2 7  105 261 
                                                                                
