 2016  7 7 0921 46.5 L   6.780 -73.356121.2  RSN  7 0.5 1.8LRSN                1
 GAP=185        1.12       6.9     5.6  8.5  0.3957E+00  0.1659E+02  0.9697E-01E
 Epicentro: ZAPATOCA - SANTANDER                                               3
 ACTION:UPD 17-03-29 16:47 OP:lp   STATUS:               ID:20160707092146 L   I
 OLDACT:UP  16-07-07 18:53 OP:dani STATUS:               ID:20160707091744     3
 OLDACT:UP  16-07-07 18:52 OP:dani STATUS:               ID:20160707091744     3
 OLDACT:UP  16-07-07 18:51 OP:dani STATUS:               ID:20160707091744     3
 OLDACT:UP  16-07-07 18:49 OP:dani STATUS:               ID:20160707091744     3
 OLDACT:REG 16-07-07 13:38 OP:dani STATUS:               ID:20160707091744     3
 2016-07-07-0917-44M.COL___316                                                 6
 STAT SP IPHASW D HRMM SECON CODA AMPLIT PERI AZIMU VELO AIN AR TRES W  DIS CAZ7
 BAR2 EZ EP        922  3.59                             166    0.2510 28.3 137 
 BAR2 EZ ES        922 16.58                             166    0.1210 28.3 137 
 BAR2 EZ I         922 17.77        40.3 0.26            176           28.3 137 
 BRR  HZ EP        922  3.86                             155   -0.1610 53.4 313 
 BRR  HE ES        922 17.73                             155    0.0610 53.4 313 
 PTB  HZ EP        922  8.78                             131   -0.6010  125 258 
 PTB  HN ES        922 26.42                             131   -0.7910  125 258 
 PTB  HZ I         922 30.77         9.3 0.28            128            125 258 
 ZAR  HZ EP        922 15.31                             119    0.02 9  184 295 
 ZAR  HN ES        922 38.39                             119    0.66 9  184 295 
 ZAR  HZ I         922 44.71         5.8 0.14            117            184 295 
 NOR  HN ES        922 44.62                             115    0.76 8  215 231 
 HEL  HZ EP   9    922 24.78                             111    1.81 0  249 255 
 HEL  HN ES        922 53.14                             110   -0.07 8  249 255 
 HEL  HZ I         922 56.33         2.6 0.66            111            249 255 
 URE  HZ EP   4    922 26.56                             110    2.41 0  263 294 
 URE  HN ES   4    922 51.78                             110   -1.72 0  263 294 
 URE  HZ I         923  3.22         3.1 0.16            109            263 294 
                                                                                
