 2010  9 7 0401 59.9 L   6.638 -73.433 29.0  RSN  7 0.4 1.9LRSN                1
 GAP=174        1.06       3.5     5.3  4.1  0.6419E+01  0.7571E+00  0.2778E+01E
 Epicentro: EL CARMEN DE CHUCURI - SANTANDER                                   3
 ACTION:UP  11-02-18 11:00 OP:tino STATUS:               ID:20100907040159 L   I
 2010-09-07-0400-19S.COL___120                                                 6
 STAT SP IPHASW D HRMM SECON CODA AMPLIT PERI AZIMU VELO SNR AR TRES W  DIS CAZ7
 BAR2 SZ ES   1    4 2 12.67                             132     0.8 7   28 101 
 BAR2 SZ I         4 2 13.20        40.3 0.09                            28 101 
 BTL  SZ IP        4 2  7.23                             124    -0.310   36  31 
 BTL  SZ ES   1    4 2 13.05                             124    -0.4 7   36  31 
 GIR2 SZ EP   1    4 2  9.02                             110    -0.9 7   55  29 
 BRR  HZ IP     C  4 2 10.27                             107    -0.110   60 329 
 BRR  HZ I         4 2 10.50       121.8 0.11                            60 329 
 BRR  HE ES   1    4 2 19.10                             107     0.6 7   60 329 
 RUS  HZ EP   1    4 2 15.08                              61     0.0 7   91 155 
 RUS  HN ES   1    4 2 26.76                                    -0.2 7   91 155 
 RUS  HZ I         4 2 27.67        18.9 0.26                            91 155 
 GUE  SZ EP   1    4 2 21.82                              61     0.4 7  143  23 
 GUE  SZ ES   1    4 2 38.22                              61     0.1 7  143  23 
 GUE  SZ I         4 2 40.43        11.1 0.25                           143  23 
 GRA  SZ EP   1    4 2 22.80                              61     0.2 7  154  27 
 GRA  SZ ES   1    4 2 40.54                              61     0.2 7  154  27 
 GRA  SZ I         4 2 42.24        39.1 0.13                           154  27 
                                                                                
