 2013  6 7 0828 56.0 L   6.756 -73.152135.1  RSN  9 0.4 2.0LRSN                1
 GAP=138        0.74       4.7     4.6  5.6  0.2570E+01  0.8361E+01  0.7059E+01E
 Epicentro: LOS SANTOS - SANTANDER                                             3
 ACTION:UPD 14-01-08 09:53 OP:ep   STATUS:               ID:20130607082856 L   I
 OLDACT:REG 13-06-07 12:44 OP:mh   STATUS:               ID:20130607082650     3
 2013-06-07-0826-50M.COL___234                                                 6
 STAT SP IPHASW D HRMM SECON CODA AMPLIT PERI AZIMU VELO AIN AR TRES W  DIS CAZ7
 BAR2 SZ IP     D  829 14.48                             171    0.2110 18.4 190 
 BAR2 SZ ES        829 28.58                             171    0.0810 18.4 190 
 BAR2 SZ I         829 30.41        11.1 0.16            172           18.4 190 
 GIR2 SZ EP   1    829 14.60                             165    0.03 7 36.0 353 
 GIR2 SZ ES   1    829 29.38                             165    0.34 7 36.0 353 
 GIR2 SZ I         829 31.23         9.9 0.40            157           36.0 353 
 BRR  HZ EP        829 16.30                             150    0.1710 73.0 302 
 BRR  HN ES        829 31.75                             150   -0.0810 73.0 302 
 BRR  HN I         829 37.25        24.2 0.14            144           73.0 302 
 PAM  SN ES        829 33.64                             148   -0.4110 81.7  38 
 PAM  SN I         829 35.22        34.6 0.26            146           81.7  38 
 RUS  HZ EP        829 18.70                             143    0.3310 95.7 175 
 RUS  HN ES   2    829 35.28                             143   -0.53 5 95.7 175 
 RUS  HN I         829 37.81         5.6 0.20            148           95.7 175 
 PTB  HZ EP   1    829 21.15                             130   -0.84 7  146 261 
 PTB  HN ES   2    829 42.04                             130   -0.20 5  146 261 
 PTB  HN I         829 44.41        25.7 0.22            128            146 261 
 OCA  HN I         829 50.41        20.7 0.28            124            165 354 
 ZAR  HZ EP   1    829 27.83                             120   -0.09 6  205 293 
 ZAR  HN ES   2    829 53.50                             120    0.70 4  205 293 
 ZAR  HN I         830  0.78        12.4 0.18            118            205 293 
 SML  HZ EP   4    829 31.49                             115   -1.04 0  248 336 
 SML  HN ES   4    829 58.24                             115   -2.77 0  248 336 
 SML  HN I         830 10.44        15.2 0.10            113            248 336 
                                                                                
