 2017  1 7 0254  5.3 L   6.292 -73.537119.2  RSN  4 0.2 1.1LRSN                1
 GAP=154        0.45       2.9     2.6  4.3  0.3299E+01  0.2299E+01  0.1121E+01E
 Epicentro: EL GUACAMAYO - SANTANDER                                           3
 ACTION:UPD 17-05-22 15:56 OP:jn   STATUS:               ID:20170107025405 L   I
 OLDACT:REG 17-01-07 12:32 OP:ar   STATUS:               ID:20170107024740     3
 2017-01-07-0248-00M.COL___383                                                 6
 STAT SP IPHASW D HRMM SECON CODA AMPLIT PERI AZIMU VELO AIN AR TRES W  DIS CAZ7
 BAR2 EZ EP        254 22.88                             155    0.1010 51.4  50 
 BAR2 EZ ES        254 36.28                             155   -0.1610 51.4  50 
 BAR2 EZ I         254 37.31         6.1 0.26            159           51.4  50 
 RUS  HN EP        254 23.84                             149   -0.1910 67.0 131 
 RUS  HE ES        254 38.85                             149    0.1710 67.0 131 
 RUS  HN I         254 40.71         4.0 0.42            150           67.0 131 
 BRR  HZ EP        254 25.10                             140   -0.0310 92.1 348 
 BRR  HE ES        254 40.74                             140    0.1110 92.1 348 
 PTB  HZ EP   2    254 26.64                             136    0.40 5  105 285 
 PTB  HN ES        254 42.51                             136   -0.0910  105 285 
 PTB  HZ I         254 44.04         1.2 0.16            137            105 285 
                                                                                
