 2014  1 7 0637 19.5 L   6.597 -73.533105.2  RSN 15 0.5 2.1LRSN                1
 GAP= 57        1.17       2.6     3.3  6.4 -0.3713E+01  0.9806E+01 -0.4807E+01E
 Epicentro: EL CARMEN DE CHUCURI - SANTANDER                                   3
 ACTION:UPD 14-03-13 09:52 OP:ep   STATUS:               ID:20140107063719 L   I
 OLDACT:DUP 14-01-07 10:52 OP:carl STATUS:               ID:20140107063001d    3
 2014-01-07-0630-00M.COL___285                                                 6
 STAT SP IPHASW D HRMM SECON CODA AMPLIT PERI AZIMU VELO AIN AR TRES W  DIS CAZ7
 BAR2 SZ IP     C  637 35.15                             158    0.3310 38.8  91 
 BAR2 SZ ES        637 47.30                             158    0.5110 38.8  91 
 BAR2 SZ I         637 48.79        54.8 0.20            166           38.8  91 
 RUS  HZ IP     D  637 38.23                             136   -0.5610 92.4 147 
 RUS  HN ES        637 53.76                             136   -0.1010 92.4 147 
 RUS  HZ I         637 55.26        17.2 0.46            144           92.4 147 
 PTB  HZ EP        637 38.41                             132   -0.6010  102 267 
 PTB  HE ES        637 53.58                             132   -0.6610  102 267 
 PTB  HZ I         637 58.72        30.8 0.30            133            102 267 
 SPBC HZ EP        637 41.26                             127    0.4610  120 210 
 SPBC HN ES        637 57.28                             127   -0.1610  120 210 
 PAM  SZ EP        637 41.42                             127   -0.2210  123  48 
 PAM  SN ES        637 59.33                             127    0.4110  123  48 
 PAM  SZ I         638  0.53        25.2 0.40            132            123  48 
 ZAR  HZ EP        637 47.19                             116    0.59 9  177 304 
 ZAR  HN ES   4    638  9.98                             116    2.23 0  177 304 
 ZAR  HZ I         638 15.36        31.6 0.26            118            177 304 
 OCA  HZ EP        637 46.68                             115   -0.81 9  183   7 
 OCA  HN ES        638  9.51                             115    0.17 9  183   7 
 OCA  HZ I         638 16.17        14.8 0.14            118            183   7 
 NOR  HZ EP        637 47.28                             114   -0.50 9  187 232 
 NOR  HN ES        638  9.18                             114   -0.67 9  187 232 
 NOR  HZ I         638 12.40        21.6 0.14            117            187 232 
 ROSC BZ EP   4    637 52.21                             111    1.07 0  213 204 
 ROSC BE ES   4    638 17.75                             111    1.91 0  213 204 
 CHI  HZ EP        637 52.60                             110    0.78 8  219 186 
 CHI  HN ES        638 16.68                             110   -0.37 8  219 186 
 CHI  HZ I         638 23.57         4.2 0.24            115            219 186 
 HEL  HZ EP        637 52.66                             109    0.13 8  225 259 
 HEL  HN ES        638 19.19                             109    0.88 8  225 259 
 HEL  HZ I         638 28.16         7.7 0.22            112            225 259 
 SML  HZ EP        637 54.78                             107   -0.25 8  251 346 
 SML  HE ES        638 23.02                             107    0.26 8  251 346 
 SML  HZ I         638 31.99        19.3 0.26            110            251 346 
 GUY2CHZ EP        637 56.15                             107    0.24 8  253 233 
 GUY2CHN ES        638 24.26                             107   -0.07 8  253 233 
 GUY2CHZ I         638 32.62         7.1 0.22                           253 233 
 URE  HZ EP   4    637 54.93                             106   -0.62 0  255 300 
 URE  HN ES   4    638 22.89                             106   -0.79 0  255 300 
 RREF HZ EP        637 58.69                             105    0.06 8  275 227 
 RREF HN ES        638 30.02                             105    0.84 8  275 227 
 CBOC HZ EP        638  0.02                             104    0.64 7  286 254 
 CBOC HN ES        638 30.39                             104   -0.12 7  286 254 
 CBOC HZ I         638 33.98         5.6 0.20            107            286 254 
 COD  HZ EP        638  8.49                              99   -0.63 6  369   2 
 COD  HN ES        638 47.61                              99   -0.23 6  369   2 
                                                                                
