 2010  6 7 0549 39.8 L   6.804 -73.149142.0  RSN  6 0.3 1.7LRSN                1
 GAP=172        0.49       3.7     5.1  5.5 -0.1044E+02  0.9123E+01  0.7580E+00E
 Epicentro: LOS SANTOS - SANTANDER                                             3
 ACTION:UP  10-08-24 10:08 OP:vdl  STATUS:               ID:20100607054939 L   I
 2010-06-07-0546-32S.COL___111                                                 6
 STAT SP IPHASW D HRMM SECON CODA AMPLIT PERI AZIMU VELO SNR AR TRES W  DIS CAZ7
 BAR2 SZ EP   1    549 58.91                             170    -0.1 7   24 189 
 BAR2 SZ ES   1    550 13.99                             170     0.0 7   24 189 
 GIR2 SZ EP   2    549 59.03                             167     0.0 5   31 351 
 GRA  SZ EP   1    550  4.50                             136    -0.2 7  125  18 
 GRA  SZ ES   1    550 24.31                             136     0.2 7  125  18 
 CHI  HZ EP   1    550 17.04                             116    -0.3 6  249 195 
 CHI  HE ES   2    550 47.11                             116     0.5 4  249 195 
 CHI  HZ I         550 49.80         3.8 0.33                           249 195 
 HEL  HZ EP   2    550 20.30                             114     0.5 4  272 256 
 HEL  HN ES   1    550 50.81                             114    -0.2 6  272 256 
 HEL  HZ I         550 58.09         2.5 0.36                           272 256 
 RREF BZ EP   2    550 26.59                             110     0.8 3  322 229 
 RREF BN ES   2    551  1.66                             110     0.0 3  322 229 
 RREF BZ I         551 10.98         2.8 0.33                           322 229 
                                                                                
