 2014 10 7 0321 29.6 L   6.799 -73.139149.2  RSN  9 0.4 1.6LRSN                1
 GAP=184        0.87       3.6     6.0  7.2  0.4861E+01  0.3247E+01  0.6197E+01E
 Epicentro: LOS SANTOS - SANTANDER                                             3
 ACTION:UPD 14-11-29 23:47 OP:nd   STATUS:               ID:20141007032129 L   I
 OLDACT:REG 14-10-07 13:09 OP:fm   STATUS:               ID:20141007031741     3
 2014-10-07-0317-41M.COL___289                                                 6
 STAT SP IPHASW D HRMM SECON CODA AMPLIT PERI AZIMU VELO AIN AR TRES W  DIS CAZ7
 BAR2 SZ EP        321 49.60                             171   -0.0610 23.3 192 
 BAR2 SZ ES   1    322  5.51                             171    0.22 7 23.3 192 
 BAR2 SZ I         322  6.02        11.3 0.18            168           23.3 192 
 BRR  HZ EP        321 51.43                             153    0.2610 71.9 298 
 BRR  HN ES        322  8.49                             153    0.5010 71.9 298 
 BRR  HZ I         322 14.88         6.4 0.46            148           71.9 298 
 RUS  HZ EP        321 53.99                             145    0.3010  100 176 
 RUS  HN ES   1    322 11.70                             145   -0.77 7  100 176 
 RUS  HZ I         322 13.16         4.5 0.26            147            100 176 
 OCA  HE ES   1    322 19.79                             130   -0.73 7  161 353 
 OCA  HZ I         322 26.49         4.6 0.38            130            161 353 
 SPBC HZ EP        321 58.65                             130    0.24 9  164 219 
 SPBC HN ES        322 20.67                             130   -0.20 9  164 219 
 SPBC HZ I         322 26.74         7.0 0.20            129            164 219 
 ZAR  HE ES        322 27.55                             123   -0.36 9  205 292 
 ZAR  HZ I         322 33.12         5.6 0.72            122            205 292 
 CHI  HN ES        322 36.97                             118   -0.10 8  249 195 
 CHI  HZ I         322 39.16         1.9 0.34            119            249 195 
 GUY2CHZ EP   4    322 10.36                             113   -3.08 0  302 235 
 GUY2CHE ES   4    322 49.53                             113    1.90 0  302 235 
 GUY2CHZ I         322 54.21         1.5 0.26                           302 235 
 PRA  HZ EP   1    322 22.96                             107   -0.32 4  392 210 
 PRA  HN ES   4    323  4.45                             107   -0.69 0  392 210 
 PRA  HZ I         323 11.37         2.0 0.42            108            392 210 
                                                                                
