 2011 10 7 0446 28.3 L   6.763 -73.008136.2  RSN  4 0.3 1.2LRSN                1
 GAP=215        0.50      10.0    13.3  7.7  0.6789E+02 -0.1210E+02  0.5679E+01E
 Epicentro: CEPITA - SANTANDER                                                 3
 ACTION:UPD 12-07-13 16:02 OP:ep   STATUS:               ID:20111007044628 L   I
 2011-10-07-0440-00M.COL___171                                                 6
 STAT SP IPHASW D HRMM SECON CODA AMPLIT PERI AZIMU VELO AIN AR TRES W  DIS CAZ7
 BAR2 SZ ES   2    447  0.97                             169   -0.36 5 26.9 226 
 BAR2 SZ I         447  2.77         5.2 0.21                          26.9 226 
 GIR2 SZ EP   1    446 47.24                             163    0.11 7 40.5 330 
 GIR2 SZ ES   2    447  1.93                             163    0.11 5 40.5 330 
 BRR  HZ EP   1    446 49.08                             146   -0.32 7 86.6 296 
 BRR  HN ES   2    447  6.21                             146    0.34 5 86.6 296 
 BRR  HZ I         447 10.69         6.0 0.15                          86.6 296 
 RUS  HZ EP   2    446 51.18                             143    0.37 5 96.6 185 
 RUS  HZ I         447 10.08         1.4 0.21                          96.6 185 
                                                                                
