 2010  8 7 0508 38.4 L   6.779 -73.103140.0  RSN  7 0.4 1.6LRSN                1
 GAP=164        1.03       4.6    11.5  8.8 -0.7642E+01 -0.3115E+02 -0.2295E+01E
 Epicentro: LOS SANTOS - SANTANDER                                             3
 ACTION:UP  10-09-07 10:52 OP:vdl  STATUS:               ID:20100807050838 L   I
 2010-08-07-0507-05S.COL___125                                                 6
 STAT SP IPHASW D HRMM SECON CODA AMPLIT PERI AZIMU VELO SNR AR TRES W  DIS CAZ7
 BTL  SZ EP        5 8 57.41                             170     0.010   24 310 
 BTL  SZ ES   1    5 9 12.37                             170     0.2 7   24 310 
 GIR2 SZ ES   3    5 9 11.95                             165    -0.4 2   35 343 
 BRR  HZ EP   1    5 8 59.23                             149     0.0 7   77 298 
 BRR  HN ES   1    5 9 15.76                             149     0.2 7   77 298 
 BRR  HZ I         5 9 20.86        11.8 0.05                            77 298 
 RUS  HZ EP        5 9  1.14                             143    -0.310   98 179 
 RUS  HN ES   1    5 9 19.26                             143    -0.1 7   98 179 
 RUS  HZ I         5 9 21.06         5.2 0.46                            98 179 
 GUE  SZ EP        5 9  3.51                             137     0.810  118  10 
 GUE  SZ ES   1    5 9 21.00                             137    -0.7 7  118  10 
 GRA  SZ EP        5 9  3.32                             135     0.110  127  15 
 GRA  SZ ES   1    5 9 22.88                             135     0.3 7  127  15 
 GRA  SZ I         5 9 23.95         6.2 0.40                           127  15 
 OCA  SZ EP        5 9  5.98                             127    -0.6 9  163 352 
 OCA  SZ ES   2    5 9 27.89                             127    -0.6 5  163 352 
 OCA  SZ I         5 9 32.66         6.0 0.09                           163 352 
                                                                                
