 2017  7 7 0748 52.0 L   6.801 -73.146149.9  RSN  9 0.4 1.8LRSN                1
 GAP=101        1.01       4.1     3.3  5.9  0.3503E+00  0.1347E+01  0.5615E+01E
 Epicentro: LOS SANTOS - SANTANDER                                             3
 ACTION:UPD 17-08-30 15:30 OP:rebc STATUS:               ID:20170707074852 L   I
 OLDACT:REG 17-07-07 13:29 OP:ar   STATUS:               ID:20170707074741     3
 2017-07-07-0748-00M.COL___365                                                 6
 STAT SP IPHASW D HRMM SECON CODA AMPLIT PERI AZIMU VELO AIN AR TRES W  DIS CAZ7
 BAR2 EZ EP        749 11.79                             171   -0.3110 23.4 190 
 BAR2 EZ ES        749 27.46                             171   -0.3410 23.4 190 
 BAR2 EZ I         749 30.92        11.7 0.56            168           23.4 190 
 BRR  HZ EP        749 13.74                             153    0.1810 71.1 299 
 BRR  HN ES        749 31.35                             153    0.9510 71.1 299 
 BRR  HZ I         749 33.10         8.6 0.12            154           71.1 299 
 PAM  EZ EP        749 14.74                             152    0.1110 77.4  40 
 PAM  EN ES        749 31.93                             152   -0.3710 77.4  40 
 PAM  EZ I         749 34.03        10.4 0.58            157           77.4  40 
 PTB  HZ EP        749 18.70                             133   -0.57 9  148 259 
 PTB  HN ES        749 40.10                             133   -0.47 9  148 259 
 PTB  HZ I         749 45.23         4.8 0.20            134            148 259 
 TAM  HZ EP        749 20.06                             131    0.07 9  155 105 
 SPBC HZ EP        749 20.75                             130   -0.04 9  163 219 
 SPBC HN ES        749 43.16                             130   -0.11 9  163 219 
 SPBC HZ I         749 48.69        11.0 0.24            131            163 219 
 YPLC HZ EP        749 21.92                             127   -0.16 9  177 151 
 YPLC HE ES        749 46.08                             127    0.52 9  177 151 
 YPLC HZ I         749 47.27         5.4 0.26            130            177 151 
 ZAR  HZ EP        749 25.16                             123    0.48 9  204 292 
 ZAR  HN ES        749 49.98                             123   -0.21 9  204 292 
 ZAR  HZ I         749 53.50         4.6 0.20            125            204 292 
 NOR  HZ EP        749 27.98                             119    0.04 8  235 234 
 NOR  HN ES        749 56.35                             119    0.35 8  235 234 
 NOR  HZ I         750  2.30         4.9 0.18            121            235 234 
                                                                                
