 2017  1 7 0355 40.8 L   6.788 -73.179149.9  RSN  7 0.4 1.7LRSN                1
 GAP=163        0.98       5.0     4.8  6.5  0.9410E+01 -0.1692E+01  0.3763E+01E
 Epicentro: LOS SANTOS - SANTANDER                                             3
 ACTION:UPD 17-05-22 15:56 OP:jn   STATUS:               ID:20170107035540 L   I
 OLDACT:REG 17-01-07 12:37 OP:ar   STATUS:               ID:20170107034740     3
 2017-01-07-0348-00M.COL___386                                                 6
 STAT SP IPHASW D HRMM SECON CODA AMPLIT PERI AZIMU VELO AIN AR TRES W  DIS CAZ7
 BAR2 EZ EP        356  0.80                             172   -0.1010 21.6 181 
 BAR2 EZ ES        356 16.05                             172   -0.5310 21.6 181 
 BAR2 EZ I         356 16.74        12.2 0.36            171           21.6 181 
 BRR  HZ EP        356  2.61                             154    0.3410 68.7 301 
 BRR  HE ES        356 19.83                             154    0.8210 68.7 301 
 BRR  HZ I         356 23.80        11.2 0.66            151           68.7 301 
 RUS  HZ EP        356  4.62                             145   -0.2710 99.5 174 
 RUS  HN ES        356 23.58                             145   -0.1010 99.5 174 
 PTB  HZ EP        356  7.50                             134   -0.27 9  144 259 
 PTB  HN ES        356 28.67                             134   -0.14 9  144 259 
 PTB  HZ I         356 30.60         4.5 0.38            132            144 259 
 TAM  HZ EP        356  9.23                             131    0.12 9  158 104 
 ZAR  HZ EP   4    356 15.94                             124    2.71 0  201 293 
 ZAR  HN ES        356 38.15                             124   -0.37 9  201 293 
 ZAR  HZ I         356 44.87         7.2 0.26            123            201 293 
 CHI  HZ EP        356 18.55                             118    0.06 8  246 194 
 CHI  HN ES        356 48.45                             118    0.56 8  246 194 
 CHI  HZ I         356 51.79         3.5 0.36            118            246 194 
                                                                                
