 2013  3 7 0235 16.6 L   6.777 -73.145146.2  RSN  7 0.4 1.9LRSN                1
 GAP=138        0.98       4.6     5.0  6.5 -0.9586E+00  0.4981E+01 -0.3712E+01E
 Epicentro: LOS SANTOS - SANTANDER                                             3
 ACTION:UPD 13-04-09 14:00 OP:ep   STATUS:               ID:20130307023517dL   I
 2013-03-07-0230-00M.COL___231                                                 6
 STAT SP IPHASW D HRMM SECON CODA AMPLIT PERI AZIMU VELO AIN AR TRES W  DIS CAZ7
 BAR2 SZ EP        235 36.31                             171    0.1210 20.8 192 
 BAR2 SZ ES        235 51.13                             171   -0.3710 20.8 192 
 BAR2 SZ I         235 52.79        32.4 0.22            170           20.8 192 
 BRR  HZ EP        235 38.32                             152    0.4910 72.6 300 
 BRR  HN ES        235 55.12                             152    0.7010 72.6 300 
 BRR  HZ I         235 57.69         9.5 0.30            148           72.6 300 
 PAM  SZ EP        235 39.16                             150    0.2310 79.3  38 
 PAM  SZ I         235 39.55        17.6 0.22            153           79.3  38 
 PAM  SN ES        235 56.04                             150   -0.3510 79.3  38 
 RUS  HZ EP        235 40.34                             145    0.1710 98.0 176 
 RUS  HN ES   2    235 58.46                             145   -0.12 5 98.0 176 
 RUS  HZ I         235 59.50         5.6 0.58            147           98.0 176 
 PTB  HZ EP        235 43.40                             132   -0.13 9  147 260 
 PTB  HN ES        236  4.09                             132   -0.47 9  147 260 
 PTB  HZ I         236  9.37         6.2 0.26            130            147 260 
 ZAR  HE ES   4    236 12.75                             122   -1.81 0  205 293 
 ZAR  HZ I         236 21.07         5.9 0.20            121            205 293 
 SML  HZ EP        235 52.82                             117   -0.65 8  246 336 
 SML  HN ES        236 22.21                             117   -0.05 8  246 336 
 SML  HZ I         236 27.53         7.9 0.10            117            246 336 
                                                                                
