 2013  7 7 0247 57.4 L   6.793 -73.146149.9  RSN 10 0.4 1.8LRSN                1
 GAP= 71        1.05       4.4     4.6  6.1 -0.5661E+01 -0.6042E+01 -0.4865E+00E
 Epicentro: LOS SANTOS - SANTANDER                                             3
 ACTION:UPD 13-08-12 10:36 OP:ep   STATUS:               ID:20130707024757 L   I
 OLDACT:DUP 13-07-07 10:19 OP:stll STATUS:               ID:20130707023836d    3
 2013-07-07-0238-35M.COL___224                                                 6
 STAT SP IPHASW D HRMM SECON CODA AMPLIT PERI AZIMU VELO AIN AR TRES W  DIS CAZ7
 BAR2 SZ EP        248 17.43                             171   -0.0510 22.6 190 
 BAR2 SZ ES        248 32.83                             171   -0.3410 22.6 190 
 GIR2 SZ EP        248 17.28                             167   -0.2710 32.0 351 
 BRR  HZ EP        248 19.32                             153    0.3410 71.6 299 
 BRR  HN ES        248 36.55                             153    0.7010 71.6 299 
 PAM  SZ EP        248 20.28                             151    0.2210 78.0  39 
 PAM  SZ I         248 20.49         9.9 0.22            153           78.0  39 
 PAM  SN ES        248 37.38                             151   -0.3810 78.0  39 
 RUS  HZ EP        248 22.01                             145    0.5410 99.8 176 
 RUS  HN ES        248 40.26                             145   -0.0110 99.8 176 
 RUS  HN I         248 41.72         7.7 0.28            144           99.8 176 
 GRA  SZ EP        248 23.17                             138    0.1310  127  17 
 GRA  SZ ES        248 43.16                             138    0.0910  127  17 
 PTB  HZ EP        248 24.52                             133   -0.14 9  148 259 
 PTB  HN ES        248 45.21                             133   -0.74 9  148 259 
 PTB  HN I         248 51.00        11.0 0.30            131            148 259 
 CAPV BZ EP        248 25.27                             133    0.12 9  150  38 
 TAM  HZ EP        248 25.59                             131    0.24 9  155 105 
 SOCV BZ EP        248 39.66                             113   -0.99 7  302  57 
                                                                                
