 2013  3 7 0309  1.8 L   6.753 -73.155146.3  RSN  5 0.4 1.7LRSN                1
 GAP=137        0.80       5.2     5.2  7.0  0.7313E+01  0.1708E+01  0.6292E+00E
 Epicentro: LOS SANTOS - SANTANDER                                             3
 ACTION:UPD 13-04-09 14:00 OP:ep   STATUS:               ID:20130307030901 L   I
 2013-03-07-0300-00M.COL___231                                                 6
 STAT SP IPHASW D HRMM SECON CODA AMPLIT PERI AZIMU VELO AIN AR TRES W  DIS CAZ7
 BAR2 SZ EP   2    3 9 20.73                             173   -0.65 5 18.1 190 
 BAR2 SZ ES        3 9 36.49                             173   -0.1810 18.1 190 
 BAR2 SZ I         3 9 37.77        24.8 0.18            174           18.1 190 
 BRR  HZ EP        3 9 23.29                             152    0.2110 72.9 302 
 BRR  HN ES        3 9 40.20                             152    0.5010 72.9 302 
 BRR  HZ I         3 9 44.32         6.2 0.13            152           72.9 302 
 PAM  SZ EP   2    3 9 24.28                             149   -0.05 5 82.1  38 
 PAM  SN ES   2    3 9 41.32                             149   -0.61 5 82.1  38 
 PAM  SZ I         3 9 43.68         6.8 0.64            151           82.1  38 
 RUS  HZ EP        3 9 25.39                             145    0.1710 95.5 175 
 RUS  HN ES        3 9 43.66                             145    0.1510 95.5 175 
 RUS  HZ I         3 9 45.52         6.5 0.34            149           95.5 175 
 PTB  HZ EP   2    3 9 28.51                             133   -0.10 5  146 261 
 PTB  HN ES        3 9 48.97                             133   -0.57 9  146 261 
 PTB  HZ I         3 9 51.60         6.1 0.12            134            146 261 
                                                                                
