 2012  3 7 0746 38.5 L   6.718 -73.227147.9  RSN  4 0.2 1.5LRSN                1
 GAP=221        0.46       5.5     6.1  5.9  0.1968E+02  0.9414E+00  0.8090E+01E
 ACTION:UP  12-03-31 23:17 OP:EP   STATUS:               ID:20120307074638 L   I
 2012-03-07-0740-00M.COL___194                                                 6
 STAT SP IPHASW D HRMM SECON CODA AMPLIT PERI AZIMU VELO SNR AR TRES W  DIS CAZ7
 BRR  HZ EP        746 59.61                             154    -0.110   69 309 
 BRR  HE ES        747 16.37                             154     0.110   69 309 
 BRR  HZ I         747 20.01         6.2 0.12                            69 309 
 RUS  HZ EP   1    747  2.11                             146     0.2 7   93 170 
 RUS  HE ES   2    747 19.78                             146    -0.4 5   93 170 
 RUS  HZ I         747 22.38         3.6 0.27                            93 170 
 PTB  HZ EP   1    747  4.69                             135     0.0 7  137 262 
 PTB  HE ES   2    747 25.36                             135     0.2 5  137 262 
 ZAR  HE ES   2    747 35.36                             123    -0.3 4  200 296 
 ZAR  HZ I         747 37.67         3.0 0.06                           200 296 
                                                                                
