 2011  2 7 0553 58.4 L   6.741 -73.044145.0  RSN 11 0.3 1.9LRSN                1
 GAP=144        0.56       2.8     5.3  4.8 -0.1348E+01  0.1017E+01  0.2668E+01E
 Epicentro: ARATOCA - SANTANDER                                                3
 ACTION:UP  11-03-28 15:06 OP:jfem STATUS:               ID:20110207055358 L   I
 2011-02-07-0549-57S.COL___137                                                 6
 STAT SP IPHASW D HRMM SECON CODA AMPLIT PERI AZIMU VELO SNR AR TRES W  DIS CAZ7
 BAR2 SZ IP        554 17.83                             171    -0.110   23 223 
 BAR2 SZ ES   2    554 33.37                             171     0.2 5   23 223 
 BAR2 SZ I         554 33.87        31.5 0.26                            23 223 
 BTL  SZ EP   1    554 18.42                             167     0.3 7   32 309 
 BTL  SZ ES   2    554 33.89                             167     0.3 5   32 309 
 GIR2 SZ EP   1    554 18.14                             164    -0.2 7   41 336 
 GIR2 SZ ES   2    554 33.08                             164    -0.7 5   41 336 
 RUS  HZ EP   1    554 21.61                             146     0.0 7   94 183 
 RUS  HN ES   2    554 40.21                             146     0.5 5   94 183 
 RUS  HZ I         554 41.65        14.9 0.56                            94 183 
 GRA  SZ EP   1    554 24.10                             136     0.2 7  129  12 
 GRA  SZ ES   2    554 43.94                             136     0.2 5  129  12 
 GRA  SZ I         554 46.32        12.7 0.33                           129  12 
 OCA  SZ EP   1    554 27.07                             128    -0.4 7  168 350 
 OCA  SZ ES   2    554 50.18                             128     0.1 5  168 350 
 OCA  SZ I         554 53.95         9.7 0.25                           168 350 
 YOP  SZ EP        554 27.38                             128     0.0 9  168 156 
 YOP  SZ I         554 32.05         5.3 0.04                           168 156 
 NOR  SN ES   2    555  2.65                             118    -0.4 4  240 237 
 CHI  HZ EP   1    554 35.66                             117    -0.1 6  246 198 
 CHI  HE ES   2    555  4.62                             117    -0.2 4  246 198 
 CHI  HZ I         555  8.72         2.5 0.74                           246 198 
 HEL  HZ EP   1    554 39.87                             114     0.2 6  281 258 
 HEL  HZ I         555 16.01         3.6 0.32                           281 258 
 DBB  SZ EP   2    554 48.01                             109     0.8 3  351 275 
                                                                                
