 2013 12 7 0949  4.0 L   6.812 -73.109140.3  RSN  6 0.4 1.6LRSN                1
 GAP=141        1.08       4.4     5.4  7.1  0.3988E+00  0.7183E+01 -0.6285E+01E
 Epicentro: LOS SANTOS - SANTANDER                                             3
 ACTION:UPD 14-01-13 10:16 OP:ep   STATUS:               ID:20131207094904 L   I
 OLDACT:REG 13-12-07 08:29 OP:carl STATUS:               ID:20131207094740     3
 2013-12-07-0947-40M.COL___241                                                 6
 STAT SP IPHASW D HRMM SECON CODA AMPLIT PERI AZIMU VELO AIN AR TRES W  DIS CAZ7
 BAR2 SZ EP        949 23.25                             169    0.2210 25.6 198 
 BAR2 SZ ES        949 37.85                             169   -0.0110 25.6 198 
 BAR2 SZ I         949 41.20        11.4 0.26            172           25.6 198 
 PAM  SZ EP        949 26.23                             151    0.8010 73.8  38 
 PAM  SN ES        949 41.51                             151   -0.6210 73.8  38 
 PAM  SZ I         949 45.51         3.7 0.22            153           73.8  38 
 BRR  HZ EP        949 25.20                             150    0.4610 74.2 296 
 BRR  HN ES        949 41.36                             150    0.4510 74.2 296 
 BRR  HZ I         949 46.47         5.8 0.10            150           74.2 296 
 RUS  HZ EP        949 27.13                             142   -0.1810  102 178 
 RUS  HN ES        949 45.23                             142   -0.2510  102 178 
 RUS  HZ I         949 47.11         3.5 0.26            148            102 178 
 PTB  HZ EP        949 30.49                             130   -0.43 9  152 259 
 PTB  HE ES        949 51.82                             130   -0.10 9  152 259 
 PTB  HZ I         949 54.20         5.4 0.16            133            152 259 
 SML  HZ EP        949 40.13                             116   -0.26 8  244 334 
 SML  HN ES        950  8.35                             116   -0.41 8  244 334 
 SML  HZ I         950 14.83         7.1 0.30            119            244 334 
                                                                                
