 2017  5 7 0258 28.1 L   6.787 -73.162151.7  RSN  4 0.4 1.3LRSN                1
 GAP=135        1.02       5.8     5.5  9.0 -0.3718E+01  0.3725E+01  0.6673E+01E
 Epicentro: LOS SANTOS - SANTANDER                                             3
 ACTION:UPD 17-06-16 13:33 OP:jn   STATUS:               ID:20170507025828 L   I
 OLDACT:REG 17-05-07 13:23 OP:ar   STATUS:               ID:20170507024737     3
 2017-05-07-0248-00M.COL___361                                                 6
 STAT SP IPHASW D HRMM SECON CODA AMPLIT PERI AZIMU VELO AIN AR TRES W  DIS CAZ7
 BRR  HZ EP        258 50.20                             154    0.3310 70.3 300 
 BRR  HN ES        259  7.45                             154    0.6210 70.3 300 
 PAM  EZ EP        258 51.24                             151    0.1310 79.7  40 
 PAM  EN ES        259  8.48                             151   -0.5510 79.7  40 
 PAM  EZ I         259 10.43         4.0 0.52            154           79.7  40 
 RUS  HZ EP     D  258 52.52                             145    0.1510 99.3 175 
 RUS  HE ES        259 11.36                             145    0.0710 99.3 175 
 RUS  HZ I         259 12.09         3.0 0.34            147           99.3 175 
 PTB  HZ EP        258 55.08                             134   -0.32 9  146 259 
 PTB  HN ES        259 16.13                             134   -0.54 9  146 259 
 PTB  HZ I         259 23.03         2.2 0.44            134            146 259 
                                                                                
