 2010 10 7 0409 35.2 L   6.793 -73.044141.9  RSN  7 0.4 2.0LRSN                1
 GAP=185        0.70       5.3     8.0  8.0 -0.2271E+02 -0.4553E+01  0.2200E+02E
 Epicentro: LOS SANTOS - SANTANDER                                             3
 ACTION:UP  11-02-18 11:08 OP:tino STATUS:               ID:20101007040935 L   I
 2010-10-07-0407-02S.COL___122                                                 6
 STAT SP IPHASW D HRMM SECON CODA AMPLIT PERI AZIMU VELO SNR AR TRES W  DIS CAZ7
 BAR2 SZ EP   1    4 9 54.44                             169     0.0 7   27 215 
 BAR2 SZ ES   2    410  9.37                             169    -0.1 5   27 215 
 BAR2 SZ I         410 10.57        21.2 0.37                            27 215 
 BRR  HZ IP     C  4 9 56.26                             148    -0.310   82 295 
 BRR  HN ES   1    410 13.01                             148    -0.2 7   82 295 
 BRR  HZ I         410 16.51        22.5 0.24                            82 295 
 GRA  SZ EP   2    4 9 59.82                             137    -0.1 5  124  12 
 GRA  SZ ES   1    410 19.51                             137     0.4 7  124  12 
 GRA  SZ I         410 20.80         9.9 0.21                           124  12 
 CHI  HZ EP   2    410 12.61                             116    -0.3 4  251 198 
 CHI  HN ES   2    410 42.57                             116     0.2 4  251 198 
 CHI  HZ I         410 50.10         5.6 0.28                           251 198 
 HEL  HZ EP   2    410 15.90                             113    -0.5 4  283 257 
 HEL  HZ I         410 53.13         4.5 0.52                           283 257 
 RREF HZ EP   1    410 22.77                             109     0.7 5  330 231 
 RREF HE ES   1    410 59.47                             109     0.8 5  330 231 
 RREF HZ I         411  4.56         5.3 0.39                           330 231 
 PRA  HZ EP   1    410 28.97                             106    -0.2 4  397 211 
 PRA  HE ES   1    411 10.66                             106    -0.6 4  397 211 
                                                                                
