 2010  6 7 0716 22.7 L   6.801 -73.405137.2  RSN  5 0.5 1.8LRSN                1
 GAP=230        0.79       8.5    39.7 12.2  0.5342E+02  0.1512E+03 -0.5096E+02E
 Epicentro: SAN VICENTE DE CHUCURI - SANTANDER                                 3
 ACTION:UP  10-08-24 10:08 OP:vdl  STATUS:               ID:20100607071622 L   I
 2010-06-07-0714-32S.COL___111                                                 6
 STAT SP IPHASW D HRMM SECON CODA AMPLIT PERI AZIMU VELO SNR AR TRES W  DIS CAZ7
 BAR2 SZ EP        716 41.86                             165     0.310   34 133 
 BAR2 SZ ES   1    716 56.22                             165    -0.1 7   34 133 
 GIR2 SZ EP   2    716 40.61                             163    -1.0 5   39  37 
 GIR2 SZ ES   3    716 55.82                             163    -0.5 2   39  37 
 GUE  SZ EP   1    716 47.82                             135     0.4 7  126  25 
 GRA  SZ EP   2    716 47.59                             132    -0.6 5  137  29 
 OCA  SZ EP   1    716 49.99                             128    -0.3 7  159   3 
 OCA  SZ ES   2    717 12.22                             128     0.5 5  159   3 
 OCA  SZ I         717 16.53         7.1 0.19                           159   3 
                                                                                
