 2015 12 7 0647  1.8 L   6.813 -73.144145.6  RSN 11 0.5 1.6LRSN                1
 GAP=136        1.27       4.0     5.5  7.2 -0.3454E+01  0.1022E+02 -0.2035E+01E
 Epicentro: LOS SANTOS - SANTANDER                                             3
 ACTION:UPD 16-02-04 15:03 OP:cam  STATUS:               ID:20151207064701 L   I
 OLDACT:UP  15-12-07 19:48 OP:mh   STATUS:               ID:20151207063746     3
 OLDACT:UP  15-12-07 19:48 OP:mh   STATUS:               ID:20151207063746     3
 OLDACT:REG 15-12-07 12:47 OP:mh   STATUS:               ID:20151207063746     3
 2015-12-07-0637-46M.COL___322                                                 6
 STAT SP IPHASW D HRMM SECON CODA AMPLIT PERI AZIMU VELO AIN AR TRES W  DIS CAZ7
 BAR2 EZ EP        647 21.52                             170    0.0710 24.7 190 
 BAR2 EZ ES        647 35.79                             170   -0.9810 24.7 190 
 BAR2 EZ I         647 37.42         5.2 0.40            171           24.7 190 
 BRR  HZ EP        647 23.53                             153    0.6210 70.7 297 
 BRR  HN ES        647 40.20                             153    0.8310 70.7 297 
 BRR  HZ I         647 43.76         5.4 0.26            151           70.7 297 
 PAM  EZ EP        647 24.47                             151    0.5310 76.2  40 
 PAM  EN ES        647 41.41                             151    0.2210 76.2  40 
 PAM  EZ I         647 43.46         8.4 0.52            153           76.2  40 
 RUS  HZ EP        647 25.68                             143    0.0310  102 176 
 RUS  HN ES   1    647 44.22                             143   -0.01 7  102 176 
 RUS  HZ I         647 44.91         4.8 0.28            147            102 176 
 PTB  HZ EP        647 28.04                             132   -0.77 9  148 258 
 PTB  HN ES   1    647 48.96                             132   -0.90 7  148 258 
 PTB  HZ I         647 49.80         3.1 0.20            133            148 258 
 OCA  HZ EP        647 29.96                             130   -0.02 9  159 353 
 OCA  HN ES   1    647 51.23                             130   -0.72 7  159 353 
 SPBC HZ EP        647 30.46                             129    0.05 9  164 219 
 SPBC HE ES        647 52.86                             129    0.14 9  164 219 
 SPBC HZ I         647 54.68         8.3 0.16            131            164 219 
 ZAR  HZ EP   4    647 35.90                             122    1.69 0  204 292 
 ZAR  HE ES        648  0.19                             122    0.71 9  204 292 
 ZAR  HZ I         648  5.36         2.7 0.28            123            204 292 
 NOR  HZ EP        647 37.88                             118    0.24 8  236 234 
 NOR  HN ES   1    648  5.83                             118    0.26 6  236 234 
 SML  HZ EP        647 37.88                             117   -0.42 8  243 335 
 SML  HN ES        648  6.19                             117   -0.57 8  243 335 
 SML  HZ I         648 10.32         6.5 0.10            119            243 335 
 DBB  SZ EP   1    647 48.70                             109   -0.59 5  340 274 
                                                                                
