 2017  4 7 0812 52.8 L   6.761 -73.095146.0  RSN 20 0.5 2.1LRSN                1
 GAP=118        0.86       2.8     3.0  4.5 -0.9149E+00  0.1838E+01  0.4110E+01E
 Epicentro: LOS SANTOS - SANTANDER                                             3
 ACTION:UPD 17-05-30 21:09 OP:jn   STATUS:               ID:20170407081252 L   I
 OLDACT:UP  17-04-07 17:04 OP:and  STATUS:               ID:20170407080740     3
 OLDACT:UP  17-04-07 17:00 OP:and  STATUS:               ID:20170407080740     3
 OLDACT:UP  17-04-07 17:00 OP:and  STATUS:               ID:20170407080740     3
 OLDACT:UP  17-04-07 16:58 OP:and  STATUS:               ID:20170407080740     3
 OLDACT:UP  17-04-07 16:58 OP:and  STATUS:               ID:20170407080740     3
 OLDACT:UP  17-04-07 16:56 OP:and  STATUS:               ID:20170407080740     3
 OLDACT:REG 17-04-07 12:42 OP:and  STATUS:               ID:20170407080740     3
 2017-04-07-0808-00M.COL___359                                                 6
 STAT SP IPHASW D HRMM SECON CODA AMPLIT PERI AZIMU VELO AIN AR TRES W  DIS CAZ7
 BAR2 EZ IP     C  813 12.29                             171   -0.1010 21.0 207 
 BAR2 EZ ES   2    813 27.41                             171   -0.28 5 21.0 207 
 BAR2 EZ I         813 28.44        31.7 0.26            166           21.0 207 
 PAM  EZ IP     C  813 15.11                             151    0.0810 77.5  34 
 PAM  EN ES        813 32.23                             151   -0.1510 77.5  34 
 PAM  EZ I         813 34.67        43.6 0.64            158           77.5  34 
 BRR  HZ EP        813 14.12                             150   -0.2410 78.2 299 
 BRR  HN ES        813 31.48                             150    0.2910 78.2 299 
 BRR  HZ I         813 36.03        16.6 0.24            149           78.2 299 
 RUS  HZ EP        813 16.17                             145   -0.0610 96.0 179 
 RUS  HN ES        813 34.80                             145    0.2810 96.0 179 
 RUS  HZ I         813 37.53         6.4 0.44            144           96.0 179 
 PTB  HZ EP   9    813 19.01                             131   -1.19 0  152 261 
 PTB  HN ES        813 40.24                             131   -0.15 9  152 261 
 PTB  HZ I         813 41.51        15.7 0.13            130            152 261 
 SPBC HZ EP        813 21.27                             129   -0.05 9  163 221 
 SPBC HN ES        813 43.56                             129   -0.03 9  163 221 
 SPBC HZ I         813 49.48        15.6 0.29            128            163 221 
 YPLC HZ IP     C  813 22.54                             128    0.57 9  170 152 
 YPLC HN ES   3    813 46.39                             128    1.66 2  170 152 
 YPLC HZ I         813 47.42         8.2 0.30            130            170 152 
 ZAR  HZ EP        813 25.74                             121   -0.20 8  211 293 
 ZAR  HN ES   3    813 50.85                             121   -0.96 2  211 293 
 ZAR  HZ I         813 56.38        15.9 0.22            123            211 293 
 NOR  HZ EP        813 28.79                             118    0.04 8  237 236 
 NOR  HN ES        813 56.47                             118   -0.33 8  237 236 
 NOR  HZ I         814  5.03         6.5 0.19            119            237 236 
 CHI  HZ EP        813 30.56                             117    0.36 8  246 197 
 CHI  HN ES        813 59.55                             117    0.16 8  246 197 
 CHI  HZ I         814  3.59         3.2 0.60            118            246 197 
 ROSC BN ES   4    814  2.69                             117    2.18 0  252 213 
 ROSC BZ I         814  9.98        13.6 0.45            117            252 213 
 HEL  HZ EP        813 34.21                             114    0.72 7  276 257 
 HEL  HN ES   4    814  7.54                             114    2.30 0  276 257 
 HEL  HZ I         814 12.26         4.6 0.34            115            276 257 
 URE  HZ EP   4    813 32.83                             113   -1.79 0  291 292 
 URE  HN ES   4    814  4.21                             113   -3.05 0  291 292 
 URE  HZ I         814  5.76         7.6 0.16            114            291 292 
 PTGC HZ EP        813 35.30                             112   -0.66 7  303 159 
 PTGC HN ES        814  8.55                             112   -1.09 7  303 159 
 PTGC HZ I         814 11.24         8.2 0.40            114            303 159 
 ELA  HN ES        814 15.91                             110   -0.58 7  331 231 
 ELA  HZ I         814 24.94         5.8 0.44            111            331 231 
 CBOC HZ EP        813 40.54                             110    0.38 7  338 253 
 CBOC HN ES        814 16.40                             110   -0.72 7  338 253 
 CBOC HZ I         814 25.20         1.7 0.58            111            338 253 
 ANIL HN ES   3    814 23.08                             108    1.45 2  358 226 
 ANIL HZ I         814 32.38         9.7 0.26            109            358 226 
 PRA  HZ EP        813 46.48                             107    0.29 6  391 211 
 PRA  HN ES        814 27.99                             107    0.13 6  391 211 
 PRA  HZ I         814 31.86         6.1 0.72            108            391 211 
 ORTC HZ EP   4    813 44.87                             106   -1.82 0  395 217 
 ORTC HN ES        814 29.55                             106    0.81 6  395 217 
 ORTC HZ I         814 37.06         2.1 0.32            107            395 217 
 SJC  HZ EP   4    813 46.40                             105   -2.73 0  416 327 
 SJC  HN ES   4    814 28.14                             105   -4.95 0  416 327 
 SJC  HZ I         814 32.06         4.8 0.42            107            416 327 
                                                                                
