 2012  4 7 0415 49.6 L   6.758 -73.159139.6  RSN  7 0.4 1.8LRSN                1
 GAP=137        0.87       5.4     5.0  7.4  0.3246E+01  0.9638E+01  0.4698E+00E
 Epicentro: LOS SANTOS - SANTANDER                                             3
 ACTION:UPD 12-07-05 11:51 OP:tino STATUS:               ID:20120407041549 L   I
 2012-04-07-0410-00M.COL___196                                                 6
 STAT SP IPHASW D HRMM SECON CODA AMPLIT PERI AZIMU VELO AIN AR TRES W  DIS CAZ7
 BAR2 SZ EP   1    416  8.46                             172     0.1 7   18 188 
 BAR2 SZ ES   1    416 22.82                             172    -0.2 7   18 188 
 BAR2 SZ I         416 24.69        18.8 0.22                            18 188 
 BRR  HZ EP        416 10.21                             151     0.110   72 302 
 BRR  HN ES   1    416 26.97                             151     0.8 7   72 302 
 BRR  HZ I         416 30.94        19.4 0.16                            72 302 
 PAM  SZ EP   1    416 11.30                             148    -0.1 7   82  38 
 PAM  SZ I         416 11.55        10.6 0.16                            82  38 
 PAM  SN ES   1    416 28.22                             148    -0.2 7   82  38 
 RUS  HZ EP   1    416 12.45                             144     0.1 7   96 175 
 RUS  HN ES   1    416 30.05                             144    -0.1 7   96 175 
 RUS  HZ I         416 32.48         5.8 0.33                            96 175 
 PTB  HZ EP   1    416 15.45                             131    -0.4 7  145 261 
 PTB  HN ES   1    416 36.15                             131    -0.2 7  145 261 
 PTB  HZ I         416 38.76         5.8 0.20                           145 261 
 ZAR  HZ EP   1    416 22.00                             121     0.3 6  205 294 
 ZAR  HN ES   1    416 46.06                             121    -0.6 6  205 294 
 ZAR  HZ I         416 52.22        10.0 0.40                           205 294 
 CHI  HZ EP   2    416 27.12                             116     0.7 4  244 195 
 CHI  HZ I         417  3.44         3.4 0.42                           244 195 
                                                                                
