 2011  6 7 0235 50.6 L   6.792 -73.037159.2  RSN  4 0.4 1.4LRSN                1
 GAP=248        0.79       9.8    12.5 12.6  0.3056E+02 -0.3997E+01 -0.2246E+01E
 Epicentro: CEPITA - SANTANDER                                                 3
 ACTION:UP  11-07-14 19:03 OP:ep   STATUS:               ID:20110607023550 L   I
 2011-06-07-0232-50S.COL___132                                                 6
 STAT SP IPHASW D HRMM SECON CODA AMPLIT PERI AZIMU VELO SNR AR TRES W  DIS CAZ7
 BAR2 SZ EP   1    236 11.60                             170    -0.3 7   27 216 
 BAR2 SZ I         236 23.58         7.7 0.61                            27 216 
 BAR2 SZ ES   2    236 29.25                             170     0.7 5   27 216 
 BRR  HZ EP   1    236 14.21                             151     0.4 7   82 295 
 BRR  HZ I         236 14.52         7.4 0.18                            82 295 
 BRR  HN ES   1    236 31.61                             151    -0.3 7   82 295 
 RUS  HN ES   2    236 34.87                             146    -0.3 5  100 183 
 RUS  HZ I         236 35.95         1.3 0.27                           100 183 
 NOR  SN ES   2    236 57.56                             120     0.2 4  244 236 
                                                                                
