 2010  8 7 0458 55.9 L   6.769 -73.099143.5  RSN  5 0.1 1.1LRSN                1
 GAP=164        0.31       3.3     4.7  3.9  0.2077E+01 -0.9946E+01 -0.1968E+01E
 Epicentro: LOS SANTOS - SANTANDER                                             3
 ACTION:UP  10-09-07 10:52 OP:vdl  STATUS:               ID:20100807045856 L   I
 2010-08-07-0456-53S.COL___125                                                 6
 STAT SP IPHASW D HRMM SECON CODA AMPLIT PERI AZIMU VELO SNR AR TRES W  DIS CAZ7
 BAR2 SZ EP        459 15.10                             171    -0.110   22 206 
 BAR2 SZ ES   3    459 30.05                             171    -0.2 2   22 206 
 BTL  SZ EP        459 15.34                             170     0.110   25 312 
 BTL  SZ ES   1    459 30.34                             170     0.0 7   25 312 
 BRR  HZ EP        459 17.17                             150     0.010   77 299 
 BRR  HE ES   1    459 33.74                             150     0.0 7   77 299 
 BRR  HZ I         459 34.77         3.3 0.32                            77 299 
 RUS  HZ EP   2    459 19.09                             144     0.0 5   97 179 
 RUS  HZ I         459 19.36         1.5 0.55                            97 179 
 RUS  HE ES   3    459 37.81                             144     0.5 2   97 179 
 GRA  SZ EP        459 21.08                             136     0.010  128  15 
 GRA  SZ I         459 42.78         1.6 0.53                           128  15 
                                                                                
