 2011  6 7 0442 54.7 L   6.763 -73.079141.6  RSN  4 0.1 1.4LRSN                1
 GAP=166        0.33       3.4     6.4  4.5  0.7684E+01 -0.1219E+02 -0.6402E+01E
 Epicentro: LOS SANTOS - SANTANDER                                             3
 ACTION:UP  11-07-14 19:03 OP:ep   STATUS:               ID:20110607044254 L   I
 2011-06-07-0438-31S.COL___132                                                 6
 STAT SP IPHASW D HRMM SECON CODA AMPLIT PERI AZIMU VELO SNR AR TRES W  DIS CAZ7
 BAR2 SZ EP   1    443 13.82                             171     0.0 7   22 211 
 BAR2 SZ ES   1    443 28.76                             171     0.0 7   22 211 
 BAR2 SZ I         443 30.18        10.6 0.20                            22 211 
 BRR  HZ EP   1    443 15.85                             149    -0.1 7   80 299 
 BRR  HE ES   2    443 32.51                             149     0.1 5   80 299 
 BRR  HZ I         443 34.52         5.9 0.16                            80 299 
 RUS  HZ EP   1    443 17.85                             144     0.1 7   96 180 
 RUS  HZ I         443 18.60         2.2 0.18                            96 180 
 RUS  HN ES   2    443 35.48                             144    -0.2 5   96 180 
 GRA  SZ EP   1    443 19.72                             136     0.0 7  128  14 
 GRA  SZ I         443 21.01         2.9 0.33                           128  14 
                                                                                
