 2015  1 7 0617  9.1 L   6.853 -73.319125.2  RSN  6 0.5 2.0LRSN                1
 GAP=152        1.21       5.4     6.3  8.6 -0.3862E+01  0.1256E+02 -0.1713E+02E
 Epicentro: BETULIA - SANTANDER                                                3
 ACTION:UPD 15-03-02 15:37 OP:nd   STATUS:               ID:20150107061709 L   I
 OLDACT:DUP 15-01-07 16:13 OP:cam  STATUS:               ID:20150107060817d    3
 OLDACT:UP  15-01-07 16:13 OP:cam  STATUS:               ID:20150107060816     3
 OLDACT:REG 15-01-07 15:43 OP:cam  STATUS:               ID:20150107060816     3
 2015-01-07-0608-16M.COL___277                                                 6
 STAT SP IPHASW D HRMM SECON CODA AMPLIT PERI AZIMU VELO AIN AR TRES W  DIS CAZ7
 BAR2 EZ IP     D  617 27.00                             165    0.4410 32.6 152 
 BAR2 EZ ES        617 39.77                             165   -0.3710 32.6 152 
 BAR2 EZ I         617 41.50        45.5 0.20            168           32.6 152 
 BRR  HZ IP     D  617 27.42                             156    0.4310 51.7 303 
 BRR  HN ES        617 41.58                             156    0.6610 51.7 303 
 BRR  HZ I         617 42.18        23.9 0.12            153           51.7 303 
 PTB  HZ EP        617 32.26                             131   -0.6010  130 255 
 PTB  HE ES        617 50.69                             131   -0.6810  130 255 
 PTB  HZ I         617 55.71         7.6 0.24            130            130 255 
 OCA  HZ EP   1    617 35.00                             126   -0.23 7  153 360 
 OCA  HN ES        617 55.07                             126   -0.52 9  153 360 
 OCA  HZ I         617 56.50        13.7 0.18            127            153 360 
 ZAR  HZ EP        617 38.76                             120    0.56 9  184 293 
 ZAR  HN ES        618  1.23                             120    0.36 9  184 293 
 ZAR  HZ I         618  5.49         8.8 0.30            120            184 293 
 SML  HZ EP        617 43.42                             114    0.16 8  231 339 
 SML  HN ES        618  9.49                             114   -0.38 8  231 339 
 SML  HZ I         618 13.64        11.1 0.10            115            231 339 
                                                                                
