 2017  1 7 0033 27.5 L   5.839 -73.737121.2  RSN  4 0.5 1.1LRSN                1
 GAP=131        1.13       5.7     4.9 12.4  0.5762E+01  0.1469E+02  0.2061E+02E
 Epicentro: JESUS MARIA - SANTANDER                                            3
 ACTION:UPD 17-05-22 15:56 OP:jn   STATUS:               ID:20170107003327 L   I
 OLDACT:REG 17-01-07 12:24 OP:ar   STATUS:               ID:20170107002745     3
 2017-01-07-0028-00M.COL___386                                                 6
 STAT SP IPHASW D HRMM SECON CODA AMPLIT PERI AZIMU VELO AIN AR TRES W  DIS CAZ7
 RUS  HZ EP        033 46.86                             147    0.0610 72.6  85 
 RUS  HE ES        034  2.18                             147    0.2910 72.6  85 
 RUS  HZ I         034  3.19         1.9 0.58            151           72.6  85 
 PTB  HZ EP   2    033 48.86                             134   -0.24 5  111 314 
 PTB  HE ES        034  5.49                             134   -0.5010  111 314 
 PTB  HZ I         034  6.72         1.9 0.15            138            111 314 
 NOR  HZ EP        033 51.63                             130    0.8510  129 256 
 NOR  HN ES        034  9.13                             130    0.1510  129 256 
 NOR  HZ I         034 11.67         5.8 0.12            132            129 256 
 CHI  HZ EP        033 51.03                             129   -0.6810  134 180 
 CHI  HN ES        034 10.52                             129   -0.1110  134 180 
 CHI  HZ I         034 13.48         1.2 0.36            131            134 180 
                                                                                
