 2010 12 7 0214 26.6 L   6.747 -73.285143.9  RSN  4 0.1 1.6LRSN                1
 GAP=212        0.31       3.5    12.1  6.2 -0.1691E+02  0.2481E+02 -0.7301E+01E
 Epicentro: ZAPATOCA - SANTANDER                                               3
 ACTION:UP  11-01-14 15:23 OP:pat  STATUS:               ID:20101207021426 L   I
 2010-12-07-0212-25S.COL___135                                                 6
 STAT SP IPHASW D HRMM SECON CODA AMPLIT PERI AZIMU VELO SNR AR TRES W  DIS CAZ7
 BTL  SZ EP        214 46.05                             172     0.110   19   6 
 BAR2 SZ EP   1    214 45.94                             172     0.0 7   21 147 
 BAR2 SZ ES   2    215  0.96                             172    -0.1 5   21 147 
 BAR2 SZ I         215  2.19         9.0 0.39                            21 147 
 GRA  SZ EP   2    214 52.59                             134     0.0 5  137  23 
 GRA  SZ ES   2    215 12.96                             134     0.0 5  137  23 
 GRA  SZ I         215 13.43         4.3 0.31                           137  23 
 OCA  SZ EP   2    214 55.09                             128    -0.2 5  165 359 
 OCA  SZ ES   2    215 17.56                             128     0.0 5  165 359 
 OCA  SZ I         215 22.29         5.4 0.10                           165 359 
                                                                                
