 2013  5 7 0354 30.4 L   6.773 -73.159155.6  RSN  9 0.5 1.6LRSN                1
 GAP=181        0.81       3.7     5.9  7.0  0.3195E+01  0.5659E+01  0.2569E+01E
 Epicentro: LOS SANTOS - SANTANDER                                             3
 ACTION:UPD 13-06-20 09:48 OP:ep   STATUS:               ID:20130507035430 L   I
 2013-05-07-0350-00M.COL___256                                                 6
 STAT SP IPHASW D HRMM SECON CODA AMPLIT PERI AZIMU VELO AIN AR TRES W  DIS CAZ7
 BAR2 SZ EP   1    354 51.07                             172   -0.09 7 20.2 187 
 GIR2 SZ EP   1    354 51.29                             167   -0.03 7 34.0 354 
 GIR2 SZ ES   1    355  7.53                             167   -0.10 7 34.0 354 
 GIR2 SZ I         355 10.45         3.4 0.30            164           34.0 354 
 BRR  HZ EP   1    354 53.17                             154    0.53 7 71.4 301 
 BRR  HN ES   1    355 10.67                             154    0.69 7 71.4 301 
 BRR  HZ I         355 13.44         4.5 0.12            151           71.4 301 
 RUS  HZ EP   1    354 55.02                             146    0.08 7 97.8 175 
 RUS  HN ES   1    355 13.90                             146   -0.18 7 97.8 175 
 RUS  HZ I         355 14.45         2.6 0.32            149           97.8 175 
 PTB  HZ EP   1    354 58.01                             135   -0.01 7  146 260 
 PTB  HN ES   1    355 19.37                             135   -0.19 7  146 260 
 OCA  HN ES   1    355 22.23                             131   -0.41 7  163 354 
 OCA  HZ I         355 26.96         5.2 0.40            130            163 354 
 ZAR  HE ES   1    355 29.36                             125    0.07 6  204 293 
 SML  HZ EP   1    355  7.96                             119    0.14 6  246 336 
 SML  HN ES   1    355 36.27                             119   -0.74 6  246 336 
 SML  HZ I         355 45.00         6.1 0.10            118            246 336 
 PRA  HZ EP   1    355 24.99                             108    1.09 4  389 210 
 PRA  HN ES   1    356  4.35                             108   -1.28 4  389 210 
 PRA  HZ I         356 12.67         2.1 0.66            108            389 210 
                                                                                
