 2014  2 7 0954 54.1 L   6.834 -73.181141.9  RSN  7 0.4 1.4LRSN                1
 GAP=180        0.66       2.8     5.1  9.4 -0.7483E+00  0.1458E+02  0.9527E+00E
 Epicentro: ZAPATOCA - SANTANDER                                               3
 ACTION:UPD 14-03-10 08:08 OP:ep   STATUS:               ID:20140207095454 L   I
 OLDACT:UP  14-02-07 13:57 OP:mh   STATUS:               ID:20140207095000     3
 OLDACT:REG 14-02-07 09:03 OP:mh   STATUS:               ID:20140207095000     3
 2014-02-07-0950-00M.COL___291                                                 6
 STAT SP IPHASW D HRMM SECON CODA AMPLIT PERI AZIMU VELO AIN AR TRES W  DIS CAZ7
 RUS  HZ EP   1    955 17.45                             142   -0.35 8  105 174 
 RUS  HN ES   1    955 36.43                             142    0.16 8  105 174 
 RUS  HZ I         955 38.06         3.0 0.11            145            105 174 
 PTB  HZ EP        955 20.51                             132    0.0010  145 257 
 PTB  HN ES   1    955 40.99                             132   -0.10 7  145 257 
 PTB  HZ I         955 43.99         3.3 0.17            132            145 257 
 OCA  HN ES        955 43.46                             129    0.1710  156 354 
 ZAR  HN ES   2    955 51.12                             122    0.60 5  199 292 
 ZAR  HZ I         955 58.08         2.3 0.23            123            199 292 
 NOR  HN ES   1    955 56.83                             118   -0.33 6  234 233 
 NOR  HZ I         956  1.35         2.2 0.09            120            234 233 
 SML  HN ES   1    955 57.42                             117   -0.55 6  239 336 
 GUY2CHZ EP   1    955 38.22                             112    0.77 6  300 234 
 GUY2CHZ I         956 20.64         1.5 0.56                           300 234 
                                                                                
