 2016  9 7 0328  9.6 L   6.916 -73.091142.0  RSN  5 0.2 1.6LRSN                1
 GAP=251        0.48       4.8     4.2  6.6  0.1391E+02 -0.8796E+01 -0.1499E+02E
 Epicentro: PIEDECUESTA - SANTANDER                                            3
 ACTION:UPD 17-08-17 21:07 OP:lp   STATUS:               ID:20160907032809 L   I
 OLDACT:UP  16-09-07 14:36 OP:dani STATUS:               ID:20160907031731     3
 OLDACT:UP  16-09-07 14:36 OP:dani STATUS:               ID:20160907031731     3
 OLDACT:REG 16-09-07 12:27 OP:dani STATUS:               ID:20160907031731     3
 2016-09-07-0318-00M.COL___364                                                 6
 STAT SP IPHASW D HRMM SECON CODA AMPLIT PERI AZIMU VELO AIN AR TRES W  DIS CAZ7
 RUS  HZ EP        328 33.79                             140   -0.1310  113 180 
 RUS  HE ES        328 53.14                             140    0.2310  113 180 
 RUS  HZ I         328 53.63         3.2 0.40            142            113 180 
 PTB  HZ EP        328 36.95                             130   -0.12 9  157 255 
 PTB  HE ES        328 58.54                             130    0.04 9  157 255 
 PTB  HZ I         329  2.52         3.2 0.38            129            157 255 
 SPBC HN EP        328 39.04                             126   -0.10 9  177 218 
 SPBC HZ ES        329  2.04                             126   -0.15 9  177 218 
 SPBC HN I         329  6.88        10.7 0.09            127            177 218 
 ZAR  HN ES        329  7.23                             122    0.10 9  205 288 
 ZAR  HZ I         329 13.48         3.1 0.10            122            205 288 
 GUY2CHZ EP   2    328 55.26                             111    0.83 4  314 234 
 GUY2CHE ES   4    329 32.76                             111    3.35 0  314 234 
 GUY2CHZ I         329 36.15         2.2 0.64                           314 234 
                                                                                
