 2012  5 7 0632  7.9 L   6.755 -73.153146.0  RSN  4 0.4 1.1LRSN                1
 GAP=138        0.68       7.6     8.1  9.1  0.2932E+02  0.3856E+01  0.1692E+02E
 Epicentro: LOS SANTOS - SANTANDER                                             3
 ACTION:UP  12-07-05 12:03 OP:pat  STATUS:               ID:20120507063207 L   I
 2012-05-07-0629-37M.COL___175                                                 6
 STAT SP IPHASW D HRMM SECON CODA AMPLIT PERI AZIMU VELO SNR AR TRES W  DIS CAZ7
 BRR  HZ EP        632 29.29                             152     0.110   73 302 
 BRR  HE ES   1    632 46.09                             152     0.3 7   73 302 
 BRR  HZ I         632 49.06         3.6 0.58                            73 302 
 PAM  SN ES   3    632 46.45                             150    -1.5 2   82  38 
 RUS  HZ EP        632 31.30                             145    -0.110   96 175 
 RUS  HE ES   2    632 49.96                             145     0.3 5   96 175 
 RUS  HZ I         632 50.91         1.4 0.44                            96 175 
 PTB  HZ EP        632 34.68                             133    -0.1 9  146 261 
 PTB  HN ES   2    632 55.19                             133    -0.5 5  146 261 
 PTB  HZ I         633  2.78         1.7 0.28                           146 261 
                                                                                
