 2012  4 7 0412  4.7 L   6.632 -73.165148.7  RSN  4 0.3 1.3LRSN                1
 GAP=223        0.65       7.2     7.5  9.1  0.3340E+02  0.5955E+01 -0.7626E+01E
 Epicentro: VILLANUEVA - SANTANDER                                             3
 ACTION:UPD 12-07-05 11:51 OP:tino STATUS:               ID:20120407041204 L   I
 2012-04-07-0410-00M.COL___196                                                 6
 STAT SP IPHASW D HRMM SECON CODA AMPLIT PERI AZIMU VELO AIN AR TRES W  DIS CAZ7
 BRR  HZ EP   1    412 26.64                             150    -0.1 7   80 311 
 BRR  HZ I         412 26.92         4.4 0.16                            80 311 
 BRR  HN ES   1    412 44.05                             150     0.2 7   80 311 
 RUS  HZ EP   2    412 28.15                             150     0.6 5   82 174 
 RUS  HN ES   1    412 45.08                             150    -0.3 7   82 174 
 RUS  HZ I         412 49.80         1.2 0.52                            82 174 
 PTB  HZ EP   1    412 31.43                             134    -0.1 7  143 266 
 PTB  HN ES   1    412 52.72                             134     0.3 7  143 266 
 PTB  HZ I         412 54.23         2.0 0.29                           143 266 
 ZAR  HN ES   1    413  3.57                             122    -0.3 6  210 297 
 ZAR  HZ I         413  8.01         3.4 0.55                           210 297 
                                                                                
