 2010  6 7 0127  1.7 L   6.791 -73.054145.5  RSN  9 0.3 2.1LRSN                1
 GAP=148        0.72       4.3     6.7  5.4 -0.1729E+02  0.2349E+01  0.1592E+01E
 Epicentro: LOS SANTOS - SANTANDER                                             3
 ACTION:UP  10-08-24 10:08 OP:vdl  STATUS:               ID:20100607012701 L   I
 2010-06-07-0125-21S.COL___111                                                 6
 STAT SP IPHASW D HRMM SECON CODA AMPLIT PERI AZIMU VELO SNR AR TRES W  DIS CAZ7
 BAR2 SZ EP        127 21.15                             169    -0.210   26 213 
 BAR2 SZ ES   1    127 36.56                             169    -0.1 7   26 213 
 GIR2 SZ EP   2    127 21.60                             166     0.2 5   35 334 
 GIR2 SZ ES   2    127 37.16                             166     0.3 5   35 334 
 GUE  SZ EP        127 26.61                             139     0.310  116   7 
 GRA  SZ EP        127 27.05                             137     0.310  124  13 
 GRA  SZ ES   1    127 46.48                             137     0.2 7  124  13 
 OCA  SZ EP        127 29.87                             129    -0.3 9  163 350 
 OCA  SZ ES   1    127 51.92                             129    -0.5 7  163 350 
 OCA  SZ I         127 58.00         9.3 0.26                           163 350 
 CHI  HZ EP   1    127 39.28                             117    -0.3 6  251 197 
 CHI  HZ I         128 16.13         5.2 0.22                           251 197 
 HEL  HZ IP     D  127 43.21                             114     0.3 7  282 257 
 HEL  HZ I         128 20.33         9.6 0.26                           282 257 
 RREF BZ EP   1    127 49.18                             110     0.6 5  329 231 
 RREF BN ES   1    128 24.90                             110    -0.3 5  329 231 
 RREF BZ I         128 30.88         8.9 0.18                           329 231 
 SDV  BZ IP     C  127 50.61                             108    -0.3 6  353  49 
 SDV  BZ I         127 51.52         3.4 0.23                           353  49 
                                                                                
