 2012  2 7 0944 55.3 L   6.755 -73.432111.0  RSN 12 0.2 2.5LRSN                1
 GAP= 72        0.37       1.8     1.9  2.9 -0.1133E+00  0.2448E+01  0.1617E+01E
 ACTION:UP  12-03-07 16:28 OP:epov STATUS:               ID:20120207094455 L   I
 2012-02-07-0940-00M.COL___187                                                 6
 STAT SP IPHASW D HRMM SECON CODA AMPLIT PERI AZIMU VELO AIN AR TRES W  DIS CAZ7
 BAR2 SZ IP        945 11.24                             162    0.1110 33.0 123 
 BAR2 SZ I         945 11.58       129.8 0.31                          33.0 123 
 BAR2 SZ ES   1    945 23.44                             162    0.01 7 33.0 123 
 GIR2 SZ EP        945 11.46                             157   -0.0210 44.5  36 
 GIR2 SZ ES   1    945 24.03                             157   -0.03 7 44.5  36 
 BRR  HZ IP     C  945 11.26                             154   -0.2710 49.7 322 
 BRR  HN ES   1    945 24.30                             154    0.14 7 49.7 322 
 BRR  HZ I         945 24.93       201.5 0.15                          49.7 322 
 RUS  HZ EP        945 15.96                             134   -0.1110  103 158 
 RUS  HE ES   2    945 32.15                             134   -0.08 5  103 158 
 RUS  HZ I         945 33.75        29.2 0.13                           103 158 
 PAM  SZ EP   1    945 16.25                             134    0.12 7  104  51 
 PAM  SN ES   2    945 32.43                             134    0.09 5  104  51 
 PTB  HZ EP   9    945 15.05                             130   -1.53 0  116 258 
 PTB  HE ES   9    945 30.94                                   -0.67 0  116 258 
 ZAR  HZ EP   2    945 23.12                             117    0.27 4  177 297 
 ZAR  HE ES   2    945 44.43                             117    0.12 4  177 297 
 ZAR  HZ I         945 47.47        53.5 0.31                           177 297 
 NOR  SZ EP        945 25.95                             113   -0.18 8  206 230 
 NOR  SN ES   2    945 49.97                             113   -0.17 4  206 230 
 CHI  HN ES   2    945 57.90                             110    0.73 4  237 188 
 HEL  HZ EP   1    945 30.75                             110    0.40 6  240 255 
 HEL  HE ES   2    945 57.67                             110    0.03 4  240 255 
 HEL  HZ I         946  0.10        10.7 0.37                           240 255 
 RREF HZ EP   1    945 36.97                             105   -0.09 5  295 226 
 RREF HN ES   2    946  9.46                             105   -0.13 4  295 226 
 COD  HN ES   2    946 20.16                             102   -0.02 3  352 360 
 PRA  HZ EP   2    945 45.75                             101    0.15 3  373 206 
                                                                                
