 2012  6 7 0527 53.6 L   6.847 -73.162132.2  RSN  7 0.4 1.9LRSN                1
 GAP=182        0.82       3.1     5.0  7.0  0.2148E+01  0.6965E+01 -0.1346E+01E
 Epicentro: LOS SANTOS - SANTANDER                                             3
 ACTION:UPD 12-08-06 17:47 OP:ep   STATUS:               ID:20120607052752 L   I
 2012-06-07-0520-00M.COL___201                                                 6
 STAT SP IPHASW D HRMM SECON CODA AMPLIT PERI AZIMU VELO AIN AR TRES W  DIS CAZ7
 BAR2 SZ EP   1    528 12.26                             167    0.56 8 28.3 184 
 BAR2 SZ ES   1    528 25.71                             167   -0.13 8 28.3 184 
 BAR2 SZ I         528 29.60        29.3 0.25            167           28.3 184 
 RUS  HZ EP   1    528 16.32                             139   -0.12 7  106 175 
 RUS  HN ES        528 34.58                             139    0.3110  106 175 
 RUS  HZ I         528 36.91        10.2 0.16            141            106 175 
 PTB  HZ EP   1    528 18.82                             129   -0.59 7  147 257 
 PTB  HN ES        528 39.30                             129   -0.26 9  147 257 
 PTB  HZ I         528 42.91        12.8 0.12            131            147 257 
 OCA  HZ EP   1    528 20.55                             127    0.20 7  155 354 
 OCA  HN ES        528 40.83                             127   -0.39 9  155 354 
 ZAR  HZ EP   1    528 25.70                             120    0.91 6  200 291 
 ZAR  HN ES   1    528 49.53                             120    0.39 6  200 291 
 CHI  HZ EP   1    528 30.68                             114   -0.39 6  253 194 
 CHI  HN ES   1    529  0.22                             114   -0.10 6  253 194 
 CHI  HZ I         529  2.70         4.0 0.32            116            253 194 
 PRA  HZ EP   1    528 46.61                             104   -0.49 4  396 209 
                                                                                
