 2015  3 7 0345 55.5 L   6.775 -73.179151.6  RSN  6 0.4 1.4LRSN                1
 GAP=232        0.87       4.9     6.0  6.8  0.4638E+01 -0.8554E+00  0.7964E+01E
 Epicentro: LOS SANTOS - SANTANDER                                             3
 ACTION:UPD 15-04-30 16:23 OP:nd   STATUS:               ID:20150307034555 L   I
 OLDACT:DUP 15-03-07 16:00 OP:spq  STATUS:               ID:20150307033740d    3
 2015-03-07-0337-37M.COL___285                                                 6
 STAT SP IPHASW D HRMM SECON CODA AMPLIT PERI AZIMU VELO AIN AR TRES W  DIS CAZ7
 BAR2 EZ EP   1    346 15.44                             172   -0.37 7 20.2 181 
 BAR2 EZ ES   1    346 31.25                             172   -0.37 7 20.2 181 
 BAR2 EZ I         346 32.25         5.2 0.42            167           20.2 181 
 BRR  HZ EP        346 17.35                             154    0.1310 69.4 302 
 BRR  HN ES        346 34.81                             154    0.6710 69.4 302 
 BRR  HZ I         346 41.05         4.5 0.46            152           69.4 302 
 RUS  HZ EP        346 19.64                             146   -0.0610 98.1 174 
 RUS  HN ES   1    346 38.29                             146   -0.25 7 98.1 174 
 RUS  HZ I         346 39.01         2.5 0.24            146           98.1 174 
 PTB  HZ EP        346 22.38                             134   -0.24 9  144 260 
 PTB  HN ES        346 43.13                             134   -0.61 9  144 260 
 PTB  HZ I         346 46.86         3.5 0.12            133            144 260 
 SPBC HZ EP        346 24.25                             131    0.18 9  159 219 
 SPBC HE ES        346 46.47                             131    0.14 9  159 219 
 SPBC HZ I         346 53.39         4.9 0.28            130            159 219 
 CHI  HZ EP   1    346 33.60                             119    0.42 6  245 194 
 CHI  HN ES   1    347  2.96                             119    0.43 6  245 194 
 CHI  HZ I         347  8.88         1.1 0.23            120            245 194 
                                                                                
