 2016 10 7 0445 19.1 L   6.784 -73.114146.1  RSN 17 0.4 2.1LRSN                1
 GAP=122        0.83       2.7     3.0  4.4 -0.4840E+00  0.2843E+01  0.7279E+00E
 Epicentro: LOS SANTOS - SANTANDER                                             3
 ACTION:UPD 16-11-09 19:17 OP:rebc STATUS:               ID:20161007044519 L   I
 OLDACT:REG 16-10-07 12:49 OP:dnl  STATUS:               ID:20161007043747     3
 2016-10-07-0438-00M.COL___348                                                 6
 STAT SP IPHASW D HRMM SECON CODA AMPLIT PERI AZIMU VELO AIN AR TRES W  DIS CAZ7
 BAR2 EZ EP        445 38.81                             171    0.0510 22.6 200 
 BAR2 EZ ES        445 53.47                             171   -0.6210 22.6 200 
 BAR2 EZ I         445 55.02        24.4 0.14            168           22.6 200 
 BRR  HZ EP        445 40.75                             151    0.2410 75.1 298 
 BRR  HN ES        445 57.60                             151    0.3910 75.1 298 
 BRR  HZ I         446  2.37        17.0 0.14            150           75.1 298 
 PAM  EZ EP        445 41.77                             151    0.4710 76.5  37 
 PAM  EN ES        445 58.59                             151   -0.0310 76.5  37 
 PAM  EZ I         446  0.67        37.7 0.52            155           76.5  37 
 RUS  HZ EP        445 43.25                             144    0.5010 98.7 178 
 RUS  HN ES        446  1.36                             144    0.1710 98.7 178 
 RUS  HZ I         446  2.97        17.4 0.40            145           98.7 178 
 PTB  HZ EP        445 45.97                             131   -0.41 9  151 260 
 PTB  HN ES        446  7.31                             131   -0.35 9  151 260 
 PTB  HZ I         446  9.72        16.6 0.16            131            151 260 
 OCA  HZ EP        445 47.11                             129   -0.53 9  162 352 
 OCA  HN ES   4    446  8.33                             129   -1.57 0  162 352 
 OCA  HZ I         446 12.97        32.5 0.18            131            162 352 
 SPBC HZ EP        445 47.77                             129    0.05 9  164 220 
 SPBC HE ES        446  9.99                             129   -0.04 9  164 220 
 SPBC HZ I         446 13.08        22.0 0.20            129            164 220 
 ZAR  HZ EP        445 52.22                             122    0.25 8  208 292 
 ZAR  HN ES        446 17.77                             122    0.16 8  208 292 
 ZAR  HZ I         446 22.23        12.9 0.26            122            208 292 
 NOR  HZ EP   2    445 55.08                             118    0.02 4  237 235 
 NOR  HE ES   4    446 21.88                             118   -1.22 0  237 235 
 NOR  HZ I         446 30.11         9.8 0.18            119            237 235 
 CHI  HZ EP   2    445 57.46                             117    0.72 4  248 196 
 CHI  HN ES        446 25.91                             117   -0.19 8  248 196 
 CHI  HZ I         446 29.69         5.5 0.54            118            248 196 
 ROSC BZ EP   4    445 59.02                             117    1.74 0  253 212 
 ROSC BN ES   4    446 28.35                             117    1.29 0  253 212 
 ROSC BZ I         446 35.20         8.4 0.45            117            253 212 
 HEL  HZ EP   2    446  0.18                             114    0.51 4  275 256 
 HEL  HN ES        446 31.11                             114   -0.20 8  275 256 
 HEL  HZ I         446 35.96         6.6 0.30            115            275 256 
 URE  HZ EP   2    446  0.05                             113   -0.58 4  288 292 
 URE  HN ES   4    446 31.02                             113   -2.00 0  288 292 
 URE  HZ I         446 38.36         7.4 0.14            114            288 292 
 GUY2CHZ EP   4    446  3.75                             112    0.81 0  303 235 
 GUY2CHN ES   4    446 35.48                             112   -1.66 0  303 235 
 GUY2CHZ I         446 43.87         4.8 0.26                           303 235 
 PTGC HZ EP        446  2.17                             112   -0.48 7  306 159 
 PTGC HN ES   4    446 34.96                             112   -1.65 0  306 159 
 PTGC HZ I         446 37.65         8.8 0.36            113            306 159 
 CBOC HZ EP   4    446  7.12                             110    0.76 0  336 253 
 CBOC HE ES        446 43.47                             110    0.25 7  336 253 
 CBOC HZ I         446 46.44         2.5 0.42            110            336 253 
 SJC  HZ EP   2    446 13.58                             105   -1.49 3  413 327 
 SJC  HN ES   4    446 54.91                             105   -3.82 0  413 327 
 SJC  HZ I         446 58.58         5.6 0.46            106            413 327 
                                                                                
