 2017  3 7 0557 13.4 L   6.803 -73.147144.8  RSN 24 0.6 2.4LRSN                1
 GAP= 65        1.03       3.1     2.8  4.7 -0.4771E+00  0.3614E+01  0.2285E+01E
 Epicentro: LOS SANTOS - SANTANDER                                             3
 ACTION:UPD 17-05-25 18:37 OP:jn   STATUS:               ID:20170307055713 L   I
 OLDACT:UP  17-03-07 15:10 OP:and  STATUS:               ID:20170307054747     3
 OLDACT:UP  17-03-07 15:09 OP:and  STATUS:               ID:20170307054747     3
 OLDACT:UP  17-03-07 15:07 OP:and  STATUS:               ID:20170307054747     3
 OLDACT:UP  17-03-07 15:06 OP:and  STATUS:               ID:20170307054747     3
 OLDACT:UP  17-03-07 15:05 OP:and  STATUS:               ID:20170307054747     3
 OLDACT:UP  17-03-07 15:04 OP:and  STATUS:               ID:20170307054747     3
 OLDACT:UP  17-03-07 15:04 OP:and  STATUS:               ID:20170307054747     3
 OLDACT:UP  17-03-07 15:03 OP:and  STATUS:               ID:20170307054747     3
 OLDACT:REG 17-03-07 12:03 OP:and  STATUS:               ID:20170307054747     3
 2017-03-07-0548-00M.COL___367                                                 6
 STAT SP IPHASW D HRMM SECON CODA AMPLIT PERI AZIMU VELO AIN AR TRES W  DIS CAZ7
 BAR2 EZ IP     D  557 32.69                             171   -0.2310 23.7 189 
 BAR2 EZ ES        557 48.20                             171    0.0610 23.7 189 
 BAR2 EZ I         557 49.36        93.1 0.16            165           23.7 189 
 BRR  HZ IP     C  557 34.54                             152    0.1110 70.9 298 
 BRR  HN ES        557 51.52                             152    0.7010 70.9 298 
 BRR  HZ I         557 52.29        45.5 0.12            152           70.9 298 
 PAM  EZ IP     C  557 35.52                             150    0.0210 77.2  40 
 PAM  EN ES        557 52.58                             150   -0.1610 77.2  40 
 PAM  EZ I         557 54.91        79.1 0.54            159           77.2  40 
 RUS  HZ EP        557 36.66                             144   -0.4210  101 176 
 RUS  HN ES        557 55.64                             144    0.0810  101 176 
 RUS  HZ I         557 56.35        29.6 0.24            143            101 176 
 PTB  HZ EP        557 39.84                             132   -0.44 9  148 259 
 PTB  HN ES        558  0.46                             132   -0.79 9  148 259 
 PTB  HZ I         558  7.65        19.1 0.14            131            148 259 
 TAM  HZ IP     D  557 41.13                             130    0.11 9  155 105 
 TAM  HN ES        558  2.84                             130    0.27 9  155 105 
 TAM  HZ I         558  5.25        11.1 0.26            135            155 105 
 SPBC HZ EP        557 41.64                             129   -0.20 9  163 219 
 SPBC HN ES        558  4.26                             129    0.23 9  163 219 
 SPBC HZ I         558  8.55        45.3 0.24            128            163 219 
 ZAR  HZ EP        557 45.27                             122   -0.48 9  204 292 
 ZAR  HN ES        558 10.63                             122   -0.36 9  204 292 
 ZAR  HZ I         558 17.38        33.8 0.24            124            204 292 
 NOR  HZ EP        557 48.86                             118   -0.22 8  235 234 
 NOR  HN ES        558 16.53                             118   -0.39 8  235 234 
 NOR  HZ I         558 22.62        12.4 0.27            119            235 234 
 CHI  HZ EP        557 51.32                             117    0.24 8  249 195 
 CHI  HN ES        558 19.53                             117   -0.94 8  249 195 
 CHI  HZ I         558 23.70        19.4 0.54            118            249 195 
 ROSC BZ EP        557 52.35                             116    0.86 8  253 211 
 ROSC BN ES   3    558 22.55                             116    1.34 2  253 211 
 ROSC BZ I         558 26.53        32.8 0.45            117            253 211 
 HEL  HZ EP   2    557 55.34                             114    1.78 4  272 256 
 HEL  HN ES        558 24.91                             114    0.03 8  272 256 
 HEL  HZ I         558 31.77         8.3 0.30            116            272 256 
 URE  HZ EP   9    557 52.82                             113   -1.57 0  284 292 
 URE  HN ES   4    558 25.21                                    0.42 0  284 292 
 URE  HZ I         558 36.74        18.7 0.21            115            284 292 
 PTGC HZ IP   9 D  557 55.86                             111   -1.40 0  309 159 
 PTGC HN ES        558 29.50                             112   -0.57 7  309 159 
 PTGC HZ I         558 34.16        14.0 0.28            113            309 159 
 LL6C HN EP   9    557 38.65                             110   -20.4 0  325 358 
 LL6C HE ES        558 15.12                                    0.89 7  325 358 
 LL6C HN I         558 15.70        12.9 0.42            113            325 358 
 ELA  HZ EP        558  0.71                             110    0.48 7  329 229 
 ELA  HN ES   3    558 38.42                             110    1.67 2  329 229 
 ELA  HZ I         558 45.43        10.5 0.52            111            329 229 
 CBOC HZ EP        558  1.12                             110    0.85 7  334 252 
 CBOC HN ES        558 37.76                             110    0.93 7  334 252 
 CBOC HZ I         558 42.92         3.3 0.38            111            334 252 
 DBB  EZ EP        558  0.81                             109   -0.01 7  339 274 
 DBB  EN ES   3    558 35.89                             109   -1.91 2  339 274 
 DBB  EZ I         558 37.46         5.3 0.24            111            339 274 
 ANIL HN ES   3    558 43.72                             108    1.70 2  358 224 
 ARGC HZ EP        558  3.15                             108    0.18 6  359 340 
 ARGC HN ES   4    558 43.88                             108    2.24 0  359 340 
 PRA  HZ EP        558  7.22                             106    0.30 6  392 210 
 PRA  HN ES        558 48.57                             106   -0.09 6  392 210 
 PRA  HZ I         558 54.51        14.9 0.30            107            392 210 
 ORTC HZ EP   3    558  5.27                             106   -2.04 1  396 216 
 ORTC HN ES   3    558 50.36                             106    1.00 1  396 216 
 ORTC HZ I         558 54.08         9.1 0.24            107            396 216 
 SJC  HZ EP   4    558  6.93                             105   -1.95 0  409 327 
 SJC  HN ES   4    558 49.01                             105   -3.15 0  409 327 
 SJC  HZ I         558 52.76         4.8 0.34            108            409 327 
 CRJC HZ EP   4    558 13.10                             103   -2.73 0  467   4 
 CRJC HN ES   4    559  1.74                             103   -2.78 0  467   4 
 CRJC HZ I         559  2.69         7.0 0.14            106            467   4 
 SMAR HZ EP   4    558 17.75                             102   -1.45 0  497 346 
 SMAR HN ES   4    559  6.39                             102   -4.13 0  497 346 
                                                                                
