 2010  5 7 0913 39.8 L   6.731 -72.986144.6  RSN 12 0.4 2.2LRSN                1
 GAP=189        0.64       4.2     6.7  5.6 -0.1367E+02 -0.4812E+01  0.7853E+01E
 Epicentro: CEPITA - SANTANDER                                                 3
 ACTION:UP  10-08-24 10:03 OP:vdl  STATUS:               ID:20100507091339 L   I
 2010-05-07-0911-37S.COL___105                                                 6
 STAT SP IPHASW D HRMM SECON CODA AMPLIT PERI AZIMU VELO SNR AR TRES W  DIS CAZ7
 BAR2 SZ EP        913 59.39                             169     0.110   27 235 
 BAR2 SZ ES   1    914 14.38                             169    -0.2 7   27 235 
 BRR  HZ EP        914  1.95                             146     0.010   90 297 
 BRR  HN ES   1    914 19.31                             146     0.0 7   90 297 
 BRR  HZ I         914 21.15        26.6 0.12                            90 297 
 BRI  SZ EP   2    914  3.90                             140     0.2 5  111  11 
 GUE  SZ EP   2    914  4.31                             138    -0.5 5  122   3 
 GRA  SZ EP   1    914  5.08                             136    -0.1 7  129   9 
 GRA  SZ ES   2    914 25.52                             136     0.5 5  129   9 
 OCA  SZ EP   2    914  8.32                             127    -0.7 4  171 348 
 OCA  SZ ES   2    914 32.35                             127     0.6 4  171 348 
 OCA  SZ I         914 34.50        17.0 0.23                           171 348 
 CHI  HZ EP   1    914 17.31                             117     0.1 6  247 200 
 CHI  HZ I         914 51.97         7.5 0.47                           247 200 
 ROSC BZ EP   2    914 18.90                             116     0.7 4  256 215 
 ROSC BZ I         914 54.62        13.6 0.45                           256 215 
 HEL  HZ EP   2    914 20.86                             113    -0.8 4  288 258 
 HEL  HZ I         914 57.19         6.3 0.28                           288 258 
 RREF BZ EP   2    914 27.46                             110     0.6 3  331 232 
 RREF BE ES   1    915  3.64                             110     0.0 5  331 232 
 RREF BZ I         915  8.45         9.8 0.21                           331 232 
 TOL  SZ EP   2    914 29.77                             109     0.9 3  351 228 
 PRA  HZ EP   1    914 32.96                             106    -0.6 4  395 212 
 PRA  HE ES   3    915 15.09                             106    -0.4 1  395 212 
 PRA  HZ I         915 21.45         9.2 0.70                           395 212 
                                                                                
