 2016 12 7 0423 19.7 L   6.798 -73.154147.3  RSN 15 0.4 2.2LRSN                1
 GAP=101        0.96       3.5     2.7  4.9  0.1141E+00  0.2069E+01  0.3933E+01E
 Epicentro: LOS SANTOS - SANTANDER                                             3
 ACTION:UPD 17-01-11 20:12 OP:rebc STATUS:               ID:20161207042319 L   I
 OLDACT:UP  16-12-07 16:31 OP:ar   STATUS:               ID:20161207041744     3
 OLDACT:REG 16-12-07 12:38 OP:ar   STATUS:               ID:20161207041744     3
 2016-12-07-0418-00M.COL___358                                                 6
 STAT SP IPHASW D HRMM SECON CODA AMPLIT PERI AZIMU VELO AIN AR TRES W  DIS CAZ7
 BAR2 EZ EP        423 39.38                             171   -0.0810 23.0 188 
 BAR2 EZ ES        423 54.68                             171   -0.2310 23.0 188 
 BAR2 EZ I         423 55.34        39.7 0.34            170           23.0 188 
 BRR  HZ EP        423 41.21                             153    0.2810 70.5 299 
 BRR  HN ES        423 58.36                             153    0.8410 70.5 299 
 BRR  HZ I         424  1.85        16.5 0.30            152           70.5 299 
 PAM  EZ EP        423 42.39                             151    0.3110 78.1  40 
 PAM  EN ES        423 59.00                             151   -0.5710 78.1  40 
 PAM  EZ I         424  1.38        27.8 0.46            148           78.1  40 
 RUS  HZ EP        423 43.33                             144   -0.2210  100 176 
 RUS  HN ES        424  2.31                             144    0.1310  100 176 
 RUS  HZ I         424  3.03        16.8 0.24            142            100 176 
 PTB  HZ EP        423 46.21                             133   -0.45 9  147 259 
 PTB  HN ES        424  7.07                             133   -0.65 9  147 259 
 PTB  HZ I         424 13.99        18.1 0.68            130            147 259 
 TAM  HZ EP        423 47.81                             131    0.27 9  156 105 
 TAM  HZ I         424  8.65        10.3 0.40            128            156 105 
 TAM  HN ES        424  9.43                             131    0.15 9  156 105 
 ZAR  HZ EP        423 51.96                             123   -0.16 9  203 292 
 ZAR  HE ES        424 17.38                             123   -0.06 9  203 292 
 ZAR  HZ I         424 22.36        20.5 0.36            121            203 292 
 NOR  HZ EP        423 55.87                             119    0.49 8  234 234 
 NOR  HN ES        424 23.57                             119    0.33 8  234 234 
 NOR  HZ I         424 27.82         9.3 0.24            117            234 234 
 CHI  HZ EP        423 57.55                             117    0.16 8  248 195 
 CHI  HN ES        424 26.89                             117    0.07 8  248 195 
 CHI  HZ I         424 31.91         9.4 0.38            115            248 195 
 ROSC BZ EP   9    423 59.93                             117    2.14 0  252 211 
 ROSC BN ES        424 30.24                             117    0.57 8  252 211 
 ROSC BZ I         424 33.71        23.8 0.40            115            252 211 
 PTGC HZ EP        424  2.91                             112   -0.69 7  309 158 
 PTGC HN ES   4    424 36.18                             112   -1.69 0  309 158 
 PTGC HZ I         424 38.64        11.2 0.24            110            309 158 
 CBOC HZ EP   4    424  7.70                             110    1.17 0  333 252 
 CBOC HE ES        424 42.92                             110   -0.16 7  333 252 
 PRA  HZ EP   4    424 11.30                             107   -1.86 0  391 209 
 PRA  HN ES   4    424 51.96                             107   -2.92 0  391 209 
 PRA  HZ I         424 57.19         6.7 0.44            105            391 209 
 ORTC HZ EP        424 13.66                             107    0.12 6  395 216 
 ORTC HN ES   4    424 57.32                             107    1.74 0  395 216 
 ORTC HZ I         425  0.72         5.4 0.24            105            395 216 
 SJC  HZ EP   4    424 13.57                             106   -1.66 0  409 327 
 SJC  HN ES   4    424 54.52                             106   -4.06 0  409 327 
 SJC  HZ I         424 59.33         2.4 0.30            104            409 327 
                                                                                
