 2017  8 7 0339  7.2 L   6.787 -73.123139.6  RSN 20 0.5 2.2LRSN                1
 GAP= 99        1.10       3.2     2.8  5.1  0.8726E+00  0.4486E+01  0.4340E+01E
 Epicentro: LOS SANTOS - SANTANDER                                             3
 ACTION:UPD 17-09-04 20:17 OP:rebc STATUS:               ID:20170807033907 L   I
 OLDACT:REG 17-08-07 12:25 OP:dhb  STATUS:               ID:20170807033736     3
 2017-08-07-0338-00M.COL___393                                                 6
 STAT SP IPHASW D HRMM SECON CODA AMPLIT PERI AZIMU VELO AIN AR TRES W  DIS CAZ7
 BAR2 EZ IP     C  339 26.05                             170   -0.0310 22.5 197 
 BAR2 EZ ES        339 40.73                             170   -0.0710 22.5 197 
 BAR2 EZ I         339 43.38        27.4 0.26            169           22.5 197 
 BRR  HZ IP     C  339 27.88                             150    0.0210 74.1 299 
 BRR  HE ES        339 44.63                             150    0.6610 74.1 299 
 BRR  HZ I         339 48.21        34.5 0.14            149           74.1 299 
 PAM  EZ IP     D  339 28.91                             150    0.1710 76.9  37 
 PAM  EN ES        339 45.66                             150    0.1210 76.9  37 
 PAM  EZ I         339 46.50        20.8 0.28            145           76.9  37 
 RUS  HZ IP     C  339 30.05                             143   -0.1910 99.0 177 
 RUS  HE ES        339 48.47                             143    0.2610 99.0 177 
 PTB  HZ EP        339 33.13                             130   -0.75 9  150 260 
 PTB  HN ES        339 53.79                             130   -0.90 9  150 260 
 PTB  HZ I         339 55.04        12.4 0.18            127            150 260 
 TAM  HZ EP        339 34.31                             130    0.17 9  152 105 
 TAM  HZ I         339 54.89        19.0 0.32            124            152 105 
 TAM  HE ES   2    339 56.22                             130    1.07 5  152 105 
 SPBC HZ IP     C  339 35.07                             127   -0.22 9  164 220 
 SPBC HZ I         340  2.99        34.1 0.26            124            164 220 
 YPLC HZ IP     C  339 36.48                             126    0.16 9  174 152 
 YPLC HN ES        339 57.94                             126   -1.08 9  174 152 
 YPLC HZ I         340  3.00        16.6 0.28            120            174 152 
 ZAR  HZ EP        339 39.77                             120    0.21 8  207 292 
 ZAR  HE ES        340  4.62                             120   -0.17 8  207 292 
 ZAR  HZ I         340 10.07        32.8 0.28            117            207 292 
 NOR  HZ IP     C  339 42.53                             117   -0.19 8  236 235 
 NOR  HE ES        340 10.15                             117   -0.27 8  236 235 
 NOR  HZ I         340 11.88        15.3 0.23            113            236 235 
 CHI  HZ EP        339 44.22                             116   -0.27 8  248 196 
 CHI  HN ES        340 13.93                             116    0.35 8  248 196 
 CHI  HZ I         340 19.69         5.0 0.26            112            248 196 
 ROSC BZ EP   3    339 46.30                             115    1.29 2  253 212 
 ROSC BN ES        340 14.62                             115    0.13 8  253 212 
 ROSC BZ I         340 19.99        12.2 0.35            112            253 212 
 HEL  HZ EP        339 48.08                             113    0.73 8  274 256 
 HEL  HN ES        340 19.48                             113    0.83 8  274 256 
 HEL  HZ I         340 24.42        12.1 0.30            110            274 256 
 URE  HZ EP   9    339 46.96                             112   -1.35 0  287 292 
 URE  HE ES        340 18.05                                   -0.97 7  287 292 
 URE  HZ I         340 23.06        10.9 0.07            109            287 292 
 GUY2CHZ EP        339 50.78                             111    0.10 7  302 235 
 GUY2CHN ES        340 24.80                             111    0.22 7  302 235 
 GUY2CHZ I         340 32.76         7.6 0.38                           302 235 
 PTGC HZ EP   9    339 49.31                             110   -1.23 0  306 159 
 PTGC HE ES        340 22.59                                   -0.52 7  306 159 
 PTGC HZ I         340 30.72         7.3 0.34            107            306 159 
 CBOC HZ EP        339 54.27                             109    0.17 7  336 252 
 CBOC HN ES        340 30.94                             109    0.27 7  336 252 
 CBOC HZ I         340 39.98         2.3 0.14            106            336 252 
 DBB  EZ EP        339 53.48                             108   -1.26 7  342 274 
 DBB  EN ES        340 31.58                             108   -0.24 7  342 274 
 DBB  EZ I         340 35.41         3.7 0.11            105            342 274 
 PRA  HZ EP        340  0.66                             105    0.14 6  392 210 
 PRA  HE ES        340 42.49                             105    0.38 6  392 210 
 PRA  HZ I         340 47.62         7.3 0.32            102            392 210 
 ORTC HZ EP        340  0.92                             105   -0.04 6  396 217 
 ORTC HN ES        340 43.88                             105    0.99 6  396 217 
 ORTC HZ I         340 48.66         5.4 0.26            102            396 217 
                                                                                
