 2017  2 7 0059 24.1 L   6.640 -73.274157.3  RSN  4 0.3 1.0LRSN                1
 GAP=209        0.74       6.2     6.0  7.3  0.2452E+02  0.6161E+00 -0.2019E+01E
 Epicentro: GALAN - SANTANDER                                                  3
 ACTION:UPD 17-05-24 15:33 OP:jn   STATUS:               ID:20170207005924 L   I
 OLDACT:REG 17-02-07 12:16 OP:edw  STATUS:               ID:20170207005749     3
 2017-02-07-0058-00M.COL___331                                                 6
 STAT SP IPHASW D HRMM SECON CODA AMPLIT PERI AZIMU VELO AIN AR TRES W  DIS CAZ7
 BRR  HZ EP        059 46.00                             155   -0.5310 70.7 317 
 BRR  HN ES        1 0  4.19                             155    0.2010 70.7 317 
 RUS  HZ EP        059 48.36                             150    0.2910 85.4 166 
 RUS  HN ES        1 0  6.66                             150   -0.0710 85.4 166 
 RUS  HZ I         1 0  7.48         1.5 0.36            150           85.4 166 
 PTB  HZ EP        059 50.82                             138    0.1410  131 265 
 PTB  HN ES        1 0 11.15                             138   -0.2310  131 265 
 PTB  HZ I         1 0 13.61         1.4 0.58            137            131 265 
 ZAR  HE ES        1 0 22.57                             126    0.24 9  199 298 
                                                                                
