 2017  3 7 0410 28.1 L   6.794 -73.152146.3  RSN 23 0.5 2.5LRSN                1
 GAP= 65        0.97       3.1     2.6  4.9 -0.5415E+00  0.2763E+01  0.3385E+01E
 Epicentro: LOS SANTOS - SANTANDER                                             3
 ACTION:UPD 17-05-25 18:37 OP:jn   STATUS:               ID:20170307041028 L   I
 OLDACT:UP  17-03-07 14:07 OP:and  STATUS:               ID:20170307040745     3
 OLDACT:UP  17-03-07 14:06 OP:and  STATUS:               ID:20170307040745     3
 OLDACT:UP  17-03-07 14:06 OP:and  STATUS:               ID:20170307040745     3
 OLDACT:UP  17-03-07 14:05 OP:and  STATUS:               ID:20170307040745     3
 OLDACT:UP  17-03-07 14:04 OP:and  STATUS:               ID:20170307040745     3
 OLDACT:UP  17-03-07 14:03 OP:and  STATUS:               ID:20170307040745     3
 OLDACT:UP  17-03-07 14:02 OP:and  STATUS:               ID:20170307040745     3
 OLDACT:UP  17-03-07 14:01 OP:and  STATUS:               ID:20170307040745     3
 OLDACT:UP  17-03-07 14:01 OP:and  STATUS:               ID:20170307040745     3
 OLDACT:UP  17-03-07 13:59 OP:and  STATUS:               ID:20170307040745     3
 OLDACT:UP  17-03-07 13:58 OP:and  STATUS:               ID:20170307040745     3
 OLDACT:UP  17-03-07 13:58 OP:and  STATUS:               ID:20170307040745     3
 OLDACT:UP  17-03-07 13:55 OP:and  STATUS:               ID:20170307040745     3
 OLDACT:REG 17-03-07 11:49 OP:and  STATUS:               ID:20170307040745     3
 2017-03-07-0408-00M.COL___367                                                 6
 STAT SP IPHASW D HRMM SECON CODA AMPLIT PERI AZIMU VELO AIN AR TRES W  DIS CAZ7
 BAR2 EZ IP     C  410 47.74                             171   -0.0510 22.6 188 
 BAR2 EZ ES        411  2.79                             171   -0.3410 22.6 188 
 BAR2 EZ I         411  5.56       112.4 0.32            164           22.6 188 
 BRR  HZ IP     C  410 49.52                             153    0.2210 70.9 299 
 BRR  HN ES        411  6.61                             153    0.7910 70.9 299 
 BRR  HZ I         411 10.71        56.9 0.18            152           70.9 299 
 PAM  EZ IP     C  410 50.47                             150    0.0310 78.3  40 
 PAM  EN ES        411  7.62                             150   -0.2310 78.3  40 
 PAM  EZ I         411  9.89        65.5 0.50            159           78.3  40 
 RUS  HZ EP        410 51.73                             144   -0.1410  100 176 
 RUS  HN ES        411 10.31                             144   -0.0910  100 176 
 RUS  HZ I         411 11.63        59.1 0.34            142            100 176 
 PTB  HZ EP        410 54.47                             132   -0.58 9  147 259 
 PTB  HN ES        411 15.32                             132   -0.73 9  147 259 
 PTB  HZ I         411 18.06        21.1 0.20            131            147 259 
 TAM  HZ IP     C  410 56.07                             130    0.19 9  156 105 
 TAM  HN ES        411 17.73                             130    0.20 9  156 105 
 TAM  HZ I         411 19.20        16.0 0.52            134            156 105 
 SPBC HZ EP        410 56.57                             129    0.01 9  162 219 
 SPBC HN ES        411 18.53                             129   -0.22 9  162 219 
 SPBC HZ I         411 21.33        62.5 0.30            128            162 219 
 ZAR  HZ EP        410 59.81                             122   -0.74 9  204 292 
 ZAR  HN ES        411 26.11                             122    0.27 9  204 292 
 ZAR  HZ I         411 31.42        34.9 0.26            123            204 292 
 NOR  HZ EP        411  3.77                             119    0.00 8  234 234 
 NOR  HN ES        411 31.60                             119    0.02 8  234 234 
 NOR  HZ I         411 37.38        23.4 0.18            118            234 234 
 CHI  HZ IP     C  411  6.02                             117    0.27 8  248 195 
 CHI  HN ES        411 35.36                             117    0.25 8  248 195 
 CHI  HZ I         411 45.12        18.8 0.40            117            248 195 
 ROSC BZ EP   3    411  7.53                             117    1.37 2  252 211 
 ROSC BN ES   4    411 38.56                             117    2.72 0  252 211 
 ROSC BZ I         411 42.39        38.4 0.45            116            252 211 
 HEL  HZ EP   2    411  8.97                             115    0.71 4  271 256 
 HEL  HN ES        411 40.14                             115    0.57 8  271 256 
 HEL  HZ I         411 46.56        16.0 0.38            115            271 256 
 URE  HZ EP   2    411  8.04                             114   -1.12 4  283 292 
 URE  HE ES   3    411 39.19                             114   -1.98 2  283 292 
 URE  HZ I         411 49.11        21.7 0.30            115            283 292 
 PTGC HZ IP   3 D  411 10.78                             112   -1.17 2  308 158 
 PTGC HN ES   4    411 44.23                             112   -1.92 0  308 158 
 PTGC HZ I         411 49.10        18.3 0.32            112            308 158 
 LL6C HN EP   9    410 54.36                             110   -19.5 0  325 358 
 LL6C HE ES        411 31.41                                    1.33 7  325 358 
 LL6C HN I         411 33.87         9.8 0.48            113            325 358 
 ELA  HZ EP   9    411 17.09                             110    2.21 0  328 229 
 ELA  HN ES        411 53.28                             110   -0.28 7  328 229 
 ELA  HZ I         412  6.99        14.4 0.42            111            328 229 
 CBOC HZ EP   4    411 15.96                             110    1.01 0  333 252 
 CBOC HN ES        411 51.77                             110    0.29 7  333 252 
 CBOC HZ I         412  7.48         5.0 0.48            110            333 252 
 DBB  EN ES   3    411 51.08                             109   -1.44 2  339 274 
 DBB  EZ I         411 52.78         7.1 0.22            110            339 274 
 ANIL HZ EP   3    411 18.89                             108    1.06 2  356 225 
 ANIL HN ES   4    411 59.30                             108    2.70 0  356 225 
 PRA  HZ EP   4    411 21.41                             107   -0.14 0  391 210 
 PRA  HN ES        412  3.64                             107    0.42 6  391 210 
 PRA  HZ I         412  9.92        22.9 0.42            107            391 210 
 ORTC HZ EP        411 22.73                             106    0.79 6  395 216 
 ORTC HN ES   3    412  5.71                             106    1.78 1  395 216 
 ORTC HZ I         412 11.53        12.2 0.42            107            395 216 
 SJC  HZ EP   4    411 21.89                             106   -1.82 0  409 327 
 SJC  HN ES   4    412  2.91                             106   -4.16 0  409 327 
 SJC  HZ I         412  7.15         5.5 0.60            107            409 327 
 CRJC HZ EP   9    411 28.18                             103   -2.53 0  468   4 
 CRJC HN ES        412 16.98                             103   -0.02 5  468   4 
 CRJC HZ I         412 23.08         8.1 0.18            105            468   4 
                                                                                
