 2014 10 7 0828 42.1 L   6.844 -73.193143.6  RSN  9 0.5 1.3LRSN                1
 GAP=129        1.03       4.4     4.6  8.0 -0.1561E+01  0.4727E+01  0.2780E+01E
 Epicentro: ZAPATOCA - SANTANDER                                               3
 ACTION:UPD 14-11-29 23:47 OP:nd   STATUS:               ID:20141007082842 L   I
 OLDACT:REG 14-10-07 13:34 OP:fm   STATUS:               ID:20141007081747     3
 2014-10-07-0817-47M.COL___289                                                 6
 STAT SP IPHASW D HRMM SECON CODA AMPLIT PERI AZIMU VELO AIN AR TRES W  DIS CAZ7
 BRR  HZ EP   1    829  3.30                             155    0.67 7 64.2 297 
 BRR  HN ES        829 19.10                             155    0.4610 64.2 297 
 BRR  HZ I         829 24.73         2.8 0.18            154           64.2 297 
 PAM  SZ EP        829  4.65                             150    0.5810 77.3  45 
 PAM  SN ES        829 21.08                             150   -0.1310 77.3  45 
 PAM  SZ I         829 22.60         2.3 0.26            157           77.3  45 
 RUS  HZ EP   1    829  5.81                             142   -0.22 7  106 173 
 RUS  HN ES   1    829 23.78                             142   -0.92 7  106 173 
 RUS  HZ I         829 26.88         1.5 0.28            145            106 173 
 PTB  HZ EP   1    829  8.59                             132    0.08 7  144 256 
 PTB  HN ES        829 28.82                             132   -0.30 9  144 256 
 PTB  HZ I         829 32.81         2.6 0.28            133            144 256 
 SPBC HZ EP   1    829 10.24                             129   -0.25 7  164 216 
 SPBC HN ES   1    829 33.19                             129    0.55 7  164 216 
 SPBC HZ I         829 38.65         2.4 0.22            131            164 216 
 ZAR  HE ES        829 38.31                             123   -0.05 9  197 291 
 ZAR  HZ I         829 45.19         3.2 0.46            125            197 291 
 SML  HZ EP   1    829 17.47                             118   -0.41 6  237 336 
 SML  HN ES   1    829 44.76                             118   -1.03 6  237 336 
 SML  HZ I         829 47.56         2.6 0.36            121            237 336 
 GUY2CHZ EP   4    829 27.30                             112    1.85 0  300 233 
 GUY2CHN ES   4    830  1.71                             112    2.45 0  300 233 
 GUY2CHZ I         830 10.39         1.4 0.48                           300 233 
 MON  HN ES   4    830  5.63                             109   -2.06 0  346 308 
 PRA  HZ EP   1    829 35.75                             106    0.00 4  394 209 
                                                                                
