 2016  5 7 0701 10.4 L   6.812 -73.163145.3  RSN  9 0.3 1.5LRSN                1
 GAP=134        0.82       2.5     3.5  5.0 -0.1336E-01  0.3822E+01 -0.6117E+00E
 Epicentro: LOS SANTOS - SANTANDER                                             3
 ACTION:UPD 16-08-18 17:43 OP:cam  STATUS:               ID:20160507070110 L   I
 OLDACT:REG 16-05-07 15:30 OP:ak   STATUS:               ID:20160507065745     3
 2016-05-07-0657-45M.COL___291                                                 6
 STAT SP IPHASW D HRMM SECON CODA AMPLIT PERI AZIMU VELO AIN AR TRES W  DIS CAZ7
 BAR2 EZ EP        7 1 29.89                             170   -0.1010 24.4 185 
 BAR2 EZ ES        7 1 44.83                             170   -0.4410 24.4 185 
 BAR2 EZ I         7 1 47.42         8.0 0.30            170           24.4 185 
 BRR  HZ IP     C  7 1 31.78                             153    0.4210 68.9 298 
 BRR  HN ES        7 1 48.21                             153    0.4910 68.9 298 
 BRR  HZ I         7 1 50.05         7.0 0.07            154           68.9 298 
 PAM  EZ EP        7 1 32.90                             151    0.3310 77.6  41 
 PAM  EN ES        7 1 49.82                             151   -0.0510 77.6  41 
 PAM  EZ I         7 1 52.30         6.7 0.78            153           77.6  41 
 RUS  HZ EP        7 1 34.33                             143    0.1210  102 175 
 RUS  HE ES        7 1 52.63                             143   -0.1510  102 175 
 RUS  HZ I         7 1 53.79         4.1 0.28            145            102 175 
 PTB  HZ EP        7 1 36.63                             132   -0.55 9  146 258 
 PTB  HN ES        7 1 57.99                             132   -0.08 9  146 258 
 PTB  HZ I         7 1 59.63         2.9 0.18            134            146 258 
 SPBC HZ EP        7 1 39.05                             129    0.21 9  163 218 
 SPBC HN ES        7 2  1.18                             129    0.15 9  163 218 
 SPBC HZ I         7 2  6.16         5.6 0.24            131            163 218 
 ZAR  HZ EP   2    7 1 42.13                             123   -0.44 4  202 292 
 ZAR  HN ES        7 2  7.95                             123    0.28 9  202 292 
 SML  HZ EP        7 1 46.79                             117    0.02 8  242 336 
 SML  HN ES        7 2 14.46                             117   -0.69 8  242 336 
 CHI  HN ES        7 2 17.49                             117   -0.12 8  249 195 
                                                                                
