 2014 12 7 0231  7.5 L   6.836 -73.161141.5  RSN 15 0.4 1.8LRSN                1
 GAP= 69        0.80       2.6     2.7  5.3 -0.2132E+00  0.2479E+01  0.1445E+01E
 Epicentro: LOS SANTOS - SANTANDER                                             3
 ACTION:UPD 15-02-10 17:01 OP:nd   STATUS:               ID:20141207023107 L   I
 OLDACT:REG 14-12-07 12:53 OP:spq  STATUS:               ID:20141207022743     3
 2014-12-07-0227-43M.COL___309                                                 6
 STAT SP IPHASW D HRMM SECON CODA AMPLIT PERI AZIMU VELO AIN AR TRES W  DIS CAZ7
 BAR2 SZ EP        231 26.72                             169   -0.0010 27.1 185 
 BAR2 SZ ES   1    231 41.28                             169   -0.42 7 27.1 185 
 BAR2 SZ I         231 43.67        10.6 0.22            166           27.1 185 
 PAM  SZ EP     D  231 29.66                             151    0.4910 75.5  42 
 PAM  SN ES        231 46.32                             151    0.2710 75.5  42 
 PAM  SZ I         231 48.48        10.2 0.52            156           75.5  42 
 RUS  HZ EP        231 30.95                             142   -0.2110  105 175 
 RUS  HE ES   1    231 49.49                             142   -0.11 7  105 175 
 PTB  HZ EP   1    231 33.41                             131   -0.66 7  147 257 
 PTB  HN ES        231 54.29                             131   -0.49 9  147 257 
 PTB  HZ I         232  0.22         8.2 0.24            130            147 257 
 OCA  HE ES   1    231 56.50                             129   -0.13 7  156 354 
 OCA  HZ I         232  1.07         8.7 0.18            132            156 354 
 TAM  HZ EP        231 35.25                             129    0.14 9  158 106 
 TAM  HN ES   1    231 56.19                             129   -0.45 7  158 106 
 TAM  HZ I         231 59.87         5.1 0.36            133            158 106 
 SPBC HZ EP        231 35.91                             128    0.01 9  165 218 
 SPBC HN ES        231 58.63                             128    0.60 9  165 218 
 SPBC HZ I         232  5.77        10.6 0.22            127            165 218 
 ZAR  HZ EP   1    231 39.41                             122    0.03 6  201 291 
 ZAR  HN ES        232  4.78                             122    0.55 9  201 291 
 ZAR  HZ I         232  7.71         6.3 0.10            122            201 291 
 SML  HZ EP   1    231 43.19                             117   -0.25 6  239 335 
 SML  HE ES   1    232 10.92                             117   -0.54 6  239 335 
 SML  HZ I         232 14.79         8.4 0.10            119            239 335 
 CHI  HZ EP        231 45.34                             116   -0.02 8  252 195 
 CHI  HE ES   1    232 14.99                             116    0.12 6  252 195 
 CHI  HZ I         232 22.02         2.6 0.38            116            252 195 
 HEL  HN ES   4    232 19.72                             114    1.12 0  271 255 
 HEL  HZ I         232 26.37         5.3 0.28            114            271 255 
 GUY2CHZ EP   4    231 52.35                             111    1.31 0  302 234 
 GUY2CHN ES   4    232 26.46                             111    1.47 0  302 234 
 GUY2CHZ I         232 34.66         3.2 0.27                           302 234 
 PTGC HZ EP   4    231 50.48                             110   -1.20 0  313 159 
 RREF HZ EP   4    231 56.13                             110    2.49 0  323 229 
 RREF HE ES   4    232 32.63                             110    3.02 0  323 229 
 RREF HZ I         232 40.14         2.8 0.40            110            323 229 
 TOL  SZ EP   1    231 55.74                             108   -0.06 5  345 224 
 TOL  SE ES   4    232 36.45                             108    2.99 0  345 224 
 TOL  SZ I         232 41.76         7.3 0.60            109            345 224 
 SJC  HZ EP   4    232  0.95                             105   -1.50 0  405 327 
 SJC  HN ES   4    232 42.07                             105   -3.22 0  405 327 
 SJC  HZ I         232 46.10         1.6 0.58            106            405 327 
                                                                                
