 2014  7 7 0444 35.4 L   6.802 -73.106144.1  RSN 15 0.6 2.0LRSN                1
 GAP=142        1.27       3.1     4.7  6.0 -0.2417E+01  0.8552E+01  0.2307E+01E
 Epicentro: LOS SANTOS - SANTANDER                                             3
 ACTION:UPD 15-03-16 20:41 OP:nd   STATUS:               ID:20140707044435 L   I
 OLDACT:UP  14-07-09 09:00 OP:SPQ  STATUS:               ID:20140707044435 L   3
 OLDACT:REG 14-07-07 13:58 OP:stll STATUS:               ID:20140707043817     3
 2014-07-07-0438-17M.COL___256                                                 6
 STAT SP IPHASW D HRMM SECON CODA AMPLIT PERI AZIMU VELO AIN AR TRES W  DIS CAZ7
 BAR2 SZ EP        444 55.00                             170    0.1210 24.7 200 
 BAR2 SZ ES        445  9.61                             170   -0.4410 24.7 200 
 BAR2 SZ I         445 11.63        20.7 0.22            167           24.7 200 
 PAM  SZ EP        444 58.13                             151    0.8410 74.5  37 
 PAM  SZ I         444 58.35        38.1 0.18            155           74.5  37 
 PAM  SN ES        445 14.63                             151    0.2910 74.5  37 
 BRR  HZ IP     D  444 57.01                             151    0.4010 75.0 297 
 BRR  HN ES        445 13.73                             151    0.6010 75.0 297 
 BRR  HZ I         445 14.49        32.7 0.34            149           75.0 297 
 RUS  HZ EP        444 59.38                             143    0.3710  101 179 
 RUS  HZ I         445  0.46         6.4 0.40            144            101 179 
 RUS  HN ES        445 17.17                             143   -0.2310  101 179 
 PTB  HZ EP        445  1.76                             131   -0.89 9  152 259 
 PTB  HN ES        445 22.81                             131   -1.08 9  152 259 
 PTB  HZ I         445 30.13        13.2 0.42            130            152 259 
 OCA  HZ EP        445  3.22                             129   -0.42 9  161 352 
 OCA  HN ES        445 25.36                             129   -0.28 9  161 352 
 OCA  HZ I         445 28.13         9.6 0.20            130            161 352 
 SPBC HZ EP        445  4.16                             128    0.09 9  166 220 
 SPBC HZ I         445  4.71        14.6 0.10            127            166 220 
 SPBC HN ES        445 26.18                             128   -0.24 9  166 220 
 ZAR  HZ EP        445  8.60                             121    0.43 8  208 292 
 ZAR  HN ES        445 34.42                             121    0.70 8  208 292 
 ZAR  HZ I         445 40.90         8.4 0.62            121            208 292 
 SML  HZ EP        445 11.62                             117   -0.51 8  245 334 
 SML  HE ES        445 40.08                             117   -0.69 8  245 334 
 SML  HZ I         445 42.84        13.7 0.10            117            245 334 
 CHI  HZ EP        445 12.27                             117   -0.91 8  250 196 
 CHI  HN ES        445 42.77                             117    0.15 8  250 196 
 CHI  HZ I         445 52.10         4.7 0.36            117            250 196 
 HEL  HZ EP        445 15.51                             114   -0.52 7  276 256 
 HEL  HN ES        445 48.16                             114    0.46 7  276 256 
 HEL  HZ I         445 53.91         4.9 0.32            114            276 256 
 GUY2CHZ EP        445 19.41                             112    0.04 7  305 235 
 GUY2CHE ES        445 54.54                             112    0.89 7  305 235 
 GUY2CHZ I         446  3.24         3.5 0.64                           305 235 
 TOL  SZ EP        445 24.77                             109    0.79 6  347 225 
 TOL  SN ES        446  2.19                             109    0.33 6  347 225 
 PRA  HZ EP        445 29.05                             106   -0.11 6  394 210 
 PRA  HN ES        446 10.31                             106   -0.77 6  394 210 
 PRA  HZ I         446 18.81         4.9 0.46            106            394 210 
 ORTC HZ EP   1    445 30.17                             106    0.56 4  398 217 
 ORTC HN ES        446 12.29                             106    0.42 6  398 217 
 ORTC HZ I         446 17.82         3.3 0.46            106            398 217 
                                                                                
