 2015  1 7 0653 48.4 L   6.641 -73.222144.0  RSN  5 0.3 1.5LRSN                1
 GAP=187        0.76       4.5     4.8  6.2  0.2287E+01  0.6651E+01  0.4508E+01E
 Epicentro: BARICHARA - SANTANDER                                              3
 ACTION:UPD 15-03-02 15:37 OP:nd   STATUS:               ID:20150107065348 L   I
 OLDACT:REG 15-01-07 15:44 OP:cam  STATUS:               ID:20150107064818     3
 2015-01-07-0648-18M.COL___277                                                 6
 STAT SP IPHASW D HRMM SECON CODA AMPLIT PERI AZIMU VELO AIN AR TRES W  DIS CAZ7
 BAR2 EZ EP     C  654  7.36                             177   -0.2410 7.01 141 
 BAR2 EZ ES        654 22.55                             177   -0.0310 7.01 141 
 BAR2 EZ I         654 23.85         3.2 0.12            175           7.01 141 
 BRR  HZ IP     C  654  9.38                             151   -0.1810 74.7 314 
 BRR  HN ES        654 26.43                             151    0.3610 74.7 314 
 BRR  HZ I         654 28.26         4.2 0.44            149           74.7 314 
 PTB  HZ EP        654 14.01                             134   -0.24 9  137 265 
 PTB  HE ES        654 34.13                             134   -0.29 9  137 265 
 PTB  HZ I         654 37.50         4.3 0.44            133            137 265 
 SPBC HZ EP        654 15.62                             132    0.61 9  144 221 
 SPBC HN ES        654 35.71                             132   -0.05 9  144 221 
 SPBC HZ I         654 40.50         3.8 0.24            132            144 221 
 ZAR  HN ES        654 45.99                             122    0.10 9  204 298 
 ZAR  HN I         654 51.50         8.1 0.24            122            204 298 
                                                                                
