 2017  3 7 0142 14.9 L   6.786 -73.133138.7  RSN 11 0.3 1.6LRSN                1
 GAP= 99        0.54       2.4     2.2  3.6  0.1822E+00  0.1785E+01 -0.3591E-01E
 Epicentro: LOS SANTOS - SANTANDER                                             3
 ACTION:UPD 17-05-25 18:37 OP:jn   STATUS:               ID:20170307014214 L   I
 OLDACT:UP  17-03-07 12:34 OP:and  STATUS:               ID:20170307013739     3
 OLDACT:UP  17-03-07 12:32 OP:and  STATUS:               ID:20170307013739     3
 OLDACT:UP  17-03-07 12:31 OP:and  STATUS:               ID:20170307013739     3
 OLDACT:REG 17-03-07 11:41 OP:and  STATUS:               ID:20170307013739     3
 2017-03-07-0138-00M.COL___367                                                 6
 STAT SP IPHASW D HRMM SECON CODA AMPLIT PERI AZIMU VELO AIN AR TRES W  DIS CAZ7
 BAR2 EZ EP        142 33.56                             170   -0.0910 22.1 194 
 BAR2 EZ ES        142 48.01                             170   -0.2710 22.1 194 
 BAR2 EZ I         142 49.84        11.2 0.14            168           22.1 194 
 BRR  HZ EP        142 35.38                             151   -0.0210 73.2 299 
 BRR  HN ES   2    142 51.78                             151    0.38 5 73.2 299 
 PAM  EZ EP        142 36.35                             149   -0.0310 77.7  38 
 PAM  EN ES        142 53.22                             149    0.0710 77.7  38 
 PAM  EZ I         142 55.55        10.9 0.48            152           77.7  38 
 RUS  HZ EP   2    142 38.06                             143    0.23 5 98.9 177 
 RUS  HN ES        142 56.16                             143    0.4310 98.9 177 
 RUS  HZ I         142 56.50         3.4 0.28            142           98.9 177 
 PTB  HZ EP        142 41.32                             130   -0.07 9  149 260 
 PTB  HN ES   2    143  1.24                             130   -0.83 5  149 260 
 PTB  HZ I         143  3.67         4.3 0.30            128            149 260 
 TAM  HZ IP     D  142 41.88                             129    0.03 9  153 105 
 TAM  HN ES   2    143  2.47                             129   -0.41 5  153 105 
 ZAR  HZ EP   2    142 47.20                             120    0.11 4  206 292 
 ZAR  HN ES        143 12.35                             120    0.15 8  206 292 
 ZAR  HZ I         143 18.40         5.1 0.23            120            206 292 
 NOR  HZ EP   4    142 47.69                             117   -2.56 0  235 235 
 NOR  HN ES   2    143 17.99                             117    0.17 4  235 235 
 NOR  HZ I         143 24.32         3.4 0.14            116            235 235 
 CHI  HZ EP   2    142 52.16                             116    0.08 4  247 196 
 CHI  HN ES   2    143 20.16                             116   -0.93 4  247 196 
 CHI  HZ I         143 24.39         1.3 0.14            115            247 196 
 PTGC HZ EP   9    142 56.64                             110   -1.57 0  307 159 
 PTGC HN ES        143 30.27                             111   -0.16 7  307 159 
 PRA  HZ EP   2    143  8.04                             105   -0.06 3  391 210 
 PRA  HN ES   2    143 50.12                             105    0.52 3  391 210 
 PRA  HZ I         143 55.56         1.5 0.24            105            391 210 
 SJC  HZ EP   4    143  8.26                             104   -2.21 0  411 327 
 SJC  HN ES   4    143 49.62                             104   -4.21 0  411 327 
                                                                                
