 2011 10 7 0444 24.8 L   6.770 -73.450111.4  RSN  4 0.3 1.6LRSN                1
 GAP=165        0.58       6.0     8.0  6.5  0.2733E+02  0.1139E+02  0.6886E+01E
 Epicentro: EL CARMEN DE CHUCURI - SANTANDER                                   3
 ACTION:UPD 12-07-13 16:02 OP:ep   STATUS:               ID:20111007044424 L   I
 2011-10-07-0440-00M.COL___171                                                 6
 STAT SP IPHASW D HRMM SECON CODA AMPLIT PERI AZIMU VELO AIN AR TRES W  DIS CAZ7
 BAR2 SZ EP        444 40.88                             161    0.2110 35.5 124 
 BAR2 SZ ES   1    444 53.34                             161    0.26 7 35.5 124 
 BAR2 SZ I         444 53.98        25.0 0.15                          35.5 124 
 GIR2 SZ EP        444 40.99                             157    0.0810 44.3  40 
 GIR2 SZ ES   1    444 53.14                             157   -0.37 7 44.3  40 
 BRR  HZ EP        444 40.67                             155   -0.1710 47.2 322 
 BRR  HN ES   1    444 53.54                             155    0.15 7 47.2 322 
 BRR  HZ I         444 54.46         7.3 0.17                          47.2 322 
 RUS  HE ES   2    445  1.49                             134   -0.56 5  105 157 
                                                                                
