 2013  8 7 0445 24.4 L   6.809 -73.158147.2  RSN 17 0.4 2.1LRSN                1
 GAP=135        0.77       2.1     2.9  4.1 -0.1608E+01  0.2993E+01  0.9895E+00E
 Epicentro: LOS SANTOS - SANTANDER                                             3
 ACTION:UPD 14-01-14 08:59 OP:ep   STATUS:               ID:20130807044524 L   I
 OLDACT:REG 13-08-07 07:32 OP:carl STATUS:               ID:20130807043959     3
 2013-08-07-0439-59M.COL___269                                                 6
 STAT SP IPHASW D HRMM SECON CODA AMPLIT PERI AZIMU VELO AIN AR TRES W  DIS CAZ7
 BAR2 SZ EP        445 44.23                             170   -0.0210 24.1 186 
 BAR2 SZ ES   1    445 59.50                             170   -0.21 7 24.1 186 
 BAR2 SZ I         446  0.86        24.5 0.34            169           24.1 186 
 GIR2 SZ EP        445 44.23                             168   -0.0210 30.1 353 
 GIR2 SZ ES   1    445 59.70                             168   -0.00 7 30.1 353 
 GIR2 SZ I         446  1.22        10.5 0.12            166           30.1 353 
 BRR  HZ IP     C  445 46.03                             153    0.3810 69.5 298 
 BRR  HN ES   1    446  3.16                             153    0.97 7 69.5 298 
 BRR  HZ I         446  3.37        21.6 0.10            151           69.5 298 
 PAM  SZ IP     C  445 46.99                             151    0.1810 77.5  41 
 PAM  SN ES   1    446  4.39                             151    0.13 7 77.5  41 
 PAM  SZ I         446  6.36        18.3 0.46            155           77.5  41 
 RUS  HZ EP        445 48.14                             144   -0.2710  102 175 
 RUS  HN ES   1    446  6.49                             144   -0.61 7  102 175 
 RUS  HZ I         446  7.83        10.4 0.36            146            102 175 
 PTB  HZ EP        445 51.32                             133   -0.10 9  147 258 
 PTB  HN ES   1    446 11.89                             133   -0.57 7  147 258 
 PTB  HZ I         446 19.82        14.3 0.30            132            147 258 
 OCA  HZ EP   1    445 52.40                             130   -0.35 7  159 354 
 OCA  HN ES   1    446 14.62                             130   -0.22 7  159 354 
 OCA  HZ I         446 18.31        18.0 0.26            132            159 354 
 SPBC HZ EP        445 53.12                             129    0.08 9  163 218 
 SPBC HN ES        446 15.78                             129    0.43 9  163 218 
 SPBC HN I         446 21.82        54.3 0.36            130            163 218 
 ZAR  HZ EP   1    445 56.97                             123    0.16 6  202 292 
 ZAR  HN ES        446 22.35                             123    0.29 9  202 292 
 ZAR  HZ I         446 29.25        17.6 0.32            123            202 292 
 NOR  HZ EP   1    446  0.44                             119    0.25 6  234 234 
 NOR  HE ES        446 27.72                             119   -0.36 8  234 234 
 NOR  HZ I         446 31.99         9.5 0.26            120            234 234 
 SML  HZ EP   1    446  0.55                             118   -0.43 6  242 335 
 SML  HN ES   1    446 29.31                             118   -0.18 6  242 335 
 SML  HZ I         446 33.93        31.9 0.10            119            242 335 
 CHI  HZ EP        446  2.18                             117   -0.10 8  249 195 
 CHI  HN ES   1    446 31.74                             117   -0.06 6  249 195 
 CHI  HZ I         446 35.46         4.2 0.30            119            249 195 
 HEL  HZ EP   2    446  4.78                             115    0.18 4  271 256 
 HEL  HN ES        446 35.19                             115   -0.74 8  271 256 
 HEL  HZ I         446 39.82         4.1 0.24            116            271 256 
 GUY2CHZ EP        446  8.43                             113    0.38 7  301 234 
 GUY2CHN ES        446 41.58                             113   -0.49 7  301 234 
 GUY2CHZ I         446 50.89         6.3 0.42                           301 234 
 RREF HZ EP        446 10.83                             111    0.24 7  321 229 
 RREF HN ES        446 47.00                             111    0.40 7  321 229 
 RREF HZ I         446 53.66         7.4 0.32            112            321 229 
 COD  HN ES        446 50.06                             109   -0.36 6  347 355 
 PRA  HZ EP        446 18.62                             107    0.59 6  392 209 
 PRA  HE ES        447  0.02                             107    0.19 6  392 209 
 PRA  HZ I         447  5.95         6.7 0.32            108            392 209 
                                                                                
