 2015  5 7 0009  1.4 L   6.740 -73.109142.8  RSN  4 0.3 1.3LRSN                1
 GAP=144        0.81       4.3     6.4  6.8 -0.3414E+00 -0.3039E+01  0.2206E-01E
 Epicentro: JORDAN - SANTANDER                                                 3
 ACTION:UPD 15-09-10 22:02 OP:cam  STATUS:               ID:20150507000901 L   I
 OLDACT:REG 15-05-07 12:18 OP:drio STATUS:               ID:20150507000003     3
 2015-05-07-0000-03M.COL___288                                                 6
 STAT SP IPHASW D HRMM SECON CODA AMPLIT PERI AZIMU VELO AIN AR TRES W  DIS CAZ7
 BAR2 EZ ES        0 9 34.94                             172   -0.5610 18.2 206 
 BAR2 EZ I         0 9 36.67        11.0 0.22            173           18.2 206 
 BRR  HZ EP        0 9 22.28                             150   -0.3110 78.0 301 
 BRR  HN ES        0 9 39.51                             150    0.3610 78.0 301 
 PAM  SZ EP        0 9 23.42                             149   -0.0110 80.3  34 
 PAM  SN ES        0 9 40.81                             149    0.1610 80.3  34 
 PAM  SZ I         0 9 42.75         4.3 0.42            150           80.3  34 
 RUS  HZ EP        0 9 24.43                             145    0.1010 93.8 178 
 RUS  HN ES        0 9 42.51                             145    0.2610 93.8 178 
 RUS  HZ I         0 9 43.87         1.5 0.30            146           93.8 178 
                                                                                
