 2014  6 7 0406 47.7 L   6.799 -73.103141.0  RSN 10 0.3 1.9LRSN                1
 GAP=142        0.68       2.3     3.9  5.7 -0.2530E+01  0.1085E+02 -0.1498E+01E
 Epicentro: LOS SANTOS - SANTANDER                                             3
 OLDACT:DUP 14-06-07 16:00 OP:fm   STATUS:               ID:20140607035815d    3
 OLDACT:UP  14-06-07 15:57 OP:fm   STATUS:               ID:20140607035814     3
 OLDACT:REG 14-06-07 13:06 OP:fm   STATUS:               ID:20140607035814     3
 ACTION:UPD 14-07-01 22:51 OP:nd   STATUS:               ID:20140607040647 L   I
 OLDACT:UP  14-06-07 16:05 OP:fm   STATUS:               ID:20140607035815d    3
 2014-06-07-0358-14M.COL___253                                                 6
 STAT SP IPHASW D HRMM SECON CODA AMPLIT PERI AZIMU VELO AIN AR TRES W  DIS CAZ7
 BAR2 SZ EP        4 7  7.10                             170    0.2810 24.5 201 
 BAR2 SZ ES   1    4 7 21.66                             170   -0.04 7 24.5 201 
 BAR2 SZ I         4 7 23.46        19.5 0.34            166           24.5 201 
 PAM  SE ES   1    4 7 26.35                             151    0.27 7 74.6  37 
 RUS  HZ EP   1    4 7 11.14                             143    0.14 7  100 179 
 RUS  HN ES   1    4 7 29.24                             143    0.10 7  100 179 
 RUS  SZ I         4 7 30.48         9.5 0.76            132            100 179 
 OCA  HZ EP   1    4 7 15.56                             128   -0.18 7  161 351 
 OCA  HN ES        4 7 37.17                             128   -0.43 9  161 351 
 OCA  SZ I         4 7 43.25         7.8 0.32            117            161 351 
 SPBC HZ EP   1    4 7 15.93                             127   -0.22 7  166 220 
 SPBC HN ES        4 7 37.97                             127   -0.35 9  166 220 
 SPBC SZ I         4 7 40.40         8.0 0.26            116            166 220 
 ZAR  HN ES        4 7 46.27                             121    0.52 8  208 292 
 NOR  HZ EP   1    4 7 23.26                             117   -0.34 6  238 235 
 NOR  HN ES        4 7 51.11                             117   -0.46 8  238 235 
 NOR  SZ I         4 7 57.30         5.1 0.18            107            238 235 
 SML  HZ EP   1    4 7 24.14                             116   -0.18 6  246 334 
 SML  HN ES   1    4 7 52.88                             116    0.02 6  246 334 
 SML  SZ I         4 7 58.67        13.0 0.08            106            246 334 
 HEL  HZ EP   2    4 7 28.43                             113    0.22 4  277 256 
 HEL  SZ I         4 8  8.77         3.8 1.06            104            277 256 
 GUY2CHZ EP   1    4 7 32.17                             111    0.62 5  305 235 
 GUY2CHN ES        4 8  6.11                             111    0.38 7  305 235 
 GUY2CSZ I         4 8 13.47         4.7 0.48                           305 235 
                                                                                
