 2011 10 7 0519 59.5 L   6.873 -72.981134.0  RSN  4 0.3 1.4LRSN                1
 GAP=232        0.63       8.1    13.1  7.9  0.6990E+02 -0.4073E+02 -0.1311E+02E
 Epicentro: CEPITA - SANTANDER                                                 3
 ACTION:UPD 12-07-13 16:02 OP:ep   STATUS:               ID:20111007051959 L   I
 2011-10-07-0520-00M.COL___171                                                 6
 STAT SP IPHASW D HRMM SECON CODA AMPLIT PERI AZIMU VELO AIN AR TRES W  DIS CAZ7
 GIR2 SZ EP   1    520 18.20                             166    0.43 7 32.7 314 
 GIR2 SZ ES   2    520 31.39                             166   -0.67 5 32.7 314 
 BAR2 SZ EP   1    520 17.97                             164   -0.13 7 38.2 216 
 BAR2 SZ ES   1    520 33.03                             164    0.39 7 38.2 216 
 BAR2 SZ I         520 34.77         7.5 0.21                          38.2 216 
 BRR  HZ EP   1    520 19.89                             146   -0.34 7 84.9 288 
 BRR  HE ES   1    520 36.56                             146    0.13 7 84.9 288 
 BRR  HZ I         520 37.67         3.4 0.16                          84.9 288 
 RUS  HZ EP   1    520 22.65                             139   -0.08 7  109 186 
 RUS  HE ES   2    520 40.65                             139   -0.23 5  109 186 
 RUS  HZ I         520 42.02         4.6 0.34                           109 186 
                                                                                
