 2013  6 7 0814 48.6 L   6.765 -73.165149.6  RSN  9 0.4 2.2LRSN                1
 GAP=181        0.87       3.6     5.0  6.5  0.2736E+00  0.7648E+01 -0.3219E+01E
 Epicentro: LOS SANTOS - SANTANDER                                             3
 ACTION:UPD 14-01-08 09:53 OP:ep   STATUS:               ID:20130607081448 L   I
 OLDACT:REG 13-06-07 08:40 OP:mh   STATUS:               ID:20130607081000     3
 2013-06-07-0810-00M.COL___257                                                 6
 STAT SP IPHASW D HRMM SECON CODA AMPLIT PERI AZIMU VELO AIN AR TRES W  DIS CAZ7
 BAR2 SZ EP   1    815  8.68                             172    0.10 7 19.2 186 
 BAR2 SZ ES   1    815 23.53                             172   -0.67 7 19.2 186 
 BAR2 SZ I         815 25.17        22.7 0.26            167           19.2 186 
 BRR  HZ EP        815 10.58                             153    0.4510 71.3 302 
 BRR  HN ES        815 27.67                             153    0.7110 71.3 302 
 BRR  HN I         815 28.06        42.8 0.28            148           71.3 302 
 RUS  HZ EP   1    815 12.54                             146    0.11 7 96.9 175 
 RUS  HN ES        815 31.06                             146    0.0010 96.9 175 
 RUS  HN I         815 33.10        21.7 0.30            145           96.9 175 
 PTB  HZ EP   1    815 15.49                             134   -0.11 7  145 260 
 PTB  HN ES        815 36.21                             134   -0.47 9  145 260 
 PTB  HN I         815 41.43        21.0 0.56            129            145 260 
 PTB  HZ I         815 41.47         9.5 0.18                           145 260 
 OCA  HN ES   1    815 39.69                             130   -0.40 7  164 354 
 OCA  HN I         815 41.74        27.1 0.42            130            164 354 
 ZAR  HZ EP   1    815 21.80                             123    0.59 6  204 293 
 ZAR  HN ES   2    815 46.64                             123   -0.04 4  204 293 
 ZAR  HN I         815 53.33        15.2 0.34            121            204 293 
 NOR  HZ EP   1    815 23.93                             120   -0.16 6  231 235 
 NOR  HN ES        815 51.76                             120   -0.05 8  231 235 
 NOR  HN I         815 58.74        13.7 0.16            118            231 235 
 SML  HZ EP   1    815 25.00                             118   -0.69 6  246 336 
 SML  HE ES   1    815 54.35                             118   -0.30 6  246 336 
 SML  HN I         815 56.83        20.2 0.34            117            246 336 
 HEL  HE ES   2    815 59.66                             116   -0.25 4  269 256 
 HEL  HE I         816  9.44         3.4 0.26            114            269 256 
                                                                                
