 2013  9 7 0416 32.2 L   6.818 -73.146147.0  RSN 18 0.5 2.8LRSN                1
 GAP=136        1.00       2.6     4.0  5.2 -0.2462E+01  0.7870E+01 -0.1015E+01E
 Epicentro: LOS SANTOS - SANTANDER                                             3
 ACTION:UPD 13-10-22 09:20 OP:ep   STATUS:               ID:20130907041632 L   I
 OLDACT:UP  13-09-07 11:25 OP:cam  STATUS:               ID:20130907040959     3
 OLDACT:REG 13-09-07 10:45 OP:cam  STATUS:               ID:20130907040959     3
 2013-09-07-0409-59M.COL___269                                                 6
 STAT SP IPHASW D HRMM SECON CODA AMPLIT PERI AZIMU VELO AIN AR TRES W  DIS CAZ7
 BAR2 SZ EP     C  416 52.09                             170    0.0610 25.3 189 
 BAR2 SZ ES        417  7.41                             170   -0.0710 25.3 189 
 BAR2 SZ I         417  8.34       183.4 0.16            168           25.3 189 
 BRR  HZ IP     D  416 53.95                             153    0.5210 70.2 297 
 BRR  HN ES   4    417 11.30                             153    1.31 0 70.2 297 
 BRR  HZ I         417 14.18        63.5 0.38            148           70.2 297 
 PAM  SZ EP        416 54.86                             151    0.3910 75.9  41 
 PAM  SN ES        417 11.84                             151    0.0210 75.9  41 
 PAM  SZ I         417 14.10       109.6 0.50            155           75.9  41 
 RUS  HZ EP        416 56.01                             143   -0.2210  103 176 
 RUS  HN ES        417 14.59                             143   -0.3710  103 176 
 RUS  HZ I         417 15.80        89.6 0.28            148            103 176 
 PTB  HZ EP        416 58.59                             132   -0.72 9  148 258 
 PTB  HN ES        417 20.00                             132   -0.44 9  148 258 
 PTB  HZ I         417 27.31        61.6 0.40            131            148 258 
 OCA  HZ EP        417  0.72                             130    0.29 9  158 353 
 OCA  HN ES        417 22.26                             130   -0.17 9  158 353 
 OCA  HZ I         417 26.76        66.4 0.30            131            158 353 
 SPBC HZ EP        417  0.74                             129   -0.21 9  165 219 
 SPBC HN ES        417 23.42                             129    0.06 9  165 219 
 SPBC HZ I         417 25.83       183.5 0.24            130            165 219 
 ZAR  HZ EP   1    417  4.51                             122   -0.14 6  203 292 
 ZAR  HE ES   2    417 30.09                             122    0.14 4  203 292 
 ZAR  HZ I         417 40.55        35.7 0.24            122            203 292 
 NOR  HZ EP        417  7.88                             118   -0.25 8  236 234 
 NOR  HN ES        417 36.64                             118    0.49 8  236 234 
 NOR  HZ I         417 39.44        56.5 0.20            120            236 234 
 SML  HZ EP        417  8.56                             118   -0.14 8  242 335 
 SML  HE ES        417 37.22                             118    0.06 8  242 335 
 SML  HZ I         417 44.67        37.2 0.12            118            242 335 
 CHI  HZ EP        417 10.07                             117   -0.12 8  251 195 
 CHI  HZ I         417 12.64        33.8 0.20            120            251 195 
 CHI  HN ES        417 39.59                             117   -0.22 8  251 195 
 ROSC BZ EP   4    417 11.71                             117    1.13 0  254 211 
 HEL  HZ EP        417 13.76                             115    1.23 8  273 255 
 HEL  HE ES        417 44.80                             115    0.82 8  273 255 
 HEL  HZ I         417 51.05        31.9 0.22            116            273 255 
 URE  HZ EP   2    417 11.91                             114   -1.34 4  283 292 
 URE  HE ES   2    417 43.71                             114   -1.55 4  283 292 
 URE  HZ I         417 53.52        22.4 0.30            114            283 292 
 GUY2CHZ EP   1    417 16.32                             112    0.32 5  302 234 
 RREF HZ EP        417 19.22                             111    0.67 7  323 229 
 COD  HZ EP   1    417 19.76                             109   -0.64 5  346 355 
 PRA  HZ EP        417 25.65                             106   -0.32 6  394 209 
 SJC  HZ EP   2    417 26.38                             106   -1.23 3  407 327 
                                                                                
