 2015  2 7 0102 29.6 L   6.761 -73.147141.5  RSN  7 0.6 1.5LRSN                1
 GAP= 96        1.47       6.7     6.3  9.4 -0.9974E+01 -0.2404E+01  0.9229E+01E
 Epicentro: LOS SANTOS - SANTANDER                                             3
 ACTION:UPD 15-04-30 21:23 OP:nd   STATUS:               ID:20150207010229 L   I
 OLDACT:REG 15-02-07 12:27 OP:stll STATUS:               ID:20150207005744     3
 2015-02-07-0057-44M.COL___290                                                 6
 STAT SP IPHASW D HRMM SECON CODA AMPLIT PERI AZIMU VELO AIN AR TRES W  DIS CAZ7
 BAR2 EZ EP        1 2 48.55                             172   -0.1210 19.0 192 
 BAR2 EZ ES        1 3  3.05                             172   -0.4610 19.0 192 
 BAR2 EZ I         1 3  6.86         4.4 0.22            168           19.0 192 
 BRR  HZ EP        1 2 50.69                             151    0.2510 73.2 302 
 BRR  HN ES        1 3  7.99                             151    1.3310 73.2 302 
 PAM  SZ EP     D  1 2 51.50                             149   -0.1110 80.9  38 
 PAM  SZ I         1 2 51.73         6.2 0.24            154           80.9  38 
 PAM  SN ES        1 3  8.31                             149   -0.4510 80.9  38 
 RUS  HZ EP        1 2 53.17                             144    0.5210 96.3 176 
 RUS  HN ES        1 3 10.70                             144    0.0910 96.3 176 
 RUS  HZ I         1 3 13.94         3.0 0.50            143           96.3 176 
 PTB  HZ EP        1 2 55.66                             131   -0.51 9  147 260 
 PTB  HN ES        1 3 15.77                             131   -1.09 9  147 260 
 PTB  HZ I         1 3 20.06         3.6 0.16            132            147 260 
 TAM  HZ EP        1 2 56.84                             130   -0.05 9  154 103 
 TAM  HZ I         1 2 56.98         6.4 0.20            132            154 103 
 SPBC HZ EP        1 2 57.79                             129    0.31 9  160 220 
 SPBC HN ES        1 3 19.34                             129    0.15 9  160 220 
 SPBC HZ I         1 3 26.30         5.1 0.36            129            160 220 
                                                                                
