 2010  3 7 0217 37.7 L   6.793 -73.054147.6  RSN 12 0.5 2.4LRSN                1
 GAP=192        1.06       3.7     7.5  5.9 -0.1273E+01  0.1304E+02  0.3587E+01E
 Epicentro: LOS SANTOS - SANTANDER                                             3
 ACTION:UP  10-08-24 09:52 OP:vdl  STATUS:               ID:20100307021737 L   I
 2010-03-07-0216-05S.COL___101                                                 6
 STAT SP IPHASW D HRMM SECON CODA AMPLIT PERI AZIMU VELO SNR AR TRES W  DIS CAZ7
 BAR2 SZ EP        217 57.56                             169     0.010   26 213 
 BAR2 SZ ES        218 12.55                             169    -0.610   26 213 
 BRR  HZ IP        217 59.45                             149    -0.110   81 296 
 BRR  HZ I         218  1.08        46.8 0.36                            81 296 
 BRR  HN ES        218 17.15                             149     0.510   81 296 
 RUS  BZ EP        218  1.43                             144    -0.110  100 182 
 RUS  BN ES        218 20.29                             144     0.210  100 182 
 RUS  BZ I         218 21.65        22.2 0.46                           100 182 
 OCA  SZ EP        218  6.38                             130     0.0 9  163 350 
 OCA  SZ ES   1    218 28.83                             130     0.1 7  163 350 
 OCA  SZ I         218 32.84        71.3 0.44                           163 350 
 CHI  HZ EP        218 15.64                             117    -0.1 8  251 197 
 CHI  HE ES   1    218 44.71                             117    -0.6 6  251 197 
 CHI  HZ I         218 53.31        11.5 0.38                           251 197 
 ROSC BZ EP        218 16.93                             117     0.5 8  257 213 
 ROSC BN ES        218 47.23                             117     0.6 8  257 213 
 ROSC BZ I         218 55.34        13.8 0.42                           257 213 
 HEL  HZ EP   1    218 18.99                             114    -0.1 6  282 256 
 HEL  HN ES   2    218 50.22                             114    -1.1 4  282 256 
 HEL  HZ I         218 55.41        14.7 0.66                           282 256 
 GUY  HZ EP   1    218 22.84                             112     0.6 5  309 236 
 RREF BZ EP   1    218 24.95                             111     0.2 5  329 231 
 RREF BN ES   1    219  2.26                             111     0.9 5  329 231 
 RREF BZ I         219  8.36        15.6 0.56                           329 231 
 DBB  SZ EP        218 25.37                             109    -1.0 6  350 274 
 TOL  SZ EP        218 26.35                             109    -0.4 6  350 226 
 PRA  HZ EP        218 31.96                             107     0.2 6  396 211 
 PRA  HN ES   1    219 13.19                             107    -0.8 4  396 211 
 PRA  HZ I         219 18.60        10.5 0.11                           396 211 
                                                                                
