 2011  4 7 0942 23.0 L   6.780 -73.083151.1  RSN  5 0.4 1.5LRSN                1
 GAP=206        0.82       6.4    11.3  8.5 -0.6144E+01 -0.1550E+02  0.7432E+01E
 Epicentro: LOS SANTOS - SANTANDER                                             3
 ACTION:UP  11-06-22 15:29 OP:REBC STATUS:               ID:20110407094223 L   I
 2011-04-07-0939-47S.COL___136                                                 6
 STAT SP IPHASW D HRMM SECON CODA AMPLIT PERI AZIMU VELO SNR AR TRES W  DIS CAZ7
 BAR2 SZ EP        942 43.42                             171     0.110   23 208 
 BAR2 SZ ES   1    942 58.82                             171    -0.3 7   23 208 
 BAR2 SZ I         943  0.13        11.0 0.13                            23 208 
 BRR  HZ EP   1    942 45.43                             151     0.2 7   78 298 
 BRR  HN ES   1    943  2.82                             151     0.4 7   78 298 
 BRR  HZ I         943  3.85         5.5 0.12                            78 298 
 OCA  SZ EP   1    942 51.55                             130    -0.5 7  163 351 
 NOR  SN ES   2    943 27.09                             119    -0.9 4  239 236 
 CHI  HZ EP   1    943  1.49                             118     0.5 6  248 197 
 CHI  HZ I         943  2.15         1.4 0.11                           248 197 
 CHI  HN ES   2    943 30.42                             118    -0.2 4  248 197 
                                                                                
