 2010  9 7 0455 55.1 L   6.793 -73.102148.8  RSN  9 0.4 2.1LRSN                1
 GAP=164        0.92       3.9     9.2  8.7 -0.1235E+02 -0.3835E+01  0.6339E+01E
 Epicentro: LOS SANTOS - SANTANDER                                             3
 ACTION:UP  11-02-18 11:00 OP:tino STATUS:               ID:20100907045555 L   I
 2010-09-07-0453-21S.COL___120                                                 6
 STAT SP IPHASW D HRMM SECON CODA AMPLIT PERI AZIMU VELO SNR AR TRES W  DIS CAZ7
 BAR2 SZ EP   1    456 15.01                             170    -0.1 8   24 202 
 BAR2 SZ I         456 32.29        20.0 0.38                            24 202 
 GIR2 SZ EP   1    456 16.24                             167     1.0 8   33 342 
 BRR  HZ EP   1    456 16.94                             152     0.1 8   76 297 
 BRR  HE ES   1    456 34.06                             152     0.2 8   76 297 
 BRR  HZ I         456 36.65        35.9 0.10                            76 297 
 RUS  HZ EP   1    456 18.89                             145    -0.2 8  100 179 
 RUS  HN ES   1    456 37.74                             145    -0.1 8  100 179 
 RUS  HZ I         456 40.55         6.6 0.24                           100 179 
 GRA  SZ EP        456 20.86                             138     0.310  125  15 
 GRA  SZ ES   1    456 40.17                             138    -0.3 7  125  15 
 GRA  SZ I         456 42.74        20.1 0.27                           125  15 
 OCA  SZ EP        456 23.46                             130    -0.3 9  162 351 
 OCA  SZ ES   1    456 45.67                             130    -0.5 7  162 351 
 OCA  SZ I         456 48.86        18.0 0.15                           162 351 
 CHI  HZ EP   1    456 32.99                             118    -0.1 6  249 196 
 CHI  HE ES   2    457  2.35                             118    -0.3 4  249 196 
 CHI  HZ I         457 12.08         6.3 0.21                           249 196 
 RREF HE ES   2    457 18.15                             111     0.0 4  325 230 
 RREF HZ I         457 27.59        10.0 0.22                           325 230 
 PRA  HZ EP   1    456 49.44                             107     0.5 5  394 210 
 PRA  HE ES   1    457 30.36                             107    -0.6 5  394 210 
 PRA  HZ I         457 34.52         7.1 0.28                           394 210 
                                                                                
