 2016  9 7 0109 49.2 L   6.786 -73.136144.0  RSN 10 0.3 1.8LRSN                1
 GAP=138        0.76       3.8     4.2  4.9 -0.3939E+01  0.4726E+01  0.3497E+01E
 Epicentro: LOS SANTOS - SANTANDER                                             3
 ACTION:UPD 17-08-17 21:07 OP:lp   STATUS:               ID:20160907010949 L   I
 OLDACT:UP  16-09-07 14:13 OP:dani STATUS:               ID:20160907010740     3
 OLDACT:UP  16-09-07 14:13 OP:dani STATUS:               ID:20160907010740     3
 OLDACT:UP  16-09-07 14:00 OP:dani STATUS:               ID:20160907010740     3
 OLDACT:UP  16-09-07 13:59 OP:dani STATUS:               ID:20160907010740     3
 OLDACT:UP  16-09-07 13:58 OP:dani STATUS:               ID:20160907010740     3
 OLDACT:REG 16-09-07 12:10 OP:dani STATUS:               ID:20160907010740     3
 2016-09-07-0108-00M.COL___358                                                 6
 STAT SP IPHASW D HRMM SECON CODA AMPLIT PERI AZIMU VELO AIN AR TRES W  DIS CAZ7
 BAR2 EZ EP        110  8.17                             171   -0.4210 22.0 193 
 BAR2 EZ ES        110 23.31                             171   -0.4110 22.0 193 
 BAR2 EZ I         110 24.37        11.2 0.30            160           22.0 193 
 BRR  HZ EP        110 10.06                             152   -0.1910 72.9 299 
 BRR  HN ES        110 27.08                             152    0.4110 72.9 299 
 BRR  HZ I         110 36.40        13.6 0.46            127           72.9 299 
 PAM  EZ EP        110 11.12                             150   -0.1410 77.9  38 
 PAM  EE ES        110 28.64                             150    0.1710 77.9  38 
 PAM  EZ I         110 30.45         6.5 0.34            132           77.9  38 
 RUS  HZ EP        110 13.15                             144    0.4910 98.9 177 
 RUS  HN ES        110 31.12                             144    0.1610 98.9 177 
 PTB  HZ EP   9    110 15.01                             131   -1.08 0  148 260 
 PTB  HE ES   2    110 36.51                             131    0.53 5  148 260 
 PTB  HZ I         110 38.19         7.7 0.12            115            148 260 
 ZAR  HN ES   4    110 50.05                             122    3.01 0  206 292 
 ZAR  HZ I         110 53.84        10.9 0.10            106            206 292 
 NOR  HZ EP        110 24.70                             118   -0.12 8  235 235 
 NOR  HE ES        110 52.45                             118   -0.16 8  235 235 
 NOR  HZ I         110 57.10         4.0 0.54            106            235 235 
 CHI  HN ES   4    110 57.99                             117    2.10 0  247 195 
 URE  HZ EP   4    110 33.08                             113    2.72 0  285 292 
 URE  HZ I         111 13.14         3.8 0.19            100            285 292 
 GUY2CHZ EP        110 32.96                             112    0.24 7  301 235 
 GUY2CHZ I         111 12.78         2.3 0.26                           301 235 
 SJC  HZ EP   9    110 43.03                             105   -1.90 0  411 327 
 SJC  HZ I         111 25.52         1.7 0.50                           411 327 
 SJC  HN ES        111 26.42                             105   -0.07 6  411 327 
                                                                                
