 2013  6 7 0446 41.8 L   7.229 -73.066 16.2  RSN  5 0.4 1.7LRSN                1
 GAP=204        0.91       2.4     4.7  4.7 -0.4617E+00  0.4230E+01 -0.8301E+00E
 Epicentro: RIONEGRO - SANTANDER                                               3
 ACTION:UPD 14-01-08 09:53 OP:ep   STATUS:               ID:20130607044641 L   I
 OLDACT:REG 13-06-07 08:28 OP:mh   STATUS:               ID:20130607044000     3
 2013-06-07-0440-00M.COL___257                                                 6
 STAT SP IPHASW D HRMM SECON CODA AMPLIT PERI AZIMU VELO AIN AR TRES W  DIS CAZ7
 BAR2 SZ IP     C  446 53.80                             101    0.1410 71.6 190 
 BAR2 SZ ES   1    447  2.74                             101   -0.17 7 71.6 190 
 BAR2 SZ I         447  3.86        11.8 0.36             98           71.6 190 
 BRR  HZ IP     C  446 53.85                             100    0.2910 72.6 259 
 BRR  HN ES        447  2.81                             100    0.0810 72.6 259 
 BRR  HN I         447  3.60        13.9 0.20             98           72.6 259 
 OCA  HN ES        447 13.92                              97   -0.4510  115 346 
 OCA  HN I         447 17.06        21.4 0.16             95            115 346 
 PTB  HZ EP        447  7.78                              56    0.31 9  172 244 
 PTB  HN ES        447 26.85                              56   -0.64 9  172 244 
 PTB  HN I         447 28.79         9.2 0.24             56            172 244 
 SML  HZ EP   4    447 13.62                              56    1.85 0  206 328 
 SML  HN ES   1    447 35.86                              56    0.71 6  206 328 
 SML  HN I         447 39.34        24.7 0.10             56            206 328 
                                                                                
