 2013  5 7 0952 57.6 L   6.794 -73.164150.2  RSN  8 0.4 2.0LRSN                1
 GAP=134        0.85       4.2     4.9  6.8  0.3407E+01  0.6355E+01 -0.3499E+01E
 Epicentro: LOS SANTOS - SANTANDER                                             3
 ACTION:UPD 13-06-20 09:48 OP:ep   STATUS:               ID:20130507095257 L   I
 2013-05-07-0950-00M.COL___256                                                 6
 STAT SP IPHASW D HRMM SECON CODA AMPLIT PERI AZIMU VELO AIN AR TRES W  DIS CAZ7
 BAR2 SZ EP        953 17.67                             171   -0.0310 22.4 185 
 BAR2 SZ ES   1    953 32.64                             171   -0.78 7 22.4 185 
 BAR2 SZ I         953 33.64        23.7 0.24            171           22.4 185 
 BRR  HZ IP     D  953 19.40                             154    0.2910 69.7 300 
 BRR  HE ES   1    953 36.65                             154    0.74 7 69.7 300 
 BRR  HZ I         953 36.91        14.1 0.10            150           69.7 300 
 PAM  SZ EP   1    953 20.69                             151    0.34 7 79.2  40 
 PAM  SE ES   1    953 37.91                             151   -0.22 7 79.2  40 
 PAM  SZ I         953 39.67        26.0 0.52            153           79.2  40 
 RUS  HZ EP        953 21.76                             145    0.0410  100 175 
 RUS  HE ES   1    953 40.69                             145    0.13 7  100 175 
 RUS  HZ I         953 41.99         9.1 0.36            148            100 175 
 PTB  HZ EP   1    953 24.56                             133   -0.14 7  146 259 
 PTB  HN ES   1    953 45.52                             133   -0.35 7  146 259 
 PTB  HZ I         953 50.36         8.5 0.14            132            146 259 
 OCA  HN ES   2    953 49.39                             130    0.76 5  161 354 
 ZAR  HZ EP   1    953 30.36                             123    0.23 6  202 293 
 ZAR  HE ES   1    953 55.69                             123    0.16 6  202 293 
 ZAR  HZ I         954  1.51         6.3 0.12            123            202 293 
 SML  HZ EP   1    953 33.72                             118   -0.69 6  243 336 
 SML  HN ES   1    954  2.40                             118   -0.74 6  243 336 
 SML  HZ I         954  9.69        11.6 0.10            118            243 336 
                                                                                
