 2011 11 7 0651 47.9 L   6.808 -73.108142.1  RSN 16 0.6 2.8LRSN                1
 GAP=117        1.04       3.5     4.9  6.5 -0.9984E+00  0.1213E+02  0.4606E+01E
 Epicentro: LOS SANTOS - SANTANDER                                             3
 ACTION:UPD 12-07-13 16:08 OP:ep   STATUS:               ID:20111107065147 L   I
 2011-11-07-0650-37S.COL___175                                                 6
 STAT SP IPHASW D HRMM SECON CODA AMPLIT PERI AZIMU VELO AIN AR TRES W  DIS CAZ7
 BAR2 SZ EP   1    652  7.05                             169   -0.07 7 25.2 199 
 BAR2 SZ ES   1    652 21.50                             169   -0.62 7 25.2 199 
 BAR2 SZ I         652 23.40       196.0 0.23                          25.2 199 
 PAM  SZ EP        652 10.02                             151    0.5010 74.1  38 
 PAM  SZ I         652 10.40        91.0 0.16                          74.1  38 
 PAM  SE ES        652 26.53                             151    0.1410 74.1  38 
 BRR  HZ EP   1    652  9.06                             151    0.22 7 74.4 296 
 BRR  HN ES   1    652 26.00                             151    0.83 7 74.4 296 
 BRR  HZ I         652 27.11       115.3 0.14                          74.4 296 
 RUS  HZ EP        652 10.99                             143   -0.3510  101 178 
 RUS  HN ES   1    652 29.04                             143   -0.58 7  101 178 
 RUS  HZ I         652 30.95        52.4 0.34                           101 178 
 OCA  SZ EP   1    652 15.91                             129    0.02 7  160 352 
 OCA  SZ ES   1    652 37.09                             129   -0.63 7  160 352 
 OCA  SZ I         652 42.68        71.9 0.29                           160 352 
 YOP  SZ EP   1    652 16.58                             126   -0.99 7  178 155 
 YOP  SN ES   1    652 41.66                             126    0.94 7  178 155 
 YOP  SZ I         652 44.78        32.7 0.25                           178 155 
 ZAR  HZ EP   1    652 20.87                             121    0.40 6  208 291 
 ZAR  HN ES   1    652 45.47                             121   -0.40 6  208 291 
 ZAR  HZ I         652 51.12        39.1 0.27                           208 291 
 NOR  SZ EP   1    652 22.96                             117   -0.87 6  239 235 
 NOR  SN ES   1    652 51.26                             117   -0.60 6  239 235 
 ROSC BZ EP   1    652 26.91                             116    0.77 6  256 212 
 ROSC BN ES   1    652 56.83                             116    0.87 6  256 212 
 ROSC BZ I         653  3.36        42.2 0.52                           256 212 
 HEL  HZ EP   1    652 27.96                             114   -0.43 6  276 256 
 HEL  HZ I         653  5.53        23.4 0.69                           276 256 
 GUY  SZ EP   1    652 32.58                             111    0.54 5  307 235 
 GUY  SZ I         653 14.47        42.1 0.36                           307 235 
 RREF HZ EP   1    652 35.17                             110    0.86 5  325 230 
 RREF HN ES   1    653 10.73                             110    0.23 5  325 230 
 RREF HZ I         653 19.54        25.2 0.44                           325 230 
 DBB  SZ EP   1    652 36.07                             108    0.38 5  344 274 
 TOL  SZ EP   1    652 36.61                             108    0.20 5  347 225 
 COD  HZ EP   1    652 35.51                             108   -0.56 5  348 354 
 PRA  HZ EP   1    652 40.69                             106   -0.93 4  395 210 
 PRA  HN ES   1    653 23.46                             106   -0.07 4  395 210 
 PRA  HZ I         653 29.65       104.3 0.28                           395 210 
                                                                                
