 2013  6 7 0746 59.9 L   6.745 -73.264159.8  RSN  4 0.2 1.7LRSN                1
 GAP=173        0.54       8.2     8.4  7.5 -0.7759E+01 -0.1769E+02 -0.1238E+00E
 Epicentro: ZAPATOCA - SANTANDER                                               3
 ACTION:UPD 14-01-08 09:53 OP:ep   STATUS:               ID:20130607074700 L   I
 OLDACT:UP  13-07-15 10:34 OP:ep   STATUS:               ID:20130607074700 L   3
 OLDACT:REG 13-06-07 08:39 OP:mh   STATUS:               ID:20130607074000     3
 2013-06-07-0740-00M.COL___257                                                 6
 STAT SP IPHASW D HRMM SECON CODA AMPLIT PERI AZIMU VELO AIN AR TRES W  DIS CAZ7
 BAR2 SZ EP   1    747 20.87                             173   -0.28 7 19.2 152 
 BAR2 SZ I         747 36.34         3.2 0.34            142           19.2 152 
 BRR  HZ EP        747 22.52                             157    0.3110 63.6 309 
 BRR  HN ES   1    747 39.55                             157   -0.05 7 63.6 309 
 BRR  HN I         747 39.90        23.9 0.18            167           63.6 309 
 PTB  HZ EP   1    747 26.97                             138    0.10 7  134 260 
 PTB  HN ES   2    747 47.60                             138   -0.30 5  134 260 
 PTB  HN I         747 53.62         5.3 0.52            135            134 260 
 SML  HZ EP   1    747 37.09                             120   -0.31 6  244 339 
                                                                                
