 2016  5 7 0730 30.2 L   6.797 -73.160144.4  RSN 12 0.5 1.7LRSN                1
 GAP=135        1.09       2.8     4.5  6.2 -0.1075E+01  0.4842E+01  0.1128E+01E
 Epicentro: LOS SANTOS - SANTANDER                                             3
 ACTION:UPD 16-08-18 17:43 OP:cam  STATUS:               ID:20160507073030 L   I
 OLDACT:REG 16-05-07 15:32 OP:ak   STATUS:               ID:20160507072748     3
 2016-05-07-0727-48M.COL___291                                                 6
 STAT SP IPHASW D HRMM SECON CODA AMPLIT PERI AZIMU VELO AIN AR TRES W  DIS CAZ7
 BAR2 EZ EP        730 49.36                             171   -0.3310 22.8 186 
 BAR2 EZ ES        731  4.35                             171   -0.5110 22.8 186 
 BAR2 EZ I         731  6.11        12.1 0.35            167           22.8 186 
 BRR  HZ IP     C  730 51.48                             153    0.3110 70.0 299 
 BRR  HN ES        731  8.31                             153    0.8110 70.0 299 
 BRR  HZ I         731 11.37         5.3 0.29            142           70.0 299 
 PAM  EZ EP        730 52.64                             150    0.2610 78.6  40 
 PAM  EN ES        731  9.92                             150    0.2710 78.6  40 
 PAM  EZ I         731 11.95         4.9 0.42            147           78.6  40 
 RUS  HZ EP        730 53.56                             144   -0.2810  100 175 
 RUS  HN ES        731 12.23                             144   -0.0210  100 175 
 RUS  HZ I         731 13.31         3.3 0.52            140            100 175 
 PTB  HZ EP   4    730 52.58                             132   -4.37 0  146 259 
 PTB  HN ES        731 16.93                             132   -0.85 9  146 259 
 PTB  HZ I         731 23.00         4.1 0.28            123            146 259 
 OCA  HZ EP        730 57.97                             129   -0.49 9  160 354 
 OCA  HN ES        731 20.73                             129    0.27 9  160 354 
 OCA  HZ I         731 23.67         7.6 0.20            122            160 354 
 SPBC HZ EP        730 58.77                             129    0.26 9  162 219 
 SPBC HN ES        731 20.30                             129   -0.27 9  162 219 
 SPBC HZ I         731 25.77         4.5 0.19            122            162 219 
 ZAR  HZ EP   2    731  2.29                             122   -0.17 4  203 292 
 ZAR  HN ES        731 28.00                             122    0.41 9  203 292 
 ZAR  HZ I         731 34.47         5.8 0.30            114            203 292 
 SML  HZ EP   2    731  5.72                             117   -1.03 4  243 336 
 SML  HE ES        731 34.72                             117   -0.51 8  243 336 
 SML  HZ I         731 38.16         7.5 0.07            111            243 336 
 CHI  HZ EP   2    731  7.45                             117   -0.33 4  248 195 
 CHI  HN ES        731 37.35                             117    0.28 8  248 195 
 URE  HZ EP   4    731  9.59                             113   -1.50 0  283 292 
 URE  HZ I         731 53.72         3.1 0.32            107            283 292 
 PRA  HZ EP        731 24.13                             106    0.54 6  391 209 
 PRA  HN ES        732  6.16                             106    0.96 6  391 209 
 PRA  HZ I         732 10.89         2.5 0.30            102            391 209 
                                                                                
