 2011  4 7 0927 13.8 L   6.804 -73.182142.0  RSN  8 0.4 2.0LRSN                1
 GAP=161        0.83       3.8     5.9  6.7 -0.1178E+02  0.3014E+01  0.6433E+01E
 Epicentro: LOS SANTOS - SANTANDER                                             3
 ACTION:UP  11-06-22 15:29 OP:REBC STATUS:               ID:20110407092713 L   I
 2011-04-07-0923-01S.COL___137                                                 6
 STAT SP IPHASW D HRMM SECON CODA AMPLIT PERI AZIMU VELO SNR AR TRES W  DIS CAZ7
 BAR2 SZ EP        927 32.71                             170    -0.310   23 180 
 BAR2 SZ ES   1    927 47.94                             170     0.0 7   23 180 
 BAR2 SZ I         927 49.67        16.1 0.33                            23 180 
 BRR  HZ IP     C  927 34.38                             153     0.010   67 300 
 BRR  HE ES   1    927 50.74                             153     0.3 7   67 300 
 BRR  HZ I         927 55.70        25.4 0.16                            67 300 
 GRA  SZ EP        927 39.04                             136     0.210  127  19 
 GRA  SZ ES        927 58.51                             136     0.210  127  19 
 GRA  SZ I         927 59.56        12.3 0.37                           127  19 
 OCA  SZ EP   1    927 41.09                             129    -0.7 7  159 355 
 OCA  SZ ES   1    928  3.38                             129    -0.2 7  159 355 
 OCA  SZ I         928  7.09        11.2 0.20                           159 355 
 NOR  SZ EP   1    927 48.71                             118    -0.3 6  232 234 
 NOR  SN ES   1    928 15.83                             118    -0.7 6  232 234 
 CHI  HZ EP   1    927 51.63                             116     0.4 6  248 194 
 CHI  HE ES   1    928 20.86                             116     0.4 6  248 194 
 CHI  HZ I         928 28.56         2.6 0.46                           248 194 
 HEL  HZ EP   2    927 54.24                             114     0.8 4  268 255 
 HEL  HE ES   1    928 24.82                             114     0.5 6  268 255 
 HEL  HZ I         928 32.76         6.0 0.44                           268 255 
 PRA  HZ EP   1    928  7.49                             106     0.4 4  390 209 
 PRA  HE ES   1    928 48.23                             106    -0.3 4  390 209 
 PRA  HZ I         928 57.95         6.8 0.29                           390 209 
                                                                                
