 2013  5 7 0129 48.8 L   6.751 -73.150147.5  RSN  7 0.5 1.7LRSN                1
 GAP=138        0.90       5.4     5.4  7.3 -0.8697E+01  0.5155E+01  0.9480E+01E
 Epicentro: LOS SANTOS - SANTANDER                                             3
 ACTION:UPD 13-06-20 09:48 OP:ep   STATUS:               ID:20130507012948 L   I
 2013-05-07-0130-00M.COL___256                                                 6
 STAT SP IPHASW D HRMM SECON CODA AMPLIT PERI AZIMU VELO AIN AR TRES W  DIS CAZ7
 BAR2 SZ EP   1    130  8.04                             173   -0.50 7 17.9 191 
 BAR2 SZ ES   1    130 23.44                             173   -0.49 7 17.9 191 
 BAR2 SZ I         130 24.61         9.3 0.20            167           17.9 191 
 BRR  HZ EP   1    130 10.60                             152    0.34 7 73.5 302 
 BRR  HN ES   1    130 27.99                             152    0.99 7 73.5 302 
 PAM  SZ EP        130 11.58                             150    0.1110 82.0  37 
 PAM  SN ES   1    130 28.75                             150   -0.41 7 82.0  37 
 RUS  HZ EP        130 12.34                             146    0.0010 95.2 176 
 RUS  HN ES   1    130 31.24                             146    0.54 7 95.2 176 
 RUS  HZ I         130 32.02         5.3 0.26            144           95.2 176 
 PTB  HZ EP   1    130 15.38                             133   -0.39 7  146 261 
 PTB  HN ES   1    130 36.34                             133   -0.47 7  146 261 
 PTB  HZ I         130 42.14         6.5 0.14            130            146 261 
 NOR  HZ EP   1    130 24.56                             119    0.32 6  231 235 
 NOR  HN ES   1    130 51.37                             119   -0.52 6  231 235 
 NOR  HZ I         130 59.11         4.7 0.22            118            231 235 
 PRA  HZ EP   1    130 42.03                             107    0.24 4  387 210 
 PRA  HN ES   1    131 23.49                             107    0.37 4  387 210 
 PRA  HZ I         131 29.35         1.9 0.42            107            387 210 
                                                                                
