 2010 11 7 0841 38.3 L   6.715 -73.120143.6  RSN 12 0.4 2.3LRSN                1
 GAP=162        0.87       3.6     6.7  5.2 -0.7903E+01  0.1753E+01  0.2910E+00E
 Epicentro: JORDAN - SANTANDER                                                 3
 ACTION:UP  10-12-17 16:50 OP:REBC STATUS:               ID:20101107084138 L   I
 2010-11-07-0840-32S.COL___128                                                 6
 STAT SP IPHASW D HRMM SECON CODA AMPLIT PERI AZIMU VELO SNR AR TRES W  DIS CAZ7
 BAR2 SZ EP        841 57.50                             174    -0.110   15 207 
 BAR2 SZ ES   1    842 12.03                             174    -0.5 7   15 207 
 BAR2 SZ I         842 13.47        51.1 0.33                            15 207 
 BTL  SZ ES   1    842 13.24                             168     0.2 7   28 324 
 GIR2 SZ EP        841 58.05                             163     0.010   41 349 
 GIR2 SZ ES   1    842 13.77                             163     0.3 7   41 349 
 BRR  HZ EP        841 59.81                             150     0.110   79 304 
 BRR  HN ES   1    842 16.81                             150     0.5 7   79 304 
 BRR  HZ I         842 17.90        43.6 0.11                            79 304 
 RUS  HZ EP        842  1.12                             146    -0.110   91 177 
 RUS  HN ES   1    842 19.01                             146     0.0 7   91 177 
 RUS  HZ I         842 20.16        27.9 0.22                            91 177 
 GUE  SZ EP        842  3.65                             137     0.110  125  10 
 GRA  SZ EP        842  4.42                             135     0.310  134  15 
 GRA  SZ ES   1    842 24.32                             135     0.1 7  134  15 
 GRA  SZ I         842 26.88        43.5 0.24                           134  15 
 OCA  SZ EP        842  7.06                             127    -0.4 9  170 353 
 OCA  SZ ES   1    842 29.17                             127    -0.9 7  170 353 
 OCA  SZ I         842 34.82        24.5 0.24                           170 353 
 NOR  SZ EP   1    842 14.52                             118     0.9 6  232 237 
 NOR  SN ES   2    842 40.57                             118    -0.6 4  232 237 
 HEL  HZ EP   3    842 19.18                             114     0.7 2  273 258 
 HEL  HN ES   3    842 48.66                             114    -1.2 2  273 258 
 HEL  HZ I         842 55.39         5.8 0.27                           273 258 
 RREF HN ES   2    842 58.87                             111    -0.7 3  318 231 
 RREF HZ I         843  9.46         6.1 0.42                           318 231 
 PRA  HZ EP        842 30.86                             106    -0.1 6  385 211 
                                                                                
