 2010  3 7 0005 27.0 L   6.828 -73.054140.6  RSN 12 0.4 2.6LRSN                1
 GAP=132        0.81       2.7     4.7  4.6 -0.1828E+01  0.2235E+01  0.1140E+01E
 Epicentro: LOS SANTOS - SANTANDER                                             3
 ACTION:UP  10-08-24 09:52 OP:vdl  STATUS:               ID:20100307000526 L   I
 2010-03-07-0001-22S.COL___101                                                 6
 STAT SP IPHASW D HRMM SECON CODA AMPLIT PERI AZIMU VELO SNR AR TRES W  DIS CAZ7
 BAR2 SZ EP        0 5 46.12                             167     0.010   30 209 
 BAR2 SZ ES   1    0 6  0.38                             167    -0.7 7   30 209 
 BRR  HZ IP        0 5 47.99                             149     0.010   79 293 
 BRR  HZ I         0 5 49.05       159.9 0.11                            79 293 
 BRR  HN ES        0 6  4.85                             149     0.410   79 293 
 RUS  BZ EP        0 5 50.25                             142    -0.210  103 182 
 RUS  BE ES        0 6  8.74                             142     0.010  103 182 
 RUS  BZ I         0 6 10.60        24.2 0.12                           103 182 
 OCA  SZ EP        0 5 54.56                             129    -0.2 9  159 349 
 OCA  SZ ES   1    0 6 16.72                             129     0.3 7  159 349 
 OCA  SZ I         0 6 21.55        77.6 0.27                           159 349 
 CHI  HZ EP        0 6  5.42                             115     0.4 8  254 197 
 CHI  HN ES        0 6 35.02                             115     0.3 8  254 197 
 CHI  HZ I         0 6 41.76        11.3 0.25                           254 197 
 HEL  HZ EP        0 6  7.73                             113    -0.4 7  283 256 
 HEL  HN ES   2    0 6 40.58                             113     0.4 4  283 256 
 HEL  HZ I         0 6 44.66        17.6 0.09                           283 256 
 RREF BZ EP   1    0 6 14.68                             109     0.7 5  331 230 
 RREF BN ES   1    0 6 50.51                             109    -0.2 5  331 230 
 RREF BZ I         0 6 56.09        17.4 0.41                           331 230 
 DBB  SZ EP        0 6 14.57                             108    -0.8 6  349 274 
 SDV  BZ EP        0 6 15.93                             108     0.3 6  351  50 
 SDV  BZ I         0 6 16.90        17.0 0.10                           351  50 
 TOL  SZ EP   1    0 6 15.91                             108    -0.2 5  353 225 
 TOL  SZ ES   2    0 6 54.38                             108     0.0 3  353 225 
 ANIL BE ES   2    0 6 57.76                             107     0.6 3  367 225 
 ANIL BZ I         0 7  4.83        36.3 0.28                           367 225 
 PRA  HZ EP        0 6 21.06                             105    -0.2 6  400 211 
 PRA  HN ES        0 7  3.47                             105    -0.1 6  400 211 
 PRA  HZ I         0 7  6.25        12.4 0.34                           400 211 
                                                                                
