 2013  3 7 0147 18.9 L   6.784 -73.109152.0  RSN  8 0.3 1.8LRSN                1
 GAP=142        0.65       2.8     4.1  4.9  0.2208E+01  0.1448E+01 -0.2287E+01E
 Epicentro: LOS SANTOS - SANTANDER                                             3
 ACTION:UPD 13-04-09 14:00 OP:ep   STATUS:               ID:20130307014718 L   I
 2013-03-07-0140-00M.COL___231                                                 6
 STAT SP IPHASW D HRMM SECON CODA AMPLIT PERI AZIMU VELO AIN AR TRES W  DIS CAZ7
 BAR2 SZ EP        147 39.07                             171   -0.2010 22.7 201 
 BAR2 SZ ES        147 54.79                             171   -0.3610 22.7 201 
 BAR2 SZ I         147 56.04        13.9 0.24            168           22.7 201 
 BRR  HZ EP        147 41.14                             152    0.1710 75.6 298 
 BRR  HN ES        147 58.47                             152    0.2910 75.6 298 
 BRR  HZ I         148 11.00        10.1 0.44            149           75.6 298 
 PAM  SZ EP        147 42.06                             152    0.3510 76.2  36 
 PAM  SN ES        147 59.35                             152   -0.1610 76.2  36 
 PAM  SZ I         148  1.43        10.4 0.56            157           76.2  36 
 RUS  HZ EP        147 43.21                             145    0.0810 98.7 178 
 RUS  HN ES        148  2.17                             145    0.1310 98.7 178 
 RUS  HZ I         148  2.79         4.4 0.50            151           98.7 178 
 PTB  HN ES   2    148  7.96                             132   -0.44 5  151 260 
 PTB  HZ I         148 13.37         4.9 0.46            133            151 260 
 OCA  HN ES   2    148  9.98                             130   -0.55 5  162 352 
 OCA  HZ I         148 13.63         5.3 0.22            133            162 352 
 ZAR  HN ES   2    148 17.78                             123   -0.40 4  208 292 
 SML  HZ EP   2    147 55.44                             118   -0.79 4  247 335 
 SML  HN ES        148 25.52                             118    0.17 8  247 335 
 SML  HZ I         148 27.46        10.2 0.08            121            247 335 
                                                                                
