 2017  3 7 0957 48.0 L   6.766 -73.102144.0  RSN  7 0.2 1.5LRSN                1
 GAP=124        0.47       2.0     2.4  3.3 -0.1130E+00  0.1292E+01  0.9231E+00E
 Epicentro: LOS SANTOS - SANTANDER                                             3
 ACTION:UPD 17-05-25 18:37 OP:jn   STATUS:               ID:20170307095748 L   I
 OLDACT:UP  17-03-07 18:30 OP:and  STATUS:               ID:20170307094740     3
 OLDACT:UP  17-03-07 18:28 OP:and  STATUS:               ID:20170307094740     3
 OLDACT:REG 17-03-07 12:17 OP:and  STATUS:               ID:20170307094740     3
 2017-03-07-0948-00M.COL___360                                                 6
 STAT SP IPHASW D HRMM SECON CODA AMPLIT PERI AZIMU VELO AIN AR TRES W  DIS CAZ7
 BAR2 EZ IP     C  958  7.36                             171   -0.0610 21.2 205 
 BAR2 EZ ES        958 22.29                             171   -0.2410 21.2 205 
 BAR2 EZ I         958 23.47         8.8 0.13            170           21.2 205 
 BRR  HZ EP   2    958  9.49                             150    0.13 5 77.3 299 
 BRR  HN ES        958 26.14                             150    0.1610 77.3 299 
 PAM  EZ IP     D  958 10.41                             150    0.3410 77.4  35 
 PAM  EN ES        958 27.04                             150   -0.2110 77.4  35 
 PAM  EZ I         958 28.75         4.3 0.24            152           77.4  35 
 RUS  HZ EP        958 11.44                             144    0.1010 96.6 179 
 RUS  HN ES        958 29.60                             144    0.1010 96.6 179 
 RUS  HZ I         958 31.07         2.1 0.30            145           96.6 179 
 SPBC HZ EP        958 16.37                             128   -0.06 9  163 221 
 SPBC HN ES        958 38.58                             128    0.01 9  163 221 
 SPBC HZ I         958 40.98         6.7 0.22            129            163 221 
 ZAR  HZ EP   2    958 20.65                             121   -0.34 4  210 293 
 ZAR  HN ES        958 46.62                             121   -0.07 8  210 293 
 ZAR  HZ I         958 51.24         4.0 0.30            121            210 293 
 PTGC HZ EP   2    958 30.70                             111   -0.52 4  303 159 
                                                                                
