 2012  8 7 0534 19.3 L   6.791 -73.153140.8  RSN 10 0.4 2.3LRSN                1
 GAP=136        0.96       3.6     4.1  5.6 -0.1523E+01  0.4706E+01  0.2030E+01E
 Epicentro: LOS SANTOS - SANTANDER                                             3
 ACTION:UPD 12-09-10 11:55 OP:ep   STATUS:               ID:20120807053419 L   I
 2012-08-07-0530-00M.COL___216                                                 6
 STAT SP IPHASW D HRMM SECON CODA AMPLIT PERI AZIMU VELO AIN AR TRES W  DIS CAZ7
 BAR2 SZ EP        534 38.54                             171    0.2110 22.2 189 
 BAR2 SZ ES        534 52.82                             171   -0.3410 22.2 189 
 BAR2 SZ I         534 54.62        44.3 0.26                          22.2 189 
 BRR  HZ IP     D  534 40.27                             152    0.3410 71.0 300 
 BRR  HZ I         534 40.47        69.7 0.16                          71.0 300 
 BRR  HN ES        534 56.81                             152    0.8110 71.0 300 
 PAM  SZ EP        534 41.22                             149    0.1310 78.7  39 
 PAM  SN ES        534 58.00                             149   -0.0710 78.7  39 
 RUS  HZ EP        534 42.55                             143    0.0310 99.6 176 
 RUS  HN ES        535  0.34                             143   -0.2710 99.6 176 
 RUS  HZ I         535  3.52        21.2 0.12                          99.6 176 
 PTB  HZ EP        534 45.08                             131   -0.72 9  147 259 
 PTB  HN ES        535  6.20                             131   -0.26 9  147 259 
 PTB  HZ I         535 10.91        17.3 0.21                           147 259 
 OCA  HZ EP        534 47.04                             128   -0.30 9  161 353 
 ZAR  HE ES   1    535 15.75                             121   -0.70 6  204 292 
 ZAR  HZ I         535 21.91        23.9 0.17                           204 292 
 NOR  SZ EP   1    534 54.51                             118   -0.13 6  233 235 
 NOR  SN ES   1    535 22.39                             118    0.21 6  233 235 
 CHI  HZ EP        534 56.96                             116    0.34 8  247 195 
 CHI  HN ES   1    535 26.01                             116    0.30 6  247 195 
 CHI  HZ I         535 28.88         8.3 0.23                           247 195 
 HEL  HZ EP   1    534 59.81                             114    0.63 6  271 256 
 HEL  HZ I         535 37.46         9.8 0.29                           271 256 
                                                                                
