 2016  3 7 0759  8.2 L   6.854 -73.267145.0  RSN  7 0.3 1.4LRSN                1
 GAP=154        0.73       3.5     3.9  5.1 -0.5275E+01  0.4265E+01  0.2055E+01E
 Epicentro: ZAPATOCA - SANTANDER                                               3
 ACTION:UPD 16-05-13 21:22 OP:cam  STATUS:               ID:20160307075908 L   I
 OLDACT:REG 16-03-07 14:02 OP:cara STATUS:               ID:20160307075751     3
 2016-03-07-0757-51M.COL___318                                                 6
 STAT SP IPHASW D HRMM SECON CODA AMPLIT PERI AZIMU VELO AIN AR TRES W  DIS CAZ7
 BAR2 EZ EP        759 27.97                             168    0.1110 30.4 162 
 BAR2 EZ ES        759 43.09                             168   -0.1410 30.4 162 
 BAR2 EZ I         759 44.52         6.5 0.14            168           30.4 162 
 PAM  EZ EP        759 30.85                             149    0.2510 82.5  49 
 PAM  EE ES        759 48.19                             149    0.0810 82.5  49 
 PAM  EZ I         759 50.07         7.3 0.48            154           82.5  49 
 RUS  HZ EP        759 32.28                             141   -0.1210  108 169 
 RUS  HN ES        759 51.02                             141   -0.2910  108 169 
 RUS  HZ I         759 51.65         2.6 0.28            144            108 169 
 PTB  HZ EP        759 33.79                             134   -0.22 9  136 255 
 PTB  HN ES        759 53.96                             134   -0.23 9  136 255 
 PTB  HZ I         759 58.62         2.1 0.18            134            136 255 
 SPBC HZ EP        759 36.57                             129    0.27 9  160 214 
 SPBC HE ES        759 58.83                             129    0.58 9  160 214 
 SPBC HZ I         8 0  5.32         4.6 0.20            130            160 214 
 CHI  HZ EP        759 45.57                             117   -0.53 8  251 192 
 CHI  HN ES        8 0 15.89                             117    0.19 8  251 192 
 CHI  HZ I         8 0 18.96         1.7 0.44            118            251 192 
 GUY2CHZ EP   4    759 53.76                             113    2.85 0  294 232 
 GUY2CHN ES   4    8 0 26.01                             113    1.74 0  294 232 
 GUY2CHZ I         8 0 34.19         1.2 0.34                           294 232 
                                                                                
