 2016  6 7 0458 48.3 L   6.838 -73.141146.3  RSN 18 0.4 2.2LRSN                1
 GAP= 70        0.96       2.5     3.4  4.8 -0.3022E+01  0.4440E+01 -0.8248E-01E
 Epicentro: LOS SANTOS - SANTANDER                                             3
 ACTION:UPD 16-07-21 22:16 OP:rebc STATUS:               ID:20160607045848 L   I
 OLDACT:UP  16-06-07 17:29 OP:dani STATUS:               ID:20160607045742     3
 OLDACT:REG 16-06-07 13:08 OP:dani STATUS:               ID:20160607045742     3
 2016-06-07-0457-42M.COL___319                                                 6
 STAT SP IPHASW D HRMM SECON CODA AMPLIT PERI AZIMU VELO AIN AR TRES W  DIS CAZ7
 BAR2 EZ EP     C  459  7.99                             169   -0.0910 27.5 189 
 BAR2 EZ ES        459 23.11                             169   -0.4010 27.5 189 
 BAR2 EZ I         459 24.26        43.3 0.22                          27.5 189 
 BRR  HZ EP     C  459  9.82                             153    0.4010 69.7 295 
 BRR  HZ IP     C  459  9.82                             153           69.7 295 
 BRR  HN ES   4    459 27.29                             153    1.39 0 69.7 295 
 BRR  HZ I         459 30.01        27.9 0.46                          69.7 295 
 PAM  EZ EP        459 10.82                             152    0.4510 73.9  41 
 PAM  EN ES        459 28.17                             152    0.5910 73.9  41 
 PAM  EZ I         459 30.18        50.0 0.50                          73.9  41 
 RUS  HZ EP     D  459 12.01                             143   -0.3910  105 176 
 RUS  HN ES        459 31.15                             143   -0.0510  105 176 
 RUS  HZ I         459 31.80        26.7 0.26                           105 176 
 PTB  HZ EP        459 14.72                             132   -0.71 9  149 257 
 PTB  HN ES        459 36.56                             132   -0.03 9  149 257 
 PTB  HZ I         459 38.72        18.1 0.12                           149 257 
 TAM  HZ IP     C  459 16.38                             130    0.30 9  156 107 
 OCA  HZ EP        459 16.48                             130    0.21 9  156 353 
 OCA  HN ES        459 37.94                             130   -0.15 9  156 353 
 OCA  HZ I         459 42.83        35.8 0.44                           156 353 
 SPBC HZ EP        459 16.97                             128   -0.20 9  167 218 
 SPBC HN ES        459 39.28                             128   -0.41 9  167 218 
 SPBC HZ I         459 42.34        40.4 0.16                           167 218 
 NOR  HZ EP        459 24.37                             118    0.01 8  238 234 
 NOR  HN ES        459 52.61                             118    0.12 8  238 234 
 NOR  HZ I         459 57.74        14.6 0.18                           238 234 
 CHI  HZ EP        459 26.31                             117   -0.17 8  253 195 
 CHI  HE ES        459 55.96                             117   -0.29 8  253 195 
 CHI  HZ I         459 59.28        10.7 0.54                           253 195 
 ROSC BZ EP        459 27.79                             116    0.93 8  257 211 
 ROSC BE ES   4    459 59.19                             116    2.25 0  257 211 
 ROSC BZ I         5 0  0.12        14.3 0.45                           257 211 
 HEL  HZ EP   4    459 30.59                             115    1.88 0  274 255 
 HEL  HN ES        5 0  0.47                             115    0.25 8  274 255 
 HEL  HZ I         5 0  6.24         6.9 0.25                           274 255 
 URE  HZ EP        459 28.62                             114   -0.65 7  283 291 
 URE  HE ES   4    459 59.35                             114   -1.88 0  283 291 
 URE  HZ I         5 0  8.46        10.9 0.20                           283 291 
 LL6C HZ EP        459 33.33                             111   -0.22 7  321 357 
 LL6C HZ ES        5 0  8.33                             111   -0.52 7  321 357 
 LL6C HZ I         5 0 14.87         4.9 0.46                           321 357 
 CBOC HZ EP   4    459 36.84                             110    1.40 0  335 251 
 CBOC HN ES        5 0 13.13                             110    0.93 7  335 251 
 CBOC HZ I         5 0 16.17         2.6 0.14                           335 251 
 PRA  HZ EP        459 41.94                             106   -0.35 6  396 209 
 PRA  HN ES        5 0 24.55                             106    0.15 6  396 209 
 PRA  HZ I         5 0 28.99         5.7 0.26                           396 209 
 ORTC HZ EP        459 42.50                             106   -0.16 6  399 216 
 ORTC HN ES        5 0 25.79                             106    0.73 6  399 216 
 ORTC HZ I         5 0 29.24         5.2 0.48                           399 216 
 PAL  HZ EP   4    459 42.66                             106   -1.12 0  408 239 
 PAL  HE ES   4    5 0 28.47                             106    1.42 0  408 239 
 PAL  HZ I         5 0 29.61         3.3 0.18                           408 239 
                                                                                
