 2010  7 7 0757 27.1 L   6.803 -73.052137.3  RSN  9 0.3 1.8LRSN                1
 GAP=169        0.58       3.2     6.1  5.7 -0.7533E+01  0.7596E+01  0.2981E+00E
 Epicentro: LOS SANTOS - SANTANDER                                             3
 ACTION:UPD 10-12-01 15:15 OP:pat  STATUS:               ID:20100707075727 L   I
 2010-07-07-0753-21S.COL___118                                                 6
 STAT SP IPHASW D HRMM SECON CODA AMPLIT PERI AZIMU VELO AIN AR TRES W  DIS CAZ7
 BAR2 SZ EP   1    757 45.77                             168     0.0 7   28 212 
 BAR2 SZ ES   2    758  0.52                             168     0.1 5   28 212 
 BRR  HZ EP   1    757 47.71                             148    -0.2 7   80 295 
 BRR  HE ES   2    758  4.45                             148     0.3 5   80 295 
 BRR  HZ I         758  9.02        16.3 0.10                            80 295 
 RUS  HZ EP   1    757 49.81                             142    -0.2 7  101 182 
 RUS  HN ES   2    758  7.79                             142    -0.1 5  101 182 
 RUS  HZ I         758 10.04         4.6 0.45                           101 182 
 GUE  SZ EP   1    757 50.91                             138     0.1 7  114   7 
 GRA  SZ EP   1    757 51.48                             136     0.2 7  123  13 
 GRA  SZ ES   2    758 10.74                             136     0.5 5  123  13 
 OCA  SZ EP   1    757 54.46                             127    -0.4 7  162 349 
 OCA  SZ ES   2    758 16.24                             127    -0.3 5  162 349 
 OCA  SZ I         758 22.41         7.6 0.35                           162 349 
 HEL  HZ EP   1    758  7.95                             112    -0.1 6  282 256 
 HEL  HZ I         758 44.82         3.3 0.49                           282 256 
 RREF HZ EP   1    758 14.59                             109     0.8 5  330 231 
 RREF HN ES   2    758 49.82                             109    -0.4 3  330 231 
 RREF HZ I         758 53.96         2.8 0.68                           330 231 
 PRA  HZ EP   1    758 21.44                             105     0.5 4  397 211 
 PRA  HN ES   2    759  2.71                             105    -0.3 3  397 211 
 PRA  HZ I         759 10.23         2.4 0.39                           397 211 
                                                                                
