 2014  4 7 0620 18.7 L   6.824 -73.139148.0  RSN  6 0.3 1.6LRSN                1
 GAP=202        0.76       2.5     6.6 10.2 -0.2441E+01 -0.3264E+02  0.4671E+01E
 Epicentro: LOS SANTOS - SANTANDER                                             3
 ACTION:UPD 14-05-13 23:06 OP:nd   STATUS:               ID:20140407062018 L   I
 OLDACT:DUP 14-04-07 18:29 OP:stll STATUS:               ID:20140407061808d    3
 2014-04-07-0618-06M.COL___250                                                 6
 STAT SP IPHASW D HRMM SECON CODA AMPLIT PERI AZIMU VELO AIN AR TRES W  DIS CAZ7
 PTB  HZ EP        620 45.53                             132   -0.4610  149 258 
 PTB  HN ES        621  7.35                             132    0.1010  149 258 
 OCA  HN ES        621  8.96                             131   -0.0610  158 353 
 SPBC HZ EP        620 47.58                             129   -0.0510  166 219 
 SPBC HZ I         620 48.56         7.2 0.20             47            166 219 
 SPBC HN ES        621 10.62                             129    0.4410  166 219 
 ZAR  HN ES        621 16.62                             123   -0.07 9  204 291 
 ZAR  HZ I         621 23.64         3.5 0.20             37            204 291 
 SML  HZ EP        620 55.68                             118    0.42 9  242 335 
 SML  HN ES        621 23.62                             118   -0.13 9  242 335 
 SML  HZ I         621 34.56         4.2 0.18             37            242 335 
 CHI  HZ EP        620 57.24                             117    0.40 8  251 195 
 CHI  HN ES        621 26.01                             117   -0.56 8  251 195 
 CHI  HZ I         621 41.58         1.0 0.24             37            251 195 
                                                                                
