 2013  3 7 0216 38.6 L   6.757 -73.143147.2  RSN 10 0.4 2.1LRSN                1
 GAP=139        1.07       4.4     4.7  6.7  0.2067E+01  0.6908E+01 -0.6913E+01E
 Epicentro: LOS SANTOS - SANTANDER                                             3
 ACTION:UPD 13-04-09 14:00 OP:ep   STATUS:               ID:20130307021638 L   I
 2013-03-07-0210-00M.COL___231                                                 6
 STAT SP IPHASW D HRMM SECON CODA AMPLIT PERI AZIMU VELO AIN AR TRES W  DIS CAZ7
 BAR2 SZ EP        216 58.18                             172   -0.1010 18.7 194 
 BAR2 SZ ES        217 13.39                             172   -0.2810 18.7 194 
 BAR2 SZ I         217 14.75        71.8 0.20            174           18.7 194 
 BRR  HZ EP        217  0.42                             152    0.4010 73.9 302 
 BRR  HN ES        217 17.39                             152    0.6310 73.9 302 
 BRR  HZ I         217 18.26        16.8 0.14            150           73.9 302 
 PAM  SZ IP     C  217  1.31                             150    0.1610 81.0  37 
 PAM  SZ I         217  1.73        53.4 0.22            150           81.0  37 
 PAM  SN ES        217 18.40                             150   -0.3610 81.0  37 
 RUS  HZ EP        217  2.52                             145    0.4010 95.8 176 
 RUS  HN ES        217 20.64                             145    0.1510 95.8 176 
 RUS  HZ I         217 22.21        12.8 0.36            148           95.8 176 
 PTB  HZ EP        217  5.25                             132   -0.35 9  147 261 
 PTB  HN ES        217 25.84                             132   -0.85 9  147 261 
 PTB  HZ I         217 30.66         8.0 0.13            133            147 261 
 OCA  HZ EP   2    217  6.62                             129   -0.82 5  165 353 
 OCA  HN ES   4    217 28.47                             129   -1.49 0  165 353 
 OCA  HZ I         217 33.34        11.4 0.26            129            165 353 
 ZAR  HZ EP        217 11.71                             122    0.39 8  206 293 
 ZAR  HN ES        217 37.18                             122    0.30 8  206 293 
 SML  HZ EP        217 15.10                             117   -0.66 8  248 336 
 SML  HN ES        217 44.97                             117    0.20 8  248 336 
 SML  HZ I         217 51.97        10.6 0.10            118            248 336 
 MARA HE E         213 36.61                                            533 216 
 MAP  HZ E         210 41.20                                            986 252 
                                                                                
