 2017  7 7 0238 10.7 L   6.800 -73.141140.0  RSN 20 0.5 2.4LRSN                1
 GAP=101        1.20       4.2     3.3  5.9  0.9507E+00  0.5052E+01  0.8074E+01E
 Epicentro: LOS SANTOS - SANTANDER                                             3
 ACTION:UPD 17-08-30 15:30 OP:rebc STATUS:               ID:20170707023810 L   I
 OLDACT:UP  17-07-07 15:40 OP:ar   STATUS:               ID:20170707022740     3
 OLDACT:UP  17-07-07 15:37 OP:ar   STATUS:               ID:20170707022740     3
 OLDACT:UP  17-07-07 15:37 OP:ar   STATUS:               ID:20170707022740     3
 OLDACT:UP  17-07-07 15:35 OP:ar   STATUS:               ID:20170707022740     3
 OLDACT:REG 17-07-07 12:58 OP:ar   STATUS:               ID:20170707022740     3
 2017-07-07-0228-00M.COL___374                                                 6
 STAT SP IPHASW D HRMM SECON CODA AMPLIT PERI AZIMU VELO AIN AR TRES W  DIS CAZ7
 BAR2 EZ EP     C  238 29.39                             170   -0.2210 23.5 191 
 BAR2 EZ ES        238 44.14                             170   -0.2410 23.5 191 
 BAR2 EZ I         238 45.09       102.0 0.16            165           23.5 191 
 BRR  HZ IP     C  238 31.33                             151    0.1110 71.6 298 
 BRR  HN ES        238 48.08                             151    0.8310 71.6 298 
 BRR  HZ I         238 49.29        44.9 0.16            154           71.6 298 
 PAM  EZ EP        238 32.43                             150    0.1810 77.0  39 
 PAM  EN ES        238 49.29                             150    0.2010 77.0  39 
 PAM  EZ I         238 51.33        66.0 0.50            154           77.0  39 
 PTB  HZ EP        238 36.31                             131   -0.91 9  148 259 
 PTB  HN ES        238 57.72                             131   -0.20 9  148 259 
 PTB  HZ I         238 59.40        20.3 0.22            131            148 259 
 TAM  HZ IP     D  238 37.75                             129   -0.10 9  155 105 
 SPBC HZ EP        238 38.35                             128   -0.41 9  164 219 
 SPBC HE ES        239  0.61                             128   -0.07 9  164 219 
 SPBC HZ I         239  2.56        39.2 0.22            127            164 219 
 YPLC HZ IP     D  238 39.81                             125   -0.22 9  177 151 
 YPLC HN ES        239  2.62                             125   -0.31 9  177 151 
 YPLC HZ I         239  6.14        54.5 0.24            125            177 151 
 ZAR  HZ EP   4    238 44.04                             121    1.25 0  204 292 
 ZAR  HN ES        239  8.28                             121    0.44 9  204 292 
 ZAR  HZ I         239 10.80        31.7 0.42            123            204 292 
 TABC EZ ES   4    239 18.60                             118    4.84 0  230 211 
 NOR  HZ EP        238 45.47                             117   -0.65 8  235 235 
 NOR  HE ES        239 13.87                             117    0.11 8  235 235 
 NOR  HZ I         239 18.29        16.2 0.52            118            235 235 
 ROSC BZ EP        238 49.67                             115    1.16 8  253 211 
 ROSC BN ES   4    239 21.70                             115    3.67 0  253 211 
 ROSC BZ I         239 25.75        15.2 0.50            116            253 211 
 HEL  HZ EP        238 51.57                             114    0.92 8  273 256 
 HEL  HE ES        239 21.20                             114   -0.63 8  273 256 
 HEL  HZ I         239 26.50        14.3 0.34            114            273 256 
 URE  HZ EP        238 50.82                             112   -0.69 7  284 292 
 URE  HN ES        239 22.35                             112   -1.02 7  284 292 
 URE  HZ I         239 23.34        25.2 0.14            114            284 292 
 GUY2CHZ EP   4    238 55.70                             111    1.64 0  302 235 
 GUY2CHE ES   4    239 31.26                             111    3.35 0  302 235 
 GUY2CHZ I         239 34.20        12.0 0.24                           302 235 
 VIL  EZ EP        238 54.28                             111    0.43 7  304 192 
 PTGC HZ EP   4    238 52.62                             111   -1.64 0  309 159 
 PTGC HN ES   4    239 25.80                             111   -2.46 0  309 159 
 PTGC HZ I         239 40.75        20.9 0.30            111            309 159 
 CBOC HZ EP        238 57.91                             109    0.51 7  334 252 
 CBOC HN ES        239 34.26                             109    0.40 7  334 252 
 CBOC HZ I         239 36.01         4.8 0.22            110            334 252 
 DBB  EZ EP        238 58.20                             108    0.23 7  340 274 
 DBB  EN ES   4    239 33.39                             108   -1.48 0  340 274 
 DBB  EZ I         239 36.75        10.9 0.46            109            340 274 
 ORTC HZ EP        239  4.72                             105    0.29 6  396 216 
 ORTC HN ES        239 47.63                             105    1.26 6  396 216 
 ORTC HZ I         239 51.06         6.0 0.36            106            396 216 
 PAL  HZ EP        239  5.47                             105   -0.22 6  406 239 
 PAL  HN ES        239 48.43                             105   -0.18 6  406 239 
 PAL  HZ I         239 54.21         6.4 0.34            106            406 239 
 SJC  HZ EP   4    239  4.31                             105   -1.76 0  409 327 
 SJC  HN ES   4    239 45.66                             105   -3.63 0  409 327 
 SJC  HZ I         239 46.48         3.4 0.42            106            409 327 
                                                                                
