 2017  5 7 0615 51.7 L   6.788 -73.112145.7  RSN 14 0.4 2.3LRSN                1
 GAP=115        0.86       3.1     3.0  4.9  0.1181E+01  0.4064E+01  0.2408E+01E
 Epicentro: LOS SANTOS - SANTANDER                                             3
 ACTION:UPD 17-06-16 13:33 OP:jn   STATUS:               ID:20170507061551 L   I
 OLDACT:UP  17-05-07 16:06 OP:ar   STATUS:               ID:20170507060742     3
 OLDACT:REG 17-05-07 13:29 OP:ar   STATUS:               ID:20170507060742     3
 2017-05-07-0608-00M.COL___361                                                 6
 STAT SP IPHASW D HRMM SECON CODA AMPLIT PERI AZIMU VELO AIN AR TRES W  DIS CAZ7
 BRR  HZ IP     C  616 12.97                             151   -0.0910 75.1 298 
 BRR  HE ES        616 30.18                             151    0.4610 75.1 298 
 BRR  HZ I         616 33.21        41.5 0.18            148           75.1 298 
 PAM  EZ IP     C  616 13.90                             151    0.0810 76.1  37 
 PAM  EE ES        616 31.24                             151    0.1510 76.1  37 
 PAM  EZ I         616 32.00        21.4 0.20            160           76.1  37 
 RUS  HZ EP        616 14.99                             144   -0.3410 99.1 178 
 RUS  HE ES        616 33.36                             144   -0.4010 99.1 178 
 RUS  HZ I         616 33.99        22.1 0.46            142           99.1 178 
 PTB  HZ EP   9    616 17.85                             131   -1.11 0  151 260 
 PTB  HN ES        616 38.78                             130   -0.34 9  151 260 
 PTB  HZ I         616 45.09        21.7 0.48            129            151 260 
 SPBC HZ EP        616 20.05                             129   -0.26 9  165 220 
 SPBC HE ES        616 42.25                             129   -0.38 9  165 220 
 SPBC HZ I         616 44.55        33.6 0.24            127            165 220 
 YPLC HZ EP        616 21.31                             127    0.12 9  174 152 
 YPLC HE ES        616 44.53                             127    0.33 9  174 152 
 YPLC HZ I         616 47.47        16.6 0.28            128            174 152 
 ZAR  HZ EP        616 23.95                             122   -0.59 8  208 292 
 ZAR  HN ES        616 49.91                             122   -0.25 8  208 292 
 ZAR  HZ I         616 54.94        42.9 0.36            122            208 292 
 TABC EZ EP   4    616 28.95                             119    1.43 0  231 212 
 TABC EZ ES   4    616 58.76                             119    3.30 0  231 212 
 TABC EZ I         617  0.23        25.4 0.76            118            231 212 
 NOR  HZ EP        616 27.58                             118   -0.08 8  237 235 
 NOR  HE ES   4    616 53.95                             118   -1.76 0  237 235 
 NOR  HZ I         617  1.00        20.1 0.38            117            237 235 
 ROSC BZ EP   4    616 32.50                             116    2.61 0  254 212 
 ROSC BN ES   4    617  2.81                             116    3.12 0  254 212 
 ROSC BZ I         617  8.49        15.8 0.30            116            254 212 
 HEL  HZ EP        616 32.82                             114    0.56 7  275 256 
 HEL  HN ES        617  3.95                             114    0.04 7  275 256 
 HEL  HZ I         617  9.85        17.8 0.74            114            275 256 
 ELA  HZ EP   4    616 40.55                             110    1.79 0  331 230 
 ELA  HE ES        617 16.45                             110    0.97 7  331 230 
 ELA  HZ I         617 32.19         8.2 0.64            110            331 230 
 CBOC HZ EP        616 39.08                             110    0.12 7  337 253 
 CBOC HE ES   4    617 13.91                             110   -1.92 0  337 253 
 CBOC HZ I         617 27.62         5.9 0.68            110            337 253 
 DBB  EZ EP        616 39.92                             109    0.32 7  343 274 
 DBB  EN ES   4    617 18.75                             109    1.78 0  343 274 
 DBB  EZ I         617 19.17         5.3 0.24            110            343 274 
                                                                                
