 2012  8 7 0808 48.4 L   6.760 -73.129144.2  RSN  5 0.4 1.3LRSN                1
 GAP=140        0.80       5.5     5.4  7.3 -0.2327E+01  0.7793E+01  0.6909E+00E
 Epicentro: LOS SANTOS - SANTANDER                                             3
 ACTION:UPD 12-09-10 11:55 OP:ep   STATUS:               ID:20120807080848 L   I
 2012-08-07-0800-00M.COL___216                                                 6
 STAT SP IPHASW D HRMM SECON CODA AMPLIT PERI AZIMU VELO AIN AR TRES W  DIS CAZ7
 BAR2 SZ EP        8 9  7.68                             172   -0.1010 19.4 198 
 BAR2 SZ ES   1    8 9 22.32                             172   -0.57 7 19.4 198 
 BAR2 SZ I         8 9 25.98         3.9 0.30                          19.4 198 
 BRR  HZ EP        8 9 10.00                             151    0.3910 75.0 301 
 BRR  HZ I         8 9 19.29         5.5 0.13                          75.0 301 
 BRR  HN ES   1    8 9 26.71                             151    0.57 7 75.0 301 
 PAM  SZ EP   1    8 9 10.60                             150    0.00 7 79.8  36 
 PAM  SN ES   1    8 9 27.68                             150   -0.23 7 79.8  36 
 RUS  HZ EP   1    8 9 11.86                             145    0.18 7 96.0 177 
 RUS  HN ES   1    8 9 30.25                             145    0.42 7 96.0 177 
 PTB  HZ EP        8 9 14.92                             131   -0.42 9  149 261 
 PTB  HN ES   1    8 9 36.08                             131   -0.27 7  149 261 
 PTB  HZ I         8 9 37.58         1.9 0.35                           149 261 
                                                                                
