 2013  9 7 0709 27.5 L   6.274 -73.620112.2  RSN  8 0.4 1.7LRSN                1
 GAP= 71        1.04       3.5     4.5  8.9 -0.3138E+00  0.1822E+02  0.6069E+01E
 Epicentro: SANTA HELENA DEL OPON - SANTANDER                                  3
 ACTION:UPD 13-10-22 09:20 OP:ep   STATUS:               ID:20130907070927 L   I
 OLDACT:UP  13-09-07 14:51 OP:cam  STATUS:               ID:20130907070842     3
 OLDACT:UP  13-09-07 14:50 OP:cam  STATUS:               ID:20130907070842     3
 OLDACT:REG 13-09-07 14:24 OP:cam  STATUS:               ID:20130907070842     3
 2013-09-07-0708-42M.COL___245                                                 6
 STAT SP IPHASW D HRMM SECON CODA AMPLIT PERI AZIMU VELO AIN AR TRES W  DIS CAZ7
 BAR2 SZ ES        7 9 58.11                             150   -0.1110 59.8  54 
 BAR2 SZ I         7 9 59.48        47.7 0.58            150           59.8  54 
 RUS  HZ EP        7 9 45.83                             145   -0.1710 72.9 125 
 RUS  HN ES        710  0.56                             145    0.1710 72.9 125 
 RUS  HZ I         710  1.13         5.1 0.18            141           72.9 125 
 SPBC HZ EP        7 9 46.28                             140   -0.0610 85.1 216 
 SPBC HZ I         710  6.20         9.3 0.30                          85.1 216 
 BRR  HZ EP     C  7 9 47.04                             137    0.2210 92.7 354 
 BRR  HZ I         7 9 47.37        10.4 0.16                          92.7 354 
 BRR  HN ES   1    710  2.62                             137    0.76 7 92.7 354 
 PTB  HZ EP        7 9 46.55                             136   -0.6710 97.1 288 
 PTB  HN ES   1    710  1.71                             136   -0.85 7 97.1 288 
 PTB  HZ I         710  4.61        17.1 0.12                          97.1 288 
 NOR  HZ EP        7 9 53.72                             121    0.49 9  159 240 
 NOR  HN ES        710 13.91                             121    0.64 9  159 240 
 NOR  HZ I         710 15.22        12.9 0.20            116            159 240 
 CHI  HZ EP   1    7 9 56.20                             117    0.03 7  182 184 
 CHI  HN ES        710 18.18                             117   -0.32 9  182 184 
 CHI  HZ I         710 21.61         2.5 0.36            113            182 184 
 OCA  HN ES   1    710 25.20                             112   -0.13 6  220   9 
 OCA  HZ I         710 27.33         5.2 0.48            109            220   9 
                                                                                
