 2016  3 7 0756 43.2 L   6.827 -73.199143.5  RSN  4 0.1 1.2LRSN                1
 GAP=147        0.39       2.2     2.2  3.8 -0.2095E+01  0.2326E+01 -0.1548E+00E
 Epicentro: ZAPATOCA - SANTANDER                                               3
 ACTION:UPD 16-05-13 21:22 OP:cam  STATUS:               ID:20160307075643 L   I
 OLDACT:DUP 16-03-07 18:24 OP:cara STATUS:               ID:20160307074750d    3
 2016-03-07-0747-49M.COL___318                                                 6
 STAT SP IPHASW D HRMM SECON CODA AMPLIT PERI AZIMU VELO AIN AR TRES W  DIS CAZ7
 PAM  EZ EP        757  5.29                             150    0.0410 79.1  44 
 PAM  EZ ES        757 22.48                             150    0.0210 79.1  44 
 PAM  EZ I         757 24.33         2.8 0.54            153           79.1  44 
 RUS  HZ EP        757  7.02                             142    0.0610  104 173 
 RUS  HN ES        757 25.40                             142   -0.1210  104 173 
 RUS  HZ I         757 26.93         1.7 0.30            145            104 173 
 PTB  HZ EP        757  9.52                             133    0.03 9  143 257 
 PTB  HN ES        757 29.92                             133   -0.09 9  143 257 
 PTB  HZ I         757 32.72         2.2 0.50            134            143 257 
 SPBC HZ EP        757 11.20                             129   -0.18 9  162 217 
 SPBC HN ES        757 33.62                             129    0.24 9  162 217 
 SPBC HZ I         757 36.27         2.8 0.22            131            162 217 
                                                                                
