 2013  6 7 0027 57.8 L   6.800 -73.166146.0  RSN 11 0.4 2.2LRSN                1
 GAP=134        0.83       4.0     4.2  7.3 -0.2501E+01  0.2934E+00  0.8785E+01E
 Epicentro: LOS SANTOS - SANTANDER                                             3
 ACTION:UPD 14-01-08 09:53 OP:ep   STATUS:               ID:20130607002757 L   I
 OLDACT:REG 13-06-07 12:43 OP:mh   STATUS:               ID:20130607002750     3
 2013-06-07-0027-50M.COL___232                                                 6
 STAT SP IPHASW D HRMM SECON CODA AMPLIT PERI AZIMU VELO AIN AR TRES W  DIS CAZ7
 BAR2 SZ EP   1    028 17.46                             171   -0.02 7 23.1 184 
 GIR2 SZ EP   1    028 17.49                             168   -0.03 7 30.9 354 
 BRR  HZ IP        028 19.31                             153    0.4210 69.2 299 
 BRR  HN ES        028 35.89                             153    0.5710 69.2 299 
 BRR  HN I         028 39.35        26.4 0.22            150           69.2 299 
 PAM  SZ EP        028 19.85                             151   -0.3010 78.8  41 
 PAM  SN ES   2    028 37.33                             151   -0.24 5 78.8  41 
 PAM  SN I         028 38.37        29.4 0.46            155           78.8  41 
 RUS  HZ EP   1    028 21.58                             144   -0.04 7  101 175 
 RUS  HN ES   2    028 39.68                             144   -0.49 5  101 175 
 RUS  HN I         028 41.68        11.3 0.22            146            101 175 
 PTB  HZ EP   1    028 24.12                             133   -0.49 7  146 259 
 PTB  HN ES   2    028 45.12                             133   -0.38 5  146 259 
 PTB  HN I         028 51.03        29.5 0.50            131            146 259 
 ZAR  HN ES        028 54.95                             123   -0.27 9  202 292 
 ZAR  HN I         028 58.36        16.3 0.14            122            202 292 
 NOR  HZ EP   1    028 33.04                             119   -0.33 6  233 234 
 NOR  HN ES        029  0.62                             119   -0.48 8  233 234 
 NOR  HN I         029  5.86        20.1 0.16            119            233 234 
 SML  HZ EP   1    028 34.46                             118    0.10 6  243 336 
 SML  HN ES   2    029  2.67                             118   -0.18 4  243 336 
 SML  HN I         029  8.38        28.3 0.30            119            243 336 
 HEL  HN ES   4    029 12.05                             115    3.06 0  270 256 
 HEL  HN I         029 17.18         3.8 0.58            115            270 256 
 PRA  HZ EP   1    028 52.38                             107    1.15 4  391 209 
 PRA  HN ES        029 33.67                             107    0.79 6  391 209 
 PRA  HN I         029 38.90         1.6 0.46            108            391 209 
                                                                                
