 2013  5 7 0133 46.6 L   6.880 -73.190142.0  RSN  4 0.5 1.5LRSN                1
 GAP=198        0.78       6.2     6.7 15.2  0.4625E+01 -0.4744E+01 -0.6295E+02E
 Epicentro: BETULIA - SANTANDER                                                3
 ACTION:UPD 13-06-20 09:48 OP:ep   STATUS:               ID:20130507013346 L   I
 2013-05-07-0130-00M.COL___256                                                 6
 STAT SP IPHASW D HRMM SECON CODA AMPLIT PERI AZIMU VELO AIN AR TRES W  DIS CAZ7
 RUS  HZ EP   1    134 10.56                             140   -0.16 9  110 174 
 RUS  HN ES   1    134 29.70                             140    0.20 9  110 174 
 PTB  HZ EP   1    134 13.02                             131   -0.02 9  145 255 
 PTB  HN ES   1    134 32.96                             131   -0.67 9  145 255 
 PTB  HZ I         134 41.50         3.1 0.30            135            145 255 
 SML  HZ EP        134 21.83                             117   -0.1210  234 335 
 SML  HN ES   2    134 50.44                             117    0.94 5  234 335 
 SML  HZ I         134 56.22         3.4 0.10            122            234 335 
 NOR  HN ES   1    134 50.77                             117    0.66 7  236 232 
 NOR  HZ I         134 53.95         2.0 0.24            124            236 232 
                                                                                
