 2015 10 7 0418 27.6 L   6.812 -73.117144.0  RSN 11 0.4 1.8LRSN                1
 GAP=140        0.90       3.2     4.3  5.8 -0.1535E+01  0.8660E+01  0.4028E+01E
 Epicentro: LOS SANTOS - SANTANDER                                             3
 ACTION:UPD 15-12-22 20:37 OP:cam  STATUS:               ID:20151007041827 L   I
 OLDACT:REG 15-10-07 12:39 OP:spq  STATUS:               ID:20151007040748     3
 2015-10-07-0407-48M.COL___346                                                 6
 STAT SP IPHASW D HRMM SECON CODA AMPLIT PERI AZIMU VELO AIN AR TRES W  DIS CAZ7
 BAR2 EZ EP        418 46.88                             170   -0.1910 25.3 197 
 BAR2 EZ ES   1    419  1.85                             170   -0.39 7 25.3 197 
 BAR2 EZ I         419  2.88        10.5 0.18            168           25.3 197 
 BRR  HZ EP     C  418 48.80                             152    0.1110 73.4 296 
 BRR  HN ES        419  5.79                             152    0.6510 73.4 296 
 BRR  HZ I         419  8.90        11.5 0.12            149           73.4 296 
 PAM  EN ES        419  6.98                             152    0.4810 74.4  38 
 PAM  EZ I         419  9.16        11.1 0.60            155           74.4  38 
 RUS  HZ EP   1    418 51.47                             143    0.20 7  102 178 
 RUS  HN ES   1    419  9.48                             143   -0.24 7  102 178 
 OCA  HZ EP        418 55.31                             130   -0.39 9  159 352 
 OCA  HE ES        419 16.92                             130   -0.69 9  159 352 
 OCA  HZ I         419 20.39        13.6 0.28            131            159 352 
 ZAR  HZ EP   1    419  0.31                             122    0.12 6  207 291 
 ZAR  HN ES        419 25.93                             122    0.32 8  207 291 
 ZAR  HZ I         419 31.74         9.4 0.36            122            207 291 
 NOR  HZ EP        419  3.39                             118   -0.20 8  238 235 
 NOR  HN ES        419 31.08                             118   -0.58 8  238 235 
 NOR  HZ I         419 36.24         4.3 0.12            118            238 235 
 SML  HE ES   2    419 32.48                             117   -0.18 4  244 334 
 SML  HZ I         419 36.20         9.0 0.10            118            244 334 
 CHI  HZ EP        419  5.65                             117    0.22 8  251 196 
 CHI  HE ES   4    419 36.03                             117    1.09 0  251 196 
 CHI  HZ I         419 40.34         1.6 0.38            118            251 196 
 HEL  HE ES   1    419 39.37                             114   -0.33 6  275 256 
 HEL  HZ I         419 46.63         2.8 0.38            115            275 256 
 GUY2CHZ EP        419 12.08                             112    0.57 7  305 235 
 GUY2CHE ES   1    419 45.84                             112    0.08 5  305 235 
 GUY2CHZ I         419 53.52         3.8 0.48                           305 235 
                                                                                
