 2016  7 7 0928  3.8 L   6.681 -73.174148.8  RSN  6 0.2 1.6LRSN                1
 GAP=237        0.75       8.4     4.8  6.4  0.1142E+02  0.2697E+01 -0.1851E+01E
 Epicentro: VILLANUEVA - SANTANDER                                             3
 ACTION:UPD 17-03-29 16:47 OP:lp   STATUS:               ID:20160707092803 L   I
 OLDACT:UP  16-07-07 18:58 OP:dani STATUS:               ID:20160707091745d    3
 OLDACT:UP  16-07-07 18:58 OP:dani STATUS:               ID:20160707091745d    3
 OLDACT:UP  16-07-07 18:57 OP:dani STATUS:               ID:20160707091745d    3
 OLDACT:UP  16-07-07 18:56 OP:dani STATUS:               ID:20160707091745d    3
 OLDACT:DUP 16-07-07 18:53 OP:dani STATUS:               ID:20160707091745d    3
 OLDACT:UP  16-07-07 18:53 OP:dani STATUS:               ID:20160707091744     3
 OLDACT:UP  16-07-07 18:52 OP:dani STATUS:               ID:20160707091744     3
 OLDACT:UP  16-07-07 18:51 OP:dani STATUS:               ID:20160707091744     3
 OLDACT:UP  16-07-07 18:49 OP:dani STATUS:               ID:20160707091744     3
 OLDACT:REG 16-07-07 13:38 OP:dani STATUS:               ID:20160707091744     3
 2016-07-07-0917-44M.COL___316                                                 6
 STAT SP IPHASW D HRMM SECON CODA AMPLIT PERI AZIMU VELO AIN AR TRES W  DIS CAZ7
 BAR2 EZ EP        928 23.61                             176    0.0510 9.82 185 
 BAR2 EZ ES        928 38.96                             176   -0.0410 9.82 185 
 BAR2 EZ I         928 41.31         6.6 0.26            164           9.82 185 
 BRR  HZ EP        928 25.54                             152    0.0410 75.9 308 
 BRR  HE ES        928 42.72                             152    0.2710 75.9 308 
 BRR  HZ I         928 47.78         5.2 0.14            148           75.9 308 
 PTB  HZ EP        928 30.51                             134   -0.01 9  143 264 
 PTB  HN ES        928 51.30                             134   -0.09 9  143 264 
 PTB  HZ I         928 59.21         4.9 0.32            129            143 264 
 ZAR  HZ EP   4    928 38.81                             123    2.15 0  207 296 
 ZAR  HE ES        929  1.99                             123   -0.33 8  207 296 
 ZAR  HZ I         929  8.12         4.3 0.52            122            207 296 
 HEL  HZ EP   9    928 47.44                             116    3.98 0  266 258 
 HEL  HN ES        929 19.28                             110    0.87 8  266 258 
 HEL  HZ I         929 22.10         2.3 0.48            115            266 258 
 PRA  HZ EP   4    928 58.17                             108    2.30 0  379 210 
 PRA  HN ES   4    929 40.83                             108    4.32 0  379 210 
 PRA  HZ I         929 45.09         1.6 0.62            107            379 210 
                                                                                
