 2014 10 7 0028 44.9 L   6.604 -73.531109.0  RSN  4 0.4 1.4LRSN                1
 GAP=204        0.92       7.7     6.4 13.5  0.3564E+02 -0.1332E+02 -0.3980E+02E
 Epicentro: EL CARMEN - SANTANDER                                              3
 ACTION:UPD 14-11-29 23:47 OP:nd   STATUS:               ID:20141007002844 L   I
 OLDACT:REG 14-10-07 12:40 OP:fm   STATUS:               ID:20141007001744     3
 2014-10-07-0017-44M.COL___286                                                 6
 STAT SP IPHASW D HRMM SECON CODA AMPLIT PERI AZIMU VELO AIN AR TRES W  DIS CAZ7
 RUS  HZ EP   1    029  3.96                             137   -0.67 7 93.0 148 
 RUS  HE ES        029 20.27                             137    0.2810 93.0 148 
 RUS  HZ I         029 22.37         3.1 0.40            144           93.0 148 
 PTB  HZ EP        029  4.92                             133    0.1110  103 266 
 PTB  HN ES        029 19.78                             133   -0.5310  103 266 
 PTB  HZ I         029 24.72         4.6 0.38            136            103 266 
 SPBC HZ EP   1    029  6.62                             128   -0.00 7  121 210 
 SPBC HN ES   1    029 23.89                             128    0.35 7  121 210 
 SPBC HZ I         029 29.34         6.5 0.24            133            121 210 
 ZAR  HN ES        029 33.96                             117    0.43 9  177 304 
 ZAR  HZ I         029 40.48         4.4 0.24            121            177 304 
                                                                                
