 2015  3 7 0932 40.9 L   6.743 -73.165152.0  RSN  5 0.3 1.1LRSN                1
 GAP=231        0.61       4.4     5.2  5.9  0.5561E+01  0.8467E+00  0.9836E+00E
 Epicentro: LOS SANTOS - SANTANDER                                             3
 ACTION:UPD 15-04-30 16:24 OP:nd   STATUS:               ID:20150307093240 L   I
 OLDACT:REG 15-03-07 13:50 OP:spq  STATUS:               ID:20150307092740     3
 2015-03-07-0927-40M.COL___284                                                 6
 STAT SP IPHASW D HRMM SECON CODA AMPLIT PERI AZIMU VELO AIN AR TRES W  DIS CAZ7
 BAR2 EZ EP   1    933  0.94                             173   -0.22 7 16.8 186 
 BAR2 EZ ES   1    933 16.91                             173   -0.06 7 16.8 186 
 BAR2 EZ I         933 18.75         2.5 0.54            170           16.8 186 
 BRR  HZ EP        933  2.79                             153    0.0010 72.6 304 
 BRR  HN ES        933 20.10                             153    0.2310 72.6 304 
 BRR  HZ I         933 20.52         4.4 0.40            154           72.6 304 
 RUS  HZ EP   1    933  5.17                             147    0.33 7 94.5 174 
 RUS  HE ES   1    933 23.24                             147   -0.28 7 94.5 174 
 RUS  HZ I         933 24.93         1.7 0.42            146           94.5 174 
 PTB  HZ EP   1    933  7.86                             134   -0.23 7  145 261 
 PTB  HN ES   1    933 28.87                             134   -0.43 7  145 261 
 PTB  HZ I         933 30.56         0.9 0.18            134            145 261 
 SPBC HN ES   1    933 31.93                             132    0.47 7  157 220 
 SPBC HZ I         933 34.62         2.5 0.24            131            157 220 
                                                                                
