 2012  4 7 0143 54.1 L   6.805 -73.161136.0  RSN 15 0.4 2.8LRSN                1
 GAP=112        0.90       3.0     4.3  6.2 -0.1095E+01  0.8718E+01  0.2808E+01E
 Epicentro: LOS SANTOS - SANTANDER                                             3
 ACTION:UPD 12-07-05 11:51 OP:tino STATUS:               ID:20120407014354 L   I
 2012-04-07-0140-00M.COL___196                                                 6
 STAT SP IPHASW D HRMM SECON CODA AMPLIT PERI AZIMU VELO AIN AR TRES W  DIS CAZ7
 BAR2 SZ EP        144 12.67                             170     0.210   24 186 
 BAR2 SZ ES   1    144 26.73                             170    -0.2 7   24 186 
 BAR2 SZ I         144 29.11       146.5 0.25                            24 186 
 BRR  HZ IP     C  144 14.41                             151     0.410   69 299 
 BRR  HZ I         144 34.50       123.8 0.12                            69 299 
 PAM  SZ EP        144 15.35                             149     0.110   78  41 
 PAM  SZ I         144 15.68       156.2 0.14                            78  41 
 PAM  SN ES   1    144 32.12                             149     0.3 7   78  41 
 RUS  HZ EP   1    144 16.75                             142    -0.2 7  101 175 
 RUS  HN ES   1    144 34.76                             142     0.0 7  101 175 
 RUS  HZ I         144 36.98        50.7 0.27                           101 175 
 PTB  HZ EP        144 19.42                             130    -0.7 9  146 258 
 PTB  HN ES   1    144 40.21                             130    -0.2 7  146 258 
 PTB  HZ I         144 42.84        48.5 0.12                           146 258 
 OCA  SZ EP        144 20.93                             128    -0.6 9  159 354 
 OCA  SZ ES   1    144 43.37                             128     0.4 7  159 354 
 YOP  SZ EP   1    144 23.51                             124     0.0 7  180 153 
 YOP  SZ I         144 24.33        36.0 0.16                           180 153 
 ZAR  HZ EP   1    144 25.27                             120    -0.4 6  202 292 
 ZAR  HE ES   1    144 50.45                             120     0.1 6  202 292 
 ZAR  HZ I         144 56.49        85.7 0.28                           202 292 
 NOR  SZ EP   1    144 29.17                             117     0.1 6  234 234 
 NOR  SN ES   1    144 56.37                             117    -0.1 6  234 234 
 CHI  HZ EP   1    144 31.04                             115    -0.2 6  249 195 
 CHI  HN ES   1    145  0.32                             115     0.1 6  249 195 
 CHI  HZ I         145  7.49        33.4 0.58                           249 195 
 HEL  HZ EP   1    144 34.26                             113     0.6 6  271 256 
 HEL  HZ I         145 12.16        39.9 0.58                           271 256 
 GUY  SZ EP   1    144 38.04                             110     0.7 5  302 235 
 GUY  SZ I         145 20.58        31.7 0.39                           302 235 
 VIL  SZ EP   1    144 36.69                             110    -0.4 5  304 191 
 VIL  SN ES   1    145 10.57                             110    -0.1 5  304 191 
 VIL  SZ I         145 21.55        48.4 0.42                           304 191 
 DBB  SZ EP   1    144 41.95                             108     1.0 5  338 274 
 PRA  HZ EP   1    144 47.14                             105    -0.1 4  392 209 
 PRA  HN ES   1    145 29.57                             105     0.9 4  392 209 
                                                                                
