 2010  3 7 0111 30.7 L   6.825 -72.954153.1  RSN  6 0.5 2.1LRSN                1
 GAP=317        0.82      11.9    12.6 12.0 -0.2198E+02  0.6699E+02  0.5031E+02E
 Epicentro: CEPITA - SANTANDER                                                 3
 ACTION:UP  10-08-24 09:52 OP:vdl  STATUS:               ID:20100307011130 L   I
 2010-03-07-0109-38S.COL___101                                                 6
 STAT SP IPHASW D HRMM SECON CODA AMPLIT PERI AZIMU VELO SNR AR TRES W  DIS CAZ7
 BAR2 SZ ES   1    112  7.32                             166    -0.4 8   36 225 
 RUS  BZ EP   1    111 55.53                             144     0.1 7  104 188 
 RUS  BN ES        112 14.90                             144     0.210  104 188 
 RUS  BZ I         112 15.83        14.3 0.44                           104 188 
 CHI  HN ES   1    112 40.02                             117    -0.2 6  258 200 
 CHI  HZ I         112 45.08         3.7 0.74                           258 200 
 RREF BN ES   1    112 57.78                             111     0.7 5  340 231 
 RREF BZ I         113  2.28         3.8 0.26                           340 231 
 TOL  SZ ES   2    113  0.31                             109    -0.3 3  361 227 
 PRA  HN ES   2    113  8.01                             107    -1.1 3  405 212 
 PRA  HZ I         113 13.65         9.2 0.58                           405 212 
                                                                                
