 2016  6 7 0625 44.7 L   6.695 -73.441140.3  RSN  5 0.6 1.7LRSN                1
 GAP=107        1.60       8.6    14.4 16.9 -0.6898E+02 -0.9617E+02  0.1714E+02E
 Epicentro: EL CARMEN - SANTANDER                                              3
 ACTION:UPD 16-07-21 22:16 OP:rebc STATUS:               ID:20160607062544 L   I
 OLDACT:UP  16-06-07 18:22 OP:dani STATUS:               ID:20160607061742     3
 OLDACT:REG 16-06-07 13:17 OP:dani STATUS:               ID:20160607061742     3
 2016-06-07-0617-42M.COL___316                                                 6
 STAT SP IPHASW D HRMM SECON CODA AMPLIT PERI AZIMU VELO AIN AR TRES W  DIS CAZ7
 BAR2 EZ EP        626  2.74                             167   -1.1010 30.8 112 
 BAR2 EZ I         626 17.24         9.8 0.30                          30.8 112 
 BRR  HZ IP     C  626  4.79                             158    0.4210 54.5 327 
 BRR  HE ES        626 19.99                             158    0.2710 54.5 327 
 BRR  HZ I         626 20.40        16.2 0.12                          54.5 327 
 PTB  HZ EP        626  8.03                             139   -0.2110  114 261 
 PTB  HE ES        626 25.88                             139   -0.7310  114 261 
 PTB  HZ I         626 31.06         4.0 0.44                           114 261 
 SPBC HZ ES        626 30.93                             134    0.9310  135 211 
 OCA  HZ EP        626 14.17                             126    0.53 9  171   5 
 OCA  HE ES        626 36.28                             126    0.05 9  171   5 
 OCA  HZ I         626 41.19        13.5 0.38                           171   5 
                                                                                
