 2014  7 7 0832  0.4 L   6.796 -73.163137.6  RSN  7 0.4 1.3LRSN                1
 GAP=134        1.04       3.6     4.6  7.6 -0.2477E+01  0.1354E+02 -0.2410E+01E
 Epicentro: LOS SANTOS - SANTANDER                                             3
 ACTION:UPD 15-03-16 20:41 OP:nd   STATUS:               ID:20140707083200 L   I
 OLDACT:DUP 14-07-07 18:33 OP:stll STATUS:               ID:20140707082816d    3
 2014-07-07-0828-15M.COL___253                                                 6
 STAT SP IPHASW D HRMM SECON CODA AMPLIT PERI AZIMU VELO AIN AR TRES W  DIS CAZ7
 BAR2 SZ EP        832 18.89                             170   -0.1510 22.7 185 
 BAR2 SZ ES        832 33.30                             170   -0.2710 22.7 185 
 BAR2 SZ I         832 36.90         4.0 0.38            170           22.7 185 
 PAM  SZ EP        832 21.89                             149    0.0410 78.9  40 
 PAM  SN ES        832 38.65                             149    0.0710 78.9  40 
 PAM  SZ I         832 41.17         5.1 0.56            153           78.9  40 
 RUS  HZ EP        832 23.44                             142    0.1010  100 175 
 RUS  HN ES        832 41.73                             142    0.5010  100 175 
 RUS  HZ I         832 42.76         2.3 0.18            145            100 175 
 PTB  HZ EP        832 26.87                             130    0.34 9  146 259 
 PTB  HN ES        832 47.08                             130    0.17 9  146 259 
 PTB  HZ I         832 49.29         2.9 0.14            133            146 259 
 OCA  HN ES        832 49.53                             128   -0.19 9  160 354 
 SPBC HZ EP        832 27.06                             127   -1.08 9  162 219 
 SPBC HN ES        832 49.71                             127   -0.06 9  162 219 
 SPBC HZ I         832 55.02         4.4 0.18            130            162 219 
 ZAR  HZ EP        832 32.89                             121    0.73 9  202 292 
 ZAR  HN ES        832 56.73                             121   -0.19 9  202 292 
 ZAR  HZ I         832 59.10         2.0 0.10            123            202 292 
                                                                                
