 2014 11 7 0825 20.0 L   6.622 -72.893  4.0  RSN  5 0.4 1.6LRSN                1
 GAP=180        1.08       2.5     3.6  6.8 -0.2026E+01  0.4254E+01 -0.1798E+01E
 Epicentro: MOLAGAVITA - SANTANDER                                             3
 ACTION:UPD 14-12-19 15:40 OP:nd   STATUS:               ID:20141107082520 L   I
 OLDACT:DUP 14-11-07 17:05 OP:cam  STATUS:               ID:20141107081816d    3
 OLDACT:UP  14-11-07 17:05 OP:cam  STATUS:               ID:20141107081815     3
 OLDACT:REG 14-11-07 13:01 OP:cam  STATUS:               ID:20141107081815     3
 2014-11-07-0818-15M.COL___292                                                 6
 STAT SP IPHASW D HRMM SECON CODA AMPLIT PERI AZIMU VELO AIN AR TRES W  DIS CAZ7
 BAR2 SZ IP     C  825 25.04                              47   -0.6910 32.1 264 
 BAR2 SZ I         825 28.89       131.6 0.26             93           32.1 264 
 PAM  SZ EP        825 33.83                              47    0.2610 82.2  15 
 PAM  SN ES        825 43.90                              47   -0.2310 82.2  15 
 PAM  SZ I         825 44.67        13.5 0.18             91           82.2  15 
 RUS  HZ EP        825 34.22                              47    0.4710 83.4 195 
 RUS  HN ES        825 44.17                              47   -0.2910 83.4 195 
 RUS  HZ I         825 45.38        16.7 0.18             91           83.4 195 
 BRR  HZ EP        825 36.21                              47   -0.3410  105 301 
 BRR  HN ES        825 49.70                              47    0.2610  105 301 
 BRR  HZ I         825 51.16         9.1 0.28             91            105 301 
 PTB  HZ EP        825 47.57                              47    0.71 9  173 267 
 PTB  HN ES        826  7.78                              47   -0.01 9  173 267 
 PTB  HZ I         826  9.54        15.2 0.54             56            173 267 
                                                                                
