 2015 10 7 0239 48.8 L   6.802 -73.136147.7  RSN 12 0.4 1.9LRSN                1
 GAP=138        0.92       2.7     3.8  5.8 -0.7295E+00  0.6130E+01  0.1251E+01E
 Epicentro: LOS SANTOS - SANTANDER                                             3
 ACTION:UPD 15-12-22 20:37 OP:cam  STATUS:               ID:20151007023948 L   I
 OLDACT:REG 15-10-07 12:34 OP:spq  STATUS:               ID:20151007023748     3
 2015-10-07-0237-48M.COL___346                                                 6
 STAT SP IPHASW D HRMM SECON CODA AMPLIT PERI AZIMU VELO AIN AR TRES W  DIS CAZ7
 BAR2 EZ EP     C  240  8.57                             170   -0.0610 23.8 192 
 BAR2 EZ ES   1    240 23.66                             170   -0.47 7 23.8 192 
 BAR2 EZ I         240 24.55        18.0 0.26            169           23.8 192 
 BRR  HZ EP     C  240 10.44                             153    0.2810 72.0 298 
 BRR  HE ES        240 27.59                             153    0.7410 72.0 298 
 BRR  HZ I         240 30.98         9.7 0.14            148           72.0 298 
 PAM  EZ EP        240 11.54                             151    0.4110 76.5  39 
 PAM  EN ES        240 28.56                             151   -0.0110 76.5  39 
 PAM  EZ I         240 30.02         7.7 0.22            154           76.5  39 
 RUS  HZ EP        240 12.60                             144   -0.1110  101 177 
 RUS  HE ES   1    240 31.03                             144   -0.37 7  101 177 
 RUS  HZ I         240 32.01         8.6 0.26            147            101 177 
 OCA  HZ EP        240 17.08                             130   -0.13 9  160 353 
 OCA  HE ES        240 38.70                             130   -0.69 9  160 353 
 OCA  HZ I         240 42.79        15.7 0.16            130            160 353 
 SPBC HZ EP        240 17.61                             129    0.12 9  164 219 
 SPBC HN ES        240 39.65                             129   -0.25 9  164 219 
 SPBC HZ I         240 43.07         9.6 0.24            129            164 219 
 ZAR  HZ EP   4    240 23.01                             123    1.59 0  205 292 
 ZAR  HE ES        240 47.37                             123    0.47 9  205 292 
 ZAR  HZ I         240 52.82         8.8 0.30            122            205 292 
 NOR  HZ EP   1    240 24.83                             119    0.12 6  236 235 
 NOR  HE ES        240 52.48                             119   -0.27 8  236 235 
 NOR  HZ I         240 56.36         4.8 0.18            119            236 235 
 SML  HE ES   1    240 54.36                             118    0.17 6  244 335 
 SML  HZ I         241  0.53        14.9 0.10            118            244 335 
 CHI  HZ EP   1    240 27.42                             117    0.80 6  249 195 
 CHI  HN ES   1    240 56.23                             117    0.08 6  249 195 
 CHI  HZ I         240 59.31         1.3 0.22            119            249 195 
 URE  HZ EP        240 29.59                             114   -0.43 7  285 292 
 URE  HN ES        241  1.60                             114   -0.61 7  285 292 
 URE  HZ I         241 11.74         4.0 0.32            114            285 292 
 GUY2CHN ES   4    241  8.61                             113    1.86 0  302 235 
 GUY2CHZ I         241 17.38         3.2 0.44                           302 235 
                                                                                
