 2012  4 7 0221 33.1 L   6.810 -73.156146.4  RSN 22 0.4 3.1LRSN                1
 GAP=103        0.90       3.0     3.9  5.5 -0.7618E+00  0.6413E+01  0.2102E+01E
 Epicentro: LOS SANTOS - SANTANDER                                             3
 ACTION:UPD 12-07-05 11:51 OP:tino STATUS:               ID:20120407022133 L   I
 2012-04-07-0220-00M.COL___196                                                 6
 STAT SP IPHASW D HRMM SECON CODA AMPLIT PERI AZIMU VELO AIN AR TRES W  DIS CAZ7
 BAR2 SZ IP        221 52.75                             170    -0.110   24 187 
 BAR2 SZ I         221 53.21       216.6 0.10                            24 187 
 BAR2 SZ ES   1    222  8.00                             170    -0.2 7   24 187 
 BRR  HZ EP   1    221 54.65                             153     0.4 7   70 298 
 BRR  HZ I         222 13.86       269.1 0.16                            70 298 
 PAM  SZ EP   1    221 55.67                             151     0.3 7   77  41 
 PAM  SN ES   1    222 12.85                             151     0.1 7   77  41 
 PAM  SZ I         222 15.04       213.6 0.60                            77  41 
 RUS  HZ EP        221 56.60                             144    -0.410  102 175 
 RUS  HE ES   1    222 15.52                             144    -0.1 7  102 175 
 RUS  HZ I         222 18.44       117.2 0.47                           102 175 
 PTB  HZ EP   1    221 59.43                             132    -0.6 7  147 258 
 PTB  HN ES   1    222 20.57                             132    -0.5 7  147 258 
 PTB  HZ I         222 26.73       102.5 0.21                           147 258 
 OCA  SZ EP   1    222  1.33                             130     0.0 7  159 353 
 OCA  SZ ES   1    222 24.19                             130     0.8 7  159 353 
 YOP  SZ EP   1    222  3.26                             126    -0.1 7  180 153 
 YOP  SN ES   1    222 27.38                             126     0.5 7  180 153 
 YOP  SZ I         222 31.27        63.2 0.35                           180 153 
 ZAR  HZ EP   1    222  4.84                             123    -0.6 6  203 292 
 ZAR  HN ES   1    222 30.70                             123     0.0 6  203 292 
 ZAR  HZ I         222 39.02       122.4 0.39                           203 292 
 NOR  SZ EP   1    222  8.79                             119    -0.1 6  234 234 
 NOR  SN ES   1    222 36.56                             119    -0.2 6  234 234 
 CHI  HZ EP   1    222 10.84                             117    -0.1 6  249 195 
 CHI  HZ I         222 43.71        70.6 0.58                           249 195 
 ROSC BZ EP   1    222 12.20                             117     0.9 6  253 211 
 ROSC BN ES   1    222 41.40                             117     0.3 6  253 211 
 ROSC BZ I         222 48.73       133.3 0.56                           253 211 
 HEL  HZ EP   1    222 13.88                             115     0.6 6  271 256 
 HEL  HZ I         222 53.10        40.5 0.23                           271 256 
 GUY  SZ EP   1    222 17.28                             112     0.3 5  303 235 
 GUY  SZ I         222 59.22       124.8 0.36                           303 235 
 VIL  SZ EP   1    222 16.54                             112    -0.1 5  304 191 
 VIL  SN ES   1    222 50.35                             112    -0.3 5  304 191 
 VIL  SZ I         223  0.18        61.7 0.38                           304 191 
 RREF HZ EP   1    222 20.01                             111     0.7 5  322 229 
 RREF HZ I         223  5.34       116.3 0.32                           322 229 
 DBB  SZ EP   1    222 20.86                             110     0.4 5  338 274 
 TOL  SZ EP   1    222 21.98                             109     0.6 5  344 224 
 TOL  SZ ES   1    222 58.94                             109    -0.1 5  344 224 
 COD  HZ EP   1    222 20.29                             109    -1.1 5  347 355 
 COD  HZ I         223  4.21        63.4 0.37                           347 355 
 ANIL HZ EP   1    222 22.46                             108    -0.5 5  357 224 
 SDV  BZ EP   1    222 22.55                             108    -0.6 5  361  50 
 PRA  HZ EP   1    222 27.28                             106     0.6 4  392 209 
 YOT  HZ EP   1    222 36.08                             103    -0.1 4  472 229 
                                                                                
