 2010  8 7 0548 49.5 L   6.805 -73.045142.5  RSN  4 0.2 1.5LRSN                1
 GAP=245        0.51       8.4    14.6  6.7  0.8823E+02 -0.2248E+02 -0.8598E+01E
 Epicentro: LOS SANTOS - SANTANDER                                             3
 ACTION:UP  10-09-07 10:52 OP:vdl  STATUS:               ID:20100807054849 L   I
 2010-08-07-0546-39S.COL___125                                                 6
 STAT SP IPHASW D HRMM SECON CODA AMPLIT PERI AZIMU VELO SNR AR TRES W  DIS CAZ7
 BTL  SZ EP        549  8.93                             168     0.110   28 297 
 BTL  SZ ES   1    549 23.76                             168    -0.1 7   28 297 
 BAR2 SZ EP   1    549  8.77                             168     0.0 7   28 213 
 BAR2 SZ I         549 28.05         6.4 0.52                            28 213 
 BRR  HZ EP        549 10.64                             148    -0.210   81 294 
 BRR  HE ES   2    549 27.91                             148     0.4 5   81 294 
 BRR  HZ I         549 53.44         6.9 0.18                            81 294 
 RUS  HZ EP   2    549 13.31                             143     0.4 5  101 182 
 RUS  HN ES   2    549 30.98                             143    -0.2 5  101 182 
                                                                                
