 2015  9 7 0644 52.6 L   6.810 -73.110142.9  RSN 15 0.5 2.2LRSN                1
 GAP=187        1.06       3.0     4.6  5.5 -0.2070E+00  0.5943E+01  0.3873E-01E
 Epicentro: LOS SANTOS - SANTANDER                                             3
 ACTION:UPD 15-10-28 16:24 OP:cam  STATUS:               ID:20150907064452 L   I
 OLDACT:UP  15-09-07 18:49 OP:mh   STATUS:               ID:20150907063739     3
 OLDACT:UP  15-09-07 18:47 OP:mh   STATUS:               ID:20150907063739     3
 OLDACT:UP  15-09-07 18:46 OP:mh   STATUS:               ID:20150907063739     3
 OLDACT:REG 15-09-07 12:38 OP:mh   STATUS:               ID:20150907063739     3
 2015-09-07-0637-39M.COL___343                                                 6
 STAT SP IPHASW D HRMM SECON CODA AMPLIT PERI AZIMU VELO AIN AR TRES W  DIS CAZ7
 BAR2 EZ EP        645 12.09                             169    0.1610 25.3 198 
 BAR2 EZ ES        645 26.48                             169   -0.5210 25.3 198 
 BAR2 EZ I         645 27.38        61.7 0.22            167           25.3 198 
 BRR  HZ EP     C  645 14.04                             151    0.4310 74.2 296 
 BRR  HN ES        645 30.72                             151    0.7210 74.2 296 
 BRR  HZ I         645 31.99        28.5 0.16            148           74.2 296 
 RUS  HZ EP        645 16.48                             143    0.3510  101 178 
 RUS  HN ES        645 34.55                             143    0.0610  101 178 
 RUS  HZ I         645 35.85        18.3 0.28            144            101 178 
 PTB  HZ EP        645 18.80                             130   -0.91 9  152 259 
 PTB  HN ES        645 40.61                             130   -0.24 9  152 259 
 PTB  HZ I         645 46.49        14.8 0.38            129            152 259 
 OCA  HZ EP        645 20.37                             129   -0.27 9  160 352 
 OCA  HN ES        645 42.20                             129   -0.30 9  160 352 
 OCA  HZ I         645 49.77        51.5 0.48            130            160 352 
 SPBC HZ EP   1    645 21.08                             128   -0.12 7  167 220 
 SPBC HN ES   1    645 43.12                             128   -0.38 7  167 220 
 SPBC HZ I         645 46.54        20.0 0.22            128            167 220 
 ZAR  HZ EP        645 25.05                             121   -0.15 8  207 291 
 ZAR  HN ES        645 51.21                             121    0.59 8  207 291 
 ZAR  HZ I         645 56.56        15.1 0.30            121            207 291 
 NOR  HZ EP   1    645 28.66                             117    0.08 6  239 235 
 NOR  HE ES        645 56.10                             117   -0.54 8  239 235 
 NOR  HZ I         645 59.80        11.9 0.24            118            239 235 
 SML  HZ EP   1    645 28.35                             117   -0.79 6  244 334 
 SML  HN ES        645 57.69                             117    0.04 8  244 334 
 SML  HZ I         645 58.97        17.4 0.36            118            244 334 
 ROSC BZ EP        645 31.79                             116    0.90 8  256 212 
 ROSC BN ES   4    646  3.71                             116    2.96 0  256 212 
 ROSC BZ I         646  7.99         7.2 0.30            116            256 212 
 HEL  HZ EP        645 33.73                             114    0.61 7  276 256 
 HEL  HN ES        646  4.80                             114    0.07 7  276 256 
 HEL  HZ I         646 13.25         7.1 0.26            114            276 256 
 URE  HZ EP   4    645 35.38                             113    1.48 0  287 291 
 URE  HN ES   4    646  3.51                             113   -2.60 0  287 291 
 URE  HZ I         646  5.70         9.8 0.34            113            287 291 
 DBB  SZ EP        645 40.12                             109   -0.29 7  343 274 
 DBB  SZ ES   4    646 16.01                             109   -1.68 0  343 274 
 PRA  HZ EP        645 46.53                             106    0.17 6  395 210 
 PRA  HN ES        646 27.98                             106   -0.31 6  395 210 
 PRA  HZ I         646 33.46         4.3 0.26            107            395 210 
 SJC  HZ EP   4    645 47.03                             105   -1.19 0  411 326 
 SJC  HN ES   4    646 27.19                             105   -4.41 0  411 326 
 SJC  HZ I         646 30.71         4.9 0.50            106            411 326 
                                                                                
