 2011 10 7 0541 55.5 L   6.805 -73.122146.5  RSN  7 0.2 1.6LRSN                1
 GAP=139        0.52       2.8     3.7  4.0 -0.1974E+01 -0.3614E+00  0.3867E+00E
 Epicentro: LOS SANTOS - SANTANDER                                             3
 ACTION:UPD 12-07-13 16:02 OP:ep   STATUS:               ID:20111007054155 L   I
 2011-10-07-0540-00M.COL___171                                                 6
 STAT SP IPHASW D HRMM SECON CODA AMPLIT PERI AZIMU VELO AIN AR TRES W  DIS CAZ7
 BAR2 SZ EP   1    542 15.09                             170   -0.10 7 24.4 196 
 BAR2 SZ ES        542 30.26                             170   -0.3210 24.4 196 
 BAR2 SZ I         542 31.31         8.6 0.36                          24.4 196 
 GIR2 SZ EP   1    542 15.32                             167    0.11 7 31.3 345 
 GIR2 SZ ES   1    542 30.90                             167    0.28 7 31.3 345 
 BRR  HZ EP   1    542 16.77                             152   -0.02 7 73.2 297 
 BRR  HE ES        542 33.52                             152    0.0810 73.2 297 
 BRR  HZ I         542 34.76         7.7 0.12                          73.2 297 
 PAM  SZ EP        542 17.94                             151    0.3110 75.4  38 
 PAM  SN ES   1    542 34.82                             151   -0.10 7 75.4  38 
 RUS  HZ EP   1    542 19.11                             144   -0.19 7  101 178 
 RUS  HE ES   1    542 38.06                             144    0.16 7  101 178 
 RUS  HZ I         542 40.13         3.3 0.32                           101 178 
 OCA  SZ EP   2    542 23.69                             130   -0.11 5  160 352 
 OCA  SZ ES   2    542 45.22                             130   -0.69 5  160 352 
 OCA  SZ I         542 50.00         8.6 0.25                           160 352 
 NOR  SE ES   1    542 59.63                             118    0.05 6  237 235 
                                                                                
