 2013 11 7 0143 47.6 L   6.775 -73.157142.4  RSN  9 0.4 1.8LRSN                1
 GAP=136        1.05       3.7     4.7  6.6 -0.4582E+01  0.7999E+01  0.1477E+01E
 Epicentro: LOS SANTOS - SANTANDER                                             3
 ACTION:UPD 14-01-09 16:26 OP:ep   STATUS:               ID:20131107014347 L   I
 OLDACT:REG 13-11-07 06:18 OP:jn   STATUS:               ID:20131107014000     3
 2013-11-07-0140-00M.COL___273                                                 6
 STAT SP IPHASW D HRMM SECON CODA AMPLIT PERI AZIMU VELO AIN AR TRES W  DIS CAZ7
 BAR2 SZ EP        144  6.82                             171    0.0910 20.4 188 
 BAR2 SZ ES        144 21.74                             171    0.0610 20.4 188 
 BAR2 SZ I         144 23.25        21.3 0.40            169           20.4 188 
 BRR  HZ EP        144  8.67                             152    0.3110 71.5 301 
 BRR  HN ES        144 25.15                             152    0.5710 71.5 301 
 BRR  HZ I         144 29.27        12.7 0.28            151           71.5 301 
 PAM  SZ EP        144  9.74                             149    0.1410 80.3  39 
 PAM  SE ES        144 26.57                             149   -0.2110 80.3  39 
 PAM  SZ I         144 28.34        10.5 0.18            155           80.3  39 
 RUS  HZ EP        144 10.91                             144    0.1210 97.9 175 
 RUS  HN ES        144 28.95                             144    0.0510 97.9 175 
 RUS  HZ I         144 31.46         7.6 0.32            146           97.9 175 
 PTB  HZ EP        144 13.39                             132   -0.71 9  146 260 
 PTB  HN ES        144 34.49                             132   -0.30 9  146 260 
 PTB  HZ I         144 39.54         8.3 0.12            132            146 260 
 SPBC HZ EP        144 15.55                             129    0.03 9  160 219 
 SPBC HE ES        144 36.46                             129   -0.87 9  160 219 
 SPBC HZ I         144 42.15        10.7 0.24            130            160 219 
 OCA  HN ES   1    144 37.25                             128   -0.68 7  163 354 
 NOR  HZ EP        144 23.16                             118    0.34 8  232 235 
 NOR  HN ES        144 51.11                             118    0.80 8  232 235 
 NOR  HZ I         144 57.27         6.1 0.28            120            232 235 
 SML  HE ES   1    144 52.91                             116    0.10 6  246 336 
 GUY2CHZ EP   4    144 32.26                             112    1.54 0  299 235 
                                                                                
