 2017  9 7 0805 49.6 L   6.413 -73.177210.6  RSN  5 0.2 1.5LRSN                1
 GAP=231        0.45       4.5     4.3  5.8  0.6608E+00  0.2467E+01 -0.8347E+01E
 Epicentro: PARAMO - SANTANDER                                                 3
 ACTION:UPD 17-10-05 19:10 OP:rebc STATUS:               ID:20170907080549 L   I
 OLDACT:REG 17-09-07 13:00 OP:dnl  STATUS:               ID:20170907075740     3
 2017-09-07-0758-00M.COL___414                                                 6
 STAT SP IPHASW D HRMM SECON CODA AMPLIT PERI AZIMU VELO AIN AR TRES W  DIS CAZ7
 BAR2 EZ EP        8 6 17.12                             174    0.0710 19.8 358 
 BAR2 EZ ES        8 6 38.46                             174    0.0210 19.8 358 
 BAR2 EZ I         8 6 40.03         5.3 0.18            174           19.8 358 
 RUS  HZ EP   4    8 6 21.55                             164    3.23 0 58.5 170 
 RUS  HN ES   4    8 6 42.76                             164    2.07 0 58.5 170 
 RUS  HZ I         8 6 45.30         1.3 0.42            167           58.5 170 
 BRR  HZ EP   2    8 6 18.68                             154   -0.58 5 96.9 322 
 BRR  HN ES   4    8 6 39.03                             154   -3.34 0 96.9 322 
 BRR  HZ I         8 6 48.67         5.5 0.26            156           96.9 322 
 SPBC HN ES        8 6 46.10                             147   -0.0210  130 230 
 SPBC HZ I         8 6 48.71         3.2 0.24            151            130 230 
 ZAR  HZ EP   2    8 6 28.90                             132    0.40 4  221 303 
 ZAR  HN ES        8 6 58.82                             132    0.00 8  221 303 
 ZAR  HZ I         8 7  0.31         2.5 0.34            135            221 303 
                                                                                
