 2016 10 7 0525  1.7 L   6.749 -73.169151.8  RSN  4 0.4 1.3LRSN                1
 GAP=231        0.86       6.2     7.5 11.6  0.1718E+02  0.1593E+02  0.1588E+02E
 Epicentro: LOS SANTOS - SANTANDER                                             3
 ACTION:UPD 16-11-09 19:17 OP:rebc STATUS:               ID:20161007052501 L   I
 OLDACT:REG 16-10-07 12:51 OP:dnl  STATUS:               ID:20161007051611     3
 2016-10-07-0518-00M.COL___342                                                 6
 STAT SP IPHASW D HRMM SECON CODA AMPLIT PERI AZIMU VELO AIN AR TRES W  DIS CAZ7
 BRR  HZ EP   2    525 23.60                             153    0.05 5 71.9 303 
 BRR  HN ES        525 40.89                             153    0.3010 71.9 303 
 BRR  HZ I         525 47.12         2.9 0.24            152           71.9 303 
 RUS  HZ EP   2    525 25.78                             147    0.10 5 95.1 174 
 RUS  HE ES        525 44.07                             147   -0.3110 95.1 174 
 RUS  HZ I         525 45.19         2.0 0.32            152           95.1 174 
 PTB  HZ EP   2    525 28.57                             134   -0.29 5  144 261 
 PTB  HN ES        525 49.47                             134   -0.57 9  144 261 
 PTB  HZ I         525 54.34         2.6 0.44            136            144 261 
 SPBC HZ EP   2    525 30.28                             131    0.16 5  157 220 
 SPBC HE ES        525 52.88                             131    0.60 9  157 220 
 SPBC HZ I         525 55.06         2.9 0.26            135            157 220 
                                                                                
