 2012 12 7 0533  9.8 L   6.812 -73.142147.8  RSN 10 0.5 1.7LRSN                1
 GAP=183        0.74       3.2     5.0  6.0  0.1108E+01  0.8942E+01 -0.2561E+01E
 Epicentro: LOS SANTOS - SANTANDER                                             3
 ACTION:UPD 13-01-04 14:26 OP:ep   STATUS:               ID:20121207053309 L   I
 2012-12-07-0530-00M.COL___242                                                 6
 STAT SP IPHASW D HRMM SECON CODA AMPLIT PERI AZIMU VELO AIN AR TRES W  DIS CAZ7
 BAR2 SZ EP   1    533 29.70                             170   -0.03 7 24.7 190 
 BAR2 SZ ES   1    533 45.82                             170    0.57 7 24.7 190 
 BAR2 SZ I         533 47.73         8.9 0.38                          24.7 190 
 GIR2 SZ EP   2    533 30.37                             168    0.66 5 30.0 349 
 GIR2 SZ ES   1    533 45.41                             168    0.19 7 30.0 349 
 GIR2 SZ I         533 46.97         7.3 0.34                          30.0 349 
 RUS  HZ EP   1    533 33.85                             144   -0.02 7  102 176 
 RUS  HE ES   1    533 52.12                             144   -0.51 7  102 176 
 RUS  HZ I         533 53.59         2.8 0.28                           102 176 
 PTB  HZ EP   1    533 36.77                             132   -0.25 7  148 258 
 PTB  HN ES   1    533 57.51                             132   -0.72 7  148 258 
 PTB  HZ I         534  3.79         5.8 0.44                           148 258 
 OCA  HZ EP   1    533 37.94                             130   -0.24 7  159 353 
 OCA  HN ES   1    533 59.99                             130   -0.30 7  159 353 
 OCA  HZ I         534  4.94         4.1 0.14                           159 353 
 ZAR  HZ EP   1    533 42.63                             123    0.24 6  204 292 
 ZAR  HN ES   1    534  8.60                             123    0.81 6  204 292 
 ZAR  HZ I         534 14.85         6.5 0.26                           204 292 
 SML  HZ EP   1    533 46.48                             118    0.03 6  243 335 
 SML  HE ES   1    534 14.71                             118   -0.31 6  243 335 
 SML  HZ I         534 23.19         8.2 0.10                           243 335 
 CHI  HN ES   2    534 17.49                             117    0.09 4  250 195 
 CHI  HZ I         534 26.93         2.4 0.38                           250 195 
 HEL  HN ES   2    534 21.83                             115    0.10 4  273 256 
 PRA  HZ EP   2    534  4.87                             107    1.29 3  393 210 
 PRA  HN ES   2    534 45.34                             107   -0.16 3  393 210 
 PRA  HZ I         534 49.39         2.6 0.52                           393 210 
                                                                                
