 2011 12 7 0945 36.1 L   6.769 -73.157144.0  RSN  9 0.4 2.0LRSN                1
 GAP=137        0.67       4.2     5.6  6.9 -0.6643E+01  0.1783E+02  0.2543E+01E
 Epicentro: LOS SANTOS - SANTANDER                                             3
 ACTION:UPD 12-07-13 16:14 OP:ep   STATUS:               ID:20111207094535 L   I
 2011-12-07-0940-00M.COL___183                                                 6
 STAT SP IPHASW D HRMM SECON CODA AMPLIT PERI AZIMU VELO AIN AR TRES W  DIS CAZ7
 BAR2 SZ EP   1    945 55.47                             172    0.01 7 19.7 188 
 BAR2 SZ ES   2    946  9.92                             172   -0.63 5 19.7 188 
 BAR2 SZ I         946 12.42        26.6 0.32                          19.7 188 
 GIR2 SZ EP   1    945 55.67                             166    0.01 7 34.5 353 
 BRR  HZ EP   1    945 57.43                             152    0.32 7 71.9 301 
 BRR  HN ES   2    946 14.49                             152    1.01 5 71.9 301 
 BRR  HZ I         946 16.64        25.8 0.14                          71.9 301 
 PAM  SZ EP   1    945 58.15                             150   -0.20 7 80.8  39 
 PAM  SN ES   1    946 15.45                             150   -0.24 7 80.8  39 
 PAM  SZ I         946 17.82        15.0 0.59                          80.8  39 
 RUS  HZ EP   1    945 59.32                             145   -0.13 7 97.2 175 
 RUS  HN ES   1    946 17.83                             145    0.18 7 97.2 175 
 RUS  HZ I         946 21.09         7.8 0.22                          97.2 175 
 CTAU SZ EP   1    946  9.33                             123    0.74 6  199 210 
 CTAU SZ I         946 41.89        12.7 0.48                           199 210 
 NOR  SZ EP   1    946 11.05                             118   -0.36 6  232 235 
 NOR  SN ES   2    946 38.52                             118   -0.43 4  232 235 
 CHI  HN ES   2    946 42.17                             117   -0.16 4  245 195 
 HEL  HZ EP   1    946 15.82                             115   -0.19 6  270 256 
 HEL  HN ES   2    946 46.53                             115   -0.60 4  270 256 
 HEL  HZ I         946 53.99         4.4 0.26                           270 256 
                                                                                
