 2010  9 7 0154 44.5 L   6.786 -73.098143.1  RSN 23 0.5 4.1LRSN                1
 GAP=130        1.07       3.8     6.0  6.1 -0.9525E+01  0.5454E+01  0.3621E+01E
 Epicentro: LOS SANTOS - SANTANDER                                             3
 ACTION:UP  11-02-18 11:00 OP:tino STATUS:               ID:20100907015444 L   I
 2010-09-07-0152-14S.COL___120                                                 6
 STAT SP IPHASW D HRMM SECON CODA AMPLIT PERI AZIMU VELO SNR AR TRES W  DIS CAZ7
 BAR2 SZ IP        155  3.72                             170    -0.110   23 204 
 BAR2 SZ ES   2    155 18.31                             170    -0.6 5   23 204 
 BAR2 SZ I         155 19.31      2629.6 0.17                            23 204 
 BTL  SZ IP        155  3.87                             170     0.010   24 308 
 BTL  SZ ES   2    155 19.51                             170     0.6 5   24 308 
 GIR2 SZ IP        155  3.84                             166    -0.110   34 342 
 GIR2 SZ ES   2    155 18.64                             166    -0.5 5   34 342 
 BRR  HZ IP     D  155  5.64                             150    -0.110   77 298 
 BRR  HE ES   1    155 22.43                             150     0.2 7   77 298 
 BRR  HZ I         155 26.86      1928.5 0.21                            77 298 
 RUS  HZ EP        155  7.70                             144    -0.210   99 179 
 RUS  HN ES   1    155 25.78                             144    -0.3 7   99 179 
 RUS  HZ I         155 27.61      1345.6 0.40                            99 179 
 GUE  SZ EP        155  9.69                             139     0.710  117   9 
 GRA  SZ IP        155  9.75                             136     0.210  126  15 
 GRA  SZ ES   2    155 29.47                             136     0.4 5  126  15 
 GRA  SZ I         155 31.62      2353.7 0.41                           126  15 
 OCA  SZ IP        155 12.37                             128    -0.5 9  163 351 
 OCA  SZ ES   1    155 35.00                             128     0.1 7  163 351 
 OCA  SZ I         155 37.60      4434.5 0.42                           163 351 
 CHI  HZ EP   1    155 21.87                             116    -0.2 6  249 196 
 CHI  HE ES   2    155 50.83                             116    -0.5 4  249 196 
 CHI  HZ I         155 59.83       425.3 0.14                           249 196 
 ROSC BZ EP        155 23.71                             116     1.1 8  254 212 
 ROSC BZ I         156  0.30       749.3 0.42                           254 212 
 CVER SZ EP   1    155 25.37                             114     0.6 6  273 203 
 CVER SZ I         156  5.87       763.5 0.70                           273 203 
 HEL  HZ EP        155 24.26                             114    -0.9 7  277 256 
 HEL  HE ES   2    155 55.43                             114    -1.4 4  277 256 
 HEL  HZ I         156  3.35       559.8 0.59                           277 256 
 GUY  SZ EP   1    155 29.06                             111     0.7 5  305 236 
 GUY  SE ES   2    156  2.75                             111     0.1 4  305 236 
 GUY  SZ I         156  8.11      1737.2 0.60                           305 236 
 RREF HZ EP   1    155 30.82                             110    -0.1 5  325 230 
 RREF HE ES   1    156  7.54                             110     0.5 5  325 230 
 RREF HZ I         156 16.08       437.0 0.57                           325 230 
 DBB  SZ EP        155 32.13                             109    -0.4 7  345 274 
 TOL  SZ EP   1    155 33.32                             109     0.4 5  346 225 
 TOL  SZ ES   2    156 11.95                             109     1.2 3  346 225 
 SDV  BZ IP     D  155 33.38                             108    -0.7 6  357  49 
 SDV  BZ I         156 13.76       866.4 0.20                           357  49 
 ANIL HZ EP   1    155 35.16                             108     0.6 5  360 225 
 ANIL HZ I         156 32.86       795.6 0.51                           360 225 
 PRA  HZ EP   2    155 37.48                             106    -0.6 3  393 210 
 PRA  HE ES   1    156 19.18                             106    -0.7 4  393 210 
 PRA  HZ I         156 25.14       585.2 0.56                           393 210 
 HORQ SZ EP   2    155 53.86                             101    -1.4 2  535 227 
 HORQ SZ I         156 55.63        67.1 0.64                           535 227 
 POP2 HZ EP        156  4.19                              99    -0.5 3  615 220 
 POP2 HZ I         157 15.55        44.2 0.26                           615 220 
 SOTA HZ EP   2    156  9.03                              98     0.3 1  645 217 
 CUM  SZ EP        156 30.91                              96    -0.4 0  832 219 
                                                                                
