 2015  1 7 0310  1.6 L   6.747 -73.173145.5  RSN  5 0.4 1.4LRSN                1
 GAP=240        0.88       6.2     6.6  7.7  0.1091E+02  0.7902E+01  0.8210E+01E
 Epicentro: LOS SANTOS - SANTANDER                                             3
 ACTION:UPD 15-03-02 15:37 OP:nd   STATUS:               ID:20150107031001 L   I
 OLDACT:DUP 15-01-07 16:36 OP:spq  STATUS:               ID:20150107030821d    3
 2015-01-07-0308-20M.COL___277                                                 6
 STAT SP IPHASW D HRMM SECON CODA AMPLIT PERI AZIMU VELO AIN AR TRES W  DIS CAZ7
 BAR2 EZ EP        310 20.80                             173   -0.2510 17.1 183 
 BAR2 EZ ES   1    310 35.73                             173   -0.52 7 17.1 183 
 BAR2 EZ I         310 38.53         5.4 0.21            172           17.1 183 
 BRR  HZ EP        310 22.68                             152   -0.0210 71.6 304 
 BRR  HE ES        310 39.84                             152    0.6510 71.6 304 
 BRR  HZ I         310 43.56         8.1 0.26            152           71.6 304 
 PTB  HZ EP   1    310 27.87                             133   -0.27 7  144 261 
 PTB  HE ES   1    310 48.46                             133   -0.42 7  144 261 
 PTB  HZ I         310 50.52         2.7 0.14            134            144 261 
 SPBC HZ EP        310 29.91                             130    0.48 9  157 219 
 SPBC HN ES   1    310 51.30                             130    0.13 7  157 219 
 SPBC HZ I         310 55.11         2.7 0.16            132            157 219 
 ZAR  HZ EP   1    310 34.09                             122    0.15 6  204 294 
 ZAR  HE ES        310 58.82                             122   -0.37 9  204 294 
 ZAR  HZ I         311  4.22         2.7 0.44            124            204 294 
                                                                                
