 2013  2 7 0704 25.7 L   6.791 -73.117147.7  RSN  7 0.4 1.8LRSN                1
 GAP=141        0.80       5.8     5.3  9.9  0.3614E+01 -0.1532E+02  0.4949E+01E
 Epicentro: LOS SANTOS - SANTANDER                                             3
 ACTION:UPD 13-03-12 09:31 OP:ep   STATUS:               ID:20130207070425 L   I
 2013-02-07-0700-00M.COL___241                                                 6
 STAT SP IPHASW D HRMM SECON CODA AMPLIT PERI AZIMU VELO AIN AR TRES W  DIS CAZ7
 BAR2 SZ EP        7 4 45.31                             171   -0.2510 23.1 198 
 BAR2 SZ I         7 5  1.29         8.5 0.38            167           23.1 198 
 BRR  HZ EP        7 4 47.41                             152    0.1610 74.5 298 
 BRR  HN ES        7 5  4.02                             152   -0.0310 74.5 298 
 BRR  HN I         7 5  7.92        19.9 0.16            156           74.5 298 
 PAM  SZ EP        7 4 48.38                             152    0.3310 76.2  37 
 PAM  SN I         7 5  6.40         6.6 0.42            141           76.2  37 
 RUS  HZ EP   1    7 4 49.82                             145    0.26 7 99.4 178 
 RUS  HE ES   2    7 5  7.98                             145   -0.18 5 99.4 178 
 RUS  HE I         7 5  8.91         7.0 0.20            140           99.4 178 
 PTB  HZ EP   1    7 4 52.28                             132   -0.82 7  151 259 
 PTB  HN ES   1    7 5 14.72                             132    0.26 7  151 259 
 PTB  HN I         7 5 15.27         5.7 0.24            134            151 259 
 OCA  HN ES   2    7 5 15.67                             130   -0.93 5  162 352 
 OCA  HN I         7 5 16.28        15.9 0.40            125            162 352 
 ZAR  HN ES   1    7 5 24.70                             122    0.40 6  207 292 
                                                                                
