 2016 10 7 0212 25.2 L   6.789 -73.129149.6  RSN  5 0.4 1.5LRSN                1
 GAP=256        1.09       8.2     8.6  8.9 -0.9216E+01  0.5681E+01  0.1419E+02E
 Epicentro: LOS SANTOS - SANTANDER                                             3
 ACTION:UPD 16-11-09 19:17 OP:rebc STATUS:               ID:20161007021225 L   I
 OLDACT:REG 16-10-07 12:37 OP:dnl  STATUS:               ID:20161007020741     3
 2016-10-07-0208-00M.COL___354                                                 6
 STAT SP IPHASW D HRMM SECON CODA AMPLIT PERI AZIMU VELO AIN AR TRES W  DIS CAZ7
 BAR2 EZ EP        212 45.23                             171   -0.0410 22.5 195 
 BAR2 EZ ES        213  0.47                             171   -0.4610 22.5 195 
 BAR2 EZ I         213  5.47         4.6 0.21            166           22.5 195 
 BRR  HZ EP        212 47.12                             152    0.2410 73.4 299 
 BRR  HN ES        213  4.37                             152    0.5710 73.4 299 
 BRR  HZ I         213  6.24         5.3 0.28            153           73.4 299 
 PTB  HZ EP        212 52.09                             133   -0.52 9  149 259 
 PTB  HN ES        213 13.45                             133   -0.55 9  149 259 
 PTB  HZ I         213 20.42         4.2 0.42            133            149 259 
 SPBC HZ EP        212 54.24                             130    0.23 9  163 220 
 SPBC HE ES        213 17.00                             130    0.52 9  163 220 
 SPBC HZ I         213 21.82         5.2 0.20            131            163 220 
 GUY2CHZ EP   4    213 10.36                             113    1.29 0  302 235 
 GUY2CHN ES   4    213 41.83                             113   -1.46 0  302 235 
 GUY2CHZ I         213 50.65         1.6 0.28                           302 235 
                                                                                
