 2012  3 7 0635 55.3 L   6.657 -73.215148.5  RSN  4 0.2 1.1LRSN                1
 GAP=201        0.61       6.4     6.3  8.1  0.2068E+02 -0.4345E+01 -0.3888E+01E
 ACTION:UP  12-03-31 23:17 OP:EP   STATUS:               ID:20120307063555 L   I
 2012-03-07-0630-00M.COL___194                                                 6
 STAT SP IPHASW D HRMM SECON CODA AMPLIT PERI AZIMU VELO SNR AR TRES W  DIS CAZ7
 BAR2 SZ EP   1    636 14.79                             177    -0.2 7    8 153 
 BAR2 SZ I         636 31.33         5.0 0.22                             8 153 
 BRR  HZ EP   1    636 16.61                             152    -0.3 7   74 312 
 BRR  HZ I         636 16.77         2.6 0.20                            74 312 
 BRR  HN ES   1    636 33.99                             152     0.3 7   74 312 
 RUS  HZ EP   1    636 18.71                             149     0.4 7   86 170 
 RUS  HN ES   1    636 36.11                             149    -0.1 7   86 170 
 RUS  HZ I         636 40.38         1.0 0.36                            86 170 
 PTB  HZ EP   1    636 21.67                             135     0.1 7  138 265 
 PTB  HN ES   1    636 42.03                             135    -0.1 7  138 265 
                                                                                
