 2013  1 7 0702 36.2 L   6.786 -73.148148.5  RSN  9 0.4 2.4LRSN                1
 GAP=183        1.04       3.6     5.4  5.9  0.4355E+01  0.6454E+01  0.6165E+00E
 Epicentro: LOS SANTOS - SANTANDER                                             3
 ACTION:UPD 13-02-15 09:12 OP:ep   STATUS:               ID:20130107070236 L   I
 2013-01-07-0659-43M.COL___193                                                 6
 STAT SP IPHASW D HRMM SECON CODA AMPLIT PERI AZIMU VELO AIN AR TRES W  DIS CAZ7
 BAR2 SZ IP        7 2 56.04                             171   -0.0710 21.7 190 
 BAR2 SZ ES        7 3 11.46                             171   -0.1910 21.7 190 
 BAR2 SZ I         7 3 12.73        44.8 0.34            165           21.7 190 
 BRR  HZ IP     C  7 2 57.96                             153    0.3110 71.7 300 
 BRR  HZ I         7 2 58.25        48.8 0.18            142           71.7 300 
 BRR  HE ES        7 3 15.01                             153    0.6110 71.7 300 
 RUS  HZ EP        7 2 59.94                             145   -0.1510 99.0 176 
 RUS  HN ES        7 3 18.88                             145    0.1410 99.0 176 
 PTB  HZ EP        7 3  2.73                             133   -0.59 9  147 259 
 PTB  HN ES        7 3 24.02                             133   -0.47 9  147 259 
 PTB  HN I         7 3 26.87        35.9 0.20            123            147 259 
 OCA  HZ EP        7 3  4.53                             130   -0.31 9  162 353 
 OCA  HE ES        7 3 27.20                             130    0.00 9  162 353 
 OCA  HN I         7 3 31.34        79.7 0.30            123            162 353 
 ZAR  HZ EP        7 3  8.63                             123   -0.21 9  204 293 
 ZAR  HN ES        7 3 34.25                             123   -0.06 9  204 293 
 ZAR  HN I         7 3 40.35        37.4 0.58            114            204 293 
 CHI  HZ EP        7 3 14.32                             118    0.46 8  247 195 
 CHI  HZ I         7 3 16.16         4.6 0.12            111            247 195 
 CHI  HN ES        7 3 43.06                             118   -0.19 8  247 195 
 HEL  HZ EP        7 3 17.74                             115    1.28 8  271 256 
 HEL  HN I         7 3 57.85         8.8 0.22            108            271 256 
 DBB  SZ EP        7 3 23.36                             110   -0.39 7  339 275 
                                                                                
