 2012  5 7 0053 15.1 L   6.797 -73.128152.8  RSN  4 0.2 1.4LRSN                1
 GAP=139        0.44       4.7     5.3  6.0  0.8976E+01  0.9200E+01  0.1182E+02E
 Epicentro: LOS SANTOS - SANTANDER                                             3
 ACTION:UP  12-07-05 12:02 OP:pat  STATUS:               ID:20120507005315 L   I
 2012-05-07-0040-00M.COL___173                                                 6
 STAT SP IPHASW D HRMM SECON CODA AMPLIT PERI AZIMU VELO SNR AR TRES W  DIS CAZ7
 BRR  HZ EP        053 37.33                             153     0.210   73 298 
 BRR  HZ I         053 37.48         3.6 0.20                            73 298 
 BRR  HN ES   1    053 54.36                             153     0.0 7   73 298 
 PAM  SZ EP   3    053 38.38                             152     0.3 2   76  38 
 PAM  SE ES   2    053 55.62                             152    -0.3 5   76  38 
 RUS  HZ EP        053 39.57                             145     0.010  100 177 
 RUS  HN ES   2    053 58.65                             145     0.1 5  100 177 
 RUS  HZ I         054 43.57         4.6 0.50                           100 177 
 PTB  HZ EP        053 42.66                             133    -0.2 9  150 259 
 PTB  HZ I         054 10.51         2.8 0.36                           150 259 
                                                                                
