 2014  8 7 0635 39.4 L   6.829 -73.028148.4  RSN  6 0.5 1.5LRSN                1
 GAP=251        1.23       7.2     9.1  8.5  0.5310E+01  0.2193E+02  0.7962E+01E
 Epicentro: CEPITA - SANTANDER                                                 3
 ACTION:UPD 14-09-15 21:47 OP:nd   STATUS:               ID:20140807063539 L   I
 OLDACT:REG 14-08-07 12:37 OP:carl STATUS:               ID:20140807062817     3
 2014-08-07-0628-17M.COL___260                                                 6
 STAT SP IPHASW D HRMM SECON CODA AMPLIT PERI AZIMU VELO AIN AR TRES W  DIS CAZ7
 BAR2 SZ EP        635 59.80                             168    0.2310 31.3 213 
 BAR2 SZ ES        636 15.18                             168   -0.0910 31.3 213 
 BAR2 SZ I         636 16.94         6.3 0.16            164           31.3 213 
 BRR  HZ EP        636  1.26                             150   -0.2310 81.6 292 
 BRR  HN ES        636 19.04                             150    0.3610 81.6 292 
 RUS  HZ EP        636  4.17                             143    0.4910  104 183 
 RUS  HN ES        636 22.62                             143    0.0310  104 183 
 RUS  HZ I         636 23.47         3.6 0.30            143            104 183 
 PTB  HZ EP        636  6.96                             130   -0.89 9  161 259 
 PTB  HN ES   4    636 27.52                             130   -2.50 0  161 259 
 PTB  HZ I         636 32.40         4.6 0.30            130            161 259 
 SPBC HZ EP        636  8.93                             128   -0.25 9  174 222 
 SPBC HE ES        636 31.60                             128   -0.78 9  174 222 
 SPBC HZ I         636 36.16         3.9 0.52            128            174 222 
 GUY2CHZ EP        636 25.23                             112    0.64 7  314 236 
 GUY2CHN ES        637  0.77                             112    0.97 7  314 236 
 GUY2CHZ I         637  5.66         1.5 0.54                           314 236 
                                                                                
