 2014  3 7 0437 54.8 L   6.806 -73.180137.3  RSN 10 0.4 1.8LRSN                1
 GAP=132        0.86       2.4     3.6  6.5 -0.1814E+01  0.8517E+01 -0.3333E+00E
 Epicentro: LOS SANTOS - SANTANDER                                             3
 ACTION:UPD 14-04-09 23:15 OP:nd   STATUS:               ID:20140307043754 L   I
 OLDACT:DUP 14-03-07 10:36 OP:nd   STATUS:               ID:20140307043047d    3
 2014-03-07-0430-46M.COL___216                                                 6
 STAT SP IPHASW D HRMM SECON CODA AMPLIT PERI AZIMU VELO AIN AR TRES W  DIS CAZ7
 PAM  SZ EP        438 16.63                             148    0.3410 79.4  42 
 PAM  SN ES        438 33.33                             148    0.3110 79.4  42 
 PAM  SZ I         438 35.72        10.8 0.62            145           79.4  42 
 RUS  HZ EP        438 18.31                             142    0.4710  102 174 
 RUS  HN ES        438 35.45                             142   -0.3310  102 174 
 RUS  HZ I         438 37.15         8.5 0.34            145            102 174 
 PTB  HZ EP        438 20.85                             131    0.06 9  144 258 
 PTB  HN ES        438 40.77                             131   -0.26 9  144 258 
 PTB  HZ I         438 43.84         7.9 0.12            127            144 258 
 OCA  HZ EP        438 22.44                             128    0.04 9  159 354 
 OCA  HN ES        438 43.73                             128   -0.17 9  159 354 
 OCA  HZ I         439  6.55         9.7 0.42            123            159 354 
 ZAR  HZ EP   2    438 26.56                             121    0.21 4  200 292 
 ZAR  HN ES   2    438 51.46                             121    0.54 4  200 292 
 ZAR  HZ I         438 58.42        13.4 0.30            117            200 292 
 NOR  HZ EP        438 30.26                             117    0.47 8  232 234 
 NOR  HN ES        438 57.53                             117    0.48 8  232 234 
 NOR  HZ I         439  3.27         4.0 0.22            115            232 234 
 SML  HZ EP        438 30.27                             116   -0.50 8  242 336 
 SML  HN ES        438 58.28                             116   -0.51 8  242 336 
 SML  HZ I         439  4.07         7.6 0.24            112            242 336 
 CHI  HZ EP        438 31.58                             115   -0.46 8  248 194 
 CHI  HN ES        439  0.36                             115   -0.69 8  248 194 
 CHI  HZ I         439  7.10         1.7 0.22            115            248 194 
 HEL  HZ EP   2    438 34.61                             113    0.38 4  269 255 
 HEL  HN ES        439  4.99                             113    0.03 8  269 255 
 HEL  HZ I         439 12.66         2.3 0.50            111            269 255 
 SJC  HZ EP   4    438 48.57                             104   -1.25 0  407 327 
 SJC  HZ I         439 21.99         1.3 0.60            102            407 327 
 SJC  HN ES   4    439 29.20                             104   -3.51 0  407 327 
                                                                                
