 2013  4 7 0818 23.0 L   6.722 -73.164150.7  RSN  5 0.3 1.7LRSN                1
 GAP=157        0.67       5.5     4.7  7.3  0.1147E+02 -0.1205E+02 -0.7325E+01E
 Epicentro: VILLANUEVA - SANTANDER                                             3
 ACTION:UPD 13-05-22 14:36 OP:EP   STATUS:               ID:20130407081823 L   I
 2013-04-07-0817-37M.COL___221                                                 6
 STAT SP IPHASW D HRMM SECON CODA AMPLIT PERI AZIMU VELO AIN AR TRES W  DIS CAZ7
 BAR2 SZ EP        818 43.09                             174   -0.0410 14.5 188 
 BAR2 SZ I         818 59.76         9.6 0.26            174           14.5 188 
 BRR  HZ EP   1    818 44.96                             152    0.07 7 74.0 305 
 BRR  HN ES        819  2.06                             152    0.1310 74.0 305 
 BRR  HN I         819  6.62        14.3 0.18            151           74.0 305 
 RUS  HZ EP   1    818 47.41                             147    0.70 7 92.1 174 
 RUS  HN ES        819  5.09                             147   -0.0810 92.1 174 
 RUS  HN I         819  7.24         8.2 0.44            151           92.1 174 
 PTB  HZ EP   1    818 50.15                             134    0.03 7  144 262 
 PTB  HN ES        819 10.96                             134   -0.27 9  144 262 
 PTB  HN I         819 13.34         6.9 0.22            137            144 262 
 TAM  HZ EP   1    818 50.68                             132   -0.44 7  155 102 
                                                                                
