 2011 11 7 0909  8.4 L   6.798 -73.135147.4  RSN  7 0.3 1.9LRSN                1
 GAP=138        0.57       3.2     4.0  5.5  0.9766E+00  0.5941E+01  0.2281E+01E
 Epicentro: LOS SANTOS - SANTANDER                                             3
 ACTION:UPD 12-07-13 16:08 OP:ep   STATUS:               ID:20111107090908 L   I
 2011-11-07-0907-26S.COL___175                                                 6
 STAT SP IPHASW D HRMM SECON CODA AMPLIT PERI AZIMU VELO AIN AR TRES W  DIS CAZ7
 BAR2 SZ EP   1    9 9 28.09                             171   -0.17 7 23.4 193 
 BAR2 SZ I         9 9 45.01        18.8 0.17                          23.4 193 
 BRR  HZ EP   1    9 9 30.13                             152    0.31 7 72.3 298 
 BRR  HZ I         9 9 30.41        17.5 0.12                          72.3 298 
 BRR  HN ES   1    9 9 46.93                             152    0.43 7 72.3 298 
 PAM  SZ EP   1    9 9 31.17                             151    0.39 7 76.8  39 
 PAM  SN ES   1    9 9 47.88                             151   -0.34 7 76.8  39 
 RUS  HZ EP   1    9 9 32.35                             144    0.03 7  100 177 
 RUS  HN ES   1    9 9 50.84                             144   -0.11 7  100 177 
 RUS  HZ I         9 9 52.74         5.1 0.41                           100 177 
 OCA  SZ EP   1    9 9 36.64                             130   -0.26 7  161 353 
 ZAR  HZ EP   1    9 9 41.25                             123    0.15 6  205 292 
 ZAR  HN ES   1    910  6.06                             123   -0.53 6  205 292 
 ZAR  HZ I         910 11.63         6.6 0.28                           205 292 
 PRA  HZ EP   1    910  1.99                             107   -0.07 4  392 210 
 PRA  HN ES   1    910 43.82                             107   -0.06 4  392 210 
 PRA  HZ I         910 48.39         7.4 0.22                           392 210 
                                                                                
