 2015  2 7 0753  0.8 L   6.662 -73.173138.0  RSN  4 0.4 1.1LRSN                1
 GAP=153        1.02      11.6     6.4  8.5 -0.1622E+02 -0.1214E+01 -0.3927E+01E
 Epicentro: VILLANUEVA - SANTANDER                                             3
 ACTION:UPD 15-04-30 21:23 OP:nd   STATUS:               ID:20150207075300 L   I
 OLDACT:REG 15-02-07 12:41 OP:stll STATUS:               ID:20150207074742     3
 2015-02-07-0747-42M.COL___287                                                 6
 STAT SP IPHASW D HRMM SECON CODA AMPLIT PERI AZIMU VELO AIN AR TRES W  DIS CAZ7
 BAR2 EZ EP        753 19.81                             177    0.5310 7.76 188 
 BAR2 EZ I         753 20.16         2.6 0.36            173           7.76 188 
 BAR2 EZ ES        753 33.47                             177   -0.2210 7.76 188 
 BRR  HZ EP        753 21.10                             149   -0.3910 77.3 310 
 BRR  HN ES        753 38.07                             149    0.4410 77.3 310 
 PAM  SZ EP        753 22.82                             145   -0.3110 91.4  35 
 PTB  HZ EP        753 27.03                             131    0.36 9  143 265 
 PTB  HN ES        753 46.43                             131   -0.42 9  143 265 
 PTB  HZ I         753 50.32         1.8 0.42            130            143 265 
                                                                                
