 2015 10 7 0952 51.5 L   6.762 -73.116143.5  RSN 10 0.4 1.8LRSN                1
 GAP=142        1.03       2.9     4.4  5.6 -0.1373E+01  0.8626E+01  0.8262E+00E
 Epicentro: LOS SANTOS - SANTANDER                                             3
 ACTION:UPD 15-12-22 20:38 OP:cam  STATUS:               ID:20151007095251 L   I
 OLDACT:REG 15-10-07 13:23 OP:spq  STATUS:               ID:20151007094748     3
 2015-10-07-0947-48M.COL___346                                                 6
 STAT SP IPHASW D HRMM SECON CODA AMPLIT PERI AZIMU VELO AIN AR TRES W  DIS CAZ7
 BAR2 EZ EP        953 10.91                             172    0.1310 20.2 201 
 BAR2 EZ ES        953 25.46                             172   -0.3710 20.2 201 
 BAR2 EZ I         953 28.17        11.5 0.13            170           20.2 201 
 BRR  HZ EP        953 12.81                             150    0.1310 76.1 300 
 BRR  HN ES        953 29.84                             150    0.6410 76.1 300 
 BRR  HZ I         953 30.88        15.8 0.15            149           76.1 300 
 PAM  EZ EP        953 13.76                             150    0.2210 78.7  36 
 PAM  EN ES        953 31.11                             150    0.3710 78.7  36 
 PAM  EZ I         953 33.23         9.2 0.64            152           78.7  36 
 RUS  HZ EP        953 14.67                             145   -0.0310 96.2 178 
 RUS  HN ES        953 32.53                             145   -0.2810 96.2 178 
 RUS  HZ I         953 34.98         7.3 0.46            146           96.2 178 
 SPBC HZ EP        953 19.85                             129    0.15 9  162 221 
 SPBC HN ES        953 41.37                             129   -0.35 9  162 221 
 SPBC HZ I         953 44.41        11.9 0.28            129            162 221 
 ZAR  HZ EP        953 24.64                             121    0.38 8  209 293 
 ZAR  HN ES        953 49.55                             121   -0.28 8  209 293 
 ZAR  HZ I         953 56.06         5.3 0.15            121            209 293 
 NOR  HZ EP        953 27.51                             118    0.40 8  235 236 
 NOR  HN ES        953 54.50                             118   -0.41 8  235 236 
 NOR  HZ I         954  0.22         4.7 0.11            118            235 236 
 CHI  HZ EP        953 28.06                             117   -0.66 8  245 196 
 CHI  HN ES        953 57.76                             117    0.00 8  245 196 
 CHI  HZ I         954  6.56         2.5 0.40            118            245 196 
 SML  HZ EP        953 27.82                             116   -0.73 8  249 335 
 SML  HN ES        953 56.63                             116   -0.82 8  249 335 
 SML  HZ I         954  6.89         5.3 0.11            117            249 335 
 GUY2CHZ EP        953 35.82                             112    0.80 7  302 236 
 GUY2CHE ES        954  9.48                             112    0.50 7  302 236 
 GUY2CHZ I         954 16.73         2.3 0.14                           302 236 
                                                                                
