 2014  7 7 0517 29.3 L   6.814 -73.139142.0  RSN  4 0.3 1.3LRSN                1
 GAP=278        0.68       7.4     4.7  6.1 -0.4081E+01  0.3116E+01  0.3652E+01E
 Epicentro: LOS SANTOS - SANTANDER                                             3
 ACTION:UPD 15-03-16 20:41 OP:nd   STATUS:               ID:20140707051729 L   I
 OLDACT:DUP 14-07-07 17:51 OP:stll STATUS:               ID:20140707050820d    3
 2014-07-07-0508-19M.COL___253                                                 6
 STAT SP IPHASW D HRMM SECON CODA AMPLIT PERI AZIMU VELO AIN AR TRES W  DIS CAZ7
 BAR2 SZ EP        517 48.22                             169   -0.2510 25.0 191 
 BAR2 SZ ES        518  3.42                             169   -0.0410 25.0 191 
 BAR2 SZ I         518  7.04         3.8 0.18            162           25.0 191 
 RUS  HZ EP        517 53.21                             143    0.4610  102 177 
 PTB  HZ EP        517 56.10                             131    0.08 9  149 258 
 PTB  HN ES        518 17.05                             131    0.16 9  149 258 
 PTB  HZ I         518 24.55         3.3 0.42            130            149 258 
 SPBC HZ EP        517 57.26                             128   -0.37 9  165 219 
 SPBC HN ES        518 19.68                             128   -0.09 9  165 219 
 SPBC HZ I         518 27.95         2.5 0.12            127            165 219 
                                                                                
