 2015  2 7 0716 59.1 L   6.781 -73.145143.3  RSN  5 0.4 1.2LRSN                1
 GAP=138        0.94       5.0     4.9  7.8 -0.3022E+01  0.4550E+01  0.9258E+01E
 Epicentro: LOS SANTOS - SANTANDER                                             3
 ACTION:UPD 15-04-30 21:23 OP:nd   STATUS:               ID:20150207071659 L   I
 OLDACT:DUP 15-02-07 20:10 OP:stll STATUS:               ID:20150207070741d    3
 OLDACT:REG 15-02-07 12:40 OP:stll STATUS:               ID:20150207070740     3
 2015-02-07-0707-40M.COL___290                                                 6
 STAT SP IPHASW D HRMM SECON CODA AMPLIT PERI AZIMU VELO AIN AR TRES W  DIS CAZ7
 BRR  HZ EP        717 20.40                             152    0.3610 72.4 300 
 BRR  HZ I         717 20.71         4.4 0.22            143           72.4 300 
 BRR  HN ES        717 36.97                             152    0.5910 72.4 300 
 PAM  SZ EP        717 21.18                             150    0.0310 79.0  38 
 PAM  SZ I         717 21.64         4.9 0.24            144           79.0  38 
 PAM  SN ES        717 37.90                             150   -0.4410 79.0  38 
 RUS  HZ EP        717 22.52                             144    0.0710 98.4 176 
 RUS  HN ES        717 40.70                             144    0.0410 98.4 176 
 RUS  HZ I         717 42.69         1.2 0.42            128           98.4 176 
 PTB  HZ EP        717 25.47                             131   -0.37 9  147 260 
 PTB  HN ES        717 46.13                             131   -0.57 9  147 260 
 SPBC HZ EP        717 27.46                             129    0.20 9  162 219 
 SPBC HZ I         717 51.96         2.7 0.48            115            162 219 
                                                                                
