 2016  2 7 0510 12.4 L   6.786 -73.213136.6  RSN 11 0.6 1.8LRSN                1
 GAP=128        1.06       4.1     5.2  9.2 -0.7687E+01  0.1012E+02  0.7118E+01E
 Epicentro: ZAPATOCA - SANTANDER                                               3
 OLDACT:REG 16-02-07 11:46 OP:dnl  STATUS:               ID:20160207050748     3
 ACTION:UPD 16-03-04 21:23 OP:rebc STATUS:               ID:20160207051012 L   I
 OLDACT:UP  16-02-07 14:53 OP:dnl  STATUS:               ID:20160207050749d    3
 OLDACT:DUP 16-02-07 14:38 OP:dnl  STATUS:               ID:20160207050749d    3
 OLDACT:UP  16-02-07 14:37 OP:dnl  STATUS:               ID:20160207050748     3
 2016-02-07-0507-48M.COL___334                                                 6
 STAT SP IPHASW D HRMM SECON CODA AMPLIT PERI AZIMU VELO AIN AR TRES W  DIS CAZ7
 BAR2 EZ EP   2    510 31.69                             170    0.78 5 21.6 171 
 BAR2 EZ ES   2    510 45.52                             170    0.18 5 21.6 171 
 BAR2 EZ I         510 47.27        23.3 0.22            168           21.6 171 
 PAM  EZ EP     C  510 34.48                             147    0.4210 83.4  43 
 PAM  EN ES        510 50.86                             147   -0.0810 83.4  43 
 PAM  EZ I         510 53.66        28.4 0.56            154           83.4  43 
 PTB  HZ EP   2    510 37.89                             131   -0.06 5  140 259 
 PTB  HN ES        510 58.19                             131    0.32 9  140 259 
 PTB  HZ I         511  1.97        14.9 0.12            131            140 259 
 SPBC HZ EP   2    510 40.48                             128    0.82 5  157 217 
 SPBC HN ES   2    511  0.37                             128   -0.55 5  157 217 
 SPBC HZ I         511  9.58         4.9 0.08            129            157 217 
 OCA  HZ EP        510 39.95                             127   -0.16 9  161 356 
 OCA  HN ES        511  1.00                             127   -0.72 9  161 356 
 OCA  HZ I         511  6.67        26.0 0.15            131            161 356 
 ZAR  HZ EP   2    510 44.50                             121    0.87 4  198 293 
 ZAR  HE ES   2    511  8.91                             121    0.94 4  198 293 
 ZAR  HZ I         511 12.83         8.0 0.10            123            198 293 
 CHI  HZ EP        510 49.87                             115    0.62 8  245 194 
 CHI  HN ES        511 17.05                             115   -0.93 8  245 194 
 CHI  HZ I         511 25.52         1.6 0.32            117            245 194 
 HEL  HZ EP   4    510 52.64                             113    1.31 0  265 256 
 HEL  HE ES   4    511 19.62                             113   -2.06 0  265 256 
 HEL  HZ I         511 30.49         3.7 0.26            115            265 256 
 GUY2CHZ EP   4    510 55.87                             111    1.05 0  294 234 
 GUY2CHN ES   4    511 25.66                             111   -2.24 0  294 234 
 GUY2CHZ I         511 36.89         2.8 0.25                           294 234 
 CBOC HZ EP   4    511  0.55                             108    2.46 0  326 252 
 CBOC HN ES        511 33.26                             108   -0.46 7  326 252 
 CBOC HZ I         511 40.43         1.2 0.40            110            326 252 
 MON  HZ EP   2    510 59.42                             107   -1.10 3  349 309 
 MON  HN ES   4    511 34.73                             107   -3.31 0  349 309 
 MON  HZ I         511 38.75         3.6 0.20            109            349 309 
                                                                                
