 2013  7 7 0054 29.7 L   6.806 -73.139145.6  RSN 20 0.5 2.7LRSN                1
 GAP= 66        1.20       2.6     3.1  5.4 -0.1948E+01  0.3170E+01  0.2689E+01E
 Epicentro: LOS SANTOS - SANTANDER                                             3
 ACTION:UPD 13-08-12 10:36 OP:ep   STATUS:               ID:20130707005430 L   I
 OLDACT:UP  13-07-08 05:43 OP:CF   STATUS:               ID:20130707005430 L   3
 OLDACT:REG 13-07-07 07:41 OP:stll STATUS:               ID:20130707004835     3
 2013-07-07-0048-35M.COL___224                                                 6
 STAT SP IPHASW D HRMM SECON CODA AMPLIT PERI AZIMU VELO AIN AR TRES W  DIS CAZ7
 BAR2 SZ EP        054 49.39                             170    0.0210 24.1 192 
 BAR2 SZ ES        055  4.46                             170   -0.2210 24.1 192 
 GIR2 SZ EP        054 49.49                             167    0.1010 30.8 349 
 BRR  HZ IP     C  054 51.28                             152    0.3810 71.6 298 
 BRR  HN ES        055  8.56                             152    1.1610 71.6 298 
 BRR  HN I         055  9.66        79.8 0.20            151           71.6 298 
 PAM  SZ IP     C  054 52.19                             151    0.3010 76.4  39 
 PAM  SZ I         054 52.47        54.8 0.24            154           76.4  39 
 PAM  SN ES        055  9.46                             151    0.3110 76.4  39 
 RUS  HZ EP        054 53.51                             144   -0.0210  101 177 
 RUS  HE ES        055 11.61                             144   -0.4610  101 177 
 RUS  HE I         055 12.80        65.2 0.52            144            101 177 
 GRA  SZ EP        054 55.48                             137    0.5710  125  17 
 GRA  SZ ES        055 14.94                             137    0.4110  125  17 
 CAPV BZ EP        054 57.09                             132    0.05 9  148  38 
 CAPV BZ ES        055 17.72                             132   -0.61 9  148  38 
 PTB  HZ EP        054 56.03                             132   -0.75 9  149 259 
 PTB  HE ES        055 17.49                             132   -0.38 9  149 259 
 PTB  HE I         055 22.79        46.9 0.38            131            149 259 
 TAM  HZ EP        054 57.58                             131    0.22 9  155 105 
 TAM  HN ES        055 18.66                             131   -0.23 9  155 105 
 TAM  HN I         055 20.21        40.7 0.48            133            155 105 
 OCA  HZ EP        054 57.10                             130   -0.89 9  160 353 
 OCA  HN ES        055 19.39                             130   -0.64 9  160 353 
 OCA  HN I         055 23.52       155.6 0.22            131            160 353 
 YOP  SZ EP        054 59.92                             126    0.12 9  179 154 
 ZAR  HZ EP        055  3.06                             122    0.83 9  205 292 
 ZAR  HE ES        055 27.32                             122   -0.25 9  205 292 
 ZAR  HE I         055 34.12       103.0 0.32            122            205 292 
 NOR  HZ EP        055  4.97                             118   -0.61 8  236 234 
 NOR  HE ES        055 32.70                             118   -0.82 8  236 234 
 NOR  HE I         055 38.58        39.6 0.20            118            236 234 
 SML  HZ EP        055  6.27                             117   -0.07 8  243 335 
 SML  HE ES        055 34.40                             117   -0.48 8  243 335 
 SML  HE I         055 36.89        92.1 0.10            118            243 335 
 CHI  HZ EP        055  7.48                             117   -0.05 8  249 195 
 CHI  HN ES        055 37.05                             117    0.06 8  249 195 
 CHI  HN I         055 41.08        16.2 0.58            117            249 195 
 ROSC BN ES        055 37.64                             117   -0.13 8  254 211 
 HEL  HZ EP   4    055 11.65                             115    1.60 0  273 256 
 HEL  HN ES   4    055 42.86                             115    1.37 0  273 256 
 GUY2CHZ EP   4    055 15.26                             112    1.80 0  302 235 
 GUY2CHN ES        055 48.33                             112    0.77 7  302 235 
 GUY2CHN I         055 53.47        14.1 0.44                           302 235 
 RREF HZ EP        055 17.12                             111    1.12 7  323 229 
 RREF HN ES        055 52.12                             111    0.05 7  323 229 
 RREF HZ I         056  0.77        16.7 0.32            111            323 229 
 PRA  HZ EP        055 23.27                             106   -0.10 6  393 210 
 PRA  HE ES        056  5.14                             106   -0.06 6  393 210 
 PRA  HE I         056  8.51         8.4 0.48            107            393 210 
 ORTC HZ EP        055 23.98                             106    0.20 6  396 216 
 ORTC HN ES        056  6.35                             106    0.43 6  396 216 
 ORTC HN I         056 13.06        15.1 0.30            107            396 216 
                                                                                
