 2015  2 7 0421 17.6 L   6.704 -73.183152.1  RSN  6 0.6 1.0LRSN                1
 GAP=136        1.59       8.5    10.6 12.8  0.3506E+02 -0.3399E+02 -0.5070E+02E
 Epicentro: VILLANUEVA - SANTANDER                                             3
 ACTION:UPD 15-04-30 21:23 OP:nd   STATUS:               ID:20150207042117 L   I
 OLDACT:REG 15-02-07 12:34 OP:stll STATUS:               ID:20150207041741     3
 2015-02-07-0417-41M.COL___290                                                 6
 STAT SP IPHASW D HRMM SECON CODA AMPLIT PERI AZIMU VELO AIN AR TRES W  DIS CAZ7
 BAR2 EZ EP        421 39.38                             175    1.5910 12.4 180 
 BAR2 EZ ES        421 53.09                             175   -0.4810 12.4 180 
 BAR2 EZ I         421 54.36         2.5 0.30            177           12.4 180 
 BRR  HZ EP        421 39.55                             153    0.0210 73.5 307 
 BRR  HZ I         421 47.36         3.3 0.42            147           73.5 307 
 BRR  HN ES        421 57.02                             153    0.3710 73.5 307 
 PAM  SZ EP        421 41.13                             148    0.0110 88.3  37 
 PAM  SZ I         422  0.95         2.3 0.36            141           88.3  37 
 RUS  HZ EP        421 40.69                             148   -0.5710 90.4 173 
 RUS  HN ES        421 59.38                             148   -0.3610 90.4 173 
 RUS  HZ I         422  0.65         1.3 0.26            144           90.4 173 
 PTB  HN ES        422  5.58                             134   -0.01 9  142 263 
 PTB  HZ I         422 15.53         0.7 0.22            129            142 263 
 SML  HZ EP        421 55.03                             118   -0.39 8  252 337 
 SML  HN ES        422 24.37                             118   -0.57 8  252 337 
                                                                                
