 2015  2 7 0717 35.4 L   6.680 -73.339122.4  RSN 13 0.8 1.8LRSN                1
 GAP= 55        1.80       4.7     4.4  8.8 -0.2970E+01  0.1098E+02 -0.1491E+01E
 Epicentro: GALAN - SANTANDER                                                  3
 ACTION:UPD 15-04-30 21:23 OP:nd   STATUS:               ID:20150207071735 L   I
 OLDACT:DUP 15-02-07 20:11 OP:stll STATUS:               ID:20150207070742d    3
 OLDACT:DUP 15-02-07 20:10 OP:stll STATUS:               ID:20150207070741d    3
 OLDACT:REG 15-02-07 12:40 OP:stll STATUS:               ID:20150207070740     3
 2015-02-07-0707-40M.COL___290                                                 6
 STAT SP IPHASW D HRMM SECON CODA AMPLIT PERI AZIMU VELO AIN AR TRES W  DIS CAZ7
 BAR2 EZ EP        717 52.37                             170    0.1710 19.8 119 
 BAR2 EZ ES        718  5.08                             170   -0.1810 19.8 119 
 BAR2 EZ I         718  6.84        31.2 0.54            171           19.8 119 
 BRR  HZ EP        717 54.07                             151    0.4810 62.7 319 
 BRR  HN ES        718  8.55                             151    0.8010 62.7 319 
 BRR  HZ I         718 17.90         8.1 0.12            150           62.7 319 
 RUS  HZ EP        717 56.05                             141   -0.2210 91.6 162 
 RUS  HZ I         717 56.83        15.8 0.20            143           91.6 162 
 RUS  HN ES        718 11.93                             141   -0.5810 91.6 162 
 PAM  SZ EP        717 57.65                             138    0.6010  101  44 
 PAM  SN EP        717 57.73                             138            101  44 
 PAM  SN ES        718 14.03                             138    0.1310  101  44 
 PAM  SZ I         718 15.78         5.6 0.30            137            101  44 
 PTB  HZ EP        717 58.03                             131   -0.3810  125 263 
 PTB  HN ES        718 14.94                             131   -1.3810  125 263 
 PTB  HZ I         718 21.76         8.7 0.32            132            125 263 
 SPBC HZ EP        718  0.61                             128    0.68 9  140 216 
 SPBC HN ES        718 18.43                             128   -0.60 9  140 216 
 SPBC HZ I         718 21.50        13.1 0.12            129            140 216 
 OCA  HZ EP        718  3.25                             121   -0.05 9  172   1 
 OCA  HN ES        718 24.90                             121   -0.12 9  172   1 
 OCA  HZ I         718 29.41        14.3 0.44            121            172   1 
 TAM  HZ EP        718  3.46                             121    0.21 9  173  99 
 TAM  HZ I         718 24.56        12.4 0.22            122            173  99 
 TAM  HE ES        718 24.90                             121   -0.03 9  173  99 
 ZAR  HZ EP        718  4.91                             118   -0.10 9  190 298 
 ZAR  HE ES        718 28.95                             118    0.89 9  190 298 
 ZAR  HZ I         718 35.29         7.3 0.36            119            190 298 
 NOR  HZ EP        718  6.65                             116   -0.51 8  210 234 
 NOR  HE ES        718 31.37                             116   -0.52 8  210 234 
 NOR  HZ I         718 34.63         7.3 0.16            117            210 234 
 HEL  HZ EP        718 12.54                             112    0.67 8  248 258 
 HEL  HN ES        718 42.09                             112    1.82 8  248 258 
 HEL  HZ I         718 46.36         3.5 0.48            112            248 258 
 GUY2CHZ EP        718 15.03                             109   -0.16 7  276 234 
 GUY2CHN ES        718 47.15                             109    0.97 7  276 234 
 GUY2CHZ I         718 51.04         3.2 0.26                           276 234 
 MON  HZ EP        718 21.51                             104   -1.23 6  346 312 
 MON  HZ I         718 21.74         1.5 0.10            105            346 312 
 MON  HN ES        718 57.26                             104   -2.36 6  346 312 
                                                                                
