 2017  8 7 0442 22.6 L   6.752 -73.139143.2  RSN  6 0.3 1.3LRSN                1
 GAP=234        0.85       4.6     5.0  5.9  0.9242E+01  0.5462E+01  0.3022E+00E
 Epicentro: LOS SANTOS - SANTANDER                                             3
 ACTION:UPD 17-09-04 20:17 OP:rebc STATUS:               ID:20170807044222 L   I
 OLDACT:UP  17-08-07 15:23 OP:dhb  STATUS:               ID:20170807043743d    3
 OLDACT:DUP 17-08-07 15:17 OP:dhb  STATUS:               ID:20170807043743d    3
 2017-08-07-0438-00M.COL___393                                                 6
 STAT SP IPHASW D HRMM SECON CODA AMPLIT PERI AZIMU VELO AIN AR TRES W  DIS CAZ7
 BAR2 EZ EP        442 41.60                             172   -0.1910 18.3 195 
 BAR2 EZ ES        442 56.35                             172   -0.4410 18.3 195 
 BAR2 EZ I         442 58.80         4.0 0.17            171           18.3 195 
 BRR  HZ EP        442 43.71                             151    0.0810 74.5 302 
 BRR  HN ES        443  0.40                             151    0.3510 74.5 302 
 BRR  HZ I         443  2.54         4.4 0.38            150           74.5 302 
 RUS  HZ EP        442 45.46                             145   -0.2210 95.2 176 
 RUS  HN ES        443  4.26                             145    0.5510 95.2 176 
 RUS  HZ I         443  5.60         3.6 0.34            147           95.2 176 
 PTB  HZ EP        442 49.19                             131   -0.11 9  148 261 
 PTB  HN ES        443 10.28                             131    0.13 9  148 261 
 PTB  HZ I         443 11.86         1.5 0.30            132            148 261 
 SPBC HZ EP        442 50.57                             129    0.05 9  160 220 
 SPBC HE ES        443 12.07                             129   -0.26 9  160 220 
 SPBC HZ I         443 14.89         3.2 0.26            130            160 220 
 YPLC HE ES   4    443 18.27                             127    3.87 0  172 151 
 ZAR  HZ EP   1    442 55.92                             121    0.80 6  207 293 
 ZAR  HE ES        443 20.13                             121   -0.39 8  207 293 
 ZAR  HZ I         443 26.27         1.8 0.16            122            207 293 
                                                                                
