 2017  8 7 0423  3.6 L   6.745 -73.145133.4  RSN  6 0.3 1.2LRSN                1
 GAP=233        0.78       4.1     4.5  5.7  0.7586E+01  0.5878E+01  0.2275E+01E
 Epicentro: LOS SANTOS - SANTANDER                                             3
 ACTION:UPD 17-09-04 20:17 OP:rebc STATUS:               ID:20170807042303 L   I
 OLDACT:REG 17-08-07 12:33 OP:dhb  STATUS:               ID:20170807041734     3
 2017-08-07-0418-00M.COL___393                                                 6
 STAT SP IPHASW D HRMM SECON CODA AMPLIT PERI AZIMU VELO AIN AR TRES W  DIS CAZ7
 BAR2 EZ IP     C  423 21.53                             172   -0.1410 17.3 194 
 BAR2 EZ ES        423 35.53                             172   -0.2010 17.3 194 
 BAR2 EZ I         423 37.78         4.2 0.44            170           17.3 194 
 BRR  HZ EP        423 23.65                             149   -0.0110 74.4 303 
 BRR  HN ES        423 39.57                             149    0.3010 74.4 303 
 BRR  HZ I         423 43.08         3.6 0.22            148           74.4 303 
 RUS  HZ EP        423 25.52                             143   -0.2110 94.5 176 
 RUS  HN ES        423 43.20                             143    0.2310 94.5 176 
 RUS  HZ I         423 44.99         1.5 0.32            145           94.5 176 
 PTB  HZ EP        423 30.14                             129    0.61 9  147 261 
 PTB  HN ES        423 49.23                             129   -0.50 9  147 261 
 PTB  HZ I         423 52.50         1.3 0.19            129            147 261 
 SPBC HZ EP        423 30.52                             127   -0.24 9  159 220 
 SPBC HN ES        423 52.13                             127    0.22 9  159 220 
 SPBC HZ I         423 56.21         2.3 0.07            128            159 220 
 ZAR  HE ES        424  0.39                             119   -0.08 8  207 294 
 ZAR  HZ I         424  6.38         2.6 0.21            120            207 294 
                                                                                
