 2013  4 7 0811 44.1 L   6.768 -73.221144.0  RSN  6 0.5 1.6LRSN                1
 GAP=190        1.10       6.1     7.3  9.7  0.1351E+02  0.1004E+02 -0.2719E+02E
 Epicentro: ZAPATOCA - SANTANDER                                               3
 ACTION:UPD 13-05-22 14:36 OP:EP   STATUS:               ID:20130407081144 L   I
 2013-04-07-0810-00M.COL___245                                                 6
 STAT SP IPHASW D HRMM SECON CODA AMPLIT PERI AZIMU VELO AIN AR TRES W  DIS CAZ7
 BAR2 SZ ES        812 18.30                             172   -0.2610 19.9 167 
 BAR2 SZ I         812 19.89         9.2 0.40            170           19.9 167 
 BRR  HZ EP        812  5.31                             154    0.5310 65.9 305 
 BRR  HN ES        812 21.63                             154    0.7310 65.9 305 
 BRR  HN I         812 22.54        10.4 0.30            152           65.9 305 
 RUS  HN ES        812 25.43                             144   -0.3210 98.0 171 
 RUS  HN I         812 29.22         4.0 0.40            144           98.0 171 
 PTB  HZ EP   1    812 10.75                             134    0.61 7  139 260 
 PTB  HN ES        812 30.11                             134   -0.32 9  139 260 
 PTB  HN I         812 33.61         3.2 0.20            132            139 260 
 ZAR  HE ES        812 40.21                             123   -0.29 9  198 294 
 ZAR  HE I         812 46.89         5.6 0.28            122            198 294 
 SML  HZ EP        812 20.36                             117   -0.27 8  244 337 
 SML  HN ES        812 48.61                             117   -0.50 8  244 337 
 SML  HN I         812 51.06         5.8 0.28            117            244 337 
                                                                                
