 2013  6 7 0725 50.9 L   7.140 -72.997168.5  RSN  4 0.0 2.0LRSN                1
 GAP=215        0.34       3.5     6.9  5.2 -0.1208E+02 -0.1510E+02  0.1075E+02E
 Epicentro: TONA - SANTANDER                                                   3
 ACTION:UPD 14-01-08 09:53 OP:ep   STATUS:               ID:20130607072550 L   I
 OLDACT:DUP 13-06-07 12:07 OP:mh   STATUS:               ID:20130607072001d    3
 OLDACT:REG 13-06-07 08:38 OP:mh   STATUS:               ID:20130607072000     3
 2013-06-07-0720-00M.COL___257                                                 6
 STAT SP IPHASW D HRMM SECON CODA AMPLIT PERI AZIMU VELO AIN AR TRES W  DIS CAZ7
 BAR2 SZ EP   1    726 14.53                             158    0.00 7 63.9 199 
 BAR2 SZ I         726 32.54         4.2 0.28            144           63.9 199 
 BRR  HZ EP   4    726 17.04                             154    2.11 0 79.1 267 
 BRR  HN ES        726 33.70                             154   -0.0010 79.1 267 
 BRR  HN I         726 34.77        11.2 0.16            169           79.1 267 
 OCA  HE ES        726 39.67                             141   -0.0010  127 344 
 OCA  HN I         726 49.03       162.4 1.14            143            127 344 
 PTB  HZ EP        726 22.12                             132    0.00 9  174 248 
 PTB  HN ES   4    726 42.01                             132   -4.48 0  174 248 
 PTB  HN I         726 48.06         4.2 0.50            140            174 248 
                                                                                
