 2015 10 7 0226 45.1 L   6.580 -73.402116.0  RSN  4 0.3 1.1LRSN                1
 GAP=147        0.69       7.7     8.8  8.3  0.5732E+02  0.3724E+02  0.2562E+02E
 Epicentro: HATO - SANTANDER                                                   3
 ACTION:UPD 15-12-22 20:37 OP:cam  STATUS:               ID:20151007022645 L   I
 OLDACT:DUP 15-10-07 15:31 OP:spq  STATUS:               ID:20151007021751d    3
 2015-10-07-0217-50M.COL___346                                                 6
 STAT SP IPHASW D HRMM SECON CODA AMPLIT PERI AZIMU VELO AIN AR TRES W  DIS CAZ7
 BAR2 EZ EP   1    227  1.60                             168    0.42 7 24.3  87 
 BAR2 EZ ES   1    227 14.03                             168    0.30 7 24.3  87 
 BRR  HZ EP        227  2.46                             148   -0.4210 67.6 330 
 BRR  HE ES        227 16.67                             148   -0.0810 67.6 330 
 BRR  HZ I         227 20.12         3.7 0.56            149           67.6 330 
 RUS  HZ EP   1    227  4.90                             142    0.19 7 83.8 155 
 RUS  HN ES   1    227 19.71                             142   -0.31 7 83.8 155 
 RUS  HZ I         227 20.39         1.4 0.26            146           83.8 155 
 ZAR  HE ES        227 37.18                             117    0.21 9  190 302 
 ZAR  HZ I         227 38.50         2.7 0.28            119            190 302 
                                                                                
