 2016 11 7 0654 16.7 L   7.205 -74.115  4.0  RSN  5 0.3 1.0LRSN                1
 GAP=172        0.75       2.8     1.6  4.9  0.1405E+01  0.2415E+00  0.2550E+01E
 Epicentro: PUERTO WILCHES - SANTANDER                                         3
 ACTION:UPD 17-10-26 21:05 OP:lp   STATUS:               ID:20161107065416 L   I
 OLDACT:DUP 16-11-07 17:44 OP:lv   STATUS:               ID:20161107064749d    3
 2016-11-07-0648-00M.COL___325                                                 6
 STAT SP IPHASW D HRMM SECON CODA AMPLIT PERI AZIMU VELO AIN AR TRES W  DIS CAZ7
 BRR  HZ EP        654 23.87                              47   -0.3510 45.7 104 
 BRR  HE ES        654 29.90                              47   -0.1910 45.7 104 
 BRR  HZ I         654 31.49         7.0 0.18             47           45.7 104 
 PTB  HZ EP        654 29.85                              47    0.0110 82.7 207 
 PTB  HN ES        654 39.95                              47   -0.1310 82.7 207 
 PTB  HZ I         654 40.32         4.8 0.18             47           82.7 207 
 ZAR  HZ EP     C  654 30.86                              47    0.2210 88.0 291 
 ZAR  HN ES        654 41.36                              47   -0.1510 88.0 291 
 ZAR  HZ I         654 43.05         3.8 0.18             47           88.0 291 
 BAR2 EZ EP        654 36.83                              47    0.6110  123 123 
 BAR2 EZ ES        654 51.48                              47    0.0310  123 123 
 BAR2 EZ I         654 52.37         6.1 0.42             47            123 123 
 PAM  HZ EP   4    654 42.20                              47    0.62 0  157  84 
 PAM  EN ES   4    655  1.75                              47    0.76 0  157  84 
 PAM  HZ I         655  3.81         3.0 0.22             47            157  84 
                                                                                
