 2014  2 7 0832 29.3 L   6.785 -73.175151.6  RSN  7 0.4 1.2LRSN                1
 GAP=134        0.94       4.3     5.1 10.0 -0.4890E+01  0.1976E+02 -0.5639E+01E
 Epicentro: LOS SANTOS - SANTANDER                                             3
 ACTION:UPD 14-03-10 08:08 OP:ep   STATUS:               ID:20140207083229 L   I
 OLDACT:UP  14-02-07 13:31 OP:mh   STATUS:               ID:20140207083000     3
 OLDACT:REG 14-02-07 09:01 OP:mh   STATUS:               ID:20140207083000     3
 2014-02-07-0830-00M.COL___291                                                 6
 STAT SP IPHASW D HRMM SECON CODA AMPLIT PERI AZIMU VELO AIN AR TRES W  DIS CAZ7
 PAM  SZ EP   1    832 52.61                             151    0.32 7 80.7  41 
 PAM  SN ES        833  9.97                             151   -0.2910 80.7  41 
 PAM  SZ I         833 10.76         1.7 0.19            150           80.7  41 
 RUS  HZ EP        832 53.78                             145    0.2910 99.2 174 
 RUS  HN ES   1    833 12.39                             145   -0.00 7 99.2 174 
 RUS  HZ I         833 13.88         1.2 0.36            148           99.2 174 
 PTB  HZ EP        832 55.53                             134   -0.87 9  144 259 
 PTB  HN ES   1    833 17.71                             134    0.13 7  144 259 
 SPBC HN ES   1    833 20.91                             131    0.66 7  160 218 
 ZAR  HN ES   1    833 27.53                             124    0.25 6  202 293 
 NOR  HN ES   1    833 32.37                             120   -0.43 6  231 234 
 SML  HZ EP   1    833  6.67                             119    0.43 6  244 336 
 SML  HN ES   1    833 35.43                             119    0.35 6  244 336 
 SML  HZ I         833 41.90         2.6 0.13            118            244 336 
                                                                                
