 2016 12 7 0627  7.4 L   6.758 -73.224146.8  RSN  4 0.4 1.2LRSN                1
 GAP=220        1.10       8.7     8.1  8.9  0.3421E+02  0.7973E+01  0.3699E+01E
 Epicentro: ZAPATOCA - SANTANDER                                               3
 ACTION:UPD 17-01-11 20:12 OP:rebc STATUS:               ID:20161207062707 L   I
 OLDACT:REG 16-12-07 12:48 OP:ar   STATUS:               ID:20161207061743     3
 2016-12-07-0618-00M.COL___355                                                 6
 STAT SP IPHASW D HRMM SECON CODA AMPLIT PERI AZIMU VELO AIN AR TRES W  DIS CAZ7
 BAR2 EZ EP        627 26.73                             172   -0.3910 18.9 166 
 BAR2 EZ ES        627 41.96                             172   -0.5010 18.9 166 
 BAR2 EZ I         627 42.99         8.9 0.42            171           18.9 166 
 BRR  HZ EP        627 28.34                             154   -0.1010 66.3 306 
 BRR  HN ES        627 45.43                             154    0.6210 66.3 306 
 BRR  HZ I         627 45.95         5.6 0.10            154           66.3 306 
 RUS  HZ EP        627 31.03                             145   -0.0110 96.9 171 
 RUS  HN ES        627 49.92                             145    0.4810 96.9 171 
 RUS  HZ I         627 51.03         2.0 0.32            145           96.9 171 
 PTB  HZ EP        627 34.06                             134    0.40 9  138 260 
 PTB  HN ES        627 53.60                             134   -0.51 9  138 260 
 PTB  HZ I         627 56.21         0.9 0.12            134            138 260 
                                                                                
