 2010  8 7 0404 26.3 L   6.785 -73.090139.4  RSN  5 0.4 1.2LRSN                1
 GAP=165        0.87       6.4    12.5 14.2 -0.1008E+02 -0.6151E+02 -0.1403E+02E
 Epicentro: LOS SANTOS - SANTANDER                                             3
 ACTION:UP  10-09-07 10:52 OP:vdl  STATUS:               ID:20100807040426 L   I
 2010-08-07-0402-50S.COL___125                                                 6
 STAT SP IPHASW D HRMM SECON CODA AMPLIT PERI AZIMU VELO SNR AR TRES W  DIS CAZ7
 BTL  SZ EP        4 4 45.33                             170     0.110   25 307 
 BTL  SZ ES   3    4 4 59.38                             170    -0.6 2   25 307 
 BRR  HZ EP        4 4 46.85                             150    -0.310   78 297 
 BRR  HN ES   2    4 5  3.95                             150     0.5 5   78 297 
 BRR  HZ I         4 5  7.70         5.3 0.10                            78 297 
 RUS  HZ EP   1    4 4 49.06                             144    -0.2 7   99 180 
 RUS  HE ES   2    4 5  7.59                             144     0.4 5   99 180 
 RUS  HZ I         4 5  9.17         1.9 0.24                            99 180 
 GUE  SZ EP   1    4 4 51.29                             138     0.8 7  117   9 
 GRA  SZ EP        4 4 50.86                             136    -0.110  126  15 
 GRA  SZ ES   2    4 5  9.67                             136    -0.6 5  126  15 
 GRA  SZ I         4 5 11.67         2.2 0.46                           126  15 
                                                                                
