 2011 11 7 0510 39.6 L   7.368 -73.175133.5  RSN  4 0.2 1.2LRSN                1
 GAP=209        0.44       6.2     4.6  5.2 -0.1942E+01  0.2214E+01  0.8081E+01E
 Epicentro: RIONEGRO - SANTANDER                                               3
 ACTION:UPD 12-07-13 16:08 OP:ep   STATUS:               ID:20111107051039 L   I
 2011-11-07-0509-19S.COL___175                                                 6
 STAT SP IPHASW D HRMM SECON CODA AMPLIT PERI AZIMU VELO AIN AR TRES W  DIS CAZ7
 PAM  SN ES   1    511 14.35                             157   -0.03 7 52.6  93 
 BRR  HZ EP   1    510 58.96                             152   -0.15 7 65.9 244 
 BRR  HN ES   1    511 14.38                             152    0.04 7 65.9 244 
 BRR  HZ I         511 15.45         3.8 0.11                          65.9 244 
 BAR2 SZ EP   1    511  1.08                             145    0.36 7 85.8 181 
 BAR2 SZ ES   1    511 17.14                             145   -0.06 7 85.8 181 
 RUS  HZ EP   1    511  7.54                             126   -0.20 7  164 176 
                                                                                
