 2012  8 7 0006 59.3 L   6.795 -73.139142.6  RSN  8 0.3 1.9LRSN                1
 GAP=138        0.79       3.1     4.5  5.3  0.2021E+00  0.4670E+01  0.2440E+01E
 Epicentro: LOS SANTOS - SANTANDER                                             3
 ACTION:UPD 12-09-10 11:54 OP:ep   STATUS:               ID:20120807000659 L   I
 2012-08-07-0000-00M.COL___216                                                 6
 STAT SP IPHASW D HRMM SECON CODA AMPLIT PERI AZIMU VELO AIN AR TRES W  DIS CAZ7
 BAR2 SZ EP        0 7 18.69                             170    0.1210 22.9 192 
 BAR2 SZ ES        0 7 33.43                             170   -0.1510 22.9 192 
 BAR2 SZ I         0 7 34.75        27.3 0.26                          22.9 192 
 BRR  HZ EP        0 7 20.48                             152    0.2910 72.1 299 
 BRR  HN ES        0 7 36.93                             152    0.4710 72.1 299 
 BRR  HZ I         0 7 42.14        19.8 0.21                          72.1 299 
 PAM  SZ EP        0 7 21.53                             150    0.3210 77.4  39 
 PAM  SN ES        0 7 38.13                             150   -0.1510 77.4  39 
 RUS  HZ EP        0 7 22.65                             143   -0.0810100.0 176 
 RUS  HZ I         0 7 23.57         8.0 0.12                         100.0 176 
 RUS  HN ES   1    0 7 40.76                             143   -0.22 7100.0 176 
 PTB  HZ EP        0 7 25.53                             131   -0.56 9  148 259 
 PTB  HZ I         0 7 48.65         8.9 0.22                           148 259 
 OCA  HZ EP   1    0 7 27.28                             129   -0.18 7  161 353 
 OCA  HE ES   1    0 7 48.85                             129   -0.55 7  161 353 
 ZAR  HN ES   1    0 7 56.76                             122   -0.12 6  205 292 
 ZAR  HZ I         0 8  3.40         9.4 0.21                           205 292 
 CHI  HZ EP   1    0 7 37.54                             116    0.73 6  248 195 
 CHI  HN ES   1    0 8  5.83                             116   -0.22 6  248 195 
 CHI  HZ I         0 8  9.99         2.8 0.24                           248 195 
                                                                                
