 2015  4 7 0514  5.0 L   6.878 -73.141147.6  RSN  7 0.5 1.9LRSN                1
 GAP=133        1.23       4.8     5.4  8.3 -0.2512E+00  0.6444E+01 -0.3559E+01E
 Epicentro: LOS SANTOS - SANTANDER                                             3
 ACTION:UPD 15-06-03 16:53 OP:cam  STATUS:               ID:20150407051405 L   I
 OLDACT:REG 15-04-07 19:21 OP:mh   STATUS:               ID:20150407050749     3
 2015-04-07-0507-49M.COL___264                                                 6
 STAT SP IPHASW D HRMM SECON CODA AMPLIT PERI AZIMU VELO AIN AR TRES W  DIS CAZ7
 BAR2 EZ EP        514 25.15                             167    0.0810 31.9 188 
 BAR2 EZ ES        514 40.50                             167   -0.2210 31.9 188 
 BAR2 EZ I         514 42.17        11.2 0.36            171           31.9 188 
 BRR  HZ EP        514 26.58                             154    0.3910 68.0 292 
 BRR  HN ES        514 43.30                             154    0.5910 68.0 292 
 BRR  HZ I         514 44.18        19.8 0.42            154           68.0 292 
 PAM  SZ EP        514 27.61                             153    0.5610 70.6  44 
 PAM  SN ES        514 44.41                             153    0.1810 70.6  44 
 PAM  SZ I         514 46.33        36.5 0.28            153           70.6  44 
 RUS  HZ EP        514 29.56                             142   -0.0210  109 177 
 RUS  HN ES        514 48.57                             142   -0.1710  109 177 
 RUS  HZ I         514 49.85         5.7 0.26            146            109 177 
 PTB  HZ EP        514 31.89                             132   -0.46 9  150 256 
 PTB  HN ES        514 53.12                             132   -0.56 9  150 256 
 PTB  HZ I         514 55.34        11.9 0.12            134            150 256 
 OCA  HZ EP        514 32.62                             132   -0.08 9  152 353 
 OCA  HN ES        514 53.20                             132   -1.08 9  152 353 
 OCA  HZ I         515  2.55        14.9 0.38            132            152 353 
 ZAR  HN ES        515  3.18                             123    0.67 9  201 290 
                                                                                
