 2012  1 7 0557 31.5 L   6.772 -73.142150.0  RSN 10 0.4 1.7LRSN                1
 GAP=138        0.86       4.2     5.0  6.9  0.1309E+01  0.7998E+01  0.6895E+01E
 Epicentro: LOS SANTOS - SANTANDER                                             3
 ACTION:UP  12-02-03 08:14 OP:REBC STATUS:               ID:20120107055731 L   I
 2012-01-07-0550-00M.COL___186                                                 6
 STAT SP IPHASW D HRMM SECON CODA AMPLIT PERI AZIMU VELO SNR AR TRES W  DIS CAZ7
 BAR2 SZ EP   1    557 51.40                             172    -0.2 7   20 193 
 BAR2 SZ ES   2    558  6.93                             172    -0.3 5   20 193 
 BAR2 SZ I         558  9.86        11.1 0.49                            20 193 
 GIR2 SZ EP   1    557 51.10                             166    -0.6 7   34 351 
 GIR2 SZ ES   1    558  8.21                             166     0.7 7   34 351 
 BRR  HZ EP   1    557 53.28                             153     0.1 7   73 301 
 BRR  HZ I         557 53.45        10.1 0.13                            73 301 
 BRR  HE ES   1    558 10.63                             153     0.5 7   73 301 
 PAM  SZ EP   1    557 54.27                             151     0.0 7   80  38 
 PAM  SE ES   1    558 11.72                             151    -0.3 7   80  38 
 RUS  HZ EP   1    557 55.45                             146     0.0 7   97 176 
 RUS  HN ES   1    558 13.98                             146    -0.1 7   97 176 
 RUS  HZ I         558 15.64         4.7 0.38                            97 176 
 PTB  HZ EP   2    557 58.35                             133    -0.4 5  148 260 
 PTB  HN ES   1    558 19.46                             133    -0.6 7  148 260 
 OCA  SZ ES   2    558 23.25                             130     0.3 5  163 353 
 OCA  SZ I         558 28.74         5.8 0.31                           163 353 
 ZAR  HZ EP   1    558  4.92                             123     0.6 6  206 293 
 ZAR  HE ES   1    558 29.67                             123    -0.3 6  206 293 
 ZAR  HZ I         558 36.12         7.3 0.27                           206 293 
 CHI  HZ EP   1    558  9.44                             118     0.3 6  246 195 
 CHI  HN ES   1    558 38.83                             118     0.4 6  246 195 
 CHI  HZ I         558 42.01         3.1 0.46                           246 195 
 HEL  HZ EP   2    558 12.16                             116     0.3 4  272 256 
 HEL  HZ I         558 50.31         2.1 0.48                           272 256 
                                                                                
