 2012  6 7 0950 20.9 L   6.757 -73.110145.7  RSN  7 0.2 1.7LRSN                1
 GAP=186        0.43       3.6     3.1  5.4 -0.1722E+01  0.6958E+01 -0.9807E+01E
 Epicentro: LOS SANTOS - SANTANDER                                             3
 ACTION:UPD 12-08-06 17:47 OP:ep   STATUS:               ID:20120607095030 L   I
 2012-06-07-0950-00M.COL___200                                                 6
 STAT SP IPHASW D HRMM SECON CODA AMPLIT PERI AZIMU VELO AIN AR TRES W  DIS CAZ7
 BAR2 SZ EP   1    950 40.23                             172   -0.22 7 19.8 204 
 BAR2 SZ ES   1    950 55.96                             172    0.26 7 19.8 204 
 BAR2 SZ I         950 57.51         9.7 0.19            165           19.8 204 
 RUS  HN ES   1    951  2.45                             145   -0.07 7 95.6 178 
 RUS  HZ I         951  5.04         5.0 0.17            140           95.6 178 
 PTB  HZ EP   1    950 48.33                             131    0.20 7  151 261 
 PTB  HN ES   1    951  8.95                             131   -0.42 7  151 261 
 PTB  HZ I         951 12.05         5.9 0.14            126            151 261 
 OCA  HZ EP   1    950 49.61                             129   -0.09 7  166 352 
 OCA  HZ I         951 13.74         9.7 0.13            112            166 352 
 ZAR  HZ EP   1    950 54.03                             122    0.13 6  209 293 
 ZAR  HN ES   1    951 19.71                             122    0.07 6  209 293 
 NOR  SE ES   1    951 24.69                             118    0.12 6  235 236 
 HEL  HE ES   1    951 33.08                             114    0.09 6  275 257 
                                                                                
