 2012  3 7 0634 31.6 L   6.728 -73.190150.7  RSN  4 0.2 1.3LRSN                1
 GAP=227        0.49       4.9     5.0  5.0  0.1283E+02  0.2461E+01  0.3507E+01E
 ACTION:UP  12-03-31 23:17 OP:EP   STATUS:               ID:20120307063431 L   I
 2012-03-07-0630-00M.COL___194                                                 6
 STAT SP IPHASW D HRMM SECON CODA AMPLIT PERI AZIMU VELO SNR AR TRES W  DIS CAZ7
 BAR2 SZ EP   1    634 51.48                             174    -0.2 7   15 177 
 BAR2 SZ ES   1    635  7.07                             174    -0.3 7   15 177 
 BAR2 SZ I         635  8.28         4.2 0.55                            15 177 
 BRR  HZ EP   1    634 53.30                             153     0.0 7   71 306 
 BRR  HN ES        635 10.41                             153     0.210   71 306 
 BRR  HZ I         635 13.53         3.7 0.13                            71 306 
 RUS  HZ EP   1    634 55.58                             147     0.2 7   93 173 
 RUS  HE ES   1    635 14.00                             147     0.1 7   93 173 
 PTB  HZ EP   1    634 58.34                             134    -0.1 7  142 262 
 PTB  HN ES   1    635 19.26                             134    -0.1 7  142 262 
                                                                                
