 2011  8 7 0226 28.0 L   6.685 -73.181148.6  RSN  4 0.3 1.4LRSN                1
 GAP=224        0.56       8.6    11.6  7.0  0.6725E+02 -0.8175E+01 -0.1070E+02E
 Epicentro: VILLANUEVA - SANTANDER                                             3
 ACTION:UPD 12-07-25 14:06 OP:epov STATUS:               ID:20110807022627 L   I
 2011-08-07-0225-53S.COL___144                                                 6
 STAT SP IPHASW D HRMM SECON CODA AMPLIT PERI AZIMU VELO AIN AR TRES W  DIS CAZ7
 BAR2 SZ EP        226 47.76                             175    0.0110 10.2 181 
 BAR2 SZ ES   1    227  2.71                             175   -0.47 7 10.2 181 
 BAR2 SZ I         227  4.42         7.6 0.16                          10.2 181 
 BRR  HZ EP        226 49.63                             151   -0.0110 75.0 309 
 BRR  HZ I         226 49.98         5.2 0.12                          75.0 309 
 BRR  HE ES   1    227  6.77                             151    0.23 7 75.0 309 
 RUS  HZ EP   3    226 51.04                             147   -0.12 2 88.3 173 
 RUS  HE ES   2    227  9.87                             147    0.62 5 88.3 173 
 RUS  HZ I         227 11.47         2.2 0.38                          88.3 173 
 NOR  SE ES   3    227 29.47                             120   -0.42 2  224 237 
                                                                                
