 2011  3 7 0112  9.6 L   6.809 -73.157138.8  RSN  9 0.3 1.8LRSN                1
 GAP=135        0.58       2.3     5.5  4.8 -0.1096E+01  0.8687E+01  0.8247E+00E
 Epicentro: LOS SANTOS - SANTANDER                                             3
 ACTION:UP  11-06-16 14:32 OP:jfem STATUS:               ID:20110307011209 L   I
 2011-03-07-0111-36S.COL___135                                                 6
 STAT SP IPHASW D HRMM SECON CODA AMPLIT PERI AZIMU VELO SNR AR TRES W  DIS CAZ7
 BAR2 SZ EP   1    112 28.63                             170     0.2 8   24 187 
 BAR2 SZ ES   1    112 43.24                             170     0.1 8   24 187 
 BAR2 SZ I         112 44.72        18.5 0.28                            24 187 
 RUS  HZ EP   1    112 32.77                             142     0.0 8  102 175 
 RUS  HZ I         112 33.87         6.2 0.14                           102 175 
 RUS  HN ES   1    112 50.66                             142    -0.2 8  102 175 
 GRA  SZ EP   1    112 34.36                             136     0.2 8  125  18 
 GRA  SZ ES   2    112 54.01                             136     0.6 5  125  18 
 GRA  SZ I         112 58.41         7.4 0.27                           125  18 
 OCA  SZ EP   1    112 37.25                             128     0.0 8  159 354 
 OCA  SZ ES   1    112 58.27                             128    -0.6 8  159 354 
 OCA  SZ I         113  3.60        10.8 0.35                           159 354 
 YOP  SZ EP        112 39.14                             124    -0.210  180 153 
 YOP  SE ES   3    113  3.02                             124     0.5 2  180 153 
 CHI  HZ EP   1    112 46.94                             116    -0.1 7  249 195 
 CHI  HE ES   1    113 16.13                             116    -0.1 7  249 195 
 CHI  HZ I         113 20.28         2.8 0.58                           249 195 
 HEL  HZ EP        112 49.72                             113     0.3 9  271 256 
 HEL  HZ I         113 24.04        10.2 0.77                           271 256 
 RREF HZ EP   3    112 56.78                             109     1.3 2  321 229 
 RREF HE ES   3    113 31.10                             109    -0.1 2  321 229 
 RREF HZ I         113 41.62         2.7 0.45                           321 229 
 PRA  HZ EP        113  2.86                             105    -0.1 7  392 209 
 PRA  HE ES   3    113 43.89                             105    -0.6 2  392 209 
                                                                                
