 2013  8 7 0426 56.4 L   6.812 -73.124146.4  RSN 16 0.5 2.1LRSN                1
 GAP=139        1.09       2.9     4.1  5.8 -0.2631E+01  0.5231E+01  0.2936E+01E
 Epicentro: LOS SANTOS - SANTANDER                                             3
 ACTION:UPD 14-01-14 08:59 OP:ep   STATUS:               ID:20130807042656 L   I
 OLDACT:REG 13-08-07 07:31 OP:carl STATUS:               ID:20130807041959     3
 2013-08-07-0419-59M.COL___270                                                 6
 STAT SP IPHASW D HRMM SECON CODA AMPLIT PERI AZIMU VELO AIN AR TRES W  DIS CAZ7
 BAR2 SZ EP        427 16.11                             170    0.0110 25.1 195 
 BAR2 SZ ES   1    427 31.00                             170   -0.50 7 25.1 195 
 BAR2 SZ I         427 34.14        21.0 0.22            169           25.1 195 
 GIR2 SZ EP   1    427 16.04                             168   -0.04 7 30.5 345 
 GIR2 SZ ES   1    427 30.82                             168   -0.65 7 30.5 345 
 GIR2 SZ I         427 35.39         9.1 0.24            166           30.5 345 
 BRR  HZ EP        427 18.07                             152    0.4110 72.7 297 
 BRR  HN ES        427 35.21                             152    0.9410 72.7 297 
 BRR  HZ I         427 43.11        11.2 0.30            150           72.7 297 
 PAM  SZ IP     C  427 18.91                             152    0.4210 74.9  39 
 PAM  SE ES   1    427 36.52                             152    0.76 7 74.9  39 
 PAM  SZ I         427 38.32        16.2 0.48            156           74.9  39 
 RUS  HZ EP        427 19.95                             144   -0.3010  102 177 
 RUS  HN ES   1    427 38.95                             144    0.06 7  102 177 
 RUS  HZ I         427 40.43        11.2 0.38            147            102 177 
 PTB  HZ EP        427 23.23                             132   -0.38 9  150 259 
 PTB  HN ES        427 44.13                             132   -0.73 9  150 259 
 PTB  HZ I         427 47.21        12.9 0.52            132            150 259 
 OCA  HZ EP   1    427 25.01                             130    0.39 7  159 352 
 OCA  HE ES        427 46.48                             130   -0.19 9  159 352 
 OCA  HZ I         427 54.53        15.0 0.34            132            159 352 
 SPBC HZ EP        427 25.04                             129   -0.10 9  166 219 
 SPBC HN ES        427 47.17                             129   -0.42 9  166 219 
 SPBC HZ I         427 52.89        15.3 0.54            131            166 219 
 ZAR  HZ EP        427 28.39                             122   -0.63 8  206 292 
 ZAR  HN ES        427 54.41                             122   -0.08 8  206 292 
 ZAR  HZ I         428  0.90        10.6 0.46            124            206 292 
 NOR  HZ EP   2    427 32.02                             118   -0.39 4  237 235 
 NOR  HE ES        428  0.62                             118    0.09 8  237 235 
 NOR  HE I         428  4.05        20.4 0.18            120            237 235 
 SML  HZ EP   1    427 32.61                             118   -0.39 6  244 335 
 SML  HN ES        428  0.97                             118   -0.61 8  244 335 
 SML  HZ I         428 10.79        14.0 0.10            120            244 335 
 CHI  HZ EP   1    427 34.25                             117   -0.04 6  251 196 
 CHI  HN ES   1    428  3.21                             117   -0.67 6  251 196 
 CHI  HZ I         428 11.73         4.9 0.40            120            251 196 
 HEL  HN ES        428  8.97                             115    0.47 8  275 256 
 HEL  HN I         428 16.01         6.1 0.52            116            275 256 
 GUY2CHZ EP   1    427 41.36                             112    1.07 5  304 235 
 GUY2CHN ES        428 15.56                             112    0.99 7  304 235 
 GUY2CHZ I         428 22.90         6.6 0.76                           304 235 
 RREF HZ EP        427 43.44                             111    0.62 7  324 229 
 RREF HN ES        428 19.19                             111    0.12 7  324 229 
 RREF HZ I         428 27.03         8.2 0.24            113            324 229 
 PRA  HZ EP   1    427 49.63                             106   -0.53 4  394 210 
 PRA  HN ES        428 32.34                             106    0.20 6  394 210 
 PRA  HZ I         428 37.28         4.5 0.20            109            394 210 
                                                                                
