 2017  7 7 0100 52.1 L   5.978 -73.665127.7  RSN  7 0.6 1.4LRSN                1
 GAP=117        1.58       7.3     7.0 11.6 -0.2033E+02 -0.2027E+01  0.1305E+02E
 Epicentro: VELEZ - SANTANDER                                                  3
 ACTION:UPD 17-08-30 15:30 OP:rebc STATUS:               ID:20170707010052 L   I
 OLDACT:REG 17-07-07 12:49 OP:ar   STATUS:               ID:20170707005745     3
 2017-07-07-0058-00M.COL___371                                                 6
 STAT SP IPHASW D HRMM SECON CODA AMPLIT PERI AZIMU VELO AIN AR TRES W  DIS CAZ7
 SPBC HZ EP        1 1 11.97                             154    1.3210 57.7 231 
 SPBC HN ES        1 1 24.86                             154   -0.2810 57.7 231 
 SPBC HZ I         1 1 25.59         5.2 0.18            154           57.7 231 
 BAR2 EZ EP        1 1 12.70                             144    0.0410 86.4  38 
 BAR2 EZ ES        1 1 28.49                             144   -0.2410 86.4  38 
 BAR2 EZ I         1 1 29.51        11.4 0.42            146           86.4  38 
 PTB  HZ EP        1 1 13.14                             137   -0.8410  107 305 
 PTB  HN ES        1 1 30.24                             137   -0.8310  107 305 
 PTB  HZ I         1 1 38.06         1.5 0.28            137            107 305 
 BRR  HZ EP        1 1 15.90                             133    0.4210  125 358 
 BRR  HE ES        1 1 34.26                             133    0.5310  125 358 
 NOR  HZ EP        1 1 16.74                             129   -0.30 9  141 251 
 NOR  HN ES        1 1 37.28                             129    0.77 9  141 251 
 NOR  HZ I         1 1 39.68         4.2 0.14            130            141 251 
 YPLC HZ EP   2    1 1 17.89                             126   -0.64 5  156 114 
 YPLC HN ES   2    1 1 38.56                             126   -0.61 5  156 114 
 YPLC HZ I         1 1 39.79        11.1 0.26            129            156 114 
 GUY2CHZ EP        1 1 23.88                             118   -0.34 8  206 246 
 GUY2CHN ES   4    1 1 51.30                             118    2.01 0  206 246 
 GUY2CHZ I         1 1 52.89         1.9 0.40                           206 246 
                                                                                
