 2015 11 7 0613 23.7 L   6.758 -73.053139.2  RSN 17 0.5 2.1LRSN                1
 GAP=129        1.11       3.3     4.2  6.2 -0.1614E+01  0.4605E+01  0.6708E+01E
 Epicentro: LOS SANTOS - SANTANDER                                             3
 ACTION:UPD 15-12-28 16:09 OP:cam  STATUS:               ID:20151107061323 L   I
 OLDACT:REG 15-11-07 14:09 OP:cara STATUS:               ID:20151107060751     3
 2015-11-07-0607-51M.COL___307                                                 6
 STAT SP IPHASW D HRMM SECON CODA AMPLIT PERI AZIMU VELO AIN AR TRES W  DIS CAZ7
 BAR2 EZ IP     C  613 42.73                             170    0.1610 23.3 218 
 BAR2 EZ ES        613 56.50                             170   -0.7710 23.3 218 
 BAR2 EZ I         614  0.44        22.0 0.34            170           23.3 218 
 PAM  EZ IP     D  613 45.69                             150    0.5810 75.2  31 
 PAM  EE ES        614  2.55                             150    0.7510 75.2  31 
 PAM  EZ I         614  5.68        20.3 0.34            145           75.2  31 
 BRR  HZ EP        613 44.54                             148   -0.3310 82.4 298 
 BRR  HN ES        614  1.78                             148    0.4210 82.4 298 
 BRR  HZ I         614  3.94        16.2 0.30            143           82.4 298 
 RUS  HZ EP        613 46.63                             144    0.1410 95.8 182 
 RUS  HN ES   4    614  5.26                             144    1.02 0 95.8 182 
 RUS  HZ I         614  6.73        10.0 0.26            140           95.8 182 
 SPBC HZ EP        613 51.81                             127   -0.24 9  166 223 
 SPBC HN ES        614 13.51                             127   -0.63 9  166 223 
 SPBC HZ I         614 15.43        17.8 0.24            122            166 223 
 OCA  HZ EP        613 51.88                             127   -0.24 9  166 350 
 OCA  HN ES        614 13.60                             127   -0.67 9  166 350 
 OCA  HZ I         614 22.02        19.9 0.16            121            166 350 
 ZAR  HZ EP        613 56.48                             119   -0.46 8  215 292 
 ZAR  HN ES   4    614 21.01                             119   -1.84 0  215 292 
 ZAR  HZ I         614 25.64        12.9 0.66            114            215 292 
 CHI  HZ IP     D  614  1.16                             116    0.26 8  247 198 
 CHI  HN ES        614 30.45                             116    0.55 8  247 198 
 CHI  HZ I         614 35.30         7.0 0.44            112            247 198 
 SML  HZ EP   4    613 59.00                             115   -1.94 0  252 334 
 SML  HN ES   4    614 27.36                             115   -2.60 0  252 334 
 SML  HZ I         614 30.85        17.6 0.26            110            252 334 
 ROSC BZ EP   4    614  2.68                             115    1.01 0  254 214 
 ROSC BN ES   4    614 33.67                             115    2.40 0  254 214 
 ROSC BZ I         614 37.19        19.6 0.45            111            254 214 
 HEL  HZ EP        614  4.67                             113    0.06 7  281 257 
 HEL  HE ES        614 36.90                             113    0.39 7  281 257 
 HEL  HZ I         614 41.28         7.0 0.24            108            281 257 
 URE  HZ EP   4    614  3.09                             111   -2.67 0  295 292 
 URE  HE ES   4    614 33.60                             111   -4.95 0  295 292 
 URE  HZ I         614 44.87         8.5 0.18            107            295 292 
 PTGC HZ IP        614  6.04                             111   -0.35 7  301 160 
 PTGC HN ES        614 39.30                             111   -0.37 7  301 160 
 PTGC HZ I         614 40.30         8.4 0.70            107            301 160 
 GUY2CHZ EP        614  7.96                             111    0.25 7  307 237 
 GUY2CHE ES        614 42.66                             111    0.64 7  307 237 
 GUY2CHZ I         614 49.05         7.0 0.64                           307 237 
 CBOC HZ EP   4    614 10.23                             108   -1.12 0  342 253 
 CBOC HN ES        614 48.51                             108    0.00 7  342 253 
 CBOC HZ I         615  3.55         2.1 0.44            104            342 253 
 MON  HZ EP   4    614 10.93                             107   -2.82 0  365 308 
 MON  HN ES   4    614 48.29                             107   -4.49 0  365 308 
 MON  HZ I         614 50.44         3.5 0.32            103            365 308 
 SJC  HZ EP   4    614 16.91                             104   -3.29 0  419 326 
 SJC  HN ES   4    614 57.97                             104   -6.28 0  419 326 
 SJC  HZ I         614 58.77         1.9 0.48            100            419 326 
                                                                                
