 2016  6 7 0513 31.3 L   6.874 -73.125149.5  RSN  7 0.6 1.7LRSN                1
 GAP=246        1.55       7.8     9.3 12.9  0.7179E+01 -0.1177E+02  0.2169E+02E
 Epicentro: LOS SANTOS - SANTANDER                                             3
 ACTION:UPD 16-07-21 22:16 OP:rebc STATUS:               ID:20160607051331 L   I
 OLDACT:REG 16-06-07 13:08 OP:dani STATUS:               ID:20160607050744     3
 2016-06-07-0507-44M.COL___319                                                 6
 STAT SP IPHASW D HRMM SECON CODA AMPLIT PERI AZIMU VELO AIN AR TRES W  DIS CAZ7
 BAR2 EZ EP        513 51.51                             168   -0.0510 31.8 192 
 BAR2 EZ I         514  7.71        17.0 0.18                          31.8 192 
 BRR  HZ EP     C  513 53.31                             153    0.5410 69.8 292 
 BRR  HN ES        514 10.32                             153    0.8010 69.8 292 
 BRR  HZ I         514 16.13         5.5 0.10                          69.8 292 
 RUS  HZ EP        513 55.42                             142   -0.5710  109 178 
 RUS  HE ES        514 14.56                             142   -0.7010  109 178 
 RUS  HZ I         514 15.03         5.6 0.20                           109 178 
 PTB  HZ EP        513 58.52                             132   -0.41 9  152 256 
 PTB  HE ES        514 19.79                             132   -0.69 9  152 256 
 PTB  HZ I         514 21.49         6.5 0.18                           152 256 
 SPBC HZ EP        514  0.46                             128   -0.36 9  171 218 
 SPBC HE ES        514 23.80                             128   -0.05 9  171 218 
 SPBC HZ I         514 27.50         6.8 0.12                           171 218 
 NOR  HE ES        514 36.45                             118   -0.10 8  241 233 
 CHI  HZ EP        514 10.75                             117    0.63 8  257 195 
 CHI  HN ES        514 41.91                             117    1.51 8  257 195 
 CHI  HZ I         514 45.62         1.6 0.20                           257 195 
                                                                                
