 2015  1 7 0205 53.4 L   6.827 -73.177149.7  RSN  5 0.3 1.4LRSN                1
 GAP=218        0.53       3.8     5.5  5.4  0.1680E+01 -0.8623E+01  0.1541E+01E
 Epicentro: ZAPATOCA - SANTANDER                                               3
 ACTION:UPD 15-03-02 15:37 OP:nd   STATUS:               ID:20150107020553 L   I
 OLDACT:REG 15-01-07 15:35 OP:spq  STATUS:               ID:20150107015818     3
 2015-01-07-0158-18M.COL___277                                                 6
 STAT SP IPHASW D HRMM SECON CODA AMPLIT PERI AZIMU VELO AIN AR TRES W  DIS CAZ7
 BRR  HZ EP        2 6 14.68                             155   -0.0610 66.7 298 
 BRR  HN ES        2 6 31.51                             155    0.1310 66.7 298 
 BRR  HZ I         2 6 36.48         4.4 0.18            153           66.7 298 
 PTB  HZ EP   1    2 6 20.79                             133    0.34 7  145 257 
 PTB  HE ES   1    2 6 41.00                             133   -0.54 7  145 257 
 PTB  HZ I         2 6 43.26         2.7 0.44            134            145 257 
 ZAR  HZ EP   1    2 6 25.83                             124    0.17 6  200 292 
 ZAR  HE ES        2 6 51.01                             124    0.18 9  200 292 
 ZAR  HZ I         2 6 57.37         2.4 0.22            125            200 292 
 SML  HZ EP   1    2 6 29.64                             119   -0.16 6  240 336 
 SML  HE ES   1    2 6 57.91                             119   -0.28 6  240 336 
 SML  HZ I         2 6 59.80         2.3 0.26            121            240 336 
 CHI  HZ EP   1    2 6 31.48                             118   -0.06 6  251 194 
 CHI  HE ES   4    2 6 55.93                             118   -5.36 0  251 194 
 CHI  HZ I         2 7  2.28         1.0 0.42            120            251 194 
                                                                                
