 2016  8 7 0111 24.7 L   7.213 -73.147138.9  RSN  8 0.3 1.7LRSN                1
 GAP=145        0.78       3.4     2.6  4.8 -0.2413E+01  0.4774E+00 -0.2908E+01E
 Epicentro: RIONEGRO - SANTANDER                                               3
 ACTION:UPD 16-10-29 15:32 OP:rebc STATUS:               ID:20160807011124 L   I
 OLDACT:UP  16-08-07 13:48 OP:dani STATUS:               ID:20160807010731     3
 OLDACT:REG 16-08-07 12:28 OP:dani STATUS:               ID:20160807010731     3
 2016-08-07-0108-00M.COL___368                                                 6
 STAT SP IPHASW D HRMM SECON CODA AMPLIT PERI AZIMU VELO AIN AR TRES W  DIS CAZ7
 PAM  EZ EP        111 45.28                             159    0.5110 51.4  74 
 PAM  EE ES        112  0.60                             159    0.1510 51.4  74 
 PAM  EZ I         112  2.58        10.2 0.58                          51.4  74 
 BRR  HZ EP        111 44.89                             154    0.2510 63.5 259 
 BRR  HN ES        112  0.36                             154    0.1410 63.5 259 
 BRR  HZ I         112  1.28         7.7 0.14                          63.5 259 
 BAR2 EZ EP        111 45.42                             152    0.1410 68.8 183 
 BAR2 EZ ES        112  1.11                             152   -0.2610 68.8 183 
 BAR2 EZ I         112  3.00         9.7 0.16                          68.8 183 
 RUS  HZ EP        111 51.52                             131   -0.06 9  146 177 
 RUS  HE ES        112 12.27                             131   -0.31 9  146 177 
 RUS  HZ I         112 14.09         2.2 0.36                           146 177 
 PTB  HZ IP        111 52.53                             127    0.03 9  163 243 
 PTB  HE ES        112 13.93                             127   -0.29 9  163 243 
 PTB  HZ I         112 15.90        10.5 0.16                           163 243 
 ZAR  HZ EP        111 55.32                             123   -0.04 9  191 279 
 ZAR  HE ES        112 18.90                             123   -0.39 9  191 279 
 ZAR  HZ I         112 24.84         7.0 0.20                           191 279 
 SPBC HZ EP   4    111 54.75                             121   -1.68 0  201 211 
 SPBC HN ES        112 21.49                             121    0.29 9  201 211 
 SPBC HZ I         112 29.07         7.7 0.19                           201 211 
 SOCV BZ EP        112  5.19                             113    0.30 7  279  65 
 SOCV BN ES        112 35.46                             113   -0.81 7  279  65 
                                                                                
