 2014  2 7 0405 17.7 L   6.801 -73.103143.4  RSN 15 0.4 2.5LRSN                1
 GAP=142        0.96       2.4     3.8  4.7 -0.2152E+01  0.5378E+01  0.1569E+01E
 Epicentro: LOS SANTOS - SANTANDER                                             3
 ACTION:UPD 14-03-10 08:08 OP:ep   STATUS:               ID:20140207040517 L   I
 OLDACT:REG 14-02-07 08:36 OP:mh   STATUS:               ID:20140207040000     3
 2014-02-07-0400-00M.COL___291                                                 6
 STAT SP IPHASW D HRMM SECON CODA AMPLIT PERI AZIMU VELO AIN AR TRES W  DIS CAZ7
 BAR2 SZ EP        4 5 36.98                             170   -0.1110 24.7 201 
 BAR2 SZ ES        4 5 51.74                             170   -0.4710 24.7 201 
 BAR2 SZ I         4 5 53.34       158.3 0.17            169           24.7 201 
 PAM  SZ EP        4 5 39.76                             151    0.2610 74.4  37 
 PAM  SN ES        4 5 56.57                             151    0.0710 74.4  37 
 PAM  SZ I         4 5 59.05        24.8 0.44            154           74.4  37 
 BRR  HZ EP     C  4 5 38.80                             151   -0.0510 75.3 297 
 BRR  HN ES        4 5 55.65                             151    0.3210 75.3 297 
 BRR  HZ I         4 5 56.68        68.0 0.24            152           75.3 297 
 RUS  HZ EP        4 5 41.04                             143   -0.1910  101 179 
 RUS  HN ES        4 6  0.04                             143    0.4710  101 179 
 RUS  HZ I         4 6  1.53        35.0 0.25            145            101 179 
 PTB  HZ EP        4 5 43.97                             131   -0.94 9  152 259 
 PTB  HN ES        4 6  5.97                             131   -0.16 9  152 259 
 PTB  HZ I         4 6 10.09        35.6 0.19            132            152 259 
 OCA  HZ EP        4 5 45.20                             129   -0.69 9  161 351 
 OCA  HN ES        4 6  8.18                             129    0.31 9  161 351 
 SPBC HZ EP        4 5 45.99                             128   -0.34 9  166 220 
 SPBC HN ES        4 6  8.53                             128   -0.12 9  166 220 
 SPBC HZ I         4 6 12.60        35.4 0.18            129            166 220 
 ZAR  HZ EP        4 5 50.14                             121   -0.31 8  208 292 
 ZAR  HN ES   4    4 6 15.66                             121   -0.33 0  208 292 
 NOR  HZ EP        4 5 53.46                             118   -0.27 8  239 235 
 NOR  HN ES   1    4 6 21.53                             118   -0.29 6  239 235 
 NOR  HZ I         4 6 23.19        20.4 0.27            119            239 235 
 SML  HZ EP   4    4 5 53.44                             117   -0.97 0  246 334 
 SML  HN ES        4 6 23.66                             117    0.63 8  246 334 
 CHI  HZ EP        4 5 55.38                             116   -0.05 8  250 196 
 CHI  HN ES        4 6 24.65                             116   -0.21 8  250 196 
 ROSC BZ EP        4 5 56.42                             116    0.44 8  255 212 
 ROSC BN ES        4 6 26.64                             116    0.80 8  255 212 
 HEL  HZ EP        4 5 58.92                             114    0.61 7  277 256 
 HEL  HN ES        4 6 29.90                             114   -0.08 7  277 256 
 URE  HZ EP   4    4 5 57.84                             113   -1.31 0  288 292 
 URE  HN ES   4    4 6 29.11                             113   -2.36 0  288 292 
 GUY2CHZ EP        4 6  2.12                             112    0.47 7  305 235 
 GUY2CHN ES        4 6 36.29                             112    0.36 7  305 235 
 PRA  HZ EP        4 6 11.92                             106    0.48 6  394 210 
 PRA  HN ES        4 6 53.29                             106   -0.06 6  394 210 
                                                                                
