 2010  6 7 0620  6.3 L   6.799 -73.066146.4  RSN 13 0.4 2.6LRSN                1
 GAP=148        0.89       4.1     6.7  6.0 -0.1478E+02  0.2833E+01  0.1863E+01E
 Epicentro: LOS SANTOS - SANTANDER                                             3
 ACTION:UP  10-08-24 10:08 OP:vdl  STATUS:               ID:20100607062006 L   I
 2010-06-07-0617-15S.COL___111                                                 6
 STAT SP IPHASW D HRMM SECON CODA AMPLIT PERI AZIMU VELO SNR AR TRES W  DIS CAZ7
 BAR2 SZ IP        620 26.01                             169    -0.110   26 210 
 BAR2 SZ ES   1    620 40.77                             169    -0.7 7   26 210 
 GIR2 SZ EP        620 26.11                             166     0.010   34 335 
 GIR2 SZ ES   1    620 42.09                             166     0.5 7   34 335 
 GUE  SZ EP        620 30.91                             140     0.010  115   8 
 GRA  SZ IP        620 31.80                             138     0.410  123  14 
 OCA  SZ EP        620 34.31                             129    -0.5 9  162 350 
 OCA  SZ ES   1    620 57.35                             129     0.3 7  162 350 
 OCA  SZ I         621  2.60        61.0 0.27                           162 350 
 CHI  HZ EP   1    620 43.93                             117    -0.4 6  251 197 
 CHI  HN ES   1    621 14.35                             117     0.4 6  251 197 
 CHI  HZ I         621 21.16        19.9 0.20                           251 197 
 ROSC BZ EP   1    620 45.59                             116     0.6 6  257 213 
 ROSC BN ES   1    621 14.84                             116    -0.3 6  257 213 
 ROSC BZ I         621 22.08        37.2 0.41                           257 213 
 CVER SZ EP   2    620 47.14                             115     0.1 4  276 204 
 HEL  HZ EP   1    620 47.60                             114     0.1 6  281 256 
 HEL  HN ES   1    621 19.68                             114     0.1 6  281 256 
 HEL  HZ I         621 24.65        25.1 0.19                           281 256 
 RREF BZ EP   1    620 54.04                             110     0.8 5  328 230 
 RREF BZ I         621 34.50        28.1 0.23                           328 230 
 DBB  SZ EP   1    620 53.83                             109    -1.0 5  348 274 
 TOL  SZ EP   1    620 55.13                             109    -0.2 5  350 226 
 SDV  BZ IP     D  620 55.43                             109    -0.2 6  354  49 
 SDV  BZ I         621 34.75         6.4 0.38                           354  49 
                                                                                
