 2017  5 7 0939  5.0 L   6.809 -73.148148.0  RSN 11 0.6 1.9LRSN                1
 GAP=111        1.35       4.9     4.3  8.4  0.2233E+01  0.8713E+01  0.9542E+01E
 Epicentro: LOS SANTOS - SANTANDER                                             3
 ACTION:UPD 17-06-16 13:33 OP:jn   STATUS:               ID:20170507093905 L   I
 OLDACT:UP  17-05-07 17:06 OP:ar   STATUS:               ID:20170507091511d    3
 OLDACT:UP  17-05-07 17:05 OP:ar   STATUS:               ID:20170507091511d    3
 OLDACT:REG 17-05-07 13:35 OP:ar   STATUS:               ID:20170507091511d    3
 2017-05-07-0928-00M.COL___358                                                 6
 STAT SP IPHASW D HRMM SECON CODA AMPLIT PERI AZIMU VELO AIN AR TRES W  DIS CAZ7
 BRR  HZ IP     C  939 26.44                             153    0.0910 70.5 298 
 BRR  HN ES        939 43.71                             153    0.7110 70.5 298 
 BRR  HZ I         939 46.77        10.7 0.44            151           70.5 298 
 PAM  EZ EP        939 27.57                             151    0.1510 76.8  40 
 PAM  EE ES        939 44.92                             151    0.0110 76.8  40 
 PAM  EZ I         939 46.64         9.1 0.52            156           76.8  40 
 RUS  HZ EP        939 28.49                             144   -0.5510  102 176 
 RUS  HN ES        939 47.59                             144   -0.2010  102 176 
 RUS  HZ I         939 48.82        13.3 0.42            146            102 176 
 PTB  HZ EP        939 31.21                             133   -0.93 9  148 258 
 PTB  HN ES        939 52.71                             133   -0.60 9  148 258 
 PTB  HZ I         939 59.66        10.9 0.40            133            148 258 
 SPBC HZ EP        939 33.65                             129   -0.07 9  164 219 
 SPBC HN ES        939 55.62                             129   -0.51 9  164 219 
 SPBC HZ I         939 57.96        18.8 0.28            131            164 219 
 YPLC HZ EP        939 35.05                             127    0.00 9  178 151 
 YPLC HN ES        939 59.05                             127    0.56 9  178 151 
 YPLC HZ I         939 59.54         9.4 0.28            131            178 151 
 ZAR  HZ EP        939 37.17                             123   -0.36 9  203 292 
 ZAR  HN ES        940  2.71                             123   -0.19 9  203 292 
 ZAR  HZ I         940 12.86         7.9 0.24            124            203 292 
 NOR  HZ EP        939 40.28                             119   -0.61 8  235 234 
 NOR  HN ES        940  8.97                             119    0.08 8  235 234 
 NOR  HZ I         940 11.84         5.4 0.26            120            235 234 
 ROSC BZ EP        939 44.56                             117    1.25 8  253 211 
 ROSC BN ES   4    940 15.82                             117    2.62 0  253 211 
 ROSC BZ I         940 19.99         9.3 0.45            119            253 211 
 HEL  HZ EP   4    939 47.67                             115    2.35 0  272 256 
 HEL  HE ES        940 17.95                             115    1.18 8  272 256 
 HEL  HZ I         940 23.43         5.6 0.30            116            272 256 
 CBOC HZ EP   2    939 53.08                             110    1.07 3  334 252 
 CBOC HN ES        940 29.43                             110    0.75 7  334 252 
 CBOC HZ I         940 32.42         1.6 0.52            112            334 252 
                                                                                
