 2012  7 7 0207 26.7 L   6.781 -73.140145.3  RSN  9 0.3 2.4LRSN                1
 GAP=138        0.85       3.0     4.0  4.9 -0.1043E+01  0.4904E+01  0.1305E+01E
 Epicentro: LOS SANTOS - SANTANDER                                             3
 ACTION:UPD 12-08-14 11:43 OP:ep   STATUS:               ID:20120707020726 L   I
 2012-07-07-0200-00M.COL___201                                                 6
 STAT SP IPHASW D HRMM SECON CODA AMPLIT PERI AZIMU VELO AIN AR TRES W  DIS CAZ7
 BAR2 SZ EP        2 7 46.40                             171     0.110   21 193 
 BAR2 SZ ES        2 8  1.22                             171    -0.310   21 193 
 BAR2 SZ I         2 8  2.98        96.5 0.21            171             21 193 
 BRR  HZ EP        2 7 48.32                             152     0.410   73 300 
 BRR  HE ES        2 8  5.08                             152     0.610   73 300 
 BRR  HZ I         2 8  9.95        48.0 0.16            150             73 300 
 PAM  SZ EP        2 7 49.16                             150     0.210   79  38 
 PAM  SN ES        2 8  6.28                             150     0.010   79  38 
 RUS  HZ EP        2 7 50.37                             144     0.110   98 176 
 RUS  HE ES        2 8  8.40                             144    -0.310   98 176 
 RUS  HZ I         2 8 10.55        21.3 0.33            148             98 176 
 PTB  HZ EP        2 7 53.15                             132    -0.5 9  148 260 
 PTB  HN ES   1    2 8 14.46                             132    -0.2 7  148 260 
 PTB  HZ I         2 8 17.36        16.4 0.20            132            148 260 
 OCA  HZ EP        2 7 54.88                             129    -0.3 9  162 353 
 OCA  HE ES   1    2 8 17.18                             129    -0.3 7  162 353 
 OCA  HZ I         2 8 20.58        46.4 0.08            131            162 353 
 ZAR  HZ EP   1    2 7 59.16                             122    -0.1 6  205 293 
 ZAR  HE ES   1    2 8 24.45                             122    -0.2 6  205 293 
 ZAR  HZ I         2 8 29.96        29.7 0.46            123            205 293 
 NOR  SZ EP        2 8  2.40                             118     0.0 8  234 235 
 NOR  SE ES   1    2 8 30.26                             118     0.1 6  234 235 
 CHI  HZ EP        2 8  4.60                             117     0.4 8  247 195 
 CHI  HN ES   1    2 8 33.45                             117     0.0 6  247 195 
