 2013 12 7 0831 27.9 L   6.798 -73.151147.3  RSN 11 0.5 1.8LRSN                1
 GAP=136        1.20       3.1     4.7  6.4 -0.1980E+01  0.5898E+01  0.3855E+00E
 Epicentro: LOS SANTOS - SANTANDER                                             3
 ACTION:UPD 14-01-13 10:16 OP:ep   STATUS:               ID:20131207083127 L   I
 OLDACT:REG 13-12-07 08:25 OP:carl STATUS:               ID:20131207083000     3
 2013-12-07-0830-00M.COL___285                                                 6
 STAT SP IPHASW D HRMM SECON CODA AMPLIT PERI AZIMU VELO AIN AR TRES W  DIS CAZ7
 BAR2 SZ IP     C  831 47.75                             171    0.0210 23.0 189 
 BAR2 SZ ES        832  2.96                             171   -0.2210 23.0 189 
 BAR2 SZ I         832  5.41        17.4 0.24            170           23.0 189 
 BRR  HZ IP        831 49.58                             153    0.3710 70.7 299 
 BRR  HN ES        832  6.96                             153    1.1510 70.7 299 
 BRR  HZ I         832 10.77         9.1 0.14            150           70.7 299 
 PAM  SZ EP        831 50.51                             151    0.1810 77.9  40 
 PAM  SN ES        832  7.81                             151   -0.0010 77.9  40 
 RUS  HZ EP        831 51.66                             144   -0.1510  100 176 
 RUS  HN ES        832 10.10                             144   -0.3510  100 176 
 PTB  HZ EP        831 54.23                             132   -0.72 9  147 259 
 PTB  HN ES        832 15.61                             132   -0.43 9  147 259 
 PTB  HZ I         832 21.98         7.5 0.20            132            147 259 
 OCA  HZ EP        831 57.28                             130    0.92 9  160 353 
 OCA  HN ES        832 17.76                             130   -0.79 9  160 353 
 OCA  HZ I         832 24.19         8.9 0.30            131            160 353 
 SPBC HZ EP        831 56.23                             129   -0.26 9  163 219 
 SPBC HN ES        832 18.67                             129   -0.09 9  163 219 
 SPBC HZ I         832 20.58        11.8 0.18            130            163 219 
 ZAR  HN ES        832 25.82                             123    0.06 9  204 292 
 NOR  HZ EP        832  4.00                             119    0.33 8  234 234 
 NOR  HE ES        832 31.76                             119    0.20 8  234 234 
 NOR  HZ I         832 40.02         4.3 0.16            120            234 234 
 SML  HZ EP        832  4.29                             118   -0.33 8  244 335 
 SML  HN ES        832 32.75                             118   -0.50 8  244 335 
 SML  HZ I         832 37.31        10.8 0.20            119            244 335 
 CHI  HZ EP        832  6.07                             117    0.40 8  248 195 
 CHI  HN ES        832 35.22                             117    0.11 8  248 195 
 CHI  HZ I         832 37.32         1.7 0.42            119            248 195 
                                                                                
