 2010 10 7 0647 41.5 L   6.851 -73.295122.0  RSN  5 0.3 1.8LRSN                1
 GAP=131        0.64       3.4     6.9  6.1 -0.6129E+01 -0.4100E+01 -0.1250E+01E
 Epicentro: ZAPATOCA - SANTANDER                                               3
 ACTION:UP  11-02-18 11:08 OP:tino STATUS:               ID:20101007064741 L   I
 2010-10-07-0643-44S.COL___122                                                 6
 STAT SP IPHASW D HRMM SECON CODA AMPLIT PERI AZIMU VELO SNR AR TRES W  DIS CAZ7
 BAR2 SZ EP   1    647 58.50                             165     0.0 7   31 157 
 BAR2 SZ ES   1    648 11.69                             165     0.0 7   31 157 
 BAR2 SZ I         648 13.00        61.2 0.42                            31 157 
 BRR  HZ IP     D  647 59.12                             154     0.010   54 302 
 BRR  HZ I         647 59.37        20.4 0.15                            54 302 
 BRR  HN ES   1    648 12.96                             154     0.1 7   54 302 
 GRA  SZ EP   1    648  5.41                             131     0.6 7  127  25 
 GRA  SZ ES   1    648 22.60                             131    -0.3 7  127  25 
 GRA  SZ I         648 26.14         4.7 0.29                           127  25 
 OCA  SZ EP   1    648  7.20                             125    -0.2 7  154 359 
 OCA  SZ ES   1    648 27.30                             125    -0.3 7  154 359 
 OCA  SZ I         648 31.80        10.4 0.14                           154 359 
 CHI  HZ EP   2    648 18.01                             111    -0.1 4  250 191 
 CHI  HZ I         648 19.13         2.1 0.29                           250 191 
 CHI  HN ES   2    648 46.52                             111    -0.3 4  250 191 
                                                                                
