 2012  7 7 0604 23.4 L   6.769 -73.169149.0  RSN  4 0.3 1.2LRSN                1
 GAP=233        0.90       8.5     8.9  8.5  0.4134E+02 -0.4316E+00  0.6217E+01E
 Epicentro: LOS SANTOS - SANTANDER                                             3
 ACTION:UPD 12-08-14 11:43 OP:ep   STATUS:               ID:20120707060423 L   I
 2012-07-07-0600-00M.COL___201                                                 6
 STAT SP IPHASW D HRMM SECON CODA AMPLIT PERI AZIMU VELO AIN AR TRES W  DIS CAZ7
 BAR2 SZ EP   1    6 4 42.91                             172    -0.5 7   20 184 
 BAR2 SZ ES   1    6 4 58.39                             172    -0.6 7   20 184 
 BAR2 SZ I         6 5  1.27         3.9 0.31            174             20 184 
 BRR  HZ EP        6 4 45.13                             153     0.210   71 302 
 BRR  HE ES        6 5  1.95                             153     0.310   71 302 
 BRR  HZ I         6 5  5.93         5.6 0.29            154             71 302 
 RUS  HZ EP        6 4 47.43                             145     0.110   97 174 
 RUS  HN ES   1    6 5  6.28                             145     0.4 7   97 174 
 RUS  HZ I         6 5  7.18         1.9 0.23            149             97 174 
 PTB  HZ EP   1    6 4 50.14                             133    -0.3 7  145 260 
 PTB  HN ES   1    6 5 11.24                             133    -0.2 7  145 260 
 PTB  HZ I         6 5 13.32         1.8 0.09            136            145 260 
