 2015 12 7 0838 13.4 L   6.807 -73.179150.0  RSN  7 0.5 1.6LRSN                1
 GAP=132        1.30       4.9     6.7  8.6 -0.6167E+00  0.7455E+01 -0.1260E+02E
 Epicentro: ZAPATOCA - SANTANDER                                               3
 ACTION:UPD 16-02-04 15:03 OP:cam  STATUS:               ID:20151207083813 L   I
 OLDACT:UP  15-12-07 20:17 OP:mh   STATUS:               ID:20151207083737     3
 OLDACT:REG 15-12-07 12:51 OP:mh   STATUS:               ID:20151207083737     3
 2015-12-07-0837-37M.COL___322                                                 6
 STAT SP IPHASW D HRMM SECON CODA AMPLIT PERI AZIMU VELO AIN AR TRES W  DIS CAZ7
 BAR2 EZ EP        838 33.89                             171    0.3010 23.7 181 
 BAR2 EZ ES        838 49.23                             171   -0.0810 23.7 181 
 BAR2 EZ I         838 51.52         8.7 0.22            172           23.7 181 
 BRR  HZ EP        838 35.67                             154    0.8110 67.6 299 
 BRR  HN ES        838 52.41                             154    0.8510 67.6 299 
 BRR  HZ I         838 56.45         9.2 0.26            151           67.6 299 
 PAM  EZ EP        838 36.84                             151    0.6210 79.2  42 
 PAM  EN ES        838 53.70                             151   -0.2910 79.2  42 
 PAM  EZ I         838 54.54         4.6 0.24            154           79.2  42 
 RUS  HZ EP   1    838 37.86                             144    0.17 7  102 174 
 RUS  HN ES        838 55.96                             144   -0.6410  102 174 
 RUS  HZ I         838 57.42         3.3 0.34            149            102 174 
 PTB  HZ EP   1    838 39.77                             134   -0.68 7  144 258 
 PTB  HN ES        839  1.13                             134   -0.39 9  144 258 
 PTB  HZ I         839  7.41         3.4 0.34            134            144 258 
 OCA  HZ EP        838 41.48                             131   -0.50 9  159 354 
 OCA  HN ES        839  3.77                             131   -0.47 9  159 354 
 OCA  HZ I         839 12.10         8.2 0.46            132            159 354 
 SML  HZ EP        838 50.25                             118    0.17 8  241 336 
 SML  HN ES        839 18.22                             118   -0.43 8  241 336 
 SML  HZ I         839 22.82         5.4 0.10            120            241 336 
                                                                                
