 2014 11 7 0141 37.3 L   6.807 -73.141141.6  RSN  9 0.4 1.8LRSN                1
 GAP=137        1.13       4.6     5.1  6.8 -0.6092E+01  0.5601E+01  0.8288E+01E
 Epicentro: LOS SANTOS - SANTANDER                                             3
 ACTION:UPD 14-12-19 15:40 OP:nd   STATUS:               ID:20141107014137 L   I
 OLDACT:UP  14-11-07 13:23 OP:cam  STATUS:               ID:20141107013813     3
 OLDACT:UP  14-11-07 13:23 OP:cam  STATUS:               ID:20141107013813     3
 OLDACT:REG 14-11-07 12:41 OP:cam  STATUS:               ID:20141107013813     3
 2014-11-07-0138-13M.COL___286                                                 6
 STAT SP IPHASW D HRMM SECON CODA AMPLIT PERI AZIMU VELO AIN AR TRES W  DIS CAZ7
 BAR2 SZ EP        141 56.46                             170   -0.0210 24.1 191 
 BAR2 SZ ES        142 11.35                             170   -0.0710 24.1 191 
 BAR2 SZ I         142 12.85        19.3 0.18            169           24.1 191 
 BRR  HZ EP        141 58.08                             152    0.0410 71.3 298 
 BRR  HN ES        142 14.65                             152    0.4610 71.3 298 
 BRR  HN I         142 18.17        27.1 0.16            151           71.3 298 
 PAM  SZ EP     C  141 59.33                             150    0.2710 76.5  40 
 PAM  SN ES        142 16.18                             150    0.1810 76.5  40 
 PAM  SN I         142 18.77        12.3 0.44            155           76.5  40 
 RUS  HZ EP        142  0.54                             143   -0.1910  101 176 
 RUS  HE ES        142 18.20                             143   -0.7810  101 176 
 RUS  HZ I         142 20.60         3.8 0.24            145            101 176 
 PTB  HZ EP        142  3.17                             131   -0.85 9  148 259 
 PTB  HN ES        142 24.20                             131   -0.64 9  148 259 
 PTB  HZ I         142 29.03         6.2 0.14            132            148 259 
 SPBC HZ EP        142  5.74                             128    0.14 9  164 219 
 SPBC HN ES        142 28.31                             128    0.66 9  164 219 
 SPBC HZ I         142 30.76         5.5 0.32            129            164 219 
 NOR  HZ EP        142 13.08                             117    0.16 8  236 234 
 NOR  HN ES        142 40.94                             117    0.27 8  236 234 
 NOR  HZ I         142 46.63         3.5 0.16            119            236 234 
 CHI  HZ EP        142 14.88                             116   -0.02 8  249 195 
 CHI  HN ES        142 44.97                             116    0.77 8  249 195 
 CHI  HN I         142 47.11         6.3 0.66            118            249 195 
 HEL  HZ EP   4    142 17.76                             114    0.35 0  273 256 
 GUY2CHZ EP   4    142 19.78                             111   -1.07 0  302 235 
 SJC  HZ EP   4    142 30.28                             105   -2.44 0  409 327 
 SJC  HN ES   4    143 11.86                             105   -4.06 0  409 327 
 SJC  HZ I         143 15.53         1.5 0.62            107            409 327 
                                                                                
