 2014  8 7 0022  9.0 L   6.796 -73.154146.9  RSN 11 0.5 1.9LRSN                1
 GAP=136        1.26       3.7     4.9  7.0 -0.1947E+01  0.8531E+01  0.1934E+01E
 Epicentro: LOS SANTOS - SANTANDER                                             3
 ACTION:UPD 14-09-15 21:47 OP:nd   STATUS:               ID:20140807002209 L   I
 OLDACT:REG 14-08-07 12:19 OP:carl STATUS:               ID:20140807001815     3
 2014-08-07-0018-15M.COL___269                                                 6
 STAT SP IPHASW D HRMM SECON CODA AMPLIT PERI AZIMU VELO AIN AR TRES W  DIS CAZ7
 BAR2 SZ EP        022 28.84                             171    0.1110 22.8 188 
 BAR2 SZ ES        022 43.33                             171   -0.8110 22.8 188 
 BAR2 SZ I         022 45.00        20.5 0.12            168           22.8 188 
 BRR  HZ EP        022 30.77                             153    0.5610 70.6 299 
 BRR  HN ES        022 47.63                             153    0.8510 70.6 299 
 BRR  HZ I         022 52.77        13.7 0.38            154           70.6 299 
 PAM  SZ EP        022 31.69                             151    0.3310 78.3  40 
 PAM  SN ES        022 49.02                             151    0.2010 78.3  40 
 RUS  HZ EP        022 32.58                             144   -0.2310  100 176 
 RUS  HN ES        022 51.62                             144    0.2210  100 176 
 RUS  HZ I         022 52.86         9.3 0.22            144            100 176 
 PTB  HZ EP        022 35.70                             132   -0.24 9  147 259 
 PTB  HN ES        022 56.63                             132   -0.35 9  147 259 
 PTB  HZ I         022 58.01        12.7 0.16            133            147 259 
 SPBC HZ EP        022 37.68                             129    0.21 9  162 219 
 SPBC HN ES        022 59.42                             129   -0.29 9  162 219 
 SPBC HZ I         023  6.04        12.0 0.24            130            162 219 
 ZAR  HN ES        023  7.12                             123    0.39 9  203 292 
 NOR  HN ES        023 12.96                             119    0.46 8  234 234 
 SML  HZ EP        022 45.34                             118   -0.32 8  244 336 
 SML  HN ES        023 12.90                             118   -1.37 8  244 336 
 CHI  HZ EP        022 46.60                             117   -0.06 8  248 195 
 CHI  HN ES        023 15.54                             117   -0.53 8  248 195 
 CHI  HZ I         023 25.45         2.8 0.34            118            248 195 
 GUY2CHZ EP        022 53.29                             113    0.77 7  300 235 
 GUY2CHN ES        023 26.10                             113   -0.39 7  300 235 
 GUY2CHZ I         023 35.26         6.0 0.34                           300 235 
                                                                                
