 2011  6 7 0440 28.6 L   6.750 -73.083148.9  RSN  7 0.3 1.6LRSN                1
 GAP=147        0.66       3.8     9.5  7.1 -0.5541E+01 -0.1047E+02 -0.1897E+00E
 Epicentro: LOS SANTOS - SANTANDER                                             3
 ACTION:UP  11-07-14 19:03 OP:ep   STATUS:               ID:20110607044028 L   I
 2011-06-07-0438-31S.COL___132                                                 6
 STAT SP IPHASW D HRMM SECON CODA AMPLIT PERI AZIMU VELO SNR AR TRES W  DIS CAZ7
 BAR2 SZ EP   1    440 48.61                             172     0.1 7   21 212 
 BAR2 SZ ES   1    441  3.68                             172    -0.4 7   21 212 
 BAR2 SZ I         441  6.49         9.4 0.27                            21 212 
 PAM  SZ EP   1    440 51.57                             151     0.4 7   78  33 
 BRR  HZ EP   1    440 50.64                             150     0.1 7   80 300 
 BRR  HE ES   2    441  7.86                             150     0.2 5   80 300 
 BRR  HZ I         441 12.54        10.3 0.16                            80 300 
 RUS  HZ EP   1    440 52.39                             146     0.2 7   95 180 
 RUS  HN ES   2    441 11.05                             146     0.4 5   95 180 
 RUS  HZ I         441 12.39         3.5 0.28                            95 180 
 GRA  SZ EP   2    440 53.92                             137    -0.4 5  129  14 
 GRA  SZ ES   2    441 13.90                             137    -0.6 5  129  14 
 GRA  SZ I         441 17.09         3.9 0.28                           129  14 
 OCA  SZ EP   2    440 57.51                             129    -0.2 5  167 351 
 OCA  SZ ES   2    441 20.70                             129     0.2 5  167 351 
 OCA  SZ I         441 24.92         6.9 0.25                           167 351 
 CHI  HZ EP   2    441  5.48                             118    -0.6 4  245 197 
 CHI  HE ES   2    441 34.99                             118    -0.3 4  245 197 
 CHI  HZ I         441 44.39         2.7 0.61                           245 197 
                                                                                
