 2010  9 7 0735 16.2 L   6.850 -72.847145.3  RSN  5 0.6 1.6LRSN                1
 GAP=250        1.24      17.2    28.8 20.6  0.3339E+03 -0.3289E+03 -0.1333E+03E
 Epicentro: SAN ANDRES - SANTANDER                                             3
 ACTION:UP  11-02-18 11:00 OP:tino STATUS:               ID:20100907073516 L   I
 2010-09-07-0733-03S.COL___120                                                 6
 STAT SP IPHASW D HRMM SECON CODA AMPLIT PERI AZIMU VELO SNR AR TRES W  DIS CAZ7
 GIR2 SZ EP   1    735 36.08                             160    -0.2 7   46 303 
 BAR2 SZ EP   2    735 36.59                             159     0.1 5   47 233 
 BAR2 SZ ES   2    735 51.27                             159    -1.0 5   47 233 
 BAR2 SZ I         735 54.46         8.4 0.42                            47 233 
 BRR  HZ IP     D  735 38.84                             142    -0.310  100 287 
 BRR  HN ES   1    735 57.61                             142     0.6 7  100 287 
 BRR  HZ I         735 57.86        11.8 0.05                           100 287 
 RUS  HZ EP   1    735 41.47                             140     0.9 7  109 194 
 RUS  HE ES   2    735 59.01                             140    -0.5 5  109 194 
 RUS  HZ I         736  0.48         4.2 0.20                           109 194 
 PRA  HZ EP   2    736 11.27                             105    -1.0 3  414 213 
 PRA  HZ I         736 31.68         1.1 0.40                           414 213 
                                                                                
