 2012  9 7 0324 40.5 L   6.753 -73.138149.4  RSN  9 0.4 2.1LRSN                1
 GAP=140        0.68       4.2     4.0  5.6 -0.2957E+01  0.4183E+01  0.4897E+01E
 Epicentro: LOS SANTOS - SANTANDER                                             3
 ACTION:UPD 12-10-22 14:17 OP:ep   STATUS:               ID:20120907032440 L   I
 2012-09-07-0320-00M.COL___227                                                 6
 STAT SP IPHASW D HRMM SECON CODA AMPLIT PERI AZIMU VELO AIN AR TRES W  DIS CAZ7
 BAR2 SZ EP   1    325  0.53                             173    0.05 7 18.4 195 
 BAR2 SZ ES   1    325 16.39                             173    0.32 7 18.4 195 
 BAR2 SZ I         325 18.52        33.0 0.38                          18.4 195 
 GIR2 SZ EP   1    325  0.60                             166   -0.15 7 36.5 350 
 GIR2 SZ ES   1    325 16.68                             166    0.13 7 36.5 350 
 BRR  HZ EP   1    325  2.38                             152    0.15 7 74.5 302 
 BRR  HZ I         325  2.90        22.6 0.10                          74.5 302 
 BRR  HN ES   1    325 19.62                             152    0.44 7 74.5 302 
 PAM  SZ EP   1    325  3.35                             150    0.03 7 81.0  37 
 PAM  SZ I         325  3.57        32.8 0.16                          81.0  37 
 PAM  SN ES   1    325 20.91                             150   -0.21 7 81.0  37 
 RUS  HZ EP   1    325  4.23                             146   -0.02 7 95.3 176 
 RUS  HN ES   1    325 22.38                             146   -0.39 7 95.3 176 
 RUS  HZ I         325 26.21         9.0 0.40                          95.3 176 
 PTB  HZ EP   1    325  7.38                             133   -0.37 7  148 261 
 PTB  HN ES   1    325 28.30                             133   -0.72 7  148 261 
 ZAR  HE ES   2    325 38.98                             123   -0.20 4  207 293 
 NOR  SN ES   1    325 44.59                             119    0.55 6  232 236 
 PRA  HZ EP   1    325 34.50                             107    0.83 4  388 210 
                                                                                
