 2013  7 7 0816  0.7 L   6.823 -73.163146.2  RSN  9 0.3 2.0LRSN                1
 GAP= 73        0.84       3.4     3.7  5.4 -0.1329E+01 -0.3078E+01 -0.1469E+00E
 Epicentro: LOS SANTOS - SANTANDER                                             3
 ACTION:UPD 13-08-12 10:36 OP:ep   STATUS:               ID:20130707081600 L   I
 OLDACT:REG 13-07-07 07:52 OP:stll STATUS:               ID:20130707080848     3
 2013-07-07-0808-48M.COL___224                                                 6
 STAT SP IPHASW D HRMM SECON CODA AMPLIT PERI AZIMU VELO AIN AR TRES W  DIS CAZ7
 BAR2 SZ EP        816 20.47                             170    0.0110 25.6 185 
 BAR2 SZ ES        816 35.72                             170   -0.1310 25.6 185 
 BAR2 SZ I         816 39.11         9.3 0.64            171           25.6 185 
 GIR2 SZ EP        816 20.35                             168   -0.0310 28.5 353 
 BRR  HZ EP        816 22.19                             154    0.4210 68.4 297 
 BRR  HN ES        816 38.88                             154    0.7010 68.4 297 
 BRR  HN I         816 39.73        22.2 0.30            154           68.4 297 
 PAM  SZ EP        816 23.21                             151    0.2610 76.7  42 
 PAM  SZ I         816 23.48        17.7 0.20            152           76.7  42 
 PAM  SN ES        816 40.14                             151   -0.1410 76.7  42 
 RUS  HZ EP        816 24.50                             143   -0.2210  103 175 
 RUS  HN ES        816 43.30                             143   -0.1210  103 175 
 PTB  HZ EP        816 27.42                             132   -0.19 9  146 258 
 PTB  HN ES        816 48.29                             132   -0.29 9  146 258 
 PTB  HN I         816 49.71        18.3 0.20            134            146 258 
 CAPV BZ EP        816 28.14                             132    0.05 9  148  39 
 TAM  HZ EP        816 28.87                             130    0.20 9  158 106 
 OCA  HN ES        816 50.10                             130   -0.63 9  158 354 
 OCA  HN I         816 52.74        24.8 0.28            132            158 354 
                                                                                
