 2013  3 7 0558 10.7 L   6.796 -73.151145.2  RSN 12 0.4 2.3LRSN                1
 GAP=136        0.89       3.0     4.5  5.4  0.1257E+01  0.4735E+01 -0.3881E+00E
 Epicentro: LOS SANTOS - SANTANDER                                             3
 ACTION:UPD 13-04-09 14:00 OP:ep   STATUS:               ID:20130307055810 L   I
 2013-03-07-0550-00M.COL___231                                                 6
 STAT SP IPHASW D HRMM SECON CODA AMPLIT PERI AZIMU VELO AIN AR TRES W  DIS CAZ7
 BAR2 SZ IP        558 30.46                             171    0.2410 22.8 189 
 BAR2 SZ ES   1    558 45.00                             171   -0.46 7 22.8 189 
 BAR2 SZ I         558 47.07        75.2 0.19            154           22.8 189 
 BRR  HZ IP     C  558 32.25                             153    0.5210 70.9 299 
 BRR  HE ES        558 48.88                             153    0.7110 70.9 299 
 BRR  HE I         558 52.55        87.0 0.23            137           70.9 299 
 PAM  SZ EP        558 33.35                             150    0.4910 78.1  40 
 PAM  SZ I         558 33.61        28.0 0.20            150           78.1  40 
 PAM  SN ES   1    558 49.91                             150   -0.26 7 78.1  40 
 RUS  HZ EP        558 34.36                             144    0.0310  100 176 
 RUS  HN ES        558 52.48                             144   -0.3110  100 176 
 RUS  HN I         558 53.93        29.1 0.32            127            100 176 
 PTB  HZ EP        558 37.05                             132   -0.48 9  147 259 
 PTB  HN ES   1    558 58.13                             132   -0.35 7  147 259 
 PTB  HZ I         559  0.84        20.2 0.14            116            147 259 
 OCA  HZ EP   1    558 38.55                             129   -0.41 7  161 353 
 OCA  HN ES   1    559  0.38                             129   -0.65 7  161 353 
 ZAR  HZ EP   1    558 43.00                             122   -0.03 6  204 292 
 ZAR  HN ES   1    559  8.13                             122   -0.15 6  204 292 
 ZAR  HZ I         559 13.66        19.7 0.41            110            204 292 
 SML  HZ EP        558 46.94                             117   -0.33 8  244 335 
 SML  HE ES   1    559 15.59                             117   -0.24 6  244 335 
 CHI  HZ EP   1    558 48.38                             117    0.11 6  248 195 
 CHI  HN ES   1    559 17.51                             117   -0.09 6  248 195 
 CHI  HZ I         559 23.29         9.2 0.32            106            248 195 
 ROSC BZ EP   4    558 50.33                             117    1.65 0  252 211 
 ROSC BZ I         559 25.01        28.8 0.36            106            252 211 
 HEL  HZ EP   1    558 51.34                             115    0.57 6  271 256 
 HEL  HZ I         559 26.88         5.5 0.35            105            271 256 
 PRA  HZ EP   1    559  4.06                             106   -0.03 4  391 210 
                                                                                
