 2015  4 7 0810 45.6 L   6.766 -73.160150.4  RSN  6 0.3 1.4LRSN                1
 GAP=233        0.91       5.1     5.4  6.7  0.1098E+02  0.5604E+01  0.2080E+01E
 Epicentro: LOS SANTOS - SANTANDER                                             3
 ACTION:UPD 15-06-03 16:53 OP:cam  STATUS:               ID:20150407081045 L   I
 OLDACT:REG 15-04-07 19:22 OP:mh   STATUS:               ID:20150407080740     3
 2015-04-07-0807-40M.COL___264                                                 6
 STAT SP IPHASW D HRMM SECON CODA AMPLIT PERI AZIMU VELO AIN AR TRES W  DIS CAZ7
 BAR2 EZ EP        811  5.53                             172   -0.1410 19.4 187 
 BAR2 EZ ES        811 20.89                             172   -0.4710 19.4 187 
 BAR2 EZ I         811 21.97         8.3 0.18            170           19.4 187 
 BRR  HZ EP        811  7.16                             153   -0.0810 71.8 302 
 BRR  HN ES        811 24.84                             153    0.6910 71.8 302 
 BRR  HZ I         811 28.90         6.1 0.16            152           71.8 302 
 RUS  HZ EP        811  9.61                             146    0.1010 96.9 175 
 RUS  HN ES        811 28.29                             146    0.0910 96.9 175 
 RUS  HZ I         811 29.74         2.0 0.30            147           96.9 175 
 PTB  HZ EP        811 12.37                             133   -0.34 9  146 260 
 PTB  HN ES        811 33.40                             133   -0.49 9  146 260 
 PTB  HZ I         811 39.16         2.7 0.14            133            146 260 
 SPBC HZ EP        811 14.45                             131    0.40 9  159 219 
 SPBC HN ES        811 36.51                             131    0.23 9  159 219 
 SPBC HZ I         811 39.18         4.9 0.10            132            159 219 
 ZAR  HN ES        811 43.89                             123    0.03 9  204 293 
                                                                                
