 2012 10 7 0624 34.3 L   6.769 -73.118140.0  RSN  7 0.4 2.1LRSN                1
 GAP=142        0.80       5.7     4.4  7.2  0.3518E+01  0.1134E+02  0.1174E+02E
 Epicentro: LOS SANTOS - SANTANDER                                             3
 ACTION:UPD 12-11-22 17:02 OP:ep   STATUS:               ID:20121007062434 L   I
 2012-10-07-0620-00M.COL___222                                                 6
 STAT SP IPHASW D HRMM SECON CODA AMPLIT PERI AZIMU VELO AIN AR TRES W  DIS CAZ7
 BAR2 SZ EP   1    624 53.13                             171   -0.07 7 20.8 200 
 BAR2 SZ ES   2    625  6.99                             171   -0.94 5 20.8 200 
 BAR2 SZ I         625  9.07        21.9 0.23                          20.8 200 
 GIR2 SZ EP   1    624 53.07                             165   -0.35 7 35.3 346 
 BRR  HZ IP     C  624 54.96                             150   -0.1410 75.6 300 
 BRR  HN ES        625 11.90                             150    0.5910 75.6 300 
 BRR  HN I         625 13.01        50.8 0.12                          75.6 300 
 PAM  SZ EP   1    624 55.97                             150    0.00 7 78.2  36 
 PAM  SN ES        625 13.02                             150    0.1610 78.2  36 
 RUS  HZ EP   1    624 57.23                             144    0.00 7 97.0 178 
 RUS  HN ES   2    625 15.21                             144    0.10 5 97.0 178 
 ZAR  HZ EP   1    625  6.58                             121   -0.24 6  208 293 
 ZAR  HN ES        625 31.65                             121   -0.53 8  208 293 
 ZAR  HN I         625 37.51         9.4 0.17                           208 293 
 HEL  HZ EP   1    625 15.11                             114    0.63 6  274 257 
 HEL  HE ES   2    625 46.51                             114    0.71 4  274 257 
 HEL  HN I         625 52.77         4.0 0.36                           274 257 
                                                                                
