 2014  9 7 0602 24.9 L   6.736 -73.085145.4  RSN  5 0.4 1.4LRSN                1
 GAP=273        0.91       6.7     7.0  8.2  0.9700E+01  0.6411E+01  0.1230E+02E
 Epicentro: JORDAN - SANTANDER                                                 3
 ACTION:UPD 14-10-03 23:03 OP:nd   STATUS:               ID:20140907060224 L   I
 OLDACT:REG 14-09-07 13:06 OP:mh   STATUS:               ID:20140907055819     3
 2014-09-07-0558-19M.COL___260                                                 6
 STAT SP IPHASW D HRMM SECON CODA AMPLIT PERI AZIMU VELO AIN AR TRES W  DIS CAZ7
 BAR2 SZ EP   1    6 2 44.84                             172    0.40 7 19.2 214 
 BAR2 SZ ES   1    6 2 59.51                             172   -0.14 7 19.2 214 
 BAR2 SZ I         6 3  2.98         3.2 0.34            167           19.2 214 
 BRR  HZ EP        6 2 46.18                             149   -0.4110 80.5 301 
 BRR  HN ES        6 3  3.64                             149    0.1610 80.5 301 
 BRR  HZ I         6 3  5.86         4.7 0.46            151           80.5 301 
 PTB  HZ EP        6 2 52.94                             131    0.58 9  153 262 
 PTB  HN ES        6 3 13.32                             131   -0.44 9  153 262 
 PTB  HZ I         6 3 20.01         5.8 0.17            132            153 262 
 SPBC HZ EP        6 2 52.88                             129   -0.42 9  162 222 
 SPBC HN ES   1    6 3 15.92                             129    0.49 7  162 222 
 SPBC HZ I         6 3 18.94         3.4 0.12            130            162 222 
 ZAR  HN ES        6 3 24.43                             121    0.15 8  213 293 
                                                                                
