 2011  3 7 0523 28.1 L   6.789 -73.303137.2  RSN  7 0.4 1.8LRSN                1
 GAP=125        0.79       3.7    13.5 12.5 -0.1254E+02  0.8062E+02 -0.1218E+02E
 Epicentro: ZAPATOCA - SANTANDER                                               3
 ACTION:UP  11-06-16 14:32 OP:jfem STATUS:               ID:20110307052328 L   I
 2011-03-07-0521-22S.COL___135                                                 6
 STAT SP IPHASW D HRMM SECON CODA AMPLIT PERI AZIMU VELO SNR AR TRES W  DIS CAZ7
 BAR2 SZ EP   2    523 46.99                             165     0.2 5   26 149 
 BAR2 SZ I         524  3.60        10.2 0.13                            26 149 
 RUS  HZ EP   1    523 51.00                             139    -0.1 8  102 166 
 RUS  HN ES   1    524  8.88                             139    -0.2 8  102 166 
 RUS  HZ I         524 10.48         6.4 0.40                           102 166 
 GRA  SZ EP        523 53.76                             131     0.510  133  24 
 GRA  SZ ES   1    524 12.90                             131     0.1 7  133  24 
 GRA  SZ I         524 14.26        13.0 0.32                           133  24 
 OCA  SZ EP        523 55.26                             126    -0.510  160 359 
 OCA  SZ ES   1    524 17.12                             126    -0.2 7  160 359 
 OCA  SZ I         524 20.36        10.0 0.25                           160 359 
 CHI  HZ EP   3    524  4.86                                     0.1 2  244 191 
 CHI  HE ES   3    524 33.77                                     0.4 2  244 191 
 HEL  HE ES   3    524 36.54                                     1.0 2  255 255 
 PRA  HZ EP   2    524 21.21                                     1.0 3  383 207 
                                                                                
