 2014 11 7 0435 25.1 L   6.795 -73.137146.7  RSN 19 0.5 2.4LRSN                1
 GAP= 72        1.08       2.9     3.1  4.9 -0.2120E+01  0.3766E+01  0.2685E+01E
 Epicentro: LOS SANTOS - SANTANDER                                             3
 ACTION:UPD 14-12-19 15:40 OP:nd   STATUS:               ID:20141107043525 L   I
 OLDACT:UP  14-11-07 14:47 OP:cam  STATUS:               ID:20141107042809     3
 OLDACT:UP  14-11-07 14:47 OP:cam  STATUS:               ID:20141107042809     3
 OLDACT:UP  14-11-07 14:41 OP:cam  STATUS:               ID:20141107042809     3
 OLDACT:REG 14-11-07 12:51 OP:cam  STATUS:               ID:20141107042809     3
 2014-11-07-0428-09M.COL___298                                                 6
 STAT SP IPHASW D HRMM SECON CODA AMPLIT PERI AZIMU VELO AIN AR TRES W  DIS CAZ7
 BAR2 SZ EP     D  435 44.75                             171   -0.1010 23.0 193 
 BAR2 SZ ES        436  0.08                             171   -0.1610 23.0 193 
 BAR2 SZ I         436  2.52       122.9 0.20            168           23.0 193 
 BRR  HZ EP        435 46.66                             152    0.2410 72.3 299 
 BRR  HN ES        436  3.77                             152    0.7310 72.3 299 
 BRR  HZ I         436  8.18        31.4 0.30            152           72.3 299 
 PAM  SZ EP     D  435 47.46                             151    0.0510 77.2  39 
 PAM  SN ES        436  4.96                             151    0.1510 77.2  39 
 PAM  SZ I         436  7.30        25.5 0.54            156           77.2  39 
 RUS  HZ EP     C  435 48.65                             144   -0.2610  100 177 
 RUS  HE ES        436  6.97                             144   -0.5010  100 177 
 RUS  HZ I         436  9.06        21.7 0.20            145            100 177 
 PTB  HZ EP        435 51.63                             132   -0.60 9  149 259 
 PTB  HN ES        436 12.58                             132   -0.80 9  149 259 
 PTB  HZ I         436 15.63        35.8 0.10            132            149 259 
 TAM  HZ EP        435 53.10                             131    0.34 9  154 105 
 TAM  HN ES        436 14.16                             131   -0.17 9  154 105 
 TAM  HZ I         436 15.22        14.4 0.28            135            154 105 
 OCA  HZ EP        435 54.16                             129    0.61 9  161 353 
 OCA  HN ES        436 15.72                             129   -0.02 9  161 353 
 OCA  HZ I         436 19.58        24.9 0.36            133            161 353 
 SPBC HZ EP        435 53.63                             129   -0.07 9  163 219 
 SPBC HN ES        436 15.89                             129   -0.11 9  163 219 
 SPBC HZ I         436 22.85        52.2 0.48            130            163 219 
 NOR  HZ EP        436  0.79                             118   -0.16 8  235 235 
 NOR  HN ES        436 28.83                             118   -0.07 8  235 235 
 NOR  HZ I         436 32.25        24.0 0.20            120            235 235 
 CHI  HZ EP        436  2.83                             117   -0.00 8  248 195 
 CHI  HN ES        436 31.92                             117   -0.34 8  248 195 
 CHI  HZ I         436 40.56         9.6 0.54            119            248 195 
 ROSC BZ EP        436  3.49                             117    0.20 8  253 211 
 ROSC BE ES        436 33.66                             117    0.59 8  253 211 
 ROSC BZ I         436 39.55        26.5 0.50            118            253 211 
 HEL  HZ EP        436  5.97                             115    0.51 8  273 256 
 HEL  HE ES        436 37.30                             115    0.37 8  273 256 
 HEL  HZ I         436 45.22        15.1 0.36            116            273 256 
 GUY2CHZ EP        436  9.18                             112    0.36 7  302 235 
 GUY2CHN ES   4    436 44.17                             112    1.26 0  302 235 
 GUY2CHZ I         436 51.33        16.7 0.26                           302 235 
 CBOC HZ EP        436 12.38                             110    0.23 7  334 252 
 CBOC HN ES        436 48.18                             110   -0.66 7  334 252 
 CBOC HZ I         436 57.74         3.9 0.32            111            334 252 
 TOL  SZ EP        436 13.93                             109    0.49 7  344 225 
 TOL  SN ES   4    436 53.39                             109    2.25 0  344 225 
 TOL  SZ I         436 57.08        27.0 0.62            111            344 225 
 MON  HZ EP   4    436 12.06                             108   -2.21 0  355 308 
 MON  HN ES   4    436 49.22                             108   -3.40 0  355 308 
 MON  HZ I         436 54.25         4.4 0.28            110            355 308 
 PRA  HZ EP        436 18.14                             107   -0.53 6  392 210 
 PRA  HN ES        437  0.92                             107    0.48 6  392 210 
 PRA  HZ I         437  6.46        15.6 0.78            108            392 210 
 ORTC HZ EP        436 18.89                             106   -0.19 6  396 216 
 ORTC HN ES        437  2.47                             106    1.29 6  396 216 
 ORTC HZ I         437  7.64         9.7 0.38            108            396 216 
 SJC  HZ EP        436 18.93                             106   -1.89 6  410 327 
 SJC  HN ES   4    437  0.23                             106   -4.04 0  410 327 
 SJC  HZ I         437  5.46         4.0 0.54            107            410 327 
                                                                                
