 2011  2 7 0505 46.1 L   6.531 -73.628106.1  RSN  7 0.3 1.3LRSN                1
 GAP=144        0.72       4.3    12.3 13.9 -0.2244E+02  0.1317E+03 -0.2906E+02E
 Epicentro: EL CARMEN DE CHUCURI - SANTANDER                                   3
 ACTION:UP  11-03-28 15:06 OP:jfem STATUS:               ID:20110207050546 L   I
 2011-02-07-0500-38S.COL___138                                                 6
 STAT SP IPHASW D HRMM SECON CODA AMPLIT PERI AZIMU VELO SNR AR TRES W  DIS CAZ7
 BAR2 SZ EP        5 6  2.06                             153     0.010   50  82 
 BAR2 SZ ES   2    5 6 14.29                             153    -0.3 5   50  82 
 BTL  SZ EP   1    5 6  2.62                             149     0.0 7   59  43 
 GIR2 SZ EP   2    5 6  3.58                             141    -0.2 5   77  38 
 RUS  HZ EP   1    5 6  6.01                             135     0.5 7   93 139 
 RUS  HN ES   2    5 6 20.43                             135    -0.3 5   93 139 
 RUS  HZ I         5 6 22.15         3.1 0.21                            93 139 
 GRA  SZ EP   1    5 6 13.14                             116    -0.2 7  175  31 
 GRA  SZ ES   2    5 6 35.34                             116     0.8 4  175  31 
 GRA  SZ I         5 6 35.88         2.5 0.68                           175  31 
 OCA  SZ EP        5 6 14.67                             113    -0.5 9  192  10 
 OCA  SZ ES   1    5 6 38.11                             113     0.3 7  192  10 
 OCA  SZ I         5 6 44.90         3.2 0.33                           192  10 
 RREF HZ EP   1    5 6 24.01                             106     0.2 6  262 227 
 RREF HZ I         5 6 25.23         1.3 0.29                           262 227 
                                                                                
