 2011  9 7 0443 13.0 L   6.765 -73.152147.2  RSN  9 0.3 2.1LRSN                1
 GAP=182        0.38       2.0     3.5  4.2 -0.8733E-01  0.2911E+01  0.6951E+00E
 Epicentro: LOS SANTOS - SANTANDER                                             3
 ACTION:UPD 12-07-13 15:56 OP:ep   STATUS:               ID:20110907044312 L   I
 2011-09-07-0438-14S.COL___170                                                 6
 STAT SP IPHASW D HRMM SECON CODA AMPLIT PERI AZIMU VELO AIN AR TRES W  DIS CAZ7
 BAR2 SZ EP   1    443 32.63                             172   -0.10 7 19.4 190 
 BAR2 SZ ES   2    443 48.04                             172   -0.08 5 19.4 190 
 BAR2 SZ I         443 49.19        38.6 0.06                          19.4 190 
 BRR  HZ IP     C  443 34.50                             152    0.1210 72.5 302 
 BRR  HZ I         443 34.74        29.1 0.17                          72.5 302 
 BRR  HN ES   2    443 51.60                             152    0.55 5 72.5 302 
 RUS  HZ EP   1    443 36.43                             145   -0.19 7 96.7 175 
 RUS  HN ES   2    443 54.94                             145   -0.11 5 96.7 175 
 RUS  HZ I         443 56.54         9.8 0.44                          96.7 175 
 OCA  SZ EP   1    443 41.72                             129   -0.06 7  164 354 
 OCA  SZ ES   2    444  4.30                             129    0.07 5  164 354 
 OCA  SZ I         444  6.46         9.6 0.44                           164 354 
 ZAR  HZ EP   2    443 45.27                             123   -0.36 4  205 293 
 ZAR  HE ES   2    444 10.54                             123   -0.53 4  205 293 
 ZAR  HZ I         444 17.27        14.1 0.37                           205 293 
 NOR  SZ EP   2    443 48.55                             119    0.04 4  232 235 
 NOR  SN ES   2    444 16.05                             119   -0.16 4  232 235 
 CHI  HZ EP   2    443 50.81                             118    0.46 4  245 195 
 CHI  HE ES   2    444 19.51                             118    0.03 4  245 195 
 CHI  HZ I         444 28.24         4.9 0.36                           245 195 
 RREF HE ES   2    444 34.83                             111    0.21 3  319 230 
 RREF HZ I         444 44.18         5.9 0.29                           319 230 
 PRA  HZ EP   2    444  6.46                             107    0.33 3  388 210 
 PRA  HN ES   2    444 47.78                             107    0.20 3  388 210 
                                                                                
