 2015  8 7 0755 17.4 L   6.808 -73.096147.9  RSN  6 0.3 1.8LRSN                1
 GAP=205        0.80       3.8     5.2  5.8  0.6249E+01  0.3688E+01 -0.5057E+01E
 Epicentro: LOS SANTOS - SANTANDER                                             3
 ACTION:UPD 15-09-15 23:00 OP:cam  STATUS:               ID:20150807075517 L   I
 OLDACT:UP  15-08-07 18:25 OP:mh   STATUS:               ID:20150807074750d    3
 OLDACT:DUP 15-08-07 18:09 OP:mh   STATUS:               ID:20150807074750d    3
 2015-08-07-0747-49M.COL___352                                                 6
 STAT SP IPHASW D HRMM SECON CODA AMPLIT PERI AZIMU VELO AIN AR TRES W  DIS CAZ7
 BAR2 EZ EP     C  755 37.52                             170    0.2110 25.7 202 
 BAR2 EZ ES        755 52.53                             170   -0.3310 25.7 202 
 BAR2 EZ I         755 54.35         9.4 0.34            172           25.7 202 
 BRR  HZ EP     C  755 39.30                             151    0.2910 75.7 296 
 BRR  HN ES        755 56.15                             151    0.2710 75.7 296 
 BRR  HZ I         756  0.72         9.6 0.12            150           75.7 296 
 RUS  HZ EP        755 41.48                             144    0.1010  101 179 
 RUS  HN ES   1    755 59.84                             144   -0.26 7  101 179 
 RUS  HZ I         756  0.71         4.7 0.26            149            101 179 
 ZAR  HZ EP        755 49.60                             122   -0.85 8  209 291 
 ZAR  HN ES        756 16.15                             122   -0.10 8  209 291 
 ZAR  HZ I         756 20.65         8.2 0.36            123            209 291 
 NOR  HZ EP   4    755 55.46                             118    1.70 0  240 235 
 NOR  HN ES        756 22.41                             118    0.27 8  240 235 
 SML  HZ EP        755 54.44                             118    0.16 8  245 334 
 SML  HN ES        756 23.08                             118    0.00 8  245 334 
 SML  HZ I         756 29.42         6.3 0.28            119            245 334 
                                                                                
