 2011  4 7 0106 40.6 L   6.745 -73.131140.0  RSN 12 0.3 2.0LRSN                1
 GAP=163        0.50       3.5     4.7  4.0 -0.9434E+01  0.3145E+01  0.8543E+00E
 Epicentro: JORDAN - SANTANDER                                                 3
 ACTION:UP  11-06-22 15:29 OP:REBC STATUS:               ID:20110407010640 L   I
 2011-04-07-0100-00M.COL___140                                                 6
 STAT SP IPHASW D HRMM SECON CODA AMPLIT PERI AZIMU VELO SNR AR TRES W  DIS CAZ7
 BAR2 SZ EP   1    1 6 59.00                             173    -0.4 7   18 199 
 BAR2 SZ ES   1    1 7 14.33                                     0.2 7   18 199 
 BAR2 SZ I         1 7 17.39        16.1 0.21                            18 199 
 BTL  SZ EP   1    1 6 59.65                             169     0.1 7   24 322 
 GIR2 SZ EP   2    1 6 59.84                             164     0.1 5   38 349 
 GIR2 SZ ES   2    1 7 15.36                                     0.6 5   38 349 
 BRR  HZ IP     C  1 7  1.32                             150    -0.110   76 302 
 BRR  HN ES   1    1 7 17.35                             150    -0.3 7   76 302 
 BRR  HZ I         1 7 23.24        23.5 0.30                            76 302 
 PAM  SZ EP   2    1 7  2.16                             148    -0.3 5   81  36 
 PAM  SN ES   2    1 7 19.45                             148     0.0 5   81  36 
 GRA  SZ EP   1    1 7  5.77                             134     0.0 7  131  16 
 GRA  SZ ES   1    1 7 25.37                             134    -0.1 7  131  16 
 GRA  SZ I         1 7 28.13         9.8 0.28                           131  16 
 OCA  SZ EP   1    1 7  9.26                             127     0.2 7  167 353 
 OCA  SZ ES   2    1 7 31.75                             127     0.5 5  167 353 
 OCA  SZ I         1 7 36.69        14.3 0.27                           167 353 
 NOR  SE ES   2    1 7 43.08                             117    -0.1 4  233 236 
 HEL  HZ EP   1    1 7 20.38                             113    -0.2 6  272 257 
 HEL  HZ I         1 7 59.08         4.5 0.29                           272 257 
 GUY  SE ES   3    1 7 58.24                                     0.4 2  301 236 
 GUY  SZ I         1 8  5.91         9.0 0.36                           301 236 
 RREF HZ EP   2    1 7 26.85                                     0.7 3  319 230 
 RREF HN ES   3    1 8  2.24                                     0.5 2  319 230 
 RREF HZ I         1 8  7.91         6.5 0.24                           319 230 
 PRA  HZ EP   2    1 7 33.70                             106     0.3 3  388 210 
 PRA  HN ES   2    1 8 14.86                             106     0.3 3  388 210 
                                                                                
