 2016  6 7 0434 34.6 L   6.732 -73.196148.1  RSN  5 0.4 1.6LRSN                1
 GAP=177        1.04       4.9     6.9  8.3  0.7026E+01  0.4820E+01 -0.1720E+01E
 Epicentro: VILLANUEVA - SANTANDER                                             3
 ACTION:UPD 16-07-21 22:16 OP:rebc STATUS:               ID:20160607043434 L   I
 OLDACT:DUP 16-06-07 16:18 OP:dani STATUS:               ID:20160607042744d    3
 OLDACT:REG 16-06-07 13:00 OP:dani STATUS:               ID:20160607042743     3
 2016-06-07-0427-43M.COL___331                                                 6
 STAT SP IPHASW D HRMM SECON CODA AMPLIT PERI AZIMU VELO AIN AR TRES W  DIS CAZ7
 BAR2 EZ EP        434 54.19                             174   -0.2010 15.5 174 
 BAR2 EZ ES        435  9.02                             174   -0.8010 15.5 174 
 BAR2 EZ I         435 10.05         9.6 0.36                          15.5 174 
 BRR  HZ EP        434 55.91                             153   -0.0710 70.5 306 
 BRR  HN ES        435 12.97                             153    0.3310 70.5 306 
 BRR  HZ I         435 18.66         7.0 0.47                          70.5 306 
 RUS  HZ EP        434 58.11                             146   -0.0010 93.7 172 
 RUS  HN ES        435 17.12                             146    0.6810 93.7 172 
 PTB  HZ EP        435  0.96                             134   -0.21 9  141 261 
 PTB  HN ES        435 21.89                             134    0.01 9  141 261 
 OCA  HN ES        435 26.78                             129    0.29 9  167 355 
                                                                                
