 2013  7 7 0243 32.7 L   6.782 -73.143149.7  RSN  9 0.3 1.7LRSN                1
 GAP= 72        0.89       3.5     4.1  5.3 -0.2805E+01 -0.2219E+01  0.2762E+01E
 Epicentro: LOS SANTOS - SANTANDER                                             3
 ACTION:UPD 13-08-12 10:36 OP:ep   STATUS:               ID:20130707024332 L   I
 OLDACT:REG 13-07-07 07:44 OP:stll STATUS:               ID:20130707023835     3
 2013-07-07-0238-35M.COL___224                                                 6
 STAT SP IPHASW D HRMM SECON CODA AMPLIT PERI AZIMU VELO AIN AR TRES W  DIS CAZ7
 BAR2 SZ EP        243 52.73                             171   -0.0510 21.4 192 
 BAR2 SZ I         243 52.85         5.9 0.42            170           21.4 192 
 BAR2 SZ ES        244  8.38                             171   -0.0610 21.4 192 
 GIR2 SZ EP        243 52.86                             167   -0.0510 33.3 350 
 BRR  HZ EP        243 54.78                             153    0.4210 72.5 300 
 BRR  HN ES        244 12.04                             153    0.7910 72.5 300 
 BRR  HN I         244 12.68        12.9 0.34            153           72.5 300 
 PAM  SZ EP        243 55.40                             151   -0.0310 78.7  38 
 PAM  SN ES        244 12.57                             151   -0.5810 78.7  38 
 RUS  HZ EP        243 56.66                             145   -0.0510 98.6 176 
 RUS  HN ES        244 15.54                             145    0.1110 98.6 176 
 RUS  HN I         244 17.00         7.6 0.40            145           98.6 176 
 GRA  SZ EP        243 58.41                             137   -0.0510  128  17 
 PTB  HZ EP        243 59.84                             133   -0.16 9  148 260 
 PTB  HN ES        244 20.68                             133   -0.61 9  148 260 
 TAM  HZ EP        244  0.90                             132    0.27 9  154 104 
 TAM  HZ I         244  0.99         7.9 0.34            132            154 104 
 CHI  HZ EP        244 10.47                             118    0.03 8  247 195 
 CHI  HN ES        244 39.84                             118   -0.02 8  247 195 
 CHI  HN I         244 42.87         4.2 0.52            118            247 195 
                                                                                
