 2017  4 7 0912 52.0 L   6.748 -73.031142.6  RSN  8 0.4 1.2LRSN                1
 GAP=131        0.89       4.0     4.9  5.8 -0.3952E+01 -0.6299E+01  0.7341E+01E
 Epicentro: ARATOCA - SANTANDER                                                3
 ACTION:UPD 17-05-30 21:09 OP:jn   STATUS:               ID:20170407091252 L   I
 OLDACT:UP  17-04-07 17:44 OP:and  STATUS:               ID:20170407090732d    3
 OLDACT:UP  17-04-07 17:44 OP:and  STATUS:               ID:20170407090732d    3
 OLDACT:UP  17-04-07 17:44 OP:and  STATUS:               ID:20170407090732d    3
 OLDACT:UP  17-04-07 17:43 OP:and  STATUS:               ID:20170407090732d    3
 OLDACT:UP  17-04-07 17:43 OP:and  STATUS:               ID:20170407090732d    3
 OLDACT:DUP 17-04-07 17:38 OP:and  STATUS:               ID:20170407090732d    3
 OLDACT:UP  17-04-07 17:37 OP:and  STATUS:               ID:20170407090731d    3
 OLDACT:UP  17-04-07 17:36 OP:and  STATUS:               ID:20170407090731d    3
 OLDACT:UP  17-04-07 17:36 OP:and  STATUS:               ID:20170407090731d    3
 OLDACT:DUP 17-04-07 17:31 OP:and  STATUS:               ID:20170407090731d    3
 2017-04-07-0908-00M.COL___359                                                 6
 STAT SP IPHASW D HRMM SECON CODA AMPLIT PERI AZIMU VELO AIN AR TRES W  DIS CAZ7
 BAR2 EZ EP        913 10.99                             170   -0.2310 24.1 224 
 BAR2 EZ ES        913 26.79                             170    0.5410 24.1 224 
 BAR2 EZ I         913 27.73         6.3 0.14            167           24.1 224 
 PAM  EZ EP        913 14.02                             151    0.3310 74.9  29 
 PAM  EN ES        913 30.42                             151   -0.2210 74.9  29 
 PAM  EZ I         913 33.30         4.3 0.44            153           74.9  29 
 BRR  HZ EP   2    913 12.75                             148   -0.88 5 85.1 298 
 BRR  HN ES        913 30.24                             148   -0.2810 85.1 298 
 RUS  HZ EP        913 15.31                             145    0.3210 94.8 184 
 RUS  HN ES        913 32.71                             145   -0.2310 94.8 184 
 RUS  HZ I         913 35.47         0.9 0.12            145           94.8 184 
 PTB  HZ EP   9    913 18.21                             129   -1.54 0  159 262 
 PTB  HN ES        913 39.25                             131   -0.63 9  159 262 
 PTB  HZ I         913 45.96         1.8 0.20            128            159 262 
 SPBC HZ EP        913 20.39                             128   -0.22 9  167 224 
 SPBC HN ES        913 43.18                             128    0.22 9  167 224 
 SPBC HZ I         913 46.94         2.7 0.24            127            167 224 
 ZAR  HN ES   2    913 52.54                             120    0.59 4  218 292 
 ZAR  HZ I         913 56.49         2.2 0.13            119            218 292 
 PTGC HZ EP        913 34.27                             112   -0.30 7  299 161 
 PTGC HN ES   2    914  8.16                             112    0.36 4  299 161 
                                                                                
