 2012  9 7 0425  9.7 L   6.801 -73.179145.3  RSN 11 0.4 2.5LRSN                1
 GAP=111        0.77       3.7     3.5  5.3  0.2859E+01  0.4334E+01  0.5400E+01E
 Epicentro: LOS SANTOS - SANTANDER                                             3
 ACTION:UPD 12-10-22 14:17 OP:ep   STATUS:               ID:20120907042509 L   I
 2012-09-07-0420-00M.COL___227                                                 6
 STAT SP IPHASW D HRMM SECON CODA AMPLIT PERI AZIMU VELO AIN AR TRES W  DIS CAZ7
 BAR2 SZ EP        425 29.21                             171   -0.0610 23.1 181 
 BAR2 SZ ES   1    425 44.14                             171   -0.40 7 23.1 181 
 BAR2 SZ I         425 45.53       113.3 0.22                          23.1 181 
 GIR2 SZ EP        425 29.24                             167   -0.0610 30.7 357 
 GIR2 SZ ES   2    425 44.01                             167   -0.58 5 30.7 357 
 BRR  HZ EP        425 31.02                             154    0.4110 67.9 300 
 BRR  HZ I         425 31.49        40.2 0.12                          67.9 300 
 BRR  HN ES   1    425 47.71                             154    0.78 7 67.9 300 
 PAM  SZ EP   1    425 32.11                             150    0.11 7 79.7  42 
 PAM  SZ I         425 32.33        53.3 0.20                          79.7  42 
 PAM  SN ES   1    425 49.15                             150   -0.25 7 79.7  42 
 RUS  HZ EP   1    425 33.21                             144   -0.23 7  101 174 
 RUS  HN ES   1    425 51.81                             144   -0.15 7  101 174 
 RUS  HZ I         425 52.95        23.6 0.18                           101 174 
 PTB  HZ EP        425 35.73                             133   -0.57 9  144 258 
 PTB  HN ES        425 56.87                             133   -0.18 9  144 258 
 PTB  HN I         426  2.34        46.0 0.26                           144 258 
 YOP  SZ EP   1    425 39.99                             126    0.10 7  181 152 
 YOP  SN ES   1    426  4.20                             126    0.76 7  181 152 
 YOP  SN I         426  4.97        41.2 0.50                           181 152 
 ZAR  HZ EP   1    425 41.73                             123   -0.02 6  201 292 
 ZAR  HE ES   1    426  7.28                             123    0.52 6  201 292 
 ZAR  HZ I         426 13.84        21.6 0.20                           201 292 
 CHI  HZ EP   1    425 47.55                             117    0.27 6  248 194 
 HEL  HZ EP   1    425 49.18                             115   -0.31 6  269 256 
 HEL  HZ I         426 29.86        12.1 0.22                           269 256 
 PRA  HZ EP   1    426  2.76                             106   -0.24 4  390 209 
 PRA  HN ES   1    426 44.94                             106    0.36 4  390 209 
 PRA  HZ I         426 49.84        12.3 0.24                           390 209 
                                                                                
