 2011  8 7 0248 21.2 L   6.770 -73.101150.5  RSN  5 0.2 1.5LRSN                1
 GAP=144        0.39       4.5     4.4  4.5 -0.8494E-01 -0.4090E+01 -0.2403E+01E
 Epicentro: LOS SANTOS - SANTANDER                                             3
 ACTION:UPD 12-07-25 14:06 OP:epov STATUS:               ID:20110807024821 L   I
 2011-08-07-0246-49S.COL___143                                                 6
 STAT SP IPHASW D HRMM SECON CODA AMPLIT PERI AZIMU VELO AIN AR TRES W  DIS CAZ7
 BAR2 SZ EP        248 41.28                             172   -0.1310 21.7 205 
 BAR2 SZ ES   1    248 57.05                             172   -0.09 7 21.7 205 
 BAR2 SZ I         248 58.56         3.6 0.30                          21.7 205 
 PAM  SZ EP        248 44.12                             151    0.1810 77.0  35 
 PAM  SN ES   2    249  1.73                             151    0.09 5 77.0  35 
 BRR  HZ EP        248 43.16                             151   -0.0810 77.1 299 
 BRR  HZ I         248 43.36         9.6 0.14                          77.1 299 
 BRR  HE ES   1    249  0.57                             151    0.17 7 77.1 299 
 RUS  HZ EP   3    248 45.67                             146    0.45 2 97.1 179 
 RUS  HE ES   3    249  3.68                             146   -0.24 2 97.1 179 
 OCA  SZ ES   3    249 12.16                             130   -0.78 2  164 352 
                                                                                
