 2016 10 7 0243 10.9 L   6.869 -73.352126.0  RSN  8 0.5 1.9LRSN                1
 GAP=147        1.16       3.6     6.2  8.1 -0.1748E+01  0.4857E+01 -0.4316E-01E
 Epicentro: SAN VICENTE DE CHUCURI - SANTANDER                                 3
 ACTION:UPD 16-11-09 19:17 OP:rebc STATUS:               ID:20161007024310 L   I
 OLDACT:REG 16-10-07 12:40 OP:dnl  STATUS:               ID:20161007023742     3
 2016-10-07-0238-00M.COL___354                                                 6
 STAT SP IPHASW D HRMM SECON CODA AMPLIT PERI AZIMU VELO AIN AR TRES W  DIS CAZ7
 BAR2 EZ IP     D  243 28.77                             163    0.2310 35.9 148 
 BAR2 EZ ES        243 41.94                             163   -0.3510 35.9 148 
 BAR2 EZ I         243 43.14        39.8 0.38            166           35.9 148 
 BRR  HZ EP        243 29.20                             158    0.5310 47.7 304 
 BRR  HN ES        243 43.34                             158    0.8210 47.7 304 
 BRR  HZ I         243 44.14        22.0 0.34            153           47.7 304 
 RUS  HZ EP   2    243 33.72                             136    0.00 5  112 165 
 RUS  HE ES        243 51.16                             136   -0.3410  112 165 
 RUS  HZ I         243 52.27         8.1 0.24            137            112 165 
 PTB  HZ EP        243 34.13                             132   -0.2910  127 253 
 PTB  HN ES        243 51.87                             132   -0.8910  127 253 
 PTB  HZ I         243 56.22         7.4 0.18            128            127 253 
 OCA  HZ EP        243 36.85                             126   -0.05 9  152   1 
 OCA  HE ES        243 56.79                             126   -0.38 9  152   1 
 OCA  HZ I         244  2.11        24.3 0.30            126            152   1 
 SPBC HZ EP   2    243 37.59                             125    0.30 5  156 211 
 SPBC HE ES        243 58.48                             125    0.61 9  156 211 
 SPBC HZ I         244  4.08        10.1 0.16            124            156 211 
 ZAR  HZ EP   4    243 37.05                             121   -2.55 0  180 293 
 ZAR  HN ES   4    244  3.65                             121    1.68 0  180 293 
 ZAR  HZ I         244  8.35         8.6 0.26            119            180 293 
 CHI  HZ EP   2    243 48.46                             113    0.58 4  251 190 
 CHI  HN ES        244 16.55                             113   -0.17 8  251 190 
 CHI  HZ I         244 20.60         2.7 0.38            112            251 190 
                                                                                
