 2014  8 7 0210 46.3 L   6.704 -73.160149.0  RSN  6 0.4 1.7LRSN                1
 GAP=139        1.17       6.1     6.5  8.3 -0.1391E+01 -0.9976E-01 -0.2321E+01E
 Epicentro: VILLANUEVA - SANTANDER                                             3
 ACTION:UPD 14-09-15 21:47 OP:nd   STATUS:               ID:20140807021046 L   I
 OLDACT:REG 14-08-07 12:24 OP:carl STATUS:               ID:20140807020817     3
 2014-08-07-0208-17M.COL___263                                                 6
 STAT SP IPHASW D HRMM SECON CODA AMPLIT PERI AZIMU VELO AIN AR TRES W  DIS CAZ7
 BAR2 SZ EP        211  6.53                             175    0.3310 12.6 191 
 BAR2 SZ ES        211 21.29                             175   -0.4010 12.6 191 
 BAR2 SZ I         211 22.78         8.1 0.26            171           12.6 191 
 BRR  HZ EP        211  8.30                             152    0.2110 75.5 306 
 BRR  HN ES        211 25.46                             152    0.4110 75.5 306 
 BRR  HZ I         211 28.90         6.0 0.30            150           75.5 306 
 PAM  SZ EP        211  9.49                             148    0.0110 86.7  36 
 PAM  SN ES   4    211 25.77                             148   -1.75 0 86.7  36 
 RUS  HZ EP        211  8.90                             147   -0.8010 90.2 175 
 RUS  HN ES        211 28.16                             147    0.2410 90.2 175 
 RUS  HZ I         211 30.72         7.7 0.26            149           90.2 175 
 PTB  HZ EP        211 12.89                             133   -0.40 9  145 263 
 PTB  HN ES        211 33.73                             133   -0.57 9  145 263 
 PTB  HZ I         211 41.77         5.2 0.34            132            145 263 
 SPBC HZ EP        211 14.93                             131    0.68 9  154 221 
 SPBC HN ES        211 36.34                             131    0.33 9  154 221 
 SPBC HZ I         211 40.02        11.1 0.40            131            154 221 
                                                                                
