 2016  5 7 0622 53.3 L   6.794 -73.146150.0  RSN 11 0.4 1.5LRSN                1
 GAP=137        0.91       2.7     3.6  5.1 -0.1754E+01  0.6087E+01 -0.1189E+01E
 Epicentro: LOS SANTOS - SANTANDER                                             3
 ACTION:UPD 16-08-18 17:43 OP:cam  STATUS:               ID:20160507062253 L   I
 OLDACT:REG 16-05-07 15:28 OP:ak   STATUS:               ID:20160507061744     3
 2016-05-07-0617-44M.COL___294                                                 6
 STAT SP IPHASW D HRMM SECON CODA AMPLIT PERI AZIMU VELO AIN AR TRES W  DIS CAZ7
 BAR2 EZ EP        623 13.39                             171   -0.0510 22.7 190 
 BAR2 EZ ES        623 29.23                             171    0.1010 22.7 190 
 BRR  HZ EP        623 15.28                             153    0.3510 71.5 299 
 BRR  HN ES        623 32.70                             153    0.9010 71.5 299 
 BRR  HZ I         623 35.85         3.5 0.09            152           71.5 299 
 PAM  EZ EP        623 16.21                             151    0.2010 77.9  39 
 PAM  EN ES        623 33.68                             151   -0.0310 77.9  39 
 PAM  EZ I         623 36.23         3.7 0.56            155           77.9  39 
 RUS  HZ EP        623 17.11                             145   -0.3210 99.9 176 
 RUS  HN ES        623 36.04                             145   -0.2110 99.9 176 
 RUS  HZ I         623 37.48         4.1 0.44            148           99.9 176 
 PTB  HZ EP        623 20.32                             133   -0.29 9  148 259 
 PTB  HE ES        623 41.26                             133   -0.64 9  148 259 
 PTB  HZ I         623 44.54         4.1 0.16            134            148 259 
 OCA  HZ EP   2    623 22.51                             131    0.50 5  161 353 
 OCA  HN ES        623 44.02                             131   -0.38 9  161 353 
 OCA  HZ I         623 49.32         4.5 0.09            133            161 353 
 SPBC HZ EP        623 22.25                             130    0.17 9  163 219 
 SPBC HN ES        623 44.23                             130   -0.30 9  163 219 
 SPBC HZ I         623 50.19         5.3 0.20            132            163 219 
 ZAR  HZ EP        623 26.09                             123    0.03 9  204 292 
 ZAR  HE ES        623 51.46                             123   -0.14 9  204 292 
 ZAR  HZ I         623 57.91         3.1 0.19            125            204 292 
 NOR  HZ EP   2    623 29.29                             119    0.05 4  234 235 
 NOR  HE ES        623 57.85                             119    0.58 8  234 235 
 NOR  HZ I         624  2.81         2.8 0.21            121            234 235 
 SML  HZ EP        623 30.07                             118   -0.17 8  244 335 
 SML  HE ES        623 58.67                             118   -0.37 8  244 335 
 CBOC HZ EP        623 41.07                             111    0.70 7  333 252 
 CBOC HN ES        624 16.91                             111   -0.17 7  333 252 
                                                                                
