 2014 11 7 0855 38.0 L   6.834 -73.177144.2  RSN 16 0.5 2.1LRSN                1
 GAP=131        1.14       3.1     4.9  5.6 -0.1784E+01  0.9188E+01  0.1316E+01E
 Epicentro: ZAPATOCA - SANTANDER                                               3
 ACTION:UPD 14-12-19 15:40 OP:nd   STATUS:               ID:20141107085538 L   I
 OLDACT:UP  14-11-07 17:34 OP:cam  STATUS:               ID:20141107084816d    3
 OLDACT:UP  14-11-07 17:33 OP:cam  STATUS:               ID:20141107084816d    3
 OLDACT:UP  14-11-07 17:27 OP:cam  STATUS:               ID:20141107084816d    3
 OLDACT:DUP 14-11-07 17:22 OP:cam  STATUS:               ID:20141107084816d    3
 2014-11-07-0848-14M.COL___292                                                 6
 STAT SP IPHASW D HRMM SECON CODA AMPLIT PERI AZIMU VELO AIN AR TRES W  DIS CAZ7
 BAR2 SZ EP        855 57.73                             169    0.2410 26.8 181 
 BAR2 SZ ES        856 12.04                             169   -0.6810 26.8 181 
 BAR2 SZ I         856 14.23        40.5 0.20            167           26.8 181 
 BRR  HZ EP     C  855 59.56                             154    0.8710 66.4 297 
 BRR  HN ES        856 15.20                             154    0.3510 66.4 297 
 BRR  HZ I         856 18.34        18.2 0.14            153           66.4 297 
 PAM  SZ EP     D  856  0.36                             151    0.3710 76.8  43 
 PAM  SN ES        856 17.27                             151    0.1010 76.8  43 
 PAM  SZ I         856 19.51        33.2 0.52            155           76.8  43 
 RUS  HZ EP        856  1.31                             142   -0.5610  105 174 
 RUS  HN ES        856 20.34                             142   -0.1810  105 174 
 PTB  HZ EP        856  4.32                             132   -0.26 9  145 257 
 PTB  HN ES        856 24.70                             132   -0.64 9  145 257 
 PTB  HZ I         856 28.50        14.3 0.40            132            145 257 
 OCA  HZ EP        856  5.51                             130   -0.26 9  156 354 
 OCA  HN ES        856 27.51                             130    0.05 9  156 354 
 OCA  HZ I         856 31.80        13.5 0.24            133            156 354 
 SPBC HZ EP        856  6.70                             128    0.26 9  164 217 
 SPBC HN ES        856 29.46                             128    0.82 9  164 217 
 SPBC HZ I         856 33.98        13.1 0.18            128            164 217 
 CHI  HZ EP        856 15.39                             116   -0.50 8  251 194 
 CHI  HN ES        856 45.05                             116   -0.42 8  251 194 
 CHI  HZ I         856 53.09         5.8 0.32            117            251 194 
 HEL  HZ EP        856 18.50                             115    0.66 8  270 255 
 URE  HZ EP        856 18.35                             114   -0.10 7  279 291 
 GUY2CHZ EP        856 21.67                             112    0.22 7  301 234 
 TOL  SZ EP   4    856 27.90                             109    1.70 0  344 224 
 TOL  SN ES   4    857  5.35                             109    1.53 0  344 224 
 TOL  SZ I         857 11.19        12.9 0.48            110            344 224 
 MON  HZ EP   4    856 24.95                             108   -1.38 0  349 308 
 MON  HN ES        857  3.40                             108   -0.65 6  349 308 
 MON  HZ I         857  4.26         2.0 0.18            110            349 308 
 PRA  HZ EP        856 31.58                             106   -0.05 6  394 209 
 PRA  HE ES        857 14.01                             106    0.52 6  394 209 
 PRA  HZ I         857 21.22         8.4 0.28            107            394 209 
 ORTC HZ EP        856 32.31                             106    0.35 6  397 215 
 ORTC HE ES   4    857 15.81                             106    1.73 0  397 215 
 ORTC HZ I         857 22.21         4.7 0.38            107            397 215 
 SJC  HZ EP        856 31.87                             106   -1.02 6  404 327 
                                                                                
