 2015 11 7 0619 58.7 L   6.828 -73.160144.0  RSN 12 0.5 1.7LRSN                1
 GAP=133        1.09       2.8     4.4  6.0 -0.1164E+01  0.1041E+02  0.1465E+01E
 Epicentro: LOS SANTOS - SANTANDER                                             3
 ACTION:UPD 15-12-28 16:09 OP:cam  STATUS:               ID:20151107061958 L   I
 OLDACT:UP  15-11-07 23:38 OP:cara STATUS:               ID:20151107061747     3
 OLDACT:UP  15-11-07 23:37 OP:cara STATUS:               ID:20151107061747     3
 OLDACT:UP  15-11-07 23:25 OP:cara STATUS:               ID:20151107061747     3
 OLDACT:UP  15-11-07 23:17 OP:cara STATUS:               ID:20151107061747     3
 OLDACT:UP  15-11-07 23:15 OP:cara STATUS:               ID:20151107061747     3
 OLDACT:UP  15-11-07 23:08 OP:cara STATUS:               ID:20151107061747     3
 OLDACT:REG 15-11-07 14:10 OP:cara STATUS:               ID:20151107061747     3
 2015-11-07-0617-47M.COL___304                                                 6
 STAT SP IPHASW D HRMM SECON CODA AMPLIT PERI AZIMU VELO AIN AR TRES W  DIS CAZ7
 BAR2 EZ EP        620 17.95                             169   -0.2310 26.2 185 
 BAR2 EZ ES        620 32.67                             169   -0.7110 26.2 185 
 BAR2 EZ I         620 34.48         8.1 0.46            168           26.2 185 
 BRR  HZ EP        620 19.65                             153    0.1510 68.3 297 
 BRR  HN ES        620 36.21                             153    0.4910 68.3 297 
 BRR  HZ I         620 40.11         7.5 0.44            150           68.3 297 
 PAM  EZ EP        620 20.74                             151    0.0910 76.1  42 
 PAM  EN ES        620 37.87                             151    0.1010 76.1  42 
 PAM  EZ I         620 40.20         5.5 0.56            156           76.1  42 
 RUS  HZ EP        620 22.56                             142    0.0410  104 175 
 RUS  HN ES        620 40.71                             142   -0.3810  104 175 
 RUS  HZ I         620 42.21         4.6 0.30            145            104 175 
 OCA  HN ES        620 48.57                             130    0.27 9  157 354 
 SPBC HZ EP        620 27.22                             128    0.02 9  165 218 
 SPBC HE ES        620 49.73                             128    0.30 9  165 218 
 SPBC HZ I         620 56.23         9.4 0.24            129            165 218 
 ZAR  HZ EP        620 31.23                             122    0.47 9  201 291 
 ZAR  HN ES        620 56.00                             122    0.24 9  201 291 
 ZAR  HZ I         621  5.02         3.4 0.50            123            201 291 
 SML  HZ EP        620 34.14                             117   -0.71 8  240 335 
 SML  HE ES        621  2.89                             117   -0.15 8  240 335 
 SML  HZ I         621  7.06         8.3 0.10            119            240 335 
 CHI  HZ EP        620 36.24                             116   -0.34 8  251 195 
 CHI  HE ES        621  7.62                             116    1.49 8  251 195 
 CHI  HZ I         621 11.58         2.7 0.24            119            251 195 
 HEL  HZ EP        620 38.81                             114    0.07 8  271 255 
 HEL  HE ES        621  9.23                             114   -0.74 8  271 255 
 HEL  HZ I         621 17.64         2.6 0.56            115            271 255 
 GUY2CHZ EP        620 42.19                             112   -0.09 7  302 234 
 GUY2CHE ES        621 15.99                             112   -0.29 7  302 234 
 GUY2CHZ I         621 24.54         2.7 0.26                           302 234 
 ELA  HN ES        621 21.84                             110   -0.29 7  330 229 
                                                                                
