 2013  6 7 0635  5.3 L   6.432 -73.145118.0  RSN  4 0.3 1.6LRSN                1
 GAP=213        0.70       6.8     8.8 10.7  0.1580E+02  0.1980E+02  0.9401E+01E
 Epicentro: VALLE DE SAN JOSE - SANTANDER                                      3
 ACTION:UPD 14-01-08 09:53 OP:ep   STATUS:               ID:20130607063505 L   I
 OLDACT:DUP 13-06-07 10:58 OP:mh   STATUS:               ID:20130607063001d    3
 OLDACT:REG 13-06-07 08:36 OP:mh   STATUS:               ID:20130607063000     3
 2013-06-07-0630-00M.COL___257                                                 6
 STAT SP IPHASW D HRMM SECON CODA AMPLIT PERI AZIMU VELO AIN AR TRES W  DIS CAZ7
 BAR2 SZ EP   4    635 23.19                             171    1.75 0 18.2 347 
 BAR2 SZ I         635 39.03         6.3 0.22            163           18.2 347 
 RUS  HE ES   2    635 37.72                             152    0.01 5 60.0 173 
 RUS  HE I         635 43.04        13.0 0.88            136           60.0 173 
 BRR  HZ EP   1    635 24.98                             138   -0.47 7 97.5 320 
 BRR  HN ES        635 41.36                             138    0.1510 97.5 320 
 BRR  HN I         635 42.52        11.8 0.28            135           97.5 320 
 PTB  HZ EP   1    635 30.41                             125    0.52 7  146 275 
 PTB  HN ES   1    635 48.81                             125   -0.29 7  146 275 
 PTB  HN I         635 56.33         4.2 0.36            121            146 275 
                                                                                
