 2017  3 7 0238 41.9 L   7.476 -73.418135.5  RSN  4 0.2 1.5LRSN                1
 GAP=254        0.40       5.4     3.7  5.0 -0.5775E-01  0.1343E+01 -0.8234E+01E
 Epicentro: SABANA DE TORRES - SANTANDER                                       3
 ACTION:UPD 17-05-25 18:37 OP:jn   STATUS:               ID:20170307023841 L   I
 OLDACT:UP  17-03-07 12:53 OP:and  STATUS:               ID:20170307023743d    3
 OLDACT:UP  17-03-07 12:52 OP:and  STATUS:               ID:20170307023743d    3
 OLDACT:DUP 17-03-07 12:50 OP:and  STATUS:               ID:20170307023743d    3
 OLDACT:UP  17-03-07 12:49 OP:and  STATUS:               ID:20170307023742     3
 OLDACT:UP  17-03-07 12:49 OP:and  STATUS:               ID:20170307023742     3
 OLDACT:REG 17-03-07 11:44 OP:and  STATUS:               ID:20170307023742     3
 2017-03-07-0238-00M.COL___367                                                 6
 STAT SP IPHASW D HRMM SECON CODA AMPLIT PERI AZIMU VELO AIN AR TRES W  DIS CAZ7
 BRR  HZ IP     C  239  0.83                             158   -0.1310 52.1 219 
 BRR  HN ES        239 15.79                             158   -0.0210 52.1 219 
 BRR  HZ I         239 16.98         6.8 0.12            156           52.1 219 
 BAR2 EZ EP   2    239  4.72                             141    0.35 5  101 165 
 BAR2 EZ ES   2    239 22.02                             141    0.14 5  101 165 
 BAR2 EZ I         239 23.00         6.9 0.22            151            101 165 
 PTB  HZ EP   2    239  8.85                             128    0.12 5  155 228 
 PTB  HN ES        239 29.56                             128   -0.07 9  155 228 
 PTB  HZ I         239 32.16         2.5 0.16            129            155 228 
 ZAR  HZ EP   2    239  8.96                             127   -0.18 5  159 271 
 ZAR  HE ES   2    239 30.83                             127    0.46 5  159 271 
 ZAR  HZ I         239 42.88         3.6 0.35            124            159 271 
                                                                                
