 2010  8 7 0350 45.7 L   6.797 -73.063144.0  RSN  4 0.3 1.4LRSN                1
 GAP=168        0.68       4.5     9.1  8.5  0.9524E+01 -0.2756E+02 -0.6653E+01E
 Epicentro: LOS SANTOS - SANTANDER                                             3
 ACTION:UP  10-09-07 10:52 OP:vdl  STATUS:               ID:20100807035045 L   I
 2010-08-07-0348-53S.COL___125                                                 6
 STAT SP IPHASW D HRMM SECON CODA AMPLIT PERI AZIMU VELO SNR AR TRES W  DIS CAZ7
 BAR2 SZ EP        351  5.20                             168     0.010   26 210 
 BAR2 SZ ES   2    351 19.98                             168    -0.4 5   26 210 
 BAR2 SZ I         351 21.88         7.8 0.05                            26 210 
 BRR  HZ EP        351  6.97                             149    -0.210   80 296 
 BRR  HN ES   1    351 24.21                             149     0.3 7   80 296 
 BRR  HZ I         351 28.69         8.0 0.14                            80 296 
 RUS  HZ EP        351  9.17                             143    -0.110  100 181 
 RUS  HN ES   1    351 27.93                             143     0.3 7  100 181 
 RUS  HZ I         351 29.45         2.6 0.34                           100 181 
 GRA  SZ EP   1    351 11.08                                     0.4 7  124  13 
 GRA  SZ ES   2    351 29.76                             138    -0.3 5  124  13 
 GRA  SZ I         351 31.93         3.3 0.35                           124  13 
                                                                                
