 2013  5 7 0005 30.8 L   6.809 -73.171151.5  RSN  5 0.4 1.3LRSN                1
 GAP=133        0.84       6.4     6.0  9.8 -0.4438E+01  0.3641E+01  0.9030E+01E
 Epicentro: LOS SANTOS - SANTANDER                                             3
 ACTION:UPD 13-06-20 09:48 OP:ep   STATUS:               ID:20130507000530 L   I
 2013-05-07-0000-00M.COL___256                                                 6
 STAT SP IPHASW D HRMM SECON CODA AMPLIT PERI AZIMU VELO AIN AR TRES W  DIS CAZ7
 BAR2 SZ EP   2    0 5 51.03                             171   -0.06 5 24.0 183 
 BRR  HZ EP   1    0 5 52.83                             154    0.45 7 68.3 299 
 BRR  HZ I         0 6  7.59        10.1 0.36            145           68.3 299 
 BRR  HN ES   1    0 6  9.81                             154    0.58 7 68.3 299 
 PAM  SZ EP   1    0 5 54.00                             151    0.35 7 78.5  42 
 PAM  SE ES   1    0 6 10.82                             151   -0.68 7 78.5  42 
 PAM  SZ I         0 6 12.87         4.4 0.54            149           78.5  42 
 RUS  HZ EP   1    0 5 55.10                             145   -0.06 7  102 175 
 RUS  HE ES   1    0 6 14.39                             145    0.20 7  102 175 
 RUS  HZ I         0 6 17.36         1.3 0.40            142            102 175 
 PTB  HZ EP   1    0 5 57.55                             134   -0.43 7  145 258 
 PTB  HN ES   1    0 6 18.71                             134   -0.49 7  145 258 
 PTB  HZ I         0 6 26.54         2.6 0.28            126            145 258 
                                                                                
