 2011 12 7 0445 21.7 L   6.499 -73.503110.2  RSN  6 0.2 1.4LRSN                1
 GAP= 90        0.45       3.5     3.6  8.0  0.4764E+00  0.5221E+01  0.7395E+01E
 Epicentro: SIMACOTA - SANTANDER                                               3
 ACTION:UPD 12-07-13 16:14 OP:ep   STATUS:               ID:20111207044521 L   I
 2011-12-07-0440-00M.COL___183                                                 6
 STAT SP IPHASW D HRMM SECON CODA AMPLIT PERI AZIMU VELO AIN AR TRES W  DIS CAZ7
 BAR2 SZ EP   1    445 37.73                             160    0.25 7 36.9  74 
 BAR2 SZ I         445 51.90        36.2 0.39                          36.9  74 
 BRR  HZ EP   1    445 38.92                             144   -0.16 7 71.1 341 
 BRR  HZ I         445 39.15         6.8 0.10                          71.1 341 
 BRR  HN ES   1    445 52.58                             144   -0.09 7 71.1 341 
 GIR2 SZ EP   1    445 39.60                             144    0.21 7 72.7  28 
 RUS  HZ EP   2    445 40.00                             141   -0.54 5 81.6 145 
 RUS  HN ES   2    445 55.29                             141    0.01 5 81.6 145 
 RUS  HZ I         445 58.41         1.6 0.14                          81.6 145 
 NOR  SN ES   2    446 12.01                             116    0.24 4  183 236 
 HEL  HN ES   2    446 21.00                             111   -0.15 4  227 261 
                                                                                
