 2010  6 7 0016 11.6 L   6.773 -73.047144.9  RSN 10 0.5 2.4LRSN                1
 GAP=149        1.18       6.4    11.6  9.0 -0.4159E+02 -0.8830E+01  0.1181E+02E
 Epicentro: LOS SANTOS - SANTANDER                                             3
 ACTION:UP  10-08-24 10:08 OP:vdl  STATUS:               ID:20100607001611 L   I
 2010-06-07-0013-59S.COL___111                                                 6
 STAT SP IPHASW D HRMM SECON CODA AMPLIT PERI AZIMU VELO SNR AR TRES W  DIS CAZ7
 BAR2 SZ EP        016 30.91                             170    -0.210   25 217 
 BAR2 SZ ES   1    016 46.22                             170    -0.2 7   25 217 
 GIR2 SZ EP        016 30.95                             165    -0.410   38 335 
 GIR2 SZ ES   2    016 46.74                             165     0.0 5   38 335 
 GUE  SZ EP        016 35.87                             139    -0.410  118   7 
 GUE  SZ ES   2    016 55.67                             139     0.1 5  118   7 
 GRA  SZ EP        016 37.71                             137     1.010  126  12 
 GRA  SZ ES   1    016 57.17                             137     0.8 7  126  12 
 OCA  SZ EP   1    016 39.42                             129    -0.8 7  165 350 
 OCA  SZ ES   1    017  2.44                             129    -0.2 7  165 350 
 OCA  SZ I         017  5.92        25.3 0.40                           165 350 
 CHI  HZ EP   1    016 49.06                             117    -0.2 6  249 198 
 CHI  HE ES   2    017 18.84                             117     0.2 4  249 198 
 CHI  HZ I         017 24.54        13.9 0.56                           249 198 
 ROSC BZ EP   1    016 50.65                             116     0.7 6  256 213 
 ROSC BZ I         017 25.59        19.9 0.23                           256 213 
 HEL  HZ EP   2    016 52.16                             114    -0.7 4  282 257 
 HEL  HN ES   2    017 25.20                             114     0.2 4  282 257 
 HEL  HZ I         017 31.18        15.7 0.41                           282 257 
 RREF BZ EP   1    016 59.23                             110     0.8 5  328 231 
 RREF BZ I         017 38.12        16.6 0.55                           328 231 
 SDV  BZ EP        017  0.42                             108    -0.4 6  354  49 
 SDV  BZ I         017 41.59         4.3 0.68                           354  49 
                                                                                
