 2013  6 7 0343  8.6 L   6.063 -73.712113.4  RSN 12 0.5 2.4LRSN                1
 GAP= 76        0.92       2.6     3.2  6.6 -0.1804E+01  0.1950E+01  0.9663E+00E
 Epicentro: BOLIVAR - SANTANDER                                                3
 ACTION:UPD 14-01-08 09:53 OP:ep   STATUS:               ID:20130607034308 L   I
 OLDACT:UP  13-06-07 09:52 OP:mh   STATUS:               ID:20130607034000     3
 OLDACT:REG 13-06-07 08:25 OP:mh   STATUS:               ID:20130607034000     3
 2013-06-07-0340-00M.COL___257                                                 6
 STAT SP IPHASW D HRMM SECON CODA AMPLIT PERI AZIMU VELO AIN AR TRES W  DIS CAZ7
 RUS  HZ EP        343 27.10                             145   -0.0310 72.2 105 
 RUS  HN ES   2    343 41.01                             145   -0.56 5 72.2 105 
 RUS  HN I         343 42.25        29.2 0.18            145           72.2 105 
 BAR2 SZ EP     D  343 27.87                             141    0.3210 82.8  45 
 BAR2 SZ ES   1    343 42.51                             141    0.19 7 82.8  45 
 BAR2 SZ I         343 43.83       100.6 0.30            141           82.8  45 
 PTB  HZ IP     C  343 27.62                             136   -0.8210 97.7 303 
 PTB  HN ES        343 43.37                             136   -0.5410 97.7 303 
 PTB  HN I         343 45.34        66.7 0.12            135           97.7 303 
 BRR  HZ IP     C  343 30.07                             131    0.0910  115   0 
 BRR  HN ES        343 47.23                             131    0.5710  115   0 
 BRR  HN I         343 49.79       112.4 0.16            130            115   0 
 NOR  HZ EP   1    343 32.75                             125    0.38 7  140 247 
 NOR  HN ES        343 51.16                             125    0.25 9  140 247 
 NOR  HZ I         343 52.46        19.4 0.18            124            140 247 
 CHI  HZ EP   1    343 34.13                             121   -0.65 7  159 181 
 CHI  HN ES   1    343 55.06                             121   -0.14 7  159 181 
 CHI  HN I         343 57.54        21.5 0.48            121            159 181 
 HEL  HZ EP   1    343 40.03                             115    0.67 6  202 274 
 HEL  HN ES   2    344  2.44                             115   -0.90 4  202 274 
 HEL  HN I         344  7.36        14.2 0.54            114            202 274 
 ZAR  HZ EP   1    343 38.87                             114   -0.13 6  203 321 
 ZAR  HN ES   1    344  2.78                             114    0.07 6  203 321 
 ZAR  HZ I         344  4.14        26.2 0.32            114            203 321 
 GUY2CHZ EP   1    343 40.59                             114    0.69 6  205 243 
 GUY2CHN ES   1    344  4.87                             114    0.56 6  205 243 
 GUY2CHN I         344  7.44        13.7 0.36                           205 243 
 OCA  HZ EP   1    343 43.74                             110   -0.19 6  244  10 
 OCA  HN ES   1    344 11.60                             110    0.11 6  244  10 
 OCA  HN I         344 19.67        53.9 0.28            109            244  10 
 PRA  HZ EP   1    343 48.68                             106   -0.47 5  291 207 
 PRA  HN ES   2    344 21.51                             106    0.75 4  291 207 
 PRA  HN I         344 26.87         9.6 0.74            105            291 207 
 SML  HZ EP   1    343 50.54                             105   -0.29 5  305 353 
 SML  HN ES        344 23.71                             105   -0.05 7  305 353 
 SML  HZ I         344 25.33        13.2 0.10            104            305 353 
                                                                                
