 2011 11 7 0833 26.1 L   6.795 -73.090136.6  RSN  5 0.5 1.4LRSN                1
 GAP=144        0.93       8.4     9.2 10.9  0.4389E+02 -0.2072E+02 -0.3120E+02E
 Epicentro: LOS SANTOS - SANTANDER                                             3
 ACTION:UPD 12-07-13 16:08 OP:ep   STATUS:               ID:20111107083326 L   I
 2011-11-07-0830-04S.COL___175                                                 6
 STAT SP IPHASW D HRMM SECON CODA AMPLIT PERI AZIMU VELO AIN AR TRES W  DIS CAZ7
 BAR2 SZ EP   1    833 44.24                             169   -0.39 7 24.7 204 
 BAR2 SZ ES   1    833 58.44                             169   -0.67 7 24.7 204 
 BAR2 SZ I         834  0.50         6.9 0.39                          24.7 204 
 PAM  SZ EP   1    833 47.14                             150    0.03 7 74.1  36 
 BRR  HZ EP        833 46.62                             149    0.0410 76.9 297 
 BRR  HN ES   1    834  3.44                             149    0.86 7 76.9 297 
 BRR  HZ I         834  6.18         4.4 0.14                          76.9 297 
 RUS  HZ EP   1    833 49.23                             142    0.36 7 99.8 180 
 RUS  HN ES   1    834  6.83                             142    0.17 7 99.8 180 
 RUS  HZ I         834  8.25         4.0 0.34                          99.8 180 
 ZAR  HN ES   1    834 23.31                             119   -0.58 6  210 292 
                                                                                
