 2017  9 7 0750 11.3 L   6.776 -73.128141.1  RSN  5 0.3 1.4LRSN                1
 GAP=140        0.70       3.6     3.8  5.4  0.2926E+01  0.3313E+01 -0.4706E+00E
 Epicentro: LOS SANTOS - SANTANDER                                             3
 ACTION:UPD 17-10-05 19:10 OP:rebc STATUS:               ID:20170907075011 L   I
 OLDACT:REG 17-09-07 13:00 OP:dnl  STATUS:               ID:20170907074741     3
 2017-09-07-0748-00M.COL___414                                                 6
 STAT SP IPHASW D HRMM SECON CODA AMPLIT PERI AZIMU VELO AIN AR TRES W  DIS CAZ7
 BAR2 EZ EP        750 30.26                             171   -0.0610 21.2 197 
 BAR2 EZ ES        750 44.78                             171   -0.3810 21.2 197 
 BAR2 EZ I         750 46.14         9.8 0.28            171           21.2 197 
 BRR  HZ EP        750 32.01                             151   -0.1010 74.2 300 
 BRR  HE ES        750 48.93                             151    0.5710 74.2 300 
 BRR  HZ I         750 53.01         4.6 0.12            148           74.2 300 
 PAM  EZ EP        750 33.12                             150    0.0610 78.2  37 
 PAM  EE ES        750 49.98                             150   -0.0710 78.2  37 
 PAM  EZ I         750 52.29         4.5 0.34            152           78.2  37 
 RUS  HZ EP        750 34.50                             144    0.1210 97.8 177 
 RUS  HN ES        750 52.50                             144    0.1010 97.8 177 
 RUS  HZ I         750 53.32         2.1 0.26            147           97.8 177 
 ZAR  HZ EP   2    750 43.97                             121    0.24 4  207 293 
 ZAR  HN ES        751  8.65                             121   -0.39 8  207 293 
 ZAR  HZ I         751 15.87         2.8 0.30            121            207 293 
                                                                                
