 2015  1 7 0324  9.3 L   6.808 -73.112144.6  RSN  9 0.4 1.6LRSN                1
 GAP=160        0.84       5.2     4.8  7.0  0.1355E+01  0.4023E+00 -0.7853E+01E
 Epicentro: LOS SANTOS - SANTANDER                                             3
 ACTION:UPD 15-03-02 15:37 OP:nd   STATUS:               ID:20150107032409 L   I
 OLDACT:REG 15-01-07 15:47 OP:spq  STATUS:               ID:20150107031815     3
 2015-01-07-0318-15M.COL___277                                                 6
 STAT SP IPHASW D HRMM SECON CODA AMPLIT PERI AZIMU VELO AIN AR TRES W  DIS CAZ7
 BAR2 EZ EP        324 28.69                             170   -0.1310 25.1 198 
 BAR2 EZ ES   1    324 43.58                             170   -0.48 7 25.1 198 
 BAR2 EZ I         324 44.70         5.9 0.18            171           25.1 198 
 BRR  HZ EP        324 30.62                             151    0.1410 74.0 297 
 BRR  HN ES        324 47.54                             151    0.5310 74.0 297 
 BRR  HZ I         324 51.77         8.0 0.50            149           74.0 297 
 PAM  SZ EP        324 31.52                             152    0.3110 74.4  38 
 PTB  HZ EP   1    324 36.75                             131    0.24 7  152 259 
 PTB  HE ES   1    324 56.95                             131   -0.79 7  152 259 
 PTB  HZ I         324 59.67         2.8 0.24            132            152 259 
 OCA  HN ES   1    324 59.09                             129   -0.36 7  160 352 
 OCA  HZ I         325  0.09         4.3 0.17            130            160 352 
 ZAR  HZ EP        324 42.00                             122    0.02 8  207 292 
 ZAR  HN ES        325  7.70                             122    0.22 8  207 292 
 ZAR  HZ I         325 13.57         3.5 0.34            123            207 292 
 SML  HZ EP   1    324 45.45                             117   -0.48 6  244 334 
 SML  HN ES   1    325 14.07                             117   -0.44 6  244 334 
 SML  HZ I         325 22.17         3.1 0.26            119            244 334 
 MON  HZ EP   4    324 56.42                             108   -2.10 0  356 308 
 MON  HE ES   4    325 34.51                             108   -2.40 0  356 308 
 MON  HZ I         325 35.73         1.2 0.56            110            356 308 
 SJC  HZ EP   4    325  3.55                             105   -1.41 0  410 326 
 SJC  HN ES   4    325 44.21                             105   -4.17 0  410 326 
 SJC  HZ I         325 48.05         1.2 0.52            107            410 326 
                                                                                
