 2014  1 7 0636  0.7 L   7.100 -73.450 20.1  RSN  6 0.3 1.3LRSN                1
 GAP= 81        0.90       2.3     3.2  4.9 -0.1653E+01  0.1189E+02 -0.3120E+01E
 Epicentro: SAN VICENTE DE CHUCURI - SANTANDER                                 3
 ACTION:UPD 14-03-13 09:52 OP:ep   STATUS:               ID:20140107063600 L   I
 OLDACT:REG 14-01-07 08:11 OP:carl STATUS:               ID:20140107063000     3
 2014-01-07-0630-00M.COL___285                                                 6
 STAT SP IPHASW D HRMM SECON CODA AMPLIT PERI AZIMU VELO AIN AR TRES W  DIS CAZ7
 BAR2 SZ EP        636 11.55                             106    0.0510 63.4 152 
 BAR2 SZ ES        636 19.39                             106   -0.5210 63.4 152 
 BAR2 SZ I         636 21.49        20.7 0.28            102           63.4 152 
 PAM  SZ EP        636 15.57                             102    0.3410 87.0  72 
 PAM  SN ES        636 26.46                             102   -0.1010 87.0  72 
 PAM  SZ I         636 27.81         8.1 0.26             99           87.0  72 
 PTB  HZ EP        636 21.04                              56    0.5110  127 241 
 PTB  HN ES        636 35.95                              56   -0.0310  127 241 
 PTB  HZ I         636 37.14         6.2 0.10             96            127 241 
 OCA  HN ES        636 35.92                              56   -0.2210  127   6 
 OCA  HZ I         636 40.94         6.9 0.24             96            127   6 
 RUS  HZ EP        636 23.15                              56    0.53 9  140 163 
 RUS  HN ES        636 39.55                              56   -0.16 9  140 163 
 RUS  HZ I         636 42.41         3.1 0.18             56            140 163 
 ZAR  HN ES        636 43.13                              56   -0.42 9  161 286 
 ZAR  HZ I         636 46.17         3.3 0.26             56            161 286 
                                                                                
