 2017  8 7 0141 22.0 L   6.773 -73.152140.4  RSN  8 0.4 1.2LRSN                1
 GAP=137        0.90       3.8     4.4  6.1 -0.3975E+01  0.3799E+01  0.3786E+01E
 Epicentro: LOS SANTOS - SANTANDER                                             3
 ACTION:UPD 17-09-04 20:17 OP:rebc STATUS:               ID:20170807014122 L   I
 OLDACT:REG 17-08-07 12:08 OP:dhb  STATUS:               ID:20170807013740     3
 2017-08-07-0138-00M.COL___393                                                 6
 STAT SP IPHASW D HRMM SECON CODA AMPLIT PERI AZIMU VELO AIN AR TRES W  DIS CAZ7
 BAR2 EZ IP     D  141 40.88                             171   -0.0910 20.3 190 
 BAR2 EZ ES        141 55.11                             171   -0.6210 20.3 190 
 BAR2 EZ I         141 57.09         4.1 0.08            170           20.3 190 
 BRR  HZ IP     D  141 42.85                             151    0.1810 72.1 301 
 BRR  HN ES        141 59.35                             151    0.6010 72.1 301 
 BRR  HZ I         142  3.66         6.4 0.12            152           72.1 301 
 PAM  EZ EP        141 43.84                             149   -0.0210 80.1  39 
 PAM  EE ES        142  0.83                             149   -0.0510 80.1  39 
 PAM  EZ I         142  2.73         4.1 0.50            152           80.1  39 
 RUS  HZ IP     C  141 45.39                             143    0.3310 97.7 176 
 RUS  HN ES        142  3.07                             143    0.0610 97.7 176 
 RUS  HZ I         142  4.07         3.3 0.26            144           97.7 176 
 PTB  HZ EP        141 47.98                             131   -0.49 9  147 260 
 PTB  HN ES        142  8.79                             131   -0.29 9  147 260 
 PTB  HZ I         142 11.12         1.7 0.24            132            147 260 
 SPBC HZ EP        141 49.81                             128   -0.06 9  160 219 
 SPBC HE ES        142 12.07                             128    0.49 9  160 219 
 SPBC HZ I         142 14.14         3.0 0.07            129            160 219 
 NOR  HN ES   3    142 22.80                             117   -1.86 2  232 235 
 CHI  HN ES   1    142 27.99                             116   -0.04 6  246 195 
 CHI  HZ I         142 34.84         0.5 0.08            118            246 195 
                                                                                
