 2013  4 7 0630 12.9 L   6.751 -73.147142.3  RSN  7 0.4 1.7LRSN                1
 GAP=233        0.94       5.1     6.1  9.3  0.1340E+02  0.9148E+01  0.7525E+01E
 Epicentro: LOS SANTOS - SANTANDER                                             3
 ACTION:UPD 13-05-22 14:36 OP:EP   STATUS:               ID:20130407063012 L   I
 2013-04-07-0630-00M.COL___245                                                 6
 STAT SP IPHASW D HRMM SECON CODA AMPLIT PERI AZIMU VELO AIN AR TRES W  DIS CAZ7
 BAR2 SZ EP        630 31.96                             173   -0.0210 18.0 192 
 BAR2 SZ I         630 48.55         8.4 0.38            172           18.0 192 
 BRR  HZ EP        630 34.10                             151    0.3110 73.8 302 
 BRR  HN ES        630 50.65                             151    0.5410 73.8 302 
 BRR  HN I         630 51.54        11.6 0.30            151           73.8 302 
 RUS  HN ES        630 53.48                             145   -0.3710 95.2 176 
 PTB  HZ EP   1    630 39.16                             132   -0.29 7  147 261 
 PTB  HN ES        630 59.74                             132   -0.45 9  147 261 
 PTB  HN I         631  5.60         7.4 0.24            131            147 261 
 ZAR  HN ES        631 10.09                             121   -0.49 8  206 294 
 ZAR  HN I         631 14.20         3.6 0.16            119            206 294 
 NOR  HE ES   1    631 16.39                             118    0.90 6  231 236 
 CHI  HZ EP   1    630 49.95                             117    0.14 6  243 195 
 CHI  HN ES   1    631 18.75                             117    0.14 6  243 195 
 CHI  HN I         631 23.26         2.5 0.20            114            243 195 
                                                                                
