 2014  5 7 0950 55.5 L   6.778 -73.167141.7  RSN  7 0.5 1.7LRSN                1
 GAP=135        1.11       3.5     4.9  8.7 -0.7327E+00  0.1199E+02 -0.3711E+01E
 Epicentro: LOS SANTOS - SANTANDER                                             3
 ACTION:UPD 15-03-16 16:55 OP:nd   STATUS:               ID:20140507095055 L   I
 OLDACT:REG 14-05-07 12:49 OP:carl STATUS:               ID:20140507094819     3
 2014-05-07-0948-19M.COL___217                                                 6
 STAT SP IPHASW D HRMM SECON CODA AMPLIT PERI AZIMU VELO AIN AR TRES W  DIS CAZ7
 PAM  SZ EP        951 17.98                             149    0.5010 80.8  40 
 PAM  SN ES        951 34.77                             149    0.1410 80.8  40 
 PAM  SZ I         951 36.97         8.4 0.50            152           80.8  40 
 RUS  HZ EP        951 18.81                             144    0.1310 98.3 175 
 RUS  HN ES        951 36.57                             144   -0.1910 98.3 175 
 RUS  HZ I         951 38.56         4.3 0.38            145           98.3 175 
 PTB  HZ EP        951 21.74                             132   -0.14 9  145 260 
 PTB  HN ES        951 42.49                             132    0.03 9  145 260 
 SPBC HN ES        951 44.65                             129   -0.44 9  160 219 
 ZAR  HZ EP        951 28.38                             122    0.83 9  203 293 
 ZAR  HN ES        951 53.15                             122    0.60 9  203 293 
 ZAR  HZ I         951 59.46         4.5 0.34            122            203 293 
 SML  HZ EP        951 31.32                             116   -0.71 8  245 336 
 SML  HE ES        951 59.54                             116   -0.99 8  245 336 
 SML  HZ I         952  2.63         7.3 0.10            118            245 336 
 CHI  HZ EP        951 32.57                             117   -0.07 8  246 195 
 CHI  HE ES        952  1.53                             117   -0.09 8  246 195 
 CHI  HZ I         952  9.57         2.6 0.48            118            246 195 
                                                                                
