 2010 11 7 0041 10.0 L   6.801 -73.049146.5  RSN  8 0.4 1.8LRSN                1
 GAP=169        0.98       4.7     8.2  8.0 -0.9722E+01  0.1149E+02  0.4030E+00E
 Epicentro: LOS SANTOS - SANTANDER                                             3
 ACTION:UP  10-12-17 16:50 OP:REBC STATUS:               ID:20101107004110 L   I
 2010-11-07-0039-35S.COL___128                                                 6
 STAT SP IPHASW D HRMM SECON CODA AMPLIT PERI AZIMU VELO SNR AR TRES W  DIS CAZ7
 BTL  SZ EP        041 29.91                             169     0.110   27 298 
 BTL  SZ ES   1    041 45.19                             169    -0.1 7   27 298 
 GIR2 SZ EP   3    041 30.06                             166     0.2 2   35 333 
 BRR  HE ES   1    041 48.92                             150     0.1 7   81 295 
 BRR  HZ I         041 51.04        12.9 0.11                            81 295 
 RUS  HZ EP        041 33.86                             144     0.010  100 182 
 RUS  HN ES        041 52.58                             144     0.110  100 182 
 RUS  HZ I         041 54.30        10.2 0.48                           100 182 
 GRA  SZ ES   1    041 54.06                             138    -0.6 7  123  13 
 OCA  SZ EP        041 39.20                             129     0.6 9  162 349 
 OCA  SZ I         042  4.68         9.0 0.27                           162 349 
 NOR  SZ EP        041 45.89                             118    -0.9 8  244 236 
 NOR  SE ES   1    042 15.55                             118     0.1 6  244 236 
 RREF HE ES   2    042 34.64                             110     0.7 3  330 231 
                                                                                
