 2012  8 7 0348 26.2 L   6.880 -74.074 23.1  RSN  5 0.3 1.1LRSN                1
 GAP=110        0.64       2.6     2.0  2.7 -0.2069E+01  0.5715E+00 -0.1044E+00E
 Epicentro: PUERTO PARRA - SANTANDER                                           3
 ACTION:UPD 12-09-10 11:54 OP:ep   STATUS:               ID:20120807034826 L   I
 2012-08-07-0340-00M.COL___216                                                 6
 STAT SP IPHASW D HRMM SECON CODA AMPLIT PERI AZIMU VELO AIN AR TRES W  DIS CAZ7
 BRR  HZ EP        348 34.91                             114    0.3810 47.2  58 
 BRR  HE ES   1    348 40.48                             114   -0.56 7 47.2  58 
 BRR  HZ I         348 41.10        13.6 0.05                          47.2  58 
 PTB  HZ EP        348 36.10                             110    0.2210 56.6 228 
 PTB  HN ES        348 43.27                             110   -0.1810 56.6 228 
 PTB  HZ I         348 43.86         8.4 0.20                          56.6 228 
 ZAR  HE ES   1    348 57.03                              56   -0.07 7  110 308 
 RUS  HZ EP   1    348 49.76                              56    0.04 7  155 135 
 RUS  HE ES   1    349  8.01                              56   -0.08 7  155 135 
 RUS  HZ I         349 12.22         2.7 0.26                           155 135 
 HEL  HN ES   1    349 12.93                              56   -0.11 7  178 245 
 HEL  HZ I         349 16.63         1.9 0.52                           178 245 
                                                                                
