 2014  4 7 0700 51.0 L   6.809 -73.152145.2  RSN  6 0.3 1.7LRSN                1
 GAP=202        0.63       2.1     5.7  8.3 -0.5520E+01 -0.2286E+02  0.4543E+01E
 Epicentro: LOS SANTOS - SANTANDER                                             3
 ACTION:UPD 14-05-13 23:06 OP:nd   STATUS:               ID:20140407070051 L   I
 OLDACT:UP  14-04-08 06:31 OP:CF   STATUS:               ID:20140407070051 L   3
 OLDACT:REG 14-04-07 12:53 OP:stll STATUS:               ID:20140407065806     3
 2014-04-07-0658-06M.COL___250                                                 6
 STAT SP IPHASW D HRMM SECON CODA AMPLIT PERI AZIMU VELO AIN AR TRES W  DIS CAZ7
 PTB  HN ES        7 1 38.43                             132   -0.3710  147 258 
 OCA  HZ EP        7 1 19.32                             130    0.1910  159 353 
 OCA  HN ES        7 1 41.16                             130    0.0710  159 353 
 OCA  HZ I         7 1 44.25         4.3 0.22            133            159 353 
 SPBC HZ EP        7 1 19.75                             129    0.3010  164 219 
 SPBC HN ES        7 1 41.87                             129    0.2010  164 219 
 SPBC HZ I         7 1 46.31         8.5 0.44            133            164 219 
 SML  HZ EP        7 1 27.11                             117   -0.32 9  242 335 
 SML  HN ES        7 1 55.88                             117    0.02 9  242 335 
 SML  HZ I         7 2  2.63         4.8 0.32            121            242 335 
 CHI  HZ EP        7 1 28.44                             117   -0.28 8  249 195 
 CHI  HN ES        7 1 57.92                             117   -0.24 8  249 195 
 CHI  HZ I         7 2  1.54         2.4 0.52            121            249 195 
 GUY2CHN ES        7 2  8.95                             112    0.41 8  301 235 
 GUY2CHZ I         7 2 22.65         1.6 0.56                           301 235 
 RREF HN ES   4    7 2 16.16                             111    3.08 0  322 229 
                                                                                
