 2015  3 7 0946 40.4 L   6.813 -73.151146.0  RSN 11 0.5 1.7LRSN                1
 GAP=135        1.19       4.4     5.1  7.9 -0.3762E+01  0.1081E+02 -0.1228E+01E
 Epicentro: LOS SANTOS - SANTANDER                                             3
 ACTION:UPD 15-04-30 16:24 OP:nd   STATUS:               ID:20150307094640 L   I
 OLDACT:REG 15-03-07 13:50 OP:spq  STATUS:               ID:20150307093735     3
 2015-03-07-0937-35M.COL___284                                                 6
 STAT SP IPHASW D HRMM SECON CODA AMPLIT PERI AZIMU VELO AIN AR TRES W  DIS CAZ7
 BAR2 EZ EP        947  0.13                             170    0.0410 24.6 188 
 BAR2 EZ ES   1    947 14.83                             170   -0.61 7 24.6 188 
 BAR2 EZ I         947 16.21        14.0 0.14            170           24.6 188 
 BRR  HZ EP     D  947  1.92                             153    0.4010 70.0 298 
 BRR  HN ES        947 18.96                             153    0.9810 70.0 298 
 BRR  HZ I         947 22.20         9.9 0.12            150           70.0 298 
 PAM  SZ EP        947  3.05                             151    0.4510 76.7  41 
 PAM  SN ES        947 20.04                             151    0.1210 76.7  41 
 PAM  SZ I         947 21.73         5.6 0.16            154           76.7  41 
 RUS  HZ EP   1    947  4.44                             144    0.16 7  102 176 
 RUS  HN ES   1    947 22.33                             144   -0.58 7  102 176 
 RUS  HZ I         947 23.74         6.8 0.26            146            102 176 
 PTB  HZ EP        947  6.72                             132   -0.65 9  147 258 
 PTB  HN ES        947 27.83                             132   -0.57 9  147 258 
 PTB  HZ I         947 30.32         4.5 0.30            131            147 258 
 OCA  HN ES        947 29.89                             130   -0.70 9  159 353 
 OCA  HZ I         947 33.83         7.0 0.16            131            159 353 
 ZAR  HZ EP   1    947 12.91                             123    0.15 6  203 292 
 ZAR  HN ES        947 38.32                             123    0.33 9  203 292 
 ZAR  HZ I         947 43.92         7.0 0.42            122            203 292 
 NOR  HZ EP   1    947 16.84                             119    0.65 6  235 234 
 NOR  HE ES        947 44.25                             119    0.16 8  235 234 
 NOR  HZ I         947 52.12         2.7 0.20            119            235 234 
 SML  HZ EP        947 16.52                             118   -0.36 8  242 335 
 SML  HE ES   1    947 44.83                             118   -0.50 6  242 335 
 SML  HZ I         947 49.09         6.8 0.34            118            242 335 
 GUY2CHZ EP   4    947 25.72                             112    1.66 0  302 234 
 GUY2CHE ES   4    948  0.53                             112    2.41 0  302 234 
 GUY2CHZ I         948  8.45         2.3 0.60                           302 234 
 MON  HZ EP   4    947 27.35                             109   -1.92 0  352 308 
 MON  HN ES   4    948  6.26                             109   -1.12 0  352 308 
 MON  HZ I         948 12.01         0.9 0.42            109            352 308 
                                                                                
