 2015  6 7 0917  3.8 L   6.863 -73.128137.9  RSN  4 0.4 1.0LRSN                1
 GAP=247        1.02       6.8     7.8  9.0  0.2339E+02  0.1953E+02 -0.9059E+01E
 Epicentro: LOS SANTOS - SANTANDER                                             3
 ACTION:UPD 15-09-10 22:10 OP:cam  STATUS:               ID:20150607091703 L   I
 OLDACT:DUP 15-06-07 18:06 OP:ak   STATUS:               ID:20150607090749d    3
 2015-06-07-0907-48M.COL___303                                                 6
 STAT SP IPHASW D HRMM SECON CODA AMPLIT PERI AZIMU VELO AIN AR TRES W  DIS CAZ7
 BAR2 EZ EP        917 23.11                             167    0.4910 30.5 191 
 BAR2 EZ ES        917 37.64                             167    0.3010 30.5 191 
 BAR2 EZ I         917 41.30         2.5 0.16            170           30.5 191 
 RUS  HZ EP        917 27.03                             140   -0.2410  107 177 
 RUS  HN ES        917 44.91                             140   -0.7010  107 177 
 RUS  HZ I         917 47.28         0.8 0.37            147            107 177 
 SPBC HZ EP        917 32.53                             126    0.21 9  170 218 
 SPBC HN ES        917 55.01                             126    0.42 9  170 218 
 ZAR  HZ EP        917 35.52                             121   -0.11 9  203 290 
 ZAR  HN ES        918  0.08                             121   -0.41 9  203 290 
 ZAR  HZ I         918  7.74         1.9 0.15            123            203 290 
                                                                                
