 2010  7 7 0053 51.5 L   6.780 -73.094146.5  RSN 12 0.4 2.3LRSN                1
 GAP=162        0.76       3.6     7.4  6.9 -0.1231E+02  0.1080E+02  0.3131E+01E
 Epicentro: LOS SANTOS - SANTANDER                                             3
 ACTION:UPD 10-12-01 15:15 OP:pat  STATUS:               ID:20100707005351 L   I
 2010-07-07-0049-14S.COL___117                                                 6
 STAT SP IPHASW D HRMM SECON CODA AMPLIT PERI AZIMU VELO AIN AR TRES W  DIS CAZ7
 BAR2 SZ IP     C  054 11.26                             171     0.110   23 205 
 BAR2 SZ ES   2    054 26.17                             171    -0.4 5   23 205 
 BRR  HZ IP     D  054 13.18                             151     0.110   77 298 
 BRR  HE ES   2    054 30.42                             151     0.5 5   77 298 
 BRR  HZ I         054 33.00        48.2 0.12                            77 298 
 RUS  HZ EP   1    054 15.16                             145     0.0 7   98 179 
 RUS  HE ES   2    054 33.25                             145    -0.3 5   98 179 
 RUS  HZ I         054 35.04        19.7 0.26                            98 179 
 BRI  SZ EP   1    054 15.90                             142     0.5 7  109  18 
 BRI  SZ ES   2    054 34.31                             142     0.2 5  109  18 
 GUE  SZ EP   1    054 15.30                             139    -1.0 7  118   9 
 GRA  SZ EP   1    054 17.09                             137     0.3 7  126  15 
 GRA  SZ ES   2    054 36.79                             137     0.2 5  126  15 
 OCA  SZ EP   1    054 19.76                             129    -0.3 7  163 351 
 OCA  SZ ES   2    054 42.03                             129    -0.4 5  163 351 
 OCA  SZ I         054 46.40        30.4 0.22                           163 351 
 CHI  HZ EP   1    054 29.38                             117     0.2 6  248 197 
 CHI  HN ES   2    054 58.66                             117     0.1 4  248 197 
 CHI  HZ I         055  2.19        10.4 0.47                           248 197 
 ROSC BZ EP   1    054 29.88                             117     0.1 6  254 212 
 ROSC BE ES   2    054 59.43                             117    -0.2 4  254 212 
 ROSC BZ I         055  5.11        10.4 0.42                           254 212 
 HEL  HZ EP   1    054 32.43                             114     0.2 6  277 257 
 HEL  HZ I         055 10.42         7.5 0.31                           277 257 
 RREF HZ EP   1    054 38.13                             111     0.2 5  325 230 
 RREF HN ES   2    055 13.41                             111    -0.8 3  325 230 
 RREF HZ I         055 23.17        13.9 0.52                           325 230 
 PRA  HZ EP   1    054 45.01                             107    -0.1 4  393 210 
 PRA  HZ I         055 34.59         7.9 0.43                           393 210 
                                                                                
