 2015  2 7 0557 59.5 L   6.731 -73.163142.1  RSN  6 0.5 1.3LRSN                1
 GAP=137        1.27       6.4     7.0  9.0 -0.4261E+00  0.2192E+01 -0.1360E+01E
 Epicentro: VILLANUEVA - SANTANDER                                             3
 ACTION:UPD 15-04-30 21:23 OP:nd   STATUS:               ID:20150207055759 L   I
 OLDACT:DUP 15-02-07 19:42 OP:stll STATUS:               ID:20150207054743d    3
 OLDACT:REG 15-02-07 12:36 OP:stll STATUS:               ID:20150207054742     3
 2015-02-07-0547-42M.COL___290                                                 6
 STAT SP IPHASW D HRMM SECON CODA AMPLIT PERI AZIMU VELO AIN AR TRES W  DIS CAZ7
 BAR2 EZ ES        558 33.42                             173   -0.0210 15.5 188 
 BAR2 EZ I         558 36.44         4.3 0.36            170           15.5 188 
 BRR  HZ EP        558 20.64                             151    0.2310 73.5 304 
 BRR  HN ES        558 37.29                             151    0.5910 73.5 304 
 BRR  HZ I         558 41.46         4.5 0.34            151           73.5 304 
 PAM  SZ EP        558 21.04                             148   -0.7610 84.5  37 
 RUS  HZ EP        558 23.23                             145    0.8410 93.2 175 
 RUS  HN ES        558 39.88                             145   -0.3410 93.2 175 
 RUS  HZ I         558 43.20         1.0 0.22            147           93.2 175 
 PTB  HZ EP        558 25.52                             132   -0.38 9  145 262 
 PTB  HN ES        558 46.05                             132   -0.42 9  145 262 
 PTB  HN I         558 52.13         4.6 0.26            132            145 262 
 SPBC HZ EP        558 27.47                             129    0.40 9  156 220 
 SPBC HN ES        558 48.33                             129   -0.22 9  156 220 
 SPBC HZ I         558 55.72         3.6 0.20            130            156 220 
                                                                                
