 2010 12 7 0356 32.7 L   6.815 -73.063148.2  RSN 12 0.5 2.2LRSN                1
 GAP=143        0.87       5.1     9.6  8.6 -0.1447E+02  0.2266E+02  0.1044E+02E
 Epicentro: LOS SANTOS - SANTANDER                                             3
 ACTION:UP  11-01-14 15:23 OP:pat  STATUS:               ID:20101207035632 L   I
 2010-12-07-0355-25S.COL___135                                                 6
 STAT SP IPHASW D HRMM SECON CODA AMPLIT PERI AZIMU VELO SNR AR TRES W  DIS CAZ7
 BTL  SZ EP   1    356 52.89                             170     0.2 7   25 297 
 BAR2 SZ EP        356 52.75                             169     0.010   28 208 
 BAR2 SZ ES   2    357  7.43                             169    -0.9 5   28 208 
 BAR2 SZ I         357  9.54        64.0 0.23                            28 208 
 GIR2 SZ EP   1    356 52.81                             167     0.1 7   33 334 
 GIR2 SZ ES   2    357  8.80                             167     0.5 5   33 334 
 GRA  SZ IP        356 57.52                             139    -0.310  122  14 
 GRA  SZ I         357 21.93        18.4 0.35                           122  14 
 OCA  SZ EP   1    357  1.00                             130    -0.2 7  160 350 
 OCA  SZ ES   2    357 24.05                             130     0.7 5  160 350 
 OCA  SZ I         357 29.30        33.9 0.32                           160 350 
 YOP  SZ EP   1    357  3.25                             127     0.6 7  177 156 
 YOP  SZ I         357 28.32         6.8 0.61                           177 156 
 NOR  SZ EP        357  9.01                             118    -0.5 8  243 236 
 CHI  HZ EP   1    357 10.74                             117    -0.2 6  253 197 
 CHI  HN ES   2    357 41.11                             117     0.3 4  253 197 
 CHI  HZ I         357 48.24         7.0 0.49                           253 197 
 HEL  HZ EP   1    357 14.53                             114     0.5 6  281 256 
 HEL  HZ I         357 51.08        12.4 0.34                           281 256 
 RREF HZ EP   1    357 20.70                             111     0.8 5  330 230 
 TOL  SZ EP   2    357 22.07                             109     0.1 3  351 226 
 PRA  HZ EP   1    357 26.33                             107    -0.7 4  398 211 
                                                                                
