 2010  6 7 0321 37.9 L   6.825 -73.050138.6  RSN  4 0.3 1.6LRSN                1
 GAP=221        0.57       4.3    11.0  7.5 -0.2053E+02  0.4713E+02 -0.9685E+01E
 Epicentro: LOS SANTOS - SANTANDER                                             3
 ACTION:UP  10-08-24 10:08 OP:vdl  STATUS:               ID:20100607032137 L   I
 2010-06-07-0318-56S.COL___111                                                 6
 STAT SP IPHASW D HRMM SECON CODA AMPLIT PERI AZIMU VELO SNR AR TRES W  DIS CAZ7
 BAR2 SZ EP        321 56.84                             167     0.010   30 210 
 BAR2 SZ ES   1    322 11.48                             167    -0.1 7   30 210 
 OCA  SZ EP   1    322  5.69                             128     0.1 7  159 349 
 OCA  SZ ES   1    322 27.13                             128     0.0 7  159 349 
 OCA  SZ I         322 33.01         4.9 0.30                           159 349 
 HEL  HZ EP   1    322 18.43                             112    -0.5 6  283 256 
 HEL  HZ I         322 57.20         1.8 0.41                           283 256 
 RREF BZ EP   2    322 25.13                             109     0.3 3  332 230 
 RREF BN ES   2    323  2.32                             109     0.8 3  332 230 
 RREF BZ I         323  8.40         2.6 0.29                           332 230 
                                                                                
