 2012  4 7 0535 27.7 L   6.785 -73.159142.0  RSN  8 0.3 1.8LRSN                1
 GAP=136        0.83       4.3     5.0  7.3  0.1112E+01  0.1484E+02  0.1939E+01E
 Epicentro: LOS SANTOS - SANTANDER                                             3
 ACTION:UPD 12-07-05 11:51 OP:tino STATUS:               ID:20120407053527 L   I
 2012-04-07-0530-00M.COL___196                                                 6
 STAT SP IPHASW D HRMM SECON CODA AMPLIT PERI AZIMU VELO AIN AR TRES W  DIS CAZ7
 BAR2 SZ EP   1    535 46.83                             171     0.0 7   21 187 
 BAR2 SZ ES   1    536  1.56                             171    -0.2 7   21 187 
 BAR2 SZ I         536  3.60        19.3 0.27                            21 187 
 BRR  HZ EP        535 48.71                             152     0.310   71 300 
 BRR  HZ I         536 11.49        17.6 0.13                            71 300 
 PAM  SZ EP   1    535 49.61                             149     0.0 7   80  40 
 PAM  SZ I         535 49.88        15.7 0.19                            80  40 
 PAM  SN ES   1    536  6.70                             149     0.0 7   80  40 
 RUS  HZ EP   1    535 50.78                             143    -0.2 7   99 175 
 RUS  HN ES   1    536  9.41                             143     0.3 7   99 175 
 RUS  HZ I         536 10.33         7.5 0.40                            99 175 
 PTB  HZ EP   1    535 53.78                             131    -0.4 7  146 259 
 PTB  HN ES   1    536 14.45                             131    -0.4 7  146 259 
 PTB  HZ I         536 20.79         6.0 0.33                           146 259 
 ZAR  HZ EP   1    535 59.26                             122    -0.5 6  203 293 
 ZAR  HE ES   1    536 25.22                             122     0.4 6  203 293 
 ZAR  HZ I         536 27.06         7.9 0.10                           203 293 
 CHI  HZ EP   1    536  4.59                             116    -0.4 6  247 195 
 CHI  HN ES   1    536 34.18                             116     0.2 6  247 195 
 CHI  HZ I         536 40.21         3.8 0.30                           247 195 
 HEL  HZ EP   1    536  8.34                             114     0.8 6  270 256 
 HEL  HZ I         536 45.82         2.6 0.35                           270 256 
                                                                                
