 2010 11 7 0612 49.7 L   6.778 -73.131155.4  RSN 28 0.4 4.4LRSN                1
 GAP=104        0.85       2.5     3.6  4.6 -0.2028E+01  0.3156E+01  0.2434E+01E
 Epicentro: LOS SANTOS - SANTANDER                                             3
 ACTION:UP  10-12-17 16:50 OP:REBC STATUS:               ID:20101107061249 L   I
 2010-11-07-0610-57S.COL___128                                                 6
 STAT SP IPHASW D HRMM SECON CODA AMPLIT PERI AZIMU VELO SNR AR TRES W  DIS CAZ7
 BAR2 SZ IP        613 10.42                             172    -0.110   21 196 
 BAR2 SZ ES   1    613 26.01                             172    -0.6 7   21 196 
 BAR2 SZ I         613 28.50      8651.1 0.46                            21 196 
 GIR2 SZ IP        613 10.47                             167    -0.110   34 348 
 BRR  HZ IP     C  613 12.27                             153     0.210   74 300 
 BRR  HZ I         613 12.65      4454.6 0.13                            74 300 
 BRR  HN ES   1    613 29.93                             153     0.5 7   74 300 
 RUS  HZ IP     D  613 14.26                             146     0.010   98 177 
 RUS  HN ES   1    613 32.95                             146    -0.4 7   98 177 
 RUS  HZ I         613 34.42      4760.2 0.34                            98 177 
 GUE  SZ EP        613 16.32                             141     0.810  119  11 
 GRA  SZ IP        613 16.20                             138     0.210  128  16 
 GRA  SZ ES   1    613 36.27                             138    -0.2 7  128  16 
 GRA  SZ I         613 37.31      4279.0 0.48                           128  16 
 OCA  SZ IP        613 18.72                             131    -0.3 9  163 353 
 OCA  SZ ES   1    613 41.59                             131    -0.3 7  163 353 
 OCA  SZ I         613 45.77      2751.7 0.37                           163 353 
 YOP  SZ IP        613 20.89                             129     0.7 9  176 153 
 YOP  SN ES   1    613 43.96                             129     0.0 7  176 153 
 NOR  SZ IP        613 25.93                             120    -0.1 8  235 235 
 NOR  SN ES   1    613 54.77                             120     0.4 6  235 235 
 ROSC BE ES   2    613 58.18                             119    -0.1 4  252 212 
 ROSC BZ I         614  5.91      2277.8 0.58                           252 212 
 HEL  HZ EP        613 30.08                             116    -0.5 8  273 256 
 HEL  HN ES   1    614  2.52                             116     0.1 6  273 256 
 HEL  HZ I         614  8.08      1278.9 0.66                           273 256 
 VIL  SZ IP        613 33.30                             114     0.1 7  300 190 
 VIL  SN ES   1    614  7.72                             114     0.7 5  300 190 
 VIL  SZ I         614 10.97       806.2 0.44                           300 190 
 GUY  SZ EP   3    613 34.30                             114     0.5 2  301 235 
 GUY  SZ I         614 16.69      3637.5 0.47                           301 235 
 RREF HZ EP        613 35.90                             113    -0.4 7  321 230 
 RREF HN ES   1    614 12.17                             113    -0.4 5  321 230 
 RREF HZ I         614 17.63      1444.9 0.62                           321 230 
 DBB  SZ IP        613 37.99                             111     0.2 7  341 275 
 TOL  SZ EP        613 38.51                             111     0.2 7  343 225 
 SDV  BZ IP        613 39.69                             110    -0.5 6  361  50 
 SDV  BZ I         614 19.46       664.5 0.58                           361  50 
 PRA  HZ EP        613 43.02                             108    -0.4 6  391 210 
 PRA  HN ES   1    614 25.78                             108     0.4 4  391 210 
 SJA  SZ IP        613 43.85                             108    -0.5 6  398 193 
 SJA  SZ I         614 33.68      1565.1 0.28                           398 193 
 GUA  SZ EP        613 52.22                             105    -0.6 5  471 173 
 SOL  SZ EP        613 53.47                             104     0.0 5  477 263 
 BET  SZ EP        613 57.90                             103    -0.8 4  520 210 
 HORQ SZ EP   2    614  0.29                             103    -0.1 2  532 227 
 HORQ SE ES   1    614 55.97                             103     0.5 3  532 227 
 MARA HZ EP        614  0.59                             102    -0.3 4  536 216 
 MARA HZ I         615 20.22       131.8 0.61                           536 216 
 PCON HZ EP        614 10.65                             101     0.5 3  611 217 
 POP2 HZ EP        614  9.61                             100    -0.2 3  612 220 
 POP2 HZ I         614 13.69        96.0 0.29                           612 220 
 FLO2 HZ IP     D  614 12.26                             100    -0.6 2  639 206 
 FLO2 HZ I         614 14.86        90.5 0.32                           639 206 
 SOTA HZ EP        614 14.28                             100     0.5 2  642 217 
 SOTA HZ I         614 20.77       128.4 0.65                           642 217 
 SOTA HN ES   2    615 19.76                             100     0.3 1  642 217 
                                                                                
