 2014  2 7 0224 29.9 L   6.834 -73.106146.5  RSN 16 0.5 2.3LRSN                1
 GAP= 72        0.95       3.9     3.7  5.6  0.3308E+00  0.2276E+01  0.2580E+01E
 Epicentro: LOS SANTOS - SANTANDER                                             3
 ACTION:UPD 14-03-10 08:08 OP:ep   STATUS:               ID:20140207022429 L   I
 OLDACT:UP  14-02-07 11:24 OP:mh   STATUS:               ID:20140207022000     3
 OLDACT:REG 14-02-07 08:32 OP:mh   STATUS:               ID:20140207022000     3
 2014-02-07-0220-00M.COL___291                                                 6
 STAT SP IPHASW D HRMM SECON CODA AMPLIT PERI AZIMU VELO AIN AR TRES W  DIS CAZ7
 BAR2 SZ EP   1    224 49.50                             169   -0.19 7 28.1 198 
 BAR2 SZ ES        225  4.44                             169   -0.7010 28.1 198 
 BAR2 SZ I         225  5.71        84.5 0.27            172           28.1 198 
 PAM  SZ EP     C  224 52.30                             152    0.4710 71.7  39 
 PAM  SZ I         225 11.40        34.8 0.35            127           71.7  39 
 BRR  HZ IP     C  224 51.38                             152    0.1610 73.5 294 
 BRR  HN ES        225  8.21                             152    0.3310 73.5 294 
 BRR  HZ I         225 11.53        30.4 0.29            129           73.5 294 
 RUS  HZ EP     C  224 53.45                             143   -0.5010  104 179 
 RUS  HZ I         225 13.03        13.5 0.14            127            104 179 
 TAM  HZ IP     D  224 57.77                             131    0.47 9  152 107 
 TAM  HN ES   1    225 19.10                             131    0.40 7  152 107 
 PTB  HZ EP   1    224 56.53                             131   -0.83 7  153 258 
 PTB  HZ I         225 21.30        31.6 0.09            112            153 258 
 OCA  HZ EP   1    224 57.57                             130   -0.37 7  157 351 
 OCA  HZ I         225 26.47        20.2 0.25            108            157 351 
 SPBC HZ EP   1    224 58.52                             128   -0.44 7  169 219 
 SPBC HN ES   1    225 21.89                             128    0.23 7  169 219 
 SPBC HZ I         225 27.56        21.2 0.14            111            169 219 
 ZAR  HZ EP   1    225  3.19                             122    0.55 6  207 291 
 ZAR  HN ES   1    225 28.31                             122    0.11 6  207 291 
 ZAR  HZ I         225 34.12        34.5 0.16            104            207 291 
 NOR  HZ EP     C  225  6.01                             118   -0.25 8  240 234 
 NOR  HZ I         225 35.61        15.9 0.15            103            240 234 
 SML  HZ EP   1    225  5.78                             118   -0.59 6  242 334 
 SML  HZ I         225 37.33        21.9 0.07            101            242 334 
 CHI  HZ EP   1    225  7.79                             117   -0.34 6  253 196 
 CHI  HN ES        225 38.46                             117    0.49 8  253 196 
 CHI  HZ I         225 44.09         7.0 0.60            103            253 196 
 HEL  HZ EP   1    225 11.35                             114    0.66 6  277 255 
 HEL  HN ES   1    225 43.33                             114    0.79 6  277 255 
 HEL  HZ I         225 50.66         8.4 0.22            101            277 255 
 URE  HZ EP   4    225 13.79                             113    2.51 0  287 291 
 URE  HE ES   4    225 40.28                             113   -3.29 0  287 291 
 GUY2CHZ EP   1    225 13.92                             112   -0.24 5  307 235 
 GUY2CHZ I         225 56.19        14.6 0.36                           307 235 
 CBOC HZ EP   1    225 17.29                             110   -0.14 5  339 252 
 CBOC HN ES   4    225 56.34                             110    1.82 0  339 252 
 CBOC HZ I         226  6.57         4.7 0.57             98            339 252 
 PRA  HZ EP   1    225 23.95                             106   -0.10 4  397 210 
 PRA  HZ I         226  8.92         7.1 0.21             97            397 210 
 SJC  HZ EP   4    225 23.62                             106   -1.75 0  409 326 
 SJC  HN ES   4    226  4.46                             106   -4.20 0  409 326 
                                                                                
