 2013  4 7 0811 42.9 L   6.779 -73.159153.1  RSN  4 0.3 1.6LRSN                1
 GAP=199        0.75       4.3     6.6  7.9  0.1262E+02 -0.1111E+02 -0.1390E+02E
 Epicentro: LOS SANTOS - SANTANDER                                             3
 ACTION:UPD 13-05-22 14:36 OP:EP   STATUS:               ID:20130407081142 L   I
 2013-04-07-0808-50M.COL___215                                                 6
 STAT SP IPHASW D HRMM SECON CODA AMPLIT PERI AZIMU VELO AIN AR TRES W  DIS CAZ7
 BRR  HZ EP        812  5.36                             154    0.5610 71.1 301 
 BRR  HN ES        812 21.99                             154    0.0710 71.1 301 
 BRR  HN I         812 22.64        10.4 0.30            155           71.1 301 
 RUS  HZ EP   1    812  6.68                             146   -0.51 7 98.3 175 
 RUS  HN ES        812 26.13                             146   -0.0310 98.3 175 
 RUS  HZ I         812 27.64         2.0 0.24            147           98.3 175 
 PTB  HZ EP   1    812 10.50                             134    0.23 7  146 260 
 PTB  HN ES        812 31.43                             134   -0.22 9  146 260 
 SML  HZ EP   1    812 20.02                             119   -0.05 6  245 336 
 SML  HN ES        812 48.76                             119   -0.34 8  245 336 
 SML  HN I         812 51.15         5.8 0.28            119            245 336 
                                                                                
