 2015  9 7 0611  5.5 L   6.834 -73.142142.0  RSN 14 0.6 2.3LRSN                1
 GAP=184        1.31       3.9     5.7  6.9 -0.6459E+00  0.7455E+01  0.1511E+00E
 Epicentro: LOS SANTOS - SANTANDER                                             3
 ACTION:UPD 15-10-28 16:24 OP:cam  STATUS:               ID:20150907061105 L   I
 OLDACT:UP  15-09-07 16:56 OP:mh   STATUS:               ID:20150907060748     3
 OLDACT:UP  15-09-07 16:53 OP:mh   STATUS:               ID:20150907060748     3
 OLDACT:REG 15-09-07 12:36 OP:mh   STATUS:               ID:20150907060748     3
 2015-09-07-0607-48M.COL___343                                                 6
 STAT SP IPHASW D HRMM SECON CODA AMPLIT PERI AZIMU VELO AIN AR TRES W  DIS CAZ7
 BAR2 EZ EP        611 25.03                             169    0.2510 27.1 189 
 BAR2 EZ ES        611 40.11                             169    0.3110 27.1 189 
 BAR2 EZ I         611 41.40        27.1 0.54            167           27.1 189 
 BRR  HZ EP        611 26.63                             152    0.4510 69.9 296 
 BRR  HN ES        611 43.52                             152    1.2210 69.9 296 
 BRR  HZ I         611 47.55        29.3 0.54            149           69.9 296 
 RUS  HZ EP        611 28.91                             142   -0.2710  104 176 
 RUS  HN ES        611 46.98                             142   -0.6510  104 176 
 RUS  HZ I         611 49.51        26.9 0.24            144            104 176 
 PTB  HZ EP        611 31.59                             131   -0.70 9  149 257 
 PTB  HN ES        611 52.45                             131   -0.72 9  149 257 
 PTB  HZ I         611 55.15        35.1 0.42            130            149 257 
 OCA  HZ EP        611 33.24                             129    0.05 9  157 353 
 OCA  HN ES        611 54.34                             129   -0.43 9  157 353 
 OCA  HZ I         612  0.19        38.5 0.40            131            157 353 
 SPBC HZ EP        611 33.98                             128   -0.06 9  166 218 
 SPBC HN ES        611 56.06                             128   -0.22 9  166 218 
 SPBC HZ I         612  2.40        28.5 0.34            128            166 218 
 ZAR  HZ EP        611 37.32                             122   -0.30 9  203 291 
 ZAR  HN ES        612  2.92                             122    0.27 9  203 291 
 ZAR  HZ I         612  9.94        22.0 0.32            122            203 291 
 NOR  HZ EP   1    611 40.71                             117   -0.60 6  237 234 
 NOR  HN ES        612  9.38                             117    0.16 8  237 234 
 NOR  HZ I         612 14.51        15.3 0.26            118            237 234 
 SML  HZ EP   1    611 41.00                             117   -0.58 6  240 335 
 SML  HN ES   1    612  8.85                             117   -0.86 6  240 335 
 SML  HZ I         612 13.10        19.6 0.09            118            240 335 
 ROSC BZ EP        611 44.70                             115    0.89 8  256 211 
 ROSC BN ES   4    612 15.33                             115    1.65 0  256 211 
 ROSC BZ I         612 19.69        16.3 0.45            117            256 211 
 HEL  HZ EP   1    611 46.72                             114    1.03 6  273 255 
 HEL  HN ES        612 16.71                             114   -0.32 8  273 255 
 HEL  HZ I         612 23.64        13.6 0.38            115            273 255 
 URE  HZ EP   4    611 47.45                             113    1.15 0  283 291 
 URE  HN ES   4    612 15.74                             113   -2.36 0  283 291 
 GUY2CHZ EP   4    611 50.55                             111    1.31 0  304 234 
 GUY2CHN ES   4    612 26.81                             111    3.47 0  304 234 
 GUY2CHZ I         612 33.14        12.6 0.42                           304 234 
 TOL  SZ EP        611 54.89                             108    0.92 6  346 224 
 TOL  SN ES   4    612 33.22                             108    1.46 0  346 224 
 TOL  SZ I         612 38.04         7.6 0.48            110            346 224 
 ORTC HZ EP        611 59.88                             106    0.18 6  399 216 
                                                                                
