 2017  6 7 0910 36.2 L   6.720 -73.130146.0  RSN  4 0.2 1.5LRSN                1
 GAP=233        0.44       2.8     3.7  5.2  0.5483E+01 -0.4960E+00 -0.1789E+01E
 Epicentro: JORDAN - SANTANDER                                                 3
 ACTION:UPD 17-09-14 16:50 OP:jn   STATUS:               ID:20170607091036 L   I
 OLDACT:REG 17-06-07 12:27 OP:edw  STATUS:               ID:20170607090736     3
 2017-06-07-0908-00M.COL___356                                                 6
 STAT SP IPHASW D HRMM SECON CODA AMPLIT PERI AZIMU VELO AIN AR TRES W  DIS CAZ7
 BRR  HZ EP        910 57.80                             151    0.1110 77.3 304 
 BRR  HN ES        911 14.49                             151    0.0110 77.3 304 
 BRR  HZ I         911 18.78         6.8 0.12            149           77.3 304 
 RUS  HZ EP        910 59.09                             147   -0.2310 91.7 177 
 RUS  HN ES        911 17.51                             147    0.1310 91.7 177 
 RUS  HZ I         911 19.06         4.8 0.20            151           91.7 177 
 SPBC HN ES        911 26.00                             130    0.01 9  158 221 
 ZAR  HZ EP   3    911 10.14                             122    0.99 2  209 294 
 ZAR  HN ES        911 34.79                             122   -0.09 8  209 294 
 ZAR  HZ I         911 42.39         3.2 0.29            123            209 294 
                                                                                
