 2013  1 7 0935 25.8 L   6.765 -73.177146.0  RSN  5 0.4 2.0LRSN                1
 GAP=231        1.08       6.1     7.9  9.5  0.1832E+02 -0.3030E+01  0.1269E+02E
 Epicentro: LOS SANTOS - SANTANDER                                             3
 ACTION:UPD 13-02-15 09:12 OP:ep   STATUS:               ID:20130107093525 L   I
 2013-01-07-0929-50M.COL___199                                                 6
 STAT SP IPHASW D HRMM SECON CODA AMPLIT PERI AZIMU VELO AIN AR TRES W  DIS CAZ7
 BAR2 SZ EP        935 44.60                             172   -0.7510 19.1 182 
 BRR  HZ EP        935 46.85                             153   -0.0410 70.2 303 
 BRR  HN ES        936  3.97                             153    0.6110 70.2 303 
 BRR  HN I         936  7.87        26.8 0.18            154           70.2 303 
 RUS  HZ EP        935 49.66                             145    0.3810 97.0 174 
 RUS  HN ES        936  7.46                             145   -0.1710 97.0 174 
 RUS  HN I         936  9.16        11.1 0.28            146           97.0 174 
 PTB  HZ EP        935 52.18                             133   -0.21 9  144 260 
 PTB  HN ES        936 12.82                             133   -0.33 9  144 260 
 PTB  HN I         936 15.24        23.2 0.28            134            144 260 
 CHI  HZ EP        936  3.58                             118    0.61 8  244 195 
 CHI  HN ES        936 32.07                             118    0.08 8  244 195 
 CHI  HN I         936 36.05         3.8 0.34            120            244 195 
                                                                                
