 2010  3 7 0038 27.5 L   6.832 -73.007145.6  RSN  7 0.5 1.9LRSN                1
 GAP=197        0.87       4.5     8.7  7.1  0.9934E+01  0.5412E+01  0.8337E+01E
 Epicentro: CEPITA - SANTANDER                                                 3
 ACTION:UP  10-08-24 09:52 OP:vdl  STATUS:               ID:20100307003827 L   I
 2010-03-07-0035-15S.COL___101                                                 6
 STAT SP IPHASW D HRMM SECON CODA AMPLIT PERI AZIMU VELO SNR AR TRES W  DIS CAZ7
 BAR2 SZ ES   3    039  2.37                             167    -0.5 2   33 216 
 BRR  HZ EP        038 49.12                             149    -0.310   84 291 
 BRR  HN ES        039  6.28                             149    -0.210   84 291 
 BRR  HZ I         039  9.16        21.7 0.63                            84 291 
 RUS  BZ EP        038 51.93                             143     0.410  104 185 
 RUS  BN ES        039 10.34                             143     0.110  104 185 
 RUS  BZ I         039 11.18         6.1 0.92                           104 185 
 OCA  SZ EP   2    038 56.33                             130     0.6 5  159 348 
 OCA  SZ ES   2    039 17.93                             130     0.2 5  159 348 
 CHI  HZ EP   1    039  5.62                             116    -0.4 6  256 198 
 CHI  HN ES   2    039 35.25                             116    -0.9 4  256 198 
 CHI  HZ I         039 39.23         5.8 0.68                           256 198 
 RREF BZ EP        039 15.49                             110     0.2 7  336 231 
 RREF BN ES   1    039 53.47                             110     1.0 5  336 231 
 RREF BZ I         039 58.91         4.2 0.19                           336 231 
 PRA  HZ EP        039 21.55                             106    -0.7 6  403 211 
 PRA  HN ES   2    040  4.86                             106    -0.2 3  403 211 
                                                                                
