 2017  2 7 0955  9.0 L   6.598 -73.236147.2  RSN  4 0.4 1.0LRSN                1
 GAP=139        0.78       7.7     5.8  7.0  0.1177E+02  0.8537E+01  0.8122E+01E
 Epicentro: CABRERA - SANTANDER                                                3
 ACTION:UPD 17-05-24 15:33 OP:jn   STATUS:               ID:20170207095509 L   I
 OLDACT:UP  17-02-07 18:45 OP:edw  STATUS:               ID:20170207094743d    3
 OLDACT:DUP 17-02-07 18:43 OP:edw  STATUS:               ID:20170207094743d    3
 2017-02-07-0948-00M.COL___319                                                 6
 STAT SP IPHASW D HRMM SECON CODA AMPLIT PERI AZIMU VELO AIN AR TRES W  DIS CAZ7
 BAR2 EZ EP        955 28.50                             178   -0.1010 6.02  96 
 BAR2 EZ ES        955 43.43                             178   -0.4510 6.02  96 
 BAR2 EZ I         955 44.82         2.8 0.38            175           6.02  96 
 BRR  HZ EP        955 30.71                             151    0.0510 77.0 317 
 BRR  HN ES        955 47.90                             151    0.3610 77.0 317 
 RUS  HZ EP   2    955 32.38                             150    0.85 5 79.8 168 
 RUS  HN ES   2    955 49.70                             150    0.60 5 79.8 168 
 RUS  HZ I         955 50.83         1.9 0.58            148           79.8 168 
 PTB  HZ EP        955 34.79                             135   -0.1910  135 267 
 PTB  HN ES        955 55.17                             135   -0.0610  135 267 
 PTB  HZ I         955 58.65         0.9 0.50            134            135 267 
                                                                                
