 2014  3 7 0847 20.6 L   6.824 -73.092148.1  RSN 13 0.4 2.0LRSN                1
 GAP=123        1.03       2.7     4.4  5.8 -0.6453E+00  0.8931E+01  0.2735E+00E
 Epicentro: LOS SANTOS - SANTANDER                                             3
 ACTION:UPD 14-04-09 23:15 OP:nd   STATUS:               ID:20140307084720 L   I
 OLDACT:REG 14-03-07 09:28 OP:nd   STATUS:               ID:20140307084048     3
 2014-03-07-0840-48M.COL___209                                                 6
 STAT SP IPHASW D HRMM SECON CODA AMPLIT PERI AZIMU VELO AIN AR TRES W  DIS CAZ7
 BAR2 SZ EP        847 40.89                             169    0.3310 27.5 201 
 BAR2 SZ ES        847 56.11                             169   -0.0510 27.5 201 
 BAR2 SZ I         847 57.56        41.7 0.42            168           27.5 201 
 PAM  SZ EP        847 43.56                             153    0.8710 71.6  37 
 PAM  SN ES        848  0.13                             153    0.1710 71.6  37 
 PAM  SZ I         848  2.93         5.7 0.32            151           71.6  37 
 RUS  HZ EP        847 44.96                             144    0.2510  103 179 
 RUS  HN ES        848  3.25                             144   -0.3010  103 179 
 RUS  HZ I         848  4.21        10.3 0.28            142            103 179 
 PTB  HZ EP        847 47.85                             131   -0.44 9  154 258 
 PTB  HN ES   4    848  8.91                             131   -1.01 0  154 258 
 PTB  HZ I         848 15.28         7.1 0.14            129            154 258 
 OCA  HZ EP        847 48.29                             130   -0.59 9  158 351 
 OCA  HN ES        848 10.76                             130   -0.21 9  158 351 
 OCA  HZ I         848 17.93        17.3 0.22            128            158 351 
 SPBC HZ EP        847 49.52                             128   -0.27 9  169 220 
 SPBC HN ES        848 12.47                             128   -0.12 9  169 220 
 SPBC HZ I         848 13.29        17.8 0.20            126            169 220 
 ZAR  HZ EP        847 54.54                             122    0.92 8  209 291 
 ZAR  HN ES        848 19.06                             122   -0.35 8  209 291 
 ZAR  HZ I         848 24.88        10.6 0.40            120            209 291 
 NOR  HZ EP        847 57.31                             118    0.21 8  241 235 
 NOR  HN ES   2    848 25.49                             118   -0.12 4  241 235 
 NOR  HZ I         848 29.56         9.7 0.18            116            241 235 
 SML  HZ EP        847 57.13                             118   -0.20 8  244 334 
 SML  HN ES        848 25.57                             118   -0.44 8  244 334 
 SML  HZ I         848 32.52        17.0 0.10            116            244 334 
 CHI  HZ EP        847 59.02                             117    0.18 8  253 196 
 CHI  HN ES        848 28.37                             117   -0.33 8  253 196 
 CHI  HZ I         848 34.10         3.5 0.24            115            253 196 
 HEL  HZ EP   2    848  1.69                             115    0.09 4  278 256 
 HEL  HN ES        848 34.33                             115    0.72 7  278 256 
 HEL  HZ I         848 41.61         4.2 0.36            113            278 256 
 PTGC HZ EP        848  3.86                             112   -0.70 7  309 160 
 PTGC HZ I         848 24.09         4.3 0.42            110            309 160 
 PTGC HN ES   4    848 35.55                             112   -3.34 0  309 160 
 SJC  HZ EP   4    848 14.80                             106   -1.52 0  410 326 
 SJC  HN ES   4    848 55.96                             106   -3.85 0  410 326 
 SJC  HZ I         849  0.78         3.1 0.26            104            410 326 
                                                                                
