 2013  7 7 0031  6.0 L   6.822 -73.141143.8  RSN 13 0.5 2.1LRSN                1
 GAP=136        1.33       3.4     4.8  7.1 -0.3807E+01  0.9051E+01  0.1605E+01E
 Epicentro: LOS SANTOS - SANTANDER                                             3
 ACTION:UPD 13-08-12 10:36 OP:ep   STATUS:               ID:20130707003106 L   I
 OLDACT:REG 13-07-07 07:41 OP:stll STATUS:               ID:20130707002847     3
 2013-07-07-0028-47M.COL___224                                                 6
 STAT SP IPHASW D HRMM SECON CODA AMPLIT PERI AZIMU VELO AIN AR TRES W  DIS CAZ7
 BAR2 SZ EP        031 25.72                             169    0.2810 25.8 190 
 BAR2 SZ ES        031 40.04                             169   -0.5710 25.8 190 
 BAR2 SZ I         031 41.78        15.3 0.20            169           25.8 190 
 GIR2 SZ EP        031 25.72                             168    0.3510 29.0 348 
 BRR  HZ IP     C  031 27.38                             152    0.4910 70.5 297 
 BRR  HN ES        031 44.00                             152    0.8110 70.5 297 
 BRR  HN I         031 45.20        48.2 0.22            149           70.5 297 
 PAM  SZ EP        031 28.61                             151    0.7510 75.1  40 
 PAM  SN ES        031 45.33                             151    0.4110 75.1  40 
 PAM  SN I         031 46.88         9.7 0.32            153           75.1  40 
 RUS  HZ EP        031 29.85                             143    0.1310  103 176 
 RUS  HE ES        031 48.22                             143   -0.0210  103 176 
 RUS  HE I         031 50.23        16.5 0.24            144            103 176 
 CAPV BZ ES        031 52.65                             132   -1.45 9  147  38 
 PTB  HZ EP        031 32.24                             131   -0.65 9  149 258 
 PTB  HN ES        031 53.54                             131   -0.33 9  149 258 
 PTB  HN I         031 55.21        13.5 0.26            130            149 258 
 OCA  HZ EP        031 34.05                             130    0.13 9  158 353 
 OCA  HN ES        031 55.98                             130    0.27 9  158 353 
 OCA  HN I         032  0.14        23.3 0.26            129            158 353 
 ZAR  HE ES        032  3.32                             122   -0.12 9  204 291 
 ZAR  HE I         032 10.93        19.5 0.20            121            204 291 
 NOR  HZ EP        031 41.75                             118   -0.05 8  237 234 
 NOR  HE ES        032  9.13                             118   -0.61 8  237 234 
 NOR  HE I         032 16.89         8.6 0.16            118            237 234 
 SML  HZ EP        031 42.02                             117   -0.26 8  242 335 
 SML  HN ES        032 10.00                             117   -0.60 8  242 335 
 SML  HN I         032 17.99        17.3 0.10            117            242 335 
 CHI  HZ EP        031 43.67                             116   -0.18 8  251 195 
 CHI  HN ES        032 13.06                             116   -0.33 8  251 195 
 CHI  HN I         032 15.53         9.4 0.52            117            251 195 
 RREF HZ EP        031 53.01                             110    0.74 7  324 229 
 RREF HN ES        032 28.73                             110    0.35 7  324 229 
 RREF HZ I         032 37.76         3.5 0.40            110            324 229 
                                                                                
