 2016  2 7 0150 27.8 L   6.820 -73.180139.8  RSN 23 0.4 2.6LRSN                1
 GAP=131        0.70       1.8     3.1  5.0 -0.7108E+00  0.4922E+01 -0.5758E+00E
 Epicentro: ZAPATOCA - SANTANDER                                               3
 ACTION:UPD 16-03-04 21:23 OP:rebc STATUS:               ID:20160207015027 L   I
 OLDACT:REG 16-02-07 12:27 OP:dnl  STATUS:               ID:20160207014748     3
 2016-02-07-0147-48M.COL___331                                                 6
 STAT SP IPHASW D HRMM SECON CODA AMPLIT PERI AZIMU VELO AIN AR TRES W  DIS CAZ7
 BAR2 EZ IP     D  150 47.03                             169    0.2710 25.2 181 
 BAR2 EZ ES   2    151  0.67                             169   -0.87 5 25.2 181 
 BAR2 EZ I         151  3.57        77.4 0.22            168           25.2 181 
 PAM  EZ EP     D  150 49.88                             149    0.4410 78.2  43 
 PAM  EN ES   2    151  6.99                             149    0.67 5 78.2  43 
 PAM  EZ I         151  9.83        63.1 0.47            148           78.2  43 
 RUS  HZ EP        150 50.87                             142   -0.3010  103 174 
 RUS  HN ES        151  9.14                             142   -0.2410  103 174 
 RUS  HZ I         151 10.90        35.7 0.30            141            103 174 
 PTB  HZ EP        150 53.83                             131   -0.17 9  145 258 
 PTB  HN ES   2    151 14.91                             131    0.49 5  145 258 
 PTB  HZ I         151 16.51        29.2 0.21            124            145 258 
 OCA  HZ EP        150 55.27                             129   -0.14 9  158 354 
 OCA  HN ES        151 17.15                             129    0.20 9  158 354 
 OCA  HZ I         151 21.87        93.1 0.20            123            158 354 
 SPBC HZ EP        150 55.92                             128    0.12 9  163 217 
 SPBC HN ES        151 17.95                             128    0.32 9  163 217 
 SPBC HZ I         151 20.98       100.9 0.30            123            163 217 
 ZAR  HZ EP        150 59.79                             122    0.37 9  200 292 
 ZAR  HE ES        151 23.67                             122   -0.41 9  200 292 
 ZAR  HZ I         151 31.93        35.6 0.30            116            200 292 
 NOR  HZ EP   2    151  2.98                             117   -0.03 4  233 233 
 NOR  HE ES   2    151 30.71                             117    0.25 4  233 233 
 NOR  HZ I         151 36.34        30.6 0.22            113            233 233 
 SML  HZ EP        151  3.40                             116   -0.32 8  240 336 
 SML  HN ES   1    151 31.22                             116   -0.50 6  240 336 
 SML  HZ I         151 36.51        46.8 0.26            112            240 336 
 CHI  HZ EP        151  4.95                             116   -0.36 8  250 194 
 CHI  HN ES        151 34.10                             116   -0.46 8  250 194 
 CHI  HZ I         151 37.75        17.7 0.50            113            250 194 
 ROSC BZ EP   2    151  6.62                             115    1.01 4  253 210 
 ROSC BN ES        151 35.39                             115    0.30 8  253 210 
 ROSC BZ I         151 40.95        26.7 0.45            112            253 210 
 HEL  HZ EP   4    151  9.02                             114    1.64 0  269 255 
 HEL  HE ES   2    151 38.13                             114   -0.11 4  269 255 
 HEL  HZ I         151 45.12        11.6 0.32            109            269 255 
 URE  HZ EP   2    151  7.60                             113   -0.51 4  280 292 
 URE  HZ I         151 48.79        24.9 0.22            108            280 292 
 GUY2CHZ EP   2    151 11.52                             111    0.58 4  299 234 
 GUY2CHE ES   2    151 44.55                             111   -0.04 4  299 234 
 GUY2CHZ I         151 54.88        20.2 0.48                           299 234 
 VIL  SZ EP   2    151 10.62                             111   -0.50 4  305 191 
 VIL  SE ES   2    151 44.20                             111   -0.70 4  305 191 
 VIL  SZ I         151 47.38       695.3 0.46            108            305 191 
 PTGC HZ EP   4    151 10.00                             110   -1.80 0  312 158 
 PTGC HE ES   4    151 42.26                             110   -3.85 0  312 158 
 PTGC HZ I         151 44.68        20.8 0.38            108            312 158 
 CBOC HZ EP   2    151 14.93                             109    0.78 3  331 252 
 CBOC HE ES   2    151 50.03                             109   -0.26 3  331 252 
 CBOC HZ I         151 57.67         3.6 0.27            105            331 252 
 DBB  SZ EP   2    151 14.93                             109    0.34 3  336 274 
 DBB  SZ ES   4    151 48.56                             109   -2.53 0  336 274 
 DBB  SZ I         151 53.61        26.7 0.50            105            336 274 
 MON  HZ EP   4    151 14.16                             108   -1.92 0  349 308 
 MON  HN ES   4    151 52.04                             108   -1.69 0  349 308 
 MON  HZ I         152  7.65        14.2 0.80            104            349 308 
 ANIL HZ EP   4    151 14.88                             107   -2.39 0  356 224 
 ANIL HE ES   2    151 56.47                             107    0.63 3  356 224 
 ANIL HZ I         152  6.90        44.9 0.34            104            356 224 
 ORTC HZ EP   2    151 21.18                             105   -0.30 3  395 216 
 ORTC HE ES   2    152  4.17                             105    0.83 3  395 216 
 ORTC HZ I         152 11.05         7.6 0.33            103            395 216 
 SJC  HZ EP   4    151 21.11                             105   -1.61 0  405 327 
 SJC  HN ES   4    152  0.42                             105   -5.13 0  405 327 
 SJC  HZ I         152  9.34         5.2 0.40            102            405 327 
 CRJC HZ EP   4    151 27.25                             102   -2.66 0  466   4 
 CRJC HE ES   4    152 15.07                             102   -3.29 0  466   4 
 CRJC HZ I         152 24.49        12.6 0.18            100            466   4 
                                                                                
