 2014  6 7 0905 11.3 L   7.091 -73.374101.5  RSN 13 0.6 1.9LRSN                1
 GAP=156        1.39       3.5     5.6 10.7 -0.1744E+01  0.2006E+02  0.4069E+01E
 Epicentro: LEBRIJA - SANTANDER                                                3
 ACTION:UPD 14-07-01 22:51 OP:nd   STATUS:               ID:20140607090511 L   I
 OLDACT:REG 14-06-07 13:31 OP:fm   STATUS:               ID:20140607085816     3
 2014-06-07-0858-16M.COL___253                                                 6
 STAT SP IPHASW D HRMM SECON CODA AMPLIT PERI AZIMU VELO AIN AR TRES W  DIS CAZ7
 BAR2 SZ EP        9 5 27.45                             147    0.0310 59.1 159 
 BAR2 SZ ES   1    9 5 41.01                             147    1.06 7 59.1 159 
 BAR2 SZ I         9 5 41.94        16.9 0.38            137           59.1 159 
 OCA  HZ EP        9 5 32.79                             124   -0.3910  127   3 
 OCA  HN ES        9 5 50.72                             124    0.5210  127   3 
 OCA  HZ I         9 5 52.08        44.0 0.42            115            127   3 
 PTB  HZ EP        9 5 32.23                             122   -1.4910  134 243 
 PTB  HN ES        9 5 50.19                             122   -0.9810  134 243 
 PTB  HZ I         9 5 54.92        12.2 0.32            112            134 243 
 RUS  HZ EP        9 5 34.16                             122   -0.40 9  136 166 
 RUS  HN ES   1    9 5 51.99                             122   -0.67 7  136 166 
 RUS  HZ I         9 5 54.25         4.2 0.22            112            136 166 
 ZAR  HZ EP        9 5 37.55                             115    0.04 9  170 285 
 ZAR  HN ES        9 5 58.46                             115    0.55 9  170 285 
 ZAR  HZ I         9 6  5.79         8.4 0.26            107            170 285 
 SPBC HZ EP        9 5 39.08                             114    0.68 9  177 206 
 SPBC HN ES   1    9 5 59.45                             114   -0.04 7  177 206 
 SPBC HZ I         9 6  4.78        12.8 0.30            106            177 206 
 SML  HZ EP   1    9 5 41.12                             110   -0.24 6  204 338 
 SML  HE ES   1    9 6  4.45                             110   -0.31 6  204 338 
 SML  HZ I         9 6 12.50        13.9 0.10            104            204 338 
 NOR  HN ES        9 6 11.76                             107    0.24 8  236 224 
 NOR  HZ I         9 6 14.74         6.1 0.14            101            236 224 
 HEL  HZ EP        9 5 48.72                             105    0.62 8  258 247 
 HEL  HN ES   4    9 6 14.91                             105   -1.86 0  258 247 
 HEL  HZ I         9 6 21.95         9.9 0.24            100            258 247 
 GUY2CHZ EP        9 5 54.07                             102    0.65 7  302 227 
 GUY2CHN ES        9 6 26.61                             102    0.38 7  302 227 
 GUY2CHZ I         9 6 32.70         3.3 0.28                           302 227 
 TOL  SZ EP   1    9 5 59.58                              99    0.45 5  351 218 
 TOL  SN ES        9 6 36.94                              99    0.54 6  351 218 
 TOL  SZ I         9 6 43.24         4.8 0.40             97            351 218 
 ORTC HZ EP   1    9 6  5.50                              96   -0.21 4  408 211 
 ORTC HZ I         9 7  5.11         1.5 0.24             96            408 211 
 PRA  HZ EP   4    9 6  4.72                              96   -1.10 0  409 204 
 PRA  HN ES        9 6 48.49                              96    0.18 6  409 204 
 PRA  HZ I         9 6 55.25         2.6 0.30             96            409 204 
                                                                                
