 2010  5 7 0842 43.1 L   6.741 -73.010138.8  RSN  5 0.1 1.7LRSN                1
 GAP=217        0.37       3.7     4.5  4.2 -0.6582E+01 -0.5676E+01 -0.2518E+01E
 Epicentro: CEPITA - SANTANDER                                                 3
 ACTION:UP  10-08-24 10:03 OP:vdl  STATUS:               ID:20100507084243 L   I
 2010-05-07-0841-11S.COL___105                                                 6
 STAT SP IPHASW D HRMM SECON CODA AMPLIT PERI AZIMU VELO SNR AR TRES W  DIS CAZ7
 BAR2 SZ EP   1    843  1.99                             169     0.1 7   25 229 
 BAR2 SZ ES   1    843 16.51                             169    -0.1 7   25 229 
 BRR  HZ EP        843  4.53                             146     0.010   88 298 
 BRR  HN ES   1    843 21.22                             146     0.0 7   88 298 
 BRR  HZ I         843 23.82        10.4 0.16                            88 298 
 BRI  SZ EP   1    843  6.64                             139     0.2 7  110  12 
 GUE  SZ EP   2    843  7.09                             137    -0.4 5  121   4 
 GRA  SZ EP        843  7.87                             135    -0.110  129  10 
 GRA  SZ ES   1    843 27.40                             135     0.1 7  129  10 
                                                                                
