 2012  3 7 0550 30.1 L   6.831 -73.512104.0  RSN  5 0.2 1.4LRSN                1
 GAP=162        0.51       3.8     3.6  4.6  0.7139E+01  0.6206E+01  0.5854E+01E
 ACTION:UP  12-03-31 23:17 OP:EP   STATUS:               ID:20120307055030 L   I
 2012-03-07-0550-00M.COL___194                                                 6
 STAT SP IPHASW D HRMM SECON CODA AMPLIT PERI AZIMU VELO SNR AR TRES W  DIS CAZ7
 BRR  HZ EP        550 44.87                             159    -0.110   38 324 
 BRR  HZ I         550 45.00        14.4 0.12                            38 324 
 BRR  HE ES        550 56.58                             159     0.110   38 324 
 BAR2 SZ EP   2    550 45.67                             155     0.0 5   45 126 
 BAR2 SZ ES   1    550 57.54                             155    -0.2 7   45 126 
 BAR2 SZ I         550 59.11         7.9 0.25                            45 126 
 PTB  HZ EP        550 49.88                             130    -0.310  109 253 
 PTB  HN ES   1    551  6.04                             130     0.2 7  109 253 
 RUS  HZ EP   1    550 51.50                             129     0.2 7  114 155 
 RUS  HN ES   1    551  7.93                             129     0.1 7  114 155 
 ZAR  HZ EP   1    550 56.19                             117     0.2 7  166 296 
 ZAR  HZ I         551 20.90         2.2 0.34                           166 296 
                                                                                
