 2013 11 7 0043 11.9 L   6.793 -73.153147.6  RSN 10 0.5 2.0LRSN                1
 GAP=136        1.31       4.3     6.0  8.2 -0.5005E+01  0.1332E+02  0.1686E+01E
 Epicentro: LOS SANTOS - SANTANDER                                             3
 ACTION:UPD 14-01-09 16:26 OP:ep   STATUS:               ID:20131107004311 L   I
 OLDACT:REG 13-11-07 06:16 OP:jn   STATUS:               ID:20131107004000     3
 2013-11-07-0040-00M.COL___273                                                 6
 STAT SP IPHASW D HRMM SECON CODA AMPLIT PERI AZIMU VELO AIN AR TRES W  DIS CAZ7
 BAR2 SZ EP        043 31.70                             171    0.0110 22.4 188 
 BAR2 SZ ES        043 46.91                             171   -0.2510 22.4 188 
 BAR2 SZ I         043 49.48        34.3 0.42            170           22.4 188 
 BRR  HZ EP        043 33.59                             153    0.4110 70.8 299 
 BRR  HN ES        043 51.08                             153    1.2610 70.8 299 
 BRR  HZ I         043 55.31        13.2 0.28            151           70.8 299 
 PAM  SZ EP        043 34.48                             151    0.1410 78.5  40 
 PAM  SN ES        043 51.92                             151    0.0510 78.5  40 
 PAM  SZ I         043 53.88         7.0 0.26            156           78.5  40 
 RUS  HZ EP        043 35.79                             144    0.0510 99.8 176 
 RUS  HN ES        043 53.92                             144   -0.4410 99.8 176 
 RUS  HZ I         043 55.55         8.1 0.26            148           99.8 176 
 PTB  HZ EP        043 38.42                             133   -0.47 9  147 259 
 PTB  HN ES        043 59.69                             133   -0.28 9  147 259 
 PTB  HZ I         044  5.61        16.6 0.42            133            147 259 
 OCA  HN ES        044  2.12                             130   -0.50 9  161 353 
 OCA  HZ I         044  6.95        13.7 0.30            133            161 353 
 SPBC HZ EP        043 40.62                             130    0.23 9  162 219 
 SPBC HN ES   1    044  2.51                             130   -0.13 7  162 219 
 SPBC HZ I         044 10.00        15.1 0.28            131            162 219 
 NOR  HE ES        044 14.87                             119   -0.55 8  234 234 
 NOR  HZ I         044 19.95        11.5 0.22            121            234 234 
 SML  HN ES        044 16.52                             118   -0.79 8  244 336 
 GUY2CHZ EP        043 56.50                             113    1.08 7  300 235 
 GUY2CHN ES   4    044 31.91                             113    2.51 0  300 235 
 GUY2CHZ I         044 36.64         6.2 0.36                           300 235 
                                                                                
