 2015 10 7 0807 14.2 L   7.065 -73.480112.5  RSN 15 0.4 2.2LRSN                1
 GAP= 77        0.91       2.7     3.4  5.3 -0.2693E+01  0.5084E+01  0.1618E+01E
 Epicentro: SAN VICENTE DE CHUCURI - SANTANDER                                 3
 ACTION:UPD 15-12-22 20:38 OP:cam  STATUS:               ID:20151007080714 L   I
 OLDACT:REG 15-10-07 13:16 OP:spq  STATUS:               ID:20151007075748     3
 2015-10-07-0757-48M.COL___346                                                 6
 STAT SP IPHASW D HRMM SECON CODA AMPLIT PERI AZIMU VELO AIN AR TRES W  DIS CAZ7
 BRR  HZ EP     C  8 7 29.60                             166   -0.0010 26.1 280 
 BRR  HN ES        8 7 41.26                             166   -0.3310 26.1 280 
 BRR  HZ I         8 7 42.10        39.4 0.10            161           26.1 280 
 BAR2 EZ EP     D  8 7 31.82                             149    0.2010 61.7 148 
 BAR2 EZ ES   1    8 7 45.15                             149   -0.03 7 61.7 148 
 BAR2 EZ I         8 7 46.27        62.1 0.18            150           61.7 148 
 PAM  EZ EP        8 7 34.65                             138    0.5310 91.4  71 
 PAM  EN ES        8 7 49.66                             138    0.0410 91.4  71 
 PAM  EZ I         8 7 52.73        21.8 0.16            139           91.4  71 
 OCA  HZ EP     C  8 7 37.23                             127   -0.0110  131   8 
 OCA  HE ES        8 7 55.03                             127   -0.1410  131   8 
 OCA  HZ I         8 8  1.86        60.7 0.24            125            131   8 
 RUS  HZ EP        8 7 38.14                             126   -0.12 9  137 161 
 ZAR  HN ES   4    8 8  1.45                             121    1.51 0  159 287 
 ZAR  HZ I         8 8  3.27        36.1 0.26            118            159 287 
 SPBC HZ EP        8 7 40.72                             119   -0.36 9  169 203 
 SPBC HN ES   4    8 8  0.58                             119   -1.44 0  169 203 
 SPBC HZ I         8 8  7.12        17.8 0.48            117            169 203 
 SML  HZ EP        8 7 44.13                             114   -0.47 9  203 341 
 SML  HN ES   1    8 8  9.10                             114    0.81 6  203 341 
 SML  HZ I         8 8 13.32        36.2 0.24            112            203 341 
 NOR  HZ EP        8 7 46.92                             111   -0.40 8  226 223 
 NOR  HN ES        8 8 12.66                             111   -0.46 8  226 223 
 NOR  HZ I         8 8 19.91         7.5 0.14            109            226 223 
 HEL  HZ EP   4    8 7 51.93                             109    1.92 0  246 247 
 HEL  HE ES        8 8 18.63                             109    0.72 8  246 247 
 HEL  HZ I         8 8 22.85         6.7 0.32            107            246 247 
 CHI  HZ EP   4    8 7 55.09                             107    2.20 0  271 186 
 CHI  HN ES   4    8 8 25.49                             107    2.45 0  271 186 
 CHI  HZ I         8 8 29.63         7.6 0.54            106            271 186 
 GUY2CHZ EP   4    8 7 57.62                             106    2.23 0  291 226 
 GUY2CHE ES        8 8 28.14                             106    0.65 7  291 226 
 GUY2CHZ I         8 8 39.91         4.0 0.52                           291 226 
 PTGC HZ EP        8 8  2.00                             102    0.23 6  350 155 
 PTGC HN ES   4    8 8 35.42                             102   -3.42 0  350 155 
 PTGC HZ I         8 8 39.62        12.9 0.24            101            350 155 
 SJC  HZ EP   1    8 8  2.78                             101   -0.80 5  365 329 
 SJC  HN ES   4    8 8 40.26                             101   -1.81 0  365 329 
 SJC  HZ I         8 8 51.89         3.8 0.40            100            365 329 
 ORTC HZ EP   4    8 8  9.60                             100    1.81 0  400 209 
 ORTC HE ES   4    8 8 53.44                             100    3.89 0  400 209 
 ORTC HZ I         8 8 59.12         4.5 0.80             98            400 209 
                                                                                
