 2014  2 7 0925  4.9 L   6.831 -73.149146.6  RSN 14 0.4 2.4LRSN                1
 GAP=117        0.80       2.8     4.7  5.9 -0.8171E+00  0.4303E+01 -0.6172E+00E
 Epicentro: LOS SANTOS - SANTANDER                                             3
 ACTION:UPD 14-03-10 08:08 OP:ep   STATUS:               ID:20140207092504 L   I
 OLDACT:UP  14-02-07 13:48 OP:mh   STATUS:               ID:20140207092000     3
 OLDACT:UP  14-02-07 13:48 OP:mh   STATUS:               ID:20140207092000     3
 OLDACT:UP  14-02-07 13:47 OP:mh   STATUS:               ID:20140207092000     3
 OLDACT:REG 14-02-07 09:02 OP:mh   STATUS:               ID:20140207092000     3
 2014-02-07-0920-00M.COL___291                                                 6
 STAT SP IPHASW D HRMM SECON CODA AMPLIT PERI AZIMU VELO AIN AR TRES W  DIS CAZ7
 BAR2 SZ EP        925 25.04                             169    0.3210 26.7 188 
 BAR2 SZ ES   1    925 39.96                             169   -0.21 7 26.7 188 
 BAR2 SZ  AMP      925 41.18       126.7 0.13                          26.7 188 
 PAM  SZ EP   1    925 27.99                             152    0.90 7 75.0  41 
 PAM  SZ I         925 47.18        32.2 0.51            112           75.0  41 
 RUS  HZ EP        925 28.99                             143   -0.0210  104 176 
 RUS  HN ES        925 47.77                             143   -0.0210  104 176 
 RUS  HZ I         925 48.83        19.7 0.25            104            104 176 
 PTB  HZ EP        925 31.60                             132   -0.39 9  148 257 
 PTB  HN ES   1    925 52.66                             132   -0.44 7  148 257 
 PTB  HZ I         925 59.25        18.8 0.39             97            148 257 
 OCA  HZ EP        925 32.46                             130   -0.51 9  157 353 
 OCA  HN ES        925 54.87                             130    0.02 9  157 353 
 OCA  HZ I         926  0.35        17.4 0.36             96            157 353 
 SPBC HZ EP   1    925 33.99                             129    0.27 7  166 218 
 SPBC HZ I         926  0.58        30.2 0.18             96            166 218 
 ZAR  HN ES   2    926  2.64                             123    0.17 4  202 291 
 NOR  HZ EP   1    925 41.20                             118    0.32 6  236 234 
 NOR  HN ES   1    926  9.45                             118    0.52 6  236 234 
 NOR  HZ I         926 14.98        12.6 0.17             93            236 234 
 SML  HZ EP   1    925 41.28                             118    0.04 6  240 335 
 SML  HZ I         926 15.13        21.9 0.11             93            240 335 
 CHI  HZ EP   1    925 43.12                             117    0.10 6  252 195 
 CHI  HN ES   1    926 12.61                             117   -0.12 6  252 195 
 CHI  HZ I         926 16.64        13.5 0.49             93            252 195 
 ROSC BZ EP   4    925 45.41                             117    2.02 0  256 211 
 ROSC BZ I         926 19.71        32.4 0.29             93            256 211 
 HEL  HZ EP   4    925 46.67                             115    1.44 0  273 255 
 HEL  HZ I         926 23.18        12.7 0.21             92            273 255 
 URE  HZ EP   4    925 44.89                             114   -0.96 0  282 291 
 URE  HE ES   4    926 15.36                             114   -2.41 0  282 291 
 GUY2CHZ EP   4    925 50.15                             112    1.39 0  303 234 
 GUY2CHN ES   4    926 25.45                             112    2.50 0  303 234 
 PTGC HZ EP   1    925 48.25                             111   -0.95 5  312 159 
 PRA  HZ EP   1    925 59.22                             106    0.42 4  395 209 
 PRA  HZ I         926 45.58        10.4 0.58             91            395 209 
 SJC  HZ EP   4    925 59.26                             106   -0.89 0  406 327 
                                                                                
