 2011  8 7 0340 41.0 L   7.130 -73.238127.8  RSN  4 0.3 1.3LRSN                1
 GAP=105        0.51       3.7     7.6  7.8  0.1750E+01 -0.1741E+02  0.1707E+01E
 Epicentro: LEBRIJA - SANTANDER                                                3
 ACTION:UPD 12-07-25 14:06 OP:epov STATUS:               ID:20110807034041 L   I
 2011-08-07-0338-43S.COL___143                                                 6
 STAT SP IPHASW D HRMM SECON CODA AMPLIT PERI AZIMU VELO AIN AR TRES W  DIS CAZ7
 BRR  HZ EP        340 59.10                             156   -0.0710 52.4 267 
 BRR  HE ES   1    341 13.29                             156   -0.06 7 52.4 267 
 BRR  HZ I         341 14.82         4.5 0.14                          52.4 267 
 BAR2 SZ EP        341  0.10                             153    0.2010 59.8 174 
 BAR2 SZ ES   2    341 14.18                             153   -0.47 5 59.8 174 
 PAM  SE ES   3    341 15.62                             151   -0.08 2 63.9  69 
 OCA  SZ EP   3    341  3.21                             133   -1.23 2  123 356 
 OCA  SZ ES   1    341 22.89                             133    0.17 7  123 356 
                                                                                
