 2017  1 7 0827 56.5 L   6.774 -73.147131.1  RSN 12 0.4 1.9LRSN                1
 GAP=138        1.03       3.5     4.1  5.6  0.4871E+00  0.8734E+01  0.4651E+01E
 Epicentro: LOS SANTOS - SANTANDER                                             3
 ACTION:UPD 17-05-22 15:56 OP:jn   STATUS:               ID:20170107082756 L   I
 OLDACT:REG 17-01-07 13:00 OP:ar   STATUS:               ID:20170107081749     3
 2017-01-07-0818-00M.COL___368                                                 6
 STAT SP IPHASW D HRMM SECON CODA AMPLIT PERI AZIMU VELO AIN AR TRES W  DIS CAZ7
 BAR2 EZ IP     C  828 13.94                             171   -0.3310 20.5 191 
 BAR2 EZ ES        828 27.74                             171   -0.4210 20.5 191 
 BAR2 EZ I         828 31.06        25.3 0.21            170           20.5 191 
 BRR  HZ IP     C  828 15.73                             149   -0.4010 72.5 301 
 BRR  HE ES        828 32.08                             149    0.6110 72.5 301 
 BRR  HZ I         828 33.55        18.6 0.20            148           72.5 301 
 PAM  EZ EP        828 17.13                             147   -0.1610 79.7  38 
 PAM  EN ES        828 34.15                             147    0.6110 79.7  38 
 PAM  EZ I         828 36.48        15.4 0.28            150           79.7  38 
 RUS  HZ EP        828 17.90                             141   -0.6810 97.7 176 
 RUS  HN ES        828 36.16                             141    0.3310 97.7 176 
 PTB  HZ EP   4    828 20.78                             129   -1.44 0  147 260 
 PTB  HN ES        828 41.67                             129   -0.63 9  147 260 
 PTB  HZ I         828 43.61         9.6 0.09            129            147 260 
 ZAR  HZ EP        828 28.06                             119   -0.05 9  205 293 
 ZAR  HN ES        828 52.80                             119    0.01 9  205 293 
 ZAR  HZ I         828 58.66        13.3 0.31            119            205 293 
 CHI  HZ EP        828 33.20                             114    0.12 8  246 195 
 CHI  HN ES        829  1.82                             114    0.18 8  246 195 
 CHI  HZ I         829  5.85         2.0 0.23            115            246 195 
 ROSC BN ES   4    829  5.35                             114    2.89 0  250 211 
 URE  HZ EP        828 36.85                             110   -0.13 7  285 292 
 URE  HE ES   4    829  6.08                             110   -2.50 0  285 292 
 URE  HZ I         829 13.38         4.4 0.20            111            285 292 
 GUY2CHZ EP        828 40.08                             109    0.84 7  299 235 
 GUY2CHN ES        829 12.95                             109    0.35 7  299 235 
 GUY2CHZ I         829 20.36         6.2 0.40                           299 235 
 PTGC HZ EP   4    828 37.44                             109   -1.96 0  306 158 
 PTGC HE ES   4    829 11.02                             109   -1.87 0  306 158 
 CBOC HZ EP        828 42.80                             107    0.10 7  333 253 
 CBOC HN ES   4    829 16.50                             107   -2.26 0  333 253 
 DBB  EE ES   4    829 15.80                             107   -4.21 0  340 275 
 DBB  EZ I         829 21.33         3.2 0.25            107            340 275 
 ORTC HZ EP        828 49.93                             104    0.29 6  393 216 
 ORTC HE ES        829 31.52                             104    0.41 6  393 216 
 ORTC HZ I         829 39.88         1.7 0.20            105            393 216 
                                                                                
