 2012  8 7 0106 22.4 L   6.703 -73.158144.0  RSN  5 0.4 1.7LRSN                1
 GAP=139        0.82       6.1     5.9  7.7  0.7378E+01 -0.8735E+01 -0.6998E+01E
 Epicentro: VILLANUEVA - SANTANDER                                             3
 ACTION:UPD 12-09-10 11:54 OP:ep   STATUS:               ID:20120807010622 L   I
 2012-08-07-0100-00M.COL___216                                                 6
 STAT SP IPHASW D HRMM SECON CODA AMPLIT PERI AZIMU VELO AIN AR TRES W  DIS CAZ7
 BAR2 SZ EP        1 6 41.64                             175    0.0210 12.5 192 
 BAR2 SZ ES   1    1 6 55.94                             175   -0.69 7 12.5 192 
 BAR2 SZ I         1 6 57.84        10.7 0.18                          12.5 192 
 BRR  HZ EP        1 6 43.74                             151    0.1410 75.8 306 
 BRR  HN ES        1 7  0.59                             151    0.4410 75.8 306 
 BRR  HZ I         1 7  1.01        17.3 0.31                          75.8 306 
 PAM  SZ EP        1 6 44.78                             148   -0.2110 86.8  36 
 RUS  HZ EP   1    1 6 45.63                             147    0.42 7 90.0 175 
 RUS  HN ES   1    1 7  3.29                             147    0.27 7 90.0 175 
 RUS  HZ I         1 7  5.36         6.5 0.38                          90.0 175 
 PTB  HZ EP   1    1 6 48.48                             132   -0.44 7  145 263 
 PTB  HN ES   1    1 7  9.26                             132   -0.36 7  145 263 
 PTB  HZ I         1 7 10.38         3.3 0.06                           145 263 
                                                                                
