 2012  3 7 0446 19.9 L   5.916 -73.792108.8  RSN  4 0.3 1.5LRSN                1
 GAP=160        0.62       4.4     3.7  8.9 -0.6980E+01  0.1156E+02 -0.5478E+01E
 ACTION:UP  12-03-31 23:17 OP:EP   STATUS:               ID:20120307044619 L   I
 2012-03-07-0440-00M.COL___194                                                 6
 STAT SP IPHASW D HRMM SECON CODA AMPLIT PERI AZIMU VELO SNR AR TRES W  DIS CAZ7
 RUS  HZ EP   1    446 38.29                             142    -0.2 8   79  92 
 RUS  HE ES   1    446 52.75                             142    -0.2 8   79  92 
 BAR2 SZ EP        446 39.92                             134     0.010  101  42 
 BAR2 SZ ES   1    446 56.07                             134     0.5 7  101  42 
 BAR2 SZ I         446 57.37         6.9 0.45                           101  42 
 NOR  SZ EP   1    446 42.34                             127     0.3 7  126 252 
 NOR  SN ES   1    446 59.10                             127    -0.1 7  126 252 
 BRR  HZ EP   1    446 42.48                             125    -0.1 7  132   4 
 BRR  HE ES   1    446 59.91                             125    -0.3 7  132   4 
 BRR  HZ I         447  4.02         5.4 0.45                           132   4 
                                                                                
