 2012  2 7 0252 14.3 L   6.746 -73.235151.2  RSN  4 0.2 1.3LRSN                1
 GAP=214        0.42       4.6     4.4  5.6  0.1009E+02 -0.3020E+01 -0.1402E+01E
 ACTION:UP  12-03-07 16:28 OP:epov STATUS:               ID:20120207025214 L   I
 2012-02-07-0250-00M.COL___188                                                 6
 STAT SP IPHASW D HRMM SECON CODA AMPLIT PERI AZIMU VELO SNR AR TRES W  DIS CAZ7
 BAR2 SZ EP   1    252 34.26                             173   -0.21 7 17.9 161 
 BAR2 SZ I         252 50.77         7.4 0.11                          17.9 161 
 BRR  HZ EP   1    252 36.10                             155    0.35 7 66.1 307 
 BRR  HN ES   1    252 52.39                             155   -0.10 7 66.1 307 
 BRR  HZ I         252 54.83         4.4 0.19                          66.1 307 
 RUS  HZ EP   1    252 38.16                             146   -0.08 7 95.8 170 
 RUS  HN ES   1    252 57.05                             146    0.12 7 95.8 170 
 RUS  HZ I         252 58.00         1.9 0.18                          95.8 170 
 PTB  HZ EP   1    252 40.67                             135   -0.08 7  137 260 
 PTB  HN ES   1    253  1.40                             135    0.00 7  137 260 
                                                                                
