 2014  3 7 0053 59.5 L   6.819 -73.114140.0  RSN  5 0.3 1.6LRSN                1
 GAP=247        0.81       5.1     5.6  7.8  0.1602E+02  0.1400E+01 -0.5590E+01E
 Epicentro: LOS SANTOS - SANTANDER                                             3
 ACTION:UPD 14-04-09 23:15 OP:nd   STATUS:               ID:20140307005359 L   I
 OLDACT:REG 14-03-07 08:57 OP:nd   STATUS:               ID:20140307005045     3
 2014-03-07-0050-45M.COL___220                                                 6
 STAT SP IPHASW D HRMM SECON CODA AMPLIT PERI AZIMU VELO AIN AR TRES W  DIS CAZ7
 RUS  HZ EP        054 22.95                             142    0.1310  103 178 
 RUS  HN ES        054 41.14                             142    0.1210  103 178 
 RUS  HZ I         054 43.15         2.7 0.22            144            103 178 
 PTB  HZ EP        054 25.71                             130   -0.64 9  152 258 
 PTB  HN ES        054 46.96                             130   -0.34 9  152 258 
 PTB  HZ I         054 51.58         6.5 0.12            131            152 258 
 ZAR  HZ EP        054 31.69                             121   -0.14 9  207 291 
 ZAR  HN ES        054 57.64                             121    0.60 9  207 291 
 ZAR  HZ I         055  4.20         4.5 0.42            122            207 291 
 CHI  HZ EP        054 37.13                             116   -0.07 8  252 196 
 CHI  HN ES        055  6.62                             116    0.00 8  252 196 
 CHI  HZ I         055 11.99         1.9 0.20            118            252 196 
 GUY2CHZ EP        054 43.77                             111    0.47 7  305 235 
 GUY2CHN ES        055 17.64                             111    0.17 7  305 235 
 GUY2CHZ I         055 25.45         3.8 0.34                           305 235 
                                                                                
