 2016  9 7 0333 11.5 L   6.791 -73.150149.9  RSN  8 0.3 1.6LRSN                1
 GAP=136        0.77       3.6     3.8  5.8  0.2284E+01 -0.8208E+00 -0.7487E+00E
 Epicentro: LOS SANTOS - SANTANDER                                             3
 ACTION:UPD 17-08-17 21:07 OP:lp   STATUS:               ID:20160907033311 L   I
 OLDACT:UP  16-09-07 14:46 OP:dani STATUS:               ID:20160907032734     3
 OLDACT:UP  16-09-07 14:46 OP:dani STATUS:               ID:20160907032734     3
 OLDACT:REG 16-09-07 12:28 OP:dani STATUS:               ID:20160907032734     3
 2016-09-07-0328-00M.COL___364                                                 6
 STAT SP IPHASW D HRMM SECON CODA AMPLIT PERI AZIMU VELO AIN AR TRES W  DIS CAZ7
 BAR2 EZ EP        333 31.47                             171   -0.1510 22.3 189 
 BAR2 EZ ES        333 47.00                             171   -0.3010 22.3 189 
 BAR2 EZ I         333 48.12        14.5 0.16            173           22.3 189 
 BRR  HZ EP        333 33.26                             153    0.1510 71.3 299 
 BRR  HN ES        333 50.34                             153    0.3810 71.3 299 
 BRR  HZ I         333 51.02         7.5 0.12            148           71.3 299 
 PAM  EZ EP        333 34.41                             151    0.1810 78.4  39 
 PAM  EZ I         333 53.90         8.4 0.52            138           78.4  39 
 RUS  HZ EP        333 35.74                             145    0.1410 99.6 176 
 RUS  HN ES        333 54.22                             145   -0.1710 99.6 176 
 RUS  HZ I         333 55.24         2.7 0.33            141           99.6 176 
 PTB  HE ES        333 59.66                             133   -0.35 9  147 259 
 SPBC HZ EP        333 39.81                             130   -0.42 9  162 219 
 SPBC HN ES        334  3.19                             130    0.56 9  162 219 
 SPBC HZ I         334 10.54         4.1 0.14            126            162 219 
 ZAR  HN ES        334  9.56                             123   -0.17 9  204 292 
 ZAR  HZ I         334 16.23         3.2 0.17            116            204 292 
 CHI  HN ES   2    334 19.26                             118    0.44 4  248 195 
 GUY2CHE ES   4    334 33.74                             113    4.46 0  300 235 
                                                                                
