 2012  9 7 0520 47.7 L   5.870 -73.691117.8  RSN  4 0.2 1.1LRSN                1
 GAP=223        0.53       5.2     4.0  7.2  0.8576E+01  0.1034E+02  0.5380E+01E
 Epicentro: PUENTE NACIONAL - SANTANDER                                        3
 ACTION:UPD 12-10-22 14:17 OP:ep   STATUS:               ID:20120907052047 L   I
 2012-09-07-0520-00M.COL___227                                                 6
 STAT SP IPHASW D HRMM SECON CODA AMPLIT PERI AZIMU VELO AIN AR TRES W  DIS CAZ7
 RUS  HZ EP   1    521  6.22                             149   -0.11 7 67.4  88 
 RUS  HN ES   1    521 20.81                             149   -0.07 7 67.4  88 
 RUS  HZ I         521 22.17         1.8 0.29                          67.4  88 
 BAR2 SZ EP   1    521  8.65                             138    0.45 7 97.7  35 
 BAR2 SZ I         521  8.74         3.1 0.08                          97.7  35 
 BAR2 SZ ES   1    521 24.23                             138    0.02 7 97.7  35 
 PTB  HZ EP   1    521  8.82                             133   -0.34 7  112 311 
 PTB  HN ES   1    521 26.18                             133    0.26 7  112 311 
 BRR  HZ EP   1    521 11.45                             127    0.03 7  137 359 
 BRR  HZ I         521 11.95         4.1 0.14                           137 359 
 BRR  HE ES   1    521 29.67                             127   -0.26 7  137 359 
                                                                                
