 2013  9 7 0507  4.7 L   6.555 -73.614118.8  RSN  4 0.4 1.3LRSN                1
 GAP=151        0.84       4.3     5.3  9.1  0.2472E+01 -0.3758E+01  0.2586E+01E
 Epicentro: EL CARMEN DE CHUCURI - SANTANDER                                   3
 ACTION:UPD 13-10-22 09:20 OP:ep   STATUS:               ID:20130907050704 L   I
 OLDACT:UP  13-09-07 11:53 OP:cam  STATUS:               ID:20130907045959     3
 OLDACT:REG 13-09-07 10:47 OP:cam  STATUS:               ID:20130907045959     3
 2013-09-07-0459-59M.COL___269                                                 6
 STAT SP IPHASW D HRMM SECON CODA AMPLIT PERI AZIMU VELO AIN AR TRES W  DIS CAZ7
 BRR  HZ EP        5 7 22.49                             151    0.0910 62.0 350 
 BRR  HE ES   1    5 7 36.62                             151    0.40 7 62.0 350 
 BRR  HZ I         5 7 43.94         3.7 0.42            154           62.0 350 
 PTB  HZ EP        5 7 24.49                             139   -0.1310 93.2 269 
 PTB  HE ES   1    5 7 39.46                             139   -0.72 7 93.2 269 
 PTB  HZ I         5 7 44.07         4.4 0.34            144           93.2 269 
 RUS  HZ EP        5 7 25.04                             139   -0.3010 93.9 141 
 RUS  HN ES   1    5 7 41.20                             139   -0.26 7 93.9 141 
 RUS  HZ I         5 7 41.71         1.9 0.38            150           93.9 141 
 SPBC HZ EP        5 7 26.64                             134    0.3310  112 207 
 SPBC HN ES        5 7 43.55                             134    0.3710  112 207 
 SPBC HZ I         5 7 48.67         7.4 0.22            142            112 207 
                                                                                
