 2013 10 7 0511 30.3 L   6.807 -73.172148.8  RSN  4 0.3 1.1LRSN                1
 GAP=235        0.63       4.4     6.0  7.0  0.5466E+01 -0.3890E+01  0.5974E+01E
 Epicentro: LOS SANTOS - SANTANDER                                             3
 ACTION:UPD 13-11-25 09:19 OP:ep   STATUS:               ID:20131007051130 L   I
 OLDACT:REG 13-10-07 07:13 OP:mh   STATUS:               ID:20131007050959     3
 2013-10-07-0509-59M.COL___273                                                 6
 STAT SP IPHASW D HRMM SECON CODA AMPLIT PERI AZIMU VELO AIN AR TRES W  DIS CAZ7
 BRR  HZ EP   1    511 51.96                             154    0.35 7 68.3 299 
 BRR  HN ES        512  8.31                             154    0.0710 68.3 299 
 BRR  HZ I         512 13.89         2.2 0.18            149           68.3 299 
 RUS  HZ EP   1    511 54.25                             144   -0.17 7  102 174 
 RUS  HN ES   1    512 13.00                             144   -0.23 7  102 174 
 PTB  HZ EP   1    511 56.87                             133   -0.40 7  145 258 
 PTB  HN ES   1    512 17.86                             133   -0.45 7  145 258 
 PTB  HZ I         512 25.04         1.8 0.24            131            145 258 
 SPBC HZ EP   1    511 59.12                             130    0.21 7  162 218 
 SPBC HN ES        512 21.56                             130    0.33 9  162 218 
 SPBC HZ I         512 28.27         1.6 0.26            129            162 218 
                                                                                
