 2016 10 7 0447 21.4 L   6.804 -73.188140.7  RSN 13 0.3 2.0LRSN                1
 GAP=131        0.60       1.8     2.5  4.2 -0.1412E+01  0.3861E+01 -0.5331E+00E
 Epicentro: ZAPATOCA - SANTANDER                                               3
 ACTION:UPD 16-11-09 19:17 OP:rebc STATUS:               ID:20161007044721 L   I
 OLDACT:DUP 16-10-07 15:23 OP:dnl  STATUS:               ID:20161007043748d    3
 OLDACT:REG 16-10-07 12:49 OP:dnl  STATUS:               ID:20161007043747     3
 2016-10-07-0438-00M.COL___348                                                 6
 STAT SP IPHASW D HRMM SECON CODA AMPLIT PERI AZIMU VELO AIN AR TRES W  DIS CAZ7
 BAR2 EZ EP        447 40.49                             170    0.0310 23.4 179 
 BAR2 EZ ES        447 55.23                             170   -0.0610 23.4 179 
 BAR2 EZ I         447 57.08        19.3 0.18            169           23.4 179 
 BRR  HZ EP        447 42.29                             153    0.5010 66.9 300 
 BRR  HN ES   4    447 59.12                             153    1.45 0 66.9 300 
 BRR  HZ I         448  3.17        17.8 0.48            152           66.9 300 
 PAM  EZ EP        447 43.33                             149    0.0510 80.1  42 
 PAM  EN ES        448  0.46                             149    0.1410 80.1  42 
 PAM  EZ I         448  2.67        21.7 0.52            153           80.1  42 
 RUS  HZ EP   2    447 44.52                             142   -0.23 5  101 173 
 RUS  HN ES        448  2.88                             142   -0.0610  101 173 
 RUS  HZ I         448  4.36        14.2 0.36            144            101 173 
 PTB  HZ EP   2    447 47.27                             132   -0.31 5  143 258 
 PTB  HN ES        448  7.83                             132   -0.14 9  143 258 
 PTB  HZ I         448 10.32         7.6 0.36            131            143 258 
 OCA  HZ EP        447 49.44                             129    0.17 9  159 355 
 OCA  HN ES        448 10.35                             129   -0.62 9  159 355 
 OCA  HZ I         448 14.34        25.2 0.52            130            159 355 
 SPBC HZ EP        447 49.30                             128   -0.00 9  161 218 
 SPBC HE ES        448 11.37                             128    0.33 9  161 218 
 SPBC HZ I         448 13.92        21.4 0.26            129            161 218 
 ZAR  HZ EP   2    447 53.09                             122    0.00 4  200 293 
 ZAR  HN ES        448 17.97                             122    0.19 9  200 293 
 ZAR  HZ I         448 24.35        12.1 0.70            122            200 293 
 NOR  HZ EP   2    447 56.30                             118   -0.19 4  231 234 
 NOR  HE ES        448 23.55                             118   -0.29 8  231 234 
 NOR  HZ I         448 32.29         7.1 0.20            118            231 234 
 CHI  HZ EP   2    447 58.57                             116   -0.20 4  248 194 
 CHI  HN ES        448 27.67                             116   -0.23 8  248 194 
 CHI  HZ I         448 34.23         4.2 0.26            117            248 194 
 ROSC BZ EP   4    448  0.78                             116    1.72 0  251 210 
 ROSC BN ES   4    448 30.00                             116    1.59 0  251 210 
 ROSC BZ I         448 35.12        10.9 0.40            117            251 210 
 GUY2CHZ EP   4    448  5.78                             111    1.37 0  298 234 
 GUY2CHN ES        448 37.95                             111    0.02 7  298 234 
 GUY2CHZ I         448 50.70         5.2 0.46                           298 234 
 PTGC HZ EP   4    448  3.60                             110   -1.71 0  311 158 
 PTGC HN ES   4    448 35.33                             110   -4.20 0  311 158 
 PTGC HZ I         448 41.95         8.2 0.28            112            311 158 
                                                                                
