 2014  7 7 0806  5.0 L   6.793 -73.150138.9  RSN  5 0.2 1.1LRSN                1
 GAP=243        0.61       4.2     4.1  5.7  0.6422E+01  0.8750E+01 -0.1510E+01E
 Epicentro: LOS SANTOS - SANTANDER                                             3
 ACTION:UPD 15-03-16 20:41 OP:nd   STATUS:               ID:20140707080605 L   I
 OLDACT:REG 14-07-07 14:16 OP:stll STATUS:               ID:20140707075808     3
 2014-07-07-0758-08M.COL___253                                                 6
 STAT SP IPHASW D HRMM SECON CODA AMPLIT PERI AZIMU VELO AIN AR TRES W  DIS CAZ7
 BAR2 SZ EP        8 6 23.82                             170    0.0710 22.5 189 
 BAR2 SZ ES        8 6 38.41                             170    0.0110 22.5 189 
 BAR2 SZ I         8 6 40.70         3.4 0.16            171           22.5 189 
 RUS  HN ES        8 6 45.89                             142   -0.0610 99.9 176 
 RUS  HZ I         8 6 47.85         1.6 0.36            147           99.9 176 
 PTB  HZ EP        8 6 31.02                             130   -0.31 9  147 259 
 PTB  HN ES        8 6 51.53                             130   -0.36 9  147 259 
 PTB  HZ I         8 6 53.89         1.2 0.28            131            147 259 
 SPBC HZ EP        8 6 32.96                             128    0.10 9  162 219 
 SPBC HN ES        8 6 54.93                             128    0.31 9  162 219 
 SPBC HZ I         8 6 57.70         2.8 0.34            130            162 219 
 ZAR  HN ES        8 7  2.24                             121    0.33 9  204 292 
 ZAR  HZ I         8 7 10.06         1.1 0.26            122            204 292 
                                                                                
