 2013  8 7 0405 42.5 L   6.765 -73.152147.2  RSN 10 0.4 1.7LRSN                1
 GAP=137        0.90       3.1     4.3  6.2 -0.6527E+00  0.6809E+01  0.2061E+00E
 Epicentro: LOS SANTOS - SANTANDER                                             3
 ACTION:UPD 14-01-14 08:59 OP:ep   STATUS:               ID:20130807040542 L   I
 OLDACT:REG 13-08-07 07:31 OP:carl STATUS:               ID:20130807035959     3
 2013-08-07-0359-59M.COL___269                                                 6
 STAT SP IPHASW D HRMM SECON CODA AMPLIT PERI AZIMU VELO AIN AR TRES W  DIS CAZ7
 BAR2 SZ ES   1    4 6 17.27                             172   -0.30 7 19.4 190 
 BAR2 SZ I         4 6 18.42         7.1 0.20            173           19.4 190 
 GIR2 SZ EP   1    4 6  2.55                             166    0.15 7 35.0 352 
 GIR2 SZ ES   1    4 6 17.53                             166   -0.42 7 35.0 352 
 GIR2 SZ I         4 6 21.23         4.4 0.48            166           35.0 352 
 BRR  HN ES   1    4 6 21.78                             152    1.28 7 72.5 301 
 BRR  HN I         4 6 22.33        21.6 0.18            153           72.5 301 
 PAM  SZ EP        4 6  5.37                             150    0.3510 80.8  38 
 PAM  SN ES        4 6 22.70                             150    0.0710 80.8  38 
 PAM  SZ I         4 6 26.69         2.9 0.38            152           80.8  38 
 RUS  HZ EP        4 6  6.07                             145   -0.0110 96.8 175 
 RUS  HN ES   1    4 6 24.17                             145   -0.33 7 96.8 175 
 RUS  HZ I         4 6 26.33         3.3 0.22            147           96.8 175 
 PTB  HZ EP   1    4 6  9.19                             133   -0.22 7  146 260 
 PTB  HN ES   1    4 6 29.94                             133   -0.50 7  146 260 
 PTB  HZ I         4 6 30.76         3.9 0.16            134            146 260 
 SPBC HZ EP        4 6 11.08                             130    0.34 9  160 220 
 SPBC HN ES   1    4 6 32.67                             130   -0.14 7  160 220 
 SPBC HZ I         4 6 39.35         4.2 0.20            132            160 220 
 OCA  HE ES        4 6 33.28                             129   -0.38 9  164 354 
 OCA  HE I         4 6 38.10        17.5 0.30            131            164 354 
 ZAR  HN ES        4 6 40.59                             122    0.07 9  205 293 
 ZAR  HN I         4 6 43.38         8.3 0.16            124            205 293 
 SML  HZ EP   1    4 6 19.15                             117   -0.35 6  247 336 
 SML  HN ES        4 6 48.26                             117   -0.14 8  247 336 
 SML  HZ I         4 6 50.43         5.2 0.24            119            247 336 
                                                                                
