 2012  5 7 0233 24.9 L   6.749 -73.177150.0  RSN  5 0.2 1.1LRSN                1
 GAP=135        0.52       5.6     4.5  7.0 -0.2221E+01 -0.4543E+01 -0.1834E+01E
 Epicentro: VILLANUEVA - SANTANDER                                             3
 ACTION:UP  12-07-05 12:02 OP:pat  STATUS:               ID:20120507023324 L   I
 2012-05-07-0220-00M.COL___173                                                 6
 STAT SP IPHASW D HRMM SECON CODA AMPLIT PERI AZIMU VELO SNR AR TRES W  DIS CAZ7
 BAR2 SZ EP        233 45.00                             173     0.010   17 182 
 BRR  HZ EP        233 46.78                             153     0.210   71 304 
 BRR  HN ES   1    234  3.45                             153     0.0 7   71 304 
 BRR  HZ I         234  8.69         3.6 0.16                            71 304 
 PAM  SZ EP        233 47.81                             149    -0.210   84  39 
 RUS  HN ES   2    234  7.37                             146     0.1 5   95 174 
 PTB  HZ EP        233 51.93                             134     0.1 9  143 261 
 PTB  HN ES   2    234 12.31                             134    -0.6 5  143 261 
 PTB  HZ I         234 16.12         1.1 0.52                           143 261 
                                                                                
