 2012  5 7 0805 59.1 L   6.791 -73.145143.2  RSN  6 0.3 1.9LRSN                1
 GAP=137        0.94       5.6     7.4  7.6 -0.1175E+01  0.1189E+02  0.1003E+02E
 Epicentro: LOS SANTOS - SANTANDER                                             3
 ACTION:UP  12-07-05 12:03 OP:pat  STATUS:               ID:20120507080559 L   I
 2012-05-07-0800-00M.COL___173                                                 6
 STAT SP IPHASW D HRMM SECON CODA AMPLIT PERI AZIMU VELO SNR AR TRES W  DIS CAZ7
 BAR2 SZ EP        8 6 18.44                             171     0.010   22 191 
 BAR2 SZ ES   1    8 6 33.17                             171    -0.3 7   22 191 
 BAR2 SZ I         8 6 35.57        20.1 0.70                            22 191 
 BRR  HZ EP        8 6 20.16                             152     0.210   72 299 
 BRR  HN ES   1    8 6 36.90                             152     0.6 7   72 299 
 BRR  HZ I         8 6 41.54        15.2 0.60                            72 299 
 PAM  SZ EP        8 6 21.20                             150     0.110   78  39 
 PAM  SN ES   1    8 6 37.91                             150    -0.3 7   78  39 
 RUS  HZ EP        8 6 22.58                             144     0.110  100 176 
 RUS  HN ES   1    8 6 40.79                             144     0.0 7  100 176 
 RUS  HZ I         8 6 43.34        14.6 0.34                           100 176 
 PTB  HZ EP        8 6 25.18                             131    -0.7 9  148 259 
 PTB  HZ I         8 6 48.67        16.5 0.38                           148 259 
 CHI  HZ EP        8 6 36.89                             117     0.3 8  248 195 
 CHI  HZ I         8 7 14.92         4.6 0.40                           248 195 
                                                                                
