 2016  1 7 0138 23.3 L   6.334 -73.621107.8  RSN  9 0.4 1.5LRSN                1
 GAP= 70        1.15       3.3     4.0  7.4  0.1725E+01  0.1235E+02  0.5443E+01E
 Epicentro: SANTA HELENA DEL OPON - SANTANDER                                  3
 ACTION:UPD 16-03-09 23:23 OP:cam  STATUS:               ID:20160107013823 L   I
 OLDACT:REG 16-01-07 12:29 OP:drio STATUS:               ID:20160107012738     3
 2016-01-07-0127-38M.COL___300                                                 6
 STAT SP IPHASW D HRMM SECON CODA AMPLIT PERI AZIMU VELO AIN AR TRES W  DIS CAZ7
 BAR2 EZ EP        138 39.96                             150    0.1010 56.2  59 
 BAR2 EZ ES        138 52.90                             150    0.1310 56.2  59 
 BAR2 EZ I         138 54.39        10.8 0.12            157           56.2  59 
 RUS  HZ EP        138 41.21                             142   -0.4210 77.0 129 
 RUS  HN ES        138 55.83                             142   -0.0810 77.0 129 
 RUS  HZ I         138 59.09         2.4 0.30            149           77.0 129 
 BRR  HZ EP        138 41.62                             138   -0.0310 86.1 353 
 BRR  HN ES        138 56.63                             138    0.6810 86.1 353 
 BRR  HZ I         139  4.47        13.4 0.38            144           86.1 353 
 SPBC HZ EP        138 41.92                             137   -0.2210 90.5 214 
 SPBC HN ES        138 57.23                             137    0.4010 90.5 214 
 SPBC HZ I         139  2.67         8.5 0.40            141           90.5 214 
 PTB  HZ EP        138 41.76                             135   -0.6810 95.2 284 
 PTB  HN ES        138 56.67                             135   -0.6810 95.2 284 
 PTB  HZ I         138 59.47         8.8 0.10            139           95.2 284 
 NOR  HZ EP        138 49.59                             119    0.51 9  162 238 
 NOR  HN ES   4    139 10.09                             119    0.91 0  162 238 
 NOR  HZ I         139 11.60         6.5 0.22            124            162 238 
 ZAR  HZ EP        138 51.33                             115   -0.41 9  187 313 
 ZAR  HE ES        139 13.97                             115    0.05 9  187 313 
 ZAR  HZ I         139 19.12         6.0 0.46            120            187 313 
 CHI  HZ EP        138 52.98                             115    0.55 9  189 184 
 CHI  HN ES        139 14.54                             115   -0.60 9  189 184 
 CHI  HZ I         139 19.64         1.5 0.24            121            189 184 
 GUY2CHZ EP        138 57.59                             110    0.57 8  229 238 
 GUY2CHN ES        139 23.76                             110    0.45 8  229 238 
 GUY2CHZ I         139 30.94         2.8 0.38                           229 238 
                                                                                
