 2015  3 7 0454 12.4 L   6.782 -73.157142.0  RSN  6 0.4 1.0LRSN                1
 GAP=136        0.91       5.2     5.4  7.3 -0.6370E+01  0.3404E+01  0.4101E+01E
 Epicentro: LOS SANTOS - SANTANDER                                             3
 ACTION:UPD 15-04-30 16:23 OP:nd   STATUS:               ID:20150307045412 L   I
 OLDACT:REG 15-03-07 13:33 OP:spq  STATUS:               ID:20150307044742     3
 2015-03-07-0447-42M.COL___284                                                 6
 STAT SP IPHASW D HRMM SECON CODA AMPLIT PERI AZIMU VELO AIN AR TRES W  DIS CAZ7
 BAR2 EZ ES   1    454 45.97                             171   -0.45 7 21.1 188 
 BAR2 EZ I         454 47.21         3.5 0.17            168           21.1 188 
 BRR  HZ EP        454 33.28                             152    0.1810 71.1 300 
 BRR  HN ES        454 49.87                             152    0.5910 71.1 300 
 BRR  HZ I         454 51.58         3.1 0.42            153           71.1 300 
 PAM  SZ EP        454 34.30                             149   -0.0210 79.7  39 
 PAM  SN ES   1    454 51.14                             149   -0.31 7 79.7  39 
 PAM  SZ I         454 53.35         1.8 0.34            154           79.7  39 
 RUS  HZ EP   1    454 35.91                             144    0.31 7 98.6 175 
 RUS  HN ES   1    454 53.74                             144    0.01 7 98.6 175 
 RUS  HZ I         454 56.03         0.7 0.30            143           98.6 175 
 PTB  HZ EP        454 38.36                             132   -0.52 9  146 260 
 PTB  HN ES   1    454 58.81                             132   -0.75 7  146 260 
 PTB  HZ I         455  1.73         1.5 0.48            132            146 260 
 SPBC HZ EP   1    454 40.67                             129    0.32 7  161 219 
 SPBC HN ES   1    455  2.54                             129    0.36 7  161 219 
 SPBC HZ I         455  8.91         1.3 0.12            129            161 219 
                                                                                
