 2015  7 7 0328  9.4 L   6.816 -73.122141.7  RSN  4 0.1 1.5LRSN                1
 GAP=185        0.37       2.2     3.2  4.1  0.2907E+01  0.1928E+01 -0.2200E+01E
 Epicentro: LOS SANTOS - SANTANDER                                             3
 ACTION:UPD 15-09-08 21:47 OP:cam  STATUS:               ID:20150707032809 L   I
 OLDACT:REG 15-07-07 12:53 OP:spq  STATUS:               ID:20150707031750     3
 2015-07-07-0317-50M.COL___330                                                 6
 STAT SP IPHASW D HRMM SECON CODA AMPLIT PERI AZIMU VELO AIN AR TRES W  DIS CAZ7
 BAR2 EZ ES   1    328 43.62                             169    0.08 8 25.6 195 
 BAR2 EZ I         328 46.16         4.4 0.26            169           25.6 195 
 RUS  HZ EP        328 32.80                             142   -0.0510  102 178 
 RUS  HN ES   1    328 51.13                             142   -0.03 7  102 178 
 RUS  HZ I         328 52.27         2.2 0.38            149            102 178 
 OCA  HZ EP   1    328 37.53                             129    0.28 7  159 352 
 OCA  HN ES   1    328 58.79                             129   -0.19 7  159 352 
 OCA  HZ I         329  4.97         9.1 0.28            130            159 352 
 ZAR  HZ EP   1    328 41.62                             121   -0.12 6  206 291 
 ZAR  HE ES        329  7.03                             121    0.04 9  206 291 
 ZAR  HZ I         329 17.09         3.1 0.50            122            206 291 
                                                                                
