 2014  6 7 0709 22.9 L   6.084 -73.699104.4  RSN  6 0.2 1.1LRSN                1
 GAP=132        0.50       3.7     2.4  4.8 -0.5587E+01  0.5622E+01 -0.3405E+01E
 Epicentro: BOLIVAR - SANTANDER                                                3
 ACTION:UPD 14-07-01 22:51 OP:nd   STATUS:               ID:20140607070922 L   I
 OLDACT:REG 14-06-07 13:22 OP:fm   STATUS:               ID:20140607070805     3
 2014-06-07-0708-05M.COL___253                                                 6
 STAT SP IPHASW D HRMM SECON CODA AMPLIT PERI AZIMU VELO AIN AR TRES W  DIS CAZ7
 SPBC HZ EP   1    7 9 39.14                             146   -0.23 7 63.2 221 
 SPBC HN ES   1    7 9 52.51                             146    0.32 7 63.2 221 
 SPBC HZ I         7 9 54.56         4.1 0.50            149           63.2 221 
 RUS  HZ EP        7 9 40.76                             143    0.2510 71.3 107 
 RUS  HN ES   1    7 9 53.86                             143   -0.35 7 71.3 107 
 RUS  HZ I         7 9 56.13         1.4 0.14            150           71.3 107 
 BAR2 SZ EP        7 9 40.75                             139   -0.0710 80.1  45 
 BAR2 SZ ES        7 9 54.79                             139    0.0310 80.1  45 
 NOR  HZ EP   2    7 9 45.83                             122   -0.50 5  142 246 
 NOR  HN ES        710  4.49                             122   -0.09 9  142 246 
 NOR  HZ I         710  5.93         3.5 0.28            125            142 246 
 HEL  HZ IP   1    7 9 53.41                             112    0.01 6  203 273 
 HEL  HN ES   1    710 17.16                             112   -0.01 6  203 273 
 HEL  HZ I         710 22.25         1.3 0.64            115            203 273 
 GUY2CHZ EP        7 9 54.35                             111    0.27 8  208 243 
 GUY2CHN ES        710 18.27                             111   -0.10 8  208 243 
 GUY2CHZ I         710 24.23         1.6 0.74                           208 243 
                                                                                
