 2013  9 7 0229 36.4 L   5.855 -73.735109.5  RSN  5 0.4 1.6LRSN                1
 GAP=152        0.94       5.3     4.6  8.5 -0.1314E+02  0.1078E+02 -0.1064E+02E
 Epicentro: JESUS MARIA - SANTANDER                                            3
 ACTION:UPD 13-10-22 09:20 OP:ep   STATUS:               ID:20130907022936 L   I
 OLDACT:UP  13-09-07 14:46 OP:cam  STATUS:               ID:20130907022837     3
 OLDACT:REG 13-09-07 14:28 OP:cam  STATUS:               ID:20130907022837     3
 2013-09-07-0228-37M.COL___247                                                 6
 STAT SP IPHASW D HRMM SECON CODA AMPLIT PERI AZIMU VELO AIN AR TRES W  DIS CAZ7
 SPBC HZ EP     C  229 52.17                             157   -0.1010 43.6 239 
 SPBC HN ES        230  4.56                             157   -0.0710 43.6 239 
 SPBC HZ I         230  6.28         8.4 0.30            157           43.6 239 
 RUS  HZ EP   1    229 55.35                             145    0.77 7 72.3  87 
 RUS  HN ES        230  8.94                             145    0.2110 72.3  87 
 RUS  HZ I         230 10.51         4.8 0.22            148           72.3  87 
 BAR2 SZ IP        229 56.23                             134   -0.3610  102  37 
 BAR2 SZ ES        230 11.77                             134   -0.5510  102  37 
 BAR2 SZ I         230 13.34        20.1 0.44            137            102  37 
 NOR  HZ EP        229 58.82                             126   -0.1310  130 256 
 NOR  HN ES   1    230 16.65                             126    0.14 7  130 256 
 NOR  HZ I         230 19.18         8.7 0.14            128            130 256 
 BRR  HZ EP   4    229 58.29                             124   -1.46 0  138   1 
 BRR  HN ES        230 18.48                             124    0.54 9  138   1 
 BRR  HZ I         230 19.81         6.6 0.12            126            138   1 
                                                                                
