 2013  6 7 0556  7.0 L   6.836 -73.207149.9  RSN  7 0.5 2.1LRSN                1
 GAP=179        1.04       6.1     8.9  9.8 -0.8553E+01  0.4763E+01 -0.1707E+02E
 Epicentro: ZAPATOCA - SANTANDER                                               3
 ACTION:UPD 14-01-08 09:53 OP:ep   STATUS:               ID:20130607055607 L   I
 OLDACT:REG 13-06-07 08:34 OP:mh   STATUS:               ID:20130607055000     3
 2013-06-07-0550-00M.COL___257                                                 6
 STAT SP IPHASW D HRMM SECON CODA AMPLIT PERI AZIMU VELO AIN AR TRES W  DIS CAZ7
 BAR2 SZ EP   1    556 26.95                             169   -0.24 7 27.1 174 
 BAR2 SZ ES   1    556 42.35                             169   -0.60 7 27.1 174 
 BAR2 SZ I         556 44.36        14.1 0.34            170           27.1 174 
 BRR  HZ IP     C  556 28.83                             156    0.6710 63.4 298 
 BRR  HN ES        556 45.28                             156    0.5910 63.4 298 
 BRR  HN I         556 47.03        22.6 0.22            146           63.4 298 
 PTB  HZ EP   1    556 33.67                             134   -0.11 7  142 257 
 PTB  HN ES        556 54.32                             134   -0.36 9  142 257 
 PTB  HN I         557  0.44        17.9 0.52            130            142 257 
 OCA  HN ES   1    556 57.11                             132   -0.07 7  156 355 
 OCA  HN I         557  6.82        31.4 0.24            128            156 355 
 ZAR  HZ EP   4    556 40.36                             125    1.45 0  196 292 
 ZAR  HN ES   4    557  6.10                             125    2.28 0  196 292 
 ZAR  HN I         557 10.88        17.0 0.18            121            196 292 
 SML  HZ EP   1    556 43.13                             119   -0.02 6  237 336 
 SML  HN ES        557 10.78                             119   -0.59 8  237 336 
 SML  HN I         557 19.72        24.6 0.30            116            237 336 
 HEL  HZ EP   4    556 48.70                             116    1.90 0  267 255 
 HEL  HN ES   4    557 21.85                             116    3.99 0  267 255 
 HEL  HN I         557 26.44         2.9 0.30            114            267 255 
                                                                                
