 2014  9 7 0922 52.9 L   6.761 -73.032151.2  RSN  4 0.3 1.3LRSN                1
 GAP=272        0.81       7.4     8.8  9.3 -0.3674E+02 -0.1720E+02  0.1874E+02E
 Epicentro: CEPITA - SANTANDER                                                 3
 ACTION:UPD 14-10-03 23:03 OP:nd   STATUS:               ID:20140907092252 L   I
 OLDACT:UP  14-09-07 18:48 OP:mh   STATUS:               ID:20140907091814     3
 OLDACT:REG 14-09-07 13:15 OP:mh   STATUS:               ID:20140907091814     3
 2014-09-07-0918-14M.COL___260                                                 6
 STAT SP IPHASW D HRMM SECON CODA AMPLIT PERI AZIMU VELO AIN AR TRES W  DIS CAZ7
 BRR  HZ EP        923 15.84                             149    0.4810 84.4 297 
 BRR  HZ I         923 16.14         4.1 0.46            144           84.4 297 
 BRR  HN ES        923 33.05                             149    0.1310 84.4 297 
 PTB  HZ EP   1    923 21.11                             131   -0.22 7  159 261 
 PTB  HN ES        923 43.12                             131   -0.42 9  159 261 
 PTB  HZ I         923 47.14         1.5 0.18            127            159 261 
 OCA  HE ES        923 44.68                             130   -0.35 9  166 349 
 ZAR  HZ EP        923 26.85                             122   -0.18 8  217 292 
 ZAR  HN ES        923 54.05                             122    0.37 8  217 292 
 ZAR  HZ I         923 58.08         1.7 0.60            119            217 292 
 SML  HZ EP   4    923 30.52                             118   -0.28 0  253 333 
 SML  HN ES   4    923 58.49                             118   -1.90 0  253 333 
                                                                                
