 2013  1 7 0531 40.2 L   6.792 -73.143147.6  RSN  7 0.6 1.8LRSN                1
 GAP=183        1.59       6.0     9.1 10.5  0.1844E+02  0.1755E+02  0.8248E+01E
 Epicentro: LOS SANTOS - SANTANDER                                             3
 ACTION:UPD 13-02-15 09:12 OP:ep   STATUS:               ID:20130107053140 L   I
 2013-01-07-0529-48M.COL___199                                                 6
 STAT SP IPHASW D HRMM SECON CODA AMPLIT PERI AZIMU VELO AIN AR TRES W  DIS CAZ7
 BAR2 SZ EP        532  0.29                             171    0.2710 22.5 191 
 BAR2 SZ I         532  0.38        10.2 0.40            170           22.5 191 
 BAR2 SZ ES        532 15.42                             171   -0.0710 22.5 191 
 BRR  HZ EP        532  2.35                             153    0.7810 71.8 299 
 BRR  HZ I         532  2.62         6.4 0.14            151           71.8 299 
 BRR  HN ES        532 19.33                             153    1.0910 71.8 299 
 RUS  HZ EP        532  3.95                             144   -0.1110 99.7 176 
 RUS  HN ES        532 22.19                             144   -0.4810 99.7 176 
 RUS  HN I         532 22.90        10.7 0.28            145           99.7 176 
 PTB  HZ EP        532  7.50                             132    0.18 9  148 259 
 PTB  HN ES        532 27.21                             132   -1.26 9  148 259 
 PTB  HN I         532 33.49         6.5 0.20            131            148 259 
 OCA  HN ES        532 30.04                             130   -0.94 9  161 353 
 OCA  HN I         532 34.36        25.9 0.20            130            161 353 
 ZAR  HZ EP        532 12.42                             123   -0.39 9  205 292 
 ZAR  HE ES        532 38.67                             123    0.42 9  205 292 
 CHI  HZ EP        532 17.87                             118   -0.04 8  248 195 
 CHI  HE ES        532 47.74                             118    0.41 8  248 195 
 CHI  HE I         532 49.80         1.8 0.42            118            248 195 
                                                                                
