 2013 10 7 0305 38.8 L   6.743 -73.173139.2  RSN  7 0.4 1.5LRSN                1
 GAP=230        0.96       5.1     5.4  7.8  0.7654E+01  0.1635E+02  0.4646E+01E
 Epicentro: VILLANUEVA - SANTANDER                                             3
 ACTION:UPD 13-11-25 09:19 OP:ep   STATUS:               ID:20131007030538 L   I
 OLDACT:REG 13-10-07 07:09 OP:mh   STATUS:               ID:20131007025959     3
 2013-10-07-0259-59M.COL___273                                                 6
 STAT SP IPHASW D HRMM SECON CODA AMPLIT PERI AZIMU VELO AIN AR TRES W  DIS CAZ7
 BAR2 SZ EP   1    3 5 57.32                             173   -0.15 7 16.7 183 
 BAR2 SZ ES        3 6 11.87                             173   -0.2010 16.7 183 
 BAR2 SZ I         3 6 13.00        19.6 0.22            169           16.7 183 
 BRR  HZ EP   1    3 5 59.26                             151    0.03 7 71.9 304 
 BRR  HN ES   1    3 6 15.68                             151    0.47 7 71.9 304 
 BRR  HZ I         3 6 20.00         5.6 0.12            151           71.9 304 
 RUS  HZ EP   1    3 6  1.57                             144    0.14 7 94.6 174 
 RUS  HN ES        3 6 19.13                             144    0.0210 94.6 174 
 RUS  HZ I         3 6 21.23         3.5 0.36            145           94.6 174 
 PTB  HZ EP   1    3 6  4.11                             131   -0.71 7  144 261 
 PTB  HN ES        3 6 24.31                             131   -0.83 9  144 261 
 PTB  HZ I         3 6 27.67         5.4 0.12            132            144 261 
 SPBC HZ EP   1    3 6  6.34                             129    0.23 7  156 220 
 SPBC HN ES        3 6 28.03                             129    0.59 9  156 220 
 SPBC HZ I         3 6 32.24         2.8 0.26            129            156 220 
 ZAR  HN ES        3 6 36.27                             121    0.57 9  204 294 
 NOR  HZ EP   1    3 6 13.37                             118   -0.08 6  229 235 
 NOR  HN ES        3 6 40.50                             118   -0.01 8  229 235 
 NOR  HZ I         3 6 46.72         2.1 0.58            119            229 235 
                                                                                
