 2014  5 7 0808 57.4 L   6.808 -73.416120.0  RSN 10 0.6 2.0LRSN                1
 GAP=107        1.37       3.3     4.8 11.2 -0.2683E+01  0.1102E+02  0.3633E+01E
 Epicentro: SAN VICENTE DE CHUCURI - SANTANDER                                 3
 ACTION:UPD 15-03-16 16:55 OP:nd   STATUS:               ID:20140507080857 L   I
 OLDACT:REG 14-05-07 12:47 OP:carl STATUS:               ID:20140507080807     3
 2014-05-07-0808-07M.COL___217                                                 6
 STAT SP IPHASW D HRMM SECON CODA AMPLIT PERI AZIMU VELO AIN AR TRES W  DIS CAZ7
 PAM  SZ EP        8 9 19.09                             138    0.5010 98.6  53 
 PAM  SE ES        8 9 35.70                             138    0.6210 98.6  53 
 PAM  SZ I         8 9 37.18        13.9 0.26            146           98.6  53 
 RUS  HZ EP        8 9 18.82                             136   -0.5310  108 160 
 RUS  HN ES        8 9 35.88                             136   -0.5710  108 160 
 RUS  HZ I         8 9 37.73         8.2 0.26            143            108 160 
 PTB  HZ IP     C  8 9 19.36                             132   -0.3210  119 256 
 PTB  HN ES        8 9 36.40                             132   -0.6210  119 256 
 PTB  HZ I         8 9 40.98        23.4 0.40            135            119 256 
 SPBC HZ EP        8 9 21.74                             126   -0.72 9  147 210 
 SPBC HN ES        8 9 42.81                             126    0.83 9  147 210 
 SPBC HZ I         8 9 48.03        13.7 0.32            131            147 210 
 OCA  HZ EP        8 9 22.93                             123   -0.78 9  159   4 
 OCA  HN ES        8 9 44.05                             123   -0.16 9  159   4 
 OCA  HZ I         8 9 48.38        17.1 0.16            129            159   4 
 ZAR  HZ EP   4    8 9 26.84                             120    1.48 0  176 296 
 ZAR  HE ES        8 9 47.74                             120    0.60 9  176 296 
 ZAR  HZ I         8 9 56.24        19.2 0.30            124            176 296 
 SML  HE ES        8 9 58.16                             113    0.22 8  232 342 
 CHI  HZ EP        8 9 33.81                             112    0.55 8  243 188 
 CHI  HN ES        810  1.51                             112    0.32 8  243 188 
 RREF HN ES        810 13.50                             107    0.15 7  300 225 
 PRA  HZ EP   4    8 9 51.50                             102    2.87 0  379 206 
 PRA  HN ES        810 29.39                             102    0.83 6  379 206 
                                                                                
