 2011  2 7 0236 55.0 L   6.764 -72.999148.3  RSN  7 0.4 1.9LRSN                1
 GAP=176        0.75       4.4    13.0  9.1 -0.2400E+02  0.3717E+02 -0.5662E+01E
 Epicentro: CEPITA - SANTANDER                                                 3
 ACTION:UP  11-03-28 15:06 OP:jfem STATUS:               ID:20110207023655 L   I
 2011-02-07-0233-38S.COL___138                                                 6
 STAT SP IPHASW D HRMM SECON CODA AMPLIT PERI AZIMU VELO SNR AR TRES W  DIS CAZ7
 BAR2 SZ EP   1    237 14.92                             169    -0.1 8   28 227 
 BAR2 SZ ES   2    237 29.99                             169    -0.7 5   28 227 
 BAR2 SZ I         237 31.16        21.1 0.40                            28 227 
 GIR2 SZ EP   2    237 14.98                             164    -0.3 5   41 328 
 RUS  HZ EP   1    237 18.88                             145     0.1 8   97 186 
 RUS  HE ES   2    237 37.71                             145     0.5 5   97 186 
 RUS  HZ I         237 38.83         8.8 0.41                            97 186 
 GRA  SZ IP        237 20.72                             137     0.210  126  10 
 GRA  SZ I         237 21.85        10.7 0.33                           126  10 
 GRA  SZ ES   2    237 40.34                             137     0.0 5  126  10 
 OCA  SZ EP   1    237 23.51                             129    -0.6 7  167 348 
 OCA  SZ ES   2    237 47.71                             129     0.8 5  167 348 
 OCA  SZ I         237 52.02        13.3 0.45                           167 348 
 CHI  HZ EP   1    237 32.96                             117     0.0 6  250 199 
 CHI  HE ES   2    238  2.61                             117     0.1 4  250 199 
 CHI  HZ I         238  8.37         2.7 0.50                           250 199 
 HEL  HZ EP   1    237 37.15                             114     0.1 6  287 257 
 HEL  HZ I         238 22.79         3.6 0.50                           287 257 
                                                                                
