 2011  3 7 0940  6.7 L   6.829 -73.189127.3  RSN 14 0.5 2.6LRSN                1
 GAP=132        1.08       3.3     5.8 11.1  0.4390E-03  0.3525E+02  0.6178E+01E
 Epicentro: ZAPATOCA - SANTANDER                                               3
 ACTION:UP  11-06-16 14:32 OP:jfem STATUS:               ID:20110307094006 L   I
 2011-03-07-0937-23S.COL___135                                                 6
 STAT SP IPHASW D HRMM SECON CODA AMPLIT PERI AZIMU VELO SNR AR TRES W  DIS CAZ7
 BAR2 SZ EP   1    940 24.63                             168     0.5 8   26 179 
 BAR2 SZ I         940 40.80       115.3 0.08                            26 179 
 RUS  HZ EP        940 28.73                             138    -0.210  104 174 
 RUS  HN ES   1    940 46.21                             138    -0.1 7  104 174 
 RUS  HZ I         940 49.33        35.5 0.23                           104 174 
 GRA  SZ IP        940 30.52                             133     0.310  124  20 
 GRA  SZ ES   1    940 47.89                             133    -0.7 7  124  20 
 GRA  SZ I         940 52.11        58.9 0.41                           124  20 
 OCA  SZ EP        940 32.93                             126    -0.3 9  157 355 
 OCA  SZ ES   1    940 54.68                             126     0.7 7  157 355 
 OCA  SZ I         940 57.96        74.2 0.44                           157 355 
 YOP  SZ EP        940 35.53                             121    -0.5 9  184 152 
 YOP  SN ES   1    940 59.59                             121     0.7 7  184 152 
 YOP  SZ I         941  2.37        30.8 0.19                           184 152 
 CHI  HZ EP   1    940 43.04                             113    -0.6 6  251 194 
 CHI  HE ES   1    941 12.10                             113    -0.4 6  251 194 
 CHI  HZ I         941 15.73        15.2 0.19                           251 194 
 ROSC BZ EP   3    940 44.86                             112     1.0 2  253 210 
 ROSC BN ES   3    941 13.91                             112     1.0 2  253 210 
 ROSC BZ I         941 21.80        37.2 0.47                           253 210 
 HEL  HZ EP   1    940 45.71                             111     0.1 6  268 255 
 HEL  HN ES   1    941 15.09                             111    -0.8 6  268 255 
 HEL  HZ I         941 23.51        20.1 0.35                           268 255 
 GUY  SZ EP        940 50.13                             109     0.9 7  299 234 
 GUY  SN ES   3    941 23.33                             109     0.8 2  299 234 
 GUY  SZ I         941 31.61        32.2 0.42                           299 234 
 VIL  SE ES   2    941 22.58                             108    -0.5 4  306 191 
 RREF HZ EP   1    940 51.49                             107    -0.4 5  320 228 
 RREF HZ I         941 36.41        25.8 0.24                           320 228 
 RREF HN EPn       944 33.02                                            320 228 
 DBB  SZ EP        940 52.93                             106     0.1 7  334 274 
 DBB  SZ ES   1    941 28.68                             106    -0.2 5  334 274 
 TOL  SZ EP        940 54.41                             106     0.3 7  342 224 
 SDV  BZ EP   4    940 54.28                             105    -2.0 0  362  51 
 PRA  HZ EP   1    940 59.32                             103    -0.3 4  392 209 
 PRA  HN ES   1    941 41.93                             103     0.9 4  392 209 
 PRA  HZ I         941 45.32        59.4 0.14                           392 209 
                                                                                
