 2016 12 7 0700 44.7 L   6.848 -73.117150.0  RSN  5 0.4 1.3LRSN                1
 GAP=244        0.99       8.7     7.2  9.0  0.3816E+02  0.1720E+01 -0.1763E+02E
 Epicentro: LOS SANTOS - SANTANDER                                             3
 ACTION:UPD 17-01-11 20:13 OP:rebc STATUS:               ID:20161207070044 L   I
 OLDACT:REG 16-12-07 12:50 OP:ar   STATUS:               ID:20161207065746     3
 2016-12-07-0658-00M.COL___355                                                 6
 STAT SP IPHASW D HRMM SECON CODA AMPLIT PERI AZIMU VELO AIN AR TRES W  DIS CAZ7
 BAR2 EZ EP        7 1  5.28                             168    0.3010 29.2 194 
 BAR2 EZ ES        7 1 20.42                             168   -0.3610 29.2 194 
 BAR2 EZ I         7 1 20.98         6.0 0.60            167           29.2 194 
 BRR  HZ EP        7 1  5.87                             153   -0.4710 71.7 294 
 BRR  HN ES   2    7 1 24.23                             153    1.01 5 71.7 294 
 RUS  HZ EP        7 1  9.86                             143    0.6110  106 178 
 RUS  HN ES        7 1 28.16                             143   -0.2310  106 178 
 RUS  HZ I         7 1 29.72         1.9 0.38            143            106 178 
 PTB  HZ EP        7 1 12.09                             132   -0.31 9  152 257 
 PTB  HN ES        7 1 34.10                             132    0.10 9  152 257 
 PTB  HZ I         7 1 35.88         1.2 0.14            130            152 257 
 ZAR  HZ EP   4    7 1 19.73                             123    2.20 0  205 290 
 ZAR  HN ES        7 1 43.24                             123    0.11 9  205 290 
 ZAR  HZ I         7 1 48.45         2.9 0.28            122            205 290 
                                                                                
