 2010  7 7 0355 45.4 L   6.797 -73.070138.4  RSN  5 0.3 1.4LRSN                1
 GAP=164        0.65       5.0    10.0  8.8  0.5897E+01 -0.2215E+02 -0.6349E+01E
 Epicentro: LOS SANTOS - SANTANDER                                             3
 ACTION:UPD 10-12-01 15:15 OP:pat  STATUS:               ID:20100707035545 L   I
 2010-07-07-0353-43S.COL___118                                                 6
 STAT SP IPHASW D HRMM SECON CODA AMPLIT PERI AZIMU VELO AIN AR TRES W  DIS CAZ7
 BAR2 SZ EP   1    356  4.29                             169     0.0 7   26 209 
 BAR2 SZ ES   2    356 18.75                             169    -0.2 5   26 209 
 BRR  HZ IP     C  356  6.08                             149    -0.210   79 296 
 BRR  HZ I         356  6.35         8.5 0.18                            79 296 
 BRR  HN ES   2    356 23.05                             149     0.5 5   79 296 
 BTN  SZ EP   1    356  6.54                             148    -0.3 7   81 358 
 BTN  SZ ES   2    356 23.08                             148    -0.4 5   81 358 
 RUS  HZ EP   1    356  8.38                             142    -0.1 7  100 181 
 RUS  HN ES   2    356 26.49                             142     0.1 5  100 181 
 RUS  HZ I         356 29.25         2.5 0.30                           100 181 
 BRI  SZ EP   1    356  9.04                             140     0.6 7  106  17 
                                                                                
