 2012  8 7 0222 53.8 L   6.738 -73.174146.2  RSN  5 0.3 1.2LRSN                1
 GAP=136        0.60       4.5     4.4  6.9  0.8514E+00  0.8244E+01  0.5846E+01E
 Epicentro: VILLANUEVA - SANTANDER                                             3
 ACTION:UPD 12-09-10 11:54 OP:ep   STATUS:               ID:20120807022253 L   I
 2012-08-07-0220-00M.COL___216                                                 6
 STAT SP IPHASW D HRMM SECON CODA AMPLIT PERI AZIMU VELO AIN AR TRES W  DIS CAZ7
 BAR2 SZ EP   1    223 13.48                             173    0.11 7 16.2 183 
 BAR2 SZ I         223 14.16         4.3 0.28                          16.2 183 
 BRR  HZ EP        223 15.38                             152    0.3210 72.1 304 
 BRR  HZ I         223 16.02         7.2 0.13                          72.1 304 
 BRR  HN ES   1    223 31.82                             152    0.19 7 72.1 304 
 PAM  SE ES   1    223 33.91                             149   -0.33 7 84.7  38 
 RUS  HZ EP   1    223 16.82                             146   -0.33 7 94.0 174 
 RUS  HN ES   1    223 35.57                             146    0.22 7 94.0 174 
 RUS  HZ I         223 37.52         1.4 0.37                          94.0 174 
 PTB  HZ EP        223 20.36                             133   -0.07 9  143 261 
 PTB  HN ES   1    223 40.81                             133   -0.38 7  143 261 
 PTB  HZ I         223 46.83         1.7 0.22                           143 261 
                                                                                
