 2017  2 7 0341 26.3 L   6.790 -73.158149.7  RSN  9 0.4 1.9LRSN                1
 GAP=218        1.06       5.2     5.0  6.6  0.9479E+01  0.6883E+01  0.1100E+02E
 Epicentro: LOS SANTOS - SANTANDER                                             3
 ACTION:UPD 17-05-24 15:33 OP:jn   STATUS:               ID:20170207034126 L   I
 OLDACT:UP  17-02-07 16:17 OP:edw  STATUS:               ID:20170207033730d    3
 OLDACT:UP  17-02-07 16:09 OP:edw  STATUS:               ID:20170207033730d    3
 OLDACT:DUP 17-02-07 16:05 OP:edw  STATUS:               ID:20170207033730d    3
 OLDACT:UP  17-02-07 16:05 OP:edw  STATUS:               ID:20170207033729d    3
 OLDACT:UP  17-02-07 16:04 OP:edw  STATUS:               ID:20170207033729d    3
 OLDACT:DUP 17-02-07 16:00 OP:edw  STATUS:               ID:20170207033729d    3
 OLDACT:UP  17-02-07 15:59 OP:edw  STATUS:               ID:20170207033728d    3
 OLDACT:DUP 17-02-07 15:56 OP:edw  STATUS:               ID:20170207033728d    3
 OLDACT:UP  17-02-07 15:54 OP:edw  STATUS:               ID:20170207033727     3
 OLDACT:REG 17-02-07 12:32 OP:edw  STATUS:               ID:20170207033727     3
 2017-02-07-0338-00M.COL___331                                                 6
 STAT SP IPHASW D HRMM SECON CODA AMPLIT PERI AZIMU VELO AIN AR TRES W  DIS CAZ7
 BAR2 EZ EP        341 46.27                             171   -0.1210 22.0 187 
 BAR2 EZ ES        342  1.99                             171   -0.0610 22.0 187 
 BAR2 EZ I         342  2.51        27.5 0.28            167           22.0 187 
 BRR  HZ IP     D  341 48.06                             153    0.2110 70.5 300 
 BRR  HE ES        342  5.36                             153    0.7110 70.5 300 
 BRR  HZ I         342  9.09        14.2 0.38            150           70.5 300 
 RUS  HZ EP        341 50.25                             145   -0.1310 99.5 175 
 RUS  HN ES        342  9.10                             145   -0.0510 99.5 175 
 RUS  HZ I         342  9.90         9.7 0.30            145           99.5 175 
 PTB  HZ EP        341 53.54                             133    0.08 9  146 259 
 PTB  HN ES        342 14.03                             133   -0.60 9  146 259 
 PTB  HZ I         342 19.58         6.1 0.24            131            146 259 
 ZAR  HZ EP   4    342  0.70                             123    1.77 0  203 293 
 ZAR  HN ES        342 23.53                             123   -0.84 9  203 293 
 ZAR  HZ I         342 31.03         9.5 0.36            123            203 293 
 NOR  HZ EP        342  2.67                             120    0.59 8  233 234 
 NOR  HE ES        342 29.84                             120   -0.13 8  233 234 
 NOR  HZ I         342 39.62         3.6 0.26            119            233 234 
 CHI  HZ EP        342  4.61                             118    0.54 8  247 195 
 CHI  HN ES        342 33.60                             118    0.08 8  247 195 
 CHI  HZ I         342 37.28         4.7 0.54            118            247 195 
 PTGC HZ EP        342  9.47                             112   -0.81 7  308 158 
 PTGC HN ES   4    342 43.15                             112   -1.43 0  308 158 
 CBOC HZ EP   4    342 14.84                             111    1.64 0  332 252 
 CBOC HN ES        342 50.21                             111    0.44 7  332 252 
 SJC  HZ EP   4    342 20.39                             106   -1.64 0  409 327 
 SJC  HN ES   4    343  2.14                             106   -3.34 0  409 327 
                                                                                
