 2013  8 7 0329 37.7 L   6.809 -73.141149.9  RSN 10 0.4 1.9LRSN                1
 GAP=137        0.98       3.4     4.8  6.5  0.1492E+00  0.1024E+02  0.1153E+01E
 Epicentro: LOS SANTOS - SANTANDER                                             3
 ACTION:UPD 14-01-14 08:59 OP:ep   STATUS:               ID:20130807032937 L   I
 OLDACT:REG 13-08-07 10:59 OP:carl STATUS:               ID:20130807032750     3
 2013-08-07-0327-50M.COL___229                                                 6
 STAT SP IPHASW D HRMM SECON CODA AMPLIT PERI AZIMU VELO AIN AR TRES W  DIS CAZ7
 BAR2 SZ EP        329 57.94                             170    0.1110 24.4 191 
 BAR2 SZ ES   1    330 13.04                             170   -0.50 7 24.4 191 
 BAR2 SZ I         330 14.37        30.2 0.18            170           24.4 191 
 GIR2 SZ EP   1    329 57.70                             168   -0.12 7 30.3 349 
 GIR2 SZ ES   1    330 14.30                             168    0.77 7 30.3 349 
 GIR2 SZ I         330 15.22        10.3 0.40            167           30.3 349 
 BRR  HZ EP        329 59.77                             153    0.5010 71.1 298 
 BRR  HN ES   1    330 16.88                             153    0.76 7 71.1 298 
 BRR  HZ I         330 18.01        10.1 0.32            151           71.1 298 
 PAM  SZ EP   1    330  0.92                             152    0.65 7 76.3  40 
 PAM  SN ES        330 17.84                             152   -0.0510 76.3  40 
 PAM  SZ I         330 20.04         6.3 0.44            155           76.3  40 
 RUS  HZ IP     C  330  1.76                             144   -0.1510  102 176 
 RUS  HN ES   1    330 20.25                             144   -0.56 7  102 176 
 RUS  HZ I         330 21.65         4.5 0.26            146            102 176 
 PTB  HZ EP        330  4.85                             133   -0.20 9  148 258 
 PTB  HN ES   1    330 25.89                             133   -0.50 7  148 258 
 PTB  HZ I         330 27.99         7.9 0.38            133            148 258 
 OCA  HN ES        330 27.68                             131   -0.81 9  159 353 
 OCA  HN I         330 30.90        26.6 0.20            132            159 353 
 SPBC HZ EP        330  6.86                             130    0.26 9  164 219 
 SPBC HN ES   1    330 29.01                             130   -0.15 7  164 219 
 SPBC HZ I         330 34.52        12.0 0.12            131            164 219 
 ZAR  HZ EP   1    330 10.66                             123    0.26 6  204 292 
 ZAR  HN ES        330 36.12                             123    0.19 9  204 292 
 ZAR  HZ I         330 42.25        10.0 0.30            124            204 292 
 SML  HZ EP   1    330 14.35                             118   -0.11 6  243 335 
 SML  HN ES        330 42.76                             118   -0.39 8  243 335 
 SML  HZ I         330 46.14         8.0 0.10            119            243 335 
                                                                                
