 2013  9 7 0928 12.6 L   6.951 -73.535 13.5  RSN  4 0.4 1.2LRSN                1
 GAP=251        0.78       3.7     6.4  4.9  0.2572E+01 -0.5592E+01  0.8951E+01E
 Epicentro: SAN VICENTE DE CHUCURI - SANTANDER                                 3
 ACTION:UPD 13-10-22 09:20 OP:ep   STATUS:               ID:20130907092812 L   I
 OLDACT:UP  13-09-07 13:05 OP:cam  STATUS:               ID:20130907091960d    3
 OLDACT:DUP 13-09-07 13:01 OP:cam  STATUS:               ID:20130907091960d    3
 2013-09-07-0919-59M.COL___269                                                 6
 STAT SP IPHASW D HRMM SECON CODA AMPLIT PERI AZIMU VELO AIN AR TRES W  DIS CAZ7
 BRR  HZ EP        928 17.03                             112   -0.4410 26.0 312 
 BRR  HN ES   1    928 21.95                             112    0.71 7 26.0 312 
 BRR  HZ I         928 22.44        13.4 0.14             47           26.0 312 
 PTB  HZ EP   4    928 28.43                              95   -1.77 0  112 246 
 PTB  HN ES   1    928 43.66                              95   -0.25 7  112 246 
 PTB  HZ I         928 44.26         9.8 0.40             47            112 246 
 SPBC HZ EP   1    928 36.85                              56    0.24 7  155 203 
 SPBC HN ES   1    928 55.62                              56    0.30 7  155 203 
 SPBC HZ I         928 58.03         2.5 0.60             47            155 203 
 ZAR  HZ EP        928 36.72                              56   -0.10 9  158 292 
 ZAR  HN ES   1    928 55.68                              56   -0.01 7  158 292 
 ZAR  HZ I         928 57.68         3.8 0.54             47            158 292 
                                                                                
