 2016  9 7 0058 21.6 L   5.949 -73.777113.0  RSN  6 0.4 1.3LRSN                1
 GAP=130        0.92       5.2     4.1  7.5 -0.9920E+01  0.1922E+01 -0.7418E+01E
 Epicentro: SUCRE - SANTANDER                                                  3
 *BBAC-CONO-SOTO                                                               3
 ACTION:UPD 17-08-17 21:07 OP:lp   STATUS:               ID:20160907005821 L   I
 OLDACT:UP  16-09-07 13:52 OP:dani STATUS:               ID:20160907004745d    3
 OLDACT:UP  16-09-07 13:51 OP:dani STATUS:               ID:20160907004745d    3
 OLDACT:DUP 16-09-07 13:48 OP:dani STATUS:               ID:20160907004745d    3
 OLDACT:REG 16-09-07 12:09 OP:dani STATUS:               ID:20160907004743     3
 2016-09-07-0048-00M.COL___364                                                 6
 STAT SP IPHASW D HRMM SECON CODA AMPLIT PERI AZIMU VELO AIN AR TRES W  DIS CAZ7
 SPBC HZ EP        058 37.64                             156   -0.2810 46.3 225 
 SPBC HE ES        058 50.41                             156   -0.2710 46.3 225 
 SPBC HZ I         058 51.84        10.0 0.36            159           46.3 225 
 RUS  HZ EP   2    058 40.19                             144   -0.20 5 77.1  95 
 RUS  HN ES   2    058 54.58                             144   -0.50 5 77.1  95 
 RUS  HZ I         058 56.18         1.6 0.24            146           77.1  95 
 BAR2 EZ EP        058 41.74                             137    0.1410 96.9  43 
 BAR2 EZ ES        058 57.74                             137    0.5210 96.9  43 
 BAR2 EZ I         058 58.86         8.1 0.19            138           96.9  43 
 PTB  HZ EP        058 41.00                             135   -0.5210 99.6 311 
 PTB  HE ES        058 56.93                             135   -0.1510 99.6 311 
 PTB  HZ I         058 57.32         2.5 0.10            137           99.6 311 
 NOR  HZ EP        058 44.41                             128    0.2210  128 251 
 NOR  HE ES        059  2.50                             128    0.6610  128 251 
 NOR  HZ I         059  3.39         9.9 0.18            130            128 251 
 BRR  HZ EP        058 44.02                             128   -0.1010  128   3 
 BRR  HN ES   4    059  4.07                             128    2.35 0  128   3 
 BRR  HZ I         059  5.26         3.5 0.13            129            128   3 
                                                                                
