 2014 11 7 0833 43.3 L   6.762 -73.169151.0  RSN  4 0.3 1.4LRSN                1
 GAP=135        0.89       5.9     5.8  8.9  0.7929E+01 -0.1215E+02 -0.9313E+01E
 Epicentro: LOS SANTOS - SANTANDER                                             3
 ACTION:UPD 14-12-19 15:40 OP:nd   STATUS:               ID:20141107083343 L   I
 OLDACT:REG 14-11-07 13:02 OP:cam  STATUS:               ID:20141107082816     3
 2014-11-07-0828-16M.COL___292                                                 6
 STAT SP IPHASW D HRMM SECON CODA AMPLIT PERI AZIMU VELO AIN AR TRES W  DIS CAZ7
 BRR  HZ EP        834  5.05                             153    0.0410 71.1 302 
 BRR  HN ES        834 22.28                             153    0.3410 71.1 302 
 BRR  HN I         834 25.16         8.6 0.22            152           71.1 302 
 PAM  SZ EP        834  5.97                             150   -0.3910 82.3  39 
 RUS  HZ EP        834  7.90                             146    0.6010 96.6 174 
 RUS  HN ES        834 25.74                             146   -0.2710 96.6 174 
 RUS  HZ I         834 27.03         1.6 0.28            148           96.6 174 
 PTB  HZ EP        834 10.29                             134   -0.12 9  144 260 
 PTB  HN ES        834 31.30                             134   -0.25 9  144 260 
 PTB  HN I         834 36.40         4.6 0.32            134            144 260 
                                                                                
