 2017  3 7 0658  1.5 L   6.833 -73.152153.7  RSN 12 0.5 1.6LRSN                1
 GAP=117        1.03       3.7     4.1  5.4  0.1029E+01  0.2603E+01 -0.9298E+00E
 Epicentro: LOS SANTOS - SANTANDER                                             3
 ACTION:UPD 17-05-25 18:37 OP:jn   STATUS:               ID:20170307065801 L   I
 OLDACT:UP  17-03-07 16:06 OP:and  STATUS:               ID:20170307064745     3
 OLDACT:UP  17-03-07 16:06 OP:and  STATUS:               ID:20170307064745     3
 OLDACT:UP  17-03-07 16:06 OP:and  STATUS:               ID:20170307064745     3
 OLDACT:UP  17-03-07 16:05 OP:and  STATUS:               ID:20170307064745     3
 OLDACT:UP  17-03-07 16:05 OP:and  STATUS:               ID:20170307064745     3
 OLDACT:UP  17-03-07 16:04 OP:and  STATUS:               ID:20170307064745     3
 OLDACT:REG 17-03-07 12:07 OP:and  STATUS:               ID:20170307064745     3
 2017-03-07-0648-00M.COL___364                                                 6
 STAT SP IPHASW D HRMM SECON CODA AMPLIT PERI AZIMU VELO AIN AR TRES W  DIS CAZ7
 BAR2 EZ IP     C  658 22.12                             170   -0.0410 26.8 187 
 BAR2 EZ ES        658 37.59                             170   -0.6810 26.8 187 
 BAR2 EZ I         658 38.75         7.5 0.18            166           26.8 187 
 BRR  HZ EP        658 23.91                             154    0.5110 68.9 296 
 BRR  HN ES        658 40.90                             154    0.4310 68.9 296 
 BRR  HZ I         658 44.20        12.6 0.26            152           68.9 296 
 PAM  EZ IP     D  658 25.15                             153    0.7110 75.1  42 
 PAM  EN ES        658 42.02                             153   -0.3110 75.1  42 
 PAM  EZ I         658 44.29         6.4 0.52            157           75.1  42 
 RUS  HZ EP        658 26.35                             144    0.0510  104 176 
 RUS  HN ES        658 45.72                             144    0.0810  104 176 
 RUS  HZ I         658 48.27         4.5 0.34            143            104 176 
 PTB  HZ EP        658 28.99                             134   -0.15 9  148 257 
 PTB  HN ES        658 50.25                             134   -0.44 9  148 257 
 PTB  HZ I         658 50.94         4.5 0.20            132            148 257 
 SPBC HZ EP        658 31.08                             130    0.23 9  166 218 
 SPBC HN ES        658 54.09                             130    0.36 9  166 218 
 SPBC HZ I         658 58.00         5.3 0.17            129            166 218 
 ZAR  HZ EP        658 34.82                             124    0.54 9  202 291 
 ZAR  HN ES        658 59.39                             124   -0.45 9  202 291 
 ZAR  HZ I         659  6.21         4.0 0.30            124            202 291 
 NOR  HZ EP   9    658 39.16                             120    1.29 0  236 234 
 NOR  HN ES        659  7.62                             119    0.09 8  236 234 
 NOR  HZ I         659 15.70         2.4 0.14            119            236 234 
 CHI  HZ EP   2    658 39.81                             118   -0.20 4  252 195 
 CHI  HN ES   2    659 10.25                             118    0.20 4  252 195 
 CHI  HZ I         659 12.16         2.5 0.32            118            252 195 
 HEL  HZ EP   4    658 45.64                             116    3.48 0  272 255 
 HEL  HN ES   4    659 15.48                             116    1.61 0  272 255 
 HEL  HZ I         659 20.94         2.0 0.36            115            272 255 
 PTGC HZ EP        658 45.26                             113   -0.88 7  312 159 
 PTGC HN ES   4    659 18.55                             113   -2.40 0  312 159 
 PTGC HZ I         659 26.32         3.4 0.44            113            312 159 
 SJC  HZ EP        658 56.38                             107   -0.56 6  406 327 
 SJC  HN ES        659 39.60                             107   -0.57 6  406 327 
                                                                                
