 2017  3 7 0459 35.2 L   6.767 -73.096145.8  RSN  7 0.3 1.4LRSN                1
 GAP=125        0.84       4.6     5.3  5.8 -0.9831E+01 -0.9705E+01  0.1157E+02E
 Epicentro: LOS SANTOS - SANTANDER                                             3
 ACTION:UPD 17-05-25 18:37 OP:jn   STATUS:               ID:20170307045935 L   I
 OLDACT:UP  17-03-07 14:32 OP:and  STATUS:               ID:20170307045639     3
 OLDACT:REG 17-03-07 11:55 OP:and  STATUS:               ID:20170307045639     3
 2017-03-07-0457-00M.COL___367                                                 6
 STAT SP IPHASW D HRMM SECON CODA AMPLIT PERI AZIMU VELO AIN AR TRES W  DIS CAZ7
 BAR2 EZ EP        459 54.72                             171   -0.0910 21.5 206 
 BAR2 EZ ES        5 0 10.04                             171   -0.0510 21.5 206 
 BAR2 EZ I         5 0 12.58         7.0 0.28            167           21.5 206 
 PAM  EZ IP     D  459 57.68                             151    0.2710 77.0  35 
 PAM  EN ES        5 0 14.25                             151   -0.4710 77.0  35 
 BRR  HZ EP        459 56.60                             150   -0.1410 77.8 299 
 BRR  HN ES        5 0 13.70                             150    0.1610 77.8 299 
 BRR  HZ I         5 0 16.33         5.5 0.30            148           77.8 299 
 RUS  HZ EP        459 59.20                             145    0.5210 96.7 179 
 RUS  HN ES   2    5 0 17.59                             145    0.60 5 96.7 179 
 RUS  HZ I         5 0 18.66         4.4 0.30            145           96.7 179 
 PTB  HZ EP   9    5 0  1.50                             131   -1.11 0  152 261 
 PTB  HN ES        5 0 22.45                                   -0.42 9  152 261 
 PTB  HZ I         5 0 29.33         1.5 0.17            129            152 261 
 SPBC HZ EP        5 0  3.99                             128    0.21 9  164 221 
 SPBC HN ES        5 0 25.74                             128   -0.31 9  164 221 
 SPBC HZ I         5 0 30.59         3.4 0.20            128            164 221 
 PTGC HZ EP        5 0 17.92                             112   -0.53 7  303 159 
                                                                                
