 2013  2 7 0906 14.2 L   6.782 -73.139141.8  RSN 10 0.5 2.4LRSN                1
 GAP= 72        1.05       4.5     4.2  6.8  0.1185E+01  0.6536E+01  0.8139E+01E
 Epicentro: LOS SANTOS - SANTANDER                                             3
 ACTION:UPD 13-03-12 09:31 OP:ep   STATUS:               ID:20130207090614 L   I
 2013-02-07-0900-00M.COL___241                                                 6
 STAT SP IPHASW D HRMM SECON CODA AMPLIT PERI AZIMU VELO AIN AR TRES W  DIS CAZ7
 BAR2 SZ EP        9 6 33.35                             171    0.0610 21.5 193 
 BAR2 SZ ES        9 6 48.29                             171    0.0910 21.5 193 
 BAR2 SZ I         9 6 50.00        68.3 0.20            172           21.5 193 
 BRR  HZ IP     C  9 6 35.28                             151    0.2910 72.8 300 
 BRR  HN ES   1    9 6 52.15                             151    0.93 7 72.8 300 
 BRR  HN I         9 6 52.88        98.3 0.26            148           72.8 300 
 PAM  SN ES        9 6 52.55                             150   -0.5310 78.5  38 
 PAM  SN I         9 6 55.67        13.8 0.42            150           78.5  38 
 RUS  HZ EP   1    9 6 37.40                             143    0.01 7 98.5 176 
 RUS  HN ES   1    9 6 55.77                             143    0.28 7 98.5 176 
 RUS  HN I         9 6 56.82        23.2 0.22            146           98.5 176 
 PTB  HZ EP   1    9 6 40.05                             131   -0.81 7  148 260 
 PTB  HN ES   1    9 7  1.07                             131   -0.59 7  148 260 
 PTB  HN I         9 7  6.40        39.8 0.50            130            148 260 
 TAM  HZ IP     D  9 6 41.83                             130    0.41 9  154 104 
 TAM  HN ES   2    9 7  2.34                             130   -0.33 5  154 104 
 TAM  HN I         9 7  4.22        21.2 0.30            132            154 104 
 OCA  HN ES   2    9 7  4.56                             128    0.19 5  162 353 
 OCA  HN I         9 7 10.19        62.1 0.22            127            162 353 
 ZAR  HZ EP   1    9 6 45.97                             121   -0.55 6  206 293 
 ZAR  HN ES   1    9 7 11.07                             121   -0.67 6  206 293 
 ZAR  HN I         9 7 18.90        32.3 0.28            120            206 293 
 CHI  HZ EP        9 6 51.60                             116    0.13 8  247 195 
 CHI  HN ES        9 7 19.92                             116   -0.63 8  247 195 
 CHI  HN I         9 7 23.35        13.5 0.44            117            247 195 
 HEL  HZ EP   1    9 6 55.03                             114    0.81 6  272 256 
 HEL  HE ES   1    9 7 26.44                             114    0.99 6  272 256 
 HEL  HE I         9 7 32.94         8.5 0.44            114            272 256 
                                                                                
