 2017  6 7 0814 27.3 L   6.885 -73.138163.1  RSN  6 0.4 1.6LRSN                1
 GAP=246        1.06       5.7     6.7  8.7  0.1280E+02 -0.2162E+01 -0.4079E+01E
 Epicentro: LOS SANTOS - SANTANDER                                             3
 ACTION:UPD 17-09-14 16:50 OP:jn   STATUS:               ID:20170607081427 L   I
 OLDACT:UP  17-06-07 17:06 OP:edw  STATUS:               ID:20170607080734     3
 OLDACT:UP  17-06-07 17:04 OP:edw  STATUS:               ID:20170607080734     3
 OLDACT:UP  17-06-07 17:03 OP:edw  STATUS:               ID:20170607080734     3
 OLDACT:REG 17-06-07 12:18 OP:edw  STATUS:               ID:20170607080734     3
 2017-06-07-0808-00M.COL___356                                                 6
 STAT SP IPHASW D HRMM SECON CODA AMPLIT PERI AZIMU VELO AIN AR TRES W  DIS CAZ7
 BRR  HZ EP        814 50.74                             156    0.5210 68.0 291 
 BRR  HN ES        815  8.43                             156    0.3610 68.0 291 
 RUS  HZ EP        814 53.16                             145   -0.3110  110 177 
 RUS  HN ES        815 13.62                             145   -0.2310  110 177 
 RUS  HZ I         815 14.57         4.4 0.24            145            110 177 
 PTB  HZ EP        814 55.97                             135   -0.05 9  151 255 
 PTB  HN ES        815 17.98                             135   -0.41 9  151 255 
 PTB  HZ I         815 22.97         7.5 0.44            131            151 255 
 SPBC HZ EP        814 58.58                             131    0.64 9  171 217 
 SPBC HN ES        815 21.51                             131   -0.29 9  171 217 
 SPBC HZ I         815 23.87         4.8 0.30            129            171 217 
 ZAR  HZ EP        815  0.03                             126   -0.69 9  201 290 
 ZAR  HE ES        815 26.56                             126   -0.19 9  201 290 
 ZAR  HZ I         815 38.53         2.3 0.66            124            201 290 
 NOR  HZ EP   4    815  6.88                             121    2.10 0  241 233 
 NOR  HN ES        815 34.60                             121    0.62 8  241 233 
 NOR  HZ I         815 41.06         1.8 0.16            120            241 233 
                                                                                
