 2013 10 7 0633 37.9 L   6.794 -73.128146.5  RSN 17 0.5 2.3LRSN                1
 GAP=121        0.88       2.8     3.7  5.1 -0.1822E+00  0.1568E+01  0.2229E+01E
 Epicentro: LOS SANTOS - SANTANDER                                             3
 ACTION:UPD 13-11-25 09:19 OP:ep   STATUS:               ID:20131007063337 L   I
 OLDACT:DUP 13-10-07 12:50 OP:mh   STATUS:               ID:20131007062960d    3
 OLDACT:UP  13-10-07 12:48 OP:mh   STATUS:               ID:20131007062959     3
 OLDACT:REG 13-10-07 09:02 OP:mh   STATUS:               ID:20131007062959     3
 2013-10-07-0629-59M.COL___273                                                 6
 STAT SP IPHASW D HRMM SECON CODA AMPLIT PERI AZIMU VELO AIN AR TRES W  DIS CAZ7
 BAR2 SZ EP   1    633 57.81                             171    0.22 7 23.1 195 
 BAR2 SZ ES   1    634 12.98                             171    0.01 7 23.1 195 
 BAR2 SZ I         634 15.23        59.4 0.24            172           23.1 195 
 BRR  HZ IP     D  633 59.68                             152    0.4610 73.2 298 
 BRR  HN ES        634 16.50                             152    0.6310 73.2 298 
 BRR  HZ I         634 21.19        25.8 0.14            153           73.2 298 
 PAM  SZ EP   1    634  0.58                             151    0.45 7 76.7  38 
 PAM  SZ I         634 20.18        31.9 0.31            149           76.7  38 
 RUS  HZ EP   1    634  1.68                             144    0.04 7 99.8 177 
 RUS  HN ES   1    634 19.64                             144   -0.54 7 99.8 177 
 RUS  HZ I         634 21.28        15.3 0.36            144           99.8 177 
 PTB  HZ EP   1    634  4.68                             132   -0.38 7  150 259 
 PTB  HN ES        634 25.71                             132   -0.56 9  150 259 
 PTB  HZ I         634 31.48        21.5 0.16            133            150 259 
 OCA  HZ EP   1    634  5.80                             130   -0.53 7  161 352 
 OCA  HN ES   1    634 28.10                             130   -0.43 7  161 352 
 OCA  HZ I         634 34.10        25.1 0.30            129            161 352 
 SPBC HZ EP   1    634  6.72                             129    0.22 7  164 220 
 SPBC HN ES   2    634 28.86                             129    0.04 5  164 220 
 SPBC HZ I         634 33.55        28.4 0.20            130            164 220 
 ZAR  HZ EP   1    634 10.32                             122   -0.26 6  206 292 
 ZAR  HN ES   1    634 35.71                             122   -0.38 6  206 292 
 ZAR  HZ I         634 37.60        16.3 0.30            122            206 292 
 NOR  HZ EP   1    634 13.81                             119    0.04 6  236 235 
 NOR  HN ES   1    634 42.04                             119    0.26 6  236 235 
 NOR  HZ I         634 45.12        10.0 0.20            119            236 235 
 SML  HZ EP   1    634 14.95                             117    0.25 6  245 335 
 SML  HN ES   1    634 42.84                             117   -0.58 6  245 335 
 SML  HZ I         634 45.52        41.3 0.10            117            245 335 
 CHI  HZ EP        634 15.82                             117    0.22 8  248 196 
 CHI  HN ES        634 44.99                             117   -0.03 8  248 196 
 CHI  HZ I         634 48.78         7.8 0.58            117            248 196 
 ROSC BZ EP   4    634 16.96                             117    0.88 0  253 211 
 ROSC BN ES   4    634 47.79                             117    1.91 0  253 211 
 HEL  HZ EP   1    634 18.89                             115    0.57 6  274 256 
 HEL  HN ES        634 49.26                             115   -0.60 8  274 256 
 HEL  HZ I         634 55.47         6.8 0.36            115            274 256 
 GUY2CHZ EP   4    634 22.94                             112    1.29 0  302 235 
 GUY2CHN ES   4    635  0.04                             112    4.24 0  302 235 
 GUY2CHZ I         635  4.18         9.7 0.30                           302 235 
 PTGC HZ EP   1    634 20.58                             112   -1.03 5  307 159 
 CBOC HZ EP        634 25.98                             110    0.97 7  335 252 
 CBOC HN ES        635  1.94                             110    0.17 7  335 252 
 CBOC HZ I         635 10.60         2.9 0.44            110            335 252 
 PRA  HZ EP   1    634 31.32                             107   -0.14 4  392 210 
 PRA  HN ES   2    635 13.86                             107    0.60 3  392 210 
 PRA  HZ I         635 19.16         9.0 0.66            107            392 210 
 ORTC HZ EP   1    634 31.30                             106   -0.59 4  396 216 
 ORTC HN ES   4    635 15.64                             106    1.62 0  396 216 
 ORTC HZ I         635 22.66         5.8 0.30            106            396 216 
 SJC  HZ EP   4    634 31.47                             106   -2.18 0  411 327 
 SJC  HN ES   4    635 13.11                             106   -4.05 0  411 327 
                                                                                
