 2012  4 7 1653 18.5 L   6.770 -73.158138.8  RSN 10 0.5 2.3LRSN                1
 GAP=136        1.27       6.9     6.9  9.8 -0.5193E+00  0.2562E+02  0.9789E+01E
 Epicentro: LOS SANTOS - SANTANDER                                             3
 ACTION:UPD 12-07-05 11:51 OP:tino STATUS:               ID:20120407165318 L   I
 2012-04-07-1650-00M.COL___196                                                 6
 STAT SP IPHASW D HRMM SECON CODA AMPLIT PERI AZIMU VELO AIN AR TRES W  DIS CAZ7
 BAR2 SZ IP       1653 37.34                             171     0.110   20 188 
 BAR2 SZ ES   2   1653 51.67                             171    -0.2 5   20 188 
 BAR2 SZ I        1653 53.21        73.3 0.22                            20 188 
 BRR  HZ IP     D 1653 39.19                             151     0.210   72 301 
 BRR  HN ES   1   1653 55.92                             151     1.0 7   72 301 
 BRR  HZ I        1654  0.05        56.7 0.14                            72 301 
 PAM  SZ EP       1653 40.12                             148    -0.110   81  39 
 PAM  SN ES   1   1653 56.69                             148    -0.5 7   81  39 
 RUS  HZ EP       1653 41.27                             143    -0.110   97 175 
 RUS  HN ES   1   1653 59.55                             143     0.4 7   97 175 
 RUS  HZ I        1654  0.81        32.1 0.30                            97 175 
 PTB  HZ EP       1653 44.02                             131    -0.7 9  146 260 
 PTB  HN ES   1   1654  4.04                             131    -1.2 7  146 260 
 PTB  HZ I        1654 12.21        19.8 0.48                           146 260 
 ZAR  HZ EP   2   1653 50.62                             121     0.1 4  204 293 
 ZAR  HN ES   2   1654 15.54                             121     0.0 4  204 293 
 ZAR  HZ I        1654 21.00        33.0 0.24                           204 293 
 NOR  SZ EP       1653 53.70                             117     0.2 8  232 235 
 CHI  HZ EP   3   1653 54.88                             116    -0.6 2  245 195 
 CHI  HN ES   2   1654 24.30                             116     0.0 4  245 195 
 CHI  HZ I        1654 27.87         8.9 0.42                           245 195 
 HEL  HZ EP       1653 59.14                             113     1.0 8  270 256 
 HEL  HZ I        1654 35.03        10.3 0.54                           270 256 
 DBB  SZ EP       1654  5.59                             108     0.0 7  338 275 
                                                                                
