 2011  7 7 1214 37.8 L   6.761 -73.116148.0  RSN  4 0.3 1.4LRSN                1
 GAP=192        0.46      11.1    17.1 10.7  0.1604E+03 -0.1190E+03 -0.6977E+02E
 Epicentro: LOS SANTOS - SANTANDER                                             3
 ACTION:UPD 12-07-25 13:59 OP:epov STATUS:               ID:20110707121437 L   I
 2011-07-07-1209-56S.COL___139                                                 6
 STAT SP IPHASW D HRMM SECON CODA AMPLIT PERI AZIMU VELO AIN AR TRES W  DIS CAZ7
 BAR2 SZ EP   1   1214 57.37                             172   -0.25 7 20.0 202 
 BAR2 SZ ES   2   1215 12.89                             172   -0.20 5 20.0 202 
 BAR2 SZ I        1215 14.20         4.0 0.37                          20.0 202 
 GIR2 SZ EP   2   1214 58.36                             166    0.50 5 36.2 346 
 BRR  HZ EP   2   1214 59.37                             151   -0.09 5 76.2 300 
 BRR  HZ I        1214 59.63        11.9 0.23                          76.2 300 
 BRR  HE ES   1   1215 16.40                             151    0.04 7 76.2 300 
 RUS  HN ES   2   1215 20.14                             146    0.26 5 96.1 178 
 RUS  HZ I        1215 20.98         2.1 0.50                          96.1 178 
                                                                                
