 2017  4 7 1724 34.3 L   6.773 -73.059142.2  RSN  4 0.2 1.5LRSN                1
 GAP=149        0.50       2.6     3.6  4.3  0.5607E+00  0.3459E+01  0.4462E+00E
 Epicentro: LOS SANTOS - SANTANDER                                             3
 ACTION:UPD 17-05-30 21:09 OP:jn   STATUS:               ID:20170407172434 L   I
 OLDACT:UP  17-04-07 22:29 OP:edw  STATUS:               ID:20170407171438d    3
 OLDACT:UP  17-04-07 22:27 OP:edw  STATUS:               ID:20170407171438d    3
 OLDACT:UP  17-04-07 22:27 OP:edw  STATUS:               ID:20170407171438d    3
 OLDACT:DUP 17-04-07 22:24 OP:edw  STATUS:               ID:20170407171438d    3
 2017-04-07-1718-00M.COL___373                                                 6
 STAT SP IPHASW D HRMM SECON CODA AMPLIT PERI AZIMU VELO AIN AR TRES W  DIS CAZ7
 PAM  EZ EP       1724 56.19                             151    0.2710 74.2  32 
 PAM  EN ES       1725 12.64                             151   -0.1610 74.2  32 
 PAM  EZ I        1725 16.57         4.2 0.34            156           74.2  32 
 BRR  HZ EP       1724 55.64                             149    0.0110 81.1 297 
 BRR  HN ES       1725 12.30                             149    0.0110 81.1 297 
 BRR  HZ I        1725 21.09        18.8 0.42            146           81.1 297 
 RUS  HZ EP       1724 57.18                             144   -0.2610 97.4 182 
 RUS  HN ES       1725 15.66                             144    0.1510 97.4 182 
 RUS  HZ I        1725 17.14         3.5 0.40            150           97.4 182 
 ZAR  HZ EP       1725  7.52                             120   -0.01 8  214 292 
 ZAR  HN ES   4   1725 30.33                             120   -3.15 0  214 292 
 ZAR  HZ I        1725 39.29         2.5 0.26            123            214 292 
                                                                                
