 2016  7 7 1722 43.5 L   6.839 -73.095144.6  RSN  7 0.5 1.8LRSN                1
 GAP=282        1.12       8.2     7.0  8.9 -0.9949E+00  0.1833E+02  0.9700E+01E
 Epicentro: LOS SANTOS - SANTANDER                                             3
 ACTION:UPD 17-03-29 16:48 OP:lp   STATUS:               ID:20160707172243 L   I
 OLDACT:DUP 16-07-08 01:25 OP:edw  STATUS:               ID:20160707171744d    3
 2016-07-07-1717-43M.COL___331                                                 6
 STAT SP IPHASW D HRMM SECON CODA AMPLIT PERI AZIMU VELO AIN AR TRES W  DIS CAZ7
 BAR2 EZ EP       1723  2.97                             168   -0.2010 29.0 200 
 BAR2 EZ ES       1723 18.92                             168    0.4510 29.0 200 
 BAR2 EZ I        1723 19.05        13.3 0.44            169           29.0 200 
 RUS  HZ EP       1723  7.80                             143    0.3110  105 179 
 RUS  HE ES       1723 25.64                             143   -0.5210  105 179 
 RUS  HZ I        1723 26.64         7.8 0.36            146            105 179 
 PTB  HN ES       1723 32.66                             130    0.23 9  154 258 
 SPBC HZ EP       1723 12.33                             128   -0.29 9  170 220 
 SPBC HE ES       1723 34.54                             128   -0.76 9  170 220 
 SPBC HZ I        1723 37.93         9.0 0.26            128            170 220 
 ZAR  HZ EP   4   1723  5.26                             122   -11.0 0  208 290 
 ZAR  HE ES   4   1723 42.72                             122    0.87 0  208 290 
 ZAR  HZ I        1723 49.60         6.9 0.11            120            208 290 
 CHI  HN ES       1723 52.60                             116    0.96 8  254 196 
 GUY2CHZ EP       1723 27.85                             112   -0.06 7  308 235 
 GUY2CHE ES       1724  2.63                             112    0.12 7  308 235 
 GUY2CHZ I        1724  9.77         3.4 0.32                           308 235 
                                                                                
