 2011 12 7 1626 25.1 L   6.498 -73.377122.6  RSN  9 0.3 2.1LRSN                1
 GAP= 90        0.66       2.9     4.0  5.3 -0.2826E+01  0.7984E+01  0.3756E+01E
 Epicentro: SIMACOTA - SANTANDER                                               3
 ACTION:UPD 12-07-13 16:14 OP:ep   STATUS:               ID:20111207162625 L   I
 2011-12-07-1620-00M.COL___182                                                 6
 STAT SP IPHASW D HRMM SECON CODA AMPLIT PERI AZIMU VELO AIN AR TRES W  DIS CAZ7
 BAR2 SZ EP       1626 41.83                             168   -0.1110 24.0  64 
 BAR2 SZ ES   1   1626 55.09                             168   -0.01 7 24.0  64 
 BAR2 SZ I        1626 56.57        45.1 0.30                          24.0  64 
 GIR2 SZ EP       1626 43.59                             149   -0.1410 67.4  18 
 GIR2 SZ ES   1   1626 58.43                             149    0.14 7 67.4  18 
 RUS  HZ EP       1626 44.69                             147    0.0010 74.4 154 
 RUS  HN ES   1   1626 59.86                             147   -0.13 7 74.4 154 
 RUS  HZ I        1627  1.41        20.2 0.20                          74.4 154 
 BRR  HZ EP   1   1626 44.02                             146   -0.13 7 76.9 331 
 BRR  HE ES   1   1626 59.22                             146    0.19 7 76.9 331 
 BRR  HZ I        1627  0.65        52.0 0.17                          76.9 331 
 PAM  SZ EP   1   1626 48.11                             133   -0.12 7  119  39 
 PAM  SN ES   1   1627  6.54                             133    0.24 7  119  39 
 NOR  SZ EP   1   1626 54.57                             118   -0.61 6  195 238 
 NOR  SN ES   1   1627 18.27                             118   -0.40 6  195 238 
 CHI  HZ EP   1   1626 57.07                             116   -0.26 6  210 191 
 CHI  HN ES   1   1627 23.04                             116    0.56 6  210 191 
 CHI  HZ I        1627 28.40         6.8 0.54                           210 191 
 HEL  HZ EP   1   1627  1.00                             113    0.38 6  240 262 
 HEL  HZ I        1627 33.58         7.8 0.25                           240 262 
 RREF HZ EP   1   1627  6.59                             109    1.05 6  281 231 
 RREF HZ I        1627 46.46         7.9 0.34                           281 231 
                                                                                
