 2012  2 7 1013 38.7 L   6.536 -73.199166.4  RSN  6 0.4 2.3LRSN                1
 GAP=153        0.84       7.1     6.8  7.6  0.1906E+02  0.1554E+02  0.4680E+01E
 ACTION:DUP 12-03-07 16:28 OP:epov STATUS:               ID:20120207101339dL   I
 2012-02-07-1010-00M.COL___187                                                 6
 STAT SP IPHASW D HRMM SECON CODA AMPLIT PERI AZIMU VELO AIN AR TRES W  DIS CAZ7
 BAR2 SZ EP   1   1014  0.28                             178   -0.35 7 6.47  17 
 BAR2 SZ ES   1   1014 17.19                             178   -0.54 7 6.47  17 
 BAR2 SZ I        1014 19.01        33.0 0.37                          6.47  17 
 RUS  HZ EP   1   1014  3.08                             156    0.19 7 72.3 170 
 RUS  HN ES   1   1014 21.73                             156   -0.03 7 72.3 170 
 RUS  HZ I        1014 23.92        24.0 0.39                          72.3 170 
 BRR  HZ EP   1   1014  3.24                             152    0.38 7 84.9 318 
 BRR  HZ I        1014  3.73        38.5 0.17                          84.9 318 
 BRR  HN ES   1   1014 22.61                             152    0.92 7 84.9 318 
 PTB  HZ EP   1   1014  6.47                             138   -0.24 7  139 270 
 PTB  HN ES   1   1014 28.47                             138   -0.07 7  139 270 
 ZAR  HZ EP   1   1014 13.15                             126   -0.17 6  212 300 
 ZAR  HN ES   1   1014 39.59                             126   -0.73 6  212 300 
 ZAR  HZ I        1014 47.55        15.1 0.33                           212 300 
 NOR  SZ EP   1   1014 13.95                             125    0.34 6  214 240 
 NOR  SN ES   2   1014 41.13                             125    0.30 4  214 240 
                                                                                
