 2016 12 7 1050 48.7 L   6.802 -73.169144.0  RSN 23 0.4 2.7LRSN                1
 GAP= 70        1.04       2.9     2.9  4.6 -0.6975E+00  0.3530E+01  0.8244E+00E
 Epicentro: LOS SANTOS - SANTANDER                                             3
 ACTION:UPD 17-01-11 20:13 OP:rebc STATUS:               ID:20161207105048 L   I
 OLDACT:UP  16-12-07 21:43 OP:dnl  STATUS:               ID:20161207104742     3
 OLDACT:UP  16-12-07 21:42 OP:dnl  STATUS:               ID:20161207104742     3
 OLDACT:UP  16-12-07 21:41 OP:dnl  STATUS:               ID:20161207104742     3
 OLDACT:REG 16-12-07 20:59 OP:dnl  STATUS:               ID:20161207104742     3
 2016-12-07-1048-00M.COL___358                                                 6
 STAT SP IPHASW D HRMM SECON CODA AMPLIT PERI AZIMU VELO AIN AR TRES W  DIS CAZ7
 BAR2 EZ IP     C 1051  7.95                             170   -0.1710 23.2 184 
 BAR2 EZ ES       1051 23.31                             170    0.0510 23.2 184 
 BAR2 EZ I        1051 23.93       144.3 0.28            167           23.2 184 
 BRR  HZ IP     C 1051  9.72                             153    0.2010 68.8 299 
 BRR  HN ES       1051 26.62                             153    0.8510 68.8 299 
 BRR  HZ I        1051 30.49        99.1 0.18            152           68.8 299 
 PAM  EZ EP       1051 10.73                             150   -0.0910 78.9  41 
 PAM  EE ES       1051 27.82                             150   -0.2610 78.9  41 
 PAM  EZ I        1051 30.87        49.6 0.32            156           78.9  41 
 RUS  HZ EP       1051 11.99                             143   -0.3210  101 175 
 RUS  HE ES       1051 30.50                             143   -0.2310  101 175 
 RUS  HZ I        1051 32.99        71.3 0.36            142            101 175 
 PTB  HZ EP     C 1051 14.35                             132   -0.94 9  145 259 
 PTB  HE ES       1051 36.26                             132    0.22 9  145 259 
 PTB  HZ I        1051 37.79        68.9 0.40            131            145 259 
 TAM  HZ EP       1051 16.43                             130   -0.05 9  158 105 
 TAM  HN ES       1051 38.06                             130   -0.09 9  158 105 
 TAM  HZ I        1051 38.88        20.4 0.44            133            158 105 
 ZAR  HZ EP       1051 20.50                             122   -0.27 9  202 292 
 ZAR  HE ES       1051 45.31                             122   -0.48 9  202 292 
 ZAR  HZ I        1051 51.27       109.9 0.34            123            202 292 
 NOR  HZ EP       1051 24.05                             118   -0.06 8  233 234 
 NOR  HN ES       1051 52.09                             118    0.36 8  233 234 
 NOR  HZ I        1051 55.70        44.4 0.56            118            233 234 
 CHI  HZ EP       1051 26.37                             117    0.12 8  248 195 
 CHI  HE ES       1051 56.19                             117    0.65 8  248 195 
 CHI  HZ I        1052  2.56        29.8 0.38            117            248 195 
 ROSC BZ EP   9   1051 28.19                             116    1.59 0  252 210 
 ROSC BE ES       1051 58.68                             116    0.93 8  252 210 
 ROSC BZ I        1052  4.47        57.1 0.50            116            252 210 
 URE  HZ EP   4   1051 27.90                             113   -1.50 0  281 292 
 URE  HE ES   4   1051 58.53                             113   -2.62 0  281 292 
 URE  HZ I        1052  8.27        58.0 0.20            114            281 292 
 LL1C HZ EP       1051 32.94                             111    0.79 7  306 352 
 LL1C HN ES   4   1052  7.23                             111    1.19 0  306 352 
 PTGC HZ EP   4   1051 31.33                             111   -1.28 0  310 158 
 PTGC HE ES   4   1052  4.52                             111   -2.34 0  310 158 
 PTGC HZ I        1052 11.08        21.6 0.22            112            310 158 
 LL6C HZ EP   4   1051 13.75                             110   -20.5 0  325 358 
 LL6C HE ES   4   1051 46.60                             110   -23.2 0  325 358 
 LL6C HZ I        1051 59.04        10.1 0.46            112            325 358 
 ELA  HZ EP   4   1051 37.22                             110    1.96 0  327 229 
 ELA  HE ES   4   1052 15.74                             110    4.16 0  327 229 
 ELA  HZ I        1052 19.09        19.2 0.40            110            327 229 
 CBOC HZ EP       1051 36.39                             110    1.13 7  331 252 
 CBOC HN ES       1052 10.91                             110   -0.67 7  331 252 
 CBOC HZ I        1052 21.84         9.4 0.54            110            331 252 
 ANIL HZ EP       1051 38.60                             108    0.36 6  356 224 
 ANIL HN ES   4   1052 19.22                             108    2.34 0  356 224 
 ANIL HZ I        1052 20.50        56.6 0.32            109            356 224 
 ARGC HZ EP       1051 38.16                             108   -0.00 6  358 341 
 ARGC HE ES       1052 16.84                             108    0.10 6  358 341 
 ARGC HZ I        1052 22.43        11.7 0.32            109            358 341 
 PRA  HZ EP       1051 42.05                             106    0.02 6  391 209 
 PRA  HN ES       1052 23.15                             106   -0.48 6  391 209 
 PRA  HZ I        1052 28.53        33.9 0.44            107            391 209 
 ORTC HZ EP       1051 42.48                             106    0.08 6  394 216 
 ORTC HN ES   4   1052 25.85                             106    1.57 0  394 216 
 ORTC HZ I        1052 30.71        20.2 0.34            106            394 216 
 PAL  HZ EP       1051 43.71                             106    0.16 6  404 239 
 PAL  HN ES       1052 25.95                             106   -0.38 6  404 239 
 PAL  HZ I        1052 32.22         8.6 0.52            106            404 239 
 SJC  HZ EP   4   1051 41.62                             105   -2.39 0  408 327 
 SJC  HN ES   4   1052 24.40                             105   -2.76 0  408 327 
 SJC  HZ I        1052 29.13         7.7 0.26            107            408 327 
 CRJC HZ EP   4   1051 47.71                             103   -3.43 0  468   4 
 CRJC HN ES   4   1052 35.35                             103   -4.50 0  468   4 
 CRJC HZ I        1052 40.05        28.1 0.84            104            468   4 
                                                                                
