 2015 10 7 1335  8.0 L   6.796 -73.145148.9  RSN 14 0.4 2.4LRSN                1
 GAP=137        0.90       2.5     3.5  4.8 -0.1375E+01  0.6778E+01  0.3450E+00E
 Epicentro: LOS SANTOS - SANTANDER                                             3
 ACTION:UPD 15-12-22 20:38 OP:cam  STATUS:               ID:20151007133508 L   I
 OLDACT:REG 15-10-07 21:06 OP:ak   STATUS:               ID:20151007132748     3
 2015-10-07-1327-48M.COL___325                                                 6
 STAT SP IPHASW D HRMM SECON CODA AMPLIT PERI AZIMU VELO AIN AR TRES W  DIS CAZ7
 BAR2 EZ IP     D 1335 28.06                             171    0.0810 22.9 190 
 BAR2 EZ ES       1335 43.53                             171   -0.0510 22.9 190 
 BAR2 EZ I        1335 45.64        36.4 0.27            169           22.9 190 
 BRR  HZ IP     C 1335 30.01                             153    0.5210 71.5 299 
 BRR  HN ES       1335 46.77                             153    0.5110 71.5 299 
 BRR  HZ I        1335 48.42        55.8 0.05            150           71.5 299 
 PAM  EZ EP       1335 30.83                             151    0.2810 77.7  39 
 PAM  EN ES       1335 48.27                             151    0.1110 77.7  39 
 PAM  EZ I        1335 50.34        40.5 0.56            156           77.7  39 
 RUS  HZ EP       1335 31.92                             145   -0.0910  100 176 
 RUS  HE ES       1335 50.16                             145   -0.5910  100 176 
 RUS  HZ I        1335 52.37        20.7 0.40            146            100 176 
 SPBC HZ EP       1335 36.92                             130    0.23 9  163 219 
 SPBC HN ES       1335 58.63                             130   -0.46 9  163 219 
 SPBC HZ I        1336  6.20        47.2 0.24            130            163 219 
 ZAR  HZ EP       1335 40.58                             123   -0.08 9  204 292 
 ZAR  HN ES       1336  5.93                             123   -0.22 9  204 292 
 ZAR  HZ I        1336 12.02        21.4 0.40            123            204 292 
 NOR  HZ EP       1335 43.79                             119   -0.08 8  234 235 
 NOR  HE ES       1336 11.79                             119   -0.08 8  234 235 
 NOR  HZ I        1336 15.38        17.0 0.16            120            234 235 
 SML  HZ EP       1335 44.36                             118   -0.47 8  244 335 
 SML  HN ES       1336 12.92                             118   -0.66 8  244 335 
 SML  HZ I        1336 16.03        25.4 0.11            120            244 335 
 CHI  HZ EP       1335 45.89                             118    0.08 8  248 195 
 CHI  HN ES       1336 15.37                             118    0.06 8  248 195 
 CHI  HZ I        1336 19.49         6.3 0.36            119            248 195 
 HEL  HZ EP   1   1335 48.94                             115    0.59 6  272 256 
 HEL  HN ES       1336 20.18                             115    0.34 8  272 256 
 HEL  HZ I        1336 26.88        12.5 0.30            116            272 256 
 URE  HZ EP       1335 48.76                             114   -0.47 7  284 292 
 URE  HN ES   4   1336 19.14                             114   -2.27 0  284 292 
 URE  HZ I        1336 30.11        15.4 0.22            115            284 292 
 GUY2CHZ EP   1   1335 52.42                             113    0.71 5  301 235 
 GUY2CHN ES       1336 26.58                             113    0.76 7  301 235 
 GUY2CHZ I        1336 35.12        10.5 0.36                           301 235 
 ELA  HN ES       1336 31.49                             111   -0.07 7  329 230 
 ANIL HZ EP   4   1335 59.67                             109    1.80 0  357 225 
 ANIL HN ES       1336 36.02                             109   -0.77 6  357 225 
 ANIL HZ I        1336 44.83        25.6 0.38            110            357 225 
 CRJC HZ EP   4   1336  8.37                             104   -2.25 0  468   4 
 CRJC HN ES   4   1336 56.24                             104   -3.24 0  468   4 
                                                                                
