 2013 10 7 1347 36.5 L   6.808 -73.150146.8  RSN  9 0.4 2.1LRSN                1
 GAP=201        1.05       3.4     5.3  6.0  0.3920E+01  0.4066E+01 -0.7416E+00E
 Epicentro: LOS SANTOS - SANTANDER                                             3
 ACTION:UPD 13-11-25 09:19 OP:ep   STATUS:               ID:20131007134736 L   I
 OLDACT:REG 13-10-07 15:03 OP:nd   STATUS:               ID:20131007133959     3
 2013-10-07-1339-59M.COL___273                                                 6
 STAT SP IPHASW D HRMM SECON CODA AMPLIT PERI AZIMU VELO AIN AR TRES W  DIS CAZ7
 BAR2 SZ EP       1347 56.28                             170    0.0510 24.1 189 
 BAR2 SZ ES       1348 11.33                             170   -0.3210 24.1 189 
 BAR2 SZ I        1348 12.53        31.0 0.26            169           24.1 189 
 BRR  HZ IP     C 1347 58.19                             153    0.5210 70.4 298 
 BRR  HN ES       1348 15.24                             153    1.0110 70.4 298 
 BRR  HZ I        1348 19.22        15.4 0.36            150           70.4 298 
 RUS  HZ EP       1348  0.29                             144   -0.0910  101 176 
 RUS  HN ES       1348 18.51                             144   -0.5210  101 176 
 RUS  HZ I        1348 20.16         8.8 0.38            146            101 176 
 PTB  HZ EP       1348  3.41                             132   -0.08 9  148 258 
 PTB  HN ES       1348 24.01                             132   -0.56 9  148 258 
 PTB  HZ I        1348 30.18        12.5 0.24            131            148 258 
 SPBC HZ EP       1348  5.17                             129    0.10 9  164 219 
 SPBC HN ES       1348 27.61                             129    0.21 9  164 219 
 SPBC HZ I        1348 32.40        21.0 0.40            130            164 219 
 ZAR  HZ EP       1348  8.52                             123   -0.38 9  203 292 
 ZAR  HN ES       1348 34.24                             123    0.04 9  203 292 
 ZAR  HZ I        1348 39.90        13.9 0.44            123            203 292 
 NOR  HZ EP       1348 12.42                             119    0.16 8  235 234 
 NOR  HN ES       1348 39.85                             119   -0.34 8  235 234 
 NOR  HZ I        1348 44.18         8.3 0.22            119            235 234 
 SML  HZ EP       1348 13.18                             118    0.14 8  243 335 
 SML  HN ES       1348 40.86                             118   -0.71 8  243 335 
 SML  HZ I        1348 47.72        24.7 0.10            119            243 335 
 CHI  HZ EP       1348 14.42                             117    0.13 8  249 195 
 CHI  HN ES       1348 44.27                             117    0.47 8  249 195 
 CHI  HZ I        1348 46.11         5.4 0.46            119            249 195 
 SJC  HZ EP   4   1348 30.48                             106   -1.46 0  408 327 
 SJC  HN ES   4   1349 11.10                             106   -4.11 0  408 327 
                                                                                
