 2013 12 7 1247 43.1 L   6.795 -73.149146.8  RSN 10 0.4 2.0LRSN                1
 GAP=136        0.95       3.2     3.8  5.7 -0.6606E+00  0.5103E+01  0.1999E+01E
 Epicentro: LOS SANTOS - SANTANDER                                             3
 ACTION:UPD 14-01-13 10:16 OP:ep   STATUS:               ID:20131207124743 L   I
 OLDACT:UP  13-12-07 17:05 OP:cam  STATUS:               ID:20131207124000     3
 OLDACT:REG 13-12-07 15:18 OP:cam  STATUS:               ID:20131207124000     3
 2013-12-07-1240-00M.COL___285                                                 6
 STAT SP IPHASW D HRMM SECON CODA AMPLIT PERI AZIMU VELO AIN AR TRES W  DIS CAZ7
 BAR2 SZ EP     C 1248  2.78                             171   -0.0810 22.7 189 
 BAR2 SZ ES       1248 18.03                             171   -0.2310 22.7 189 
 BAR2 SZ I        1248 20.02        24.4 0.24            170           22.7 189 
 BRR  HZ EP       1248  4.58                             153    0.2110 71.1 299 
 BRR  HN ES       1248 21.87                             153    0.9110 71.1 299 
 BRR  HZ I        1248 24.98        17.4 0.24            153           71.1 299 
 PAM  SZ EP       1248  5.69                             151    0.2110 78.1  39 
 PAM  SN ES       1248 22.67                             151   -0.2610 78.1  39 
 PAM  SZ I        1248 25.07        13.7 0.72            155           78.1  39 
 RUS  HZ EP       1248  6.71                             144   -0.2210  100 176 
 RUS  HN ES       1248 25.66                             144    0.1610  100 176 
 RUS  HZ I        1248 26.83         9.8 0.44            146            100 176 
 PTB  HZ EP       1248  9.84                             132   -0.28 9  147 259 
 PTB  HN ES       1248 30.63                             132   -0.56 9  147 259 
 PTB  HZ I        1248 34.22        11.3 0.12            133            147 259 
 SPBC HZ EP   1   1248 11.94                             129    0.31 7  162 219 
 SPBC HN ES       1248 33.46                             129   -0.41 9  162 219 
 SPBC HZ I        1248 36.31        15.0 0.26            131            162 219 
 ZAR  HE ES       1248 40.71                             123   -0.26 9  204 292 
 NOR  HZ EP       1248 19.31                             119    0.48 8  234 235 
 NOR  HN ES       1248 47.15                             119    0.46 8  234 235 
 NOR  HZ I        1248 53.92         7.8 0.20            120            234 235 
 SML  HE ES       1248 48.21                             118   -0.28 8  244 335 
 CHI  HZ EP       1248 20.77                             117   -0.03 8  248 195 
                                                                                
