 2010 11 7 1154 51.6 L   6.791 -73.089141.3  RSN  5 0.2 1.8LRSN                1
 GAP=165        0.46       3.3     6.4  6.2 -0.1728E+01 -0.9014E+01 -0.3873E+01E
 Epicentro: LOS SANTOS - SANTANDER                                             3
 ACTION:UP  10-12-17 16:50 OP:REBC STATUS:               ID:20101107115451 L   I
 2010-11-07-1152-31S.COL___128                                                 6
 STAT SP IPHASW D HRMM SECON CODA AMPLIT PERI AZIMU VELO SNR AR TRES W  DIS CAZ7
 BAR2 SZ EP   1   1155 10.82                             169     0.1 7   24 205 
 BAR2 SZ ES   2   1155 25.27                             169    -0.4 5   24 205 
 BAR2 SZ I        1155 27.49        18.0 0.32                            24 205 
 BRR  HZ EP       1155 12.77                             149     0.110   77 297 
 BRR  HE ES   2   1155 28.93                             149    -0.1 5   77 297 
 BRR  HZ I        1155 30.30        21.6 0.09                            77 297 
 RUS  HZ EP   1   1155 14.86                             143     0.0 7   99 180 
 RUS  HZ I        1155 16.09         4.4 0.16                            99 180 
 RUS  HN ES   2   1155 32.99                             143     0.0 5   99 180 
 GRA  SZ EP       1155 16.18                             136    -0.210  125  15 
 GRA  SZ ES   2   1155 36.12                             136     0.4 5  125  15 
 GRA  SZ I        1155 37.33         7.6 0.29                           125  15 
 PRA  HZ EP   3   1155 45.29                             105     0.0 1  394 210 
                                                                                
