 2016  5 7 1252 52.5 L   6.816 -73.123142.5  RSN 20 0.5 2.6LRSN                1
 GAP=139        1.10       2.8     3.8  5.1 -0.1755E+01  0.5087E+01  0.1700E+01E
 Epicentro: LOS SANTOS - SANTANDER                                             3
 ACTION:UPD 16-08-18 17:43 OP:cam  STATUS:               ID:20160507125252 L   I
 OLDACT:UP  16-05-15 07:31 OP:ar   STATUS:               ID:20160507125252 L   3
 OLDACT:REG 16-05-07 20:16 OP:dnl  STATUS:               ID:20160507124748     3
 2016-05-07-1247-48M.COL___300                                                 6
 STAT SP IPHASW D HRMM SECON CODA AMPLIT PERI AZIMU VELO AIN AR TRES W  DIS CAZ7
 BAR2 EZ EP     D 1253 12.01                             169    0.1810 25.6 195 
 BAR2 EZ ES       1253 26.52                             169   -0.3510 25.6 195 
 BAR2 EZ I        1253 27.67        87.4 0.34            168           25.6 195 
 BRR  HZ EP       1253 13.75                             151    0.3310 72.6 296 
 BRR  HN ES       1253 30.55                             151    0.8410 72.6 296 
 BRR  HZ I        1253 35.82        53.5 0.14            151           72.6 296 
 PAM  EZ EP     D 1253 14.74                             151    0.5110 74.4  39 
 PAM  EN ES       1253 31.36                             151    0.2110 74.4  39 
 PAM  EZ I        1253 33.74       126.7 0.46            154           74.4  39 
 RUS  HZ EP       1253 16.18                             143    0.0910  102 178 
 RUS  HN ES       1253 34.60                             143    0.1410  102 178 
 RUS  HZ I        1253 36.35        61.4 0.28            143            102 178 
 PTB  HZ EP       1253 18.70                             131   -0.81 9  151 258 
 PTB  HE ES       1253 40.03                             131   -0.51 9  151 258 
 PTB  HZ I        1253 42.67        43.3 0.16            131            151 258 
 OCA  HZ EP       1253 19.88                             129   -0.59 9  159 352 
 OCA  HN ES       1253 41.49                             129   -0.76 9  159 352 
 OCA  HZ I        1253 47.07        90.1 0.28            131            159 352 
 SPBC HZ EP       1253 21.04                             128   -0.04 9  166 219 
 SPBC HN ES       1253 42.78                             128   -0.55 9  166 219 
 SPBC HZ I        1253 48.20        62.2 0.12            128            166 219 
 ZAR  HZ EP       1253 24.89                             121   -0.06 8  206 291 
 ZAR  HE ES       1253 50.95                             121    0.72 8  206 291 
 ZAR  HZ I        1253 52.46        36.9 0.12            122            206 291 
 NOR  HZ EP       1253 28.07                             117   -0.35 8  238 234 
 NOR  HN ES       1253 56.58                             117    0.18 8  238 234 
 NOR  HZ I        1254  0.57        31.6 0.16            118            238 234 
 SML  HZ EP   2   1253 28.06                             117   -0.87 4  243 335 
 SML  HN ES       1253 57.10                             117   -0.21 8  243 335 
 SML  HZ I        1254  1.82        39.4 0.24            118            243 335 
 CHI  HZ EP       1253 30.47                             116    0.15 8  251 196 
 CHI  HN ES   2   1253 58.82                             116   -0.97 4  251 196 
 CHI  HZ I        1254  2.98        10.7 0.38            117            251 196 
 ROSC BZ EP   9   1253 32.37                             116    1.58 0  256 211 
 ROSC BE ES       1254  1.86                             116   -0.35 8  256 211 
 ROSC BZ I        1254  5.94        20.2 0.35            116            256 211 
 HEL  HZ EP       1253 33.82                             114    0.91 8  275 256 
 HEL  HE ES       1254  3.63                             114   -0.77 8  275 256 
 HEL  HZ I        1254 11.09        21.9 0.30            114            275 256 
 URE  HZ EP   9   1253 30.89                             113   -2.76 0  286 291 
 URE  HN ES       1254  3.22                             113    0.27 7  286 291 
 URE  HZ I        1254  7.38        22.3 0.14            114            286 291 
 PTGC HN ES   4   1254  8.84                             111   -1.66 0  309 159 
 PTGC HZ I        1254 17.24        28.2 0.44            112            309 159 
 CBOC HZ EP       1253 40.15                             109    0.49 7  337 252 
 CBOC HE ES   4   1254 13.96                             109   -2.46 0  337 252 
 CBOC HZ I        1254 18.36         5.8 0.30            110            337 252 
 PRA  HZ EP       1253 46.17                             106   -0.11 6  395 210 
 PRA  HN ES       1254 28.18                             106   -0.01 6  395 210 
 PRA  HZ I        1254 34.12        18.0 0.22            106            395 210 
 ORTC HZ EP       1253 47.16                             106    0.47 6  398 216 
 ORTC HN ES   3   1254 30.10                             106    1.17 1  398 216 
 ORTC HZ I        1254 36.92        11.3 0.40            106            398 216 
 SJC  HZ EP   4   1253 46.47                             105   -1.52 0  409 327 
 SJC  HN ES   4   1254 27.70                             105   -3.54 0  409 327 
 SJC  HZ I        1254 31.37        12.4 0.52            106            409 327 
 PAL  HZ EP       1253 48.20                             105    0.24 6  409 239 
 PAL  HN ES       1254 32.04                             105    0.86 6  409 239 
 PAL  HZ I        1254 36.88         8.2 0.40            106            409 239 
                                                                                
