 2017  8 7 1528 45.7 L   6.884 -73.334119.2  RSN  8 0.2 1.7LRSN                1
 GAP=212        0.65       2.7     2.9  4.1  0.1775E+01  0.3792E+01  0.1526E+01E
 Epicentro: BETULIA - SANTANDER                                                3
 ACTION:UPD 17-09-04 20:17 OP:rebc STATUS:               ID:20170807152845 L   I
 OLDACT:UP  17-08-07 22:21 OP:dani STATUS:               ID:20170807152737     3
 OLDACT:REG 17-08-07 20:12 OP:dani STATUS:               ID:20170807152737     3
 2017-08-07-1528-00M.COL___393                                                 6
 STAT SP IPHASW D HRMM SECON CODA AMPLIT PERI AZIMU VELO AIN AR TRES W  DIS CAZ7
 BAR2 EZ EP     C 1529  2.63                             162    0.0910 36.4 152 
 BAR2 EZ ES       1529 15.99                             162    0.3110 36.4 152 
 BAR2 EZ I        1529 16.87        18.4 0.36            163           36.4 152 
 BRR  HZ IP     C 1529  2.34                             156   -0.3710 48.5 301 
 BRR  HE ES       1529 15.99                             156   -0.0010 48.5 301 
 BRR  HZ I        1529 17.81        11.3 0.26            156           48.5 301 
 RUS  HZ EP       1529  8.07                             134    0.0810  113 166 
 RUS  HN ES       1529 25.08                             134   -0.3210  113 166 
 RUS  HZ I        1529 26.56         5.5 0.17            135            113 166 
 PTB  HZ IP   9 C 1529  7.31                             129   -1.56 0  130 253 
 PTB  HN ES       1529 24.91                             130   -0.4910  130 253 
 PTB  HZ I        1529 25.90         6.4 0.10            129            130 253 
 SPBC HN ES       1529 32.24                             123   -0.01 9  159 211 
 ZAR  HZ EP       1529 14.33                             119    0.25 9  181 292 
 ZAR  HE ES       1529 36.20                             119   -0.03 9  181 292 
 ZAR  HZ I        1529 38.96         9.1 0.51            119            181 292 
 NOR  HZ EP       1529 18.54                             113   -0.27 8  224 229 
 NOR  HE ES       1529 44.82                             113    0.16 8  224 229 
 NOR  HZ I        1529 48.49         4.4 0.22            114            224 229 
 GUY2CHE ES       1529 59.29                             107    0.20 7  290 231 
                                                                                
