 2011 11 7 1656  2.0 L   6.770 -73.097140.0  RSN  4 0.1 1.6LRSN                1
 GAP=144        0.39       2.6     3.4  4.2  0.9847E+00 -0.1655E+01  0.1085E+01E
 Epicentro: LOS SANTOS - SANTANDER                                             3
 ACTION:UPD 12-07-13 16:08 OP:ep   STATUS:               ID:20111107165602 L   I
 2011-11-07-1645-00M.COL___167                                                 6
 STAT SP IPHASW D HRMM SECON CODA AMPLIT PERI AZIMU VELO AIN AR TRES W  DIS CAZ7
 BAR2 SZ EP   1   1656 20.76                             171   -0.11 7 21.8 206 
 BAR2 SZ ES   2   1656 35.34                             171   -0.27 5 21.8 206 
 BAR2 SZ I        1656 38.25         9.9 0.29                          21.8 206 
 PAM  SZ EP   1   1656 23.67                             150    0.14 7 76.8  35 
 PAM  SE ES   1   1656 40.36                             150    0.00 7 76.8  35 
 BRR  HZ EP       1656 22.69                             150   -0.1810 77.5 299 
 BRR  HN ES       1656 39.33                             150    0.1510 77.5 299 
 BRR  HZ I        1656 43.62        12.8 0.10                          77.5 299 
 RUS  HZ EP   1   1656 24.92                             144    0.03 7 97.0 179 
 RUS  HE ES   1   1656 42.89                             144    0.12 7 97.0 179 
 RUS  HZ I        1656 44.80         3.6 0.29                          97.0 179 
                                                                                
