 2016  8 7 1313 34.8 L   6.807 -73.169135.7  RSN  8 0.5 2.0LRSN                1
 GAP=245        1.17       6.0     7.2  9.0 -0.1014E+01  0.2105E+02  0.6489E+00E
 Epicentro: LOS SANTOS - SANTANDER                                             3
 ACTION:UPD 16-10-29 15:33 OP:rebc STATUS:               ID:20160807131334 L   I
 OLDACT:UP  16-08-08 17:35 OP:dani STATUS:               ID:20160807130802d    3
 OLDACT:DUP 16-08-08 17:29 OP:dani STATUS:               ID:20160807130802d    3
 OLDACT:UP  16-08-08 17:24 OP:dani STATUS:               ID:20160807130801d    3
 OLDACT:DUP 16-08-08 17:20 OP:dani STATUS:               ID:20160807130801d    3
 2016-08-07-1308-00M.COL___356                                                 6
 STAT SP IPHASW D HRMM SECON CODA AMPLIT PERI AZIMU VELO AIN AR TRES W  DIS CAZ7
 BAR2 EZ EP       1313 52.93                             170   -0.3210 23.8 184 
 BAR2 EZ ES       1314  7.98                             170    0.3510 23.8 184 
 BAR2 EZ I        1314  8.97        40.0 0.22                          23.8 184 
 BRR  HZ IP     D 1313 54.81                             152    0.0710 68.6 299 
 BRR  HZ I        1314 14.96        19.7 0.30                          68.6 299 
 PTB  HZ IP       1314  0.01                             130   -0.76 9  145 258 
 PTB  HE ES       1314 20.88                             130   -0.13 9  145 258 
 PTB  HZ I        1314 23.00         7.8 0.14                           145 258 
 SPBC HZ EP       1314  1.89                             127   -0.58 9  162 218 
 SPBC HE ES       1314 24.25                             127    0.21 9  162 218 
 SPBC HZ I        1314 28.85        16.6 0.22                           162 218 
 ZAR  HZ EP       1314  6.66                             120    0.31 9  201 292 
 ZAR  HN ES       1314 31.17                             120    0.23 9  201 292 
 ZAR  HZ I        1314 37.07        10.7 0.34                           201 292 
 NOR  HE ES       1314 36.74                             117   -0.37 8  233 234 
 GUY2CHZ EP       1314 19.17                             111    1.37 7  300 234 
 GUY2CHZ I        1314 57.92         2.7 0.24                           300 234 
 PRA  HE ES       1315  9.78                             105    0.39 6  391 209 
                                                                                
