 2017  3 7 1947 55.2 L   6.698 -73.134144.4  RSN  5 0.2 1.9LRSN                1
 GAP=203        0.55       4.8     3.0  5.9 -0.7982E+01 -0.2422E+01  0.1581E+02E
 Epicentro: VILLANUEVA - SANTANDER                                             3
 ACTION:UPD 17-05-25 18:37 OP:jn   STATUS:               ID:20170307194755 L   I
 OLDACT:UP  17-03-08 01:59 OP:dani STATUS:               ID:20170307193748     3
 OLDACT:REG 17-03-07 20:38 OP:ar   STATUS:               ID:20170307193748     3
 2017-03-07-1938-00M.COL___372                                                 6
 STAT SP IPHASW D HRMM SECON CODA AMPLIT PERI AZIMU VELO AIN AR TRES W  DIS CAZ7
 BRR  HZ EP       1948 17.04                             150    0.3810 78.2 305 
 BRR  HN ES       1948 33.54                             150    0.1710 78.2 305 
 BRR  HZ I        1948 37.32        18.6 0.31            158           78.2 305 
 PAM  EZ EP     D 1948 17.87                             148    0.0410 85.7  34 
 PAM  EN ES       1948 35.21                             148   -0.2410 85.7  34 
 PAM  EZ I        1948 37.19        14.3 0.58            160           85.7  34 
 PTB  HZ EP       1948 21.85                             132   -0.20 9  147 263 
 PTB  HN ES       1948 43.02                             132    0.06 9  147 263 
 PTB  HZ I        1948 48.88         9.5 0.40            136            147 263 
 ZAR  HN ES       1948 53.65                             121   -0.23 8  210 295 
 NOR  HZ EP       1948 30.36                             119    0.04 8  229 237 
 NOR  HN ES       1948 57.54                             119   -0.14 8  229 237 
 NOR  HZ I        1949  6.96         3.7 0.37            123            229 237 
                                                                                
