 2014  1 7 1100 23.3 L   6.823 -73.166143.0  RSN  9 0.4 1.7LRSN                1
 GAP=133        1.02       3.4     4.2  6.5 -0.3222E+01  0.1141E+02 -0.2611E+01E
 Epicentro: LOS SANTOS - SANTANDER                                             3
 ACTION:UPD 14-03-13 09:52 OP:ep   STATUS:               ID:20140107110023 L   I
 OLDACT:REG 14-01-07 15:06 OP:stll STATUS:               ID:20140107105811     3
 2014-01-07-1058-11M.COL___231                                                 6
 STAT SP IPHASW D HRMM SECON CODA AMPLIT PERI AZIMU VELO AIN AR TRES W  DIS CAZ7
 BAR2 SZ EP       11 0 42.84                             169    0.1710 25.5 184 
 BAR2 SZ ES       11 0 57.49                             169   -0.2710 25.5 184 
 BAR2 SZ I        11 0 59.64        12.7 0.44            169           25.5 184 
 PAM  SZ EP       11 0 45.70                             150    0.4810 76.9  42 
 PAM  SN ES       11 1  2.83                             150    0.5310 76.9  42 
 PAM  SZ I        11 1  5.00        10.0 0.56            156           76.9  42 
 RUS  HZ EP       11 0 46.75                             142   -0.2610  103 175 
 RUS  HN ES       11 1  5.10                             142   -0.3710  103 175 
 RUS  HZ I        11 1  8.26         4.2 0.40            147            103 175 
 PTB  HZ EP       11 0 49.73                             132   -0.19 9  146 258 
 PTB  HE ES       11 1 10.47                             132   -0.19 9  146 258 
 PTB  HZ I        11 1 18.28         5.6 0.28            133            146 258 
 SPBC HZ EP       11 0 51.80                             128    0.13 9  164 218 
 SPBC HN ES       11 1 13.47                             128   -0.31 9  164 218 
 SPBC HZ I        11 1 18.84         8.7 0.20            131            164 218 
 ZAR  HN ES       11 1 19.97                             122   -0.24 9  201 292 
 ZAR  HZ I        11 1 28.44         3.9 0.38            124            201 292 
 NOR  HZ EP       11 0 58.65                             118   -0.22 8  234 234 
 NOR  HE ES       11 1 27.04                             118    0.46 8  234 234 
 NOR  HZ I        11 1 31.38         3.3 0.20            121            234 234 
 SML  HZ EP       11 0 59.14                             117   -0.32 8  241 336 
 SML  HN ES       11 1 27.47                             117   -0.16 8  241 336 
 SML  HZ I        11 1 30.74         9.0 0.30            120            241 336 
 GUY2CHZ EP       11 1  6.40                             112   -0.37 7  301 234 
 GUY2CHN ES       11 1 42.07                             112    1.41 7  301 234 
 GUY2CHZ I        11 1 49.49         4.0 0.80                           301 234 
                                                                                
