 2010  8 7 1646 44.0 L   6.789 -73.078144.8  RSN  6 0.4 1.7LRSN                1
 GAP=166        0.67       4.6     9.7  7.8 -0.1491E+02 -0.6083E+01  0.1727E+01E
 Epicentro: LOS SANTOS - SANTANDER                                             3
 ACTION:UP  10-09-07 10:53 OP:vdl  STATUS:               ID:20100807164644 L   I
 2010-08-07-1643-47S.COL___125                                                 6
 STAT SP IPHASW D HRMM SECON CODA AMPLIT PERI AZIMU VELO SNR AR TRES W  DIS CAZ7
 BAR2 SZ EP   1   1647  3.54                             170     0.0 7   25 208 
 BAR2 SZ ES   2   1647 18.14                             170    -0.7 5   25 208 
 BAR2 SZ I        1647 21.43        16.3 0.27                            25 208 
 BRR  HZ EP   1   1647  5.42                             150    -0.1 7   78 297 
 BRR  HE ES   2   1647 22.42                             150     0.2 5   78 297 
 BRR  HZ I        1647 26.15         9.8 0.12                            78 297 
 RUS  HZ EP   1   1647  7.47                             144    -0.1 7   99 180 
 RUS  HE ES   2   1647 26.58                             144     0.6 5   99 180 
 RUS  HZ I        1647 27.50         6.0 0.25                            99 180 
 GUE  SZ EP   1   1647  8.48                             139    -0.2 7  116   8 
 GRA  SZ EP   1   1647  9.38                             137     0.3 7  125  14 
 GRA  SZ ES   2   1647 28.88                             137     0.2 5  125  14 
 GRA  SZ I        1647 33.58         4.7 0.25                           125  14 
 PRA  HZ EP   1   1647 37.27                             106    -0.6 4  395 211 
 PRA  HN ES   2   1648 20.81                             106     1.0 3  395 211 
 PRA  HZ I        1648 25.57         3.2 0.38                           395 211 
                                                                                
