 2015  9 7 1508 18.9 L   6.824 -73.175143.1  RSN 16 0.6 2.5LRSN                1
 GAP=132        1.39       3.3     4.8  6.5 -0.3059E+01  0.9992E+01  0.1624E+01E
 Epicentro: ZAPATOCA - SANTANDER                                               3
 ACTION:UPD 15-10-28 16:24 OP:cam  STATUS:               ID:20150907150818 L   I
 OLDACT:REG 15-09-07 21:33 OP:stll STATUS:               ID:20150907145748     3
 2015-09-07-1506-20M.COL___355                                                 6
 STAT SP IPHASW D HRMM SECON CODA AMPLIT PERI AZIMU VELO AIN AR TRES W  DIS CAZ7
 BAR2 EZ EP       15 8 38.01                             169   -0.2410 25.6 182 
 BAR2 EZ ES       15 8 52.84                             169   -0.5110 25.6 182 
 BAR2 EZ I        15 8 54.42       112.2 0.20            169           25.6 182 
 BRR  HZ IP     C 15 8 40.03                             153    0.5110 67.1 298 
 BRR  HZ I        15 8 40.17        67.3 0.14            146           67.1 298 
 BRR  HN ES       15 8 56.49                             153    0.8810 67.1 298 
 PAM  EZ EP     D 15 8 41.18                             150    0.3510 77.5  43 
 PAM  EN ES       15 8 58.37                             150    0.4310 77.5  43 
 PAM  EZ I        15 9  0.44        30.7 0.36            151           77.5  43 
 RUS  HZ EP       15 8 42.08                             142   -0.5110  103 174 
 RUS  HZ I        15 8 43.25        32.2 0.18            143            103 174 
 RUS  HN ES       15 9  0.85                             142   -0.2310  103 174 
 PTB  HZ EP       15 8 44.81                             132   -0.59 9  145 258 
 PTB  HN ES       15 9  6.00                             132   -0.08 9  145 258 
 PTB  HZ I        15 9 13.37        47.6 0.32            128            145 258 
 OCA  HZ EP       15 8 46.36                             130   -0.35 9  157 354 
 OCA  HN ES       15 9  8.36                             130   -0.05 9  157 354 
 OCA  HZ I        15 9 15.71        52.6 0.42            127            157 354 
 SPBC HZ EP       15 8 47.08                             128   -0.11 9  163 218 
 SPBC HE ES       15 9  8.71                             128   -0.56 9  163 218 
 SPBC HZ I        15 9 13.88        55.2 0.24            126            163 218 
 ZAR  HZ EP       15 8 50.80                             122    0.05 9  200 292 
 ZAR  HE ES       15 9 16.32                             122    0.72 9  200 292 
 ZAR  HZ I        15 9 22.35        29.4 0.20            119            200 292 
 NOR  HZ EP       15 8 54.50                             118    0.15 8  234 233 
 NOR  HE ES       15 9 21.56                             118   -0.45 8  234 233 
 NOR  HZ I        15 9 25.55        22.7 0.18            116            234 233 
 SML  HZ EP       15 8 54.37                             117   -0.59 8  240 336 
 SML  HN ES       15 9 22.20                             117   -0.90 8  240 336 
 SML  HZ I        15 9 30.21        38.1 0.10            115            240 336 
 CHI  HZ EP       15 8 56.29                             116   -0.34 8  250 194 
 CHI  HN ES       15 9 25.60                             116   -0.47 8  250 194 
 CHI  HZ I        15 9 27.96        12.5 0.36            115            250 194 
 ROSC BZ EP       15 8 58.18                             116    1.25 8  253 210 
 ROSC BN ES       15 9 28.19                             116    1.58 8  253 210 
 ROSC BZ I        15 9 33.05        23.1 0.50            115            253 210 
 HEL  HZ EP       15 8 59.13                             114    0.44 8  270 255 
 HEL  HN ES       15 9 29.10                             114   -0.64 8  270 255 
 HEL  HZ I        15 9 37.08        18.4 0.28            112            270 255 
 GUY2CHZ EP       15 9  3.20                             112    0.95 7  300 234 
 GUY2CHE ES       15 9 35.59                             112   -0.48 7  300 234 
 GUY2CHZ I        15 9 44.06        13.4 0.34                           300 234 
 DBB  SZ EP       15 9  5.47                             109   -0.40 7  336 274 
 DBB  SZ I        15 9 44.51        29.0 0.60            107            336 274 
 TOL  SZ EP       15 9  7.82                             109    0.82 7  343 224 
 TOL  SN ES       15 9 44.19                             109   -0.33 7  343 224 
 TOL  SZ I        15 9 50.35        12.6 0.70            107            343 224 
                                                                                
