 2014  1 7 1923 15.8 L   6.780 -73.140141.3  RSN  7 0.3 1.7LRSN                1
 GAP=138        0.83       3.5     3.8  5.3 -0.2436E+01  0.3736E+01  0.5150E+01E
 Epicentro: LOS SANTOS - SANTANDER                                             3
 ACTION:UPD 14-03-13 09:52 OP:ep   STATUS:               ID:20140107192315 L   I
 OLDACT:DUP 14-01-07 19:53 OP:stll STATUS:               ID:20140107191806d    3
 2014-01-07-1918-05M.COL___246                                                 6
 STAT SP IPHASW D HRMM SECON CODA AMPLIT PERI AZIMU VELO AIN AR TRES W  DIS CAZ7
 BAR2 SZ EP       1923 34.93                             171    0.0610 21.2 193 
 BAR2 SZ I        1923 35.22        20.4 0.32            169           21.2 193 
 BAR2 SZ ES       1923 49.67                             171   -0.0610 21.2 193 
 BRR  HZ EP       1923 36.69                             151    0.1110 72.8 300 
 BRR  HZ I        1923 36.94        11.9 0.26            150           72.8 300 
 BRR  HN ES       1923 53.21                             151    0.4410 72.8 300 
 PAM  SZ EP       1923 37.69                             149    0.0510 78.8  38 
 PAM  SZ I        1923 37.99        11.4 0.22            152           78.8  38 
 PAM  SN ES       1923 54.68                             149    0.0110 78.8  38 
 RUS  HZ EP       1923 38.87                             143   -0.0910 98.3 176 
 RUS  HE ES       1923 56.77                             143   -0.2510 98.3 176 
 RUS  HZ I        1923 58.89         3.7 0.28            143           98.3 176 
 PTB  HZ EP       1923 41.71                             131   -0.73 9  148 260 
 PTB  HN ES       1924  2.68                             131   -0.52 9  148 260 
 PTB  HZ I        1924  5.85         5.2 0.34            130            148 260 
 NOR  HZ EP       1923 51.49                             118    0.29 8  234 235 
 NOR  HN ES       1924 19.34                             118    0.54 8  234 235 
 NOR  HZ I        1924 23.92         3.5 0.16            117            234 235 
 CHI  HZ EP       1923 53.21                             116    0.16 8  247 195 
 CHI  HN ES       1924 22.34                             116    0.25 8  247 195 
                                                                                
