 2015 10 7 1344 43.2 L   6.809 -73.128149.6  RSN 15 0.4 2.3LRSN                1
 GAP=138        0.88       2.2     3.5  4.6 -0.1582E+01  0.5968E+01  0.3182E+00E
 Epicentro: LOS SANTOS - SANTANDER                                             3
 ACTION:UPD 15-12-22 20:38 OP:cam  STATUS:               ID:20151007134443 L   I
 OLDACT:REG 15-10-07 21:06 OP:ak   STATUS:               ID:20151007133748     3
 2015-10-07-1337-48M.COL___325                                                 6
 STAT SP IPHASW D HRMM SECON CODA AMPLIT PERI AZIMU VELO AIN AR TRES W  DIS CAZ7
 BAR2 EZ EP       1345  3.42                             170    0.0910 24.7 194 
 BAR2 EZ ES       1345 18.92                             170   -0.1010 24.7 194 
 BAR2 EZ I        1345 21.57        24.0 0.20            169           24.7 194 
 BRR  HZ EP       1345  5.06                             153    0.2210 72.4 297 
 BRR  HN ES       1345 22.40                             153    0.6910 72.4 297 
 BRR  HZ I        1345 26.79        24.6 0.12            151           72.4 297 
 PAM  EZ EP       1345  6.30                             152    0.5810 75.4  39 
 PAM  EN ES       1345 23.58                             152    0.3110 75.4  39 
 PAM  EZ I        1345 25.68        29.9 0.48            156           75.4  39 
 RUS  HZ EP       1345  7.22                             144   -0.1810  101 177 
 RUS  HN ES       1345 25.73                             144   -0.5410  101 177 
 RUS  HZ I        1345 27.19        12.0 0.44            147            101 177 
 OCA  HZ EP       1345 11.39                             131   -0.36 9  160 352 
 OCA  HN ES       1345 33.59                             131   -0.42 9  160 352 
 OCA  HZ I        1345 39.38        42.3 0.16            132            160 352 
 SPBC HZ EP       1345 12.06                             130   -0.13 9  165 219 
 SPBC HN ES       1345 34.89                             130    0.09 9  165 219 
 SPBC HZ I        1345 41.53        34.1 0.34            131            165 219 
 ZAR  HZ EP       1345 15.99                             123   -0.06 8  205 292 
 ZAR  HE ES       1345 41.42                             123   -0.25 8  205 292 
 ZAR  HZ I        1345 46.98        27.6 0.42            124            205 292 
 NOR  HZ EP       1345 19.52                             119    0.12 8  237 235 
 NOR  HN ES       1345 46.91                             119   -0.71 8  237 235 
 NOR  HZ I        1345 54.83        14.9 0.18            120            237 235 
 SML  HZ EP       1345 19.89                             118   -0.15 8  244 335 
 SML  HN ES       1345 48.26                             118   -0.51 8  244 335 
 SML  HZ I        1345 55.68        31.0 0.10            120            244 335 
 CHI  HZ EP       1345 21.41                             118    0.12 8  250 196 
 CHI  HN ES       1345 50.74                             118   -0.24 8  250 196 
 CHI  HZ I        1345 56.67         9.1 0.30            120            250 196 
 GUY2CHZ EP   1   1345 27.36                             113    0.12 5  303 235 
 GUY2CHN ES       1346  1.85                             113    0.26 7  303 235 
 GUY2CHZ I        1346  9.88         8.2 0.28                           303 235 
 CBOC HZ EP       1345 31.28                             110    0.75 7  336 252 
 CBOC HN ES       1346  7.56                             110    0.12 7  336 252 
 ANIL HN ES       1346 13.00                             109    0.44 6  359 225 
 ANIL HZ I        1346 20.16        19.6 0.32            110            359 225 
 SJC  HZ EP   4   1345 37.66                             106   -1.27 0  409 327 
 SJC  HN ES   4   1346 19.24                             106   -3.14 0  409 327 
 SJC  HZ I        1346 23.37         4.0 0.40            108            409 327 
 CRJC HZ EP   4   1345 43.62                             104   -2.07 0  467   3 
 CRJC HN ES   4   1346 29.66                             104   -4.76 0  467   3 
 CRJC HZ I        1346 38.73         5.1 0.26            106            467   3 
                                                                                
