 2016 12 7 1421 26.7 L   6.788 -73.135140.9  RSN 10 0.5 1.9LRSN                1
 GAP=138        1.13       4.4     4.4  6.5 -0.1750E+00  0.9669E+01  0.8042E+01E
 Epicentro: LOS SANTOS - SANTANDER                                             3
 ACTION:UPD 17-01-11 20:13 OP:rebc STATUS:               ID:20161207142126 L   I
 OLDACT:REG 16-12-07 21:06 OP:dnl  STATUS:               ID:20161207141747     3
 2016-12-07-1418-00M.COL___364                                                 6
 STAT SP IPHASW D HRMM SECON CODA AMPLIT PERI AZIMU VELO AIN AR TRES W  DIS CAZ7
 BAR2 EZ IP     C 1421 45.56                             171   -0.1210 22.3 194 
 BAR2 EZ ES       1422  0.23                             171   -0.2910 22.3 194 
 BAR2 EZ I        1422  1.60        30.4 0.24            169           22.3 194 
 BRR  HZ EP       1421 47.39                             151    0.0210 72.9 299 
 BRR  HN ES       1422  4.07                             151    0.5310 72.9 299 
 BRR  HZ I        1422  7.97        16.6 0.38            150           72.9 299 
 PAM  EZ EP       1421 48.52                             150    0.1510 77.7  38 
 PAM  EN ES       1422  5.19                             150   -0.1210 77.7  38 
 PAM  EZ I        1422  7.59        14.3 0.60            154           77.7  38 
 RUS  HZ EP       1421 49.64                             143   -0.1910 99.2 177 
 RUS  HE ES       1422  8.46                             143    0.5610 99.2 177 
 RUS  HZ I        1422  9.69        10.7 0.24            145           99.2 177 
 PTB  HZ EP       1421 52.51                             131   -0.80 9  149 259 
 PTB  HE ES       1422 13.17                             131   -0.94 9  149 259 
 PTB  HZ I        1422 16.34        14.3 0.10            131            149 259 
 ZAR  HZ EP   4   1421 56.59                             121   -2.36 0  206 292 
 ZAR  HN ES       1422 24.66                             121    0.52 8  206 292 
 ZAR  HZ I        1422 31.65         9.8 0.50            122            206 292 
 NOR  HZ EP       1422  1.50                             117   -0.62 8  235 235 
 NOR  HN ES       1422 29.89                             117    0.10 8  235 235 
 NOR  HZ I        1422 35.39         8.0 0.40            118            235 235 
 CHI  HZ EP       1422  3.95                             116   -0.03 8  248 196 
 CHI  HN ES       1422 33.25                             116    0.16 8  248 196 
 CHI  HZ I        1422 40.53         3.4 0.64            118            248 196 
 GUY2CHZ EP       1422 10.79                             111    0.73 7  301 235 
 GUY2CHE ES   4   1422 46.44                             111    2.52 0  301 235 
 GUY2CHZ I        1422 51.07         3.5 0.28                           301 235 
 CBOC HZ EP       1422 13.96                             109    0.51 7  334 252 
 CBOC HN ES       1422 50.53                             109    0.58 7  334 252 
 CBOC HZ I        1422 52.92         2.1 0.20            110            334 252 
                                                                                
