 2013  3 7 1143  3.8 L   6.777 -73.137148.0  RSN 10 0.4 2.1LRSN                1
 GAP= 72        1.11       3.8     4.3  6.4  0.2224E+01  0.2569E+01 -0.2770E+01E
 Epicentro: LOS SANTOS - SANTANDER                                             3
 ACTION:UPD 13-04-09 14:00 OP:ep   STATUS:               ID:20130307114303 L   I
 2013-03-07-1140-00M.COL___231                                                 6
 STAT SP IPHASW D HRMM SECON CODA AMPLIT PERI AZIMU VELO AIN AR TRES W  DIS CAZ7
 BAR2 SZ IP       1143 23.73                             171    0.0310 21.1 194 
 BAR2 SZ ES       1143 38.94                             171   -0.2510 21.1 194 
 BAR2 SZ I        1143 40.67        27.4 0.28            171           21.1 194 
 BRR  HZ IP     C 1143 25.77                             152    0.4210 73.2 300 
 BRR  HZ I        1143 25.98        29.8 0.26            151           73.2 300 
 BRR  HN ES       1143 42.97                             152    0.8510 73.2 300 
 PAM  SZ IP     D 1143 26.89                             151    0.5110 78.7  38 
 PAM  SZ I        1143 27.07        18.7 0.36            152           78.7  38 
 PAM  SE ES       1143 43.94                             151   -0.0210 78.7  38 
 PAM  SN I        1143 45.10        25.8 0.50            152           78.7  38 
 RUS  HZ EP       1143 27.67                             145    0.0310 98.0 176 
 RUS  HN ES       1143 45.67                             145   -0.5210 98.0 176 
 RUS  HE I        1143 47.11        18.8 0.56            146           98.0 176 
 PTB  HZ EP       1143 30.68                             132   -0.36 9  148 260 
 PTB  HN ES       1143 52.08                             132   -0.16 9  148 260 
 PTB  HE I        1143 54.55        15.7 0.28            132            148 260 
 TAM  HZ EP       1143 31.97                             131    0.41 9  154 104 
 OCA  HN ES       1143 54.16                             130   -0.82 9  163 353 
 ZAR  HZ EP       1143 36.75                             123    0.13 8  206 293 
 ZAR  HE ES       1144  2.60                             123    0.41 8  206 293 
 ZAR  HN I        1144  8.96        15.1 0.32            123            206 293 
 CHI  HN ES   2   1144 10.03                             118   -0.72 4  246 196 
 SML  HZ EP       1143 40.57                             118   -0.31 8  246 335 
 SML  HE ES       1144  9.21                             118   -0.56 8  246 335 
                                                                                
