 2015  1 7 1431 24.8 L   7.578 -73.090159.7  RSN 15 0.5 2.7LRSN                1
 GAP=141        0.98       3.3     4.2  5.7  0.5964E+00  0.9068E+01  0.2439E+01E
 Epicentro: EL PLAYON - SANTANDER                                              3
 ACTION:UPD 15-03-02 15:37 OP:nd   STATUS:               ID:20150107143124 L   I
 OLDACT:UP  15-01-07 23:39 OP:mh   STATUS:               ID:20150107142745     3
 OLDACT:UP  15-01-07 23:37 OP:mh   STATUS:               ID:20150107142745     3
 OLDACT:UP  15-01-07 21:19 OP:mh   STATUS:               ID:20150107142745     3
 OLDACT:REG 15-01-07 20:43 OP:mh   STATUS:               ID:20150107142745     3
 2015-01-07-1427-45M.COL___280                                                 6
 STAT SP IPHASW D HRMM SECON CODA AMPLIT PERI AZIMU VELO AIN AR TRES W  DIS CAZ7
 PAM  SZ EP   1   1431 47.22                             162   -0.00 7 50.5 121 
 PAM  SN ES       1432  3.93                             162   -0.8110 50.5 121 
 PAM  SZ I        1432  5.45       139.8 0.44            164           50.5 121 
 OCA  HZ EP   1   1431 48.27                             153    0.28 7 77.3 341 
 OCA  HN ES       1432  6.36                             153    0.2510 77.3 341 
 OCA  HZ I        1432  8.99        88.8 0.46            153           77.3 341 
 BRR  HZ EP       1431 48.68                             150    0.3910 86.2 233 
 BRR  HN ES       1432  6.70                             150    0.0810 86.2 233 
 BRR  HZ I        1432 12.01        63.0 0.28            146           86.2 233 
 BAR2 EZ EP   1   1431 50.07                             144   -0.11 7  110 185 
 BAR2 EZ I        1432 10.94        68.7 0.16            142            110 185 
 SML  HZ EP   1   1431 55.13                             130   -0.03 7  173 321 
 SML  HN ES   1   1432 18.90                             130    0.04 7  173 321 
 SML  HZ I        1432 26.31        94.0 0.06            130            173 321 
 RUS  HZ EP   1   1431 56.78                             128   -0.30 7  186 180 
 RUS  HN ES       1432 22.05                             128   -0.23 9  186 180 
 PTB  HZ IP     D 1431 56.71                             127   -0.05 9  190 233 
 PTB  HN ES   1   1432 21.99                             127    0.28 7  190 233 
 PTB  HZ I        1432 26.38        35.0 0.34            125            190 233 
 ZAR  HZ EP       1431 57.56                             126    0.26 9  195 267 
 ZAR  HN ES       1432 23.28                             126    0.61 9  195 267 
 ZAR  HZ I        1432 29.25        54.4 0.26            125            195 267 
 SPBC HZ EP   1   1432  2.58                             121    0.73 6  239 207 
 SPBC HN ES       1432 31.35                             121    0.58 8  239 207 
 SPBC HZ I        1432 36.88        29.5 0.39            119            239 207 
 URE  HZ EP   1   1432  4.21                             117   -0.86 6  270 274 
 URE  HN ES   1   1432 35.85                             117   -0.65 6  270 274 
 NOR  HZ EP   1   1432  8.37                             115    0.29 5  297 222 
 NOR  HN ES       1432 42.02                             115    0.16 7  297 222 
 NOR  HZ I        1432 50.09        17.9 0.23            114            297 222 
 SDV  BZ EP   4   1432  8.57                             114   -0.77 0  307  62 
 SDV  BN ES   4   1432 40.86                             114   -3.24 0  307  62 
 SDV  BZ I        1432 41.85        28.0 0.55            115            307  62 
 HEL  HZ EP       1432  9.94                             114    0.03 7  310 241 
 HEL  HN ES       1432 44.77                             114   -0.35 7  310 241 
 HEL  HZ I        1432 55.66        15.8 0.34            113            310 241 
 MON  HZ EP   4   1432  9.10                             114   -0.68 0  313 295 
 MON  HN ES   4   1432 43.86                             114   -1.03 0  313 295 
 SJC  HZ EP       1432 13.32                             111   -0.05 7  344 318 
 SJC  HN ES   4   1432 49.80                             111   -1.48 0  344 318 
 SJC  HZ I        1432 53.62        20.4 0.62            111            344 318 
 DBB  SZ EP   1   1432 14.37                             111    0.33 5  350 260 
 DBB  SZ ES       1432 50.92                             111   -1.55 6  350 260 
 DBB  SZ I        1433 10.11        47.6 0.26            110            350 260 
                                                                                
