 2010  7 7 1222 33.7 L   6.770 -73.063146.3  RSN 10 0.4 2.2LRSN                1
 GAP=166        0.96       4.8     8.5  7.6 -0.1711E+02  0.2719E+01 -0.6072E+01E
 Epicentro: LOS SANTOS - SANTANDER                                             3
 ACTION:UPD 10-12-01 15:15 OP:pat  STATUS:               ID:20100707122233 L   I
 2010-07-07-1219-36S.COL___116                                                 6
 STAT SP IPHASW D HRMM SECON CODA AMPLIT PERI AZIMU VELO AIN AR TRES W  DIS CAZ7
 BAR2 SZ EP       1222 53.21                             170    -0.210   24 214 
 BAR2 SZ ES   1   1223  8.48                             170    -0.3 7   24 214 
 BAR2 SZ I        1223  9.86        34.2 0.27                            24 214 
 BRR  HZ EP       1222 55.10                             149    -0.410   81 298 
 BRR  HZ I        1222 55.34        50.7 0.17                            81 298 
 BRR  HN ES   1   1223 12.73                             149     0.2 7   81 298 
 RUS  HZ EP   1   1222 57.17                             145    -0.1 7   97 181 
 RUS  HN ES   1   1223 15.96                             145     0.3 7   97 181 
 RUS  HZ I        1223 18.16         8.9 0.23                            97 181 
 BRI  SZ EP       1222 57.72                             141     0.010  109  16 
 BRI  SZ I        1223 21.67        17.8 0.45                           109  16 
 GUE  SZ EP       1222 59.21                             139     0.610  118   7 
 GRA  SZ EP       1222 59.00                             137    -0.110  127  13 
 GRA  SZ ES   1   1223 19.29                             137     0.4 7  127  13 
 GRA  SZ I        1223 20.77        23.8 0.27                           127  13 
 OCA  SZ EP   1   1223  1.68                             129    -0.8 7  165 350 
 OCA  SZ I        1223 27.84        19.4 0.25                           165 350 
 HEL  HZ EP   2   1223 15.69                             114     0.8 4  280 257 
 RREF HZ EP   1   1223 20.90                             111     0.4 5  327 231 
 RREF HN ES   2   1223 57.48                             111     0.6 3  327 231 
 RREF HZ I        1224  5.30         7.1 0.29                           327 231 
 PRA  HZ EP   3   1223 26.87                             107    -0.6 1  394 211 
 PRA  HE ES   2   1224  9.23                             107    -0.2 3  394 211 
 PRA  HZ I        1224 13.10         4.9 0.55                           394 211 
                                                                                
