 2010 12 7 1707 23.5 L   6.042 -73.719110.3  RSN 10 0.3 2.1LRSN                1
 GAP=109        0.79       3.3     3.1  7.9 -0.3733E+01  0.5337E+01  0.9580E+00E
 Epicentro: BOLIVAR - SANTANDER                                                3
 ACTION:UP  11-01-14 15:23 OP:pat  STATUS:               ID:20101207170723 L   I
 2010-12-07-1704-50S.COL___135                                                 6
 STAT SP IPHASW D HRMM SECON CODA AMPLIT PERI AZIMU VELO SNR AR TRES W  DIS CAZ7
 BAR2 SZ EP       17 7 42.38                             140     0.110   85  44 
 BAR2 SZ ES   1   17 7 56.69                             140    -0.3 7   85  44 
 BAR2 SZ I        17 7 58.58        52.1 0.23                            85  44 
 BTL  SZ EP       17 7 44.28                             132    -0.110  109  27 
 NOR  SZ EP       17 7 46.70                             124    -0.2 9  138 248 
 NOR  SN ES   1   17 8  5.83                             124     0.6 7  138 248 
 CHI  HN ES   2   17 8  8.48                             121    -0.9 5  156 181 
 CHI  HZ I        17 8 12.45        11.7 0.33                           156 181 
 YOP  SZ EP       17 7 49.86                             120     0.3 9  163 118 
 YOP  SN ES   1   17 8 10.23                             120     0.4 7  163 118 
 YOP  SZ I        17 8 12.85        27.0 0.24                           163 118 
 HEL  HZ EP       17 7 54.41                             114     0.4 9  201 275 
 HEL  HN ES   2   17 8 17.57                             114    -0.3 4  201 275 
 HEL  HZ I        17 8 22.02        10.8 0.36                           201 275 
 GUE  SZ EP       17 7 55.45                             112    -0.3 8  216  24 
 RREF HZ EP       17 7 56.55                             112     0.0 8  220 235 
 RREF HZ I        17 8 29.44         6.9 0.52                           220 235 
 GRA  SZ EP       17 7 56.86                             111     0.1 8  227  26 
 GRA  SZ I        17 8 28.04         9.9 0.55                           227  26 
 PRA  HZ EP       17 8  3.51                             105    -0.2 7  288 207 
 PRA  HN ES   1   17 8 34.48                             105    -0.5 5  288 207 
                                                                                
