 2013  9 7 1855 35.3 L   5.916 -73.698118.0  RSN  7 0.3 1.6LRSN                1
 GAP=143        0.56       4.9     3.3  4.5 -0.1240E+02  0.6355E+01 -0.8702E+01E
 Epicentro: PUENTE NACIONAL - SANTANDER                                        3
 ACTION:UPD 13-10-22 09:20 OP:ep   STATUS:               ID:20130907185535 L   I
 OLDACT:DUP 13-09-07 18:00 OP:cam  STATUS:               ID:20130907184960d    3
 OLDACT:UP  13-09-07 18:00 OP:cam  STATUS:               ID:20130907184959     3
 OLDACT:REG 13-09-07 15:37 OP:cam  STATUS:               ID:20130907184959     3
 2013-09-07-1849-59M.COL___269                                                 6
 STAT SP IPHASW D HRMM SECON CODA AMPLIT PERI AZIMU VELO AIN AR TRES W  DIS CAZ7
 SPBC HZ EP       1855 52.08                             155   -0.3010 50.6 235 
 SPBC HN ES       1856  5.63                             155   -0.1210 50.6 235 
 SPBC HZ I        1856  8.05         6.7 0.42            156           50.6 235 
 RUS  HZ EP   1   1855 54.07                             148    0.09 7 68.2  92 
 RUS  HN ES       1856  8.83                             148    0.2510 68.2  92 
 RUS  HZ I        1856  9.83         2.4 0.16            152           68.2  92 
 BAR2 SZ EP       1855 55.38                             139   -0.1210 94.1  37 
 BAR2 SZ ES       1856 11.20                             139   -0.1010 94.1  37 
 BAR2 SZ I        1856 12.37        24.4 0.50            142           94.1  37 
 NOR  HZ EP       1855 58.81                             127   -0.13 9  135 253 
 NOR  HN ES       1856 17.56                             127    0.14 9  135 253 
 NOR  HZ I        1856 20.16        13.6 0.50            129            135 253 
 PAM  SZ EP   1   1856  5.22                             117   -0.17 7  192  35 
 PAM  SN ES   2   1856 29.45                             117    0.56 4  192  35 
 GUY2CHZ EP   1   1856  6.62                             116    0.43 6  200 248 
 HEL  HZ EP   2   1856  7.31                             116    0.70 4  205 279 
                                                                                
