 2012  5 7 1243 38.4 L   6.360 -73.483121.3  RSN  8 0.4 2.0LRSN                1
 GAP=101        0.88       4.7     3.9  7.7 -0.3388E+01  0.1042E+02 -0.3757E+00E
 Epicentro: CONTRATACION - SANTANDER                                           3
 ACTION:UP  12-07-05 12:03 OP:pat  STATUS:               ID:20120507124338 L   I
 2012-05-07-1239-37M.COL___184                                                 6
 STAT SP IPHASW D HRMM SECON CODA AMPLIT PERI AZIMU VELO SNR AR TRES W  DIS CAZ7
 BAR2 SZ EP       1243 55.72                             160     0.010   42  52 
 BAR2 SZ ES   1   1244  9.06                             160    -0.2 7   42  52 
 BAR2 SZ I        1244 10.50        40.0 0.17                            42  52 
 RUS  HZ EP   1   1243 57.62                             149     0.1 7   68 139 
 RUS  HN ES   1   1244 12.62                             149     0.2 7   68 139 
 BRR  HZ EP   1   1243 58.16                             142     0.1 7   86 343 
 BRR  HE ES   1   1244 13.92                             142     0.5 7   86 343 
 BRR  HZ I        1244 14.64        34.4 0.12                            86 343 
 PTB  HZ EP   1   1243 59.49                             135    -0.5 7  109 280 
 PTB  HN ES   1   1244 15.85                             135    -0.9 7  109 280 
 PTB  HZ I        1244 19.35         8.7 0.15                           109 280 
 PAM  SZ EP   1   1244  3.25                             128     0.0 7  139  39 
 PAM  SN ES   1   1244 22.57                             128    -0.1 7  139  39 
 NOR  SZ EP   1   1244  6.08                             120    -0.5 7  177 240 
 NOR  SN ES   1   1244 29.22                             120     0.7 7  177 240 
 ZAR  HZ EP   1   1244  9.07                             117     0.4 6  197 310 
 ZAR  HN ES   2   1244 32.56                             117     0.4 4  197 310 
 ZAR  HZ I        1244 37.80        11.0 0.30                           197 310 
 HEL  HZ EP   2   1244 12.55                             114     0.1 4  227 265 
 HEL  HN ES   2   1244 39.20                             114     0.3 4  227 265 
 HEL  HZ I        1244 44.45         5.9 0.43                           227 265 
                                                                                
