 2016  1 7 1749 57.6 L   6.772 -73.130145.5  RSN  7 0.3 2.0LRSN                1
 GAP=159        0.73       4.3     3.4  5.1 -0.4751E+01  0.3070E+01  0.6537E+01E
 Epicentro: LOS SANTOS - SANTANDER                                             3
 ACTION:UPD 16-03-09 23:23 OP:cam  STATUS:               ID:20160107174957 L   I
 OLDACT:REG 16-01-07 22:39 OP:ar   STATUS:               ID:20160107174751     3
 2016-01-07-1747-51M.COL___289                                                 6
 STAT SP IPHASW D HRMM SECON CODA AMPLIT PERI AZIMU VELO AIN AR TRES W  DIS CAZ7
 BAR2 EZ EP       1750 17.10                             172   -0.0310 20.7 196 
 BAR2 EZ ES       1750 32.29                             172   -0.0910 20.7 196 
 BAR2 EZ I        1750 33.49        33.0 0.14            166           20.7 196 
 BRR  HZ EP       1750 19.01                             151    0.1310 74.2 300 
 BRR  HN ES       1750 36.04                             151    0.5510 74.2 300 
 BRR  HZ I        1750 36.73        32.3 0.32            150           74.2 300 
 PAM  EZ EP       1750 19.82                             150   -0.0310 78.7  37 
 PAM  EN ES       1750 37.08                             150   -0.1410 78.7  37 
 PAM  EZ I        1750 38.60         6.4 0.38            149           78.7  37 
 PTB  HZ EP       1750 24.31                             132   -0.32 9  149 260 
 PTB  HN ES       1750 45.11                             132   -0.62 9  149 260 
 PTB  HZ I        1750 48.02         9.3 0.26            127            149 260 
 SPBC HZ EP       1750 26.17                             129    0.23 9  162 220 
 SPBC HZ I        1750 44.46        33.8 0.10            123            162 220 
 SPBC HE ES   2   1750 47.97                             129   -0.09 5  162 220 
 ZAR  HN ES       1750 55.78                             122   -0.04 8  207 293 
 ZAR  HZ I        1751  0.94         8.3 0.14            118            207 293 
 NOR  HZ EP       1750 33.38                             118    0.12 8  234 235 
 NOR  HN ES       1751  1.40                             118    0.32 8  234 235 
 NOR  HZ I        1751  6.08         8.1 0.16            114            234 235 
                                                                                
