 2013 12 7 1507 27.3 L   6.742 -73.120149.5  RSN 11 0.3 2.1LRSN                1
 GAP=142        0.77       2.8     4.1  4.4 -0.3237E+01  0.5974E+01  0.5580E+00E
 Epicentro: JORDAN - SANTANDER                                                 3
 ACTION:UPD 14-01-13 10:16 OP:ep   STATUS:               ID:20131207150727 L   I
 OLDACT:UP  13-12-07 17:14 OP:cam  STATUS:               ID:20131207150000     3
 OLDACT:REG 13-12-07 15:20 OP:cam  STATUS:               ID:20131207150000     3
 2013-12-07-1500-00M.COL___285                                                 6
 STAT SP IPHASW D HRMM SECON CODA AMPLIT PERI AZIMU VELO AIN AR TRES W  DIS CAZ7
 BAR2 SZ EP       15 7 47.25                             173   -0.0110 18.0 203 
 BAR2 SZ ES       15 8  3.29                             173    0.4410 18.0 203 
 BAR2 SZ I        15 8  8.29        27.2 0.34            170           18.0 203 
 BRR  HZ EP       15 7 49.33                             151    0.1810 76.8 302 
 BRR  HN ES       15 8  6.36                             151    0.1510 76.8 302 
 BRR  HZ I        15 8  9.71        18.2 0.22            149           76.8 302 
 PAM  SZ EP       15 7 50.37                             150    0.2910 80.7  35 
 PAM  SN ES       15 8  7.63                             150   -0.2510 80.7  35 
 PAM  SN I        15 8 10.10        23.9 0.24            155           80.7  35 
 RUS  HZ EP       15 7 50.98                             146    0.0410 94.1 178 
 RUS  HN ES       15 8  8.89                             146   -0.5110 94.1 178 
 RUS  HZ I        15 8 10.69        15.0 0.32            150           94.1 178 
 PTB  HZ EP       15 7 54.15                             132   -0.55 9  149 261 
 PTB  HN ES   4   15 8 15.29                             132   -0.80 0  149 261 
 PTB  HZ I        15 8 20.38        10.8 0.18            133            149 261 
 SPBC HZ EP       15 7 55.90                             130    0.13 9  160 221 
 SPBC HN ES       15 8 17.77                             130   -0.24 9  160 221 
 SPBC HZ I        15 8 20.32        17.2 0.24            132            160 221 
 ZAR  HZ EP       15 8  0.60                             122    0.12 8  209 293 
 ZAR  HN ES   4   15 8 28.26                             122    1.87 0  209 293 
 ZAR  HZ I        15 8 32.41        18.3 0.22            124            209 293 
 NOR  HZ EP       15 8  2.82                             119   -0.26 8  233 236 
 NOR  HN ES       15 8 31.18                             119    0.17 8  233 236 
 NOR  HZ I        15 8 37.65        12.6 0.18            121            233 236 
 CHI  HZ EP       15 8  4.94                             118    0.34 8  243 196 
 CHI  HN ES       15 8 33.80                             118    0.08 8  243 196 
 CHI  HZ I        15 8 36.91         4.3 0.38            121            243 196 
 SML  HZ EP   1   15 8  4.26                             117   -0.60 6  251 335 
 GUY2CHZ EP   2   15 8 11.98                             113    1.07 4  300 236 
 RREF HZ EP   4   15 8 14.82                             112    1.47 0  320 231 
                                                                                
