 2012  8 7 1424 10.5 L   6.778 -73.151144.3  RSN 11 0.5 2.2LRSN                1
 GAP=137        0.81       3.6     4.1  6.0 -0.1077E+01  0.7918E+01  0.4746E+01E
 Epicentro: LOS SANTOS - SANTANDER                                             3
 ACTION:UPD 12-09-10 11:55 OP:ep   STATUS:               ID:20120807142410 L   I
 2012-08-07-1420-00M.COL___216                                                 6
 STAT SP IPHASW D HRMM SECON CODA AMPLIT PERI AZIMU VELO AIN AR TRES W  DIS CAZ7
 BAR2 SZ EP   1   1424 29.82                             171   -0.04 7 20.8 190 
 BAR2 SZ ES   1   1424 44.82                             171   -0.18 7 20.8 190 
 BAR2 SZ I        1424 47.27        59.2 0.21                          20.8 190 
 BRR  HZ EP       1424 31.59                             152    0.1010 71.9 300 
 BRR  HN ES   1   1424 48.66                             152    0.77 7 71.9 300 
 PAM  SZ EP   1   1424 32.80                             150    0.14 7 79.7  39 
 PAM  SN ES   1   1424 49.86                             150   -0.12 7 79.7  39 
 RUS  HZ EP   1   1424 34.04                             144    0.15 7 98.1 176 
 RUS  HN ES   1   1424 52.34                             144    0.17 7 98.1 176 
 RUS  HZ I        1424 53.64        25.9 0.24                          98.1 176 
 PTB  HZ EP   1   1424 36.35                             132   -0.86 7  147 260 
 PTB  HN ES   1   1424 57.65                             132   -0.43 7  147 260 
 PTB  HZ I        1424 59.53        14.7 0.13                           147 260 
 OCA  HN ES   1   1425  0.59                             129   -0.46 7  163 353 
 ZAR  HZ EP   1   1424 43.02                             122    0.17 6  204 293 
 ZAR  HE ES   1   1425  7.71                             122   -0.40 6  204 293 
 NOR  SZ EP   1   1424 45.92                             118    0.02 6  233 235 
 NOR  SN ES   1   1425 13.37                             118   -0.17 6  233 235 
 CHI  HZ EP   1   1424 47.73                             117   -0.07 6  246 195 
 CHI  HZ I        1425 19.86        13.7 0.31                           246 195 
 HEL  HZ EP   1   1424 51.51                             115    1.05 6  271 256 
 HEL  HN ES   1   1425 22.28                             115    0.61 6  271 256 
 HEL  HZ I        1425 29.40         8.8 0.27                           271 256 
 PRA  HZ EP   1   1425  3.99                             106    0.35 4  390 210 
 PRA  HN ES   1   1425 44.20                             106   -0.92 4  390 210 
                                                                                
