 2012 12 7 1124 40.4 L   6.839 -73.347137.5  RSN  4 0.4 1.7LRSN                1
 GAP=213        0.96       7.0     8.5  9.4  0.3858E+02  0.3742E+02  0.2676E+02E
 Epicentro: ZAPATOCA - SANTANDER                                               3
 ACTION:UPD 13-01-04 14:26 OP:ep   STATUS:               ID:20121207112440 L   I
 2012-12-07-1120-00M.COL___242                                                 6
 STAT SP IPHASW D HRMM SECON CODA AMPLIT PERI AZIMU VELO AIN AR TRES W  DIS CAZ7
 BAR2 SZ EP       1124 59.86                             166    0.6210 32.8 146 
 BAR2 SZ ES       1125 13.82                             166   -0.1510 32.8 146 
 BAR2 SZ I        1125 15.73         9.6 0.28                          32.8 146 
 RUS  HZ EP       1125  3.23                             140   -0.7010  109 164 
 RUS  HN ES       1125 22.43                             140    0.1210  109 164 
 RUS  HN I        1125 24.06         8.7 0.34                           109 164 
 ZAR  HN ES       1125 33.02                             124   -0.08 9  182 294 
 ZAR  HN I        1125 45.02         5.1 0.30                           182 294 
 CHI  HZ EP       1125 17.71                             115    0.16 8  248 190 
 CHI  HN ES       1125 46.64                             115    0.10 8  248 190 
 CHI  HN I        1125 52.67         3.3 0.30                           248 190 
                                                                                
