 2010  6 7 1530 59.7 L   6.716 -72.951144.5  RSN  4 0.2 2.0LRSN                1
 GAP=235        0.43       4.6     7.3  5.0 -0.2339E+02  0.7062E+01 -0.3595E+01E
 Epicentro: CEPITA - SANTANDER                                                 3
 ACTION:UP  10-08-24 10:08 OP:vdl  STATUS:               ID:20100607153059 L   I
 2010-06-07-1528-47S.COL___111                                                 6
 STAT SP IPHASW D HRMM SECON CODA AMPLIT PERI AZIMU VELO SNR AR TRES W  DIS CAZ7
 BAR2 SZ EP   1   1531 19.57                             168     0.3 7   29 242 
 BAR2 SZ ES   1   1531 34.45                             168    -0.1 7   29 242 
 GUE  SZ EP   1   1531 24.49                             137    -0.3 7  123   1 
 GUE  SZ ES   1   1531 44.44                             137     0.0 7  123   1 
 GRA  SZ EP   1   1531 25.27                             136     0.1 7  130   7 
 GRA  SZ ES   1   1531 45.24                             136     0.1 7  130   7 
 HEL  HZ EP   2   1531 41.85                             113    -0.1 4  291 259 
 HEL  HE ES   2   1532 14.99                             113     0.1 4  291 259 
 HEL  HZ I        1532 19.20         4.8 0.69                           291 259 
                                                                                
