 2013  4 7 1553 32.7 L   6.781 -73.148148.7  RSN  7 0.4 1.5LRSN                1
 GAP=183        0.79       4.5     5.5  6.2  0.8076E+01  0.3741E+01  0.2200E+01E
 Epicentro: LOS SANTOS - SANTANDER                                             3
 ACTION:UPD 13-05-22 14:36 OP:EP   STATUS:               ID:20130407155332 L   I
 2013-04-07-1550-00M.COL___245                                                 6
 STAT SP IPHASW D HRMM SECON CODA AMPLIT PERI AZIMU VELO AIN AR TRES W  DIS CAZ7
 BAR2 SZ EP       1553 52.68                             171    0.0210 21.3 190 
 BAR2 SZ ES       1554  8.45                             171    0.2310 21.3 190 
 BAR2 SZ I        1554  9.16        15.3 0.18            170           21.3 190 
 GIR2 SZ EP   1   1553 52.81                             167    0.01 7 33.3 351 
 GIR2 SZ ES   1   1554  8.57                             167    0.11 7 33.3 351 
 GIR2 SZ I        1554 11.68         6.5 0.54            166           33.3 351 
 BRR  HZ EP       1553 54.51                             153    0.2810 72.0 300 
 BRR  HN ES       1554 10.99                             153   -0.0210 72.0 300 
 BRR  HZ I        1554 13.45         4.9 0.34            151           72.0 300 
 RUS  HZ EP       1553 56.71                             145    0.0910 98.5 176 
 RUS  HN ES   1   1554 15.01                             145   -0.25 7 98.5 176 
 RUS  HZ I        1554 16.50         2.4 0.36            147           98.5 176 
 PTB  HZ EP   1   1553 59.50                             133   -0.37 7  147 260 
 PTB  HN ES   1   1554 20.34                             133   -0.71 7  147 260 
 PTB  HZ I        1554 27.50         5.6 0.38            132            147 260 
 OCA  HE ES   1   1554 23.16                             130   -0.70 7  162 353 
 OCA  HZ I        1554 25.55         4.9 0.42            132            162 353 
 ZAR  HE ES   1   1554 31.74                             123    0.82 6  205 293 
                                                                                
