 2013  2 7 1434 50.0 L   6.688 -73.183150.8  RSN  4 0.1 1.6LRSN                1
 GAP=224        0.31       3.0     3.1  3.5  0.3669E+01  0.4314E-01 -0.1100E+00E
 Epicentro: VILLANUEVA - SANTANDER                                             3
 ACTION:UPD 13-03-12 09:31 OP:ep   STATUS:               ID:20130207143450 L   I
 2013-02-07-1430-00M.COL___240                                                 6
 STAT SP IPHASW D HRMM SECON CODA AMPLIT PERI AZIMU VELO AIN AR TRES W  DIS CAZ7
 BAR2 SZ EP       1435  9.99                             176   -0.0510 10.6 179 
 BAR2 SZ I        1435 26.24        11.0 0.12            168           10.6 179 
 BRR  HZ EP       1435 11.84                             152   -0.0310 74.6 308 
 BRR  HN ES       1435 28.97                             152    0.0310 74.6 308 
 BRR  HN I        1435 29.58        15.8 0.27            153           74.6 308 
 RUS  HN ES   1   1435 31.75                             148    0.03 7 88.7 173 
 RUS  HN I        1435 34.21         4.2 0.29            142           88.7 173 
 PTB  HZ EP       1435 16.91                             134    0.08 9  142 263 
 PTB  HN ES   1   1435 37.69                             134   -0.09 7  142 263 
 PTB  HZ I        1435 40.50         2.3 0.24            134            142 263 
                                                                                
