 2013  4 7 1746  8.7 L   6.107 -73.756106.9  RSN  8 0.4 1.4LRSN                1
 GAP= 71        0.81       3.6     3.4  7.6 -0.1591E+01  0.8413E+01  0.2915E+01E
 Epicentro: BOLIVAR - SANTANDER                                                3
 ACTION:UPD 13-05-22 14:36 OP:EP   STATUS:               ID:20130407174608 L   I
 2013-04-07-1740-00M.COL___245                                                 6
 STAT SP IPHASW D HRMM SECON CODA AMPLIT PERI AZIMU VELO AIN AR TRES W  DIS CAZ7
 RUS  HN ES   1   1746 40.74                             141   -0.57 7 78.2 108 
 RUS  HZ I        1746 42.10         4.4 0.23             91           78.2 108 
 BAR2 SZ EP       1746 27.07                             139    0.0310 83.1  50 
 BAR2 SZ ES       1746 41.72                             139    0.3610 83.1  50 
 PTB  HE ES   1   1746 41.29                             136   -0.68 7 91.0 302 
 BRR  HZ EP       1746 29.15                             130    0.0410  111   3 
 BRR  HE ES   1   1746 44.95                             130   -0.09 7  111   3 
 BRR  HZ I        1746 48.61         8.6 0.42             61            111   3 
 GIR2 SZ EP   1   1746 30.70                             127    0.11 7  124  30 
 GIR2 SZ ES   1   1746 47.88                             127    0.21 7  124  30 
 GIR2 SZ I        1746 48.13         3.6 0.36             61            124  30 
 NOR  HZ EP   1   1746 31.62                             124   -0.16 7  137 244 
 NOR  HE ES   1   1746 50.72                             124    0.94 7  137 244 
 NOR  HZ I        1746 51.99         7.4 0.16             61            137 244 
 CHI  HZ EP   1   1746 34.71                             119   -0.28 7  163 179 
 CHI  HZ I        1746 57.94         1.4 0.40             61            163 179 
 ZAR  HZ EP   1   1746 37.89                             113   -0.12 6  196 322 
 ZAR  HN ES   1   1747  0.73                             113   -0.14 6  196 322 
 ZAR  HZ I        1747  3.17         4.5 0.38             61            196 322 
                                                                                
