 2010  8 7 1205 28.2 L   6.794 -73.084141.7  RSN  4 0.1 1.3LRSN                1
 GAP=282        0.38       7.2     8.7  6.1 -0.4646E+02 -0.2567E+02  0.1593E+02E
 Epicentro: LOS SANTOS - SANTANDER                                             3
 ACTION:UP  10-09-07 10:52 OP:vdl  STATUS:               ID:20100807120528 L   I
 2010-08-07-1202-23S.COL___125                                                 6
 STAT SP IPHASW D HRMM SECON CODA AMPLIT PERI AZIMU VELO SNR AR TRES W  DIS CAZ7
 BTL  SZ EP   1   12 5 47.53                             171     0.2 7   25 304 
 BTL  SZ ES   2   12 6  2.13                             171    -0.2 5   25 304 
 BRR  HZ EP   1   12 5 49.28                             151     0.0 7   78 297 
 BRR  HN ES   2   12 6  5.75                             151     0.0 5   78 297 
 BRR  HZ I        12 6 10.09         9.9 0.21                            78 297 
 GUE  SZ EP   1   12 5 52.24                             140    -0.3 7  116   9 
 GUE  SZ ES   2   12 6 11.44                             140     0.0 5  116   9 
 GUE  SZ I        12 6 13.50         1.1 0.23                           116   9 
 GRA  SZ EP   1   12 5 53.09                             137     0.1 7  125  14 
 GRA  SZ ES   2   12 6 12.47                             137     0.2 5  125  14 
 GRA  SZ I        12 6 13.31         3.6 0.28                           125  14 
                                                                                
