 2016  8 7 1756 11.0 L   6.821 -73.129146.0  RSN  7 0.4 1.6LRSN                1
 GAP=138        1.05       5.2     4.6  7.1  0.1475E+01  0.8838E+01 -0.1005E+01E
 Epicentro: LOS SANTOS - SANTANDER                                             3
 ACTION:UPD 16-10-29 15:33 OP:rebc STATUS:               ID:20160807175611 L   I
 OLDACT:DUP 16-08-08 05:22 OP:ar   STATUS:               ID:20160807174801d    3
 2016-08-07-1748-00M.COL___359                                                 6
 STAT SP IPHASW D HRMM SECON CODA AMPLIT PERI AZIMU VELO AIN AR TRES W  DIS CAZ7
 BAR2 EZ EP     C 1756 30.59                             169   -0.1310 25.9 193 
 BAR2 EZ ES       1756 45.83                             169   -0.2710 25.9 193 
 BAR2 EZ I        1756 48.99         4.1 0.14                          25.9 193 
 BRR  HZ EP       1756 32.15                             152   -0.0710 71.8 296 
 BRR  HN ES       1756 49.53                             152    0.7710 71.8 296 
 BRR  HZ I        1756 53.49        10.2 0.16                          71.8 296 
 PAM  EZ EP       1756 33.17                             152    0.0910 74.4  40 
 PAM  EE ES       1756 49.83                             152   -0.4610 74.4  40 
 PAM  EZ I        1756 52.01         6.0 0.38                          74.4  40 
 RUS  HZ EP       1756 35.69                             143    0.7510  103 177 
 RUS  HN ES       1756 53.64                             143    0.0310  103 177 
 RUS  HZ I        1756 55.38         2.9 0.24                           103 177 
 PTB  HZ EP       1756 37.67                             132   -0.54 9  150 258 
 PTB  HE ES       1756 59.24                             132   -0.18 9  150 258 
 PTB  HZ I        1757  0.17         5.6 0.12                           150 258 
 ZAR  HZ EP       1756 43.34                             122   -0.22 9  205 291 
 ZAR  HE ES       1757  9.25                             122    0.29 9  205 291 
 ZAR  HZ I        1757 14.19         9.3 0.36                           205 291 
 NOR  HE ES   2   1757 14.29                             118   -0.89 4  238 234 
 NOR  HZ I        1757 16.71         3.2 0.20                           238 234 
                                                                                
