 2013  6 7 1340 11.0 L   6.802 -73.164135.9  RSN 10 0.4 2.1LRSN                1
 GAP=134        0.90       2.6     3.9  4.5 -0.2169E+01  0.5142E+01  0.7203E-01E
 Epicentro: LOS SANTOS - SANTANDER                                             3
 ACTION:UPD 14-01-08 09:53 OP:ep   STATUS:               ID:20130607134011 L   I
 OLDACT:REG 13-06-07 16:14 OP:nd   STATUS:               ID:20130607133959     3
 2013-06-07-1339-59M.COL___259                                                 6
 STAT SP IPHASW D HRMM SECON CODA AMPLIT PERI AZIMU VELO AIN AR TRES W  DIS CAZ7
 BAR2 SZ EP       1340 29.47                             170    0.0110 23.3 185 
 BAR2 SZ ES       1340 43.75                             170   -0.0910 23.3 185 
 BAR2 SZ I        1340 45.91        24.2 0.28            170           23.3 185 
 GIR2 SZ EP       1340 29.18                             167   -0.3210 30.8 354 
 GIR2 SZ ES       1340 43.72                             167   -0.2010 30.8 354 
 GIR2 SZ I        1340 45.92        18.5 0.54            166           30.8 354 
 BRR  HZ IP     C 1340 31.04                             151    0.0410 69.3 299 
 BRR  HN ES       1340 46.77                             151    0.1910 69.3 299 
 BRR  HZ I        1340 54.54        25.8 0.24            150           69.3 299 
 PAM  SZ EP       1340 32.21                             149   -0.0510 78.5  41 
 PAM  SN ES       1340 48.99                             149    0.1610 78.5  41 
 PAM  SZ I        1340 51.23        24.6 0.54            153           78.5  41 
 RUS  HZ EP       1340 33.76                             142   -0.0810  101 175 
 RUS  HN ES       1340 51.71                             142    0.0710  101 175 
 RUS  HZ I        1340 53.14        10.3 0.28            145            101 175 
 PTB  HZ EP       1340 36.33                             130   -0.69 9  146 259 
 PTB  HN ES       1340 57.08                             130   -0.21 9  146 259 
 PTB  HZ I        1341  1.57        13.9 0.16            131            146 259 
 OCA  HZ EP       1340 39.33                             127    0.79 9  160 354 
 OCA  HN ES       1341  0.13                             127    0.13 9  160 354 
 OCA  HZ I        1341  3.56        22.2 0.20            130            160 354 
 NOR  HZ EP       1340 45.87                             116   -0.16 8  233 234 
 NOR  HN ES       1341 13.80                             116    0.47 8  233 234 
 NOR  HZ I        1341 15.60         7.8 0.18            118            233 234 
 SML  HZ EP       1340 46.29                             115   -0.70 8  243 336 
 SML  HN ES       1341 15.35                             115    0.29 8  243 336 
 SML  HZ I        1341 15.99        28.8 0.26            118            243 336 
 PRA  HZ EP       1341  4.04                             105   -0.08 6  391 209 
 PRA  HN ES       1341 46.57                             105    1.03 6  391 209 
 PRA  HZ I        1341 52.12         7.2 0.30            107            391 209 
                                                                                
