 2013  5 7 1434 29.0 L   6.757 -73.151146.7  RSN  6 0.4 1.9LRSN                1
 GAP=183        0.90       4.9     7.3  6.5  0.1253E+02  0.1128E+02  0.4707E+00E
 Epicentro: LOS SANTOS - SANTANDER                                             3
 ACTION:UPD 13-06-20 09:48 OP:ep   STATUS:               ID:20130507143429 L   I
 2013-05-07-1430-00M.COL___256                                                 6
 STAT SP IPHASW D HRMM SECON CODA AMPLIT PERI AZIMU VELO AIN AR TRES W  DIS CAZ7
 BAR2 SZ EP       1434 48.70                             172    0.0610 18.5 191 
 BAR2 SZ ES       1435  3.80                             172   -0.1710 18.5 191 
 BAR2 SZ I        1435  5.77        14.6 0.14            176           18.5 191 
 GIR2 SZ EP   1   1434 49.03                             166    0.13 7 35.9 352 
 GIR2 SZ ES       1435  3.89                             166   -0.5410 35.9 352 
 BRR  HZ EP   1   1434 50.88                             152    0.54 7 73.1 302 
 BRR  HN ES   1   1435  8.00                             152    1.00 7 73.1 302 
 RUS  HZ EP       1434 52.41                             145   -0.0810 95.9 176 
 RUS  HZ I        1434 53.52         6.2 0.18            148           95.9 176 
 RUS  HE ES       1435 11.09                             145    0.2610 95.9 176 
 PTB  HZ EP       1434 55.61                             132   -0.28 9  146 261 
 PTB  HN ES   1   1435 16.44                             132   -0.45 7  146 261 
 PTB  HZ I        1435 17.50         8.8 0.14            132            146 261 
 SML  HZ EP   2   1435  5.90                             117   -0.20 4  248 336 
 SML  HE ES   1   1435 35.10                             117    0.04 6  248 336 
 SML  HZ I        1435 41.55        17.1 0.24            116            248 336 
                                                                                
