 2010  1 7 1202 23.1 L   6.801 -73.026142.0  RSN  6 0.3 1.9LRSN                1
 GAP=215        0.61       5.7    15.4  5.7 -0.4481E+02  0.1746E+02  0.8305E+01E
 Epicentro: CEPITA - SANTANDER                                                 3
 ACTION:UP  10-08-24 09:43 OP:vdl  STATUS:               ID:20100107120223 L   I
 2010-01-07-1200-00S.COL___096                                                 6
 STAT SP IPHASW D HRMM SECON CODA AMPLIT PERI AZIMU VELO SNR AR TRES W  DIS CAZ7
 BAR2 SZ IP       12 2 42.39                             168     0.010   29 217 
 BAR2 SZ ES       12 2 57.22                             168    -0.210   29 217 
 GIR2 SZ EP   1   12 2 42.57                             165     0.2 7   36 329 
 GIR2 SZ ES   2   12 2 57.72                             165     0.2 5   36 329 
 RUS  BZ EP   2   12 2 46.28                             143    -0.2 5  101 184 
 RUS  BZ I        12 2 47.24         7.3 0.12                           101 184 
 RUS  BN ES   2   12 3  4.81                             143     0.1 5  101 184 
 CHI  HZ EP   1   12 3  0.61                             116    -0.4 6  253 198 
 CHI  HN ES   1   12 3 31.18                             116     0.6 6  253 198 
 CHI  HZ I        12 3 37.12         5.3 0.51                           253 198 
 RREF BZ EP   2   12 3 10.93                             109     0.7 3  332 231 
 RREF BZ I        12 3 54.78         4.5 0.21                           332 231 
 PRA  HZ EP   2   12 3 16.97                             105    -0.3 3  399 211 
 PRA  HN ES   1   12 3 58.86                             105    -0.6 4  399 211 
                                                                                
