 2013  7 7 1038  4.9 L   6.760 -73.179151.5  RSN  8 0.4 1.7LRSN                1
 GAP=142        0.85       5.0     4.8  6.7 -0.2940E+01 -0.8573E+00  0.6316E+01E
 Epicentro: VILLANUEVA - SANTANDER                                             3
 ACTION:UPD 13-08-12 10:36 OP:ep   STATUS:               ID:20130707103804 L   I
 OLDACT:REG 13-07-07 14:22 OP:jn   STATUS:               ID:20130707102959     3
 2013-07-07-1029-59M.COL___267                                                 6
 STAT SP IPHASW D HRMM SECON CODA AMPLIT PERI AZIMU VELO AIN AR TRES W  DIS CAZ7
 BAR2 SZ EP       1038 24.97                             173   -0.1710 18.5 181 
 BAR2 SZ ES       1038 40.60                             173   -0.3210 18.5 181 
 BAR2 SZ I        1038 41.84        11.9 0.24            172           18.5 181 
 GIR2 SZ EP       1038 25.23                             166   -0.1410 35.3 357 
 BRR  HZ EP       1038 26.90                             154    0.2710 70.3 303 
 BRR  HN ES       1038 44.20                             154    0.6310 70.3 303 
 BRR  HZ I        1038 45.02         6.0 0.14            151           70.3 303 
 PAM  SZ EP     C 1038 28.08                             150    0.0110 83.2  40 
 PAM  SN ES   4   1038 44.38                             150   -1.77 0 83.2  40 
 PAM  SZ I        1038 47.42         7.2 0.56            152           83.2  40 
 PTB  HZ EP       1038 31.66                             134   -0.30 9  143 260 
 PTB  HN ES   1   1038 52.34                             134   -0.71 7  143 260 
 PTB  HZ I        1038 54.73         6.3 0.22            132            143 260 
 ZAR  HE ES   1   1039  3.10                             124    0.07 6  202 294 
 ZAR  HZ I        1039 10.00         4.4 0.46            123            202 294 
 NOR  HN ES   1   1039  7.90                             120   -0.16 6  229 235 
 NOR  HZ I        1039 10.81         5.5 0.18            120            229 235 
 CHI  HZ EP   1   1038 42.95                             119    0.59 6  243 195 
 CHI  HN ES   1   1039 12.04                             119    0.46 6  243 195 
 CHI  HZ I        1039 15.06         2.1 0.44            119            243 195 
                                                                                
