 2011  8 7 1727 43.2 L   6.765 -73.102140.2  RSN 10 0.2 2.4LRSN                1
 GAP=144        0.38       2.3     3.2  3.3 -0.1332E+01  0.1078E+01  0.3416E+01E
 Epicentro: LOS SANTOS - SANTANDER                                             3
 ACTION:UPD 12-07-25 14:06 OP:epov STATUS:               ID:20110807172743 L   I
 2011-08-07-1720-00M.COL___145                                                 6
 STAT SP IPHASW D HRMM SECON CODA AMPLIT PERI AZIMU VELO AIN AR TRES W  DIS CAZ7
 BAR2 SZ IP       1728  1.98                             171   -0.0810 21.0 205 
 BAR2 SZ ES   1   1728 16.75                             171   -0.07 7 21.0 205 
 BAR2 SZ I        1728 18.11       110.7 0.32                          21.0 205 
 BRR  HZ IP     D 1728  3.79                             150   -0.2810 77.3 299 
 BRR  HN ES   1   1728 20.63                             150    0.25 7 77.3 299 
 BRR  HZ I        1728 21.47        97.4 0.09                          77.3 299 
 PAM  SZ EP   1   1728  4.83                             150    0.04 7 77.6  35 
 PAM  SN ES   2   1728 21.90                             150    0.24 5 77.6  35 
 RUS  HZ EP   1   1728  6.02                             144   -0.04 7 96.5 179 
 RUS  HN ES   2   1728 23.84                             144   -0.08 5 96.5 179 
 RUS  HZ I        1728 26.55        26.3 0.33                          96.5 179 
 NOR  SZ EP   2   1728 19.19                             117    0.44 4  236 236 
 NOR  SN ES   2   1728 46.28                             117   -0.24 4  236 236 
 CHI  HZ EP       1728 20.49                             116    0.21 8  246 196 
 CHI  HN ES   2   1728 49.23                             116   -0.01 4  246 196 
 CHI  HZ I        1728 59.42        10.2 0.75                           246 196 
 VIL  SZ EP   2   1728 25.76                             111   -0.24 4  301 193 
 VIL  SN ES   2   1729  0.00                             111    0.58 4  301 193 
 VIL  SZ I        1729  8.56        10.0 0.46                           301 193 
 RREF HZ EP   1   1728 29.45                             110    0.26 5  323 230 
 RREF HE ES   2   1729  4.87                             110   -0.23 3  323 230 
 RREF HZ I        1729 18.32        12.9 0.41                           323 230 
 PRA  HZ EP   2   1728 36.61                             106    0.24 3  391 210 
 PRA  HN ES   2   1729 17.65                             106   -0.23 3  391 210 
 SJA  SZ EP   2   1728 36.77                             105   -0.44 3  397 194 
                                                                                
