 2013  7 7 1648 46.2 L   6.787 -73.393126.1  RSN  7 0.3 1.5LRSN                1
 GAP=127        0.77       4.3     5.0  7.7  0.8876E+01 -0.2215E+01  0.7162E+00E
 Epicentro: SAN VICENTE DE CHUCURI - SANTANDER                                 3
 ACTION:UPD 13-08-12 10:36 OP:ep   STATUS:               ID:20130707164846 L   I
 OLDACT:REG 13-07-07 17:56 OP:jn   STATUS:               ID:20130707164648     3
 2013-07-07-1646-48M.COL___224                                                 6
 STAT SP IPHASW D HRMM SECON CODA AMPLIT PERI AZIMU VELO AIN AR TRES W  DIS CAZ7
 GIR2 SZ EP       1649  3.44                             162   -0.4210 39.0  34 
 BRR  HZ EP     D 1649  4.16                             157    0.0410 49.9 315 
 BRR  HN ES       1649 18.14                             157    0.0810 49.9 315 
 BRR  HZ I        1649 19.08         5.2 0.25            156           49.9 315 
 RUS  HZ EP       1649  8.62                             138    0.1710  105 161 
 RUS  HN ES   1   1649 26.12                             138    0.35 7  105 161 
 RUS  HZ I        1649 27.45         3.1 0.34            140            105 161 
 PTB  HZ EP       1649  9.08                             133   -0.0910  121 257 
 PTB  HN ES   1   1649 26.45                             133   -0.59 7  121 257 
 PTB  HZ I        1649 31.87         5.2 0.20            133            121 257 
 OCA  HN ES   4   1649 31.64                             125   -2.50 0  161   3 
 OCA  HZ I        1649 37.48         7.2 0.14            126            161   3 
 ZAR  HE ES   1   1649 37.99                             121    0.74 7  180 296 
 ZAR  HZ I        1649 40.28         3.6 0.42            122            180 296 
 SML  HN ES   1   1649 47.88                             114    0.01 6  235 341 
                                                                                
