 2015  2 7 1514 49.4 L   6.820 -73.182147.5  RSN  6 0.3 1.6LRSN                1
 GAP=145        0.78       4.4     4.5  5.7 -0.8914E+01  0.8130E+01 -0.1435E+01E
 Epicentro: ZAPATOCA - SANTANDER                                               3
 ACTION:UPD 15-04-30 21:23 OP:nd   STATUS:               ID:20150207151449 L   I
 OLDACT:UP  15-02-07 23:06 OP:cam  STATUS:               ID:20150207150747     3
 OLDACT:REG 15-02-07 21:57 OP:cam  STATUS:               ID:20150207150747     3
 2015-02-07-1507-47M.COL___290                                                 6
 STAT SP IPHASW D HRMM SECON CODA AMPLIT PERI AZIMU VELO AIN AR TRES W  DIS CAZ7
 BAR2 EZ EP       1515  9.16                             170   -0.1210 25.2 180 
 BAR2 EZ ES       1515 25.06                             170    0.2710 25.2 180 
 BAR2 EZ I        1515 26.63         6.0 0.28            167           25.2 180 
 PAM  SZ EP       1515 12.07                             151    0.2110 78.3  43 
 PAM  SN ES       1515 29.38                             151    0.0110 78.3  43 
 PAM  SZ I        1515 31.09         4.4 0.22            158           78.3  43 
 RUS  HZ EP       1515 13.14                             143   -0.3710  103 174 
 RUS  HN ES       1515 32.05                             143   -0.2710  103 174 
 RUS  HN I        1515 38.96         4.1 0.32            144            103 174 
 PTB  HZ EP       1515 16.11                             133   -0.09 9  144 258 
 PTB  HN ES       1515 36.69                             133   -0.41 9  144 258 
 PTB  HZ I        1515 42.82         5.3 0.40            135            144 258 
 SPBC HZ EP       1515 18.03                             130    0.06 9  162 217 
 SPBC HN ES       1515 40.78                             130    0.53 9  162 217 
 SPBC HZ I        1515 46.96         9.5 0.24            131            162 217 
 GUY2CHZ EP   1   1515 33.58                             113    0.71 5  299 234 
                                                                                
