 2015  1 7 1829 40.3 L   6.396 -73.775 16.3  RSN  7 0.4 1.8LRSN                1
 GAP= 93        2.38       7.7     5.3 12.7 -0.4406E+01  0.1067E+02 -0.5951E+02E
 Epicentro: SANTA HELENA DEL OPON - SANTANDER                                  3
 ACTION:UPD 15-03-02 15:37 OP:nd   STATUS:               ID:20150107182940 L   I
 OLDACT:UP  15-01-07 22:42 OP:mh   STATUS:               ID:20150107182745     3
 OLDACT:UP  15-01-07 22:42 OP:mh   STATUS:               ID:20150107182745     3
 OLDACT:UP  15-01-07 22:40 OP:mh   STATUS:               ID:20150107182745     3
 OLDACT:REG 15-01-07 20:53 OP:mh   STATUS:               ID:20150107182745     3
 2015-01-07-1827-45M.COL___280                                                 6
 STAT SP IPHASW D HRMM SECON CODA AMPLIT PERI AZIMU VELO AIN AR TRES W  DIS CAZ7
 BAR2 EZ EP       1829 51.84                             105    0.1010 69.0  72 
 BAR2 EZ ES   1   1830  0.11                             105   -0.58 7 69.0  72 
 BAR2 EZ I        1830  1.60        35.4 0.29             47           69.0  72 
 PTB  HZ EP       1829 52.64                             103   -0.0610 77.0 282 
 PTB  HN ES   1   1830  2.43                             103    0.03 7 77.0 282 
 PTB  HZ I        1830  3.75       102.5 0.16             47           77.0 282 
 SPBC HZ EP       1829 54.73                             102    0.2210 88.6 202 
 SPBC HN ES       1830  5.97                             102    0.3410 88.6 202 
 SPBC HZ I        1830  9.02        25.1 0.10             47           88.6 202 
 RUS  HZ EP       1829 56.10                             101    0.2610 94.7 126 
 RUS  HN ES   1   1830  7.12                             101   -0.86 7 94.7 126 
 RUS  HZ I        1830  8.61        13.5 0.78             47           94.7 126 
 NOR  HZ EP   9   1830  6.87                              56    3.32 0  152 233 
 NOR  HN ES   1   1830 20.82                              56   -4.22 7  152 233 
 NOR  HZ I        1830 22.10        17.1 0.18             47            152 233 
 PAM  SZ EP       1830  5.67                              56    0.85 9  158  49 
 PAM  SN ES   1   1830 23.74                              56   -0.23 7  158  49 
 PAM  SZ I        1830 25.29        20.5 0.18             47            158  49 
 ZAR  HZ EP       1830  5.45                              56   -0.32 9  170 315 
 ZAR  HN ES       1830 25.14                              56   -0.52 9  170 315 
 ZAR  HZ I        1830 30.69         7.1 0.56             47            170 315 
                                                                                
