 2010  5 7 1920 42.8 L   6.766 -73.061147.2  RSN 16 0.5 2.6LRSN                1
 GAP=133        0.97       3.8     6.7  5.9 -0.1364E+02  0.1146E+00  0.4350E+01E
 Epicentro: LOS SANTOS - SANTANDER                                             3
 ACTION:UP  10-08-24 10:03 OP:vdl  STATUS:               ID:20100507192042 L   I
 2010-05-07-1919-07S.COL___105                                                 6
 STAT SP IPHASW D HRMM SECON CODA AMPLIT PERI AZIMU VELO SNR AR TRES W  DIS CAZ7
 BAR2 SZ IP       1921  2.49                             171    -0.210   24 215 
 BAR2 SZ ES   1   1921 17.82                             171    -0.3 7   24 215 
 GIR2 SZ EP   2   1921  2.59                             165    -0.3 5   38 337 
 GIR2 SZ ES   2   1921 18.30                             165    -0.2 5   38 337 
 BRR  HZ IP     C 1921  5.04                             150     0.310   81 298 
 BRR  HN ES   1   1921 21.93                             150     0.1 7   81 298 
 BRR  HZ I        1921 24.45        52.3 0.23                            81 298 
 RUS  HZ IP     D 1921  6.46                             145     0.010   97 181 
 RUS  HE ES   1   1921 24.80                             145    -0.1 7   97 181 
 RUS  HZ I        1921 26.82        27.6 0.31                            97 181 
 BRI  SZ IP       1921  7.05                             142     0.110  109  15 
 BRI  SZ ES   1   1921 25.40                             142    -0.3 7  109  15 
 GUE  SZ IP       1921  8.47                             140     0.610  119   7 
 GUE  SZ ES   1   1921 27.91                             140     0.5 7  119   7 
 GRA  SZ IP       1921  8.30                             137     0.010  127  13 
 GRA  SZ ES   1   1921 27.69                             137    -0.5 7  127  13 
 OCA  SZ ES   2   1921 34.45                             129     0.2 5  165 350 
 OCA  SZ I        1921 41.14        39.9 0.40                           165 350 
 CHI  HZ EP   2   1921 20.43                             118    -0.1 4  248 197 
 CHI  HE ES   2   1921 50.09                             118     0.2 4  248 197 
 CHI  HZ I        1921 53.69        28.0 0.52                           248 197 
 ROSC BZ EP   2   1921 22.08                             117     0.8 4  255 213 
 ROSC BE ES   2   1921 51.23                             117     0.0 4  255 213 
 ROSC BZ I        1921 57.10        40.8 0.49                           255 213 
 HEL  HZ EP   2   1921 23.03                             115    -1.0 4  280 257 
 HEL  HZ I        1922  1.01        20.4 0.30                           280 257 
 RREF BZ EP   2   1921 30.15                             111     0.6 3  327 231 
 RREF BE ES   1   1922  6.96                             111     0.9 5  327 231 
 RREF BZ I        1922 14.22        22.7 0.33                           327 231 
 TOL  SZ EP   1   1921 31.85                             110     0.2 5  348 226 
 DBB  SZ EP   1   1921 29.46                             109    -2.0 5  349 275 
 SDV  BZ IP     C 1921 32.07                             109    -0.3 6  356  49 
 SDV  BZ I        1921 33.06        12.0 0.44                           356  49 
 PRA  HZ IP     C 1921 36.33                             107    -0.3 6  394 211 
 PRA  HN ES   1   1922 17.93                             107    -0.6 4  394 211 
 PRA  HZ I        1922 24.55        23.3 0.47                           394 211 
                                                                                
