 2011  1 7 1845  7.9 L   6.809 -73.140146.1  RSN 11 0.3 2.6LRSN                1
 GAP=136        0.61       2.7     4.6  5.4 -0.2203E+01  0.4865E+01  0.1629E+01E
 Epicentro: LOS SANTOS - SANTANDER                                             3
 ACTION:UP  11-02-08 08:39 OP:pat  STATUS:               ID:20110107184507 L   I
 2011-01-07-1840-00M.COL___137                                                 6
 STAT SP IPHASW D HRMM SECON CODA AMPLIT PERI AZIMU VELO SNR AR TRES W  DIS CAZ7
 BAR2 SZ EP       1845 27.58                             170     0.010   24 191 
 BAR2 SZ ES   2   1845 42.60                             170    -0.4 5   24 191 
 BAR2 SZ I        1845 43.66        83.3 0.34                            24 191 
 GIR2 SZ EP   2   1845 27.64                             168     0.0 5   30 349 
 GIR2 SZ ES   2   1845 43.47                             168     0.5 5   30 349 
 RUS  HZ EP       1845 31.62                             143    -0.210  101 176 
 RUS  HN ES   2   1845 50.09                             143    -0.3 5  101 176 
 RUS  HZ I        1845 51.43        43.9 0.20                           101 176 
 GRA  SZ EP       1845 33.35                             137     0.210  125  17 
 GRA  SZ ES   2   1845 52.71                             137     0.0 5  125  17 
 GRA  SZ I        1845 54.41        59.4 0.34                           125  17 
 OCA  SZ EP       1845 35.79                             130    -0.4 9  159 353 
 OCA  SZ I        1846  2.03        39.8 0.21                           159 353 
 YOP  SZ EP       1845 38.36                             126     0.3 9  180 154 
 YOP  SN ES   2   1846  1.57                             126     0.0 4  180 154 
 YOP  SZ I        1846  3.23        26.7 0.35                           180 154 
 NOR  SZ EP   1   1845 43.61                             118    -0.2 6  236 234 
 NOR  SE ES   2   1846 12.04                             118     0.3 4  236 234 
 CHI  HZ EP       1845 45.87                             117     0.1 8  250 195 
 CHI  HE ES   2   1846 15.10                             117    -0.2 4  250 195 
 CHI  HZ I        1846 18.90        31.4 0.62                           250 195 
 HEL  HZ EP   2   1845 49.27                             115     1.0 4  273 256 
 HEL  HN ES   2   1846 19.75                             115     0.0 4  273 256 
 HEL  HZ I        1846 25.72        15.8 0.23                           273 256 
 PRA  HZ EP   2   1846  1.81                             106     0.2 3  393 210 
 PRA  HE ES   2   1846 43.27                             106    -0.2 3  393 210 
 SJA  SZ EP   2   1846  1.68                             106    -0.9 3  401 193 
 SJA  SZ I        1846 53.67        22.9 0.83                           401 193 
                                                                                
