 2013  4 7 1434 29.6 L   6.784 -73.200148.5  RSN  4 0.1 1.3LRSN                1
 GAP=173        0.39       9.5     4.4  6.1 -0.2149E+02 -0.8459E+01  0.3844E+02E
 Epicentro: ZAPATOCA - SANTANDER                                               3
 ACTION:UPD 13-05-22 14:36 OP:EP   STATUS:               ID:20130407143429 L   I
 2013-04-07-1430-00M.COL___245                                                 6
 STAT SP IPHASW D HRMM SECON CODA AMPLIT PERI AZIMU VELO AIN AR TRES W  DIS CAZ7
 BAR2 SZ EP   1   1434 49.39                             172   -0.16 7 21.3 175 
 GIR2 SZ EP   1   1434 49.70                             167    0.04 7 32.6   1 
 GIR2 SZ ES   1   1435  5.45                             167    0.17 7 32.6   1 
 GIR2 SZ I        1435  6.16         4.5 0.50            163           32.6   1 
 BRR  HZ EP   1   1434 50.97                             154    0.13 7 66.9 302 
 BRR  HE ES   1   1435  7.13                             154   -0.25 7 66.9 302 
 BRR  HZ I        1435  9.38         4.3 0.53            152           66.9 302 
 PTB  HZ EP   1   1434 56.22                             134   -0.04 7  142 259 
 PTB  HN ES   1   1435 17.17                             134    0.13 7  142 259 
                                                                                
