 2013  2 7 1249  8.5 L   6.770 -73.139141.9  RSN  9 0.3 2.4LRSN                1
 GAP= 97        0.74       3.4     3.1  5.0 -0.8659E+00  0.9257E+00  0.4727E+01E
 Epicentro: LOS SANTOS - SANTANDER                                             3
 ACTION:UPD 13-03-12 09:31 OP:ep   STATUS:               ID:20130207124908 L   I
 2013-02-07-1244-50M.COL___181                                                 6
 STAT SP IPHASW D HRMM SECON CODA AMPLIT PERI AZIMU VELO AIN AR TRES W  DIS CAZ7
 BAR2 SZ EP       1249 27.58                             171    0.0210 20.3 194 
 BAR2 SZ ES   1   1249 42.18                             171   -0.28 7 20.3 194 
 BAR2 SZ I        1249 43.88        67.9 0.34            169           20.3 194 
 BRR  HZ IP     C 1249 29.36                             151    0.0410 73.4 300 
 BRR  HN ES       1249 46.26                             151    0.6810 73.4 300 
 BRR  HN I        1249 47.09       126.3 0.38            149           73.4 300 
 PAM  SZ EP       1249 30.36                             149   -0.0310 79.5  38 
 PAM  SZ I        1249 30.83        88.8 0.28            152           79.5  38 
 PAM  SE ES       1249 47.20                             149   -0.2910 79.5  38 
 RUS  HZ EP   1   1249 31.42                             144   -0.17 7 97.3 176 
 RUS  HN ES   1   1249 49.67                             144    0.05 7 97.3 176 
 RUS  HZ I        1249 52.03        31.5 0.31            144           97.3 176 
 PTB  HZ EP   1   1249 34.43                             131   -0.69 7  148 260 
 PTB  HN ES   1   1249 55.23                             131   -0.69 7  148 260 
 PTB  HZ I        1249 58.11        24.5 0.10            130            148 260 
 TAM  HZ EP       1249 35.89                             130    0.20 9  154 104 
 TAM  HZ I        1249 36.23        31.2 0.24            132            154 104 
 ZAR  HZ EP   1   1249 41.17                             121    0.32 6  206 293 
 ZAR  HE ES   1   1250  6.01                             121   -0.11 6  206 293 
 ZAR  HZ I        1250 13.75        16.9 0.24            121            206 293 
 NOR  HZ EP   1   1249 43.70                             118   -0.12 6  233 235 
 NOR  HN ES   1   1250 11.55                             118    0.14 6  233 235 
 CHI  HZ EP   1   1249 45.95                             117    0.33 6  246 196 
 CHI  HE ES   1   1250 14.85                             117    0.25 6  246 196 
 CHI  HZ I        1250 18.96         5.7 0.32            117            246 196 
                                                                                
