 2012 12 7 1048 16.9 L   6.830 -73.147145.3  RSN  8 0.5 2.6LRSN                1
 GAP=135        1.13       3.5     5.3  8.1 -0.3445E-01  0.1008E+02 -0.5831E+01E
 Epicentro: LOS SANTOS - SANTANDER                                             3
 ACTION:UPD 13-01-04 14:26 OP:ep   STATUS:               ID:20121207104816 L   I
 2012-12-07-1045-35M.COL___194                                                 6
 STAT SP IPHASW D HRMM SECON CODA AMPLIT PERI AZIMU VELO AIN AR TRES W  DIS CAZ7
 BAR2 SZ EP       1048 36.99                             169    0.4710 26.6 188 
 BAR2 SZ ES       1048 52.13                             169    0.2810 26.6 188 
 BAR2 SZ I        1048 52.81        55.0 0.24                          26.6 188 
 PAM  SZ EP       1048 38.11                             152   -0.7910 74.9  41 
 PAM  SN ES       1048 56.12                             152    0.0410 74.9  41 
 PAM  SN I        1048 57.54        62.7 0.48                          74.9  41 
 RUS  HZ EP       1048 41.40                             143    0.5710  104 176 
 RUS  HN ES       1048 59.32                             143   -0.1910  104 176 
 RUS  HN I        1049  0.79        29.9 0.16                           104 176 
 PTB  HN ES       1049  4.87                             132   -0.02 9  148 258 
 PTB  HN I        1049 10.18        48.1 0.38                           148 258 
 OCA  HZ EP       1048 45.44                             130    0.60 9  157 353 
 OCA  HN ES       1049  6.35                             130   -0.30 9  157 353 
 OCA  HN I        1049 10.25        66.9 0.44                           157 353 
 ZAR  HN ES       1049 14.46                             122    0.15 9  203 291 
 ZAR  HN I        1049 19.47        50.2 0.52                           203 291 
 SML  HZ EP       1048 53.30                             118    0.16 8  241 335 
 SML  HN ES       1049 20.95                             118   -0.47 8  241 335 
 SML  HN I        1049 24.34        70.0 0.10                           241 335 
 CHI  HN ES       1049 23.71                             117   -0.84 8  252 195 
 CHI  HN I        1049 27.32        17.7 0.68                           252 195 
                                                                                
