 2011 11 7 1129 34.3 L   6.803 -73.135143.4  RSN  4 0.2 1.4LRSN                1
 GAP=138        0.38       3.6     6.0  6.0 -0.2758E+01  0.1188E+02 -0.3125E+01E
 Epicentro: LOS SANTOS - SANTANDER                                             3
 ACTION:UPD 12-07-13 16:08 OP:ep   STATUS:               ID:20111107112934 L   I
 2011-11-07-1128-27S.COL___174                                                 6
 STAT SP IPHASW D HRMM SECON CODA AMPLIT PERI AZIMU VELO AIN AR TRES W  DIS CAZ7
 BAR2 SZ EP       1129 53.55                             170   -0.0710 23.9 193 
 BAR2 SZ I        1129 53.93         5.6 0.03                          23.9 193 
 BAR2 SZ ES   2   1130  9.03                             170    0.31 5 23.9 193 
 BRR  HZ EP       1129 55.17                             152   -0.0410 72.1 298 
 BRR  HZ I        1130 19.62         8.3 0.16                          72.1 298 
 PAM  SZ EP   1   1129 56.33                             150    0.16 7 76.3  39 
 PAM  SN ES   2   1130 13.09                             150   -0.16 5 76.3  39 
 RUS  HZ EP   1   1129 57.90                             143    0.09 7  101 177 
 RUS  HE ES   2   1130 15.91                             143   -0.26 5  101 177 
 RUS  HZ I        1130 17.82         2.5 0.32                           101 177 
                                                                                
