 2012 12 7 1820 24.0 L   7.014 -73.135151.4  RSN  8 0.4 2.1LRSN                1
 GAP=124        0.88       3.7     4.4  9.6  0.1500E+01  0.1863E+02  0.4593E+01E
 Epicentro: FLORIDABLANCA - SANTANDER                                          3
 ACTION:UPD 13-01-04 14:26 OP:ep   STATUS:               ID:20121207182024 L   I
 2012-12-07-1818-48M.COL___207                                                 6
 STAT SP IPHASW D HRMM SECON CODA AMPLIT PERI AZIMU VELO AIN AR TRES W  DIS CAZ7
 GIR2 SZ EP       1820 44.53                             176    0.5610 9.65 318 
 BAR2 SZ EP       1820 45.28                             162    0.2910 47.0 186 
 BAR2 SZ I        1821  3.07        14.2 0.24                          47.0 186 
 PAM  SN ES       1821  3.06                             157    0.0610 60.0  53 
 PAM  SN I        1821  4.06        11.0 0.20                          60.0  53 
 RUS  HZ EP       1820 49.63                             139   -0.4610  124 177 
 RUS  HN ES       1821 10.13                             139   -0.3110  124 177 
 RUS  HN I        1821 11.39         9.9 0.34                           124 177 
 PTB  HZ EP       1820 52.23                             132    0.12 9  155 250 
 PTB  HN ES       1821 13.88                             132   -0.15 9  155 250 
 PTB  HN I        1821 20.39        12.2 0.26                           155 250 
 ZAR  HN ES       1821 21.49                             124    0.25 9  198 286 
 ZAR  HN I        1821 23.67        13.0 0.12                           198 286 
 SML  HN ES       1821 25.21                             121   -0.65 8  223 332 
 SML  HN I        1821 32.92        23.8 0.10                           223 332 
 NOR  HN ES       1821 31.28                             118    0.15 8  250 230 
 NOR  HN I        1821 33.63        10.2 0.16                           250 230 
                                                                                
