 2012  4 7 1544  4.1 L   6.781 -73.162146.9  RSN  7 0.3 1.8LRSN                1
 GAP=135        0.84       5.2     4.9  6.7  0.2949E+00  0.8796E+01 -0.1128E+01E
 Epicentro: LOS SANTOS - SANTANDER                                             3
 ACTION:UPD 12-07-05 11:51 OP:tino STATUS:               ID:20120407154404 L   I
 2012-04-07-1540-00M.COL___196                                                 6
 STAT SP IPHASW D HRMM SECON CODA AMPLIT PERI AZIMU VELO AIN AR TRES W  DIS CAZ7
 BAR2 SZ ES   1   1544 38.85                             171    -0.4 7   21 186 
 BRR  HZ EP       1544 25.72                             153     0.310   71 301 
 BRR  HZ I        1544 27.27        13.7 0.58                            71 301 
 BRR  HN ES   1   1544 42.67                             153     0.7 7   71 301 
 PAM  SZ EP       1544 26.63                             150     0.010   80  40 
 PAM  SN ES   1   1544 43.77                             150    -0.4 7   80  40 
 RUS  HZ EP       1544 28.09                             145     0.210   99 175 
 RUS  HE ES   1   1544 46.44                             145     0.1 7   99 175 
 RUS  HZ I        1544 47.85         7.5 0.30                            99 175 
 PTB  HZ EP       1544 30.63                             133    -0.4 9  146 260 
 PTB  HN ES   1   1544 51.58                             133    -0.4 7  146 260 
 PTB  HZ I        1544 53.79         8.6 0.16                           146 260 
 ZAR  HZ EP       1544 36.43                             123    -0.1 9  203 293 
 ZAR  HN ES   2   1545  1.82                             123     0.0 4  203 293 
 ZAR  HZ I        1545  8.74         7.9 0.26                           203 293 
 NOR  SZ EP   2   1544 39.67                             119     0.0 4  232 235 
                                                                                
