 2014 12 7 1935 56.8 L   6.816 -73.212141.4  RSN  5 0.3 1.9LRSN                1
 GAP=232        0.73       4.5     5.1  5.8  0.6774E+01  0.6812E+01  0.2656E+01E
 Epicentro: ZAPATOCA - SANTANDER                                               3
 ACTION:UPD 15-02-10 17:01 OP:nd   STATUS:               ID:20141207193556 L   I
 OLDACT:DUP 14-12-08 01:35 OP:carl STATUS:               ID:20141207192748d    3
 2014-12-07-1927-47M.COL___309                                                 6
 STAT SP IPHASW D HRMM SECON CODA AMPLIT PERI AZIMU VELO AIN AR TRES W  DIS CAZ7
 BAR2 SZ EP       1936 15.88                             170   -0.0310 24.9 172 
 BAR2 SZ ES       1936 30.67                             170   -0.1710 24.9 172 
 BAR2 SZ I        1936 31.90        21.9 0.28            168           24.9 172 
 BRR  HZ EP       1936 17.62                             154    0.5810 63.9 300 
 RUS  HZ EP       1936 20.10                             142   -0.1810  103 172 
 RUS  HN ES       1936 38.67                             142    0.0610  103 172 
 RUS  HZ I        1936 39.52         9.4 0.20            142            103 172 
 PTB  HZ EP       1936 22.31                             132   -0.45 9  141 258 
 PTB  HN ES       1936 43.02                             132   -0.01 9  141 258 
 PTB  HZ I        1936 45.08        11.3 0.48            132            141 258 
 CHI  HZ EP       1936 34.12                             116   -0.09 8  248 193 
 CHI  HN ES       1937  3.73                             116    0.31 8  248 193 
 CHI  HZ I        1937  5.72         6.3 0.32            117            248 193 
                                                                                
