 2017  5 7 1105 47.5 L   6.762 -73.116143.0  RSN  5 0.2 1.5LRSN                1
 GAP=142        0.48       2.2     2.4  4.2 -0.4838E-02  0.3232E+01  0.5733E+00E
 Epicentro: LOS SANTOS - SANTANDER                                             3
 ACTION:UPD 17-06-16 13:33 OP:jn   STATUS:               ID:20170507110547 L   I
 OLDACT:UP  17-05-07 21:15 OP:and  STATUS:               ID:20170507104937     3
 OLDACT:REG 17-05-07 19:57 OP:and  STATUS:               ID:20170507104937     3
 2017-05-07-1058-00M.COL___364                                                 6
 STAT SP IPHASW D HRMM SECON CODA AMPLIT PERI AZIMU VELO AIN AR TRES W  DIS CAZ7
 BRR  HZ EP       11 6  8.80                             150    0.1210 76.1 300 
 BRR  HN ES       11 6 25.27                             150    0.1010 76.1 300 
 PAM  EZ IP     C 11 6  9.52                             150   -0.0210 78.7  36 
 PAM  EN ES       11 6 26.48                             150   -0.2210 78.7  36 
 PAM  EZ I        11 6 28.69         4.0 0.48            153           78.7  36 
 RUS  HZ EP       11 6 10.85                             144    0.1510 96.2 178 
 RUS  HN ES       11 6 28.87                             144    0.1010 96.2 178 
 RUS  HZ I        11 6 29.88         5.7 0.24            146           96.2 178 
 ZAR  HZ EP       11 6 20.17                             121   -0.12 8  209 293 
 ZAR  HN ES       11 6 46.01                             121    0.17 8  209 293 
 ZAR  HZ I        11 6 51.23         4.1 0.38            121            209 293 
 NOR  HN ES       11 6 50.53                             118   -0.38 8  235 236 
 NOR  HZ I        11 6 56.48         1.8 0.18            118            235 236 
                                                                                
