 2012 10 7 1843 51.2 L   6.821 -73.120147.7  RSN  6 0.3 2.0LRSN                1
 GAP=139        0.59       5.9     5.5  8.4 -0.3082E+01 -0.5178E+01  0.2603E+02E
 Epicentro: LOS SANTOS - SANTANDER                                             3
 ACTION:UPD 12-11-22 17:02 OP:ep   STATUS:               ID:20121007184351 L   I
 2012-10-07-1840-00M.COL___222                                                 6
 STAT SP IPHASW D HRMM SECON CODA AMPLIT PERI AZIMU VELO AIN AR TRES W  DIS CAZ7
 BAR2 SZ EP       1844 10.98                             170   -0.1910 26.2 195 
 BAR2 SZ I        1844 27.74         9.4 0.54                          26.2 195 
 GIR2 SZ EP   2   1844 11.00                             168   -0.10 5 29.6 344 
 GIR2 SZ ES   3   1844 26.30                             168   -0.29 2 29.6 344 
 BRR  HZ EP       1844 12.51                             152   -0.1710 72.6 296 
 BRR  HE ES   1   1844 29.81                             152    0.41 7 72.6 296 
 BRR  HN I        1844 33.27        31.5 0.24                          72.6 296 
 PAM  SZ EP       1844 13.80                             152    0.3410 73.8  39 
 PAM  SZ I        1844 14.02        11.9 0.18                          73.8  39 
 PAM  SN ES   1   1844 30.45                             152   -0.34 7 73.8  39 
 RUS  HZ EP       1844 15.44                             143    0.1010  103 178 
 RUS  HN ES   3   1844 33.80                             143   -0.34 2  103 178 
 ZAR  HE ES   3   1844 48.28                             122   -1.26 2  206 291 
 ZAR  HN I        1844 55.02        20.3 0.28                           206 291 
                                                                                
