 2011  2 7 1342  5.7 L   6.883 -73.332124.2  RSN  5 0.3 1.3LRSN                1
 GAP=192        0.54       4.8     8.3  9.0 -0.5440E+01  0.3245E+02  0.1128E+01E
 Epicentro: BETULIA - SANTANDER                                                3
 *RUS-BTL-BAR2                                                                 3
 ACTION:UP  11-03-28 15:06 OP:jfem STATUS:               ID:20110207133952 L   I
 2011-02-07-1339-52S.COL___137                                                 6
 STAT SP IPHASW D HRMM SECON CODA AMPLIT PERI AZIMU VELO SNR AR TRES W  DIS CAZ7
 BTL  SZ EP       1342 22.65                             176     0.210    8  61 
 BAR2 SZ EP   2   1342 23.26                             163     0.1 5   36 153 
 BAR2 SZ ES   2   1342 36.37                             163    -0.3 5   36 153 
 BAR2 SZ I        1342 37.84        13.3 0.25                            36 153 
 RUS  HZ EP   1   1342 28.33                             135    -0.1 7  113 166 
 RUS  HN ES   1   1342 46.10                             135     0.0 7  113 166 
 RUS  HZ I        1342 47.62         2.0 0.22                           113 166 
 NOR  SN ES   2   1343  5.06                             115    -0.1 4  224 230 
 CHI  HZ EP   2   1342 42.08                             112    -0.7 4  253 190 
 CHI  HE ES   2   1343 12.31                             112     0.6 4  253 190 
 CHI  HZ I        1343 15.14         1.2 0.23                           253 190 
                                                                                
