 2017  9 7 1915 39.1 L   6.787 -73.094149.0  RSN 14 0.4 2.3LRSN                1
 GAP=117        0.95       3.1     3.2  5.0  0.1035E+00  0.3079E+01  0.5592E+01E
 Epicentro: LOS SANTOS - SANTANDER                                             3
 ACTION:UPD 17-10-05 19:10 OP:rebc STATUS:               ID:20170907191539 L   I
 OLDACT:DUP 17-09-07 23:19 OP:lv   STATUS:               ID:20170907190743d    3
 2017-09-07-1908-00M.COL___423                                                 6
 STAT SP IPHASW D HRMM SECON CODA AMPLIT PERI AZIMU VELO AIN AR TRES W  DIS CAZ7
 BAR2 EZ IP     C 1915 58.98                             171   -0.1210 23.6 205 
 BAR2 EZ ES       1916 14.27                             171   -0.4510 23.6 205 
 BAR2 EZ I        1916 15.78        36.8 0.27            168           23.6 205 
 PAM  EZ EP       1916  1.94                             152    0.4410 75.0  35 
 PAM  EN ES       1916 19.19                             152    0.2010 75.0  35 
 PAM  EZ I        1916 20.86        11.4 0.54            155           75.0  35 
 BRR  HZ EP       1916  0.84                             151   -0.0610 77.0 297 
 BRR  HE ES       1916 18.42                             151    0.4910 77.0 297 
 BRR  HZ I        1916 21.82        31.8 0.36            149           77.0 297 
 RUS  HZ EP       1916  2.96                             145   -0.0610 98.9 179 
 RUS  HN ES       1916 21.76                             145    0.0610 98.9 179 
 RUS  HZ I        1916 22.76        14.3 0.36            146           98.9 179 
 SPBC HZ EP       1916  7.99                             129   -0.08 9  166 221 
 SPBC HN ES       1916 30.21                             129   -0.47 9  166 221 
 SPBC HZ I        1916 32.39        28.7 0.20            129            166 221 
 YPLC HZ EP       1916  9.13                             128    0.41 9  173 153 
 ZAR  HZ EP       1916 11.78                             122   -0.56 8  210 292 
 ZAR  HN ES       1916 37.70                             122   -0.58 8  210 292 
 ZAR  HZ I        1916 42.64        20.6 0.36            122            210 292 
 NOR  HZ EP       1916 15.39                             119   -0.02 8  239 236 
 NOR  HN ES       1916 43.56                             119   -0.19 8  239 236 
 NOR  HZ I        1916 48.38        15.0 0.26            119            239 236 
 CHI  HZ EP       1916 17.18                             118    0.21 8  249 197 
 CHI  HN ES       1916 47.38                             118    0.85 8  249 197 
 HEL  HZ EP   4   1916 21.20                             115    1.17 0  277 256 
 HEL  HE ES       1916 51.91                             115   -0.07 7  277 256 
 HEL  HZ I        1916 59.61        11.7 0.30            115            277 256 
 PTGC HZ EP       1916 21.97                             112   -0.72 7  305 160 
 PTGC HN ES       1916 55.96                             112   -0.75 7  305 160 
 GUY2CHZ EP       1916 24.15                             113    0.88 7  305 236 
 GUY2CHE ES       1916 58.03                             113    0.28 7  305 236 
 GUY2CHZ I        1917  5.89        11.0 0.29                           305 236 
 ELA  HZ EP   4   1916 28.73                             111    2.27 0  333 230 
 ELA  HN ES       1917  3.61                             111    0.19 7  333 230 
 ELA  HZ I        1917 11.72         8.1 0.38            111            333 230 
 PRA  HZ EP       1916 32.71                             107   -0.19 6  394 210 
 PRA  HN ES       1917 15.09                             107    0.21 6  394 210 
 PRA  HZ I        1917 23.63         7.4 0.58            107            394 210 
 SJC  HZ EP   4   1916 33.34                             106   -1.92 0  414 326 
 SJC  HN ES   4   1917 15.14                             106   -3.95 0  414 326 
                                                                                
