 2014  9 7 1149 33.0 L   6.800 -73.126146.1  RSN 17 0.5 2.2LRSN                1
 GAP=185        1.16       3.1     5.1  6.5 -0.1170E+01  0.3237E+01  0.4716E+01E
 Epicentro: LOS SANTOS - SANTANDER                                             3
 ACTION:UPD 14-10-03 23:03 OP:nd   STATUS:               ID:20140907114933 L   I
 OLDACT:REG 14-09-07 20:25 OP:fm   STATUS:               ID:20140907114820     3
 2014-09-07-1148-20M.COL___263                                                 6
 STAT SP IPHASW D HRMM SECON CODA AMPLIT PERI AZIMU VELO AIN AR TRES W  DIS CAZ7
 BAR2 SZ EP     D 1149 53.00                             170    0.3510 23.8 195 
 BAR2 SZ ES   1   1150  7.55                             170   -0.45 7 23.8 195 
 BAR2 SZ I        1150 10.55        27.7 0.38            168           23.8 195 
 BRR  HZ EP       1149 54.91                             152    0.6410 73.1 298 
 BRR  HN ES       1150 11.61                             152    0.7410 73.1 298 
 BRR  HZ I        1150 14.45        18.2 0.64            150           73.1 298 
 RUS  HZ EP   1   1149 56.55                             144   -0.20 7  100 177 
 RUS  HE ES   1   1150 14.49                             144   -0.80 7  100 177 
 RUS  HZ I        1150 16.76        10.4 0.30            144            100 177 
 PTB  HZ EP       1149 59.49                             132   -0.67 9  150 259 
 PTB  HN ES       1150 20.46                             132   -0.90 9  150 259 
 PTB  HZ I        1150 24.11        16.8 0.56            131            150 259 
 OCA  HN ES       1150 23.52                             130    0.06 9  161 352 
 OCA  HZ I        1150 27.37        14.2 0.22            131            161 352 
 SPBC HZ EP       1150  1.94                             129    0.31 9  165 220 
 SPBC HN ES       1150 23.95                             129   -0.02 9  165 220 
 SPBC HZ I        1150 29.10        17.8 0.18            128            165 220 
 ZAR  HN ES       1150 31.71                             122    0.58 8  206 292 
 ZAR  HZ I        1150 37.41        18.3 0.18            122            206 292 
 NOR  HZ EP       1150  8.40                             118   -0.51 8  236 235 
 NOR  HE ES       1150 36.94                             118    0.00 8  236 235 
 NOR  HZ I        1150 39.81        13.7 0.16            118            236 235 
 SML  HZ EP       1150  9.34                             117   -0.38 8  245 335 
 SML  HN ES       1150 37.84                             117   -0.54 8  245 335 
 SML  HZ I        1150 43.20        14.2 0.28            118            245 335 
 CHI  HZ EP       1150 10.62                             117   -0.13 8  249 196 
 CHI  HN ES       1150 41.04                             117    0.82 8  249 196 
 CHI  HZ I        1150 46.17         4.9 0.36            118            249 196 
 ROSC BZ EP       1150 10.78                             117   -0.45 8  254 211 
 ROSC BN ES   4   1150 42.92                             117    1.85 0  254 211 
 ROSC BZ I        1150 48.91        10.8 0.40            117            254 211 
 HEL  HZ EP   4   1150 15.39                             115    1.96 0  274 256 
 HEL  HN ES       1150 44.44                             115   -0.55 8  274 256 
 GUY2CHZ EP       1150 17.13                             112    0.33 7  303 235 
 GUY2CHN ES       1150 51.47                             112    0.50 7  303 235 
 GUY2CHZ I        1150 59.64         9.6 0.40                           303 235 
 TOL  SZ EP       1150 22.41                             109    0.99 7  345 225 
 TOL  SE ES       1150 59.21                             109    0.01 7  345 225 
 TOL  SZ I        1151  9.63        15.8 0.48            110            345 225 
 MON  HN ES   4   1150 58.43                             108   -2.13 0  355 308 
 MON  HZ I        1151  5.62         2.8 0.42            109            355 308 
 PRA  HZ EP   1   1150 26.34                             106   -0.29 4  393 210 
 PRA  HN ES   1   1151  8.38                             106   -0.10 4  393 210 
 PRA  HZ I        1151 17.58         7.0 0.32            107            393 210 
 ORTC HZ EP   1   1150 27.23                             106    0.18 4  397 216 
 ORTC HN ES   4   1151 11.26                             106    2.03 0  397 216 
 ORTC HZ I        1151 15.02         3.8 0.24            107            397 216 
                                                                                
