 2010  2 7 1443 30.5 L   6.813 -73.094145.2  RSN  7 0.4 2.3LRSN                1
 GAP=147        0.59       3.7     7.7  6.4 -0.1327E+02 -0.2458E+01  0.2642E+01E
 Epicentro: LOS SANTOS - SANTANDER                                             3
 ACTION:UP  10-08-24 09:48 OP:vdl  STATUS:               ID:20100207144331dL   I
 2010-02-07-1442-05S.COL___093                                                 6
 STAT SP IPHASW D HRMM SECON CODA AMPLIT PERI AZIMU VELO SNR AR TRES W  DIS CAZ7
 BAR2 SZ EP       1443 50.29                             169     0.210   26 202 
 BAR2 SZ ES   2   1444  5.12                             169    -0.3 5   26 202 
 OCA  SZ EP       1443 58.85                             130     0.2 9  160 351 
 OCA  SZ ES   2   1444 20.38                             130    -0.3 5  160 351 
 OCA  SZ I        1444 25.86        40.5 0.24                           160 351 
 CHI  HZ EP       1444  8.17                             117    -0.3 8  252 196 
 CHI  HN ES   2   1444 38.53                             117     0.5 4  252 196 
 CHI  HZ I        1444 41.69         6.3 0.23                           252 196 
 RREF BZ EP   2   1444 18.00                             110     0.8 3  327 230 
 RREF BN ES   3   1444 53.80                             110     0.2 2  327 230 
 RREF BZ I        1445  2.75         7.8 0.49                           327 230 
 DBB  SZ EP   2   1444 17.81                             109    -0.8 3  345 274 
 SDV  BZ EP       1444 19.78                             108    -0.1 6  355  50 
 PRA  HZ EP       1444 24.18                             106    -0.3 6  396 210 
 PRA  HZ I        1445 13.29         7.4 0.30                           396 210 
                                                                                
