 2012  9 7 1045 39.3 L   6.724 -73.204141.9  RSN  4 0.3 1.6LRSN                1
 GAP=223        0.59       7.9     5.3  8.5  0.1393E+02  0.4850E+00  0.1929E+00E
 Epicentro: VILLANUEVA - SANTANDER                                             3
 ACTION:UPD 12-10-22 14:17 OP:ep   STATUS:               ID:20120907104539 L   I
 2012-09-07-1040-00M.COL___227                                                 6
 STAT SP IPHASW D HRMM SECON CODA AMPLIT PERI AZIMU VELO AIN AR TRES W  DIS CAZ7
 BAR2 SZ EP       1045 58.12                             173   -0.2010 14.8 171 
 BAR2 SZ ES   2   1046 13.09                             173   -0.06 5 14.8 171 
 BRR  HZ EP       1046  0.03                             153    0.0510 70.3 307 
 BRR  HN ES   3   1046 16.87                             153    0.77 2 70.3 307 
 BRR  HN I        1046 17.65        13.7 0.20                          70.3 307 
 RUS  HZ EP       1046  2.46                             145    0.3310 93.0 172 
 RUS  HN ES   3   1046 19.65                             145   -0.28 2 93.0 172 
 PTB  HZ EP       1046  4.88                             133   -0.37 9  140 262 
 PTB  HN ES   1   1046 25.72                             133    0.24 7  140 262 
 PTB  HN I        1046 31.06         2.8 0.50                           140 262 
                                                                                
