 2010  8 7 1533 50.9 L   6.783 -73.107146.2  RSN 18 0.5 3.4LRSN                1
 GAP=129        1.10       3.9     6.6  6.5 -0.1201E+02  0.6991E+01  0.8417E+00E
 Epicentro: LOS SANTOS - SANTANDER                                             3
 ACTION:UP  10-09-07 10:52 OP:vdl  STATUS:               ID:20100807153350 L   I
 2010-08-07-1529-19S.COL___125                                                 6
 STAT SP IPHASW D HRMM SECON CODA AMPLIT PERI AZIMU VELO SNR AR TRES W  DIS CAZ7
 BAR2 SZ IP       1534 10.54                             171    -0.110   23 202 
 BAR2 SZ ES   1   1534 25.38                             171    -0.6 7   23 202 
 BAR2 SZ I        1534 29.06       620.5 0.45                            23 202 
 GIR2 SZ EP       1534 10.57                             166    -0.210   34 344 
 BRR  HZ IP     C 1534 12.36                             151     0.010   76 298 
 BRR  HE ES   1   1534 29.64                             151     0.5 7   76 298 
 BRR  HZ I        1534 32.70       570.3 0.13                            76 298 
 RUS  HZ EP       1534 14.38                             145    -0.210   98 178 
 RUS  HN ES   1   1534 33.08                             145     0.1 7   98 178 
 RUS  HZ I        1534 34.90       330.4 0.28                            98 178 
 BRI  SZ EP       1534 15.12                             141     0.210  109  18 
 GUE  SZ EP       1534 15.54                             139    -0.210  118  10 
 GRA  SZ EP       1534 17.27                             137     1.010  126  15 
 OCA  SZ EP       1534 19.00                             129    -0.5 9  163 352 
 OCA  SZ ES   2   1534 41.64                                    -0.1 5  163 352 
 OCA  SZ I        1534 45.63       215.5 0.34                           163 352 
 CHI  HZ EP       1534 28.27                             117    -0.3 8  248 196 
 CHI  HN ES   1   1534 57.89                             117    -0.1 6  248 196 
 CHI  HZ I        1535  3.18       117.1 0.48                           248 196 
 ROSC BN ES   1   1534 59.23                             117     0.3 6  253 212 
 CVER SZ EP       1534 31.85                             115     0.6 8  272 203 
 CVER SZ I        1535 11.29       177.2 0.48                           272 203 
 HEL  HZ EP       1534 31.37                             114    -0.2 7  276 256 
 HEL  HE ES   3   1535  2.44                                    -0.8 2  276 256 
 HEL  HZ I        1535  8.97       121.2 0.24                           276 256 
 RREF HZ EP       1534 37.63                             111     0.3 7  324 230 
 RREF HE ES   2   1535 12.85                                    -0.7 3  324 230 
 RREF HZ I        1535 21.83       155.7 0.52                           324 230 
 DBB  SZ EP       1534 38.20                             109    -0.7 7  344 275 
 TOL  SZ EP       1534 39.92                             109     0.5 7  345 225 
 SDV  BZ EP       1534 40.23                             108    -0.5 6  358  50 
 SDV  BZ I        1535 19.05        45.4 0.52                           358  50 
 ANIL HZ EP       1534 41.70                             108     0.8 6  359 225 
 ANIL HN ES   1   1535 20.50                             108     0.5 5  359 225 
 ANIL HZ I        1535 26.65       201.3 0.46                           359 225 
 PRA  HZ EP       1534 43.74                             107    -0.8 6  392 210 
 PRA  HN ES   2   1535 25.49                             107    -0.8 3  392 210 
 PRA  HZ I        1535 30.32       115.1 0.58                           392 210 
                                                                                
