 2011  1 7 1820 28.3 L   6.787 -73.180140.0  RSN  9 0.3 2.3LRSN                1
 GAP=133        0.59       3.3     7.4  5.7 -0.1213E+02  0.1138E+02 -0.2359E+01E
 Epicentro: LOS SANTOS - SANTANDER                                             3
 ACTION:UP  11-02-08 08:39 OP:pat  STATUS:               ID:20110107182028 L   I
 2011-01-07-1820-00M.COL___137                                                 6
 STAT SP IPHASW D HRMM SECON CODA AMPLIT PERI AZIMU VELO SNR AR TRES W  DIS CAZ7
 BAR2 SZ EP       1820 47.16                             171    -0.110   22 181 
 BAR2 SZ ES   1   1821  1.94                             171    -0.1 7   22 181 
 BAR2 SZ I        1821  3.42        37.9 0.19                            22 181 
 GIR2 SZ EP   2   1820 47.58                             166     0.2 5   32 357 
 RUS  HZ EP   2   1820 51.28                             143    -0.2 5   99 174 
 RUS  HN ES   2   1821  9.34                             143    -0.1 5   99 174 
 RUS  HZ I        1821 11.08        23.6 0.27                            99 174 
 GRA  SZ IP       1820 53.29                             135     0.010  128  19 
 GRA  SZ ES   1   1821 13.33                             135     0.6 7  128  19 
 GRA  SZ I        1821 13.79        51.4 0.35                           128  19 
 OCA  SZ EP   1   1820 55.96                             128    -0.4 7  161 355 
 OCA  SZ ES   2   1821 17.43                             128    -0.7 5  161 355 
 OCA  SZ I        1821 22.57        40.9 0.29                           161 355 
 YOP  SZ EP   2   1820 58.00                             125     0.0 4  179 152 
 YOP  SZ I        1821  1.42        18.1 0.26                           179 152 
 NOR  SZ EP   2   1821  3.71                             118     0.4 4  231 234 
 NOR  SN ES   2   1821 31.13                             118     0.5 4  231 234 
 CHI  HZ EP   2   1821  5.76                             116     0.3 4  246 194 
 CHI  HZ I        1821 39.10         7.7 0.29                           246 194 
 PRA  HZ EP   2   1821 21.54                             106     0.2 3  389 209 
 PRA  HE ES   2   1822  2.18                             106    -0.4 3  389 209 
                                                                                
