 2014  5 7 1715  8.1 L   6.359 -73.575111.0  RSN  7 0.4 3.0WRSN                1
 SPEC AVERAGE  MO 13.6 ST0.858 OM  2.0 f0 4.69 R6.0707 AL 0.00 WI 30.0 MW  3.0 3
 SPEC SD       MO  1.4 ST  1.7 OM  1.4 f0 5.57 R7.2506 AL      WI      MW  0.9 3
 GAP= 92        0.93       3.4     3.2  7.8 -0.2464E+01  0.5630E+01 -0.1287E+02E
 SPEC RUS HH Z MO 11.9 ST0.168 OM  0.1 f0 6.79 R0.2834 AL-0.00 WI 30.0 MW  1.9 3
 SPEC RUS HH Z T171539 K 0.000 GD  133 VS 5.20 DE 3.50 Q0750.0 QA 1.50 VS 5.20 3
 SPEC SPBCHH Z MO 14.8 ST0.004 OM  2.9 f00.222 R8.6667 AL-0.00 WI 30.0 MW  3.8 3
 SPEC SPBCHH Z T171541 K 0.000 GD  146 VS 5.20 DE 3.50 Q0750.0 QA 1.50 VS 5.20 3
 SPEC PTB HH Z MO 14.7 ST0.008 OM  2.8 f00.296 R6.5000 AL-0.00 WI 30.0 MW  3.7 3
 SPEC PTB HH Z T171541 K 0.000 GD  149 VS 5.20 DE 3.50 Q0750.0 QA 1.50 VS 5.20 3
 SPEC NOR HH Z MO 15.4 ST0.001 OM  3.4 f00.094 R 20.47 AL-0.00 WI 30.0 MW  4.2 3
 SPEC NOR HH Z T171554 K 0.000 GD  201 VS 5.20 DE 3.50 Q0750.0 QA 1.50 VS 5.20 3
 SPEC ZAR HH Z MO 12.7 ST0.351 OM  0.6 f0 5.02 R0.3833 AL-0.00 WI 30.0 MW  2.4 3
 SPEC ZAR HH Z T171558 K 0.000 GD  219 VS 5.20 DE 3.50 Q0750.0 QA 1.50 VS 5.20 3
 SPEC SML HH Z MO 12.3 ST  4.6 OM  0.1 f0 15.7 R0.1225 AL-0.00 WI 30.0 MW  2.1 3
 SPEC SML HH Z T171615 K 0.000 GD  297 VS 5.20 DE 3.50 Q0750.0 QA 1.50 VS 5.20 3
 Epicentro: SANTA HELENA DEL OPON - SANTANDER                                  3
 OLDACT:UP  14-05-07 20:36 OP:mh   STATUS:               ID:20140507171000     3
 OLDACT:UP  14-05-07 20:36 OP:mh   STATUS:               ID:20140507171000     3
 OLDACT:REG 14-05-07 19:37 OP:mh   STATUS:               ID:20140507171000     3
 ACTION:UP  15-03-16 16:55 OP:nd   STATUS:               ID:20140507171508 L   I
 OLDACT:UPD 14-06-05 22:06 OP:nd   STATUS:               ID:20140507171508 L   3
 2014-05-07-1710-00M.COL___273                                                 6
 STAT SP IPHASW D HRMM SECON CODA AMPLIT PERI AZIMU VELO AIN AR TRES W  DIS CAZ7
 RUS  HZ EP       1715 26.73                             143    0.1110 75.0 133 
 RUS  HN ES       1715 41.15                             143    0.1110 75.0 133 
 SPBC HZ EP       1715 27.47                             136   -0.2010 95.6 215 
 SPBC HN ES       1715 43.40                             136    0.4910 95.6 215 
 PTB  HZ IP     C 1715 27.81                             135   -0.1010 99.5 282 
 PTB  HN ES       1715 42.58                             135   -0.7510 99.5 282 
 PAM  SZ EP   1   1715 33.04                             123    0.14 7  145  42 
 PAM  SN ES       1715 52.03                             123   -0.18 9  145  42 
 NOR  HZ EP       1715 34.07                             119   -0.63 9  168 239 
 NOR  HN ES       1715 55.79                             119    0.37 9  168 239 
 ZAR  HZ EP       1715 37.21                             115    0.27 9  189 312 
 ZAR  HN ES   1   1716  0.13                             115    0.73 7  189 312 
 URE  HZ EP   4   1715 43.54                             107   -2.08 0  265 306 
 URE  HN ES   4   1716 13.29                             107   -1.57 0  265 306 
 SML  HZ EP       1715 46.88                             106    0.10 7  276 349 
 SML  HN ES       1716 17.02                             106    0.11 7  276 349 
                                                                                
