 2016  8 7 1227 36.6 L   6.299 -73.688100.3  RSN  8 0.5 1.3LRSN                1
 GAP= 87        1.31       4.3     4.3 11.4 -0.2967E+00  0.1411E+02 -0.2495E+01E
 Epicentro: SANTA HELENA DEL OPON - SANTANDER                                  3
 ACTION:UPD 16-10-29 15:33 OP:rebc STATUS:               ID:20160807122736 L   I
 OLDACT:UP  16-08-08 16:17 OP:dani STATUS:               ID:20160807121802d    3
 OLDACT:UP  16-08-08 16:15 OP:dani STATUS:               ID:20160807121802d    3
 OLDACT:UP  16-08-08 16:12 OP:dani STATUS:               ID:20160807121802d    3
 OLDACT:UP  16-08-08 16:11 OP:dani STATUS:               ID:20160807121802d    3
 OLDACT:UP  16-08-08 16:10 OP:dani STATUS:               ID:20160807121802d    3
 OLDACT:UP  16-08-08 14:07 OP:dani STATUS:               ID:20160807121802d    3
 OLDACT:DUP 16-08-08 14:01 OP:dani STATUS:               ID:20160807121802d    3
 OLDACT:UP  16-08-08 14:00 OP:dani STATUS:               ID:20160807121801d    3
 OLDACT:UP  16-08-08 13:57 OP:dani STATUS:               ID:20160807121801d    3
 OLDACT:UP  16-08-08 13:57 OP:dani STATUS:               ID:20160807121801d    3
 OLDACT:UP  16-08-08 13:56 OP:dani STATUS:               ID:20160807121801d    3
 OLDACT:DUP 16-08-08 13:47 OP:dani STATUS:               ID:20160807121801d    3
 2016-08-07-1218-00M.COL___362                                                 6
 STAT SP IPHASW D HRMM SECON CODA AMPLIT PERI AZIMU VELO AIN AR TRES W  DIS CAZ7
 BAR2 EZ EP       1227 53.03                             145    0.0610 64.7  60 
 BAR2 EZ ES       1228  6.26                             145    0.5610 64.7  60 
 BAR2 EZ I        1228  7.04         5.6 0.16                          64.7  60 
 RUS  HZ EP       1227 54.40                             138   -0.1410 80.7 124 
 RUS  HE ES       1228  8.30                             138   -0.2010 80.7 124 
 RUS  HZ I        1228 10.11         5.4 0.33                          80.7 124 
 SPBC HZ EP       1227 54.39                             137    0.2010 83.2 211 
 SPBC HN ES       1228  7.68                             137   -0.2110 83.2 211 
 SPBC HZ I        1228 14.07         5.8 0.07                          83.2 211 
 PTB  HZ EP       1227 53.78                             135   -0.8110 89.0 287 
 PTB  HN ES       1228  7.87                             135   -0.7110 89.0 287 
 PTB  HZ I        1228 10.04         4.9 0.15                          89.0 287 
 BRR  HZ EP       1227 54.34                             135   -0.2510 89.4 358 
 BRR  HE ES       1228  8.78                             135    0.1810 89.4 358 
 BRR  HZ I        1228 11.25         6.5 0.20                          89.4 358 
 NOR  HE ES       1228 21.16                             118    1.03 9  154 238 
 ZAR  HE ES       1228 26.65                             113    0.59 9  185 316 
 ZAR  HZ I        1228 30.15         5.2 0.47                           185 316 
 HEL  HN ES   4   1228 32.39                             110    1.62 0  204 267 
 GUY2CHZ EP   4   1228 15.03                             108    5.95 0  220 237 
 GUY2CHZ I        1228 39.77         1.4 0.41                           220 237 
                                                                                
