 2017  4 7 1253 39.8 L   6.725 -73.444125.5  RSN  5 0.1 1.4LRSN                1
 GAP=152        0.37       2.7     2.2  3.2  0.3837E+01  0.2531E+01  0.2592E+01E
 Epicentro: EL CARMEN - SANTANDER                                              3
 ACTION:UPD 17-05-30 21:09 OP:jn   STATUS:               ID:20170407125339 L   I
 OLDACT:UP  17-04-07 21:37 OP:edw  STATUS:               ID:20170407124744     3
 OLDACT:REG 17-04-07 20:05 OP:ar   STATUS:               ID:20170407124744     3
 2017-04-07-1248-00M.COL___368                                                 6
 STAT SP IPHASW D HRMM SECON CODA AMPLIT PERI AZIMU VELO AIN AR TRES W  DIS CAZ7
 BAR2 EZ IP     D 1253 57.26                             165   -0.0310 32.4 117 
 BAR2 EZ ES       1254 10.72                             165   -0.1910 32.4 117 
 BAR2 EZ I        1254 11.43        22.1 0.20            167           32.4 117 
 BRR  HN ES       1254 11.86                             156    0.1810 51.6 325 
 RUS  HZ EP       1254  1.67                             139    0.0310  100 157 
 RUS  HN ES       1254 18.72                             139    0.0910  100 157 
 RUS  HZ I        1254 23.31         2.0 0.30            139            100 157 
 PTB  HZ EP       1254  2.11                             135    0.0110  114 260 
 PTB  HN ES       1254 19.44                             135   -0.0310  114 260 
 PTB  HZ I        1254 24.25         3.0 0.38            132            114 260 
 ZAR  HZ EP   4   1254  1.41                             121   -6.85 0  178 299 
 ZAR  HN ES       1254 30.36                             121   -0.07 9  178 299 
 ZAR  HZ I        1254 37.74         3.3 0.24            121            178 299 
                                                                                
