 2013  7 7 1134 56.6 L   6.804 -73.141150.8  RSN  9 0.4 1.8LRSN                1
 GAP=187        0.93       4.8     5.9  7.4  0.8165E+01  0.2825E+01 -0.1168E+02E
 Epicentro: LOS SANTOS - SANTANDER                                             3
 ACTION:UPD 13-08-12 10:36 OP:ep   STATUS:               ID:20130707113456 L   I
 OLDACT:REG 13-07-07 14:23 OP:jn   STATUS:               ID:20130707112959     3
 2013-07-07-1129-59M.COL___267                                                 6
 STAT SP IPHASW D HRMM SECON CODA AMPLIT PERI AZIMU VELO AIN AR TRES W  DIS CAZ7
 BAR2 SZ EP       1135 16.99                             171    0.1310 23.8 191 
 BAR2 SZ ES       1135 32.15                             171   -0.5010 23.8 191 
 BAR2 SZ I        1135 34.96         8.7 0.36            166           23.8 191 
 GIR2 SZ EP   1   1135 16.97                             168    0.10 7 30.9 349 
 BRR  HZ EP       1135 18.82                             153    0.5010 71.4 298 
 BRR  HN ES   1   1135 36.08                             153    0.83 7 71.4 298 
 RUS  HZ EP       1135 21.11                             145    0.2210  101 176 
 RUS  HN ES       1135 39.68                             145   -0.1410  101 176 
 RUS  HZ I        1135 41.31         6.4 0.38            142            101 176 
 PTB  HZ EP   1   1135 23.48                             133   -0.57 7  148 259 
 PTB  HN ES   1   1135 44.93                             133   -0.51 7  148 259 
 PTB  HZ I        1135 47.96         7.0 0.30            131            148 259 
 ZAR  HE ES   1   1135 54.85                             123   -0.16 6  204 292 
 NOR  HN ES   1   1136  1.34                             119    0.48 6  235 234 
 NOR  HZ I        1136  5.27         6.2 0.20            118            235 234 
 SML  HZ EP       1135 33.03                             118   -0.48 8  244 335 
 SML  HN ES   1   1136  2.22                             118   -0.06 6  244 335 
 PRA  HZ EP   4   1135 51.81                             107    1.43 0  393 210 
 PRA  HN ES   4   1136 30.86                             107   -1.46 0  393 210 
 PRA  HZ I        1136 37.02         2.3 0.34            107            393 210 
                                                                                
