 2013  7 7 1919 14.3 L   6.739 -72.821  3.9  RSN  6 0.5 1.4LRSN                1
 GAP=186        1.12       3.2     5.1  8.1 -0.5354E+01  0.1800E+02 -0.2745E+01E
 Epicentro: MOLAGAVITA - SANTANDER                                             3
 ACTION:UPD 13-08-12 10:36 OP:ep   STATUS:               ID:20130707191914 L   I
 OLDACT:REG 13-07-07 20:05 OP:jn   STATUS:               ID:20130707191748     3
 2013-07-07-1917-48M.COL___221                                                 6
 STAT SP IPHASW D HRMM SECON CODA AMPLIT PERI AZIMU VELO AIN AR TRES W  DIS CAZ7
 BAR2 SZ EP       1919 21.81                              47    0.0910 43.1 248 
 BAR2 SZ ES       1919 26.72                              47   -0.7610 43.1 248 
 BAR2 SZ I        1919 27.54        16.6 0.14             47           43.1 248 
 GIR2 SZ EP       1919 23.65                              47    0.1110 55.8 312 
 PAM  SZ EP   1   1919 25.77                              47    0.06 7 67.8  11 
 PAM  SN ES   1   1919 34.00                              47   -0.59 7 67.8  11 
 PAM  SZ I        1919 35.61        15.2 0.20             47           67.8  11 
 RUS  HZ EP       1919 30.98                              47    0.6910 98.0 197 
 RUS  HN ES   1   1919 42.33                              47   -0.41 7 98.0 197 
 RUS  HZ I        1919 44.51         8.8 0.22             47           98.0 197 
 BRR  HZ EP   4   1919 32.59                              47    1.50 0  107 293 
 BRR  HN ES   1   1919 44.78                              47    0.63 7  107 293 
 BRR  HZ I        1919 52.88         8.8 0.56             47            107 293 
 PTB  HZ EP   4   1919 43.80                              37    1.40 0  182 263 
 PTB  HE ES   1   1920  4.41                              37    0.13 7  182 263 
 PTB  HZ I        1920  7.08         6.9 0.34             37            182 263 
                                                                                
