 2013  8 7 1539 50.2 L   6.797 -73.149147.8  RSN 11 0.4 1.9LRSN                1
 GAP=136        1.07       3.6     4.8  6.4 -0.3863E+01  0.8034E+01  0.2081E+01E
 Epicentro: LOS SANTOS - SANTANDER                                             3
 ACTION:UPD 14-01-14 09:00 OP:ep   STATUS:               ID:20130807153950 L   I
 OLDACT:UP  13-08-07 16:19 OP:jn   STATUS:               ID:20130807153850     3
 OLDACT:REG 13-08-07 14:55 OP:jn   STATUS:               ID:20130807153850     3
 2013-08-07-1538-50M.COL___225                                                 6
 STAT SP IPHASW D HRMM SECON CODA AMPLIT PERI AZIMU VELO AIN AR TRES W  DIS CAZ7
 BAR2 SZ EP       1540 10.08                             171   -0.0310 22.9 189 
 BAR2 SZ ES       1540 25.27                             171   -0.3410 22.9 189 
 BAR2 SZ I        1540 26.25        12.9 0.28            168           22.9 189 
 GIR2 SZ EP       1540 10.19                             167    0.0310 31.6 351 
 GIR2 SZ ES       1540 25.75                             167    0.0410 31.6 351 
 GIR2 SZ I        1540 27.65        12.2 0.18            168           31.6 351 
 BRR  HZ EP       1540 11.99                             153    0.3910 71.1 299 
 BRR  HN ES       1540 29.38                             153    1.1110 71.1 299 
 BRR  HZ I        1540 32.43        16.3 0.28            151           71.1 299 
 PAM  SZ EP       1540 12.86                             151    0.1610 77.9  40 
 PAM  SN ES       1540 30.27                             151    0.0510 77.9  40 
 PAM  SZ I        1540 32.07        12.1 0.44            155           77.9  40 
 RUS  HE ES       1540 32.66                             144   -0.1710  100 176 
 RUS  HZ I        1540 33.95        12.5 0.24            144            100 176 
 PTB  HZ EP       1540 16.72                             133   -0.62 9  147 259 
 PTB  HN ES       1540 38.09                             133   -0.39 9  147 259 
 PTB  HZ I        1540 43.94        11.3 0.18            131            147 259 
 OCA  HN ES       1540 40.16                             130   -0.81 9  161 353 
 SPBC HZ EP   1   1540 19.16                             130    0.31 7  163 219 
 SPBC HN ES       1540 41.01                             130   -0.15 9  163 219 
 SPBC HZ I        1540 45.16        20.9 0.22            129            163 219 
 ZAR  HZ EP   1   1540 23.48                             123    0.68 6  204 292 
 ZAR  HN ES   1   1540 47.87                             123   -0.33 6  204 292 
 ZAR  HZ I        1540 54.17        16.4 0.42            123            204 292 
 NOR  HE ES   1   1540 53.97                             119    0.01 6  234 234 
 CHI  HZ EP   1   1540 28.42                             118    0.42 6  248 195 
 CHI  HN ES   1   1540 57.49                             118    0.03 6  248 195 
 CHI  HZ I        1541  7.30         3.6 0.38            118            248 195 
                                                                                
