 2011  4 7 1842 27.1 L   6.749 -73.090138.4  RSN  4 0.3 1.8LRSN                1
 GAP=177        0.54      11.7     8.7  7.1 -0.4069E+02 -0.2409E+02  0.1663E+01E
 Epicentro: LOS SANTOS - SANTANDER                                             3
 ACTION:UP  11-06-22 15:29 OP:REBC STATUS:               ID:20110407184226 L   I
 2011-04-07-1837-45S.COL___138                                                 6
 STAT SP IPHASW D HRMM SECON CODA AMPLIT PERI AZIMU VELO SNR AR TRES W  DIS CAZ7
 BAR2 SZ ES   2   1842 59.89                             173    -0.5 5   20 211 
 BAR2 SZ I        1843  1.39         9.2 0.30                            20 211 
 BTL  SZ EP       1842 46.14                                     0.210   27 314 
 BTL  SZ ES   1   1843  0.93                             168     0.3 7   27 314 
 PAM  SZ EP       1842 48.55                             149    -0.110   78  33 
 PAM  SN ES   2   1843  5.31                             149    -0.1 5   78  33 
 BRR  HZ EP   3   1842 47.36                             149    -0.6 2   79 300 
 BRR  HZ I        1842 48.94        18.2 0.20                            79 300 
 BRR  HN ES   2   1843  3.98                             149    -0.3 5   79 300 
                                                                                
