 2012  5 7 1311 34.7 L   6.789 -73.124145.2  RSN  5 0.2 1.1LRSN                1
 GAP=140        0.53       4.2     4.2  5.9 -0.5253E+01  0.7317E+01 -0.2891E+01E
 Epicentro: LOS SANTOS - SANTANDER                                             3
 ACTION:UP  12-07-05 12:03 OP:pat  STATUS:               ID:20120507131134 L   I
 2012-05-07-1310-00M.COL___192                                                 6
 STAT SP IPHASW D HRMM SECON CODA AMPLIT PERI AZIMU VELO SNR AR TRES W  DIS CAZ7
 BAR2 SZ EP   1   1311 54.19                             171    -0.1 7   23 197 
 BAR2 SZ ES   1   1312  9.73                             171     0.2 7   23 197 
 BRR  HZ EP   2   1311 56.13                             151     0.2 5   74 298 
 PAM  SZ EP   1   1311 56.46                             151    -0.4 7   77  38 
 PAM  SN ES   1   1312 14.15                             151     0.1 7   77  38 
 RUS  HZ EP   1   1311 58.52                             144     0.2 7   99 177 
 RUS  HN ES   1   1312 16.47                             144    -0.2 7   99 177 
 RUS  HZ I        1312 18.27         2.1 0.28                            99 177 
 PTB  HZ EP   1   1312  2.07                             131     0.3 7  150 259 
 PTB  HE ES   1   1312 22.70                             131    -0.3 7  150 259 
 PTB  HZ I        1312 27.04         1.9 0.41                           150 259 
                                                                                
