 2015  5 7 1013 36.0 L   6.651 -73.463106.0  RSN  4 0.2 1.7LRSN                1
 GAP=199        0.51       5.0     4.3  4.3  0.1344E+02  0.6610E+01 -0.1746E+01E
 Epicentro: EL CARMEN - SANTANDER                                              3
 ACTION:UPD 15-09-10 22:02 OP:cam  STATUS:               ID:20150507101336 L   I
 OLDACT:DUP 15-05-07 23:09 OP:stll STATUS:               ID:20150507100751d    3
 2015-05-07-1007-50M.COL___285                                                 6
 STAT SP IPHASW D HRMM SECON CODA AMPLIT PERI AZIMU VELO AIN AR TRES W  DIS CAZ7
 BAR2 EZ EP       1013 50.98                             162   -0.1510 31.7 102 
 BAR2 EZ ES       1014  3.21                             162    0.2710 31.7 102 
 BAR2 EZ I        1014  4.37        34.7 0.48            156           31.7 102 
 BRR  HZ EP       1013 51.94                             149   -0.1410 57.5 331 
 BRR  HN ES       1014  4.46                             149   -0.1710 57.5 331 
 ZAR  HZ EP       1014  3.38                             115   -0.14 9  180 301 
 ZAR  HN ES       1014 25.23                             115    0.24 9  180 301 
 ZAR  HZ I        1014 27.39         3.5 0.58            114            180 301 
 SML  HZ EP   1   1014 11.41                             108    0.29 6  247 344 
 SML  HE ES   1   1014 38.57                             108    0.04 6  247 344 
 SML  HZ I        1014 46.05         3.2 0.10            105            247 344 
                                                                                
