 2014  3 7 1306 28.0 L   6.794 -73.176139.9  RSN  9 0.4 1.8LRSN                1
 GAP=133        0.87       2.7     3.5  5.4 -0.1022E+01  0.7498E+01  0.1901E+00E
 Epicentro: LOS SANTOS - SANTANDER                                             3
 ACTION:UPD 14-04-09 23:15 OP:nd   STATUS:               ID:20140307130628 L   I
 OLDACT:REG 14-03-07 15:34 OP:stll STATUS:               ID:20140307125816     3
 2014-03-07-1258-16M.COL___225                                                 6
 STAT SP IPHASW D HRMM SECON CODA AMPLIT PERI AZIMU VELO AIN AR TRES W  DIS CAZ7
 BAR2 SZ EP       13 6 46.95                             171    0.1010 22.3 182 
 BAR2 SZ ES       13 7  1.94                             171    0.3510 22.3 182 
 BAR2 SZ I        13 7  4.84        27.0 0.26            170           22.3 182 
 PAM  SZ EP       13 6 50.04                             149    0.3210 80.1  41 
 PAM  SN ES       13 7  6.74                             149    0.0510 80.1  41 
 PAM  SZ I        13 7  8.91         8.2 0.58            154           80.1  41 
 RUS  HZ EP       13 6 50.55                             143   -0.5510  100 174 
 RUS  HN ES       13 7  9.01                             143   -0.1410  100 174 
 RUS  SZ I        13 7 10.95         7.2 0.72            146            100 174 
 PTB  HZ EP       13 6 53.83                             131   -0.30 9  144 259 
 PTB  HN ES       13 7 14.04                             131   -0.50 9  144 259 
 PTB  SZ I        13 7 21.61         6.9 0.34            133            144 259 
 ZAR  HN ES       13 7 24.88                             121    0.38 9  201 293 
 NOR  HZ EP       13 7  3.04                             118    0.03 8  232 234 
 NOR  HN ES       13 7 30.33                             118   -0.01 8  232 234 
 NOR  SZ I        13 7 36.61         4.6 0.20            120            232 234 
 SML  HZ EP       13 7  3.91                             116   -0.26 8  243 336 
 SML  HE ES       13 7 32.12                             116   -0.30 8  243 336 
 SML  SZ I        13 7 34.41         9.0 0.08            119            243 336 
 CHI  HZ EP       13 7  5.17                             116    0.01 8  247 194 
 CHI  HN ES       13 7 34.16                             116   -0.03 8  247 194 
 CHI  SZ I        13 7 37.06         4.9 0.82            119            247 194 
 GUY2CHZ EP       13 7 12.02                             111    1.08 7  298 235 
 GUY2CHN ES       13 7 44.65                             111    0.19 7  298 235 
 GUY2CSZ I        13 7 53.46         4.3 0.72                           298 235 
                                                                                
