 2013  4 7 1043 25.4 L   6.787 -73.158148.3  RSN  7 0.4 1.5LRSN                1
 GAP=182        0.80       4.9     6.8  6.1  0.1066E+02  0.1093E+02 -0.3819E+01E
 Epicentro: LOS SANTOS - SANTANDER                                             3
 ACTION:UPD 13-05-22 14:36 OP:EP   STATUS:               ID:20130407104325 L   I
 2013-04-07-1040-00M.COL___245                                                 6
 STAT SP IPHASW D HRMM SECON CODA AMPLIT PERI AZIMU VELO AIN AR TRES W  DIS CAZ7
 BAR2 SZ EP       1043 45.36                             171    0.0710 21.7 187 
 BAR2 SZ ES   1   1044  0.44                             171   -0.38 7 21.7 187 
 BAR2 SZ I        1044  3.29         6.5 0.30            159           21.7 187 
 GIR2 SZ ES   1   1044  0.99                             167   -0.01 7 32.5 353 
 BRR  HZ EP       1043 47.34                             153    0.5510 70.7 300 
 BRR  HN ES   1   1044  3.97                             153    0.49 7 70.7 300 
 BRR  HZ I        1044  5.97         6.7 0.58            137           70.7 300 
 RUS  HZ EP   1   1043 49.68                             145    0.39 7 99.2 175 
 RUS  HN ES   1   1044  7.44                             145   -0.50 7 99.2 175 
 RUS  HZ I        1044  9.65         2.1 0.40            135           99.2 175 
 PTB  HZ EP       1043 52.16                             133   -0.26 9  146 259 
 PTB  HN ES   1   1044 13.38                             133   -0.12 7  146 259 
 PTB  HZ I        1044 20.63         5.2 0.30            119            146 259 
 ZAR  HZ EP       1043 58.00                             123    0.07 9  203 293 
 ZAR  HZ I        1044 30.25         2.8 0.26            112            203 293 
 SML  HZ EP   1   1044  1.63                             118   -0.61 6  244 336 
 SML  HN ES   1   1044 30.52                             118   -0.47 6  244 336 
                                                                                
