 2016  3 7 1308 36.2 L   6.784 -73.147145.6  RSN  4 0.1 1.5LRSN                1
 GAP=204        0.30       3.7     8.6  2.7 -0.2851E+02 -0.5496E+00  0.1762E+01E
 Epicentro: LOS SANTOS - SANTANDER                                             3
 ACTION:UPD 16-05-13 21:22 OP:cam  STATUS:               ID:20160307130836 L   I
 OLDACT:REG 16-03-07 20:11 OP:ar   STATUS:               ID:20160307125748     3
 2016-03-07-1257-48M.COL___321                                                 6
 STAT SP IPHASW D HRMM SECON CODA AMPLIT PERI AZIMU VELO AIN AR TRES W  DIS CAZ7
 BAR2 EZ EP       13 8 55.83                             171    0.0510 21.6 190 
 BAR2 EZ ES       13 9 11.06                             171    0.0110 21.6 190 
 BAR2 EZ I        13 9 12.14        12.6 0.32            169           21.6 190 
 PAM  EZ EP       13 8 58.49                             150   -0.0010 78.8  39 
 PAM  EN ES       13 9 15.83                             150   -0.0410 78.8  39 
 PAM  EZ I        13 9 17.75         7.0 0.56            151           78.8  39 
 RUS  HZ EP       13 8 59.82                             144    0.0010 98.9 176 
 RUS  HN ES   2   13 9 18.37                             144    0.14 5 98.9 176 
 RUS  HZ I        13 9 19.20         2.9 0.26            143           98.9 176 
 CHI  HZ EP   2   13 9 13.93                             117    0.22 4  247 195 
 CHI  HE ES       13 9 42.84                             117   -0.12 8  247 195 
 CHI  HZ I        13 9 48.57         2.0 0.54            117            247 195 
                                                                                
