 2017  2 7 1944 33.6 L   6.503 -73.531110.2  RSN  9 0.4 1.9LRSN                1
 GAP= 92        0.81       3.5     3.3  5.0  0.8252E+00  0.3580E+01  0.2925E+01E
 Epicentro: SANTA HELENA DEL OPON - SANTANDER                                  3
 ACTION:UPD 17-05-24 15:33 OP:jn   STATUS:               ID:20170207194433 L   I
 OLDACT:UP  17-02-08 00:52 OP:and  STATUS:               ID:20170207193745d    3
 OLDACT:UP  17-02-08 00:51 OP:and  STATUS:               ID:20170207193745d    3
 OLDACT:UP  17-02-08 00:49 OP:and  STATUS:               ID:20170207193745d    3
 OLDACT:DUP 17-02-08 00:44 OP:and  STATUS:               ID:20170207193745d    3
 OLDACT:REG 17-02-07 21:25 OP:y    STATUS:               ID:20170207193744     3
 2017-02-07-1938-00M.COL___340                                                 6
 STAT SP IPHASW D HRMM SECON CODA AMPLIT PERI AZIMU VELO AIN AR TRES W  DIS CAZ7
 BAR2 EZ IP     D 1944 49.68                             158    0.1210 39.8  76 
 BAR2 EZ ES       1945  2.04                             158    0.0310 39.8  76 
 BRR  HZ EP       1944 50.55                             145   -0.3910 69.8 343 
 BRR  HE ES       1945  4.65                             145    0.1810 69.8 343 
 RUS  HZ EP     D 1944 52.43                             140   -0.2410 83.7 144 
 RUS  HN ES       1945  7.82                             140    0.2910 83.7 144 
 RUS  HZ I        1945  9.95        11.4 0.25            140           83.7 144 
 PTB  HZ IP   9 D 1944 52.45                             134   -1.12 0  102 272 
 PTB  HN ES       1945  7.51                                   -0.5110  102 272 
 PTB  HZ I        1945  8.92        20.1 0.08            133            102 272 
 NOR  HZ EP       1945  1.37                             117   -0.14 9  181 235 
 NOR  HE ES       1945 22.92                             117   -0.36 9  181 235 
 NOR  HZ I        1945 27.36         8.8 0.11            116            181 235 
 ZAR  HZ EP       1945  2.28                             116    0.60 9  183 307 
 ZAR  HE ES   4   1945 25.73                             116    2.15 0  183 307 
 ZAR  HZ I        1945 26.53        12.8 0.30            116            183 307 
 TAM  HZ EP       1945  2.61                             115   -0.17 9  193  92 
 CHI  HN ES   3   1945 31.01                             113    1.51 2  208 186 
 SJC  HZ EP   9   1945 26.82                              98   -2.35 0  417 334 
 SJC  HN ES   2   1946  9.83                                   -0.33 3  417 334 
                                                                                
