 2017  8 7 1641  7.7 L   6.750 -73.170151.8  RSN  4 0.4 1.2LRSN                1
 GAP=231        0.94       7.6     7.2  7.6  0.2698E+02  0.4403E+01  0.5596E+00E
 Epicentro: LOS SANTOS - SANTANDER                                             3
 ACTION:UPD 17-09-04 20:17 OP:rebc STATUS:               ID:20170807164107 L   I
 OLDACT:REG 17-08-07 20:16 OP:dani STATUS:               ID:20170807163743     3
 2017-08-07-1638-00M.COL___393                                                 6
 STAT SP IPHASW D HRMM SECON CODA AMPLIT PERI AZIMU VELO AIN AR TRES W  DIS CAZ7
 BAR2 EZ EP     D 1641 27.72                             173   -0.2410 17.5 184 
 BAR2 EZ ES       1641 43.15                             173   -0.6110 17.5 184 
 BAR2 EZ I        1641 44.24         8.1 0.22            173           17.5 184 
 BRR  HZ EP       1641 29.61                             153    0.0710 71.7 303 
 BRR  HN ES       1641 47.10                             153    0.5410 71.7 303 
 BRR  HZ I        1641 49.88         3.0 0.15            153           71.7 303 
 RUS  HZ EP       1641 31.99                             146    0.3010 95.3 174 
 RUS  HN ES       1641 50.71                             146    0.3110 95.3 174 
 RUS  HZ I        1641 51.50         1.9 0.30            148           95.3 174 
 PTB  HZ EP       1641 34.56                             134   -0.29 9  144 261 
 PTB  HN ES       1641 55.89                             134   -0.13 9  144 261 
 PTB  HZ I        1641 57.98         1.4 0.16            135            144 261 
                                                                                
