 2017  1 7 1028 38.0 L   6.795 -73.153146.0  RSN  9 0.4 1.9LRSN                1
 GAP=136        0.86       3.6     3.8  5.5  0.1125E+01  0.4360E+01  0.6126E+01E
 Epicentro: LOS SANTOS - SANTANDER                                             3
 ACTION:UPD 17-05-22 15:56 OP:jn   STATUS:               ID:20170107102838 L   I
 OLDACT:UP  17-01-07 21:40 OP:dnl  STATUS:               ID:20170107102743     3
 OLDACT:UP  17-01-07 21:40 OP:dnl  STATUS:               ID:20170107102743     3
 OLDACT:UP  17-01-07 21:40 OP:dnl  STATUS:               ID:20170107102743     3
 OLDACT:REG 17-01-07 21:04 OP:dnl  STATUS:               ID:20170107102743     3
 2017-01-07-1028-00M.COL___377                                                 6
 STAT SP IPHASW D HRMM SECON CODA AMPLIT PERI AZIMU VELO AIN AR TRES W  DIS CAZ7
 BAR2 EZ IP     D 1028 57.51                             171   -0.1210 22.6 188 
 BAR2 EZ ES       1029 12.80                             171   -0.1610 22.6 188 
 BAR2 EZ I        1029 14.10        30.0 0.24            169           22.6 188 
 BRR  HZ EP   2   1028 59.39                             153    0.25 5 70.8 299 
 BRR  HN ES       1029 16.44                             153    0.8010 70.8 299 
 PAM  EZ EP       1029  0.42                             151    0.1310 78.4  40 
 PAM  EE ES       1029 17.46                             151   -0.2210 78.4  40 
 PAM  EZ I        1029 19.68         8.9 0.40            154           78.4  40 
 RUS  HZ EP       1029  1.49                             144   -0.2410  100 176 
 RUS  HN ES       1029 20.39                             144    0.1510  100 176 
 RUS  HZ I        1029 21.13         6.1 0.26            145            100 176 
 PTB  HZ EP       1029  4.64                             132   -0.25 9  147 259 
 PTB  HN ES       1029 25.36                             132   -0.52 9  147 259 
 PTB  HZ I        1029 31.92         9.5 0.34            131            147 259 
 ZAR  HZ EP   4   1029 12.94                             123    2.55 0  204 292 
 ZAR  HE ES       1029 35.52                             123   -0.15 9  204 292 
 ZAR  HZ I        1029 40.85        11.0 0.42            122            204 292 
 CHI  HZ EP       1029 15.58                             117   -0.04 8  248 195 
 CHI  HN ES       1029 45.23                             117    0.27 8  248 195 
 CHI  HZ I        1029 48.77         5.9 0.50            118            248 195 
 GUY2CHZ EP   2   1029 22.93                             113    1.44 4  300 235 
 GUY2CHE ES   4   1029 58.85                             113    3.42 0  300 235 
 GUY2CHZ  IAML    1030  3.73         5.2 0.32                           300 235 
 ORTC HZ EP       1029 31.92                             106    0.12 6  394 216 
 ORTC HE ES   4   1030 16.24                             106    2.46 0  394 216 
 ORTC HZ I        1030 18.88         2.9 0.24            107            394 216 
                                                                                
