 2015  5 7 1233 11.3 L   6.845 -73.138146.2  RSN  5 0.5 1.8LRSN                1
 GAP=135        1.26       8.3     9.3  9.9 -0.3812E+02 -0.9822E+01  0.2976E+02E
 Epicentro: LOS SANTOS - SANTANDER                                             3
 ACTION:UPD 15-09-10 22:02 OP:cam  STATUS:               ID:20150507123311 L   I
 OLDACT:REG 15-05-07 22:40 OP:stll STATUS:               ID:20150507122746     3
 2015-05-07-1227-46M.COL___282                                                 6
 STAT SP IPHASW D HRMM SECON CODA AMPLIT PERI AZIMU VELO AIN AR TRES W  DIS CAZ7
 BAR2 EZ EP       1233 31.09                             168    0.0410 28.3 190 
 BAR2 EZ I        1233 31.24        13.4 0.38            165           28.3 190 
 BAR2 EZ ES       1233 46.83                             168    0.3510 28.3 190 
 BRR  HZ EP       1233 31.73                             153   -0.6410 69.8 295 
 BRR  HN ES       1233 49.35                             153    0.5110 69.8 295 
 PAM  SZ EP       1233 33.89                             152    0.6210 73.1  41 
 PAM  SZ I        1233 34.03        24.1 0.22            156           73.1  41 
 PAM  SN ES       1233 49.69                             152   -0.7410 73.1  41 
 RUS  HZ EP       1233 35.62                             142    0.2210  105 177 
 RUS  HZ I        1233 36.17         3.7 0.30            141            105 177 
 SPBC HZ EP       1233 40.32                             128    0.11 9  168 218 
 SPBC HN ES       1234  2.24                             128   -0.55 9  168 218 
 SPBC HZ I        1234  8.55         8.2 0.32            127            168 218 
                                                                                
