 2010  1 7 1802  1.9 L   6.600 -73.330121.1  RSN  7 0.3 1.9LRSN                1
 GAP=116        0.58       3.8     8.4  5.7 -0.2185E+02  0.2420E+02 -0.4338E+01E
 Epicentro: GALAN - SANTANDER                                                  3
 ACTION:UP  10-08-24 09:43 OP:vdl  STATUS:               ID:20100107180201 L   I
 2010-01-07-1800-20S.COL___097                                                 6
 STAT SP IPHASW D HRMM SECON CODA AMPLIT PERI AZIMU VELO SNR AR TRES W  DIS CAZ7
 BAR2 SZ IP       18 2 18.41                             172     0.010   16  93 
 BAR2 SZ ES   1   18 2 31.23                             172    -0.1 7   16  93 
 GIR2 SZ IP       18 2 19.72                             154     0.110   55  16 
 GIR2 SZ ES   1   18 2 33.73                             154     0.2 7   55  16 
 GUE  SZ IP       18 2 26.82                             127    -0.1 9  143  18 
 GUE  SZ ES   1   18 2 46.31                             127    -0.1 7  143  18 
 GRA  SZ EP   2   18 2 28.30                             125     0.6 5  154  22 
 CHI  HZ EP   2   18 2 35.64                             114     0.3 4  222 192 
 CHI  HN ES   1   18 3  1.21                             114    -0.3 6  222 192 
 CHI  HZ I        18 3  7.71         4.4 0.55                           222 192 
 HEL  HZ EP   1   18 2 37.54                             112    -0.6 6  247 260 
 HEL  HZ I        18 3  9.37         9.1 0.18                           247 260 
 TOL  SZ EP   2   18 2 46.53                             106     0.8 3  313 225 
 TOL  SZ ES   2   18 3 20.65                             106     0.7 3  313 225 
                                                                                
