 2010  4 7 1305  3.3 L   6.760 -72.992145.5  RSN  6 0.3 2.4LRSN                1
 GAP=263        0.60       5.5     7.3  6.1 -0.5143E+01  0.4507E+01  0.1863E+02E
 Epicentro: CEPITA - SANTANDER                                                 3
 ACTION:UPD 10-08-24 09:58 OP:vdl  STATUS:               ID:20100407130503 L   I
 2010-04-07-1302-24S.COL___097                                                 6
 STAT SP IPHASW D HRMM SECON CODA AMPLIT PERI AZIMU VELO AIN AR TRES W  DIS CAZ7
 BAR2 SZ IP       13 5 23.37                             169     0.310   28 229 
 BAR2 SZ ES   1   13 5 38.02                             169    -0.4 7   28 229 
 BRR  HZ IP     C 13 5 25.44                             147    -0.110   88 296 
 BRR  HZ I        13 5 25.73       102.5 0.16                            88 296 
 BRR  HN ES   1   13 5 42.94                             147     0.1 7   88 296 
 CHI  HZ EP   1   13 5 41.25                             117     0.1 6  249 199 
 CHI  HN ES   3   13 6 11.55                             117     1.0 2  249 199 
 CHI  HZ I        13 6 16.08         6.9 0.38                           249 199 
 RREF BZ EP   2   13 5 50.88                             110     0.2 3  332 232 
 RREF BN ES   2   13 6 27.57                             110     0.0 3  332 232 
 RREF BZ I        13 6 31.76        10.6 0.24                           332 232 
 TOL  SZ EP       13 5 52.41                             109    -0.2 6  353 227 
 TOL  SZ ES   1   13 6 31.42                             109     0.3 5  353 227 
 PRA  HZ EP   1   13 5 56.77                             106    -0.7 4  397 212 
 PRA  HN ES   2   13 6 39.23                             106    -0.4 3  397 212 
 PRA  HZ I        13 6 41.48         7.1 0.36                           397 212 
                                                                                
