 2011  1 7 1850  9.5 L   6.823 -73.177141.6  RSN  9 0.3 2.2LRSN                1
 GAP=156        0.52       3.2     5.5  5.5  0.5680E-01  0.1200E+02  0.1964E+01E
 Epicentro: LOS SANTOS - SANTANDER                                             3
 ACTION:UP  11-02-08 08:39 OP:pat  STATUS:               ID:20110107185009 L   I
 2011-01-07-1840-00M.COL___137                                                 6
 STAT SP IPHASW D HRMM SECON CODA AMPLIT PERI AZIMU VELO SNR AR TRES W  DIS CAZ7
 BAR2 SZ EP   1   1850 28.91                             169     0.2 7   26 182 
 BAR2 SZ ES   1   1850 43.51                             169    -0.2 7   26 182 
 BAR2 SZ I        1850 47.05        63.0 0.39                            26 182 
 GIR2 SZ EP   2   1850 29.15                             168     0.5 5   28 356 
 RUS  HZ EP   1   1850 32.73                             142    -0.4 7  103 174 
 RUS  HE ES   2   1850 51.59                             142     0.1 5  103 174 
 RUS  HZ I        1850 53.27        31.9 0.47                           103 174 
 OCA  SZ EP   2   1850 37.07                             129    -0.2 5  157 354 
 OCA  SZ ES   2   1850 58.71                             129    -0.2 5  157 354 
 OCA  SZ I        1851  6.08        18.9 0.41                           157 354 
 YOP  SZ EP   2   1850 39.55                             125    -0.1 4  183 153 
 YOP  SE ES   2   1851  3.79                             125     0.6 4  183 153 
 YOP  SZ I        1851  6.31         8.6 0.37                           183 153 
 NOR  SZ EP   1   1850 44.84                             118    -0.1 6  233 234 
 NOR  SE ES   2   1851 12.68                             118     0.2 4  233 234 
 CHI  HZ EP   2   1850 46.88                             116    -0.3 4  250 194 
 CHI  HE ES   2   1851 16.31                             116    -0.2 4  250 194 
 CHI  HZ I        1851 18.78         9.3 0.51                           250 194 
 HEL  HZ EP   2   1850 49.95                             114     0.7 4  269 255 
 HEL  HZ I        1851 28.02         9.0 0.36                           269 255 
 PRA  HZ EP   2   1851  3.08                             106     0.1 3  392 209 
 PRA  HE ES   2   1851 44.32                             106    -0.3 3  392 209 
                                                                                
