 2014  8 7 1559 34.6 L   6.715 -73.099146.8  RSN  5 0.3 1.4LRSN                1
 GAP=236        0.63       4.1     4.9  6.4  0.3229E+01  0.3244E+01  0.1310E+01E
 Epicentro: JORDAN - SANTANDER                                                 3
 ACTION:UPD 14-09-15 21:47 OP:nd   STATUS:               ID:20140807155934 L   I
 OLDACT:REG 14-08-08 00:38 OP:spq  STATUS:               ID:20140807155749     3
 2014-08-07-1557-49M.COL___263                                                 6
 STAT SP IPHASW D HRMM SECON CODA AMPLIT PERI AZIMU VELO AIN AR TRES W  DIS CAZ7
 BAR2 SZ ES   1   16 0  9.87                             173    0.33 7 16.4 214 
 BAR2 SZ I        16 0 12.43         6.9 0.20            167           16.4 214 
 BRR  HZ EP       1559 56.50                             150    0.1110 80.5 303 
 BRR  HE ES       16 0 13.22                             150   -0.1810 80.5 303 
 BRR  HZ I        16 0 16.16         6.6 0.30            151           80.5 303 
 RUS  HZ EP   1   1559 57.27                             147   -0.49 7 90.9 179 
 RUS  HE ES   1   16 0 15.81                             147   -0.04 7 90.9 179 
 RUS  HZ I        16 0 19.77         3.0 0.26            146           90.9 179 
 PTB  HZ EP   1   16 0  2.45                             131    0.49 7  151 263 
 PTB  HE ES       16 0 23.14                             131   -0.18 9  151 263 
 PTB  HZ I        16 0 27.37         2.5 0.16            132            151 263 
 SPBC HE ES       16 0 24.95                             130    0.13 9  159 223 
 SPBC HZ I        16 0 31.69         3.5 0.24            130            159 223 
                                                                                
