 2010  8 7 1318  2.4 L   6.802 -73.055147.2  RSN  4 0.2 0.7LRSN                1
 GAP=175        0.45       3.6     8.2  6.6  0.6282E+00 -0.1772E+02  0.2531E+00E
 Epicentro: LOS SANTOS - SANTANDER                                             3
 ACTION:UP  10-09-07 10:52 OP:vdl  STATUS:               ID:20100807131802 L   I
 2010-08-07-1314-25S.COL___125                                                 6
 STAT SP IPHASW D HRMM SECON CODA AMPLIT PERI AZIMU VELO SNR AR TRES W  DIS CAZ7
 BTL  SZ EP   1   1318 22.15                             169    -0.1 7   27 299 
 BTL  SZ ES   2   1318 38.07                             169     0.3 5   27 299 
 BRR  HZ EP   1   1318 24.07                             150    -0.2 7   80 295 
 BRR  HN ES   2   1318 41.38                             150     0.1 5   80 295 
 RUS  HZ EP   1   1318 26.41                             144     0.1 7  101 182 
 RUS  HN ES   2   1318 44.78                             144    -0.2 5  101 182 
 RUS  HZ I        1318 46.08         1.1 0.29                           101 182 
 GUE  SZ EP   1   1318 27.37                             140     0.3 7  115   7 
 GUE  SZ ES   2   1318 46.02                             140    -0.3 5  115   7 
 GUE  SZ I        1318 49.36         0.7 0.20                           115   7 
                                                                                
