 2015  9 7 1802 35.5 L   7.247 -73.711 94.0  RSN 12 0.5 2.0LRSN                1
 GAP= 65        1.19       2.6     3.1  6.7 -0.8112E+00  0.5356E+01  0.2559E+00E
 Epicentro: PUERTO WILCHES - SANTANDER                                         3
 ACTION:UPD 15-10-28 16:24 OP:cam  STATUS:               ID:20150907180235 L   I
 OLDACT:UP  15-09-08 03:53 OP:ak   STATUS:               ID:20150907175749d    3
 OLDACT:DUP 15-09-08 03:04 OP:ak   STATUS:               ID:20150907175749d    3
 OLDACT:REG 15-09-07 21:40 OP:stll STATUS:               ID:20150907175748     3
 2015-09-07-1757-48M.COL___358                                                 6
 STAT SP IPHASW D HRMM SECON CODA AMPLIT PERI AZIMU VELO AIN AR TRES W  DIS CAZ7
 BRR  HZ IP     D 18 2 48.84                             170    0.4510 15.5 180 
 BRR  HN ES       18 2 58.81                             170    0.3710 15.5 180 
 BRR  HZ I        18 2 59.59        91.0 0.10            171           15.5 180 
 BAR2 EZ EP       18 2 54.25                             132    0.6610 93.1 141 
 BAR2 EZ ES       18 3  7.79                             132    0.1010 93.1 141 
 BAR2 EZ I        18 3  9.94        24.9 0.34            135           93.1 141 
 PAM  EZ EP   1   18 2 56.30                             127    0.55 7  112  85 
 PAM  EN ES       18 3 11.39                             127   -0.1510  112  85 
 PAM  EZ I        18 3 13.34        18.7 0.09            129            112  85 
 PTB  HZ EP     C 18 2 54.81                             126   -0.4610  114 226 
 PTB  HN ES       18 3  9.87                             126   -0.8110  114 226 
 PTB  HZ I        18 3 11.53        18.9 0.27            127            114 226 
 OCA  HZ EP       18 2 56.01                             125    0.1310  118  21 
 OCA  HN ES       18 3 11.51                             125   -0.2610  118  21 
 OCA  HZ I        18 3 16.28        49.4 0.17            127            118  21 
 ZAR  HZ EP       18 2 57.27                             122    0.3810  129 282 
 ZAR  HN ES       18 3 14.29                             122    0.7310  129 282 
 ZAR  HZ I        18 3 18.65        26.2 0.19            123            129 282 
 RUS  HZ EP       18 3  1.48                             116    0.10 9  165 155 
 RUS  HN ES       18 3 20.69                             116   -0.86 9  165 155 
 RUS  HZ I        18 3 23.89         5.8 0.20            117            165 155 
 SML  HZ EP       18 3  1.58                             114   -0.43 9  176 347 
 SML  HN ES       18 3 21.87                             114   -0.80 9  176 347 
 SML  HZ I        18 3 25.14        36.3 0.10            115            176 347 
 SPBC HZ EP   1   18 3  2.77                             113    0.13 7  181 193 
 SPBC HN ES       18 3 23.62                             113   -0.17 9  181 193 
 SPBC HZ I        18 3 28.48        13.3 0.14            114            181 193 
 NOR  HZ EP   1   18 3  8.44                             108    0.63 6  226 215 
 NOR  HN ES       18 3 33.22                             108    0.21 8  226 215 
 NOR  HZ I        18 3 36.21         7.0 0.23            109            226 215 
 HEL  HZ EP   1   18 3  9.67                             108    0.71 6  232 240 
 HEL  HE ES       18 3 34.64                             108   -0.41 8  232 240 
 HEL  HZ I        18 3 40.58         5.5 0.26            109            232 240 
 GUY2CHZ EP       18 3 15.61                             104   -0.21 7  289 219 
 TOL  SZ EP   4   18 3 24.25                             101    1.97 0  344 211 
 CRJC HZ EP   4   18 3 29.81                              99   -2.27 0  427  12 
                                                                                
