 2011  6 7 1125 31.8 L   6.762 -73.100150.7  RSN  7 0.2 2.1LRSN                1
 GAP=144        0.51       3.1     4.6  4.8 -0.3940E+01  0.1876E+01 -0.1158E+01E
 Epicentro: LOS SANTOS - SANTANDER                                             3
 ACTION:UP  11-07-14 19:03 OP:ep   STATUS:               ID:20110607112531 L   I
 2011-06-07-1121-29S.COL___132                                                 6
 STAT SP IPHASW D HRMM SECON CODA AMPLIT PERI AZIMU VELO SNR AR TRES W  DIS CAZ7
 BAR2 SZ EP   1   1125 51.81                             172    -0.2 7   21 206 
 BAR2 SZ ES   2   1126  7.08                             172    -0.6 5   21 206 
 BAR2 SZ I        1126  8.98        39.8 0.34                            21 206 
 BRR  HZ EP   1   1125 53.84                             151     0.0 7   78 299 
 BRR  HE ES   1   1126 11.36                             151     0.3 7   78 299 
 BRR  HZ I        1126 15.59        31.6 0.16                            78 299 
 PAM  SZ EP   1   1125 54.80                             152     0.2 7   78  35 
 PAM  SE ES   2   1126 12.35                             152     0.0 5   78  35 
 RUS  HZ EP   1   1125 55.82                             146     0.1 7   96 179 
 RUS  HN ES   1   1126 14.61                             146     0.2 7   96 179 
 RUS  HZ I        1126 16.24        19.4 0.58                            96 179 
 BRI  SZ EP   1   1125 56.12                             142    -0.2 7  111  18 
 BRI  SZ ES   2   1126 15.27                             142    -0.2 5  111  18 
 BRI  SZ I        1126 20.76         7.3 0.36                           111  18 
 OCA  SZ EP   1   1126  1.04                             130     0.1 7  165 352 
 NOR  SZ EP   1   1126  7.95                             119    -0.1 6  236 236 
 NOR  SN ES   2   1126 35.82                             119    -0.4 4  236 236 
                                                                                
