 2011 11 7 1608 32.2 L   6.777 -73.094138.0  RSN  4 0.1 1.5LRSN                1
 GAP=144        0.33       3.8     5.2  4.7  0.9070E+01 -0.1166E+02 -0.6475E+01E
 Epicentro: LOS SANTOS - SANTANDER                                             3
 ACTION:UPD 12-07-13 16:08 OP:ep   STATUS:               ID:20111107160832 L   I
 2011-11-07-1605-00M.COL___176                                                 6
 STAT SP IPHASW D HRMM SECON CODA AMPLIT PERI AZIMU VELO AIN AR TRES W  DIS CAZ7
 BAR2 SZ EP       16 8 50.86                             170   -0.0710 22.6 206 
 BAR2 SZ ES   1   16 9  5.42                             170   -0.08 7 22.6 206 
 BAR2 SZ I        16 9  8.29         5.9 0.25                          22.6 206 
 PAM  SZ EP   1   16 8 53.63                             150    0.08 7 76.0  35 
 BRR  HZ EP   1   16 8 52.82                             149   -0.12 7 77.5 298 
 BRR  HZ I        16 8 59.39        11.3 0.35                          77.5 298 
 BRR  HE ES   1   16 9  9.21                             149    0.12 7 77.5 298 
 RUS  HZ EP   2   16 8 55.21                             143    0.18 5 97.8 179 
 RUS  HE ES   2   16 9 12.90                             143    0.10 5 97.8 179 
 RUS  HZ I        16 9 15.21         5.6 0.23                          97.8 179 
                                                                                
