 2016  5 7 1301 42.1 L   6.811 -73.245135.5  RSN  4 0.2 1.2LRSN                1
 GAP=123        0.49       3.5     4.9  4.8 -0.5463E+01  0.4604E+01  0.3096E+00E
 Epicentro: ZAPATOCA - SANTANDER                                               3
 ACTION:UPD 16-08-18 17:43 OP:cam  STATUS:               ID:20160507130142 L   I
 OLDACT:REG 16-05-07 20:16 OP:dnl  STATUS:               ID:20160507125745     3
 2016-05-07-1257-45M.COL___300                                                 6
 STAT SP IPHASW D HRMM SECON CODA AMPLIT PERI AZIMU VELO AIN AR TRES W  DIS CAZ7
 BAR2 EZ EP       13 2  0.89                             169    0.3710 25.1 164 
 BAR2 EZ ES       13 2 14.89                             169   -0.0110 25.1 164 
 BAR2 EZ I        13 2 16.68         6.7 0.16            168           25.1 164 
 PAM  EZ EP       13 2  3.51                             147   -0.1310 84.0  46 
 PAM  EN ES       13 2 20.40                             147   -0.0610 84.0  46 
 PAM  EZ I        13 2 23.11         2.3 0.50            148           84.0  46 
 RUS  HZ EP       13 2  4.95                             141   -0.0810  103 170 
 RUS  HN ES   2   13 2 22.69                             141   -0.24 5  103 170 
 RUS  HZ I        13 2 25.09         2.6 0.28            142            103 170 
 ZAR  HE ES   2   13 2 36.53                             121   -0.18 4  193 293 
                                                                                
