 2013  1 7 1710 30.1 L   6.479 -73.563 92.0  RSN  5 0.5 1.9LRSN                1
 GAP= 94        1.20       5.3     4.7 12.4  0.4795E+01  0.1750E+02  0.2329E+02E
 Epicentro: SANTA HELENA DEL OPON - SANTANDER                                  3
 ACTION:UPD 13-02-15 09:12 OP:ep   STATUS:               ID:20130107171030 L   I
 2013-01-07-1710-00M.COL___242                                                 6
 STAT SP IPHASW D HRMM SECON CODA AMPLIT PERI AZIMU VELO AIN AR TRES W  DIS CAZ7
 BAR2 SZ EP       1710 44.66                             153    0.4710 43.9  73 
 BRR  HZ EP       1710 45.49                             139   -0.2710 71.4 347 
 BRR  HN ES       1710 58.21                             139    0.2110 71.4 347 
 BRR  HN I        1711  6.15        19.1 0.14            148           71.4 347 
 RUS  HZ EP       1710 48.07                             135    0.5910 83.8 141 
 RUS  HE ES       1711  0.47                             135   -0.6010 83.8 141 
 RUS  HE I        1711  5.93        14.0 0.48            145           83.8 141 
 PTB  HZ EP       1710 47.54                             129   -0.7010 99.1 274 
 PTB  HN ES       1711  2.44                             129    0.0210 99.1 274 
 PTB  HN I        1711  5.42        21.8 0.38            138           99.1 274 
 NOR  HZ EP       1710 56.32                             113   -0.23 9  177 235 
 NOR  HN ES       1711 17.78                             113    0.57 9  177 235 
 NOR  HN I        1711 21.26        26.7 0.14            121            177 235 
                                                                                
