 2010  8 7 1332  8.2 L   6.786 -73.034143.4  RSN  9 0.4 2.0LRSN                1
 GAP=171        0.80       4.7     9.6  8.3 -0.1594E+02  0.6078E+01  0.6692E+00E
 Epicentro: CEPITA - SANTANDER                                                 3
 ACTION:UP  10-09-07 10:52 OP:vdl  STATUS:               ID:20100807133208 L   I
 2010-08-07-1330-26S.COL___125                                                 6
 STAT SP IPHASW D HRMM SECON CODA AMPLIT PERI AZIMU VELO SNR AR TRES W  DIS CAZ7
 BAR2 SZ EP   1   1332 27.39                             169    -0.2 7   27 218 
 BAR2 SZ ES   2   1332 42.65                             169    -0.1 5   27 218 
 BAR2 SZ I        1332 44.11        29.8 0.21                            27 218 
 GIR2 SZ EP   1   1332 28.65                             165     0.9 7   37 331 
 BRR  HZ EP   1   1332 29.31                             149    -0.5 7   83 295 
 BRR  HN ES   2   1332 46.82                             149     0.2 5   83 295 
 BRR  HZ I        1332 47.44        17.0 0.32                            83 295 
 RUS  HZ EP   1   1332 31.33                             144    -0.2 7   99 183 
 RUS  HN ES   2   1332 49.76                             144    -0.1 5   99 183 
 RUS  HZ I        1332 51.64         7.7 0.14                            99 183 
 GUE  SZ EP   1   1332 32.74                             139     0.1 7  116   6 
 GRA  SZ EP   1   1332 33.18                             137     0.1 7  124  12 
 GRA  SZ ES   2   1332 52.65                             137     0.2 5  124  12 
 GRA  SZ I        1332 54.98         8.2 0.19                           124  12 
 OCA  SZ EP   1   1332 36.44                             129    -0.2 7  164 349 
 OCA  SZ ES   2   1332 58.21                             129    -0.6 5  164 349 
 OCA  SZ I        1333  2.57         9.2 0.41                           164 349 
 RREF HZ EP   1   1332 55.56                             110     0.4 5  330 231 
 RREF HN ES   2   1333 32.36                             110     0.5 3  330 231 
 RREF HZ I        1333 36.53         4.6 0.21                           330 231 
 PRA  HZ EP   1   1333  1.90                             106    -0.3 4  397 211 
 PRA  HZ I        1333 49.08         4.6 0.82                           397 211 
                                                                                
