 2012  1 7 1621 36.9 L   6.777 -73.156144.0  RSN  8 0.4 1.7LRSN                1
 GAP=136        0.93       5.1     5.0  8.0  0.9115E+00  0.6403E+01  0.5075E+01E
 Epicentro: LOS SANTOS - SANTANDER                                             3
 ACTION:UP  12-02-03 08:15 OP:REBC STATUS:               ID:20120107162136 L   I
 2012-01-07-1620-00M.COL___186                                                 6
 STAT SP IPHASW D HRMM SECON CODA AMPLIT PERI AZIMU VELO SNR AR TRES W  DIS CAZ7
 BAR2 SZ EP       1621 56.16                             171    -0.110   21 188 
 BAR2 SZ ES   2   1622 10.59                             171    -0.8 5   21 188 
 BAR2 SZ I        1622 13.29        13.2 0.32                            21 188 
 GIR2 SZ EP       1621 56.28                             166    -0.110   34 353 
 GIR2 SZ ES   2   1622 11.73                             166     0.1 5   34 353 
 BRR  HZ EP       1621 58.15                             152     0.310   71 301 
 BRR  HZ I        1621 58.50        20.3 0.30                            71 301 
 BRR  HN ES   1   1622 15.10                             152     0.9 7   71 301 
 PAM  SZ EP       1621 59.12                             150     0.010   80  39 
 PAM  SN ES   1   1622 16.00                             150    -0.4 7   80  39 
 RUS  HZ EP       1622  0.36                             144     0.110   98 175 
 RUS  HN ES   1   1622 18.82                             144     0.3 7   98 175 
 RUS  HZ I        1622 20.30         4.8 0.46                            98 175 
 PTB  HZ EP       1622  3.13                             132    -0.4 9  146 260 
 PTB  HN ES   1   1622 23.72                             132    -0.7 7  146 260 
 PTB  HZ I        1622 26.24         4.0 0.18                           146 260 
 ZAR  HZ EP   2   1622  9.88                             122     0.7 4  204 293 
 ZAR  HN ES   1   1622 34.43                             122     0.0 6  204 293 
 ZAR  HZ I        1622 40.84        11.1 0.36                           204 293 
 CHI  HZ EP   3   1622 14.19                             117     0.0 2  246 195 
 CHI  HZ I        1622 20.74         1.6 0.36                           246 195 
 CHI  HE ES   2   1622 43.89                             117     0.6 4  246 195 
                                                                                
