 2017  3 7 1333 22.9 L   6.780 -73.119148.2  RSN  6 0.5 1.9LRSN                1
 GAP=239        0.89       6.8     7.6  6.7  0.3372E+02  0.6508E+01 -0.2783E+01E
 Epicentro: LOS SANTOS - SANTANDER                                             3
 ACTION:UPD 17-05-25 18:37 OP:jn   STATUS:               ID:20170307133322 L   I
 OLDACT:UP  17-03-07 22:18 OP:ar   STATUS:               ID:20170307132745     3
 OLDACT:REG 17-03-07 20:19 OP:ar   STATUS:               ID:20170307132745     3
 2017-03-07-1328-00M.COL___361                                                 6
 STAT SP IPHASW D HRMM SECON CODA AMPLIT PERI AZIMU VELO AIN AR TRES W  DIS CAZ7
 BAR2 EZ IP     C 1333 42.68                             171   -0.0810 21.9 198 
 BAR2 EZ ES       1333 58.09                             171   -0.1810 21.9 198 
 BAR2 EZ I        1333 59.03        27.7 0.16            167           21.9 198 
 BRR  HZ EP       1333 44.51                             152    0.0310 74.8 299 
 BRR  HN ES       1334  1.64                             152    0.3110 74.8 299 
 RUS  HZ EP       1333 46.49                             145   -0.2010 98.3 178 
 RUS  HN ES       1334  5.38                             145    0.1110 98.3 178 
 RUS  HZ I        1334  6.34         6.3 0.16            145           98.3 178 
 PTB  HZ EP   2   1333 49.07                             132   -1.18 5  150 260 
 PTB  HN ES   2   1334 10.63                             132   -0.98 5  150 260 
 PTB  HZ I        1334 14.63        11.8 0.12            130            150 260 
 SPBC HZ EP   2   1333 51.87                             130    0.30 5  163 220 
 SPBC HE ES   2   1334 14.99                             130    1.04 5  163 220 
 ZAR  HZ EP       1333 56.43                             122    0.60 8  208 292 
 ZAR  HE ES       1334 21.21                             122   -0.33 8  208 292 
 ZAR  HZ I        1334 26.64         8.5 0.46            122            208 292 
                                                                                
