 2011  1 7 1033 39.0 L   6.779 -73.073144.9  RSN  6 0.2 1.4LRSN                1
 GAP=167        0.35       3.3    12.4  4.6 -0.2616E+02 -0.7895E+01  0.2683E+01E
 Epicentro: LOS SANTOS - SANTANDER                                             3
 ACTION:UP  11-02-08 08:39 OP:pat  STATUS:               ID:20110107103339 L   I
 2011-01-07-1031-17S.COL___135                                                 6
 STAT SP IPHASW D HRMM SECON CODA AMPLIT PERI AZIMU VELO SNR AR TRES W  DIS CAZ7
 BAR2 SZ EP   3   1033 58.31                             170    -0.2 2   24 211 
 BAR2 SZ ES   2   1034 13.40                             170    -0.4 5   24 211 
 BAR2 SZ I        1034 14.90        11.3 0.11                            24 211 
 BTL  SZ EP   1   1033 58.71                             169     0.1 7   27 306 
 BTL  SZ ES   2   1034 14.06                             169     0.2 5   27 306 
 GIR2 SZ EP   2   1033 58.53                             165    -0.2 5   36 338 
 RUS  HZ EP   2   1034  2.45                             144     0.0 5   98 181 
 RUS  HE ES   2   1034 20.96                             144     0.1 5   98 181 
 RUS  HZ I        1034 22.46         3.5 0.26                            98 181 
 GRA  SZ EP   2   1034  4.09                             137    -0.1 5  126  14 
 GRA  SZ I        1034  5.50         3.0 0.16                           126  14 
 GRA  SZ ES   2   1034 23.97                             137     0.2 5  126  14 
 CHI  HZ EP   2   1034 16.60                             117    -0.1 4  249 197 
 CHI  HE ES   2   1034 46.18                             117     0.1 4  249 197 
 CHI  HZ I        1034 50.55         1.4 0.40                           249 197 
                                                                                
