 2010  8 7 1938  8.5 L   6.793 -73.035140.3  RSN  8 0.4 1.9LRSN                1
 GAP=171        0.73       4.3     8.8  7.1 -0.8585E+01  0.2964E+01 -0.1555E+01E
 Epicentro: CEPITA - SANTANDER                                                 3
 ACTION:UP  10-09-07 10:53 OP:vdl  STATUS:               ID:20100807193808 L   I
 2010-08-07-1932-49S.COL___125                                                 6
 STAT SP IPHASW D HRMM SECON CODA AMPLIT PERI AZIMU VELO SNR AR TRES W  DIS CAZ7
 BAR2 SZ EP   1   1938 27.51                             168    -0.1 7   28 217 
 BAR2 SZ ES   2   1938 42.37                             168    -0.1 5   28 217 
 BAR2 SZ I        1938 43.41        33.5 0.27                            28 217 
 GIR2 SZ EP   1   1938 27.67                             165     0.0 7   36 331 
 GIR2 SZ ES   2   1938 42.54                             165    -0.1 5   36 331 
 BRR  HZ EP   1   1938 29.29                             148    -0.5 7   83 295 
 BRR  HN ES   2   1938 46.47                             148     0.1 5   83 295 
 BRR  HZ I        1938 50.86        29.7 0.09                            83 295 
 RUS  HZ EP   1   1938 31.50                             143    -0.2 7  100 183 
 RUS  HN ES   2   1938 50.04                             143     0.3 5  100 183 
 RUS  HZ I        1938 51.12         6.1 0.16                           100 183 
 GUE  SZ EP   1   1938 32.58                             138    -0.1 7  115   6 
 GUE  SZ ES   2   1938 52.10                             138     0.6 5  115   6 
 GUE  SZ I        1938 53.80         5.1 0.19                           115   6 
 GRA  SZ EP   1   1938 33.35                             136     0.3 7  123  12 
 GRA  SZ ES   2   1938 52.76                             136     0.5 5  123  12 
 GRA  SZ I        1938 53.97        17.0 0.42                           123  12 
 OCA  SZ EP   1   1938 36.39                             128    -0.3 7  163 349 
 OCA  SZ ES   2   1938 58.10                             128    -0.5 5  163 349 
 OCA  SZ I        1939  1.00        18.9 0.34                           163 349 
 HEL  HZ EP   1   1938 50.69                             113     0.9 6  284 257 
                                                                                
