 2012 12 7 1843 35.9 L   6.728 -73.167138.3  RSN  5 0.2 2.0LRSN                1
 GAP=137        0.62       2.4     3.7  4.7  0.3925E+00  0.7509E+01  0.1104E+01E
 Epicentro: VILLANUEVA - SANTANDER                                             3
 ACTION:UPD 13-01-04 14:26 OP:ep   STATUS:               ID:20121207184335 L   I
 2012-12-07-1840-00M.COL___243                                                 6
 STAT SP IPHASW D HRMM SECON CODA AMPLIT PERI AZIMU VELO AIN AR TRES W  DIS CAZ7
 BAR2 SZ I        1843 54.45        30.0 0.20                          15.1 186 
 BAR2 SZ EP       1843 54.51                             173    0.0010 15.1 186 
 BAR2 SZ ES       1844  8.92                             173   -0.0910 15.1 186 
 PAM  SZ EP       1843 57.67                             147   -0.1710 85.1  37 
 PAM  SE ES       1844 15.06                             147    0.1210 85.1  37 
 PAM  SN I        1844 15.74        10.9 0.54                          85.1  37 
 RUS  HZ EP       1843 58.27                             144   -0.1110 92.8 174 
 RUS  HN ES       1844 16.05                             144    0.1510 92.8 174 
 RUS  HN I        1844 21.00        11.2 0.44                          92.8 174 
 ZAR  HZ EP       1844  8.59                             121    0.60 9  205 294 
 ZAR  HN ES       1844 32.71                             121   -0.30 9  205 294 
 ZAR  HN I        1844 37.91        17.8 0.46                           205 294 
 CHI  HZ EP       1844 12.00                             116   -0.30 8  240 195 
 CHI  HN ES       1844 40.81                             116    0.13 8  240 195 
 CHI  HN I        1844 43.81         5.7 0.50                           240 195 
                                                                                
