 2017  5 7 1021 56.3 L   6.834 -73.358116.0  RSN  8 0.4 1.5LRSN                1
 GAP=105        0.72       3.0     2.7  5.6  0.1106E+01  0.3181E+01  0.4617E+01E
 Epicentro: SAN VICENTE DE CHUCURI - SANTANDER                                 3
 ACTION:UPD 17-06-16 13:33 OP:jn   STATUS:               ID:20170507102157dL   I
 OLDACT:UP  17-05-07 20:30 OP:and  STATUS:               ID:20170507101432     3
 OLDACT:UP  17-05-07 20:30 OP:and  STATUS:               ID:20170507101432     3
 OLDACT:UP  17-05-07 20:30 OP:and  STATUS:               ID:20170507101432     3
 OLDACT:UP  17-05-07 20:28 OP:and  STATUS:               ID:20170507101432     3
 OLDACT:REG 17-05-07 19:55 OP:and  STATUS:               ID:20170507101432     3
 2017-05-07-1018-00M.COL___358                                                 6
 STAT SP IPHASW D HRMM SECON CODA AMPLIT PERI AZIMU VELO AIN AR TRES W  DIS CAZ7
 BRR  HZ EP       1022 12.54                             155   -0.5110 49.4 308 
 BRR  HN ES       1022 26.08                             155   -0.0110 49.4 308 
 PAM  EZ EP       1022 16.77                             139    0.2110 91.7  52 
 PAM  EN ES       1022 32.37                             139    0.0310 91.7  52 
 PAM  EZ I        1022 36.85         5.3 0.12            137           91.7  52 
 RUS  HZ EP       1022 17.96                             134   -0.0110  108 164 
 RUS  HN ES       1022 35.01                             134    0.1610  108 164 
 RUS  HZ I        1022 35.99         5.6 0.20            130            108 164 
 PTB  HZ IP   3 C 1022 17.29                             129   -1.62 2  126 255 
 PTB  HZ I        1022 38.36         6.4 0.24            123            126 255 
 ZAR  HZ EP       1022 24.26                             118   -0.26 9  181 294 
 ZAR  HN ES       1022 46.99                             118    0.49 9  181 294 
 ZAR  HZ I        1022 50.06         4.8 0.22            114            181 294 
 YPLC HZ EP       1022 25.79                             117   -0.04 9  192 146 
 NOR  HZ EP   3   1022 30.25                             113    1.55 2  218 230 
 NOR  HN ES       1022 53.85                             113   -0.09 8  218 230 
 NOR  HZ I        1023  0.64         2.5 0.16            110            218 230 
 HEL  HZ EP   2   1022 33.27                             110    0.54 4  250 254 
                                                                                
