 2014  8 7 1502 36.0 L   6.739 -73.134139.5  RSN  6 0.2 1.4LRSN                1
 GAP=141        0.59       3.5     3.6  5.1 -0.4852E+01  0.4152E+01 -0.8874E+00E
 Epicentro: LOS SANTOS - SANTANDER                                             3
 ACTION:UPD 14-09-15 21:47 OP:nd   STATUS:               ID:20140807150236 L   I
 OLDACT:REG 14-08-07 20:26 OP:spq  STATUS:               ID:20140807145819     3
 2014-08-07-1458-19M.COL___263                                                 6
 STAT SP IPHASW D HRMM SECON CODA AMPLIT PERI AZIMU VELO AIN AR TRES W  DIS CAZ7
 BAR2 SZ ES   1   15 3  9.11                             173   -0.33 7 17.1 198 
 BAR2 SZ I        15 3 12.86         5.7 0.30            168           17.1 198 
 BRR  HZ EP       15 2 57.14                             150    0.3510 75.7 303 
 BRR  HE ES       15 3 13.03                             150    0.0610 75.7 303 
 BRR  HZ I        15 3 21.24        13.3 0.25            148           75.7 303 
 PAM  SZ EP       15 2 57.77                             148   -0.1110 82.0  36 
 PAM  SN ES       15 3 15.00                             148    0.0810 82.0  36 
 PAM  SZ I        15 3 17.32         3.2 0.58            157           82.0  36 
 RUS  HE ES   1   15 3 16.37                             145    0.02 7 93.8 177 
 RUS  HZ I        15 3 18.83         1.5 0.44            148           93.8 177 
 PTB  HZ EP       15 3  2.16                             131   -0.35 9  148 261 
 PTB  HE ES   1   15 3 23.04                             131   -0.12 7  148 261 
 PTB  HZ I        15 3 30.35         3.5 0.38            132            148 261 
 SPBC HN ES   1   15 3 25.53                             128    0.35 7  159 221 
 SPBC HZ I        15 3 33.72         3.5 0.18            131            159 221 
                                                                                
