 2011  4 7 1730 23.7 L   7.074 -72.999150.0  RSN  6 0.3 1.4LRSN                1
 GAP=152        0.59       6.6     9.5  6.5 -0.3896E+02  0.1395E+02 -0.1340E+02E
 Epicentro: PIEDECUESTA - SANTANDER                                            3
 ACTION:UP  11-06-22 15:29 OP:REBC STATUS:               ID:20110407173023 L   I
 2011-04-07-1728-02S.COL___138                                                 6
 STAT SP IPHASW D HRMM SECON CODA AMPLIT PERI AZIMU VELO SNR AR TRES W  DIS CAZ7
 GIR2 SZ EP       1730 43.36                             171    -0.310   21 271 
 GIR2 SZ ES   3   1730 58.37                             171    -0.8 2   21 271 
 BTL  SZ EP       1730 44.06                             167     0.010   34 240 
 BTL  SZ ES   2   1731  0.59                             167     0.6 5   34 240 
 PAM  SZ EP       1730 44.58                             163    -0.210   44  48 
 PAM  SZ I        1730 45.48         1.9 0.29                            44  48 
 PAM  SN ES   2   1731  0.96                             163    -0.3 5   44  48 
 BAR2 SZ EP       1730 45.04                             158     0.110   57 201 
 BAR2 SZ ES   1   1731  1.59                             158     0.1 7   57 201 
 BAR2 SZ I        1731  3.76         8.3 0.22                            57 201 
 BRR  HZ EP       1730 45.59                             151    -0.110   79 273 
 GRA  SZ EP       1730 47.06                             147     0.310   92  14 
 GRA  SZ ES   2   1731  4.94                             147     0.1 5   92  14 
 GRA  SZ I        1731  5.96         7.6 0.32                            92  14 
                                                                                
