 2017  5 7 1028 49.1 L   7.084 -73.355  3.1  RSN  8 0.5 1.8LRSN                1
 GAP=143        0.87       3.4     1.8  4.4 -0.1435E+01  0.1973E+01 -0.2420E+01E
 Epicentro: LEBRIJA - SANTANDER                                                3
 ACTION:UPD 17-06-16 13:33 OP:jn   STATUS:               ID:20170507102849 L   I
 OLDACT:UP  17-05-07 20:55 OP:and  STATUS:               ID:20170507102658     3
 OLDACT:UP  17-05-07 20:55 OP:and  STATUS:               ID:20170507102658     3
 OLDACT:UP  17-05-07 20:53 OP:and  STATUS:               ID:20170507102658     3
 OLDACT:UP  17-05-07 20:52 OP:and  STATUS:               ID:20170507102658     3
 OLDACT:UP  17-05-07 20:52 OP:and  STATUS:               ID:20170507102658     3
 OLDACT:UP  17-05-07 20:52 OP:and  STATUS:               ID:20170507102658     3
 OLDACT:REG 17-05-07 19:55 OP:and  STATUS:               ID:20170507102658     3
 2017-05-07-1028-00M.COL___364                                                 6
 STAT SP IPHASW D HRMM SECON CODA AMPLIT PERI AZIMU VELO AIN AR TRES W  DIS CAZ7
 BRR  HZ EP       1028 55.49                              47   -0.3610 39.5 274 
 BRR  HN ES       1029  1.27                              47    0.1810 39.5 274 
 PAM  EZ EP       1029  2.03                              47   -0.1110 77.7  69 
 PAM  EN ES       1029 12.45                              47    0.1710 77.7  69 
 RUS  HZ EP       1029 10.41                              47   -0.4410  135 167 
 RUS  HN ES   3   1029 26.44                              47   -1.34 2  135 167 
 RUS  HZ I        1029 27.90        11.9 0.36             47            135 167 
 PTB  HZ EP       1029 10.51                              47    0.05 9  136 244 
 PTB  HN ES   2   1029 26.36                              47   -0.73 5  136 244 
 PTB  HZ I        1029 28.83        21.3 0.34             47            136 244 
 ZAR  HZ EP       1029 16.31                              47    0.37 9  172 285 
 ZAR  HN ES       1029 36.48                              47   -0.36 9  172 285 
 ZAR  HZ I        1029 38.27        11.6 0.30             47            172 285 
 SPBC HZ EP       1029 17.44                              47    0.65 9  177 207 
 SPBC HN ES   3   1029 40.45                              47    2.09 2  177 207 
 SPBC HZ I        1029 41.70        12.4 0.28             37            177 207 
 NOR  HZ EP   9   1029 25.63                              37    1.35 0  237 225 
 NOR  HN ES       1029 53.23                              37    0.19 8  237 225 
 NOR  HZ I        1029 54.69         3.7 0.30             37            237 225 
 HEL  HZ I        1029 57.47         4.7 0.24             37            260 248 
 HEL  HN ES       1029 57.54                              37    0.15 8  260 248 
 CHI  HZ EP   4   1029 33.39                              37    4.02 0  275 189 
 CHI  HN ES   4   1030  6.85                              37    6.10 0  275 189 
 SJC  HZ EP   4   1029 43.36                              36    2.57 0  370 327 
 SJC  HN ES   4   1030 25.56                              36    4.48 0  370 327 
                                                                                
