 2017  5 7 1742 10.1 L   7.365 -73.205133.6  RSN  4 0.4 1.5LRSN                1
 GAP=178        0.66       8.4     3.4  6.2 -0.1154E+02  0.6753E+01 -0.1076E+01E
 Epicentro: EL PLAYON - SANTANDER                                              3
 ACTION:UPD 17-06-16 13:33 OP:jn   STATUS:               ID:20170507174210 L   I
 OLDACT:DUP 17-05-07 21:24 OP:dani STATUS:               ID:20170507173436d    3
 2017-05-07-1738-00M.COL___358                                                 6
 STAT SP IPHASW D HRMM SECON CODA AMPLIT PERI AZIMU VELO AIN AR TRES W  DIS CAZ7
 PAM  EZ EP       1742 29.81                             156    0.0110 55.9  93 
 PAM  EN ES       1742 45.00                             156   -0.1810 55.9  93 
 PAM  EZ I        1742 45.90         8.0 0.18            159           55.9  93 
 BRR  HZ EP       1742 29.43                             153   -0.0210 62.8 243 
 BRR  HN ES       1742 44.64                             153    0.0910 62.8 243 
 BRR  HZ I        1742 46.42         4.8 0.18            152           62.8 243 
 PTB  HZ EP       1742 38.22                             125    0.39 9  166 237 
 PTB  HN ES       1742 59.13                             125   -0.34 9  166 237 
 PTB  HZ I        1743  2.28         3.1 0.22            126            166 237 
 ZAR  HZ EP   3   1742 37.75                             122   -1.83 2  183 275 
 ZAR  HN ES       1743  2.77                             122    0.20 9  183 275 
 ZAR  HZ I        1743  4.35         3.5 0.07            123            183 275 
                                                                                
