 2012  5 7 1024 43.5 L   6.382 -73.657106.0  RSN 12 0.4 2.1LRSN                1
 GAP= 85        0.85       2.9     3.2  7.3 -0.1425E+01  0.3430E+01  0.5917E+01E
 Epicentro: SANTA HELENA DEL OPON - SANTANDER                                  3
 ACTION:UP  12-07-05 12:03 OP:pat  STATUS:               ID:20120507102443 L   I
 2012-05-07-1019-37M.COL___178                                                 6
 STAT SP IPHASW D HRMM SECON CODA AMPLIT PERI AZIMU VELO SNR AR TRES W  DIS CAZ7
 BRR  HZ EP       1025  1.23                             140     0.010   80 356 
 BRR  HZ I        1025  1.58        48.3 0.13                            80 356 
 BRR  HN ES   1   1025 15.52                             140     0.5 7   80 356 
 RUS  HZ EP   1   1025  2.12                             139     0.0 7   83 130 
 RUS  HN ES   1   1025 16.24                             139    -0.5 7   83 130 
 RUS  HZ I        1025 18.01        26.5 0.47                            83 130 
 PTB  HZ IP     C 1025  1.25                             136    -0.810   90 281 
 PTB  HN ES   1   1025 17.01                             136     0.5 7   90 281 
 PTB  HZ I        1025 18.05        35.9 0.17                            90 281 
 PAM  SZ EP   1   1025  8.39                             121     0.0 7  150  45 
 PAM  SN ES   1   1025 27.93                             121     0.1 7  150  45 
 NOR  SZ EP   1   1025  9.63                             119     0.5 7  162 236 
 NOR  SN ES   1   1025 28.98                             119    -0.1 7  162 236 
 ZAR  HN ES   1   1025 32.20                             115    -0.4 7  181 313 
 CHI  HZ EP   1   1025 13.10                             114     0.0 6  194 182 
 CHI  HN ES   1   1025 36.88                             114     0.7 6  194 182 
 CHI  HZ I        1025 39.63         9.4 0.52                           194 182 
 HEL  HZ EP   2   1025 15.18                             112     0.5 4  208 264 
 HEL  HE ES   2   1025 39.28                             112     0.4 4  208 264 
 HEL  HZ I        1025 42.19        14.9 0.40                           208 264 
 GUY  SZ EP   2   1025 17.72                             109     0.4 4  231 236 
 GUY  SN ES   1   1025 43.81                             109     0.1 6  231 236 
 GUY  SZ I        1025 49.73        16.0 0.25                           231 236 
 RREF HZ EP   1   1025 19.50                             108    -0.1 6  249 229 
 RREF HN ES   2   1025 47.38                             108    -0.4 4  249 229 
 RREF HZ I        1025 54.83         7.2 0.20                           249 229 
 PRA  HZ EP   1   1025 28.00                             102     0.1 5  325 205 
 PRA  HN ES   1   1026  2.22                             102    -0.3 5  325 205 
 COD  HZ EP   2   1025 36.08                              98     0.0 3  394   3 
 COD  HN ES   2   1026 17.71                              98     0.6 3  394   3 
                                                                                
