 2016  8 7 1221 24.0 L   6.102 -73.481113.9  RSN  8 0.5 1.4LRSN                1
 GAP=115        1.28       5.8     5.0  9.7 -0.2350E+01  0.1852E+02 -0.2944E+01E
 Epicentro: SUAITA - SANTANDER                                                 3
 ACTION:UPD 16-10-29 15:33 OP:rebc STATUS:               ID:20160807122124 L   I
 OLDACT:UP  16-08-08 14:00 OP:dani STATUS:               ID:20160807121801d    3
 OLDACT:UP  16-08-08 13:57 OP:dani STATUS:               ID:20160807121801d    3
 OLDACT:UP  16-08-08 13:57 OP:dani STATUS:               ID:20160807121801d    3
 OLDACT:UP  16-08-08 13:56 OP:dani STATUS:               ID:20160807121801d    3
 OLDACT:DUP 16-08-08 13:47 OP:dani STATUS:               ID:20160807121801d    3
 2016-08-07-1218-00M.COL___362                                                 6
 STAT SP IPHASW D HRMM SECON CODA AMPLIT PERI AZIMU VELO AIN AR TRES W  DIS CAZ7
 RUS  HZ EP       1221 41.16                             155   -0.0310 49.7 118 
 RUS  HE ES       1221 54.13                             155   -0.4910 49.7 118 
 BAR2 EZ EP       1221 41.86                             149    0.2510 63.5  31 
 BAR2 EZ ES   4   1221 57.24                             149    1.87 0 63.5  31 
 BAR2 EZ I        1221 58.23         5.4 0.12                          63.5  31 
 SPBC HZ EP       1221 42.29                             142   -0.4210 82.2 233 
 SPBC HE ES       1221 57.94                             142    0.6210 82.2 233 
 SPBC HZ I        1222  4.18        12.2 0.05                          82.2 233 
 BRR  HE ES       1222  2.43                             132    0.5610  114 347 
 BRR  HZ I        1222  7.35         6.8 0.37                           114 347 
 PTB  HZ EP       1221 44.87                             130   -0.8010  118 294 
 PTB  HE ES       1222  2.42                             130   -0.1810  118 294 
 PTB  HZ I        1222  8.51         3.9 0.26                           118 294 
 NOR  HE ES       1222 11.24                             120    0.27 9  165 249 
 HEL  HZ EP       1221 57.85                             112    0.26 8  227 273 
 HEL  HE ES       1222 23.08                             112   -0.73 8  227 273 
 HEL  HZ I        1222 30.09         2.2 0.49                           227 273 
 GUY2CHZ EP       1221 58.92                             112    0.83 8  230 245 
 GUY2CHE ES   4   1222 28.23                             112    3.52 0  230 245 
 GUY2CHZ I        1222 29.80         1.5 0.28                           230 245 
                                                                                
