 2015  2 7 1513  7.7 L   5.793 -73.935106.0  RSN  4 0.3 1.3LRSN                1
 GAP=181        0.71       5.0     4.3  6.4 -0.2096E+01 -0.8805E+01 -0.1132E+02E
 Epicentro: FLORIAN - SANTANDER                                                3
 ACTION:UPD 15-04-30 21:23 OP:nd   STATUS:               ID:20150207151307 L   I
 OLDACT:DUP 15-02-07 23:06 OP:cam  STATUS:               ID:20150207150748d    3
 OLDACT:UP  15-02-07 23:06 OP:cam  STATUS:               ID:20150207150747     3
 OLDACT:REG 15-02-07 21:57 OP:cam  STATUS:               ID:20150207150747     3
 2015-02-07-1507-47M.COL___290                                                 6
 STAT SP IPHASW D HRMM SECON CODA AMPLIT PERI AZIMU VELO AIN AR TRES W  DIS CAZ7
 SPBC HZ EP     D 1513 22.28                             168    0.0110 21.8 225 
 SPBC HN ES       1513 33.69                             168    0.0210 21.8 225 
 SPBC HZ I        1513 36.73         8.0 0.44            176           21.8 225 
 PTB  HZ EP       1513 26.66                             133   -0.4710  101 325 
 PTB  HN ES       1513 42.57                             133    0.2610  101 325 
 PTB  HZ I        1513 45.36         4.2 0.26            137            101 325 
 BAR2 EZ EP       1513 29.71                             127    0.3510  121  43 
 BAR2 EZ ES       1513 46.03                             127   -0.2510  121  43 
 BAR2 EZ I        1513 51.76         3.2 0.26            130            121  43 
 PAM  SZ EP       1513 40.30                             111    0.13 8  219  39 
                                                                                
