 2017  8 7 1254 27.7 L   6.620 -73.754  4.0  RSN  4 0.5 0.6LRSN                1
 GAP=126        1.17       3.9     2.7  8.4 -0.6353E-01  0.1327E+01 -0.9535E+01E
 Epicentro: EL CARMEN - SANTANDER                                              3
 ACTION:UPD 17-09-04 20:17 OP:rebc STATUS:               ID:20170807125427 L   I
 OLDACT:UP  17-08-07 21:20 OP:dani STATUS:               ID:20170807124741d    3
 OLDACT:DUP 17-08-07 21:18 OP:dani STATUS:               ID:20170807124741d    3
 OLDACT:UP  17-08-07 21:18 OP:dani STATUS:               ID:20170807124740     3
 OLDACT:UP  17-08-07 21:17 OP:dani STATUS:               ID:20170807124740     3
 OLDACT:REG 17-08-07 19:52 OP:dani STATUS:               ID:20170807124740     3
 2017-08-07-1248-00M.COL___387                                                 6
 STAT SP IPHASW D HRMM SECON CODA AMPLIT PERI AZIMU VELO AIN AR TRES W  DIS CAZ7
 BRR  HZ EP       1254 36.31                              47   -0.1510 54.1   5 
 BRR  HE ES       1254 43.69                              47    0.3810 54.1   5 
 BRR  HZ I        1254 44.60         2.2 0.20             47           54.1   5 
 BAR2 EZ EP       1254 38.00                              47   -0.1110 63.3  93 
 BAR2 EZ ES       1254 45.63                              47   -0.6110 63.3  93 
 BAR2 EZ I        1254 46.02         5.4 0.44             47           63.3  93 
 PTB  HZ EP       1254 39.97                              47   -0.1610 78.2 263 
 PTB  HN ES       1254 49.62                              47   -0.2210 78.2 263 
 PTB  HZ I        1254 53.08         2.2 0.13             47           78.2 263 
 RUS  HZ EP       1254 46.26                              47    0.9010  109 137 
                                                                                
