 2011  7 7 1041 32.1 L   6.775 -73.161146.3  RSN  7 0.3 1.7LRSN                1
 GAP=136        0.55       4.2     5.9  6.1  0.4330E+01 -0.5820E+01 -0.6058E+01E
 Epicentro: LOS SANTOS - SANTANDER                                             3
 ACTION:UPD 12-07-25 13:58 OP:epov STATUS:               ID:20110707104132 L   I
 2011-07-07-1040-00M.COL___123                                                 6
 STAT SP IPHASW D HRMM SECON CODA AMPLIT PERI AZIMU VELO AIN AR TRES W  DIS CAZ7
 BAR2 SZ EP   1   1041 51.58                             171   -0.20 7 20.4 187 
 BAR2 SZ ES   1   1042  6.58                             171   -0.52 7 20.4 187 
 BAR2 SZ I        1042  8.41        16.5 0.20                          20.4 187 
 GIR2 SZ EP       1041 51.88                             166   -0.0610 33.8 354 
 BRR  HZ EP       1041 53.43                             152    0.0910 71.1 301 
 BRR  HZ I        1041 53.79        24.8 0.10                          71.1 301 
 BRR  HN ES   1   1042 10.20                             152    0.32 7 71.1 301 
 PAM  SZ EP   2   1041 54.80                             150    0.20 5 80.6  39 
 RUS  HZ EP   1   1041 55.78                             144    0.02 7 98.0 175 
 RUS  HN ES   1   1042 14.58                             144    0.40 7 98.0 175 
 RUS  HZ I        1042 15.53         2.9 0.35                          98.0 175 
 BRI  SZ EP   2   1041 56.13                             141   -0.19 5  112  21 
 NOR  SE ES   2   1042 34.94                             119   -0.28 4  232 235 
                                                                                
