 2016  3 7 1519 34.1 L   6.084 -73.771103.0  RSN  6 0.4 1.5LRSN                1
 GAP=109        1.15       6.0     3.8  8.9 -0.9035E+01  0.7574E+01  0.5264E+01E
 Epicentro: EL PENON - SANTANDER                                               3
 ACTION:UPD 16-05-13 21:22 OP:cam  STATUS:               ID:20160307151934 L   I
 OLDACT:REG 16-03-07 20:31 OP:ar   STATUS:               ID:20160307151751     3
 2016-03-07-1517-51M.COL___325                                                 6
 STAT SP IPHASW D HRMM SECON CODA AMPLIT PERI AZIMU VELO AIN AR TRES W  DIS CAZ7
 SPBC HZ EP       1519 49.74                             148   -0.3310 58.2 215 
 SPBC HE ES       1520  2.87                             148    0.3410 58.2 215 
 SPBC HZ I        1520  9.93        10.1 0.18            152           58.2 215 
 RUS  HZ EP       1519 52.04                             140   -0.1010 79.0 105 
 RUS  HN ES       1520  5.62                             140   -0.5810 79.0 105 
 RUS  HZ I        1520  8.01         4.3 0.34            146           79.0 105 
 BAR2 EZ EP       1519 52.62                             137    0.2710 86.0  49 
 BAR2 EZ ES       1520  7.30                             137    0.7210 86.0  49 
 BAR2 EZ I        1520  9.31        13.6 0.26            145           86.0  49 
 PTB  HN ES       1520  6.20                             135   -0.5910 91.0 304 
 PTB  HZ I        1520  8.50         3.8 0.12            142           91.0 304 
 NOR  HZ EP       1519 56.37                             123   -0.2910  135 245 
 NOR  HN ES       1520 14.25                             123   -0.0010  135 245 
 NOR  HZ I        1520 15.85        14.5 0.18            129            135 245 
 GUY2CHZ EP       1520  4.33                             112   -0.05 9  200 242 
 GUY2CHN ES       1520 28.76                             112    0.77 9  200 242 
 GUY2CHZ I        1520 32.14         2.5 0.62                           200 242 
                                                                                
