 2016  9 7 1227 35.8 L   7.256 -73.501110.3  RSN  4 0.3 1.3LRSN                1
 GAP=234        0.74       6.4     4.2  6.2  0.1377E+02  0.3653E+01 -0.7740E+01E
 Epicentro: SABANA DE TORRES - SANTANDER                                       3
 ACTION:UPD 17-08-17 21:07 OP:lp   STATUS:               ID:20160907122735 L   I
 OLDACT:REG 16-09-07 20:13 OP:lv   STATUS:               ID:20160907121738     3
 2016-09-07-1218-00M.COL___364                                                 6
 STAT SP IPHASW D HRMM SECON CODA AMPLIT PERI AZIMU VELO AIN AR TRES W  DIS CAZ7
 BRR  HZ EP       1227 50.51                             164   -0.4310 28.5 235 
 BRR  HN ES       1228  2.64                             164   -0.1410 28.5 235 
 BRR  HZ I        1228  3.14         4.5 0.14            158           28.5 235 
 BAR2 EZ EP       1227 54.59                             141    0.2910 81.4 154 
 BAR2 EZ ES       1228  8.97                             141    0.2110 81.4 154 
 BAR2 EZ I        1228 10.22         4.5 0.10            139           81.4 154 
 PTB  HZ EP       1227 58.19                             126   -0.3210  132 233 
 PTB  HE ES       1228 16.21                             126   -0.0410  132 233 
 PTB  HZ I        1228 19.63         3.1 0.16            124            132 233 
 ZAR  HZ EP       1228  0.60                             122    0.06 9  152 280 
 ZAR  HN ES       1228 20.27                             122    0.41 9  152 280 
 ZAR  HZ I        1228 22.09         7.2 0.15            121            152 280 
                                                                                
