 2012 11 7 1008  9.5 L   6.872 -73.630101.2  RSN  5 0.3 1.7LRSN                1
 GAP=146        0.66       6.8     6.5  7.1  0.3603E+02  0.2258E+02  0.1853E+02E
 Epicentro: SAN VICENTE DE CHUCURI - SANTANDER                                 3
 ACTION:UPD 12-12-05 15:31 OP:}ep  STATUS:               ID:20121107100809 L   I
 2012-11-07-1000-00M.COL___230                                                 6
 STAT SP IPHASW D HRMM SECON CODA AMPLIT PERI AZIMU VELO AIN AR TRES W  DIS CAZ7
 BRR  HZ EP       10 8 23.42                             163   -0.2010 27.5 341 
 BRR  HN ES   1   10 8 34.63                             163    0.03 7 27.5 341 
 BRR  HN I        10 8 35.41        24.4 0.16                          27.5 341 
 GIR2 SZ EP   1   10 8 24.93                             150   -0.14 7 53.3  65 
 BAR2 SZ EP   1   10 8 25.44                             148   -0.09 7 58.3 122 
 BAR2 SZ ES   1   10 8 38.30                             148    0.30 7 58.3 122 
 BAR2 SZ I        10 8 39.05        12.1 0.44                          58.3 122 
 RUS  HZ EP   1   10 8 31.23                             125   -0.25 7  124 151 
 RUS  HN ES   1   10 8 48.57                             125   -0.03 7  124 151 
 RUS  HN I        10 8 49.42         5.6 0.28                           124 151 
 ZAR  HZ EP       10 8 34.32                             118    0.57 9  152 297 
 ZAR  HN ES   1   10 8 52.21                             118   -0.43 7  152 297 
 ZAR  HN I        10 8 54.66        15.2 0.34                           152 297 
                                                                                
