 2012  1 7 1648 58.4 L   6.789 -73.154143.0  RSN  5 0.2 1.5LRSN                1
 GAP=136        0.42       3.1     4.5  4.2 -0.2182E+01  0.1101E+01  0.1244E+01E
 Epicentro: LOS SANTOS - SANTANDER                                             3
 ACTION:UP  12-02-03 08:15 OP:REBC STATUS:               ID:20120107164858 L   I
 2012-01-07-1640-00M.COL___186                                                 6
 STAT SP IPHASW D HRMM SECON CODA AMPLIT PERI AZIMU VELO SNR AR TRES W  DIS CAZ7
 BAR2 SZ EP       1649 17.59                             171    -0.110   22 188 
 BAR2 SZ ES   1   1649 32.58                             171    -0.2 7   22 188 
 BAR2 SZ I        1649 35.26         7.2 0.42                            22 188 
 GIR2 SZ EP   3   1649 17.86                             167     0.0 2   32 352 
 GIR2 SZ ES   3   1649 33.34                             167     0.4 2   32 352 
 BRR  HZ EP       1649 19.49                             152     0.210   71 300 
 BRR  HN ES   2   1649 35.26                             152    -0.3 5   71 300 
 BRR  HZ I        1649 36.29        15.3 0.36                            71 300 
 PAM  SZ EP       1649 20.34                             150    -0.110   79  39 
 PAM  SN ES   1   1649 37.70                             150     0.1 7   79  39 
 RUS  HZ EP       1649 21.89                             143     0.110   99 176 
 RUS  HZ I        1649 22.00         1.6 0.26                            99 176 
 RUS  HN ES   2   1649 40.30                             143     0.2 5   99 176 
                                                                                
