 2011  6 7 1549 44.0 L   6.018 -73.700113.4  RSN 14 0.3 3.6LRSN                1
 GAP= 78        0.60       2.0     2.8  5.0 -0.2784E+01  0.5599E+01 -0.5844E+00E
 Epicentro: BOLIVAR - SANTANDER                                                3
 ACTION:UP  11-07-14 19:03 OP:ep   STATUS:               ID:20110607154944 L   I
 2011-06-07-1546-48S.COL___129                                                 6
 STAT SP IPHASW D HRMM SECON CODA AMPLIT PERI AZIMU VELO SNR AR TRES W  DIS CAZ7
 RUS  HZ IP     D 1550  2.46                             146     0.110   70 101 
 RUS  HZ I        1550  3.02      1047.5 0.30                            70 101 
 RUS  HN ES   1   1550 16.58                             146    -0.1 7   70 101 
 BAR2 SZ IP       1550  3.35                             140     0.210   86  42 
 BAR2 SZ ES   1   1550 18.48                             140     0.4 7   86  42 
 BAR2 SZ I        1550 19.58      2905.0 0.47                            86  42 
 BRR  HZ EP   1   1550  5.56                             130    -0.3 7  121 359 
 BRR  HN ES   1   1550 22.59                             130    -0.3 7  121 359 
 BRR  HZ I        1550 26.30       894.2 0.16                           121 359 
 NOR  SZ EP   1   1550  7.48                             125    -0.2 7  139 249 
 NOR  SN ES   1   1550 26.24                             125     0.0 7  139 249 
 ROSC BZ EP   1   1550  9.75                             124     0.7 7  147 208 
 ROSC BN ES   2   1550 28.59                             124     0.1 5  147 208 
 ROSC BZ I        1550 36.37       451.8 0.38                           147 208 
 CHI  HZ EP   1   1550  9.55                             122    -0.1 7  154 181 
 CHI  HN ES   1   1550 29.13                             122    -0.6 7  154 181 
 CHI  HZ I        1550 33.43       282.4 0.24                           154 181 
 PAM  SZ EP   1   1550 12.82                             117    -0.1 7  183  37 
 PAM  SE ES   1   1550 35.30                             117    -0.2 7  183  37 
 GUY  SZ EP   1   1550 15.74                             114     0.3 6  207 245 
 GUY  SN ES   2   1550 39.83                             114    -0.2 4  207 245 
 GUY  SZ I        1550 43.49       606.2 0.37                           207 245 
 VIL  SZ EP   1   1550 15.58                             113     0.1 6  211 180 
 RREF HZ EP   1   1550 16.85                             112    -0.4 6  220 236 
 RREF HN ES   2   1550 43.77                             112     0.7 4  220 236 
 TOL  SZ EP   1   1550 18.93                             110    -0.1 6  239 229 
 TOL  SZ ES   2   1550 46.25                             110     0.0 4  239 229 
 OCA  SZ EP   1   1550 20.05                             109     0.2 6  249  10 
 OCA  SZ ES   1   1550 48.02                             109     0.2 6  249  10 
 OCA  SZ I        1550 52.83       444.3 0.46                           249  10 
 PRA  HZ EP   1   1550 24.07                             106     0.0 6  287 207 
 PRA  HE ES   2   1550 55.41                             106     0.0 4  287 207 
 DBB  SZ EP   1   1550 25.33                             105    -0.2 5  299 292 
 DBB  SZ I        1550 30.16        29.1 0.15                           299 292 
                                                                                
