 2016  4 7 1957 54.1 L   6.692 -73.126137.4  RSN  4 0.2 1.4LRSN                1
 GAP=204        0.48       4.3     2.8  5.8 -0.6383E+01  0.3944E+01  0.6357E+01E
 Epicentro: JORDAN - SANTANDER                                                 3
 ACTION:UPD 16-05-05 14:19 OP:rebc STATUS:               ID:20160407195754 L   I
 OLDACT:DUP 16-04-08 00:22 OP:drio STATUS:               ID:20160407194746d    3
 2016-04-07-1947-45M.COL___304                                                 6
 STAT SP IPHASW D HRMM SECON CODA AMPLIT PERI AZIMU VELO AIN AR TRES W  DIS CAZ7
 PAM  EZ EP       1958 16.02                             146    0.0110 85.7  33 
 PAM  EN ES       1958 33.10                             146    0.0310 85.7  33 
 PAM  EZ I        1958 34.93         4.5 0.44            153           85.7  33 
 PTB  HZ EP       1958 20.14                             130   -0.34 9  148 264 
 PTB  HN ES       1958 41.04                             130    0.03 9  148 264 
 PTB  HZ I        1958 46.31         4.3 0.60            134            148 264 
 ZAR  HZ EP       1958 27.03                             119    0.26 8  211 295 
 ZAR  HN ES       1958 52.16                             119   -0.07 8  211 295 
 GUY2CHZ EP   4   1958 39.59                             111    2.76 0  296 237 
 GUY2CHN ES       1959 10.30                             111    0.18 7  296 237 
 GUY2CHZ I        1959 20.18         1.2 0.32                           296 237 
                                                                                
