 2012 10 7 1432 33.2 L   6.760 -73.070142.0  RSN  5 0.3 1.7LRSN                1
 GAP=125        0.43      13.0    13.6  8.4  0.1249E+03 -0.5060E+02 -0.2743E+02E
 Epicentro: LOS SANTOS - SANTANDER                                             3
 ACTION:UPD 12-11-22 17:02 OP:ep   STATUS:               ID:20121007143233 L   I
 2012-10-07-1430-00M.COL___222                                                 6
 STAT SP IPHASW D HRMM SECON CODA AMPLIT PERI AZIMU VELO AIN AR TRES W  DIS CAZ7
 BAR2 SZ ES   3   1433  7.30                             171   -0.01 2 22.3 214 
 BAR2 SZ I        1433  8.96        14.0 0.26                          22.3 214 
 GIR2 SZ ES   3   1433  7.30                             164   -0.49 2 37.8 339 
 BRR  HZ EP       1432 54.39                             149   -0.1410 80.7 298 
 BRR  HZ I        1432 54.59         9.0 0.44                          80.7 298 
 BRR  HN ES   1   1433 11.38                             149    0.22 7 80.7 298 
 RUS  HN ES   3   1433 14.22                             145   -0.01 2 95.9 181 
 TAM  HZ EP   3   1433  0.58                             132    0.84 2  146 104 
                                                                                
