 2017  8 7 1652 58.6 L   6.778 -73.157147.5  RSN  4 0.3 1.1LRSN                1
 GAP=234        0.80       6.4     6.1  6.4  0.1941E+02  0.3021E+01  0.3345E+00E
 Epicentro: LOS SANTOS - SANTANDER                                             3
 ACTION:UPD 17-09-04 20:17 OP:rebc STATUS:               ID:20170807165258 L   I
 OLDACT:REG 17-08-07 20:17 OP:dani STATUS:               ID:20170807164742     3
 2017-08-07-1648-00M.COL___393                                                 6
 STAT SP IPHASW D HRMM SECON CODA AMPLIT PERI AZIMU VELO AIN AR TRES W  DIS CAZ7
 BAR2 EZ EP       1653 18.18                             172   -0.2010 20.7 188 
 BAR2 EZ ES       1653 33.56                             172   -0.2610 20.7 188 
 BAR2 EZ I        1653 35.50         4.0 0.24            171           20.7 188 
 BRR  HZ EP       1653 19.96                             153    0.0310 71.3 301 
 BRR  HN ES       1653 36.86                             153    0.2810 71.3 301 
 BRR  HZ I        1653 40.02         3.7 0.37            152           71.3 301 
 RUS  HZ EP       1653 22.89                             145    0.5410 98.3 175 
 RUS  HE ES       1653 40.82                             145   -0.0610 98.3 175 
 RUS  HZ I        1653 41.83         1.6 0.10            147           98.3 175 
 PTB  HZ EP       1653 25.07                             133   -0.48 9  146 260 
 PTB  HN ES       1653 46.69                             133    0.12 9  146 260 
 PTB  HZ I        1653 50.22         0.8 0.19            133            146 260 
                                                                                
