 2011  4 7 1306 48.8 L   7.125 -73.880  8.6  RSN  9 0.5 2.9LRSN                1
 GAP= 85        0.83       6.5     7.7 17.2  0.1488E+02  0.1250E+03  0.4384E+02E
 Epicentro: BARRANCABERMEJA - SANTANDER                                        3
 Evento Sentido                                                                2
 Reportado como Sentido:                                                       3
 BARRANCABERMEJA (SANTANDER)                                                   3
 ACTION:UP  11-06-22 15:29 OP:REBC STATUS:               ID:20110407130649 L   I
 2011-04-07-1304-51S.COL___134                                                 6
 STAT SP IPHASW D HRMM SECON CODA AMPLIT PERI AZIMU VELO SNR AR TRES W  DIS CAZ7
 BRR  HZ IP     D 13 6 52.12                             108    -0.210   19  96 
 BRR  HE ES   2   13 6 54.63                             108    -0.5 5   19  96 
 BRR  HZ I        13 6 54.81      5315.6 0.24                            19  96 
 BAR2 SZ EP       13 7  4.28                              93    -0.110   97 127 
 BAR2 SZ ES   1   13 7 16.60                              93     0.1 7   97 127 
 BAR2 SZ I        13 7 21.59       162.8 0.74                            97 127 
 PAM  SZ EP   3   13 7 10.05                              92     0.0 2  133  80 
 PAM  SN ES   2   13 7 26.72                              92     0.2 5  133  80 
 OCA  SZ EP   3   13 7 10.91                              92     0.4 2  138  27 
 OCA  SZ I        13 7 45.94       214.3 0.44                           138  27 
 NOR  SZ EP       13 7 19.53                              56     0.2 9  204 212 
 HEL  HZ EP       13 7 20.18                              56    -0.1 8  210 241 
 HEL  HN ES   2   13 7 44.46                              56    -0.4 4  210 241 
 HEL  HZ I        13 7 53.21        82.2 0.54                           210 241 
 MON  HZ I        13 7 35.22        27.1 0.30                           269 313 
 MON  HN ES   3   13 7 56.65                              56    -0.6 2  269 313 
 GUY  SZ EP   3   13 7 28.78                              56     0.9 2  269 219 
 GUY  SN ES   2   13 7 57.35                              56    -0.9 4  269 219 
 GUY  SZ I        13 8 10.93        82.1 0.18                           269 219 
 RREF HZ EP       13 7 32.26                              55     1.0 7  295 214 
 RREF HE ES   3   13 8  3.45                              55    -0.9 2  295 214 
 RREF HZ I        13 8 12.24        33.4 0.32                           295 214 
                                                                                
