 2010  9 7 1053 45.9 L   6.834 -73.224129.1  RSN  4 0.3 1.3LRSN                1
 GAP=163        0.62       7.7    14.1  8.3  0.6659E+02 -0.3877E+00  0.8328E+01E
 Epicentro: ZAPATOCA - SANTANDER                                               3
 ACTION:UP  11-02-18 11:00 OP:tino STATUS:               ID:20100907105345 L   I
 2010-09-07-1050-31S.COL___120                                                 6
 STAT SP IPHASW D HRMM SECON CODA AMPLIT PERI AZIMU VELO SNR AR TRES W  DIS CAZ7
 BAR2 SZ EP   1   1054  4.18                             167     0.5 7   27 171 
 GIR2 SZ EP   1   1054  3.32                             167    -0.2 7   27   7 
 GIR2 SZ ES   2   1054 17.01                             167    -0.2 5   27   7 
 BAR2 SZ I        1054  4.39         7.1 0.23                            27 171 
 BAR2 SZ ES   2   1054 17.54                             167     0.1 5   27 171 
 BRR  HZ EP   1   1054  4.80                             153     0.1 7   62 299 
 BRR  HZ I        1054  4.98         8.0 0.11                            62 299 
 BRR  HE ES   2   1054 19.24                             153    -0.2 5   62 299 
 RUS  HZ EP   1   1054  8.07                             139    -0.4 7  105 171 
 RUS  HZ I        1054  9.28         2.0 0.09                           105 171 
 RUS  HE ES   2   1054 26.04                             139     0.0 5  105 171 
                                                                                
