 2016  2 7 1444 22.5 L   6.862 -73.210135.3  RSN  6 0.2 1.5LRSN                1
 GAP=196        0.57       2.5     3.5  5.1  0.6413E+00  0.2788E+01 -0.6265E+01E
 Epicentro: ZAPATOCA - SANTANDER                                               3
 ACTION:UPD 16-03-04 21:24 OP:rebc STATUS:               ID:20160207144422 L   I
 OLDACT:REG 16-02-07 20:49 OP:cara STATUS:               ID:20160207143749     3
 2016-02-07-1437-49M.COL___331                                                 6
 STAT SP IPHASW D HRMM SECON CODA AMPLIT PERI AZIMU VELO AIN AR TRES W  DIS CAZ7
 BAR2 EZ IP       1444 40.90                             167   -0.1310 30.0 174 
 BAR2 EZ ES       1444 55.52                             167    0.0310 30.0 174 
 BAR2 EZ I        1444 57.11         5.2 0.14            163           30.0 174 
 RUS  HZ EP       1444 46.05                             139    0.2310  108 173 
 RUS  HN ES       1445  3.86                             139   -0.1510  108 173 
 RUS  HZ I        1445  4.35         3.7 0.32            140            108 173 
 PTB  HZ EP       1444 48.12                             131   -0.00 9  142 256 
 PTB  HN ES       1445  7.84                             131   -0.27 9  142 256 
 PTB  HZ I        1445 15.19         3.4 0.66            127            142 256 
 SPBC HN ES       1445 12.33                             126    0.29 9  164 216 
 SPBC HZ I        1445 20.84         6.4 0.20            125            164 216 
 SML  HZ EP       1444 57.24                             116   -0.31 8  235 336 
 SML  HN ES       1445 25.24                             116    0.36 8  235 336 
 SML  HZ I        1445 28.81         5.0 0.28            116            235 336 
 CHI  HZ EP   9   1444 59.15                             114   -1.03 0  254 193 
 CHI  HN ES       1445 28.71                                    0.17 8  254 193 
 CHI  HZ I        1445 31.43         1.7 0.50            115            254 193 
                                                                                
