 2015  9 7 1803 14.0 L   6.777 -73.157143.7  RSN 25 0.5 2.6LRSN                1
 GAP= 65        1.15       2.4     2.8  4.8 -0.8967E+00  0.3961E+01  0.2376E+00E
 Epicentro: LOS SANTOS - SANTANDER                                             3
 ACTION:UPD 15-10-28 16:24 OP:cam  STATUS:               ID:20150907180314 L   I
 OLDACT:REG 15-09-07 21:40 OP:stll STATUS:               ID:20150907175748     3
 2015-09-07-1757-48M.COL___358                                                 6
 STAT SP IPHASW D HRMM SECON CODA AMPLIT PERI AZIMU VELO AIN AR TRES W  DIS CAZ7
 BAR2 EZ IP     C 18 3 33.54                             171    0.2110 20.6 188 
 BAR2 EZ ES       18 3 48.10                             171   -0.3110 20.6 188 
 BAR2 EZ I        18 3 49.37       100.4 0.22            171           20.6 188 
 BRR  HZ IP     C 18 3 35.53                             152    0.5910 71.4 301 
 BRR  HN ES       18 3 52.01                             152    0.7410 71.4 301 
 BRR  HZ I        18 3 58.16        89.2 0.16            149           71.4 301 
 PAM  EZ IP     C 18 3 36.52                             150    0.3510 80.2  39 
 PAM  EN ES       18 3 53.85                             150    0.4010 80.2  39 
 PAM  EZ I        18 3 56.32        41.0 0.48            152           80.2  39 
 RUS  HZ EP       18 3 37.35                             144   -0.0210 98.1 175 
 RUS  HN ES       18 3 55.89                             144    0.2910 98.1 175 
 RUS  HZ I        18 3 56.92        44.3 0.34            147           98.1 175 
 PTB  HZ EP       18 3 40.32                             132   -0.33 9  146 260 
 PTB  HN ES       18 4  0.62                             132   -0.81 9  146 260 
 PTB  HZ I        18 4  6.93        44.4 0.18            131            146 260 
 TAM  HZ IP     C 18 3 41.83                             130    0.26 9  156 104 
 TAM  HN ES       18 4  2.37                             130   -0.70 9  156 104 
 TAM  HZ I        18 4  3.85        48.9 0.22            135            156 104 
 SPBC HZ EP       18 3 42.47                             129    0.39 9  160 219 
 SPBC HN ES       18 4  3.85                             129   -0.13 9  160 219 
 SPBC HZ I        18 4  7.54        59.3 0.06            130            160 219 
 OCA  HZ EP       18 3 42.01                             129   -0.37 9  163 354 
 OCA  HN ES       18 4  3.81                             129   -0.71 9  163 354 
 OCA  HZ I        18 4  9.26       129.7 0.30            129            163 354 
 ZAR  HZ EP       18 3 46.67                             122    0.37 9  204 293 
 ZAR  HE ES       18 4 11.71                             122    0.22 9  204 293 
 ZAR  HZ I        18 4 20.15        75.9 0.26            122            204 293 
 NOR  HZ EP       18 3 50.09                             118    0.75 8  232 235 
 NOR  HN ES       18 4 16.43                             118   -0.48 8  232 235 
 NOR  HZ I        18 4 22.05        34.9 0.22            119            232 235 
 SML  HZ EP       18 3 49.98                             117   -0.73 8  246 336 
 SML  HN ES       18 4 19.38                             117    0.03 8  246 336 
 SML  HZ I        18 4 30.31        59.4 0.30            117            246 336 
 HEL  HZ EP   1   18 3 54.58                             114    0.67 6  270 256 
 HEL  HN ES       18 4 24.51                             114   -0.52 8  270 256 
 HEL  HZ I        18 4 33.95        18.1 0.24            115            270 256 
 URE  HZ EP       18 3 54.01                             113   -0.94 7  284 292 
 URE  HN ES       18 4 26.28                             113   -0.61 7  284 292 
 URE  HZ I        18 4 36.18        40.5 0.22            113            284 292 
 GUY2CHZ EP   1   18 3 57.91                             112    0.68 5  299 235 
 GUY2CHN ES       18 4 30.57                             112   -0.38 7  299 235 
 GUY2CHZ I        18 4 38.58        19.6 0.26                           299 235 
 PTGC HZ EP       18 3 56.56                             111   -0.98 7  307 158 
 PTGC HN ES   4   18 4 29.67                             111   -1.83 0  307 158 
 LL4C HZ EP       18 3 59.80                             110    0.11 7  326 352 
 LL4C HN ES       18 4 35.62                             110    0.29 7  326 352 
 ELA  HZ EP       18 4  0.04                             110   -0.42 7  327 230 
 ELA  HN ES       18 4 37.27                             110    0.56 7  327 230 
 ELA  HZ I        18 4 50.20        13.4 0.56            111            327 230 
 CBOC HZ EP       18 4  1.24                             110    0.64 7  332 252 
 CBOC HN ES       18 4 37.88                             110    0.92 7  332 252 
 CBOC HZ I        18 4 42.22         7.7 0.50            110            332 252 
 DBB  SZ EP       18 4  1.29                             109    0.01 7  338 275 
 DBB  SZ ES       18 4 37.52                             109   -0.63 7  338 275 
 DBB  SZ I        18 4 42.28        51.2 0.72            110            338 275 
 TOL  SZ EP   1   18 4  2.11                             109    0.25 5  341 225 
 TOL  SN ES       18 4 39.85                             109    0.66 7  341 225 
 TOL  SZ I        18 4 48.11        13.2 0.26            110            341 225 
 ARGC HN ES       18 4 43.05                             108    0.38 6  361 341 
 ARGC HZ I        18 4 54.54         8.5 0.24            109            361 341 
 PRA  HZ EP   1   18 4  7.80                             106    0.69 4  389 210 
 PRA  HN ES       18 4 47.62                             106   -0.92 6  389 210 
 PRA  HZ I        18 4 55.09        13.6 0.28            107            389 210 
 ORTC HZ EP       18 4  7.90                             106    0.38 6  393 216 
 ORTC HN ES       18 4 48.98                             106   -0.28 6  393 216 
 ORTC HZ I        18 4 55.14        10.6 0.42            107            393 216 
 SJC  HZ EP   4   18 4  8.40                             105   -1.27 0  411 327 
 SJC  HN ES   4   18 4 49.95                             105   -3.15 0  411 327 
 SJC  HZ I        18 4 58.19         9.5 0.62            106            411 327 
 CRJC HZ EP   4   18 4 14.74                             103   -2.02 0  470   4 
 CRJC HN ES   4   18 5  0.34                             103   -5.37 0  470   4 
 CRJC HZ I        18 5 11.78         9.5 0.18            104            470   4 
                                                                                
