 2010 11 7 1739 50.7 L   6.719 -73.474104.5  RSN  5 0.3 1.7LRSN                1
 GAP= 98        0.54       4.9     5.5  7.8  0.1177E+02  0.1237E+02  0.1923E+02E
 Epicentro: EL CARMEN DE CHUCURI - SANTANDER                                   3
 ACTION:UP  10-12-17 16:50 OP:REBC STATUS:               ID:20101107173950 L   I
 2010-11-07-1736-13S.COL___129                                                 6
 STAT SP IPHASW D HRMM SECON CODA AMPLIT PERI AZIMU VELO SNR AR TRES W  DIS CAZ7
 BAR2 SZ EP   2   1740  5.76                             160     0.0 5   35 114 
 BAR2 SZ ES   1   1740 17.41                             160    -0.1 7   35 114 
 BAR2 SZ I        1740 18.71        29.9 0.10                            35 114 
 BRR  HE ES       1740 18.39                             152     0.110   50 328 
 GIR2 SZ EP   2   1740  6.77                             152     0.4 5   50  38 
 BRR  HZ EP   2   1740  5.42                             152    -0.8 5   50 328 
 RUS  HZ EP   2   1740 10.93                             133     0.3 5  101 155 
 RUS  HN ES   2   1740 26.25                             133     0.0 5  101 155 
 RUS  HZ I        1740 28.43         5.4 0.28                           101 155 
 NOR  SN ES   2   1740 43.71                             112     0.0 4  201 231 
                                                                                
