 2011  4 7 1858 47.5 L   6.729 -73.115142.1  RSN 11 0.4 2.1LRSN                1
 GAP=119        0.70       4.6     5.3  6.6 -0.1199E+02  0.8243E+00  0.6524E+01E
 Epicentro: JORDAN - SANTANDER                                                 3
 ACTION:UP  11-06-22 15:29 OP:REBC STATUS:               ID:20110407185847 L   I
 2011-04-07-1855-12S.COL___138                                                 6
 STAT SP IPHASW D HRMM SECON CODA AMPLIT PERI AZIMU VELO SNR AR TRES W  DIS CAZ7
 BAR2 SZ EP   1   1859  6.55                             173    -0.1 7   17 206 
 BAR2 SZ ES   1   1859 21.58                             173     0.1 7   17 206 
 BAR2 SZ I        1859 24.58        29.6 0.32                            17 206 
 BTL  SZ EP   1   1859  6.74                             169    -0.1 7   27 321 
 GIR2 SZ EP   2   1859  6.68                             164    -0.3 5   40 347 
 BRR  HZ EP   1   1859  8.41                             150    -0.3 7   78 302 
 BRR  HN ES   2   1859 25.22                             150     0.0 5   78 302 
 BRR  HZ I        1859 28.19        24.3 0.17                            78 302 
 PAM  SZ EP   1   1859  9.34                             149    -0.3 7   82  34 
 PAM  SN ES   2   1859 26.02                             149    -0.8 5   82  34 
 GRA  SZ EP   1   1859 13.35                             135     0.3 7  132  15 
 GRA  SZ ES   1   1859 33.55                             135     0.7 7  132  15 
 GRA  SZ I        1859 35.67        20.4 0.37                           132  15 
 OCA  SZ EP   2   1859 15.74                             127    -0.6 5  168 352 
 OCA  SZ I        1859 42.35        21.3 0.18                           168 352 
 YOP  SZ EP   1   1859 16.90                             127     0.4 7  170 153 
 YOP  SZ I        1859 41.66         8.5 0.26                           170 153 
 NOR  SN ES   1   1859 50.45                             118     0.0 6  233 237 
 HEL  HZ EP   2   1859 27.81                             114     0.1 4  274 258 
 HEL  HN ES   2   1859 59.57                             114     0.5 4  274 258 
 HEL  HZ I        19 0  5.83         6.2 0.39                           274 258 
 PRA  HZ EP   2   1859 40.27                             106    -0.1 3  387 211 
 PRA  HE ES   2   19 0 21.14                             106    -0.4 3  387 211 
                                                                                
