 2017  3 7 1020 43.4 L   6.761 -73.134152.1  RSN  6 0.4 1.5LRSN                1
 GAP=236        0.82       4.7     5.7  5.9  0.1211E+02  0.5893E+01 -0.6118E+00E
 Epicentro: LOS SANTOS - SANTANDER                                             3
 ACTION:UPD 17-05-25 18:37 OP:jn   STATUS:               ID:20170307102043 L   I
 OLDACT:REG 17-03-07 20:13 OP:ar   STATUS:               ID:20170307101743     3
 2017-03-07-1018-00M.COL___366                                                 6
 STAT SP IPHASW D HRMM SECON CODA AMPLIT PERI AZIMU VELO AIN AR TRES W  DIS CAZ7
 BAR2 EZ EP       1021  3.35                             172   -0.3810 19.4 196 
 BAR2 EZ ES       1021 19.30                             172   -0.2810 19.4 196 
 BAR2 EZ I        1021 20.05         5.6 0.24            162           19.4 196 
 BRR  HZ EP       1021  5.47                             152    0.0510 74.5 301 
 BRR  HN ES       1021 23.16                             152    0.5610 74.5 301 
 RUS  HZ EP       1021  7.34                             146   -0.1410 96.2 177 
 RUS  HN ES       1021 26.34                             146    0.0810 96.2 177 
 RUS  HZ I        1021 27.70         1.7 0.36            142           96.2 177 
 PTB  HZ EP   2   1021 10.31                             133   -0.63 5  148 261 
 PTB  HE ES   2   1021 31.74                             133   -0.68 5  148 261 
 PTB  HZ I        1021 38.29         3.5 0.40            129            148 261 
 SPBC HZ EP       1021 12.46                             131    0.29 9  161 220 
 SPBC HN ES       1021 34.88                             131    0.28 9  161 220 
 SPBC HZ I        1021 41.47         6.4 0.28            127            161 220 
 ZAR  HZ EP       1021 16.88                             123    0.32 8  207 293 
 ZAR  HE ES       1021 42.01                             123   -0.42 8  207 293 
 ZAR  HZ I        1021 43.90         3.7 0.10            122            207 293 
                                                                                
