 2010  8 7 1206 28.3 L   6.977 -73.139129.3  RSN  7 0.4 1.4LRSN                1
 GAP=157        0.87       5.9    10.9 10.7 -0.1461E+02 -0.1029E+02 -0.4266E+01E
 Epicentro: FLORIDABLANCA - SANTANDER                                          3
 ACTION:UP  10-09-07 10:52 OP:vdl  STATUS:               ID:20100807120628 L   I
 2010-08-07-1204-19S.COL___125                                                 6
 STAT SP IPHASW D HRMM SECON CODA AMPLIT PERI AZIMU VELO SNR AR TRES W  DIS CAZ7
 GIR2 SZ EP   1   12 6 46.53                             174     1.0 7   13 332 
 GIR2 SZ ES   3   12 6 59.55                             174     0.5 2   13 332 
 BAR2 SZ EP   1   12 6 46.54                             161     0.0 7   43 187 
 BAR2 SZ ES   2   12 7  0.24                             161    -0.5 5   43 187 
 BRR  HZ EP   1   12 6 46.87                             152    -0.4 7   65 283 
 BRR  HE ES   2   12 7  2.03                             152    -0.1 5   65 283 
 BRR  HZ I        12 7 12.19        13.1 0.31                            65 283 
 GUE  SZ EP   1   12 6 49.55                             141    -0.4 7   97  14 
 GUE  SZ I        12 7  8.83         1.8 0.19                            97  14 
 GRA  SZ EP   1   12 6 50.25                             138    -0.2 7  107  20 
 GRA  SZ ES   2   12 7  8.19                             138     0.4 5  107  20 
 GRA  SZ I        12 7 11.85         4.4 0.48                           107  20 
 RUS  HZ EP   1   12 6 52.08                             135     0.0 7  120 177 
 RUS  HN ES   2   12 7 10.47                             135    -0.1 5  120 177 
 RUS  HZ I        12 7 12.24         3.2 0.20                           120 177 
 HEL  HZ EP   2   12 7  8.80                             111     0.4 4  278 252 
 HEL  HZ I        12 7 44.19         3.1 0.37                           278 252 
                                                                                
