 2014  8 7 1847  1.3 L   6.809 -73.223144.4  RSN 10 0.4 1.6LRSN                1
 GAP=192        0.89       3.3     3.9  5.7  0.1017E+01  0.5243E+01 -0.7393E+00E
 Epicentro: ZAPATOCA - SANTANDER                                               3
 ACTION:UPD 14-09-15 21:47 OP:nd   STATUS:               ID:20140807184701 L   I
 OLDACT:REG 14-08-07 20:48 OP:spq  STATUS:               ID:20140807183818     3
 2014-08-07-1838-18M.COL___257                                                 6
 STAT SP IPHASW D HRMM SECON CODA AMPLIT PERI AZIMU VELO AIN AR TRES W  DIS CAZ7
 BAR2 SZ EP       1847 20.69                             170   -0.1010 24.4 169 
 BAR2 SZ ES   1   1847 35.91                             170   -0.09 7 24.4 169 
 BAR2 SZ I        1847 37.38         5.3 0.22            170           24.4 169 
 BRR  HZ IP     D 1847 22.64                             155    0.7610 63.3 301 
 BRR  HN ES       1847 37.76                             155   -0.1710 63.3 301 
 BRR  HZ I        1847 47.04        12.4 0.36            153           63.3 301 
 RUS  HZ EP       1847 24.97                             143   -0.0910  103 171 
 RUS  HN ES       1847 43.54                             143   -0.0610  103 171 
 RUS  HZ I        1847 45.18         2.6 0.28            148            103 171 
 PTB  HZ EP       1847 27.33                             133   -0.10 9  140 258 
 PTB  HN ES       1847 47.30                             133   -0.50 9  140 258 
 PTB  HZ I        1847 50.90         7.7 0.14            134            140 258 
 SPBC HZ EP       1847 29.53                             130    0.25 9  159 216 
 SPBC HE ES       1847 51.34                             130    0.24 9  159 216 
 SPBC HZ I        1847 58.86         5.8 0.32            132            159 216 
 ZAR  HZ EP       1847 32.05                             123   -0.76 9  196 293 
 ZAR  HN ES       1847 57.80                             123    0.41 9  196 293 
 ZAR  HZ I        1848  4.90         3.0 0.22            125            196 293 
 NOR  HN ES       1848  3.94                             119    0.38 8  228 233 
 NOR  HZ I        1848  9.50         3.2 0.16            122            228 233 
 SML  HZ EP   1   1847 37.73                             118    0.35 6  239 337 
 SML  HE ES   1   1848  5.47                             118   -0.05 6  239 337 
 SML  HZ I        1848  7.33         5.7 0.06            121            239 337 
 HEL  HN ES       1848 11.05                             115   -0.13 8  264 255 
 HEL  HZ I        1848 17.42         3.2 0.30            118            264 255 
 GUY2CHZ EP       1847 43.54                             113   -0.59 7  295 234 
 GUY2CHE ES       1848 17.75                             113    0.21 7  295 234 
 GUY2CHZ I        1848 29.61         2.0 0.92                           295 234 
                                                                                
