 2011  8 7 1329 25.4 L   6.197 -73.070169.6  RSN  4 0.4 1.7LRSN                1
 GAP=198        0.78       7.4     9.9  8.6  0.8444E+01  0.2960E+02  0.9907E+01E
 Epicentro: ENCINO - SANTANDER                                                 3
 ACTION:UPD 12-07-25 14:06 OP:epov STATUS:               ID:20110807132925 L   I
 2011-08-07-1320-00M.COL___145                                                 6
 STAT SP IPHASW D HRMM SECON CODA AMPLIT PERI AZIMU VELO AIN AR TRES W  DIS CAZ7
 RUS  HZ EP   1   1329 49.25                             168    0.77 7 33.7 182 
 RUS  HN ES   1   1330  6.16                             168   -0.33 7 33.7 182 
 RUS  HZ I        1330  9.94         6.5 0.33                          33.7 182 
 BAR2 SZ EP   1   1329 48.00                             164   -0.44 7 45.4 344 
 BAR2 SZ ES   1   1330  6.49                             164    0.07 7 45.4 344 
 BAR2 SZ I        1330  8.03         7.7 0.40                          45.4 344 
 BRR  HZ EP   1   1329 52.01                             142   -0.40 7  123 325 
 BRR  HZ I        1329 52.71        10.8 0.24                           123 325 
 BRR  HE ES   1   1330 13.83                             142    0.34 7  123 325 
 NOR  SZ EP   1   1330  0.28                             126    0.04 6  211 251 
 NOR  SN ES   2   1330 27.29                             126   -0.14 4  211 251 
                                                                                
