 2015  4 7 1653 12.0 L   6.804 -73.162146.3  RSN  7 0.4 2.0LRSN                1
 GAP=134        1.10       5.0     4.6  7.0 -0.9171E+00  0.1013E+02  0.1941E+01E
 Epicentro: LOS SANTOS - SANTANDER                                             3
 ACTION:UPD 15-06-03 16:53 OP:cam  STATUS:               ID:20150407165312 L   I
 OLDACT:REG 15-04-07 21:21 OP:carl STATUS:               ID:20150407164750     3
 2015-04-07-1647-50M.COL___264                                                 6
 STAT SP IPHASW D HRMM SECON CODA AMPLIT PERI AZIMU VELO AIN AR TRES W  DIS CAZ7
 BAR2 EZ EP       1653 31.65                             170   -0.0010 23.5 186 
 BAR2 EZ ES       1653 46.71                             170   -0.3110 23.5 186 
 BAR2 EZ I        1653 47.75        26.0 0.24            171           23.5 186 
 BRR  HZ EP       1653 33.57                             153    0.5110 69.5 299 
 BRR  HN ES       1653 50.38                             153    0.8510 69.5 299 
 PAM  SZ EP       1653 34.34                             151    0.0610 78.2  41 
 PAM  SN ES       1653 51.36                             151   -0.3310 78.2  41 
 PAM  SZ I        1653 53.69        33.3 0.48            152           78.2  41 
 RUS  HZ EP       1653 36.02                             144    0.2210  101 175 
 RUS  HE ES       1653 54.40                             144    0.0010  101 175 
 RUS  HZ I        1653 55.32        12.8 0.26            146            101 175 
 PTB  HZ EP       1653 38.25                             132   -0.57 9  146 259 
 PTB  HN ES       1653 58.98                             132   -0.79 9  146 259 
 PTB  HZ I        1654  2.55         9.2 0.10            132            146 259 
 ZAR  HZ EP       1653 44.11                             123   -0.14 9  202 292 
 ZAR  HN ES       1654  9.32                             123   -0.12 9  202 292 
 ZAR  HZ I        1654 16.30         8.7 0.40            123            202 292 
 NOR  HZ EP       1653 47.56                             119   -0.03 8  233 234 
 NOR  HN ES       1654 15.97                             119    0.59 8  233 234 
 NOR  HZ I        1654 17.97         7.6 0.16            119            233 234 
                                                                                
