 2010  7 7 1144 32.0 L   6.473 -73.682106.4  RSN  4 0.1 1.0LRSN                1
 GAP=255        0.31       2.6    21.7 12.1 -0.2042E+02  0.2361E+03 -0.1403E+02E
 Epicentro: SANTA HELENA DEL OPON - SANTANDER                                  3
 ACTION:UPD 10-12-01 15:15 OP:pat  STATUS:               ID:20100707114432 L   I
 2010-07-07-1140-25S.COL___117                                                 6
 STAT SP IPHASW D HRMM SECON CODA AMPLIT PERI AZIMU VELO AIN AR TRES W  DIS CAZ7
 BAR2 SZ ES   2   1145  1.13                             150    -0.1 5   57  77 
 GIR2 SZ EP   2   1144 50.50                             138     0.1 5   86  39 
 RUS  HZ EP       1144 51.35                             136     0.010   92 134 
 RUS  HZ I        1144 52.03         2.0 0.16                            92 134 
 RUS  HE ES   2   1145  6.62                             136     0.1 5   92 134 
 GUE  SZ EP   1   1144 59.00                             117     0.0 7  172  29 
 GUE  SZ ES   2   1145 20.09                             117     0.0 4  172  29 
 GUE  SZ I        1145 21.21         1.8 0.20                           172  29 
                                                                                
