 2015  5 7 1905 58.5 L   6.842 -73.165145.0  RSN  7 0.5 1.6LRSN                1
 GAP=151        0.98       4.6     4.8  8.1 -0.6178E+01  0.4027E+01  0.1740E+02E
 Epicentro: LOS SANTOS - SANTANDER                                             3
 ACTION:UPD 15-09-10 22:02 OP:cam  STATUS:               ID:20150507190558 L   I
 OLDACT:REG 15-05-07 22:58 OP:stll STATUS:               ID:20150507185748     3
 2015-05-07-1857-48M.COL___279                                                 6
 STAT SP IPHASW D HRMM SECON CODA AMPLIT PERI AZIMU VELO AIN AR TRES W  DIS CAZ7
 BRR  HZ EP       19 6 19.61                             154    0.2410 67.2 296 
 BRR  HE ES       19 6 36.18                             154    0.5610 67.2 296 
 PAM  SZ IP     D 19 6 20.63                             151    0.1010 75.3  43 
 PAM  SN ES       19 6 37.41                             151   -0.2910 75.3  43 
 PAM  SZ I        19 6 38.97         4.2 0.17            155           75.3  43 
 SPBC HZ EP   2   19 6 28.08                             128    0.89 5  166 217 
 SPBC HE ES       19 6 48.76                             128   -0.79 9  166 217 
 ZAR  HZ EP   2   19 6 30.88                             123    0.34 4  200 291 
 ZAR  HN ES       19 6 54.85                             123   -0.66 9  200 291 
 ZAR  HZ I        19 7  2.10         7.9 0.23            123            200 291 
 NOR  HZ EP       19 6 34.25                             118   -0.07 8  236 233 
 NOR  HN ES       19 7  2.71                             118    0.47 8  236 233 
 NOR  HZ I        19 7  7.61         3.7 0.20            118            236 233 
 CHI  HZ EP       19 6 36.17                             117   -0.44 8  253 194 
 CHI  HN ES       19 7  6.67                             117    0.35 8  253 194 
 CHI  HZ I        19 7 10.71         2.0 0.41            117            253 194 
 GUY2CHZ EP       19 6 42.34                             112    0.13 7  302 234 
 GUY2CHN ES   1   19 7 16.34                             112    0.05 5  302 234 
 GUY2CHZ I        19 7 27.02         1.7 0.44                           302 234 
                                                                                
