 2011 11 7 1103  3.1 L   6.753 -73.083140.2  RSN  5 0.2 1.3LRSN                1
 GAP=147        0.53       5.4     6.0  6.4  0.3135E+01 -0.4032E+01 -0.9206E+01E
 Epicentro: LOS SANTOS - SANTANDER                                             3
 ACTION:UPD 12-07-13 16:08 OP:ep   STATUS:               ID:20111107110303 L   I
 2011-11-07-1045-00M.COL___168                                                 6
 STAT SP IPHASW D HRMM SECON CODA AMPLIT PERI AZIMU VELO AIN AR TRES W  DIS CAZ7
 BAR2 SZ EP   1   11 3 22.23                             171    0.20 7 20.8 212 
 BAR2 SZ ES   1   11 3 36.46                             171   -0.32 7 20.8 212 
 BAR2 SZ I        11 3 38.49         4.3 0.17                          20.8 212 
 GIR2 SZ EP   2   11 3 22.09                             164   -0.25 5 38.0 341 
 PAM  SZ EP   1   11 3 25.00                             150    0.25 7 77.5  33 
 PAM  SE ES   2   11 3 41.60                             150   -0.02 5 77.5  33 
 BRR  HZ EP       11 3 23.95                             149   -0.2410 79.7 299 
 BRR  HZ I        11 3 35.94         8.6 0.38                          79.7 299 
 BRR  HN ES   1   11 3 40.94                             149    0.32 7 79.7 299 
 RUS  HE ES   2   11 3 43.94                             144    0.22 5 95.1 180 
 RUS  HZ I        11 3 46.65         1.7 0.22                          95.1 180 
                                                                                
