 2014  1 7 1109 25.1 L   6.794 -73.202147.9  RSN  4 0.4 1.3LRSN                1
 GAP=196        1.08       6.0     7.7  9.8  0.1432E+02  0.5897E+01 -0.2609E+02E
 Epicentro: ZAPATOCA - SANTANDER                                               3
 ACTION:UPD 14-03-13 09:52 OP:ep   STATUS:               ID:20140107110925 L   I
 OLDACT:DUP 14-01-07 17:04 OP:stll STATUS:               ID:20140107110812d    3
 OLDACT:REG 14-01-07 15:14 OP:stll STATUS:               ID:20140107110811     3
 2014-01-07-1108-11M.COL___231                                                 6
 STAT SP IPHASW D HRMM SECON CODA AMPLIT PERI AZIMU VELO AIN AR TRES W  DIS CAZ7
 BAR2 SZ EP       11 9 44.52                             171   -0.4510 22.4 174 
 BAR2 SZ ES       1110  0.68                             171    0.2210 22.4 174 
 BAR2 SZ I        1110  2.21         6.4 0.38            176           22.4 174 
 RUS  HZ EP       11 9 49.35                             144    0.2910  101 172 
 RUS  HE ES       1110  7.59                             144   -0.1510  101 172 
 RUS  HZ I        1110  8.59         1.6 0.28            151            101 172 
 PTB  HZ EP       11 9 52.39                             134    0.71 9  141 259 
 PTB  HN ES       1110 12.01                             134   -0.41 9  141 259 
 PTB  HZ I        1110 16.61         1.7 0.18            135            141 259 
 SML  HZ EP       1110  0.96                             118   -0.68 8  242 337 
 SML  HN ES       1110 30.53                             118    0.39 8  242 337 
 SML  HZ I        1110 39.75         2.0 0.10            119            242 337 
                                                                                
