 2013  7 7 1117 49.6 L   6.770 -73.160154.3  RSN  8 0.4 1.7LRSN                1
 GAP=181        0.92       4.3     5.1  6.0  0.3267E+01  0.6047E+01 -0.3845E+01E
 Epicentro: LOS SANTOS - SANTANDER                                             3
 ACTION:UPD 13-08-12 10:36 OP:ep   STATUS:               ID:20130707111749 L   I
 OLDACT:REG 13-07-07 17:56 OP:jn   STATUS:               ID:20130707111650     3
 2013-07-07-1116-50M.COL___221                                                 6
 STAT SP IPHASW D HRMM SECON CODA AMPLIT PERI AZIMU VELO AIN AR TRES W  DIS CAZ7
 BAR2 SZ EP       1118 10.07                             172   -0.1410 19.8 187 
 BAR2 SZ ES       1118 26.10                             172   -0.1710 19.8 187 
 BAR2 SZ I        1118 27.08         7.9 0.20            172           19.8 187 
 GIR2 SZ EP       1118 10.44                             167    0.0610 34.3 354 
 GIR2 SZ ES       1118 26.51                             167   -0.0710 34.3 354 
 BRR  HZ EP       1118 12.12                             154    0.4110 71.4 301 
 BRR  HE ES   1   1118 29.75                             154    0.81 7 71.4 301 
 BRR  HZ I        1118 37.75         9.3 0.34            152           71.4 301 
 RUS  HZ EP       1118 14.43                             146    0.4310 97.4 175 
 RUS  HN ES       1118 32.88                             146   -0.1410 97.4 175 
 RUS  HZ I        1118 33.67         5.1 0.28            150           97.4 175 
 PTB  HZ EP       1118 16.57                             134   -0.53 9  146 260 
 PTB  HN ES       1118 37.97                             134   -0.57 9  146 260 
 PTB  HZ I        1118 40.13         9.1 0.10            135            146 260 
 ZAR  HE ES   1   1118 48.50                             124    0.16 6  204 293 
 NOR  HE ES   1   1118 54.23                             121    0.71 6  231 235 
 NOR  HZ I        1118 57.77         6.1 0.16            122            231 235 
 SML  HZ EP       1118 26.74                             119   -0.24 8  246 336 
 SML  HN ES   1   1118 55.99                             119   -0.14 6  246 336 
                                                                                
