 2017  4 7 1027 17.8 L   6.806 -73.170147.7  RSN  4 0.3 1.3LRSN                1
 GAP=235        0.82       6.6     6.3  6.6  0.2063E+02  0.2832E+01  0.3670E+00E
 Epicentro: LOS SANTOS - SANTANDER                                             3
 ACTION:UPD 17-05-30 21:09 OP:jn   STATUS:               ID:20170407102717 L   I
 OLDACT:DUP 17-04-07 20:53 OP:ar   STATUS:               ID:20170407101739d    3
 OLDACT:REG 17-04-07 19:59 OP:ar   STATUS:               ID:20170407101738     3
 2017-04-07-1018-00M.COL___368                                                 6
 STAT SP IPHASW D HRMM SECON CODA AMPLIT PERI AZIMU VELO AIN AR TRES W  DIS CAZ7
 BAR2 EZ EP       1027 37.66                             170   -0.0210 23.7 183 
 BAR2 EZ ES       1027 52.76                             170   -0.4210 23.7 183 
 BAR2 EZ I        1027 55.26         6.6 0.40            166           23.7 183 
 BRR  HZ EP       1027 38.68                             154   -0.3410 68.5 299 
 BRR  HN ES       1027 56.09                             154    0.5210 68.5 299 
 RUS  HZ EP       1027 41.91                             144    0.1010  101 175 
 RUS  HN ES       1028  0.77                             144    0.2310  101 175 
 RUS  HZ I        1028  1.49         2.9 0.30            143            101 175 
 PTB  HZ EP       1027 44.92                             133    0.21 9  145 258 
 PTB  HE ES       1028  5.40                             133   -0.29 9  145 258 
 PTB  HZ I        1028 10.85         2.0 0.52            131            145 258 
                                                                                
