 2010 12 7 1747 54.4 L   6.814 -73.170138.6  RSN  4 0.2 1.8LRSN                1
 GAP=165        0.53       4.7    17.8  6.8  0.1535E+02 -0.5935E+02 -0.1503E+02E
 Epicentro: LOS SANTOS - SANTANDER                                             3
 ACTION:UP  11-01-14 15:23 OP:pat  STATUS:               ID:20101207174754 L   I
 2010-12-07-1744-52S.COL___135                                                 6
 STAT SP IPHASW D HRMM SECON CODA AMPLIT PERI AZIMU VELO SNR AR TRES W  DIS CAZ7
 BTL  SZ EP       1748 13.37                             173     0.310   16 317 
 BTL  SZ ES   1   1748 27.68                             173     0.1 7   16 317 
 BAR2 SZ EP   1   1748 13.01                             169    -0.2 7   25 184 
 BAR2 SZ ES   2   1748 27.62                             169    -0.3 5   25 184 
 BAR2 SZ I        1748 29.07        12.6 0.17                            25 184 
 GRA  SZ EP       1748 19.03                             136     0.010  125  19 
 GRA  SZ I        1748 20.34        10.5 0.17                           125  19 
 OCA  SZ EP       1748 21.87                             128    -0.2 9  158 354 
 OCA  SZ ES   1   1748 43.48                             128    -0.1 7  158 354 
 OCA  SZ I        1748 47.36         8.6 0.18                           158 354 
                                                                                
