 2013  6 7 1329 57.6 L   6.761 -73.133147.3  RSN  8 0.4 1.9LRSN                1
 GAP=140        1.05       4.6     4.4  6.1 -0.1597E+01  0.8427E+01  0.3241E+01E
 Epicentro: LOS SANTOS - SANTANDER                                             3
 ACTION:UPD 14-01-08 09:53 OP:ep   STATUS:               ID:20130607132957 L   I
 OLDACT:REG 13-06-07 16:13 OP:nd   STATUS:               ID:20130607132959     3
 2013-06-07-1329-59M.COL___259                                                 6
 STAT SP IPHASW D HRMM SECON CODA AMPLIT PERI AZIMU VELO AIN AR TRES W  DIS CAZ7
 BAR2 SZ IP     D 1330 17.30                             172   -0.0210 19.4 196 
 BAR2 SZ ES       1330 32.77                             172    0.0610 19.4 196 
 BAR2 SZ I        1330 34.15        18.5 0.18            169           19.4 196 
 GIR2 SZ EP       1330 17.50                             166   -0.0610 35.8 349 
 GIR2 SZ ES       1330 32.38                             166   -0.7610 35.8 349 
 GIR2 SZ I        1330 33.80        14.0 0.12            164           35.8 349 
 BRR  HZ IP     C 1330 19.31                             152    0.2310 74.5 301 
 BRR  HN ES       1330 36.62                             152    0.7710 74.5 301 
 BRR  HZ I        1330 38.95        19.3 0.10            149           74.5 301 
 PAM  SZ EP       1330 20.36                             150    0.2510 79.9  37 
 PAM  SN ES       1330 37.66                             150   -0.0210 79.9  37 
 PAM  SZ I        1330 38.27         9.3 0.36            155           79.9  37 
 RUS  HZ EP       1330 21.09                             145   -0.0810 96.2 177 
 RUS  HN ES       1330 39.82                             145    0.2510 96.2 177 
 RUS  HZ I        1330 41.26         8.5 0.22            147           96.2 177 
 PTB  HZ EP       1330 24.00                             132   -0.72 9  148 261 
 PTB  HN ES       1330 45.24                             132   -0.65 9  148 261 
 PTB  HZ I        1330 51.00        12.5 0.12            131            148 261 
 ZAR  HZ EP       1330 30.32                             122   -0.10 8  207 293 
 ZAR  HN ES       1330 56.42                             122    0.38 8  207 293 
 ZAR  HZ I        1331  3.86         9.6 0.38            122            207 293 
 NOR  HZ EP       1330 33.51                             119    0.26 8  233 236 
 NOR  HN ES       1331  1.36                             119    0.28 8  233 236 
 NOR  HZ I        1331  7.86        10.7 0.20            119            233 236 
                                                                                
