 2012  4 7 1259 46.5 L   6.787 -73.149144.5  RSN  4 0.4 1.5LRSN                1
 GAP=137        1.08       7.2     8.7 11.7 -0.1862E+01  0.2189E+02  0.1294E+02E
 Epicentro: LOS SANTOS - SANTANDER                                             3
 ACTION:UPD 12-07-05 11:51 OP:tino STATUS:               ID:20120407125946 L   I
 2012-04-07-1257-15M.COL___178                                                 6
 STAT SP IPHASW D HRMM SECON CODA AMPLIT PERI AZIMU VELO AIN AR TRES W  DIS CAZ7
 BRR  HZ EP       13 0  7.82                             152     0.310   72 300 
 BRR  HZ I        13 0 18.03        10.8 0.38                            72 300 
 BRR  HE ES   1   13 0 24.26                             152     0.4 7   72 300 
 PAM  SZ EP       13 0  8.79                             150     0.210   79  39 
 PAM  SN ES   1   13 0 25.38                             150    -0.5 7   79  39 
 RUS  HZ EP       13 0 10.23                             144     0.310   99 176 
 RUS  HN ES   1   13 0 28.16                             144    -0.2 7   99 176 
 RUS  HZ I        13 0 30.61         3.6 0.38                            99 176 
 PTB  HZ EP       13 0 12.60                             132    -0.7 9  147 259 
 PTB  HZ I        13 0 35.30         3.1 0.38                           147 259 
                                                                                
