 2013  9 7 1943 50.8 L   6.793 -73.140143.5  RSN  9 0.5 2.2LRSN                1
 GAP=138        0.99       3.8     4.5  6.5 -0.4146E+01  0.8246E+01 -0.1114E+01E
 Epicentro: LOS SANTOS - SANTANDER                                             3
 ACTION:UPD 13-10-22 09:20 OP:ep   STATUS:               ID:20130907194350 L   I
 OLDACT:UP  13-09-07 18:12 OP:cam  STATUS:               ID:20130907193959     3
 OLDACT:REG 13-09-07 15:39 OP:cam  STATUS:               ID:20130907193959     3
 2013-09-07-1939-59M.COL___269                                                 6
 STAT SP IPHASW D HRMM SECON CODA AMPLIT PERI AZIMU VELO AIN AR TRES W  DIS CAZ7
 BAR2 SZ EP       1944 10.00                             171   -0.1610 22.7 192 
 BAR2 SZ ES       1944 24.92                             171   -0.3310 22.7 192 
 BAR2 SZ I        1944 25.94        33.1 0.20            171           22.7 192 
 BRR  HZ EP       1944 11.86                             152    0.0910 72.1 299 
 BRR  HN ES       1944 28.83                             152    0.7210 72.1 299 
 BRR  HZ I        1944 31.86        36.7 0.28            149           72.1 299 
 PAM  SZ EP       1944 12.90                             150    0.0910 77.6  39 
 PAM  SN ES       1944 30.03                             150    0.0710 77.6  39 
 PAM  SZ I        1944 32.23        39.8 0.66            152           77.6  39 
 RUS  HZ EP   1   1944 14.04                             144   -0.25 7 99.7 176 
 RUS  HE ES       1944 32.53                             144   -0.0610 99.7 176 
 RUS  HZ I        1944 33.52        11.3 0.34            146           99.7 176 
 PTB  HZ EP   1   1944 17.10                             131   -0.54 7  148 259 
 PTB  HN ES       1944 37.74                             131   -0.82 9  148 259 
 PTB  HZ I        1944 39.43        22.6 0.46            131            148 259 
 SPBC HZ EP   1   1944 19.50                             129    0.38 7  163 219 
 SPBC HE ES       1944 41.80                             129    0.61 9  163 219 
 SPBC HZ I        1944 44.45        10.4 0.16            129            163 219 
 ZAR  HZ EP   2   1944 24.46                             122    1.26 4  205 292 
 ZAR  HN ES   2   1944 48.91                             122    0.45 4  205 292 
 ZAR  HZ I        1944 54.52        23.2 0.46            122            205 292 
 NOR  HZ EP   1   1944 26.68                             118    0.26 6  235 235 
 NOR  HE ES       1944 53.98                             118   -0.20 8  235 235 
 NOR  HZ I        1944 59.19         8.1 0.20            119            235 235 
 SML  HZ EP   2   1944 26.71                             117   -0.71 4  245 335 
 SML  HE ES   1   1944 55.52                             117   -0.45 6  245 335 
 SML  HZ I        1944 59.31        22.6 0.10            117            245 335 
                                                                                
