 2010  3 7 1115 18.9 L   6.407 -73.607110.8  RSN 13 0.5 2.2LRSN                1
 GAP= 68        1.04       3.2     4.7  7.8 -0.3746E+01  0.1565E+02  0.3994E+01E
 Epicentro: SANTA HELENA DEL OPON - SANTANDER                                  3
 ACTION:UP  10-08-24 09:52 OP:vdl  STATUS:               ID:20100307111518 L   I
 2010-03-07-1111-43S.COL___100                                                 6
 STAT SP IPHASW D HRMM SECON CODA AMPLIT PERI AZIMU VELO SNR AR TRES W  DIS CAZ7
 BAR2 SZ EP       1115 35.62                             154     0.110   51  66 
 BAR2 SZ ES   1   1115 48.49                             154     0.0 7   51  66 
 BRR  HZ EP       1115 36.67                             142    -0.310   78 351 
 BRR  HZ I        1115 45.02        35.6 0.15                            78 351 
 BRR  HE ES   1   1115 51.15                             142     0.1 7   78 351 
 RUS  BZ EP       1115 37.38                             142    -0.510   81 134 
 RUS  BZ I        1115 37.81        52.4 0.32                            81 134 
 RUS  BE ES   2   1115 52.33                             142    -0.3 5   81 134 
 ROSC BZ EP   1   1115 49.34                             116     1.0 7  190 205 
 ROSC BN ES   1   1116 11.84                             116     0.5 7  190 205 
 ROSC BZ I        1116 18.91        17.9 0.37                           190 205 
 CHI  HZ EP       1115 48.56                             115    -0.6 9  197 184 
 CHI  HE ES   2   1116 12.84                             115     0.2 4  197 184 
 CHI  HZ I        1116 15.45        10.9 0.26                           197 184 
 OCA  SZ EP       1115 49.99                             113     0.3 9  205   9 
 OCA  SZ ES   1   1116 14.38                             113     0.7 6  205   9 
 HEL  HZ EP   2   1115 50.58                             112    -0.4 4  214 264 
 HEL  HN ES   1   1116 15.84                             112    -0.1 6  214 264 
 HEL  HZ I        1116 18.21        23.0 0.41                           214 264 
 RREF BZ EP       1115 55.50                             108    -0.4 8  255 229 
 RREF BE ES   2   1116 24.46                             108    -0.4 4  255 229 
 RREF BZ I        1116 29.65        22.6 0.47                           255 229 
 ANIL BZ EP       1116  0.48                             105     0.8 7  291 223 
 ANIL BN ES       1116 31.87                             105     0.3 7  291 223 
 DBB  SZ EP       1115 59.74                             105    -0.3 7  296 283 
 DBB  SZ ES   2   1116 30.96                             105    -1.1 4  296 283 
 PRA  HZ EP       1116  3.36                             103    -0.7 7  330 206 
 PRA  HN ES       1116 39.82                             103     0.6 7  330 206 
 PRA  HZ I        1116 44.63        10.6 0.21                           330 206 
 MON  HN ES   2   1116 42.28                             102    -0.4 3  346 319 
 MON  HZ I        1116 42.88         3.8 0.20                           346 319 
 SDV  BZ EP       1116 16.16                              98     0.2 5  427  50 
                                                                                
