 2011  7 7 1420 28.2 L   6.805 -73.015152.2  RSN  5 0.3 1.7LRSN                1
 GAP=217        0.50       6.6     8.7  7.0  0.2801E+02 -0.2401E+02 -0.9009E+01E
 Epicentro: CEPITA - SANTANDER                                                 3
 ACTION:UPD 12-07-25 13:59 OP:epov STATUS:               ID:20110707142028 L   I
 2011-07-07-1419-12S.COL___140                                                 6
 STAT SP IPHASW D HRMM SECON CODA AMPLIT PERI AZIMU VELO AIN AR TRES W  DIS CAZ7
 BAR2 SZ EP   2   1420 49.18                             168    0.42 5 29.9 218 
 BAR2 SZ ES   2   1421  4.47                             168   -0.31 5 29.9 218 
 BAR2 SZ I        1421  5.50        13.4 0.27                          29.9 218 
 GIR2 SZ EP       1420 48.59                             166   -0.1910 36.2 327 
 BRR  HZ EP   1   1420 51.13                             149    0.33 7 84.0 294 
 BRR  HE ES       1421  8.41                             149   -0.0110 84.0 294 
 BRR  HZ I        1421 12.92        11.6 0.20                          84.0 294 
 RUS  HN ES   2   1421 11.83                             144    0.14 5  101 184 
 RUS  HZ I        1421 12.49         5.7 0.36                           101 184 
 NOR  SZ EP   2   1421  5.29                             118   -0.33 4  247 236 
                                                                                
