 2016  9 7 1914  8.3 L   6.729 -73.117140.0  RSN  7 0.3 1.9LRSN                1
 GAP=143        0.85       3.7     3.8  6.0 -0.3441E+01  0.1020E+02 -0.2697E+01E
 Epicentro: JORDAN - SANTANDER                                                 3
 ACTION:UPD 17-08-17 21:07 OP:lp   STATUS:               ID:20160907191408 L   I
 OLDACT:REG 16-09-07 20:50 OP:lv   STATUS:               ID:20160907190738     3
 2016-09-07-1908-00M.COL___355                                                 6
 STAT SP IPHASW D HRMM SECON CODA AMPLIT PERI AZIMU VELO AIN AR TRES W  DIS CAZ7
 BAR2 EZ EP       1914 27.15                             173    0.0810 16.7 206 
 BAR2 EZ ES       1914 41.98                             173    0.2310 16.7 206 
 BAR2 EZ I        1914 42.84        18.2 0.22            172           16.7 206 
 PAM  EZ EP       1914 30.35                             148    0.2210 81.8  34 
 PAM  EN ES       1914 46.95                             148   -0.2510 81.8  34 
 PAM  EZ I        1914 48.63        11.2 0.21            151           81.8  34 
 RUS  HZ EP       1914 31.16                             145    0.3010 92.5 178 
 RUS  HN ES       1914 48.23                             145   -0.2710 92.5 178 
 RUS  HZ I        1914 50.84         7.1 0.25            148           92.5 178 
 PTB  HZ EP       1914 34.23                             130   -0.70 9  150 262 
 PTB  HN ES       1914 55.39                             130   -0.34 9  150 262 
 PTB  HZ I        1914 57.60        11.4 0.16            131            150 262 
 SPBC HN ES       1914 57.80                             128    0.27 9  159 222 
 SPBC HZ I        1915  1.79        12.8 0.09            130            159 222 
 ZAR  HZ EP       1914 41.36                             120    0.40 8  210 294 
 ZAR  HE ES       1915  6.73                             120    0.26 8  210 294 
 ZAR  HZ I        1915 13.92         8.2 0.11            121            210 294 
 GUY2CHZ EP       1914 50.88                             111   -0.51 7  299 236 
 GUY2CHN ES       1915 25.36                             111    0.32 7  299 236 
 GUY2CHZ I        1915 32.67         5.0 0.30                           299 236 
                                                                                
