 2016 10 7 1404 28.3 L   6.797 -73.148136.0  RSN  7 0.5 1.8LRSN                1
 GAP=136        1.23       4.8     5.3  8.1 -0.7699E+00  0.1828E+02  0.4876E+01E
 Epicentro: LOS SANTOS - SANTANDER                                             3
 ACTION:UPD 16-11-09 19:17 OP:rebc STATUS:               ID:20161007140428 L   I
 OLDACT:REG 16-10-07 20:16 OP:lv   STATUS:               ID:20161007135748     3
 2016-10-07-1358-00M.COL___360                                                 6
 STAT SP IPHASW D HRMM SECON CODA AMPLIT PERI AZIMU VELO AIN AR TRES W  DIS CAZ7
 BAR2 EZ EP       14 4 46.48                             170   -0.2910 23.0 189 
 BAR2 EZ ES       14 5  1.30                             170    0.1410 23.0 189 
 BAR2 EZ I        14 5  2.96        28.2 0.21            169           23.0 189 
 PAM  EZ EP       14 4 49.32                             149   -0.2110 77.8  40 
 PAM  EE ES       14 5  6.36                             149    0.2810 77.8  40 
 PAM  EZ I        14 5  8.81        17.1 0.26            151           77.8  40 
 RUS  HZ EP       14 4 50.98                             142   -0.1210  100 176 
 RUS  HN ES       14 5  8.83                             142   -0.0410  100 176 
 RUS  HZ I        14 5  9.85         7.1 0.22            142            100 176 
 PTB  HZ EP       14 4 53.63                             130   -0.85 9  147 259 
 PTB  HN ES       14 5 14.06                             130   -0.83 9  147 259 
 PTB  HZ I        14 5 16.11         6.8 0.13            130            147 259 
 ZAR  HZ EP       14 5  0.92                             120    0.78 9  204 292 
 ZAR  HE ES       14 5 25.63                             120    0.68 9  204 292 
 ZAR  HZ I        14 5 31.33        11.5 0.35            121            204 292 
 CHI  HZ EP       14 5  5.53                             115    0.07 8  248 195 
 CHI  HN ES       14 5 35.27                             115    0.85 8  248 195 
 CHI  HZ I        14 5 43.95         2.4 0.30            116            248 195 
 GUY2CHZ EP       14 5 11.11                             110   -0.34 7  301 235 
 GUY2CHE ES       14 5 45.60                             110    0.51 7  301 235 
 GUY2CHZ I        14 5 52.95         4.4 0.36                           301 235 
                                                                                
