 2012  9 7 1010  9.7 L   6.319 -72.984114.0  RSN  4 0.3 1.8LRSN                1
 GAP=294        0.41      16.7    10.5 18.6 -0.1274E+03 -0.1128E+03  0.2432E+03E
 Epicentro: COROMORO - SANTANDER                                               3
 ACTION:UPD 12-10-22 14:17 OP:ep   STATUS:               ID:20120907101009 L   I
 2012-09-07-1010-00M.COL___227                                                 6
 STAT SP IPHASW D HRMM SECON CODA AMPLIT PERI AZIMU VELO AIN AR TRES W  DIS CAZ7
 BAR2 SZ EP   3   1010 25.49                             161   -0.53 3 37.3 324 
 GIR2 SZ ES   3   1010 44.51                             140    0.61 3 87.1 345 
 BRR  HZ EP       1010 31.35                             130   -0.1010  119 317 
 BRR  HN ES   3   1010 47.97                             130   -0.42 2  119 317 
 BRR  HN I        1010 51.70        12.4 0.16                           119 317 
 PTB  HZ EP       1010 36.21                             120    0.14 9  165 279 
 PTB  HN ES   2   1010 56.59                             120   -0.02 5  165 279 
                                                                                
