 2017  3 7 1311 40.0 L   6.762 -73.179146.4  RSN  4 0.2 1.5LRSN                1
 GAP=139        0.48       3.0     2.8  4.0 -0.2571E+01  0.2998E+01 -0.1230E+01E
 Epicentro: LOS SANTOS - SANTANDER                                             3
 ACTION:UPD 17-05-25 18:37 OP:jn   STATUS:               ID:20170307131140 L   I
 OLDACT:REG 17-03-07 20:18 OP:ar   STATUS:               ID:20170307130741     3
 2017-03-07-1308-00M.COL___355                                                 6
 STAT SP IPHASW D HRMM SECON CODA AMPLIT PERI AZIMU VELO AIN AR TRES W  DIS CAZ7
 BAR2 EZ EP       1311 59.51                             172   -0.1110 18.7 181 
 BAR2 EZ ES       1312 14.90                             172   -0.0210 18.7 181 
 BAR2 EZ I        1312 17.24        12.5 0.32            174           18.7 181 
 PAM  EZ EP       1312  2.45                             149   -0.1710 83.0  40 
 PAM  EN ES       1312 20.40                             149    0.1410 83.0  40 
 PAM  EZ I        1312 22.65         3.6 0.16            151           83.0  40 
 RUS  HZ EP       1312  3.45                             145   -0.0810 96.7 174 
 RUS  HN ES       1312 21.97                             145    0.0810 96.7 174 
 RUS  HZ I        1312 23.34         4.5 0.36            148           96.7 174 
 PTB  HZ EP       1312  6.96                             133    0.35 9  143 260 
 PTB  HN ES       1312 27.21                             133   -0.17 9  143 260 
 PTB  HZ I        1312 29.81         3.1 0.14            135            143 260 
                                                                                
