 2013 10 7 1227 22.8 L   6.789 -73.137150.7  RSN  6 0.5 1.9LRSN                1
 GAP=201        1.33       5.7     7.9  8.8  0.5558E+01  0.1187E+02 -0.7847E+01E
 Epicentro: LOS SANTOS - SANTANDER                                             3
 ACTION:UPD 13-11-25 09:19 OP:ep   STATUS:               ID:20131007122722 L   I
 OLDACT:REG 13-10-07 14:58 OP:nd   STATUS:               ID:20131007122000     3
 2013-10-07-1220-00M.COL___272                                                 6
 STAT SP IPHASW D HRMM SECON CODA AMPLIT PERI AZIMU VELO AIN AR TRES W  DIS CAZ7
 BAR2 SZ IP     C 1227 43.11                             171    0.1210 22.3 193 
 BAR2 SZ ES       1227 59.03                             171    0.2810 22.3 193 
 BAR2 SZ I        1228  7.10        13.9 0.44            171           22.3 193 
 BRR  HZ IP     D 1227 44.97                             153    0.4210 72.6 299 
 BRR  HN ES       1228  2.35                             153    0.8310 72.6 299 
 BRR  HZ I        1228  5.76        10.3 0.38            152           72.6 299 
 RUS  HZ EP       1227 47.05                             145    0.1110 99.3 177 
 RUS  HN ES       1228  4.94                             145   -0.8310 99.3 177 
 RUS  HZ I        1228  6.50         6.4 0.48            151           99.3 177 
 PTB  HZ EP       1227 49.92                             133   -0.30 9  148 259 
 PTB  HN ES       1228 10.93                             133   -0.69 9  148 259 
 PTB  HZ I        1228 18.34        10.7 0.42            135            148 259 
 NOR  HZ EP       1227 59.42                             120    0.61 8  235 235 
 NOR  HN ES       1228 27.14                             120    0.23 8  235 235 
 NOR  HZ I        1228 32.39         5.9 0.16            123            235 235 
 SML  HZ EP       1227 59.78                             118   -0.08 8  245 335 
 SML  HN ES       1228 27.85                             118   -0.92 8  245 335 
 SML  HZ I        1228 35.48        10.3 0.12            121            245 335 
                                                                                
