 2017  9 7 1404 48.7 L   6.795 -73.050135.8  RSN  4 0.5 1.4LRSN                1
 GAP=247        1.19      12.7    14.9  9.4  0.1590E+03 -0.5386E+01 -0.2218E+02E
 Epicentro: LOS SANTOS - SANTANDER                                             3
 ACTION:UPD 17-10-05 19:10 OP:rebc STATUS:               ID:20170907140448 L   I
 OLDACT:REG 17-09-07 20:13 OP:lv   STATUS:               ID:20170907135739     3
 2017-09-07-1358-00M.COL___423                                                 6
 STAT SP IPHASW D HRMM SECON CODA AMPLIT PERI AZIMU VELO AIN AR TRES W  DIS CAZ7
 BAR2 EZ EP       14 5  7.18                             168   -0.0410 26.8 213 
 BAR2 EZ ES       14 5 21.25                             168   -0.4110 26.8 213 
 BAR2 EZ I        14 5 22.89         6.0 0.26            168           26.8 213 
 BRR  HZ EP       14 5  9.11                             147   -0.2910 80.9 295 
 BRR  HE ES       14 5 26.16                             147    0.6310 80.9 295 
 BRR  HZ I        14 5 28.26        11.0 0.42            148           80.9 295 
 RUS  HZ EP       14 5 11.24                             142   -0.2010 99.9 182 
 RUS  HN ES       14 5 29.46                             142    0.2910 99.9 182 
 RUS  HZ I        14 5 30.46         1.9 0.16            144           99.9 182 
 ZAR  HZ EP       14 5 22.38                             119    0.79 8  214 291 
 ZAR  HN ES       14 5 46.47                             119   -0.76 8  214 291 
                                                                                
