 2012  1 7 1547 48.0 L   6.763 -73.164134.0  RSN  4 0.1 0.8LRSN                1
 GAP=233        0.34       6.1     6.2  7.9  0.1666E+02  0.2401E+02 -0.4104E+01E
 Epicentro: LOS SANTOS - SANTANDER                                             3
 ACTION:UP  12-02-03 08:15 OP:REBC STATUS:               ID:20120107154748 L   I
 2012-01-07-1540-00M.COL___186                                                 6
 STAT SP IPHASW D HRMM SECON CODA AMPLIT PERI AZIMU VELO SNR AR TRES W  DIS CAZ7
 BAR2 SZ EP       1548  6.18                             172     0.010   19 186 
 BAR2 SZ ES   3   1548 20.06                             172    -0.2 2   19 186 
 BAR2 SZ I        1548 23.39         2.1 0.36                            19 186 
 BRR  HZ EP   3   1548  8.17                             150     0.2 2   72 302 
 RUS  HZ EP       1548 10.27                             143    -0.110   97 175 
 RUS  HZ I        1548 10.85         1.4 0.50                            97 175 
 RUS  HN ES   2   1548 27.90                             143     0.2 5   97 175 
 PTB  HZ EP       1548 13.79                             130     0.0 9  145 260 
 PTB  HZ I        1548 39.94         0.7 0.26                           145 260 
                                                                                
