 2017  8 7 1237 14.4 L   6.805 -73.155147.1  RSN 16 0.5 2.4LRSN                1
 GAP=111        1.05       3.1     3.3  5.0  0.2907E+00  0.2420E+01  0.3055E+01E
 Epicentro: LOS SANTOS - SANTANDER                                             3
 ACTION:UPD 17-09-04 20:17 OP:rebc STATUS:               ID:20170807123714 L   I
 OLDACT:UP  17-08-07 21:12 OP:dani STATUS:               ID:20170807122741     3
 OLDACT:REG 17-08-07 19:50 OP:dani STATUS:               ID:20170807122741     3
 2017-08-07-1228-00M.COL___390                                                 6
 STAT SP IPHASW D HRMM SECON CODA AMPLIT PERI AZIMU VELO AIN AR TRES W  DIS CAZ7
 BAR2 EZ EP     D 1237 34.17                             170    0.0110 23.7 187 
 BAR2 EZ ES       1237 49.25                             170   -0.3510 23.7 187 
 BAR2 EZ I        1237 50.33        45.8 0.20            170           23.7 187 
 BRR  HZ EP     D 1237 35.96                             153    0.3710 70.0 299 
 BRR  HN ES       1237 52.98                             153    0.8410 70.0 299 
 BRR  HZ I        1237 56.84        31.8 0.12            146           70.0 299 
 PAM  EZ EP     C 1237 37.22                             151    0.4810 77.7  40 
 PAM  EN ES       1237 53.82                             151   -0.3610 77.7  40 
 PAM  EZ I        1237 56.36        71.5 0.54            148           77.7  40 
 RUS  HZ EP       1237 38.17                             144   -0.1210  101 175 
 RUS  HN ES       1237 56.89                             144   -0.0610  101 175 
 RUS  HZ I        1237 58.03        37.8 0.36            142            101 175 
 PTB  HZ EP       1237 40.76                             132   -0.60 9  147 259 
 PTB  HN ES       1238  1.70                             132   -0.71 9  147 259 
 PTB  HZ I        1238  7.55        14.7 0.30            127            147 259 
 SPBC HZ EP       1237 43.11                             129    0.17 9  163 219 
 SPBC HN ES       1238  4.53                             129   -0.70 9  163 219 
 SPBC HZ I        1238  7.69        58.1 0.38            125            163 219 
 YPLC HZ EP       1237 44.96                             127    0.61 9  178 151 
 YPLC HE ES       1238  7.97                             127    0.23 9  178 151 
 YPLC HZ I        1238  9.66        36.5 0.29            125            178 151 
 ZAR  HZ EP       1237 46.93                             123    0.16 9  203 292 
 ZAR  HE ES       1238 11.88                             123   -0.17 9  203 292 
 ZAR  HZ I        1238 18.23        29.1 0.24            117            203 292 
 NOR  HZ EP       1237 50.22                             119    0.11 8  234 234 
 NOR  HN ES       1238 18.60                             119    0.61 8  234 234 
 NOR  HZ I        1238 25.93        15.6 0.26            115            234 234 
 CHI  HZ IP       1237 52.43                             117    0.26 8  249 195 
 CHI  HN ES       1238 21.69                             117    0.04 8  249 195 
 CHI  HZ I        1238 25.19        15.0 0.34            114            249 195 
 URE  HZ EP   3   1237 54.23                             114   -1.14 2  283 292 
 URE  HZ I        1238 36.08        14.8 0.30            110            283 292 
 GUY2CHZ EP   3   1237 59.56                             112    1.59 2  301 235 
 GUY2CHN ES       1238 32.45                             112    0.47 7  301 235 
 GUY2CHZ I        1238 44.35        12.9 0.42                           301 235 
 PTGC HZ EP       1237 57.41                             112   -0.98 7  310 159 
 PTGC HN ES   3   1238 30.75                             112   -1.97 2  310 159 
 PTGC HZ I        1238 35.63        23.2 0.28            109            310 159 
 LL6C HZ EP       1237 59.53                             111   -0.53 7  324 358 
 PRA  HZ EP       1238  7.90                             107   -0.03 6  392 209 
 PRA  HN ES       1238 49.82                             107    0.12 6  392 209 
 PRA  HZ I        1238 57.06         8.0 0.22            104            392 209 
 SJC  HZ EP   3   1238  8.37                             106   -1.48 1  408 327 
 SJC  HN ES   4   1238 49.51                             106   -3.62 0  408 327 
 SJC  HZ I        1238 50.53         3.7 0.42            103            408 327 
                                                                                
