 2012  9 7 1408 53.1 L   6.699 -73.145145.3  RSN  4 0.2 2.1LRSN                1
 GAP=207        0.37       6.5     3.9  5.6  0.2048E+01 -0.4379E+01  0.3110E+01E
 Epicentro: VILLANUEVA - SANTANDER                                             3
 ACTION:UPD 12-10-22 14:17 OP:ep   STATUS:               ID:20120907140853 L   I
 2012-09-07-1400-00M.COL___227                                                 6
 STAT SP IPHASW D HRMM SECON CODA AMPLIT PERI AZIMU VELO AIN AR TRES W  DIS CAZ7
 BAR2 SZ EP       14 9 12.68                             175    0.1410 12.5 199 
 BAR2 SZ ES   2   14 9 27.46                             175   -0.21 5 12.5 199 
 GIR2 SZ EP   3   14 9 12.67                             163   -0.43 2 42.4 353 
 BRR  HZ EP       14 9 14.53                             151   -0.0610 77.3 306 
 BRR  HN ES   1   14 9 31.39                             151    0.07 7 77.3 306 
 BRR  HN I        14 9 32.30        25.1 0.38                          77.3 306 
 PTB  HZ EP   3   14 9 19.38                             132   -0.54 2  146 263 
 PTB  HN ES   1   14 9 40.79                             132   -0.01 7  146 263 
                                                                                
