 2011  1 7 1816 22.9 L   6.755 -73.065140.9  RSN  8 0.3 2.4LRSN                1
 GAP=168        0.53       3.9     5.6  5.0 -0.1138E+02  0.1023E+02 -0.4791E+01E
 Epicentro: LOS SANTOS - SANTANDER                                             3
 ACTION:UP  11-02-08 08:39 OP:pat  STATUS:               ID:20110107181622 L   I
 2011-01-07-1800-00M.COL___137                                                 6
 STAT SP IPHASW D HRMM SECON CODA AMPLIT PERI AZIMU VELO SNR AR TRES W  DIS CAZ7
 BAR2 SZ EP       1816 42.00                             171     0.010   22 216 
 BAR2 SZ ES   1   1816 56.59                             171    -0.2 7   22 216 
 BAR2 SZ I        1816 59.05        74.6 0.09                            22 216 
 GIR2 SZ EP   1   1816 42.10                             164    -0.2 7   39 338 
 GIR2 SZ ES   2   1816 57.54                             164     0.2 5   39 338 
 RUS  HZ EP   1   1816 45.76                             144    -0.1 7   95 181 
 RUS  HE ES   2   1817  4.10                             144     0.4 5   95 181 
 RUS  HZ I        1817  5.99        34.5 0.42                            95 181 
 GRA  SZ EP       1816 48.02                             135     0.010  128  13 
 GRA  SZ ES   2   1817  7.79                             135     0.3 5  128  13 
 GRA  SZ I        1817  8.84        33.7 0.25                           128  13 
 OCA  SZ EP   2   1816 51.03                             127    -0.5 5  167 350 
 OCA  SZ I        1817 14.90        16.7 0.31                           167 350 
 NOR  SZ EP   2   1816 58.25                             117    -0.7 4  239 237 
 NOR  SN ES   2   1817 26.81                             117    -0.1 4  239 237 
 HEL  HZ EP   1   1817  4.14                             113     0.4 6  280 257 
 HEL  HN ES   2   1817 35.64                             113     0.0 4  280 257 
 HEL  HZ I        1817 41.28        13.0 0.56                           280 257 
 GUY  SZ EP   2   1817  7.49                             111     0.6 4  306 237 
 GUY  SZ I        1817 47.35        13.0 0.13                           306 237 
                                                                                
