 2010 10 7 1305  0.7 L   7.136 -73.028107.8  RSN  4 0.1 2.2LRSN                1
 GAP=187        0.40       2.3     3.6  4.6 -0.2162E+01 -0.1077E+01  0.1538E+01E
 Epicentro: BUCARAMANGA - SANTANDER                                            3
 ACTION:UP  11-02-18 11:08 OP:tino STATUS:               ID:20101007130500 L   I
 2010-10-07-1302-48S.COL___122                                                 6
 STAT SP IPHASW D HRMM SECON CODA AMPLIT PERI AZIMU VELO SNR AR TRES W  DIS CAZ7
 BTL  SZ EP       13 5 16.33                             160     0.110   36 228 
 BAR2 SZ EP       13 5 17.76                             148     0.110   63 196 
 BAR2 SZ ES       13 5 30.82                             148    -0.110   63 196 
 BAR2 SZ I        13 5 32.29        44.1 0.96                            63 196 
 BRR  HZ EP       13 5 18.10                             142    -0.210   76 268 
 BRR  HZ I        13 5 25.42        15.4 0.63                            76 268 
 BRR  HN ES       13 5 32.00                             142     0.110   76 268 
 GUE  SZ ES       13 5 32.98                             142     0.010   78   8 
 GUE  SZ I        13 5 34.79        87.3 0.03                            78   8 
                                                                                
