 2014  3 7 1044 56.5 L   6.798 -73.187137.4  RSN  5 0.3 1.4LRSN                1
 GAP=143        0.72       4.4     4.2  5.8 -0.2010E+01  0.7913E+01  0.5825E+01E
 Epicentro: LOS SANTOS - SANTANDER                                             3
 ACTION:UPD 14-04-09 23:15 OP:nd   STATUS:               ID:20140307104456 L   I
 OLDACT:REG 14-03-07 15:19 OP:stll STATUS:               ID:20140307103807     3
 2014-03-07-1038-07M.COL___216                                                 6
 STAT SP IPHASW D HRMM SECON CODA AMPLIT PERI AZIMU VELO AIN AR TRES W  DIS CAZ7
 BAR2 SZ EP       1045 15.10                             170   -0.0510 22.7 179 
 BAR2 SZ ES       1045 29.18                             170   -0.4810 22.7 179 
 BAR2 SZ I        1045 31.72         7.8 0.20            155           22.7 179 
 PAM  SN ES       1045 35.00                             148    0.1410 80.5  42 
 RUS  HZ EP       1045 19.45                             142   -0.0310  101 173 
 RUS  HN ES       1045 37.80                             142    0.4110  101 173 
 RUS  HZ I        1045 38.67         2.9 0.24            123            101 173 
 PTB  HZ EP       1045 22.60                             131    0.19 9  143 259 
 PTB  HN ES       1045 42.67                             131    0.07 9  143 259 
 PTB  HZ I        1045 45.23         4.1 0.38            117            143 259 
 CHI  HZ EP       1045 33.28                             115   -0.35 8  247 194 
 CHI  HZ I        1046  5.66         1.7 0.48            104            247 194 
                                                                                
