 2012  8 7 1853 59.3 L   7.243 -73.555 22.1  RSN  6 0.3 1.7LRSN                1
 GAP= 92        0.65       2.4     2.1  2.4 -0.1506E+01  0.3528E+00 -0.1414E+01E
 Epicentro: SABANA DE TORRES - SANTANDER                                       3
 ACTION:UPD 12-09-10 11:55 OP:ep   STATUS:               ID:20120807185359 L   I
 2012-08-07-1850-00M.COL___216                                                 6
 STAT SP IPHASW D HRMM SECON CODA AMPLIT PERI AZIMU VELO AIN AR TRES W  DIS CAZ7
 BRR  HZ IP     C 1854  4.29                             132   -0.2010 23.0 229 
 BRR  HN ES   1   1854  8.83                             132    0.32 7 23.0 229 
 BRR  HZ I        1854  9.29        84.3 0.14                          23.0 229 
 PAM  SE ES   1   1854 27.24                             102   -0.19 7 95.0  84 
 OCA  HZ EP   1   1854 17.61                              56    0.24 7  113  13 
 OCA  HN ES   1   1854 31.32                              56   -0.12 7  113  13 
 PTB  HZ EP   1   1854 18.50                              56   -0.37 7  126 232 
 PTB  HN ES   1   1854 33.60                              56   -0.50 7  126 232 
 PTB  HZ I        1854 35.05        10.7 0.35                           126 232 
 ZAR  HN ES   1   1854 38.95                              56    0.40 7  146 281 
 RUS  HZ EP   1   1854 23.82                              56    0.41 7  158 161 
 RUS  HN ES   1   1854 42.44                              56    0.25 7  158 161 
 RUS  HZ I        1854 44.30        11.4 0.31                           158 161 
                                                                                
