 2010 11 7 1041 11.1 L   5.946 -73.911 32.0  RSN  4 0.5 1.5LRSN                1
 GAP=185        0.88       7.4     4.5 20.5  0.9081E+01 -0.1825E+02 -0.4862E+02E
 Epicentro: SUCRE - SANTANDER                                                  3
 ACTION:UP  10-12-17 16:50 OP:REBC STATUS:               ID:20101107104111 L   I
 2010-11-07-1037-27S.COL___128                                                 6
 STAT SP IPHASW D HRMM SECON CODA AMPLIT PERI AZIMU VELO SNR AR TRES W  DIS CAZ7
 RUS  HZ EP       1041 26.36                              61     0.310   92  94 
 RUS  HN ES   1   1041 37.24                              61    -0.5 7   92  94 
 RUS  HZ I        1041 39.87         6.5 0.41                            92  94 
 BAR2 SZ EP   2   1041 27.64                              61    -0.1 5  108  48 
 BAR2 SZ I        1041 34.28        13.7 0.20                           108  48 
 BAR2 SZ ES   2   1041 41.50                              61     0.8 5  108  48 
 BRR  HZ EP   2   1041 30.11                              61    -0.2 5  130  10 
 BRR  HN ES   2   1041 44.88                              61    -0.4 5  130  10 
 BRR  HZ I        1041 54.61        16.3 0.35                           130  10 
 HEL  HZ EP   2   1041 37.74                              61     0.6 4  181 279 
 HEL  HE ES   2   1041 56.81                              61    -0.6 4  181 279 
 HEL  HZ I        1041 59.06         2.5 0.20                           181 279 
                                                                                
