 2017  9 7 1912 39.6 L   6.747 -73.199135.8  RSN  5 0.2 1.4LRSN                1
 GAP=132        0.57       2.8     3.1  4.6  0.1990E+01  0.1784E+01 -0.2983E+00E
 Epicentro: VILLANUEVA - SANTANDER                                             3
 ACTION:UPD 17-10-05 19:10 OP:rebc STATUS:               ID:20170907191239 L   I
 OLDACT:REG 17-09-07 20:27 OP:lv   STATUS:               ID:20170907190741     3
 2017-09-07-1908-00M.COL___423                                                 6
 STAT SP IPHASW D HRMM SECON CODA AMPLIT PERI AZIMU VELO AIN AR TRES W  DIS CAZ7
 BAR2 EZ EP       1912 58.09                             172    0.1510 17.3 174 
 BAR2 EZ ES       1913 12.34                             172    0.1110 17.3 174 
 BAR2 EZ I        1913 14.52         8.2 0.16            174           17.3 174 
 BRR  HZ EP       1912 59.75                             151    0.1610 69.2 305 
 BRR  HE ES       1913 14.85                             151   -0.3110 69.2 305 
 BRR  HZ I        1913 20.36        14.2 0.40            153           69.2 305 
 PAM  EZ EP       1913  0.96                             146   -0.3710 85.6  40 
 PAM  EN ES       1913 18.47                             146    0.2110 85.6  40 
 PAM  EZ I        1913 20.44         4.1 0.58            150           85.6  40 
 RUS  HZ EP       1913  2.07                             143    0.0510 95.4 172 
 RUS  HE ES       1913 19.39                             143   -0.1010 95.4 172 
 RUS  HZ I        1913 21.66         1.6 0.24            147           95.4 172 
 ZAR  HN ES       1913 35.79                             120    0.13 9  201 294 
                                                                                
