 2014  9 7 1641 21.8 L   6.791 -73.140149.2  RSN 21 0.5 2.5LRSN                1
 GAP=138        1.08       2.6     4.0  5.2 -0.1860E+01  0.4636E+01  0.1578E+01E
 Epicentro: LOS SANTOS - SANTANDER                                             3
 ACTION:UPD 14-10-03 23:03 OP:nd   STATUS:               ID:20140907164121 L   I
 OLDACT:REG 14-09-07 20:45 OP:fm   STATUS:               ID:20140907163818     3
 2014-09-07-1638-18M.COL___263                                                 6
 STAT SP IPHASW D HRMM SECON CODA AMPLIT PERI AZIMU VELO AIN AR TRES W  DIS CAZ7
 BAR2 SZ EP     D 1641 41.97                             171    0.1610 22.5 192 
 BAR2 SZ ES   1   1641 57.04                             171   -0.38 7 22.5 192 
 BAR2 SZ I        1641 59.94        44.5 0.38            168           22.5 192 
 BRR  HZ EP       1641 43.93                             153    0.5710 72.2 299 
 BRR  HN ES       1642  1.21                             153    1.0210 72.2 299 
 BRR  HZ I        1642  5.17        39.6 0.14            150           72.2 299 
 PAM  SZ EP       1641 44.60                             151    0.2210 77.7  39 
 PAM  SN ES   1   1642  1.67                             151   -0.34 7 77.7  39 
 PAM  SZ I        1642  4.26        39.1 0.52            157           77.7  39 
 RUS  HZ EP       1641 45.36                             145   -0.4410 99.6 176 
 RUS  HN ES       1642  4.04                             145   -0.4910 99.6 176 
 RUS  HZ I        1642  5.97        22.3 0.28            146           99.6 176 
 PTB  HZ EP       1641 48.87                             133   -0.20 9  148 259 
 PTB  HN ES       1642  9.51                             133   -0.84 9  148 259 
 PTB  HZ I        1642 13.58        26.8 0.10            132            148 259 
 OCA  HZ EP       1641 50.31                             130   -0.15 9  161 353 
 OCA  HE ES       1642 12.41                             130   -0.41 9  161 353 
 OCA  HZ I        1642 16.89        31.0 0.40            133            161 353 
 SPBC HZ EP       1641 50.95                             130    0.44 9  163 219 
 SPBC HN ES       1642 13.53                             130    0.61 9  163 219 
 SPBC HZ I        1642 19.99        54.9 0.36            130            163 219 
 ZAR  HZ EP       1641 54.33                             123   -0.22 9  205 292 
 ZAR  HN ES   1   1642 19.79                             123   -0.32 6  205 292 
 ZAR  HZ I        1642 26.21        22.9 0.22            124            205 292 
 NOR  HZ EP       1641 57.58                             119   -0.13 8  235 235 
 NOR  HN ES       1642 25.60                             119   -0.13 8  235 235 
 NOR  HZ I        1642 33.21        27.6 0.18            120            235 235 
 SML  HZ EP       1641 58.45                             118   -0.28 8  245 335 
 SML  HN ES       1642 28.08                             118    0.54 8  245 335 
 SML  HZ I        1642 31.07        38.5 0.24            120            245 335 
 CHI  HZ EP       1641 59.74                             118    0.15 8  248 195 
 CHI  HN ES       1642 29.20                             118    0.12 8  248 195 
 CHI  HZ I        1642 33.33        16.6 0.38            120            248 195 
 ROSC BZ EP       1642  0.02                             117   -0.02 8  252 211 
 ROSC BE ES       1642 30.10                             117    0.22 8  252 211 
 ROSC BZ I        1642 38.09        33.6 0.45            119            252 211 
 HEL  HZ EP   4   1642  3.62                             115    1.40 0  272 256 
 HEL  HE ES       1642 32.98                             115   -0.77 8  272 256 
 HEL  HZ I        1642 40.33        13.0 0.28            116            272 256 
 GUY2CHZ EP       1642  6.36                             113    0.81 7  301 235 
 GUY2CHE ES   4   1642 42.22                             113    2.54 0  301 235 
 GUY2CHZ I        1642 48.37        17.1 0.28                           301 235 
 CBOC HZ EP       1642  9.62                             110    0.74 7  334 252 
 CBOC HE ES       1642 45.61                             110   -0.00 7  334 252 
 CBOC HZ I        1642 53.30         4.1 0.50            112            334 252 
 DBB  SZ EP   1   1642  8.70                             110   -0.78 5  340 274 
 DBB  SZ ES   4   1642 45.14                             110   -1.55 0  340 274 
 DBB  SZ I        1642 47.80        26.1 0.46            111            340 274 
 TOL  SZ EP       1642  9.76                             110   -0.39 7  343 225 
 TOL  SE ES   4   1642 50.28                             110    2.40 0  343 225 
 TOL  SZ I        1642 53.98        28.4 0.36            111            343 225 
 ANIL HZ EP   4   1642 14.26                             109    2.57 0  357 225 
 ANIL HN ES   4   1642 52.76                             109    2.14 0  357 225 
 ANIL HZ I        1642 55.93         4.4 0.26            110            357 225 
 PRA  HZ EP       1642 14.99                             107   -0.37 6  391 210 
 PRA  HE ES       1642 57.76                             107    0.61 6  391 210 
 PRA  HZ I        1643  3.55        20.6 0.30            109            391 210 
 ORTC HZ EP       1642 15.32                             107   -0.46 6  395 216 
 ORTC HE ES   4   1642 58.76                             107    0.87 0  395 216 
 ORTC HZ I        1643  5.56        12.0 0.40            108            395 216 
 SJC  HZ EP   4   1642 15.41                             106   -2.19 0  410 327 
 SJC  HN ES   4   1642 56.88                             106   -4.25 0  410 327 
 SJC  HZ I        1643  5.42         5.1 0.36            108            410 327 
                                                                                
