 2011  2 7 1034  5.9 L   6.804 -73.168139.7  RSN  6 0.3 1.7LRSN                1
 GAP=156        0.77       4.7    11.5  8.1 -0.3195E+02  0.3220E+02 -0.4511E+01E
 Epicentro: LOS SANTOS - SANTANDER                                             3
 ACTION:UP  11-03-28 15:06 OP:jfem STATUS:               ID:20110207103405 L   I
 2011-02-07-1020-00M.COL___139                                                 6
 STAT SP IPHASW D HRMM SECON CODA AMPLIT PERI AZIMU VELO SNR AR TRES W  DIS CAZ7
 BTL  SZ EP   1   1034 25.51                             172     0.8 7   17 319 
 BAR2 SZ EP   1   1034 24.74                             170    -0.1 7   24 184 
 BAR2 SZ ES   1   1034 39.20                             170    -0.4 7   24 184 
 BAR2 SZ I        1034 41.02        19.7 0.20                            24 184 
 RUS  HZ EP   1   1034 28.73                             142    -0.4 7  101 175 
 RUS  HN ES   1   1034 47.39                             142     0.2 7  101 175 
 RUS  HZ I        1034 48.45         7.7 0.17                           101 175 
 GRA  SZ EP   1   1034 30.34                             136    -0.3 7  126  19 
 GRA  SZ ES   1   1034 50.05                             136     0.1 7  126  19 
 GRA  SZ I        1034 51.37         8.2 0.34                           126  19 
 NOR  SZ EP   2   1034 41.05                             117    -0.1 4  233 234 
 NOR  SN ES   2   1035  8.38                             117    -0.2 4  233 234 
 CHI  HZ EP   1   1034 43.16                             116    -0.1 6  248 195 
 CHI  HN ES   1   1035 12.63                             116     0.2 6  248 195 
 CHI  HZ I        1035 16.01         2.6 0.59                           248 195 
                                                                                
