 2014 10 7 1017  8.5 L   6.795 -73.094146.7  RSN  6 0.5 1.5LRSN                1
 GAP=143        1.18       4.6     8.7  8.4  0.8790E+01  0.6785E+01 -0.9315E+01E
 Epicentro: LOS SANTOS - SANTANDER                                             3
 ACTION:UPD 14-11-29 23:47 OP:nd   STATUS:               ID:20141007101708 L   I
 OLDACT:REG 14-10-07 21:40 OP:stll STATUS:               ID:20141007100747     3
 2014-10-07-1007-47M.COL___295                                                 6
 STAT SP IPHASW D HRMM SECON CODA AMPLIT PERI AZIMU VELO AIN AR TRES W  DIS CAZ7
 BAR2 SZ ES       1017 43.46                             170   -0.2610 24.5 203 
 BAR2 SZ I        1017 47.20         9.3 0.58            169           24.5 203 
 PAM  SZ EP       1017 31.23                             152    0.5610 74.3  36 
 PAM  SZ I        1017 31.63         6.7 0.24            154           74.3  36 
 PAM  SE ES       1017 47.99                             152    0.0510 74.3  36 
 BRR  HZ EP       1017 30.56                             151    0.4710 76.5 297 
 BRR  HZ I        1017 32.48         3.6 0.28            149           76.5 297 
 BRR  HN ES       1017 47.51                             151    0.6110 76.5 297 
 RUS  HZ EP       1017 32.49                             144    0.1710 99.8 179 
 RUS  HN ES       1017 50.18                             144   -0.7010 99.8 179 
 RUS  HZ I        1017 52.30         1.9 0.36            145           99.8 179 
 OCA  HN ES       1017 59.05                             129   -0.22 9  162 351 
 SML  HZ EP       1017 44.90                             117   -0.63 8  247 334 
 SML  HN ES       1018 13.87                             117   -0.51 8  247 334 
 SML  HZ I        1018 19.88         4.3 0.30            117            247 334 
                                                                                
