 2012  4 7 1454 46.2 L   6.764 -73.171147.3  RSN  7 0.5 2.2LRSN                1
 GAP=135        1.33       7.8     8.2 10.5 -0.3108E+01  0.1234E+02 -0.1976E+02E
 Epicentro: LOS SANTOS - SANTANDER                                             3
 ACTION:UP  12-07-05 11:51 OP:tino STATUS:               ID:20120407145446 L   I
 2012-04-07-1450-00M.COL___196                                                 6
 STAT SP IPHASW D HRMM SECON CODA AMPLIT PERI AZIMU VELO AIN AR TRES W  DIS CAZ7
 BAR2 SZ IP       1455  5.93                             172     0.010   19 184 
 BAR2 SZ ES   1   1455 20.94                             172    -0.4 7   19 184 
 BAR2 SZ I        1455 23.17        27.5 0.24                            19 184 
 BRR  HZ IP     C 1455  7.87                             153     0.410   71 302 
 BRR  HZ I        1455  8.13        56.4 0.22                            71 302 
 BRR  HN ES   1   1455 25.08                             153     1.0 7   71 302 
 PAM  SZ EP       1455  8.73                             149    -0.110   82  39 
 PAM  SN ES   1   1455 25.73                             149    -0.8 7   82  39 
 RUS  HZ EP       1455  9.73                             145    -0.110   97 174 
 RUS  HN ES   1   1455 28.82                             145     0.6 7   97 174 
 RUS  HZ I        1455 29.93        10.1 0.20                            97 174 
 PTB  HZ EP   2   1455 12.79                             133    -0.2 5  144 260 
 PTB  HN ES   1   1455 33.05                             133    -0.8 7  144 260 
 PTB  HZ I        1455 41.10        26.6 0.36                           144 260 
 OCA  SZ EP       1455 15.48                             129     0.5 9  164 354 
 ZAR  HZ EP       1455 18.12                             123    -0.5 9  203 293 
 ZAR  HZ I        1455 49.38        20.9 0.36                           203 293 
                                                                                
