 2016  2 7 1403 29.4 L   6.846 -73.146147.4  RSN  4 0.3 1.2LRSN                1
 GAP=279        0.76       5.8     5.6  6.1  0.9712E+01  0.7094E+01  0.5269E+01E
 Epicentro: LOS SANTOS - SANTANDER                                             3
 ACTION:UPD 16-03-04 21:24 OP:rebc STATUS:               ID:20160207140329 L   I
 OLDACT:REG 16-02-07 20:40 OP:cara STATUS:               ID:20160207135748     3
 2016-02-07-1357-48M.COL___334                                                 6
 STAT SP IPHASW D HRMM SECON CODA AMPLIT PERI AZIMU VELO AIN AR TRES W  DIS CAZ7
 BAR2 EZ IP       14 3 49.52                             169    0.2110 28.3 188 
 BAR2 EZ ES       14 4  5.17                             169    0.3110 28.3 188 
 BAR2 EZ I        14 4  5.86         4.4 0.16            167           28.3 188 
 RUS  HZ EP       14 3 53.16                             143   -0.4910  106 176 
 RUS  HN ES       14 4 12.31                             143   -0.2810  106 176 
 RUS  HZ I        14 4 13.93         1.9 0.42            142            106 176 
 PTB  HZ EP       14 3 56.61                             132    0.05 9  149 257 
 PTB  HN ES       14 4 17.56                             132   -0.21 9  149 257 
 PTB  HZ I        14 4 19.06         2.2 0.36            132            149 257 
 CHI  HZ EP       14 4  8.01                             117    0.32 8  254 195 
 CHI  HE ES       14 4 37.87                             117    0.29 8  254 195 
 CHI  HZ I        14 4 39.28         0.6 0.44            117            254 195 
                                                                                
