 2013  9 7 1406 41.0 L   6.846 -73.326125.5  RSN  4 0.1 1.7LRSN                1
 GAP=138        0.36       2.0     2.9  3.5  0.1219E+01 -0.1406E+01  0.3138E+00E
 Epicentro: ZAPATOCA - SANTANDER                                               3
 ACTION:UPD 13-10-22 09:20 OP:ep   STATUS:               ID:20130907140641 L   I
 OLDACT:UP  13-09-07 17:11 OP:cam  STATUS:               ID:20130907135959     3
 OLDACT:REG 13-09-07 15:23 OP:cam  STATUS:               ID:20130907135959     3
 2013-09-07-1359-59M.COL___269                                                 6
 STAT SP IPHASW D HRMM SECON CODA AMPLIT PERI AZIMU VELO AIN AR TRES W  DIS CAZ7
 BAR2 SZ EP       14 6 58.29                             165   -0.1110 32.3 150 
 BAR2 SZ ES   1   14 7 11.84                             165   -0.16 7 32.3 150 
 BAR2 SZ I        14 7 12.55        33.4 0.22            165           32.3 150 
 BRR  HZ EP       14 6 58.74                             156   -0.0910 51.5 304 
 BRR  HN ES       14 7 12.86                             156    0.0910 51.5 304 
 BRR  HZ I        14 7 13.63        19.0 0.40            159           51.5 304 
 PAM  SZ EP   1   14 7  1.98                             143    0.17 7 88.1  52 
 PAM  SN ES   1   14 7 18.08                             143    0.01 7 88.1  52 
 PAM  SZ I        14 7 20.68         6.9 0.22            142           88.1  52 
 RUS  HZ EP   1   14 7  3.41                             137   -0.03 7  109 166 
 RUS  HN ES       14 7 21.10                             137    0.1210  109 166 
 RUS  HZ I        14 7 21.58         3.6 0.28            139            109 166 
                                                                                
