 2014  5 7 1721 30.1 L   6.588 -73.553110.5  RSN  7 0.4 1.6LRSN                1
 GAP=104        1.04       4.0     3.5  8.8 -0.2659E+01  0.5891E+01 -0.6975E+01E
 Epicentro: EL CARMEN DE CHUCURI - SANTANDER                                   3
 ACTION:UPD 15-03-16 16:55 OP:nd   STATUS:               ID:20140507172130 L   I
 OLDACT:UP  14-05-07 20:39 OP:mh   STATUS:               ID:20140507172000     3
 OLDACT:REG 14-05-07 19:37 OP:mh   STATUS:               ID:20140507172000     3
 2014-05-07-1720-00M.COL___273                                                 6
 STAT SP IPHASW D HRMM SECON CODA AMPLIT PERI AZIMU VELO AIN AR TRES W  DIS CAZ7
 RUS  HZ EP       1721 50.04                             137    0.1510 92.8 146 
 RUS  HN ES       1722  5.53                             137    0.1810 92.8 146 
 PTB  HZ EP       1721 49.68                             134   -0.1710  100 267 
 PTB  HN ES       1722  4.57                             134   -0.7110  100 267 
 PTB  SZ I        1722 11.68         6.2 0.24            136            100 267 
 SPBC HN ES       1722  8.75                             129    0.3310  118 209 
 PAM  SZ EP       1721 52.30                             127   -0.5510  126  49 
 PAM  SN ES       1722 10.71                             127    0.0910  126  49 
 PAM  SZ I        1722 12.61         6.1 0.24            134            126  49 
 ZAR  HZ EP       1721 57.80                             117    0.45 9  176 305 
 ZAR  HN ES   1   1722 19.40                             117    0.78 7  176 305 
 ZAR  SZ I        1722 27.55         6.8 0.28            120            176 305 
 NOR  HZ EP       1721 58.85                             116    0.46 9  185 232 
 NOR  HN ES   1   1722 20.06                             116   -0.42 7  185 232 
 NOR  SZ I        1722 24.85         6.0 0.22            120            185 232 
 NOR  HZ I        1722 24.97         6.1 0.20                           185 232 
 PRA  HZ EP       1722 17.09                             101   -0.53 6  350 205 
                                                                                
