 2014 10 7 1057 23.1 L   6.719 -73.178137.7  RSN  6 0.5 1.5LRSN                1
 GAP=136        1.31       6.2     6.5  8.7 -0.3066E+01  0.9210E+01 -0.7819E+01E
 Epicentro: VILLANUEVA - SANTANDER                                             3
 ACTION:UPD 14-11-29 23:47 OP:nd   STATUS:               ID:20141007105723 L   I
 OLDACT:REG 14-10-07 21:46 OP:stll STATUS:               ID:20141007104748     3
 2014-10-07-1047-48M.COL___292                                                 6
 STAT SP IPHASW D HRMM SECON CODA AMPLIT PERI AZIMU VELO AIN AR TRES W  DIS CAZ7
 BAR2 SZ EP       1057 41.99                             174    0.3610 14.0 182 
 BAR2 SZ ES       1057 55.71                             174   -0.3510 14.0 182 
 BAR2 SZ I        1057 58.10        15.0 0.40            172           14.0 182 
 BRR  HZ EP       1057 44.08                             150    0.5610 73.0 306 
 BRR  HN ES       1057 59.93                             150    0.5110 73.0 306 
 PAM  SZ EP       1057 45.12                             146    0.0210 86.6  38 
 PAM  SZ I        1057 45.30         9.7 0.26            149           86.6  38 
 PAM  SN ES       1058  2.17                             146   -0.0610 86.6  38 
 RUS  HZ EP       1057 45.79                             145    0.3210 92.0 173 
 RUS  HN ES       1058  2.43                             145   -0.4610 92.0 173 
 RUS  HZ I        1058  5.25         2.5 0.46            145           92.0 173 
 PTB  HZ EP       1057 49.41                             131    0.42 9  143 262 
 PTB  HN ES       1058  8.64                             131   -0.51 9  143 262 
 PTB  HZ I        1058 12.77         3.3 0.22            131            143 262 
 SML  HZ EP       1057 58.72                             115   -1.34 8  250 337 
                                                                                
