 2016 11 7 1508 36.4 L   6.726 -73.150143.4  RSN  4 0.2 1.3LRSN                1
 GAP=157        0.56       6.2     3.7  4.8 -0.1321E+02  0.1847E+01  0.1859E+01E
 Epicentro: JORDAN - SANTANDER                                                 3
 ACTION:UPD 17-10-26 21:05 OP:lp   STATUS:               ID:20161107150836 L   I
 OLDACT:UP  16-11-07 23:54 OP:dnl  STATUS:               ID:20161107150747     3
 OLDACT:UP  16-11-07 23:54 OP:dnl  STATUS:               ID:20161107150747     3
 OLDACT:REG 16-11-07 21:44 OP:dnl  STATUS:               ID:20161107150747     3
 2016-11-07-1508-00M.COL___327                                                 6
 STAT SP IPHASW D HRMM SECON CODA AMPLIT PERI AZIMU VELO AIN AR TRES W  DIS CAZ7
 BAR2 EZ EP   2   15 8 55.96                             174    0.35 5 15.3 193 
 BAR2 EZ ES       15 9 10.65                             174    0.0610 15.3 193 
 BAR2 EZ I        15 9 11.91         4.0 0.18            174           15.3 193 
 BRR  HZ EP   2   15 8 57.96                             151    0.44 5 75.0 304 
 BRR  HE ES       15 9 14.27                             151    0.2810 75.0 304 
 PAM  EZ EP       15 8 58.72                             148   -0.0710 84.1  36 
 PAM  EN ES       15 9 16.03                             148   -0.2110 84.1  36 
 PAM  EZ I        15 9 18.17         4.1 0.62            149           84.1  36 
 PTB  HZ EP       15 9  3.04                             132    0.03 9  146 262 
 PTB  HN ES       15 9 23.44                             132   -0.32 9  146 262 
 PTB  HZ I        15 9 25.15         2.6 0.42            133            146 262 
                                                                                
