 2013  7 7 1933  7.0 L   6.761 -73.173147.1  RSN  6 0.3 1.5LRSN                1
 GAP=178        0.57       4.0     3.9  5.1  0.7222E+00  0.2411E+01  0.1209E+01E
 Epicentro: LOS SANTOS - SANTANDER                                             3
 ACTION:UPD 13-08-12 10:36 OP:ep   STATUS:               ID:20130707193307 L   I
 OLDACT:REG 13-07-07 19:57 OP:jn   STATUS:               ID:20130707192959     3
 2013-07-07-1929-59M.COL___267                                                 6
 STAT SP IPHASW D HRMM SECON CODA AMPLIT PERI AZIMU VELO AIN AR TRES W  DIS CAZ7
 BAR2 SZ EP       1933 26.55                             172   -0.1810 18.7 183 
 BAR2 SZ ES   1   1933 41.92                             172   -0.18 7 18.7 183 
 BAR2 SZ I        1933 45.62         4.0 0.10            171           18.7 183 
 GIR2 SZ EP       1933 26.96                             166   -0.0010 35.2 356 
 BRR  HZ EP       1933 28.30                             153    0.0110 70.8 303 
 BRR  HN ES   1   1933 45.29                             153    0.40 7 70.8 303 
 BRR  HZ I        1933 47.83         6.3 0.32            155           70.8 303 
 RUS  HZ EP       1933 30.92                             145    0.3010 96.5 174 
 RUS  HN ES   1   1933 48.92                             145   -0.10 7 96.5 174 
 RUS  HZ I        1933 51.99         4.1 0.40            147           96.5 174 
 PTB  HZ EP   1   1933 33.20                             133   -0.56 7  144 260 
 PTB  HN ES   1   1933 54.51                             133   -0.11 7  144 260 
 PTB  HZ I        1933 56.57         5.9 0.12            136            144 260 
 NOR  HZ EP   1   1933 42.58                             119    0.28 6  230 235 
 NOR  HE ES   1   1934  9.89                             119    0.07 6  230 235 
 NOR  HZ I        1934 13.15         3.3 0.28            122            230 235 
                                                                                
