 2015  5 7 1820 22.3 L   6.811 -73.151144.9  RSN 11 0.4 2.2LRSN                1
 GAP=135        0.83       2.2     3.7  4.5 -0.2280E+00  0.5658E+01  0.5267E+00E
 Epicentro: LOS SANTOS - SANTANDER                                             3
 ACTION:UPD 15-09-10 22:02 OP:cam  STATUS:               ID:20150507182022 L   I
 OLDACT:REG 15-05-07 22:57 OP:stll STATUS:               ID:20150507181748     3
 2015-05-07-1817-48M.COL___275                                                 6
 STAT SP IPHASW D HRMM SECON CODA AMPLIT PERI AZIMU VELO AIN AR TRES W  DIS CAZ7
 BAR2 EZ EP       1820 41.99                             170    0.1210 24.5 188 
 BAR2 EZ ES       1820 56.80                             170   -0.3210 24.5 188 
 BAR2 EZ I        1820 58.70        43.8 0.20            169           24.5 188 
 BRR  HZ IP     C 1820 43.79                             153    0.4710 70.0 298 
 BRR  HE ES       1821  0.21                             153    0.5210 70.0 298 
 BRR  HZ I        1821  1.44        31.5 0.12            151           70.0 298 
 PAM  SZ IP     C 1820 44.90                             151    0.4810 76.8  40 
 PAM  SN ES       1821  1.54                             151   -0.1110 76.8  40 
 PAM  SZ I        1821  4.38        28.9 0.49            154           76.8  40 
 RUS  HZ EP       1820 45.92                             143   -0.1710  102 176 
 RUS  HN ES       1821  4.78                             143    0.1610  102 176 
 RUS  HZ I        1821  5.76        11.1 0.23            145            102 176 
 OCA  HZ EP       1820 50.17                             130   -0.27 9  159 353 
 OCA  HN ES       1821 11.98                             130   -0.40 9  159 353 
 OCA  HZ I        1821 17.10        27.9 0.28            131            159 353 
 ZAR  HZ EP       1820 54.77                             122    0.17 9  203 292 
 ZAR  HN ES       1821 19.46                             122   -0.32 9  203 292 
 ZAR  HZ I        1821 25.32        14.8 0.20            122            203 292 
 NOR  HZ EP       1820 58.28                             118    0.25 8  235 234 
 NOR  HN ES       1821 25.66                             118   -0.21 8  235 234 
 NOR  HZ I        1821 31.59         8.4 0.15            119            235 234 
 SML  HZ EP       1820 58.40                             117   -0.35 8  242 335 
 SML  HN ES       1821 27.04                             117   -0.12 8  242 335 
 SML  HZ I        1821 30.32        26.7 0.07            118            242 335 
 CHI  HZ EP       1821  0.16                             117    0.07 8  250 195 
 CHI  HE ES       1821 28.74                             117   -0.80 8  250 195 
 CHI  HZ I        1821 33.29         9.6 0.60            118            250 195 
 GUY2CHZ EP   1   1821  6.39                             112    0.47 5  301 235 
 GUY2CHE ES   2   1821 40.72                             112    0.80 4  301 235 
 GUY2CHZ I        1821 48.45         7.3 0.39                           301 235 
 ORTC HZ EP   1   1821 16.29                             106    0.00 4  396 216 
 ORTC HN ES   4   1821 55.25                             106   -3.13 0  396 216 
 ORTC HZ I        1822  5.58         4.6 0.37            107            396 216 
                                                                                
