 2014 11 7 1646 18.8 L   6.775 -73.127145.7  RSN 11 0.4 2.3LRSN                1
 GAP=140        1.06       4.1     4.4  5.7 -0.4799E+01  0.6486E+01  0.6301E+01E
 Epicentro: LOS SANTOS - SANTANDER                                             3
 ACTION:UPD 14-12-19 15:40 OP:nd   STATUS:               ID:20141107164618 L   I
 OLDACT:REG 14-11-07 23:18 OP:carl STATUS:               ID:20141107163748     3
 2014-11-07-1637-48M.COL___295                                                 6
 STAT SP IPHASW D HRMM SECON CODA AMPLIT PERI AZIMU VELO AIN AR TRES W  DIS CAZ7
 BAR2 SZ EP       1646 38.16                             171   -0.1810 21.1 197 
 BAR2 SZ ES       1646 53.47                             171   -0.1510 21.1 197 
 BAR2 SZ I        1646 54.51        59.7 0.36            168           21.1 197 
 BRR  HZ EP       1646 40.16                             152    0.0710 74.4 300 
 BRR  HN ES       1646 57.54                             152    0.8210 74.4 300 
 BRR  HZ I        1646 58.08        22.8 0.50            153           74.4 300 
 PAM  SZ EP       1646 40.94                             151   -0.0810 78.3  37 
 PAM  SN ES       1646 58.28                             151   -0.1110 78.3  37 
 PAM  SZ I        1647  0.24        59.0 0.56            155           78.3  37 
 RUS  HZ EP       1646 42.07                             145   -0.2310 97.7 177 
 RUS  HN ES       1647  1.17                             145    0.5110 97.7 177 
 RUS  HZ I        1647  3.63        24.3 0.38            144           97.7 177 
 PTB  HZ EP       1646 44.98                             132   -0.89 9  149 260 
 PTB  HN ES       1647  6.35                             132   -0.66 9  149 260 
 PTB  HZ I        1647  8.41        25.7 0.14            132            149 260 
 SPBC HZ EP       1646 47.10                             129   -0.08 9  162 220 
 SPBC HN ES       1647  9.06                             129   -0.29 9  162 220 
 SPBC HZ I        1647 14.15        38.0 0.22            129            162 220 
 NOR  HZ EP       1646 54.29                             118   -0.21 8  235 235 
 NOR  HN ES       1647 22.19                             118   -0.19 8  235 235 
 NOR  HZ I        1647 25.60        18.2 0.44            119            235 235 
 CHI  HZ EP       1646 56.34                             117    0.11 8  247 196 
 CHI  HN ES       1647 25.40                             117   -0.05 8  247 196 
 CHI  HZ I        1647 31.58         9.4 0.62            118            247 196 
 GUY2CHZ EP       1647  3.36                             112    0.98 7  301 235 
 GUY2CHE ES       1647 37.00                             112    0.59 7  301 235 
 GUY2CHZ I        1647 44.78        16.6 0.78                           301 235 
 CBOC HZ EP       1647  6.68                             110    0.87 7  335 253 
 CBOC HN ES       1647 42.45                             110   -0.05 7  335 253 
 CBOC HZ I        1647 48.62         5.8 0.42            111            335 253 
 PRA  HZ EP       1647 12.15                             107    0.03 6  391 210 
 PRA  HN ES       1647 53.91                             107    0.17 6  391 210 
 PRA  HZ I        1647 59.42         8.7 0.32            107            391 210 
                                                                                
