 2013  2 7 1246  6.6 L   6.723 -73.155146.0  RSN  5 0.3 1.8LRSN                1
 GAP=139        0.75       6.1     5.3  6.9  0.3062E+01 -0.2509E+01 -0.8561E+01E
 Epicentro: VILLANUEVA - SANTANDER                                             3
 ACTION:UPD 13-03-12 09:31 OP:ep   STATUS:               ID:20130207124606 L   I
 2013-02-07-1240-00M.COL___240                                                 6
 STAT SP IPHASW D HRMM SECON CODA AMPLIT PERI AZIMU VELO AIN AR TRES W  DIS CAZ7
 BAR2 SZ EP       1246 26.28                             174    0.1810 14.8 192 
 BAR2 SZ ES   1   1246 40.69                             174   -0.63 7 14.8 192 
 BAR2 SZ I        1246 42.64        17.2 0.23            171           14.8 192 
 BRR  HZ EP       1246 28.01                             152    0.0510 74.7 305 
 BRR  HZ I        1246 36.35        10.2 0.47            148           74.7 305 
 BRR  HE ES       1246 45.02                             152    0.3810 74.7 305 
 PAM  SZ EP       1246 29.11                             149   -0.1710 84.7  36 
 RUS  HE ES   1   1246 48.26                             146    0.40 7 92.2 175 
 RUS  HE I        1246 50.33        14.6 0.25            143           92.2 175 
 PTB  HZ EP       1246 33.16                             133   -0.19 9  145 262 
 PTB  HE ES   1   1246 53.93                             133   -0.30 7  145 262 
 PTB  HZ I        1246 58.73         3.6 0.13            129            145 262 
                                                                                
