 2014  1 7 1036 59.5 L   6.043 -73.736107.3  RSN 11 0.5 1.7LRSN                1
 GAP= 77        1.20       3.0     3.3  6.6 -0.1170E+01  0.7038E+01 -0.1500E+01E
 Epicentro: BOLIVAR - SANTANDER                                                3
 ACTION:UPD 14-03-13 09:52 OP:ep   STATUS:               ID:20140107103659 L   I
 OLDACT:DUP 14-01-07 16:30 OP:stll STATUS:               ID:20140107102806d    3
 2014-01-07-1028-05M.COL___231                                                 6
 STAT SP IPHASW D HRMM SECON CODA AMPLIT PERI AZIMU VELO AIN AR TRES W  DIS CAZ7
 SPBC HZ EP       1037 16.11                             150    0.2610 57.1 221 
 SPBC HE ES       1037 28.85                             150    0.2610 57.1 221 
 SPBC HZ I        1037 35.15        14.8 0.30            152           57.1 221 
 RUS  HZ EP       1037 17.83                             143    0.2610 74.1 103 
 RUS  HN ES       1037 31.25                             143   -0.4110 74.1 103 
 RUS  HZ I        1037 33.89         6.1 0.28            148           74.1 103 
 BAR2 SZ EP       1037 18.71                             138    0.5510 86.2  45 
 BAR2 SZ ES       1037 33.11                             138    0.4210 86.2  45 
 BAR2 SZ I        1037 35.31        36.8 0.46            144           86.2  45 
 PTB  HZ EP       1037 18.17                             134   -0.5710 96.8 305 
 PTB  HN ES       1037 33.10                             134   -0.6310 96.8 305 
 PTB  HZ I        1037 36.40         9.8 0.10            139           96.8 305 
 NOR  HZ EP       1037 22.93                             124    0.40 9  136 247 
 NOR  HN ES       1037 41.12                             124    0.64 9  136 247 
 NOR  HZ I        1037 43.40        17.5 0.14            128            136 247 
 CHI  HZ IP     C 1037 24.71                             120   -0.36 9  156 180 
 CHI  HN ES       1037 44.42                             120   -0.59 9  156 180 
 CHI  HZ I        1037 48.34         2.6 0.34            125            156 180 
 HEL  HZ EP       1037 30.34                             113    0.65 9  199 275 
 HEL  HZ I        1037 31.56         3.6 0.42            117            199 275 
 HEL  HN ES       1037 53.49                             113    0.26 9  199 275 
 GUY2CHZ EP       1037 30.74                             113    0.60 9  202 243 
 GUY2CHN ES       1037 53.16                             113   -0.87 9  202 243 
 GUY2CHZ I        1038  0.88         5.0 0.42                           202 243 
 ZAR  HZ EP       1037 29.84                             113    0.21 9  203 322 
 ZAR  HN ES       1037 52.99                             113   -0.13 9  203 322 
 ZAR  HZ I        1037 55.25        11.1 0.30            117            203 322 
 ORTC HZ EP       1037 39.89                             104    0.17 7  289 215 
 ORTC HN ES       1038 10.60                             104   -0.47 7  289 215 
 SML  HZ EP       1037 41.08                             103   -0.70 7  307 353 
 SML  HN ES       1038 14.17                             103   -0.57 7  307 353 
                                                                                
