 2013  2 7 1542  2.4 L   6.752 -73.175138.1  RSN  4 0.3 1.4LRSN                1
 GAP=135        0.69       5.3     4.8  8.8 -0.5604E+01  0.8256E+01 -0.1917E+01E
 Epicentro: VILLANUEVA - SANTANDER                                             3
 ACTION:UPD 13-03-12 09:31 OP:ep   STATUS:               ID:20130207154202 L   I
 2013-02-07-1540-00M.COL___240                                                 6
 STAT SP IPHASW D HRMM SECON CODA AMPLIT PERI AZIMU VELO AIN AR TRES W  DIS CAZ7
 BRR  HZ EP   1   1542 23.30                             151    0.54 7 71.1 304 
 BRR  HN ES   1   1542 38.20                             151   -0.41 7 71.1 304 
 BRR  HZ I        1542 38.42         6.8 0.36            152           71.1 304 
 PAM  SZ EP   1   1542 23.86                             147   -0.38 7 83.5  39 
 PAM  SZ I        1542 24.34         3.5 0.35            150           83.5  39 
 PAM  SN ES   1   1542 41.52                             147    0.28 7 83.5  39 
 RUS  HE ES   1   1542 42.72                             144   -0.02 7 95.6 174 
 RUS  HE I        1542 44.72         5.5 0.64            142           95.6 174 
 PTB  HZ EP   1   1542 28.18                             131   -0.23 7  144 261 
 PTB  HE ES   1   1542 48.89                             131    0.22 7  144 261 
 PTB  HZ I        1542 50.72         3.0 0.33            130            144 261 
                                                                                
