 2016  7 7 1022  5.7 L   6.803 -73.120139.6  RSN  9 0.3 1.7LRSN                1
 GAP=240        0.70       3.2     3.3  4.4  0.1992E+01  0.3420E+01  0.2975E+01E
 Epicentro: LOS SANTOS - SANTANDER                                             3
 ACTION:UPD 17-03-29 16:48 OP:lp   STATUS:               ID:20160707102205 L   I
 OLDACT:UP  16-07-07 21:59 OP:edw  STATUS:               ID:20160707101747d    3
 OLDACT:DUP 16-07-07 21:32 OP:edw  STATUS:               ID:20160707101747d    3
 OLDACT:REG 16-07-07 19:38 OP:edw  STATUS:               ID:20160707101746     3
 2016-07-07-1017-46M.COL___316                                                 6
 STAT SP IPHASW D HRMM SECON CODA AMPLIT PERI AZIMU VELO AIN AR TRES W  DIS CAZ7
 BAR2 EZ IP       1022 24.51                             170   -0.1510 24.3 197 
 BAR2 EZ ES       1022 39.45                             170    0.0410 24.3 197 
 BAR2 EZ I        1022 41.21         5.9 0.20            168           24.3 197 
 BRR  HZ EP       1022 26.44                             151    0.0610 73.6 297 
 BRR  HE ES       1022 42.41                             151   -0.0610 73.6 297 
 RUS  HZ EP       1022 29.09                             142    0.1810  101 178 
 RUS  HE ES       1022 47.09                             142    0.1210  101 178 
 RUS  HZ I        1022 48.66         4.6 0.34            143            101 178 
 PTB  HZ EP   9   1022 31.61                             130   -0.88 0  151 259 
 PTB  HE ES       1022 52.05                                   -0.42 9  151 259 
 PTB  HZ I        1022 54.89         7.3 0.10            129            151 259 
 SPBC HZ EP       1022 33.78                             127   -0.20 9  165 220 
 SPBC HN ES       1022 55.61                             127   -0.39 9  165 220 
 SPBC HZ I        1022 58.69         5.8 0.11            127            165 220 
 ZAR  HN ES       1023  3.51                             120    0.24 8  207 292 
 ZAR  HZ I        1023  8.58         7.7 0.54            120            207 292 
 NOR  HZ EP       1022 41.20                             117   -0.20 8  237 235 
 NOR  HN ES       1023  9.95                             117    0.74 8  237 235 
 NOR  HZ I        1023 13.95         3.9 0.13            117            237 235 
 HEL  HN ES       1023 16.98                             113   -0.37 8  275 256 
 URE  HZ EP   4   1022 57.27                             112   10.46 0  286 292 
 URE  HN ES   4   1023 22.05                             112    3.21 0  286 292 
 GUY2CHE ES   4   1023 27.59                             111    4.21 0  304 235 
 PRA  HZ EP   2   1022 59.91                             105    0.65 3  394 210 
 PRA  HE ES       1023 40.71                             105   -0.28 6  394 210 
 PRA  HZ I        1023 43.46         1.7 0.22            106            394 210 
                                                                                
