 2016 12 7 1925 50.5 L   6.782 -73.152145.2  RSN  5 0.2 1.9LRSN                1
 GAP=137        0.66       3.5     3.1  5.1 -0.7363E-01  0.5794E+01 -0.2768E+01E
 Epicentro: LOS SANTOS - SANTANDER                                             3
 ACTION:UPD 17-01-11 20:13 OP:rebc STATUS:               ID:20161207192550 L   I
 OLDACT:REG 16-12-07 21:18 OP:dnl  STATUS:               ID:20161207191751     3
 2016-12-07-1918-00M.COL___360                                                 6
 STAT SP IPHASW D HRMM SECON CODA AMPLIT PERI AZIMU VELO AIN AR TRES W  DIS CAZ7
 BAR2 EZ EP       1926  9.94                             171   -0.1310 21.3 189 
 BAR2 EZ ES       1926 25.35                             171    0.0610 21.3 189 
 BAR2 EZ I        1926 25.95        27.6 0.30            171           21.3 189 
 PAM  EZ EP       1926 12.93                             150    0.1110 79.3  39 
 PAM  EE ES       1926 30.03                             150   -0.1610 79.3  39 
 PAM  EZ I        1926 31.62        11.8 0.16            153           79.3  39 
 RUS  HZ EP       1926 14.18                             144    0.0810 98.7 176 
 RUS  HN ES       1926 32.64                             144    0.1710 98.7 176 
 RUS  HZ I        1926 35.93         4.7 0.26            146           98.7 176 
 PTB  HZ EP       1926 16.80                             132   -0.57 9  147 260 
 PTB  HE ES       1926 38.20                             132   -0.10 9  147 260 
 PTB  HZ I        1926 40.14         8.7 0.32            133            147 260 
 ZAR  HZ EP       1926 23.40                             122    0.43 9  204 293 
 ZAR  HE ES       1926 48.45                             122    0.19 9  204 293 
 ZAR  HZ I        1926 53.80        11.6 0.44            123            204 293 
                                                                                
