 2013  3 7 1235 28.7 L   6.808 -73.143146.7  RSN 11 0.4 2.5LRSN                1
 GAP= 71        1.02       2.9     3.3  5.4  0.1319E+01  0.2240E+01 -0.3481E+00E
 Epicentro: LOS SANTOS - SANTANDER                                             3
 ACTION:UPD 13-04-09 14:00 OP:ep   STATUS:               ID:20130307123528 L   I
 2013-03-07-1230-00M.COL___231                                                 6
 STAT SP IPHASW D HRMM SECON CODA AMPLIT PERI AZIMU VELO AIN AR TRES W  DIS CAZ7
 BAR2 SZ IP       1235 48.35                             170   -0.0710 24.3 190 
 BAR2 SZ I        1235 48.49        72.6 0.40            169           24.3 190 
 BAR2 SZ ES       1236  3.55                             170   -0.2810 24.3 190 
 BRR  HZ IP     D 1235 50.20                             153    0.3010 71.0 298 
 BRR  HE ES       1236  7.54                             153    1.0710 71.0 298 
 BRR  HN I        1236  8.27        69.6 0.34            151           71.0 298 
 PAM  SZ EP       1235 51.29                             151    0.3710 76.5  40 
 PAM  SE ES       1236  8.40                             151    0.1210 76.5  40 
 PAM  SN I        1236  9.80        69.0 0.46            154           76.5  40 
 RUS  HZ EP       1235 52.25                             144   -0.3210  101 176 
 RUS  HN ES       1236 10.83                             144   -0.3810  101 176 
 RUS  HE I        1236 12.04        47.0 0.48            144            101 176 
 PTB  HZ EP   1   1235 55.44                             132   -0.31 7  148 259 
 PTB  HN ES       1236 16.31                             132   -0.57 9  148 259 
 PTB  HE I        1236 22.07        41.2 0.40            131            148 259 
 TAM  HZ IP     D 1235 56.48                             131    0.07 9  155 105 
 TAM  HZ I        1235 56.64        49.0 0.34            133            155 105 
 TAM  HN ES       1236 18.27                             131    0.23 9  155 105 
 OCA  HZ EP       1235 57.02                             130    0.06 9  159 353 
 OCA  HN ES       1236 18.45                             130   -0.58 9  159 353 
 OCA  HE I        1236 22.66       124.4 0.18            131            159 353 
 ZAR  HZ EP       1236  1.54                             123    0.38 9  204 292 
 ZAR  HN ES       1236 26.61                             123    0.10 9  204 292 
 SML  HZ EP       1236  5.04                             118   -0.22 8  243 335 
 SML  HN ES       1236 33.13                             118   -0.68 8  243 335 
 CHI  HZ EP       1236  6.45                             117   -0.07 8  250 195 
 CHI  HE ES       1236 36.22                             117    0.18 8  250 195 
 CHI  HN I        1236 38.59        13.3 0.26            118            250 195 
 HEL  HZ EP   2   1236 10.15                             115    1.17 4  273 256 
 HEL  HN ES   2   1236 40.51                             115    0.08 4  273 256 
 HEL  HN I        1236 47.96         9.7 0.38            115            273 256 
                                                                                
