 2013  8 7 1545 18.7 L   6.772 -73.165141.9  RSN  9 0.4 1.8LRSN                1
 GAP=135        0.86       3.5     4.2  5.9 -0.1546E+01  0.4256E+01  0.3804E-01E
 Epicentro: LOS SANTOS - SANTANDER                                             3
 ACTION:UPD 14-01-14 09:00 OP:ep   STATUS:               ID:20130807154518 L   I
 OLDACT:REG 13-08-07 14:23 OP:jn   STATUS:               ID:20130807153959     3
 2013-08-07-1539-59M.COL___269                                                 6
 STAT SP IPHASW D HRMM SECON CODA AMPLIT PERI AZIMU VELO AIN AR TRES W  DIS CAZ7
 BAR2 SZ EP       1545 37.79                             172   -0.0210 20.0 186 
 BAR2 SZ ES       1545 52.56                             172   -0.1410 20.0 186 
 BAR2 SZ I        1545 53.73        22.4 0.34            171           20.0 186 
 GIR2 SZ EP       1545 37.78                             166   -0.2210 34.1 355 
 GIR2 SZ ES       1545 52.95                             166   -0.1010 34.1 355 
 BRR  HZ EP       1545 39.43                             152    0.0010 70.9 302 
 BRR  HN ES       1545 56.04                             152    0.4610 70.9 302 
 BRR  HZ I        1546  0.28        11.2 0.42            148           70.9 302 
 PAM  SZ EP       1545 40.67                             149   -0.0810 81.1  39 
 PAM  SZ ES       1545 57.70                             149   -0.2310 81.1  39 
 PAM  SZ I        1545 59.72        16.7 0.52            151           81.1  39 
 RUS  HZ EP   1   1545 41.71                             144   -0.16 7 97.6 175 
 RUS  HN ES       1546  0.33                             144    0.4010 97.6 175 
 RUS  HZ I        1546  1.32         6.0 0.34            146           97.6 175 
 PTB  HZ EP   1   1545 45.24                             132    0.12 7  145 260 
 PTB  HN ES   1   1546  4.54                             132   -1.18 7  145 260 
 PTB  HZ I        1546  7.81         5.6 0.16            130            145 260 
 SPBC HN ES   1   1546  8.66                             129    0.38 7  159 219 
 SPBC HZ I        1546 14.87         7.3 0.22            129            159 219 
 OCA  HN ES   1   1546  9.57                             128    0.51 7  163 354 
 OCA  HZ I        1546 14.76         8.0 0.16            128            163 354 
 ZAR  HN ES   1   1546 16.22                             122    0.34 6  203 293 
 ZAR  HZ I        1546 22.03         8.8 0.28            121            203 293 
                                                                                
