 2011  1 7 1255 37.4 L   6.831 -73.092147.3  RSN  4 0.3 1.5LRSN                1
 GAP=164        0.63       4.8    22.6 10.4 -0.1970E+02 -0.2601E+02 -0.1392E+02E
 Epicentro: LOS SANTOS - SANTANDER                                             3
 ACTION:UP  11-02-08 08:39 OP:pat  STATUS:               ID:20110107125537 L   I
 2011-01-07-1240-00M.COL___137                                                 6
 STAT SP IPHASW D HRMM SECON CODA AMPLIT PERI AZIMU VELO SNR AR TRES W  DIS CAZ7
 BAR2 SZ EP   2   1255 57.18                             169    -0.1 5   28 201 
 BAR2 SZ ES   2   1256 13.22                             169     0.4 5   28 201 
 BAR2 SZ I        1256 13.33         6.8 0.35                            28 201 
 RUS  HZ EP   2   1256  1.01                             143    -0.5 5  104 179 
 RUS  HN ES   2   1256 20.36                             143     0.0 5  104 179 
 RUS  HZ I        1256 22.50         2.5 0.26                           104 179 
 GRA  SZ EP   1   1256  2.78                             138     0.4 7  121  15 
 GRA  SZ ES   2   1256 21.41                             138    -0.4 5  121  15 
 GRA  SZ I        1256 24.83         5.4 0.32                           121  15 
 OCA  SZ EP   2   1256  5.74                             130     0.2 5  158 351 
 OCA  SZ ES   2   1256 27.27                             130    -0.3 5  158 351 
 OCA  SZ I        1256 32.96         9.0 0.27                           158 351 
                                                                                
