 2015  5 7 1047 16.9 L   6.810 -73.056146.4  RSN  5 0.4 1.6LRSN                1
 GAP=209        0.84       4.0    13.4  6.3  0.2698E+02  0.1689E+02 -0.1273E+01E
 Epicentro: LOS SANTOS - SANTANDER                                             3
 ACTION:UPD 15-09-10 22:02 OP:cam  STATUS:               ID:20150507104716 L   I
 OLDACT:DUP 15-05-07 23:38 OP:stll STATUS:               ID:20150507103748d    3
 2015-05-07-1037-47M.COL___285                                                 6
 STAT SP IPHASW D HRMM SECON CODA AMPLIT PERI AZIMU VELO AIN AR TRES W  DIS CAZ7
 BAR2 EZ EP       1047 36.84                             169    0.1710 27.8 210 
 BAR2 EZ ES       1047 51.63                             169   -0.4910 27.8 210 
 BAR2 EZ I        1047 53.68         5.7 0.28            163           27.8 210 
 BRR  HZ EP       1047 39.01                             150    0.4310 79.6 294 
 BRR  HN ES   2   1047 56.23                             150    0.72 5 79.6 294 
 RUS  HZ EP       1047 41.10                             144    0.3610  102 182 
 RUS  HN ES       1047 59.36                             144   -0.0110  102 182 
 RUS  HZ I        1048  2.31         4.9 0.40            143            102 182 
 SML  HZ EP       1047 53.74                             117   -0.15 8  247 333 
 SML  HN ES   1   1048 22.21                             117   -0.55 6  247 333 
 SML  HZ I        1048 29.29         6.0 0.10            117            247 333 
 CHI  HZ EP       1047 54.65                             117   -0.36 8  252 197 
 CHI  HN ES       1048 24.56                             117   -0.21 8  252 197 
 CHI  HZ I        1048 28.21         1.9 0.42            117            252 197 
                                                                                
