 2013  7 7 1312 39.9 L   6.762 -73.190148.0  RSN  6 0.3 1.5LRSN                1
 GAP=133        0.59       3.8     4.2  6.5 -0.9722E+00  0.4042E+01 -0.7692E+01E
 Epicentro: VILLANUEVA - SANTANDER                                             3
 ACTION:UPD 13-08-12 10:36 OP:ep   STATUS:               ID:20130707131239 L   I
 OLDACT:REG 13-07-07 14:33 OP:jn   STATUS:               ID:20130707130959     3
 2013-07-07-1309-59M.COL___267                                                 6
 STAT SP IPHASW D HRMM SECON CODA AMPLIT PERI AZIMU VELO AIN AR TRES W  DIS CAZ7
 BAR2 SZ EP       1312 59.67                             173   -0.0210 18.7 178 
 BAR2 SZ ES       1313 15.45                             173    0.3010 18.7 178 
 BAR2 SZ I        1313 15.76         6.7 0.20            166           18.7 178 
 PAM  SZ EP   1   1313  2.74                             149    0.02 7 83.8  40 
 RUS  HZ EP   1   1313  3.65                             145    0.07 7 96.8 173 
 RUS  HN ES   1   1313 21.58                             145   -0.49 7 96.8 173 
 RUS  HZ I        1313 23.16         4.5 0.34            141           96.8 173 
 PTB  HN ES   1   1313 27.04                             134   -0.28 7  142 260 
 NOR  HN ES   1   1313 42.90                             120    0.41 6  228 235 
 NOR  HZ I        1313 51.17         2.4 0.24            116            228 235 
 SML  HN ES   1   1313 45.49                             118   -0.17 6  246 337 
                                                                                
