 2013 11 7 1931  7.0 L   6.745 -73.117143.2  RSN  5 0.6 1.6LRSN                1
 GAP=143        1.48       8.2     8.3 11.7  0.3119E+01  0.2572E+02  0.1488E+02E
 Epicentro: JORDAN - SANTANDER                                                 3
 ACTION:UPD 14-01-09 16:26 OP:ep   STATUS:               ID:20131107193107 L   I
 OLDACT:REG 13-11-07 15:33 OP:nd   STATUS:               ID:20131107193000     3
 2013-11-07-1930-00M.COL___273                                                 6
 STAT SP IPHASW D HRMM SECON CODA AMPLIT PERI AZIMU VELO AIN AR TRES W  DIS CAZ7
 BAR2 SZ EP       1931 26.61                             172    0.3510 18.4 203 
 BAR2 SZ ES       1931 41.50                             172    0.2410 18.4 203 
 BAR2 SZ I        1931 42.93        15.7 0.20            167           18.4 203 
 BRR  HZ EP       1931 28.65                             150    0.4110 76.9 301 
 BRR  HN ES       1931 45.64                             150    0.8610 76.9 301 
 BRR  HZ I        1931 56.02        10.8 0.40            146           76.9 301 
 PAM  SN ES       1931 45.53                             149   -0.8710 80.3  35 
 RUS  HZ EP       1931 30.43                             145    0.3510 94.4 178 
 RUS  HN ES       1931 47.84                             145   -0.2210 94.4 178 
 RUS  HZ I        1931 50.14         4.4 0.38            149           94.4 178 
 PTB  HZ EP       1931 33.56                             131   -0.42 9  150 261 
 PTB  HN ES       1931 54.12                             131   -0.87 9  150 261 
 PTB  HZ I        1932  2.66         4.3 0.30            130            150 261 
                                                                                
