 2014  9 7 1539  1.4 L   6.814 -73.148147.2  RSN 18 0.5 2.2LRSN                1
 GAP=183        1.02       2.6     4.7  5.7 -0.6308E+00  0.2568E+01  0.2870E+01E
 Epicentro: LOS SANTOS - SANTANDER                                             3
 ACTION:UPD 14-10-03 23:03 OP:nd   STATUS:               ID:20140907153901 L   I
 OLDACT:DUP 14-09-08 00:54 OP:fm   STATUS:               ID:20140907153820d    3
 2014-09-07-1538-19M.COL___263                                                 6
 STAT SP IPHASW D HRMM SECON CODA AMPLIT PERI AZIMU VELO AIN AR TRES W  DIS CAZ7
 BAR2 SZ EP       1539 21.01                             170   -0.2510 24.9 189 
 BAR2 SZ ES   1   1539 36.81                             170    0.08 7 24.9 189 
 BAR2 SZ I        1539 37.72        30.4 0.24            167           24.9 189 
 BRR  HZ EP       1539 23.33                             153    0.6610 70.3 297 
 BRR  HN ES       1539 39.81                             153    0.5610 70.3 297 
 BRR  HZ I        1539 41.04        19.3 0.10            149           70.3 297 
 RUS  HZ EP       1539 25.84                             144    0.4110  102 176 
 RUS  HN ES   1   1539 44.01                             144   -0.15 7  102 176 
 RUS  HZ I        1539 45.24        18.7 0.26            144            102 176 
 PTB  HZ EP   1   1539 27.54                             132   -0.97 7  148 258 
 PTB  HN ES       1539 49.12                             132   -0.53 9  148 258 
 PTB  HZ I        1539 52.53        11.5 0.10            130            148 258 
 OCA  HZ EP   1   1539 29.68                             130   -0.01 7  159 353 
 OCA  HN ES       1539 51.10                             130   -0.65 9  159 353 
 OCA  HZ I        1539 56.32        14.5 0.46            130            159 353 
 SPBC HZ EP       1539 30.06                             129   -0.07 9  164 219 
 SPBC HN ES       1539 52.10                             129   -0.43 9  164 219 
 SPBC HZ I        1539 54.95        28.4 0.28            128            164 219 
 ZAR  HZ EP   1   1539 33.71                             123   -0.17 6  203 292 
 ZAR  HN ES       1539 58.92                             123   -0.28 9  203 292 
 ZAR  HZ I        1540  5.69        10.4 0.28            121            203 292 
 NOR  HZ EP       1539 37.40                             119    0.09 8  235 234 
 NOR  HE ES       1540  5.12                             119   -0.19 8  235 234 
 NOR  HZ I        1540 11.13        10.3 0.16            118            235 234 
 SML  HZ EP   1   1539 37.10                             118   -0.86 6  242 335 
 SML  HN ES       1540  7.35                             118    0.89 8  242 335 
 SML  HZ I        1540  9.88        20.7 0.26            118            242 335 
 CHI  HZ EP       1539 39.33                             117   -0.03 8  250 195 
 CHI  HN ES       1540  8.55                             117   -0.40 8  250 195 
 CHI  HZ I        1540 13.73        11.6 0.56            117            250 195 
 ROSC BZ EP   1   1539 40.46                             117    0.71 6  254 211 
 ROSC BN ES       1540 10.29                             117    0.63 8  254 211 
 ROSC BZ I        1540 13.62        15.3 0.35            116            254 211 
 HEL  HZ EP   1   1539 41.45                             115   -0.28 6  272 255 
 HEL  HN ES   4   1540 11.62                             115   -1.55 0  272 255 
 HEL  HZ I        1540 19.58         7.1 0.26            114            272 255 
 GUY2CHZ EP       1539 45.18                             112    0.00 7  302 235 
 GUY2CHN ES   4   1540 21.33                             112    2.02 0  302 235 
 GUY2CHZ I        1540 27.79         6.1 0.34                           302 235 
 CBOC HZ EP   1   1539 48.05                             110   -0.38 5  334 252 
 CBOC HN ES   1   1540 26.08                             110    0.99 5  334 252 
 TOL  SN ES   4   1540 28.80                             109    1.18 0  344 224 
 TOL  SZ I        1540 35.33        14.5 0.52            109            344 224 
 PRA  HZ EP       1539 55.48                             107    0.34 6  393 209 
 PRA  HN ES       1540 37.05                             107    0.01 6  393 209 
 PRA  HZ I        1540 43.31         5.4 0.28            107            393 209 
 ORTC HN ES   1   1540 38.20                             106    0.48 4  397 216 
 ORTC HZ I        1540 42.86         5.8 0.30            106            397 216 
 SJC  HZ EP   4   1539 55.46                             106   -1.40 0  408 327 
 SJC  HN ES   4   1540 34.45                             106   -5.65 0  408 327 
 SJC  HZ I        1540 43.56         2.8 0.52            106            408 327 
                                                                                
