 2011  2 7 1046 21.0 L   6.827 -73.237138.0  RSN  7 0.4 2.0LRSN                1
 GAP=145        0.89       5.1     9.7  9.1 -0.2852E+02  0.3768E+02 -0.1351E+02E
 Epicentro: ZAPATOCA - SANTANDER                                               3
 ACTION:UP  11-03-28 15:06 OP:jfem STATUS:               ID:20110207104621 L   I
 2011-02-07-1044-57S.COL___137                                                 6
 STAT SP IPHASW D HRMM SECON CODA AMPLIT PERI AZIMU VELO SNR AR TRES W  DIS CAZ7
 BAR2 SZ EP       1046 39.76                             169     0.010   27 167 
 BAR2 SZ ES   1   1046 54.81                             169     0.4 7   27 167 
 BAR2 SZ I        1046 56.28        45.2 0.16                            27 167 
 GIR2 SZ EP   1   1046 39.96                             168     0.3 7   28  10 
 RUS  HZ EP   1   1046 43.75                             141    -0.6 7  105 171 
 RUS  HE ES   1   1047  2.59                             141     0.1 7  105 171 
 RUS  HZ I        1047  3.58        13.0 0.27                           105 171 
 GRA  SZ IP       1046 45.58                             135    -0.110  126  22 
 GRA  SZ ES   2   1047  4.05                             135    -0.8 5  126  22 
 GRA  SZ I        1047  6.35        10.3 0.42                           126  22 
 OCA  SZ EP   2   1046 49.34                             129     1.0 5  156 357 
 OCA  SZ I        1047 14.83        11.5 0.36                           156 357 
 NOR  SZ EP   1   1046 55.95                             118     0.3 6  228 232 
 NOR  SN ES   1   1047 22.15                             118    -0.5 6  228 232 
 CHI  HZ EP   1   1046 57.99                             116    -0.4 6  249 193 
 CHI  HN ES   1   1047 27.91                             116     0.4 6  249 193 
 CHI  HZ I        1047 30.74         4.7 0.25                           249 193 
                                                                                
