 2016  9 7 1039 18.2 L   6.792 -73.145140.8  RSN 10 0.3 1.7LRSN                1
 GAP=183        0.71       2.5     3.3  4.6  0.1914E+00  0.2750E+01  0.5924E+00E
 Epicentro: LOS SANTOS - SANTANDER                                             3
 ACTION:UPD 17-08-17 21:07 OP:lp   STATUS:               ID:20160907103918 L   I
 OLDACT:REG 16-09-07 20:07 OP:lv   STATUS:               ID:20160907103732     3
 2016-09-07-1038-00M.COL___358                                                 6
 STAT SP IPHASW D HRMM SECON CODA AMPLIT PERI AZIMU VELO AIN AR TRES W  DIS CAZ7
 BAR2 EZ IP     C 1039 37.20                             170   -0.0510 22.5 191 
 BAR2 EZ ES       1039 51.82                             170   -0.2710 22.5 191 
 BAR2 EZ I        1039 53.76        12.6 0.22            168           22.5 191 
 BRR  HZ EP   4   1039 42.75                             151    3.87 0 71.7 299 
 BRR  HN ES       1039 54.71                             151   -0.2710 71.7 299 
 BRR  HZ I        1039 59.87        11.3 0.28            148           71.7 299 
 RUS  HZ EP       1039 41.14                             143   -0.3010 99.7 176 
 RUS  HN ES       1040  0.13                             143    0.5910 99.7 176 
 RUS  HZ I        1040  1.06         4.4 0.36            145           99.7 176 
 PTB  HZ EP       1039 44.70                             131   -0.10 9  148 259 
 PTB  HN ES       1040  5.25                             131   -0.27 9  148 259 
 PTB  HZ I        1040 12.35         4.4 0.30            130            148 259 
 OCA  HN ES       1040  8.37                             128    0.28 9  161 353 
 OCA  HZ I        1040 12.52        10.9 0.17            130            161 353 
 SPBC HZ EP       1039 46.10                             128   -0.20 9  163 219 
 SPBC HN ES       1040  8.38                             128    0.19 9  163 219 
 SPBC HZ I        1040 15.55         9.5 0.16            128            163 219 
 ZAR  HZ EP   4   1039 49.91                             121   -0.50 0  204 292 
 ZAR  HE ES       1040 15.91                             121    0.41 9  204 292 
 ZAR  HZ I        1040 21.47         3.5 0.16            121            204 292 
 NOR  HZ EP       1039 53.73                             117    0.09 8  234 235 
 NOR  HE ES       1040 21.31                             117    0.06 8  234 235 
 NOR  HZ I        1040 26.76         4.3 0.19            118            234 235 
 CHI  HZ EP   9   1039 56.88                             116    1.30 0  248 195 
 CHI  HN ES       1040 25.99                                   -0.02 8  248 195 
 CHI  HZ I        1040 27.47         2.5 0.06            118            248 195 
 GUY2CHZ EP   9   1040  3.80                             111    2.23 0  301 235 
 GUY2CHN ES       1040 37.27                                   -0.33 7  301 235 
 GUY2CHZ I        1040 44.01         2.5 0.26                           301 235 
                                                                                
