 2017  5 7 1048 53.0 L   6.795 -73.123150.5  RSN  7 0.3 1.6LRSN                1
 GAP=140        0.56       2.6     2.8  3.9  0.2796E+00  0.8669E+00  0.2983E+01E
 Epicentro: LOS SANTOS - SANTANDER                                             3
 ACTION:UPD 17-06-16 13:33 OP:jn   STATUS:               ID:20170507104853 L   I
 OLDACT:UP  17-05-07 21:05 OP:and  STATUS:               ID:20170507103405     3
 OLDACT:UP  17-05-07 21:04 OP:and  STATUS:               ID:20170507103405     3
 OLDACT:UP  17-05-07 21:04 OP:and  STATUS:               ID:20170507103405     3
 OLDACT:REG 17-05-07 19:56 OP:and  STATUS:               ID:20170507103405     3
 2017-05-07-1048-00M.COL___364                                                 6
 STAT SP IPHASW D HRMM SECON CODA AMPLIT PERI AZIMU VELO AIN AR TRES W  DIS CAZ7
 BRR  HZ EP       1049 14.86                             153    0.1010 73.7 298 
 BRR  HN ES       1049 31.84                             153    0.0810 73.7 298 
 PAM  EZ IP     D 1049 15.92                             152    0.3110 76.2  38 
 PAM  EN ES       1049 33.00                             152   -0.2810 76.2  38 
 PAM  EZ I        1049 35.23         5.3 0.58            156           76.2  38 
 RUS  HZ EP       1049 17.17                             145    0.0410 99.9 177 
 RUS  HN ES       1049 36.07                             145    0.0910 99.9 177 
 RUS  HZ I        1049 37.42         6.8 0.30            146           99.9 177 
 PTB  HZ EP   9   1049 19.75                             133   -0.78 0  150 259 
 PTB  HN ES       1049 41.40                             133    0.14 9  150 259 
 PTB  HZ I        1049 47.84         3.8 0.26            131            150 259 
 ZAR  HE ES       1049 51.44                             123   -0.29 8  207 292 
 ZAR  HZ I        1049 57.33         3.7 0.18            123            207 292 
 NOR  HZ EP       1049 29.23                             119    0.07 8  236 235 
 NOR  HN ES   2   1049 58.02                             119    0.63 4  236 235 
 NOR  HZ I        1050  2.02         3.0 0.20            119            236 235 
 CHI  HZ EP       1049 30.62                             118   -0.32 8  249 196 
 CHI  HN ES   2   1050  0.05                             118   -0.52 4  249 196 
                                                                                
