 2015  9 7 1041 46.9 L   5.750 -74.009 96.3  RSN  4 0.5 1.4LRSN                1
 GAP=169        1.29       7.9     8.2 12.3 -0.1132E+02 -0.7316E+01 -0.4782E+02E
 Epicentro: FLORIAN - SANTANDER                                                3
 ACTION:UPD 15-10-28 16:24 OP:cam  STATUS:               ID:20150907104146 L   I
 OLDACT:REG 15-09-07 21:18 OP:stll STATUS:               ID:20150907103749     3
 2015-09-07-1037-49M.COL___346                                                 6
 STAT SP IPHASW D HRMM SECON CODA AMPLIT PERI AZIMU VELO AIN AR TRES W  DIS CAZ7
 SPBC HZ EP       1042  0.24                             172    0.1410 12.9 213 
 SPBC HN ES       1042 10.64                             172    0.2110 12.9 213 
 SPBC HZ I        1042 12.21        10.3 0.34            172           12.9 213 
 PTB  HZ EP       1042  4.79                             130   -0.7010  100 330 
 PTB  HN ES       1042 19.86                             130   -0.1710  100 330 
 PTB  HZ I        1042 24.45         1.6 0.26            130            100 330 
 BAR2 EZ ES       1042 25.24                             123   -0.6610  131  44 
 BAR2 EZ I        1042 26.87         6.7 0.20            125            131  44 
 BRR  HZ IP     D 1042 11.61                             118    0.67 9  154  12 
 BRR  HZ I        1042 11.77         9.3 0.16            119            154  12 
 BRR  HN ES       1042 30.39                             118    0.65 9  154  12 
                                                                                
