 2015  4 7 1618 36.9 L   6.816 -73.154143.8  RSN 10 0.5 2.3LRSN                1
 GAP=135        1.29       4.1     5.0  7.1 -0.3123E+01  0.1207E+02 -0.1165E+01E
 Epicentro: LOS SANTOS - SANTANDER                                             3
 ACTION:UPD 15-06-03 16:53 OP:cam  STATUS:               ID:20150407161836 L   I
 OLDACT:REG 15-04-07 21:20 OP:carl STATUS:               ID:20150407161746     3
 2015-04-07-1617-46M.COL___270                                                 6
 STAT SP IPHASW D HRMM SECON CODA AMPLIT PERI AZIMU VELO AIN AR TRES W  DIS CAZ7
 BAR2 EZ EP       1618 56.20                             170   -0.0810 24.9 187 
 BAR2 EZ ES       1619 10.79                             170   -0.6410 24.9 187 
 BAR2 EZ I        1619 12.40        34.9 0.24            171           24.9 187 
 BRR  HZ EP       1618 57.97                             153    0.2810 69.5 298 
 BRR  HN ES       1619 15.13                             153    1.1810 69.5 298 
 BRR  HZ I        1619 17.16        20.7 0.12            150           69.5 298 
 PAM  SZ EP       1618 59.10                             151    0.2810 76.7  41 
 PAM  SN ES       1619 16.13                             151    0.1810 76.7  41 
 PAM  SZ I        1619 18.33        55.8 0.46            153           76.7  41 
 RUS  HZ EP       1619  0.49                             143   -0.0510  102 176 
 RUS  HN ES       1619 19.04                             143    0.0210  102 176 
 RUS  HZ I        1619 19.99        26.6 0.30            146            102 176 
 PTB  HZ EP       1619  3.07                             132   -0.53 9  147 258 
 PTB  HN ES       1619 23.61                             132   -0.86 9  147 258 
 PTB  HZ I        1619 27.04        15.1 0.10            132            147 258 
 SPBC HZ EP       1619  5.36                             128    0.09 9  164 218 
 SPBC HN ES       1619 27.03                             128   -0.41 9  164 218 
 SPBC HZ I        1619 29.72        40.8 0.36            130            164 218 
 ZAR  HZ EP       1619  9.05                             122    0.04 9  203 292 
 ZAR  HN ES       1619 34.06                             122   -0.03 9  203 292 
 ZAR  HZ I        1619 40.15        14.5 0.26            122            203 292 
 NOR  HZ EP       1619 12.48                             118   -0.01 8  235 234 
 NOR  HN ES       1619 40.30                             118    0.01 8  235 234 
 NOR  HZ I        1619 47.48        12.3 0.20            119            235 234 
 SML  HZ EP       1619 12.40                             117   -0.75 8  242 335 
 SML  HN ES       1619 41.14                             117   -0.33 8  242 335 
 SML  HZ I        1619 48.32        32.5 0.24            118            242 335 
 GUY2CHZ EP       1619 21.50                             112    1.11 7  301 234 
 GUY2CHN ES       1619 55.19                             112    0.83 7  301 234 
 GUY2CHZ I        1620  6.36         6.5 0.46                           301 234 
                                                                                
