 2012  9 7 1438 46.6 L   6.673 -73.183146.2  RSN  4 0.1 1.8LRSN                1
 GAP=181        0.43       6.5     3.8  4.7 -0.1355E+01 -0.2241E+00 -0.4341E+00E
 Epicentro: VILLANUEVA - SANTANDER                                             3
 ACTION:UPD 12-10-22 14:17 OP:ep   STATUS:               ID:20120907143846 L   I
 2012-09-07-1430-00M.COL___226                                                 6
 STAT SP IPHASW D HRMM SECON CODA AMPLIT PERI AZIMU VELO AIN AR TRES W  DIS CAZ7
 BAR2 SZ EP       1439  6.31                             176    0.1910 8.96 179 
 BAR2 SZ I        1439  6.66        13.2 0.34                          8.96 179 
 BAR2 SZ ES   1   1439 21.21                             176   -0.10 7 8.96 179 
 GIR2 SZ EP       1439  6.58                             162   -0.2210 44.9 359 
 BRR  HZ EP       1439  8.19                             151    0.1110 75.6 309 
 BRR  HZ I        1439  8.72        17.8 0.28                          75.6 309 
 BRR  HN ES   1   1439 24.92                             151    0.10 7 75.6 309 
 PTB  HZ EP   1   1439 12.96                             133   -0.12 7  142 264 
 PTB  HN ES   1   1439 33.67                             133   -0.04 7  142 264 
 PTB  HN I        1439 37.10         6.3 0.26                           142 264 
                                                                                
