 2014  9 7 1143 43.0 L   6.799 -73.170151.7  RSN  9 0.5 1.7LRSN                1
 GAP=208        1.18       5.1     8.1  9.0 -0.4026E+01  0.8565E+00 -0.6255E+00E
 Epicentro: LOS SANTOS - SANTANDER                                             3
 ACTION:UPD 14-10-03 23:03 OP:nd   STATUS:               ID:20140907114343 L   I
 OLDACT:REG 14-09-07 20:24 OP:fm   STATUS:               ID:20140907113819     3
 2014-09-07-1138-19M.COL___263                                                 6
 STAT SP IPHASW D HRMM SECON CODA AMPLIT PERI AZIMU VELO AIN AR TRES W  DIS CAZ7
 BAR2 SZ EP       1144  3.38                             171    0.0510 22.9 183 
 BAR2 SZ ES   1   1144 18.85                             171   -0.34 7 22.9 183 
 BAR2 SZ I        1144 19.69         9.4 0.12            165           22.9 183 
 BRR  HZ EP       1144  5.30                             155    0.6410 68.9 300 
 BRR  HN ES       1144 22.09                             155    0.5210 68.9 300 
 BRR  HZ I        1144 23.74         7.7 0.14            146           68.9 300 
 PTB  HZ EP       1144  9.29                             134   -0.93 9  145 259 
 PTB  HN ES       1144 30.89                             134   -0.57 9  145 259 
 PTB  HZ I        1144 36.98         5.5 0.30            129            145 259 
 SPBC HZ EP       1144 11.87                             131    0.08 9  161 218 
 SPBC HN ES       1144 34.04                             131   -0.22 9  161 218 
 SPBC HZ I        1144 39.69         6.3 0.14            128            161 218 
 ZAR  HN ES   1   1144 41.39                             124    0.38 6  202 292 
 ZAR  HZ I        1144 47.60         7.2 0.38            121            202 292 
 NOR  HZ EP   1   1144 19.53                             120    0.69 6  232 234 
 NOR  HN ES   1   1144 47.54                             120    0.74 6  232 234 
 NOR  HZ I        1144 50.38         4.4 0.24            118            232 234 
 SML  HZ EP   1   1144 20.05                             119    0.20 6  243 336 
 SML  HN ES       1144 48.04                             119   -0.55 8  243 336 
 SML  HZ I        1144 53.10         3.7 0.24            118            243 336 
 HEL  HN ES   4   1144 56.90                             116    2.29 0  269 256 
 HEL  HZ I        1145  3.84         2.3 0.40            114            269 256 
 GUY2CHZ EP   4   1144 28.44                             114    1.81 0  299 234 
 GUY2CHN ES   4   1145  3.28                             114    2.61 0  299 234 
 GUY2CHZ I        1145  9.97         3.1 0.38                           299 234 
                                                                                
