 2014  3 7 1327 13.9 L   5.877 -73.631116.8  RSN  4 0.2 1.5LRSN                1
 GAP=136        0.60       2.9     3.1  6.2 -0.3225E+01  0.7631E+01  0.1467E+01E
 Epicentro: PUENTE NACIONAL - SANTANDER                                        3
 ACTION:UPD 14-04-09 23:15 OP:nd   STATUS:               ID:20140307132713 L   I
 OLDACT:REG 14-03-07 15:44 OP:stll STATUS:               ID:20140307131818     3
 2014-03-07-1318-18M.COL___228                                                 6
 STAT SP IPHASW D HRMM SECON CODA AMPLIT PERI AZIMU VELO AIN AR TRES W  DIS CAZ7
 RUS  HZ EP       1327 31.77                             151   -0.2910 60.7  88 
 RUS  HN ES       1327 46.51                             151    0.3010 60.7  88 
 RUS  HZ I        1327 47.19         2.5 0.30            157           60.7  88 
 BAR2 SZ EP       1327 34.26                             139    0.2610 93.4  32 
 BAR2 SZ ES       1327 49.41                             139   -0.2610 93.4  32 
 BAR2 SZ I        1327 50.63        20.5 0.40            142           93.4  32 
 CHI  HZ EP       1327 38.44                             127    0.14 9  138 185 
 CHI  HZ I        1327 38.75         5.2 0.46            130            138 185 
 CHI  HN ES       1327 57.13                             127   -0.18 9  138 185 
 NOR  HZ EP       1327 38.09                             126   -0.03 9  141 256 
 NOR  HN ES       1327 57.05                             126    0.06 9  141 256 
 NOR  HZ I        1328  1.36         4.8 0.14            127            141 256 
                                                                                
