 2014 12 7 1154  8.4 L   6.817 -73.170148.2  RSN  9 0.5 1.9LRSN                1
 GAP=133        1.27       3.9     5.4  7.1  0.8553E+00  0.8294E+01  0.3554E+00E
 Epicentro: LOS SANTOS - SANTANDER                                             3
 ACTION:UPD 15-02-10 17:01 OP:nd   STATUS:               ID:20141207115408 L   I
 OLDACT:REG 14-12-08 00:45 OP:carl STATUS:               ID:20141207114743     3
 2014-12-07-1147-43M.COL___306                                                 6
 STAT SP IPHASW D HRMM SECON CODA AMPLIT PERI AZIMU VELO AIN AR TRES W  DIS CAZ7
 BAR2 SZ EP       1154 28.33                             170   -0.0210 24.9 183 
 BAR2 SZ ES       1154 43.58                             170   -0.3310 24.9 183 
 BAR2 SZ I        1154 44.44        15.0 0.20            169           24.9 183 
 BRR  HN ES       1154 47.46                             154    1.2710 68.0 298 
 PAM  SZ EP       1154 31.21                             151    0.3210 77.6  42 
 PAM  SN ES       1154 48.06                             151   -0.3710 77.6  42 
 PAM  SZ I        1154 50.36        16.3 0.48            155           77.6  42 
 RUS  HZ EP       1154 32.45                             144   -0.0910  103 175 
 RUS  HN ES       1154 51.33                             144   -0.0410  103 175 
 RUS  HZ I        1154 51.93         8.6 0.26            145            103 175 
 PTB  HZ EP       1154 35.07                             133   -0.30 9  146 258 
 PTB  HN ES       1154 55.79                             133   -0.61 9  146 258 
 PTB  HZ I        1155  2.76         7.9 0.44            132            146 258 
 SPBC HZ EP       1154 38.15                             130    1.08 9  163 218 
 SPBC HN ES       1154 58.98                             130   -0.46 9  163 218 
 SPBC HZ I        1155  3.82        12.7 0.18            130            163 218 
 ZAR  HZ EP       1154 40.40                             123   -0.28 9  201 292 
 ZAR  HN ES       1155  5.98                             123    0.12 9  201 292 
 ZAR  HZ I        1155 11.50         6.1 0.44            123            201 292 
 SML  HZ EP       1154 44.53                             118   -0.33 8  241 336 
 SML  HN ES       1155 12.96                             118   -0.33 8  241 336 
 SML  HZ I        1155 17.26        12.3 0.10            119            241 336 
 CHI  HZ EP       1154 46.55                             117    0.19 8  250 194 
 CHI  HN ES       1155 15.94                             117   -0.03 8  250 194 
 CHI  HZ I        1155 19.25         5.0 0.48            119            250 194 
                                                                                
