 2015 11 7 1420 31.8 L   6.768 -73.158151.3  RSN  6 0.4 1.7LRSN                1
 GAP=136        0.87       4.6     4.5  5.8  0.6166E+01  0.8755E+01 -0.1666E+01E
 Epicentro: LOS SANTOS - SANTANDER                                             3
 ACTION:UPD 15-12-28 16:09 OP:cam  STATUS:               ID:20151107142031 L   I
 OLDACT:UP  15-11-08 05:18 OP:mh   STATUS:               ID:20151107141748     3
 OLDACT:REG 15-11-07 21:29 OP:ar   STATUS:               ID:20151107141748     3
 2015-11-07-1417-48M.COL___307                                                 6
 STAT SP IPHASW D HRMM SECON CODA AMPLIT PERI AZIMU VELO AIN AR TRES W  DIS CAZ7
 BAR2 EZ EP       1420 52.30                             172    0.2510 19.6 188 
 BAR2 EZ ES       1421  7.64                             172   -0.1810 19.6 188 
 BAR2 EZ I        1421  8.65        11.3 0.14            171           19.6 188 
 BRR  HZ EP       1420 53.39                             153   -0.2110 71.7 302 
 BRR  HN ES       1421 11.16                             153    0.5810 71.7 302 
 BRR  HZ I        1421 16.23        16.6 0.24            150           71.7 302 
 PAM  EZ EP       1420 55.21                             151    0.3710 81.0  39 
 PAM  EN ES       1421 12.34                             151   -0.4510 81.0  39 
 PAM  EZ I        1421 14.82         8.4 0.42            154           81.0  39 
 RUS  HZ EP       1420 56.05                             146    0.1710 97.2 175 
 RUS  HN ES       1421 14.41                             146   -0.2410 97.2 175 
 RUS  HZ I        1421 16.15         3.7 0.22            149           97.2 175 
 ZAR  HZ EP       1421  4.68                             123    0.04 9  204 293 
 ZAR  HN ES       1421 30.45                             123    0.22 9  204 293 
 URE  HZ EP       1421 12.71                             115   -0.46 7  284 293 
 URE  HN ES   1   1421 44.70                             115   -0.72 6  284 293 
 URE  HZ I        1421 56.98         4.5 0.14            115            284 293 
                                                                                
