 2017  9 7 1913 28.9 L   6.776 -73.128139.3  RSN  5 0.5 1.3LRSN                1
 GAP=140        1.19       6.0     6.4  8.8  0.8413E+01  0.1259E+02 -0.1457E+01E
 Epicentro: LOS SANTOS - SANTANDER                                             3
 ACTION:UPD 17-10-05 19:10 OP:rebc STATUS:               ID:20170907191328 L   I
 OLDACT:DUP 17-09-07 23:19 OP:lv   STATUS:               ID:20170907190742d    3
 2017-09-07-1908-00M.COL___423                                                 6
 STAT SP IPHASW D HRMM SECON CODA AMPLIT PERI AZIMU VELO AIN AR TRES W  DIS CAZ7
 BAR2 EZ EP       1913 47.16                             171   -0.5910 21.2 196 
 BAR2 EZ ES       1914  2.13                             171   -0.2910 21.2 196 
 BRR  HE ES       1914  6.28                             150    0.6210 74.2 300 
 PAM  EZ EP       1913 50.39                             149   -0.1310 78.2  37 
 PAM  EN ES       1914  7.43                             149    0.0710 78.2  37 
 PAM  EZ I        1914  9.13         3.8 0.23            150           78.2  37 
 RUS  HZ EP       1913 51.94                             143    0.0810 97.8 177 
 RUS  HE ES       1914  9.99                             143    0.2610 97.8 177 
 RUS  HZ I        1914 10.82         1.8 0.28            144           97.8 177 
 ZAR  HZ EP       1914  2.05                             121    0.78 8  207 293 
 ZAR  HN ES       1914 25.68                             121   -0.80 8  207 293 
 ZAR  HZ I        1914 28.26         2.7 0.52            121            207 293 
                                                                                
