 2016  8 7 1504 31.7 L   6.785 -73.065144.0  RSN  4 0.3 1.6LRSN                1
 GAP=275        0.56       4.2     5.3  4.9 -0.6941E+01  0.3986E+01  0.6140E+01E
 Epicentro: LOS SANTOS - SANTANDER                                             3
 ACTION:UPD 16-10-29 15:33 OP:rebc STATUS:               ID:20160807150431 L   I
 OLDACT:ARG 16-08-08 04:28 OP:ak   STATUS:               ID:20160807145800     3
 2016-08-07-1458-00M.COL___356                                                 6
 STAT SP IPHASW D HRMM SECON CODA AMPLIT PERI AZIMU VELO AIN AR TRES W  DIS CAZ7
 BAR2 EZ EP       15 4 51.25                             170    0.0710 24.9 211 
 BAR2 EZ ES       15 5  6.18                             170   -0.1710 24.9 211 
 BAR2 EZ I        15 5  9.25         7.2 0.32                          24.9 211 
 BRR  HZ EP       15 4 53.21                             149    0.0110 79.9 297 
 BRR  HN ES       15 5 10.02                             149    0.0710 79.9 297 
 SPBC HZ EP       15 5  0.37                             128   -0.15 9  168 222 
 SPBC HN ES       15 5 23.32                             128    0.34 9  168 222 
 SPBC HZ I        15 5 28.93         4.8 0.17                           168 222 
 GUY2CHZ EP   2   15 5 16.64                             111    0.67 4  308 236 
 GUY2CHE ES       15 5 50.05                             111   -0.44 7  308 236 
 GUY2CHZ I        15 5 58.24         2.4 0.68                           308 236 
                                                                                
