 2016  4 7 1034  2.7 L   6.788 -73.158141.2  RSN  5 0.3 1.5LRSN                1
 GAP=148        0.86       5.1     4.4  7.3 -0.8063E+01  0.1019E+02  0.5757E+00E
 Epicentro: LOS SANTOS - SANTANDER                                             3
 ACTION:UPD 16-05-05 14:19 OP:rebc STATUS:               ID:20160407103402 L   I
 OLDACT:REG 16-04-07 19:03 OP:drio STATUS:               ID:20160407102747     3
 2016-04-07-1027-47M.COL___306                                                 6
 STAT SP IPHASW D HRMM SECON CODA AMPLIT PERI AZIMU VELO AIN AR TRES W  DIS CAZ7
 BAR2 EZ EP       1034 21.35                             171   -0.4010 21.8 187 
 BAR2 EZ ES       1034 37.10                             171    0.4910 21.8 187 
 BAR2 EZ I        1034 38.44         7.2 0.18            169           21.8 187 
 PAM  EZ EP       1034 24.88                             149    0.3310 79.2  40 
 PAM  EE ES       1034 41.22                             149   -0.3710 79.2  40 
 PAM  EZ I        1034 43.65         3.8 0.66            155           79.2  40 
 PTB  HZ EP       1034 28.99                             131   -0.17 9  146 259 
 PTB  HN ES       1034 49.68                             131   -0.12 9  146 259 
 PTB  HZ I        1034 55.28         4.8 0.30            131            146 259 
 SPBC HZ EP       1034 31.08                             128    0.40 9  161 219 
 SPBC HN ES       1034 52.19                             128   -0.31 9  161 219 
 SPBC HZ I        1035  0.10         4.6 0.26            130            161 219 
 ZAR  HZ EP   4   1034 37.16                             121    2.38 0  203 293 
 ZAR  HN ES       1034 59.97                             121    0.17 9  203 293 
 ZAR  HZ I        1035  6.05         2.5 0.24            123            203 293 
                                                                                
