 2011  1 7 1516 20.4 L   6.777 -73.154139.7  RSN 12 0.4 2.3LRSN                1
 GAP=135        0.65       3.3     4.3  5.6 -0.1598E+01  0.9752E+01  0.1027E+01E
 Epicentro: LOS SANTOS - SANTANDER                                             3
 ACTION:UP  11-02-08 08:39 OP:pat  STATUS:               ID:20110107151620 L   I
 2011-01-07-1500-00M.COL___137                                                 6
 STAT SP IPHASW D HRMM SECON CODA AMPLIT PERI AZIMU VELO SNR AR TRES W  DIS CAZ7
 BAR2 SZ IP       1516 39.18                             171    -0.110   21 189 
 BAR2 SZ ES   1   1516 53.87                             171    -0.1 7   21 189 
 BAR2 SZ I        1516 57.07        41.1 0.22                            21 189 
 GIR2 SZ EP   2   1516 39.33                             166    -0.1 5   34 352 
 RUS  HZ EP       1516 43.13                             143    -0.310   98 175 
 RUS  HN ES   1   1517  1.59                             143     0.3 7   98 175 
 RUS  HZ I        1517  3.55        30.2 0.27                            98 175 
 GRA  SZ EP   2   1516 45.80                             135     0.5 5  128  17 
 GRA  SZ ES   2   1517  4.45                             135    -0.3 5  128  17 
 GRA  SZ I        1517  9.56        24.5 0.31                           128  17 
 OCA  SZ EP   2   1516 49.17                             128     0.7 5  163 354 
 OCA  SZ I        1517 16.16        21.7 0.22                           163 354 
 YOP  SZ EP   1   1516 49.59                             125    -0.3 7  177 153 
 YOP  SE ES   1   1517 13.32                             125     0.5 7  177 153 
 YOP  SZ I        1517 14.52        14.0 0.37                           177 153 
 NOR  SZ EP   1   1516 55.05                             117    -0.5 6  233 235 
 NOR  SN ES   2   1517 23.01                             117     0.0 4  233 235 
 CHI  HZ EP   1   1516 57.09                             116    -0.4 6  246 195 
 CHI  HE ES   1   1517 26.29                             116    -0.1 6  246 195 
 CHI  HZ I        1517 32.53        11.3 0.51                           246 195 
 HEL  HZ EP   2   1517  0.78                             114     0.6 4  271 256 
 HEL  HE ES   2   1517 31.29                             114     0.1 4  271 256 
 HEL  HZ I        1517 37.64        12.7 0.18                           271 256 
 GUY  SZ EP   2   1517  4.31                             111     0.8 4  299 235 
 GUY  SN ES   2   1517 37.77                             111     0.6 4  299 235 
 RREF HZ EP   1   1517  6.42                             110     0.4 5  319 230 
 RREF HN ES   2   1517 41.09                             110    -0.5 3  319 230 
 RREF HZ I        1517 50.17        15.1 0.20                           319 230 
 PRA  HZ EP   2   1517 13.56                             106     0.1 3  389 210 
 PRA  HN ES   2   1517 54.73                             106     0.0 3  389 210 
                                                                                
