 2012  1 7 1433 40.4 L   6.053 -73.741108.4  RSN  8 0.2 1.7LRSN                1
 GAP=125        0.52       2.1     2.9  5.4  0.2990E+00  0.4838E+01 -0.7127E+00E
 Epicentro: BOLIVAR - SANTANDER                                                3
 ACTION:UP  12-02-03 08:15 OP:REBC STATUS:               ID:20120107143340 L   I
 2012-01-07-1430-00M.COL___186                                                 6
 STAT SP IPHASW D HRMM SECON CODA AMPLIT PERI AZIMU VELO SNR AR TRES W  DIS CAZ7
 RUS  HZ EP       1433 58.58                             143     0.010   75 104 
 RUS  HE ES   1   1434 12.85                             143     0.0 7   75 104 
 RUS  HZ I        1434 14.04         7.7 0.48                            75 104 
 BAR2 SZ EP       1433 59.33                             139     0.210   86  46 
 BAR2 SZ ES   1   1434 13.46                             139    -0.2 7   86  46 
 BAR2 SZ I        1434 16.00        25.0 0.42                            86  46 
 PTB  HZ EP       1433 59.33                             135    -0.310   96 304 
 PTB  HE ES   2   1434 14.58                             135     0.0 5   96 304 
 PTB  HZ I        1434 16.57         5.7 0.48                            96 304 
 BRR  HZ EP       1434  1.61                             129     0.110  117   2 
 BRR  HZ I        1434  4.79        18.6 0.44                           117   2 
 GIR2 SZ EP       1434  2.93                             126     0.110  129  28 
 CHI  HZ EP       1434  5.95                             120    -0.2 9  157 180 
 CHI  HN ES   1   1434 26.50                             120     0.3 7  157 180 
 CHI  HZ I        1434 32.48         3.2 0.34                           157 180 
 PAM  SZ EP       1434  8.88                             116    -0.1 9  183  39 
 ZAR  HZ EP   2   1434 10.64                             113     0.2 4  201 322 
 ZAR  HN ES   2   1434 34.12                             113     0.3 4  201 322 
 ZAR  HZ I        1434 36.46         7.7 0.26                           201 322 
                                                                                
