 2012  8 7 1821  2.4 L   6.760 -73.205142.0  RSN  5 0.4 1.5LRSN                1
 GAP=228        0.78       8.2     7.5 11.2  0.3354E+02  0.1426E+02 -0.1572E+02E
 Epicentro: VILLANUEVA - SANTANDER                                             3
 ACTION:UPD 12-09-10 11:55 OP:ep   STATUS:               ID:20120807182102 L   I
 2012-08-07-1820-00M.COL___216                                                 6
 STAT SP IPHASW D HRMM SECON CODA AMPLIT PERI AZIMU VELO AIN AR TRES W  DIS CAZ7
 BAR2 SZ EP   1   1821 21.57                             172    0.12 7 18.7 172 
 BAR2 SZ ES   1   1821 35.74                             172   -0.60 7 18.7 172 
 BAR2 SZ I        1821 37.56         9.5 0.20                          18.7 172 
 BRR  HZ EP   1   1821 22.97                             153    0.06 7 67.9 304 
 BRR  HZ I        1821 23.37         6.5 0.11                          67.9 304 
 BRR  HN ES   1   1821 39.57                             153    0.62 7 67.9 304 
 RUS  HN ES   1   1821 43.58                             144    0.09 7 96.8 172 
 PTB  HN ES   1   1821 48.80                             133    0.16 7  140 260 
 ZAR  HE ES   1   1821 58.30                             122   -0.58 6  200 294 
 ZAR  HZ I        1822  4.99         2.8 0.16                           200 294 
                                                                                
