 2016  2 7 1455 53.8 L   6.868 -72.944139.6  RSN  7 0.2 1.7LRSN                1
 GAP=218        0.62       2.5     4.6  5.0  0.3186E+01  0.6565E+01 -0.1812E+01E
 Epicentro: GUACA - SANTANDER                                                  3
 ACTION:UPD 16-03-04 21:24 OP:rebc STATUS:               ID:20160207145553 L   I
 OLDACT:REG 16-02-07 20:50 OP:cara STATUS:               ID:20160207144750     3
 2016-02-07-1447-50M.COL___334                                                 6
 STAT SP IPHASW D HRMM SECON CODA AMPLIT PERI AZIMU VELO AIN AR TRES W  DIS CAZ7
 BAR2 EZ IP     C 1456 13.50                             163    0.3610 40.3 221 
 BAR2 EZ ES       1456 28.07                             163   -0.1810 40.3 221 
 BAR2 EZ I        1456 29.58        10.7 0.16            162           40.3 221 
 RUS  HZ EP       1456 17.87                             140    0.3210  109 188 
 RUS  HN ES       1456 36.03                             140   -0.0810  109 188 
 RUS  HZ I        1456 37.27         4.3 0.32            141            109 188 
 SPBC HZ EP       1456 23.65                             124   -0.16 9  183 223 
 ZAR  HN ES       1456 54.38                             118    0.11 8  222 288 
 ZAR  HZ I        1456 57.68         6.1 0.26            118            222 288 
 SML  HZ EP       1456 30.13                             116   -0.31 8  247 330 
 SML  HE ES       1456 58.96                             116   -0.09 8  247 330 
 SML  HZ I        1457  5.42         8.3 0.26            115            247 330 
 CHI  HN ES       1457  2.60                             114   -0.39 8  262 199 
 CHI  HZ I        1457  7.77         1.1 0.26            114            262 199 
 GUY2CHN ES       1457 15.74                             109    0.24 7  324 236 
                                                                                
