 2016  9 7 1751  5.9 L   6.778 -73.126142.0  RSN 13 0.4 2.1LRSN                1
 GAP=140        1.02       3.0     3.8  5.6 -0.1538E+01  0.6553E+01  0.3264E+01E
 Epicentro: LOS SANTOS - SANTANDER                                             3
 ACTION:UPD 17-08-17 21:07 OP:lp   STATUS:               ID:20160907175105 L   I
 OLDACT:REG 16-09-07 20:32 OP:lv   STATUS:               ID:20160907174734     3
 2016-09-07-1748-00M.COL___358                                                 6
 STAT SP IPHASW D HRMM SECON CODA AMPLIT PERI AZIMU VELO AIN AR TRES W  DIS CAZ7
 BAR2 EZ EP       1751 24.84                             171   -0.2110 21.5 197 
 BAR2 EZ ES       1751 39.69                             171   -0.2910 21.5 197 
 BAR2 EZ I        1751 41.13        40.4 0.22            171           21.5 197 
 BRR  HZ EP       1751 26.84                             151    0.0110 74.2 299 
 BRR  HE ES       1751 43.75                             151    0.6110 74.2 299 
 BRR  HZ I        1751 47.96        21.4 0.12            149           74.2 299 
 PAM  EZ EP       1751 27.65                             150   -0.1110 77.9  37 
 PAM  EE ES       1751 45.07                             150    0.2710 77.9  37 
 PAM  EZ I        1751 48.95         9.8 0.21            152           77.9  37 
 RUS  HZ EP       1751 28.96                             144   -0.1510 98.1 177 
 RUS  HN ES       1751 46.90                             144   -0.3010 98.1 177 
 RUS  HZ I        1751 48.29        19.5 0.24            147           98.1 177 
 PTB  HZ EP       1751 31.90                             131   -0.82 9  149 260 
 PTB  HN ES       1751 53.38                             131   -0.26 9  149 260 
 PTB  HZ I        1751 57.66        11.1 0.19            131            149 260 
 OCA  HN ES       1751 56.79                             128    0.56 9  163 353 
 OCA  HZ I        1751 58.30        42.3 0.23            129            163 353 
 SPBC HZ EP       1751 34.30                             128    0.23 9  163 220 
 SPBC HN ES       1751 55.96                             128   -0.08 9  163 220 
 SPBC HZ I        1751 56.90        20.1 0.14            130            163 220 
 ZAR  HZ EP       1751 37.79                             121   -0.62 8  207 293 
 ZAR  HN ES       1752  3.14                             121   -0.62 8  207 293 
 ZAR  HZ I        1752  8.99        15.7 0.14            122            207 293 
 NOR  HZ EP       1751 41.17                             118   -0.29 8  235 235 
 NOR  HN ES       1752  9.68                             118    0.49 8  235 235 
 NOR  HZ I        1752 10.43         8.0 0.16            119            235 235 
 CHI  HZ EP       1751 43.68                             117    0.47 8  247 196 
 CHI  HN ES       1752 12.63                             117    0.33 8  247 196 
 CHI  HZ I        1752 18.16         5.6 0.34            119            247 196 
 HEL  HZ EP   4   1751 47.49                             114    1.39 0  274 256 
 HEL  HN ES       1752 17.76                             114    0.32 8  274 256 
 HEL  HZ I        1752 24.17         6.3 0.39            115            274 256 
 URE  HZ EP   4   1751 45.18                             113   -1.94 0  287 292 
 URE  HE ES   4   1752 16.03                             113   -3.24 0  287 292 
 URE  HZ I        1752 25.39         9.5 0.18            114            287 292 
 GUY2CHZ EP       1751 50.05                             112    0.66 7  302 235 
 GUY2CHE ES       1752 23.84                             112    0.54 7  302 235 
 GUY2CHZ I        1752 33.28         5.5 0.44                           302 235 
                                                                                
