 2013 12 7 1958 19.5 L   6.813 -73.162147.5  RSN 11 0.4 2.8LRSN 3.2WRSN        1
 SPEC AVERAGE  MO 13.9 ST 42.5 OM  2.5 f0 7.16 R0.3353 AL 0.00 WI 18.1 MW  3.2 3
 SPEC SD       MO  0.3 ST 30.9 OM  0.5 f0 2.96 R0.3274 AL      WI      MW  0.2 3
 GAP= 70        1.05       3.0     3.7  5.5 -0.1195E+01  0.2938E+01 -0.1171E+01E
 Epicentro: LOS SANTOS - SANTANDER                                             3
 SPEC SML HH E MO 13.5 ST 41.3 OM  1.7 f0 10.0 R0.1554 AL 0.00 WI 21.7 MW  3.0 3
 SPEC SML HH E T195924 K 0.000 GD  283 VS 4.20 DE 3.20 Q0300.0 QA 0.60 VS 4.20 3
 SPEC NOR HH N MO 13.7 ST 64.0 OM  1.9 f0 10.0 R0.1554 AL 0.00 WI 20.0 MW  3.1 3
 SPEC NOR HH N T195922 K 0.000 GD  276 VS 4.20 DE 3.20 Q0300.0 QA 0.60 VS 4.20 3
 SPEC ZAR HH N MO 13.9 ST 91.7 OM  2.1 f0 10.0 R0.1554 AL 0.00 WI 12.9 MW  3.2 3
 SPEC ZAR HH N T195917 K 0.000 GD  250 VS 4.20 DE 3.20 Q0300.0 QA 0.60 VS 4.20 3
 SPEC OCA HH N MO 14.1 ST 76.7 OM  2.4 f0 7.85 R0.1980 AL 0.00 WI 23.5 MW  3.4 3
 SPEC OCA HH N T1959 8 K 0.000 GD  216 VS 4.20 DE 3.20 Q0300.0 QA 0.60 VS 4.20 3
 SPEC PTB HH N MO 13.8 ST 27.5 OM  2.1 f0 7.12 R0.2183 AL 0.00 WI 28.8 MW  3.2 3
 SPEC PTB HH N T1959 5 K 0.000 GD  207 VS 4.20 DE 3.20 Q0300.0 QA 0.60 VS 4.20 3
 SPEC RUS HH N MO 13.6 ST  2.9 OM  2.0 f0 3.83 R0.4057 AL 0.00 WI 15.3 MW  3.0 3
 SPEC RUS HH N T1959 1 K 0.000 GD  179 VS 4.20 DE 3.20 Q0300.0 QA 0.60 VS 4.20 3
 SPEC PAM SH N MO 14.4 ST0.704 OM  2.8 f0 1.32 R1.1773 AL 0.00 WI 15.3 MW  3.6 3
 SPEC PAM SH N T195859 K 0.000 GD  166 VS 4.20 DE 3.20 Q0300.0 QA 0.60 VS 4.20 3
 SPEC BRR HH N MO 13.9 ST 34.9 OM  2.3 f0 7.17 R0.2167 AL 0.00 WI  7.0 MW  3.2 3
 SPEC BRR HH N T195856 K 0.000 GD  162 VS 4.20 DE 3.20 Q0300.0 QA 0.60 VS 4.20 3
 ACTION:UPD 14-01-13 10:16 OP:ep   STATUS:               ID:20131207195819 L   I
 OLDACT:UP  13-12-07 17:48 OP:cam  STATUS:               ID:20131207195000     3
 OLDACT:UP  13-12-07 17:48 OP:cam  STATUS:               ID:20131207195000     3
 OLDACT:UP  13-12-07 17:48 OP:cam  STATUS:               ID:20131207195000     3
 OLDACT:UP  13-12-07 17:47 OP:cam  STATUS:               ID:20131207195000     3
 OLDACT:UP  13-12-07 17:47 OP:cam  STATUS:               ID:20131207195000     3
 OLDACT:REG 13-12-07 16:22 OP:cam  STATUS:               ID:20131207195000     3
 2013-12-07-1950-00M.COL___285                                                 6
 STAT SP IPHASW D HRMM SECON CODA AMPLIT PERI AZIMU VELO AIN AR TRES W  DIS CAZ7
 BAR2 SZ EP     C 1958 39.42                             170    0.0210 24.5 185 
 BAR2 SZ ES       1958 55.10                             170    0.2110 24.5 185 
 BAR2 SZ I        1958 55.21       268.6 0.30            170           24.5 185 
 BRR  HZ IP     C 1958 41.07                             154    0.3310 68.9 298 
 BRR  HN ES       1958 58.19                             154    0.9010 68.9 298 
 BRR  HZ I        1958 58.57       109.1 0.14            150           68.9 298 
 PAM  SZ EP       1958 42.13                             151    0.1910 77.5  41 
 PAM  SN ES       1958 59.27                             151   -0.1410 77.5  41 
 PAM  SN I        1959  0.37       244.5 0.42            153           77.5  41 
 RUS  HZ EP       1958 43.53                             144   -0.0410  102 175 
 RUS  HN ES       1959  1.76                             144   -0.5610  102 175 
 RUS  HZ I        1959  3.93        52.6 0.34            145            102 175 
 PTB  HZ EP       1958 45.85                             133   -0.66 9  146 258 
 PTB  HN ES       1959  7.15                             133   -0.40 9  146 258 
 PTB  HZ I        1959  8.50        60.8 0.22            131            146 258 
 TAM  HZ EP       1958 47.83                             131    0.28 9  157 105 
 OCA  HZ EP       1958 47.52                             130   -0.31 9  159 354 
 OCA  HN ES       1959  9.25                             130   -0.64 9  159 354 
 OCA  HZ I        1959 14.24        70.3 0.44            130            159 354 
 SPBC HZ EP       1958 48.61                             129    0.44 9  163 218 
 SPBC HE ES       1959 10.53                             129    0.03 9  163 218 
 SPBC HZ I        1959 16.54        83.8 0.24            129            163 218 
 ZAR  HZ EP       1958 52.31                             123    0.45 9  202 292 
 ZAR  HN ES       1959 17.34                             123    0.26 9  202 292 
 ZAR  HZ I        1959 25.95        65.8 0.16            122            202 292 
 NOR  HZ EP       1958 55.62                             119    0.32 8  234 234 
 NOR  HN ES       1959 22.65                             119   -0.54 8  234 234 
 NOR  HZ I        1959 29.17        32.7 0.16            119            234 234 
 SML  HZ EP       1958 56.09                             118    0.06 8  242 336 
 SML  HE ES       1959 24.14                             118   -0.36 8  242 336 
 SML  HZ I        1959 30.49        70.2 0.10            118            242 336 
 CHI  HZ EP   4   1958 57.82                             117    0.39 0  250 195 
 HEL  HZ EP   4   1959  1.76                             115    2.08 0  271 255 
 GUY2CHZ EP   4   1959  5.35                             113    2.20 0  301 234 
 PTGC HZ EP   4   1959  2.85                             112   -0.85 0  311 158 
 PTGC HE ES   4   1959 36.60                             112   -1.55 0  311 158 
 RREF HZ EP   4   1959  7.75                             111    2.05 0  321 229 
 CBOC HZ EP   4   1959  7.53                             110    1.16 0  332 252 
 SJC  HZ EP   4   1959 13.35                             106   -1.54 0  407 327 
                                                                                
