 2013  6 7 1206 51.3 L   6.719 -73.282141.8  RSN  4 0.3 1.8LRSN                1
 GAP=163        0.72      11.6    25.8 11.2  0.2848E+03 -0.2111E+03 -0.9686E+02E
 Epicentro: GALAN - SANTANDER                                                  3
 ACTION:UPD 14-01-08 09:53 OP:ep   STATUS:               ID:20130607120651 L   I
 OLDACT:REG 13-06-07 16:00 OP:nd   STATUS:               ID:20130607115959     3
 2013-06-07-1159-59M.COL___261                                                 6
 STAT SP IPHASW D HRMM SECON CODA AMPLIT PERI AZIMU VELO AIN AR TRES W  DIS CAZ7
 BAR2 SZ EP       12 7  9.88                             173   -0.4610 17.8 142 
 BAR2 SZ I        12 7 26.22        16.4 0.40            129           17.8 142 
 BRR  HZ IP     C 12 7 11.60                             154   -0.0210 64.0 312 
 BRR  HN ES       12 7 27.30                             154   -0.1710 64.0 312 
 BRR  HZ I        12 7 33.05        13.7 0.40            133           64.0 312 
 RUS  HZ EP       12 7 14.19                             145    0.0110 94.0 166 
 RUS  HN ES       12 7 32.39                             145    0.3610 94.0 166 
 RUS  HZ I        12 7 33.71         5.8 0.20            127           94.0 166 
 SML  HZ EP   2   12 7 28.08                             116    0.12 4  246 339 
 SML  HN ES       12 7 56.99                             116    0.42 8  246 339 
 SML  HZ I        12 7 59.99         9.4 0.10            108            246 339 
                                                                                
