 2012 10 7 1450 56.8 L   6.787 -73.113142.3  RSN  6 0.2 2.3LRSN                1
 GAP=141        0.41       3.4     3.6  4.7 -0.6326E+00 -0.1028E+01  0.5365E+01E
 Epicentro: LOS SANTOS - SANTANDER                                             3
 ACTION:UPD 12-11-22 17:02 OP:ep   STATUS:               ID:20121007145056 L   I
 2012-10-07-1450-00M.COL___222                                                 6
 STAT SP IPHASW D HRMM SECON CODA AMPLIT PERI AZIMU VELO AIN AR TRES W  DIS CAZ7
 BAR2 SZ EP       1451 15.99                             170   -0.0110 22.8 200 
 BAR2 SZ ES   2   1451 30.87                             170   -0.11 5 22.8 200 
 BAR2 SZ I        1451 32.21        28.6 0.38                          22.8 200 
 GIR2 SZ EP       1451 16.02                             166   -0.1010 33.5 345 
 BRR  HZ EP       1451 17.75                             150   -0.0510 75.0 298 
 BRR  HE ES   1   1451 34.41                             150    0.23 7 75.0 298 
 BRR  HN I        1451 35.38        69.6 0.18                          75.0 298 
 PAM  SZ EP       1451 18.81                             150    0.2310 76.3  37 
 PAM  SN ES   1   1451 35.36                             150   -0.21 7 76.3  37 
 PAM  SN I        1451 36.10        16.4 0.32                          76.3  37 
 RUS  HZ EP       1451 20.07                             143   -0.0210 99.0 178 
 RUS  HN ES   3   1451 38.55                             143    0.29 2 99.0 178 
 ZAR  HZ EP   3   1451 29.64                             121    0.21 2  208 292 
 ZAR  HE ES   3   1451 53.79                             121   -1.08 2  208 292 
 ZAR  HN I        1452  1.30        26.7 0.38                           208 292 
                                                                                
