 2011  4 7 1724 31.1 L   6.762 -73.126145.4  RSN 17 0.4 2.7LRSN                1
 GAP=117        0.95       4.3     5.6  5.5 -0.8734E+01  0.5084E+01  0.8917E+01E
 Epicentro: LOS SANTOS - SANTANDER                                             3
 ACTION:UP  11-06-22 15:29 OP:REBC STATUS:               ID:20110407172431 L   I
 2011-04-07-1723-20S.COL___138                                                 6
 STAT SP IPHASW D HRMM SECON CODA AMPLIT PERI AZIMU VELO SNR AR TRES W  DIS CAZ7
 BAR2 SZ IP       1724 50.50                             172    -0.110   20 198 
 BAR2 SZ ES   1   1725  5.65                             172    -0.2 7   20 198 
 BAR2 SZ I        1725  8.23       117.1 0.29                            20 198 
 BTL  SZ IP       1724 50.63                             170    -0.110   23 318 
 BTL  SZ ES   1   1725  6.19                             170     0.2 7   23 318 
 GIR2 SZ EP       1724 50.60                             165    -0.310   36 348 
 GIR2 SZ ES   2   1725  5.72                             165    -0.6 5   36 348 
 BRR  HZ IP     C 1724 52.42                             151     0.010   75 301 
 BRR  HZ I        1724 52.69       131.4 0.15                            75 301 
 BRR  HN ES   1   1725  9.85                             151     0.8 7   75 301 
 PAM  SZ EP       1724 53.37                             150     0.010   79  36 
 PAM  SN ES   1   1725 10.65                             150    -0.2 7   79  36 
 PAM  SZ I        1725 12.72        43.8 0.22                            79  36 
 GRA  SZ IP     C 1724 57.34                             136     0.710  129  16 
 GRA  SZ ES   1   1725 16.82                             136     0.3 7  129  16 
 GRA  SZ I        1725 18.59        86.3 0.31                           129  16 
 OCA  SZ EP       1724 59.04                             129    -0.8 9  165 353 
 OCA  SZ ES   2   1725 21.90                             129    -0.3 5  165 353 
 OCA  SZ I        1725 24.47        57.8 0.09                           165 353 
 YOP  SZ IP       1725  0.92                             127     0.3 9  174 153 
 YOP  SZ I        1725  4.89        23.5 0.42                           174 153 
 NOR  SZ EP       1725  6.12                             118    -0.6 8  234 236 
 NOR  SN ES   2   1725 34.04                             118    -0.5 4  234 236 
 CHI  HZ EP       1725  8.46                             117     0.0 8  245 196 
 CHI  HZ I        1725 41.41        23.9 0.49                           245 196 
 HEL  HZ EP   2   1725 11.89                             115     0.5 4  273 257 
 HEL  HZ I        1725 49.17        26.1 0.34                           273 257 
 GUY  SZ EP       1725 15.47                             112     0.6 7  303 236 
 GUY  SZ I        1725 57.95        50.7 0.33                           303 236 
 RREF HZ EP       1725 17.26                             111     0.1 7  321 230 
 RREF HN ES   2   1725 52.47                             111    -0.5 3  321 230 
 RREF HZ I        1726  3.02        42.0 0.27                           321 230 
 DBB  SZ EP       1725 19.14                             109     0.3 7  342 275 
 TOL  SZ EP   1   1725 19.64                             109     0.5 5  342 225 
 ANIL HZ EP   3   1725 21.09                             108     0.4 2  356 225 
 ANIL HN ES   3   1725 59.77                             108     0.3 2  356 225 
 ANIL HZ I        1726  6.34        49.0 0.27                           356 225 
 PRA  HZ EP       1725 23.84                             107    -0.5 6  389 210 
 PRA  HN ES   3   1726  6.74                             107     0.9 1  389 210 
                                                                                
