 2011 11 7 1839 25.6 L   6.797 -73.112144.1  RSN  5 0.2 1.7LRSN                1
 GAP=141        0.40       2.7     3.1  3.8  0.1714E+01  0.8774E+00 -0.1333E+00E
 Epicentro: LOS SANTOS - SANTANDER                                             3
 ACTION:UPD 12-07-13 16:08 OP:ep   STATUS:               ID:20111107183925 L   I
 2011-11-07-1836-23S.COL___174                                                 6
 STAT SP IPHASW D HRMM SECON CODA AMPLIT PERI AZIMU VELO AIN AR TRES W  DIS CAZ7
 BAR2 SZ ES   1   1840  0.22                             170    0.03 7 24.0 199 
 BAR2 SZ I        1840  1.20         9.5 0.30                          24.0 199 
 BRR  HZ EP       1839 46.70                             151   -0.0410 74.6 297 
 BRR  HN ES       1840  3.38                             151    0.1310 74.6 297 
 BRR  HZ I        1840  7.02        13.2 0.15                          74.6 297 
 PAM  SZ EP   1   1839 47.66                             151    0.17 7 75.3  37 
 PAM  SN ES   1   1840  4.41                             151   -0.17 7 75.3  37 
 RUS  HZ EP   1   1839 49.02                             144   -0.10 7  100 178 
 RUS  HN ES   1   1840  7.50                             144    0.00 7  100 178 
 RUS  HZ I        1840  9.96         4.2 0.29                           100 178 
 ZAR  HZ EP   2   1839 58.57                             122    0.29 4  208 292 
 ZAR  HE ES   2   1840 23.22                             122   -0.57 4  208 292 
 ZAR  HZ I        1840 28.75         6.4 0.19                           208 292 
                                                                                
