 2016  5 7 2048 22.9 L   6.816 -73.139147.6  RSN 20 0.5 2.6LRSN                1
 GAP= 71        1.17       2.6     3.4  5.1 -0.2518E+00  0.4462E+01  0.1341E+01E
 Epicentro: LOS SANTOS - SANTANDER                                             3
 ACTION:UPD 16-08-18 17:43 OP:cam  STATUS:               ID:20160507204822 L   I
 OLDACT:UP  16-05-15 07:31 OP:ar   STATUS:               ID:20160507204822 L   3
 OLDACT:UP  16-05-08 05:24 OP:ar   STATUS:               ID:20160507204741     3
 OLDACT:REG 16-05-08 02:34 OP:ar   STATUS:               ID:20160507204741     3
 2016-05-07-2047-41M.COL___310                                                 6
 STAT SP IPHASW D HRMM SECON CODA AMPLIT PERI AZIMU VELO AIN AR TRES W  DIS CAZ7
 BAR2 EZ IP     C 2048 42.60                             170   -0.2110 25.2 191 
 BAR2 EZ ES       2048 57.83                             170   -0.5010 25.2 191 
 BAR2 EZ I        2049  0.64        42.0 0.22            170           25.2 191 
 BRR  HZ EP       2048 44.57                             153    0.3110 71.0 297 
 BRR  HN ES       2049  1.98                             153    1.0810 71.0 297 
 BRR  HZ I        2049  5.98        43.8 0.48            150           71.0 297 
 PAM  EZ IP     D 2048 45.39                             152    0.1610 75.6  40 
 PAM  EN ES       2049  2.62                             152   -0.0110 75.6  40 
 PAM  EZ I        2049  4.68        33.7 0.22            154           75.6  40 
 RUS  HZ IP     C 2048 46.47                             144   -0.5010  102 177 
 RUS  HN ES       2049  5.11                             144   -0.6310  102 177 
 RUS  HZ I        2049  6.38        21.2 0.38            146            102 177 
 PTB  HZ EP       2048 49.43                             132   -0.70 9  149 258 
 PTB  HN ES       2049 10.51                             132   -0.85 9  149 258 
 PTB  HZ I        2049 16.39        41.8 0.26            131            149 258 
 TAM  HN ES       2049 12.63                             131    0.22 9  155 106 
 OCA  HZ EP       2048 51.07                             130   -0.15 9  159 353 
 OCA  HN ES       2049 13.43                             130    0.13 9  159 353 
 OCA  HZ I        2049 18.46        88.6 0.22            131            159 353 
 SPBC HZ EP       2048 51.60                             129   -0.13 9  165 219 
 SPBC HN ES       2049 13.96                             129   -0.24 9  165 219 
 SPBC HZ I        2049 20.67        85.4 0.34            130            165 219 
 ZAR  HZ EP       2048 55.29                             123   -0.20 9  204 292 
 ZAR  HN ES       2049 21.19                             123    0.30 9  204 292 
 ZAR  HZ I        2049 26.12        40.1 0.42            122            204 292 
 NOR  HZ EP       2048 58.78                             119   -0.14 8  236 234 
 NOR  HN ES       2049 27.90                             119    0.89 8  236 234 
 NOR  HZ I        2049 30.28        33.8 0.18            119            236 234 
 SML  HZ EP       2048 59.39                             118   -0.12 8  242 335 
 SML  HN ES       2049 28.78                             118    0.73 8  242 335 
 SML  HZ I        2049 35.27        49.5 0.10            118            242 335 
 CHI  HZ EP       2049  0.77                             117   -0.15 8  250 195 
 CHI  HN ES       2049 31.13                             117    0.57 8  250 195 
 CHI  HZ I        2049 35.81        11.7 0.32            118            250 195 
 ROSC BZ EP       2049  1.68                             117    0.34 8  255 211 
 ROSC BN ES   4   2049 34.39                             117    3.08 0  255 211 
 ROSC BZ I        2049 40.44        38.3 0.45            118            255 211 
 HEL  HZ EP   9   2049  4.71                             115    1.36 0  273 255 
 HEL  HN ES       2049 36.24                             115   -0.01 8  273 255 
 HEL  HZ I        2049 41.21        12.2 0.30            115            273 255 
 URE  HZ EP       2049  3.32                             114   -0.76 7  284 292 
 URE  HN ES   4   2049 34.22                             114   -1.97 0  284 292 
 URE  HZ I        2049 41.04        21.2 0.16            114            284 292 
 VIL  SZ EP       2049  7.23                             112    0.60 7  305 192 
 VIL  SN ES       2049 41.85                             112    1.13 7  305 192 
 DBB  SZ EP       2049 10.40                             110   -0.14 7  340 274 
 DBB  SZ ES       2049 47.08                             110   -0.60 7  340 274 
 DBB  SZ I        2049 49.12        39.6 0.44            110            340 274 
 PRA  HZ EP       2049 16.97                             107    0.25 6  394 210 
 PRA  HN ES   4   2049 57.75                             107   -0.93 0  394 210 
 PRA  HZ I        2050  3.12        14.4 0.46            107            394 210 
 ORTC HZ EP       2049 17.62                             106    0.51 6  397 216 
 ORTC HN ES       2049 59.56                             106    0.17 6  397 216 
 ORTC HZ I        2050  3.73        10.2 0.58            107            397 216 
 CRJC HZ EP       2049 24.86                             104   -0.40 5  466   3 
 CRJC HN ES   4   2050 10.62                             104   -3.26 0  466   3 
 CRJC HZ I        2050 35.72         8.3 0.14            104            466   3 
                                                                                
