 2012  4 7 2016  8.9 L   6.752 -73.179137.4  RSN  5 0.3 1.3LRSN                1
 GAP=134        0.58       5.6     6.5 12.1 -0.8215E+01  0.3181E+02 -0.2295E+02E
 Epicentro: VILLANUEVA - SANTANDER                                             3
 ACTION:UPD 12-07-05 11:51 OP:tino STATUS:               ID:20120407201608 L   I
 2012-04-07-2010-00M.COL___196                                                 6
 STAT SP IPHASW D HRMM SECON CODA AMPLIT PERI AZIMU VELO AIN AR TRES W  DIS CAZ7
 BAR2 SZ EP   2   2016 26.67                             172    -0.7 5   18 181 
 BAR2 SZ I        2016 27.74         6.2 0.31                            18 181 
 BRR  HZ EP   2   2016 29.50                             151     0.4 5   71 304 
 BRR  HZ I        2016 29.88         7.1 0.20                            71 304 
 PAM  SZ EP   2   2016 30.70                             147     0.1 5   84  39 
 PAM  SN ES   2   2016 47.59                             147     0.0 5   84  39 
 RUS  HZ EP   2   2016 31.79                             143     0.3 5   96 174 
 RUS  HZ I        2016 33.06         3.3 0.15                            96 174 
 RUS  HN ES   1   2016 49.07                             143     0.0 7   96 174 
 PTB  HZ EP   2   2016 34.48                             131    -0.3 5  143 261 
 PTB  HZ I        2016 35.46         1.9 0.15                           143 261 
 PTB  HN ES   2   2016 55.00                             131     0.1 5  143 261 
                                                                                
