 2014  9 7 2046 35.2 L   6.792 -73.153140.6  RSN 28 0.5 2.8LRSN                1
 GAP= 71        1.61       3.3     4.0  6.6 -0.1415E+01  0.7637E+01  0.4363E+01E
 Epicentro: LOS SANTOS - SANTANDER                                             3
      29.0      54.0    -162.0  6.0  6.0  4.0  0.0  0.1           RSN FPFIT    F
 ACTION:UPD 14-10-03 23:03 OP:nd   STATUS:               ID:20140907204635 L   I
 OLDACT:DUP 14-09-08 06:18 OP:stll STATUS:               ID:20140907203821d    3
 2014-09-07-2038-20M.COL___263                                                 6
 STAT SP IPHASW D HRMM SECON CODA AMPLIT PERI AZIMU VELO AIN AR TRES W  DIS CAZ7
 BAR2 SZ IP     D 2046 54.45                             170    0.2810 22.4 188 
 BAR2 SZ ES       2047  8.63                             170   -0.3610 22.4 188 
 BAR2 SZ I        2047 10.82       253.8 0.18            169           22.4 188 
 BRR  HZ EP     D 2046 56.28                             152    0.5210 70.9 299 
 BRR  HN ES       2047 12.36                             152    0.5510 70.9 299 
 BRR  HZ I        2047 18.01        82.2 0.12            147           70.9 299 
 PAM  SZ EP     D 2046 57.24                             149    0.3110 78.6  40 
 PAM  SZ I        2046 57.54       136.8 0.24            151           78.6  40 
 PAM  SN ES       2047 14.07                             149    0.1910 78.6  40 
 RUS  HZ IP     C 2046 58.31                             143   -0.0610 99.8 176 
 RUS  HE ES       2047 16.46                             143   -0.0010 99.8 176 
 RUS  HZ I        2047 18.24        85.5 0.30            143           99.8 176 
 PTB  HZ EP       2047  1.24                             131   -0.41 9  147 259 
 PTB  HE ES       2047 22.19                             131   -0.10 9  147 259 
 PTB  HZ I        2047 24.01        86.0 0.18            128            147 259 
 TAM  HZ IP     D 2047  2.71                             129    0.20 9  156 105 
 TAM  HZ I        2047  2.78        85.0 0.20            131            156 105 
 TAM  HN ES       2047 23.66                             129   -0.17 9  156 105 
 OCA  HZ EP       2047  2.82                             128   -0.35 9  161 353 
 OCA  HE ES       2047 24.50                             128   -0.50 9  161 353 
 OCA  HZ I        2047 27.80        79.8 0.42            127            161 353 
 SPBC HZ EP       2047  3.25                             128    0.07 9  162 219 
 SPBC HN ES       2047 24.84                             128   -0.17 9  162 219 
 SPBC HZ I        2047 31.17       124.8 0.36            126            162 219 
 ZAR  HZ EP       2047  7.13                             121   -0.12 9  204 292 
 ZAR  HE ES       2047 32.46                             121    0.20 9  204 292 
 ZAR  HZ I        2047 40.91        71.3 0.32            119            204 292 
 NOR  HZ EP       2047 10.46                             117   -0.03 8  234 235 
 NOR  HN ES       2047 38.27                             117    0.24 8  234 235 
 NOR  HZ I        2047 44.29        68.0 0.46            116            234 235 
 SML  HZ EP       2047 11.23                             116   -0.34 8  244 336 
 SML  HN ES       2047 39.97                             116    0.02 8  244 336 
 SML  HZ I        2047 48.90        75.3 0.28            115            244 336 
 CHI  HZ EP       2047 12.61                             116    0.12 8  248 195 
 CHI  HZ I        2047 13.33        28.7 0.26            115            248 195 
 CHI  HN ES       2047 40.16                             116   -1.43 8  248 195 
 ROSC BZ IP     C 2047 14.18                             116    1.28 8  252 211 
 ROSC BE ES       2047 42.75                             116    0.43 8  252 211 
 ROSC BZ I        2047 50.29        82.6 0.35            115            252 211 
 HEL  HZ EP       2047 15.84                             114    0.81 8  271 256 
 HEL  HN ES       2047 46.90                             114    0.80 8  271 256 
 HEL  HZ I        2047 54.35        42.0 0.28            112            271 256 
 URE  HZ EP       2047 15.03                             112   -0.93 7  283 292 
 GUY2CHZ EP       2047 18.72                             111    0.29 7  300 235 
 GUY2CHN ES       2047 52.35                             111    0.20 7  300 235 
 GUY2CHZ I        2048  1.00        68.6 0.36                           300 235 
 VIL  SZ EP       2047 17.16                             111   -1.10 7  302 191 
 VIL  SZ I        2047 24.63        28.4 0.26            111            302 191 
 VIL  SN ES       2047 51.58                             111   -0.27 7  302 191 
 CBOC HZ EP       2047 22.02                             109    0.25 7  333 252 
 CBOC HN ES       2047 58.56                             109    0.46 7  333 252 
 DBB  SZ EP     D 2047 21.49                             108   -0.88 7  339 274 
 DBB  SZ I        2048  2.39        51.7 0.52            107            339 274 
 TOL  SZ EP       2047 23.78                             108    0.68 7  342 225 
 TOL  SN ES       2048  0.31                             108   -0.16 7  342 225 
 MON  HZ EP   9   2047 21.82                             108   -2.15 0  354 309 
 MON  HN ES       2047 58.79                                   -1.09 6  354 309 
 MON  HZ I        2048  2.51        12.5 0.66            107            354 309 
 ANIL HZ EP     D 2047 25.81                             107    1.15 6  356 225 
 ANIL HN ES       2048  1.96                             107   -1.28 6  356 225 
 ANIL HZ I        2048 15.36         7.7 0.32            107            356 225 
 SDV  BZ EP   9   2047 23.45                             107   -1.72 0  362  50 
 SDV  BZ I        2047 24.58        15.8 0.35            107            362  50 
 SDV  BE ES       2048  0.52                                   -1.92 6  362  50 
 PRA  HZ EP       2047 27.84                             106   -0.56 6  391 210 
 PRA  HN ES       2048  9.88                             106   -0.02 6  391 210 
 PRA  HZ I        2048 16.99        48.3 0.24            105            391 210 
 ORTC HZ EP       2047 28.48                             105   -0.31 6  394 216 
 ORTC HE ES       2048 10.14                             105   -0.47 6  394 216 
 ORTC HZ I        2048 18.29        27.6 0.60            105            394 216 
 SJC  HZ EP   9   2047 28.85                             105   -1.76 0  409 327 
 SJC  HN ES       2048  8.74                                   -3.34 6  409 327 
 SJC  HZ I        2048 13.41        10.1 0.28            104            409 327 
 YOT  HZ EP       2047 37.66                             102   -0.29 5  471 229 
 YOT  HZ I        2047 40.18         4.7 0.46            102            471 229 
 SMAR HZ EP   9   2047 39.39                             101   -1.61 0  498 346 
 SMAR HN ES       2048 26.60                                   -4.13 4  498 346 
                                                                                
