 2016  5 7 2142 33.7 L   6.752 -73.135142.4  RSN  8 0.5 2.0LRSN                1
 GAP=140        1.20       4.7     4.9  7.3 -0.3057E+01  0.1084E+02  0.1918E+01E
 Epicentro: LOS SANTOS - SANTANDER                                             3
 ACTION:UPD 16-08-18 17:43 OP:cam  STATUS:               ID:20160507214233 L   I
 OLDACT:REG 16-05-08 02:38 OP:ar   STATUS:               ID:20160507213742     3
 2016-05-07-2137-42M.COL___307                                                 6
 STAT SP IPHASW D HRMM SECON CODA AMPLIT PERI AZIMU VELO AIN AR TRES W  DIS CAZ7
 BAR2 EZ IP     D 2142 52.85                             172   -0.0210 18.4 197 
 BAR2 EZ ES       2143  7.70                             172   -0.1010 18.4 197 
 BAR2 EZ I        2143 10.66        18.6 0.26            169           18.4 197 
 BRR  HZ EP       2142 54.73                             151   -0.0110 74.9 302 
 BRR  HN ES       2143 11.77                             151    0.6510 74.9 302 
 BRR  HZ I        2143 15.01        18.3 0.14            149           74.9 302 
 PAM  EZ EP       2142 55.74                             149   -0.0710 80.8  36 
 PAM  EN ES       2143 12.63                             149   -0.3910 80.8  36 
 PAM  EZ I        2143 13.23        16.4 0.34            155           80.8  36 
 RUS  HZ EP       2142 56.72                             145   -0.0510 95.2 177 
 RUS  HN ES       2143 15.42                             145    0.6810 95.2 177 
 RUS  HZ I        2143 16.19         6.2 0.24            146           95.2 177 
 PTB  HZ EP       2142 59.51                             131   -0.94 9  148 261 
 PTB  HN ES       2143 20.88                             131   -0.41 9  148 261 
 PTB  HZ I        2143 25.25        12.4 0.14            131            148 261 
 SPBC HZ EP       2143  1.84                             129    0.18 9  160 221 
 SPBC HE ES       2143 22.66                             129   -0.78 9  160 221 
 SPBC HZ I        2143 30.51        29.6 0.24            130            160 221 
 ZAR  HZ EP       2143  7.15                             121    0.86 8  207 293 
 ZAR  HN ES       2143 31.69                             121    0.01 8  207 293 
 ZAR  HZ I        2143 37.24        20.2 0.24            122            207 293 
 NOR  HZ EP       2143  9.29                             118    0.24 8  233 236 
 NOR  HN ES       2143 36.90                             118    0.31 8  233 236 
 NOR  HZ I        2143 42.99        13.6 0.18            119            233 236 
                                                                                
