 2017  9 7 2208  5.8 L   7.516 -72.939154.9  RSN  7 0.5 1.7LRSN                1
 GAP=217        1.13       8.2     7.7  7.8 -0.1981E+02  0.1918E+02  0.3784E+01E
 Epicentro: SURATA - SANTANDER                                                 3
 ACTION:UPD 17-10-05 19:10 OP:rebc STATUS:               ID:20170907220805 L   I
 OLDACT:REG 17-09-08 04:09 OP:osc  STATUS:               ID:20170907220738     3
 2017-09-07-2208-00M.COL___414                                                 6
 STAT SP IPHASW D HRMM SECON CODA AMPLIT PERI AZIMU VELO AIN AR TRES W  DIS CAZ7
 PAM  EZ EP       22 8 27.36                             167    0.2810 32.9 126 
 PAM  EE ES       22 8 44.32                             167    0.6110 32.9 126 
 PAM  EZ I        22 8 45.90        10.7 0.24            172           32.9 126 
 BRR  HZ EP       22 8 28.88                             146   -0.5610 96.6 242 
 BRR  HE ES       22 8 47.43                             146   -0.4910 96.6 242 
 BAR2 EZ EP       22 8 30.19                             144   -0.2210  106 195 
 BAR2 EZ ES       22 8 49.82                             144    0.1810  106 195 
 BAR2 EZ I        22 8 53.72        14.0 0.24            146            106 195 
 RUS  HZ EP       22 8 37.14                             128    0.02 9  180 185 
 RUS  HE ES       22 9  0.76                             128   -0.81 9  180 185 
 RUS  HZ I        22 9  2.29         1.6 0.26            131            180 185 
 ZAR  HZ EP   3   22 8 38.09                             123   -1.51 2  212 269 
 ZAR  HE ES   4   22 9  3.34                             123   -2.66 0  212 269 
 ZAR  HZ I        22 9 11.17         3.6 0.17            124            212 269 
 NOR  HZ EP       22 8 49.99                             114    0.46 7  304 225 
 NOR  HE ES       22 9 24.32                             114    0.64 7  304 225 
 NOR  HZ I        22 9 28.40         2.7 0.18            115            304 225 
 GUY2CHZ EP       22 8 57.58                             109    0.07 6  369 227 
 GUY2CHE ES       22 9 38.70                             109    0.83 6  369 227 
 GUY2CHZ I        22 9 47.33         2.3 0.46                           369 227 
                                                                                
