 2010  1 7 2326  8.0 L   6.805 -73.222142.0  RSN  8 0.4 1.9LRSN                1
 GAP=149        0.66       2.9     7.8  8.3 -0.4887E+01  0.3852E+02 -0.5832E+01E
 Epicentro: ZAPATOCA - SANTANDER                                               3
 ACTION:UP  10-08-24 09:43 OP:vdl  STATUS:               ID:20100107232608 L   I
 2010-01-07-2321-47S.COL___097                                                 6
 STAT SP IPHASW D HRMM SECON CODA AMPLIT PERI AZIMU VELO SNR AR TRES W  DIS CAZ7
 BAR2 SZ EP   1   2326 27.15                             170    -0.1 7   24 170 
 BAR2 SZ ES   2   2326 41.89                             170    -0.3 5   24 170 
 RUS  BZ EP   2   2326 31.14                             143    -0.4 5  102 171 
 RUS  BN ES   1   2326 49.60                             143    -0.2 7  102 171 
 RUS  BZ I        2326 51.44        10.8 0.31                           102 171 
 GUE  SZ EP   1   2326 32.34                             138    -0.2 7  118  16 
 GUE  SZ ES   2   2326 51.73                             138     0.1 5  118  16 
 GRA  SZ EP   2   2326 33.06                             136     0.0 5  128  21 
 GRA  SZ ES   1   2326 53.12                             136     0.4 7  128  21 
 OCA  SZ EP   1   2326 35.89                             129     0.0 7  159 356 
 CHI  HZ EP   2   2326 45.32                             117     0.0 4  247 193 
 CHI  HN ES   1   2327 15.11                             117     0.7 6  247 193 
 CHI  HZ I        2327 21.02         3.0 0.42                           247 193 
 MON  HZ EP   1   2326 55.08                             108    -0.9 5  346 309 
 MON  HE ES   1   2327 33.85                             108     0.4 5  346 309 
 PRA  HZ EP   2   2327  1.74                             106     0.8 3  388 208 
 PRA  HZ I        2327 50.37         4.6 0.49                           388 208 
                                                                                
