 2012 12 7 2100 35.3 L   6.820 -73.179139.1  RSN  9 0.3 2.4LRSN                1
 GAP=131        0.66       2.1     3.1  3.8 -0.4965E+00  0.4232E+01  0.1015E+01E
 Epicentro: LOS SANTOS - SANTANDER                                             3
 ACTION:UPD 13-01-04 14:26 OP:ep   STATUS:               ID:20121207210035 L   I
 2012-12-07-2100-00M.COL___243                                                 6
 STAT SP IPHASW D HRMM SECON CODA AMPLIT PERI AZIMU VELO AIN AR TRES W  DIS CAZ7
 BAR2 SZ EP       21 0 54.25                             169    0.0910 25.2 181 
 BAR2 SZ I        21 0 54.42       119.6 0.22                          25.2 181 
 BAR2 SZ ES       21 1  9.09                             169    0.2110 25.2 181 
 GIR2 SZ EP       21 0 54.28                             168    0.1810 28.6 357 
 GIR2 SZ ES       21 1  8.56                             168   -0.2010 28.6 357 
 GIR2 SZ I        21 1 11.08        52.2 0.30                          28.6 357 
 PAM  SZ EP       21 0 57.10                             149    0.2610 78.1  43 
 PAM  SE ES       21 1 13.80                             149    0.1510 78.1  43 
 PAM  SZ I        21 1 16.06        47.4 0.45                          78.1  43 
 RUS  HZ EP       21 0 58.31                             142   -0.2810  103 174 
 RUS  HN ES       21 1 16.67                             142   -0.0810  103 174 
 RUS  HN I        21 1 18.65        43.1 0.37                           103 174 
 PTB  HZ EP       21 1  0.96                             131   -0.48 9  145 258 
 PTB  HN ES       21 1 21.74                             131   -0.09 9  145 258 
 PTB  HZ I        21 1 27.92        34.3 0.22                           145 258 
 OCA  HZ EP   1   21 1  2.52                             129   -0.32 7  158 354 
 OCA  HE ES       21 1 24.00                             129   -0.32 9  158 354 
 ZAR  HZ EP       21 1  7.11                             121    0.24 9  200 292 
 ZAR  HE ES   1   21 1 32.06                             121    0.56 6  200 292 
 ZAR  HZ I        21 1 39.17        36.1 0.28                           200 292 
 CHI  HZ EP       21 1 12.69                             116   -0.08 8  250 194 
 CHI  HE ES       21 1 41.98                             116   -0.02 8  250 194 
 CHI  HZ I        21 1 45.24         7.9 0.34                           250 194 
 TOL  SZ EP       21 1 23.75                             108    0.57 7  343 224 
                                                                                
