 2011  1 7 2232 47.4 L   6.770 -73.142142.0  RSN  7 0.2 1.7LRSN                1
 GAP=159        0.37       4.2     7.9  4.6 -0.2546E+00  0.1522E+02  0.5562E+00E
 Epicentro: LOS SANTOS - SANTANDER                                             3
 ACTION:UP  11-02-08 08:39 OP:pat  STATUS:               ID:20110107223247 L   I
 2011-01-07-2220-00M.COL___136                                                 6
 STAT SP IPHASW D HRMM SECON CODA AMPLIT PERI AZIMU VELO SNR AR TRES W  DIS CAZ7
 BAR2 SZ EP       2233  6.35                             171    -0.110   20 193 
 BAR2 SZ ES   1   2233 21.36                             171     0.0 7   20 193 
 BTL  SZ IP       2233  6.64                             171     0.110   22 320 
 GIR2 SZ EP   3   2233  6.49                             166    -0.2 2   35 351 
 RUS  HZ EP       2233 10.62                             144     0.110   97 176 
 RUS  HZ I        2233 11.33         7.2 0.21                            97 176 
 RUS  HN ES   2   2233 28.57                             144     0.0 5   97 176 
 GRA  SZ EP   3   2233 12.42                             135    -0.1 2  129  17 
 NOR  SZ EP   1   2233 22.76                             118     0.0 6  233 235 
 CHI  HZ EP   3   2233 23.57                             117    -1.0 2  246 195 
 CHI  HZ I        2233 58.17         3.6 0.39                           246 195 
                                                                                
