 2011  7 7 2325 46.2 L   6.829 -73.010133.0  RSN  7 0.5 1.8LRSN                1
 GAP=171        1.16       5.7    12.1 14.3 -0.6669E+01 -0.5897E+02 -0.1386E+02E
 Epicentro: CEPITA - SANTANDER                                                 3
 ACTION:UPD 12-07-25 13:59 OP:epov STATUS:               ID:20110707232546 L   I
 2011-07-07-2323-11S.COL___140                                                 6
 STAT SP IPHASW D HRMM SECON CODA AMPLIT PERI AZIMU VELO AIN AR TRES W  DIS CAZ7
 BAR2 SZ EP   3   2326  5.69                             166    1.16 2 32.4 216 
 GIR2 SZ EP       2326  4.61                             165    0.1610 34.3 324 
 BRR  HZ EP       2326  6.56                             146   -0.2110 83.5 292 
 BRR  HZ I        2326  8.77        19.0 0.28                          83.5 292 
 BRR  HN ES   1   2326 22.98                             146    0.16 7 83.5 292 
 BRI  SZ EP       2326  9.22                             141    0.9210  101  13 
 RUS  HZ EP       2326  9.12                             140    0.1510  104 184 
 RUS  HN ES   1   2326 26.34                             140   -0.39 7  104 184 
 RUS  HZ I        2326 27.81         4.6 0.38                           104 184 
 GRA  SZ EP       2326  8.84                             136   -0.9010  119  11 
 GRA  SZ ES   1   2326 27.98                             136   -0.12 7  119  11 
 OCA  SZ EP       2326 13.43                             127   -0.05 9  160 348 
 OCA  SZ I        2326 36.25        13.4 0.33                           160 348 
                                                                                
