 2014  8 7 2108 57.9 L   6.797 -73.155147.4  RSN  6 0.4 1.7LRSN                1
 GAP=135        1.05       6.7     5.6  8.4 -0.1491E+02  0.4498E+01  0.1970E+02E
 Epicentro: LOS SANTOS - SANTANDER                                             3
 ACTION:UPD 14-09-15 21:47 OP:nd   STATUS:               ID:20140807210857 L   I
 OLDACT:REG 14-08-08 04:02 OP:mh   STATUS:               ID:20140807210820     3
 2014-08-07-2108-20M.COL___254                                                 6
 STAT SP IPHASW D HRMM SECON CODA AMPLIT PERI AZIMU VELO AIN AR TRES W  DIS CAZ7
 BRR  HZ EP       21 9 19.23                             153    0.0410 70.5 299 
 BRR  HN ES       21 9 36.53                             153    0.7410 70.5 299 
 BRR  HZ I        21 9 48.62        10.3 0.65            150           70.5 299 
 PAM  SZ EP       21 9 20.71                             151    0.3610 78.3  40 
 PAM  SN ES       21 9 37.34                             151   -0.5110 78.3  40 
 PAM  SZ I        21 9 40.49         5.3 0.49            153           78.3  40 
 RUS  HZ EP   1   21 9 21.84                             144    0.04 7  100 175 
 RUS  HN ES   1   21 9 40.46                             144    0.02 7  100 175 
 PTB  HZ EP       21 9 24.76                             133   -0.15 9  147 259 
 PTB  HN ES       21 9 45.16                             133   -0.81 9  147 259 
 NOR  HZ EP       21 9 33.45                             119   -0.17 8  234 234 
 NOR  HN ES       2110  1.91                             119    0.43 8  234 234 
 GUY2CHZ EP       21 9 41.48                             113    0.01 7  300 235 
 GUY2CHE ES   4   2110 18.20                             113    2.74 0  300 235 
 GUY2CHZ I        2110 24.41         3.6 0.32                           300 235 
                                                                                
