 2015 10 7 2154 20.5 L   6.819 -73.115146.0  RSN 19 0.4 2.6LRSN                1
 GAP=139        0.94       2.5     3.9  4.7 -0.1444E+01  0.6422E+01  0.1362E+01E
 Epicentro: LOS SANTOS - SANTANDER                                             3
 ACTION:UPD 15-12-22 20:38 OP:cam  STATUS:               ID:20151007215420 L   I
 OLDACT:UP  15-10-08 02:59 OP:ar   STATUS:               ID:20151007214751     3
 OLDACT:REG 15-10-08 02:36 OP:ar   STATUS:               ID:20151007214751     3
 2015-10-07-2147-51M.COL___337                                                 6
 STAT SP IPHASW D HRMM SECON CODA AMPLIT PERI AZIMU VELO AIN AR TRES W  DIS CAZ7
 BAR2 EZ IP     C 2154 40.17                             169   -0.0910 26.1 196 
 BAR2 EZ ES       2154 55.22                             169   -0.4110 26.1 196 
 BAR2 EZ I        2154 57.90        78.7 0.32            166           26.1 196 
 BRR  HZ EP     C 2154 42.06                             152    0.2310 73.2 296 
 BRR  HN ES       2154 59.32                             152    0.8910 73.2 296 
 BRR  HZ I        2155  2.95        57.5 0.32            150           73.2 296 
 PAM  EZ EP       2154 43.00                             152    0.4410 73.7  39 
 PAM  EN ES       2155  0.10                             152    0.3610 73.7  39 
 PAM  EZ I        2155  0.80        40.3 0.30            152           73.7  39 
 RUS  HZ EP     C 2154 44.08                             143   -0.3710  102 178 
 RUS  HE ES       2155  3.06                             143   -0.0410  102 178 
 RUS  HZ I        2155  4.65        25.9 0.26            139            102 178 
 OCA  HZ EP       2154 48.37                             130   -0.35 9  159 352 
 OCA  HN ES       2155 10.24                             130   -0.46 9  159 352 
 OCA  HZ I        2155 13.54        70.7 0.42            128            159 352 
 SPBC HZ EP       2154 49.14                             128   -0.27 9  167 219 
 SPBC HN ES       2155 11.60                             128   -0.32 9  167 219 
 SPBC HZ I        2155 15.52        73.7 0.24            125            167 219 
 ZAR  HZ EP       2154 53.03                             122   -0.21 8  206 291 
 ZAR  HN ES       2155 18.24                             122   -0.51 8  206 291 
 ZAR  HZ I        2155 24.15        45.8 0.30            119            206 291 
 NOR  HZ EP       2154 56.49                             118   -0.21 8  239 235 
 NOR  HE ES       2155 25.21                             118    0.30 8  239 235 
 NOR  HZ I        2155 30.28        44.7 0.20            115            239 235 
 SML  HZ EP   2   2154 56.79                             118   -0.34 4  243 334 
 SML  HN ES   2   2155 24.91                             118   -0.76 4  243 334 
 SML  HZ I        2155 27.21        25.7 0.36            115            243 334 
 CHI  HZ EP     D 2154 58.27                             117   -0.29 8  251 196 
 CHI  HN ES       2155 27.90                             117   -0.32 8  251 196 
 CHI  HZ I        2155 33.05        19.1 0.42            114            251 196 
 ROSC BZ EP       2154 59.31                             116    0.26 8  256 211 
 ROSC BN ES       2155 29.25                             116    0.16 8  256 211 
 ROSC BZ I        2155 37.82        56.5 0.35            113            256 211 
 HEL  HZ EP   9   2155  2.21                             114    1.03 0  276 256 
 HEL  HN ES   2   2155 33.98                              37    0.07 4  276 256 
 HEL  HZ I        2155 38.61        20.7 0.36            112            276 256 
 URE  HZ EP   4   2155  0.06                             113   -1.82 0  286 291 
 URE  HN ES   4   2155 31.25                             113   -2.88 0  286 291 
 URE  HZ I        2155 42.59        23.1 0.24            111            286 291 
 GUY2CHZ EP       2155  5.13                             112    0.53 7  305 235 
 GUY2CHN ES   4   2155 42.13                             112    3.16 0  305 235 
 GUY2CHZ I        2155 46.70        37.1 0.42                           305 235 
 PTGC HZ EP   4   2155  2.82                             112   -1.67 0  309 159 
 PTGC HZ I        2155 34.72        22.4 0.38            109            309 159 
 PTGC HN ES   4   2155 36.15                             112   -2.61 0  309 159 
 CBOC HZ EP       2155  8.64                             110    0.74 7  337 252 
 CBOC HN ES   2   2155 44.54                             110   -0.30 3  337 252 
 CBOC HZ I        2155 52.39         8.2 0.28            107            337 252 
 DBB  SZ EP       2155  8.59                             109    0.20 7  343 274 
 DBB  SZ ES   2   2155 44.69                             109   -1.03 3  343 274 
 DBB  SZ I        2155 46.11        33.9 0.70            107            343 274 
 ANIL HZ EP       2155 11.74                             108    0.95 6  361 225 
 ANIL HE ES   4   2155 52.69                             108    2.70 0  361 225 
 ANIL HZ I        2155 57.28        33.3 0.38            106            361 225 
 SJC  HZ EP   4   2155 14.59                             106   -1.53 0  409 326 
 SJC  HN ES   4   2155 56.20                             106   -3.28 0  409 326 
 SJC  HZ I        2156  1.45         4.2 0.36            104            409 326 
                                                                                
