 2015  6 7 2353 11.6 L   6.793 -73.119152.0  RSN 17 0.4 2.2LRSN                1
 GAP=140        0.80       2.2     3.5  4.4 -0.1621E+01  0.4656E+01  0.1595E+01E
 Epicentro: LOS SANTOS - SANTANDER                                             3
 ACTION:UPD 15-09-10 22:10 OP:cam  STATUS:               ID:20150607235311 L   I
 OLDACT:UP  15-06-08 08:26 OP:sp   STATUS:               ID:20150607234748     3
 OLDACT:REG 15-06-08 03:14 OP:spq  STATUS:               ID:20150607234748     3
 2015-06-07-2347-48M.COL___300                                                 6
 STAT SP IPHASW D HRMM SECON CODA AMPLIT PERI AZIMU VELO AIN AR TRES W  DIS CAZ7
 BAR2 EZ EP       2353 31.65                             171   -0.2910 23.3 198 
 BAR2 EZ ES   1   2353 47.65                             171   -0.18 7 23.3 198 
 BAR2 EZ I        2353 49.64        24.5 0.26            168           23.3 198 
 BRR  HZ EP     C 2353 33.56                             153    0.0110 74.2 298 
 BRR  HE ES       2353 51.16                             153    0.4610 74.2 298 
 BRR  HZ I        2353 53.98        19.0 0.14            149           74.2 298 
 PAM  SN ES       2353 52.49                             152    0.3310 76.1  37 
 PAM  SZ I        2353 53.93        20.3 0.50            156           76.1  37 
 RUS  HZ EP   1   2353 35.35                             145   -0.51 7 99.6 178 
 RUS  HN ES   1   2353 54.67                             145   -0.15 7 99.6 178 
 RUS  HZ I        2353 57.18        10.0 0.42            147           99.6 178 
 OCA  HZ EP       2353 40.53                             131    0.06 9  161 352 
 OCA  HN ES       2354  2.99                             131   -0.03 9  161 352 
 OCA  HZ I        2354  7.04        32.1 0.50            132            161 352 
 SPBC HZ EP       2353 40.61                             130   -0.05 9  164 220 
 SPBC HN ES       2354  3.16                             130   -0.20 9  164 220 
 SPBC HZ I        2354  6.10        27.5 0.12            130            164 220 
 ZAR  HZ EP       2353 44.40                             123   -0.33 8  207 292 
 ZAR  HN ES       2354 10.37                             123   -0.23 8  207 292 
 ZAR  HZ I        2354 15.48        23.3 0.64            123            207 292 
 NOR  HZ EP       2353 47.88                             120    0.01 8  237 235 
 NOR  HN ES       2354 15.49                             120   -0.70 8  237 235 
 NOR  HZ I        2354 23.88         9.7 0.16            120            237 235 
 SML  HZ EP       2353 48.34                             118   -0.41 8  246 335 
 SML  HN ES   1   2354 17.78                             118    0.02 6  246 335 
 SML  HZ I        2354 23.32        23.7 0.10            119            246 335 
 CHI  HZ EP       2353 49.83                             118    0.22 8  249 196 
 CHI  HE ES   1   2354 19.37                             118    0.07 6  249 196 
 CHI  HZ I        2354 27.11         8.2 0.26            120            249 196 
 HEL  HZ EP   4   2353 53.86                             116    1.47 0  275 256 
 HEL  HE ES       2354 24.66                             116    0.42 8  275 256 
 HEL  HZ I        2354 29.99        12.2 0.34            116            275 256 
 GUY2CHZ EP       2353 56.62                             113    0.94 7  303 235 
 GUY2CHE ES   1   2354 30.02                             113   -0.08 5  303 235 
 GUY2CHZ I        2354 36.62         8.1 0.34                           303 235 
 PTGC HZ I        2354 27.06        21.3 0.50            115            307 159 
 PTGC HE ES   4   2354 28.04                             113   -1.73 0  307 159 
 TOL  SZ EP   4   2354  1.83                             110    1.58 0  345 225 
 TOL  SE ES   4   2354 40.74                             110    2.51 0  345 225 
 TOL  SZ I        2354 43.99         4.7 0.44            111            345 225 
 MON  HZ EP   4   2353 58.83                             109   -2.30 0  357 308 
 MON  HN ES   4   2354 38.02                             109   -1.78 0  357 308 
 MON  HZ I        2354 47.18         2.4 0.26            110            357 308 
 PRA  HZ EP       2354  5.75                             107    0.36 6  393 210 
 PRA  HN ES       2354 47.31                             107   -0.07 6  393 210 
 PRA  HZ I        2354 50.71         7.7 0.66            108            393 210 
 ORTC HZ EP   4   2354  6.98                             107    1.15 0  397 217 
 ORTC HE ES       2354 49.08                             107    0.92 6  397 217 
 ORTC HZ I        2354 55.33         4.2 0.68            108            397 217 
                                                                                
