 2010  1 7 2206  1.4 L   6.851 -73.327141.1  RSN  6 0.4 1.7LRSN                1
 GAP=124        0.52       3.9    14.4  9.7 -0.2906E+02  0.9184E+02 -0.1043E+02E
 Epicentro: ZAPATOCA - SANTANDER                                               3
 ACTION:UP  10-08-24 09:43 OP:vdl  STATUS:               ID:20100107220601 L   I
 2010-01-07-2203-37S.COL___097                                                 6
 STAT SP IPHASW D HRMM SECON CODA AMPLIT PERI AZIMU VELO SNR AR TRES W  DIS CAZ7
 BAR2 SZ ES   2   22 6 35.54                             166    -0.2 5   33 151 
 RUS  BZ EP   2   22 6 25.01                             140    -0.4 5  109 166 
 RUS  BE ES   2   22 6 43.82                             140    -0.2 5  109 166 
 RUS  BZ I        22 6 45.35         7.1 0.33                           109 166 
 GUE  SZ ES   2   22 6 44.93                             138     0.2 5  117  22 
 GRA  SZ EP   2   22 6 26.20                             135    -0.2 5  128  27 
 GRA  SZ ES   2   22 6 46.30                             135     0.3 5  128  27 
 CHI  HZ EP   2   22 6 39.07                             116     0.1 4  250 190 
 CHI  HE ES   2   22 7  9.12                             116     0.9 4  250 190 
 CHI  HZ I        22 7 12.76         4.2 0.95                           250 190 
 MON  HZ EP   2   22 6 47.69                             109    -0.3 3  334 310 
                                                                                
