 2012  8 7 2227 15.3 L   6.766 -73.146142.4  RSN  6 0.3 1.6LRSN                1
 GAP=138        0.59       3.7     4.5  5.4 -0.1149E+01  0.2673E+00  0.1323E+01E
 Epicentro: LOS SANTOS - SANTANDER                                             3
 ACTION:UPD 12-09-10 11:55 OP:ep   STATUS:               ID:20120807222715 L   I
 2012-08-07-2220-00M.COL___216                                                 6
 STAT SP IPHASW D HRMM SECON CODA AMPLIT PERI AZIMU VELO AIN AR TRES W  DIS CAZ7
 BAR2 SZ EP       2227 34.47                             172    0.0310 19.6 192 
 BAR2 SZ ES   1   2227 49.01                             172   -0.37 7 19.6 192 
 BAR2 SZ I        2227 50.37        12.3 0.28                          19.6 192 
 BRR  HZ EP       2227 36.36                             151    0.1810 73.1 301 
 BRR  HZ I        2227 36.74        18.6 0.30                          73.1 301 
 BRR  HE ES   1   2227 52.94                             151    0.46 7 73.1 301 
 PAM  SZ EP       2227 37.34                             149    0.0110 80.3  38 
 PAM  SZ I        2227 37.51         3.5 0.26                          80.3  38 
 PAM  SN ES   1   2227 54.24                             149   -0.28 7 80.3  38 
 RUS  HZ EP       2227 38.36                             144   -0.0810 96.8 176 
 RUS  HN ES   1   2227 56.83                             144    0.34 7 96.8 176 
 RUS  HZ I        2227 58.53         3.8 0.52                          96.8 176 
 PTB  HZ EP   2   2227 41.10                             131   -0.82 5  147 260 
 PTB  HN ES   2   2228  2.40                             131   -0.30 5  147 260 
 PTB  HZ I        2228  4.15         5.4 0.18                           147 260 
 CHI  HZ EP   3   2227 52.55                             117    0.15 2  245 195 
 CHI  HN ES   3   2228 21.85                             117    0.49 2  245 195 
 CHI  HZ I        2228 28.96         2.0 0.22                           245 195 
                                                                                
