 2011 11 7 2027 58.9 L   6.061 -73.268 11.4  RSN  5 0.5 1.4LRSN                1
 GAP=123        1.08       7.2    18.2 26.6  0.1128E+03  0.4681E+03  0.1571E+03E
 Epicentro: GAMBITA - SANTANDER                                                3
 ACTION:UPD 12-07-13 16:08 OP:ep   STATUS:               ID:20111107202758 L   I
 2011-11-07-2024-43S.COL___175                                                 6
 STAT SP IPHASW D HRMM SECON CODA AMPLIT PERI AZIMU VELO AIN AR TRES W  DIS CAZ7
 RUS  HZ IP     D 2028  4.17                             111   -0.1710 27.6 132 
 RUS  HN ES   1   2028  8.51                             111   -0.11 7 27.6 132 
 RUS  HZ I        2028 10.18        22.9 0.34                          27.6 132 
 BAR2 SZ EP       2028  8.64                              98   -0.1510 59.5   9 
 BRR  HZ EP       2028 19.22                              94    0.7010  126 337 
 BRR  HZ I        2028 20.23        12.1 0.46                           126 337 
 BRR  HE ES   1   2028 33.20                              94   -0.67 7  126 337 
 NOR  SZ EP       2028 26.50                              56   -0.25 9  186 253 
 HEL  HZ EP       2028 36.06                              56    0.81 8  251 273 
 HEL  HN ES   1   2029  3.00                              56   -0.65 6  251 273 
 HEL  HZ I        2029  4.00         2.8 0.38                           251 273 
                                                                                
