 2014  7 7 2310 57.6 L   6.764 -73.188132.6  RSN  8 0.4 1.5LRSN                1
 GAP=196        0.94       3.3     4.7  5.9  0.3855E+01  0.6210E+01 -0.4788E+00E
 Epicentro: LOS SANTOS - SANTANDER                                             3
 ACTION:UPD 15-03-16 20:42 OP:nd   STATUS:               ID:20140707231057 L   I
 OLDACT:UP  14-07-08 05:31 OP:spq  STATUS:               ID:20140707230819     3
 OLDACT:REG 14-07-08 02:56 OP:spq  STATUS:               ID:20140707230819     3
 2014-07-07-2308-19M.COL___268                                                 6
 STAT SP IPHASW D HRMM SECON CODA AMPLIT PERI AZIMU VELO AIN AR TRES W  DIS CAZ7
 BAR2 SZ EP       2311 15.04                             171   -0.5310 19.0 178 
 BAR2 SZ ES   1   2311 29.73                             171    0.16 7 19.0 178 
 BAR2 SZ I        2311 32.22         5.3 0.11            172           19.0 178 
 BRR  HZ EP       2311 17.67                             151    0.4510 69.2 303 
 BRR  HE ES       2311 32.96                             151    0.4410 69.2 303 
 BRR  HZ I        2311 38.64         7.8 0.32            149           69.2 303 
 RUS  HZ EP       2311 20.29                             142    0.4710 97.1 173 
 RUS  HN ES       2311 36.69                             142   -0.4510 97.1 173 
 RUS  HZ I        2311 39.71         3.9 0.30            146           97.1 173 
 PTB  HZ EP       2311 22.54                             130   -0.49 9  142 260 
 PTB  HE ES       2311 43.00                             130    0.14 9  142 260 
 PTB  HZ I        2311 44.67         3.6 0.16            131            142 260 
 ZAR  HZ EP       2311 28.85                             120   -0.08 9  201 294 
 ZAR  HE ES       2311 52.78                             120   -0.58 9  201 294 
 ZAR  HZ I        2312  3.99         2.1 0.30            121            201 294 
 SML  HZ EP       2311 34.05                             114    0.33 8  245 337 
 SML  HE ES       2312  1.66                             114   -0.22 8  245 337 
 SML  HZ I        2312  5.41         4.8 0.10            117            245 337 
 GUY2CHN ES       2312 13.26                             110    0.30 7  295 235 
 GUY2CHZ I        2312 21.88         1.8 0.30                           295 235 
 PRA  HZ EP       2311 50.22                             104    0.19 6  386 209 
 PRA  HN ES       2312 31.01                             104    0.10 6  386 209 
 PRA  HZ I        2312 36.03         1.8 0.30            107            386 209 
                                                                                
