 2012  2 7 2231  9.8 L   6.718 -73.420123.0  RSN  5 0.2 2.1LRSN                1
 GAP=103        0.45       3.5     2.9  4.3  0.2175E+01  0.3463E+01 -0.1530E+01E
 ACTION:UP  12-03-07 16:28 OP:epov STATUS:               ID:20120207223109 L   I
 2012-02-07-2230-00M.COL___188                                                 6
 STAT SP IPHASW D HRMM SECON CODA AMPLIT PERI AZIMU VELO AIN AR TRES W  DIS CAZ7
 BAR2 SZ EP       2231 26.93                             166    0.0210 29.7 118 
 BAR2 SZ I        2231 27.45        18.2 0.18                          29.7 118 
 BAR2 SZ ES       2231 40.15                             166   -0.0810 29.7 118 
 GIR2 SZ EP       2231 27.18                             158   -0.2610 47.1  32 
 BRR  HZ EP       2231 27.79                             155    0.2310 53.8 323 
 BRR  HZ I        2231 28.02        73.4 0.06                          53.8 323 
 BRR  HE ES   2   2231 41.71                             155    0.34 5 53.8 323 
 RUS  HZ EP   1   2231 31.45                             139    0.18 7 98.6 158 
 RUS  HE ES   1   2231 48.01                             139    0.03 7 98.6 158 
 PTB  HZ EP       2231 32.04                             133   -0.0610  116 260 
 PTB  HN ES   1   2231 49.34                             133   -0.12 7  116 260 
 PTB  HZ E        2235 17.61                                            116 260 
                                                                                
