 2015  4 7 2224 12.0 L   6.775 -73.083152.9  RSN  4 0.6 1.6LRSN                1
 GAP=174        1.34      12.7     8.9 12.2 -0.1388E+02  0.5621E+02 -0.1389E+02E
 Epicentro: LOS SANTOS - SANTANDER                                             3
 ACTION:UPD 15-06-03 16:53 OP:cam  STATUS:               ID:20150407222412 L   I
 OLDACT:UP  15-04-10 06:21 OP:FJMB STATUS:               ID:20150407222412 L   3
 OLDACT:REG 15-04-08 02:51 OP:fm   STATUS:               ID:20150407221749     3
 2015-04-07-2217-49M.COL___261                                                 6
 STAT SP IPHASW D HRMM SECON CODA AMPLIT PERI AZIMU VELO AIN AR TRES W  DIS CAZ7
 BAR2 EZ EP       2224 32.79                             171    0.2710 23.0 208 
 BAR2 EZ ES       2224 48.49                             171   -0.0110 23.0 208 
 PAM  SZ EP       2224 35.69                             153    0.7810 75.5  34 
 PAM  SN ES       2224 52.20                             153   -0.5510 75.5  34 
 PAM  SZ I        2224 54.71         5.2 0.46            157           75.5  34 
 PTB  HZ EP       2224 39.76                             132   -0.40 9  154 260 
 PTB  HZ I        2225  2.77         5.3 0.14            123            154 260 
 ZAR  HZ EP       2224 44.89                             123   -0.83 8  211 292 
 ZAR  HN ES       2225 12.60                             123    0.61 8  211 292 
 ZAR  HZ I        2225 17.21         5.1 0.28            117            211 292 
                                                                                
