 2012  8 7 2330 44.2 L   6.771 -73.141140.0  RSN  6 0.4 1.4LRSN                1
 GAP=138        0.35       6.2     6.2  8.6  0.9972E+01 -0.5642E+01  0.3217E+02E
 Epicentro: LOS SANTOS - SANTANDER                                             3
 ACTION:UPD 12-09-10 11:55 OP:ep   STATUS:               ID:20120807233044 L   I
 2012-08-07-2330-00M.COL___216                                                 6
 STAT SP IPHASW D HRMM SECON CODA AMPLIT PERI AZIMU VELO AIN AR TRES W  DIS CAZ7
 BAR2 SZ EP   3   2331  3.06                             171    0.03 2 20.2 193 
 BAR2 SZ ES   3   2331 17.18                             171   -0.58 2 20.2 193 
 BAR2 SZ I        2331 19.44         5.8 0.48                          20.2 193 
 BRR  HZ EP   3   2331  4.68                             151   -0.12 2 73.2 301 
 BRR  HN ES   2   2331 21.22                             151    0.31 5 73.2 301 
 BRR  HZ I        2331 31.85         7.3 0.18                          73.2 301 
 PAM  SN ES   3   2331 22.52                             149   -0.34 2 79.6  38 
 PAM  SZ I        2331 24.51         4.7 0.48                          79.6  38 
 RUS  HZ EP       2331  7.10                             144   -0.0110 97.3 176 
 RUS  HN ES   3   2331 25.45                             144    0.44 2 97.3 176 
 RUS  HZ I        2331 27.32         3.4 0.24                          97.3 176 
 PTB  HZ EP   3   2331 10.56                             131   -0.09 2  148 260 
 PTB  HN ES   3   2331 30.44                             131   -0.87 2  148 260 
 PTB  HZ I        2331 32.53         3.4 0.24                           148 260 
 CHI  HZ EP   3   2331 21.71                             116    0.50 2  246 195 
 CHI  HN ES   3   2331 50.04                             116   -0.08 2  246 195 
                                                                                
