 2017  7 7 2019 42.6 L   6.731 -73.106140.5  RSN  8 0.4 1.9LRSN                1
 GAP=175        0.92       4.5     4.2  5.8 -0.7246E+01  0.4919E+01  0.3054E+01E
 Epicentro: JORDAN - SANTANDER                                                 3
 ACTION:UPD 17-08-30 15:30 OP:rebc STATUS:               ID:20170707201942 L   I
 OLDACT:DUP 17-07-08 03:31 OP:dhb  STATUS:               ID:20170707201744d    3
 OLDACT:UP  17-07-08 03:26 OP:dhb  STATUS:               ID:20170707201743     3
 OLDACT:REG 17-07-08 02:27 OP:dhb  STATUS:               ID:20170707201743     3
 2017-07-07-2018-00M.COL___383                                                 6
 STAT SP IPHASW D HRMM SECON CODA AMPLIT PERI AZIMU VELO AIN AR TRES W  DIS CAZ7
 BAR2 EZ EP       2020  1.72                             173    0.1910 17.5 209 
 BAR2 EZ ES       2020 16.27                             173    0.0110 17.5 209 
 BAR2 EZ I        2020 17.84        21.3 0.26            170           17.5 209 
 BRR  HZ EP       2020  3.72                             149    0.0410 78.8 302 
 BRR  HN ES       2020 20.74                             149    0.6410 78.8 302 
 BRR  HZ I        2020 21.08        23.0 0.36            151           78.8 302 
 PAM  EZ IP     C 2020  4.68                             149    0.1610 80.9  34 
 PAM  EE ES       2020 21.07                             149   -0.5110 80.9  34 
 PAM  EZ I        2020 23.78         8.3 0.54            153           80.9  34 
 PTB  HZ EP       2020  8.77                             130   -0.70 9  151 262 
 PTB  HE ES       2020 30.49                             130    0.10 9  151 262 
 PTB  HZ I        2020 32.71         6.2 0.10            131            151 262 
 SPBC HZ EP       2020 10.79                             128    0.33 9  160 222 
 SPBC HE ES       2020 31.78                             128   -0.38 9  160 222 
 SPBC HZ I        2020 37.74        15.3 0.09            129            160 222 
 ZAR  HZ EP       2020 15.65                             120    0.17 8  211 294 
 ZAR  HE ES       2020 40.67                             120   -0.43 8  211 294 
 ZAR  HZ I        2020 42.77         6.3 0.16            122            211 294 
 NOR  HZ EP       2020 18.18                             117    0.18 8  234 237 
 NOR  HN ES       2020 45.71                             117    0.14 8  234 237 
 NOR  HZ I        2020 50.93         4.3 0.20            118            234 237 
 GUY2CHZ EP   9   2020 28.23                             111    2.29 0  301 236 
 GUY2CHE ES       2021  1.51                                   -0.49 7  301 236 
 GUY2CHZ I        2021  9.51         3.3 0.26                           301 236 
                                                                                
