 2012  1 7 2326 47.8 L   6.146 -73.614106.5  RSN  6 0.2 1.6LRSN                1
 GAP=109        0.39       1.9     2.3  4.9 -0.1424E+01  0.4870E+01 -0.1498E+01E
 Epicentro: LA PAZ - SANTANDER                                                 3
 ACTION:UP  12-02-03 08:15 OP:REBC STATUS:               ID:20120107232647 L   I
 2012-01-07-2320-00M.COL___186                                                 6
 STAT SP IPHASW D HRMM SECON CODA AMPLIT PERI AZIMU VELO SNR AR TRES W  DIS CAZ7
 RUS  HZ EP   1   2327  5.24                             146     0.0 8   65 115 
 RUS  HE ES   1   2327 18.55                             146    -0.2 8   65 115 
 BRR  HZ EP       2327  7.74                             131    -0.110  107 354 
 BRR  HE ES   2   2327 23.85                             131     0.4 5  107 354 
 BRR  HZ I        2327 28.24         9.4 0.64                           107 354 
 NOR  SZ EP   1   2327 12.59                             120     0.0 7  153 245 
 NOR  SN ES   1   2327 31.71                             120    -0.1 7  153 245 
 PAM  SZ EP   1   2327 14.61                             118     0.1 7  166  37 
 CHI  HZ EP   1   2327 14.57                             117    -0.1 7  168 184 
 CHI  HZ I        2327 15.07         5.1 0.27                           168 184 
 CHI  HE ES   1   2327 35.83                             117     0.3 7  168 184 
 RREF HZ EP   2   2327 22.49                             109    -0.1 4  236 234 
 RREF HN ES   1   2327 49.68                             109     0.1 6  236 234 
 RREF HZ I        2327 56.32         2.9 0.21                           236 234 
                                                                                
