 2010  2 7 2331 10.1 L   6.811 -73.016151.8  RSN 12 0.6 2.9LRSN                1
 GAP=149        1.24       5.4     9.0  9.3 -0.2645E+02  0.1208E+02  0.2726E+01E
 Epicentro: CEPITA - SANTANDER                                                 3
 ACTION:UP  10-08-24 09:48 OP:vdl  STATUS:               ID:20100207233110 L   I
 2010-02-07-2329-57S.COL___093                                                 6
 STAT SP IPHASW D HRMM SECON CODA AMPLIT PERI AZIMU VELO SNR AR TRES W  DIS CAZ7
 BAR2 SZ EP       2331 30.26                             168    -0.310   31 217 
 BAR2 SZ ES   1   2331 45.90                             168    -0.7 7   31 217 
 OCA  SZ EP       2331 39.24                             131     0.3 9  161 348 
 OCA  SZ ES   1   2332  1.92                             131     0.4 7  161 348 
 CHI  HZ EP       2331 48.22                             118    -0.5 8  254 198 
 CHI  HN ES       2332 19.18                             118     0.4 8  254 198 
 CHI  HZ I        2332 25.45        26.1 0.47                           254 198 
 ROSC BZ EP       2331 49.98                             117     0.5 8  261 214 
 ROSC BE ES       2332 20.95                             117     0.7 8  261 214 
 ROSC BZ I        2332 28.10        52.1 0.29                           261 214 
 HEL  HZ EP   1   2331 52.11                             115    -0.1 6  286 256 
 HEL  HZ I        2332 30.03        38.6 0.66                           286 256 
 GUY  HZ EP       2331 55.33                             112    -0.1 7  314 236 
 GUY  HN ES       2332 31.12                             112     0.4 7  314 236 
 RREF BZ EP       2331 58.35                             111     0.5 7  334 231 
 RREF BE ES       2332 35.52                             111     0.5 7  334 231 
 RREF BZ I        2332 38.83        45.3 0.07                           334 231 
 SDV  BZ IP       2331 59.57                             110     0.6 6  349  49 
 SDV  BZ I        2332  0.61        40.1 0.05                           349  49 
 DBB  SZ EP       2331 57.98                             109    -1.5 6  354 274 
 TOL  SZ EP       2331 59.67                             110    -0.2 6  355 226 
 ANIL BZ EP   1   2332  1.18                             109    -0.2 5  368 226 
 PRA  HZ EP       2332  3.75                             107    -1.0 6  400 211 
 PRA  HN ES   1   2332 46.73                             107    -0.7 4  400 211 
 PRA  HZ I        2332 52.12        34.9 0.94                           400 211 
                                                                                
