 2010  8 7 2312 10.6 L   6.792 -73.080141.4  RSN  7 0.3 1.8LRSN                1
 GAP=166        0.65       4.6     7.1  6.9  0.2860E+00 -0.1546E+02 -0.1085E+02E
 Epicentro: LOS SANTOS - SANTANDER                                             3
 ACTION:UP  10-09-07 10:53 OP:vdl  STATUS:               ID:20100807231210 L   I
 2010-08-07-2310-34S.COL___125                                                 6
 STAT SP IPHASW D HRMM SECON CODA AMPLIT PERI AZIMU VELO SNR AR TRES W  DIS CAZ7
 BAR2 SZ EP       2312 29.79                             169     0.110   25 207 
 BAR2 SZ I        2312 30.09        16.8 0.09                            25 207 
 BAR2 SZ ES   1   2312 44.22                             169    -0.4 7   25 207 
 BRR  HZ IP     C 2312 31.56                             149    -0.110   78 297 
 BRR  HZ I        2312 31.93        24.8 0.07                            78 297 
 BRR  HN ES   1   2312 48.40                             149     0.3 7   78 297 
 RUS  HZ EP   1   2312 33.84                             143     0.0 7  100 180 
 RUS  HE ES   2   2312 52.55                             143     0.6 5  100 180 
 RUS  HZ I        2312 53.69         6.9 0.34                           100 180 
 GUE  SZ IP       2312 34.72                             138    -0.110  116   9 
 GUE  SZ I        2312 57.47         2.4 0.40                           116   9 
 GRA  SZ IP       2312 35.53                             136     0.210  125  14 
 GRA  SZ I        2312 36.60        10.4 0.42                           125  14 
 HEL  HZ EP   2   2312 51.48                             113     0.1 4  279 256 
 HEL  HZ I        2313 27.67         4.0 0.54                           279 256 
 RREF HN ES   3   2313 32.86                             109    -0.5 2  327 230 
 RREF HZ I        2313 38.10         3.4 0.44                           327 230 
                                                                                
