 2016 10 7 2147 27.1 L   6.720 -72.977148.7  RSN  6 0.4 1.6LRSN                1
 GAP=163        1.06       4.5     6.5  7.7 -0.6580E+01  0.1168E+02  0.5869E+01E
 Epicentro: CEPITA - SANTANDER                                                 3
 ACTION:UPD 16-11-09 19:17 OP:rebc STATUS:               ID:20161007214727 L   I
 OLDACT:UP  16-10-08 07:09 OP:cara STATUS:               ID:20161007213745     3
 OLDACT:UP  16-10-08 07:07 OP:cara STATUS:               ID:20161007213745     3
 OLDACT:UP  16-10-08 07:02 OP:edw  STATUS:               ID:20161007213745     3
 OLDACT:UP  16-10-08 07:00 OP:edw  STATUS:               ID:20161007213745     3
 OLDACT:UP  16-10-08 06:59 OP:edw  STATUS:               ID:20161007213745     3
 OLDACT:UP  16-10-08 06:59 OP:edw  STATUS:               ID:20161007213745     3
 OLDACT:REG 16-10-08 03:25 OP:cara STATUS:               ID:20161007213745     3
 2016-10-07-2138-00M.COL___360                                                 6
 STAT SP IPHASW D HRMM SECON CODA AMPLIT PERI AZIMU VELO AIN AR TRES W  DIS CAZ7
 BAR2 EZ EP       2147 47.00                             169   -0.1610 26.7 238 
 BAR2 EZ ES       2148  2.36                             169   -0.4510 26.7 238 
 BAR2 EZ I        2148  3.56        10.5 0.16            168           26.7 238 
 PAM  EZ IP     C 2147 49.93                             152    0.4310 75.0  24 
 PAM  EE ES       2148  6.63                             152   -0.3410 75.0  24 
 PAM  EZ I        2148  9.07         9.1 0.54            154           75.0  24 
 RUS  HZ EP       2147 50.99                             147    0.4110 92.3 187 
 RUS  HN ES       2148  9.59                             147    0.7110 92.3 187 
 RUS  HZ I        2148 10.71         2.2 0.26            147           92.3 187 
 SPBC HZ EP       2147 56.20                             129   -0.21 9  169 226 
 SPBC HN ES       2148 19.09                             129   -0.17 9  169 226 
 SPBC HZ I        2148 22.34         5.5 0.50            129            169 226 
 ZAR  HN ES       2148 29.36                             120    0.35 8  225 292 
 ZAR  HZ I        2148 31.17         2.7 0.50            121            225 292 
 CHI  HZ EP       2148  3.91                             118   -0.76 8  246 200 
 CHI  HN ES       2148 33.87                             118   -0.10 8  246 200 
 CHI  HZ I        2148 38.22         2.5 0.56            119            246 200 
                                                                                
