 2011  8 7 2208 10.1 L   6.758 -73.172145.7  RSN  5 0.4 1.5LRSN                1
 GAP=231        0.67       5.3     8.7  8.4  0.1990E+02  0.5521E+01  0.2892E+01E
 Epicentro: LOS SANTOS - SANTANDER                                             3
 ACTION:UPD 12-07-25 14:06 OP:epov STATUS:               ID:20110807220810 L   I
 2011-08-07-2204-08S.COL___143                                                 6
 STAT SP IPHASW D HRMM SECON CODA AMPLIT PERI AZIMU VELO AIN AR TRES W  DIS CAZ7
 BAR2 SZ EP   1   22 8 29.38                             172   -0.25 7 18.4 184 
 BAR2 SZ ES   2   22 8 44.04                             172   -0.82 5 18.4 184 
 BAR2 SZ I        22 8 45.60         7.9 0.30                          18.4 184 
 BRR  HZ EP   1   22 8 31.34                             153    0.11 7 71.1 303 
 BRR  HZ I        22 8 31.84         9.0 0.09                          71.1 303 
 BRR  HN ES   1   22 8 47.85                             153    0.14 7 71.1 303 
 RUS  HZ EP   1   22 8 33.49                             145   -0.04 7 96.2 174 
 RUS  HE ES       22 8 52.15                             145    0.3410 96.2 174 
 RUS  HZ I        22 8 54.06         4.3 0.30                          96.2 174 
 NOR  SN ES   2   22 9 12.92                             119    0.19 4  230 235 
 CHI  HN ES   2   22 9 15.31                             118   -0.88 4  243 195 
 CHI  HZ I        22 9 22.51         1.7 0.66                           243 195 
                                                                                
