 2017  3 7 2209  0.9 L   6.829 -73.154134.0  RSN  8 0.4 1.5LRSN                1
 GAP=134        0.78       4.4     3.9  6.8  0.5060E+00  0.7597E+01 -0.1167E+02E
 Epicentro: LOS SANTOS - SANTANDER                                             3
 ACTION:UPD 17-05-25 18:37 OP:jn   STATUS:               ID:20170307220900 L   I
 OLDACT:UP  17-03-08 08:35 OP:dani STATUS:               ID:20170307215735     3
 OLDACT:UP  17-03-08 08:35 OP:dani STATUS:               ID:20170307215735     3
 OLDACT:UP  17-03-08 08:34 OP:dani STATUS:               ID:20170307215735     3
 OLDACT:UP  17-03-08 08:33 OP:dani STATUS:               ID:20170307215735     3
 OLDACT:UP  17-03-08 08:30 OP:dani STATUS:               ID:20170307215735     3
 OLDACT:UP  17-03-08 08:29 OP:dani STATUS:               ID:20170307215735     3
 OLDACT:REG 17-03-08 08:11 OP:dani STATUS:               ID:20170307215735     3
 2017-03-07-2208-00M.COL___356                                                 6
 STAT SP IPHASW D HRMM SECON CODA AMPLIT PERI AZIMU VELO AIN AR TRES W  DIS CAZ7
 BAR2 EZ EP       22 9 18.89                             168   -0.2610 26.4 187 
 BAR2 EZ ES       22 9 33.56                             168    0.1510 26.4 187 
 BRR  HZ EP       22 9 20.40                             151   -0.2110 68.9 297 
 BRR  HE ES   3   22 9 37.56                             151    1.54 2 68.9 297 
 BRR  HZ I        22 9 39.18         6.2 0.23            148           68.9 297 
 PAM  EZ EP       22 9 21.64                             149   -0.0810 75.5  42 
 PAM  EN ES   4   22 9 35.44                             149   -2.54 0 75.5  42 
 PAM  EZ I        22 9 40.45         8.3 0.55            151           75.5  42 
 RUS  HE ES       22 9 41.57                             140    0.0110  104 176 
 PTB  HZ EP   3   22 9 25.63                             129   -1.24 2  148 258 
 PTB  HN ES       22 9 46.62                             129   -0.55 9  148 258 
 PTB  HZ I        22 9 50.52         3.4 0.12            130            148 258 
 SPBC HE ES   1   22 9 50.68                             125    0.30 7  165 218 
 ZAR  HZ EP       22 9 32.93                             120    0.58 9  202 291 
 ZAR  HE ES       22 9 56.99                             120    0.07 9  202 291 
 ZAR  HZ I        2210  3.58         4.1 0.12            121            202 291 
 NOR  HZ EP       22 9 36.44                             115    0.38 8  236 234 
 NOR  HN ES   3   2210  2.84                             115   -0.68 2  236 234 
 NOR  HZ I        2210  6.93         2.3 0.14            118            236 234 
                                                                                
