 2017  8 7 2024 21.4 L   6.741 -73.129146.9  RSN  9 0.4 1.7LRSN                1
 GAP=141        1.02       4.2     4.7  7.0  0.2520E+01  0.1093E+02  0.1024E+02E
 Epicentro: LOS SANTOS - SANTANDER                                             3
 ACTION:UPD 17-09-04 20:17 OP:rebc STATUS:               ID:20170807202421 L   I
 OLDACT:UP  17-08-08 05:32 OP:edw  STATUS:               ID:20170807201743d    3
 OLDACT:UP  17-08-08 05:31 OP:edw  STATUS:               ID:20170807201743d    3
 OLDACT:DUP 17-08-08 05:25 OP:edw  STATUS:               ID:20170807201743d    3
 2017-08-07-2018-00M.COL___396                                                 6
 STAT SP IPHASW D HRMM SECON CODA AMPLIT PERI AZIMU VELO AIN AR TRES W  DIS CAZ7
 BAR2 EZ EP       2024 41.63                             173    0.5310 17.5 200 
 BAR2 EZ ES       2024 56.86                             173    0.4210 17.5 200 
 BAR2 EZ I        2024 57.68        16.9 0.30            170           17.5 200 
 BRR  HZ IP     C 2024 42.92                             151   -0.0710 76.1 302 
 BRR  HN ES       2025  0.24                             151    0.4410 76.1 302 
 BRR  HZ I        2025  3.62         8.2 0.30            150           76.1 302 
 PAM  EE ES       2025  1.24                             150   -0.3810 81.4  36 
 RUS  HZ EP       2024 44.66                             146   -0.1810 94.0 177 
 RUS  HN ES       2025  2.60                             146   -0.4910 94.0 177 
 RUS  HZ I        2025  4.04         8.2 0.54            146           94.0 177 
 PTB  HZ EP   2   2024 47.98                             132   -0.58 5  148 261 
 PTB  HE ES       2025  8.86                             132   -0.86 9  148 261 
 PTB  HZ I        2025  9.61         5.8 0.14            131            148 261 
 ZAR  HZ EP   2   2024 54.82                             122    0.43 4  208 294 
 ZAR  HN ES       2025 20.25                             122    0.16 8  208 294 
 ZAR  HZ I        2025 25.60         7.1 0.30            122            208 294 
 NOR  HZ EP       2024 56.69                             119   -0.31 8  233 236 
 NOR  HN ES       2025 25.05                             119    0.31 8  233 236 
 NOR  HZ I        2025 29.88         5.7 0.28            119            233 236 
 CHI  HZ EP       2024 58.73                             118    0.16 8  243 196 
 CHI  HN ES       2025 27.99                             118    0.45 8  243 196 
 CHI  HZ I        2025 31.84         1.6 0.54            118            243 196 
 GUY2CHZ EP   4   2025  7.94                             113    3.09 0  299 236 
 GUY2CHN ES   4   2025 41.65                             113    2.93 0  299 236 
 GUY2CHZ I        2025 45.75         2.1 0.56                           299 236 
                                                                                
