 2011 10 7 2047 24.2 L   6.831 -73.119140.0  RSN 10 0.3 2.2LRSN                1
 GAP=138        0.54       2.0     2.8  3.6 -0.1459E+00  0.2205E+01  0.3882E+00E
 Epicentro: LOS SANTOS - SANTANDER                                             3
 ACTION:UPD 12-07-13 16:02 OP:ep   STATUS:               ID:20111007204724 L   I
 2011-10-07-2040-00M.COL___170                                                 6
 STAT SP IPHASW D HRMM SECON CODA AMPLIT PERI AZIMU VELO AIN AR TRES W  DIS CAZ7
 BAR2 SZ EP   1   2047 43.04                             168   -0.18 7 27.4 195 
 BAR2 SZ I        2047 43.67        26.1 0.39                          27.4 195 
 BAR2 SZ ES   1   2047 58.02                             168   -0.04 7 27.4 195 
 GIR2 SZ EP   1   2047 42.79                             168   -0.31 7 28.6 343 
 BRR  HZ EP       2047 44.63                             151   -0.1510 72.3 295 
 BRR  HZ I        2047 44.92        31.6 0.12                          72.3 295 
 BRR  HN ES       2048  1.09                             151    0.2510 72.3 295 
 PAM  SZ EP       2047 45.69                             151    0.1710 72.8  39 
 PAM  SN ES       2048  2.12                             151   -0.0410 72.8  39 
 RUS  HZ EP       2047 47.36                             142   -0.2710  104 178 
 RUS  HE ES       2048  6.17                             142    0.2610  104 178 
 OCA  SZ EP       2047 51.92                             129    0.15 9  157 352 
 OCA  SZ ES   1   2048 13.20                             129   -0.07 7  157 352 
 OCA  SZ I        2048 18.96        21.6 0.23                           157 352 
 ZAR  HZ EP   2   2047 57.14                             121    0.72 4  206 291 
 ZAR  HN ES   1   2048 21.07                             121   -0.49 6  206 291 
 ZAR  HZ I        2048 26.86        18.1 0.26                           206 291 
 NOR  SZ EP   2   2047 59.66                             117   -0.41 4  239 234 
 NOR  SE ES   2   2048 27.96                             117   -0.10 4  239 234 
 CHI  HZ EP   1   2048  2.18                             116    0.15 6  253 196 
 CHI  HE ES   2   2048 31.15                             116   -0.40 4  253 196 
 CHI  HZ I        2048 37.50         6.5 0.40                           253 196 
 HEL  HZ EP   2   2048  4.89                             113    0.36 4  276 255 
 HEL  HN ES   2   2048 36.64                             113    0.64 4  276 255 
 HEL  HZ I        2048 41.93        12.2 0.46                           276 255 
                                                                                
