 2012  1 7 2234 35.5 L   6.666 -73.706 93.4  RSN  4 0.1 1.6LRSN                1
 GAP=119        0.31       2.0     1.6  4.0  0.1039E+00 -0.1292E+01  0.1427E+01E
 Epicentro: EL CARMEN DE CHUCURI - SANTANDER                                   3
 ACTION:UP  12-02-03 08:15 OP:REBC STATUS:               ID:20120107223435 L   I
 2012-01-07-2230-00M.COL___186                                                 6
 STAT SP IPHASW D HRMM SECON CODA AMPLIT PERI AZIMU VELO SNR AR TRES W  DIS CAZ7
 BRR  HZ EP       2234 49.64                             150     0.010   49 359 
 BRR  HE ES   1   2235  0.87                             150     0.1 7   49 359 
 BRR  HE I        2235  2.02        14.6 0.21                            49 359 
 GIR2 SZ EP   1   2234 51.52                             139    -0.1 7   73  51 
 PTB  HZ EP       2234 52.45                             135     0.110   84 261 
 PTB  HN ES       2235  5.54                             135     0.010   84 261 
 RUS  HZ EP   2   2234 55.54                             127     0.1 5  110 141 
 RUS  HE ES   1   2235 10.97                             127     0.0 7  110 141 
                                                                                
