 2016 11 7 2207 53.2 L   6.769 -73.125151.4  RSN  6 0.4 1.7LRSN                1
 GAP=159        0.83       5.0     4.7  7.6 -0.6837E+01  0.2560E+01  0.1248E+02E
 Epicentro: LOS SANTOS - SANTANDER                                             3
 ACTION:UPD 17-10-26 21:05 OP:lp   STATUS:               ID:20161107220753 L   I
 OLDACT:REG 16-11-08 03:14 OP:cog  STATUS:               ID:20161107215744     3
 2016-11-07-2158-00M.COL___349                                                 6
 STAT SP IPHASW D HRMM SECON CODA AMPLIT PERI AZIMU VELO AIN AR TRES W  DIS CAZ7
 BAR2 EZ EP       22 8 13.17                             172   -0.2810 20.5 198 
 BAR2 EZ I        22 8 30.49         5.1 0.13            169           20.5 198 
 BRR  HZ EP       22 8 15.39                             152    0.2410 74.8 300 
 BRR  HE ES       22 8 32.69                             152    0.4110 74.8 300 
 BRR  HZ I        22 8 36.26        12.3 0.30            152           74.8 300 
 PAM  EZ EP       22 8 16.55                             151    0.4610 78.7  37 
 PAM  EE ES       22 8 33.53                             151   -0.4110 78.7  37 
 PAM  EZ I        22 8 35.78        10.1 0.50            154           78.7  37 
 PTB  HZ EP       22 8 20.45                             133   -0.31 9  149 260 
 PTB  HE ES       22 8 42.15                             133   -0.12 9  149 260 
 PTB  HZ I        22 8 48.58         4.9 0.36            132            149 260 
 ZAR  HZ EP       22 8 26.28                             123   -0.07 8  207 293 
 ZAR  HN ES   3   22 8 50.46                             123   -1.76 2  207 293 
 ZAR  HZ I        22 8 59.52         5.2 0.20            123            207 293 
 CHI  HE ES       22 9  0.49                             119    0.14 8  246 196 
                                                                                
