 2017  7 7 2322 27.4 L   6.808 -73.144141.5  RSN 21 0.5 2.5LRSN                1
 GAP=112        1.12       3.1     3.3  5.2 -0.1156E+01  0.4430E+01  0.1763E+01E
 Epicentro: LOS SANTOS - SANTANDER                                             3
 ACTION:UPD 17-08-30 15:30 OP:rebc STATUS:               ID:20170707232227 L   I
 OLDACT:REG 17-07-08 03:09 OP:dhb  STATUS:               ID:20170707231746     3
 2017-07-07-2318-00M.COL___374                                                 6
 STAT SP IPHASW D HRMM SECON CODA AMPLIT PERI AZIMU VELO AIN AR TRES W  DIS CAZ7
 BAR2 EZ IP     C 2322 46.24                             170   -0.3310 24.2 190 
 BAR2 EZ ES       2323  1.42                             170   -0.0710 24.2 190 
 BAR2 EZ I        2323  2.27       100.6 0.34            169           24.2 190 
 BRR  HZ IP     D 2322 48.07                             152   -0.0310 70.9 298 
 BRR  HN ES       2323  4.80                             152    0.5710 70.9 298 
 BRR  HZ I        2323  6.42        58.6 0.13            151           70.9 298 
 PAM  EZ IP     D 2322 49.31                             150    0.1610 76.6  40 
 PAM  EE ES       2323  6.27                             150    0.1810 76.6  40 
 PAM  EZ I        2323  8.37        72.6 0.54            152           76.6  40 
 PTB  HZ EP       2322 53.18                             131   -0.90 9  148 259 
 PTB  HN ES       2323 14.14                             131   -0.73 9  148 259 
 PTB  HZ I        2323 16.06        25.7 0.14            131            148 259 
 SPBC HZ EP       2322 55.30                             128   -0.38 9  164 219 
 SPBC HE ES       2323 17.58                             128   -0.13 9  164 219 
 SPBC HZ I        2323 21.73        52.7 0.17            128            164 219 
 YPLC HZ IP     C 2322 56.69                             126   -0.29 9  177 152 
 YPLC HN ES       2323 20.60                             126    0.57 9  177 152 
 YPLC HZ I        2323 23.55        16.6 0.26            126            177 152 
 ZAR  HZ EP       2323  0.99                             122    1.41 9  204 292 
 ZAR  HN ES       2323 24.21                             122   -0.45 9  204 292 
 ZAR  HZ I        2323 29.53        41.4 0.17            121            204 292 
 TABC EZ EP   9   2323  4.34                             118    1.32 0  231 211 
 TABC EZ ES       2323 32.74                                    0.64 8  231 211 
 TABC EZ I        2323 37.76        39.2 0.36            118            231 211 
 NOR  HZ IP       2323  2.52                             118   -0.46 8  235 234 
 NOR  HN ES       2323 30.47                             118   -0.24 8  235 234 
 NOR  HZ I        2323 35.67        18.6 0.22            117            235 234 
 ROSC BZ EP   9   2323  6.53                             116    1.12 0  254 211 
 ROSC BE ES       2323 36.31                                    0.16 8  254 211 
 ROSC BZ I        2323 41.09        54.9 0.54            116            254 211 
 HEL  HZ EP       2323  8.31                             114    0.84 8  272 256 
 HEL  HN IS       2323 38.59                             114   -0.11 8  272 256 
 HEL  HZ I        2323 44.48        17.8 0.25            114            272 256 
 GUY2CHZ EP       2323 10.88                             112   -0.03 7  302 235 
 GUY2CHE ES       2323 45.24                             112    0.41 7  302 235 
 GUY2CHZ I        2323 52.69        18.5 0.58                           302 235 
 VIL  EZ EP   2   2323 10.22                             111   -0.53 4  304 192 
 VIL  EE ES       2323 44.60                             111    0.06 7  304 192 
 VIL  EZ I        2323 47.02        38.8 0.41            111            304 192 
 PTGC HZ IP   9   2323  9.49                             111   -1.69 0  309 159 
 PTGC HN ES       2323 43.41                                   -0.20 7  309 159 
 PTGC HZ I        2323 45.48        22.0 0.44            111            309 159 
 LL6C HZ E        2323 11.63                                            324 358 
 LL6C HZ EP   2   2323 11.63                             110   -1.23 3  324 358 
 LL6C HN ES       2323 48.31                             110    0.02 7  324 358 
 LL6C HZ I        2323 53.42        14.0 0.53            110            324 358 
 CBOC HZ EP       2323 14.56                             109    0.34 7  334 252 
 CBOC HN ES       2323 51.56                             109    0.85 7  334 252 
 CBOC HZ I        2323 53.76         4.3 0.20            109            334 252 
 DBB  EZ EP       2323 14.37                             109   -0.38 7  340 274 
 DBB  EN ES   4   2323 50.22                             109   -1.44 0  340 274 
 DBB  EZ I        2323 51.10        10.5 0.27            109            340 274 
 ARGC HN ES   4   2323 57.31                             108    1.93 0  358 340 
 ARGC HZ I        2323 59.96        14.7 0.30            108            358 340 
 ORTC HZ EP   1   2323 21.69                             106    0.39 4  396 216 
 ORTC HN ES   3   2324  4.41                             106    1.10 1  396 216 
 ORTC HZ I        2324  7.79        13.7 0.27            106            396 216 
 PAL  HZ EP       2323 21.88                             105   -0.64 6  406 239 
 PAL  HN ES       2324  6.17                             105    0.68 6  406 239 
 SJC  HZ IP   9 D 2323 20.42                             105   -2.36 0  409 327 
 SJC  HN ES       2324  4.20                                    0.61 6  409 327 
 SJC  HZ I        2324 10.17         6.4 0.42            105            409 327 
                                                                                
