 2016  1 7 2115 59.5 L   6.807 -73.193131.7  RSN  5 0.4 1.7LRSN                1
 GAP=134        0.58       7.5     4.4  8.1 -0.7513E+01  0.1600E+01 -0.3457E+01E
 Epicentro: ZAPATOCA - SANTANDER                                               3
 ACTION:UPD 16-03-09 23:23 OP:cam  STATUS:               ID:20160107211559 L   I
 OLDACT:UP  16-01-08 04:01 OP:dnl  STATUS:               ID:20160107210750     3
 OLDACT:REG 16-01-08 01:45 OP:dnl  STATUS:               ID:20160107210750     3
 2016-01-07-2107-50M.COL___286                                                 6
 STAT SP IPHASW D HRMM SECON CODA AMPLIT PERI AZIMU VELO AIN AR TRES W  DIS CAZ7
 BAR2 EZ EP       2116 17.29                             169   -0.1310 23.8 177 
 BAR2 EZ ES   2   2116 31.57                             169    0.15 5 23.8 177 
 BRR  HZ EP   2   2116 19.63                             152    0.81 5 66.2 300 
 BRR  HE ES   2   2116 34.31                             152    0.40 5 66.2 300 
 BRR  HZ I        2116 37.21        17.5 0.46            142           66.2 300 
 PAM  EZ EP       2116 20.47                             147    0.0710 80.3  43 
 PAM  EE ES   2   2116 36.30                             147   -0.42 5 80.3  43 
 PAM  EZ I        2116 39.46         8.1 0.65            143           80.3  43 
 PTB  HZ EP   2   2116 24.55                             130   -0.30 5  143 258 
 PTB  HN ES   2   2116 44.47                             130   -0.18 5  143 258 
 PTB  HZ I        2116 47.44         4.4 0.10            128            143 258 
 ZAR  HZ EP   3   2116 31.47                             120    0.98 2  199 293 
 ZAR  HE ES   2   2116 54.07                             120   -0.62 4  199 293 
 ZAR  HZ I        2117  2.51         4.9 0.17            117            199 293 
                                                                                
