 2010 11 7 2300 48.7 L   6.757 -73.130142.0  RSN  9 0.5 2.2LRSN                1
 GAP=161        0.99       5.9     8.5  9.2 -0.1899E+02  0.1745E+02 -0.5307E+01E
 Epicentro: LOS SANTOS - SANTANDER                                             3
 ACTION:UP  10-12-17 16:50 OP:REBC STATUS:               ID:20101107230048 L   I
 2010-11-07-2259-07S.COL___129                                                 6
 STAT SP IPHASW D HRMM SECON CODA AMPLIT PERI AZIMU VELO SNR AR TRES W  DIS CAZ7
 BAR2 SZ EP   1   23 1  7.80                             172     0.0 7   19 198 
 BAR2 SZ ES   2   23 1 22.84                             172     0.1 5   19 198 
 BAR2 SZ I        23 1 24.67        51.8 0.23                            19 198 
 BTL  SZ EP   1   23 1  7.42                             170    -0.5 7   23 320 
 BTL  SZ ES   2   23 1 21.87                             170    -1.0 5   23 320 
 BRR  HZ IP     C 23 1  9.82                             150     0.110   75 301 
 BRR  HZ I        23 1 10.16        63.5 0.04                            75 301 
 BRR  HE ES   2   23 1 27.07                             150     1.0 5   75 301 
 RUS  HZ EP   1   23 1 11.60                             144    -0.1 7   96 177 
 RUS  HE ES   2   23 1 30.20                             144     0.5 5   96 177 
 RUS  HZ I        23 1 31.76        34.3 0.57                            96 177 
 GUE  SZ EP   1   23 1 14.21                             137     0.8 7  121  11 
 GRA  SZ EP   1   23 1 13.89                             135    -0.1 7  130  16 
 GRA  SZ ES   2   23 1 34.03                             135     0.4 5  130  16 
 GRA  SZ I        23 1 36.05        12.6 0.49                           130  16 
 OCA  SZ EP   1   23 1 16.80                             128    -0.4 7  165 353 
 OCA  SZ ES   2   23 1 38.74                             128    -0.7 5  165 353 
 OCA  SZ I        23 1 48.66        16.3 0.33                           165 353 
 NOR  SZ EP   1   23 1 23.48                             118    -0.6 6  234 236 
 NOR  SE ES   2   23 1 51.84                             118     0.1 4  234 236 
 HEL  HZ EP   1   23 1 29.57                             114     0.8 6  273 257 
 HEL  HE ES   2   23 1 59.54                             114    -0.5 4  273 257 
 HEL  HZ I        23 2  7.14         9.7 0.19                           273 257 
                                                                                
