 2014  2 7 2358 13.0 L   6.764 -73.141143.2  RSN  8 0.4 1.3LRSN                1
 GAP= 96        1.14       4.8     5.1  7.0 -0.3560E+01 -0.7746E+00  0.1008E+02E
 Epicentro: LOS SANTOS - SANTANDER                                             3
 ACTION:UPD 14-03-10 08:08 OP:ep   STATUS:               ID:20140207235813 L   I
 OLDACT:DUP 14-02-08 02:51 OP:stll STATUS:               ID:20140207234819d    3
 2014-02-07-2348-18M.COL___226                                                 6
 STAT SP IPHASW D HRMM SECON CODA AMPLIT PERI AZIMU VELO AIN AR TRES W  DIS CAZ7
 BAR2 SZ EP       2358 32.06                             172   -0.2010 19.5 193 
 BAR2 SZ ES       2358 46.62                             172   -0.6510 19.5 193 
 BRR  HZ EP       2358 34.44                             151    0.4210 73.6 301 
 BRR  HN ES       2358 51.24                             151    0.8310 73.6 301 
 PAM  SZ EP       2358 34.73                             149   -0.4010 80.2  37 
 PAM  SN ES       2358 52.60                             149    0.2210 80.2  37 
 PAM  SZ I        2358 54.48         4.0 0.46            153           80.2  37 
 RUS  HZ EP       2358 36.05                             144   -0.1710 96.5 176 
 RUS  HN ES       2358 54.35                             144    0.0310 96.5 176 
 RUS  HZ I        2358 56.10         1.8 0.44            144           96.5 176 
 PTB  HZ EP       2358 39.32                             131   -0.42 9  148 260 
 PTB  HN ES       2359  0.01                             131   -0.59 9  148 260 
 PTB  HZ I        2359  5.64         4.1 0.20            132            148 260 
 TAM  HZ EP       2358 40.49                             130    0.14 9  154 104 
 SPBC HZ EP       2358 41.31                             129    0.26 9  160 220 
 CHI  HZ EP       2358 50.10                             117   -0.06 8  245 196 
 CHI  HN ES       2359 19.92                             117    0.79 8  245 196 
 CHI  HZ I        2359 25.87         1.5 0.66            118            245 196 
                                                                                
