 2014  7 7 2132 44.5 L   6.810 -73.189135.3  RSN  7 0.4 1.4LRSN                1
 GAP=197        0.97       4.0     4.9  7.1  0.5134E+01  0.3518E+01 -0.6780E+01E
 Epicentro: ZAPATOCA - SANTANDER                                               3
 ACTION:UPD 15-03-16 20:42 OP:nd   STATUS:               ID:20140707213244 L   I
 OLDACT:DUP 14-07-08 04:00 OP:spq  STATUS:               ID:20140707212820d    3
 OLDACT:REG 14-07-08 02:48 OP:spq  STATUS:               ID:20140707212819     3
 2014-07-07-2128-19M.COL___271                                                 6
 STAT SP IPHASW D HRMM SECON CODA AMPLIT PERI AZIMU VELO AIN AR TRES W  DIS CAZ7
 BAR2 SZ EP       2133  3.07                             169    0.2110 24.1 178 
 BAR2 SZ ES   1   2133 17.88                             169    0.68 7 24.1 178 
 BAR2 SZ I        2133 19.39         4.2 0.14            174           24.1 178 
 BRR  HZ EP       2133  4.38                             152    0.1610 66.5 300 
 BRR  HE ES       2133 19.20                             152   -0.4210 66.5 300 
 BRR  HZ I        2133 38.52        11.3 0.46            152           66.5 300 
 RUS  HZ EP       2133  7.07                             141   -0.2510  102 173 
 RUS  HN ES       2133 24.83                             141   -0.3210  102 173 
 RUS  HZ I        2133 27.35         2.4 0.18            154            102 173 
 PTB  HZ EP       2133  9.99                             130   -0.19 9  143 258 
 PTB  HE ES       2133 30.95                             130    0.71 9  143 258 
 PTB  HZ I        2133 36.74         2.8 0.36            137            143 258 
 ZAR  HZ EP   1   2133 15.81                             121    0.07 6  199 292 
 ZAR  HE ES       2133 39.89                             121   -0.24 9  199 292 
 ZAR  HZ I        2133 44.58         2.5 0.08            126            199 292 
 NOR  HN ES       2133 46.13                             116   -0.26 8  231 234 
 NOR  HZ I        2133 50.60         2.1 0.18            125            231 234 
 SML  HZ EP       2133 20.84                             115    0.64 8  241 336 
 SML  HN ES       2133 47.59                             115   -0.48 8  241 336 
 SML  HZ I        2133 56.43         2.3 0.13            121            241 336 
                                                                                
