 2016  1 7 2206 55.1 L   6.780 -73.137147.1  RSN 10 0.5 1.8LRSN                1
 GAP=184        0.79       3.7     6.6  7.4  0.6593E+01  0.7639E+01  0.3563E+01E
 Epicentro: LOS SANTOS - SANTANDER                                             3
 ACTION:UPD 16-03-09 23:23 OP:cam  STATUS:               ID:20160107220655 L   I
 OLDACT:DUP 16-01-08 04:11 OP:dnl  STATUS:               ID:20160107215751d    3
 2016-01-07-2157-49M.COL___304                                                 6
 STAT SP IPHASW D HRMM SECON CODA AMPLIT PERI AZIMU VELO AIN AR TRES W  DIS CAZ7
 BAR2 EZ EP   2   22 7 14.78                             172   -0.03 5 21.4 194 
 BAR2 EZ ES   2   22 7 29.07                             172   -1.14 5 21.4 194 
 BAR2 EZ I        22 7 33.39         7.5 0.21            169           21.4 194 
 BRR  HZ EP   2   22 7 17.03                             152    0.57 5 73.1 300 
 BRR  HE ES       22 7 33.74                             152    0.5910 73.1 300 
 BRR  HZ I        22 7 35.73        13.0 0.44            148           73.1 300 
 RUS  HZ EP   2   22 7 19.41                             145    0.63 5 98.3 177 
 RUS  HN ES       22 7 37.32                             145    0.0410 98.3 177 
 RUS  HZ I        22 7 38.53         5.6 0.29            145           98.3 177 
 PTB  HZ EP   2   22 7 21.79                             132   -0.40 5  148 260 
 PTB  HE ES   2   22 7 42.79                             132   -0.55 5  148 260 
 PTB  HZ I        22 7 50.22         7.4 0.15            129            148 260 
 SPBC HZ EP   2   22 7 23.95                             130    0.39 5  162 220 
 SPBC HE ES       22 7 45.56                             130   -0.23 9  162 220 
 SPBC HZ I        22 7 48.43         7.5 0.07            128            162 220 
 OCA  HZ EP   3   22 7 23.72                             130    0.03 2  163 353 
 OCA  HN ES   4   22 7 43.86                             130   -2.16 0  163 353 
 OCA  HZ I        22 7 50.93        12.4 0.14            129            163 353 
 ZAR  HE ES   2   22 7 53.03                             123   -0.26 4  206 293 
 ZAR  HZ I        22 7 59.17         7.0 0.12            120            206 293 
 SML  HZ EP   2   22 7 31.40                             118   -0.62 4  246 335 
 SML  HE ES   2   22 7 59.86                             118   -0.99 4  246 335 
 CHI  HZ EP   2   22 7 33.26                             118    0.63 4  247 196 
 CHI  HE ES       22 8  1.66                             118   -0.27 8  247 196 
 CHI  HZ I        22 8 12.35         2.3 0.31            117            247 196 
 GUY2CHZ EP   4   22 7 40.79                             113    2.11 0  301 235 
 GUY2CHE ES   2   22 8 13.06                             113    0.36 4  301 235 
 GUY2CHZ I        22 8 23.97         3.4 0.56                           301 235 
                                                                                
