 2011  6 7 2212  8.8 L   6.748 -73.143127.0  RSN  5 0.6 1.4LRSN                1
 GAP=159        1.52       9.3    12.3 13.6 -0.5286E+02 -0.4707E+01  0.2725E+02E
 Epicentro: LOS SANTOS - SANTANDER                                             3
 ACTION:UP  11-07-14 19:03 OP:ep   STATUS:               ID:20110607221208 L   I
 2011-06-07-2200-00M.COL___122                                                 6
 STAT SP IPHASW D HRMM SECON CODA AMPLIT PERI AZIMU VELO SNR AR TRES W  DIS CAZ7
 BAR2 SZ EP   1   2212 26.26                             171     0.2 7   18 194 
 BAR2 SZ ES   1   2212 38.49                             171    -1.0 7   18 194 
 BAR2 SZ I        2212 45.67        13.1 0.57                            18 194 
 BRR  HZ EP   1   2212 27.86                             148    -0.2 7   74 302 
 BRR  HN ES   1   2212 44.06                             148     0.9 7   74 302 
 RUS  HZ EP       2212 31.07                             141     0.810   95 176 
 RUS  HZ I        2212 32.33         4.4 0.21                            95 176 
 GRA  SZ EP       2212 32.35                             131    -0.510  131  17 
 GRA  SZ I        2212 33.90         8.6 0.34                           131  17 
 GRA  SZ ES   1   2212 51.86                             131     0.2 7  131  17 
 NOR  SZ EP       2212 42.88                             115    -0.2 8  232 236 
 NOR  SN ES   1   2213  9.45                             115    -0.5 6  232 236 
 NOR  SZ I        2213 14.26         0.6 0.29                           232 236 
                                                                                
