 2013  9 7 2150 25.5 L   6.805 -73.158143.6  RSN 17 0.5 2.3LRSN                1
 GAP=135        1.22       3.1     4.6  6.2 -0.2348E+01  0.7694E+01  0.4322E+00E
 Epicentro: LOS SANTOS - SANTANDER                                             3
 ACTION:UPD 13-10-22 09:20 OP:ep   STATUS:               ID:20130907215025 L   I
 OLDACT:REG 13-09-07 21:27 OP:nd   STATUS:               ID:20130907214959     3
 2013-09-07-2149-59M.COL___269                                                 6
 STAT SP IPHASW D HRMM SECON CODA AMPLIT PERI AZIMU VELO AIN AR TRES W  DIS CAZ7
 BAR2 SZ IP     D 2150 44.98                             170    0.0910 23.7 187 
 BAR2 SZ ES       2151  0.59                             170    0.5810 23.7 187 
 BAR2 SZ I        2151  3.40        31.1 0.26            170           23.7 187 
 BRR  HZ IP     C 2150 46.77                             153    0.4210 69.7 299 
 BRR  HN ES       2151  3.16                             153    0.5610 69.7 299 
 BRR  HZ I        2151  8.56        24.1 0.12            150           69.7 299 
 PAM  SZ IP     D 2150 47.83                             150    0.3010 77.8  41 
 PAM  SN ES       2151  4.75                             150    0.0510 77.8  41 
 PAM  SZ I        2151  9.00        10.3 0.40            154           77.8  41 
 RUS  HZ EP       2150 49.17                             143    0.0710  101 175 
 RUS  HN ES       2151  6.69                             143   -0.8110  101 175 
 RUS  HZ I        2151  8.60        18.9 0.26            146            101 175 
 PTB  HZ EP       2150 51.51                             132   -0.68 9  147 259 
 PTB  HN ES       2151 12.81                             132   -0.19 9  147 259 
 PTB  HZ I        2151 15.02        18.0 0.36            131            147 259 
 OCA  HZ EP       2150 53.54                             129   -0.05 9  160 354 
 OCA  HN ES       2151 14.89                             129   -0.60 9  160 354 
 OCA  HZ I        2151 20.83        26.4 0.18            131            160 354 
 SPBC HZ EP       2150 54.26                             129    0.45 9  163 218 
 SPBC HN ES       2151 15.84                             129   -0.03 9  163 218 
 SPBC HZ I        2151 18.86        27.8 0.34            130            163 218 
 ZAR  HZ EP       2150 58.65                             122    0.98 9  203 292 
 ZAR  HN ES       2151 22.76                             122    0.02 9  203 292 
 ZAR  HZ I        2151 29.04        37.2 0.30            122            203 292 
 NOR  HZ EP       2151  0.72                             118   -0.31 8  234 234 
 NOR  HN ES       2151 28.18                             118   -0.56 8  234 234 
 NOR  HZ I        2151 34.27        14.2 0.30            119            234 234 
 SML  HZ EP       2151  1.61                             117   -0.29 8  243 336 
 SML  HN ES       2151 29.36                             117   -0.93 8  243 336 
 SML  HZ I        2151 37.70        31.6 0.10            118            243 336 
 CHI  HZ EP       2151  2.95                             117   -0.16 8  249 195 
 CHI  HN ES       2151 32.01                             117   -0.43 8  249 195 
 CHI  HZ I        2151 42.30         6.9 0.36            119            249 195 
 HEL  HZ EP   4   2151  7.14                             114    1.66 0  271 256 
 HEL  HN ES   4   2151 36.47                             114   -0.19 0  271 256 
 HEL  HZ I        2151 44.33         7.5 0.26            115            271 256 
 URE  HZ EP   4   2150 57.77                             113   -8.54 0  282 292 
 URE  HN ES   4   2151 35.77                             113   -2.37 0  282 292 
 URE  HZ I        2151 43.24        14.6 0.14            114            282 292 
 GUY2CHZ EP       2151  9.90                             112    0.97 7  300 235 
 GUY2CHN ES       2151 43.13                             112    0.33 7  300 235 
 GUY2CHZ I        2151 53.75        11.3 0.48                           300 235 
 RREF HZ EP   4   2151 12.18                             110    0.70 0  321 229 
 RREF HN ES   4   2151 49.90                             110    2.56 0  321 229 
 RREF HZ I        2151 54.70        10.3 0.28            112            321 229 
 PRA  HZ EP   4   2151 18.33                             106   -0.61 0  392 209 
 PRA  HN ES   4   2152  0.23                             106   -0.38 0  392 209 
 PRA  HZ I        2152  5.14         7.8 0.26            108            392 209 
 SJC  HZ EP   4   2151 18.81                             105   -2.05 0  408 327 
 SJC  HN ES   4   2152  0.42                             105   -3.62 0  408 327 
 SJC  HZ I        2152  7.57         2.9 0.42            107            408 327 
                                                                                
