 2012  2 7 2318 37.9 L   6.788 -73.156137.7  RSN  7 0.3 2.1LRSN                1
 GAP=136        0.70       4.1     3.7  5.7 -0.7964E+00  0.5043E+01 -0.3215E+01E
 ACTION:UP  12-03-07 16:28 OP:epov STATUS:               ID:20120207231837 L   I
 2012-02-07-2310-00M.COL___188                                                 6
 STAT SP IPHASW D HRMM SECON CODA AMPLIT PERI AZIMU VELO AIN AR TRES W  DIS CAZ7
 BAR2 SZ EP   1   2318 56.80                             171    0.30 7 21.8 188 
 BAR2 SZ ES       2319 10.85                             171   -0.1810 21.8 188 
 BAR2 SZ I        2319 12.20        22.4 0.24                          21.8 188 
 GIR2 SZ EP   1   2318 56.48                             166   -0.14 7 32.4 353 
 BRR  HZ EP       2318 58.14                             151    0.0110 70.8 300 
 BRR  HN ES   1   2319 14.77                             151    0.84 7 70.8 300 
 BRR  HZ I        2319 19.12        24.3 0.42                          70.8 300 
 PAM  SZ EP       2318 59.29                             149   -0.0610 79.2  40 
 PAM  SE ES       2319 15.90                             149   -0.1910 79.2  40 
 RUS  HZ EP   1   2319  0.91                             142    0.17 7 99.3 175 
 RUS  HN ES   1   2319 18.64                             142    0.06 7 99.3 175 
 PTB  HE ES   1   2319 23.86                             130   -0.63 7  146 259 
 ZAR  HZ EP   1   2319  9.93                             120    0.19 6  203 293 
 ZAR  HN ES   1   2319 34.49                             120   -0.11 6  203 293 
 ZAR  HZ I        2319 41.31        14.3 0.55                           203 293 
                                                                                
