 2016 11 7 2352 47.9 L   6.824 -73.204143.1  RSN 10 0.4 2.1LRSN                1
 GAP=130        0.74       2.7     3.1  4.4 -0.1866E+01  0.2594E+01  0.3834E+01E
 Epicentro: ZAPATOCA - SANTANDER                                               3
 ACTION:UPD 17-10-26 21:05 OP:lp   STATUS:               ID:20161107235247 L   I
 OLDACT:REG 16-11-08 03:34 OP:cog  STATUS:               ID:20161107234746     3
 2016-11-07-2348-00M.COL___352                                                 6
 STAT SP IPHASW D HRMM SECON CODA AMPLIT PERI AZIMU VELO AIN AR TRES W  DIS CAZ7
 BAR2 EZ EP       2353  7.15                             169   -0.1610 25.8 175 
 BAR2 EZ ES       2353 22.19                             169   -0.2210 25.8 175 
 BAR2 EZ I        2353 24.97        38.9 0.30            170           25.8 175 
 BRR  HZ EP       2353  8.92                             154    0.5010 64.2 299 
 BRR  HN ES       2353 24.72                             154    0.3210 64.2 299 
 BRR  HZ I        2353 30.93        20.2 0.14            152           64.2 299 
 PAM  EZ EP       2353  9.94                             150   -0.0810 79.7  44 
 PAM  EE ES       2353 27.35                             150    0.1110 79.7  44 
 PAM  EZ I        2353 29.31        26.4 0.54            155           79.7  44 
 PTB  HZ EP       2353 13.69                             133   -0.48 9  142 257 
 PTB  HN ES       2353 34.47                             133   -0.16 9  142 257 
 PTB  HZ I        2353 40.78        14.0 0.22            133            142 257 
 SPBC HZ EP       2353 15.83                             129   -0.23 9  161 217 
 SPBC HN ES       2353 37.98                             129   -0.02 9  161 217 
 SPBC HZ I        2353 39.90        28.8 0.20            131            161 217 
 ZAR  HZ EP       2353 19.68                             123    0.19 9  197 292 
 ZAR  HN ES       2353 43.81                             123   -0.29 9  197 292 
 ZAR  HZ I        2353 51.34        16.5 0.30            124            197 292 
 NOR  HZ EP       2353 23.22                             118    0.09 8  231 233 
 NOR  HE ES       2353 50.42                             118   -0.15 8  231 233 
 NOR  HZ I        2353 56.81         7.7 0.24            120            231 233 
 CHI  HZ EP       2353 25.46                             116   -0.14 8  250 194 
 CHI  HE ES       2353 54.79                             116   -0.19 8  250 194 
 CHI  HZ I        2353 57.14         4.0 0.31            119            250 194 
 ROSC BZ EP   3   2353 27.15                             116    1.33 2  252 209 
 ROSC BN ES       2353 55.76                             116    0.40 8  252 209 
 ROSC BZ I        2353 59.27        13.7 0.30            119            252 209 
 URE  HZ EP   4   2353 31.03                             114    2.93 0  277 292 
 URE  HN ES   4   2353 55.23                             114   -4.19 0  277 292 
 ORTC HZ EP       2353 41.47                             106   -0.12 6  394 215 
 ORTC HE ES       2354 24.50                             106    1.07 6  394 215 
 ORTC HZ I        2354 27.43         3.0 0.20            108            394 215 
 SJC  HZ EP   4   2353 40.72                             105   -2.02 0  403 328 
 SJC  HN ES   4   2354 22.55                             105   -2.93 0  403 328 
                                                                                
