 2013  9 7 2010 10.7 L   6.780 -73.153139.1  RSN 12 0.4 2.1LRSN                1
 GAP=137        1.04       4.6     4.3  6.3 -0.5855E+01  0.8474E+01  0.3139E+01E
 Epicentro: LOS SANTOS - SANTANDER                                             3
 ACTION:UPD 13-10-22 09:20 OP:ep   STATUS:               ID:20130907201010 L   I
 OLDACT:REG 13-09-07 21:22 OP:nd   STATUS:               ID:20130907200959     3
 2013-09-07-2009-59M.COL___269                                                 6
 STAT SP IPHASW D HRMM SECON CODA AMPLIT PERI AZIMU VELO AIN AR TRES W  DIS CAZ7
 BAR2 SZ EP       2010 29.56                             171    0.0510 21.0 189 
 BAR2 SZ ES       2010 43.67                             171   -0.4910 21.0 189 
 BAR2 SZ I        2010 45.64        24.6 0.38            169           21.0 189 
 BRR  HZ EP       2010 31.55                             151    0.3710 71.6 300 
 BRR  HN ES       2010 47.53                             151    0.3910 71.6 300 
 BRR  HZ I        2011  0.84        21.3 0.44            148           71.6 300 
 PAM  SZ EP       2010 32.45                             149    0.0810 79.6  39 
 PAM  SN ES       2010 49.34                             149    0.0810 79.6  39 
 PAM  SZ I        2010 51.91        20.6 0.52            155           79.6  39 
 RUS  HZ EP       2010 33.39                             143   -0.2710 98.4 176 
 RUS  HN ES       2010 51.82                             143    0.2610 98.4 176 
 RUS  HZ I        2010 53.66        14.3 0.42            149           98.4 176 
 PTB  HZ EP       2010 36.21                             131   -0.83 9  147 260 
 PTB  HN ES       2010 56.93                             131   -0.65 9  147 260 
 PTB  HZ I        2011  0.04        16.9 0.12            132            147 260 
 SPBC HZ EP       2010 38.46                             128   -0.04 9  161 219 
 SPBC HN ES       2011  0.58                             128    0.41 9  161 219 
 SPBC HZ I        2011  5.90        16.0 0.18            131            161 219 
 ZAR  HZ EP   4   2010 43.00                             121    0.24 0  204 293 
 ZAR  HN ES   4   2011  8.01                             121    0.26 0  204 293 
 ZAR  HZ I        2011 13.85        16.6 0.48            123            204 293 
 NOR  HZ EP       2010 45.48                             117   -0.38 8  233 235 
 NOR  HN ES       2011 13.69                             117    0.42 8  233 235 
 NOR  HZ I        2011 18.14        14.6 0.14            120            233 235 
 HEL  HZ EP       2010 51.16                             113    0.70 8  271 256 
 HEL  HN ES       2011 21.60                             113    0.15 8  271 256 
 HEL  HZ I        2011 28.31         8.7 0.34            116            271 256 
 GUY2CHZ EP   4   2010 54.75                             111    0.94 0  299 235 
 GUY2CHN ES   4   2011 26.42                             111   -1.00 0  299 235 
 GUY2CHZ I        2011 36.27         7.8 0.36                           299 235 
 RREF HZ EP   4   2010 57.62                             110    1.27 0  320 230 
 RREF HN ES   4   2011 33.64                             110    1.71 0  320 230 
 RREF HZ I        2011 41.53         9.5 0.26            113            320 230 
 SJC  HZ EP   4   2011  3.96                             104   -2.29 0  411 327 
 SJC  HN ES   4   2011 45.39                             104   -4.16 0  411 327 
 SJC  HZ I        2011 48.59         2.3 0.58            107            411 327 
                                                                                
