 2011 11 7 2048 52.2 L   6.787 -73.118140.6  RSN  7 0.3 1.9LRSN                1
 GAP=141        0.65       3.2     4.2  5.0 -0.3982E+01  0.5585E+01  0.8262E+00E
 Epicentro: LOS SANTOS - SANTANDER                                             3
 ACTION:UPD 12-07-13 16:08 OP:ep   STATUS:               ID:20111107204852 L   I
 2011-11-07-2047-20S.COL___175                                                 6
 STAT SP IPHASW D HRMM SECON CODA AMPLIT PERI AZIMU VELO AIN AR TRES W  DIS CAZ7
 BAR2 SZ EP       2049 11.24                             170    0.0210 22.7 198 
 BAR2 SZ ES   1   2049 25.40                             170   -0.63 7 22.7 198 
 BAR2 SZ I        2049 28.34        16.0 0.18                          22.7 198 
 BRR  HZ EP       2049 13.02                             150    0.0110 74.6 298 
 BRR  HE ES   1   2049 29.87                             150    0.64 7 74.6 298 
 BRR  HZ I        2049 34.86        24.6 0.44                          74.6 298 
 PAM  SZ EP       2049 14.08                             150    0.2410 76.6  37 
 PAM  SN ES   1   2049 30.93                             150    0.22 7 76.6  37 
 RUS  HZ EP       2049 15.35                             143    0.0010 99.0 178 
 RUS  HN ES   2   2049 33.53                             143    0.14 5 99.0 178 
 RUS  HZ I        2049 37.10         5.8 0.36                          99.0 178 
 OCA  SZ EP       2049 20.09                             128   -0.22 9  162 352 
 OCA  SZ ES   1   2049 41.73                             128   -0.49 7  162 352 
 OCA  SZ I        2049 45.35        17.7 0.40                           162 352 
 NOR  SZ EP       2049 27.79                             117   -0.04 8  236 235 
 NOR  SE ES   1   2049 55.37                             117   -0.24 6  236 235 
 HEL  HZ EP   1   2049 32.75                             113    0.29 6  275 256 
 HEL  HE ES   2   2050  3.89                             113    0.03 4  275 256 
 HEL  HZ I        2050 10.42         7.4 0.40                           275 256 
                                                                                
