 2010 11 7 2218 28.6 L   6.773 -73.062146.1  RSN  7 0.3 1.8LRSN                1
 GAP=168        0.67       4.8     7.6  7.9 -0.1479E+02  0.4117E+01 -0.2542E+01E
 Epicentro: LOS SANTOS - SANTANDER                                             3
 ACTION:UP  10-12-17 16:50 OP:REBC STATUS:               ID:20101107221828 L   I
 2010-11-07-2214-00S.COL___128                                                 6
 STAT SP IPHASW D HRMM SECON CODA AMPLIT PERI AZIMU VELO SNR AR TRES W  DIS CAZ7
 BAR2 SZ EP   1   2218 48.26                             170     0.0 7   24 214 
 BAR2 SZ ES   2   2219  3.54                             170    -0.1 5   24 214 
 BAR2 SZ I        2219  5.02        15.9 0.26                            24 214 
 BTL  SZ EP   1   2218 47.62                             169    -0.7 7   28 305 
 BRR  HZ EP   1   2218 50.14                             149    -0.2 7   81 297 
 BRR  HZ I        2218 50.38        31.0 0.28                            81 297 
 BRR  HE ES   2   2219  7.65                             149     0.3 5   81 297 
 RUS  HZ EP   1   2218 52.48                             145     0.3 7   97 181 
 RUS  HN ES   2   2219 10.59                             145     0.1 5   97 181 
 RUS  HZ I        2219 12.17         6.6 0.38                            97 181 
 GUE  SZ EP   1   2218 53.52                             139     0.1 7  118   7 
 GRA  SZ EP   1   2218 54.01                             137     0.1 7  126  13 
 GRA  SZ ES   2   2219 14.11                             137     0.5 5  126  13 
 GRA  SZ I        2219 14.65         5.3 0.36                           126  13 
 NOR  SZ EP   1   2219  5.27                             118     0.3 6  241 236 
 NOR  SE ES   2   2219 33.44                             118     0.0 4  241 236 
                                                                                
