 2010 10 7 2226 51.2 L   6.783 -73.154146.6  RSN  5 0.3 1.7LRSN                1
 GAP=217        0.56      11.7    12.7 12.0 -0.1353E+03 -0.1127E+03  0.1027E+03E
 Epicentro: LOS SANTOS - SANTANDER                                             3
 ACTION:UP  11-02-18 11:08 OP:tino STATUS:               ID:20101007222651 L   I
 2010-10-07-2223-44S.COL___122                                                 6
 STAT SP IPHASW D HRMM SECON CODA AMPLIT PERI AZIMU VELO SNR AR TRES W  DIS CAZ7
 BTL  SZ IP       2227 10.93                             172     0.010   20 320 
 BRR  HZ EP   2   2227 11.73                             153    -0.8 5   71 300 
 BRR  HE ES   1   2227 29.24                             153     0.2 7   71 300 
 BRR  HZ I        2227 33.50         8.7 0.33                            71 300 
 GUE  SZ EP       2227 16.38                             139     0.210  119  12 
 GRA  SZ EP   2   2227 16.81                             137     0.1 5  128  18 
 GRA  SZ ES   2   2227 36.19                             137    -0.4 5  128  18 
 GRA  SZ I        2227 38.72         6.6 0.31                           128  18 
 NOR  SZ EP   2   2227 26.88                             119     0.0 4  233 235 
 NOR  SE ES   1   2227 54.50                             119    -0.1 6  233 235 
                                                                                
