 2013  6 7 2255 52.6 L   6.802 -73.156148.5  RSN 10 0.4 2.3LRSN                1
 GAP= 72        1.00       3.4     3.2  5.2  0.6529E+00  0.1662E+01 -0.2091E+00E
 Epicentro: LOS SANTOS - SANTANDER                                             3
 ACTION:UPD 14-01-08 09:53 OP:ep   STATUS:               ID:20130607225552 L   I
 OLDACT:DUP 13-06-08 02:34 OP:stll STATUS:               ID:20130607224850d    3
 2013-06-07-2248-49M.COL___235                                                 6
 STAT SP IPHASW D HRMM SECON CODA AMPLIT PERI AZIMU VELO AIN AR TRES W  DIS CAZ7
 BAR2 SZ EP       2256 12.66                             171    0.1110 23.4 187 
 BAR2 SZ ES       2256 27.69                             171   -0.4310 23.4 187 
 BAR2 SZ I        2256 31.00        20.8 0.40            172           23.4 187 
 GIR2 SZ EP       2256 12.76                             168    0.1810 30.9 352 
 GIR2 SZ ES       2256 28.66                             168    0.4910 30.9 352 
 BRR  HZ IP     C 2256 14.50                             153    0.5310 70.1 299 
 BRR  HE ES       2256 31.47                             153    0.8210 70.1 299 
 BRR  HN I        2256 36.19        59.7 0.22            153           70.1 299 
 PAM  SN ES       2256 32.67                             151   -0.0410 77.9  40 
 PAM  SE I        2256 35.82        13.9 0.64            154           77.9  40 
 RUS  HZ EP       2256 16.71                             144    0.0710  101 175 
 RUS  HN ES       2256 35.13                             144   -0.2610  101 175 
 RUS  HE I        2256 36.05        27.5 0.56            148            101 175 
 GRA  SZ EP       2256 18.55                             138    0.4610  126  18 
 GRA  SZ ES       2256 37.45                             138   -0.5310  126  18 
 PTB  HZ EP       2256 19.48                             133   -0.21 9  147 259 
 PTB  HE ES       2256 40.55                             133   -0.27 9  147 259 
 PTB  HN I        2256 46.24        44.6 0.36            134            147 259 
 TAM  HZ IP     D 2256 20.83                             131    0.24 9  156 105 
 TAM  HE ES       2256 42.16                             131   -0.28 9  156 105 
 OCA  HZ EP       2256 20.83                             130   -0.25 9  160 354 
 OCA  HN ES       2256 42.94                             130   -0.36 9  160 354 
 OCA  HE I        2256 48.47        60.1 0.26            132            160 354 
 ZAR  HZ EP       2256 24.98                             123   -0.12 9  203 292 
 ZAR  HE ES       2256 49.94                             123   -0.51 9  203 292 
                                                                                
