 2014  2 7 2046 49.9 L   6.814 -73.137148.2  RSN  6 0.4 2.1LRSN                1
 GAP=152        1.12       5.8     6.3  7.9 -0.1446E+02 -0.1041E+01  0.1736E+02E
 Epicentro: LOS SANTOS - SANTANDER                                             3
 ACTION:UPD 14-03-10 08:08 OP:ep   STATUS:               ID:20140207204649 L   I
 OLDACT:REG 14-02-08 00:02 OP:stll STATUS:               ID:20140207203817     3
 2014-02-07-2038-17M.COL___180                                                 6
 STAT SP IPHASW D HRMM SECON CODA AMPLIT PERI AZIMU VELO AIN AR TRES W  DIS CAZ7
 BAR2 SZ EP       2047  9.02                             170   -0.8610 25.0 191 
 BAR2 SZ ES       2047 25.66                             170    0.2110 25.0 191 
 BRR  HZ EP       2047 11.85                             153    0.5110 71.3 297 
 BRR  HN ES       2047 28.47                             153    0.4210 71.3 297 
 PAM  SZ EP       2047 12.78                             152    0.4910 75.6  40 
 PAM  SZ I        2047 17.79        12.6 0.58            149           75.6  40 
 PAM  SN ES       2047 29.32                             152   -0.4310 75.6  40 
 PTB  HZ EP       2047 16.89                             132   -0.31 9  149 258 
 PTB  HN ES       2047 37.91                             132   -0.56 9  149 258 
 PTB  HZ I        2047 44.07        17.8 0.68            130            149 258 
 SPBC HZ EP       2047 19.00                             129    0.22 9  165 219 
 SPBC HZ I        2047 19.35        16.2 0.20            128            165 219 
 SPBC HN ES       2047 41.44                             129    0.16 9  165 219 
 CHI  HZ EP       2047 27.90                             117   -0.04 8  250 195 
 CHI  HN ES       2047 57.80                             117    0.20 8  250 195 
                                                                                
