 2016  7 7 2031 51.1 L   6.814 -73.096154.2  RSN 15 0.6 2.1LRSN                1
 GAP=142        1.25       4.4     4.9  6.7 -0.5858E+00  0.1100E+02  0.6482E+01E
 Epicentro: LOS SANTOS - SANTANDER                                             3
 ACTION:UPD 17-03-29 16:48 OP:lp   STATUS:               ID:20160707203151 L   I
 OLDACT:REG 16-07-08 03:39 OP:ak   STATUS:               ID:20160707202743     3
 2016-07-07-2027-43M.COL___338                                                 6
 STAT SP IPHASW D HRMM SECON CODA AMPLIT PERI AZIMU VELO AIN AR TRES W  DIS CAZ7
 BAR2 EZ EP       2032 12.09                             170    0.3110 26.3 201 
 BAR2 EZ ES       2032 27.17                             170   -0.7510 26.3 201 
 BAR2 EZ I        2032 29.92        24.6 0.34            165           26.3 201 
 PAM  EZ EP   2   2032 14.88                             154    0.94 5 72.8  37 
 PAM  EN ES       2032 32.09                             154    0.3210 72.8  37 
 BRR  HN ES       2032 31.64                             153    0.8810 75.4 296 
 RUS  HZ EP       2032 16.04                             145    0.2910  102 179 
 RUS  HN ES       2032 34.53                             145   -0.4710  102 179 
 RUS  HZ I        2032 37.54        12.2 0.42            144            102 179 
 PTB  HZ EP       2032 18.57                             133   -0.68 9  153 259 
 PTB  HN ES       2032 40.38                             133   -0.84 9  153 259 
 PTB  HZ I        2032 47.45        23.9 0.48            131            153 259 
 SPBC HZ EP       2032 21.08                             130    0.41 9  168 220 
 SPBC HN ES       2032 43.89                             130    0.15 9  168 220 
 ZAR  HZ EP       2032 24.09                             123   -0.45 8  209 291 
 ZAR  HN ES       2032 50.25                             123   -0.40 8  209 291 
 ZAR  HZ I        2032 57.60        10.7 0.39            123            209 291 
 NOR  HZ EP       2032 28.18                             120    0.31 8  240 235 
 NOR  HE ES       2032 57.18                             120    0.61 8  240 235 
 NOR  HZ I        2033  1.64        12.2 0.29            119            240 235 
 CHI  HZ EP       2032 29.00                             118   -0.57 8  252 196 
 CHI  HN ES       2032 59.52                             118   -0.07 8  252 196 
 CHI  HZ I        2033  9.29         3.7 0.16            119            252 196 
 HEL  HZ EP   2   2032 33.05                             116    0.70 4  278 256 
 HEL  HN ES       2033  5.25                             116    0.70 7  278 256 
 HEL  HZ I        2033 11.07         9.7 0.38            116            278 256 
 URE  HN ES   4   2033  3.31                             115   -2.51 0  288 291 
 GUY2CHZ EP   2   2032 36.25                             113    0.57 4  307 235 
 GUY2CHN ES       2033 11.43                             113    0.95 7  307 235 
 GUY2CHZ I        2033 19.15         6.4 0.36                           307 235 
 ELA  HZ EP   4   2032 41.75                             111    2.87 0  334 230 
 ELA  HE ES   4   2033 19.79                             111    3.62 0  334 230 
 ELA  HZ I        2033 25.06         4.5 0.20            111            334 230 
 CBOC HZ EP   4   2032 33.93                             111   -5.07 0  339 252 
 CBOC HE ES       2033 15.67                             111   -0.71 7  339 252 
 CBOC HZ I        2033 21.32         2.3 0.17            111            339 252 
 PRA  HZ EP       2032 45.16                             108   -0.21 6  396 210 
 PRA  HN ES       2033 27.74                             108    0.02 6  396 210 
 PRA  HZ I        2033 32.22         4.8 0.26            108            396 210 
 SJC  HZ EP       2032 46.36                             107   -0.77 6  411 326 
 SJC  HN ES   4   2033 28.36                             107   -2.49 0  411 326 
 SJC  HZ I        2033 33.74         1.7 0.17            108            411 326 
                                                                                
