 2011 12 7 2358 56.7 L   6.772 -73.121147.1  RSN  6 0.2 2.4LRSN                1
 GAP=141        0.48       2.9     4.1  3.8 -0.1437E+01  0.3096E+01  0.3163E+01E
 Epicentro: LOS SANTOS - SANTANDER                                             3
 ACTION:UPD 12-07-13 16:14 OP:ep   STATUS:               ID:20111207235856 L   I
 2011-12-07-2350-00M.COL___170                                                 6
 STAT SP IPHASW D HRMM SECON CODA AMPLIT PERI AZIMU VELO AIN AR TRES W  DIS CAZ7
 BAR2 SZ IP       2359 16.44                             172   -0.0210 21.0 199 
 BAR2 SZ ES   1   2359 31.64                             172   -0.22 7 21.0 199 
 BAR2 SZ I        2359 34.19        59.4 0.20                          21.0 199 
 BRR  HZ IP     D 2359 18.40                             151    0.1710 75.1 300 
 BRR  HN ES   1   2359 35.12                             151    0.11 7 75.1 300 
 BRR  HZ I        2359 38.92        61.5 0.20                          75.1 300 
 PAM  SZ EP       2359 19.28                             151    0.1710 78.1  37 
 PAM  SE ES   1   2359 36.29                             151   -0.30 7 78.1  37 
 RUS  HZ EP       2359 20.29                             145   -0.0710 97.3 178 
 RUS  HE ES   1   2359 39.07                             145    0.26 7 97.3 178 
 RUS  HZ I        2359 40.35        22.9 0.40                          97.3 178 
 NOR  SZ EP       2359 32.24                             119   -0.32 8  235 235 
 CHI  HZ EP       2359 34.30                             118    0.07 8  246 196 
                                                                                
