 2017  2 7 2333  3.7 L   6.743 -73.146144.5  RSN  4 0.3 1.3LRSN                1
 GAP=233        0.65       6.0     6.2  8.4  0.2154E+02  0.2157E+02  0.1336E+02E
 Epicentro: LOS SANTOS - SANTANDER                                             3
 ACTION:UPD 17-05-24 15:33 OP:jn   STATUS:               ID:20170207233303 L   I
 OLDACT:DUP 17-02-08 04:02 OP:dnl  STATUS:               ID:20170207232745d    3
 2017-02-07-2328-00M.COL___343                                                 6
 STAT SP IPHASW D HRMM SECON CODA AMPLIT PERI AZIMU VELO AIN AR TRES W  DIS CAZ7
 BAR2 EZ EP   3   2333 22.32                             173   -0.73 2 17.1 194 
 BAR2 EZ ES       2333 37.78                             173   -0.3810 17.1 194 
 BAR2 EZ I        2333 38.58         4.9 0.10            177           17.1 194 
 BRR  HZ EP   2   2333 25.33                             151    0.45 5 74.4 303 
 BRR  HE ES       2333 41.68                             151    0.2610 74.4 303 
 BRR  HZ I        2333 48.59         9.8 0.34            150           74.4 303 
 RUS  HZ EP   2   2333 26.93                             145    0.07 5 94.3 176 
 RUS  HE ES       2333 45.19                             145    0.2510 94.3 176 
 RUS  HZ I        2333 47.09         1.2 0.38            150           94.3 176 
 PTB  HZ EP   2   2333 29.96                             132   -0.48 5  147 261 
 PTB  HE ES       2333 51.19                             132   -0.13 9  147 261 
 PTB  HZ I        2333 53.02         3.7 0.16            134            147 261 
                                                                                
