 2017  5 7 2305 11.2 L   6.791 -73.166142.0  RSN  5 0.4 1.6LRSN                1
 GAP=134        0.84       4.3     3.8  7.3  0.1139E+01  0.4916E+01  0.3195E+01E
 Epicentro: LOS SANTOS - SANTANDER                                             3
 ACTION:UPD 17-06-16 13:33 OP:jn   STATUS:               ID:20170507230511 L   I
 OLDACT:UP  17-05-08 03:49 OP:dani STATUS:               ID:20170507225509     3
 OLDACT:REG 17-05-08 03:19 OP:dani STATUS:               ID:20170507225509     3
 2017-05-07-2258-00M.COL___365                                                 6
 STAT SP IPHASW D HRMM SECON CODA AMPLIT PERI AZIMU VELO AIN AR TRES W  DIS CAZ7
 BRR  HZ EP     D 23 5 31.95                             153    0.1110 69.7 300 
 BRR  HN ES       23 5 48.47                             153    0.5210 69.7 300 
 PAM  EZ EP       23 5 33.05                             150   -0.0910 79.7  40 
 PAM  EN ES       23 5 49.97                             150   -0.2910 79.7  40 
 PAM  EZ I        23 5 51.52         8.8 0.38            153           79.7  40 
 RUS  HZ EP       23 5 34.78                             144    0.2810 99.7 175 
 RUS  HN ES       23 5 52.78                             144    0.0910 99.7 175 
 RUS  HZ I        23 5 54.41         2.9 0.15            146           99.7 175 
 PTB  HZ EP       23 5 37.14                             132   -0.48 9  145 259 
 PTB  HN ES       23 5 57.79                             132   -0.45 9  145 259 
 PTB  HZ I        23 6  3.53         4.9 0.38            131            145 259 
 ZAR  HZ EP   3   23 5 44.64                             122    1.44 2  202 293 
 ZAR  HE ES       23 6  8.36                             122    0.18 9  202 293 
 ZAR  HZ I        23 6 15.26         5.1 0.32            122            202 293 
                                                                                
