 2016  3 7 2100 52.5 L   6.780 -73.139143.3  RSN 10 0.4 1.9LRSN                1
 GAP=105        0.99       3.9     3.3  6.0 -0.7999E+00  0.6679E+01  0.3371E+01E
 Epicentro: LOS SANTOS - SANTANDER                                             3
 ACTION:UPD 16-05-13 21:22 OP:cam  STATUS:               ID:20160307210052 L   I
 OLDACT:UP  16-03-14 10:33 OP:Ak   STATUS:               ID:20160307210052 L   3
 OLDACT:UP  16-03-08 09:11 OP:mh   STATUS:               ID:20160307205748     3
 OLDACT:UP  16-03-08 09:05 OP:mh   STATUS:               ID:20160307205748     3
 OLDACT:UP  16-03-08 09:04 OP:mh   STATUS:               ID:20160307205748     3
 OLDACT:REG 16-03-08 05:47 OP:mh   STATUS:               ID:20160307205748     3
 2016-03-07-2057-48M.COL___301                                                 6
 STAT SP IPHASW D HRMM SECON CODA AMPLIT PERI AZIMU VELO AIN AR TRES W  DIS CAZ7
 BAR2 EZ EP       21 1 11.86                             171    0.0210 21.3 193 
 BAR2 EZ ES       21 1 27.04                             171    0.1610 21.3 193 
 BAR2 EZ I        21 1 29.31        17.2 0.30            170           21.3 193 
 PAM  EZ EP       21 1 14.48                             150   -0.0910 78.6  38 
 PAM  EN ES       21 1 31.69                             150   -0.0610 78.6  38 
 PAM  EZ I        21 1 35.21        11.5 0.34            154           78.6  38 
 RUS  HZ EP       21 1 15.68                             144   -0.2110 98.3 176 
 RUS  HN ES       21 1 34.18                             144    0.0910 98.3 176 
 RUS  HZ I        21 1 35.77         4.8 0.31            146           98.3 176 
 PTB  HZ EP       21 1 18.43                             131   -0.91 9  148 260 
 PTB  HN ES       21 1 39.64                             131   -0.60 9  148 260 
 PTB  HZ I        21 1 45.11         9.4 0.22            132            148 260 
 TAM  HZ EP   1   21 1 20.11                             130    0.21 7  154 104 
 TAM  HN ES   1   21 1 41.39                             130    0.15 7  154 104 
 TAM  HZ I        21 1 43.25         9.6 0.30            134            154 104 
 SPBC HZ EP   4   21 1 20.63                             129   -0.11 0  162 220 
 ZAR  HZ EP   1   21 1 24.92                             122   -0.07 6  206 293 
 ZAR  HN ES       21 1 51.25                             122    0.95 8  206 293 
 ZAR  HZ I        21 1 56.22        18.4 0.42            123            206 293 
 NOR  HZ EP       21 1 27.65                             118   -0.41 8  234 235 
 NOR  HE ES       21 1 56.03                             118    0.27 8  234 235 
 NOR  HZ I        21 2  1.01        10.9 0.37            119            234 235 
 CHI  HZ EP       21 1 29.81                             117   -0.08 8  247 195 
 CHI  HN ES       21 1 59.32                             117    0.30 8  247 195 
 CHI  HZ I        21 2  5.17         2.6 0.40            119            247 195 
 HEL  HZ EP   1   21 1 33.26                             114    0.60 6  272 256 
 HEL  HN ES   1   21 2  3.78                             114   -0.16 6  272 256 
 HEL  HZ I        21 2 10.23         7.7 0.61            116            272 256 
 GUY2CHZ EP       21 1 36.73                             112    0.76 7  301 235 
 GUY2CHE ES   4   21 2 12.90                             112    3.07 0  301 235 
 GUY2CHZ I        21 2 17.96         7.2 0.60                           301 235 
 ELA  HN ES   4   21 2 18.73                             110    3.15 0  328 230 
                                                                                
