 2014  6 7 2035  1.2 L   6.769 -73.170153.2  RSN  7 0.5 1.9LRSN                1
 GAP=198        1.34       6.8     8.3  9.0  0.2600E+02  0.7843E+01 -0.1138E+02E
 Epicentro: LOS SANTOS - SANTANDER                                             3
 ACTION:UPD 14-07-01 22:51 OP:nd   STATUS:               ID:20140607203501 L   I
 OLDACT:UP  14-06-08 02:34 OP:cam  STATUS:               ID:20140607203001d    3
 OLDACT:DUP 14-06-08 02:31 OP:cam  STATUS:               ID:20140607203001d    3
 OLDACT:UP  14-06-08 02:30 OP:cam  STATUS:               ID:20140607203000     3
 OLDACT:REG 14-06-08 02:14 OP:cam  STATUS:               ID:20140607203000     3
 2014-06-07-2030-00M.COL___276                                                 6
 STAT SP IPHASW D HRMM SECON CODA AMPLIT PERI AZIMU VELO AIN AR TRES W  DIS CAZ7
 BAR2 SZ EP       2035 21.65                             173   -0.0110 19.6 184 
 BAR2 SZ ES       2035 37.04                             173   -0.5710 19.6 184 
 BAR2 SZ I        2035 38.35         9.8 0.30            172           19.6 184 
 BRR  HZ EP       2035 23.63                             154    0.5010 70.6 302 
 BRR  HN ES       2035 41.09                             154    0.8710 70.6 302 
 BRR  HN I        2035 44.25        26.3 0.22            151           70.6 302 
 RUS  HZ EP       2035 25.80                             146    0.3310 97.4 174 
 RUS  HE ES       2035 44.42                             146    0.0310 97.4 174 
 RUS  HZ I        2035 45.66         4.1 0.32            149           97.4 174 
 PTB  HZ EP       2035 27.61                             134   -0.89 9  144 260 
 PTB  HN ES       2035 49.26                             134   -0.53 9  144 260 
 PTB  HZ I        2035 55.54        10.9 0.42            133            144 260 
 ZAR  HZ EP       2035 34.42                             124    0.39 9  203 293 
 ZAR  HE ES       2036  0.08                             124    0.45 9  203 293 
 ZAR  HZ I        2036  5.96        10.0 0.32            124            203 293 
 NOR  HZ EP   1   2035 37.05                             121    0.12 6  231 235 
 SML  HZ EP   1   2035 38.58                             119    0.10 6  246 336 
 SML  HN ES       2036  6.59                             119   -0.95 8  246 336 
 SML  HZ I        2036 12.87         9.9 0.26            120            246 336 
                                                                                
