 2010  9 7 2219 45.5 L   6.803 -73.083142.7  RSN 10 0.2 2.0LRSN                1
 GAP=166        0.47       2.3     4.4  3.6 -0.1833E+01  0.9877E+00  0.1658E+01E
 Epicentro: LOS SANTOS - SANTANDER                                             3
 ACTION:UP  11-02-18 11:01 OP:tino STATUS:               ID:20100907221945 L   I
 2010-09-07-2216-43S.COL___120                                                 6
 STAT SP IPHASW D HRMM SECON CODA AMPLIT PERI AZIMU VELO SNR AR TRES W  DIS CAZ7
 BTL  SZ IP       2220  4.96                             170     0.210   24 302 
 BTL  SZ ES   1   2220 19.86                             170     0.0 7   24 302 
 BAR2 SZ IP       2220  4.83                             169     0.010   26 205 
 BAR2 SZ I        2220  5.37        24.9 0.37                            26 205 
 BAR2 SZ ES   1   2220 20.16                             169     0.2 7   26 205 
 BRR  HZ IP     C 2220  6.59                             150    -0.110   77 296 
 BRR  HN ES   1   2220 23.12                             150    -0.1 7   77 296 
 BRR  HZ I        2220 26.86        25.0 0.19                            77 296 
 RUS  HZ EP       2220  8.93                             143    -0.110  101 180 
 RUS  HZ I        2220 10.09        11.1 0.19                           101 180 
 RUS  HN ES   1   2220 27.35                             143     0.1 7  101 180 
 GUE  SZ EP   2   2220 10.29                             139     0.5 5  115   9 
 GRA  SZ EP   2   2220 10.43                             137     0.1 5  124  14 
 GRA  SZ ES   1   2220 29.29                             137    -0.4 7  124  14 
 GRA  SZ I        2220 31.16        11.0 0.25                           124  14 
 CHI  HZ EP   2   2220 22.81                             116    -0.5 4  251 197 
 CHI  HN ES   2   2220 52.52                             116    -0.2 4  251 197 
 CHI  HZ I        2220 59.44         4.6 0.45                           251 197 
 HEL  HZ EP   2   2220 26.54                             114     0.2 4  279 256 
 HEL  HZ I        2221  2.78         5.9 0.46                           279 256 
 RREF HZ EP   2   2220 32.87                             110     0.7 3  327 230 
 RREF HE ES   2   2221  8.39                             110    -0.2 3  327 230 
 RREF HZ I        2221 17.93         6.0 0.55                           327 230 
 PRA  HZ EP   2   2220 39.35                             106     0.0 3  396 210 
 PRA  HN ES   2   2221 21.09                             106    -0.3 3  396 210 
 PRA  HZ I        2221 26.40         6.4 0.64                           396 210 
                                                                                
