 2015  8 7 2202 18.9 L   6.792 -73.111143.3  RSN  4 0.2 1.6LRSN                1
 GAP=141        0.58       3.1     4.5  4.7 -0.3192E+00 -0.1419E+01  0.6189E+00E
 Epicentro: LOS SANTOS - SANTANDER                                             3
 ACTION:UPD 15-09-15 23:00 OP:cam  STATUS:               ID:20150807220218 L   I
 OLDACT:REG 15-08-08 03:35 OP:stll STATUS:               ID:20150807215749     3
 2015-08-07-2157-49M.COL___358                                                 6
 STAT SP IPHASW D HRMM SECON CODA AMPLIT PERI AZIMU VELO AIN AR TRES W  DIS CAZ7
 BAR2 EZ EP       22 2 38.26                             170   -0.0010 23.5 200 
 BAR2 EZ ES       22 2 52.98                             170   -0.3610 23.5 200 
 BAR2 EZ I        22 2 54.37        10.8 0.16            170           23.5 200 
 BRR  HZ EP       22 2 39.87                             151   -0.1610 75.0 298 
 BRR  HN ES       22 2 56.70                             151    0.2110 75.0 298 
 PAM  EZ EP       22 2 40.93                             151    0.1510 75.7  37 
 PAM  EZ I        22 2 41.22        14.5 0.22            151           75.7  37 
 PAM  EN ES       22 2 57.83                             151    0.0110 75.7  37 
 RUS  HZ EP       22 2 42.23                             144   -0.1310 99.5 178 
 RUS  HZ I        22 2 43.28         3.7 0.10            143           99.5 178 
 RUS  HN ES       22 3  0.92                             144    0.2810 99.5 178 
                                                                                
