 2016  3 7 2319 34.1 L   6.804 -73.212130.0  RSN  7 0.4 1.6LRSN                1
 GAP=128        1.01       4.1     4.2  8.4 -0.3420E+01  0.1529E+02 -0.1921E+01E
 Epicentro: ZAPATOCA - SANTANDER                                               3
 ACTION:UPD 16-05-13 21:22 OP:cam  STATUS:               ID:20160307231934 L   I
 OLDACT:UP  16-03-08 10:51 OP:mh   STATUS:               ID:20160307231750     3
 OLDACT:UP  16-03-08 10:48 OP:mh   STATUS:               ID:20160307231750     3
 OLDACT:UP  16-03-08 10:47 OP:mh   STATUS:               ID:20160307231750     3
 OLDACT:REG 16-03-08 08:51 OP:mh   STATUS:               ID:20160307231750     3
 2016-03-07-2317-50M.COL___295                                                 6
 STAT SP IPHASW D HRMM SECON CODA AMPLIT PERI AZIMU VELO AIN AR TRES W  DIS CAZ7
 PAM  EZ EP       2319 54.62                             146   -0.3110 81.9  44 
 PAM  EN ES       2320 11.32                             146    0.1210 81.9  44 
 PAM  EZ I        2320 13.14        10.4 0.44            151           81.9  44 
 RUS  HZ EP       2319 56.22                             140   -0.1810  102 172 
 RUS  HN ES       2320 14.13                             140    0.3110  102 172 
 PTB  HZ EP       2319 58.41                             130   -0.71 9  141 258 
 PTB  HN ES       2320 18.29                             130   -0.38 9  141 258 
 PTB  HZ I        2320 21.38         4.7 0.12            131            141 258 
 SPBC HZ EP       2320  1.31                             126    0.31 9  159 217 
 SPBC HN ES       2320 22.11                             126    0.11 9  159 217 
 SPBC HZ I        2320 26.81         4.7 0.10            130            159 217 
 ZAR  HZ EP       2320  4.76                             120   -0.04 9  197 293 
 ZAR  HN ES       2320 29.31                             120    0.55 9  197 293 
 ZAR  HZ I        2320 38.14         5.6 0.46            122            197 293 
 NOR  HZ EP       2320  8.29                             116   -0.02 8  229 233 
 NOR  HN ES       2320 34.61                             116   -0.41 8  229 233 
 HEL  HZ EP       2320 13.72                             112    0.99 8  265 255 
 HEL  HN ES   4   2320 47.51                             112    4.61 0  265 255 
                                                                                
