 2017  7 7 2134 51.7 L   6.795 -73.175148.0  RSN  6 0.4 1.8LRSN                1
 GAP=242        0.97       6.6     5.9  7.9 -0.1683E+01  0.1435E+02  0.1504E+02E
 Epicentro: LOS SANTOS - SANTANDER                                             3
 ACTION:UPD 17-08-30 15:30 OP:rebc STATUS:               ID:20170707213451 L   I
 OLDACT:UP  17-07-08 05:09 OP:dhb  STATUS:               ID:20170707212739     3
 OLDACT:REG 17-07-08 02:40 OP:dhb  STATUS:               ID:20170707212739     3
 2017-07-07-2128-00M.COL___383                                                 6
 STAT SP IPHASW D HRMM SECON CODA AMPLIT PERI AZIMU VELO AIN AR TRES W  DIS CAZ7
 BAR2 EZ EP       2135 11.12                             171   -0.4710 22.5 182 
 BAR2 EZ ES       2135 27.00                             171   -0.0910 22.5 182 
 BAR2 EZ I        2135 27.37        13.5 0.20            170           22.5 182 
 BRR  HZ EP       2135 13.16                             154    0.2010 68.7 300 
 BRR  HN ES       2135 30.07                             154    0.5410 68.7 300 
 BRR  HZ I        2135 34.84        14.1 0.24            150           68.7 300 
 PTB  HZ EP       2135 18.41                             133   -0.16 9  145 259 
 PTB  HN ES       2135 39.16                             133   -0.36 9  145 259 
 PTB  HZ I        2135 41.86         7.8 0.18            132            145 259 
 ZAR  HZ EP   4   2135 25.48                             123    1.46 0  201 293 
 ZAR  HN ES       2135 48.86                             123   -0.36 9  201 293 
 ZAR  HZ I        2135 54.86         8.4 0.32            123            201 293 
 NOR  HZ EP       2135 27.92                             119    0.66 8  232 234 
 NOR  HE ES       2135 55.45                             119    0.46 8  232 234 
 NOR  HZ I        2136  2.03         3.5 0.11            120            232 234 
 GUY2CHZ EP   4   2135 37.56                             113    2.47 0  298 234 
 GUY2CHE ES       2136  8.53                             113   -0.40 7  298 234 
 GUY2CHZ I        2136 19.06         3.4 0.55                           298 234 
                                                                                
