 2010  3 7 2314  3.0 L   6.817 -73.065142.8  RSN 10 0.3 2.1LRSN                1
 GAP=132        0.61       2.7     4.3  4.1 -0.3305E+01  0.1176E+00  0.6257E+00E
 Epicentro: LOS SANTOS - SANTANDER                                             3
 ACTION:UP  10-08-24 09:52 OP:vdl  STATUS:               ID:20100307231402 L   I
 2010-03-07-2312-31S.COL___100                                                 6
 STAT SP IPHASW D HRMM SECON CODA AMPLIT PERI AZIMU VELO SNR AR TRES W  DIS CAZ7
 BAR2 SZ EP       2314 22.51                             168     0.110   28 208 
 BAR2 SZ ES   1   2314 37.15                             168    -0.4 7   28 208 
 BRR  HZ EP       2314 24.33                             150     0.010   78 294 
 BRR  HE ES   1   2314 41.05                             150     0.2 7   78 294 
 BRR  HZ I        2314 41.07        13.4 0.16                            78 294 
 RUS  BZ EP       2314 26.62                             143     0.010  102 181 
 RUS  BN ES   1   2314 45.50                             143     0.5 7  102 181 
 OCA  SZ EP       2314 31.07                             129     0.0 9  160 350 
 OCA  SZ ES   2   2314 52.52                             129    -0.4 5  160 350 
 OCA  SZ I        2314 56.24        14.9 0.17                           160 350 
 CHI  HZ EP   1   2314 41.23                             116     0.2 6  253 197 
 CHI  HE ES   2   2315  9.79                             116    -0.9 4  253 197 
 CHI  HZ I        2315 13.87         5.9 0.52                           253 197 
 HEL  HZ EP   2   2314 44.53                             113     0.4 4  281 256 
 HEL  HZ I        2315 21.12         4.4 0.45                           281 256 
 RREF BZ EP   2   2314 50.26                             110     0.3 3  330 230 
 RREF BN ES       2315 26.62                             110     0.0 7  330 230 
 RREF BZ I        2315 34.31         4.7 0.49                           330 230 
 TOL  SZ EP       2314 52.10                             108     0.0 6  351 225 
 TOL  SZ ES   2   2315 30.50                             108     0.2 3  351 225 
 SDV  BZ EP       2314 52.19                             108     0.1 6  352  49 
 SDV  BZ I        2314 53.00         7.8 0.09                           352  49 
 PRA  HZ EP       2314 56.57                             106    -0.6 6  398 211 
 PRA  HE ES   3   2315 38.25                             106    -1.1 1  398 211 
 PRA  HZ I        2315 45.16         4.5 0.27                           398 211 
                                                                                
