 2015  5 7 2328 32.6 L   6.781 -73.132148.9  RSN  8 0.3 1.6LRSN                1
 GAP=139        0.67       2.2     3.3  4.9  0.3129E+00  0.3670E+01  0.1136E+01E
 Epicentro: LOS SANTOS - SANTANDER                                             3
 ACTION:UPD 15-09-10 22:02 OP:cam  STATUS:               ID:20150507232832 L   I
 OLDACT:REG 15-05-08 04:21 OP:ak   STATUS:               ID:20150507232750     3
 2015-05-07-2327-50M.COL___282                                                 6
 STAT SP IPHASW D HRMM SECON CODA AMPLIT PERI AZIMU VELO AIN AR TRES W  DIS CAZ7
 BRR  HZ EP       2328 54.42                             152    0.2210 73.5 299 
 BRR  HN ES       2329 11.46                             152    0.3910 73.5 299 
 BRR  HZ I        2329 14.66         7.4 0.30            151           73.5 299 
 PAM  SZ EP       2328 55.24                             151    0.0710 78.1  38 
 PAM  SN ES       2329 12.47                             151   -0.3310 78.1  38 
 PAM  SZ I        2329 14.59         6.7 0.18            154           78.1  38 
 RUS  HZ EP       2328 56.53                             145    0.0410 98.4 177 
 RUS  HN ES       2329 15.17                             145    0.0310 98.4 177 
 RUS  HZ I        2329 16.53         2.8 0.27            146           98.4 177 
 ZAR  HE ES       2329 30.97                             123   -0.13 8  206 293 
 ZAR  HZ I        2329 36.84         5.1 0.14            123            206 293 
 NOR  HN ES       2329 36.03                             119   -0.48 8  235 235 
 SML  HZ EP       2329  9.29                             118   -0.37 8  246 335 
 SML  HN ES       2329 38.61                             118    0.04 8  246 335 
 SML  HZ I        2329 43.62         5.4 0.09            119            246 335 
 CHI  HZ EP       2329 10.55                             118    0.27 8  247 196 
 CHI  HN ES       2329 39.54                             118   -0.15 8  247 196 
 CHI  HZ I        2329 47.75         1.6 0.30            119            247 196 
 GUY2CHZ EP   2   2329 17.32                             113    0.98 4  301 235 
 GUY2CHE ES   4   2329 52.67                             113    2.20 0  301 235 
 GUY2CHZ I        2329 59.25         3.1 0.38                           301 235 
                                                                                
