 2017  6 7 2211  3.3 L   6.767 -73.137149.0  RSN  4 0.4 1.5LRSN                1
 GAP=236        0.98       8.1     8.3  8.9  0.4528E+02 -0.5777E+01 -0.1450E+02E
 Epicentro: LOS SANTOS - SANTANDER                                             3
 ACTION:UPD 17-09-14 16:50 OP:jn   STATUS:               ID:20170607221103 L   I
 OLDACT:UP  17-06-08 03:39 OP:dani STATUS:               ID:20170607220732     3
 OLDACT:REG 17-06-08 02:49 OP:dani STATUS:               ID:20170607220732     3
 2017-06-07-2208-00M.COL___359                                                 6
 STAT SP IPHASW D HRMM SECON CODA AMPLIT PERI AZIMU VELO AIN AR TRES W  DIS CAZ7
 BRR  HZ EP       2211 25.14                             152    0.2410 73.9 301 
 BRR  HN ES       2211 41.71                             152   -0.0810 73.9 301 
 BRR  HZ I        2211 44.34        11.1 0.28            150           73.9 301 
 RUS  HZ EP       2211 27.18                             145    0.1110 96.9 176 
 RUS  HN ES       2211 45.51                             145   -0.1310 96.9 176 
 RUS  HZ I        2211 46.33         2.3 0.24            149           96.9 176 
 PTB  HZ EP       2211 31.02                             133    0.50 9  148 260 
 PTB  HN ES       2211 51.57                             133   -0.21 9  148 260 
 PTB  HZ I        2211 53.06         3.3 0.30            133            148 260 
 ZAR  HZ EP       2211 35.22                             123   -0.93 8  206 293 
 ZAR  HN ES       2212  2.19                             123    0.38 8  206 293 
 ZAR  HZ I        2212  9.85         4.5 0.42            123            206 293 
                                                                                
