 2017  8 7 2230 45.0 L   6.875 -73.265121.7  RSN  7 0.3 1.5LRSN                1
 GAP=226        1.02       4.9     5.4  6.5  0.1079E+02  0.7146E+01  0.9648E+01E
 Epicentro: BETULIA - SANTANDER                                                3
 ACTION:UPD 17-09-04 20:17 OP:rebc STATUS:               ID:20170807223045 L   I
 OLDACT:UP  17-08-08 07:44 OP:edw  STATUS:               ID:20170807222740     3
 OLDACT:UP  17-08-08 07:43 OP:edw  STATUS:               ID:20170807222740     3
 OLDACT:REG 17-08-08 04:54 OP:edw  STATUS:               ID:20170807222740     3
 2017-08-07-2228-00M.COL___396                                                 6
 STAT SP IPHASW D HRMM SECON CODA AMPLIT PERI AZIMU VELO AIN AR TRES W  DIS CAZ7
 BAR2 EZ EP     D 2231  2.22                             164    0.2110 32.6 164 
 BAR2 EZ ES       2231 15.17                             164   -0.1010 32.6 164 
 BRR  HZ EP       2231  2.42                             154   -0.2510 55.6 298 
 BRR  HN ES       2231 16.62                             154    0.1710 55.6 298 
 RUS  HZ EP       2231  7.51                             136    0.2210  110 169 
 RUS  HN ES       2231 24.62                             136   -0.0610  110 169 
 RUS  HZ I        2231 25.81         6.8 0.28            134            110 169 
 PTB  HZ EP   9   2231  7.60                             129   -1.45 0  137 254 
 PTB  HN ES       2231 27.48                             128    1.12 9  137 254 
 PTB  HZ I        2231 29.48         4.0 0.18            126            137 254 
 ZAR  HZ EP   4   2231 16.39                             119    2.05 0  189 291 
 ZAR  HN ES       2231 37.10                             119   -0.12 9  189 291 
 ZAR  HZ I        2231 39.48         4.9 0.56            118            189 291 
 NOR  HZ EP       2231 18.90                             114    0.07 8  229 231 
 NOR  HN ES       2231 44.80                             114   -0.43 8  229 231 
 NOR  HZ I        2231 49.19         1.8 0.28            112            229 231 
 CHI  HZ EP       2231 21.74                             112   -0.30 8  254 192 
 CHI  HN ES       2231 51.49                             112    0.55 8  254 192 
 CHI  HZ I        2231 55.89         1.7 0.32            111            254 192 
                                                                                
