 2017  9 7 2223 16.3 L   6.779 -73.104141.9  RSN  5 0.4 1.3LRSN                1
 GAP=143        0.94       4.7     5.6  6.7 -0.7131E+01  0.8097E+01  0.4533E+01E
 Epicentro: LOS SANTOS - SANTANDER                                             3
 ACTION:UPD 17-10-05 19:10 OP:rebc STATUS:               ID:20170907222316 L   I
 OLDACT:DUP 17-09-08 08:58 OP:osc  STATUS:               ID:20170907221741d    3
 2017-09-07-2218-00M.COL___423                                                 6
 STAT SP IPHASW D HRMM SECON CODA AMPLIT PERI AZIMU VELO AIN AR TRES W  DIS CAZ7
 BAR2 EZ EP       2223 35.21                             171   -0.2310 22.3 203 
 BAR2 EZ ES       2223 50.39                             171    0.0210 22.3 203 
 BAR2 EZ I        2223 51.10         7.2 0.10            172           22.3 203 
 PAM  EZ EP       2223 38.09                             151    0.0510 76.4  36 
 PAM  EN ES       2223 54.93                             151   -0.0710 76.4  36 
 PAM  EZ I        2223 59.53         3.4 0.35            151           76.4  36 
 BRR  HZ EP       2223 37.16                             150   -0.1810 76.4 298 
 BRR  HE ES       2223 53.97                             150    0.2310 76.4 298 
 RUS  HZ EP       2223 39.14                             144   -0.3410 98.0 179 
 RUS  HE ES       2223 57.87                             144    0.3110 98.0 179 
 RUS  HZ I        2223 58.53         2.0 0.18            145           98.0 179 
 NOR  HZ EP       2223 53.03                             117    0.96 8  237 236 
 NOR  HE ES       2224 19.35                             117   -0.62 8  237 236 
 NOR  HZ I        2224 23.43         1.8 0.16            118            237 236 
                                                                                
