 2013  9 7 2224  4.4 L   6.798 -73.161147.7  RSN  6 0.5 1.8LRSN                1
 GAP=199        1.31       5.1     9.1  8.3  0.1683E+02  0.2651E+01 -0.2729E+01E
 Epicentro: LOS SANTOS - SANTANDER                                             3
 ACTION:UPD 13-10-22 09:21 OP:ep   STATUS:               ID:20130907222404 L   I
 OLDACT:REG 13-09-07 21:30 OP:nd   STATUS:               ID:20130907221959     3
 2013-09-07-2219-59M.COL___269                                                 6
 STAT SP IPHASW D HRMM SECON CODA AMPLIT PERI AZIMU VELO AIN AR TRES W  DIS CAZ7
 BAR2 SZ EP       2224 24.33                             171    0.0410 22.8 186 
 BAR2 SZ ES       2224 39.07                             171   -0.7110 22.8 186 
 BAR2 SZ I        2224 42.69         8.1 0.46            170           22.8 186 
 BRR  HZ EP       2224 25.91                             153    0.1910 69.8 299 
 BRR  HN ES       2224 43.56                             153    1.2410 69.8 299 
 BRR  HZ I        2224 48.65         8.4 0.42            154           69.8 299 
 RUS  HZ EP       2224 28.39                             144    0.0210  100 175 
 RUS  HN ES       2224 46.97                             144   -0.0710  100 175 
 RUS  HZ I        2224 49.62         4.9 0.28            146            100 175 
 PTB  HZ EP       2224 30.96                             133   -0.45 9  146 259 
 PTB  HN ES       2224 51.93                             133   -0.51 9  146 259 
 PTB  HZ I        2224 54.45         7.0 0.18            134            146 259 
 SML  HN EP       2224 41.30                             118    0.18 8  243 336 
 SML  HZ EP       2224 41.59                                            243 336 
 SML  HE ES       2225  9.15                             118   -0.59 8  243 336 
 SML  HZ I        2225 12.22         8.4 0.10            120            243 336 
 SML  HN I        2225 16.44        13.6 0.12                           243 336 
 CHI  HZ EP       2224 42.56                             118    0.39 8  248 195 
 CHI  HN ES       2225 11.84                             118    0.24 8  248 195 
 CHI  HZ I        2225 17.79         1.9 0.54            120            248 195 
                                                                                
