 2017  2 7 2231 24.4 L   6.776 -73.134147.9  RSN  6 0.2 1.6LRSN                1
 GAP=237        0.45       2.8     3.3  3.8  0.5802E+01  0.3906E+01  0.3247E+01E
 Epicentro: LOS SANTOS - SANTANDER                                             3
 ACTION:UPD 17-05-24 15:33 OP:jn   STATUS:               ID:20170207223124 L   I
 OLDACT:REG 17-02-08 02:44 OP:dnl  STATUS:               ID:20170207222750     3
 2017-02-07-2228-00M.COL___343                                                 6
 STAT SP IPHASW D HRMM SECON CODA AMPLIT PERI AZIMU VELO AIN AR TRES W  DIS CAZ7
 BAR2 EZ EP   2   2231 44.29                             172    0.03 5 21.0 195 
 BAR2 EZ ES       2231 59.64                             172   -0.1010 21.0 195 
 BAR2 EZ I        2232  1.83         9.8 0.16            161           21.0 195 
 BRR  HZ EP   2   2231 46.14                             152    0.21 5 73.6 300 
 BRR  HE ES       2232  2.81                             152    0.1010 73.6 300 
 BRR  HZ I        2232  4.95         7.4 0.26            147           73.6 300 
 RUS  HZ EP       2231 48.18                             145   -0.0010 97.9 177 
 RUS  HN ES       2232  6.72                             145   -0.0110 97.9 177 
 RUS  HZ I        2232  8.01         3.1 0.40            141           97.9 177 
 PTB  HZ EP   2   2231 51.28                             132   -0.34 5  149 260 
 PTB  HE ES       2232 13.09                             132    0.24 9  149 260 
 PTB  HZ I        2232 19.59         6.7 0.48            128            149 260 
 ZAR  HZ EP   2   2231 57.64                             123    0.42 4  206 293 
 ZAR  HE ES       2232 22.46                             123   -0.35 8  206 293 
 ZAR  HZ I        2232 28.62         5.3 0.10            121            206 293 
 CHI  HZ EP   2   2232  2.37                             118    0.38 4  246 196 
 CHI  HN ES       2232 31.17                             118   -0.13 8  246 196 
 CHI  HZ I        2232 39.42         1.6 0.32            116            246 196 
                                                                                
