 2012 10 7 2108 23.7 L   6.779 -73.125143.4  RSN  7 0.2 2.4LRSN                1
 GAP=140        0.49       2.4     3.2  3.7  0.8954E+00  0.2400E+01  0.1857E+01E
 Epicentro: LOS SANTOS - SANTANDER                                             3
 ACTION:UPD 12-11-22 17:02 OP:ep   STATUS:               ID:20121007210823 L   I
 2012-10-07-2100-00M.COL___222                                                 6
 STAT SP IPHASW D HRMM SECON CODA AMPLIT PERI AZIMU VELO AIN AR TRES W  DIS CAZ7
 BAR2 SZ EP       21 8 43.02                             171    0.0010 21.6 197 
 BAR2 SZ ES   1   21 8 58.05                             171   -0.03 7 21.6 197 
 BAR2 SZ I        21 8 59.30       104.6 0.18                          21.6 197 
 GIR2 SZ EP       21 8 43.07                             166   -0.1110 34.0 347 
 GIR2 SZ ES   1   21 8 57.98                             166   -0.38 7 34.0 347 
 BRR  HZ EP       21 8 44.85                             151    0.0710 74.3 299 
 BRR  HZ I        21 8 45.27        32.8 0.10                          74.3 299 
 BRR  HE ES   1   21 9  1.78                             151    0.56 7 74.3 299 
 PAM  SZ EP       21 8 45.81                             150    0.1110 77.8  37 
 PAM  SN ES   1   21 9  2.95                             150    0.11 7 77.8  37 
 PAM  SN I        21 9  4.15        43.5 0.46                          77.8  37 
 RUS  HZ EP       21 8 46.98                             144   -0.0710 98.1 177 
 RUS  HN ES   1   21 9  5.10                             144   -0.16 7 98.1 177 
 ZAR  HZ EP   1   21 8 56.26                             121   -0.05 6  207 292 
 ZAR  HN ES   1   21 9 21.37                             121   -0.37 6  207 292 
 CHI  HZ EP   1   21 9  1.12                             117    0.02 6  247 196 
 CHI  HN ES   1   21 9 30.56                             117    0.29 6  247 196 
 CHI  HN I        21 9 36.60        15.6 0.32                           247 196 
                                                                                
