 2014  9 7 2201 34.1 L   6.783 -73.207146.1  RSN  5 0.4 1.6LRSN                1
 GAP=195        1.03       5.2     7.2  7.5  0.1536E+02 -0.1321E+01 -0.1222E+02E
 Epicentro: ZAPATOCA - SANTANDER                                               3
 ACTION:UPD 14-10-03 23:03 OP:nd   STATUS:               ID:20140907220134 L   I
 OLDACT:UP  14-10-02 16:17 OP:nd   STATUS:               ID:20140907220134 L   3
 OLDACT:REG 14-09-08 04:02 OP:stll STATUS:               ID:20140907215820     3
 2014-09-07-2158-20M.COL___260                                                 6
 STAT SP IPHASW D HRMM SECON CODA AMPLIT PERI AZIMU VELO AIN AR TRES W  DIS CAZ7
 BAR2 SZ EP       22 1 54.04                             171    0.2710 21.2 173 
 BAR2 SZ ES       22 2  9.00                             171   -0.0810 21.2 173 
 BAR2 SZ I        22 2 10.45        15.4 0.26            170           21.2 173 
 BRR  HZ EP       22 1 55.67                             154    0.6110 66.3 303 
 BRR  HN ES       22 2 11.84                             154    0.4710 66.3 303 
 RUS  HZ EP       22 1 57.89                             144    0.0510 99.4 172 
 RUS  HN ES       22 2 15.80                             144   -0.5210 99.4 172 
 RUS  HZ I        22 2 17.79         6.5 0.32            144           99.4 172 
 PTB  HZ EP       22 2  0.68                             134    0.18 9  141 259 
 PTB  HN ES       22 2 20.73                             134   -0.34 9  141 259 
 PTB  HZ I        22 2 23.45         4.2 0.14            133            141 259 
 SML  HZ EP       22 2 10.36                             118   -0.31 8  243 337 
 SML  HN ES       22 2 38.45                             118   -0.72 8  243 337 
                                                                                
