 2013  5 7 2334 33.9 L   6.753 -73.202144.3  RSN  9 0.4 2.2LRSN                1
 GAP=195        0.75       3.9     4.5  5.5  0.1452E+01  0.5078E+01  0.2362E+01E
 Epicentro: VILLANUEVA - SANTANDER                                             3
 ACTION:UPD 13-06-20 09:48 OP:ep   STATUS:               ID:20130507233433 L   I
 2013-05-07-2330-00M.COL___256                                                 6
 STAT SP IPHASW D HRMM SECON CODA AMPLIT PERI AZIMU VELO AIN AR TRES W  DIS CAZ7
 BAR2 SZ EP   1   2334 52.98                             173   -0.23 7 18.0 173 
 BAR2 SZ ES   1   2335  8.05                             173   -0.25 7 18.0 173 
 BAR2 SZ I        2335 10.42        17.7 0.42            171           18.0 173 
 BRR  HZ EP       2334 54.77                             153    0.0710 68.6 305 
 BRR  HN ES       2335 11.43                             153    0.4810 68.6 305 
 BRR  HN I        2335 12.47        39.8 0.16            150           68.6 305 
 RUS  HZ EP   1   2334 57.34                             145    0.20 7 96.1 172 
 RUS  HN ES       2335 15.24                             145   -0.0610 96.1 172 
 RUS  HZ I        2335 16.82        12.8 0.28            145           96.1 172 
 PTB  HZ EP   2   2334 59.59                             133   -0.47 5  141 260 
 PTB  HN ES       2335 20.16                             133   -0.35 9  141 260 
 PTB  HN I        2335 26.02        12.1 0.54            131            141 260 
 OCA  HN ES   4   2335 22.06                             128   -2.74 0  165 355 
 OCA  HN I        2335 25.71        32.9 0.20            129            165 355 
 NOR  HZ EP   1   2335  9.24                             119    0.61 6  227 235 
 NOR  HN ES       2335 35.74                             119   -0.02 8  227 235 
 NOR  HN I        2335 41.98        13.0 0.14            118            227 235 
 SML  HZ EP   1   2335 10.04                             117   -0.60 6  246 337 
 SML  HN ES   4   2335 37.42                             117   -1.90 0  246 337 
 SML  HZ I        2335 43.70         9.9 0.10            117            246 337 
 PRA  HZ EP   1   2335 27.31                             107    0.87 4  384 209 
 PRA  HN ES   1   2336  6.94                             107   -0.52 4  384 209 
 PRA  HN I        2336 13.33        16.3 1.04            107            384 209 
 SJC  HZ EP   4   2335 25.65                             105   -3.83 0  410 328 
 SJC  HN ES   4   2336  6.47                             105   -6.41 0  410 328 
 SJC  HN I        2336 11.71         2.4 0.32            106            410 328 
                                                                                
