 2013  2 7 2204 17.7 L   6.767 -73.135151.9  RSN  5 0.2 1.6LRSN                1
 GAP=139        0.55       3.1     3.0  4.5 -0.1395E+01  0.2126E+01 -0.8848E-01E
 Epicentro: LOS SANTOS - SANTANDER                                             3
 ACTION:UPD 13-03-12 09:31 OP:ep   STATUS:               ID:20130207220417 L   I
 2013-02-07-2158-36M.COL___190                                                 6
 STAT SP IPHASW D HRMM SECON CODA AMPLIT PERI AZIMU VELO AIN AR TRES W  DIS CAZ7
 BAR2 SZ ES   1   22 4 54.04                             172    0.16 7 20.1 195 
 BRR  HZ EP       22 4 39.93                             153    0.2210 74.0 301 
 BRR  HZ I        22 4 40.05        16.7 0.20            153           74.0 301 
 BRR  HN ES       22 4 57.06                             153    0.2210 74.0 301 
 PAM  SZ EP       22 4 40.80                             151    0.0710 79.5  37 
 PAM  SN ES       22 4 58.36                             151   -0.3010 79.5  37 
 PAM  SZ I        22 4 58.91         4.3 0.32            155           79.5  37 
 RUS  HZ EP   1   22 4 41.69                             146   -0.15 7 96.9 177 
 RUS  HN ES       22 5  0.70                             146    0.0610 96.9 177 
 RUS  HZ I        22 5  3.95         2.6 0.18            145           96.9 177 
 PTB  HZ EP       22 4 45.26                             133    0.00 9  148 260 
 PTB  HN ES       22 5  6.39                             133   -0.33 9  148 260 
 PTB  HZ I        22 5 11.55         7.1 0.28            133            148 260 
                                                                                
