 2016  5 7 2025  8.0 L   6.777 -73.164145.0  RSN  7 0.5 1.8LRSN                1
 GAP=135        1.20       5.0     5.1  7.6 -0.7511E+00  0.9912E+01  0.3085E+00E
 Epicentro: LOS SANTOS - SANTANDER                                             3
 ACTION:UPD 16-08-18 17:43 OP:cam  STATUS:               ID:20160507202508 L   I
 OLDACT:UP  16-05-08 05:16 OP:ar   STATUS:               ID:20160507201745     3
 OLDACT:REG 16-05-08 02:33 OP:ar   STATUS:               ID:20160507201745     3
 2016-05-07-2017-45M.COL___307                                                 6
 STAT SP IPHASW D HRMM SECON CODA AMPLIT PERI AZIMU VELO AIN AR TRES W  DIS CAZ7
 BAR2 EZ EP       2025 27.45                             172   -0.0710 20.6 186 
 BAR2 EZ ES       2025 42.65                             172   -0.0710 20.6 186 
 BAR2 EZ I        2025 43.59        16.3 0.14            171           20.6 186 
 BRR  HZ EP       2025 29.36                             153    0.2910 70.6 301 
 BRR  HE ES       2025 46.48                             153    1.0010 70.6 301 
 BRR  HZ I        2025 47.51        14.0 0.24            151           70.6 301 
 PAM  EZ EP       2025 30.25                             150   -0.1110 80.6  40 
 PAM  EN ES       2025 47.11                             150   -0.6710 80.6  40 
 PAM  EZ I        2025 49.53        10.2 0.52            152           80.6  40 
 RUS  HZ EP       2025 31.97                             144    0.4310 98.3 175 
 RUS  HN ES       2025 50.07                             144    0.1910 98.3 175 
 RUS  HZ I        2025 51.38         5.9 0.24            146           98.3 175 
 PTB  HZ EP       2025 34.19                             132   -0.52 9  145 260 
 PTB  HN ES       2025 55.20                             132   -0.32 9  145 260 
 PTB  HZ I        2025 59.26         7.0 0.24            132            145 260 
 SPBC HZ EP       2025 36.64                             129    0.47 9  160 219 
 SPBC HN ES       2025 57.44                             129   -0.67 9  160 219 
 SPBC HZ I        2026  1.12        13.0 0.24            130            160 219 
 ZAR  HZ EP       2025 40.50                             122    0.17 9  203 293 
 ZAR  HN ES       2026  5.26                             122   -0.26 9  203 293 
 ZAR  HZ I        2026 11.68         7.4 0.30            123            203 293 
                                                                                
