 2011 10 7 2120 16.1 L   6.776 -73.115141.3  RSN 12 0.3 2.4LRSN                1
 GAP=142        0.55       1.9     2.8  3.4 -0.8082E+00  0.2928E+01  0.8812E+00E
 Epicentro: LOS SANTOS - SANTANDER                                             3
 ACTION:UPD 12-07-13 16:02 OP:ep   STATUS:               ID:20111007212016 L   I
 2011-10-07-2120-00M.COL___171                                                 6
 STAT SP IPHASW D HRMM SECON CODA AMPLIT PERI AZIMU VELO AIN AR TRES W  DIS CAZ7
 BAR2 SZ EP   2   2120 35.17                             171    0.01 5 21.6 200 
 BAR2 SZ ES   1   2120 50.56                             171    0.53 7 21.6 200 
 BAR2 SZ I        2120 51.77        51.0 0.30                          21.6 200 
 GIR2 SZ EP   1   2120 35.35                             165    0.01 7 34.6 346 
 BRR  HZ IP     C 2120 37.08                             150    0.0610 75.4 299 
 BRR  HZ I        2120 37.45        68.6 0.09                          75.4 299 
 BRR  HE ES       2120 53.55                             150    0.2110 75.4 299 
 PAM  SZ EP       2120 38.12                             150    0.2710 77.4  36 
 PAM  SN ES       2120 54.33                             150   -0.4810 77.4  36 
 RUS  HZ EP       2120 39.24                             144    0.0310 97.8 178 
 RUS  HN ES       2120 57.04                             144   -0.2010 97.8 178 
 RUS  HZ I        2121  0.13        18.0 0.25                          97.8 178 
 OCA  SZ EP       2120 44.47                             128    0.11 9  163 352 
 OCA  SZ ES   1   2121  5.98                             128   -0.43 7  163 352 
 OCA  SZ I        2121 10.53        39.2 0.27                           163 352 
 ZAR  HZ EP   1   2120 49.01                             121    0.32 6  208 292 
 ZAR  HE ES   1   2121 13.84                             121   -0.27 6  208 292 
 ZAR  HZ I        2121 19.78        20.6 0.23                           208 292 
 NOR  SZ EP   1   2120 51.67                             117   -0.04 6  236 235 
 NOR  SE ES   1   2121 19.50                             117    0.02 6  236 235 
 CHI  HZ EP   1   2120 53.50                             116    0.12 6  247 196 
 CHI  HN ES   2   2121 22.13                             116   -0.32 4  247 196 
 CHI  HZ I        2121 26.88         8.6 0.41                           247 196 
 HEL  HZ EP   2   2120 55.90                             113   -0.49 4  275 257 
 HEL  HZ I        2121 33.85        20.1 0.66                           275 257 
 RREF HZ EP   1   2121  2.16                             110    0.01 5  323 230 
 RREF HN ES   1   2121 37.83                             110   -0.24 5  323 230 
 RREF HZ I        2121 49.50        11.2 0.37                           323 230 
 PRA  HZ EP   1   2121  9.77                             106    0.37 4  391 210 
 PRA  HN ES   1   2121 50.75                             106   -0.22 4  391 210 
                                                                                
