 2011 10 7 2028 49.1 L   6.773 -73.109143.1  RSN  7 0.2 2.0LRSN                1
 GAP=142        0.53       2.8     3.6  4.4  0.6903E-01 -0.7402E+00 -0.2042E+01E
 Epicentro: LOS SANTOS - SANTANDER                                             3
 ACTION:UPD 12-07-13 16:02 OP:ep   STATUS:               ID:20111007202849 L   I
 2011-10-07-2027-39S.COL___168                                                 6
 STAT SP IPHASW D HRMM SECON CODA AMPLIT PERI AZIMU VELO AIN AR TRES W  DIS CAZ7
 BAR2 SZ EP       2029  8.21                             171   -0.1610 21.6 202 
 BAR2 SZ ES   1   2029 23.20                             171   -0.20 7 21.6 202 
 BAR2 SZ I        2029 24.38        26.2 0.27                          21.6 202 
 BRR  HZ EP       2029 10.41                             150    0.1610 76.2 299 
 BRR  HZ I        2029 16.98        23.2 0.34                          76.2 299 
 BRR  HE ES       2029 26.97                             150    0.2210 76.2 299 
 PAM  SZ EP       2029 11.34                             150    0.3210 77.3  36 
 PAM  SE ES   1   2029 27.81                             150   -0.31 7 77.3  36 
 RUS  HZ EP   1   2029 12.19                             144   -0.16 7 97.4 178 
 RUS  HN ES   1   2029 30.66                             144    0.17 7 97.4 178 
 RUS  HZ I        2029 32.66         6.9 0.32                          97.4 178 
 OCA  SZ EP       2029 17.42                             128   -0.11 9  164 352 
 OCA  SZ ES   2   2029 39.56                             128   -0.15 5  164 352 
 ZAR  HN ES   2   2029 46.81                             121   -0.63 4  209 292 
 ZAR  HZ I        2029 53.09        15.5 0.24                           209 292 
 NOR  SE ES   2   2029 52.53                             118   -0.19 4  236 236 
                                                                                
