 2012  5 7 2118 30.3 L   6.765 -73.168148.0  RSN  8 0.5 2.1LRSN                1
 GAP=135        1.08       6.5     6.3  8.5  0.6284E+01  0.1288E+02  0.9378E+01E
 Epicentro: LOS SANTOS - SANTANDER                                             3
 ACTION:UP  12-07-05 12:03 OP:pat  STATUS:               ID:20120507211830 L   I
 2012-05-07-2110-38M.COL___187                                                 6
 STAT SP IPHASW D HRMM SECON CODA AMPLIT PERI AZIMU VELO SNR AR TRES W  DIS CAZ7
 BAR2 SZ EP       2118 50.12                             172     0.010   19 185 
 BAR2 SZ ES   1   2119  6.12                             172     0.5 7   19 185 
 BAR2 SZ I        2119  6.84        57.8 0.25                            19 185 
 BRR  HZ IP     C 2118 51.94                             153     0.310   71 302 
 BRR  HN ES   1   2119  9.26                             153     0.9 7   71 302 
 BRR  HZ I        2119 12.14        37.9 0.13                            71 302 
 PAM  SZ EP   1   2118 52.91                             150    -0.1 7   82  39 
 PAM  SN ES   1   2119 10.06                             150    -0.7 7   82  39 
 RUS  HZ EP   1   2118 54.04                             145     0.0 7   97 174 
 RUS  HN ES   1   2119 12.12                             145    -0.4 7   97 174 
 RUS  HZ I        2119 14.00        24.4 0.47                            97 174 
 PTB  HZ EP   1   2118 56.83                             133    -0.3 7  145 260 
 PTB  HN ES   1   2119 17.46                             133    -0.7 7  145 260 
 PTB  HZ I        2119 23.54        10.3 0.32                           145 260 
 ZAR  HZ EP   1   2119  2.99                             123     0.2 6  203 293 
 ZAR  HN ES   1   2119 27.60                             123    -0.6 6  203 293 
 ZAR  HZ I        2119 34.06        13.2 0.35                           203 293 
 CHI  HZ EP   1   2119  7.71                             118     0.1 6  244 195 
 CHI  HZ I        2119  8.86         5.1 0.18                           244 195 
 PRA  HZ EP   1   2119 23.95                             107     0.6 4  387 210 
                                                                                
