 2015  3 7 2045 43.1 L   6.798 -73.179146.0  RSN  4 0.5 1.6LRSN                1
 GAP=177        1.15       6.8     7.9 13.5 -0.3232E+02  0.9753E+01  0.2125E+02E
 Epicentro: LOS SANTOS - SANTANDER                                             3
 ACTION:UPD 15-04-30 16:24 OP:nd   STATUS:               ID:20150307204543 L   I
 OLDACT:UP  15-03-08 04:27 OP:mh   STATUS:               ID:20150307203749     3
 OLDACT:UP  15-03-08 04:26 OP:mh   STATUS:               ID:20150307203749     3
 OLDACT:REG 15-03-08 01:30 OP:mh   STATUS:               ID:20150307203749     3
 2015-03-07-2037-49M.COL___287                                                 6
 STAT SP IPHASW D HRMM SECON CODA AMPLIT PERI AZIMU VELO AIN AR TRES W  DIS CAZ7
 PAM  SZ EP       2046  6.30                             150    0.8210 80.0  41 
 PAM  SN ES       2046 22.52                             150   -0.4310 80.0  41 
 PAM  SZ I        2046 25.58         5.0 0.48            156           80.0  41 
 PTB  HZ EP       2046  9.58                             133   -0.15 9  144 259 
 PTB  HN ES       2046 30.70                             133    0.18 9  144 259 
 PTB  HZ I        2046 35.58         6.8 0.16            136            144 259 
 OCA  HN ES       2046 33.40                             130   -0.08 9  160 354 
 OCA  HZ I        2046 38.18         6.3 0.44            134            160 354 
 SPBC HZ EP       2046 10.68                             129   -0.68 9  161 218 
 SPBC HN ES       2046 33.69                             129    0.27 9  161 218 
 SPBC HZ I        2046 39.79         5.5 0.29            133            161 218 
                                                                                
