 2012 12 7 2050 35.9 L   6.802 -73.162142.3  RSN  5 0.3 1.8LRSN                1
 GAP=142        0.73       4.2     4.2  5.4 -0.4842E+01  0.5263E+01  0.1865E+01E
 Epicentro: LOS SANTOS - SANTANDER                                             3
 ACTION:UPD 13-01-04 14:26 OP:ep   STATUS:               ID:20121207205035 L   I
 2012-12-07-2050-00M.COL___243                                                 6
 STAT SP IPHASW D HRMM SECON CODA AMPLIT PERI AZIMU VELO AIN AR TRES W  DIS CAZ7
 BAR2 SZ EP       2050 55.29                             170    0.1610 23.3 185 
 BAR2 SZ ES       2051 10.49                             170    0.3810 23.3 185 
 BAR2 SZ I        2051 12.80        15.5 0.24                          23.3 185 
 PAM  SZ EP       2050 58.21                             150    0.3810 78.4  41 
 PAM  SZ I        2050 58.60        15.0 0.20                          78.4  41 
 PAM  SE ES       2051 14.42                             150   -0.4910 78.4  41 
 RUS  HZ EP       2050 59.38                             143    0.0210  101 175 
 RUS  HE ES       2051 17.47                             143   -0.1710  101 175 
 RUS  HE I        2051 19.48        16.0 0.23                           101 175 
 PTB  HZ EP       2051  2.38                             131   -0.06 9  146 259 
 PTB  HN ES       2051 23.04                             131   -0.09 9  146 259 
 PTB  HZ I        2051 27.94         3.4 0.37                           146 259 
 CHI  HZ EP       2051 13.15                             116   -0.25 8  248 195 
                                                                                
