 2017  8 7 2313 20.7 L   6.797 -73.121147.8  RSN 10 0.3 1.6LRSN                1
 GAP=140        0.75       2.8     3.0  4.4 -0.1037E+01  0.2163E+01  0.2764E+01E
 Epicentro: LOS SANTOS - SANTANDER                                             3
 ACTION:UPD 17-09-04 20:17 OP:rebc STATUS:               ID:20170807231320 L   I
 OLDACT:REG 17-08-08 04:59 OP:edw  STATUS:               ID:20170807230741     3
 2017-08-07-2308-00M.COL___396                                                 6
 STAT SP IPHASW D HRMM SECON CODA AMPLIT PERI AZIMU VELO AIN AR TRES W  DIS CAZ7
 BAR2 EZ EP       2313 40.45                             170   -0.1410 23.7 197 
 BAR2 EZ ES       2313 56.16                             170    0.0610 23.7 197 
 BRR  HZ EP       2313 42.47                             152    0.2510 73.8 298 
 BRR  HE ES       2313 59.45                             152    0.4510 73.8 298 
 BRR  HZ I        2314  0.37         5.1 0.16            152           73.8 298 
 PAM  EZ EP       2313 43.30                             152    0.2510 75.9  38 
 PAM  EN ES       2314  0.29                             152   -0.1910 75.9  38 
 RUS  HZ EP       2313 44.63                             144    0.0110  100 178 
 RUS  HN ES       2314  3.05                             144   -0.2310  100 178 
 RUS  HZ I        2314  4.64         4.0 0.26            143            100 178 
 PTB  HZ EP       2313 47.84                             132   -0.24 9  150 259 
 PTB  HE ES       2314  9.08                             132   -0.35 9  150 259 
 PTB  HZ I        2314 11.56         3.3 0.14            131            150 259 
 SPBC HZ EP       2313 49.69                             129    0.19 9  165 220 
 SPBC HN ES       2314 11.61                             129   -0.36 9  165 220 
 SPBC HZ I        2314 16.52         7.4 0.20            128            165 220 
 ZAR  HN ES       2314 18.79                             122   -0.40 8  207 292 
 NOR  HZ EP       2313 56.59                             119   -0.18 8  237 235 
 NOR  HN ES       2314 25.66                             119    0.75 8  237 235 
 NOR  HZ I        2314 29.61         3.8 0.16            118            237 235 
 CHI  HZ EP       2313 58.50                             117   -0.06 8  249 196 
 CHI  HE ES       2314 28.31                             117    0.22 8  249 196 
 CHI  HZ I        2314 35.20         2.7 0.42            117            249 196 
 GUY2CHZ EP   9   2314  7.31                             113    2.67 0  303 235 
 GUY2CHE ES       2314 41.91                                    0.33 7  303 235 
 GUY2CHZ I        2314 47.06         1.8 0.62                           303 235 
                                                                                
