 2012 12 7 2107 10.2 L   6.793 -73.169143.0  RSN 12 0.3 2.9LRSN                1
 GAP= 70        0.58       1.8     1.8  3.2 -0.3884E-01  0.1798E+01  0.7662E+00E
 Epicentro: LOS SANTOS - SANTANDER                                             3
 ACTION:UPD 13-01-04 14:26 OP:ep   STATUS:               ID:20121207210710 L   I
 2012-12-07-2100-00M.COL___243                                                 6
 STAT SP IPHASW D HRMM SECON CODA AMPLIT PERI AZIMU VELO AIN AR TRES W  DIS CAZ7
 BAR2 SZ IP       21 7 29.66                             171    0.1410 22.3 184 
 BAR2 SZ ES       21 7 44.55                             171   -0.0110 22.3 184 
 BAR2 SZ I        21 7 47.57       210.4 0.28                          22.3 184 
 GIR2 SZ EP       21 7 29.67                             167    0.0710 31.7 355 
 PAM  SZ EP       21 7 32.52                             150    0.2210 79.6  41 
 PAM  SE ES       21 7 49.60                             150    0.1010 79.6  41 
 PAM  SZ I        21 7 51.97       105.4 0.21                          79.6  41 
 RUS  HZ EP       21 7 33.54                             143   -0.1510  100 175 
 RUS  HN ES       21 7 52.03                             143    0.0610  100 175 
 RUS  HN I        21 7 54.16        75.0 0.28                           100 175 
 PTB  HZ EP       21 7 36.39                             132   -0.36 9  145 259 
 PTB  HN ES       21 7 57.14                             132   -0.28 9  145 259 
 PTB  HZ I        21 8  3.56       148.6 0.27                           145 259 
 TAM  HZ EP       21 7 37.78                             129   -0.14 9  157 104 
 TAM  HZ I        21 7 58.70        72.9 0.31                           157 104 
 TAM  HN ES       21 7 59.45                             129   -0.05 9  157 104 
 OCA  HZ EP       21 7 38.65                             129    0.26 9  161 354 
 OCA  HE ES       21 8  0.06                             129   -0.27 9  161 354 
 OCA  HZ I        21 8  5.68        86.4 0.20                           161 354 
 ZAR  HZ EP       21 7 42.12                             122   -0.18 9  202 293 
 ZAR  HE ES       21 8  7.37                             122    0.07 9  202 293 
 ZAR  HZ I        21 8 14.12       104.0 0.20                           202 293 
 CHI  HZ EP       21 7 47.59                             117   -0.05 8  247 195 
 CHI  HE ES   1   21 8 16.76                             117   -0.05 6  247 195 
 HEL  HZ EP       21 7 50.07                             114    0.04 8  269 256 
 HEL  HN ES   1   21 8 21.81                             114    0.76 6  269 256 
 HEL  HZ I        21 8 28.56        37.8 0.34                           269 256 
 TOL  SZ EP       21 7 58.83                             109    0.70 7  341 224 
 TOL  SZ I        21 8 40.80        25.1 0.20                           341 224 
 PRA  HZ EP       21 8  2.99                             106   -0.46 6  390 209 
 PRA  HN ES       21 8 45.00                             106    0.05 6  390 209 
 PRA  HZ I        21 8 51.47        45.9 0.60                           390 209 
                                                                                
