 2010  6 7 2241 17.5 L   6.781 -72.953146.6  RSN  9 0.7 2.2LRSN                1
 GAP=208        1.27       9.2    15.1 10.6 -0.1065E+03  0.3248E+02  0.2534E+01E
 Epicentro: CEPITA - SANTANDER                                                 3
 ACTION:UP  10-08-24 10:09 OP:vdl  STATUS:               ID:20100607224117 L   I
 2010-06-07-2237-57S.COL___111                                                 6
 STAT SP IPHASW D HRMM SECON CODA AMPLIT PERI AZIMU VELO SNR AR TRES W  DIS CAZ7
 BAR2 SZ EP       2241 37.27                             167    -0.210   33 231 
 BAR2 SZ ES   1   2241 53.11                             167     0.1 7   33 231 
 GIR2 SZ EP   1   2241 37.42                             163    -0.2 7   42 321 
 GIR2 SZ ES   2   2241 51.78                             163    -1.6 5   42 321 
 GUE  SZ EP       2241 42.23                             140    -0.110  116   2 
 GUE  SZ ES   1   2242  2.07                             140     0.5 7  116   2 
 GRA  SZ IP       2241 43.05                             138     0.410  123   8 
 GRA  SZ ES   1   2242  2.92                             138     0.7 7  123   8 
 OCA  SZ EP   1   2241 45.79                             129    -0.7 7  166 346 
 OCA  SZ ES   2   2242  8.64                             129    -0.4 5  166 346 
 ROSC BN ES   2   2242 26.84                             116    -0.5 4  263 215 
 ROSC BZ I        2242 30.86         8.3 0.06                           263 215 
 HEL  HZ EP   1   2241 59.25                             113    -0.8 5  292 257 
 HEL  HN ES   2   2242 32.91                             113    -0.3 4  292 257 
 HEL  HZ I        2242 35.65         8.1 0.40                           292 257 
 RREF BZ EP   1   2242  4.93                             110    -0.5 5  337 232 
 RREF BN ES       2242 44.40                             110     1.6 7  337 232 
 RREF BZ I        2242 48.94         6.0 0.16                           337 232 
 TOL  SZ EP   1   2242  6.88                             109    -0.5 5  357 227 
                                                                                
