 2017  3 7 2242 29.2 L   6.760 -73.171133.0  RSN  6 0.5 1.6LRSN                1
 GAP=145        0.93       7.6     6.1  7.3 -0.3088E+02  0.2105E+02 -0.1069E+02E
 Epicentro: LOS SANTOS - SANTANDER                                             3
 ACTION:UPD 17-05-25 18:37 OP:jn   STATUS:               ID:20170307224229 L   I
 OLDACT:UP  17-03-08 08:44 OP:dani STATUS:               ID:20170307223740     3
 OLDACT:REG 17-03-08 08:13 OP:dani STATUS:               ID:20170307223740     3
 2017-03-07-2238-00M.COL___356                                                 6
 STAT SP IPHASW D HRMM SECON CODA AMPLIT PERI AZIMU VELO AIN AR TRES W  DIS CAZ7
 BAR2 EZ EP       2242 47.21                             172    0.0510 18.6 184 
 BAR2 EZ ES       2243  0.71                             172   -0.4910 18.6 184 
 BAR2 EZ I        2243  3.57        12.5 0.18            171           18.6 184 
 BRR  HZ EP     C 2242 49.10                             150    0.1710 71.0 303 
 BRR  HN ES   3   2243  5.89                             150    1.54 2 71.0 303 
 BRR  HZ I        2243 10.21         6.2 0.22            145           71.0 303 
 PAM  EZ EP     D 2242 50.23                             146   -0.1410 82.6  39 
 PAM  EN ES       2243  7.25                             146    0.3310 82.6  39 
 PAM  EZ I        2243  9.75         5.6 0.52            149           82.6  39 
 PTB  HZ EP       2242 54.05                             129   -0.73 9  144 260 
 PTB  HN ES       2243 14.78                             129    0.02 9  144 260 
 PTB  HZ I        2243 17.24         5.2 0.12            130            144 260 
 ZAR  HZ EP       2243  0.84                             119    0.13 9  203 294 
 ZAR  HN ES   3   2243 24.04                             119   -1.28 2  203 294 
 ZAR  HZ I        2243 31.41         4.7 0.23            120            203 294 
 NOR  HZ EP       2243  3.90                             116    0.25 8  230 235 
 NOR  HE ES       2243 31.17                             116    0.62 8  230 235 
 NOR  HZ I        2243 35.55         2.6 0.32            119            230 235 
                                                                                
