 2010  9 7 2126  5.6 L   6.789 -73.093143.1  RSN 18 0.4 2.9LRSN                1
 GAP=130        0.72       2.5     4.5  4.4 -0.4148E+01  0.3791E+01  0.1626E+01E
 Epicentro: LOS SANTOS - SANTANDER                                             3
 ACTION:UP  11-02-18 11:01 OP:tino STATUS:               ID:20100907212605 L   I
 2010-09-07-2124-03S.COL___120                                                 6
 STAT SP IPHASW D HRMM SECON CODA AMPLIT PERI AZIMU VELO SNR AR TRES W  DIS CAZ7
 BAR2 SZ IP       2126 25.03                             170     0.110   24 205 
 BAR2 SZ ES   1   2126 39.73                             170    -0.3 7   24 205 
 BAR2 SZ I        2126 41.34       303.4 0.24                            24 205 
 GIR2 SZ EP   1   2126 25.09                             166     0.1 7   34 341 
 GIR2 SZ ES   2   2126 39.48                             166    -0.7 5   34 341 
 BRR  HZ EP       2126 26.88                             150     0.110   77 297 
 BRR  HE ES   1   2126 43.53                             150     0.2 7   77 297 
 BRR  HZ I        2126 45.68       107.6 0.17                            77 297 
 RUS  HZ IP     C 2126 29.02                             144     0.010   99 179 
 RUS  HN ES   1   2126 47.17                             144    -0.1 7   99 179 
 RUS  HZ I        2126 48.99        79.2 0.35                            99 179 
 GUE  SZ EP   1   2126 30.06                             139     0.0 7  117   9 
 GUE  SZ I        2126 32.47        24.3 0.10                           117   9 
 GRA  SZ IP       2126 30.90                             136     0.310  125  15 
 GRA  SZ ES   1   2126 49.79                             136    -0.3 7  125  15 
 GRA  SZ I        2126 51.91        81.4 0.34                           125  15 
 OCA  SZ EP       2126 33.48                             129    -0.4 9  162 351 
 OCA  SZ ES   1   2126 56.60                             129     0.6 7  162 351 
 OCA  SZ I        2127  0.22       118.9 0.26                           162 351 
 CHI  HZ EP       2126 42.99                             116    -0.2 8  249 197 
 CHI  HE ES   1   2127 12.92                             116     0.4 6  249 197 
 CHI  HZ I        2127 18.26        37.3 0.43                           249 197 
 ROSC BZ EP   2   2126 43.85                             116     0.1 4  255 212 
 ROSC BZ I        2127 21.31        44.1 0.49                           255 212 
 CVER SZ EP   1   2126 46.53                             114     0.6 6  273 203 
 CVER SZ I        2126 48.18        74.2 0.29                           273 203 
 HEL  HZ EP   1   2126 46.49                             114     0.2 6  277 256 
 HEL  HN ES   2   2127 17.25                             114    -0.7 4  277 256 
 HEL  HZ I        2127 23.89        38.1 0.29                           277 256 
 GUY  SZ EP   2   2126 50.07                             111     0.5 4  305 236 
 GUY  SN ES   2   2127 24.14                             111     0.3 4  305 236 
 GUY  SZ I        2127 32.45       106.4 0.39                           305 236 
 RREF HZ EP   1   2126 52.13                             110     0.1 5  325 230 
 RREF HE ES   1   2127 28.18                             110    -0.1 5  325 230 
 RREF HZ I        2127 37.49        42.0 0.45                           325 230 
 DBB  SZ EP   1   2126 53.04                             109    -0.6 5  345 274 
 DBB  SZ I        2127 34.56         5.4 0.18                           345 274 
 TOL  SZ EP   2   2126 53.67                             109    -0.4 3  347 225 
 SDV  BZ EP   2   2126 54.37                             108    -0.7 3  357  49 
 SDV  BZ I        2126 56.33        13.1 0.24                           357  49 
 ANIL HZ EP   2   2126 55.84                             108     0.2 3  361 225 
 ANIL HN ES   2   2127 34.42                             108    -0.3 3  361 225 
 ANIL HZ I        2127 46.92        65.4 0.37                           361 225 
 PRA  HZ EP   1   2126 58.48                             106    -0.8 4  394 210 
 PRA  HE ES   1   2127 41.11                             106     0.0 4  394 210 
 PRA  HZ I        2127 47.74        49.8 0.28                           394 210 
                                                                                
