 2016  7 7 2209  4.0 L   6.760 -73.121149.3  RSN  8 0.4 1.7LRSN                1
 GAP=237        0.99       4.7     4.9  6.2  0.3840E+01  0.8936E+01  0.4589E+01E
 Epicentro: LOS SANTOS - SANTANDER                                             3
 ACTION:UPD 17-03-29 16:48 OP:lp   STATUS:               ID:20160707220904 L   I
 OLDACT:REG 16-07-08 03:45 OP:ak   STATUS:               ID:20160707220747     3
 2016-07-07-2207-47M.COL___337                                                 6
 STAT SP IPHASW D HRMM SECON CODA AMPLIT PERI AZIMU VELO AIN AR TRES W  DIS CAZ7
 BAR2 EZ EP       22 9 24.22                             172    0.2110 19.7 200 
 BAR2 EZ ES       22 9 39.57                             172   -0.0310 19.7 200 
 BAR2 EZ I        22 9 40.81         7.7 0.40            166           19.7 200 
 BRR  HZ EP       22 9 25.96                             152    0.1510 75.8 300 
 BRR  HN ES       22 9 43.27                             152    0.4610 75.8 300 
 RUS  HZ EP       22 9 27.67                             146   -0.1310 96.0 178 
 RUS  HN ES       22 9 45.95                             146   -0.3910 96.0 178 
 RUS  HZ I        22 9 48.38         2.4 0.17            145           96.0 178 
 PTB  HZ EP       22 9 30.91                             132   -0.54 9  150 261 
 PTB  HN ES       22 9 52.05                             132   -0.79 9  150 261 
 PTB  HZ I        22 9 59.74         6.7 0.37            131            150 261 
 SPBC HZ EP       22 9 32.96                             130    0.32 9  162 221 
 SPBC HN ES       22 9 55.64                             130    0.68 9  162 221 
 SPBC HZ I        2210  2.16         7.9 0.15            129            162 221 
 ZAR  HZ EP   2   22 9 37.93                             123    0.79 4  208 293 
 ZAR  HN ES       2210  2.80                             123   -0.16 8  208 293 
 ZAR  HZ I        2210  8.56         4.9 0.27            123            208 293 
 NOR  HZ EP       22 9 39.56                             119   -0.37 8  234 236 
 NOR  HN ES       2210  7.88                             119   -0.05 8  234 236 
 NOR  HZ I        2210 13.99         4.0 0.17            119            234 236 
 GUY2CHZ EP       22 9 47.87                             113    0.10 7  301 236 
 GUY2CHE ES       2210 22.38                             113    0.50 7  301 236 
 GUY2CHZ I        2210 31.06         3.2 0.31                           301 236 
                                                                                
