 2010 10 7 2011  5.9 L   6.136 -73.726102.3  RSN 12 0.5 2.2LRSN                1
 GAP= 96        0.91       3.8     3.9  9.4 -0.5369E+01  0.1063E+02  0.9183E+00E
 Epicentro: LANDAZURI - SANTANDER                                              3
 ACTION:UP  11-02-18 11:08 OP:tino STATUS:               ID:20101007201105 L   I
 2010-10-07-2008-19S.COL___122                                                 6
 STAT SP IPHASW D HRMM SECON CODA AMPLIT PERI AZIMU VELO SNR AR TRES W  DIS CAZ7
 BAR2 SZ EP   1   2011 23.81                             139     0.3 8   78  50 
 BAR2 SZ ES   1   2011 37.15                             139     0.0 8   78  50 
 BAR2 SZ I        2011 38.97       142.3 0.19                            78  50 
 BTL  SZ EP   1   2011 25.99                             132     0.6 8  100  30 
 NOR  SZ EP   2   2011 29.10                             121    -0.1 5  142 244 
 NOR  SN ES   1   2011 46.81                             121    -0.5 8  142 244 
 CHI  HZ EP       2011 32.05                             117    -0.210  167 180 
 CHI  HE ES   2   2011 53.35                             117     0.5 5  167 180 
 CHI  HZ I        2012  0.01        11.7 0.36                           167 180 
 YOP  SZ EP       2011 32.58                             116     0.510  169 121 
 YOP  SN ES   2   2011 51.98                             116    -0.6 5  169 121 
 HEL  HZ EP       2011 36.05                             112     0.1 9  200 272 
 HEL  HZ I        2012  2.05         8.1 0.30                           200 272 
 GUE  SZ EP       2011 36.40                             110    -0.3 9  207  25 
 GRA  SZ EP   1   2011 37.13                             109    -0.7 7  219  28 
 GRA  SZ ES   2   2012  1.88                             109    -0.8 5  219  28 
 GRA  SZ I        2012  4.59        12.9 0.10                           219  28 
 RREF HZ EP   1   2011 39.25                             109     0.0 7  226 233 
 RREF HN ES   2   2012  4.91                             109    -0.3 5  226 233 
 RREF HZ I        2012 11.31         8.8 0.23                           226 233 
 TOL  SZ EP   2   2011 41.73                             106     0.5 4  246 226 
 DBB  SZ EP       2011 46.90                             103     0.6 8  291 290 
 PRA  HZ EP   1   2011 46.12                             102    -0.8 6  297 206 
 PRA  HN ES   2   2012 18.61                             102    -0.2 4  297 206 
 PRA  HZ I        2012 25.66        24.8 0.14                           297 206 
                                                                                
