 2016 10 7 2206  4.8 L   6.836 -73.155142.5  RSN 22 0.4 2.6LRSN                1
 GAP= 72        0.79       3.0     2.7  4.1  0.1084E+01  0.2393E+01  0.1615E+01E
 Epicentro: LOS SANTOS - SANTANDER                                             3
 ACTION:UPD 16-11-09 19:17 OP:rebc STATUS:               ID:20161007220604 L   I
 OLDACT:UP  16-10-08 06:47 OP:edw  STATUS:               ID:20161007215742     3
 OLDACT:UP  16-10-08 06:46 OP:edw  STATUS:               ID:20161007215742     3
 OLDACT:UP  16-10-08 06:45 OP:edw  STATUS:               ID:20161007215742     3
 OLDACT:REG 16-10-08 03:27 OP:cara STATUS:               ID:20161007215742     3
 2016-10-07-2158-00M.COL___360                                                 6
 STAT SP IPHASW D HRMM SECON CODA AMPLIT PERI AZIMU VELO AIN AR TRES W  DIS CAZ7
 BAR2 EZ EP       22 6 24.51                             169    0.3610 27.1 186 
 BAR2 EZ ES       22 6 39.14                             169   -0.0810 27.1 186 
 BAR2 EZ I        22 6 40.68        83.5 0.24            168           27.1 186 
 PAM  EZ EP   9   22 6 27.28                             151    0.71 0 75.1  42 
 PAM  EN ES       22 6 44.30                             153    0.0710 75.1  42 
 PAM  EZ I        22 6 46.63        94.3 0.48            154           75.1  42 
 RUS  HZ EP       22 6 28.38                             142   -0.1810  105 176 
 RUS  HN ES       22 6 47.30                             142    0.2310  105 176 
 RUS  HZ I        22 6 48.34        64.9 0.32            143            105 176 
 PTB  HZ EP       22 6 30.90                             131   -0.62 9  148 257 
 PTB  HN ES       22 6 52.23                             131   -0.10 9  148 257 
 PTB  HZ I        22 6 54.00        31.3 0.13            130            148 257 
 TAM  HZ IP       22 6 32.83                             129    0.38 9  157 106 
 SPBC HZ EP       22 6 33.40                             128    0.08 9  166 218 
 SPBC HN ES       22 6 55.39                             128   -0.14 9  166 218 
 SPBC HZ I        22 6 57.84        48.0 0.09            127            166 218 
 ZAR  HZ EP       22 6 36.96                             122    0.14 9  202 291 
 ZAR  HN ES       22 7  1.62                             122   -0.14 9  202 291 
 ZAR  HZ I        22 7 13.01        34.0 0.24            121            202 291 
 NOR  HZ EP       22 6 40.59                             118    0.06 8  236 234 
 NOR  HN ES       22 7  8.31                             118   -0.07 8  236 234 
 NOR  HZ I        22 7 14.10        38.3 0.16            117            236 234 
 CHI  HZ EP       22 6 42.66                             116   -0.08 8  252 195 
 CHI  HN ES       22 7 11.66                             116   -0.64 8  252 195 
 CHI  HZ I        22 7 15.21        21.5 0.40            117            252 195 
 ROSC BZ EP   4   22 6 44.68                             116    1.59 0  256 210 
 ROSC BN ES   4   22 7 15.52                             116    2.59 0  256 210 
 ROSC BZ I        22 7 22.63        28.3 0.40            116            256 210 
 HEL  HZ EP   4   22 6 45.94                             114    1.06 0  272 255 
 HEL  HN ES       22 7 17.02                             114    0.91 8  272 255 
 HEL  HZ I        22 7 22.55        18.6 0.26            114            272 255 
 URE  HZ EP   2   22 6 44.82                             113   -0.66 4  281 291 
 URE  HN ES   2   22 7 16.68                             113   -0.49 4  281 291 
 URE  HZ I        22 7 21.94        16.5 0.16            113            281 291 
 GUY2CHZ EP   4   22 6 50.13                             112    1.67 0  303 234 
 GUY2CHN ES       22 7 22.07                             112   -0.41 7  303 234 
 GUY2CHZ I        22 7 29.70        17.1 0.62                           303 234 
 VIL  EZ EP       22 6 48.32                             111   -0.20 7  307 191 
 VIL  EN ES       22 7 22.40                             111   -0.19 7  307 191 
 VIL  EZ I        22 7 25.11        29.0 0.48            112            307 191 
 PTGC HZ EP   4   22 6 47.67                             111   -1.34 0  313 159 
 PTGC HN ES   4   22 7 20.84                             111   -2.62 0  313 159 
 PTGC HZ I        22 7 25.88        33.9 0.30            112            313 159 
 ELA  HZ EP   4   22 6 54.04                             110    2.29 0  331 229 
 ELA  HN ES   4   22 7 30.65                             110    2.30 0  331 229 
 ELA  HZ I        22 7 36.26        13.6 0.44            110            331 229 
 CBOC HZ EP   4   22 6 52.49                             109    0.85 0  334 251 
 CBOC HN ES       22 7 28.46                             109    0.31 7  334 251 
 CBOC HZ I        22 7 30.55        13.4 0.18            109            334 251 
 ANIL HZ EP   4   22 6 55.91                             108    1.15 0  359 224 
 ANIL HN ES       22 7 34.35                             108    0.66 6  359 224 
 ANIL HZ I        22 7 41.34        42.1 0.34            108            359 224 
 PRA  HZ EP       22 6 58.41                             106   -0.18 6  395 209 
 PRA  HN ES       22 7 40.88                             106    0.37 6  395 209 
 PRA  HZ I        22 7 46.87        10.6 0.16            106            395 209 
 SJC  HZ EP   4   22 6 58.18                             105   -1.66 0  405 327 
 SJC  HN ES   4   22 7 40.10                             105   -2.64 0  405 327 
 SJC  HZ I        22 7 46.14         5.1 0.23            106            405 327 
 PAL  HZ EP       22 7  0.19                             105    0.17 6  407 239 
 PAL  HN ES   4   22 7 42.51                             105   -0.56 0  407 239 
 PAL  HZ I        22 7 46.05         5.8 0.22            105            407 239 
 CRJC HZ EP   9   22 7  4.65                             103   -2.14 0  464   4 
 CRJC HN ES       22 7 51.78                             103   -1.19 5  464   4 
 CRJC HZ I        22 7 54.98         8.1 0.15            104            464   4 
                                                                                
