 2016  3 8 0527 51.9 L   6.814 -73.145140.6  RSN  5 0.2 1.1LRSN                1
 GAP=244        0.47       3.6     3.3  4.0  0.6290E+01  0.3439E+01 -0.4845E-01E
 Epicentro: LOS SANTOS - SANTANDER                                             3
 ACTION:UPD 16-05-13 21:22 OP:cam  STATUS:               ID:20160308052751 L   I
 OLDACT:DUP 16-03-08 18:36 OP:cara STATUS:               ID:20160308051748d    3
 OLDACT:REG 16-03-08 14:21 OP:cara STATUS:               ID:20160308051747     3
 2016-03-08-0517-47M.COL___289                                                 6
 STAT SP IPHASW D HRMM SECON CODA AMPLIT PERI AZIMU VELO AIN AR TRES W  DIS CAZ7
 BAR2 EZ ES        528 25.89                             169    0.0610 24.9 190 
 RUS  HZ EP        528 15.43                             142    0.1310  102 176 
 RUS  HN ES        528 33.37                             142   -0.1510  102 176 
 RUS  HZ I         528 34.64         1.4 0.36            142            102 176 
 PTB  HZ EP        528 18.23                             131   -0.30 9  148 258 
 PTB  HN ES        528 39.14                             131   -0.13 9  148 258 
 PTB  HZ I         528 39.99         1.3 0.32            130            148 258 
 SPBC HZ EP        528 20.28                             128    0.11 9  164 219 
 SPBC HE ES        528 42.36                             128    0.17 9  164 219 
 SPBC HZ I         528 44.06         1.8 0.22            127            164 219 
 ZAR  HN ES        528 49.16                             121    0.15 9  204 292 
 ZAR  HZ I         528 51.55         2.2 0.16            121            204 292 
                                                                                
