 2011 10 8 0905 21.4 L   6.788 -73.111137.8  RSN 11 0.4 2.1LRSN                1
 GAP=142        0.73       3.4     4.2  5.4 -0.2042E+01  0.8811E+01  0.6204E+00E
 Epicentro: LOS SANTOS - SANTANDER                                             3
 ACTION:UPD 12-07-13 16:02 OP:ep   STATUS:               ID:20111008090521 L   I
 2011-10-08-0904-12S.COL___168                                                 6
 STAT SP IPHASW D HRMM SECON CODA AMPLIT PERI AZIMU VELO AIN AR TRES W  DIS CAZ7
 BAR2 SZ EP   1    9 5 40.16                             170    0.06 7 23.1 200 
 BAR2 SZ ES   1    9 5 54.44                             170   -0.22 7 23.1 200 
 BAR2 SZ I         9 5 56.59        27.2 0.12                          23.1 200 
 BRR  HZ IP     C  9 5 42.23                             150    0.2610 75.2 298 
 BRR  HN ES   1    9 5 58.58                             150    0.60 7 75.2 298 
 BRR  HZ I         9 6  3.23        46.8 0.20                          75.2 298 
 PAM  SZ EP   1    9 5 42.85                             150    0.13 7 76.0  37 
 PAM  SN ES   1    9 5 59.40                             150    0.07 7 76.0  37 
 PAM  SZ I         9 6  2.04        28.0 0.44                          76.0  37 
 RUS  HZ EP   1    9 5 44.05                             143   -0.24 7 99.1 178 
 RUS  HN ES   1    9 6  1.78                             143   -0.35 7 99.1 178 
 RUS  HZ I         9 6  4.65         7.4 0.30                          99.1 178 
 OCA  SZ EP        9 5 49.00                             127   -0.31 9  162 352 
 OCA  SZ I         9 6 15.76        17.1 0.30                           162 352 
 ZAR  HZ EP   1    9 5 53.35                             120   -0.45 6  208 292 
 ZAR  HN ES   1    9 6 18.64                             120   -0.40 6  208 292 
 ZAR  HZ I         9 6 24.21        22.7 0.36                           208 292 
 ROSC BZ EP   1    9 6  0.10                             115    0.88 6  254 212 
 ROSC BZ I         9 6 38.16         9.9 0.30                           254 212 
 HEL  HZ EP   1    9 6  2.13                             113    0.50 6  275 256 
 HEL  HN ES   1    9 6 32.56                             113   -0.43 6  275 256 
 HEL  HZ I         9 6 38.88         6.2 0.44                           275 256 
 GUY  SZ EP   1    9 6  4.84                             110   -0.38 5  306 236 
 RREF HN ES   1    9 6 43.97                             109    0.57 5  324 230 
 RREF HZ I         9 6 50.89         5.2 0.56                           324 230 
 PRA  HN ES   1    9 6 56.08                             105   -0.31 4  393 210 
                                                                                
