 2011 11 8 0138 56.9 L   6.792 -73.117145.0  RSN 17 0.4 3.3LRSN                1
 GAP=117        0.76       2.3     3.5  4.3 -0.3840E+00  0.6113E+01  0.1328E+01E
 Epicentro: LOS SANTOS - SANTANDER                                             3
 ACTION:UPD 12-07-13 16:08 OP:ep   STATUS:               ID:20111108013856 L   I
 2011-11-08-0136-10S.COL___175                                                 6
 STAT SP IPHASW D HRMM SECON CODA AMPLIT PERI AZIMU VELO AIN AR TRES W  DIS CAZ7
 BTL  SZ EP        139 16.78                             171    0.4210 21.7 310 
 BAR2 SZ IP        139 16.58                             170    0.1910 23.3 198 
 BAR2 SZ ES   1    139 31.32                             170   -0.31 7 23.3 198 
 BAR2 SZ I         139 32.73       751.8 0.24                          23.3 198 
 BRR  HZ IP     C  139 18.48                             151    0.3710 74.4 298 
 BRR  HN ES   1    139 35.26                             151    0.58 7 74.4 298 
 BRR  HZ I         139 36.47       415.1 0.18                          74.4 298 
 PAM  SZ EP        139 19.42                             151    0.5110 76.1  37 
 PAM  SE ES        139 35.70                             151   -0.4110 76.1  37 
 RUS  HZ EP        139 20.40                             144   -0.0610 99.5 178 
 RUS  HN ES        139 38.59                             144   -0.2710 99.5 178 
 RUS  HZ I         139 40.95       335.4 0.40                          99.5 178 
 OCA  SZ EP        139 25.18                             129   -0.05 9  162 352 
 OCA  SZ ES   1    139 47.15                             129   -0.20 7  162 352 
 OCA  SZ I         139 52.18       199.9 0.43                           162 352 
 YOP  SZ EP   1    139 27.02                             126    0.39 7  177 154 
 YOP  SN ES   1    139 49.89                             126    0.04 7  177 154 
 YOP  SZ I         139 54.38       112.0 0.36                           177 154 
 ZAR  HZ EP   1    139 29.25                             122   -0.34 6  207 292 
 ZAR  HE ES   1    139 54.68                             122   -0.44 6  207 292 
 ZAR  HZ I         140  1.40       219.3 0.16                           207 292 
 NOR  SZ EP        139 32.48                             118   -0.29 8  237 235 
 NOR  SN ES   1    140  0.42                             118   -0.36 6  237 235 
 HEL  HZ EP   1    139 37.46                             114    0.11 6  275 256 
 HEL  HZ I         140 16.26       125.2 0.35                           275 256 
 VIL  SZ EP   1    139 40.13                             112   -0.09 5  303 192 
 VIL  SN ES   1    140 13.56                             112   -0.48 5  303 192 
 VIL  SZ I         140 16.69        83.8 0.48                           303 192 
 RREF HZ EP        139 43.00                             110   -0.18 7  324 230 
 RREF HN ES   1    140 20.04                             110    0.73 5  324 230 
 RREF HZ I         140 29.36       146.0 0.45                           324 230 
 DBB  SZ EP   1    139 44.97                             109    0.29 5  343 274 
 TOL  SZ EP        139 45.64                             109    0.37 7  345 225 
 COD  HZ EP        139 44.42                             109   -0.92 6  349 354 
 COD  HZ I         140 30.82        67.3 0.36                           349 354 
 ANIL HZ EP   1    139 46.71                             108   -0.11 5  359 225 
 PRA  HZ EP   1    139 50.13                             106   -0.32 4  393 210 
 PRA  HE ES   1    140 31.99                             106   -0.26 4  393 210 
                                                                                
