 2016 12 8 0546 52.8 L   6.388 -73.760 91.9  RSN  4 0.4 1.0LRSN                1
 GAP=156        0.99       6.9     4.3 10.5  0.1771E+02  0.8852E+01 -0.1406E-01E
 Epicentro: SANTA HELENA DEL OPON - SANTANDER                                  3
 ACTION:UPD 17-01-11 20:13 OP:rebc STATUS:               ID:20161208054652 L   I
 OLDACT:DUP 16-12-08 19:47 OP:ar   STATUS:               ID:20161208053749d    3
 OLDACT:REG 16-12-08 13:23 OP:ar   STATUS:               ID:20161208053748     3
 2016-12-08-0538-00M.COL___367                                                 6
 STAT SP IPHASW D HRMM SECON CODA AMPLIT PERI AZIMU VELO AIN AR TRES W  DIS CAZ7
 BAR2 EZ EP        547  8.23                             141   -0.3310 67.7  71 
 BAR2 EZ ES        547 20.62                             141   -0.2010 67.7  71 
 PTB  HZ EP        547  8.65                             136   -0.5110 78.9 282 
 PTB  HN ES        547 21.76                             136   -0.1410 78.9 282 
 PTB  HZ I         547 25.25         2.6 0.09            137           78.9 282 
 RUS  HZ EP        547 11.21                             132    0.1610 92.8 126 
 RUS  HN ES        547 25.72                             132    0.4610 92.8 126 
 RUS  HZ I         547 27.90         1.0 0.36            135           92.8 126 
 ZAR  HZ EP   2    547 18.55                             113   -0.21 4  172 315 
 ZAR  HN ES        547 39.72                             113    0.74 9  172 315 
 ZAR  HZ I         547 41.80         3.3 0.38            115            172 315 
                                                                                
