 2011 10 8 0936 26.9 L   7.467 -73.093154.8  RSN  7 0.4 2.3LRSN                1
 GAP=124        0.81       5.1     5.2  7.0 -0.2584E+01  0.1139E+02 -0.5863E+01E
 Epicentro: EL PLAYON - SANTANDER                                              3
 ACTION:UPD 12-07-13 16:02 OP:ep   STATUS:               ID:20111008093626 L   I
 2011-10-08-0920-00M.COL___171                                                 6
 STAT SP IPHASW D HRMM SECON CODA AMPLIT PERI AZIMU VELO AIN AR TRES W  DIS CAZ7
 GIR2 SZ EP   1    936 48.15                             163    0.14 7 44.4 195 
 GIR2 SZ ES   1    937  4.84                             163    0.34 7 44.4 195 
 PAM  SZ EP   1    936 48.38                             163   -0.19 7 45.7 108 
 PAM  SN ES   1    937  4.86                             163   -0.64 7 45.7 108 
 PAM  SZ I         937  6.22        23.0 0.22                          45.7 108 
 BRR  HZ EP   1    936 49.44                             151    0.00 7 79.1 240 
 BRR  HN ES   1    937  7.89                             151    0.84 7 79.1 240 
 BRR  HZ I         937 10.68        53.4 0.12                          79.1 240 
 OCA  SZ EP        936 50.61                             149    0.3510 88.9 344 
 OCA  SZ ES   1    937  8.29                             149   -0.22 7 88.9 344 
 OCA  SZ I         937 10.35        53.4 0.18                          88.9 344 
 BAR2 SZ EP   1    936 51.12                             146    0.19 7 97.3 186 
 BAR2 SZ ES   1    937  9.33                             146   -0.37 7 97.3 186 
 BAR2 SZ I         937 11.35        34.7 0.48                          97.3 186 
 ZAR  HZ EP   1    936 58.76                             126   -0.23 6  195 271 
 ZAR  HN ES   1    937 23.60                             126   -0.46 6  195 271 
 ZAR  HZ I         937 26.55        15.0 0.24                           195 271 
 HEL  HN ES   1    937 45.17                             114   -0.40 5  304 242 
                                                                                
