 2015  3 8 0246  8.6 L   6.790 -73.121151.2  RSN  7 0.4 1.5LRSN                1
 GAP=140        0.98       5.5     5.6  7.5 -0.1280E+02  0.3936E+01  0.8511E+01E
 Epicentro: LOS SANTOS - SANTANDER                                             3
 ACTION:UPD 15-04-30 16:24 OP:nd   STATUS:               ID:20150308024608 L   I
 OLDACT:DUP 15-03-08 16:48 OP:spq  STATUS:               ID:20150308023739d    3
 2015-03-08-0237-37M.COL___284                                                 6
 STAT SP IPHASW D HRMM SECON CODA AMPLIT PERI AZIMU VELO AIN AR TRES W  DIS CAZ7
 BAR2 EZ EP        246 28.77                             171   -0.1410 22.9 197 
 BAR2 EZ ES   1    246 44.18                             171   -0.55 7 22.9 197 
 BAR2 EZ I         246 46.60         4.3 0.28            168           22.9 197 
 BRR  HZ EP   1    246 30.88                             152    0.34 7 74.1 298 
 BRR  HE ES        246 48.05                             152    0.4310 74.1 298 
 BRR  HZ I         246 51.04         6.6 0.28            151           74.1 298 
 PAM  SZ EP        246 31.62                             152    0.2410 76.5  37 
 PAM  SN ES        246 48.86                             152   -0.2710 76.5  37 
 PAM  SZ I         246 50.88         4.3 0.20            158           76.5  37 
 RUS  HZ EP   1    246 32.90                             145    0.06 7 99.3 178 
 RUS  HN ES   1    246 52.48                             145    0.76 7 99.3 178 
 RUS  HZ I         246 53.12         1.5 0.20            147           99.3 178 
 PTB  HZ EP        246 35.71                             133   -0.56 9  150 259 
 PTB  HE ES   1    246 57.71                             133   -0.12 7  150 259 
 PTB  HZ I         247  2.73         4.9 0.52            133            150 259 
 SPBC HZ EP        246 37.78                             130    0.14 9  164 220 
 SPBC HN ES        246 59.70                             130   -0.56 9  164 220 
 SPBC HZ I         247  7.23         6.5 0.18            131            164 220 
 NOR  HE ES   1    247 13.91                             119    0.80 6  236 235 
 NOR  HZ I         247 18.31         3.2 0.30            120            236 235 
                                                                                
