 2016  8 8 0511  2.6 L   7.343 -73.854 99.1  RSN  6 0.4 1.3LRSN                1
 GAP=220        0.96       5.5     4.6  8.2  0.1173E+02  0.1115E+02  0.8067E+01E
 Epicentro: PUERTO WILCHES - SANTANDER                                         3
 ACTION:UPD 16-10-29 15:33 OP:rebc STATUS:               ID:20160808051102 L   I
 OLDACT:DUP 16-08-08 16:02 OP:dnl  STATUS:               ID:20160808050736d    3
 OLDACT:REG 16-08-08 12:42 OP:dnl  STATUS:               ID:20160808050735     3
 2016-08-08-0508-00M.COL___365                                                 6
 STAT SP IPHASW D HRMM SECON CODA AMPLIT PERI AZIMU VELO AIN AR TRES W  DIS CAZ7
 BRR  HZ EP        511 16.24                             162   -0.2910 30.5 149 
 BRR  HN ES        511 27.63                             162    0.2210 30.5 149 
 BRR  HZ I         511 30.40        13.3 0.14                          30.5 149 
 BAR2 EZ ES        511 38.54                             129   -0.0210  111 138 
 BAR2 EZ I         511 41.00         6.0 0.27                           111 138 
 PTB  HZ EP        511 22.75                             128    0.2910  111 217 
 PTB  HN ES        511 37.22                             128   -0.7510  111 217 
 PTB  HZ I         511 42.27         2.7 0.18                           111 217 
 ZAR  HZ EP        511 22.19                             128   -0.3610  112 279 
 ZAR  HE ES        511 38.65                             128    0.5310  112 279 
 ZAR  HZ I         511 40.92         4.9 0.10                           112 279 
 RUS  HZ EP   2    511 30.25                             115   -0.31 4  182 152 
 RUS  HN ES   3    511 53.22                             115    0.83 2  182 152 
 RUS  HZ I         511 56.62         1.2 0.28                           182 152 
 SPBC HZ EP   2    511 30.96                             114    0.13 4  189 187 
 SPBC HN ES        511 53.34                             114    0.48 9  189 187 
 SPBC HZ I         511 56.78         2.1 0.34                           189 187 
                                                                                
