 2012  2 8 0441 57.8 L   6.755 -73.143144.7  RSN  5 0.1 1.4LRSN                1
 GAP=185        0.34       3.5     3.6  3.9  0.5111E+01  0.2562E+01 -0.6916E+00E
 ACTION:UP  12-03-07 16:28 OP:epov STATUS:               ID:20120208044157 L   I
 2012-02-08-0440-00M.COL___188                                                 6
 STAT SP IPHASW D HRMM SECON CODA AMPLIT PERI AZIMU VELO AIN AR TRES W  DIS CAZ7
 BAR2 SZ ES   1    442 32.38                             172    0.04 7 18.5 194 
 BAR2 SZ I         442 33.51         7.3 0.32                          18.5 194 
 GIR2 SZ EP   2    442 17.40                             165   -0.07 5 36.2 351 
 BRR  HZ EP   1    442 19.18                             151    0.20 7 74.0 302 
 BRR  HE ES   1    442 35.39                             151   -0.12 7 74.0 302 
 BRR  HZ I         442 40.27         7.5 0.13                          74.0 302 
 RUS  HZ EP   2    442 21.12                             145    0.05 5 95.6 176 
 RUS  HN ES   1    442 39.20                             145   -0.04 7 95.6 176 
 RUS  HZ I         442 41.10         2.8 0.43                          95.6 176 
 PTB  HZ EP   1    442 24.41                             132   -0.20 7  147 261 
 PTB  HN ES   1    442 45.65                             132    0.11 7  147 261 
                                                                                
