 2016  4 8 0258 38.7 L   6.831 -73.131136.1  RSN 21 0.5 2.2LRSN                1
 GAP=120        1.10       2.9     3.3  5.2 -0.2351E+01  0.4997E+01  0.4816E-02E
 Epicentro: LOS SANTOS - SANTANDER                                             3
 ACTION:UPD 16-05-05 14:19 OP:rebc STATUS:               ID:20160408025838 L   I
 OLDACT:UP  16-04-08 15:53 OP:mh   STATUS:               ID:20160408025745     3
 OLDACT:UP  16-04-08 15:53 OP:mh   STATUS:               ID:20160408025745     3
 OLDACT:UP  16-04-08 15:51 OP:mh   STATUS:               ID:20160408025745     3
 OLDACT:UP  16-04-08 15:50 OP:mh   STATUS:               ID:20160408025745     3
 OLDACT:UP  16-04-08 15:50 OP:mh   STATUS:               ID:20160408025745     3
 OLDACT:REG 16-04-08 12:38 OP:mh   STATUS:               ID:20160408025745     3
 2016-04-08-0257-45M.COL___327                                                 6
 STAT SP IPHASW D HRMM SECON CODA AMPLIT PERI AZIMU VELO AIN AR TRES W  DIS CAZ7
 BAR2 EZ IP        258 57.67                             168    0.3610 27.0 192 
 BAR2 EZ ES        259 11.45                             168   -0.3310 27.0 192 
 BAR2 EZ I         259 14.85                             167           27.0 192 
 PAM  EZ EP        259  0.44                             150    0.7210 73.7  40 
 PAM  EE ES        259 16.45                             150    0.3710 73.7  40 
 PAM  EZ I         259 19.53        38.1 0.45            154           73.7  40 
 RUS  HZ EP        259  2.01                             141    0.1910  104 177 
 RUS  HN ES        259 20.11                             141    0.2910  104 177 
 RUS  HZ I         259 21.55        20.7 0.40            142            104 177 
 PTB  HZ EP        259  4.63                             129   -0.53 9  150 258 
 PTB  HN ES        259 25.24                             129   -0.53 9  150 258 
 PTB  HZ I         259 28.08        20.8 0.16            130            150 258 
 OCA  HZ EP        259  5.45                             128   -0.57 9  157 352 
 OCA  HN ES        259 27.40                             128    0.12 9  157 352 
 OCA  HZ I         259 31.62        39.1 0.42            130            157 352 
 SPBC HZ EP        259  6.62                             126   -0.27 9  167 219 
 SPBC HN ES        259 28.31                             126   -0.53 9  167 219 
 SPBC HZ I         259 31.48        26.8 0.20            127            167 219 
 ZAR  HZ EP        259 10.73                             120    0.12 9  204 291 
 ZAR  HN ES        259 35.95                             120    0.49 9  204 291 
 ZAR  HZ I         259 42.23        17.0 0.34            121            204 291 
 NOR  HZ EP        259 14.24                             116   -0.06 8  238 234 
 NOR  HN ES        259 41.69                             116   -0.34 8  238 234 
 NOR  HZ I         259 48.50        10.8 0.16            117            238 234 
 CHI  HZ EP        259 16.51                             115    0.16 8  252 195 
 CHI  HN ES        259 44.92                             115   -0.76 8  252 195 
 ROSC BZ EP   1    259 17.41                             114    0.63 6  257 211 
 ROSC BN ES   4    259 48.37                             114    1.92 0  257 211 
 ROSC BZ I         259 52.13         8.8 0.40            116            257 211 
 HEL  HZ EP        259 19.70                             113    0.94 8  275 255 
 HEL  HN ES        259 50.84                             113    0.87 8  275 255 
 HEL  HZ I         259 56.82         6.6 0.30            114            275 255 
 URE  HZ EP        259 18.79                             112   -0.60 7  284 291 
 URE  HN ES        259 50.19                             112   -0.90 7  284 291 
 URE  HZ I         259 50.62        13.2 0.12            113            284 291 
 SOCV BZ EP        259 20.51                             110   -0.49 7  298  57 
 SOCV BN ES   4    259 50.14                             110   -3.82 0  298  57 
 GUY2CHZ EP        259 22.69                             110    0.38 7  305 234 
 GUY2CHN ES   4    259 58.72                             110    2.43 0  305 234 
 GUY2CHZ I         3 0  2.40         5.3 0.24                           305 234 
 CBOC HE EP        259 26.35                             108    0.77 7  336 252 
 CBOC HN ES        3 0  1.96                             108   -0.16 7  336 252 
 CBOC HE I         3 0  5.81         7.7 0.42            109            336 252 
 MON  HZ EP   4    259 25.32                             107   -1.97 0  353 308 
 MON  HN ES   4    3 0  2.27                             107   -2.89 0  353 308 
 MON  HZ I         3 0  4.56         5.4 0.20            108            353 308 
 SDV  BZ EP     C  259 27.42                             107   -0.62 6  357  50 
 SDV  BN ES   4    3 0  4.50                             107   -1.98 0  357  50 
 SDV  BZ I         3 0  8.66         4.2 0.75            109            357  50 
 ANIL HZ EP   4    259 32.19                             106    3.57 0  361 224 
 ANIL HE ES   1    3 0  7.81                             106    0.29 5  361 224 
 ANIL HZ I         3 0 17.41         8.5 0.37            108            361 224 
 ORTC HZ EP        259 32.69                             104   -0.11 6  399 216 
 ORTC HN ES        3 0 15.18                             104    0.22 6  399 216 
 ORTC HZ I         3 0 22.27         3.9 0.38            106            399 216 
 SJC  HZ EP   4    259 32.47                             104   -1.30 0  407 326 
 SJC  HN ES   4    3 0 13.48                             104   -3.21 0  407 326 
 SJC  HZ I         3 0 16.99         5.7 0.46            106            407 326 
 PAL  HZ EP        259 33.65                             104   -0.33 6  409 239 
 PAL  HN ES   1    3 0 17.94                             104    0.88 4  409 239 
 PAL  HZ I         3 0 22.77         4.4 0.77            105            409 239 
                                                                                
