 2015  4 8 0959 52.2 L   6.814 -73.148143.9  RSN  9 0.5 2.1LRSN                1
 GAP=136        1.33       4.0     5.5  7.7 -0.1750E+01  0.9797E+01 -0.5325E+01E
 Epicentro: LOS SANTOS - SANTANDER                                             3
 ACTION:UPD 15-06-03 16:53 OP:cam  STATUS:               ID:20150408095952 L   I
 OLDACT:REG 15-04-08 21:01 OP:carl STATUS:               ID:20150408095747     3
 2015-04-08-0957-47M.COL___260                                                 6
 STAT SP IPHASW D HRMM SECON CODA AMPLIT PERI AZIMU VELO AIN AR TRES W  DIS CAZ7
 BAR2 EZ EP       10 0 11.60                             170    0.0110 24.8 189 
 BAR2 EZ ES       10 0 26.46                             170   -0.2910 24.8 189 
 BAR2 EZ I        10 0 27.60        33.9 0.20            171           24.8 189 
 BRR  HZ EP       10 0 13.54                             152    0.4910 70.2 298 
 BRR  HN ES       10 0 30.21                             152    0.8710 70.2 298 
 BRR  HZ I        10 0 34.81        15.7 0.14            151           70.2 298 
 PAM  SZ IP     C 10 0 14.43                             151    0.3210 76.4  40 
 PAM  SN ES       10 0 31.42                             151    0.1810 76.4  40 
 PAM  SZ I        10 0 33.99        17.1 0.42            154           76.4  40 
 RUS  HZ EP       10 0 15.99                             143    0.1510  102 176 
 RUS  HN ES       10 0 33.65                             143   -0.6610  102 176 
 RUS  HZ I        10 0 34.63        13.3 0.50            147            102 176 
 PTB  HZ EP       10 0 19.32                             131    0.35 9  148 258 
 PTB  HN ES       10 0 38.96                             131   -0.93 9  148 258 
 PTB  HZ I        10 0 42.32         9.7 0.36            132            148 258 
 OCA  HZ EP       10 0 19.74                             129   -0.43 9  159 353 
 OCA  HN ES       10 0 41.99                             129   -0.04 9  159 353 
 OCA  HZ I        10 0 44.84        54.1 0.40            131            159 353 
 SPBC HZ EP       10 0 20.73                             128    0.12 9  164 219 
 SPBC HN ES       10 0 42.68                             128   -0.12 9  164 219 
 SPBC HZ I        10 0 46.29        12.3 0.14            131            164 219 
 ZAR  HZ EP       10 0 25.01                             122    0.62 9  203 292 
 ZAR  HN ES       10 0 50.11                             122    0.58 9  203 292 
 ZAR  HZ I        10 0 56.39        18.6 0.32            123            203 292 
 SML  HZ EP       10 0 28.10                             117   -0.41 8  242 335 
 SML  HE ES       10 0 55.62                             117   -1.25 8  242 335 
 SML  HZ I        10 0 59.84        13.0 0.10            119            242 335 
                                                                                
