 2016  6 8 0422 43.5 L   6.760 -73.139146.0  RSN 10 0.6 1.6LRSN                1
 GAP=139        1.28       4.7     6.4  9.4 -0.7775E+01  0.8398E+00  0.9109E+01E
 Epicentro: LOS SANTOS - SANTANDER                                             3
 ACTION:UPD 16-07-21 22:16 OP:rebc STATUS:               ID:20160608042243 L   I
 OLDACT:UP  16-06-08 17:47 OP:dani STATUS:               ID:20160608041743     3
 OLDACT:REG 16-06-08 13:05 OP:dani STATUS:               ID:20160608041743     3
 2016-06-08-0417-43M.COL___334                                                 6
 STAT SP IPHASW D HRMM SECON CODA AMPLIT PERI AZIMU VELO AIN AR TRES W  DIS CAZ7
 BAR2 EZ EP        423  2.58                             172   -0.5010 19.2 194 
 BAR2 EZ I         423 20.36         9.1 0.28                          19.2 194 
 BRR  HZ EP        423  4.32                             152   -0.5110 74.0 301 
 BRR  HN ES        423 21.52                             152    0.0510 74.0 301 
 PAM  EZ EP        423  5.57                             150   -0.3410 80.4  37 
 PAM  EE ES   2    423 22.96                             150   -0.44 5 80.4  37 
 PAM  EZ I         423 24.99         7.7 0.30                          80.4  37 
 RUS  HZ EP        423  7.02                             145    0.0610 96.2 176 
 RUS  HE ES        423 25.61                             145    0.3610 96.2 176 
 RUS  HZ I         423 26.67         2.6 0.34                          96.2 176 
 PTB  HZ EP        423  9.61                             132   -0.87 9  148 261 
 PTB  HE ES        423 31.10                             132   -0.42 9  148 261 
 PTB  HZ I         423 36.73         4.7 0.40                           148 261 
 SPBC HZ EP        423 11.56                             130   -0.18 9  160 220 
 SPBC HN ES        423 33.97                             130    0.20 9  160 220 
 SPBC HZ I         423 38.21         7.8 0.32                           160 220 
 OCA  HE ES        423 35.97                             129    1.31 9  165 353 
 NOR  HZ EP        423 19.54                             119    0.51 8  233 235 
 NOR  HE ES        423 47.14                             119    0.39 8  233 235 
 NOR  HZ I         423 54.07         4.2 0.22                           233 235 
 CHI  HN ES   2    423 50.43                             118    0.59 4  245 196 
 PRA  HZ EP        423 37.13                             107    0.51 6  389 210 
 PRA  HE ES   2    424 19.87                             107    1.81 3  389 210 
 PRA  HZ I         424 22.78         2.5 0.44                           389 210 
                                                                                
