 2016  7 8 0107 14.7 L   7.602 -73.205140.7  RSN  6 0.5 1.8LRSN                1
 GAP=158        1.14       6.4     5.2  9.8  0.1764E+01  0.1435E+02 -0.2821E+02E
 Epicentro: EL PLAYON - SANTANDER                                              3
 ACTION:UPD 17-03-29 16:48 OP:lp   STATUS:               ID:20160708010714 L   I
 OLDACT:UP  16-07-08 14:10 OP:dani STATUS:               ID:20160708005747d    3
 OLDACT:UP  16-07-08 14:08 OP:dani STATUS:               ID:20160708005747d    3
 OLDACT:DUP 16-07-08 14:06 OP:dani STATUS:               ID:20160708005747d    3
 OLDACT:UP  16-07-08 14:05 OP:dani STATUS:               ID:20160708005746     3
 OLDACT:UP  16-07-08 14:05 OP:dani STATUS:               ID:20160708005746     3
 OLDACT:UP  16-07-08 14:05 OP:dani STATUS:               ID:20160708005746     3
 OLDACT:REG 16-07-08 12:36 OP:dani STATUS:               ID:20160708005746     3
 2016-07-08-0057-46M.COL___333                                                 6
 STAT SP IPHASW D HRMM SECON CODA AMPLIT PERI AZIMU VELO AIN AR TRES W  DIS CAZ7
 PAM  EZ EP        1 7 35.91                             155    0.4010 62.9 117 
 PAM  EN ES        1 7 51.80                             155    0.0210 62.9 117 
 PAM  EZ I         1 7 54.09        16.9 0.62            160           62.9 117 
 BRR  HZ EP     D  1 7 36.06                             150    0.3710 78.3 226 
 BRR  HE ES        1 7 52.40                             150    0.3110 78.3 226 
 BRR  HZ I         1 7 53.14        14.7 0.12            152           78.3 226 
 BAR2 EZ EP        1 7 38.44                             140    0.0310  112 179 
 BAR2 EZ ES        1 7 56.06                             140   -0.8810  112 179 
 BAR2 EZ I         1 7 57.54        10.4 0.18            145            112 179 
 PTB  HZ EP        1 7 44.51                             125    0.04 9  181 230 
 PTB  HN ES        1 8  7.24                             125   -0.49 9  181 230 
 PTB  HZ I         1 8 11.32         6.5 0.78            127            181 230 
 ZAR  HN ES        1 8  8.63                             125    0.67 9  183 266 
 SJC  HZ EP        1 8  1.10                             109   -0.18 7  334 320 
 SJC  HE ES        1 8 36.82                             109   -0.82 7  334 320 
 SJC  HZ I         1 8 48.77         2.1 0.68            110            334 320 
                                                                                
