 2010  9 8 0204 45.1 L   6.781 -73.043147.5  RSN 13 0.3 2.7LRSN                1
 GAP=170        0.76       2.6     5.0  5.2 -0.5379E+01  0.3353E+01  0.1691E+01E
 Epicentro: LOS SANTOS - SANTANDER                                             3
 ACTION:UP  11-02-18 11:01 OP:tino STATUS:               ID:20100908020445 L   I
 2010-09-08-0203-12S.COL___120                                                 6
 STAT SP IPHASW D HRMM SECON CODA AMPLIT PERI AZIMU VELO SNR AR TRES W  DIS CAZ7
 BAR2 SZ IP        2 5  5.00                             170     0.010   26 217 
 BAR2 SZ ES   1    2 5 20.18                             170    -0.3 7   26 217 
 BAR2 SZ I         2 5 21.73       196.5 0.21                            26 217 
 BTL  SZ IP        2 5  5.13                             169     0.010   29 302 
 GIR2 SZ EP        2 5  5.07                             165    -0.110   37 333 
 BRR  HZ IP     C  2 5  6.83                             149    -0.310   82 296 
 BRR  HN ES   1    2 5 24.05                             149    -0.2 7   82 296 
 BRR  HZ I         2 5 25.86       168.3 0.13                            82 296 
 RUS  HZ EP        2 5  8.91                             145     0.010   98 183 
 RUS  HN ES   1    2 5 27.55                             145     0.1 7   98 183 
 RUS  HZ I         2 5 29.28        34.7 0.19                            98 183 
 GUE  SZ EP        2 5 10.03                             140     0.010  117   6 
 GUE  SZ I         2 5 11.42        25.6 0.03                           117   6 
 GRA  SZ IP        2 5 10.80                             137     0.410  125  12 
 GRA  SZ ES   1    2 5 30.41                             137     0.2 7  125  12 
 OCA  SZ IP        2 5 13.39                             129    -0.5 9  164 349 
 OCA  SZ ES   1    2 5 36.81                             129     0.4 7  164 349 
 OCA  SZ I         2 5 41.71        53.9 0.34                           164 349 
 CHI  HZ EP        2 5 23.12                             117     0.1 8  250 198 
 CHI  HN ES   1    2 5 53.17                             117     0.6 6  250 198 
 CHI  HZ I         2 6  2.03        33.8 0.58                           250 198 
 ROSC BZ EP   1    2 5 24.17                             116     0.4 6  257 213 
 ROSC BN ES   1    2 5 53.53                             116    -0.4 6  257 213 
 ROSC BZ I         2 6  0.90        32.2 0.41                           257 213 
 HEL  HZ EP   1    2 5 26.59                             114     0.0 6  283 257 
 HEL  HN ES   1    2 5 59.07                             114     0.1 6  283 257 
 HEL  HZ I         2 6  3.57        27.4 0.28                           283 257 
 RREF HZ EP   1    2 5 32.07                             111    -0.1 5  329 231 
 RREF HN ES   1    2 6  9.74                             111     0.9 5  329 231 
 RREF HZ I         2 6 16.06        24.1 0.40                           329 231 
 PRA  HZ EP   1    2 5 38.39                             106    -0.8 4  396 211 
 PRA  HN ES   1    2 6 21.02                             106    -0.3 4  396 211 
 PRA  HZ I         2 6 26.94        37.1 0.35                           396 211 
                                                                                
