 2017  6 8 0839 24.0 L   6.771 -73.159142.0  RSN  6 0.2 1.4LRSN                1
 GAP=234        0.57       2.9     3.4  5.0  0.3198E+01  0.2167E+01  0.1141E+01E
 Epicentro: LOS SANTOS - SANTANDER                                             3
 ACTION:UPD 17-09-14 16:50 OP:jn   STATUS:               ID:20170608083924 L   I
 OLDACT:REG 17-06-08 14:23 OP:dhb  STATUS:               ID:20170608083730     3
 2017-06-08-0838-00M.COL___359                                                 6
 STAT SP IPHASW D HRMM SECON CODA AMPLIT PERI AZIMU VELO AIN AR TRES W  DIS CAZ7
 BRR  HZ EP        839 44.78                             152   -0.0210 71.5 301 
 BRR  HN ES        840  1.27                             152    0.2710 71.5 301 
 BRR  HZ I         840  2.12         6.3 0.59            150           71.5 301 
 RUS  HN EP        839 47.17                             144   -0.0310 97.5 175 
 RUS  HE ES        840  5.21                             144   -0.0610 97.5 175 
 RUS  HN I         840  6.50         5.6 0.18            145           97.5 175 
 PTB  HZ EP        839 50.28                             132   -0.24 9  146 260 
 PTB  HE ES        840 10.81                             132   -0.36 9  146 260 
 PTB  HZ I         840 14.65         4.0 0.22            131            146 260 
 SPBC HZ EP   4    839 52.97                             129    1.04 0  160 219 
 SPBC HE ES        840 13.62                             129   -0.07 9  160 219 
 ZAR  HZ EP   4    839 56.22                             121   -0.01 0  204 293 
 ZAR  HN ES        840 21.32                             121   -0.02 9  204 293 
 ZAR  HZ I         840 25.37         2.1 0.10            122            204 293 
 NOR  HZ EP        839 59.54                             118    0.31 8  232 235 
 NOR  HN ES        840 27.03                             118    0.35 8  232 235 
 NOR  HZ I         840 28.48         1.3 0.22            119            232 235 
                                                                                
