 2012  4 8 0230 37.0 L   6.742 -73.202147.4  RSN  6 0.4 1.4LRSN                1
 GAP=132        0.98       8.2     6.9 10.0  0.2199E+02 -0.2462E+01 -0.1491E+02E
 Epicentro: VILLANUEVA - SANTANDER                                             3
 ACTION:UPD 12-07-05 11:51 OP:tino STATUS:               ID:20120408023037 L   I
 2012-04-08-0230-00M.COL___196                                                 6
 STAT SP IPHASW D HRMM SECON CODA AMPLIT PERI AZIMU VELO AIN AR TRES W  DIS CAZ7
 BAR2 SZ EP   1    230 56.75                             173     0.0 7   17 173 
 BAR2 SZ ES   1    231 11.52                             173    -0.6 7   17 173 
 BRR  HZ EP   1    230 58.49                             153     0.2 7   69 306 
 BRR  HZ I         230 58.74         5.5 0.21                            69 306 
 BRR  HE ES   1    231 15.56                             153     0.7 7   69 306 
 PAM  SZ EP   1    230 59.53                             148    -0.4 7   86  40 
 PAM  SZ I         230 59.73         4.7 0.18                            86  40 
 RUS  HZ EP   1    231  0.77                             146     0.2 7   95 172 
 RUS  HN ES   1    231 19.21                             146     0.3 7   95 172 
 RUS  HZ I         231 20.53         2.8 0.34                            95 172 
 PTB  HZ EP   1    231  3.54                             134     0.1 7  141 261 
 PTB  HE ES   1    231 23.51                             134    -0.6 7  141 261 
 ZAR  HN ES   1    231 34.39                             123     0.0 6  201 294 
 ZAR  HZ I         231 40.98         2.4 0.32                           201 294 
                                                                                
