 2010 11 8 0554 24.3 L   6.766 -73.170152.9  RSN  5 0.3 1.7LRSN                1
 GAP=180        0.68       5.5    11.1  7.7  0.1410E+02  0.9883E+01  0.3280E+01E
 Epicentro: LOS SANTOS - SANTANDER                                             3
 ACTION:UP  10-12-17 16:51 OP:REBC STATUS:               ID:20101108055424 L   I
 2010-11-08-0551-24S.COL___128                                                 6
 STAT SP IPHASW D HRMM SECON CODA AMPLIT PERI AZIMU VELO SNR AR TRES W  DIS CAZ7
 BAR2 SZ EP   2    554 44.77                             173     0.0 5   19 184 
 BAR2 SZ ES   2    555  0.06                             173    -0.6 5   19 184 
 BAR2 SZ I         555  3.20        12.9 0.50                            19 184 
 BRR  HZ EP        554 46.48                             154     0.210   71 302 
 BRR  HZ I         554 46.80        16.1 0.12                            71 302 
 BRR  HE ES   1    555  3.50                             154     0.2 7   71 302 
 RUS  HZ EP   2    554 48.75                             146     0.2 5   97 174 
 RUS  HE ES   2    555  7.66                             146     0.2 5   97 174 
 RUS  HZ I         555  9.17         3.8 0.30                            97 174 
 OCA  SZ EP   2    554 53.64                             131     0.1 5  164 354 
 OCA  SZ ES   2    555 15.75                             131    -0.6 5  164 354 
 OCA  SZ I         555 21.02         3.4 0.47                           164 354 
 NOR  SZ EP   1    554 59.50                             121    -0.5 6  230 235 
                                                                                
