 2012  4 8 0312 53.5 L   6.774 -73.165147.9  RSN  6 0.4 1.4LRSN                1
 GAP=135        0.88       6.0     5.2  8.5  0.2846E+01  0.8294E+01  0.6727E+00E
 Epicentro: LOS SANTOS - SANTANDER                                             3
 ACTION:UPD 12-07-05 11:51 OP:tino STATUS:               ID:20120408031253 L   I
 2012-04-08-0310-00M.COL___196                                                 6
 STAT SP IPHASW D HRMM SECON CODA AMPLIT PERI AZIMU VELO AIN AR TRES W  DIS CAZ7
 BAR2 SZ EP   1    313 13.38                             172     0.1 7   20 185 
 BAR2 SZ ES   1    313 28.39                             172    -0.4 7   20 185 
 BRR  HZ EP   1    313 15.08                             153     0.2 7   71 301 
 BRR  HN ES   1    313 32.30                             153     0.8 7   71 301 
 BRR  HZ I         313 33.82         6.4 0.18                            71 301 
 PAM  SZ EP   1    313 16.25                             150     0.1 7   81  39 
 PAM  SZ I         313 16.43         3.8 0.18                            81  39 
 PAM  SN ES   1    313 33.41                             150    -0.4 7   81  39 
 RUS  HZ EP   1    313 17.17                             145    -0.1 7   98 175 
 RUS  HE ES   1    313 36.16                             145     0.3 7   98 175 
 RUS  HZ I         313 37.24         3.0 0.40                            98 175 
 PTB  HZ EP   1    313 20.38                             133     0.0 7  145 260 
 PTB  HN ES   1    313 40.87                             133    -0.5 7  145 260 
 PTB  HZ I         313 44.48         2.7 0.18                           145 260 
 ZAR  HN ES   1    313 51.19                             123    -0.1 6  203 293 
 ZAR  HZ I         313 57.42         4.1 0.09                           203 293 
                                                                                
