 2012  7 8 0603  9.0 L   6.756 -73.256145.9  RSN  5 0.3 1.4LRSN                1
 GAP=202        0.70      10.2    11.0  7.2  0.9659E+02  0.2215E+00  0.3997E+01E
 Epicentro: ZAPATOCA - SANTANDER                                               3
 ACTION:UPD 12-08-14 11:43 OP:ep   STATUS:               ID:20120708060309 L   I
 2012-07-08-0557-59S.COL___215                                                 6
 STAT SP IPHASW D HRMM SECON CODA AMPLIT PERI AZIMU VELO AIN AR TRES W  DIS CAZ7
 BAR2 SZ EP   1    6 3 28.42                             172    -0.2 7   20 156 
 BAR2 SZ ES   1    6 3 43.41                             172    -0.5 7   20 156 
 BAR2 SZ I         6 3 44.63         7.0 0.26                            20 156 
 BRR  HZ EP   1    6 3 30.15                             155     0.4 7   64 308 
 BRR  HN ES   1    6 3 46.33                             155     0.4 7   64 308 
 RUS  HZ EP   1    6 3 32.63                             145     0.1 7   97 169 
 RUS  HZ I         6 3 33.60         3.2 0.19                            97 169 
 RUS  HN ES   1    6 3 51.17                             145     0.3 7   97 169 
 YOP  SZ EP   1    6 3 39.08                             126    -0.2 7  181 149 
 ZAR  HN ES   1    6 4  4.72                             124    -0.4 6  195 295 
