 2010  7 8 0716 55.3 L   6.719 -73.028115.5  RSN  4 0.5 1.3LRSN                1
 GAP=173        0.92       8.6    15.4 16.2  0.2240E+02 -0.1370E+03 -0.4608E+02E
 Epicentro: ARATOCA - SANTANDER                                                3
 ACTION:UPD 10-12-01 15:16 OP:pat  STATUS:               ID:20100708071655 L   I
 2010-07-08-0712-39S.COL___116                                                 6
 STAT SP IPHASW D HRMM SECON CODA AMPLIT PERI AZIMU VELO AIN AR TRES W  DIS CAZ7
 BAR2 SZ EP   1    717 11.43                             169     0.1 8   22 231 
 BAR2 SZ ES   2    717 23.20                             169    -0.6 5   22 231 
 BRR  HZ EP   1    717 13.76                             141    -0.7 8   87 300 
 BRR  HZ I         717 25.72         8.4 0.07                            87 300 
 BRR  HN ES   2    717 30.12                             141     0.8 5   87 300 
 RUS  HZ EP   1    717 15.73                             139     0.2 8   92 184 
 RUS  HZ I         717 28.22         1.9 0.06                            92 184 
 GRA  SZ EP        717 18.72                             128     0.110  131  11 
                                                                                
