 2016 12 8 0350 51.8 L   6.723 -73.130155.4  RSN  4 0.5 1.4LRSN                1
 GAP=233        1.33      11.0    10.5 10.7  0.5652E+02  0.7333E+01 -0.1606E+01E
 Epicentro: JORDAN - SANTANDER                                                 3
 ACTION:UPD 17-01-11 20:13 OP:rebc STATUS:               ID:20161208035051 L   I
 OLDACT:UP  16-12-08 17:14 OP:ar   STATUS:               ID:20161208034742     3
 OLDACT:UP  16-12-08 16:05 OP:ar   STATUS:               ID:20161208034742     3
 OLDACT:REG 16-12-08 12:58 OP:ar   STATUS:               ID:20161208034742     3
 2016-12-08-0348-00M.COL___370                                                 6
 STAT SP IPHASW D HRMM SECON CODA AMPLIT PERI AZIMU VELO AIN AR TRES W  DIS CAZ7
 BAR2 EZ EP        351 12.34                             174   -0.1710 15.6 202 
 BAR2 EZ ES        351 27.77                             174   -0.8610 15.6 202 
 BAR2 EZ I         351 28.61        10.5 0.72            165           15.6 202 
 BRR  HZ EP        351 14.17                             152   -0.2010 77.1 303 
 BRR  HE ES        351 32.81                             152    0.8710 77.1 303 
 BRR  HZ I         351 33.88         6.7 0.40            148           77.1 303 
 RUS  HZ EP        351 16.49                             148    0.5110 92.0 177 
 RUS  HN ES        351 35.13                             148    0.3210 92.0 177 
 RUS  HZ I         351 36.87         1.6 0.40            145           92.0 177 
 PTB  HZ EP        351 19.31                             134   -0.34 9  148 262 
 PTB  HN ES        351 41.13                             134   -0.20 9  148 262 
 PTB  HZ I         351 47.85         2.9 0.28            130            148 262 
                                                                                
