 2014  6 8 0108 15.0 L   6.836 -73.146140.0  RSN  8 0.3 1.7LRSN                1
 GAP=183        0.62       2.1     3.5  5.6  0.1328E+00  0.5836E+01 -0.1766E+00E
 Epicentro: LOS SANTOS - SANTANDER                                             3
 ACTION:UPD 14-07-01 22:51 OP:nd   STATUS:               ID:20140608010815 L   I
 OLDACT:REG 14-06-08 12:49 OP:fm   STATUS:               ID:20140608005816     3
 2014-06-08-0058-16M.COL___259                                                 6
 STAT SP IPHASW D HRMM SECON CODA AMPLIT PERI AZIMU VELO AIN AR TRES W  DIS CAZ7
 BAR2 SZ EP        1 8 34.28                             168    0.2810 27.2 188 
 BAR2 SZ ES   1    1 8 48.93                             168    0.09 7 27.2 188 
 BAR2 SZ I         1 8 50.10         8.4 0.22            169           27.2 188 
 RUS  HZ EP        1 8 38.57                             141    0.1210  105 176 
 RUS  HN ES   1    1 8 56.27                             141   -0.50 7  105 176 
 RUS  HZ I         1 8 58.63         4.5 0.22            144            105 176 
 PTB  HZ EP        1 8 41.07                             130   -0.47 9  149 257 
 PTB  HE ES   1    1 9  2.15                             130   -0.12 7  149 257 
 PTB  HZ I         1 9  4.30         7.2 0.10            131            149 257 
 OCA  HN ES        1 9  4.14                             129    0.23 9  156 353 
 SPBC HZ EP        1 8 43.37                             127    0.04 9  166 218 
 SPBC HN ES        1 9  5.47                             127    0.02 9  166 218 
 SPBC HZ I         1 9  9.99         4.9 0.34            129            166 218 
 ZAR  HN ES        1 9 11.94                             121    0.15 9  203 291 
 ZAR  HZ I         1 9 17.40         4.1 0.38            122            203 291 
 SML  HZ EP   2    1 8 50.45                             117   -0.44 4  240 335 
 SML  HE ES        1 9 18.55                             117   -0.35 8  240 335 
 SML  HZ I         1 9 24.06         8.6 0.26            118            240 335 
 GUY2CHZ EP   1    1 8 58.95                             111    0.38 5  303 234 
 GUY2CHN ES        1 9 32.84                             111    0.26 7  303 234 
 GUY2CHZ I         1 9 41.91         2.0 0.38                           303 234 
                                                                                
