 2012 10 8 0930 27.2 L   6.736 -73.174149.4  RSN  4 0.2 1.4LRSN                1
 GAP=229        0.49       7.3     8.3  5.9  0.5085E+02  0.2236E+01 -0.1272E+01E
 Epicentro: VILLANUEVA - SANTANDER                                             3
 ACTION:UPD 12-11-22 17:02 OP:ep   STATUS:               ID:20121008093027 L   I
 2012-10-08-0930-00M.COL___222                                                 6
 STAT SP IPHASW D HRMM SECON CODA AMPLIT PERI AZIMU VELO AIN AR TRES W  DIS CAZ7
 BAR2 SZ EP   1    930 46.91                             174   -0.24 7 16.0 183 
 BAR2 SZ I         930 47.16         8.9 0.14                          16.0 183 
 BAR2 SZ ES   1    931  2.52                             174   -0.19 7 16.0 183 
 BRR  HZ EP   1    930 48.79                             153   -0.02 7 72.2 305 
 BRR  HN ES   1    931  6.00                             153    0.34 7 72.2 305 
 BRR  HZ I         931  8.85         6.4 0.30                          72.2 305 
 RUS  HZ EP   1    930 51.14                             146    0.29 7 93.8 174 
 RUS  HN ES   1    931  9.26                             146   -0.03 7 93.8 174 
 RUS  HZ I         931 12.29         2.2 0.36                          93.8 174 
 ZAR  HN ES   1    931 25.16                             123   -0.21 6  204 294 
 ZAR  HZ I         931 31.29         2.7 0.29                           204 294 
                                                                                
