 2015  3 8 0335 39.7 L   7.033 -73.236128.0  RSN  5 0.4 1.2LRSN                1
 GAP=246        0.85       8.1     6.9  7.2  0.3864E+02  0.4540E+01 -0.3216E-01E
 Epicentro: GIRON - SANTANDER                                                  3
 ACTION:UPD 15-04-30 16:24 OP:nd   STATUS:               ID:20150308033539 L   I
 OLDACT:REG 15-03-08 12:20 OP:spq  STATUS:               ID:20150308032749     3
 2015-03-08-0327-49M.COL___284                                                 6
 STAT SP IPHASW D HRMM SECON CODA AMPLIT PERI AZIMU VELO AIN AR TRES W  DIS CAZ7
 BAR2 EZ EP        335 57.97                             158   -0.0810 49.0 173 
 BAR2 EZ ES   1    336 12.35                             158   -0.05 7 49.0 173 
 BAR2 EZ I         336 13.92        13.2 0.38            157           49.0 173 
 BRR  HZ EP   1    335 57.62                             156   -0.28 7 53.2 279 
 BRR  HE ES        336 12.04                             156   -0.0910 53.2 279 
 BRR  HZ I         336 13.60         3.4 0.36            154           53.2 279 
 RUS  HZ EP   1    336  4.16                             133    0.20 7  127 172 
 RUS  HN ES   1    336 23.54                             133    0.63 7  127 172 
 RUS  HZ I         336 24.86         0.8 0.20            133            127 172 
 PTB  HZ EP        336  4.44                             128   -0.58 9  145 248 
 PTB  HE ES   1    336 24.43                             128   -0.37 7  145 248 
 PTB  HZ I         336 26.53         2.8 0.52            128            145 248 
 ZAR  HZ EP   1    336  9.47                             121    0.36 7  186 286 
 ZAR  HE ES        336 32.68                             121    0.60 9  186 286 
 ZAR  HZ I         336 36.03         2.0 0.38            121            186 286 
                                                                                
