 2013  5 8 0216 21.5 L   6.792 -73.148147.8  RSN  9 0.5 2.0LRSN                1
 GAP=185        1.00       4.6     6.1  6.7  0.5323E+01  0.1176E+02  0.3791E+01E
 Epicentro: LOS SANTOS - SANTANDER                                             3
 ACTION:UPD 13-06-20 09:48 OP:ep   STATUS:               ID:20130508021621 L   I
 2013-05-08-0210-00M.COL___256                                                 6
 STAT SP IPHASW D HRMM SECON CODA AMPLIT PERI AZIMU VELO AIN AR TRES W  DIS CAZ7
 BAR2 SZ EP        216 41.44                             171    0.0710 22.4 190 
 BAR2 SZ ES   1    216 56.69                             171   -0.17 7 22.4 190 
 BAR2 SZ I         216 58.07        24.6 0.26            168           22.4 190 
 GIR2 SZ EP   1    216 41.59                             167    0.14 7 32.1 351 
 GIR2 SZ ES   1    216 56.41                             167   -0.60 7 32.1 351 
 GIR2 SZ I         216 57.85        13.1 0.34            166           32.1 351 
 BRR  HZ EP        216 43.34                             153    0.4410 71.4 299 
 BRR  HN ES   1    217  0.46                             153    0.89 7 71.4 299 
 BRR  HZ I         217  3.56        13.4 0.26            149           71.4 299 
 RUS  HZ EP        216 45.36                             144   -0.0410 99.7 176 
 RUS  HN ES   1    217  4.09                             144    0.05 7 99.7 176 
 RUS  HZ I         217  5.35         8.7 0.26            145           99.7 176 
 PTB  HZ EP        216 48.12                             133   -0.49 9  147 259 
 PTB  HN ES   1    217  8.73                             133   -1.01 7  147 259 
 PTB  HZ I         217 11.13        10.8 0.12            131            147 259 
 ZAR  HZ EP   1    216 53.10                             123   -1.00 6  204 292 
 ZAR  HE ES   1    217 19.53                             123    0.01 6  204 292 
 ZAR  HZ I         217 24.65         9.8 0.36            122            204 292 
 NOR  HZ EP        216 57.55                             119    0.27 8  234 235 
 NOR  HN ES   1    217 25.98                             119    0.80 6  234 235 
 NOR  HZ I         217 30.59         6.3 0.50            119            234 235 
 SML  HZ EP   1    216 58.19                             118   -0.14 6  244 335 
 SML  HE ES   1    217 27.64                             118    0.59 6  244 335 
 SML  HZ I         217 30.54         9.5 0.10            118            244 335 
 PRA  HZ EP        217 15.09                             107    0.09 6  391 210 
 PRA  HE ES   2    217 57.03                             107    0.32 3  391 210 
 PRA  HZ I         218  3.54         4.2 0.42            107            391 210 
                                                                                
