 2016  2 8 0158 18.6 L   6.810 -73.190139.4  RSN 17 0.4 2.3LRSN                1
 GAP= 68        0.86       2.2     3.5  5.1 -0.1503E+01  0.6465E+01 -0.1375E+01E
 Epicentro: ZAPATOCA - SANTANDER                                               3
 ACTION:UPD 16-03-04 21:24 OP:rebc STATUS:               ID:20160208015818 L   I
 OLDACT:DUP 16-02-08 14:52 OP:dnl  STATUS:               ID:20160208014748d    3
 2016-02-08-0147-47M.COL___337                                                 6
 STAT SP IPHASW D HRMM SECON CODA AMPLIT PERI AZIMU VELO AIN AR TRES W  DIS CAZ7
 BAR2 EZ EP     C  158 37.78                             170    0.3010 24.1 178 
 BAR2 EZ ES        158 52.30                             170    0.0910 24.1 178 
 BAR2 EZ I         158 55.16        32.4 0.32            168           24.1 178 
 PAM  EZ IP     C  158 40.61                             149    0.3210 79.8  43 
 PAM  EN ES        158 57.69                             149    0.4810 79.8  43 
 PAM  EZ I         159  0.39        24.8 0.47            153           79.8  43 
 RUS  HZ EP     C  158 41.78                             142   -0.0710  102 173 
 RUS  HN ES        158 59.66                             142   -0.3210  102 173 
 RUS  HZ I         159  1.37        19.6 0.23            144            102 173 
 PTB  HZ EP        158 44.33                             132   -0.31 9  143 258 
 PTB  HN ES        159  4.61                             132   -0.33 9  143 258 
 PTB  HZ I         159  7.87        23.1 0.12            128            143 258 
 OCA  HZ EP        158 45.83                             128   -0.44 9  159 355 
 OCA  HN ES        159  7.74                             128   -0.11 9  159 355 
 OCA  HZ I         159 12.01        34.9 0.18            128            159 355 
 TAM  HZ EP   2    158 46.14                             128   -0.12 5  160 105 
 TAM  HE ES   4    159  6.45                             128   -1.38 0  160 105 
 TAM  HZ I         159  8.31        19.4 0.26            133            160 105 
 SPBC HZ EP        158 46.78                             128    0.37 9  161 217 
 SPBC HN ES        159  7.80                             128   -0.30 9  161 217 
 SPBC HZ I         159 11.83        27.1 0.22            127            161 217 
 ZAR  HZ EP        158 50.82                             122    0.70 9  199 292 
 ZAR  HN ES   2    159 15.02                             122    0.31 4  199 292 
 ZAR  HZ I         159 22.06        33.6 0.26            120            199 292 
 NOR  HZ EP   2    158 53.90                             117    0.29 4  231 234 
 NOR  HE ES   2    159 21.52                             117    0.60 4  231 234 
 NOR  HZ I         159 24.83        15.1 0.18            117            231 234 
 SML  HZ EP        158 53.96                             116   -0.59 8  241 336 
 SML  HN ES        159 22.08                             116   -0.50 8  241 336 
 SML  HZ I         159 31.00        23.5 0.10            116            241 336 
 CHI  HZ EP        158 56.17                             116    0.23 8  248 194 
 CHI  HN ES        159 24.58                             116   -0.48 8  248 194 
 CHI  HZ I         159 33.14         5.4 0.48            116            248 194 
 HEL  HZ EP   2    158 59.02                             114    1.02 4  268 255 
 HEL  HE ES   2    159 30.02                             114    1.29 4  268 255 
 HEL  HZ I         159 36.26        10.3 0.54            113            268 255 
 URE  HZ EP   4    159  1.70                             113    2.89 0  279 292 
 URE  HN ES   4    159 29.53                             113   -0.64 0  279 292 
 GUY2CHZ EP   4    159  3.19                             111    1.65 0  298 234 
 GUY2CHN ES   2    159 34.68                             111   -0.36 4  298 234 
 GUY2CHZ I         159 44.43        10.3 0.44                           298 234 
 SOCV BZ EP   4    158 59.59                             110   -2.18 0  305  58 
 SOCV BN ES   4    159 31.24                             110   -4.19 0  305  58 
 ELA  HN ES   2    159 40.81                             109   -0.11 3  326 229 
 ELA  HZ I         159 55.97         6.4 0.42            109            326 229 
 DBB  SZ EP   2    159  6.05                             109    0.80 3  335 274 
 DBB  SZ ES   4    159 36.99                             109   -4.65 0  335 274 
 DBB  SZ I         159 58.81        20.1 0.44            108            335 274 
 MON  HZ EP   4    159  5.43                             108   -1.41 0  349 309 
 MON  HE ES   2    159 43.92                             108   -0.54 3  349 309 
 MON  HZ I         159 58.97         5.1 0.48            107            349 309 
 SJC  HZ EP   4    159 12.46                             105   -1.08 0  406 327 
 SJC  HE ES   4    159 53.62                             105   -2.77 0  406 327 
 SJC  HZ I         159 57.74         3.6 0.46            105            406 327 
                                                                                
