 2014  7 8 0511 57.6 L   6.832 -73.133147.4  RSN 28 0.5 3.1LRSN 3.6WRSN        1
 SPEC AVERAGE  MO 14.6 ST0.445 OM  2.6 f0 1.25 R1.7792 AL 0.00 WI 40.0 MW  3.6 3
 SPEC SD       MO  0.3 ST0.662 OM  0.4 f00.520 R0.6565 AL      WI      MW  0.2 3
 GAP= 53        1.14       2.2     2.7  4.7 -0.1031E+01  0.3133E+01  0.3627E+00E
 Epicentro: LOS SANTOS - SANTANDER                                             3
      22.0      58.0      34.0  8.0  5.0  7.0  0.0  0.1           RSN FPFIT    F
 SPEC PAM SH Z MO 14.9 ST0.143 OM  3.0 f00.649 R2.9646 AL-0.00 WI 40.0 MW  3.9 3
 SPEC PAM SH Z T 51236 K 0.000 GD  164 VS 5.20 DE 3.50 Q0750.0 QA 1.50 VS 5.20 3
 SPEC OCA HH Z MO 14.1 ST  1.2 OM  2.1 f0 2.40 R0.8017 AL-0.00 WI 40.0 MW  3.4 3
 SPEC OCA HH Z T 51246 K 0.000 GD  215 VS 5.20 DE 3.50 Q0750.0 QA 1.50 VS 5.20 3
 SPEC ROSCBH Z MO 14.6 ST0.207 OM  2.4 f00.956 R2.0126 AL-0.00 WI 40.0 MW  3.7 3
 SPEC ROSCBH Z T 513 4 K 0.000 GD  296 VS 5.20 DE 3.50 Q0750.0 QA 1.50 VS 5.20 3
 SPEC HEL HH Z MO 14.5 ST0.229 OM  2.3 f0 1.05 R1.8324 AL-0.00 WI 40.0 MW  3.6 3
 SPEC HEL HH Z T 513 7 K 0.000 GD  311 VS 5.20 DE 3.50 Q0750.0 QA 1.50 VS 5.20 3
 SPECGUY2CHH Z MO 14.8 ST  0.1 OM  2.6 f00.696 R  2.76 AL-0.00 WI 40.0 MW  3.8 3
 SPECGUY2CHH Z T 51314 K       GD337.9 VS 5.20 DE 3.50 Q0750.0 QA 1.50 VS 5.20 3
 SPEC RREFHH Z MO 14.2 ST0.518 OM  1.9 f0 1.79 R1.0749 AL-0.00 WI 40.0 MW  3.4 3
 SPEC RREFHH Z T 51319 K 0.000 GD  356 VS 5.20 DE 3.50 Q0750.0 QA 1.50 VS 5.20 3
 SPEC CBOCHH Z MO 14.6 ST0.118 OM  2.3 f00.797 R2.4141 AL-0.00 WI 40.0 MW  3.7 3
 SPEC CBOCHH Z T 51319 K 0.000 GD  366 VS 5.20 DE 3.50 Q0750.0 QA 1.50 VS 5.20 3
 SPEC DBB SH Z MO 15.1 ST0.378 OM  2.8 f00.797 R2.4141 AL-0.00 WI 40.0 MW  4.0 3
 SPEC DBB SH Z T 51321 K 0.000 GD  371 VS 5.20 DE 3.50 Q0750.0 QA 1.50 VS 5.20 3
 SPEC TOL SH Z MO 14.7 ST0.958 OM  2.4 f0 1.47 R1.3088 AL-0.00 WI 40.0 MW  3.7 3
 SPEC TOL SH Z T 51323 K 0.000 GD  377 VS 5.20 DE 3.50 Q0750.0 QA 1.50 VS 5.20 3
 SPEC ANILHH Z MO 14.4 ST0.677 OM  2.1 f0 1.63 R1.1804 AL-0.00 WI 40.0 MW  3.5 3
 SPEC ANILHH Z T 51326 K 0.000 GD  389 VS 5.20 DE 3.50 Q0750.0 QA 1.50 VS 5.20 3
 SPEC PRA HH Z MO 14.5 ST0.240 OM  2.2 f0 1.04 R1.8500 AL-0.00 WI 40.0 MW  3.6 3
 SPEC PRA HH Z T 51332 K 0.000 GD  422 VS 5.20 DE 3.50 Q0750.0 QA 1.50 VS 5.20 3
 SPEC ORTCHH Z MO 14.4 ST0.240 OM  2.1 f0 1.12 R1.7179 AL-0.00 WI 40.0 MW  3.6 3
 SPEC ORTCHH Z T 51333 K 0.000 GD  425 VS 5.20 DE 3.50 Q0750.0 QA 1.50 VS 5.20 3
 OLDACT:DUP 14-07-08 16:55 OP:stll STATUS:               ID:20140708050818d    3
 ACTION:UPD 15-03-16 20:42 OP:nd   STATUS:               ID:20140708051157 L   I
 OLDACT:UP  14-07-08 17:39 OP:stll STATUS:               ID:20140708050818d    3
 2014-07-08-0508-17M.COL___259                                                 6
 STAT SP IPHASW D HRMM SECON CODA AMPLIT PERI AZIMU VELO AIN AR TRES W  DIS CAZ7
 BAR2 SZ IP     C  512 17.86                             169    0.3210 27.1 192 
 BAR2 SZ ES        512 32.44                             169   -0.6310 27.1 192 
 BAR2 SZ I         512 35.52       187.8 0.36            159           27.1 192 
 PAM  SZ EP        512 20.62                             152    0.8110 73.8  40 
 PAM  SZ I         512 20.85       109.7 0.20            125           73.8  40 
 PAM  SN ES        512 37.62                             152    0.5110 73.8  40 
 RUS  HZ EP     D  512 21.68                             143   -0.1110  104 177 
 RUS  HN ES        512 40.31                             143   -0.3310  104 177 
 RUS  HZ I         512 43.48        73.1 0.22            117            104 177 
 PTB  HZ IP     D  512 24.33                             132   -0.59 9  150 258 
 PTB  HE ES        512 46.31                             132    0.11 9  150 258 
 PTB  HZ I         512 53.12       197.9 0.50            107            150 258 
 TAM  HZ IP     C  512 26.01                             131    0.61 9  155 106 
 TAM  HZ I         512 46.77        94.2 0.32            106            155 106 
 TAM  HE ES        512 46.94                             131   -0.13 9  155 106 
 OCA  HZ EP        512 25.89                             130    0.14 9  157 352 
 OCA  HN ES        512 48.12                             130    0.43 9  157 352 
 OCA  HZ I         512 52.49       116.3 0.50            105            157 352 
 SPBC HZ IP     D  512 26.70                             129    0.10 9  167 219 
 SPBC HN ES        512 48.75                             129   -0.45 9  167 219 
 SPBC HZ I         512 55.93       178.1 0.50            105            167 219 
 ZAR  HZ EP     D  512 30.12                             123   -0.06 9  204 291 
 ZAR  HN ES        512 55.59                             123    0.02 9  204 291 
 ZAR  HZ I         513  3.56        82.5 0.28            101            204 291 
 NOR  HZ EP        512 33.63                             118   -0.17 8  238 234 
 NOR  HE ES        513  1.92                             118   -0.09 8  238 234 
 NOR  HZ I         513  5.59       119.4 0.26             99            238 234 
 SML  HZ EP        512 34.19                             118    0.13 8  241 335 
 SML  HE ES        513  2.19                             118   -0.29 8  241 335 
 SML  HZ I         513  6.10       141.7 0.10             99            241 335 
 CHI  HZ EP        512 35.96                             117    0.13 8  252 195 
 CHI  HZ I         512 36.53        27.0 0.20             99            252 195 
 CHI  HN ES        513  5.86                             117    0.23 8  252 195 
 ROSC BZ EP        512 37.23                             117    0.98 8  257 211 
 ROSC BE ES        513  6.04                             117   -0.33 8  257 211 
 ROSC BZ I         513 15.66       127.2 0.40             98            257 211 
 HEL  HZ EP        512 38.36                             115    0.19 8  274 255 
 HEL  HN ES        513  9.10                             115   -0.70 8  274 255 
 HEL  HZ I         513 16.76        79.6 0.38             98            274 255 
 URE  HZ EP        512 37.60                             114   -1.18 7  284 291 
 URE  HN ES   4    513  8.68                             114   -2.19 0  284 291 
 SOCV BZ EP        512 39.82                             113   -0.58 7  298  57 
 GUY2CHZ EP        512 41.96                             112    0.29 7  304 234 
 GUY2CHN ES        513 16.31                             112    0.28 7  304 234 
 GUY2CHZ I         513 24.73        83.0 0.70                           304 234 
 VIL  SZ EP     D  512 40.83                             112   -0.72 7  307 192 
 VIL  SE ES        513 16.12                             112    0.32 7  307 192 
 VIL  SZ I         513 31.22        57.1 0.40             97            307 192 
 PTGC HZ EP        512 40.65                             112   -1.23 7  312 159 
 PTGC HZ I         512 41.22       183.6 0.12             96            312 159 
 PTGC HN ES   4    513 13.79                             112   -2.61 0  312 159 
 RREF HZ EP        512 44.94                             111    0.71 7  325 229 
 RREF HN ES        513 20.91                             111    0.34 7  325 229 
 RREF HZ I         513 29.89        62.2 0.22             96            325 229 
 CBOC HZ EP        512 45.44                             110    0.55 7  336 252 
 CBOC HN ES        513 20.81                             110   -0.94 7  336 252 
 CBOC HZ I         513 29.98        19.3 0.44             96            336 252 
 DBB  SZ EP        512 45.40                             110    0.10 7  341 274 
 DBB  SZ ES        513 22.62                             110    0.13 7  341 274 
 DBB  SZ I         513 37.50        89.4 0.44             96            341 274 
 TOL  SZ EP        512 46.82                             109    0.46 6  347 224 
 TOL  SE ES        513 24.56                             109    0.20 6  347 224 
 TOL  SZ I         513 29.84        91.1 0.36             96            347 224 
 ARGC HZ EP        512 48.04                             109    1.03 6  356 340 
 ARGC HN ES        513 25.09                             109   -0.44 6  356 340 
 ARGC HZ I         513 30.13        25.2 0.30             95            356 340 
 ANIL HZ EP        512 48.71                             108    0.81 6  361 224 
 ANIL HN ES        513 27.74                             108    0.62 6  361 224 
 ANIL HZ I         513 34.02       120.7 0.36             95            361 224 
 PRA  HZ EP        512 51.20                             106   -0.45 6  396 209 
 PRA  HE ES        513 33.55                             106   -0.23 6  396 209 
 PRA  HZ I         513 38.58        36.8 0.38             95            396 209 
 ORTC HZ EP     C  512 51.94                             106   -0.10 6  399 216 
 ORTC HN ES        513 35.07                             106    0.59 6  399 216 
 ORTC HZ I         513 41.57        32.2 0.42             95            399 216 
 ELOV BZ EP        512 51.55                             106   -0.97 6  404  87 
 SJC  HZ EP        512 51.55                             106   -1.43 6  407 327 
 SJC  HN ES   4    513 31.56                             106   -4.60 0  407 327 
 SJC  HZ I         513 40.74        15.1 0.40             95            407 327 
                                                                                
