 2016 10 8 0919 38.4 L   6.761 -73.130149.1  RSN  4 0.3 1.1LRSN                1
 GAP=244        0.66       6.1     5.5  8.4  0.2235E+02 -0.1521E+02 -0.3064E+02E
 Epicentro: LOS SANTOS - SANTANDER                                             3
 ACTION:UPD 16-11-09 19:17 OP:rebc STATUS:               ID:20161008091938 L   I
 OLDACT:UP  16-10-08 16:51 OP:dani STATUS:               ID:20161008091741     3
 OLDACT:REG 16-10-08 12:47 OP:dnl  STATUS:               ID:20161008091741     3
 2016-10-08-0918-00M.COL___351                                                 6
 STAT SP IPHASW D HRMM SECON CODA AMPLIT PERI AZIMU VELO AIN AR TRES W  DIS CAZ7
 RUS  HZ EP        920  2.02                             146   -0.1810 96.2 177 
 RUS  HE ES        920 20.84                             146    0.1010 96.2 177 
 RUS  HZ I         920 21.39         1.3 0.22            145           96.2 177 
 PTB  HZ EP        920  5.76                             133    0.01 9  149 261 
 PTB  HE ES        920 27.21                             133    0.15 9  149 261 
 PTB  HZ I         920 27.76         1.6 0.18            131            149 261 
 SPBC HZ EP        920  6.75                             130   -0.22 9  161 220 
 SPBC HN ES        920 29.29                             130    0.04 9  161 220 
 SPBC HZ I         920 34.03         2.9 0.25            129            161 220 
 ZAR  HZ EP        920 11.97                             123    0.55 8  207 293 
 ZAR  HE ES        920 36.74                             123   -0.42 8  207 293 
 ZAR  HZ I         920 41.90         0.9 0.19            122            207 293 
                                                                                
