 2012  2 8 0840 16.0 L   6.783 -73.155147.3  RSN  8 0.3 2.0LRSN                1
 GAP=136        0.64       3.3     3.3  5.2 -0.1047E+01  0.4183E+01 -0.4245E+01E
 ACTION:UP  12-03-07 16:28 OP:epov STATUS:               ID:20120208084016 L   I
 2012-02-08-0840-00M.COL___188                                                 6
 STAT SP IPHASW D HRMM SECON CODA AMPLIT PERI AZIMU VELO AIN AR TRES W  DIS CAZ7
 BAR2 SZ EP   1    840 35.76                             171    0.01 7 21.3 188 
 BAR2 SZ ES   1    840 51.14                             171   -0.03 7 21.3 188 
 BAR2 SZ I         840 52.12        19.9 0.20                          21.3 188 
 BRR  HZ EP        840 37.58                             153    0.2910 71.2 300 
 BRR  HN ES   1    840 54.28                             153    0.36 7 71.2 300 
 PAM  SZ EP        840 38.69                             150    0.2010 79.5  39 
 PAM  SE ES   1    840 55.52                             150   -0.52 7 79.5  39 
 RUS  HZ EP   1    840 39.37                             145   -0.38 7 98.8 175 
 RUS  HN ES        840 58.46                             145    0.1710 98.8 175 
 RUS  HZ I         840 59.54        10.6 0.26                          98.8 175 
 PTB  HZ EP   1    840 42.55                             133   -0.40 7  146 259 
 PTB  HN ES   1    841  3.43                             133   -0.55 7  146 259 
 OCA  SZ EP   1    840 44.65                             130    0.07 7  162 354 
 ZAR  HZ EP   1    840 48.42                             123   -0.08 6  204 293 
 ZAR  HN ES   1    841 13.90                             123    0.04 6  204 293 
 ZAR  HZ I         841 20.24        17.5 0.30                           204 293 
 NOR  SE ES   1    841 19.63                             119    0.27 6  233 235 
                                                                                
