 2017  9 8 0614 37.3 L   6.837 -73.088146.0  RSN  5 0.4 1.2LRSN                1
 GAP=142        0.89       5.9     7.0  8.6 -0.2162E+02 -0.4469E+01  0.1153E+02E
 Epicentro: LOS SANTOS - SANTANDER                                             3
 ACTION:UPD 17-10-05 19:10 OP:rebc STATUS:               ID:20170908061437 L   I
 OLDACT:REG 17-09-08 13:22 OP:dnl  STATUS:               ID:20170908060747     3
 2017-09-08-0608-00M.COL___422                                                 6
 STAT SP IPHASW D HRMM SECON CODA AMPLIT PERI AZIMU VELO AIN AR TRES W  DIS CAZ7
 BAR2 EZ ES        615 12.45                             168   -0.1110 29.0 201 
 BAR2 EZ I         615 13.94         5.4 0.66            167           29.0 201 
 PAM  EZ EP        614 59.85                             153    0.6810 70.2  38 
 PAM  EN ES        615 15.87                             153   -0.3310 70.2  38 
 PAM  EZ I         615 18.27         2.6 0.60            155           70.2  38 
 BRR  HZ EP   2    614 58.85                             150    0.11 5 75.2 293 
 BRR  HN ES        615 15.31                             150   -0.1310 75.2 293 
 BRR  HZ I         615 16.42         3.1 0.36            153           75.2 293 
 RUS  HZ EP   2    615  0.43                             142   -0.97 5  104 180 
 RUS  HN ES   2    615 20.25                             142    0.09 5  104 180 
 RUS  HZ I         615 22.01         2.4 0.82            143            104 180 
 SPBC HZ EP   2    615  5.87                             127   -0.68 4  170 220 
 SPBC HE ES        615 29.60                             127    0.27 9  170 220 
 SPBC HZ I         615 32.37         2.0 0.42            129            170 220 
                                                                                
