 2016  3 8 0230 39.9 L   6.809 -73.173139.2  RSN  9 0.2 1.6LRSN                1
 GAP=133        0.56       2.2     2.2  3.6 -0.9084E+00  0.2195E+01  0.1015E+01E
 Epicentro: LOS SANTOS - SANTANDER                                             3
 ACTION:UPD 16-05-13 21:22 OP:cam  STATUS:               ID:20160308023039 L   I
 OLDACT:REG 16-03-08 13:47 OP:cara STATUS:               ID:20160308022747     3
 2016-03-08-0227-47M.COL___295                                                 6
 STAT SP IPHASW D HRMM SECON CODA AMPLIT PERI AZIMU VELO AIN AR TRES W  DIS CAZ7
 BAR2 EZ IP        230 58.90                             170    0.1210 24.0 182 
 BAR2 EZ ES        231 13.26                             170   -0.2310 24.0 182 
 BAR2 EZ I         231 14.68        16.3 0.46            169           24.0 182 
 PAM  EZ IP        231  1.59                             149    0.0710 78.6  42 
 PAM  EN ES        231 18.51                             149    0.1410 78.6  42 
 PAM  EZ I         231 20.52         8.3 0.48            154           78.6  42 
 RUS  HZ EP        231  2.89                             142   -0.2410  102 174 
 RUS  HE ES        231 21.19                             142   -0.0410  102 174 
 RUS  HZ I         231 23.21         3.5 0.20            145            102 174 
 PTB  HZ EP        231  5.72                             131   -0.39 9  145 258 
 PTB  HE ES        231 26.47                             131   -0.06 9  145 258 
 PTB  HZ I         231 33.32         3.4 0.12            131            145 258 
 SPBC HZ EP        231  7.95                             128    0.13 9  162 218 
 SPBC HN ES        231 30.02                             128    0.44 9  162 218 
 SPBC HZ I         231 33.56         7.3 0.22            129            162 218 
 ZAR  HN ES        231 36.47                             121    0.13 9  201 292 
 ZAR  HZ I         231 42.28         6.0 0.10            122            201 292 
 NOR  HZ EP        231 15.13                             117    0.05 8  233 234 
 NOR  HE ES        231 42.35                             117   -0.15 8  233 234 
 NOR  HZ I         231 48.51         3.2 0.18            118            233 234 
 CHI  HZ EP        231 17.21                             116   -0.08 8  249 194 
 CHI  HE ES        231 46.60                             116    0.17 8  249 194 
 CHI  HZ I         231 50.21         1.6 0.56            118            249 194 
 GUY2CHZ EP   9    231 24.79                             111    1.77 0  299 234 
 GUY2CHE ES        231 57.97                                   -0.44 7  299 234 
 GUY2CHZ I         232  5.10         2.3 0.68                           299 234 
                                                                                
