 2017  5 8 0248 36.3 L   6.768 -73.126143.8  RSN  9 0.4 1.8LRSN                1
 GAP=115        0.88       3.7     4.0  6.1 -0.9369E-02 -0.2099E+01  0.4933E+01E
 Epicentro: LOS SANTOS - SANTANDER                                             3
 ACTION:UPD 17-06-16 13:33 OP:jn   STATUS:               ID:20170508024836 L   I
 OLDACT:UP  17-05-08 14:50 OP:edw  STATUS:               ID:20170508024743d    3
 OLDACT:UP  17-05-08 14:50 OP:edw  STATUS:               ID:20170508024743d    3
 OLDACT:DUP 17-05-08 14:41 OP:edw  STATUS:               ID:20170508024743d    3
 OLDACT:UP  17-05-08 14:38 OP:edw  STATUS:               ID:20170508024742     3
 OLDACT:REG 17-05-08 12:26 OP:edw  STATUS:               ID:20170508024742     3
 2017-05-08-0248-00M.COL___362                                                 6
 STAT SP IPHASW D HRMM SECON CODA AMPLIT PERI AZIMU VELO AIN AR TRES W  DIS CAZ7
 BRR  HZ IP     C  248 57.31                             151   -0.1410 74.8 300 
 BRR  HN ES        249 14.48                             151    0.5310 74.8 300 
 BRR  HZ I         249 18.15        15.7 0.12            150           74.8 300 
 PAM  EZ IP     D  248 58.47                             150    0.0710 78.8  37 
 PAM  EN ES        249 15.40                             150   -0.2310 78.8  37 
 PAM  EZ I         249 17.73         5.8 0.44            154           78.8  37 
 RUS  HZ EP     C  249  0.14                             144    0.5410 96.9 177 
 RUS  HN ES        249 17.40                             144   -0.3710 96.9 177 
 RUS  HZ I         249 19.68        16.0 0.24            147           96.9 177 
 PTB  HZ EP   9    249  2.42                             131   -0.83 0  149 260 
 PTB  HN ES        249 23.24                             125   -0.20 9  149 260 
 PTB  HZ I         249 28.60         6.2 0.26            132            149 260 
 SPBC HZ EP        249  4.62                             129    0.09 9  162 220 
 SPBC HN ES        249 26.60                             129    0.06 9  162 220 
 SPBC HZ I         249 29.24         9.8 0.20            130            162 220 
 YPLC HZ EP   2    249  6.16                             127    0.61 4  173 151 
 YPLC HE ES   4    249 30.12                             127    1.76 0  173 151 
 ZAR  HZ EP   2    249  9.30                             121    0.33 4  207 293 
 ZAR  HN ES        249 33.87                             121   -0.58 8  207 293 
 ZAR  HZ I         249 39.60        12.0 0.44            123            207 293 
 PTGC HZ EP        249 19.00                             111   -0.61 7  305 159 
 PTGC HN ES   4    249 51.25                             111   -2.14 0  305 159 
 SJC  HZ EP   4 C  249 29.91                             105   -2.38 0  413 327 
 SJC  HN ES   4    250 12.29                             105   -3.67 0  413 327 
 SJC  HZ I         250 14.75         1.3 0.62            107            413 327 
                                                                                
