 2014  9 8 0343  0.7 L   6.846 -73.110146.0  RSN 18 0.5 2.2LRSN                1
 GAP=187        0.91       2.6     4.5  5.9 -0.9827E-01  0.3865E+01  0.4852E+01E
 Epicentro: LOS SANTOS - SANTANDER                                             3
 ACTION:UPD 14-10-03 23:03 OP:nd   STATUS:               ID:20140908034300 L   I
 OLDACT:UP  14-09-08 16:14 OP:mh   STATUS:               ID:20140908033819     3
 OLDACT:UP  14-09-08 16:00 OP:mh   STATUS:               ID:20140908033819     3
 OLDACT:REG 14-09-08 13:08 OP:mh   STATUS:               ID:20140908033819     3
 2014-09-08-0338-19M.COL___260                                                 6
 STAT SP IPHASW D HRMM SECON CODA AMPLIT PERI AZIMU VELO AIN AR TRES W  DIS CAZ7
 BAR2 SZ EP        343 20.61                             168    0.1010 29.1 196 
 BAR2 SZ I         343 37.32        20.9 0.13            167           29.1 196 
 BRR  HZ EP        343 22.33                             152    0.3610 72.5 294 
 BRR  HN ES        343 39.20                             152    0.6610 72.5 294 
 BRR  HZ I         343 43.57        22.4 0.09            153           72.5 294 
 RUS  HZ EP        343 25.15                             143    0.3010  105 178 
 RUS  HN ES   1    343 43.18                             143   -0.49 7  105 178 
 RUS  HZ I         343 45.15        12.5 0.15            145            105 178 
 PTB  HZ EP        343 27.53                             131   -0.62 9  153 257 
 PTB  HN ES   4    343 47.80                             131   -1.75 0  153 257 
 PTB  HZ I         343 50.69        27.9 0.12            133            153 257 
 OCA  HZ EP        343 28.96                             131    0.33 9  156 351 
 OCA  HN ES        343 50.18                             131   -0.22 9  156 351 
 OCA  HZ I         343 54.84        29.6 0.20            134            156 351 
 SPBC HZ EP        343 29.63                             128   -0.21 9  170 219 
 SPBC HN ES   1    343 52.17                             128   -0.39 7  170 219 
 SPBC HZ I         343 58.58        26.3 0.24            130            170 219 
 ZAR  HZ EP        343 33.21                             122   -0.16 8  206 290 
 ZAR  HN ES        343 59.16                             122    0.33 8  206 290 
 ZAR  HZ I         344  4.51         9.2 0.30            125            206 290 
 NOR  HZ EP        343 37.02                             118   -0.10 8  241 234 
 NOR  HN ES   1    344  5.32                             118   -0.19 6  241 234 
 NOR  HZ I         344 11.37        18.2 0.14            120            241 234 
 SML  HZ EP   4    343 33.77                             118   -3.28 0  241 334 
 SML  HN ES        344  4.55                             118   -0.83 8  241 334 
 SML  HZ I         344 14.35        26.3 0.26            121            241 334 
 CHI  HZ EP        343 38.88                             117   -0.19 8  255 196 
 CHI  HN ES   1    344  9.09                             117    0.10 6  255 196 
 CHI  HZ I         344 15.05         7.1 0.10            119            255 196 
 ROSC BZ EP   4    343 40.67                             116    1.13 0  259 211 
 ROSC BN ES   4    344 11.65                             116    1.82 0  259 211 
 ROSC BZ I         344 16.20        17.2 0.30            118            259 211 
 HEL  HZ EP        343 41.12                             115   -0.38 7  277 255 
 HEL  HN ES   1    344 12.78                             115   -0.54 6  277 255 
 HEL  HZ I         344 20.89        11.1 0.56            117            277 255 
 GUY2CHZ EP   1    343 45.42                             112    0.39 5  307 234 
 GUY2CHE ES   4    344 20.16                             112    0.57 0  307 234 
 GUY2CHZ I         344 27.01         8.9 0.60                           307 234 
 CBOC HZ EP   1    343 48.83                             110    0.58 5  339 251 
 CBOC HN ES   1    344 25.93                             110    0.61 5  339 251 
 CBOC HZ I         344 36.57         4.0 0.58            112            339 251 
 TOL  SZ EP        343 50.37                             109    0.66 6  350 225 
 TOL  SN ES   1    344 28.19                             109    0.26 5  350 225 
 PRA  HZ EP        343 54.37                             106   -0.62 6  398 210 
 PRA  HN ES        344 36.72                             106   -0.59 6  398 210 
 PRA  HZ I         344 42.67         7.6 0.20            108            398 210 
 ORTC HZ EP        343 55.80                             106    0.41 6  402 216 
 ORTC HN ES   1    344 39.04                             106    1.00 4  402 216 
 ORTC HZ I         344 47.28         3.7 0.24            108            402 216 
 SJC  HZ EP   4    343 54.95                             106   -1.10 0  407 326 
 SJC  HN ES   4    344 35.56                             106   -3.64 0  407 326 
 SJC  HZ I         344 38.67         4.6 0.54            108            407 326 
                                                                                
