 2014  6 8 0704 54.1 L   6.845 -73.119135.8  RSN 10 0.5 1.7LRSN                1
 GAP=138        1.21       3.6     5.9  8.4 -0.7179E+01  0.2087E+02 -0.2218E+01E
 Epicentro: LOS SANTOS - SANTANDER                                             3
 OLDACT:REG 14-06-08 13:14 OP:fm   STATUS:               ID:20140608065806     3
 ACTION:UPD 14-07-01 22:52 OP:nd   STATUS:               ID:20140608070454 L   I
 OLDACT:UP  14-06-08 17:06 OP:fm   STATUS:               ID:20140608065806     3
 2014-06-08-0658-06M.COL___250                                                 6
 STAT SP IPHASW D HRMM SECON CODA AMPLIT PERI AZIMU VELO AIN AR TRES W  DIS CAZ7
 BAR2 SZ EP        7 5 12.83                             167    0.2110 28.8 194 
 BAR2 SZ ES   1    7 5 27.18                             167    0.08 7 28.8 194 
 BAR2 SZ I         7 5 29.08         9.6 0.94            163           28.8 194 
 PAM  SZ EP        7 5 15.77                             151    0.9010 71.7  40 
 PAM  SN ES        7 5 30.44                             151   -0.6610 71.7  40 
 PAM  SZ I         7 5 34.74         7.0 0.38            149           71.7  40 
 RUS  HZ EP        7 5 17.03                             140   -0.1710  105 178 
 RUS  SZ I         7 5 34.37         5.7 1.60            136            105 178 
 RUS  HE ES        7 5 35.14                             140   -0.1210  105 178 
 PTB  HZ EP        7 5 19.78                             129   -0.82 9  152 257 
 PTB  HN ES        7 5 41.38                             129    0.07 9  152 257 
 PTB  SZ I         7 5 42.96         5.9 0.80            129            152 257 
 OCA  HZ EP        7 5 21.28                             128    0.11 9  156 352 
 OCA  HN ES        7 5 42.45                             128    0.12 9  156 352 
 OCA  SZ I         7 5 45.77         5.7 0.36            128            156 352 
 SPBC HZ EP        7 5 21.85                             126   -0.52 9  169 219 
 SPBC HN ES        7 5 45.43                             126    0.97 9  169 219 
 SPBC SZ I         7 5 52.56         6.4 0.30            124            169 219 
 NOR  HZ EP        7 5 29.34                             116   -0.47 8  240 234 
 NOR  HN ES        7 5 57.32                             116   -0.37 8  240 234 
 NOR  SZ I         7 6  2.47         4.6 0.24            114            240 234 
 SML  HE ES        7 5 57.80                             116    0.14 8  241 334 
 GUY2CHZ EP        7 5 38.27                             110    0.44 7  306 234 
 GUY2CHN ES   4    7 6 14.22                             110    2.25 0  306 234 
 GUY2CSZ I         7 6 19.33         3.8 2.46                           306 234 
 PRA  HN ES   1    7 6 30.51                             104    0.56 4  398 210 
                                                                                
