 2010 10 8 0430 26.9 L   6.774 -73.085152.9  RSN  5 0.1 1.7LRSN                1
 GAP=194        0.34       3.4     4.2  3.7 -0.8052E+01 -0.4715E+00  0.8018E+00E
 Epicentro: LOS SANTOS - SANTANDER                                             3
 ACTION:UP  11-02-18 11:08 OP:tino STATUS:               ID:20101008043026 L   I
 2010-10-08-0428-36S.COL___121                                                 6
 STAT SP IPHASW D HRMM SECON CODA AMPLIT PERI AZIMU VELO SNR AR TRES W  DIS CAZ7
 BAR2 SZ EP   1    430 47.25                             171    -0.1 7   23 209 
 BAR2 SZ ES   1    431  3.37                             171     0.0 7   23 209 
 BAR2 SZ I         431  3.99        14.3 0.19                            23 209 
 BTL  SZ EP   1    430 47.55                             170     0.1 7   26 308 
 BRR  HZ IP     C  430 49.15                             151    -0.110   79 298 
 BRR  HN ES   1    431  6.70                             151     0.1 7   79 298 
 BRR  HZ I         431 10.14        10.2 0.31                            79 298 
 GRA  SZ EP   1    430 53.05                             138     0.2 7  127  14 
 GRA  SZ ES   1    431 12.96                             138    -0.1 7  127  14 
 GRA  SZ I         431 14.31         4.8 0.22                           127  14 
 NOR  SZ EP   2    431  3.33                             119    -0.1 4  239 236 
 NOR  SN ES   2    431 32.06                             119     0.1 4  239 236 
                                                                                
