 2011 11 8 0630 24.4 L   6.771 -73.080144.8  RSN  4 0.2 1.2LRSN                1
 GAP=147        0.45       3.1     4.1  4.6  0.1387E+01 -0.1683E+01  0.1996E+00E
 Epicentro: LOS SANTOS - SANTANDER                                             3
 ACTION:UPD 12-07-13 16:08 OP:ep   STATUS:               ID:20111108063024 L   I
 2011-11-08-0629-15S.COL___175                                                 6
 STAT SP IPHASW D HRMM SECON CODA AMPLIT PERI AZIMU VELO AIN AR TRES W  DIS CAZ7
 BAR2 SZ ES   1    630 59.17                             171    0.09 7 22.8 210 
 BAR2 SZ I         631  0.21         3.7 0.16                          22.8 210 
 PAM  SZ EP   1    630 46.72                             151    0.34 7 75.6  34 
 PAM  SN ES   1    631  3.33                             151   -0.21 7 75.6  34 
 BRR  HZ EP        630 45.86                             150   -0.0310 79.1 298 
 BRR  HZ I         630 47.46         6.7 0.29                          79.1 298 
 BRR  HE ES        631  2.66                             150    0.0010 79.1 298 
 RUS  HZ EP   1    630 47.52                             145   -0.26 7 97.1 180 
 RUS  HZ I         630 48.21         1.1 0.45                          97.1 180 
 RUS  HE ES   1    631  6.13                             145    0.10 7 97.1 180 
                                                                                
