 2012  7 8 0413 54.9 L   6.844 -72.972135.5  RSN  4 0.4 1.5LRSN                1
 GAP=201        0.92       6.6    17.5 12.9  0.6590E+02 -0.9649E+02 -0.2823E+02E
 Epicentro: CEPITA - SANTANDER                                                 3
 ACTION:UPD 12-08-14 11:43 OP:ep   STATUS:               ID:20120708041354 L   I
 2012-07-08-0410-00M.COL___201                                                 6
 STAT SP IPHASW D HRMM SECON CODA AMPLIT PERI AZIMU VELO AIN AR TRES W  DIS CAZ7
 BAR2 SZ EP   1    414 14.07                             164     0.4 7   36 220 
 BAR2 SZ ES   1    414 27.73                             164    -0.6 7   36 220 
 BAR2 SZ I         414 30.24         7.7 0.41                            36 220 
 BRR  HZ EP   1    414 15.42                             145    -0.6 7   87 290 
 BRR  HN ES   1    414 32.73                             145     0.3 7   87 290 
 BRR  HZ I         414 33.71         9.0 0.12                            87 290 
 RUS  HZ EP   1    414 17.98                             140    -0.1 7  106 187 
 RUS  HZ I         414 19.25         3.7 0.15                           106 187 
 RUS  HN ES   1    414 36.49                             140     0.3 7  106 187 
 OCA  HN ES   1    414 43.87                             127     0.2 7  159 346 
