 2011  4 8 0941 29.5 L   6.810 -73.114150.2  RSN  8 0.3 1.7LRSN                1
 GAP=116        0.58       3.4     4.8  6.3 -0.5258E+01 -0.2028E+01  0.1126E+02E
 Epicentro: LOS SANTOS - SANTANDER                                             3
 ACTION:UP  11-06-22 15:29 OP:REBC STATUS:               ID:20110408094129 L   I
 2011-04-08-0939-56S.COL___138                                                 6
 STAT SP IPHASW D HRMM SECON CODA AMPLIT PERI AZIMU VELO SNR AR TRES W  DIS CAZ7
 BAR2 SZ EP   1    941 49.34                             170    -0.4 7   25 197 
 BAR2 SZ I         941 49.61        14.0 0.12                            25 197 
 PAM  SZ EP   2    941 52.34                             152     0.3 5   74  38 
 PAM  SE ES   1    942  9.46                             152    -0.2 7   74  38 
 PAM  SZ I         942 11.45         3.8 0.19                            74  38 
 BRR  HZ EP   1    941 51.49                             152     0.2 7   74 296 
 BRR  HN ES   1    942  8.63                             152     0.3 7   74 296 
 BRR  HZ I         942  9.91        11.7 0.28                            74 296 
 GRA  SZ EP   1    941 55.10                             138     0.1 7  124  16 
 GRA  SZ ES   1    942 14.74                             138    -0.2 7  124  16 
 GRA  SZ I         942 15.62        12.3 0.32                           124  16 
 OCA  SZ EP   1    941 58.52                             131     0.4 7  160 352 
 OCA  SZ ES   1    942 20.26                             131    -0.2 7  160 352 
 OCA  SZ I         942 23.78         6.5 0.21                           160 352 
 YOP  SZ EP   1    942  0.11                             127     0.3 7  178 154 
 YOP  SZ I         942 32.17         6.5 0.33                           178 154 
 NOR  SZ EP   1    942  5.58                             119    -0.3 6  238 235 
 NOR  SN ES   2    942 34.03                             119    -0.2 4  238 235 
 CHI  HZ EP   1    942  7.50                             118    -0.2 6  251 196 
 CHI  HN ES   2    942 37.76                             118     0.3 4  251 196 
                                                                                
