 2014  2 8 0032 30.8 L   6.806 -73.151144.7  RSN 18 0.4 2.6LRSN                1
 GAP= 71        0.81       2.6     2.7  4.8 -0.3458E+00  0.4217E+01  0.2827E+01E
 Epicentro: LOS SANTOS - SANTANDER                                             3
 ACTION:UPD 14-03-10 08:08 OP:ep   STATUS:               ID:20140208003230 L   I
 OLDACT:UP  14-02-08 10:27 OP:mh   STATUS:               ID:20140208003000     3
 OLDACT:UP  14-02-08 10:25 OP:mh   STATUS:               ID:20140208003000     3
 OLDACT:UP  14-02-08 10:25 OP:mh   STATUS:               ID:20140208003000     3
 OLDACT:UP  14-02-08 10:25 OP:mh   STATUS:               ID:20140208003000     3
 OLDACT:REG 14-02-08 07:14 OP:mh   STATUS:               ID:20140208003000     3
 2014-02-08-0030-00M.COL___291                                                 6
 STAT SP IPHASW D HRMM SECON CODA AMPLIT PERI AZIMU VELO AIN AR TRES W  DIS CAZ7
 BAR2 SZ IP     D  032 50.38                             170    0.0810 23.8 188 
 BAR2 SZ ES   1    033  5.25                             170   -0.27 7 23.8 188 
 BRR  HZ EP     C  032 52.17                             153    0.4010 70.4 298 
 BRR  HN ES   1    033  8.13                             153   -0.02 7 70.4 298 
 BRR  HZ I         033 10.30        49.7 0.30            141           70.4 298 
 PAM  SZ IP     C  032 53.16                             151    0.2810 77.3  40 
 PAM  SN ES        033 10.28                             151    0.1610 77.3  40 
 PAM  SZ I         033 12.90        37.1 0.58            142           77.3  40 
 RUS  HZ IP     D  032 54.23                             143   -0.2510  101 176 
 RUS  HN ES   1    033 12.66                             143   -0.30 7  101 176 
 RUS  HZ I         033 14.23        78.9 0.27            137            101 176 
 PTB  HZ EP   1    032 57.00                             132   -0.63 7  147 259 
 PTB  HZ I         033 23.92        23.7 0.13            121            147 259 
 TAM  HZ IP     C  032 58.62                             130    0.17 9  156 105 
 TAM  HN ES   1    033 20.14                             130    0.12 7  156 105 
 OCA  HZ EP   1    032 58.32                             129   -0.63 7  160 353 
 OCA  HZ I         033 24.63        24.7 0.16            119            160 353 
 SPBC HZ EP   1    032 59.28                             129    0.07 7  163 219 
 SPBC HZ I         033 23.84        58.7 0.22            120            163 219 
 ZAR  HZ EP   1    033  3.20                             122    0.12 6  203 292 
 ZAR  HN ES        033 28.55                             122    0.28 9  203 292 
 ZAR  HZ I         033 34.89        33.0 0.17            112            203 292 
 NOR  HZ EP   1    033  6.36                             118   -0.08 6  235 234 
 NOR  HN ES   1    033 33.60                             118   -0.65 6  235 234 
 NOR  HZ I         033 38.86        26.7 0.38            110            235 234 
 SML  HZ EP   1    033  6.95                             117   -0.31 6  243 335 
 SML  HN ES   1    033 35.20                             117   -0.52 6  243 335 
 SML  HZ I         033 39.68        36.8 0.14            108            243 335 
 CHI  HZ EP   1    033  8.42                             117   -0.05 6  249 195 
 CHI  HN ES        033 37.71                             117   -0.16 8  249 195 
 CHI  HZ I         033 43.61        20.0 0.37            109            249 195 
 HEL  HZ EP   1    033 10.39                             114   -0.51 6  272 256 
 HEL  HN ES   1    033 41.41                             114   -0.78 6  272 256 
 HEL  HZ I         033 49.32        16.6 0.18            106            272 256 
 URE  HZ EP   4    033 10.66                             113   -1.06 0  283 292 
 URE  HN ES   4    033 41.70                             113   -1.94 0  283 292 
 GUY2CHZ EP        033 15.21                             112    0.88 7  301 235 
 GUY2CHN ES        033 49.36                             112    1.06 7  301 235 
 GUY2CHZ I         034  2.85        17.7 0.57                           301 235 
 VIL  SZ EP   1    033 13.69                             112   -0.52 5  304 191 
 VIL  SE ES   4    033 49.93                             112    1.85 0  304 191 
 VIL  SZ I         033 53.52        29.7 0.35            104            304 191 
 PTGC HZ EP   4    033 13.31                             111   -1.37 0  309 159 
 PTGC HN ES   4    033 45.53                             111   -3.40 0  309 159 
 CBOC HZ EP   1    033 17.80                             110    0.19 5  333 252 
 CBOC HE ES   2    033 54.13                             110   -0.01 3  333 252 
 PRA  HZ EP   1    033 23.68                             106   -0.62 4  392 209 
 PRA  HN ES   1    034  5.83                             106   -0.21 4  392 209 
 PRA  HZ I         034 12.64        24.4 0.45             99            392 209 
 ORTC HZ EP   1    033 24.87                             106    0.18 4  396 216 
 ORTC HN ES   1    034  7.36                             106    0.63 4  396 216 
 ORTC HZ I         034 14.31        13.7 0.55             99            396 216 
                                                                                
