 2017  4 8 0254 14.5 L   6.768 -73.095148.8  RSN  8 0.2 1.3LRSN                1
 GAP=125        0.48       2.0     2.3  2.9  0.6406E-02 -0.2087E+00  0.8802E+00E
 Epicentro: LOS SANTOS - SANTANDER                                             3
 ACTION:UPD 17-05-30 21:09 OP:jn   STATUS:               ID:20170408025414 L   I
 OLDACT:UP  17-04-08 14:09 OP:and  STATUS:               ID:20170408024743     3
 OLDACT:UP  17-04-08 14:09 OP:and  STATUS:               ID:20170408024743     3
 OLDACT:UP  17-04-08 14:08 OP:and  STATUS:               ID:20170408024743     3
 OLDACT:REG 17-04-08 12:42 OP:and  STATUS:               ID:20170408024743     3
 2017-04-08-0248-00M.COL___371                                                 6
 STAT SP IPHASW D HRMM SECON CODA AMPLIT PERI AZIMU VELO AIN AR TRES W  DIS CAZ7
 BAR2 EZ EP        254 34.33                             171   -0.1310 21.7 206 
 BAR2 EZ ES        254 50.34                             171    0.3110 21.7 206 
 BAR2 EZ I         254 51.09         3.2 0.34            170           21.7 206 
 PAM  EZ EP        254 37.10                             152    0.0910 76.9  35 
 PAM  EN ES        254 54.43                             152   -0.1310 76.9  35 
 PAM  EZ I         254 56.38         2.9 0.42            153           76.9  35 
 BRR  HZ EP        254 36.28                             151   -0.0810 77.8 299 
 BRR  HN ES        254 53.20                             151   -0.2010 77.8 299 
 RUS  HZ EP        254 38.46                             145    0.1810 96.8 179 
 RUS  HN ES        254 56.90                             145    0.0710 96.8 179 
 RUS  HZ I         254 58.22         2.7 0.22            147           96.8 179 
 PTB  HZ EP   9    254 41.22                             132   -0.94 0  153 261 
 PTB  HN ES        255  2.91                             132    0.12 9  153 261 
 PTB  HZ I         255  7.10         1.6 0.18            131            153 261 
 SPBC HZ EP        254 43.47                             130    0.15 9  164 221 
 SPBC HN ES        255  5.54                             130   -0.25 9  164 221 
 SPBC HZ I         255  8.35         4.4 0.20            129            164 221 
 ZAR  HZ EP   2    254 48.20                             122    0.38 4  211 292 
 ZAR  HN ES        255 13.88                             122    0.08 8  211 292 
 ZAR  HZ I         255 19.46         3.7 0.26            122            211 292 
 PTGC HZ EP        254 57.61                             113   -0.28 7  303 159 
                                                                                
