 2011  4 8 0726  0.4 L   6.792 -73.090144.1  RSN  6 0.3 1.8LRSN                1
 GAP=161        0.53       3.4     6.1  4.9 -0.6062E+01  0.5440E+01  0.3361E+01E
 Epicentro: LOS SANTOS - SANTANDER                                             3
 ACTION:UP  11-06-22 15:29 OP:REBC STATUS:               ID:20110408072600 L   I
 2011-04-08-0720-00M.COL___139                                                 6
 STAT SP IPHASW D HRMM SECON CODA AMPLIT PERI AZIMU VELO SNR AR TRES W  DIS CAZ7
 BAR2 SZ EP   1    726 19.70                             170    -0.210   24 205 
 BAR2 SZ ES   1    726 35.36                             170     0.310   24 205 
 BAR2 SZ I         726 36.27         6.1 0.28                            24 205 
 PAM  SZ EP   1    726 22.58                             152     0.310   74  35 
 PAM  SN ES   1    726 39.09                             152    -0.210   74  35 
 BRR  HZ EP   1    726 21.43                             151    -0.310   77 297 
 BRR  HZ I         726 21.83        22.4 0.13                            77 297 
 BRR  HE ES   2    726 38.34                             151     0.0 6   77 297 
 OCA  SZ EP   1    726 28.70                             129    -0.1 9  162 351 
 OCA  SZ ES   2    726 51.24                             129     0.4 6  162 351 
 OCA  SZ I         727  0.46        12.3 0.43                           162 351 
 CHI  HZ EP        726 38.14                                     0.010  249 197 
 CHI  HE ES   2    727  7.60                                     0.1 5  249 197 
 CHI  HZ I         727 11.87         3.0 0.36                           249 197 
 HEL  HZ EP   3    726 42.27                                     1.1 2  278 256 
 HEL  HN ES   3    727 12.60                                    -0.4 2  278 256 
 HEL  HZ I         727 19.11         3.5 0.42                           278 256 
                                                                                
