 2014  3 8 0228 16.8 L   6.844 -73.157144.0  RSN  5 0.4 1.9LRSN                1
 GAP=133        1.08       5.7     5.0  8.5  0.2324E-01  0.1621E+02 -0.6927E+01E
 Epicentro: LOS SANTOS - SANTANDER                                             3
 ACTION:UPD 14-04-09 23:15 OP:nd   STATUS:               ID:20140308022816 L   I
 OLDACT:REG 14-03-08 08:56 OP:nd   STATUS:               ID:20140308022041     3
 2014-03-08-0220-41M.COL___232                                                 6
 STAT SP IPHASW D HRMM SECON CODA AMPLIT PERI AZIMU VELO AIN AR TRES W  DIS CAZ7
 BAR2 SZ EP        228 36.63                             168    0.3010 28.0 186 
 BAR2 SZ ES        228 51.35                             168   -0.2110 28.0 186 
 BAR2 SZ I         228 54.40        19.0 0.32            171           28.0 186 
 PAM  SZ EP        228 39.42                             151    0.7510 74.6  43 
 PAM  SN ES        228 55.26                             151   -0.4610 74.6  43 
 PAM  SZ I         228 58.44       175.3 0.70            153           74.6  43 
 RUS  HZ EP        228 40.53                             142   -0.2210  106 176 
 RUS  HN ES        228 59.63                             142    0.2110  106 176 
 RUS  HZ I         229  0.49         4.5 0.32            147            106 176 
 PTB  HZ EP        228 43.24                             132   -0.37 9  148 257 
 PTB  HN ES        229  4.58                             132    0.06 9  148 257 
 PTB  HZ I         229  5.42         6.3 0.16            134            148 257 
 ZAR  HZ EP        228 48.18                             122   -0.65 9  201 291 
 ZAR  HN ES        229 14.33                             122    0.52 9  201 291 
 ZAR  HZ I         229 19.46         3.6 0.26            124            201 291 
                                                                                
