 2016 12 8 0214 53.1 L   6.693 -73.255148.3  RSN  4 0.3 1.2LRSN                1
 GAP=192        0.78       6.1     5.6  6.3  0.1621E+02  0.4928E+01  0.2542E+01E
 Epicentro: GALAN - SANTANDER                                                  3
 ACTION:UPD 17-01-11 20:13 OP:rebc STATUS:               ID:20161208021453 L   I
 OLDACT:REG 16-12-08 12:49 OP:ar   STATUS:               ID:20161208020743     3
 2016-12-08-0208-00M.COL___370                                                 6
 STAT SP IPHASW D HRMM SECON CODA AMPLIT PERI AZIMU VELO AIN AR TRES W  DIS CAZ7
 BAR2 EZ EP        215 12.51                             174   -0.4010 13.7 144 
 BAR2 EZ ES        215 28.12                             174   -0.2210 13.7 144 
 BAR2 EZ I         215 30.67         5.4 0.54            172           13.7 144 
 BRR  HZ EP        215 14.35                             154   -0.0410 68.2 312 
 BRR  HE ES        215 31.34                             154    0.3710 68.2 312 
 RUS  HZ EP        215 16.47                             147    0.0310 90.5 168 
 RUS  HE ES        215 34.89                             147    0.2710 90.5 168 
 RUS  HZ I         215 35.90         1.7 0.38            147           90.5 168 
 PTB  HZ EP        215 19.44                             136    0.3510  134 263 
 PTB  HE ES        215 38.98                             136   -0.3710  134 263 
 PTB  HZ I         215 44.24         1.6 0.12            135            134 263 
                                                                                
