 2013  2 8 0350 39.5 L   6.787 -73.181144.0  RSN  6 0.3 1.7LRSN                1
 GAP=133        0.61       4.7     4.3  7.2  0.9414E+01  0.2753E+01  0.3986E+01E
 Epicentro: LOS SANTOS - SANTANDER                                             3
 ACTION:UPD 13-03-12 09:31 OP:ep   STATUS:               ID:20130208035039 L   I
 2013-02-08-0350-00M.COL___241                                                 6
 STAT SP IPHASW D HRMM SECON CODA AMPLIT PERI AZIMU VELO AIN AR TRES W  DIS CAZ7
 BAR2 SZ EP   1    350 58.30                             171   -0.57 7 21.6 180 
 BRR  HZ EP   1    351  0.63                             153    0.34 7 68.5 301 
 BRR  HN ES        351 16.66                             153    0.1410 68.5 301 
 BRR  HN I         351 18.20        18.3 0.26            149           68.5 301 
 PAM  SZ EP   2    351  1.83                             149    0.09 5 81.0  41 
 PAM  SN ES   2    351 18.79                             149   -0.30 5 81.0  41 
 PAM  SN I         351 19.50        12.9 0.50            153           81.0  41 
 RUS  HZ EP   1    351  3.39                             144    0.40 7 99.5 174 
 RUS  HN ES   1    351 21.30                             144   -0.02 7 99.5 174 
 RUS  HN I         351 23.15         3.9 0.36            144           99.5 174 
 PTB  HZ EP   2    351  5.46                             132   -0.48 5  144 259 
 PTB  HN ES   2    351 26.22                             132   -0.35 5  144 259 
 PTB  HN I         351 31.50         7.2 0.74            129            144 259 
 ZAR  HN ES        351 36.48                             122    0.01 9  201 293 
 ZAR  HN I         351 45.35         5.4 0.18            121            201 293 
                                                                                
