 2015  3 8 0809 28.6 L   6.857 -73.345161.3  RSN  4 0.2 1.1LRSN                1
 GAP=204        0.44       4.3     5.3  4.7 -0.5024E+01  0.6444E+01  0.6916E+00E
 Epicentro: SAN VICENTE DE CHUCURI - SANTANDER                                 3
 ACTION:UPD 15-04-30 16:24 OP:nd   STATUS:               ID:20150308080928 L   I
 OLDACT:DUP 15-03-08 14:50 OP:spq  STATUS:               ID:20150308080751d    3
 2015-03-08-0807-50M.COL___284                                                 6
 STAT SP IPHASW D HRMM SECON CODA AMPLIT PERI AZIMU VELO AIN AR TRES W  DIS CAZ7
 BAR2 EZ ES   1    810  7.48                             167    0.18 7 34.3 148 
 BAR2 EZ I         810  8.49         2.4 0.38            171           34.3 148 
 BRR  HZ EP        8 9 50.34                             162   -0.1110 49.1 304 
 BRR  HN ES        810  7.41                             162   -0.1010 49.1 304 
 BRR  HZ I         810 12.34         1.8 0.62            160           49.1 304 
 PTB  HZ EP        8 9 55.38                             140    0.1610  128 254 
 PTB  HN ES   1    810 16.16                             140    0.17 7  128 254 
 PTB  HZ I         810 18.79         1.2 0.38            140            128 254 
 SPBC HN ES   1    810 20.07                             134   -0.26 7  156 211 
 SPBC HZ I         810 22.81         1.5 0.10            136            156 211 
                                                                                
