 2010 11 8 0759 55.1 L   6.753 -73.101150.0  RSN  6 0.1 1.5LRSN                1
 GAP=164        0.35       4.3     8.0  7.5  0.1878E+02 -0.4156E+02 -0.1786E+02E
 Epicentro: LOS SANTOS - SANTANDER                                             3
 ACTION:UP  10-12-17 16:51 OP:REBC STATUS:               ID:20101108075955 L   I
 2010-11-08-0755-03S.COL___128                                                 6
 STAT SP IPHASW D HRMM SECON CODA AMPLIT PERI AZIMU VELO SNR AR TRES W  DIS CAZ7
 BAR2 SZ EP   2    8 0 15.05                             172    -0.1 5   20 207 
 BAR2 SZ I         8 0 31.22        16.8 0.73                            20 207 
 BRR  HZ EP        8 0 17.00                             151    -0.110   78 300 
 BRR  HZ I         8 0 17.42         8.4 0.08                            78 300 
 BRR  HN ES   1    8 0 34.37                             151     0.1 7   78 300 
 RUS  HZ EP   2    8 0 19.17                             146     0.3 5   95 179 
 RUS  HE ES   2    8 0 37.38                             146    -0.1 5   95 179 
 RUS  HZ I         8 0 38.78         2.7 0.39                            95 179 
 GUE  SZ EP   2    8 0 20.53                             139     0.0 5  121   9 
 GRA  SZ EP   2    8 0 21.10                             137     0.1 5  129  15 
 GRA  SZ I         8 0 22.44         3.7 0.08                           129  15 
 OCA  SZ EP   2    8 0 24.29                             130     0.0 5  166 352 
 OCA  SZ I         8 0 53.61         3.5 0.20                           166 352 
                                                                                
