 2013 12 8 0554 13.3 L   6.805 -73.162142.0  RSN  9 0.4 1.6LRSN                1
 GAP=134        1.07       3.3     5.2  6.9 -0.2090E+01  0.3749E+01 -0.3554E+01E
 Epicentro: LOS SANTOS - SANTANDER                                             3
 ACTION:UPD 14-01-13 10:16 OP:ep   STATUS:               ID:20131208055413 L   I
 OLDACT:REG 13-12-08 07:24 OP:carl STATUS:               ID:20131208055000     3
 2013-12-08-0550-00M.COL___285                                                 6
 STAT SP IPHASW D HRMM SECON CODA AMPLIT PERI AZIMU VELO AIN AR TRES W  DIS CAZ7
 BAR2 SZ EP        554 32.74                             170    0.2710 23.6 185 
 BAR2 SZ ES        554 46.91                             170   -0.5210 23.6 185 
 BAR2 SZ I         554 48.83         9.6 0.28            169           23.6 185 
 BRR  HZ EP        554 34.64                             152    0.7210 69.3 299 
 BRR  HN ES        554 50.62                             152    0.6010 69.3 299 
 BRR  HZ I         554 55.58         4.9 0.38            149           69.3 299 
 PAM  SZ EP        554 35.61                             150    0.4610 78.1  41 
 RUS  HZ EP        554 36.66                             143   -0.0610  101 175 
 RUS  HN ES        554 54.55                             143   -0.4410  101 175 
 RUS  HZ I         554 56.49         3.1 0.28            146            101 175 
 PTB  HZ EP        554 39.34                             131   -0.45 9  146 258 
 PTB  HN ES        555  0.32                             131   -0.15 9  146 258 
 PTB  HZ I         555  6.54         5.1 0.38            131            146 258 
 OCA  HN ES        555  2.84                             129   -0.19 9  160 354 
 SPBC HZ EP        554 41.56                             128    0.13 9  162 218 
 SPBC HN ES        555  3.69                             128    0.31 9  162 218 
 SPBC HZ I         555  8.90         4.5 0.28            129            162 218 
 NOR  HE ES        555 16.18                             118   -0.09 8  234 234 
 SML  HZ EP        554 49.04                             117   -0.53 8  242 336 
 SML  HN ES        555 17.36                             117   -0.50 8  242 336 
 SML  HZ I         555 24.88         5.1 0.28            118            242 336 
                                                                                
