 2011  9 8 0748 50.0 L   6.370 -73.656104.5  RSN 13 0.2 1.8LRSN                1
 GAP= 65        0.35       1.4     1.8  3.6 -0.1426E+00  0.2203E+01  0.2048E+01E
 Epicentro: SANTA HELENA DEL OPON - SANTANDER                                  3
 ACTION:UPD 12-07-13 15:56 OP:ep   STATUS:               ID:20110908074714 L   I
 2011-09-08-0747-14S.COL___171                                                 6
 STAT SP IPHASW D HRMM SECON CODA AMPLIT PERI AZIMU VELO AIN AR TRES W  DIS CAZ7
 BAR2 SZ EP   1    749  6.44                             149    0.10 7 57.8  65 
 BAR2 SZ ES   2    749 19.27                             149    0.21 5 57.8  65 
 BAR2 SZ I         749 20.59        85.2 0.22                          57.8  65 
 BRR  HZ EP   1    749  7.59                             139   -0.14 7 81.7 356 
 BRR  HN ES        749 21.47                             139   -0.0510 81.7 356 
 BRR  HZ I         749 23.19        13.8 0.11                          81.7 356 
 RUS  HZ EP   1    749  8.41                             139   -0.07 7 82.5 130 
 RUS  HZ I         749  8.68         9.2 0.22                          82.5 130 
 RUS  HN ES   2    749 22.87                             139    0.01 5 82.5 130 
 GIR2 SZ EP   2    749  9.08                             135    0.17 5 93.5  33 
 PAM  SZ EP   2    749 14.88                             120   -0.04 5  151  45 
 PAM  SN ES   2    749 33.85                             120   -0.47 5  151  45 
 NOR  SZ EP   2    749 15.80                             118    0.30 5  161 236 
 NOR  SE ES   2    749 34.85                             118   -0.51 5  161 236 
 ZAR  HZ EP   2    749 17.61                             114   -0.07 4  182 313 
 ZAR  HE ES   2    749 39.18                             114   -0.06 4  182 313 
 ZAR  HZ I         749 44.02        11.9 0.33                           182 313 
 CHI  HZ EP   1    749 19.33                             113   -0.09 7  193 183 
 CHI  HE ES   2    749 42.69                             113    0.36 4  193 183 
 CHI  HZ I         749 46.30         3.4 0.37                           193 183 
 HEL  HZ EP   1    749 21.48                             111    0.37 6  208 265 
 HEL  HE ES   2    749 45.35                             111    0.00 4  208 265 
 HEL  HZ I         749 48.49         5.5 0.26                           208 265 
 OCA  SZ EP   2    749 20.91                             111   -0.13 4  210  10 
 OCA  SZ ES   2    749 45.73                             111    0.51 4  210  10 
 OCA  SZ I         749 52.29        13.1 0.29                           210  10 
 RREF HZ EP   2    749 26.07                             107    0.04 4  248 229 
 RREF HN ES   2    749 54.10                             107   -0.01 4  248 229 
 RREF HZ I         750  0.17         3.8 0.24                           248 229 
 PRA  HZ EP   2    749 33.93                             101   -0.34 3  324 205 
 PRA  HE ES   2    750  8.88                             101    0.11 3  324 205 
 SJA  SZ EP   2    749 36.51                             100   -0.27 3  344 185 
                                                                                
