 2015  3 8 0925 29.5 L   6.799 -73.150149.6  RSN 16 0.4 1.7LRSN                1
 GAP= 71        0.86       2.6     2.9  5.0 -0.1281E+01  0.2263E+01  0.1280E+01E
 Epicentro: LOS SANTOS - SANTANDER                                             3
 ACTION:UPD 15-04-30 16:24 OP:nd   STATUS:               ID:20150308092529 L   I
 OLDACT:REG 15-03-08 12:52 OP:spq  STATUS:               ID:20150308091749     3
 2015-03-08-0917-49M.COL___284                                                 6
 STAT SP IPHASW D HRMM SECON CODA AMPLIT PERI AZIMU VELO AIN AR TRES W  DIS CAZ7
 BAR2 EZ EP        925 49.46                             171   -0.1210 23.1 189 
 BAR2 EZ ES   1    926  4.78                             171   -0.47 7 23.1 189 
 BAR2 EZ I         926  8.63         8.8 0.16            168           23.1 189 
 BRR  HZ EP     C  925 51.35                             153    0.3210 70.8 299 
 BRR  HN ES        926  8.73                             153    0.8910 70.8 299 
 BRR  HZ I         926 11.87         6.9 0.18            153           70.8 299 
 PAM  SZ EP     C  925 52.31                             151    0.1710 77.8  40 
 PAM  SE ES        926  9.61                             151   -0.2010 77.8  40 
 PAM  SZ I         926 11.56        11.6 0.56            151           77.8  40 
 RUS  HZ EP   1    925 53.32                             145   -0.29 7  100 176 
 RUS  HE ES   1    926 12.40                             145   -0.03 7  100 176 
 RUS  HZ I         926 13.74         2.9 0.40            141            100 176 
 PTB  HZ EP        925 56.35                             133   -0.38 9  147 259 
 PTB  HN ES   1    926 17.73                             133   -0.24 7  147 259 
 PTB  HZ I         926 24.65         8.6 0.40            131            147 259 
 TAM  HZ EP        925 57.60                             131    0.09 9  156 105 
 TAM  HZ I         926 17.45         3.0 0.30            129            156 105 
 TAM  HE ES        926 19.65                             131    0.27 9  156 105 
 OCA  HZ EP   1    925 58.30                             131    0.19 7  160 353 
 OCA  HN ES        926 20.06                             131   -0.37 9  160 353 
 OCA  HZ I         926 25.23         8.5 0.44            129            160 353 
 SPBC HZ EP        925 58.39                             130    0.14 9  163 219 
 SPBC HN ES        926 20.52                             130   -0.16 9  163 219 
 SPBC HZ I         926 27.67         9.7 0.26            127            163 219 
 NOR  HN ES        926 33.66                             119    0.26 8  234 234 
 NOR  HZ I         926 38.76         5.2 0.20            117            234 234 
 SML  HZ EP        926  5.93                             118   -0.39 8  244 335 
 SML  HE ES   1    926 34.59                             118   -0.46 6  244 335 
 SML  HZ I         926 38.05         6.6 0.10            117            244 335 
 CHI  HZ EP   1    926  7.56                             118    0.19 6  248 195 
 CHI  HE ES   1    926 36.09                             118   -0.83 6  248 195 
 CHI  HZ I         926 46.67         1.2 0.32            115            248 195 
 HEL  HZ EP   4    926 11.60                             116    1.76 0  272 256 
 HEL  HE ES   4    926 45.70                             116    4.38 0  272 256 
 HEL  HZ I         926 48.64         4.1 0.36            113            272 256 
 GUY2CHN ES   4    926 51.66                             113    4.33 0  301 235 
 GUY2CHZ I         926 56.35         5.6 0.78                           301 235 
 CBOC HZ EP   1    926 17.35                             111    0.85 5  333 252 
 CBOC HE ES   1    926 52.70                             111   -0.48 5  333 252 
 CBOC HZ I         927  0.67         1.1 0.46            109            333 252 
 MON  HZ EP   4    926 16.85                             109   -1.75 0  353 308 
 MON  HN ES   4    926 55.67                             109   -1.25 0  353 308 
 MON  HZ I         926 58.14         1.5 0.77            108            353 308 
 PRA  HN ES   1    927  5.60                             107    0.68 4  392 210 
 PRA  HZ I         927  9.93         1.6 0.68            105            392 210 
                                                                                
