 2016  3 8 0135  4.3 L   6.795 -73.172138.0  RSN  7 0.3 1.5LRSN                1
 GAP=133        0.80       3.6     3.4  5.8 -0.2456E+01  0.9292E+01 -0.1131E+01E
 Epicentro: LOS SANTOS - SANTANDER                                             3
 ACTION:UPD 16-05-13 21:22 OP:cam  STATUS:               ID:20160308013504 L   I
 OLDACT:DUP 16-03-08 15:41 OP:cara STATUS:               ID:20160308012748d    3
 2016-03-08-0127-47M.COL___295                                                 6
 STAT SP IPHASW D HRMM SECON CODA AMPLIT PERI AZIMU VELO AIN AR TRES W  DIS CAZ7
 BAR2 EZ IP        135 23.02                             170    0.0510 22.4 183 
 BAR2 EZ ES        135 37.37                             170   -0.1610 22.4 183 
 BAR2 EZ I         135 38.92         9.4 0.12            170           22.4 183 
 PAM  EZ IP        135 25.62                             149   -0.2110 79.7  41 
 PAM  EZ I         135 25.97         6.5 0.22            152           79.7  41 
 PAM  EN ES        135 42.82                             149    0.1910 79.7  41 
 RUS  HZ EP        135 26.83                             142   -0.4310  100 174 
 RUS  HN ES        135 45.61                             142    0.4410  100 174 
 RUS  HZ I         135 47.40         2.8 0.34            145            100 174 
 PTB  HZ EP        135 29.90                             131   -0.45 9  145 259 
 PTB  HN ES        135 50.57                             131   -0.11 9  145 259 
 PTB  HZ I         135 53.02         4.6 0.12            131            145 259 
 ZAR  HZ EP        135 36.54                             121    0.56 9  202 293 
 ZAR  HN ES        136  0.71                             121    0.02 9  202 293 
 ZAR  HZ I         136  7.59         6.4 0.26            122            202 293 
 NOR  HZ EP        135 39.59                             117    0.31 8  232 234 
 NOR  HN ES        136  6.29                             117   -0.28 8  232 234 
 NOR  HZ I         136 12.07         1.8 0.52            118            232 234 
 GUY2CHN ES        136 21.08                             111    0.35 7  298 235 
 GUY2CHZ I         136 27.90         1.0 0.52                           298 235 
                                                                                
