 2014  2 8 0016 38.0 L   6.772 -73.164138.0  RSN  6 0.4 1.4LRSN                1
 GAP=135        0.94       3.6     4.9  9.3  0.2103E+00  0.2160E+02 -0.2062E+01E
 Epicentro: LOS SANTOS - SANTANDER                                             3
 ACTION:UPD 14-03-10 08:08 OP:ep   STATUS:               ID:20140208001638 L   I
 OLDACT:REG 14-02-08 07:13 OP:mh   STATUS:               ID:20140208001000     3
 2014-02-08-0010-00M.COL___291                                                 6
 STAT SP IPHASW D HRMM SECON CODA AMPLIT PERI AZIMU VELO AIN AR TRES W  DIS CAZ7
 PAM  SZ EP   1    016 59.62                             148    0.01 7 81.0  39 
 PAM  SN ES        017 16.82                             148    0.3510 81.0  39 
 PAM  SZ I         017 19.50         3.4 0.31            155           81.0  39 
 RUS  HZ EP        017  0.65                             143   -0.1110 97.7 175 
 RUS  HN ES        017 18.39                             143   -0.1410 97.7 175 
 RUS  HZ I         017 20.64         2.1 0.22            147           97.7 175 
 PTB  HZ EP        017  3.81                             131   -0.28 9  145 260 
 PTB  HN ES   1    017 24.47                             131    0.02 7  145 260 
 PTB  HZ I         017 27.89         2.6 0.14            134            145 260 
 SPBC HZ EP        017  5.54                             128   -0.00 9  160 219 
 SPBC HN ES   1    017 27.00                             128   -0.04 7  160 219 
 SPBC HZ I         017 34.73         4.2 0.17            131            160 219 
 ZAR  HZ EP   1    017 10.92                             121    1.06 6  203 293 
 ZAR  HN ES        017 35.11                             121    0.39 9  203 293 
 ZAR  HZ I         017 36.91         1.7 0.08            125            203 293 
 SML  HZ EP   4    017 11.78                             116   -2.62 0  246 336 
 SML  HN ES        017 41.89                             116   -0.91 8  246 336 
 SML  HZ I         017 44.89         5.0 0.06            120            246 336 
                                                                                
