 2017  6 8 0201  2.5 L   6.802 -73.158149.7  RSN 13 0.4 2.0LRSN                1
 GAP=212        0.93       4.0     4.0  5.7  0.6600E+01  0.1743E+00  0.9150E+00E
 Epicentro: LOS SANTOS - SANTANDER                                             3
 ACTION:UPD 17-09-14 16:50 OP:jn   STATUS:               ID:20170608020102 L   I
 OLDACT:UP  17-06-08 14:44 OP:edw  STATUS:               ID:20170608015733     3
 OLDACT:UP  17-06-08 14:44 OP:edw  STATUS:               ID:20170608015733     3
 OLDACT:REG 17-06-08 12:45 OP:edw  STATUS:               ID:20170608015733     3
 2017-06-08-0158-00M.COL___365                                                 6
 STAT SP IPHASW D HRMM SECON CODA AMPLIT PERI AZIMU VELO AIN AR TRES W  DIS CAZ7
 BRR  HZ IP     C  2 1 24.00                             154   -0.0210 69.9 299 
 BRR  HN ES        2 1 41.18                             154    0.3810 69.9 299 
 BRR  HZ I         2 1 45.05        15.5 0.34            149           69.9 299 
 RUS  HZ EP     C  2 1 26.21                             145   -0.4810  101 175 
 RUS  HN ES        2 1 45.50                             145   -0.0410  101 175 
 RUS  HZ I         2 1 46.13        25.3 0.34            140            101 175 
 PTB  HZ EP   9    2 1 28.74                             133   -0.96 0  146 259 
 PTB  HN ES        2 1 49.88                             131   -0.06 9  146 259 
 PTB  HZ I         2 1 51.69        10.5 0.32            129            146 259 
 SPBC HZ EP        2 1 31.20                             130   -0.06 9  163 219 
 SPBC HN ES        2 1 53.22                             130   -0.46 9  163 219 
 SPBC HZ I         2 1 55.66        18.8 0.24            126            163 219 
 YPLC HZ EP     C  2 1 32.64                             127   -0.05 9  178 151 
 YPLC HN ES        2 1 56.89                             127    0.67 9  178 151 
 YPLC HZ I         2 1 57.60        19.0 0.26            127            178 151 
 ZAR  HZ EP        2 1 34.63                             123   -0.46 9  203 292 
 ZAR  HE ES        2 2  0.19                             123   -0.30 9  203 292 
 ZAR  HZ I         2 2  3.81         6.1 0.24            122            203 292 
 TABC EZ EP   4    2 1 39.85                             120    1.39 0  229 210 
 NOR  HZ EP        2 1 38.84                             119    0.46 8  234 234 
 NOR  HN ES        2 2  6.73                             119    0.38 8  234 234 
 NOR  HZ I         2 2 10.94         8.1 0.28            117            234 234 
 CHI  HZ EP        2 1 39.97                             118   -0.46 8  249 195 
 CHI  HN ES        2 2  9.53                             118   -0.47 8  249 195 
 CHI  HZ I         2 2 15.85         4.4 0.32            116            249 195 
 ROSC BZ EP   4    2 1 42.49                             118    1.68 0  252 211 
 ROSC BN ES   4    2 2 12.82                             118    2.15 0  252 211 
 ROSC BZ I         2 2 20.46         8.2 0.35            115            252 211 
 HEL  HZ EP   4    2 1 44.89                             116    2.09 0  271 256 
 HEL  HN ES        2 2 14.43                             116    0.21 8  271 256 
 HEL  HZ I         2 2 22.36         6.2 0.28            114            271 256 
 PTGC HZ EP   4    2 1 45.44                             112   -1.20 0  309 158 
 PTGC HN ES   4    2 2 18.61                             112   -2.44 0  309 158 
 ELA  HZ EP   4    2 1 51.03                             111    1.59 0  328 229 
 ELA  HN ES   4    2 2 28.64                             111    2.60 0  328 229 
 ELA  HZ I         2 2 37.43         3.6 0.70            110            328 229 
 CBOC HZ EP        2 1 50.08                             111    0.62 7  332 252 
 CBOC HN ES   4    2 2 24.98                             111   -1.10 0  332 252 
 CBOC HZ I         2 2 30.35         1.6 0.22            109            332 252 
 ORTC HZ EP     C  2 1 57.35                             107    0.84 6  395 216 
 ORTC HE ES   4    2 2 41.15                             107    2.53 0  395 216 
 ORTC HZ I         2 2 45.86         3.3 0.54            106            395 216 
 SJC  HZ EP   4    2 1 56.61                             106   -1.49 0  408 327 
 SJC  HN ES   4    2 2 37.15                             106   -4.30 0  408 327 
                                                                                
