 2010  8 8 0032 53.7 L   6.819 -73.058142.0  RSN  6 0.2 1.5LRSN                1
 GAP=174        0.48       3.7     8.1  4.7  0.1486E+02 -0.1578E+02 -0.3962E+01E
 Epicentro: LOS SANTOS - SANTANDER                                             3
 ACTION:UP  10-09-07 10:53 OP:vdl  STATUS:               ID:20100808003253 L   I
 2010-08-08-0029-54S.COL___125                                                 6
 STAT SP IPHASW D HRMM SECON CODA AMPLIT PERI AZIMU VELO SNR AR TRES W  DIS CAZ7
 BTL  SZ EP        033 13.17                             169     0.210   26 295 
 BTL  SZ ES   1    033 28.10                             169     0.1 7   26 295 
 BAR2 SZ EP        033 13.07                             168     0.010   29 209 
 BAR2 SZ ES   1    033 28.17                             168     0.1 7   29 209 
 BAR2 SZ I         033 29.03         8.0 0.27                            29 209 
 BRR  HZ EP        033 14.79                             149    -0.210   79 294 
 BRR  HZ I         033 15.10        11.5 0.12                            79 294 
 BRR  HN ES   1    033 31.60                             149     0.1 7   79 294 
 RUS  HZ EP        033 17.18                             143    -0.110  103 182 
 RUS  HN ES   2    033 35.28                             143    -0.3 5  103 182 
 RUS  HZ I         033 37.64         2.4 0.37                           103 182 
 GUE  SZ EP   2    033 17.92                             140     0.1 5  113   7 
 OCA  SZ EP   2    033 21.92                             129     0.2 5  160 350 
 OCA  SZ ES   2    033 42.85                             129    -0.7 5  160 350 
                                                                                
