 2012  1 8 0535 56.8 L   6.808 -73.115136.0  RSN 14 0.4 2.3LRSN                1
 GAP=140        0.74       3.1     4.0  5.2 -0.2141E+01  0.6098E+01  0.2953E+01E
 Epicentro: LOS SANTOS - SANTANDER                                             3
 ACTION:UP  12-02-03 08:15 OP:REBC STATUS:               ID:20120108053556 L   I
 2012-01-08-0530-00M.COL___186                                                 6
 STAT SP IPHASW D HRMM SECON CODA AMPLIT PERI AZIMU VELO SNR AR TRES W  DIS CAZ7
 BAR2 SZ IP        536 15.00                             169    -0.310   25 197 
 BAR2 SZ ES   1    536 29.15                             169    -0.5 7   25 197 
 BAR2 SZ I         536 31.64        46.3 0.34                            25 197 
 GIR2 SZ EP   1    536 15.13                             166    -0.1 7   31 344 
 GIR2 SZ ES   2    536 29.82                             166     0.1 5   31 344 
 BRR  HZ IP     C  536 16.76                             150    -0.310   74 297 
 BRR  HZ I         536 17.05        45.8 0.20                            74 297 
 BRR  HN ES   1    536 33.45                             150     0.6 7   74 297 
 PAM  SZ EP        536 17.85                             150     0.110   75  38 
 PAM  SN ES   1    536 34.56                             150     0.4 7   75  38 
 RUS  HZ EP   1    536 19.44                             141    -0.2 7  101 178 
 RUS  HE ES   1    536 37.92                             141     0.5 7  101 178 
 RUS  HZ I         536 39.98        16.1 0.38                           101 178 
 PTB  HN ES   2    536 43.62                             129    -0.3 5  151 259 
 OCA  SZ EP   2    536 24.23                             127     0.0 5  160 352 
 OCA  SZ ES   2    536 45.02                             127    -0.7 5  160 352 
 OCA  SZ I         536 49.03        23.8 0.25                           160 352 
 ZAR  HZ EP   1    536 29.35                             120     0.5 6  207 292 
 ZAR  HN ES   2    536 53.47                             120    -0.5 4  207 292 
 ZAR  HZ I         537  1.69        22.7 0.27                           207 292 
 NOR  SN ES   1    536 59.56                             116    -0.5 6  238 235 
 CHI  HZ EP   1    536 33.98                             115    -0.2 6  250 196 
 CHI  HN ES   1    537  3.42                             115     0.1 6  250 196 
 CHI  HZ I         537  8.13         5.1 0.30                           250 196 
 HEL  HZ EP   1    536 37.48                             112     0.6 6  276 256 
 HEL  HN ES   2    537  8.62                             112     0.4 4  276 256 
 HEL  HZ I         537 13.29        14.2 0.43                           276 256 
 GUY  SZ EP   2    536 40.76                             110     0.2 4  307 235 
 GUY  SN ES   2    537 15.20                             110     0.4 4  307 235 
 GUY  SZ I         537 22.15        14.4 0.43                           307 235 
 RREF HZ EP   2    536 42.74                             109    -0.1 3  325 230 
 RREF HZ I         537 28.16         9.5 0.37                           325 230 
 PRA  HZ EP   1    536 50.23                             105     0.0 4  395 210 
 PRA  HN ES   2    537 32.09                             105     0.1 3  395 210 
                                                                                
