 2013 10 8 0738 16.6 L   6.808 -73.123144.1  RSN 10 0.4 1.9LRSN                1
 GAP=185        0.92       2.6     4.9  6.8  0.2284E+00  0.3105E+00 -0.3438E+00E
 Epicentro: LOS SANTOS - SANTANDER                                             3
 ACTION:UPD 13-11-25 09:20 OP:ep   STATUS:               ID:20131008073816 L   I
 OLDACT:DUP 13-10-08 13:29 OP:mh   STATUS:               ID:20131008073649d    3
 2013-10-08-0736-48M.COL___223                                                 6
 STAT SP IPHASW D HRMM SECON CODA AMPLIT PERI AZIMU VELO AIN AR TRES W  DIS CAZ7
 BAR2 SZ EP        738 36.36                             170    0.3410 24.7 195 
 BAR2 SZ I         738 51.86        22.2 0.36            171           24.7 195 
 BRR  HZ EP   1    738 38.18                             151    0.55 7 73.0 297 
 BRR  HN ES        738 54.61                             151    0.5410 73.0 297 
 BRR  HZ I         738 58.93        14.9 0.12            152           73.0 297 
 RUS  HZ EP   1    738 40.63                             143    0.43 7  101 178 
 RUS  HN ES        738 58.33                             143   -0.3110  101 178 
 RUS  HZ I         739  0.50         8.0 0.40            146            101 178 
 PTB  HZ EP   1    738 43.24                             131   -0.39 7  150 259 
 PTB  HN ES   1    739  4.12                             131   -0.63 7  150 259 
 PTB  HZ I         739 11.25         8.8 0.18            132            150 259 
 OCA  HZ EP   1    738 44.78                             129    0.09 7  160 352 
 OCA  HN ES        739  6.03                             129   -0.60 9  160 352 
 OCA  HZ I         739  9.22         6.5 0.42            130            160 352 
 SPBC HZ EP   1    738 45.34                             128    0.19 7  165 219 
 SPBC HN ES        739  7.14                             128   -0.31 9  165 219 
 ZAR  HN ES        739 14.54                             122    0.05 8  206 292 
 ZAR  HZ I         739 20.76         8.1 0.30            123            206 292 
 NOR  HZ EP        738 52.74                             118    0.27 8  237 235 
 NOR  HN ES        739 20.92                             118    0.45 8  237 235 
 NOR  HZ I         739 26.14         6.8 0.16            119            237 235 
 SML  HZ EP        738 52.49                             117   -0.63 8  244 335 
 SML  HN ES        739 21.87                             117    0.23 8  244 335 
 SML  HZ I         739 31.00        11.2 0.10            118            244 335 
 CHI  HZ EP   1    738 54.44                             117    0.11 6  250 196 
 CHI  HN ES        739 23.35                             117   -0.44 8  250 196 
 CHI  HZ I         739 27.37         2.7 0.52            118            250 196 
 SJC  HZ EP   4    739 10.68                             105   -1.46 0  410 327 
 SJC  HN ES   4    739 49.75                             105   -5.75 0  410 327 
                                                                                
