 2014 11 8 0304 22.2 L   6.768 -73.180147.2  RSN  5 0.5 1.7LRSN                1
 GAP=134        1.20       6.3     6.2  9.3 -0.2790E+01  0.9838E+01 -0.8487E+00E
 Epicentro: LOS SANTOS - SANTANDER                                             3
 ACTION:UPD 14-12-19 15:40 OP:nd   STATUS:               ID:20141108030422 L   I
 OLDACT:UP  14-11-08 14:13 OP:cam  STATUS:               ID:20141108025813     3
 OLDACT:REG 14-11-08 13:20 OP:cam  STATUS:               ID:20141108025813     3
 2014-11-08-0258-13M.COL___292                                                 6
 STAT SP IPHASW D HRMM SECON CODA AMPLIT PERI AZIMU VELO AIN AR TRES W  DIS CAZ7
 BRR  HZ IP     D  3 4 43.78                             153    0.3110 69.7 303 
 BRR  HE ES        3 5  0.79                             153    0.7710 69.7 303 
 BRR  HZ I         3 5  3.63        10.2 0.22            155           69.7 303 
 PAM  SZ EP     D  3 4 44.92                             149   -0.0110 82.6  40 
 PAM  SE ES        3 5  2.05                             149   -0.5710 82.6  40 
 PAM  SZ I         3 5  3.87        13.5 0.50            152           82.6  40 
 RUS  HZ EP        3 4 46.12                             145    0.2110 97.3 174 
 RUS  HE ES        3 5  4.52                             145    0.1510 97.3 174 
 RUS  HZ I         3 5  6.61         4.6 0.18            147           97.3 174 
 PTB  HZ EP        3 4 48.35                             133   -0.58 9  143 260 
 PTB  HN ES        3 5  9.12                             133   -0.63 9  143 260 
 PTB  HZ I         3 5 11.05         4.8 0.30            135            143 260 
 MON  HZ EP        3 5 11.71                             109    0.49 6  353 309 
                                                                                
