 2016  9 8 0549  1.9 L   6.813 -73.122150.7  RSN 29 0.5 2.8LRSN                1
 GAP= 53        1.11       2.5     2.8  4.3 -0.7999E+00  0.1826E+01  0.5131E+00E
 Epicentro: LOS SANTOS - SANTANDER                                             3
 ACTION:UPD 17-08-17 21:07 OP:lp   STATUS:               ID:20160908054901 L   I
 OLDACT:UP  16-09-08 15:41 OP:dani STATUS:               ID:20160908054740     3
 OLDACT:UP  16-09-08 15:35 OP:dani STATUS:               ID:20160908054740     3
 OLDACT:REG 16-09-08 12:30 OP:dani STATUS:               ID:20160908054740     3
 2016-09-08-0548-00M.COL___345                                                 6
 STAT SP IPHASW D HRMM SECON CODA AMPLIT PERI AZIMU VELO AIN AR TRES W  DIS CAZ7
 BAR2 EZ EP     D  549 22.10                             170   -0.0910 25.3 195 
 BAR2 EZ ES        549 37.37                             170   -0.6210 25.3 195 
 BAR2 EZ I         549 37.98       181.5 0.32            162           25.3 195 
 BRR  HZ EP     C  549 24.02                             153    0.3210 72.9 297 
 BRR  HE ES        549 41.24                             153    0.5510 72.9 297 
 BRR  HZ I         549 45.97       112.5 0.14            143           72.9 297 
 PAM  EZ EP     C  549 24.93                             152    0.4210 74.6  39 
 PAM  EE ES        549 42.16                             152    0.0310 74.6  39 
 PAM  EZ I         549 44.44       213.5 0.62            148           74.6  39 
 RUS  HZ EP        549 26.01                             144   -0.2410  102 178 
 RUS  HE ES        549 44.70                             144   -0.5310  102 178 
 RUS  HZ I         549 46.13        56.1 0.26            133            102 178 
 PTB  HZ EP     C  549 28.71                             132   -0.84 9  151 258 
 PTB  HE ES        549 50.45                             132   -0.65 9  151 258 
 PTB  HZ I         549 52.53       110.3 0.16            121            151 258 
 TAM  HZ EP     D  549 30.33                             132    0.53 9  153 106 
 TAM  HE ES        549 52.23                             132    0.68 9  153 106 
 TAM  HZ I         549 58.90        23.2 0.58            123            153 106 
 OCA  HZ EP     C  549 30.26                             131   -0.26 9  159 352 
 OCA  HE ES        549 52.68                             131   -0.15 9  159 352 
 OCA  HZ I         549 57.38       113.6 0.30            122            159 352 
 SPBC HZ EP        549 31.12                             130    0.06 9  166 219 
 SPBC HE ES        549 53.71                             130   -0.08 9  166 219 
 SPBC HZ I         550  0.42        80.8 0.26            118            166 219 
 ZAR  HZ EP        549 35.24                             123    0.35 8  206 292 
 ZAR  HN ES        550  1.31                             123    0.71 8  206 292 
 ZAR  HZ I         550  7.03       178.4 0.32            113            206 292 
 NOR  HZ EP        549 38.42                             119    0.17 8  238 235 
 NOR  HE ES        550  7.25                             119    0.65 8  238 235 
 NOR  HZ I         550 14.15        54.3 0.28            109            238 235 
 CHI  HZ EP        549 40.30                             118    0.18 8  251 196 
 CHI  HE ES        550  9.98                             118    0.07 8  251 196 
 CHI  HZ I         550 19.33        25.3 0.42            108            251 196 
 ROSC BZ EP   4    549 42.18                             117    1.59 0  255 211 
 ROSC BE ES        550 10.80                             117    0.04 8  255 211 
 ROSC BZ I         550 17.83        67.2 0.29            108            255 211 
 HEL  HZ EP        549 42.39                             115   -0.32 8  275 256 
 HEL  HE ES        550 13.66                             115   -0.86 8  275 256 
 HEL  HZ I         550 21.76        35.6 0.60            106            275 256 
 URE  HZ EP        549 42.95                             114   -0.50 7  286 291 
 URE  HZ I         550 16.73        69.6 0.14            106            286 291 
 SOCV BZ EP        549 44.92                             113    0.05 7  298  57 
 SOCV BE ES   4    550 16.83                             113   -1.53 0  298  57 
 GUY2CHZ EP        549 46.52                             113    0.43 7  304 235 
 GUY2CHE ES        550 21.39                             113    0.84 7  304 235 
 GUY2CHZ I         550 28.81        35.9 0.41                           304 235 
 VIL  EZ EP        549 45.84                             113    0.06 7  305 192 
 VIL  EZ I         550 27.38        27.5 0.53            104            305 192 
 PTGC HZ EP        549 45.10                             112   -0.94 7  309 159 
 PTGC HE ES   4    550 18.23                             112   -2.23 0  309 159 
 PTGC HZ I         550 21.10        33.8 0.33            104            309 159 
 LL6C HZ EP        549 46.84                             111   -0.85 7  324 357 
 ELA  HZ EP   4    549 51.24                             111    1.93 0  332 230 
 ELA  HZ I         550 37.34        19.9 0.28            103            332 230 
 CBOC HZ EP        549 50.08                             110    0.70 7  337 252 
 CBOC HN ES   4    550 24.14                             110   -2.25 0  337 252 
 CBOC HZ I         550 40.32        13.4 0.68            102            337 252 
 ARGC HZ EP        549 52.11                             109    0.39 6  359 340 
 ARGC HN ES        550 31.06                             109    0.50 6  359 340 
 ARGC HZ I         550 35.41         6.0 0.34            102            359 340 
 SJC  HZ EP        549 56.39                             106   -1.29 6  409 327 
 SJC  HN ES   4    550 38.22                             106   -2.95 0  409 327 
 SJC  HZ I         550 42.21        19.4 0.68             99            409 327 
 PAL  HZ EP        549 58.02                             106    0.43 6  409 239 
 PAL  HZ I         550 46.90        13.0 0.55             99            409 239 
 CRJC HZ EP   4    550  2.57                             104   -1.80 0  466   3 
 CRJC HN ES   4    550 49.96                             104   -3.13 0  466   3 
 CRJC HZ I         550 57.49        10.4 0.14             97            466   3 
 GUA  EZ EP        550  4.79                             104   -0.55 5  475 173 
 GUA  EN ES        550 55.13                             104    0.32 5  475 173 
 GUA  EZ I         550 58.46        10.7 0.20             97            475 173 
 YOT  HZ EP        550  5.65                             104    0.20 5  475 229 
 GARC HZ EP        550 17.21                             101   -0.37 3  575 207 
 GARC HZ I         551 16.95         7.6 0.34             94            575 207 
 BBAC HZ EP        550 33.40                              98    0.85 1  700 221 
                                                                                
