 2010  9 8 0101  1.0 L   6.827 -73.105151.6  RSN  4 0.1 1.4LRSN                1
 GAP=239        0.37       8.2    15.6 10.1  0.1074E+03 -0.1037E+03 -0.4625E+02E
 Epicentro: LOS SANTOS - SANTANDER                                             3
 ACTION:DUP 11-02-18 11:01 OP:tino STATUS:               ID:20100908010102dL   I
 2010-09-08-0058-35S.COL___120                                                 6
 STAT SP IPHASW D HRMM SECON CODA AMPLIT PERI AZIMU VELO SNR AR TRES W  DIS CAZ7
 BTL  SZ EP   1    1 1 21.41                             172     0.1 7   21 300 
 BAR2 SZ EP        1 1 21.32                             169    -0.110   27 198 
 BAR2 SZ I         1 1 37.48         4.4 0.32                            27 198 
 BRR  HZ EP   1    1 1 23.02                             153     0.1 7   74 295 
 BRR  HZ I         1 1 23.48         7.6 0.28                            74 295 
 BRR  HE ES   2    1 1 39.91                             153    -0.1 5   74 295 
 RUS  HZ EP   1    1 1 25.46                             144    -0.1 7  103 179 
 RUS  HZ I         1 1 26.60         2.2 0.09                           103 179 
 RUS  HN ES   2    1 1 44.79                             144     0.1 5  103 179 
                                                                                
