 2012  5 8 0215 34.7 L   6.780 -73.157140.0  RSN  6 0.4 2.0LRSN                1
 GAP=136        1.02       6.5     6.8  9.5 -0.5911E+00  0.1290E+02  0.4018E+01E
 Epicentro: LOS SANTOS - SANTANDER                                             3
 ACTION:UP  12-07-05 12:03 OP:pat  STATUS:               ID:20120508021534 L   I
 2012-05-08-0210-00M.COL___192                                                 6
 STAT SP IPHASW D HRMM SECON CODA AMPLIT PERI AZIMU VELO SNR AR TRES W  DIS CAZ7
 BAR2 SZ IP        215 53.68                             171     0.110   21 188 
 BAR2 SZ I         215 54.03        25.3 0.34                            21 188 
 BAR2 SZ ES   2    216  7.20                             171    -1.1 5   21 188 
 BRR  HZ IP     D  215 55.49                             152     0.310   71 301 
 BRR  HZ I         215 55.66        25.2 0.18                            71 301 
 BRR  HN ES   1    216 12.02                             152     0.8 7   71 301 
 PAM  SZ EP        215 56.42                             149     0.010   80  39 
 PAM  SN ES   1    216 13.20                             149    -0.2 7   80  39 
 RUS  HZ EP        215 57.72                             144     0.010   98 175 
 RUS  HE ES   1    216 16.19                             144     0.5 7   98 175 
 RUS  HZ I         216 17.63        10.0 0.30                            98 175 
 PTB  HZ EP        216  0.52                             131    -0.5 9  146 260 
 PTB  HN ES   2    216 21.18                             131    -0.4 5  146 260 
 PTB  HZ I         216 27.21         6.8 0.18                           146 260 
 ZAR  HZ EP   2    216  6.61                             122    -0.1 4  204 293 
 ZAR  HN ES   3    216 31.85                             122     0.1 2  204 293 
 ZAR  HZ I         216 37.31        13.3 0.34                           204 293 
                                                                                
