 2014  2 8 0945 16.6 L   6.844 -73.156143.9  RSN 16 0.4 3.0LRSN                1
 GAP= 69        0.89       2.7     3.3  5.2 -0.1896E+01  0.3487E+01  0.2041E+01E
 Epicentro: LOS SANTOS - SANTANDER                                             3
 ACTION:UPD 14-03-10 08:08 OP:ep   STATUS:               ID:20140208094516 L   I
 OLDACT:UP  14-02-08 13:50 OP:mh   STATUS:               ID:20140208094000     3
 OLDACT:UP  14-02-08 13:49 OP:mh   STATUS:               ID:20140208094000     3
 OLDACT:UP  14-02-08 13:48 OP:mh   STATUS:               ID:20140208094000     3
 OLDACT:UP  14-02-08 13:48 OP:mh   STATUS:               ID:20140208094000     3
 OLDACT:UP  14-02-08 13:47 OP:mh   STATUS:               ID:20140208094000     3
 OLDACT:REG 14-02-08 09:06 OP:mh   STATUS:               ID:20140208094000     3
 2014-02-08-0940-00M.COL___291                                                 6
 STAT SP IPHASW D HRMM SECON CODA AMPLIT PERI AZIMU VELO AIN AR TRES W  DIS CAZ7
 BAR2 SZ EP        945 36.14                             168   -0.0010 28.0 186 
 BAR2 SZ ES   1    945 51.05                             168   -0.31 7 28.0 186 
 BAR2 SZ I         945 53.35       227.4 0.18            159           28.0 186 
 PAM  SZ EP        945 39.07                             151    0.5910 74.4  43 
 PAM  SN ES        945 55.69                             151    0.1810 74.4  43 
 PAM  SZ I         945 58.25       161.0 0.52            138           74.4  43 
 RUS  HZ EP   1    945 40.18                             142   -0.39 7  106 176 
 RUS  HN ES   1    945 59.08                             142   -0.15 7  106 176 
 RUS  HZ I         946  0.51        35.7 0.27            129            106 176 
 PTB  HZ IP     C  945 42.79                             132   -0.65 9  148 257 
 PTB  HN ES        946  3.68                             132   -0.67 9  148 257 
 PTB  HZ I         946  7.68        59.3 0.17            124            148 257 
 OCA  HZ EP   1    945 44.23                             130   -0.10 7  155 353 
 OCA  HN ES        946  5.73                             130   -0.21 9  155 353 
 OCA  HZ I         946 10.33        60.6 0.19            120            155 353 
 TAM  HZ IP     C  945 44.54                             130    0.15 9  157 107 
 TAM  HZ I         946 15.81        18.7 0.23            115            157 107 
 SPBC HZ EP     D  945 45.22                             128   -0.07 9  166 218 
 SPBC HN ES        946  8.24                             128    0.60 9  166 218 
 SPBC HZ I         946 14.88      72.6e4 0.02            118            166 218 
 ZAR  HZ EP   1    945 49.31                             122    0.64 6  201 291 
 ZAR  HN ES        946 14.39                             122    0.74 9  201 291 
 ZAR  HZ I         946 21.14        95.2 0.37            114            201 291 
 NOR  HZ EP        945 52.64                             118    0.17 8  237 233 
 NOR  HN ES   1    946 20.04                             118   -0.38 6  237 233 
 NOR  HZ I         946 24.39        54.9 0.39            109            237 233 
 SML  HZ EP     C  945 52.17                             117   -0.46 8  239 335 
 SML  HN ES   4    946 19.55                             117   -1.15 0  239 335 
 SML  HZ I         946 25.63        59.3 0.08            109            239 335 
 CHI  HZ EP   1    945 54.53                             116   -0.18 6  253 195 
 CHI  HZ I         946 31.39        18.0 0.21            106            253 195 
 HEL  HZ EP   1    945 56.28                             114   -0.49 6  272 255 
 HEL  HN ES   4    946 26.51                             114   -1.57 0  272 255 
 HEL  HZ I         946 34.65        34.2 0.12            106            272 255 
 URE  HZ EP   4    945 57.49                             113    0.19 0  281 291 
 URE  HN ES   4    946 26.96                             113   -2.05 0  281 291 
 GUY2CHZ EP   1    946  0.69                             112    0.31 5  303 234 
 GUY2CHN ES   1    946 34.99                             112    0.50 5  303 234 
 VIL  SZ EP   1    946  0.12                             111   -0.36 5  308 191 
 VIL  SN ES   1    946 34.39                             111   -0.30 5  308 191 
 VIL  SZ I         946 38.22        25.9 0.08            102            308 191 
 PTGC HZ EP   4    945 59.50                             111   -1.47 0  314 159 
 PTGC HN ES   4    946 32.98                             111   -2.57 0  314 159 
 PRA  HZ EP   1    946 10.73                             106    0.21 4  396 209 
 PRA  HN ES   1    946 53.28                             106    0.72 4  396 209 
 PRA  HZ I         946 58.79        48.2 0.30             97            396 209 
 SJC  HZ EP   4    946 10.23                             106   -1.36 0  405 327 
 SJC  HN ES   4    946 51.66                             106   -2.79 0  405 327 
 PAL  HZ EP   1    946 12.06                             105    0.14 4  407 238 
                                                                                
