 2015  6 8 0421 27.2 L   7.507 -73.295121.7  RSN  7 0.4 1.7LRSN                1
 GAP=174        0.98       2.7     7.4  6.4  0.8446E+01  0.6088E+01  0.1307E+00E
 Epicentro: EL PLAYON - SANTANDER                                              3
 ACTION:UPD 15-09-10 22:10 OP:cam  STATUS:               ID:20150608042127 L   I
 OLDACT:REG 15-06-08 12:14 OP:drio STATUS:               ID:20150608041749     3
 2015-06-08-0417-49M.COL___297                                                 6
 STAT SP IPHASW D HRMM SECON CODA AMPLIT PERI AZIMU VELO AIN AR TRES W  DIS CAZ7
 BRR  HZ EP        421 45.51                             150    0.1910 63.8 226 
 BRR  HN ES        421 59.72                             150    0.2610 63.8 226 
 BRR  HZ I         422  0.42        17.6 0.12            147           63.8 226 
 OCA  HZ EP        421 46.85                             144    0.1810 81.0 358 
 OCA  HN ES        422  2.20                             144    0.3210 81.0 358 
 OCA  HZ I         422  5.47        16.7 0.58            145           81.0 358 
 BAR2 EZ EP        421 48.64                             137    0.2410  102 173 
 BAR2 EZ ES        422  4.42                             137   -0.5310  102 173 
 BAR2 EZ I         422  6.13         5.1 0.22            139            102 173 
 SML  HZ EP        421 53.87                             122   -0.32 9  167 329 
 SML  HN ES        422 15.06                             122   -0.21 9  167 329 
 SML  HZ I         422 20.50         7.9 0.10            123            167 329 
 RUS  HZ EP        421 56.48                             120    0.26 9  180 173 
 RUS  HN ES        422 18.12                             120   -0.76 9  180 173 
 SPBC HZ EP        422  1.09                             114    0.79 8  222 203 
 SPBC HN ES        422 26.18                             114    0.04 8  222 203 
 SPBC HZ I         422 35.00         3.3 0.22            115            222 203 
 SJC  HZ EP        422 13.00                             105   -0.35 7  336 322 
 SJC  HN ES        422 48.80                             105   -0.56 7  336 322 
 SJC  HZ I         422 50.22         1.2 0.56            106            336 322 
                                                                                
