 2010  4 8 0826 38.8 L   6.846 -72.969139.4  RSN  5 0.3 2.0LRSN                1
 GAP=213        0.84       5.0     9.8  8.3 -0.1775E+02 -0.2136E+02  0.1202E+02E
 Epicentro: CEPITA - SANTANDER                                                 3
 ACTION:UPD 10-08-24 09:58 OP:vdl  STATUS:               ID:20100408082639 L   I
 2010-04-08-0824-12S.COL___097                                                 6
 STAT SP IPHASW D HRMM SECON CODA AMPLIT PERI AZIMU VELO AIN AR TRES W  DIS CAZ7
 BAR2 SZ EP        826 58.07                             165     0.010   37 220 
 BAR2 SZ ES   2    827 13.33                             165     0.3 5   37 220 
 BRR  HZ EP        826 59.96                             148    -0.410   87 289 
 BRR  HE ES        827 17.00                             148    -0.110   87 289 
 BRR  HZ I         827 21.61        11.8 0.20                            87 289 
 OCA  SZ EP        827  6.30                             130    -0.2 9  159 346 
 OCA  SZ ES   1    827 28.79                             130     0.7 7  159 346 
 OCA  SZ I         827 31.78        23.7 0.24                           159 346 
 CHI  HN ES   2    827 47.55                             115     0.1 4  259 199 
 CHI  HZ I         827 52.02         3.9 0.41                           259 199 
 RREF BZ EP        827 27.47                             109     0.6 7  340 231 
 RREF BN ES   1    828  4.09                             109    -0.2 5  340 231 
 RREF BZ I         828 10.03         5.5 0.33                           340 231 
                                                                                
