 2013  6 8 0420 46.0 L   6.794 -73.184154.6  RSN  6 0.4 1.7LRSN                1
 GAP=179        0.75       4.4     7.4  7.3  0.9339E+01  0.6616E+00 -0.4437E+01E
 Epicentro: LOS SANTOS - SANTANDER                                             3
 ACTION:UPD 14-01-08 09:53 OP:ep   STATUS:               ID:20130608042046 L   I
 OLDACT:REG 13-06-08 06:57 OP:mh   STATUS:               ID:20130608042000     3
 2013-06-08-0420-00M.COL___257                                                 6
 STAT SP IPHASW D HRMM SECON CODA AMPLIT PERI AZIMU VELO AIN AR TRES W  DIS CAZ7
 BAR2 SZ ES   1    421 22.54                             171   -0.23 7 22.3 179 
 BRR  HZ EP        421  8.35                             155    0.4410 67.8 301 
 BRR  HN ES        421 25.38                             155    0.3710 67.8 301 
 BRR  HN I         421 28.81         7.3 0.18            148           67.8 301 
 RUS  HZ EP   1    421 10.39                             146   -0.20 7  100 174 
 RUS  HN ES   2    421 29.62                             146   -0.16 5  100 174 
 PTB  HZ EP   1    421 13.36                             135    0.06 7  143 259 
 PTB  HN ES   1    421 34.05                             135   -0.56 7  143 259 
 PTB  HZ I         421 41.46         3.2 0.30            130            143 259 
 OCA  HE ES   2    421 37.05                             131   -0.59 5  160 355 
 SML  HN ES        421 51.59                             119   -0.26 8  243 336 
 SML  HN I         421 55.08         7.2 0.10            119            243 336 
                                                                                
