 2014  8 8 0404 22.7 L   6.816 -73.109145.6  RSN  7 0.2 1.2LRSN                1
 GAP=187        0.47       2.3     3.5  4.4  0.2793E+00  0.5435E+01 -0.1637E+01E
 Epicentro: LOS SANTOS - SANTANDER                                             3
 ACTION:UPD 14-09-15 21:47 OP:nd   STATUS:               ID:20140808040422 L   I
 OLDACT:REG 14-08-08 12:55 OP:spq  STATUS:               ID:20140808035814     3
 2014-08-08-0358-14M.COL___254                                                 6
 STAT SP IPHASW D HRMM SECON CODA AMPLIT PERI AZIMU VELO AIN AR TRES W  DIS CAZ7
 BAR2 SZ ES   1    4 4 57.60                             169   -0.06 7 26.0 198 
 BAR2 SZ I         4 4 59.79         3.0 0.18            167           26.0 198 
 BRR  HZ EP   1    4 4 44.26                             152    0.32 7 74.0 296 
 BRR  HE ES        4 5  0.66                             152    0.1110 74.0 296 
 BRR  HZ I         4 5  4.23         3.3 0.29            147           74.0 296 
 RUS  HN ES   1    4 5  5.22                             143    0.12 7  102 178 
 RUS  HZ I         4 5  7.14         1.0 0.26            146            102 178 
 PTB  HZ EP   1    4 4 49.69                             131   -0.31 7  152 258 
 PTB  HN ES        4 5 11.14                             131   -0.18 9  152 258 
 PTB  HZ I         4 5 17.10         2.1 0.12            130            152 258 
 OCA  HN ES   1    4 5 12.51                             130   -0.31 7  159 352 
 OCA  HZ I         4 5 18.30         2.1 0.08            130            159 352 
 SPBC HN ES        4 5 13.92                             128   -0.09 9  167 220 
 SPBC HZ I         4 5 20.96         2.0 0.30            129            167 220 
 ZAR  HZ EP        4 4 55.49                             122    0.09 8  207 291 
 ZAR  HN ES        4 5 21.15                             122    0.20 8  207 291 
 ZAR  HZ I         4 5 32.75         1.2 0.26            121            207 291 
                                                                                
