 2015  3 8 0744 55.4 L   6.806 -73.146149.3  RSN 20 0.4 2.1LRSN                1
 GAP= 65        0.84       2.3     2.6  4.2 -0.8930E+00  0.2111E+01  0.2214E+01E
 Epicentro: LOS SANTOS - SANTANDER                                             3
 ACTION:UPD 15-04-30 16:24 OP:nd   STATUS:               ID:20150308074455 L   I
 OLDACT:DUP 15-03-08 15:16 OP:spq  STATUS:               ID:20150308073749d    3
 2015-03-08-0737-47M.COL___284                                                 6
 STAT SP IPHASW D HRMM SECON CODA AMPLIT PERI AZIMU VELO AIN AR TRES W  DIS CAZ7
 BAR2 EZ EP        745 15.37                             170   -0.0510 24.0 190 
 BAR2 EZ ES   1    745 30.54                             170   -0.54 7 24.0 190 
 BAR2 EZ I         745 33.09        42.2 0.32            170           24.0 190 
 BRR  HZ EP     C  745 17.14                             153    0.2710 70.9 298 
 BRR  HN ES        745 34.19                             153    0.5410 70.9 298 
 BRR  HZ I         745 38.24        25.3 0.27            150           70.9 298 
 PAM  SZ EP     C  745 18.14                             152    0.2210 76.8  40 
 PAM  SE ES        745 35.50                             152   -0.0210 76.8  40 
 PAM  SZ I         745 38.55        15.7 0.46            154           76.8  40 
 RUS  HZ EP   1    745 19.35                             144   -0.15 7  101 176 
 RUS  HE ES   1    745 38.24                             144   -0.10 7  101 176 
 RUS  HZ I         745 39.41        16.6 0.26            146            101 176 
 PTB  HZ EP        745 22.34                             133   -0.29 9  148 259 
 PTB  HN ES   1    745 43.58                             133   -0.32 7  148 259 
 PTB  HZ I         745 45.75        13.2 0.10            131            148 259 
 TAM  HZ EP     C  745 23.75                             131    0.42 9  155 105 
 TAM  HE ES        745 45.45                             131    0.30 9  155 105 
 TAM  HZ I         745 46.84         8.7 0.32            135            155 105 
 OCA  HZ EP        745 23.44                             131   -0.44 9  160 353 
 OCA  HN ES        745 46.04                             131   -0.09 9  160 353 
 OCA  HZ I         745 53.77        18.6 0.24            131            160 353 
 SPBC HZ EP        745 24.30                             130    0.12 9  164 219 
 SPBC HN ES        745 46.22                             130   -0.44 9  164 219 
 SPBC HZ I         745 50.51        23.2 0.14            130            164 219 
 SML  HZ EP        745 31.42                             118   -0.69 8  243 335 
 SML  HE ES   1    746  0.70                             118   -0.09 6  243 335 
 SML  HZ I         746  4.12        20.1 0.26            118            243 335 
 CHI  HZ EP        745 33.58                             118    0.26 8  249 195 
 CHI  HN ES        746  2.55                             118   -0.39 8  249 195 
 CHI  HZ I         746  8.16         8.4 0.30            119            249 195 
 HEL  HZ EP   4    745 37.22                             115    1.45 0  272 256 
 HEL  HN ES   1    746  7.77                             115    0.48 6  272 256 
 HEL  HZ I         746 13.79         6.5 0.36            115            272 256 
 GUY2CHZ EP        745 39.88                             113    0.71 7  302 235 
 GUY2CHE ES   1    746 13.76                             113    0.41 5  302 235 
 GUY2CHZ I         746 21.75         7.9 0.60                           302 235 
 PTGC HZ EP     C  745 38.59                             112   -0.85 7  309 159 
 PTGC HN ES   4    746 12.17                             112   -1.66 0  309 159 
 PTGC HZ I         746 14.63         5.6 0.20            114            309 159 
 RREF HZ EP   4    745 44.24                             111    2.54 0  322 229 
 RREF HE ES   4    746 21.20                             111    3.34 0  322 229 
 RREF HZ I         746 22.64         8.4 0.24            112            322 229 
 CBOC HZ EP   1    745 43.44                             110    1.00 5  334 252 
 CBOC HE ES   1    746 19.39                             110    0.22 5  334 252 
 CBOC HZ I         746 28.19         2.1 0.42            111            334 252 
 TOL  SZ EP   4    745 44.97                             110    1.16 0  344 225 
 TOL  SE ES   4    746 23.34                             110    1.73 0  344 225 
 TOL  SZ I         746 30.04         5.5 0.43            110            344 225 
 MON  HZ EP   4    745 42.53                             109   -1.92 0  353 308 
 MON  HN ES   4    746 20.88                             109   -1.86 0  353 308 
 MON  HZ I         746 36.22         4.9 0.44            109            353 308 
 PRA  HZ EP        745 49.21                             107    0.14 6  393 210 
 PRA  HN ES   1    746 31.30                             107    0.34 4  393 210 
 PRA  HZ I         746 33.37         3.7 0.30            108            393 210 
 ORTC HZ EP   1    745 49.03                             107   -0.43 4  396 216 
 ORTC HE ES   1    746 32.30                             107    0.64 4  396 216 
 ORTC HZ I         746 36.76         4.8 0.22            107            396 216 
 PAL  HZ EP        745 50.54                             106   -0.13 6  406 239 
 PAL  HN ES   1    746 33.33                             106   -0.50 4  406 239 
 PAL  HZ I         746 38.86         2.4 0.18            107            406 239 
                                                                                
