 2012  5 8 0700 31.5 L   6.790 -73.161148.0  RSN  4 0.4 1.0LRSN                1
 GAP=135        0.56       5.9     5.5  8.6 -0.1582E+01 -0.1565E+02 -0.2142E+01E
 Epicentro: LOS SANTOS - SANTANDER                                             3
 ACTION:UP  12-07-05 12:03 OP:pat  STATUS:               ID:20120508070031 L   I
 2012-05-08-0700-00M.COL___192                                                 6
 STAT SP IPHASW D HRMM SECON CODA AMPLIT PERI AZIMU VELO SNR AR TRES W  DIS CAZ7
 BRR  HZ EP        7 0 52.67                             154    -0.110   70 300 
 BRR  HZ I         7 0 54.97         2.0 0.12                            70 300 
 BRR  HN ES   1    7 1  9.85                             154     0.4 7   70 300 
 PAM  SZ EP        7 0 54.06                             151     0.010   79  40 
 PAM  SN ES   3    7 1 10.44                             151    -1.2 2   79  40 
 RUS  HZ EP   2    7 0 55.67                             145     0.3 5  100 175 
 RUS  HN ES   2    7 1 14.03                             145     0.0 5  100 175 
 PTB  HZ EP   2    7 0 58.08                             134    -0.4 5  146 259 
 PTB  HN ES   2    7 1 19.19                             134    -0.3 5  146 259 
                                                                                
