 2011 12 8 0511 49.2 L   6.893 -73.155124.4  RSN  4 0.2 1.3LRSN                1
 GAP=130        0.46       4.7     4.5  5.8 -0.2324E+00  0.1207E+01  0.1032E+02E
 Epicentro: BETULIA - SANTANDER                                                3
 ACTION:UPD 12-07-13 16:14 OP:ep   STATUS:               ID:20111208051149 L   I
 2011-12-08-0510-00M.COL___170                                                 6
 STAT SP IPHASW D HRMM SECON CODA AMPLIT PERI AZIMU VELO AIN AR TRES W  DIS CAZ7
 BAR2 SZ EP   1    512  6.67                             164    0.10 7 33.4 185 
 BAR2 SZ ES   1    512 19.92                             164   -0.19 7 33.4 185 
 BAR2 SZ I         512 23.20         8.9 0.26                          33.4 185 
 BRR  HZ EP   1    512  7.46                             150   -0.31 7 65.9 291 
 BRR  HZ I         512  7.79         5.6 0.25                          65.9 291 
 BRR  HN ES   1    512 22.46                             150    0.22 7 65.9 291 
 PAM  SN ES   1    512 24.04                             149    0.04 7 70.5  46 
 PAM  SZ I         512 25.86         1.9 0.22                          70.5  46 
 RUS  HZ EP   1    512 11.94                             136    0.15 7  111 176 
                                                                                
