 2013  8 8 0543  7.0 L   6.270 -73.665109.4  RSN  5 0.4 0.8LRSN                1
 GAP= 90        0.87       5.3     5.8 15.2  0.1887E+01 -0.5592E+01 -0.1919E+01E
 Epicentro: SANTA HELENA DEL OPON - SANTANDER                                  3
 ACTION:UPD 14-01-14 09:00 OP:ep   STATUS:               ID:20130808054307 L   I
 OLDACT:REG 13-08-08 07:25 OP:jn   STATUS:               ID:20130808053960d    3
 2013-08-08-0539-59M.COL___270                                                 6
 STAT SP IPHASW D HRMM SECON CODA AMPLIT PERI AZIMU VELO AIN AR TRES W  DIS CAZ7
 BAR2 SZ EP   1    543 23.95                             147   -0.29 7 64.2  56 
 BAR2 SZ I         543 39.27         2.3 0.36             94           64.2  56 
 RUS  HN ES   1    543 39.60                             143   -0.28 7 76.8 123 
 RUS  HZ I         543 42.83         0.8 0.48             37           76.8 123 
 SPBC HZ EP   1    543 25.55                             140    0.24 7 81.9 213 
 SPBC HN ES   1    543 39.98                             140    0.41 7 81.9 213 
 SPBC HZ I         543 42.83         1.9 0.16             94           81.9 213 
 PTB  HN ES   1    543 40.24                             137   -0.66 7 92.4 289 
 PTB  HZ I         543 40.74         1.8 0.46             37           92.4 289 
 BRR  HN ES   1    543 41.47                             136    0.58 7 92.7 357 
                                                                                
