 2014  4 8 0245 31.7 L   6.799 -73.207147.9  RSN  9 0.5 1.8LRSN                1
 GAP=129        1.05       3.1     5.2  8.9 -0.4011E+01  0.8280E+01 -0.3796E+01E
 Epicentro: ZAPATOCA - SANTANDER                                               3
 ACTION:UPD 14-05-13 23:07 OP:nd   STATUS:               ID:20140408024531 L   I
 OLDACT:REG 14-04-08 12:48 OP:stll STATUS:               ID:20140408023806     3
 2014-04-08-0238-06M.COL___253                                                 6
 STAT SP IPHASW D HRMM SECON CODA AMPLIT PERI AZIMU VELO AIN AR TRES W  DIS CAZ7
 PAM  SZ EP        245 54.45                             150   -0.0110 81.9  43 
 PAM  SZ I         245 54.69        20.4 0.22            155           81.9  43 
 RUS  HZ EP        245 55.29                             144   -0.4610  101 172 
 RUS  HN ES        246 14.23                             144   -0.2410  101 172 
 RUS  HZ I         246 17.05         4.8 0.38            150            101 172 
 PTB  HZ EP        245 58.44                             134    0.14 9  141 258 
 PTB  HN ES        246 19.32                             134    0.31 9  141 258 
 PTB  HZ I         246 25.46         9.7 0.44            136            141 258 
 SPBC HZ EP        246  0.50                             130    0.49 9  159 217 
 SPBC HN ES        246 22.61                             130    0.55 9  159 217 
 SPBC HZ I         246 28.19         6.5 0.38            134            159 217 
 OCA  HN ES        246 22.72                             130    0.38 9  160 356 
 NOR  HZ EP        246  7.51                             120    0.49 8  229 234 
 NOR  HN ES        246 34.06                             120   -0.46 8  229 234 
 NOR  HZ I         246 39.27         5.6 0.20            123            229 234 
 SML  HZ EP        246  8.05                             118   -0.16 8  241 337 
 SML  HN ES        246 36.06                             118   -0.59 8  241 337 
 SML  HZ I         246 43.84         7.5 0.28            122            241 337 
 CHI  HN ES        246 38.59                             118   -0.13 8  247 194 
 GUY2CHZ EP        246 15.30                             113    0.47 7  296 234 
 GUY2CHE ES        246 47.36                             113   -1.08 7  296 234 
 GUY2CHZ I         246 58.33         2.6 0.28                           296 234 
                                                                                
