 2017  7 8 0912 18.4 L   6.721 -73.211151.7  RSN  4 0.2 0.9LRSN                1
 GAP=220        0.61       7.6     4.8  6.2  0.1762E+02  0.1121E+02  0.1042E+02E
 Epicentro: VILLANUEVA - SANTANDER                                             3
 ACTION:UPD 17-08-30 15:31 OP:rebc STATUS:               ID:20170708091218 L   I
 OLDACT:UP  17-07-08 20:49 OP:edw  STATUS:               ID:20170708090738     3
 OLDACT:REG 17-07-08 13:37 OP:edw  STATUS:               ID:20170708090738     3
 2017-07-08-0908-00M.COL___356                                                 6
 STAT SP IPHASW D HRMM SECON CODA AMPLIT PERI AZIMU VELO AIN AR TRES W  DIS CAZ7
 BAR2 EZ EP        912 38.71                             174    0.0710 14.5 168 
 BAR2 EZ ES        912 54.60                             174    0.2010 14.5 168 
 BRR  HN ES        912 56.77                             154   -0.3310 70.0 308 
 PTB  HZ EP        912 44.94                             135   -0.20 9  139 262 
 PTB  HN ES        913  5.96                             135   -0.01 9  139 262 
 PTB  HZ I         913 10.08         0.6 0.20            133            139 262 
 ZAR  HZ I         913 16.66         1.0 0.28            124            201 295 
 ZAR  HE ES        913 16.67                             124    0.34 9  201 295 
                                                                                
