 2011  5 8 0844 24.9 L   6.056 -73.650108.8  RSN  6 0.3 1.5LRSN                1
 GAP=142        0.54       4.0     4.4  6.8 -0.9136E+01  0.1173E+02 -0.6695E+01E
 Epicentro: CHIPATA - SANTANDER                                                3
 ACTION:UP  11-06-29 08:51 OP:tino STATUS:               ID:20110508084424 L   I
 2011-05-08-0843-27S.COL___131                                                 6
 STAT SP IPHASW D HRMM SECON CODA AMPLIT PERI AZIMU VELO SNR AR TRES W  DIS CAZ7
 RUS  HZ EP   1    844 42.69                             147     0.2 7   65 106 
 RUS  HZ I         844 42.94         4.4 0.24                            65 106 
 RUS  HN ES   2    844 55.87                             147    -0.4 5   65 106 
 BAR2 SZ EP   1    844 43.32                             141     0.2 7   79  41 
 BAR2 SZ ES   1    844 57.41                             141     0.1 7   79  41 
 BAR2 SZ I         844 59.13        20.4 0.15                            79  41 
 BRR  HZ EP   2    844 45.69                             129    -0.4 5  116 357 
 BRR  HZ I         844 51.43         4.4 0.11                           116 357 
 BRR  HN ES   2    845  2.50                             129     0.0 5  116 357 
 NOR  SZ EP   1    844 48.68                             122    -0.3 7  146 248 
 NOR  SN ES   2    845  8.16                             122     0.4 5  146 248 
 BRI  SZ EP   1    844 55.89                             113     0.1 6  206  27 
 BRI  SZ I         845  6.28         4.1 0.62                           206  27 
 GRA  SZ EP   2    844 58.03                             111     0.4 4  223  25 
 GRA  SZ ES   1    845 22.78                             111    -0.3 6  223  25 
 GRA  SZ I         845 25.34         4.0 0.28                           223  25 
                                                                                
