 2013 11 8 0644 49.8 L   6.844 -73.145143.5  RSN 16 0.5 2.4LRSN                1
 GAP= 70        1.22       2.9     3.4  5.9 -0.1335E+01  0.5871E+01  0.1297E+01E
 Epicentro: LOS SANTOS - SANTANDER                                             3
 ACTION:UPD 14-01-09 16:26 OP:ep   STATUS:               ID:20131108064449 L   I
 OLDACT:REG 13-11-08 07:37 OP:jn   STATUS:               ID:20131108064000     3
 2013-11-08-0640-00M.COL___273                                                 6
 STAT SP IPHASW D HRMM SECON CODA AMPLIT PERI AZIMU VELO AIN AR TRES W  DIS CAZ7
 BAR2 SZ EP        645  9.39                             168    0.0910 28.2 188 
 BAR2 SZ ES        645 23.68                             168   -0.8010 28.2 188 
 BAR2 SZ I         645 25.79       153.1 0.20            168           28.2 188 
 BRR  HZ EP        645 11.24                             153    0.6210 69.1 295 
 BRR  HN ES   1    645 27.97                             153    1.14 7 69.1 295 
 BRR  HZ I         645 29.01        69.8 0.48            152           69.1 295 
 PAM  SZ EP        645 12.19                             151    0.6010 73.6  42 
 PAM  SN ES        645 28.90                             151    0.3510 73.6  42 
 PAM  SZ I         645 30.82        31.8 0.16            155           73.6  42 
 RUS  HZ EP        645 13.41                             142   -0.3110  105 176 
 RUS  HN ES        645 32.32                             142   -0.0410  105 176 
 RUS  HZ I         645 34.17        22.8 0.24            144            105 176 
 PTB  HZ EP        645 15.88                             131   -0.84 9  149 257 
 PTB  HN ES        645 37.09                             131   -0.60 9  149 257 
 PTB  HZ I         645 39.67        39.2 0.18            132            149 257 
 OCA  HZ EP        645 17.43                             130   -0.09 9  155 353 
 OCA  HN ES        645 38.81                             130   -0.30 9  155 353 
 OCA  HZ I         645 43.81        30.0 0.16            132            155 353 
 TAM  HZ EP        645 17.76                             130    0.31 9  156 107 
 TAM  HN ES        645 38.75                             130   -0.24 9  156 107 
 SPBC HZ EP        645 18.35                             128   -0.18 9  167 218 
 SPBC HE ES        645 41.29                             128    0.37 9  167 218 
 SPBC HZ I         645 48.21        29.7 0.54            129            167 218 
 ZAR  HZ EP        645 22.43                             122    0.47 9  202 291 
 ZAR  HN ES        645 47.61                             122    0.60 9  202 291 
 ZAR  HZ I         645 51.94        26.0 0.26            123            202 291 
 NOR  HZ EP        645 25.03                             118   -0.72 8  238 234 
 NOR  HN ES        645 53.05                             118   -0.72 8  238 234 
 NOR  HZ I         645 58.55        23.1 0.16            119            238 234 
 SML  HZ EP        645 25.24                             117   -0.62 8  239 335 
 SML  HN ES        645 53.33                             117   -0.63 8  239 335 
 SML  HZ I         645 56.85        30.2 0.10            119            239 335 
 ROSC BZ EP        645 28.28                             116   -0.02 8  257 210 
 ROSC BN ES        645 58.60                             116    0.30 8  257 210 
 HEL  HZ EP        645 30.95                             114    0.87 8  273 255 
 HEL  HN ES        646  1.30                             114   -0.17 8  273 255 
 HEL  HZ I         646  8.48        10.9 0.30            115            273 255 
 GUY2CHZ EP        645 34.17                             112    0.50 7  304 234 
 GUY2CHN ES        646  8.25                             112    0.39 7  304 234 
 GUY2CHZ I         646 18.45        13.3 0.58                           304 234 
 VIL  SE ES   1    646  8.19                             111    0.28 5  308 191 
 ORTC HZ EP        645 43.86                             106   -0.29 6  399 216 
 ORTC HN ES        646 27.00                             106    0.49 6  399 216 
 ORTC HZ I         646 31.81         7.8 0.40            107            399 216 
                                                                                
