 2014  1 8 0500 49.0 L   5.994 -74.200  3.7  RSN 16 0.5 2.3LRSN                1
 GAP=100        1.26       1.8     2.1  4.5 -0.6204E+00  0.5547E+00 -0.1757E+00E
 Epicentro: LA BELLEZA - SANTANDER                                             3
 ACTION:UPD 14-03-13 09:52 OP:ep   STATUS:               ID:20140108050049 L   I
 OLDACT:REG 14-01-08 07:29 OP:carl STATUS:               ID:20140108050000     3
 2014-01-08-0500-00M.COL___285                                                 6
 STAT SP IPHASW D HRMM SECON CODA AMPLIT PERI AZIMU VELO AIN AR TRES W  DIS CAZ7
 SPBC HZ EP   4    5 0 53.74                              47   -2.11 0 40.3 160 
 SPBC HE ES        5 1  0.33                              47   -0.8510 40.3 160 
 SPBC HZ I         5 1  3.75       223.2 0.36             47           40.3 160 
 PTB  HZ IP     D  5 0 59.83                              47    0.0610 66.7 335 
 PTB  HN ES        5 1  8.89                              47    0.7410 66.7 335 
 PTB  HZ I         5 1  9.15       348.1 0.14             47           66.7 335 
 NOR  HZ EP        5 1  2.79                              47   -0.2610 88.1 237 
 NOR  HN ES        5 1 14.02                              47    0.0210 88.1 237 
 NOR  HZ I         5 1 14.19        90.1 0.30             47           88.1 237 
 RUS  HZ IP   4 D  5 1  7.38                              47   -1.58 0  124  95 
 RUS  HN ES   4    5 1 21.19                              47   -3.33 0  124  95 
 RUS  HZ I         5 1 23.06        60.3 0.36             47            124  95 
 ROSC BZ EP        5 1  9.83                              47    0.3410  128 186 
 ROSC BN ES        5 1 26.03                              47    0.5710  128 186 
 BAR2 SZ EP        5 1  9.02                              47   -0.6610  131  60 
 BAR2 SZ ES        5 1 25.08                              47   -0.7110  131  60 
 BAR2 SZ I         5 1 30.98        57.0 0.38             47            131  60 
 HEL  HZ IP     D  5 1 12.46                              47   -0.10 9  149 278 
 HEL  HN ES        5 1 30.62                              47   -0.31 9  149 278 
 HEL  HZ I         5 1 32.22        81.7 0.18             47            149 278 
 GUY2CHZ EP        5 1 13.99                              47    0.42 9  155 237 
 GUY2CHN ES        5 1 32.09                              47   -0.63 9  155 237 
 GUY2CHZ I         5 1 33.93        23.8 0.22                           155 237 
 CHI  HZ EP     D  5 1 14.40                              47    0.15 9  160 161 
 CHI  HE ES        5 1 34.37                              47    0.44 9  160 161 
 CHI  HZ I         5 1 41.98        19.3 0.26             47            160 161 
 RREF HZ EP        5 1 16.92                              47    0.03 9  175 227 
 RREF HN ES        5 1 38.18                              47   -0.45 9  175 227 
 RREF HZ I         5 1 40.41        22.2 0.34             47            175 227 
 ZAR  HZ EP        5 1 16.36                              37   -0.59 9  181 336 
 ZAR  HE ES        5 1 37.92                              37   -0.82 9  181 336 
 ZAR  HZ I         5 1 39.87        48.3 0.32             37            181 336 
 CBOC HZ EP   4    5 1 20.66                              37    0.98 0  201 266 
 CBOC HN ES        5 1 43.93                              37    0.34 9  201 266 
 CBOC HZ I         5 1 48.15        11.2 0.52             37            201 266 
 VIL  SZ EP   4    5 1 23.34                              37    1.92 0  216 165 
 VIL  SE ES   4    5 1 49.50                              37    2.81 0  216 165 
 PAM  SZ EP        5 1 23.32                              37    0.56 8  223  48 
 PAM  SN ES        5 1 49.52                              37    0.44 8  223  48 
 PAM  SZ I         5 1 51.89        37.4 0.40             37            223  48 
 DBB  SZ EP   4    5 1 28.55                              37    2.95 0  249 297 
 DBB  SZ ES   4    5 1 58.50                              37    4.36 0  249 297 
 ORTC HZ EP        5 1 26.86                              37    0.23 8  258 207 
 ORTC HN ES        5 1 56.63                              37    0.67 8  258 207 
 ORTC HZ I         5 2  0.83        14.5 0.40             37            258 207 
 OCA  HZ EP        5 1 28.42                              37    0.59 8  267  21 
 OCA  HN ES        5 1 58.75                              37    0.64 8  267  21 
 SML  HZ EP   4    5 1 31.07                              36   -2.06 0  311   3 
 SML  HE ES   4    5 2  9.16                              36    1.63 0  311   3 
 SML  HZ I         5 2 20.09        16.0 0.26             36            311   3 
                                                                                
