 2017  5 8 0311 55.0 L   6.549 -73.545116.6  RSN 13 0.4 1.7LRSN                1
 GAP= 88        1.08       3.7     3.5  6.8 -0.4986E+00  0.2521E+00  0.1301E+01E
 Epicentro: EL CARMEN - SANTANDER                                              3
 ACTION:UPD 17-06-16 13:33 OP:jn   STATUS:               ID:20170508031155 L   I
 OLDACT:UP  17-05-08 15:10 OP:edw  STATUS:               ID:20170508030301     3
 OLDACT:UP  17-05-08 15:10 OP:edw  STATUS:               ID:20170508030301     3
 OLDACT:REG 17-05-08 12:28 OP:edw  STATUS:               ID:20170508030301     3
 2017-05-08-0308-00M.COL___362                                                 6
 STAT SP IPHASW D HRMM SECON CODA AMPLIT PERI AZIMU VELO AIN AR TRES W  DIS CAZ7
 BRR  HZ EP     C  312 12.52                             148   -0.0910 64.4 343 
 BRR  HN ES        312 26.78                             148    0.4210 64.4 343 
 BRR  HZ I         312 32.37        11.7 0.12            148           64.4 343 
 RUS  HZ EP        312 14.62                             140   -0.4010 88.7 145 
 RUS  HN ES        312 30.12                             140   -0.5410 88.7 145 
 RUS  HZ I         312 30.56         8.3 0.24            144           88.7 145 
 PTB  HZ EP   9 C  312 14.41                             135   -0.93 0  101 269 
 PTB  HN ES        312 29.57                             134   -0.7310  101 269 
 PTB  HZ I         312 30.73         8.0 0.18            136            101 269 
 SPBC HZ EP        312 17.01                             131    0.3210  115 211 
 SPBC HN ES        312 33.65                             131    0.0110  115 211 
 SPBC HZ I         312 37.81        12.9 0.22            133            115 211 
 PAM  EZ EP        312 18.33                             128   -0.0910  128  47 
 PAM  EN ES   4    312 34.91                             128   -1.80 0  128  47 
 PAM  EZ I         312 37.59         5.1 0.14            131            128  47 
 ZAR  HZ EP   4    312 24.07                             118    1.13 0  179 306 
 ZAR  HN ES   4    312 47.19                             118    2.43 0  179 306 
 ZAR  HZ I         312 48.62        15.3 0.52            119            179 306 
 YPLC HZ EP     D  312 23.39                             118    0.09 9  181 135 
 YPLC HE ES        312 45.81                             118    0.41 9  181 135 
 YPLC HZ I         312 47.65         8.9 0.38            121            181 135 
 NOR  HZ EP        312 24.39                             117    0.97 9  183 233 
 NOR  HN ES        312 45.04                             117   -0.58 9  183 233 
 NOR  HZ I         312 48.49         6.1 0.16            119            183 233 
 HEL  HZ EP   9    312 26.18                             112   -2.09 0  223 260 
 HEL  HN ES   2    312 52.25                             111    0.09 4  223 260 
 HEL  HZ I         312 58.21         3.2 0.18            114            223 260 
 ELA  HN ES   2    313  6.25                             107    0.52 4  278 228 
 CBOC HZ EP   4    312 37.28                             107    2.34 0  283 255 
 CBOC HE ES        313  5.87                             107   -0.25 7  283 255 
 CBOC HZ I         313 10.28         1.3 0.38            108            283 255 
 ORTC HZ EP   4    312 43.65                             103    1.32 0  348 213 
 ORTC HN ES   2    313 19.16                             103   -0.11 3  348 213 
 SJC  HZ EP        312 49.28                             100   -0.75 6  412 334 
 SJC  HN ES   4    313 29.64                             100   -3.33 0  412 334 
 SJC  HZ I         313 34.90         1.8 0.80            101            412 334 
                                                                                
