 2015  6 8 0948 16.8 L   6.791 -73.088149.1  RSN  6 0.3 1.4LRSN                1
 GAP=206        0.87       3.8     6.2  5.9  0.9232E+01  0.2621E+01 -0.5384E+01E
 Epicentro: LOS SANTOS - SANTANDER                                             3
 ACTION:UPD 15-09-10 22:10 OP:cam  STATUS:               ID:20150608094816 L   I
 OLDACT:REG 15-06-08 12:30 OP:drio STATUS:               ID:20150608093750     3
 2015-06-08-0937-50M.COL___288                                                 6
 STAT SP IPHASW D HRMM SECON CODA AMPLIT PERI AZIMU VELO AIN AR TRES W  DIS CAZ7
 BAR2 EZ EP        948 36.84                             170   -0.0110 24.3 205 
 BAR2 EZ ES        948 52.28                             170   -0.2110 24.3 205 
 BAR2 EZ I         948 54.47         3.7 0.30            166           24.3 205 
 BRR  HZ EP        948 37.88                             151   -0.7810 77.3 297 
 BRR  HN ES        948 56.15                             151    0.4410 77.3 297 
 BRR  HZ I         948 57.61         6.2 0.46            148           77.3 297 
 RUS  HZ EP        948 40.86                             145    0.0710 99.3 180 
 RUS  HN ES        948 59.61                             145    0.1010 99.3 180 
 RUS  HZ I         949  0.55         1.5 0.26            145           99.3 180 
 SPBC HZ EP        948 46.31                             129    0.44 9  166 221 
 SPBC HN ES        949  8.47                             129   -0.07 9  166 221 
 SPBC HZ I         949 13.28         4.8 0.26            128            166 221 
 ZAR  HZ EP        948 49.83                             122   -0.27 8  210 292 
 ZAR  HN ES        949 15.95                             122   -0.13 8  210 292 
 ZAR  HZ I         949 21.76         2.7 0.50            122            210 292 
 SML  HZ EP        948 54.44                             118    0.44 8  247 334 
 SML  HE ES        949 23.17                             118    0.15 8  247 334 
 SML  HZ I         949 25.76         3.4 0.10            118            247 334 
                                                                                
