 2010 11 8 0514 47.6 L   6.792 -73.095145.4  RSN 11 0.3 2.4LRSN                1
 GAP=140        0.71       3.0     5.8  4.9 -0.4486E+01  0.1352E+01 -0.3249E+00E
 Epicentro: LOS SANTOS - SANTANDER                                             3
 ACTION:UP  10-12-17 16:51 OP:REBC STATUS:               ID:20101108051447 L   I
 2010-11-08-0511-32S.COL___127                                                 6
 STAT SP IPHASW D HRMM SECON CODA AMPLIT PERI AZIMU VELO SNR AR TRES W  DIS CAZ7
 BAR2 SZ EP        515  7.35                             170     0.110   24 204 
 BAR2 SZ ES        515 22.17                             170    -0.410   24 204 
 BAR2 SZ I         515 23.29        95.9 0.31                            24 204 
 GIR2 SZ EP        515  7.44                             166     0.110   34 341 
 BRR  HZ IP     C  515  9.21                             151     0.210   77 297 
 BRR  HZ I         515  9.50        65.8 0.15                            77 297 
 BRR  HN ES   1    515 26.14                             151     0.4 7   77 297 
 RUS  HZ EP        515 11.39                             144     0.110   99 179 
 RUS  HN ES   1    515 29.81                             144     0.1 7   99 179 
 RUS  HZ I         515 31.00        18.6 0.51                            99 179 
 GUE  SZ EP   1    515 11.61                             139    -0.7 7  116   9 
 GRA  SZ EP   1    515 13.18                             137     0.4 7  125  15 
 GRA  SZ ES   1    515 32.52                             137     0.1 7  125  15 
 GRA  SZ I         515 33.84        37.9 0.40                           125  15 
 OCA  SZ EP        515 15.92                             129    -0.2 9  162 351 
 OCA  SZ ES   2    515 38.06                             129    -0.2 5  162 351 
 OCA  SZ I         515 40.96        42.7 0.21                           162 351 
 YOP  SZ EP   2    515 17.03                             127    -0.3 4  176 155 
 NOR  SZ EP   2    515 23.58                             118    -0.2 4  239 236 
 NOR  SN ES   2    515 51.16                             118    -0.8 4  239 236 
 RREF HE ES   2    516  9.99                             110    -0.5 3  325 230 
 RREF HZ I         516 20.46         9.3 0.38                           325 230 
 PRA  HZ EP        515 41.77                             106     0.4 6  394 210 
 PRA  HN ES   2    516 23.56                             106     0.3 3  394 210 
                                                                                
