 2013  5 8 0425  0.3 L   7.199 -73.449 20.9  RSN  5 0.3 1.1LRSN                1
 GAP=136        0.68       2.8     2.2  2.7  0.1696E+01  0.7295E+00 -0.2493E+01E
 Epicentro: SABANA DE TORRES - SANTANDER                                       3
 ACTION:UPD 13-06-20 09:48 OP:ep   STATUS:               ID:20130508042500 L   I
 2013-05-08-0420-00M.COL___256                                                 6
 STAT SP IPHASW D HRMM SECON CODA AMPLIT PERI AZIMU VELO AIN AR TRES W  DIS CAZ7
 BRR  HZ IP     C  425  6.17                             121   -0.1710 30.8 251 
 BRR  HE ES   1    425 11.29                             121    0.28 7 30.8 251 
 BRR  HZ I         425 13.07         8.6 0.38            127           30.8 251 
 GIR2 SZ EP        425  6.99                             122    0.4310 31.2 115 
 GIR2 SZ ES        425 11.07                             122   -0.3410 31.2 115 
 GIR2 SZ I         425 12.94         7.7 0.18            128           31.2 115 
 PTB  HZ EP   1    425 20.40                              56   -0.42 7  133 237 
 PTB  HN ES   4    425 34.24                              56   -2.54 0  133 237 
 PTB  HZ I         425 35.66         4.0 0.24             56            133 237 
 RUS  HZ EP   2    425 23.58                              56    0.07 5  150 164 
 RUS  HN ES   1    425 41.75                              56    0.17 7  150 164 
 SML  HZ EP   2    425 28.45                              56    0.55 4  190 339 
 SML  HN ES        425 49.29                              56   -0.10 9  190 339 
 SML  HZ I         425 51.35         6.3 0.28             56            190 339 
                                                                                
