 2016  9 8 0321 36.0 L   6.769 -73.135152.9  RSN  6 0.3 1.3LRSN                1
 GAP=236        0.75       4.3     4.7  6.8  0.8558E+01 -0.2239E+01 -0.1300E+01E
 Epicentro: LOS SANTOS - SANTANDER                                             3
 ACTION:UPD 17-08-17 21:07 OP:lp   STATUS:               ID:20160908032136 L   I
 OLDACT:UP  16-09-08 14:31 OP:dani STATUS:               ID:20160908031739     3
 OLDACT:REG 16-09-08 12:20 OP:dani STATUS:               ID:20160908031739     3
 2016-09-08-0318-00M.COL___348                                                 6
 STAT SP IPHASW D HRMM SECON CODA AMPLIT PERI AZIMU VELO AIN AR TRES W  DIS CAZ7
 BAR2 EZ EP        321 56.26                             172   -0.1610 20.2 195 
 BAR2 EZ I         322 15.19         4.2 0.39            175           20.2 195 
 BRR  HZ EP        321 57.98                             153   -0.0810 73.9 300 
 BRR  HN ES     C  322 15.47                             153    0.1910 73.9 300 
 BRR  HZ I         322 20.36         5.5 0.44            155           73.9 300 
 RUS  HZ EP        322  0.34                             146    0.1310 97.1 177 
 RUS  HN ES        322 19.03                             146   -0.0710 97.1 177 
 RUS  HZ I         322 21.20         1.5 0.26            150           97.1 177 
 PTB  HZ EP        322  3.07                             133   -0.52 9  148 260 
 PTB  HE ES        322 24.78                             133   -0.34 9  148 260 
 PTB  HZ I         322 31.42         3.3 0.54            138            148 260 
 SPBC HZ EP        322  5.38                             131    0.51 9  161 220 
 SPBC HN ES        322 27.49                             131    0.10 9  161 220 
 SPBC HZ I         322 29.77         2.5 0.26            136            161 220 
 ZAR  HN ES        322 35.35                             124    0.33 8  206 293 
                                                                                
