 2017  6 8 0329 33.6 L   6.818 -73.175144.3  RSN  6 0.3 1.2LRSN                1
 GAP=236        0.81       4.7     5.0  8.0  0.9540E+01  0.4378E+01  0.3006E+01E
 Epicentro: ZAPATOCA - SANTANDER                                               3
 ACTION:UPD 17-09-14 16:50 OP:jn   STATUS:               ID:20170608032933 L   I
 OLDACT:DUP 17-06-08 16:00 OP:edw  STATUS:               ID:20170608032741d    3
 OLDACT:UP  17-06-08 15:55 OP:edw  STATUS:               ID:20170608032740     3
 OLDACT:UP  17-06-08 15:55 OP:edw  STATUS:               ID:20170608032740     3
 OLDACT:REG 17-06-08 12:54 OP:edw  STATUS:               ID:20170608032740     3
 2017-06-08-0328-00M.COL___365                                                 6
 STAT SP IPHASW D HRMM SECON CODA AMPLIT PERI AZIMU VELO AIN AR TRES W  DIS CAZ7
 BRR  HZ EP        329 54.95                             154    0.6110 67.4 298 
 BRR  HN ES        330 10.46                             154   -0.0910 67.4 298 
 BRR  HZ I         330 14.30         6.8 0.28            154           67.4 298 
 RUS  HZ EP        329 57.18                             143   -0.1510  103 174 
 RUS  HN ES        330 15.80                             143   -0.0810  103 174 
 RUS  HZ I         330 16.63         1.8 0.30            146            103 174 
 PTB  HZ EP        329 59.78                             132   -0.38 9  145 258 
 PTB  HN ES        330 21.12                             132    0.21 9  145 258 
 PTB  HZ I         330 26.53         1.1 0.28            134            145 258 
 SPBC HN ES   2    330 23.64                             129   -0.38 5  163 218 
 ZAR  HE ES        330 30.07                             123   -0.39 9  200 292 
 NOR  HE ES        330 37.07                             118    0.33 8  233 234 
                                                                                
