 2013  3 8 0115 18.2 L   6.791 -73.166142.6  RSN  6 0.4 1.7LRSN                1
 GAP=134        0.99       4.7     5.0  6.6 -0.1944E+01  0.3535E+01  0.6870E+01E
 Epicentro: LOS SANTOS - SANTANDER                                             3
 ACTION:UPD 13-04-09 14:00 OP:ep   STATUS:               ID:20130308011518 L   I
 2013-03-08-0108-48M.COL___206                                                 6
 STAT SP IPHASW D HRMM SECON CODA AMPLIT PERI AZIMU VELO AIN AR TRES W  DIS CAZ7
 BAR2 SZ EP        115 37.43                             171    0.0410 22.1 185 
 BAR2 SZ ES        115 52.12                             171   -0.2710 22.1 185 
 BRR  HZ EP        115 39.19                             152    0.3010 69.7 300 
 BRR  HN ES        115 55.85                             152    0.8010 69.7 300 
 PAM  SZ IP     D  115 40.32                             149    0.1410 79.6  40 
 PAM  SZ I         115 40.49        11.7 0.20            153           79.6  40 
 PAM  SN ES        115 56.89                             149   -0.4610 79.6  40 
 RUS  HZ EP        115 41.53                             143   -0.0210 99.8 175 
 RUS  HN ES        115 59.96                             143    0.1710 99.8 175 
 RUS  HE I         116  1.28         9.4 0.18            144           99.8 175 
 PTB  HZ EP        115 44.29                             132   -0.37 9  145 259 
 PTB  HN ES        116  4.69                             132   -0.63 9  145 259 
 PTB  HE I         116 10.95         6.0 0.46            131            145 259 
 CHI  HZ EP        115 55.63                             117    0.11 8  247 195 
 CHI  HN ES   2    116 25.31                             117    0.65 4  247 195 
                                                                                
