 2011 10 8 0335 53.4 L   6.883 -73.381132.6  RSN  4 0.1 1.3LRSN                1
 GAP=129        0.39       2.7     2.8  5.1  0.1165E+01  0.3851E+01 -0.7123E+00E
 Epicentro: SAN VICENTE DE CHUCURI - SANTANDER                                 3
 ACTION:UPD 12-07-13 16:02 OP:ep   STATUS:               ID:20111008033553 L   I
 2011-10-08-0335-52S.COL___168                                                 6
 STAT SP IPHASW D HRMM SECON CODA AMPLIT PERI AZIMU VELO AIN AR TRES W  DIS CAZ7
 BAR2 SZ EP   1    336 11.89                             163   -0.02 7 39.0 146 
 BAR2 SZ ES   1    336 26.22                             163   -0.12 7 39.0 146 
 BAR2 SZ I         336 28.69         9.2 0.24                          39.0 146 
 PAM  SZ EP   1    336 15.29                             144    0.16 7 90.6  56 
 PAM  SZ I         336 15.86         4.2 0.16                          90.6  56 
 PAM  SN ES   1    336 32.05                             144   -0.03 7 90.6  56 
 RUS  HZ EP   1    336 16.75                             137   -0.24 7  114 163 
 RUS  HN ES   1    336 35.61                             137    0.22 7  114 163 
 RUS  HZ I         336 36.07         1.8 0.19                           114 163 
 ZAR  HN ES   1    336 44.61                             123    0.03 7  177 293 
                                                                                
