 2017  2 8 0938 56.0 L   6.489 -73.107147.3  RSN  4 0.3 1.5LRSN                1
 GAP=309        0.69       9.1     5.7  5.6  0.4382E+01  0.7333E+01  0.6177E+01E
 Epicentro: VALLE DE SAN JOSE - SANTANDER                                      3
 ACTION:UPD 17-05-24 15:34 OP:jn   STATUS:               ID:20170208093855 L   I
 OLDACT:UP  17-04-17 12:38 OP:nlst STATUS:               ID:20170208093855 L   3
 OLDACT:REG 17-02-08 12:59 OP:edw  STATUS:               ID:20170208093747     3
 2017-02-08-0938-00M.COL___316                                                 6
 STAT SP IPHASW D HRMM SECON CODA AMPLIT PERI AZIMU VELO AIN AR TRES W  DIS CAZ7
 BAR2 EZ EP        939 16.07                             174    0.3610 14.1 324 
 BAR2 EZ ES        939 30.88                             174   -0.1710 14.1 324 
 BAR2 EZ I         939 33.11         4.8 0.36            129           14.1 324 
 BRR  HZ EP        939 18.43                             145   -0.4710 95.6 316 
 BRR  HN ES        939 36.94                             145    0.2210 95.6 316 
 BRR  HZ I         940  1.94         8.8 0.30            117           95.6 316 
 PTB  HZ EP        939 23.32                             132    0.04 9  149 272 
 PTB  HE ES        939 44.49                             132   -0.04 9  149 272 
 PTB  HZ I         939 46.11         3.0 0.30            117            149 272 
 ZAR  HZ EP        939 30.66                             120    0.09 8  223 300 
 ZAR  HE ES   4    939 55.09                             120   -2.40 0  223 300 
 ZAR  HZ I         940  3.01         2.3 0.26            107            223 300 
                                                                                
