 2017  1 8 0358 11.9 L   6.609 -72.697  0.1  RSN  6 0.6 1.1LRSN                1
 GAP=165        1.09       7.0     4.7  9.2  0.3792E+01  0.6746E+01  0.3459E+02E
 Epicentro: ENCISO - SANTANDER                                                 3
 ACTION:UPD 17-05-22 15:56 OP:jn   STATUS:               ID:20170108035811 L   I
 OLDACT:UP  17-04-19 21:10 OP:nlst STATUS:               ID:20170108035811 L   3
 OLDACT:UP  17-01-08 15:39 OP:dnl  STATUS:               ID:20170108034741     3
 OLDACT:UP  17-01-08 15:39 OP:dnl  STATUS:               ID:20170108034741     3
 OLDACT:UP  17-01-08 15:39 OP:dnl  STATUS:               ID:20170108034741     3
 OLDACT:REG 17-01-08 12:35 OP:dnl  STATUS:               ID:20170108034741     3
 2017-01-08-0348-00M.COL___374                                                 6
 STAT SP IPHASW D HRMM SECON CODA AMPLIT PERI AZIMU VELO AIN AR TRES W  DIS CAZ7
 BAR2 EZ EP   1    358 20.48                              47   -0.97 8 53.7 268 
 BAR2 EZ I         358 32.31        14.8 0.54             47           53.7 268 
 PAM  EZ EP   4    358 22.88                              47   -2.93 0 80.7 360 
 PAM  EE ES   4    358 32.04                              47   -4.60 0 80.7 360 
 PAM  EZ I         358 34.95         4.2 0.38             47           80.7 360 
 RUS  HZ EP   4    358 26.01                              47   -1.21 0 90.0 208 
 RUS  HN ES   1    358 39.31                              47    0.16 8 90.0 208 
 RUS  HN I         358 45.77         3.5 0.48             47           90.0 208 
 TAM  HZ EP   2    358 29.43                              47    0.86 5  102 101 
 TAM  HN ES   2    358 41.20                              47   -0.35 5  102 101 
 TAM  HZ I         358 43.35         5.3 0.52             47            102 101 
 BRR  HZ EP        358 32.36                              47    0.3610  125 296 
 BRR  HN ES   4    358 53.52                              47    5.85 0  125 296 
 BRR  HZ I         358 55.30         7.0 0.34             47            125 296 
 PTB  HZ EP   9 C  358 43.61                              37    1.43 0  195 268 
 PTB  HN ES        359  7.70                              37    0.49 9  195 268 
                                                                                
