 2011  1 8 0157  7.6 L   6.801 -73.135143.9  RSN 15 0.4 2.3LRSN                1
 GAP=137        0.75       2.5     4.6  5.0 -0.2352E+01  0.9668E+01  0.5529E+00E
 Epicentro: LOS SANTOS - SANTANDER                                             3
 ACTION:UP  11-02-08 08:39 OP:pat  STATUS:               ID:20110108015707 L   I
 2011-01-08-0152-52S.COL___135                                                 6
 STAT SP IPHASW D HRMM SECON CODA AMPLIT PERI AZIMU VELO SNR AR TRES W  DIS CAZ7
 BAR2 SZ IP        157 27.02                             170     0.010   24 193 
 BAR2 SZ ES        157 42.44                             170     0.310   24 193 
 BAR2 SZ I         157 43.21        43.6 0.38                            24 193 
 RUS  HZ IP     D  157 30.94                             143    -0.210  101 177 
 RUS  HE ES   1    157 49.74                             143     0.2 7  101 177 
 RUS  HZ I         157 50.55        12.5 0.47                           101 177 
 GRA  SZ EP        157 32.83                             137     0.210  125  17 
 GRA  SZ ES   1    157 52.12                             137     0.0 7  125  17 
 GRA  SZ I         157 55.36        37.5 0.32                           125  17 
 OCA  SZ EP        157 35.63                             129    -0.1 9  160 353 
 OCA  SZ ES   1    157 57.30                             129    -0.4 7  160 353 
 OCA  SZ I         158  2.31        44.8 0.51                           160 353 
 YOP  SZ EP   1    157 37.35                             126    -0.1 7  179 154 
 YOP  SZ I         157 38.30        10.5 0.45                           179 154 
 YOP  SN ES   1    158  0.58                             126    -0.2 7  179 154 
 NOR  SZ EP   1    157 42.84                             118    -0.5 6  236 235 
 NOR  SN ES   2    158 10.55                             118    -0.7 4  236 235 
 CHI  HZ EP        157 45.02                             117    -0.2 8  249 195 
 CHI  HZ I         157 46.24         9.5 0.52                           249 195 
 CHI  HE ES   1    158 14.25                             117    -0.3 6  249 195 
 ROSC BZ EP   1    157 45.57                             116    -0.1 6  253 211 
 ROSC BZ I         157 48.63        17.6 0.44                           253 211 
 HEL  HZ EP   1    157 48.56                             114     0.7 6  273 256 
 HEL  HN ES   2    158 18.30                             114    -0.9 4  273 256 
 HEL  HZ I         158 26.33        22.0 0.43                           273 256 
 GUY  SZ EP   2    157 51.73                             112     0.5 4  302 235 
 GUY  SZ I         158 33.68        24.8 0.46                           302 235 
 RREF HZ EP   1    157 54.05                             110     0.3 5  323 229 
 RREF HE ES   1    158 29.57                             110    -0.2 5  323 229 
 RREF HZ I         158 39.08        15.3 0.26                           323 229 
 DBB  SZ EP   1    157 55.73                             109     0.6 5  341 274 
 DBB  SZ I         158 37.53         2.2 0.31                           341 274 
 TOL  SZ EP   1    157 56.52                             109     0.6 5  344 225 
 PRA  HZ EP   1    158  1.62                             106     0.5 4  393 210 
 PRA  HN ES   1    158 43.39                             106     0.5 4  393 210 
 SJA  SZ EP   2    158  1.41                             106    -0.7 3  400 193 
 SJA  SZ I         158  4.00         7.6 0.35                           400 193 
                                                                                
