 2011  8 8 0927 52.0 L   5.960 -74.021  4.0  RSN  5 0.2 1.2LRSN                1
 GAP=130        0.46       2.0     1.6  4.2 -0.1169E+01  0.4087E+00 -0.6683E+00E
 Epicentro: LA BELLEZA - SANTANDER                                             3
 ACTION:UPD 12-07-25 14:06 OP:epov STATUS:               ID:20110808092752 L   I
 2011-08-08-0925-02S.COL___144                                                 6
 STAT SP IPHASW D HRMM SECON CODA AMPLIT PERI AZIMU VELO AIN AR TRES W  DIS CAZ7
 NOR  SZ EP   1    928  8.34                              47   -0.04 7  104 245 
 RUS  HZ EP   1    928  9.23                              47    0.33 7  104  94 
 RUS  HZ I         928  9.69         4.5 0.13                           104  94 
 RUS  HE ES   1    928 21.70                              47   -0.37 7  104  94 
 NOR  SE ES   1    928 21.05                              47   -0.09 7  104 245 
 BAR2 SZ EP   1    928 10.66                              47    0.20 7  116  53 
 BAR2 SZ I         928 31.80         4.9 0.18                           116  53 
 BRR  HZ EP   1    928 12.58                              47    0.06 7  131  15 
 BRR  HE ES   1    928 28.37                              47   -0.13 7  131  15 
 BRR  HZ I         928 30.13         5.4 0.46                           131  15 
 CHI  HZ EP   2    928 15.98                              47    0.11 5  151 168 
 CHI  HZ I         928 20.95         2.3 0.32                           151 168 
                                                                                
