 2017  5 8 0557 49.5 L   6.367 -73.696131.6  RSN  4 0.3 0.9LRSN                1
 GAP=155        0.82       5.6     5.0  8.4  0.1735E+02  0.3999E+01  0.2429E+01E
 Epicentro: SANTA HELENA DEL OPON - SANTANDER                                  3
 ACTION:UPD 17-06-16 13:34 OP:jn   STATUS:               ID:20170508055749 L   I
 OLDACT:UP  17-05-08 16:35 OP:edw  STATUS:               ID:20170508054736     3
 OLDACT:REG 17-05-08 12:45 OP:edw  STATUS:               ID:20170508054736     3
 2017-05-08-0548-00M.COL___362                                                 6
 STAT SP IPHASW D HRMM SECON CODA AMPLIT PERI AZIMU VELO AIN AR TRES W  DIS CAZ7
 BRR  HZ EP        558  9.58                             146   -0.2510 81.8 359 
 BRR  HE ES        558 25.67                             146   -0.0110 81.8 359 
 BRR  HZ I         558 26.12         1.9 0.44            147           81.8 359 
 RUS  HZ EP        558 11.31                             145    0.5110 85.8 128 
 RUS  HN ES        558 27.27                             145   -0.1410 85.8 128 
 PTB  HZ EP        558  9.69                             145   -0.4610 86.2 283 
 PTB  HN ES        558 26.37                             145    0.1110 86.2 283 
 PTB  HZ I         558 27.01         1.4 0.56            145           86.2 283 
 ZAR  HZ EP   4    558 20.34                             123    1.92 0  179 314 
 ZAR  HN ES        558 41.29                             123    0.32 9  179 314 
                                                                                
