 2017  1 8 0711 15.5 L   6.645 -73.156138.0  RSN  5 0.4 1.2LRSN                1
 GAP=225        0.98       8.9     7.0  8.2  0.2922E+02  0.1599E+02  0.3729E+01E
 Epicentro: VILLANUEVA - SANTANDER                                             3
 ACTION:UPD 17-05-22 15:56 OP:jn   STATUS:               ID:20170108071115 L   I
 OLDACT:REG 17-01-08 12:45 OP:dnl  STATUS:               ID:20170108070646     3
 2017-01-08-0707-00M.COL___367                                                 6
 STAT SP IPHASW D HRMM SECON CODA AMPLIT PERI AZIMU VELO AIN AR TRES W  DIS CAZ7
 BAR2 EZ EP        711 34.18                             177    0.2110 6.49 207 
 BAR2 EZ ES        711 47.85                             177   -0.5210 6.49 207 
 BAR2 EZ I         711 50.04         4.7 0.34            171           6.49 207 
 BRR  HZ EP        711 36.22                             148   -0.1410 80.0 310 
 BRR  HN ES        711 53.25                             148    0.6310 80.0 310 
 BRR  HZ I         711 58.05         3.8 0.52            149           80.0 310 
 RUS  HZ EP   2    711 38.09                             147    0.80 5 83.5 174 
 RUS  HN ES   2    711 54.27                             147   -0.02 5 83.5 174 
 RUS  HZ I         711 59.67         0.9 0.42            148           83.5 174 
 PTB  HZ EP        711 41.17                             131   -0.35 9  144 265 
 PTB  HN ES        712  2.13                             131    0.31 9  144 265 
 PTB  HZ I         712  5.61         2.0 0.22            132            144 265 
 ZAR  HZ EP   2    711 48.39                             120    0.30 4  210 297 
 ZAR  HN ES        712 12.96                             120   -0.55 8  210 297 
 ZAR  HZ I         712 18.88         3.3 0.34            122            210 297 
                                                                                
