 2017  4 8 0740 24.2 L   6.782 -73.099140.0  RSN  8 0.4 1.2LRSN                1
 GAP=124        0.98       4.9     5.9  6.3 -0.1139E+02 -0.2166E+01  0.7953E+01E
 Epicentro: LOS SANTOS - SANTANDER                                             3
 ACTION:UPD 17-05-30 21:09 OP:jn   STATUS:               ID:20170408074024 L   I
 OLDACT:UP  17-04-08 17:05 OP:and  STATUS:               ID:20170408073746     3
 OLDACT:UP  17-04-08 17:05 OP:and  STATUS:               ID:20170408073746     3
 OLDACT:UP  17-04-08 17:04 OP:and  STATUS:               ID:20170408073746     3
 OLDACT:UP  17-04-08 17:04 OP:and  STATUS:               ID:20170408073746     3
 OLDACT:UP  17-04-08 17:03 OP:and  STATUS:               ID:20170408073746     3
 OLDACT:UP  17-04-08 17:03 OP:and  STATUS:               ID:20170408073746     3
 OLDACT:UP  17-04-08 17:03 OP:and  STATUS:               ID:20170408073746     3
 OLDACT:REG 17-04-08 13:02 OP:and  STATUS:               ID:20170408073746     3
 2017-04-08-0738-00M.COL___371                                                 6
 STAT SP IPHASW D HRMM SECON CODA AMPLIT PERI AZIMU VELO AIN AR TRES W  DIS CAZ7
 BAR2 EZ EP        740 43.01                             170   -0.1010 22.9 204 
 BAR2 EZ ES        740 56.92                             170   -0.9510 22.9 204 
 BAR2 EZ I         740 59.36         2.5 0.24            168           22.9 204 
 PAM  EZ EP        740 45.88                             150    0.1910 75.8  36 
 PAM  EN ES        741  2.46                             150   -0.0010 75.8  36 
 PAM  EZ I         741  3.46         2.4 0.16            154           75.8  36 
 BRR  HN ES        741  1.69                             149    0.3910 76.6 298 
 BRR  HZ I         741  5.45         3.2 0.20            148           76.6 298 
 RUS  HZ EP        740 47.22                             143    0.0110 98.4 179 
 RUS  HN ES        741  5.58                             143    0.4110 98.4 179 
 RUS  HZ I         741  7.46         1.6 0.27            144           98.4 179 
 PTB  HZ EP   9    740 50.35                             129   -0.77 0  152 260 
 PTB  HN ES        741 10.88                             130   -0.48 9  152 260 
 PTB  HZ I         741 13.07         2.5 0.14            129            152 260 
 SPBC HZ EP        740 52.36                             127   -0.05 9  165 221 
 SPBC HN ES        741 14.67                             127    0.24 9  165 221 
 SPBC HZ I         741 20.01         3.0 0.22            127            165 221 
 NOR  HZ EP        740 59.79                             116   -0.12 8  238 236 
 NOR  HN ES   4    741 25.35                             116   -2.43 0  238 236 
 NOR  HZ I         741 30.99         1.7 0.34            117            238 236 
 PTGC HZ EP   3    741  6.15                             110   -1.21 2  305 159 
                                                                                
