 2010  8 8 0909 34.6 L   6.761 -73.133149.7  RSN  6 0.2 1.3LRSN                1
 GAP=160        0.49       4.9     7.8  9.0 -0.1665E+02 -0.3684E+02  0.1626E+02E
 Epicentro: LOS SANTOS - SANTANDER                                             3
 ACTION:UP  10-09-07 10:53 OP:vdl  STATUS:               ID:20100808090935 L   I
 2010-08-08-0906-53S.COL___125                                                 6
 STAT SP IPHASW D HRMM SECON CODA AMPLIT PERI AZIMU VELO SNR AR TRES W  DIS CAZ7
 BAR2 SZ EP        9 9 54.59                             172    -0.110   20 197 
 BAR2 SZ I         9 9 59.59         4.2 0.63                            20 197 
 BTL  SZ EP        9 9 54.75                             167     0.010   23 320 
 BRR  HZ EP   1    9 9 56.18                             148    -0.2 7   75 301 
 BRR  HN ES   1    910 13.46                             148     0.1 7   75 301 
 BRR  HZ I         910 17.27         3.8 0.41                            75 301 
 RUS  HZ EP   3    9 9 58.52                             146     0.1 2   96 177 
 RUS  HE ES   3    910 17.11                                     0.1 2   96 177 
 RUS  HZ I         910 18.89         1.5 0.35                            96 177 
 GUE  SZ EP   1    9 9 59.89                             137    -0.1 7  120  11 
 GRA  SZ EP   2    910  1.24                             135     0.7 5  129  16 
 GRA  SZ ES   1    910 20.58                             135    -0.1 7  129  16 
 GRA  SZ I         910 22.01         4.0 0.40                           129  16 
                                                                                
