 2012 11 8 0310  5.4 L   6.816 -73.173149.1  RSN 11 0.5 2.1LRSN 2.5WRSN        1
 SPEC AVERAGE  MO 12.9 ST  5.8 OM  1.7 f0 8.19 R0.1794 AL 2.80 WI 11.7 MW  2.5 3
 SPEC SD       MO  0.1 ST  1.2 OM  1.2 f00.065 R0.0014 AL      WI      MW  0.1 3
 GAP= 69        1.37       4.1     6.0  8.6 -0.1423E-01  0.7687E+00  0.6274E+01E
 Epicentro: LOS SANTOS - SANTANDER                                             3
 SPEC RUS HH Z MO 12.8 ST  4.7 OM  0.4 f0 8.13 R0.1808 AL 2.30 WI 10.1 MW  2.5 3
 SPEC RUS HH Z T 31029 K 0.000 GD  181 VP 7.60 DE 3.00 Q0230.0 QA 0.60 VS 4.20 3
 SPEC BRR HH Z MO 13.0 ST  7.0 OM  0.6 f0 8.26 R0.1780 AL 3.30 WI 13.3 MW  2.6 3
 SPEC BRR HH Z T 31027 K 0.000 GD  163 VP 7.60 DE 3.00 Q0230.0 QA 0.60 VS 4.20 3
 ACTION:UPD 12-12-05 15:31 OP:}ep  STATUS:               ID:20121108031005 L   I
 2012-11-08-0310-00M.COL___230                                                 6
 STAT SP IPHASW D HRMM SECON CODA AMPLIT PERI AZIMU VELO AIN AR TRES W  DIS CAZ7
 BAR2 SZ EP        310 25.04                             170   -0.3910 24.8 182 
 BAR2 SZ I         310 41.94        51.6 0.18                          24.8 182 
 GIR2 SZ EP        310 25.55                             168    0.1710 29.1 356 
 BRR  HZ IP        310 27.34                             154    0.6510 67.7 298 
 BRR  HN ES        310 44.53                             154    1.2110 67.7 298 
 BRR  HN I         310 45.05        40.6 0.28                          67.7 298 
 PAM  SZ EP        310 28.37                             151    0.4010 78.0  42 
 PAM  SZ I         310 28.59        17.8 0.22                          78.0  42 
 PAM  SN ES        310 45.65                             151    0.0410 78.0  42 
 RUS  HZ EP        310 29.46                             144   -0.1310  103 174 
 RUS  HE ES        310 48.04                             144   -0.4510  103 174 
 RUS  HZ I         310 49.30        13.1 0.26                           103 174 
 PTB  HZ EP        310 32.27                             133   -0.11 9  145 258 
 PTB  HN ES        310 52.89                             133   -0.55 9  145 258 
 PTB  HN I         310 58.89        21.0 0.18                           145 258 
 TAM  HZ IP     D  310 33.73                             131    0.11 9  158 105 
 OCA  HN ES        310 54.58                             131   -1.30 9  158 354 
 TAM  HZ I         310 33.88        10.9 0.36                           158 105 
 SML  HZ EP        310 42.06                             118    0.19 8  241 336 
 SML  HN ES        311 10.15                             118   -0.20 8  241 336 
 CHI  HZ EP        310 43.59                             118    0.24 8  250 194 
 CHI  HZ I         310 44.36         3.9 0.24                           250 194 
 CHI  HN ES        311 12.71                             118   -0.27 8  250 194 
 PRA  HZ EP        310 59.29                             107    0.28 6  392 209 
 PRA  HN I         311 46.62         3.0 0.58                           392 209 
                                                                                
