 2013 10 8 0642  8.9 L   6.786 -73.117143.2  RSN 10 0.4 1.7LRSN                1
 GAP=141        0.95       3.1     4.6  6.4 -0.7612E+00  0.8726E+01 -0.9185E+00E
 Epicentro: LOS SANTOS - SANTANDER                                             3
 ACTION:UPD 13-11-25 09:20 OP:ep   STATUS:               ID:20131008064208 L   I
 OLDACT:DUP 13-10-08 10:44 OP:mh   STATUS:               ID:20131008063960d    3
 OLDACT:REG 13-10-08 07:49 OP:mh   STATUS:               ID:20131008063959     3
 2013-10-08-0639-59M.COL___273                                                 6
 STAT SP IPHASW D HRMM SECON CODA AMPLIT PERI AZIMU VELO AIN AR TRES W  DIS CAZ7
 BAR2 SZ EP   1    642 28.45                             171    0.27 7 22.6 199 
 BAR2 SZ ES   1    642 42.77                             171   -0.47 7 22.6 199 
 BAR2 SZ I         642 44.15        20.8 0.34            171           22.6 199 
 BRR  HZ EP   1    642 30.40                             151    0.45 7 74.8 298 
 BRR  HN ES        642 47.00                             151    0.6010 74.8 298 
 BRR  HZ I         642 51.22         8.0 0.14            147           74.8 298 
 PAM  SZ EP   1    642 31.34                             151    0.57 7 76.6  37 
 PAM  SN ES        642 47.97                             151    0.1210 76.6  37 
 PAM  SZ I         642 50.40         7.8 0.48            151           76.6  37 
 RUS  HZ EP   1    642 32.72                             144    0.47 7 98.8 178 
 RUS  HN ES        642 50.06                             144   -0.4210 98.8 178 
 RUS  HZ I         642 51.51         4.1 0.22            147           98.8 178 
 PTB  HZ EP        642 35.31                             131   -0.58 9  151 260 
 PTB  HN ES   1    642 57.09                             131    0.12 7  151 260 
 PTB  HZ I         642 59.66         6.2 0.20            130            151 260 
 OCA  HZ EP   1    642 37.20                             129    0.03 7  162 352 
 OCA  HN ES   1    642 58.66                             129   -0.59 7  162 352 
 OCA  HZ I         643  3.55         8.1 0.32            128            162 352 
 SPBC HZ EP   1    642 37.26                             128    0.01 7  164 220 
 SPBC HN ES   1    642 58.76                             128   -0.63 7  164 220 
 SPBC HZ I         643  0.19         3.3 0.28            129            164 220 
 ZAR  HN ES        643  7.25                             121    0.26 8  208 292 
 ZAR  HZ I         643 13.20         6.8 0.22            120            208 292 
 SML  HZ EP   1    642 45.03                             117   -0.63 6  246 335 
 SML  HN ES        643 14.05                             117   -0.30 8  246 335 
 SML  HZ I         643 23.40         7.8 0.10            116            246 335 
 PRA  HN ES        643 44.58                             106    0.55 6  392 210 
 PRA  HZ I         643 50.00         1.3 0.56            107            392 210 
                                                                                
