 2014 12 8 0507 10.0 L   6.754 -73.105146.4  RSN  6 0.6 1.1LRSN                1
 GAP=144        1.49       7.3     7.6 10.5 -0.1518E+02  0.8063E+01  0.1287E+02E
 Epicentro: LOS SANTOS - SANTANDER                                             3
 ACTION:UPD 15-02-10 17:01 OP:nd   STATUS:               ID:20141208050710 L   I
 OLDACT:ARG 14-12-08 13:49 OP:stll STATUS:               ID:20141208045750     3
 2014-12-08-0457-50M.COL___303                                                 6
 STAT SP IPHASW D HRMM SECON CODA AMPLIT PERI AZIMU VELO AIN AR TRES W  DIS CAZ7
 BAR2 SZ EP        5 7 29.62                             172   -0.0210 19.8 205 
 BAR2 SZ I         5 7 29.96         3.2 0.34            169           19.8 205 
 BAR2 SZ ES        5 7 44.02                             172   -0.9410 19.8 205 
 BRR  HN ES        5 7 49.41                             150    0.9810 77.6 300 
 PAM  SZ EP        5 7 32.67                             150    0.3110 78.7  35 
 PAM  SN ES        5 7 49.72                             150   -0.0810 78.7  35 
 PAM  SZ I         5 7 52.83         1.1 0.14            154           78.7  35 
 RUS  HZ EP        5 7 33.71                             145    0.2710 95.3 179 
 RUS  HZ I         5 7 34.71         1.2 0.44            146           95.3 179 
 RUS  HN ES        5 7 51.80                             145    0.0810 95.3 179 
 PTB  HZ EP        5 7 36.62                             131   -0.72 9  151 261 
 PTB  HN ES        5 7 58.04                             131   -0.62 9  151 261 
 PTB  HZ I         5 8  5.10         2.8 0.48            131            151 261 
 SPBC HZ EP        5 7 38.28                             129   -0.17 9  162 221 
 SPBC HE ES        5 8  1.49                             129    0.84 9  162 221 
 SPBC HZ I         5 8  7.95         3.6 0.24            129            162 221 
                                                                                
