 2016 11 8 0339 42.2 L   6.766 -73.153144.0  RSN  6 0.3 1.5LRSN                1
 GAP=151        0.84       4.8     3.9  5.7 -0.2909E+01  0.5428E+01  0.7059E+01E
 Epicentro: LOS SANTOS - SANTANDER                                             3
 ACTION:UPD 17-10-26 21:05 OP:lp   STATUS:               ID:20161108033942 L   I
 OLDACT:REG 16-11-08 11:47 OP:lv   STATUS:               ID:20161108033740     3
 2016-11-08-0338-00M.COL___349                                                 6
 STAT SP IPHASW D HRMM SECON CODA AMPLIT PERI AZIMU VELO AIN AR TRES W  DIS CAZ7
 BAR2 EZ EP        340  1.42                             172   -0.0810 19.5 190 
 BAR2 EZ ES        340 16.27                             172   -0.3110 19.5 190 
 BAR2 EZ I         340 17.43        13.3 0.43            170           19.5 190 
 BRR  HZ EP        340  3.26                             152    0.0810 72.4 301 
 BRR  HN ES        340 20.34                             152    0.7610 72.4 301 
 BRR  HZ I         340 24.91         5.9 0.29            149           72.4 301 
 PAM  EZ EP        340  4.39                             149   -0.0010 80.8  38 
 PAM  EN ES        340 21.65                             149   -0.0910 80.8  38 
 PAM  EZ I         340 23.88         4.9 0.41            154           80.8  38 
 PTB  HZ EP        340  8.55                             132   -0.29 9  146 260 
 PTB  HN ES        340 29.54                             132   -0.12 9  146 260 
 PTB  HZ I         340 36.51         3.2 0.22            131            146 260 
 ZAR  HZ EP        340 14.70                             122    0.14 9  205 293 
 ZAR  HE ES        340 39.32                             122   -0.51 9  205 293 
 ZAR  HZ I         340 46.17         3.2 0.39            122            205 293 
 PRA  HZ EP        340 35.81                             106    0.63 6  388 210 
 PRA  HE ES        341 16.67                             106    0.13 6  388 210 
 PRA  HZ I         341 22.79         1.3 0.28            108            388 210 
                                                                                
