 2015 10 8 0754 30.9 L   6.798 -73.108145.2  RSN 19 0.5 2.1LRSN                1
 GAP= 56        1.09       2.9     3.2  5.3 -0.8592E+00  0.2224E+01  0.1588E+01E
 Epicentro: LOS SANTOS - SANTANDER                                             3
      18.0      61.0      -2.0  1.0  1.0  1.0  0.0  0.1           RSN FPFIT    F
 ACTION:UPD 15-12-22 20:38 OP:cam  STATUS:               ID:20151008075430 L   I
 OLDACT:UP  15-10-29 04:29 OP:DRIO STATUS:               ID:20151008075430 L   3
 OLDACT:REG 15-10-08 13:14 OP:spq  STATUS:               ID:20151008074750     3
 2015-10-08-0747-50M.COL___333                                                 6
 STAT SP IPHASW D HRMM SECON CODA AMPLIT PERI AZIMU VELO AIN AR TRES W  DIS CAZ7
 BAR2 EZ EP     D  754 50.38                             170   -0.0710 24.2 200 
 BAR2 EZ ES   1    755  5.09                             170   -0.63 7 24.2 200 
 BAR2 EZ I         755  6.43        44.8 0.16            168           24.2 200 
 BRR  HZ IP     C  754 52.33                             151    0.1510 75.0 297 
 BRR  HE ES        755  9.26                             151    0.4610 75.0 297 
 BRR  HZ I         755 13.41        30.2 0.10            149           75.0 297 
 PAM  EZ EP     C  754 53.27                             151    0.3910 75.0  37 
 PAM  EN ES        755 10.54                             151    0.4910 75.0  37 
 RUS  HZ EP     D  754 54.30                             144   -0.2410  100 178 
 RUS  HE ES        755 12.66                             144   -0.3410  100 178 
 RUS  HZ I         755 13.86        13.5 0.28            143            100 178 
 TAM  HZ EP        754 58.71                             131    0.58 9  151 105 
 TAM  HN ES   1    755 20.18                             131    0.80 7  151 105 
 TAM  HZ I         755 21.82         8.8 0.30            133            151 105 
 OCA  HZ EP     D  754 58.82                             129   -0.39 9  161 352 
 OCA  HN ES        755 20.28                             129   -1.03 9  161 352 
 OCA  HZ I         755 21.85        25.7 0.20            130            161 352 
 SPBC HZ EP     D  754 59.47                             128   -0.09 9  166 220 
 SPBC HE ES        755 21.41                             128   -0.53 9  166 220 
 SPBC HZ I         755 22.77        13.9 0.12            127            166 220 
 ZAR  HZ EP     D  755  3.75                             122    0.06 8  208 292 
 ZAR  HE ES        755 29.93                             122    0.64 8  208 292 
 ZAR  HZ I         755 36.77        14.8 0.56            121            208 292 
 NOR  HZ EP     C  755  7.02                             118    0.10 8  238 235 
 NOR  HE ES        755 35.20                             118    0.16 8  238 235 
 NOR  HZ I         755 41.60        10.3 0.26            117            238 235 
 SML  HZ EP        755  7.19                             117   -0.49 8  246 334 
 SML  HE ES   1    755 36.21                             117   -0.18 6  246 334 
 SML  HZ I         755 40.39        15.8 0.26            117            246 334 
 CHI  HZ EP        755  8.67                             117    0.03 8  250 196 
 CHI  HN ES   1    755 37.73                             117   -0.37 6  250 196 
 CHI  HZ I         755 48.02         4.3 0.42            117            250 196 
 ROSC BZ EP   4    755 10.47                             116    1.29 0  255 212 
 HEL  HZ EP   4    755 12.78                             114    1.28 0  276 256 
 HEL  HE ES        755 43.24                             114    0.05 7  276 256 
 HEL  HZ I         755 49.47         7.4 0.52            114            276 256 
 URE  HZ EP   4    755 10.99                             113   -1.37 0  288 292 
 GUY2CHZ EP        755 15.71                             112    0.88 7  304 235 
 GUY2CHE ES   4    755 51.66                             112    2.55 0  304 235 
 GUY2CHZ I         755 55.40         5.4 0.26                           304 235 
 PTGC HZ EP        755 13.65                             112   -0.86 7  307 159 
 PTGC HN ES   4    755 46.55                             112   -2.00 0  307 159 
 PTGC HZ I         755 47.98        11.1 0.44            112            307 159 
 CBOC HZ EP   4    755 19.35                             109    1.14 0  338 252 
 CBOC HE ES   1    755 55.14                             109    0.00 5  338 252 
 CBOC HZ I         755 58.47         3.1 0.58            109            338 252 
 SDV  BZ EP        755 20.22                             108   -0.31 6  357  50 
 SDV  BN ES   4    755 57.58                             108   -1.69 0  357  50 
 SDV  BZ I         756  2.49         3.3 0.55            109            357  50 
 ORTC HZ EP        755 25.68                             106    0.64 6  398 217 
 ORTC HE ES   4    756  9.17                             106    1.88 0  398 217 
 ORTC HZ I         756 16.85         2.0 0.62            106            398 217 
 SJC  HZ EP   4    755 25.32                             105   -1.38 0  412 326 
 SJC  HN ES   4    756  6.56                             105   -3.69 0  412 326 
 SJC  HZ I         756 10.63         2.9 0.42            106            412 326 
 CRJC HZ EP   4    755 31.26                             103   -2.09 0  468   3 
 CRJC HN ES   4    756 18.21                             103   -3.87 0  468   3 
 CRJC HZ I         756 23.03         4.5 0.54            103            468   3 
                                                                                
