 2013  9 8 0336 49.4 L   6.714 -73.202153.8  RSN  4 0.1 1.6LRSN                1
 GAP=224        0.30       2.7     2.7  3.5  0.3755E+01 -0.4899E+00 -0.1151E+00E
 Epicentro: VILLANUEVA - SANTANDER                                             3
 ACTION:UPD 13-10-22 09:21 OP:ep   STATUS:               ID:20130908033649 L   I
 OLDACT:REG 13-09-08 07:40 OP:mh   STATUS:               ID:20130908032959     3
 2013-09-08-0329-59M.COL___269                                                 6
 STAT SP IPHASW D HRMM SECON CODA AMPLIT PERI AZIMU VELO AIN AR TRES W  DIS CAZ7
 BRR  HZ EP        337 11.49                             154    0.0510 71.2 308 
 BRR  HN ES        337 28.59                             154   -0.0310 71.2 308 
 BRR  HN I         337 29.77         7.7 0.22            152           71.2 308 
 RUS  HZ EP   1    337 13.42                             148    0.05 7 91.7 172 
 RUS  HN ES   1    337 32.01                             148   -0.05 7 91.7 172 
 RUS  HN I         337 33.81         4.1 0.22            148           91.7 172 
 PTB  HZ EP   1    337 16.25                             135   -0.13 7  140 262 
 PTB  HN ES        337 37.47                             135    0.06 9  140 262 
 PTB  HZ I         337 39.41         2.9 0.44            133            140 262 
 ZAR  HN ES   1    337 47.76                             124   -0.03 6  202 295 
 ZAR  HN I         337 53.77         5.8 0.52            123            202 295 
                                                                                
