 2012  2 8 0951 44.5 L   6.797 -73.117149.5  RSN 20 0.5 3.2LRSN                1
 GAP=104        0.79       2.8     3.5  4.4 -0.2267E+01  0.2759E+01  0.3031E+01E
 ACTION:UP  12-03-07 16:28 OP:epov STATUS:               ID:20120208095144 L   I
 2012-02-08-0950-00M.COL___188                                                 6
 STAT SP IPHASW D HRMM SECON CODA AMPLIT PERI AZIMU VELO AIN AR TRES W  DIS CAZ7
 BAR2 SZ IP        952  4.68                             171    0.0610 23.8 198 
 BAR2 SZ ES   1    952 19.83                             171   -0.46 7 23.8 198 
 BAR2 SZ I         952 21.24       478.7 0.28                          23.8 198 
 GIR2 SZ EP        952  4.78                             167    0.1110 32.3 345 
 GIR2 SZ ES   1    952 20.24                             167   -0.14 7 32.3 345 
 BRR  HZ EP        952  6.51                             152    0.2610 74.2 298 
 BRR  HN ES   1    952 23.68                             152    0.49 7 74.2 298 
 PAM  SZ EP        952  7.49                             152    0.4510 75.6  38 
 PAM  SN ES   1    952 24.65                             152    0.05 7 75.6  38 
 RUS  HZ EP        952  8.47                             145   -0.1410  100 178 
 RUS  HE ES   2    952 27.54                             145    0.14 5  100 178 
 RUS  HZ I         952 29.03       200.6 0.30                           100 178 
 PTB  HZ EP   1    952 11.00                             132   -1.08 7  151 259 
 PTB  HE ES   2    952 32.99                             132   -0.58 5  151 259 
 YOP  SZ EP   2    952 15.15                             127    0.47 4  177 154 
 YOP  SN ES   2    952 38.42                             127    0.23 4  177 154 
 YOP  SZ I         952 43.41        85.0 0.87                           177 154 
 ZAR  HZ EP   1    952 17.05                             123   -0.48 6  207 292 
 ZAR  HN ES   2    952 42.86                             123   -0.42 4  207 292 
 NOR  SZ EP   1    952 20.34                             119   -0.39 6  237 235 
 NOR  SN ES   1    952 49.04                             119    0.07 6  237 235 
 CHI  HZ EP   1    952 22.50                             118    0.01 6  249 196 
 CHI  HN ES   1    952 51.52                             118   -0.59 6  249 196 
 CHI  HZ I         952 55.54        80.3 0.55                           249 196 
 ROSC BZ EP   1    952 24.35                             117    1.35 6  254 212 
 ROSC BN ES   2    952 53.10                             117    0.09 4  254 212 
 ROSC BZ I         952 59.83       112.2 0.64                           254 212 
 HEL  HZ EP   1    952 25.81                             115    0.55 6  275 256 
 HEL  HN ES   1    952 57.32                             115    0.28 6  275 256 
 HEL  HZ I         953  2.66        73.5 0.30                           275 256 
 VIL  SZ EP   1    952 27.71                             113   -0.44 5  304 192 
 VIL  SN ES   2    953  2.08                             113   -0.10 4  304 192 
 VIL  SZ I         953  4.92        53.6 0.50                           304 192 
 GUY  SZ EP   2    952 29.19                             113    0.34 4  306 235 
 GUY  SE ES   2    953  3.36                             113   -0.05 4  306 235 
 GUY  SZ I         953 12.05       197.2 0.49                           306 235 
 RREF HZ EP   1    952 31.62                             111    0.54 5  324 230 
 RREF HE ES   1    953  7.41                             111    0.01 5  324 230 
 RREF HZ I         953 16.62       119.1 0.60                           324 230 
 TOL  SZ EP   1    952 33.84                             110    0.67 5  346 225 
 COD  HZ EP   1    952 32.67                             109   -0.46 5  349 354 
 COD  HN ES   1    953 10.74                             109   -0.29 5  349 354 
 COD  HZ I         953 14.93        94.8 0.32                           349 354 
 SDV  BZ EP   1    952 33.79                             109   -0.66 5  358  50 
 SDV  BZ I         953 13.44        36.5 0.46                           358  50 
 PRA  HZ EP   1    952 38.29                             107   -0.04 4  393 210 
 PRA  HE ES   1    953 20.02                             107   -0.28 4  393 210 
 SJA  SZ EP   1    952 38.19                             107   -1.07 4  400 193 
 SJA  SZ I         953 30.14        83.5 0.35                           400 193 
                                                                                
