 2011  8 8 0712 56.8 L   6.774 -73.125146.4  RSN 16 0.4 3.5LRSN                1
 GAP=128        0.74       2.5     4.0  4.4 -0.3874E+01  0.3615E+01  0.1837E+01E
 Epicentro: LOS SANTOS - SANTANDER                                             3
 ACTION:UPD 12-07-25 14:06 OP:epov STATUS:               ID:20110808071256 L   I
 2011-08-08-0711-23S.COL___144                                                 6
 STAT SP IPHASW D HRMM SECON CODA AMPLIT PERI AZIMU VELO AIN AR TRES W  DIS CAZ7
 BAR2 SZ IP        713 16.73                             171    0.2710 21.1 197 
 BAR2 SZ ES   1    713 31.74                             171   -0.06 7 21.1 197 
 BAR2 SZ I         713 34.39       964.5 0.22                          21.1 197 
 GIR2 SZ EP        713 17.24                             166    0.6010 34.5 347 
 BRR  HZ EP        713 18.41                             152    0.2010 74.6 300 
 BRR  HE ES   1    713 34.45                             152   -0.46 7 74.6 300 
 BRR  HZ I         713 37.88       489.4 0.19                          74.6 300 
 PAM  SZ EP        713 19.60                             150    0.4710 78.2  37 
 PAM  SE ES   1    713 36.30                             150   -0.25 7 78.2  37 
 RUS  HZ EP        713 20.57                             145    0.1710 97.6 177 
 RUS  HN ES   1    713 38.60                             145   -0.20 7 97.6 177 
 RUS  HZ I         713 40.56       362.9 0.27                          97.6 177 
 OCA  SZ EP        713 25.18                             129   -0.27 9  163 352 
 OCA  SZ ES   1    713 47.45                             129   -0.35 7  163 352 
 OCA  SZ I         713 52.00       405.7 0.37                           163 352 
 NOR  SZ EP   1    713 32.42                             119   -0.17 6  235 235 
 NOR  SE ES   1    714  0.49                             119   -0.01 6  235 235 
 CHI  HZ EP        713 34.47                             117    0.17 8  246 196 
 CHI  HN ES   1    714  3.05                             117   -0.49 6  246 196 
 CHI  HZ I         714 12.91       156.0 0.62                           246 196 
 VIL  SZ EP   1    713 39.82                             112   -0.16 5  301 192 
 VIL  SN ES        714 13.38                             112   -0.28 7  301 192 
 VIL  SZ I         714 21.76       130.6 0.51                           301 192 
 GUY  SZ EP   2    713 40.64                             112   -0.08 4  304 236 
 GUY  SE ES   2    714 15.63                             112    0.64 4  304 236 
 GUY  SZ I         714 24.15       277.3 0.30                           304 236 
 RREF HZ EP   1    713 43.40                             111    0.45 5  322 230 
 RREF HE ES   1    714 17.99                             111   -0.96 5  322 230 
 RREF HZ I         714 28.33       192.3 0.32                           322 230 
 DBB  SZ EP        713 44.49                             109   -0.09 7  342 275 
 TOL  SZ EP   1    713 45.04                             109    0.01 5  343 225 
 ANIL HZ EP   1    713 46.95                             109    0.37 5  357 225 
 ANIL HE ES   1    714 25.59                             109    0.19 5  357 225 
 SDV  BZ EP        713 45.98                             108   -0.90 6  361  50 
 SDV  BZ I         713 46.85        51.0 0.25                           361  50 
 PRA  HZ EP   1    713 49.54                             107   -0.64 4  391 210 
 PRA  HE ES   1    714 31.73                             107   -0.09 4  391 210 
                                                                                
