 2014  7 8 0814 25.0 L   6.804 -73.148144.6  RSN 18 0.5 2.4LRSN                1
 GAP=112        1.34       3.2     3.6  6.6 -0.2527E+00  0.5246E+01 -0.6816E-01E
 Epicentro: LOS SANTOS - SANTANDER                                             3
 ACTION:UPD 15-03-16 20:42 OP:nd   STATUS:               ID:20140708081425 L   I
 OLDACT:UP  14-07-09 20:25 OP:nd   STATUS:               ID:20140708081425 L   3
 OLDACT:UP  14-07-09 09:00 OP:SPQ  STATUS:               ID:20140708081425 L   3
 OLDACT:REG 14-07-08 12:38 OP:stll STATUS:               ID:20140708080814     3
 2014-07-08-0808-14M.COL___259                                                 6
 STAT SP IPHASW D HRMM SECON CODA AMPLIT PERI AZIMU VELO AIN AR TRES W  DIS CAZ7
 BAR2 SZ EP        814 44.80                             170    0.2910 23.7 189 
 BAR2 SZ ES        814 59.69                             170   -0.0310 23.7 189 
 BAR2 SZ I         815  1.86        43.7 0.16            170           23.7 189 
 RUS  HZ EP        814 48.75                             143    0.0710  101 176 
 RUS  HN ES        815  7.40                             143    0.2610  101 176 
 RUS  HZ I         815 10.09        29.7 0.50            146            101 176 
 PTB  HZ EP        814 51.45                             132   -0.42 9  148 259 
 PTB  HN ES        815 12.67                             132   -0.15 9  148 259 
 PTB  HZ I         815 15.85        39.8 0.28            133            148 259 
 TAM  HZ IP     D  814 53.02                             130    0.39 9  155 105 
 TAM  HZ I         814 53.20        32.2 0.34            135            155 105 
 TAM  HE ES        815 13.33                             130   -0.84 9  155 105 
 OCA  HZ EP        814 53.37                             129    0.18 9  160 353 
 OCA  HE ES        815 15.79                             129    0.62 9  160 353 
 OCA  HZ I         815 25.60        16.1 0.32            132            160 353 
 SPBC HZ EP        814 53.73                             129    0.29 9  163 219 
 SPBC HN ES        815 15.88                             129    0.27 9  163 219 
 SPBC HZ I         815 21.34        32.8 0.14            131            163 219 
 ZAR  HZ EP        814 57.21                             122   -0.13 9  204 292 
 ZAR  HN ES        815 22.83                             122    0.27 9  204 292 
 ZAR  HZ I         815 29.73        30.7 0.36            124            204 292 
 NOR  HZ EP        815  0.56                             118   -0.12 8  235 234 
 NOR  HN ES        815 28.38                             118   -0.12 8  235 234 
 NOR  HZ I         815 33.15        29.7 0.20            120            235 234 
 SML  HZ EP        815  1.17                             117   -0.35 8  243 335 
 SML  HN ES        815 29.12                             117   -0.88 8  243 335 
 SML  HZ I         815 33.03        28.6 0.10            119            243 335 
 CHI  HZ EP        815  3.08                             117    0.40 8  249 195 
 CHI  HN ES        815 31.51                             117   -0.55 8  249 195 
 CHI  HZ I         815 40.30        12.7 0.34            119            249 195 
 ROSC BZ EP   9    815  4.61                             116    1.52 0  253 211 
 ROSC BE ES        815 32.35                             116   -1.96 8  253 211 
 ROSC BZ I         815 38.21        21.2 0.45            119            253 211 
 HEL  HZ EP        815  5.98                             114    0.83 8  272 256 
 HEL  HN ES        815 36.34                             114   -0.12 8  272 256 
 HEL  HZ I         815 43.11        14.4 0.30            116            272 256 
 GUY2CHZ EP        815  9.50                             112    0.93 7  301 235 
 GUY2CHE ES        815 43.01                             112    0.46 7  301 235 
 GUY2CHZ I         815 50.60        12.5 0.50                           301 235 
 PTGC HZ EP        815  7.79                             111   -1.08 7  309 159 
 DBB  SZ EP        815 11.37                             109   -1.04 7  339 274 
 DBB  SZ ES        815 48.81                             109   -0.57 7  339 274 
 TOL  SZ EP        815 14.33                             109    1.10 7  344 225 
 PRA  HZ EP        815 18.18                             106   -0.34 6  392 210 
 PRA  HN ES        815 59.43                             106   -0.82 6  392 210 
 PRA  HZ I         816  3.89         9.8 0.64            108            392 210 
 ORTC HZ EP        815 19.11                             106    0.20 6  396 216 
 ORTC HE ES        816  1.16                             106    0.21 6  396 216 
 ORTC HZ I         816  8.60         7.5 0.44            108            396 216 
                                                                                
