 2017  7 8 0406 50.3 L   6.137 -73.679114.3  RSN  8 0.3 1.5LRSN                1
 GAP= 99        0.70       2.4     2.0  4.4 -0.1178E+00  0.1168E+01  0.8193E+00E
 Epicentro: CHIPATA - SANTANDER                                                3
 ACTION:UPD 17-08-30 15:30 OP:rebc STATUS:               ID:20170708040650 L   I
 OLDACT:UP  17-07-08 14:41 OP:edw  STATUS:               ID:20170708035637     3
 OLDACT:REG 17-07-08 13:02 OP:edw  STATUS:               ID:20170708035637     3
 2017-07-08-0358-00M.COL___374                                                 6
 STAT SP IPHASW D HRMM SECON CODA AMPLIT PERI AZIMU VELO AIN AR TRES W  DIS CAZ7
 SPBC HN ES        4 7 21.83                             146   -0.2410 69.1 219 
 BAR2 EZ EP        4 7  8.78                             144    0.0410 74.5  48 
 BAR2 EZ ES        4 7 23.38                             144    0.2710 74.5  48 
 BAR2 EZ I         4 7 24.46        14.1 0.32            146           74.5  48 
 PTB  HZ EP   9    4 7  9.31                             137   -0.85 0 96.8 297 
 PTB  HN ES        4 7 24.42                             136   -0.3610 96.8 297 
 PTB  HZ I         4 7 26.94         2.4 0.14            137           96.8 297 
 BRR  HZ EP        4 7 10.98                             133   -0.0610  107 358 
 BRR  HE ES        4 7 27.12                             133   -0.0810  107 358 
 NOR  HZ EP        4 7 14.24                             124   -0.59 9  146 244 
 NOR  HE ES        4 7 34.13                             124    0.19 9  146 244 
 NOR  HZ I         4 7 35.75         3.9 0.14            124            146 244 
 YPLC HZ EP        4 7 16.92                             120    0.07 9  166 120 
 YPLC HN ES        4 7 37.59                             120    0.05 9  166 120 
 YPLC HZ I         4 7 39.27         5.0 0.30            121            166 120 
 ZAR  HZ EP        4 7 20.16                             115   -0.17 9  199 319 
 ZAR  HN ES        4 7 43.61                             115   -0.12 9  199 319 
 ZAR  HZ I         4 7 45.66         5.7 0.28            116            199 319 
 CBOC HZ EP        4 7 27.81                             108    0.31 8  260 263 
 CBOC HN ES        4 7 57.07                             108    0.57 8  260 263 
 CBOC HZ I         4 7 59.64         1.2 0.40            109            260 263 
                                                                                
