 2010  5 8 0749  8.9 L   6.659 -73.202118.0  RSN  4 0.1 1.5LRSN                1
 GAP=152        0.35       5.0     4.7  4.7 -0.3835E+01 -0.7598E+01 -0.4180E+01E
 Epicentro: VILLANUEVA - SANTANDER                                             3
 ACTION:UP  10-08-24 10:03 OP:vdl  STATUS:               ID:20100508074908 L   I
 2010-05-08-0744-34S.COL___105                                                 6
 STAT SP IPHASW D HRMM SECON CODA AMPLIT PERI AZIMU VELO SNR AR TRES W  DIS CAZ7
 BAR2 SZ ES   2    749 37.38                             176     0.0 5    8 165 
 GIR2 SZ EP        749 25.94                             157     0.110   46   1 
 GIR2 SZ ES   3    749 39.07                             157    -0.1 2   46   1 
 BRR  HZ EP        749 27.24                             145    -0.110   75 311 
 BRR  HZ I         749 27.46         7.9 0.10                            75 311 
 BRR  HN ES   1    749 41.89                             145     0.1 7   75 311 
 GUE  SZ EP        749 32.79                             128     0.110  133  13 
 GUE  SZ ES   2    749 51.03                             128    -0.2 5  133  13 
                                                                                
