 2011 11 8 0620 18.4 L   6.781 -73.130151.2  RSN  4 0.1 1.2LRSN                1
 GAP=238        0.34       5.4     7.1  4.1  0.3203E+02 -0.4455E+01 -0.3756E+01E
 Epicentro: LOS SANTOS - SANTANDER                                             3
 ACTION:UPD 12-07-13 16:08 OP:ep   STATUS:               ID:20111108062018 L   I
 2011-11-08-0617-21S.COL___175                                                 6
 STAT SP IPHASW D HRMM SECON CODA AMPLIT PERI AZIMU VELO AIN AR TRES W  DIS CAZ7
 BAR2 SZ EP   1    620 38.71                             171    0.04 7 21.7 195 
 BAR2 SZ ES   1    620 54.32                             171   -0.15 7 21.7 195 
 BAR2 SZ I         620 55.25         6.0 0.18                          21.7 195 
 BRR  HZ EP   1    620 40.40                             153    0.10 7 73.7 299 
 BRR  HZ I         620 49.93         3.7 0.48                          73.7 299 
 BRR  HE ES   1    620 57.41                             153    0.05 7 73.7 299 
 RUS  HZ EP   1    620 42.43                             145   -0.13 7 98.4 177 
 RUS  HZ I         620 43.29         1.4 0.20                          98.4 177 
 RUS  HE ES   1    621  1.52                             145    0.13 7 98.4 177 
 ZAR  HN ES   2    621 17.12                             123   -0.13 4  206 292 
                                                                                
