 2015  7 8 0603 32.9 L   6.835 -73.144138.9  RSN 21 0.4 2.5LRSN                1
 GAP=135        0.89       2.2     3.7  5.3 -0.1115E+01  0.1046E+02  0.1380E+01E
 Epicentro: LOS SANTOS - SANTANDER                                             3
 ACTION:UPD 15-09-08 21:47 OP:cam  STATUS:               ID:20150708060332 L   I
 OLDACT:REG 15-07-08 16:50 OP:spq  STATUS:               ID:20150708055744     3
 2015-07-08-0557-44M.COL___340                                                 6
 STAT SP IPHASW D HRMM SECON CODA AMPLIT PERI AZIMU VELO AIN AR TRES W  DIS CAZ7
 BAR2 EZ IP     C  6 3 51.74                             168   -0.0910 27.1 189 
 BAR2 EZ ES   1    6 4  6.49                             168   -0.08 7 27.1 189 
 BAR2 EZ I         6 4  7.88        61.5 0.18            166           27.1 189 
 PAM  EZ EP        6 3 54.72                             151    0.4710 74.3  41 
 PAM  EN ES        6 4 11.20                             151    0.3410 74.3  41 
 PAM  EZ I         6 4 13.50        68.5 0.44            156           74.3  41 
 RUS  HZ EP        6 3 55.81                             141   -0.5010  104 176 
 RUS  HN ES        6 4 14.44                             141   -0.1010  104 176 
 RUS  HZ I         6 4 15.98        37.3 0.38            143            104 176 
 OCA  HZ EP        6 4  0.01                             129   -0.36 9  156 353 
 OCA  HN ES        6 4 21.52                             129   -0.24 9  156 353 
 OCA  HZ I         6 4 24.96        66.4 0.36            131            156 353 
 ZAR  HZ EP   1    6 4  4.87                             121    0.05 6  203 291 
 ZAR  HE ES        6 4 30.49                             121    0.80 9  203 291 
 ZAR  HZ I         6 4 36.25        27.5 0.30            122            203 291 
 NOR  HZ EP        6 4  8.44                             117   -0.11 8  237 234 
 NOR  HE ES        6 4 35.92                             117   -0.39 8  237 234 
 NOR  HZ I         6 4 39.66        18.7 0.20            118            237 234 
 SML  HZ EP        6 4  8.36                             116   -0.46 8  240 335 
 SML  HE ES   1    6 4 36.45                             116   -0.36 6  240 335 
 SML  HZ I         6 4 41.20        27.7 0.10            118            240 335 
 CHI  HZ EP   1    6 4 10.93                             115    0.25 6  252 195 
 CHI  HE ES        6 4 39.76                             115   -0.36 8  252 195 
 CHI  HZ I         6 4 42.82        11.2 0.24            117            252 195 
 ROSC BZ EP        6 4 12.08                             115    1.01 8  256 211 
 ROSC BE ES   4    6 4 43.13                             115    2.32 0  256 211 
 ROSC BZ I         6 4 45.45        20.5 0.35            116            256 211 
 HEL  HZ EP        6 4 13.44                             113    0.49 8  273 255 
 HEL  HE ES   1    6 4 43.25                             113   -0.90 6  273 255 
 HEL  HZ I         6 4 50.09        12.4 0.44            114            273 255 
 SOCV BZ EP   4    6 4 13.65                             111   -1.78 0  299  57 
 SOCV BE ES   4    6 4 45.27                             111   -3.30 0  299  57 
 GUY2CHZ EP        6 4 16.48                             111   -0.03 7  304 234 
 GUY2CHE ES   1    6 4 50.29                             111   -0.21 5  304 234 
 GUY2CHZ I         6 4 59.22        10.5 0.24                           304 234 
 VIL  SE ES   1    6 4 50.02                             110   -0.43 5  307 191 
 VIL  SZ I         6 4 59.42        15.3 0.28            112            307 191 
 PTGC HZ EP   4    6 4 15.16                             110   -1.74 0  312 159 
 PTGC HN ES   4    6 4 48.63                             110   -2.56 0  312 159 
 PTGC HZ I         6 4 55.03        22.8 0.34            112            312 159 
 CBOC HZ EP        6 4 19.87                             108    0.13 7  335 251 
 CBOC HE ES   1    6 4 56.24                             108   -0.00 5  335 251 
 CBOC HZ I         6 5  8.27         3.6 0.42            110            335 251 
 DBB  SZ EP        6 4 19.97                             108   -0.17 7  339 274 
 DBB  SZ ES   1    6 4 56.36                             108   -0.60 5  339 274 
 DBB  SZ I         6 4 57.51        34.5 0.62            109            339 274 
 TOL  SZ EP        6 4 21.65                             108    0.38 6  346 224 
 TOL  SN ES        6 4 59.64                             108    0.69 6  346 224 
 TOL  SZ I         6 5  7.53        10.2 0.34            109            346 224 
 ANIL HZ EP   4    6 4 23.90                             107    1.07 0  360 224 
 ANIL HN ES   4    6 5  3.07                             107    1.33 0  360 224 
 ANIL HZ I         6 5  6.87        25.5 0.34            108            360 224 
 PRA  HZ EP   1    6 4 26.26                             105   -0.38 4  395 209 
 PRA  HN ES        6 5  8.31                             105   -0.21 6  395 209 
 PRA  HZ I         6 5 14.14         9.7 0.23            106            395 209 
 ORTC HZ EP        6 4 26.73                             105   -0.28 6  399 216 
 ORTC HE ES        6 5 10.04                             105    0.85 6  399 216 
 ORTC HZ I         6 5 14.69         7.5 0.20            106            399 216 
 SJC  HZ EP   4    6 4 26.60                             105   -1.32 0  406 327 
 SJC  HN ES   4    6 5  7.77                             105   -3.04 0  406 327 
 SJC  HZ I         6 5 11.27         8.2 0.52            106            406 327 
 PAL  HZ EP        6 4 28.02                             105   -0.12 6  408 239 
                                                                                
