 2010  4 8 0546 37.7 L   6.168 -73.356172.6  RSN  4 0.4 1.8LRSN                1
 GAP=237        0.60      16.0    23.0 17.8 -0.3404E+03 -0.2987E+03  0.2090E+03E
 Epicentro: GUADALUPE - SANTANDER                                              3
 ACTION:UPD 10-08-24 09:58 OP:vdl  STATUS:               ID:20100408054638 L   I
 2010-04-08-0544-17S.COL___097                                                 6
 STAT SP IPHASW D HRMM SECON CODA AMPLIT PERI AZIMU VELO AIN AR TRES W  DIS CAZ7
 BRR  HZ EP        547  3.99                             144    -0.110  111 339 
 BRR  HE ES   2    547 24.64                             144    -0.1 5  111 339 
 BRR  HZ I         547 26.36         6.8 0.14                           111 339 
 OCA  SZ EP        547 14.55                             124    -0.1 8  229   1 
 OCA  SZ ES   2    547 44.27                             124     0.8 4  229   1 
 OCA  SZ I         547 48.26         9.7 0.30                           229   1 
 HEL  HZ EP   3    547 16.72                             122     0.6 2  241 271 
 HEL  HE ES   3    547 44.85                             122    -1.2 2  241 271 
 HEL  HZ I         547 54.47         3.1 0.26                           241 271 
 RREF BZ EP   2    547 18.95                             120     0.4 4  261 238 
 RREF BN ES   2    547 50.78                             120     0.3 4  261 238 
 RREF BZ I         547 52.54         2.8 0.29                           261 238 
                                                                                
