 2012  8 8 0029 53.6 L   6.756 -73.187146.8  RSN  4 0.2 1.4LRSN                1
 GAP=229        0.56       5.3     4.7  6.8  0.1120E+02 -0.5484E+01 -0.3170E+01E
 Epicentro: VILLANUEVA - SANTANDER                                             3
 ACTION:UPD 12-09-10 11:55 OP:ep   STATUS:               ID:20120808002953 L   I
 2012-08-08-0030-00M.COL___216                                                 6
 STAT SP IPHASW D HRMM SECON CODA AMPLIT PERI AZIMU VELO AIN AR TRES W  DIS CAZ7
 BAR2 SZ EP   1    030 12.98                             173   -0.31 7 18.1 178 
 BAR2 SZ I         030 30.30         8.9 0.32                          18.1 178 
 BRR  HZ EP        030 15.16                             153    0.3410 69.8 304 
 BRR  HZ I         030 15.39         9.6 0.15                          69.8 304 
 BRR  HN ES   1    030 31.16                             153   -0.18 7 69.8 304 
 RUS  HZ EP        030 17.24                             145    0.0710 96.2 173 
 RUS  HN ES   1    030 35.59                             145    0.06 7 96.2 173 
 RUS  HZ I         030 37.50         2.1 0.44                          96.2 173 
 PTB  HZ EP        030 19.94                             133   -0.27 9  142 260 
 PTB  HN ES        030 41.01                             133    0.08 9  142 260 
 PTB  HZ I         030 42.97         2.7 0.41                           142 260 
                                                                                
