 2014  3 8 0056 13.7 L   6.812 -73.164135.3  RSN 20 0.4 2.5LRSN                1
 GAP= 70        1.01       2.5     3.0  6.2 -0.1212E+01  0.7065E+01  0.3107E+00E
 Epicentro: LOS SANTOS - SANTANDER                                             3
 ACTION:UPD 14-04-09 23:15 OP:nd   STATUS:               ID:20140308005613 L   I
 OLDACT:REG 14-03-08 08:46 OP:nd   STATUS:               ID:20140308005047     3
 2014-03-08-0050-47M.COL___238                                                 6
 STAT SP IPHASW D HRMM SECON CODA AMPLIT PERI AZIMU VELO AIN AR TRES W  DIS CAZ7
 PAM  SZ EP        056 35.33                             149    0.4810 77.6  41 
 PAM  SN ES        056 52.24                             149    0.9110 77.6  41 
 PAM  SZ I         056 53.88      1074.6 0.20            147           77.6  41 
 RUS  HZ EP     D  056 36.46                             141   -0.1110  102 175 
 RUS  HN ES        056 54.04                             141   -0.3610  102 175 
 RUS  HZ I         056 55.72        42.4 0.24            139            102 175 
 PTB  HZ EP        056 38.96                             130   -0.74 9  146 258 
 PTB  HN ES        056 59.54                             130   -0.42 9  146 258 
 PTB  HZ I         057  3.15        53.4 0.48            125            146 258 
 TAM  HZ EP        056 40.88                             127    0.08 9  157 105 
 TAM  HN ES        057  1.43                             127   -0.50 9  157 105 
 TAM  HZ I         057  6.26        16.5 0.28            126            157 105 
 OCA  HZ EP        056 40.81                             127   -0.27 9  159 354 
 OCA  HN ES        057  2.11                             127   -0.32 9  159 354 
 OCA  HZ I         057 10.40        66.6 0.50            124            159 354 
 SPBC HZ EP        056 41.59                             127    0.17 9  163 218 
 SPBC HN ES        057  3.33                             127    0.31 9  163 218 
 SPBC HZ I         057  7.28        63.1 0.22            123            163 218 
 ZAR  HZ EP        056 45.59                             120    0.33 9  202 292 
 ZAR  HN ES   2    057 10.32                             120    0.46 4  202 292 
 ZAR  HZ I         057 19.10        42.4 0.28            116            202 292 
 NOR  HZ EP        056 48.87                             116    0.10 8  234 234 
 NOR  HN ES        057 16.01                             116   -0.11 8  234 234 
 NOR  HZ I         057 18.31        30.9 0.16            113            234 234 
 SML  HZ EP        056 49.67                             115    0.12 8  242 336 
 SML  HN ES        057 16.93                             115   -0.57 8  242 336 
 SML  HZ I         057 21.74        82.3 0.10            112            242 336 
 CHI  HZ EP        056 50.74                             115   -0.21 8  249 195 
 CHI  HN ES        057 19.83                             115   -0.16 8  249 195 
 CHI  HZ I         057 26.93         7.7 0.38            112            249 195 
 ROSC BZ EP   4    056 52.39                             114    1.08 0  253 210 
 ROSC BN ES   4    057 21.13                             114    0.51 0  253 210 
 ROSC BZ I         057 30.26        18.5 0.35            112            253 210 
 HEL  HZ EP   4    056 54.91                             113    1.67 0  270 255 
 HEL  HN ES   2    057 24.22                             113    0.15 4  270 255 
 HEL  HZ I         057 31.74        17.8 0.34            110            270 255 
 URE  HZ EP   4    056 52.97                             112   -1.06 0  281 292 
 URE  HE ES   4    057 25.57                             112    0.09 0  281 292 
 URE  HZ I         057 30.55        21.7 0.66            108            281 292 
 GUY2CHZ EP        056 58.04                             110    1.27 7  300 234 
 GUY2CHN ES   4    057 29.19                             110   -1.16 0  300 234 
 GUY2CHZ I         057 42.53        14.3 0.56                           300 234 
 PTGC HZ EP   4    056 55.73                             109   -1.62 0  311 158 
 PTGC HN ES   4    057 27.97                             109   -3.42 0  311 158 
 PTGC HZ I         057 34.86        16.1 0.32            107            311 158 
 CBOC HZ EP        056 59.80                             108   -0.25 7  332 252 
 CBOC HN ES        057 36.32                             108    0.13 7  332 252 
 CBOC HZ I         057 41.42         7.2 0.26            105            332 252 
 DBB  SZ EP        057  0.63                             108    0.08 7  337 274 
 DBB  SZ I         057 41.10        13.5 0.34            105            337 274 
 COD  HZ EP   4    057  0.69                             107   -0.83 0  347 355 
 COD  HN ES   4    057 37.33                             107   -1.48 0  347 355 
 COD  HZ I         057 46.72         3.3 0.38            104            347 355 
 ORTC HZ EP        057  7.06                             104   -0.23 6  395 216 
 ORTC HN ES        057 49.52                             104    0.44 6  395 216 
 ORTC HZ I         057 56.54         4.5 0.14            102            395 216 
 SJC  HZ EP   4    057  7.39                             104   -1.30 0  407 327 
 SJC  HN ES   4    057 48.11                             104   -3.46 0  407 327 
 SJC  HZ I         057 52.82        11.3 0.56            102            407 327 
                                                                                
