 2016 12 8 0709 44.7 L   6.795 -73.146150.4  RSN  7 0.4 1.5LRSN                1
 GAP=119        0.86       3.7     4.4  5.7 -0.9149E+00  0.1484E+01  0.6323E+01E
 Epicentro: LOS SANTOS - SANTANDER                                             3
 ACTION:UPD 17-01-11 20:13 OP:rebc STATUS:               ID:20161208070944 L   I
 OLDACT:REG 16-12-08 13:34 OP:ar   STATUS:               ID:20161208070646     3
 2016-12-08-0707-00M.COL___367                                                 6
 STAT SP IPHASW D HRMM SECON CODA AMPLIT PERI AZIMU VELO AIN AR TRES W  DIS CAZ7
 BAR2 EZ EP        710  4.76                             171   -0.1510 22.8 190 
 BAR2 EZ ES        710 20.27                             171   -0.3810 22.8 190 
 BAR2 EZ I         710 20.75        10.4 0.36            170           22.8 190 
 BRR  HZ EP        710  6.51                             153    0.1210 71.4 299 
 BRR  HN ES        710 23.74                             153    0.4510 71.4 299 
 BRR  HZ I         710 27.64         6.0 0.30            151           71.4 299 
 PAM  EZ EP        710  7.66                             151    0.2010 77.8  39 
 PAM  EE ES        710 25.00                             151   -0.1910 77.8  39 
 PAM  EZ I         710 26.88         4.8 0.56            154           77.8  39 
 RUS  HZ EP        710  9.31                             145    0.4110  100 176 
 RUS  HN ES        710 28.04                             145    0.2810  100 176 
 RUS  HZ I         710 28.38         2.4 0.18            146            100 176 
 PTB  HZ EP        710 11.52                             133   -0.55 9  148 259 
 PTB  HE ES        710 33.11                             133   -0.29 9  148 259 
 PTB  HZ I         710 39.12         3.7 0.34            132            148 259 
 CHI  HZ EP        710 23.08                             118    0.44 8  248 195 
 CHI  HN ES        710 52.14                             118   -0.06 8  248 195 
 CHI  HZ I         710 55.67         2.7 0.54            119            248 195 
 PTGC HZ EP   2    710 27.90                             112   -0.84 4  308 159 
 PTGC HN ES   2    711  2.01                             112   -1.06 4  308 159 
                                                                                
