 2010 11 8 0819 46.8 L   6.733 -73.157154.8  RSN  4 0.2 1.5LRSN                1
 GAP=181        0.44       4.9    13.4  7.7  0.3647E+02 -0.3624E+02 -0.1459E+02E
 Epicentro: VILLANUEVA - SANTANDER                                             3
 ACTION:UP  10-12-17 16:51 OP:REBC STATUS:               ID:20101108081946 L   I
 2010-11-08-0818-55S.COL___128                                                 6
 STAT SP IPHASW D HRMM SECON CODA AMPLIT PERI AZIMU VELO SNR AR TRES W  DIS CAZ7
 BAR2 SZ EP   2    820  7.21                             174    -0.2 5   16 191 
 BAR2 SZ I         820 14.08        11.9 0.32                            16 191 
 BAR2 SZ ES   2    820 23.50                             174     0.0 5   16 191 
 BRR  HZ EP   2    820  9.30                             153     0.2 5   74 304 
 BRR  HN ES   2    820 26.40                             153    -0.1 5   74 304 
 BRR  HZ I         820 60.00         7.0 0.39                            74 304 
 RUS  HZ EP   2    820 10.65                             148    -0.3 5   93 175 
 RUS  HE ES   2    820 30.11                             148     0.3 5   93 175 
 RUS  HZ I         820 31.12         2.4 0.31                            93 175 
 OCA  SZ EP   2    820 16.89                             130     0.4 5  167 354 
 OCA  SZ ES   2    820 39.53                             130    -0.1 5  167 354 
 OCA  SZ I         820 44.76         2.4 0.19                           167 354 
                                                                                
