 2016  9 8 0732 47.7 L   6.818 -73.141155.5  RSN 21 0.5 2.2LRSN                1
 GAP= 53        1.20       3.2     3.4  5.3 -0.1452E+01  0.2625E+00  0.1432E+01E
 Epicentro: LOS SANTOS - SANTANDER                                             3
 ACTION:UPD 17-08-17 21:07 OP:lp   STATUS:               ID:20160908073247 L   I
 OLDACT:UP  16-09-08 16:08 OP:dani STATUS:               ID:20160908072733     3
 OLDACT:UP  16-09-08 16:07 OP:dani STATUS:               ID:20160908072733     3
 OLDACT:UP  16-09-08 16:02 OP:dani STATUS:               ID:20160908072733     3
 OLDACT:UP  16-09-08 16:02 OP:dani STATUS:               ID:20160908072733     3
 OLDACT:REG 16-09-08 12:36 OP:dani STATUS:               ID:20160908072733     3
 2016-09-08-0728-00M.COL___344                                                 6
 STAT SP IPHASW D HRMM SECON CODA AMPLIT PERI AZIMU VELO AIN AR TRES W  DIS CAZ7
 BAR2 EZ EP     D  733  8.53                             170   -0.0510 25.4 190 
 BAR2 EZ ES        733 24.00                             170   -0.8310 25.4 190 
 BAR2 EZ I         733 25.15        68.7 0.22            169           25.4 190 
 BRR  HZ EP     C  733 10.39                             154    0.4710 70.7 297 
 BRR  HE ES        733 27.94                             154    0.7210 70.7 297 
 BRR  HZ I         733 31.42        35.1 0.46            142           70.7 297 
 PAM  EZ EP     C  733 11.28                             153    0.3910 75.5  40 
 PAM  EE ES        733 28.78                             153   -0.1710 75.5  40 
 PAM  EZ I         733 30.78        28.6 0.56            144           75.5  40 
 RUS  HZ EP     D  733 12.39                             145   -0.2010  103 176 
 RUS  HN ES   4    733 31.05                             145   -0.93 0  103 176 
 RUS  HZ I         733 32.34        17.4 0.34            138            103 176 
 PTB  HZ EP        733 15.45                             134   -0.14 9  149 258 
 PTB  HN ES        733 36.72                             134   -0.60 9  149 258 
 PTB  HZ I         733 39.51        21.4 0.12            122            149 258 
 TAM  HZ EP     D  733 16.68                             133    0.47 9  155 106 
 TAM  HE ES        733 38.76                             133    0.35 9  155 106 
 TAM  HZ I         733 40.05         9.5 0.27            124            155 106 
 OCA  HZ EP        733 16.56                             132   -0.09 9  158 353 
 OCA  HE ES        733 39.42                             132    0.22 9  158 353 
 OCA  HZ I         733 41.94        35.8 0.24            120            158 353 
 SPBC HZ EP        733 17.39                             131    0.22 9  165 219 
 SPBC HN ES        733 39.77                             131   -0.36 9  165 219 
 SPBC HZ I         733 41.73        46.5 0.13            120            165 219 
 ZAR  HZ EP        733 21.52                             124    0.71 9  204 292 
 ZAR  HE ES        733 46.79                             124    0.19 9  204 292 
 ZAR  HZ I         733 54.09        20.0 0.44            113            204 292 
 NOR  HZ EP        733 24.57                             120    0.36 8  236 234 
 NOR  HE ES        733 52.51                             120   -0.15 8  236 234 
 NOR  HZ I         734  0.11        13.8 0.18            111            236 234 
 CHI  HZ EP        733 26.37                             119    0.16 8  251 195 
 CHI  HN ES        733 55.95                             119   -0.27 8  251 195 
 CHI  HZ I         734  0.29         6.4 0.24            110            251 195 
 ROSC BZ EP   9    733 28.47                             118    1.85 0  255 211 
 ROSC BE ES        733 58.71                             117   -0.08 8  255 211 
 ROSC BZ I         734  4.60        18.1 0.50            109            255 211 
 HEL  HZ EP   9    733 29.76                             117    1.19 0  273 255 
 HEL  HN ES        734  2.23                             116    0.62 8  273 255 
 HEL  HZ I         734  8.03         7.3 0.32            107            273 255 
 URE  HZ EP        733 28.44                             115   -0.83 7  284 292 
 URE  HN ES   4    733 59.37                             115   -2.29 0  284 292 
 URE  HZ I         734 13.55        12.8 0.17            106            284 292 
 SOCV BZ EP        733 31.20                             114    0.12 7  300  57 
 SOCV BN ES   4    734  3.16                             114   -1.73 0  300  57 
 VIL  EE ES        734  6.86                             114    0.61 7  305 192 
 VIL  EZ I         734  8.97        10.3 0.36            105            305 192 
 PTGC HZ EP        733 31.34                             113   -0.89 7  310 159 
 PTGC HN ES   4    734  4.73                             113   -2.21 0  310 159 
 PTGC HZ I         734 15.49         4.0 0.32            105            310 159 
 LL6C HZ EP        733 32.22                             112   -1.43 7  323 357 
 LL6C HZ I         734 29.64         5.9 0.45            103            323 357 
 CBOC HZ EP        733 36.07                             111    0.88 7  335 252 
 CBOC HZ I         734 26.59         2.2 0.17            103            335 252 
 SJC  HZ EP        733 42.53                             107   -0.94 6  408 327 
 SJC  HN ES   4    734 24.04                             107   -2.90 0  408 327 
 SJC  HZ I         734 28.13         2.8 0.32             99            408 327 
 CRJC HZ EP   9    733 48.75                             105   -1.54 0  466   3 
 CRJC HN ES        734 36.99                             105   -0.55 5  466   3 
 CRJC HZ I         734 41.10         4.7 0.24             97            466   3 
                                                                                
