 2014  9 8 0539 26.7 L   6.838 -73.153141.6  RSN  7 0.4 1.7LRSN                1
 GAP=194        0.97       4.0     7.2  7.1 -0.5883E+01  0.4368E+01 -0.4354E+01E
 Epicentro: LOS SANTOS - SANTANDER                                             3
 ACTION:UPD 14-10-03 23:03 OP:nd   STATUS:               ID:20140908053926 L   I
 OLDACT:REG 14-09-08 13:10 OP:mh   STATUS:               ID:20140908053817     3
 2014-09-08-0538-17M.COL___257                                                 6
 STAT SP IPHASW D HRMM SECON CODA AMPLIT PERI AZIMU VELO AIN AR TRES W  DIS CAZ7
 BAR2 SZ EP   1    539 46.02                             169    0.07 7 27.4 187 
 BAR2 SZ ES   1    540  0.49                             169   -0.45 7 27.4 187 
 BAR2 SZ I         540  2.26        10.5 0.45            167           27.4 187 
 BRR  HZ EP        539 47.81                             153    0.5410 68.6 296 
 BRR  HN ES        540  3.64                             153    0.3310 68.6 296 
 BRR  HZ I         540  7.07        10.5 0.20            147           68.6 296 
 PTB  HZ EP        539 52.73                             131   -0.63 9  148 257 
 PTB  HN ES   1    540 13.74                             131   -0.41 7  148 257 
 PTB  HZ I         540 17.42         6.4 0.27            129            148 257 
 OCA  HZ EP   1    539 54.65                             130    0.34 7  156 353 
 OCA  HN ES        540 15.85                             130    0.03 9  156 353 
 OCA  HZ I         540 20.89         6.1 0.38            130            156 353 
 SPBC HZ EP   1    539 54.90                             128   -0.28 7  166 218 
 SPBC HN ES   1    540 17.51                             128    0.14 7  166 218 
 SPBC HZ I         540 25.06         4.4 0.58            128            166 218 
 ZAR  HZ EP        539 59.33                             122    0.67 9  202 291 
 ZAR  HN ES   1    540 23.85                             122    0.27 6  202 291 
 ZAR  HZ I         540 30.66         5.4 0.36            121            202 291 
 SML  HZ EP        540  2.40                             117   -0.26 8  240 335 
 SML  HN ES        540 29.97                             117   -0.73 8  240 335 
 SML  HZ I         540 39.52         7.4 0.10            118            240 335 
                                                                                
