 2016 11 8 0321  2.6 L   7.395 -72.848  0.0  RSN  7 0.4 1.4LRSN                1
 GAP=121        1.04       4.8     4.7  6.4  0.8698E+01  0.2763E+02  0.1083E+02E
 Epicentro: VETAS - SANTANDER                                                  3
 ACTION:UPD 17-10-26 21:05 OP:lp   STATUS:               ID:20161108032102 L   I
 OLDACT:REG 16-11-08 11:46 OP:lv   STATUS:               ID:20161108031745     3
 2016-11-08-0318-00M.COL___349                                                 6
 STAT SP IPHASW D HRMM SECON CODA AMPLIT PERI AZIMU VELO AIN AR TRES W  DIS CAZ7
 PAM  EZ IP     D  321  6.09                             102   -0.2810 17.5 110 
 PAM  EN ES        321  9.37                             102    0.0910 17.5 110 
 PAM  EZ I         321  9.88        92.8 0.36            108           17.5 110 
 BAR2 EZ EP        321 18.75                              47    0.1310 96.1 203 
 BAR2 EZ ES        321 31.23                              47    0.1510 96.1 203 
 BAR2 EZ I         321 33.22         8.5 0.26             47           96.1 203 
 BRR  HZ EP        321 18.11                              47   -0.9310  101 252 
 BRR  HE ES        321 31.87                              47    0.0410  101 252 
 BRR  HZ I         321 40.29         3.7 0.14             47            101 252 
 PTB  HZ EP        321 34.34                              37    0.60 9  201 242 
 PTB  HN ES        321 57.64                              37   -0.37 9  201 242 
 PTB  HZ I         321 59.16         5.7 0.26             37            201 242 
 ZAR  HZ EP        321 37.06                              37    0.72 8  222 273 
 ZAR  HN ES        322  2.80                              37    0.18 8  222 273 
 ZAR  HZ I         322  4.56         1.8 0.10             37            222 273 
 SPBC HZ EP   9    321 41.43                              37    3.32 0  236 215 
 SPBC HN ES        322  8.89                                   -0.21 8  236 215 
 SPBC HZ I         322 14.43         7.3 0.10             37            236 215 
 LL6C HZ EP   9    321 24.58                              37   -16.9 0  263 350 
 LL6C HE ES        321 54.65                                   -0.19 8  263 350 
                                                                                
