 2016  9 8 0602  8.4 L   6.790 -73.132151.9  RSN  7 0.3 1.3LRSN                1
 GAP=139        0.76       3.7     4.6  6.1 -0.4788E+01  0.3987E+01  0.3518E+01E
 Epicentro: LOS SANTOS - SANTANDER                                             3
 ACTION:UPD 17-08-17 21:07 OP:lp   STATUS:               ID:20160908060208 L   I
 OLDACT:UP  16-09-08 15:54 OP:dani STATUS:               ID:20160908055736     3
 OLDACT:UP  16-09-08 15:46 OP:dani STATUS:               ID:20160908055736     3
 OLDACT:REG 16-09-08 12:31 OP:dani STATUS:               ID:20160908055736     3
 2016-09-08-0558-00M.COL___344                                                 6
 STAT SP IPHASW D HRMM SECON CODA AMPLIT PERI AZIMU VELO AIN AR TRES W  DIS CAZ7
 BRR  HZ EP        6 2 30.43                             153    0.1510 73.0 299 
 BRR  HN ES        6 2 47.67                             153    0.3010 73.0 299 
 BRR  HZ I         6 2 50.63         5.7 0.39            151           73.0 299 
 PAM  EZ EP        6 2 31.41                             152    0.1810 77.3  38 
 PAM  EE ES        6 2 48.86                             152   -0.2110 77.3  38 
 PAM  EZ I         6 2 51.20         3.6 0.65            155           77.3  38 
 RUS  HZ EP        6 2 32.66                             145    0.0210 99.4 177 
 RUS  HE ES        6 2 51.36                             145   -0.2110 99.4 177 
 RUS  HZ I         6 2 53.37         1.7 0.33            147           99.4 177 
 PTB  HZ EP        6 2 35.42                             133   -0.53 9  149 259 
 PTB  HE ES   2    6 2 56.56                             133   -0.90 5  149 259 
 PTB  HZ I         6 2 58.00         2.1 0.17            133            149 259 
 SPBC HZ EP        6 2 37.62                             130    0.27 9  163 220 
 SPBC HN ES        6 3  0.18                             130    0.23 9  163 220 
 SPBC HZ I         6 3  3.70         3.2 0.19            131            163 220 
 ZAR  HN ES   4    6 3  6.72                             123   -0.45 0  206 292 
 HEL  HN ES   4    6 3 24.59                             116    3.85 0  273 256 
 HEL  HZ I         6 3 28.70         1.0 0.57            116            273 256 
 BOAV HZ EP        6 2 50.49                              93   -99.9 0 1481 109 
                                                                                
