 2014  1 8 0923  3.7 L   6.832 -73.192136.2  RSN 13 0.5 1.9LRSN                1
 GAP=129        1.27       3.1     4.6  7.1 -0.3422E+01  0.1378E+02 -0.1035E+01E
 Epicentro: ZAPATOCA - SANTANDER                                               3
 ACTION:UPD 14-03-13 09:52 OP:ep   STATUS:               ID:20140108092303 L   I
 OLDACT:REG 14-01-08 07:39 OP:carl STATUS:               ID:20140108092000     3
 2014-01-08-0920-00M.COL___285                                                 6
 STAT SP IPHASW D HRMM SECON CODA AMPLIT PERI AZIMU VELO AIN AR TRES W  DIS CAZ7
 BAR2 SZ EP        923 22.20                             168   -0.0410 26.6 178 
 BAR2 SZ ES        923 37.37                             168    0.6510 26.6 178 
 BAR2 SZ I         923 39.74        17.3 0.48            167           26.6 178 
 PAM  SZ EP        923 25.08                             149    0.1410 78.1  44 
 PAM  SN ES        923 41.95                             149    0.4310 78.1  44 
 RUS  HZ EP        923 26.29                             141   -0.5310  105 173 
 RUS  HN ES        923 45.07                             141    0.2110  105 173 
 RUS  HZ I         923 46.72        13.1 0.36            144            105 173 
 PTB  HZ EP        923 29.11                             131   -0.38 9  143 257 
 PTB  HN ES        923 48.89                             131   -0.73 9  143 257 
 PTB  HZ I         923 52.37        12.6 0.12            130            143 257 
 OCA  HZ EP        923 31.53                             128    0.66 9  156 355 
 OCA  HN ES        923 51.19                             128   -0.89 9  156 355 
 OCA  HZ I         923 56.61        10.2 0.16            131            156 355 
 SPBC HZ EP        923 31.27                             127   -0.17 9  163 217 
 SPBC HN ES        923 52.12                             127   -0.96 9  163 217 
 SPBC HZ I         924  0.45        11.0 0.40            128            163 217 
 ZAR  HZ EP        923 35.41                             121    0.53 9  198 292 
 ZAR  HN ES        923 59.43                             121    0.21 9  198 292 
 ZAR  HZ I         924  9.36         5.5 0.30            122            198 292 
 NOR  HN ES        924  6.58                             117    0.64 8  233 233 
 NOR  HN I         924 14.35        16.5 0.18            118            233 233 
 SML  HZ EP        923 38.56                             116   -0.64 8  238 336 
 SML  HE ES        924  6.85                             116   -0.05 8  238 336 
 SML  HZ I         924 10.49        12.0 0.20            118            238 336 
 CHI  HZ EP        923 40.66                             115   -0.45 8  251 194 
 CHI  HN ES        924  9.95                             115   -0.36 8  251 194 
 CHI  HZ I         924 16.50         2.4 0.38            117            251 194 
 GUY2CHZ EP        923 47.56                             111    0.93 7  299 234 
 GUY2CHE ES        924 20.87                             111    0.74 7  299 234 
 GUY2CHZ I         924 28.78         3.9 0.54                           299 234 
 RREF HZ EP        923 49.30                             109    0.05 7  320 228 
 RREF HN ES        924 24.89                             109    0.09 7  320 228 
 RREF HZ I         924 34.67         3.1 0.24            111            320 228 
 CBOC HZ EP        923 50.51                             108    0.73 7  330 251 
 CBOC HN ES        924 25.67                             108   -0.07 7  330 251 
 CBOC HZ I         924 36.03         1.4 0.58            110            330 251 
                                                                                
