 2013  4 8 0346 48.7 L   7.447 -73.417112.7  RSN  6 0.5 1.9LRSN                1
 GAP=142        1.12       4.9     6.0 10.1  0.6381E+00  0.2377E+02  0.1682E+01E
 Epicentro: SABANA DE TORRES - SANTANDER                                       3
 ACTION:UPD 13-05-22 14:36 OP:EP   STATUS:               ID:20130408034648 L   I
 2013-04-08-0338-49M.COL___218                                                 6
 STAT SP IPHASW D HRMM SECON CODA AMPLIT PERI AZIMU VELO AIN AR TRES W  DIS CAZ7
 GIR2 SZ EP        347  5.54                             155    0.4010 47.6 149 
 BRR  HZ EP        347  5.23                             154    0.1810 49.7 221 
 BRR  HN ES        347 17.94                             154    0.1210 49.7 221 
 BRR  HN I         347 18.48        47.6 0.20            153           49.7 221 
 OCA  HN ES        347 22.36                             139   -0.4610 88.2   7 
 OCA  HN I         347 23.22        33.3 0.20            142           88.2   7 
 BAR2 SZ ES        347 24.56                             136    0.1010 98.0 165 
 BAR2 SZ I         347 27.12        10.6 0.38            136           98.0 165 
 PTB  HZ EP        347 13.07                             122   -0.59 9  153 229 
 PTB  HN ES   1    347 32.07                             122   -1.08 7  153 229 
 PTB  HE I         347 36.48         6.9 0.28            123            153 229 
 ZAR  HZ EP        347 14.68                             121    0.34 9  159 272 
 ZAR  HN ES        347 34.84                             121    0.48 9  159 272 
                                                                                
