 2011 10 8 0512 53.6 L   6.684 -73.518113.6  RSN  5 0.3 1.6LRSN                1
 GAP=184        0.59       3.9     5.9  7.1  0.5196E+01  0.2302E+01  0.3601E+01E
 Epicentro: EL CARMEN DE CHUCURI - SANTANDER                                   3
 ACTION:UPD 12-07-13 16:02 OP:ep   STATUS:               ID:20111008051253 L   I
 2011-10-08-0500-00M.COL___169                                                 6
 STAT SP IPHASW D HRMM SECON CODA AMPLIT PERI AZIMU VELO AIN AR TRES W  DIS CAZ7
 BAR2 SZ EP   1    513 10.35                             160    0.50 7 38.5 105 
 BAR2 SZ ES   1    513 22.59                             160    0.04 7 38.5 105 
 BAR2 SZ I         513 23.70        10.1 0.22                          38.5 105 
 BRR  HZ EP   1    513  9.81                             154   -0.31 7 51.5 335 
 BRR  HN ES   1    513 23.02                             154   -0.02 7 51.5 335 
 BRR  HZ I         513 29.52        11.6 0.46                          51.5 335 
 GIR2 SZ EP   1    513 10.97                             152    0.36 7 56.5  39 
 RUS  HZ EP   1    513 13.95                             136   -0.29 7 99.8 151 
 RUS  HE ES   1    513 30.32                             136   -0.05 7 99.8 151 
 PAM  SN ES   1    513 32.67                             131   -0.23 7  116  51 
                                                                                
