 2016  2 8 0115 32.3 L   6.879 -73.335116.9  RSN 11 0.4 1.8LRSN                1
 GAP= 98        0.93       2.7     3.8  6.2 -0.1411E+01  0.9874E+01 -0.3006E+01E
 Epicentro: BETULIA - SANTANDER                                                3
 ACTION:UPD 16-03-04 21:24 OP:rebc STATUS:               ID:20160208011532 L   I
 OLDACT:REG 16-02-08 12:27 OP:dnl  STATUS:               ID:20160208010744     3
 2016-02-08-0107-44M.COL___334                                                 6
 STAT SP IPHASW D HRMM SECON CODA AMPLIT PERI AZIMU VELO AIN AR TRES W  DIS CAZ7
 BAR2 EZ EP        115 49.22                             162    0.3210 35.9 152 
 BAR2 EZ ES        116  2.00                             162    0.1810 35.9 152 
 BAR2 EZ I         116  3.69        48.4 0.26            167           35.9 152 
 PAM  EZ EP        115 52.51                             141    0.2510 86.8  54 
 PAM  EE ES        116  8.00                             141    0.2010 86.8  54 
 PAM  EZ I         116 11.54         8.2 0.16            146           86.8  54 
 RUS  HZ EP        115 54.10                             133   -0.3010  113 166 
 RUS  HE ES        116 11.25                             133   -0.3610  113 166 
 RUS  HZ I         116 13.92         3.8 0.27            137            113 166 
 PTB  HZ EP        115 54.63                             129   -0.6910  130 253 
 PTB  HE ES        116 13.06                             129   -0.2010  130 253 
 PTB  HZ I         116 16.73        11.3 0.20            128            130 253 
 OCA  HZ EP        115 57.37                             124   -0.20 9  150   1 
 OCA  HE ES        116 17.05                             124   -0.20 9  150   1 
 OCA  HZ I         116 18.47        24.4 0.14            125            150   1 
 SPBC HZ EP        115 58.75                             122    0.47 9  158 211 
 SPBC HN ES   2    116 18.21                             122   -0.31 5  158 211 
 SPBC HZ I         116 20.52         8.6 0.09            124            158 211 
 ZAR  HZ EP        116  1.21                             118    0.60 9  181 292 
 ZAR  HN ES   2    116 23.88                             118    1.22 4  181 292 
 ZAR  HZ I         116 29.44         5.0 0.09            118            181 292 
 SML  HZ EP        116  5.27                             112   -0.42 8  228 339 
 SML  HN ES   2    116 31.21                             112   -0.49 4  228 339 
 SML  HZ I         116 35.34        17.7 0.10            113            228 339 
 CHI  HZ EP        116  9.43                             110    0.38 8  253 190 
 CHI  HN ES   4    116 36.17                             110   -1.53 0  253 190 
 CHI  HZ I         116 43.38         1.9 0.52            112            253 190 
 URE  HZ EP   4    116 11.57                             109    2.03 0  261 292 
 URE  HN ES   4    116 37.59                             109   -0.98 0  261 292 
 URE  HZ I         116 39.86         5.5 0.16            110            261 292 
 MON  HZ EP   4    116 16.68                             104   -1.11 0  332 309 
 MON  HE ES   2    116 52.68                             104   -0.57 3  332 309 
 MON  HZ I         117 13.02         2.3 0.40            105            332 309 
                                                                                
