 2016  1 8 0325 51.1 L   6.838 -73.152145.6  RSN 11 0.4 2.0LRSN                1
 GAP=134        0.90       2.8     3.4  5.0 -0.2284E+01  0.4795E+01 -0.6246E+00E
 Epicentro: LOS SANTOS - SANTANDER                                             3
 ACTION:UPD 16-03-09 23:23 OP:cam  STATUS:               ID:20160108032551 L   I
 OLDACT:REG 16-01-08 12:27 OP:drio STATUS:               ID:20160108031737     3
 2016-01-08-0317-37M.COL___280                                                 6
 STAT SP IPHASW D HRMM SECON CODA AMPLIT PERI AZIMU VELO AIN AR TRES W  DIS CAZ7
 BAR2 EZ EP        326 10.69                             169   -0.1010 27.3 187 
 BAR2 EZ ES        326 25.80                             169   -0.3610 27.3 187 
 BAR2 EZ I         326 29.02        11.0 0.20            172           27.3 187 
 BRR  HZ EP        326 12.62                             153    0.5310 68.7 296 
 BRR  HN ES        326 28.87                             153    0.4110 68.7 296 
 BRR  HZ I         326 32.86        20.3 0.40            151           68.7 296 
 PAM  EZ EP        326 13.68                             152    0.5510 74.7  42 
 PAM  EN ES        326 30.45                             152    0.1310 74.7  42 
 PAM  EZ I         326 33.16        18.8 0.64            153           74.7  42 
 RUS  HZ EP        326 15.17                             143    0.0310  105 176 
 RUS  HN ES        326 33.79                             143   -0.1010  105 176 
 PTB  HZ EP        326 17.98                             132   -0.08 9  148 257 
 PTB  HN ES        326 38.41                             132   -0.69 9  148 257 
 PTB  HZ I         326 41.16        14.2 0.14            133            148 257 
 OCA  HZ EP        326 18.86                             130   -0.14 9  156 353 
 OCA  HN ES        326 40.38                             130   -0.38 9  156 353 
 OCA  HZ I         326 49.12        28.8 0.44            131            156 353 
 SPBC HZ EP        326 19.56                             128   -0.29 9  166 218 
 SPBC HN ES        326 42.49                             128    0.21 9  166 218 
 SPBC HZ I         326 44.15        10.6 0.10            131            166 218 
 ZAR  HZ EP   4    326 24.92                             123    1.62 0  202 291 
 ZAR  HN ES        326 48.81                             123    0.39 9  202 291 
 ZAR  HZ I         326 54.43        14.1 0.30            123            202 291 
 SML  HZ EP        326 26.61                             118   -0.66 8  240 335 
 HEL  HZ EP   4    326 32.58                             115    1.24 0  272 255 
 HEL  HE ES        327  2.89                             115    0.16 8  272 255 
 HEL  HZ I         327  9.86         4.8 0.40            116            272 255 
 GUY2CHZ EP        326 35.11                             112    0.20 7  303 234 
 GUY2CHN ES        327  9.13                             112    0.05 7  303 234 
 GUY2CHZ I         327 18.26         5.0 0.58                           303 234 
 SJC  HZ EP   4    326 44.97                             106   -1.23 0  405 327 
 SJC  HN ES   4    327 26.87                             106   -2.30 0  405 327 
                                                                                
