 2017  3 8 0759 36.0 L   6.749 -73.156118.0  RSN  6 0.3 1.1LRSN                1
 GAP=232        0.74       3.7     4.2  7.5  0.6909E+01  0.2899E+01  0.2591E+01E
 Epicentro: LOS SANTOS - SANTANDER                                             3
 ACTION:UPD 17-05-25 18:37 OP:jn   STATUS:               ID:20170308075936 L   I
 OLDACT:UP  17-03-08 20:18 OP:and  STATUS:               ID:20170308075741     3
 OLDACT:UP  17-03-08 20:18 OP:and  STATUS:               ID:20170308075741     3
 OLDACT:UP  17-03-08 20:17 OP:and  STATUS:               ID:20170308075741     3
 OLDACT:UP  17-03-08 20:17 OP:and  STATUS:               ID:20170308075741     3
 OLDACT:UP  17-03-08 20:17 OP:and  STATUS:               ID:20170308075741     3
 OLDACT:UP  17-03-08 20:16 OP:and  STATUS:               ID:20170308075741     3
 OLDACT:UP  17-03-08 20:15 OP:and  STATUS:               ID:20170308075741     3
 OLDACT:UP  17-03-08 20:15 OP:and  STATUS:               ID:20170308075741     3
 OLDACT:UP  17-03-08 20:14 OP:and  STATUS:               ID:20170308075741     3
 OLDACT:UP  17-03-08 20:13 OP:and  STATUS:               ID:20170308075741     3
 OLDACT:UP  17-03-08 20:13 OP:and  STATUS:               ID:20170308075741     3
 OLDACT:REG 17-03-08 13:05 OP:and  STATUS:               ID:20170308075741     3
 2017-03-08-0758-00M.COL___326                                                 6
 STAT SP IPHASW D HRMM SECON CODA AMPLIT PERI AZIMU VELO AIN AR TRES W  DIS CAZ7
 BAR2 EZ EP        759 52.52                             171    0.3410 17.6 190 
 BRR  HZ EP        759 54.70                             145    0.3410 73.1 303 
 BRR  HN ES        8 0  8.29                             145   -0.3910 73.1 303 
 BRR  HZ I         8 0 12.51         2.8 0.20            147           73.1 303 
 RUS  HZ EP        759 56.63                             138   -0.0510 95.0 175 
 RUS  HN ES        8 0 12.62                             138   -0.1910 95.0 175 
 RUS  HZ I         8 0 13.12         2.3 0.34            141           95.0 175 
 PTB  HZ EP   3    759 59.62                             125   -1.03 2  146 261 
 PTB  HN ES        8 0 19.94                             125    0.06 9  146 261 
 PTB  HZ I         8 0 21.59         1.9 0.19            127            146 261 
 SPBC HZ EP        8 0  1.61                             122   -0.40 9  158 220 
 SPBC HN ES        8 0 22.63                             122    0.33 9  158 220 
 SPBC HZ I         8 0 26.41         2.7 0.12            125            158 220 
 ZAR  HZ EP   4    8 0  4.59                             115   -2.35 0  205 294 
 ZAR  HN ES        8 0 31.08                             115    0.02 8  205 294 
                                                                                
