 2010  7 8 0704 58.9 L   6.837 -73.018146.2  RSN  9 0.4 2.2LRSN                1
 GAP=196        0.80       4.4     9.7  8.0 -0.2718E+01  0.1876E+02  0.6866E+01E
 Epicentro: CEPITA - SANTANDER                                                 3
 ACTION:UPD 10-12-01 15:16 OP:pat  STATUS:               ID:20100708070458 L   I
 2010-07-08-0702-50S.COL___116                                                 6
 STAT SP IPHASW D HRMM SECON CODA AMPLIT PERI AZIMU VELO AIN AR TRES W  DIS CAZ7
 BAR2 SZ IP     D  7 5 19.02                             167     0.210   33 214 
 BAR2 SZ ES   2    7 5 33.97                             167    -0.4 5   33 214 
 BRR  HZ IP     C  7 5 20.90                             149     0.110   82 291 
 BRR  HZ I         7 5 21.20        77.8 0.24                            82 291 
 BRR  HE ES   2    7 5 38.25                             149     0.4 5   82 291 
 RUS  HZ EP   1    7 5 22.89                             143    -0.1 7  105 184 
 RUS  HN ES   2    7 5 41.75                             143    -0.1 5  105 184 
 RUS  HZ I         7 5 42.85        10.7 0.36                           105 184 
 OCA  SZ EP   1    7 5 26.90                             130    -0.2 7  159 348 
 OCA  SZ ES   2    7 5 48.58                             130    -0.5 5  159 348 
 OCA  SZ I         7 5 55.30        19.6 0.21                           159 348 
 CHI  HZ EP   1    7 5 37.01                             116    -0.5 6  257 198 
 CHI  HN ES   2    7 6  7.41                             116    -0.2 4  257 198 
 CHI  HZ I         7 6 16.15         4.9 0.39                           257 198 
 ROSC BZ EP   1    7 5 39.32                             116     1.1 6  264 213 
 ROSC BE ES   2    7 6  8.63                             116    -0.3 4  264 213 
 ROSC BZ I         7 6 15.27         8.6 0.38                           264 213 
 HEL  HZ EP   1    7 5 40.33                             113    -0.4 6  287 256 
 HEL  HZ I         7 6 17.32         8.0 0.37                           287 256 
 RREF HZ EP   1    7 5 47.14                             110     0.5 5  335 230 
 RREF HE ES   2    7 6 23.08                             110    -0.7 3  335 230 
 RREF HZ I         7 6 30.67         8.8 0.35                           335 230 
 PRA  HZ EP   1    7 5 53.19                             106    -0.5 4  403 211 
                                                                                
