 2013  9 8 0433 14.5 L   6.752 -73.181144.6  RSN  8 0.4 1.6LRSN                1
 GAP=134        0.92       5.7     5.0  7.8 -0.5011E+01  0.8406E+01 -0.3544E+01E
 Epicentro: VILLANUEVA - SANTANDER                                             3
 ACTION:UPD 13-10-22 09:21 OP:ep   STATUS:               ID:20130908043314 L   I
 OLDACT:REG 13-09-08 07:44 OP:mh   STATUS:               ID:20130908042959     3
 2013-09-08-0429-59M.COL___269                                                 6
 STAT SP IPHASW D HRMM SECON CODA AMPLIT PERI AZIMU VELO AIN AR TRES W  DIS CAZ7
 BAR2 SZ EP   1    433 34.16                             172    0.32 7 17.6 180 
 BAR2 SZ ES   1    433 49.16                             172    0.19 7 17.6 180 
 BAR2 SZ I         433 51.41         6.2 0.28            160           17.6 180 
 BRR  HZ EP        433 36.07                             152    0.6210 70.6 304 
 BRR  HN ES   1    433 52.23                             152    0.41 7 70.6 304 
 BRR  HZ I         433 56.59         3.2 0.26            147           70.6 304 
 PAM  SZ EP   1    433 37.00                             148    0.04 7 84.0  39 
 PAM  SN ES        433 54.01                             148   -0.5010 84.0  39 
 RUS  HZ EP   1    433 37.72                             145   -0.02 7 95.6 173 
 RUS  HN ES   2    433 56.13                             145    0.23 5 95.6 173 
 RUS  HZ I         433 58.81         2.3 0.28            133           95.6 173 
 PTB  HZ EP   1    433 40.80                             133   -0.09 7  143 261 
 PTB  HN ES        434  0.80                             133   -0.72 9  143 261 
 PTB  HZ I         434  8.15         3.3 0.40            123            143 261 
 ZAR  HN ES   2    434 12.41                             122    0.61 4  203 294 
 ZAR  HZ I         434 18.26         4.4 0.42            115            203 294 
 SML  HZ EP   1    433 50.79                             117   -0.58 6  247 337 
 SML  HN ES   2    434 20.52                             117    0.35 4  247 337 
 VIL  SZ EP   4    434  3.17                             112    6.03 0  297 191 
 VIL  SZ I         434 20.51        36.7 0.64            105            297 191 
                                                                                
