 2013 12 8 0144 52.1 L   6.863 -73.160145.4  RSN  9 0.4 1.7LRSN                1
 GAP=132        0.92       3.8     3.7  5.7 -0.2399E+01  0.6014E+01  0.4062E+01E
 Epicentro: LOS SANTOS - SANTANDER                                             3
 ACTION:UPD 14-01-13 10:16 OP:ep   STATUS:               ID:20131208014452 L   I
 OLDACT:DUP 13-12-08 11:26 OP:carl STATUS:               ID:20131208014001d    3
 2013-12-08-0140-00M.COL___285                                                 6
 STAT SP IPHASW D HRMM SECON CODA AMPLIT PERI AZIMU VELO AIN AR TRES W  DIS CAZ7
 BAR2 SZ EP        145 11.81                             168   -0.0810 30.0 185 
 BAR2 SZ ES        145 26.86                             168   -0.4310 30.0 185 
 BAR2 SZ I         145 27.71        14.3 0.16            165           30.0 185 
 BRR  HZ EP        145 13.41                             154    0.4010 66.7 294 
 BRR  HE ES        145 29.88                             154    0.5910 66.7 294 
 BRR  HZ I         145 30.93         7.0 0.16            154           66.7 294 
 PAM  SZ EP        145 14.41                             152    0.3310 73.2  44 
 PAM  SN ES        145 30.80                             152   -0.3910 73.2  44 
 RUS  HZ EP        145 16.03                             142   -0.3510  108 175 
 RUS  HN ES        145 35.57                             142    0.2810  108 175 
 RUS  HZ I         145 36.84         2.7 0.54            141            108 175 
 PTB  HZ EP        145 18.66                             132   -0.43 9  148 256 
 PTB  HN ES        145 39.71                             132   -0.39 9  148 256 
 PTB  HZ I         145 42.53        11.3 0.22            132            148 256 
 SPBC HZ EP        145 21.39                             128    0.34 9  168 217 
 SPBC HN ES        145 44.16                             128    0.57 9  168 217 
 SPBC HZ I         145 50.40         6.2 0.10            128            168 217 
 ZAR  HN ES        145 49.07                             123   -0.06 9  200 290 
 NOR  HZ EP        145 28.06                             118   -0.10 8  238 233 
 NOR  HN ES        145 55.84                             118   -0.42 8  238 233 
 NOR  HZ I         145 59.85         4.4 0.16            118            238 233 
 GUY2CHZ EP   1    145 36.16                             112    0.10 5  304 234 
 GUY2CHN ES        146 10.26                             112   -0.05 7  304 234 
 GUY2CHZ I         146 19.99         3.5 0.50                           304 234 
                                                                                
