 2017  6 8 0248 12.8 L   6.726 -73.293150.0  RSN  4 0.3 1.1LRSN                1
 GAP=214        0.68       5.6     5.6  6.8  0.1797E+02 -0.6267E+00  0.2283E+00E
 Epicentro: GALAN - SANTANDER                                                  3
 ACTION:UPD 17-09-14 16:50 OP:jn   STATUS:               ID:20170608024812 L   I
 OLDACT:UP  17-06-08 15:06 OP:edw  STATUS:               ID:20170608024741     3
 OLDACT:REG 17-06-08 12:51 OP:edw  STATUS:               ID:20170608024741     3
 2017-06-08-0248-00M.COL___359                                                 6
 STAT SP IPHASW D HRMM SECON CODA AMPLIT PERI AZIMU VELO AIN AR TRES W  DIS CAZ7
 BRR  HZ IP     C  248 33.88                             156   -0.1010 62.7 312 
 BRR  HN ES        248 50.55                             156    0.0610 62.7 312 
 RUS  HZ EP        248 36.26                             146   -0.3410 95.0 166 
 RUS  HN ES        248 55.35                             146    0.2010 95.0 166 
 RUS  HZ I         248 55.86         2.3 0.24            145           95.0 166 
 PTB  HZ EP        248 39.08                             137    0.4610  130 261 
 PTB  HN ES        248 58.49                             137   -0.2610  130 261 
 PTB  HZ I         249  1.92         1.9 0.58            135            130 261 
 ZAR  HN ES   2    249  9.02                             125    0.02 4  193 296 
                                                                                
