 2017  8 8 0748 33.8 L   6.825 -73.134145.1  RSN 12 0.6 1.8LRSN                1
 GAP=112        1.25       4.3     4.9  7.1  0.5300E+00  0.6129E+00  0.6239E+01E
 Epicentro: LOS SANTOS - SANTANDER                                             3
 ACTION:UPD 17-09-04 20:17 OP:rebc STATUS:               ID:20170808074833 L   I
 OLDACT:UP  17-08-08 17:00 OP:dani STATUS:               ID:20170808074739     3
 OLDACT:UP  17-08-08 17:00 OP:dani STATUS:               ID:20170808074739     3
 OLDACT:UP  17-08-08 17:00 OP:dani STATUS:               ID:20170808074739     3
 OLDACT:REG 17-08-08 13:31 OP:dani STATUS:               ID:20170808074739     3
 2017-08-08-0748-00M.COL___384                                                 6
 STAT SP IPHASW D HRMM SECON CODA AMPLIT PERI AZIMU VELO AIN AR TRES W  DIS CAZ7
 BAR2 EZ EP        748 52.91                             169   -0.4710 26.3 192 
 BAR2 EZ ES        749  8.76                             169    0.0810 26.3 192 
 BAR2 EZ I         749 10.70        13.4 0.30            167           26.3 192 
 BRR  HZ EP        748 54.73                             153   -0.1110 71.1 296 
 BRR  HN ES        749 11.65                             153    0.3810 71.1 296 
 BRR  HZ I         749 14.93        12.2 0.26            151           71.1 296 
 PAM  EZ EP        748 55.97                             152    0.2410 74.4  40 
 PAM  EN ES        749 13.18                             152    0.3110 74.4  40 
 PAM  EZ I         749 16.08         6.8 0.50            156           74.4  40 
 RUS  HZ EP        748 57.10                             143   -0.5510  103 177 
 RUS  HE ES        749 16.10                             143   -0.1810  103 177 
 RUS  HZ I         749 17.74         7.2 0.17            143            103 177 
 PTB  HZ EP   9    748 59.62                             132   -1.23 0  150 258 
 PTB  HN ES        749 20.78                             130    0.04 9  150 258 
 PTB  HZ I         749 25.72         5.6 0.23            131            150 258 
 SPBC HZ EP        749  1.79                             129   -0.71 9  166 219 
 SPBC HE ES        749 24.25                             129   -0.66 9  166 219 
 SPBC HZ I         749 28.77         8.9 0.06            128            166 219 
 YPLC HZ EP        749  3.34                             126   -0.35 9  179 152 
 YPLC HN ES        749 27.61                             126    0.58 9  179 152 
 YPLC HZ I         749 28.28         9.0 0.23            128            179 152 
 ZAR  HZ EP   4    749  5.10                             122   -1.09 0  204 291 
 ZAR  HN ES        749 31.16                             122   -0.32 9  204 291 
 ZAR  HZ I         749 35.91         5.5 0.26            122            204 291 
 NOR  HN ES   3    749 37.25                             118   -0.56 2  237 234 
 NOR  HZ I         749 42.22         5.1 0.20            118            237 234 
 CHI  HZ EP   9    749 10.88                             117   -0.88 0  252 195 
 CHI  HN ES        749 40.61                             116    0.10 8  252 195 
 CHI  HZ I         749 46.45         2.5 0.36            117            252 195 
 ROSC BZ EP        749 13.64                             116    1.45 8  256 211 
 ROSC BN ES        749 43.04                             116    0.89 8  256 211 
 ROSC BZ I         749 49.09         4.5 0.36            117            256 211 
 HEL  HN ES   3    749 47.60                             115    1.92 2  274 255 
                                                                                
