 2017  3 8 0723 56.7 L   6.804 -73.136141.0  RSN 11 0.3 1.5LRSN                1
 GAP=101        0.79       2.9     2.9  4.8 -0.2786E+00  0.9835E+00  0.1514E+01E
 Epicentro: LOS SANTOS - SANTANDER                                             3
 ACTION:UPD 17-05-25 18:37 OP:jn   STATUS:               ID:20170308072356 L   I
 OLDACT:UP  17-03-08 19:38 OP:and  STATUS:               ID:20170308071360d    3
 OLDACT:DUP 17-03-08 19:34 OP:and  STATUS:               ID:20170308071360d    3
 2017-03-08-0718-00M.COL___332                                                 6
 STAT SP IPHASW D HRMM SECON CODA AMPLIT PERI AZIMU VELO AIN AR TRES W  DIS CAZ7
 BAR2 EZ EP        724 16.00                             170    0.2210 23.9 192 
 BAR2 EZ ES        724 30.11                             170   -0.5410 23.9 192 
 BAR2 EZ I         724 34.94         8.3 0.41            167           23.9 192 
 BRR  HZ EP        724 17.27                             151   -0.1210 72.0 298 
 BRR  HN ES        724 34.14                             151    0.6210 72.0 298 
 BRR  HZ I         724 35.10         3.9 0.11            149           72.0 298 
 PAM  EZ IP     C  724 18.25                             150   -0.1110 76.4  39 
 PAM  EN ES        724 35.09                             150   -0.1610 76.4  39 
 PAM  EZ I         724 39.00         4.9 0.44            151           76.4  39 
 RUS  HZ EP        724 20.32                             143    0.3010  101 177 
 RUS  HN ES        724 38.45                             143    0.2510  101 177 
 RUS  HZ I         724 39.94         1.9 0.34            140            101 177 
 PTB  HZ EP   3    724 22.18                             131   -1.22 2  149 259 
 PTB  HN ES        724 43.99                             131   -0.22 9  149 259 
 PTB  HZ I         724 45.67         4.1 0.11            128            149 259 
 TAM  HZ IP     D  724 24.02                             130    0.09 9  154 105 
 SPBC HZ EP        724 24.33                             128   -0.61 9  164 219 
 SPBC HN ES        724 47.10                             128    0.14 9  164 219 
 SPBC HZ I         724 51.31         3.4 0.16            125            164 219 
 ZAR  HZ EP        724 29.22                             121    0.28 9  205 292 
 ZAR  HE ES        724 53.96                             121   -0.11 9  205 292 
 ZAR  HZ I         724 58.94         4.0 0.36            119            205 292 
 NOR  HZ EP   3    724 32.14                             117   -0.15 2  236 235 
 NOR  HZ I         724 46.35         1.7 0.17            115            236 235 
 NOR  HN ES   3    725  0.06                             117    0.02 2  236 235 
 CHI  HN ES        725  3.49                             116    0.01 8  249 195 
 CHI  HZ I         725 10.62         2.3 0.34            114            249 195 
 URE  HZ EP   4    724 39.31                             112    1.66 0  285 292 
 URE  HN ES   4    725  6.40                             112   -3.18 0  285 292 
 URE  HZ I         725 15.42         3.7 0.32            111            285 292 
                                                                                
