 2015 10 8 0100 11.5 L   6.814 -73.120146.0  RSN  4 0.2 1.5LRSN                1
 GAP=241        0.57       8.0     8.8  5.0  0.6192E+02  0.2696E+01 -0.1023E+01E
 Epicentro: LOS SANTOS - SANTANDER                                             3
 ACTION:UPD 15-12-22 20:38 OP:cam  STATUS:               ID:20151008010011 L   I
 OLDACT:UP  15-10-08 15:57 OP:spq  STATUS:               ID:20151008005748     3
 OLDACT:REG 15-10-08 12:25 OP:spq  STATUS:               ID:20151008005748     3
 2015-10-08-0057-48M.COL___337                                                 6
 STAT SP IPHASW D HRMM SECON CODA AMPLIT PERI AZIMU VELO AIN AR TRES W  DIS CAZ7
 BAR2 EZ ES   1    1 0 46.26                             170   -0.37 7 25.5 196 
 BAR2 EZ I         1 0 46.97         6.2 0.36            160           25.5 196 
 BRR  HZ EP        1 0 33.04                             152    0.2110 73.0 296 
 BRR  HN ES        1 0 49.55                             152    0.1210 73.0 296 
 BRR  HZ I         1 0 51.56         8.4 0.35            145           73.0 296 
 RUS  HZ EP        1 0 35.54                             144    0.1110  102 178 
 RUS  HN ES   1    1 0 54.09                             144    0.03 7  102 178 
 RUS  HZ I         1 0 54.95         2.0 0.34            139            102 178 
 ZAR  HZ EP        1 0 43.81                             122   -0.41 8  206 291 
 ZAR  HN ES        1 1  9.77                             122    0.06 8  206 291 
 ZAR  HZ I         1 1 15.63         4.1 0.28            120            206 291 
                                                                                
