 2011  8 8 0655 18.0 L   6.789 -73.062142.1  RSN  6 0.4 2.0LRSN                1
 GAP=191        0.76       3.2     6.9  6.6  0.3969E+00 -0.5913E+01 -0.4539E+00E
 Epicentro: LOS SANTOS - SANTANDER                                             3
 ACTION:UPD 12-07-13 15:50 OP:ep   STATUS:               ID:20110808065518 L   I
 2011-08-08-0651-35S.COL___144                                                 6
 STAT SP IPHASW D HRMM SECON CODA AMPLIT PERI AZIMU VELO AIN AR TRES W  DIS CAZ7
 BAR2 SZ EP        655 37.39                             169    0.1410 25.5 211 
 BAR2 SZ ES   1    655 52.10                             169   -0.15 7 25.5 211 
 BAR2 SZ I         655 53.98        42.7 0.28                          25.5 211 
 BRR  HZ IP     C  655 39.34                             149    0.0510 80.0 296 
 BRR  HE ES        655 56.11                             149    0.2210 80.0 296 
 BRR  HZ I         656  0.80        24.3 0.14                          80.0 296 
 RUS  HZ EP   1    655 41.58                             143    0.28 7 99.1 181 
 RUS  HE ES   1    655 58.91                             143   -0.55 7 99.1 181 
 RUS  HZ I         656  1.29         7.9 0.41                          99.1 181 
 OCA  SZ EP        655 45.99                             128   -0.29 9  163 350 
 OCA  SZ ES   1    656  8.44                             128    0.11 7  163 350 
 OCA  SZ I         656 12.71        19.1 0.30                           163 350 
 NOR  SN ES   1    656 21.92                             117   -0.64 6  242 236 
 CHI  HZ EP   2    655 55.24                             116   -0.42 4  250 197 
 CHI  HN ES   1    656 25.93                             116    0.90 6  250 197 
 CHI  HZ I         656 32.45         4.4 0.50                           250 197 
                                                                                
