 2011  9 8 0304 52.9 L   6.787 -73.085148.9  RSN 18 0.3 2.5LRSN                1
 GAP=145        0.40       1.9     2.5  3.3 -0.1663E+01  0.2091E+01  0.1220E+01E
 Epicentro: LOS SANTOS - SANTANDER                                             3
 ACTION:UPD 12-07-13 15:56 OP:ep   STATUS:               ID:20110908030000 L   I
 2011-09-08-0300-00M.COL___172                                                 6
 STAT SP IPHASW D HRMM SECON CODA AMPLIT PERI AZIMU VELO AIN AR TRES W  DIS CAZ7
 BAR2 SZ EP   1    3 5 12.78                             170   -0.14 7 24.1 207 
 BAR2 SZ ES   2    3 5 28.26                             170   -0.27 5 24.1 207 
 BAR2 SZ I         3 5 31.91        53.4 0.65                          24.1 207 
 GIR2 SZ EP   1    3 5 13.08                             166    0.05 7 34.4 340 
 GIR2 SZ ES   2    3 5 28.81                             166    0.08 5 34.4 340 
 PAM  SZ EP   1    3 5 15.75                             152    0.47 7 74.4  35 
 PAM  SN ES   2    3 5 32.52                             152   -0.21 5 74.4  35 
 BRR  HZ IP     C  3 5 14.85                             151    0.0810 77.8 297 
 BRR  HE ES   2    3 5 31.92                             151    0.10 5 77.8 297 
 BRR  HZ I         3 5 35.92        38.6 0.12                          77.8 297 
 RUS  HZ EP   1    3 5 16.81                             145   -0.04 7 99.0 180 
 RUS  HN ES   2    3 5 35.21                             145   -0.31 5 99.0 180 
 RUS  HZ I         3 5 36.90        20.3 0.38                          99.0 180 
 BRI  SZ EP   2    3 5 17.16                             142    0.14 5  108  17 
 OCA  SZ ES   2    3 5 44.53                             130    0.42 5  163 351 
 OCA  SZ I         3 5 48.86        34.0 0.17                           163 351 
 ZAR  HZ EP   2    3 5 25.99                             122   -0.26 4  211 292 
 ZAR  HE ES   2    3 5 52.09                             122   -0.17 4  211 292 
 ZAR  HZ I         3 5 57.39        25.0 0.18                           211 292 
 NOR  SZ EP   1    3 5 29.08                             119   -0.24 6  239 236 
 NOR  SN ES        3 5 57.36                             119   -0.36 8  239 236 
 CHI  HZ EP   2    3 5 30.82                             118   -0.01 4  249 197 
 CHI  HN ES   2    3 6  1.02                             118    0.61 4  249 197 
 CHI  HZ I         3 6  8.69        10.5 0.42                           249 197 
 ROSC BZ EP   2    3 5 31.26                             117   -0.19 4  255 212 
 ROSC BE ES   2    3 6  2.00                             117    0.48 4  255 212 
 ROSC BZ I         3 6 10.78        34.1 0.40                           255 212 
 HEL  HZ EP   2    3 5 34.30                             115    0.34 4  278 256 
 HEL  HN ES   2    3 6  6.27                             115    0.28 4  278 256 
 HEL  HZ I         3 6 11.84        11.6 0.46                           278 256 
 GUY  SZ EP   1    3 5 37.14                             112   -0.32 5  308 236 
 GUY  SN ES   2    3 6 12.60                             112    0.39 4  308 236 
 GUY  SZ I         3 6 19.56        27.5 0.39                           308 236 
 RREF HZ EP   2    3 5 39.53                             111   -0.14 3  326 230 
 RREF HN ES   2    3 6 16.46                             111    0.32 3  326 230 
 RREF HZ I         3 6 21.49        14.8 0.26                           326 230 
 COD  HZ EP   2    3 5 41.25                             109   -0.39 3  350 354 
 COD  HN ES   2    3 6 19.10                             109   -0.56 3  350 354 
 COD  HZ I         3 6 27.05        12.9 0.82                           350 354 
 ANIL HZ EP   2    3 5 43.29                             109    0.02 3  361 225 
 ANIL HN ES   2    3 6 22.69                             109    0.14 3  361 225 
 ANIL HZ I         3 6 26.93        35.2 0.39                           361 225 
 PRA  HZ EP   2    3 5 46.59                             107   -0.20 3  394 211 
 PRA  HN ES   2    3 6 29.02                             107    0.21 3  394 211 
 SJA  SZ EP   2    3 5 47.28                             107   -0.31 3  400 194 
 SJA  SZ ES   2    3 6 30.83                             107    0.59 3  400 194 
                                                                                
