 2010  5 8 0221 48.4 L   6.757 -72.994143.2  RSN  6 0.3 1.4LRSN                1
 GAP=174        0.73       3.8     8.1  7.4 -0.3666E+01 -0.2288E+02 -0.6688E+01E
 Epicentro: CEPITA - SANTANDER                                                 3
 ACTION:UP  10-08-24 10:03 OP:vdl  STATUS:               ID:20100508022148 L   I
 2010-05-08-0218-43S.COL___105                                                 6
 STAT SP IPHASW D HRMM SECON CODA AMPLIT PERI AZIMU VELO SNR AR TRES W  DIS CAZ7
 BAR2 SZ EP   2    222  7.14                             168    -0.7 5   28 229 
 BAR2 SZ ES   1    222 22.56                             168    -0.4 7   28 229 
 BRR  HZ EP        222 10.28                             146     0.010   88 296 
 BRR  HE ES   1    222 27.60                             146     0.2 7   88 296 
 BRR  HZ I         222 33.92         6.5 0.31                            88 296 
 RUS  HZ EP        222 12.00                             144     0.410   96 186 
 RUS  HN ES   1    222 29.54                             144    -0.1 7   96 186 
 RUS  HZ I         222 31.82         2.6 0.15                            96 186 
 BRI  SZ EP        222 12.01                             141     0.010  108  12 
 GUE  SZ EP        222 12.83                             138    -0.210  119   4 
 GRA  SZ EP        222 13.35                             136    -0.110  126  10 
 GRA  SZ ES   1    222 33.47                             136     0.5 7  126  10 
                                                                                
