 2015  7 8 0456 31.8 L   6.838 -73.116144.8  RSN 14 0.4 2.0LRSN                1
 GAP=138        0.90       2.8     4.0  6.2 -0.2362E+01  0.1058E+02  0.1388E+01E
 Epicentro: LOS SANTOS - SANTANDER                                             3
 ACTION:UPD 15-09-08 21:47 OP:cam  STATUS:               ID:20150708045631 L   I
 OLDACT:REG 15-07-08 16:50 OP:spq  STATUS:               ID:20150708044748     3
 2015-07-08-0447-48M.COL___340                                                 6
 STAT SP IPHASW D HRMM SECON CODA AMPLIT PERI AZIMU VELO AIN AR TRES W  DIS CAZ7
 BAR2 EZ EP     C  456 51.21                             168   -0.2210 28.1 195 
 BAR2 EZ ES   1    457  7.19                             168    0.46 7 28.1 195 
 BAR2 EZ I         457  8.48         9.4 0.18            165           28.1 195 
 PAM  EZ EP        456 54.03                             152    0.4210 72.1  40 
 PAM  EE ES   1    457 11.14                             152    0.53 7 72.1  40 
 PAM  EZ I         457 13.01        20.5 0.52            159           72.1  40 
 RUS  HZ EP        456 55.39                             142   -0.3610  105 178 
 RUS  HE ES   1    457 13.77                             142   -0.66 7  105 178 
 RUS  HZ I         457 15.36         9.8 0.26            145            105 178 
 OCA  HZ EP        456 59.56                             130   -0.13 9  157 352 
 OCA  HN ES        457 21.41                             130   -0.03 9  157 352 
 OCA  HZ I         457 25.65        24.4 0.54            133            157 352 
 ZAR  HZ EP   1    457  4.41                             122    0.06 6  206 291 
 ZAR  HN ES        457 29.81                             122    0.08 8  206 291 
 ZAR  HZ I         457 34.54        15.8 0.28            122            206 291 
 NOR  HZ EP   1    457  7.85                             118   -0.18 6  240 234 
 NOR  HE ES        457 36.05                             118   -0.23 8  240 234 
 NOR  HZ I         457 47.69         6.8 0.38            119            240 234 
 SML  HZ EP        457  7.76                             117   -0.36 8  241 334 
 SML  HE ES   1    457 35.63                             117   -0.82 6  241 334 
 SML  HZ I         457 41.17        17.7 0.10            119            241 334 
 HEL  HZ EP   4    457 13.45                             114    1.01 0  276 255 
 HEL  HE ES        457 43.91                             114   -0.23 7  276 255 
 HEL  HZ I         457 51.25         5.3 0.38            115            276 255 
 GUY2CHZ EP        457 16.81                             112    0.86 7  306 234 
 GUY2CHE ES   4    457 51.98                             112    1.60 0  306 234 
 GUY2CHZ I         457 59.64         3.9 0.56                           306 234 
 CBOC HZ EP        457 19.91                             109    0.72 7  338 252 
 CBOC HE ES   1    457 56.28                             109    0.13 5  338 252 
 CBOC HZ I         458  7.18         1.6 0.42            111            338 252 
 TOL  SN ES        457 59.51                             109    0.79 6  349 225 
 TOL  SZ I         458  3.84         3.6 0.37            110            349 225 
 PRA  HZ EP        457 26.13                             106    0.22 6  397 210 
 PRA  HE ES        458  7.48                             106   -0.63 6  397 210 
 PRA  HZ I         458 15.00         3.9 0.36            108            397 210 
 ORTC HZ EP        457 26.06                             106   -0.26 6  401 216 
 ORTC HE ES   4    458 10.17                             106    1.34 0  401 216 
 ORTC HZ I         458 13.80         3.2 0.58            108            401 216 
 SJC  HZ EP   4    457 25.05                             106   -2.09 0  408 326 
 SJC  HE ES   4    458  8.31                             106   -1.99 0  408 326 
 SJC  HZ I         458 10.67         2.7 0.17            107            408 326 
                                                                                
