 2015  3 8 0452  9.8 L   6.562 -73.557114.7  RSN  5 0.4 1.0LRSN                1
 GAP=135        0.85       3.7     6.2  7.8 -0.1389E+01  0.8121E+01  0.1102E+02E
 Epicentro: EL CARMEN - SANTANDER                                              3
 ACTION:UPD 15-04-30 16:24 OP:nd   STATUS:               ID:20150308045209 L   I
 OLDACT:DUP 15-03-08 17:43 OP:spq  STATUS:               ID:20150308044748d    3
 2015-03-08-0447-46M.COL___284                                                 6
 STAT SP IPHASW D HRMM SECON CODA AMPLIT PERI AZIMU VELO AIN AR TRES W  DIS CAZ7
 BAR2 EZ EP        452 26.13                             159   -0.1910 41.6  85 
 BAR2 EZ ES   1    452 39.39                             159    0.17 7 41.6  85 
 BAR2 EZ I         452 40.28         4.8 0.40            166           41.6  85 
 BRR  HZ EP        452 26.96                             149   -0.1310 62.6 344 
 BRR  HE ES        452 40.97                             149    0.3610 62.6 344 
 BRR  HZ I         452 48.42         2.7 0.48            150           62.6 344 
 RUS  HZ EP   1    452 30.07                             139    0.27 7 90.8 145 
 RUS  HE ES   1    452 44.98                             139   -0.45 7 90.8 145 
 RUS  HZ I         452 46.18         0.8 0.34            144           90.8 145 
 SPBC HZ EP        452 31.09                             131   -0.3010  116 210 
 SPBC HE ES        452 47.95                             131   -0.3010  116 210 
 SPBC HZ I         452 49.45         4.0 0.18            133            116 210 
 CHI  HZ EP   1    452 42.47                             113    0.38 6  215 185 
 CHI  HN ES   1    453  8.28                             113    0.98 6  215 185 
 CHI  HZ I         453 15.56         0.5 0.44            116            215 185 
                                                                                
