 2016  3 8 0332 11.7 L   6.002 -74.078 84.5  RSN  7 0.3 1.1LRSN                1
 GAP= 84        0.69       2.2     1.9  4.8 -0.7262E+00  0.1550E+01 -0.2165E+01E
 Epicentro: LA BELLEZA - SANTANDER                                             3
 ACTION:UPD 16-05-13 21:22 OP:cam  STATUS:               ID:20160308033211 L   I
 OLDACT:DUP 16-03-08 17:03 OP:cara STATUS:               ID:20160308032751d    3
 OLDACT:REG 16-03-08 13:57 OP:cara STATUS:               ID:20160308032750     3
 2016-03-08-0327-50M.COL___295                                                 6
 STAT SP IPHASW D HRMM SECON CODA AMPLIT PERI AZIMU VELO AIN AR TRES W  DIS CAZ7
 SPBC HZ IP     C  332 24.56                             153    0.1110 38.7 179 
 SPBC HN ES        332 34.58                             153    0.1510 38.7 179 
 SPBC HZ I         332 35.27         6.5 0.24            162           38.7 179 
 PTB  HZ EP        332 26.63                             136   -0.1710 72.7 325 
 PTB  HN ES        332 38.73                             136    0.1110 72.7 325 
 PTB  HZ I         332 41.31         2.0 0.18            133           72.7 325 
 NOR  HZ EP        332 29.20                             126   -0.2210  100 241 
 NOR  HN ES        332 43.08                             126   -0.2010  100 241 
 NOR  HZ I         332 45.73         8.4 0.12            128            100 241 
 RUS  HZ IP        332 31.51                             123    0.4310  111  96 
 RUS  HE ES        332 46.22                             123   -0.0210  111  96 
 RUS  HZ I         332 48.33         0.9 0.28            126            111  96 
 BAR2 EZ ES        332 46.69                             121   -0.4210  119  57 
 BAR2 EZ I         332 49.02         5.5 0.38            122            119  57 
 GUY2CHZ EP        332 37.43                             112    0.25 9  166 239 
 GUY2CHE ES        332 56.98                             112   -0.10 9  166 239 
 GUY2CHZ I         333  2.73         1.4 0.32                           166 239 
 ZAR  HZ EP        332 38.54                             109   -0.30 9  186 332 
 ZAR  HN ES        333  0.48                             109    0.43 9  186 332 
 ZAR  HZ I         333 13.11         1.6 0.28            109            186 332 
                                                                                
