 2010  8 8 0438  7.7 L   6.763 -73.041139.8  RSN  6 0.4 1.2LRSN                1
 GAP=171        0.87       6.3    12.1 10.3 -0.2324E+02 -0.3049E+02  0.5042E+01E
 Epicentro: LOS SANTOS - SANTANDER                                             3
 ACTION:UP  10-09-07 10:53 OP:vdl  STATUS:               ID:20100808043807 L   I
 2010-08-08-0434-57S.COL___125                                                 6
 STAT SP IPHASW D HRMM SECON CODA AMPLIT PERI AZIMU VELO SNR AR TRES W  DIS CAZ7
 BAR2 SZ EP        438 26.49                             170    -0.210   25 220 
 BAR2 SZ ES   2    438 41.27                             170    -0.2 5   25 220 
 BAR2 SZ I         438 43.59         4.9 0.21                            25 220 
 BTL  SZ EP        438 26.99                             167     0.210   30 304 
 BTL  SZ ES   2    438 41.79                             167     0.1 5   30 304 
 BRR  HZ EP        438 28.56                             147    -0.410   83 297 
 BRR  HN ES   2    438 46.05                             147     0.5 5   83 297 
 BRR  HZ I         438 47.34         4.0 0.13                            83 297 
 RUS  HZ EP   1    438 30.73                             143     0.2 7   96 183 
 RUS  HN ES   3    438 48.65                             143     0.2 2   96 183 
 GUE  SZ EP   1    438 32.98                             137     0.9 7  119   6 
 GRA  SZ EP   1    438 32.22                             135    -0.3 7  127  12 
 GRA  SZ ES   1    438 51.50                             135    -0.4 7  127  12 
 GRA  SZ I         438 55.31         1.8 0.08                           127  12 
                                                                                
