 2015  3 8 0240 51.1 L   6.789 -73.167144.0  RSN  6 0.3 1.1LRSN                1
 GAP=134        0.57       3.2     3.4  4.9 -0.2337E+01  0.2965E+01  0.1697E+01E
 Epicentro: LOS SANTOS - SANTANDER                                             3
 ACTION:UPD 15-04-30 16:24 OP:nd   STATUS:               ID:20150308024051 L   I
 OLDACT:REG 15-03-08 12:11 OP:spq  STATUS:               ID:20150308023737     3
 2015-03-08-0237-37M.COL___284                                                 6
 STAT SP IPHASW D HRMM SECON CODA AMPLIT PERI AZIMU VELO AIN AR TRES W  DIS CAZ7
 BAR2 EZ EP        241 10.36                             171   -0.1010 21.8 185 
 BAR2 EZ ES   1    241 25.68                             171    0.10 7 21.8 185 
 BAR2 EZ I         241 28.05         2.3 0.22            168           21.8 185 
 BRR  HZ EP        241 12.28                             153    0.3310 69.8 300 
 PAM  SZ EP        241 13.23                             150   -0.0210 79.8  40 
 PAM  SN ES   1    241 30.65                             150    0.10 7 79.8  40 
 PAM  SZ I         241 32.87         2.4 0.64            156           79.8  40 
 RUS  HZ EP   1    241 14.06                             144   -0.52 7 99.5 175 
 RUS  HE ES   1    241 32.77                             144   -0.14 7 99.5 175 
 RUS  HZ I         241 34.23         1.6 0.28            144           99.5 175 
 PTB  HZ EP        241 17.55                             132   -0.12 9  145 259 
 PTB  HN ES        241 38.27                             132   -0.14 9  145 259 
 PTB  HZ I         241 44.31         2.0 0.42            133            145 259 
 CHI  HZ EP        241 28.61                             117    0.13 8  247 195 
 CHI  HN ES   1    241 58.22                             117    0.56 6  247 195 
 CHI  HZ I         242  5.96         0.8 0.52            118            247 195 
                                                                                
