 2010  8 8 0942  9.3 L   6.803 -73.043142.0  RSN  6 0.4 1.4LRSN                1
 GAP=176        0.96       5.2    14.1  9.7  0.2708E+02 -0.7002E+02 -0.1913E+02E
 Epicentro: LOS SANTOS - SANTANDER                                             3
 ACTION:UP  10-09-07 10:53 OP:vdl  STATUS:               ID:20100808094209 L   I
 2010-08-08-0939-16S.COL___125                                                 6
 STAT SP IPHASW D HRMM SECON CODA AMPLIT PERI AZIMU VELO SNR AR TRES W  DIS CAZ7
 BTL  SZ EP        942 28.78                             169     0.210   28 297 
 BTL  SZ ES   1    942 42.94                             169    -0.7 7   28 297 
 BAR2 SZ EP        942 28.19                             169    -0.410   28 214 
 BAR2 SZ ES   2    942 43.63                             169     0.0 5   28 214 
 BAR2 SZ I         942 45.25         9.3 0.16                            28 214 
 BRR  HZ EP        942 30.44                             149    -0.210   81 295 
 BRR  HN ES   1    942 47.79                             149     0.5 7   81 295 
 RUS  HZ EP        942 32.48                             143    -0.210  101 183 
 RUS  HE ES   1    942 51.55                             143     0.6 7  101 183 
 RUS  HZ I         942 53.12         2.9 0.54                           101 183 
 GUE  SZ EP        942 33.93                             139     0.410  114   7 
 OCA  SZ EP        942 37.46                             129     0.0 9  162 349 
 OCA  SZ ES   1    942 59.29                             129    -0.1 7  162 349 
 OCA  SZ I         943  3.83         3.3 0.55                           162 349 
                                                                                
