 2017  1 8 0138 44.0 L   7.362 -73.186131.7  RSN  8 0.3 1.9LRSN                1
 GAP=178        0.78       4.3     3.3  5.5  0.2048E+01  0.4929E+01 -0.6075E+00E
 Epicentro: RIONEGRO - SANTANDER                                               3
 ACTION:UPD 17-05-22 15:56 OP:jn   STATUS:               ID:20170108013844 L   I
 OLDACT:UP  17-01-08 14:17 OP:dln  STATUS:               ID:20170108013742     3
 OLDACT:REG 17-01-08 12:27 OP:dnl  STATUS:               ID:20170108013742     3
 2017-01-08-0138-00M.COL___374                                                 6
 STAT SP IPHASW D HRMM SECON CODA AMPLIT PERI AZIMU VELO AIN AR TRES W  DIS CAZ7
 PAM  EZ EP        139  3.49                             157    0.0410 53.8  93 
 PAM  EN ES        139 18.55                             157   -0.0410 53.8  93 
 PAM  EZ I         139 19.60        17.4 0.50            159           53.8  93 
 BRR  HZ EP        139  3.16                             152   -0.1410 64.5 244 
 BRR  HN ES        139 18.43                             152    0.1110 64.5 244 
 BRR  HZ I         139 19.23        18.5 0.10            152           64.5 244 
 BAR2 EZ EP        139  5.11                             145    0.1610 85.2 180 
 BAR2 EZ ES        139 21.33                             145    0.0710 85.2 180 
 BAR2 EZ I         139 22.66        12.0 0.10            146           85.2 180 
 RUS  HZ EP        139 12.61                             126    0.60 9  163 176 
 RUS  HN ES        139 33.17                             126   -0.66 9  163 176 
 PTB  HZ EP        139 11.86                             125    0.05 9  167 237 
 PTB  HN ES        139 33.73                             125    0.26 9  167 237 
 PTB  HZ I         139 36.63         9.1 0.16            126            167 237 
 ZAR  HZ EP        139 13.12                             122   -0.50 9  185 275 
 ZAR  HN ES        139 36.68                             122   -0.01 9  185 275 
 ZAR  HZ I         139 39.59        10.5 0.40            123            185 275 
 URE  HZ EP   4    139 20.35                             112   -1.70 0  262 280 
 URE  HN ES   4    139 48.97                             112   -2.72 0  262 280 
 URE  HZ I         139 51.06         4.9 0.26            114            262 280 
 GUY2CHZ EP   4    139 32.46                             107    1.20 0  338 226 
 GUY2CHN ES   4    140 11.11                             107    3.01 0  338 226 
 GUY2CHZ I         140 19.49         2.5 0.64                           338 226 
                                                                                
