 2014  1 8 0704 51.3 L   5.932 -74.152  6.9  RSN  7 0.5 1.1LRSN                1
 GAP=116        1.16       2.9     2.3  9.6  0.5771E+00  0.7976E+00 -0.1253E+02E
 Epicentro: LA BELLEZA - SANTANDER                                             3
 ACTION:UPD 14-03-13 09:52 OP:ep   STATUS:               ID:20140108070451 L   I
 OLDACT:REG 14-01-08 07:35 OP:carl STATUS:               ID:20140108070001d    3
 2014-01-08-0700-00M.COL___285                                                 6
 STAT SP IPHASW D HRMM SECON CODA AMPLIT PERI AZIMU VELO AIN AR TRES W  DIS CAZ7
 SPBC HE ES        7 5  0.72                              96   -0.4710 32.1 164 
 SPBC HZ I         7 5  3.37         9.0 0.34             47           32.1 164 
 PTB  HZ EP        7 5  3.51                              92    0.2410 75.2 333 
 PTB  HN ES        7 5 12.51                              92   -0.1310 75.2 333 
 PTB  HZ I         7 5 12.76        20.6 0.14             47           75.2 333 
 NOR  HN ES        7 5 16.74                              92    0.2410 89.2 243 
 RUS  HZ IP     D  7 5 10.93                              92    0.6210  118  92 
 RUS  HN ES        7 5 24.85                              92   -0.3210  118  92 
 RUS  HZ I         7 5 26.63         2.7 0.34             47            118  92 
 CHI  HZ EP   4    7 5 18.16                              91    2.95 0  151 162 
 CHI  HN ES   4    7 5 34.95                              91    1.06 0  151 162 
 HEL  HZ EP        7 5 16.18                              91    0.44 9  155 281 
 HEL  HN ES        7 5 33.88                              91   -0.95 9  155 281 
 HEL  HZ I         7 5 35.12         3.3 0.20             47            155 281 
 GUY2CHZ EP   4    7 5 17.77                              91    1.86 0  155 240 
 GUY2CHN ES        7 5 35.53                              91    0.40 9  155 240 
 GUY2CHZ I         7 5 42.85         1.3 0.32                           155 240 
 ZAR  HN ES        7 5 42.23                              56   -0.10 9  189 336 
 ZAR  HN I         7 5 44.25         4.9 0.34             37            189 336 
                                                                                
