 2010 12 8 0552 53.3 L   6.514 -73.663102.8  RSN  5 0.2 1.6LRSN                1
 GAP=152        0.43       4.8     4.9  9.9 -0.1570E+02  0.3574E+02 -0.2018E+02E
 Epicentro: SANTA HELENA DEL OPON - SANTANDER                                  3
 ACTION:UP  11-01-14 15:23 OP:pat  STATUS:               ID:20101208055253 L   I
 2010-12-08-0549-50S.COL___135                                                 6
 STAT SP IPHASW D HRMM SECON CODA AMPLIT PERI AZIMU VELO SNR AR TRES W  DIS CAZ7
 BAR2 SZ EP        553  9.25                             150     0.010   54  81 
 BAR2 SZ I         553 10.20         9.2 0.33                            54  81 
 BAR2 SZ ES   2    553 21.82                             150     0.2 5   54  81 
 BTL  SZ EP        553  9.62                             146    -0.210   63  44 
 OCA  SZ EP   2    553 22.86                             112     0.4 4  194  11 
 OCA  SZ ES   2    553 45.09                             112    -0.2 4  194  11 
 OCA  SZ I         553 45.84         4.9 0.45                           194  11 
 HEL  HZ EP   2    553 24.61                             111     0.1 4  210 260 
 HEL  HE ES   2    553 48.98                             111     0.2 4  210 260 
 HEL  HZ I         553 51.24         3.6 0.19                           210 260 
 GUY  SZ EP   2    553 27.98                             108     0.3 4  236 233 
 GUY  SN ES   2    553 54.10                             108    -0.5 4  236 233 
                                                                                
