 2011 12 8 0955 21.3 L   6.729 -73.091146.2  RSN  4 0.4 1.2LRSN                1
 GAP=147        0.69       6.0     8.9  8.1 -0.1070E+02  0.2416E+01  0.1992E+01E
 Epicentro: JORDAN - SANTANDER                                                 3
 ACTION:UPD 12-07-13 16:14 OP:ep   STATUS:               ID:20111208095521 L   I
 2011-12-08-0950-00M.COL___170                                                 6
 STAT SP IPHASW D HRMM SECON CODA AMPLIT PERI AZIMU VELO AIN AR TRES W  DIS CAZ7
 BAR2 SZ ES   1    955 56.01                             173   -0.18 7 18.1 214 
 PAM  SZ EP   1    955 44.05                             150    0.29 7 80.2  33 
 PAM  SN ES   1    956  1.13                             150   -0.13 7 80.2  33 
 PAM  SZ I         956  3.34         3.0 0.43                          80.2  33 
 BRR  HZ EP   1    955 43.30                             149    0.24 7 80.3 301 
 BRR  HZ I         955 43.61         6.2 0.18                          80.3 301 
 BRR  HN ES   2    955 59.85                             149   -0.16 5 80.3 301 
 RUS  HZ EP   1    955 44.03                             146   -0.52 7 92.5 179 
 RUS  HE ES   2    956  3.50                             146    0.83 5 92.5 179 
 RUS  HZ I         956  5.41         1.1 0.29                          92.5 179 
                                                                                
