 2013  4 8 0054 41.2 L   6.812 -73.151145.0  RSN  9 0.5 1.7LRSN                1
 GAP=185        1.08       4.1     6.3  8.2  0.2713E+01 -0.1675E+01  0.2362E-01E
 Epicentro: LOS SANTOS - SANTANDER                                             3
 ACTION:UPD 13-05-22 14:36 OP:EP   STATUS:               ID:20130408005441 L   I
 2013-04-08-0048-35M.COL___221                                                 6
 STAT SP IPHASW D HRMM SECON CODA AMPLIT PERI AZIMU VELO AIN AR TRES W  DIS CAZ7
 BAR2 SZ EP   1    055  0.86                             170    0.12 7 24.5 188 
 BAR2 SZ I         055 16.34         7.6 0.36            169           24.5 188 
 GIR2 SZ EP   1    055  0.91                             168    0.19 7 29.9 351 
 BRR  HZ EP        055  2.58                             153    0.4010 70.1 298 
 BRR  HN ES        055 19.24                             153    0.6810 70.1 298 
 BRR  HE I         055 19.90        12.7 0.18            156           70.1 298 
 RUS  HZ EP        055  5.13                             143    0.1910  102 176 
 RUS  HN ES        055 22.70                             143   -0.7810  102 176 
 RUS  HE I         055 24.26         8.4 0.18            143            102 176 
 PTB  HZ EP        055  7.61                             132   -0.44 9  147 258 
 PTB  HN ES        055 28.53                             132   -0.49 9  147 258 
 PTB  HE I         055 33.78         6.5 0.28            134            147 258 
 NOR  HE ES        055 44.94                             118    0.19 8  235 234 
 SML  HZ EP        055 17.19                             117   -0.42 8  242 335 
 SML  HN ES   1    055 45.51                             117   -0.51 6  242 335 
 CHI  HZ EP   1    055 19.16                             117    0.21 6  250 195 
 CHI  HN ES   1    055 49.38                             117    0.97 6  250 195 
 CHI  HN I         055 54.64         3.7 0.22            117            250 195 
 PRA  HZ EP   1    055 35.41                             106    0.64 4  393 209 
 PRA  HE ES   1    056 16.23                             106   -0.34 4  393 209 
                                                                                
