 2017  8 8 0245 36.2 L   6.392 -73.657104.5  RSN 10 0.5 1.6LRSN                1
 GAP= 78        1.06       3.4     3.5  7.0 -0.7816E-02  0.9189E+01  0.1634E+00E
 Epicentro: SANTA HELENA DEL OPON - SANTANDER                                  3
 ACTION:UPD 17-09-04 20:17 OP:rebc STATUS:               ID:20170808024536 L   I
 OLDACT:UP  17-08-08 14:55 OP:dani STATUS:               ID:20170808023738     3
 OLDACT:UP  17-08-08 14:55 OP:dani STATUS:               ID:20170808023738     3
 OLDACT:REG 17-08-08 13:03 OP:dani STATUS:               ID:20170808023738     3
 2017-08-08-0238-00M.COL___390                                                 6
 STAT SP IPHASW D HRMM SECON CODA AMPLIT PERI AZIMU VELO AIN AR TRES W  DIS CAZ7
 BAR2 EZ EP        245 52.68                             149    0.2010 57.0  67 
 BAR2 EZ ES        246  5.39                             149    0.2310 57.0  67 
 BRR  HZ EP        245 53.73                             140   -0.0010 79.3 356 
 BRR  HN ES        246  7.63                             140    0.2510 79.3 356 
 BRR  HZ I         246  8.84         6.1 0.09            143           79.3 356 
 RUS  HZ EP        245 54.62                             138   -0.1810 84.2 131 
 RUS  HN ES        246  9.32                             138    0.0310 84.2 131 
 RUS  HZ I         246 10.45         3.4 0.10            143           84.2 131 
 PTB  HZ IP     C  245 53.78                             136   -0.8410 89.9 281 
 PTB  HN ES        246  8.20                             136   -0.7610 89.9 281 
 PTB  HZ I         246 10.54        13.3 0.10            136           89.9 281 
 SPBC HZ EP        245 54.90                             135   -0.1610 93.8 209 
 SPBC HE ES        246  9.62                             135   -0.1210 93.8 209 
 SPBC HZ I         246 15.07        10.2 0.22            136           93.8 209 
 NOR  HZ EP        246  1.83                             118    0.01 9  162 236 
 NOR  HN ES        246 22.77                             118    0.99 9  162 236 
 NOR  HZ I         246 24.22         5.4 0.24            120            162 236 
 ZAR  HZ EP        246  3.94                             115    0.25 9  180 313 
 ZAR  HE ES        246 25.48                             115    0.38 9  180 313 
 ZAR  HZ I         246 30.03        10.7 0.25            117            180 313 
 HEL  HZ EP        246  7.16                             111   -0.15 8  208 264 
 HEL  HN ES   3    246 33.25                             111    1.70 2  208 264 
 HEL  HZ I         246 35.79         4.8 0.21            113            208 264 
 GUY2CHZ EP   9    246 11.08                             109    1.26 0  229 236 
 GUY2CHN ES        246 37.43                             109    0.15 8  229 236 
 GUY2CHZ I         246 42.19         2.7 0.33                           229 236 
 CBOC HZ EP   3    246 15.17                             105    1.28 2  267 258 
 CBOC HE ES   4    246 38.94                             105   -4.32 0  267 258 
                                                                                
