 2015  9 8 0417 23.0 L   6.780 -73.134142.0  RSN 18 0.5 2.2LRSN                1
 GAP=184        1.05       2.8     4.1  5.1 -0.8180E+00  0.5335E+01  0.1924E+01E
 Epicentro: LOS SANTOS - SANTANDER                                             3
 ACTION:UPD 15-10-28 16:24 OP:cam  STATUS:               ID:20150908041723 L   I
 OLDACT:REG 15-09-08 13:37 OP:ar   STATUS:               ID:20150908040749     3
 2015-09-08-0407-49M.COL___356                                                 6
 STAT SP IPHASW D HRMM SECON CODA AMPLIT PERI AZIMU VELO AIN AR TRES W  DIS CAZ7
 BAR2 EZ EP        417 42.09                             171   -0.0310 21.5 194 
 BAR2 EZ ES        417 56.73                             171   -0.3110 21.5 194 
 BRR  HZ EP        417 44.13                             151    0.2810 73.4 300 
 BRR  HN ES        418  1.29                             151    1.1710 73.4 300 
 BRR  HZ I         418  5.86        22.9 0.12            148           73.4 300 
 RUS  HZ EP        417 46.04                             144   -0.1510 98.3 177 
 RUS  HN ES        418  4.78                             144    0.4810 98.3 177 
 RUS  HZ I         418  5.86        23.8 0.24            145           98.3 177 
 PTB  HZ EP        417 49.21                             131   -0.51 9  149 260 
 PTB  HE ES        418  9.95                             131   -0.63 9  149 260 
 PTB  HZ I         418 12.17        28.0 0.16            130            149 260 
 SPBC HZ EP        417 51.06                             128   -0.04 9  162 220 
 SPBC HN ES        418 12.59                             128   -0.45 9  162 220 
 SPBC HZ I         418 17.70        28.0 0.22            128            162 220 
 OCA  HZ EP        417 51.31                             128    0.09 9  163 353 
 OCA  HN ES        418 12.40                             128   -0.84 9  163 353 
 OCA  HZ I         418 17.01        38.5 0.24            130            163 353 
 ZAR  HZ EP        417 55.14                             121   -0.25 8  206 293 
 ZAR  HE ES        418 21.03                             121    0.36 8  206 293 
 ZAR  HZ I         418 29.26        14.3 0.40            121            206 293 
 NOR  HZ EP        417 58.13                             118   -0.34 8  234 235 
 NOR  HN ES        418 26.14                             118   -0.01 8  234 235 
 NOR  HZ I         418 31.15        13.4 0.30            118            234 235 
 SML  HZ EP   2    417 59.87                             116    0.20 4  246 335 
 SML  HE ES   2    418 28.37                             116    0.08 4  246 335 
 SML  HZ I         418 30.25        18.7 0.10            118            246 335 
 CHI  HZ EP        418  0.28                             116    0.00 8  247 196 
 CHI  HN ES        418 29.26                             116   -0.11 8  247 196 
 CHI  HZ I         418 37.34         5.6 0.56            118            247 196 
 HEL  HZ EP        418  3.28                             114    0.20 8  273 256 
 HEL  HN ES        418 34.14                             114   -0.22 8  273 256 
 HEL  HZ I         418 40.15         8.0 0.48            114            273 256 
 URE  HZ EP   4    418  3.35                             113   -0.74 0  286 292 
 URE  HN ES   4    418 34.35                             113   -1.81 0  286 292 
 URE  HZ I         418 46.58        10.1 0.18            113            286 292 
 GUY2CHZ EP        418  7.40                             112    1.01 7  301 235 
 GUY2CHN ES        418 39.96                             112   -0.29 7  301 235 
 GUY2CHZ I         418 48.61         8.4 0.38                           301 235 
 CBOC HZ EP        418 10.51                             109    0.71 7  334 253 
 CBOC HN ES        418 46.17                             109   -0.16 7  334 253 
 CBOC HZ I         418 49.79         3.7 0.60            110            334 253 
 TOL  SZ EP        418 11.39                             109    0.38 7  343 225 
 TOL  SN ES        418 48.97                             109    0.50 7  343 225 
 TOL  SZ I         418 56.30         5.6 0.22            110            343 225 
 PRA  HZ EP        418 15.67                             106   -0.55 6  391 210 
 PRA  HN ES        418 57.38                             106   -0.37 6  391 210 
 PRA  HZ I         419  3.51         4.2 0.30            107            391 210 
 ORTC HZ EP   2    418 16.81                             106    0.16 3  394 217 
 ORTC HN ES   2    418 59.50                             106    0.98 3  394 217 
 ORTC HZ I         419  3.30         2.8 0.30            107            394 217 
 SJC  HZ EP   4    418 16.65                             105   -2.06 0  412 327 
 SJC  HN ES   4    418 58.23                             105   -3.96 0  412 327 
 SJC  HZ I         419  1.85         2.7 0.36            106            412 327 
                                                                                
