 2016 10 8 0620 38.7 L   6.563 -73.582112.8  RSN 10 0.4 1.7LRSN                1
 GAP=100        0.81       2.6     3.0  5.9 -0.2332E+01  0.4177E+01 -0.2052E+01E
 Epicentro: EL CARMEN - SANTANDER                                              3
 ACTION:UPD 16-11-09 19:17 OP:rebc STATUS:               ID:20161008062038 L   I
 OLDACT:UP  16-10-08 16:08 OP:dnl  STATUS:               ID:20161008061741     3
 OLDACT:UP  16-10-08 16:07 OP:dnl  STATUS:               ID:20161008061741     3
 OLDACT:REG 16-10-08 12:35 OP:dnl  STATUS:               ID:20161008061741     3
 2016-10-08-0618-00M.COL___351                                                 6
 STAT SP IPHASW D HRMM SECON CODA AMPLIT PERI AZIMU VELO AIN AR TRES W  DIS CAZ7
 BAR2 EZ IP     C  620 55.52                             157    0.3510 44.3  86 
 BAR2 EZ ES        621  8.07                             157    0.0510 44.3  86 
 RUS  HZ EP        620 58.49                             138   -0.2210 92.4 143 
 RUS  HE ES        621 14.02                             138   -0.2910 92.4 143 
 PTB  HZ IP        620 58.43                             136    0.0210 96.7 269 
 PTB  HN ES        621 13.41                             136   -0.3610 96.7 269 
 PTB  HZ I         621 14.71        16.8 0.14            126           96.7 269 
 SPBC HZ EP   2    621  0.57                             131    0.50 5  114 208 
 SPBC HE ES        621 17.18                             131    0.4510  114 208 
 SPBC HZ I         621 22.89         6.1 0.16            121            114 208 
 PAM  EZ EP        621  2.02                             127   -0.0510  130  49 
 PAM  EN ES        621 20.04                             127   -0.2510  130  49 
 PAM  EZ I         621 21.43         8.8 0.14            120            130  49 
 ZAR  HZ EP   4    621  7.80                             118    1.79 0  174 306 
 ZAR  HN ES   4    621 24.57                             118   -2.73 0  174 306 
 ZAR  HZ I         621 25.72        17.7 0.36            111            174 306 
 OCA  HZ EP   3    621  9.43                             116    1.81 2  188   9 
 OCA  HN ES        621 30.54                             116    0.37 9  188   9 
 OCA  HZ I         621 35.31        13.9 0.18            110            188   9 
 CHI  HZ EP   2    621 10.28                             113   -0.64 4  214 184 
 CHI  HN ES        621 36.41                             113    0.36 8  214 184 
 CHI  HZ I         621 41.45         1.6 0.38            106            214 184 
 HEL  HZ EP        621 10.92                             112   -0.49 8  219 259 
 HEL  HE ES   4    621 40.40                             112    3.48 0  219 259 
 HEL  HZ I         621 41.23         2.8 0.34            106            219 259 
 CBOC HZ EP   4    621 16.10                             107   -2.03 0  280 254 
 CBOC HZ I         621 36.10         3.0 0.24            102            280 254 
                                                                                
