 2013 10 8 0753 52.2 L   6.889 -73.135141.9  RSN 10 0.4 1.8LRSN                1
 GAP=185        0.91       3.2     4.9  6.6  0.2906E+01  0.1612E+01 -0.3731E+01E
 Epicentro: LOS SANTOS - SANTANDER                                             3
 ACTION:UPD 13-11-25 09:20 OP:ep   STATUS:               ID:20131008075352 L   I
 OLDACT:REG 13-10-08 07:52 OP:mh   STATUS:               ID:20131008074959     3
 2013-10-08-0749-59M.COL___273                                                 6
 STAT SP IPHASW D HRMM SECON CODA AMPLIT PERI AZIMU VELO AIN AR TRES W  DIS CAZ7
 BAR2 SZ EP   1    754 11.63                             166    0.03 8 33.3 189 
 BAR2 SZ ES   1    754 26.70                             166   -0.04 8 33.3 189 
 BAR2 SZ I         754 28.96        14.3 0.42            166           33.3 189 
 BRR  HZ EP   1    754 13.39                             153    0.65 8 68.2 291 
 BRR  HN ES   1    754 29.15                             153    0.37 8 68.2 291 
 BRR  HZ I         754 31.14         6.5 0.12            149           68.2 291 
 RUS  HZ EP        754 16.33                             140    0.0310  110 177 
 RUS  HN ES        754 35.03                             140   -0.0810  110 177 
 PTB  HZ EP        754 18.60                             130   -0.55 9  151 255 
 PTB  HN ES        754 39.71                             130   -0.48 9  151 255 
 OCA  HZ EP   1    754 19.84                             131    0.55 7  151 352 
 OCA  HN ES   2    754 39.72                             131   -0.71 5  151 352 
 SPBC HZ EP   1    754 21.50                             127    0.29 7  172 217 
 SPBC HN ES        754 43.92                             127    0.06 9  172 217 
 SPBC HZ I         754 49.64         5.1 0.28            127            172 217 
 ZAR  HZ EP   1    754 24.72                             122    0.59 7  202 289 
 ZAR  HN ES        754 49.79                             122    0.74 9  202 289 
 ZAR  HZ I         754 54.64        12.7 0.30            121            202 289 
 SML  HZ EP   1    754 27.58                             118   -0.10 6  235 334 
 SML  HN ES        754 54.56                             118   -0.81 8  235 334 
 SML  HZ I         755  6.14         6.1 0.10            117            235 334 
 NOR  HN ES   2    754 56.38                             117   -0.32 4  242 233 
 GUY2CHZ EP   4    754 38.23                             111    1.85 0  308 233 
 GUY2CHN ES   4    755 14.78                             111    3.92 0  308 233 
 PRA  HZ EP        754 46.47                             105   -0.18 6  401 209 
 PRA  HN ES   2    755 28.70                             105   -0.44 3  401 209 
 PRA  HZ I         755 35.34         1.9 0.34            106            401 209 
 SJC  HZ EP   4    754 43.33                             105   -3.40 0  402 326 
                                                                                
