 2014 11 8 0735 58.4 L   6.756 -73.143149.4  RSN  4 0.3 1.3LRSN                1
 GAP=139        0.68       3.8     3.6  6.0 -0.1554E+01  0.1884E+01  0.2676E+01E
 Epicentro: LOS SANTOS - SANTANDER                                             3
 ACTION:UPD 14-12-19 15:40 OP:nd   STATUS:               ID:20141108073558 L   I
 OLDACT:UP  14-11-08 15:08 OP:cam  STATUS:               ID:20141108072814     3
 OLDACT:REG 14-11-08 13:27 OP:cam  STATUS:               ID:20141108072814     3
 2014-11-08-0728-14M.COL___292                                                 6
 STAT SP IPHASW D HRMM SECON CODA AMPLIT PERI AZIMU VELO AIN AR TRES W  DIS CAZ7
 BRR  HZ EP        736 20.25                             152    0.1610 73.8 302 
 BRR  HN ES        736 37.37                             152    0.3710 73.8 302 
 BRR  HN I         736 39.74         9.0 0.18            153           73.8 302 
 PAM  SZ EP        736 21.42                             150    0.2110 81.0  37 
 PAM  SN ES        736 38.62                             150   -0.3910 81.0  37 
 PAM  SZ I         736 40.44         2.9 0.48            153           81.0  37 
 RUS  HZ EP        736 22.23                             146    0.0610 95.7 176 
 RUS  HN ES        736 40.76                             146    0.0510 95.7 176 
 RUS  HZ I         736 42.28         1.6 0.42            148           95.7 176 
 PTB  HZ EP        736 25.33                             133   -0.28 9  147 261 
 PTB  HN ES        736 46.58                             133   -0.25 9  147 261 
 PTB  HZ I         736 50.24         3.2 0.18            134            147 261 
                                                                                
