 2011 11 8 0112 49.4 L   6.780 -73.132146.9  RSN 12 0.4 2.8LRSN                1
 GAP=139        0.72       2.9     3.5  4.4 -0.2258E+01  0.4116E+01  0.1579E+01E
 Epicentro: LOS SANTOS - SANTANDER                                             3
 ACTION:UPD 12-07-13 16:08 OP:ep   STATUS:               ID:20111108011249 L   I
 2011-11-08-0111-16S.COL___175                                                 6
 STAT SP IPHASW D HRMM SECON CODA AMPLIT PERI AZIMU VELO AIN AR TRES W  DIS CAZ7
 BAR2 SZ IP        113  9.21                             171    0.0610 21.5 195 
 BAR2 SZ ES   1    113 24.29                             171   -0.25 7 21.5 195 
 BAR2 SZ I         113 25.85       103.3 0.20                          21.5 195 
 BRR  HZ EP        113 11.14                             152    0.3110 73.6 299 
 BRR  HE ES        113 28.06                             152    0.5310 73.6 299 
 BRR  HZ I         113 32.26       105.6 0.19                          73.6 299 
 PAM  SZ EP        113 12.02                             151    0.2210 78.1  38 
 PAM  SE ES   1    113 29.00                             151   -0.26 7 78.1  38 
 RUS  HZ EP        113 12.99                             145   -0.1310 98.3 177 
 RUS  HN ES   1    113 31.36                             145   -0.25 7 98.3 177 
 RUS  HZ I         113 32.80        65.5 0.41                          98.3 177 
 OCA  SZ EP        113 17.80                             129   -0.24 9  163 353 
 OCA  SZ ES   2    113 40.25                             129   -0.11 5  163 353 
 OCA  SZ I         113 46.13        82.1 0.27                           163 353 
 ZAR  HZ EP   1    113 21.39                             122   -0.79 6  206 293 
 ZAR  HN ES   1    113 47.21                             122   -0.51 6  206 293 
 ZAR  HZ I         113 54.83        66.3 0.27                           206 293 
 NOR  SZ EP        113 25.34                             119    0.12 8  235 235 
 NOR  SN ES   1    113 52.76                             119   -0.38 6  235 235 
 HEL  HZ EP   1    113 30.10                             115    0.30 6  273 256 
 HEL  HN ES   1    114  1.01                             115   -0.28 6  273 256 
 HEL  HZ I         114  8.02        34.6 0.38                           273 256 
 RREF HZ EP   1    113 36.02                             111    0.43 5  322 230 
 RREF HE ES   1    114 11.58                             111   -0.01 5  322 230 
 RREF HZ I         114 18.73        49.1 0.25                           322 230 
 TOL  SZ EP        113 38.47                             109    0.80 7  343 225 
 COD  HZ EP   1    113 37.76                             109   -0.35 5  351 354 
 PRA  HZ EP   1    113 42.68                             107   -0.17 4  391 210 
 PRA  HE ES   1    114 24.04                             107   -0.48 4  391 210 
                                                                                
