 2011 11 8 0742 49.6 L   6.780 -73.094149.8  RSN  8 0.3 2.3LRSN                1
 GAP=144        0.54       2.9     3.0  3.9 -0.1719E+01  0.3645E+01  0.2518E+01E
 Epicentro: LOS SANTOS - SANTANDER                                             3
 ACTION:UPD 12-07-13 16:08 OP:ep   STATUS:               ID:20111108074249 L   I
 2011-11-08-0739-39S.COL___166                                                 6
 STAT SP IPHASW D HRMM SECON CODA AMPLIT PERI AZIMU VELO AIN AR TRES W  DIS CAZ7
 BAR2 SZ EP        743  9.66                             171    0.0010 22.9 205 
 BAR2 SZ ES   1    743 25.41                             171    0.07 7 22.9 205 
 BAR2 SZ I         743 27.58        40.0 0.23                          22.9 205 
 PAM  SZ EP        743 12.34                             152    0.2410 75.7  35 
 PAM  SN ES        743 29.54                             152   -0.1410 75.7  35 
 BRR  HZ EP        743 11.49                             151    0.0010 77.3 298 
 BRR  HE ES        743 28.79                             151    0.2010 77.3 298 
 BRR  HZ I         743 31.26        47.1 0.17                          77.3 298 
 RUS  HZ EP        743 13.46                             145   -0.0710 98.1 179 
 RUS  HE ES   1    743 32.06                             145   -0.17 7 98.1 179 
 RUS  HZ I         743 33.74        12.0 0.23                          98.1 179 
 ZAR  HZ EP   1    743 22.51                             122   -0.39 6  210 292 
 ZAR  HN ES   2    743 48.20                             122   -0.70 4  210 292 
 ZAR  HZ I         743 53.86        27.9 0.29                           210 292 
 NOR  SZ EP   1    743 25.62                             119   -0.27 6  238 236 
 NOR  SN ES   1    743 53.90                             119   -0.33 6  238 236 
 HEL  HZ EP   1    743 30.43                             115   -0.10 6  277 257 
 HEL  HE ES   2    744  3.13                             115    0.63 4  277 257 
 HEL  HZ I         744  8.04         9.1 0.50                           277 257 
 RREF HZ EP   1    743 36.86                             111    0.65 5  325 230 
 RREF HN ES   1    744 12.99                             111    0.39 5  325 230 
 RREF HZ I         744 22.16        11.4 0.53                           325 230 
                                                                                
