 2012  1 8 0036 54.9 L   6.779 -73.117146.0  RSN 10 0.3 1.6LRSN                1
 GAP=141        0.59       3.6     4.3  5.7 -0.6596E+00  0.1974E+01  0.7477E+01E
 Epicentro: LOS SANTOS - SANTANDER                                             3
 ACTION:UP  12-02-03 08:15 OP:REBC STATUS:               ID:20120108003654 L   I
 2012-01-08-0030-00M.COL___186                                                 6
 STAT SP IPHASW D HRMM SECON CODA AMPLIT PERI AZIMU VELO SNR AR TRES W  DIS CAZ7
 BAR2 SZ EP   1    037 14.40                             171    -0.1 7   22 199 
 BAR2 SZ ES   2    037 29.52                             171    -0.3 5   22 199 
 BAR2 SZ I         037 32.11         8.1 0.36                            22 199 
 GIR2 SZ EP   1    037 14.38                             166    -0.3 7   34 346 
 GIR2 SZ ES   2    037 29.69                             166    -0.4 5   34 346 
 BRR  HZ EP   1    037 16.15                             151    -0.1 7   75 299 
 BRR  HN ES   1    037 33.50                             151     0.5 7   75 299 
 BRR  HZ I         037 36.24        11.3 0.15                            75 299 
 PAM  SZ EP   1    037 17.37                             151     0.2 7   77  37 
 PAM  SN ES   1    037 34.53                             151     0.1 7   77  37 
 RUS  HZ EP   1    037 18.89                             145     0.4 7   98 178 
 RUS  HZ I         037 19.23         3.0 0.33                            98 178 
 RUS  HN ES   2    037 36.79                             145    -0.1 5   98 178 
 PTB  HE ES   2    037 43.51                             132     0.2 5  150 260 
 OCA  SZ ES   2    037 45.48                             129    -0.3 5  163 352 
 OCA  SZ I         037 54.83         7.0 0.39                           163 352 
 ZAR  HN ES   2    037 52.87                             122    -0.5 4  208 292 
 CHI  HZ EP   1    037 32.27                             117    -0.2 6  247 196 
 CHI  HN ES   2    038  1.42                             117    -0.3 4  247 196 
 CHI  HZ I         038  5.69         3.4 0.46                           247 196 
 HEL  HZ EP   2    037 35.61                             115     0.2 4  275 256 
                                                                                
