 2015  6 8 0356  0.6 L   6.858 -73.024147.0  RSN  4 0.4 1.2LRSN                1
 GAP=196        0.91       4.7    13.3 10.0  0.3965E+02 -0.6820E+02 -0.2523E+02E
 Epicentro: CEPITA - SANTANDER                                                 3
 ACTION:UPD 15-09-10 22:10 OP:cam  STATUS:               ID:20150608035600 L   I
 OLDACT:UP  15-06-08 15:52 OP:drio STATUS:               ID:20150608034748     3
 OLDACT:REG 15-06-08 12:12 OP:drio STATUS:               ID:20150608034748     3
 2015-06-08-0347-48M.COL___297                                                 6
 STAT SP IPHASW D HRMM SECON CODA AMPLIT PERI AZIMU VELO AIN AR TRES W  DIS CAZ7
 BRR  HZ EP        356 22.79                             149    0.3610 80.9 290 
 BRR  HN ES        356 39.72                             149    0.2410 80.9 290 
 BRR  HZ I         356 42.94         3.5 0.12            155           80.9 290 
 RUS  HZ EP        356 25.23                             142    0.3110  107 184 
 RUS  HN ES        356 43.39                             142   -0.5210  107 184 
 RUS  HZ I         356 44.91         1.0 0.32            149            107 184 
 OCA  HZ EP        356 28.75                             131    0.15 9  156 348 
 OCA  HN ES        356 50.58                             131    0.12 9  156 348 
 OCA  HZ I         356 55.55         4.6 0.28            134            156 348 
 SML  HZ EP        356 36.99                             118   -0.31 8  244 332 
 SML  HN ES        357  5.27                             118   -0.67 8  244 332 
                                                                                
