 2014 12 8 0902 36.1 L   6.786 -73.176128.2  RSN  7 0.5 1.8LRSN                1
 GAP=108        1.34       5.6     4.9  8.8 -0.3153E+01  0.1028E+02 -0.4339E+01E
 Epicentro: LOS SANTOS - SANTANDER                                             3
 ACTION:UPD 15-02-10 17:01 OP:nd   STATUS:               ID:20141208090236 L   I
 OLDACT:ARG 14-12-08 13:49 OP:stll STATUS:               ID:20141208085746     3
 2014-12-08-0857-46M.COL___303                                                 6
 STAT SP IPHASW D HRMM SECON CODA AMPLIT PERI AZIMU VELO AIN AR TRES W  DIS CAZ7
 BAR2 SZ EP        9 2 54.13                             170    0.5310 21.5 182 
 BAR2 SZ ES        9 3  7.79                             170    0.5510 21.5 182 
 BAR2 SZ I         9 3 10.24        14.1 0.18            169           21.5 182 
 PAM  SZ EP        9 2 57.24                             146    0.5210 80.7  41 
 PAM  SE ES        9 3 11.73                             146   -1.0610 80.7  41 
 RUS  HZ EP        9 2 58.15                             140    0.0610 99.3 174 
 RUS  HN ES        9 3 15.45                             140    0.2210 99.3 174 
 PTB  HZ EP        9 3  1.00                             128   -0.37 9  144 259 
 PTB  HN ES        9 3 20.84                             128   -0.23 9  144 259 
 PTB  HZ I         9 3 24.96         8.3 0.16            128            144 259 
 TAM  HZ EP        9 3  2.76                             126    0.01 9  158 104 
 SPBC HZ EP        9 3  3.03                             125    0.03 9  160 218 
 SPBC HN ES        9 3 23.23                             125   -0.75 9  160 218 
 SPBC HZ I         9 3 31.17         8.6 0.52            126            160 218 
 ZAR  HZ EP        9 3  6.82                             119   -0.40 9  202 293 
 ZAR  HN ES        9 3 32.27                             119    0.80 9  202 293 
 ZAR  HZ I         9 3 38.34         9.2 0.32            120            202 293 
                                                                                
