 2013  3 8 0337 59.7 L   6.795 -73.115149.8  RSN  7 0.5 2.2LRSN                1
 GAP=141        1.18       4.3     6.9  8.1 -0.2759E+01  0.7991E+01  0.6347E+01E
 Epicentro: LOS SANTOS - SANTANDER                                             3
 ACTION:UPD 13-04-09 14:00 OP:ep   STATUS:               ID:20130308033800 L   I
 2013-03-08-0328-50M.COL___200                                                 6
 STAT SP IPHASW D HRMM SECON CODA AMPLIT PERI AZIMU VELO AIN AR TRES W  DIS CAZ7
 BAR2 SZ EP        338 19.85                             171    0.0510 23.6 198 
 BAR2 SZ I         338 20.18        26.8 0.34            168           23.6 198 
 BAR2 SZ ES        338 35.02                             171   -0.4710 23.6 198 
 BRR  HZ EP        338 21.77                             152    0.3210 74.5 298 
 BRR  HN ES        338 39.37                             152    0.9410 74.5 298 
 BRR  HN I         338 42.53        56.8 0.16            151           74.5 298 
 PAM  SZ EP        338 22.73                             152    0.5010 75.7  37 
 PAM  SN ES        338 39.93                             152    0.1210 75.7  37 
 RUS  HZ EP        338 23.82                             145    0.0410 99.9 178 
 RUS  HN ES        338 42.35                             145   -0.2210 99.9 178 
 PTB  HZ EP        338 26.80                             132   -0.47 9  151 259 
 PTB  HE ES   1    338 48.55                             132   -0.24 7  151 259 
 OCA  HN ES        338 49.85                             130   -0.95 9  161 352 
 CHI  HZ EP   1    338 37.72                             118    0.08 6  249 196 
 CHI  HN ES        339  7.27                             118    0.01 8  249 196 
 CHI  HN I         339 12.61         8.9 0.30            118            249 196 
                                                                                
