 2012  4 8 0037 53.0 L   6.332 -73.364124.1  RSN 10 0.4 1.8LRSN                1
 GAP=113        0.86       4.2     4.2  7.0 -0.2381E+01  0.1192E+02  0.1652E+01E
 Epicentro: CHIMA - SANTANDER                                                  3
 ACTION:UPD 12-07-05 11:51 OP:tino STATUS:               ID:20120408003753 L   I
 2012-04-08-0035-59S.COL___204                                                 6
 STAT SP IPHASW D HRMM SECON CODA AMPLIT PERI AZIMU VELO AIN AR TRES W  DIS CAZ7
 BAR2 SZ EP   1    038 10.40                             163     0.0 7   35  35 
 BAR2 SZ I         038 10.68        19.3 0.10                            35  35 
 BAR2 SZ ES   1    038 23.72                             163    -0.2 7   35  35 
 RUS  HZ EP   1    038 11.97                             154     0.2 7   58 147 
 RUS  HN ES   1    038 26.48                             154     0.1 7   58 147 
 RUS  HZ I         038 29.26        11.0 0.39                            58 147 
 BRR  HZ EP   1    038 13.60                             140     0.1 7   94 336 
 BRR  HN ES   1    038 30.15                             140     0.7 7   94 336 
 PTB  HZ EP   1    038 15.43                             132    -0.5 7  123 281 
 PTB  HE ES   1    038 33.36                             132    -0.5 7  123 281 
 PTB  HZ I         038 35.76        10.8 0.13                           123 281 
 PAM  SZ EP   1    038 17.64                             130     0.1 7  133  33 
 PAM  SE ES   1    038 36.35                             130    -0.4 7  133  33 
 PAM  SZ I         038 38.75         3.7 0.26                           133  33 
 NOR  SZ EP   1    038 22.43                             119     0.1 7  187 243 
 NOR  SE ES   1    038 45.58                             119     0.3 7  187 243 
 ZAR  HZ EP   1    038 24.30                             116    -0.4 6  209 308 
 ZAR  HN ES   1    038 49.26                             116    -0.1 6  209 308 
 ZAR  HZ I         038 55.19        12.6 0.45                           209 308 
 HEL  HZ EP   1    038 29.45                             113     0.9 6  240 266 
 HEL  HZ I         039  3.49         6.2 0.31                           240 266 
 RREF HZ EP   2    038 32.67                             110     0.3 4  271 234 
 RREF HZ I         039 10.18         4.2 0.32                           271 234 
 PRA  HN ES   2    039 14.19                             105    -0.9 3  335 210 
                                                                                
