 2011  5 8 0421 56.6 L   6.786 -73.096144.9  RSN  8 0.3 1.6LRSN                1
 GAP=144        0.64       4.0     7.8  6.5 -0.2736E+01  0.5273E+01 -0.6948E+01E
 Epicentro: LOS SANTOS - SANTANDER                                             3
 ACTION:UP  11-06-29 08:51 OP:tino STATUS:               ID:20110508042157 L   I
 2011-05-08-0417-54S.COL___133                                                 6
 STAT SP IPHASW D HRMM SECON CODA AMPLIT PERI AZIMU VELO SNR AR TRES W  DIS CAZ7
 BAR2 SZ EP   1    422 16.27                             170     0.2 7   23 204 
 BAR2 SZ ES   1    422 30.87                             170    -0.5 7   23 204 
 BAR2 SZ I         422 33.54         8.4 0.23                            23 204 
 BTL  SZ EP   1    422 16.29                             170     0.2 7   24 308 
 PAM  SZ EP   2    422 18.34                             151    -0.2 5   75  36 
 BRR  HZ EP   1    422 17.93                             150     0.0 7   77 298 
 BRR  HE ES   2    422 35.02                             150     0.4 5   77 298 
 BRR  HZ I         422 38.38         5.2 0.14                            77 298 
 RUS  HZ EP   2    422 20.79                             144     0.7 5   99 179 
 RUS  HN ES   2    422 38.42                             144     0.0 5   99 179 
 RUS  HZ I         422 40.56         5.1 0.37                            99 179 
 GRA  SZ EP   1    422 21.70                             137     0.0 7  126  15 
 GRA  SZ ES   2    422 41.83                             137     0.5 5  126  15 
 GRA  SZ I         422 42.86         6.1 0.23                           126  15 
 OCA  SZ EP   1    422 24.56                             129    -0.5 7  163 351 
 OCA  SZ ES   1    422 47.32                             129     0.1 7  163 351 
 OCA  SZ I         422 52.25         4.9 0.35                           163 351 
 DBB  SZ EP   1    422 44.53                             109    -0.1 5  345 274 
                                                                                
