 2014  2 8 0453 29.5 L   6.792 -73.151149.5  RSN 12 0.5 1.7LRSN                1
 GAP=136        0.87       2.9     4.4  7.7 -0.2242E+01  0.5697E+01  0.3810E+01E
 Epicentro: LOS SANTOS - SANTANDER                                             3
 ACTION:UPD 14-03-10 08:08 OP:ep   STATUS:               ID:20140208045329 L   I
 OLDACT:UP  14-02-08 12:50 OP:mh   STATUS:               ID:20140208045000     3
 OLDACT:UP  14-02-08 12:50 OP:mh   STATUS:               ID:20140208045000     3
 OLDACT:REG 14-02-08 07:39 OP:mh   STATUS:               ID:20140208045000     3
 2014-02-08-0450-00M.COL___291                                                 6
 STAT SP IPHASW D HRMM SECON CODA AMPLIT PERI AZIMU VELO AIN AR TRES W  DIS CAZ7
 BAR2 SZ EP   1    453 50.54                             171    0.97 7 22.3 189 
 BAR2 SZ I         454  7.48         9.7 0.27            172           22.3 189 
 PAM  SZ EP        453 52.35                             151    0.1610 78.5  39 
 PAM  SN ES   1    454  9.86                             151   -0.02 7 78.5  39 
 PAM  SZ I         454 13.61         4.4 0.31            153           78.5  39 
 RUS  HZ EP        453 53.40                             145   -0.1710 99.7 176 
 RUS  HN ES   1    454 12.02                             145   -0.31 7 99.7 176 
 RUS  HZ I         454 14.76         3.8 0.53            147           99.7 176 
 PTB  HZ EP   1    453 56.35                             133   -0.37 7  147 259 
 PTB  HN ES   1    454 17.40                             133   -0.54 7  147 259 
 PTB  HZ I         454 23.47         4.4 0.17            135            147 259 
 OCA  HE ES   1    454 20.38                             130   -0.19 7  161 353 
 OCA  HZ I         454 25.03         4.2 0.16            132            161 353 
 SPBC HZ EP   1    453 58.43                             130    0.23 7  162 219 
 SPBC HN ES   1    454 20.52                             130   -0.05 7  162 219 
 SPBC HZ I         454 25.47         5.9 0.33            132            162 219 
 ZAR  HN ES   1    454 28.36                             123    0.69 6  204 292 
 ZAR  HZ I         454 34.34        15.4 0.05            125            204 292 
 NOR  HE ES        454 33.92                             119    0.61 8  234 235 
 NOR  HZ I         454 37.21         5.0 0.24            121            234 235 
 SML  HZ EP   1    454  6.40                             118   -0.02 6  244 336 
 SML  HE ES   1    454 34.36                             118   -0.84 6  244 336 
 SML  HZ I         454 39.92         5.7 0.10            120            244 336 
 CHI  HZ EP        454  7.09                             118   -0.22 8  248 195 
 CHI  HN ES        454 36.75                             118   -0.04 8  248 195 
 CHI  HZ I         454 45.12         1.8 0.52            120            248 195 
 GUY2CHZ EP   4    454 14.49                             113    1.30 0  300 235 
 GUY2CHN ES   4    454 50.16                             113    2.91 0  300 235 
 GUY2CHZ I         454 54.72         2.4 0.30                           300 235 
 PRA  HZ EP        454 23.28                             107    0.24 6  391 210 
 PRA  HN ES   1    455  3.85                             107   -0.94 4  391 210 
 PRA  HZ I         455  9.87         1.5 0.31            109            391 210 
 SJC  HZ EP   4    454 23.83                             106   -1.43 0  410 327 
 SJC  HN ES   4    455  5.21                             106   -3.52 0  410 327 
                                                                                
