 2017  8 8 0940  8.3 L   6.790 -73.171140.0  RSN  6 0.6 1.0LRSN                1
 GAP=234        1.20       7.2     7.2  9.0  0.2477E+02  0.1570E+02  0.1133E+02E
 Epicentro: LOS SANTOS - SANTANDER                                             3
 ACTION:UPD 17-09-04 20:17 OP:rebc STATUS:               ID:20170808094008 L   I
 OLDACT:UP  17-08-08 17:27 OP:dani STATUS:               ID:20170808093745d    3
 OLDACT:UP  17-08-08 17:27 OP:dani STATUS:               ID:20170808093745d    3
 OLDACT:UP  17-08-08 17:26 OP:dani STATUS:               ID:20170808093745d    3
 OLDACT:UP  17-08-08 17:26 OP:dani STATUS:               ID:20170808093745d    3
 OLDACT:DUP 17-08-08 17:24 OP:dani STATUS:               ID:20170808093745d    3
 2017-08-08-0938-00M.COL___375                                                 6
 STAT SP IPHASW D HRMM SECON CODA AMPLIT PERI AZIMU VELO AIN AR TRES W  DIS CAZ7
 BAR2 EZ EP        940 26.94                             171   -0.2410 21.9 183 
 BAR2 EZ ES        940 41.28                             171   -0.6510 21.9 183 
 BRR  HN ES        940 45.48                             152    0.8610 69.3 300 
 RUS  HZ EP        940 31.20                             143   -0.2010 99.7 174 
 RUS  HN ES        940 50.04                             143    0.6010 99.7 174 
 RUS  HZ I         940 50.51         1.5 0.31            145           99.7 174 
 PTB  HZ EP        940 34.78                             132    0.28 9  145 259 
 PTB  HN ES        940 54.71                             132   -0.25 9  145 259 
 PTB  HZ I         940 58.02         1.0 0.10            130            145 259 
 SPBC HZ EP        940 35.81                             128   -0.28 9  161 218 
 SPBC HN ES        940 57.85                             128    0.07 9  161 218 
 ZAR  HZ EP   3    940 42.35                             122    2.23 2  202 293 
 ZAR  HN ES        941  4.51                             122   -0.45 9  202 293 
 ZAR  HZ I         941 13.56         1.3 0.25            120            202 293 
                                                                                
