 2014  9 8 0215 39.2 L   6.052 -73.736112.9  RSN  5 0.1 1.6LRSN                1
 GAP=161        0.41       1.8     2.2  3.6 -0.1495E+01  0.1964E+01 -0.1506E+01E
 Epicentro: BOLIVAR - SANTANDER                                                3
 ACTION:UPD 14-10-03 23:03 OP:nd   STATUS:               ID:20140908021539 L   I
 OLDACT:REG 14-09-08 13:07 OP:mh   STATUS:               ID:20140908020818     3
 2014-09-08-0208-18M.COL___260                                                 6
 STAT SP IPHASW D HRMM SECON CODA AMPLIT PERI AZIMU VELO AIN AR TRES W  DIS CAZ7
 SPBC HZ EP        215 56.11                             151   -0.1010 57.8 220 
 SPBC HN ES        216  9.31                             151   -0.1410 57.8 220 
 BAR2 SZ EP        215 58.45                             140    0.1110 85.6  46 
 BAR2 SZ ES   1    216 13.30                             140    0.06 7 85.6  46 
 BAR2 SZ I         216 15.31        22.0 0.06            145           85.6  46 
 NOR  HZ EP        216  2.85                             126    0.18 9  137 247 
 NOR  HN ES        216 21.08                             126    0.12 9  137 247 
 NOR  HZ I         216 28.15         2.0 0.07            127            137 247 
 ZAR  HZ EP        216  9.26                             114   -0.27 9  202 322 
 ZAR  HN ES        216 33.21                             114    0.05 9  202 322 
 ZAR  HZ I         216 35.36         4.7 0.10            117            202 322 
 PRA  HN ES        216 50.86                             106   -0.03 7  288 206 
 PRA  HZ I         216 54.90         2.3 0.43            108            288 206 
                                                                                
