 2017  8 8 0451 36.9 L   6.791 -73.128144.0  RSN 10 0.5 1.6LRSN                1
 GAP=139        1.11       4.4     4.4  6.4 -0.2342E+01  0.8965E+01  0.3395E+01E
 Epicentro: LOS SANTOS - SANTANDER                                             3
 ACTION:UPD 17-09-04 20:17 OP:rebc STATUS:               ID:20170808045136 L   I
 OLDACT:UP  17-08-08 15:49 OP:dani STATUS:               ID:20170808044732     3
 OLDACT:UP  17-08-08 15:48 OP:dani STATUS:               ID:20170808044732     3
 OLDACT:REG 17-08-08 13:11 OP:dani STATUS:               ID:20170808044732     3
 2017-08-08-0448-00M.COL___381                                                 6
 STAT SP IPHASW D HRMM SECON CODA AMPLIT PERI AZIMU VELO AIN AR TRES W  DIS CAZ7
 BAR2 EZ EP        451 56.38                             171    0.0310 22.7 195 
 BAR2 EZ ES        452 11.24                             171   -0.2510 22.7 195 
 BAR2 EZ I         452 11.92         5.8 0.28            167           22.7 195 
 BRR  HZ EP     C  451 58.24                             151    0.2110 73.4 299 
 BRR  HN ES        452 15.32                             151    0.8410 73.4 299 
 BRR  HZ I         452 18.54         6.2 0.15            149           73.4 299 
 PAM  EZ EP        451 59.31                             151    0.3610 77.0  38 
 PAM  EN ES        452 15.40                             151   -0.7110 77.0  38 
 PAM  EZ I         452 16.94         6.0 0.11            156           77.0  38 
 RUS  HZ EP        452  0.53                             144    0.0910 99.4 177 
 RUS  HN ES        452 18.95                             144    0.1810 99.4 177 
 RUS  HZ I         452 22.22         2.1 0.44            143           99.4 177 
 PTB  HZ EP        452  3.24                             131   -0.69 9  150 259 
 PTB  HN ES        452 24.41                             131   -0.57 9  150 259 
 PTB  HZ I         452 26.57         5.1 0.18            130            150 259 
 SPBC HZ EP        452  5.35                             129   -0.00 9  164 220 
 SPBC HN ES        452 28.06                             129    0.55 9  164 220 
 SPBC HZ I         452 33.38         6.6 0.18            128            164 220 
 ZAR  HZ EP        452  9.24                             122   -0.27 8  206 292 
 ZAR  HN ES        452 35.49                             122    0.58 8  206 292 
 ZAR  HZ I         452 40.83         7.1 0.26            122            206 292 
 NOR  HZ EP        452 12.88                             118    0.20 8  236 235 
 NOR  HN ES        452 39.99                             118   -0.57 8  236 235 
 NOR  HZ I         452 44.56         2.5 0.09            118            236 235 
 CBOC HZ EP   3    452 25.24                             109    1.27 2  335 252 
 CBOC HN ES        453  0.01                             109   -0.64 7  335 252 
 CBOC HZ I         453 13.49         5.5 1.01            110            335 252 
 PRA  HZ EP        452 30.77                             106    0.35 6  392 210 
 PRA  HZ ES   3    453 13.97                             106    1.85 1  392 210 
 PRA  HZ I         453 21.07         1.7 0.23            107            392 210 
                                                                                
