 2016  1 8 0038 57.9 L   6.797 -73.168146.0  RSN 16 0.5 2.4LRSN                1
 GAP=134        1.09       3.1     3.9  5.5 -0.2407E+01  0.6293E+01  0.3358E+01E
 Epicentro: LOS SANTOS - SANTANDER                                             3
 ACTION:UPD 16-03-09 23:23 OP:cam  STATUS:               ID:20160108003857 L   I
 OLDACT:REG 16-01-08 12:22 OP:drio STATUS:               ID:20160108003743     3
 2016-01-08-0037-43M.COL___302                                                 6
 STAT SP IPHASW D HRMM SECON CODA AMPLIT PERI AZIMU VELO AIN AR TRES W  DIS CAZ7
 BAR2 EZ EP        039 17.42                             171   -0.0810 22.7 184 
 BAR2 EZ ES        039 31.99                             171   -0.8410 22.7 184 
 BAR2 EZ I         039 33.41        64.1 0.22            169           22.7 184 
 BRR  HZ EP        039 19.16                             153    0.2410 69.2 300 
 BRR  HE ES        039 36.44                             153    1.0910 69.2 300 
 BRR  HZ I         039 42.42        35.5 0.18            152           69.2 300 
 PAM  EZ EP        039 20.45                             150    0.2410 79.2  41 
 PAM  EN ES        039 37.40                             150   -0.2410 79.2  41 
 PAM  EZ I         039 40.19        26.2 0.44            155           79.2  41 
 RUS  HZ EP        039 21.61                             144   -0.0110  101 175 
 RUS  HN ES        039 40.24                             144    0.0710  101 175 
 RUS  HZ I         039 41.19        30.8 0.24            145            101 175 
 PTB  HZ EP        039 24.06                             133   -0.56 9  145 259 
 PTB  HN ES        039 45.27                             133   -0.22 9  145 259 
 PTB  HZ I         039 47.28        34.4 0.58            132            145 259 
 OCA  HN ES        039 48.30                             130    0.02 9  160 354 
 SPBC HZ EP        039 26.32                             129    0.12 9  161 218 
 SPBC HN ES        039 48.81                             129    0.49 9  161 218 
 SPBC HZ I         039 53.93        39.7 0.20            130            161 218 
 ZAR  HZ EP   4    039 31.65                             123    1.56 0  202 292 
 ZAR  HN ES        039 55.33                             123    0.10 9  202 292 
 ZAR  HZ I         039 57.74        27.1 0.30            123            202 292 
 NOR  HZ EP        039 33.62                             119    0.26 8  232 234 
 NOR  HE ES        040  0.17                             119   -0.89 8  232 234 
 NOR  HZ I         040  8.72        16.3 0.16            120            232 234 
 SML  HZ EP        039 33.70                             118   -0.71 8  243 336 
 SML  HN ES   4    040  1.95                             118   -0.97 0  243 336 
 SML  HZ I         040  6.25        32.5 0.10            119            243 336 
 CHI  HZ EP        039 35.69                             117    0.22 8  248 195 
 CHI  HE ES        040  5.14                             117    0.34 8  248 195 
 CHI  HZ I         040  7.35        19.6 0.36            119            248 195 
 ROSC BZ EP   4    039 37.85                             117    2.03 0  251 211 
 ROSC BN ES   4    040  7.29                             117    1.85 0  251 211 
 ROSC BZ I         040 12.14        37.3 0.40            118            251 211 
 HEL  HZ EP   4    039 39.19                             115    1.39 0  270 256 
 HEL  HN ES        040  8.99                             115    0.03 8  270 256 
 HEL  HZ I         040 15.28        11.8 0.34            116            270 256 
 GUY2CHZ EP        039 41.92                             112    0.70 7  299 235 
 GUY2CHN ES        040 14.77                             112   -0.28 7  299 235 
 GUY2CHZ I         040 25.28         9.8 0.22                           299 235 
 SOCV BZ EP   4    039 39.15                             112   -2.02 0  304  57 
 SOCV BE ES   4    040 10.59                             112   -4.36 0  304  57 
 ORTC HZ EP        039 51.38                             106   -0.20 6  394 216 
 ORTC HN ES        040 33.68                             106    0.19 6  394 216 
 ORTC HZ I         040 41.17         6.8 0.54            108            394 216 
 PAL  HZ EP        039 53.04                             106    0.29 6  403 239 
 PAL  HE ES        040 34.98                             106   -0.59 6  403 239 
 PAL  HZ I         040 41.24         4.6 0.36            107            403 239 
                                                                                
