 2013  2 8 0647 33.5 L   6.795 -73.184144.6  RSN  6 0.3 1.8LRSN                1
 GAP=132        0.72       4.0     4.1  6.3 -0.3226E+01  0.2786E+01  0.8063E+01E
 Epicentro: LOS SANTOS - SANTANDER                                             3
 ACTION:UPD 13-03-12 09:31 OP:ep   STATUS:               ID:20130208064733 L   I
 2013-02-08-0640-00M.COL___241                                                 6
 STAT SP IPHASW D HRMM SECON CODA AMPLIT PERI AZIMU VELO AIN AR TRES W  DIS CAZ7
 BAR2 SZ EP   1    647 52.93                             171   -0.07 7 22.4 180 
 BAR2 SZ ES   1    648  8.07                             171   -0.11 7 22.4 180 
 BAR2 SZ I         648  9.13        12.1 0.38            170           22.4 180 
 BRR  HN EP   1    647 54.92                             153    0.56 7 67.8 301 
 BRR  HE ES   1    648 11.33                             153    0.72 7 67.8 301 
 BRR  HE I         648 14.54        12.7 0.18            151           67.8 301 
 PAM  SZ EP   1    647 55.66                             150   -0.15 7 80.5  42 
 PAM  SN ES        648 12.94                             150   -0.2510 80.5  42 
 PAM  SN I         648 13.85         7.8 0.46            154           80.5  42 
 RUS  HZ EP   1    647 57.17                             144    0.02 7  100 174 
 RUS  HN ES   1    648 15.78                             144    0.20 7  100 174 
 RUS  HN I         648 17.13         9.3 0.40            145            100 174 
 PTB  HZ EP   1    647 59.85                             133   -0.16 7  144 259 
 PTB  HN ES        648 20.19                             133   -0.49 9  144 259 
 PTB  HN I         648 26.46        15.6 0.34            132            144 259 
 CHI  HZ EP   1    648 11.18                             117    0.20 6  247 194 
 CHI  HN ES   1    648 40.28                             117    0.08 6  247 194 
 CHI  HN I         648 42.70         4.0 0.36            119            247 194 
                                                                                
