 2017  3 8 0802 49.3 L   6.782 -73.117151.1  RSN  6 0.2 1.2LRSN                1
 GAP=220        0.85       5.1     7.1  6.5  0.7489E+01 -0.1892E+02  0.1020E+01E
 Epicentro: LOS SANTOS - SANTANDER                                             3
 ACTION:UPD 17-05-25 18:37 OP:jn   STATUS:               ID:20170308080249 L   I
 OLDACT:UP  17-03-08 20:23 OP:and  STATUS:               ID:20170308075742d    3
 OLDACT:UP  17-03-08 20:23 OP:and  STATUS:               ID:20170308075742d    3
 OLDACT:UP  17-03-08 20:23 OP:and  STATUS:               ID:20170308075742d    3
 OLDACT:UP  17-03-08 20:23 OP:and  STATUS:               ID:20170308075742d    3
 OLDACT:UP  17-03-08 20:23 OP:and  STATUS:               ID:20170308075742d    3
 OLDACT:UP  17-03-08 20:21 OP:and  STATUS:               ID:20170308075742d    3
 OLDACT:UP  17-03-08 20:21 OP:and  STATUS:               ID:20170308075742d    3
 OLDACT:UP  17-03-08 20:21 OP:and  STATUS:               ID:20170308075742d    3
 OLDACT:DUP 17-03-08 20:19 OP:and  STATUS:               ID:20170308075742d    3
 OLDACT:UP  17-03-08 20:18 OP:and  STATUS:               ID:20170308075741     3
 OLDACT:UP  17-03-08 20:18 OP:and  STATUS:               ID:20170308075741     3
 OLDACT:UP  17-03-08 20:17 OP:and  STATUS:               ID:20170308075741     3
 OLDACT:UP  17-03-08 20:17 OP:and  STATUS:               ID:20170308075741     3
 OLDACT:UP  17-03-08 20:17 OP:and  STATUS:               ID:20170308075741     3
 OLDACT:UP  17-03-08 20:16 OP:and  STATUS:               ID:20170308075741     3
 OLDACT:UP  17-03-08 20:15 OP:and  STATUS:               ID:20170308075741     3
 OLDACT:UP  17-03-08 20:15 OP:and  STATUS:               ID:20170308075741     3
 OLDACT:UP  17-03-08 20:14 OP:and  STATUS:               ID:20170308075741     3
 OLDACT:UP  17-03-08 20:13 OP:and  STATUS:               ID:20170308075741     3
 OLDACT:UP  17-03-08 20:13 OP:and  STATUS:               ID:20170308075741     3
 OLDACT:REG 17-03-08 13:05 OP:and  STATUS:               ID:20170308075741     3
 2017-03-08-0758-00M.COL___326                                                 6
 STAT SP IPHASW D HRMM SECON CODA AMPLIT PERI AZIMU VELO AIN AR TRES W  DIS CAZ7
 BAR2 EZ EP        8 3  9.48                             172   -0.0710 22.2 199 
 BAR2 EZ ES        8 3 25.24                             172   -0.1110 22.2 199 
 BRR  HZ EP        8 3 11.28                             153    0.0510 74.9 299 
 BRR  HE ES        8 3 28.34                             153   -0.0010 74.9 299 
 RUS  HZ EP        8 3 13.73                             145    0.3010 98.4 178 
 RUS  HN ES        8 3 32.40                             145    0.1510 98.4 178 
 RUS  HZ I         8 3 33.02         2.4 0.30            142           98.4 178 
 PTB  HZ EP   9    8 3 16.36                             133   -0.59 0  150 260 
 PTB  HN ES        8 3 37.11                             132   -0.82 9  150 260 
 PTB  HZ I         8 3 41.72         1.2 0.16            128            150 260 
 SPBC HN ES        8 3 40.80                             130   -0.04 9  164 220 
 SPBC HZ I         8 3 44.94         2.1 0.28            126            164 220 
 ZAR  HN ES   4    8 3 48.05                             123   -0.29 0  208 292 
 PTGC HZ EP        8 3 32.47                             113   -0.59 7  306 159 
                                                                                
