 2017  3 8 0108 29.0 L   6.779 -73.116148.0  RSN 13 0.4 1.7LRSN                1
 GAP=123        0.70       2.6     3.1  4.1 -0.2250E+00  0.3919E+01  0.2565E+01E
 Epicentro: LOS SANTOS - SANTANDER                                             3
 ACTION:UPD 17-05-25 18:37 OP:jn   STATUS:               ID:20170308010829 L   I
 OLDACT:UP  17-03-08 14:40 OP:and  STATUS:               ID:20170308010745     3
 OLDACT:UP  17-03-08 14:40 OP:and  STATUS:               ID:20170308010745     3
 OLDACT:UP  17-03-08 14:39 OP:and  STATUS:               ID:20170308010745     3
 OLDACT:UP  17-03-08 14:39 OP:and  STATUS:               ID:20170308010745     3
 OLDACT:UP  17-03-08 14:38 OP:and  STATUS:               ID:20170308010745     3
 OLDACT:UP  17-03-08 14:38 OP:and  STATUS:               ID:20170308010745     3
 OLDACT:UP  17-03-08 14:37 OP:and  STATUS:               ID:20170308010745     3
 OLDACT:UP  17-03-08 14:36 OP:and  STATUS:               ID:20170308010745     3
 OLDACT:REG 17-03-08 12:27 OP:and  STATUS:               ID:20170308010745     3
 2017-03-08-0108-00M.COL___356                                                 6
 STAT SP IPHASW D HRMM SECON CODA AMPLIT PERI AZIMU VELO AIN AR TRES W  DIS CAZ7
 BAR2 EZ IP     C  1 8 48.84                             171    0.0010 21.9 200 
 BAR2 EZ I         1 8 59.83         4.1 0.19            166           21.9 200 
 BAR2 EZ ES        1 9  4.17                             171   -0.1710 21.9 200 
 BRR  HZ EP        1 8 50.81                             152    0.2210 75.2 299 
 BRR  HN ES        1 9  8.04                             152    0.5910 75.2 299 
 BRR  HZ I         1 9 12.16         7.5 0.15            148           75.2 299 
 PAM  EZ EP        1 8 51.57                             151    0.1610 77.2  37 
 PAM  EN ES        1 9  8.78                             151   -0.1310 77.2  37 
 PAM  EZ I         1 9  9.52         6.4 0.20            156           77.2  37 
 RUS  HZ EP        1 8 52.57                             145   -0.1910 98.1 178 
 RUS  HN ES        1 9 11.36                             145    0.0410 98.1 178 
 RUS  HZ I         1 9 12.59         8.6 0.38            143           98.1 178 
 PTB  HZ EP        1 8 55.79                             132   -0.58 9  151 260 
 PTB  HN ES   3    1 9 16.28                             132   -1.47 2  151 260 
 PTB  HZ I         1 9 24.14         6.7 0.32            129            151 260 
 SPBC HZ EP        1 8 57.77                             130    0.10 9  164 220 
 SPBC HN ES        1 9 19.96                             130   -0.10 9  164 220 
 SPBC HZ I         1 9 22.25         8.9 0.19            127            164 220 
 ZAR  HZ EP   2    1 9  1.87                             122   -0.09 4  208 292 
 ZAR  HN ES        1 9 27.30                             122   -0.40 8  208 292 
 ZAR  HZ I         1 9 32.44         7.4 0.34            121            208 292 
 NOR  HZ EP        1 9  5.03                             119    0.05 8  236 235 
 NOR  HN ES   2    1 9 33.67                             119    0.61 4  236 235 
 NOR  HZ I         1 9 38.31         4.5 0.18            117            236 235 
 CHI  HZ EP        1 9  6.65                             118    0.00 8  247 196 
 CHI  HN ES        1 9 36.29                             118    0.25 8  247 196 
 CHI  HZ I         1 9 44.73         1.4 0.27            117            247 196 
 ROSC BZ EP   4    1 9  8.63                             117    1.45 0  253 212 
 ROSC BN ES   4    1 9 39.41                             117    2.42 0  253 212 
 ROSC BZ I         1 9 46.83         9.9 0.40            116            253 212 
 GUY2CHZ EP   2    1 9 13.69                             113    0.85 4  303 235 
 GUY2CHN ES   4    1 9 51.32                             113    4.27 0  303 235 
 GUY2CHZ  IAML     1 9 55.69         4.2 0.72                           303 235 
 PTGC HZ EP   2    1 9 11.77                             112   -0.78 4  305 159 
 CBOC HZ EP   2    1 9 17.01                             110    0.75 3  336 253 
 CBOC HN ES        1 9 53.09                             110   -0.05 7  336 253 
 CBOC HZ I         110 11.57         1.3 0.38            109            336 253 
                                                                                
