 2012  5 8 0625 57.2 L   6.779 -73.142142.7  RSN  9 0.4 1.9LRSN                1
 GAP=138        0.67       5.1     5.3  7.7 -0.8327E+00  0.8464E+01  0.1402E+02E
 Epicentro: LOS SANTOS - SANTANDER                                             3
 ACTION:UP  12-07-05 12:03 OP:pat  STATUS:               ID:20120508062557 L   I
 2012-05-08-0620-00M.COL___192                                                 6
 STAT SP IPHASW D HRMM SECON CODA AMPLIT PERI AZIMU VELO SNR AR TRES W  DIS CAZ7
 OCA2 HZ EP   2    626 24.85                                                    
 OCA2 HN ES   2    626 46.55                                                    
 BAR2 SZ EP        626 16.34                             171    -0.110   21 192 
 BAR2 SZ I         626 32.30        16.1 0.20                            21 192 
 BRR  HZ EP        626 18.33                             151     0.210   73 300 
 BRR  HN ES   1    626 34.59                             151     0.2 7   73 300 
 BRR  HZ I         626 36.27        20.2 0.14                            73 300 
 PAM  SZ EP        626 19.31                             149     0.110   79  38 
 PAM  SN ES   1    626 36.05                             149    -0.3 7   79  38 
 RUS  HZ EP        626 20.66                             144     0.210   98 176 
 RUS  HN ES   2    626 38.16                             144    -0.5 5   98 176 
 RUS  HZ I         626 39.85         8.5 0.40                            98 176 
 PTB  HZ EP        626 23.54                             131    -0.4 9  148 260 
 ZAR  HZ EP   3    626 29.55                             121     0.0 2  205 293 
 ZAR  HZ I         627  0.50        11.8 0.60                           205 293 
 MON  HZ EP   3    626 44.32                             108    -2.0 2  355 309 
 PRA  HZ EP   2    626 50.82                             106     0.4 3  390 210 
                                                                                
