 2012  3 8 0945 21.8 L   6.716 -73.226149.6  RSN  5 0.3 1.5LRSN                1
 GAP=221        0.64       5.7     7.3  9.3  0.2374E+02  0.1668E+02  0.3563E+01E
 ACTION:UP  12-03-31 23:18 OP:EP   STATUS:               ID:20120308094521 L   I
 2012-03-08-0940-00M.COL___194                                                 6
 STAT SP IPHASW D HRMM SECON CODA AMPLIT PERI AZIMU VELO SNR AR TRES W  DIS CAZ7
 BRR  HZ EP   1    945 43.31                             154     0.1 7   69 309 
 BRR  HE ES   1    946  0.15                             154     0.2 7   69 309 
 BRR  HZ I         946  6.26         6.3 0.37                            69 309 
 RUS  HN ES   1    946  3.48                             147    -0.3 7   92 170 
 PTB  HZ EP   1    945 48.42                             135     0.2 7  137 262 
 PTB  HN ES   1    946  9.06                             135     0.3 7  137 262 
 ZAR  HE ES   1    946 18.56                             124    -0.6 6  200 296 
 CHI  HN ES   2    946 27.09                             119    -0.1 4  237 194 
                                                                                
