 2017  7 8 0907 40.1 L   6.739 -73.189155.6  RSN  4 0.3 1.2LRSN                1
 GAP=232        0.70       8.3     5.4  5.8  0.1887E+02  0.7872E+01 -0.2420E+00E
 Epicentro: VILLANUEVA - SANTANDER                                             3
 ACTION:UPD 17-08-30 15:31 OP:rebc STATUS:               ID:20170708090740 L   I
 OLDACT:UP  17-07-08 20:44 OP:edw  STATUS:               ID:20170708085743     3
 OLDACT:REG 17-07-08 13:35 OP:edw  STATUS:               ID:20170708085743     3
 2017-07-08-0858-00M.COL___368                                                 6
 STAT SP IPHASW D HRMM SECON CODA AMPLIT PERI AZIMU VELO AIN AR TRES W  DIS CAZ7
 BAR2 EZ EP        9 8  0.64                             174   -0.1510 16.2 178 
 BAR2 EZ ES        9 8 16.73                             174   -0.2010 16.2 178 
 BAR2 EZ I         9 8 17.15         4.8 0.18            171           16.2 178 
 BRR  HZ EP   2    9 8  2.54                             154    0.25 5 70.8 305 
 BRR  HN ES        9 8 19.98                             154    0.3810 70.8 305 
 PTB  HZ EP        9 8  7.50                             135    0.12 9  142 261 
 PTB  HN ES        9 8 28.76                             135    0.11 9  142 261 
 PTB  HZ I         9 8 32.87         1.2 0.82            133            142 261 
 ZAR  HZ EP        9 8 13.21                             125    0.18 9  202 294 
 ZAR  HN ES        9 8 38.15                             125   -0.57 9  202 294 
 ZAR  HZ I         9 8 43.96         1.5 0.32            124            202 294 
                                                                                
