 2011  7 8 0541 30.6 L   6.749 -73.064143.5  RSN  9 0.2 2.1LRSN                1
 GAP=202        0.40       2.8     3.9  3.1 -0.5519E+01 -0.5297E+00 -0.2419E+00E
 Epicentro: LOS SANTOS - SANTANDER                                             3
 ACTION:UPD 12-07-25 13:59 OP:epov STATUS:               ID:20110708054130 L   I
 2011-07-08-0539-57S.COL___140                                                 6
 STAT SP IPHASW D HRMM SECON CODA AMPLIT PERI AZIMU VELO AIN AR TRES W  DIS CAZ7
 BAR2 SZ EP   1    541 49.99                             171    0.08 8 21.7 217 
 BAR2 SZ ES   1    542  4.82                             171   -0.17 8 21.7 217 
 BAR2 SZ I         542  6.01        17.5 0.23                          21.7 217 
 BTL  SZ EP   1    541 50.24                             168    0.16 8 29.3 310 
 GIR2 SZ EP   1    541 50.26                             164    0.03 8 39.2 339 
 GIR2 SZ ES   1    542  5.64                             164    0.09 8 39.2 339 
 BRR  HZ EP   1    541 51.98                             149   -0.15 8 81.8 299 
 BRR  HZ I         541 52.35        17.0 0.09                          81.8 299 
 BRR  HN ES   1    542  8.77                             149   -0.17 8 81.8 299 
 BRI  SZ EP   1    541 54.56                             140    0.10 8  111  15 
 BRI  SZ I         542 29.90        16.1 0.85                           111  15 
 GRA  SZ EP        541 55.97                             136    0.0810  129  13 
 GRA  SZ ES   1    542 15.50                             136   -0.13 7  129  13 
 GRA  SZ I         542 25.67        14.1 0.92                           129  13 
 OCA  SZ EP   1    541 58.98                             128   -0.40 7  167 350 
 OCA  SZ ES   1    542 22.18                             128    0.34 7  167 350 
 OCA  SZ I         542 25.72        21.6 0.69                           167 350 
 NOR  SN ES   2    542 35.09                             117    0.32 4  239 237 
 HEL  HZ EP   1    542 11.48                             114   -0.03 6  280 257 
 HEL  HZ I         542 24.00         9.0 0.72                           280 257 
                                                                                
