 2014  1 8 0722 26.9 L   6.802 -73.170140.3  RSN  6 0.5 1.3LRSN                1
 GAP=133        1.38       5.5     6.3 10.8 -0.1238E+01  0.2629E+02 -0.7410E+01E
 Epicentro: LOS SANTOS - SANTANDER                                             3
 ACTION:UPD 14-03-13 09:52 OP:ep   STATUS:               ID:20140108072226 L   I
 OLDACT:DUP 14-01-08 11:14 OP:carl STATUS:               ID:20140108072001d    3
 2014-01-08-0720-00M.COL___285                                                 6
 STAT SP IPHASW D HRMM SECON CODA AMPLIT PERI AZIMU VELO AIN AR TRES W  DIS CAZ7
 BAR2 SZ EP        722 45.91                             170    0.0210 23.3 183 
 BAR2 SZ ES        723  1.45                             170    0.7610 23.3 183 
 BAR2 SZ I         723  9.15         4.7 0.26            171           23.3 183 
 PAM  SZ EP        722 48.87                             149    0.2210 79.0  41 
 PAM  SN ES        723  5.68                             149    0.0810 79.0  41 
 RUS  HZ EP        722 50.39                             142    0.2210  101 175 
 RUS  HN ES        723  7.59                             142   -0.7210  101 175 
 RUS  HZ I         723  9.51         2.1 0.26            148            101 175 
 PTB  HZ EP        722 53.70                             131    0.49 9  145 259 
 PTB  HN ES        723 12.98                             131   -0.73 9  145 259 
 PTB  HZ I         723 15.94         3.6 0.16            134            145 259 
 OCA  HN ES        723 15.71                             128   -0.76 9  160 354 
 ZAR  HZ EP        722 58.33                             121   -0.41 9  201 292 
 ZAR  HN ES        723 24.35                             121    0.79 9  201 292 
 ZAR  HZ I         723 33.59         1.9 0.30            125            201 292 
                                                                                
