 2010  9 8 0229 33.6 L   6.775 -73.115142.5  RSN  7 0.2 1.6LRSN                1
 GAP=162        0.55       2.9     6.4  5.2 -0.3057E+01 -0.3769E+01  0.8837E+00E
 Epicentro: LOS SANTOS - SANTANDER                                             3
 ACTION:UP  11-02-18 11:01 OP:tino STATUS:               ID:20100908022933 L   I
 2010-09-08-0227-15S.COL___120                                                 6
 STAT SP IPHASW D HRMM SECON CODA AMPLIT PERI AZIMU VELO SNR AR TRES W  DIS CAZ7
 BAR2 SZ IP        229 52.76                             171    -0.110   22 201 
 BAR2 SZ ES   1    230  7.60                             171    -0.2 7   22 201 
 BAR2 SZ I         230  8.94        11.4 0.07                            22 201 
 GIR2 SZ EP   1    229 53.18                             166     0.2 7   35 345 
 BRR  HZ EP   1    229 54.71                             151     0.0 7   76 299 
 BRR  HE ES   1    230 11.11                             151     0.0 7   76 299 
 BRR  HZ I         230 14.80         7.4 0.16                            76 299 
 RUS  HZ EP   1    229 56.60                             144    -0.3 7   98 178 
 RUS  HN ES   1    230 15.35                             144     0.4 7   98 178 
 RUS  HZ I         230 16.64         3.7 0.24                            98 178 
 GRA  SZ EP   1    229 58.62                             136    -0.1 7  127  16 
 GRA  SZ ES   1    230 18.42                             136     0.1 7  127  16 
 GRA  SZ I         230 21.15         7.6 0.19                           127  16 
 CHI  HE ES   2    230 39.60                             117    -0.5 4  247 196 
 CHI  HZ I         230 43.41         1.8 0.11                           247 196 
 PRA  HZ EP   1    230 27.42                             106     0.5 4  391 210 
 PRA  HZ I         231 16.00         2.7 0.49                           391 210 
                                                                                
