 2014 12 8 0537  4.3 L   6.785 -73.248137.0  RSN  7 0.4 1.5LRSN                1
 GAP= 99        2.06       7.3    12.2 13.1 -0.3180E+02 -0.3219E+00 -0.7855E+01E
 Epicentro: ZAPATOCA - SANTANDER                                               3
 ACTION:UPD 15-02-10 17:01 OP:nd   STATUS:               ID:20141208053704 L   I
 OLDACT:DUP 14-12-08 17:13 OP:stll STATUS:               ID:20141208052746d    3
 2014-12-08-0527-45M.COL___303                                                 6
 STAT SP IPHASW D HRMM SECON CODA AMPLIT PERI AZIMU VELO AIN AR TRES W  DIS CAZ7
 BAR2 SZ EP        537 22.98                             170    0.1210 22.5 161 
 BAR2 SZ ES        537 37.39                             170    0.0610 22.5 161 
 BAR2 SZ I         537 39.15         6.3 0.22            171           22.5 161 
 PAM  SZ EP        537 26.14                             145   -0.0210 86.2  45 
 PAM  SZ I         537 26.44         8.2 0.24            149           86.2  45 
 PAM  SN ES        537 43.08                             145   -0.1310 86.2  45 
 RUS  HZ EP        537 27.18                             141    0.0010  100 170 
 RUS  HN ES        537 44.92                             141   -0.1110  100 170 
 RUS  HZ I         537 46.13         3.5 0.24            143            100 170 
 PTB  HZ EP   9    537 25.51                             131   -4.00 0  136 259 
 PTB  HN ES        537 42.61                                   -2.57 9  136 259 
 PTB  HZ I         537 51.07         2.7 0.26            130            136 259 
 SPBC HZ EP        537 31.90                             127    0.56 9  155 216 
 SPBC HN ES        537 52.76                             127    0.32 9  155 216 
 SPBC HZ I         537 58.84         3.0 0.10            127            155 216 
 OCA  HZ EP        537 32.06                             126    0.06 9  161 357 
 OCA  HE ES        537 53.75                             126    0.13 9  161 357 
 OCA  HZ I         537 58.25         3.9 0.32            127            161 357 
 TAM  HZ EP        537 31.32                             125   -1.00 9  166 103 
 TAM  HZ I         537 31.41         9.7 0.18            129            166 103 
                                                                                
