 2013  1 8 0635 58.7 L   6.743 -73.176147.7  RSN  5 0.4 1.8LRSN                1
 GAP=238        0.96       5.8     6.7  7.8  0.1578E+02  0.1199E+02  0.1788E+02E
 Epicentro: VILLANUEVA - SANTANDER                                             3
 ACTION:UPD 13-02-15 09:12 OP:ep   STATUS:               ID:20130108063558 L   I
 2013-01-08-0630-00M.COL___238                                                 6
 STAT SP IPHASW D HRMM SECON CODA AMPLIT PERI AZIMU VELO AIN AR TRES W  DIS CAZ7
 BAR2 SZ EP        636 18.33                             173   -0.1510 16.7 182 
 BAR2 SZ ES        636 33.44                             173   -0.4410 16.7 182 
 BAR2 SZ I         636 35.90         9.4 0.18            166           16.7 182 
 BRR  HZ EP        636 20.30                             153    0.1910 71.6 304 
 BRR  HN ES        636 37.49                             153    0.7010 71.6 304 
 BRR  HN I         636 40.86        21.3 0.20            152           71.6 304 
 PTB  HZ EP        636 25.02                             133   -0.44 9  143 261 
 PTB  HN ES        636 45.98                             133   -0.34 9  143 261 
 PTB  HN I         636 51.39        10.4 0.26            132            143 261 
 ZAR  HN ES        636 56.58                             123   -0.02 9  203 294 
 ZAR  HN I         637  0.34         7.1 0.14            124            203 294 
 CHI  HZ EP        636 36.00                             118    0.21 8  242 195 
 CHI  HN ES        637  5.10                             118    0.41 8  242 195 
 CHI  HN I         637 13.29         3.4 0.54            119            242 195 
                                                                                
