 2015  7 8 0850 47.8 L   6.797 -73.110150.6  RSN  9 0.3 1.7LRSN                1
 GAP=186        0.59       2.2     3.7  5.0  0.1562E+00  0.6443E+01 -0.8361E+00E
 Epicentro: LOS SANTOS - SANTANDER                                             3
 ACTION:UPD 15-09-08 21:47 OP:cam  STATUS:               ID:20150708085047 L   I
 OLDACT:UP  15-07-08 18:06 OP:spq  STATUS:               ID:20150708084747     3
 OLDACT:REG 15-07-08 16:50 OP:spq  STATUS:               ID:20150708084747     3
 2015-07-08-0847-47M.COL___340                                                 6
 STAT SP IPHASW D HRMM SECON CODA AMPLIT PERI AZIMU VELO AIN AR TRES W  DIS CAZ7
 BAR2 EZ EP        851  7.87                             171   -0.1910 24.0 199 
 BAR2 EZ ES   1    851 23.97                             171    0.14 7 24.0 199 
 BAR2 EZ I         851 25.42         5.9 0.27            170           24.0 199 
 RUS  HZ EP   1    851 12.09                             145    0.06 7  100 178 
 RUS  HE ES   1    851 30.81                             145   -0.08 7  100 178 
 RUS  HZ I         851 32.22         2.4 0.07            149            100 178 
 OCA  HZ EP   1    851 16.13                             131   -0.47 7  161 352 
 OCA  HN ES        851 39.17                             131    0.13 9  161 352 
 OCA  HZ I         851 45.31        11.2 0.48            131            161 352 
 ZAR  HZ EP        851 20.69                             123   -0.29 8  208 292 
 ZAR  HE ES        851 47.08                             123    0.25 8  208 292 
 ZAR  HZ I         851 51.64         4.5 0.26            123            208 292 
 SML  HZ EP        851 25.03                             118    0.08 8  246 335 
 SML  HE ES   1    851 54.24                             118    0.35 6  246 335 
 SML  HZ I         851 59.26         6.7 0.10            119            246 335 
 HEL  HE ES   1    851 59.90                             115   -0.68 6  276 256 
 HEL  HZ I         852  6.14         3.0 0.40            116            276 256 
 GUY2CHN ES   1    852  6.74                             113    0.28 5  304 235 
 GUY2CHZ I         852 13.86         1.8 0.50                           304 235 
 PRA  HZ EP        851 42.12                             107    0.40 6  394 210 
 PRA  HE ES   1    852 24.25                             107    0.50 4  394 210 
 PRA  HZ I         852 26.88         1.5 0.60            109            394 210 
 SJC  HZ EP   4    851 42.05                             106   -1.79 0  412 327 
 SJC  HN ES   4    852 25.51                             106   -2.02 0  412 327 
 SJC  HZ I         852 33.76         1.2 0.54            107            412 327 
                                                                                
