 2011  9 8 0356 59.3 L   6.860 -73.011137.5  RSN  4 0.2 1.3LRSN                1
 GAP=224        0.37       7.3    12.8  6.5  0.7514E+02 -0.3875E+02 -0.1772E+02E
 Epicentro: CEPITA - SANTANDER                                                 3
 ACTION:UPD 12-07-13 15:56 OP:ep   STATUS:               ID:20110908034000 L   I
 2011-09-08-0340-00M.COL___172                                                 6
 STAT SP IPHASW D HRMM SECON CODA AMPLIT PERI AZIMU VELO AIN AR TRES W  DIS CAZ7
 GIR2 SZ EP   3    357 18.28                             166    0.26 2 31.5 320 
 GIR2 SZ ES   3    357 32.85                             166    0.25 2 31.5 320 
 BAR2 SZ EP   1    357 18.26                             164   -0.01 7 35.1 213 
 BAR2 SZ ES   2    357 32.73                             164   -0.32 5 35.1 213 
 BAR2 SZ I         357 35.41         4.1 0.45                          35.1 213 
 BRR  HZ EP   1    357 20.09                             147   -0.18 7 82.2 289 
 BRR  HZ I         357 20.51         4.4 0.14                          82.2 289 
 BRR  HE ES   2    357 36.90                             147    0.29 5 82.2 289 
 RUS  HZ EP   1    357 22.93                             140    0.15 7  107 184 
 RUS  HZ I         357 39.30         2.9 0.55                           107 184 
 RUS  HN ES   2    357 41.08                             140    0.00 5  107 184 
                                                                                
