 2016  9 8 0035 32.6 L   6.614 -73.586109.1  RSN  4 0.4 1.2LRSN                1
 GAP=120        1.12       5.1     4.6 10.6 -0.1205E+01 -0.8318E+01  0.5710E+01E
 Epicentro: EL CARMEN - SANTANDER                                              3
 ACTION:UPD 17-08-17 21:07 OP:lp   STATUS:               ID:20160908003532 L   I
 OLDACT:UP  16-09-08 13:13 OP:dani STATUS:               ID:20160908002738     3
 OLDACT:REG 16-09-08 12:08 OP:dani STATUS:               ID:20160908002738     3
 2016-09-08-0028-00M.COL___354                                                 6
 STAT SP IPHASW D HRMM SECON CODA AMPLIT PERI AZIMU VELO AIN AR TRES W  DIS CAZ7
 BRR  HZ EP        035 49.24                             151    0.3310 56.3 346 
 BRR  HE ES        036  2.27                             151    0.6110 56.3 346 
 BRR  HZ I         036  5.35         7.7 0.31            153           56.3 346 
 PTB  HZ EP        035 52.05                             135    0.1210 96.6 265 
 PTB  HE ES        036  6.35                             135   -0.6810 96.6 265 
 PTB  HZ I         036  8.28         2.3 0.30            139           96.6 265 
 RUS  HZ EP        035 53.03                             135    0.3910 97.3 145 
 RUS  HN ES        036  8.23                             135   -0.0610 97.3 145 
 RUS  HZ I         036  9.60         4.2 0.24            140           97.3 145 
 PAM  EZ EP        035 55.10                             127   -0.2310  127  51 
 PAM  EE ES        036 12.53                             127   -0.5510  127  51 
 PAM  EZ I         036 13.68         2.7 0.16            131            127  51 
                                                                                
