 2017  1 8 0236 24.3 L   5.990 -74.186 21.5  RSN  5 0.4 1.3LRSN                1
 GAP=142        0.74       4.5     2.6  6.8 -0.5973E+01 -0.1114E+02  0.2528E+02E
 Epicentro: LA BELLEZA - SANTANDER                                             3
 ACTION:UPD 17-05-22 15:56 OP:jn   STATUS:               ID:20170108023624 L   I
 OLDACT:DUP 17-01-08 14:22 OP:dln  STATUS:               ID:20170108022740d    3
 2017-01-08-0228-00M.COL___374                                                 6
 STAT SP IPHASW D HRMM SECON CODA AMPLIT PERI AZIMU VELO AIN AR TRES W  DIS CAZ7
 PTB  HZ EP        236 35.39                             106   -0.1410 67.7 334 
 PTB  HN ES        236 44.25                             106   -0.0410 67.7 334 
 RUS  HZ EP        236 44.03                              56    0.0710  123  95 
 RUS  HN ES        236 58.94                              56   -0.3610  123  95 
 RUS  HZ I         237  0.84         2.1 0.34             47            123  95 
 BAR2 EZ EP   2    236 45.36                              56    0.84 5  129  59 
 BAR2 EZ ES   2    237  0.87                              56    0.58 5  129  59 
 BAR2 EZ I         237  2.80        16.2 0.80             47            129  59 
 BRR  HN ES   2    237  0.71                              56   -0.12 5  134  23 
 BRR  HZ I         237  4.05         6.5 0.44             47            134  23 
 GUY2CHZ EP        236 48.56                              56    0.47 9  156 237 
 GUY2CHN ES        237  6.36                              56   -0.29 9  156 237 
 GUY2CHZ I         237  9.53         3.4 0.34                           156 237 
                                                                                
