 2013 10 8 0640 49.1 L   6.796 -73.112140.3  RSN 10 0.4 1.8LRSN                1
 GAP=141        0.84       3.0     4.3  5.3 -0.2042E+01  0.6124E+01 -0.1550E+01E
 Epicentro: LOS SANTOS - SANTANDER                                             3
 ACTION:UPD 13-11-25 09:20 OP:ep   STATUS:               ID:20131008064049 L   I
 OLDACT:REG 13-10-08 07:49 OP:mh   STATUS:               ID:20131008063959     3
 2013-10-08-0639-59M.COL___273                                                 6
 STAT SP IPHASW D HRMM SECON CODA AMPLIT PERI AZIMU VELO AIN AR TRES W  DIS CAZ7
 BAR2 SZ EP   1    641  8.19                             170    0.14 7 23.8 199 
 BAR2 SZ ES        641 22.35                             170   -0.5110 23.8 199 
 BAR2 SZ I         641 24.07        25.3 0.18            169           23.8 199 
 BRR  HZ EP   1    641 10.04                             150    0.20 7 74.7 297 
 BRR  HN ES        641 26.28                             150    0.2510 74.7 297 
 BRR  HZ I         641 29.99         8.5 0.16            148           74.7 297 
 PAM  SZ EP   1    641 11.02                             150    0.43 7 75.4  37 
 PAM  SN ES        641 27.76                             150    0.3910 75.4  37 
 PAM  SZ I         641 29.37         9.8 0.18            152           75.4  37 
 RUS  HZ EP   1    641 12.18                             143   -0.06 7 99.9 178 
 RUS  HN ES   1    641 30.02                             143   -0.29 7 99.9 178 
 RUS  HZ I         641 33.82         2.5 0.18            144           99.9 178 
 PTB  HZ EP   1    641 15.12                             130   -0.81 7  151 259 
 PTB  HN ES   1    641 37.20                             130    0.33 7  151 259 
 PTB  HZ I         641 38.48        10.5 0.20            129            151 259 
 OCA  HZ EP   1    641 17.21                             128    0.16 7  161 352 
 OCA  HN ES   1    641 38.06                             128   -0.81 7  161 352 
 OCA  HZ I         641 44.25         5.5 0.14            128            161 352 
 SPBC HZ EP   1    641 17.19                             127   -0.16 7  165 220 
 SPBC HN ES        641 39.68                             127    0.28 9  165 220 
 SPBC HZ I         641 43.71         8.6 0.26            128            165 220 
 ZAR  HZ EP   1    641 22.30                             121    0.76 6  208 292 
 ZAR  HN ES   1    641 46.77                             121   -0.10 6  208 292 
 ZAR  HZ I         641 52.34         8.2 0.54            120            208 292 
 SML  HZ EP   1    641 25.10                             116   -0.51 6  246 335 
 SML  HN ES   1    641 53.96                             116   -0.15 6  246 335 
 SML  HZ I         642  1.02         7.2 0.10            116            246 335 
 PRA  HZ EP   1    641 42.47                             105   -0.10 4  393 210 
 PRA  HN ES   4    642 22.09                             105   -2.22 0  393 210 
 PRA  HZ I         642 31.17         2.3 0.28            106            393 210 
                                                                                
