 2012 10 8 0048  1.3 L   6.801 -73.124142.0  RSN  8 0.3 2.0LRSN                1
 GAP=139        0.50       2.7     3.5  4.5  0.1532E+01  0.4646E+01  0.3731E+01E
 Epicentro: LOS SANTOS - SANTANDER                                             3
 XNEAR  100.0 XFAR  800.0 SDEP 100.0                                           3
 ACTION:UP  12-11-22 17:02 OP:ep   STATUS:               ID:20121008004801 L   I
 2012-10-08-0040-00M.COL___222                                                 6
 STAT SP IPHASW D HRMM SECON CODA AMPLIT PERI AZIMU VELO AIN AR TRES W  DIS CAZ7
 BAR2 SZ EP        048 20.39                             170   -0.1510 24.0 196 
 BAR2 SZ I         048 20.67        14.4 0.11                          24.0 196 
 GIR2 SZ EP   1    048 20.40                             167   -0.18 7 31.6 346 
 GIR2 SZ ES   1    048 35.66                             167    0.08 7 31.6 346 
 BRR  HZ EP   1    048 22.10                             151   -0.11 7 73.2 298 
 BRR  HN ES   1    048 38.83                             151    0.35 7 73.2 298 
 BRR  HZ I         048 40.13        23.2 0.12                          73.2 298 
 PAM  SZ EP   1    048 23.28                             151    0.22 7 75.8  38 
 PAM  SZ I         048 23.47        22.4 0.18                          75.8  38 
 PAM  SE ES   1    048 39.95                             151   -0.05 7 75.8  38 
 PAM  SE I         048 42.08        18.4 0.42                          75.8  38 
 RUS  HZ EP   1    048 24.53                             143   -0.20 7  101 177 
 RUS  HN ES   1    048 43.20                             143    0.23 7  101 177 
 ZAR  HZ EP   1    048 33.64                             121   -0.13 6  206 292 
 ZAR  HE ES   1    048 58.91                             121   -0.15 6  206 292 
 ZAR  HZ I         049  3.94        10.0 0.26                           206 292 
 CHI  HE ES   1    049  7.96                             116   -0.27 6  249 196 
 CHI  HE I         049 13.20         5.4 0.28                           249 196 
 PRA  HZ EP   1    048 55.73                             106    0.84 4  393 210 
                                                                                
