 2014  7 8 0126 18.8 L   6.815 -73.394117.3  RSN  9 0.5 2.0LRSN                1
 GAP=100        1.34       4.8     4.8  8.0 -0.3541E+01  0.3148E+01 -0.6762E+01E
 Epicentro: SAN VICENTE DE CHUCURI - SANTANDER                                 3
 ACTION:UPD 15-03-16 20:42 OP:nd   STATUS:               ID:20140708012618 L   I
 OLDACT:REG 14-07-08 12:19 OP:stll STATUS:               ID:20140708011819     3
 2014-07-08-0118-19M.COL___268                                                 6
 STAT SP IPHASW D HRMM SECON CODA AMPLIT PERI AZIMU VELO AIN AR TRES W  DIS CAZ7
 BAR2 SZ IP     D  126 35.69                             163    0.3810 33.9 136 
 BAR2 SZ ES        126 48.14                             163   -0.0710 33.9 136 
 BAR2 SZ I         126 49.47        43.7 0.52            163           33.9 136 
 BRR  HZ IP     C  126 36.14                             156    0.5910 47.8 313 
 BRR  HZ I         126 36.29        54.1 0.20            155           47.8 313 
 BRR  HN ES        126 49.06                             156    0.4210 47.8 313 
 PTB  HZ IP     C  126 40.35                             131   -0.6710  121 256 
 PTB  HE ES        126 57.62                             131   -0.7610  121 256 
 PTB  HZ I         127  2.78        15.6 0.20            128            121 256 
 SPBC HZ EP   2    126 44.31                             124    0.52 5  149 210 
 SPBC HN ES        127  3.22                             124   -0.09 9  149 210 
 SPBC HZ I         127 10.25         9.1 0.24            123            149 210 
 OCA  HZ EP        126 44.65                             123   -0.12 9  158   3 
 OCA  HN ES        127  4.10                             123   -0.95 9  158   3 
 OCA  HZ I         127  6.36        19.3 0.46            124            158   3 
 ZAR  HZ EP        126 47.50                             119    0.77 9  178 295 
 ZAR  HN ES        127  9.38                             119    0.84 9  178 295 
 ZAR  HZ I         127 12.46         8.3 0.34            118            178 295 
 TAM  HZ EP        126 47.22                             119    0.04 9  182 103 
 SML  HZ EP        126 52.39                             112   -0.25 8  232 341 
 HEL  HN ES        127 22.35                             111   -0.38 8  246 254 
 HEL  HZ I         127 30.14         5.4 0.52            110            246 254 
                                                                                
