 2010  2 8 0244 55.4 L   6.764 -73.119129.2  RSN  6 0.4 1.7LRSN                1
 GAP=204        0.77       4.0    14.1  8.8 -0.1062E+02  0.7565E+02 -0.7778E+00E
 Epicentro: LOS SANTOS - SANTANDER                                             3
 ACTION:UP  10-08-24 09:48 OP:vdl  STATUS:               ID:20100208024455 L   I
 2010-02-08-0243-09S.COL___093                                                 6
 STAT SP IPHASW D HRMM SECON CODA AMPLIT PERI AZIMU VELO SNR AR TRES W  DIS CAZ7
 BAR2 SZ IP        245 13.29                             171     0.310   20 201 
 BAR2 SZ ES   1    245 26.34                             171    -0.4 7   20 201 
 OCA  SZ EP   1    245 22.93                             125     0.0 7  165 352 
 OCA  SZ ES   1    245 44.50                             125     0.1 7  165 352 
 CHI  HZ EP   1    245 31.16                             114    -0.8 6  246 196 
 CHI  HE ES   1    246  0.96                             114     0.6 6  246 196 
 CHI  HZ I         246  5.43         2.2 0.46                           246 196 
 HEL  HZ EP   1    245 35.31                             111     0.2 6  274 257 
 HEL  HZ I         246 11.13         2.6 0.50                           274 257 
 DBB  SZ EP   1    245 42.28                             106    -0.4 5  343 275 
 PRA  HZ EP   1    245 48.22                             104     0.0 4  390 210 
 PRA  HZ I         246 36.10         2.9 0.31                           390 210 
                                                                                
