 2013  7 8 0413 32.8 L   6.819 -73.169148.5  RSN  4 0.3 1.4LRSN                1
 GAP=237        0.76       7.0     6.0  6.5  0.2275E+02  0.5375E+01  0.7454E+01E
 Epicentro: LOS SANTOS - SANTANDER                                             3
 ACTION:UPD 13-08-12 10:36 OP:ep   STATUS:               ID:20130708041332 L   I
 OLDACT:REG 13-07-08 08:04 OP:nd   STATUS:               ID:20130708040959     3
 2013-07-08-0409-59M.COL___267                                                 6
 STAT SP IPHASW D HRMM SECON CODA AMPLIT PERI AZIMU VELO AIN AR TRES W  DIS CAZ7
 BAR2 SZ EP        413 52.94                             170    0.2010 25.1 183 
 BAR2 SZ ES        414  7.90                             170   -0.4310 25.1 183 
 BAR2 SZ I         414  9.28         5.7 0.40            167           25.1 183 
 BRR  HZ EP   4    413 52.27                             154   -1.75 0 68.0 298 
 BRR  HN ES        414 10.85                             154    0.2510 68.0 298 
 BRR  HZ I         414 15.73         7.0 0.40            149           68.0 298 
 RUS  HZ EP        413 57.11                             144    0.1810  103 175 
 RUS  HN ES        414 15.90                             144    0.1110  103 175 
 RUS  HZ I         414 16.68         2.4 0.22            145            103 175 
 PTB  HZ EP        413 59.28                             133   -0.47 9  146 258 
 PTB  HN ES        414 20.95                             133    0.13 9  146 258 
 PTB  HZ I         414 27.90         3.9 0.50            131            146 258 
                                                                                
