 2011  1 8 0810 23.0 L   6.729 -73.147143.8  RSN  9 0.4 1.7LRSN                1
 GAP=159        0.88       4.4     8.5  8.6 -0.1900E+02  0.2390E+02 -0.4466E+01E
 Epicentro: JORDAN - SANTANDER                                                 3
 ACTION:UP  11-02-08 08:39 OP:pat  STATUS:               ID:20110108081023 L   I
 2011-01-08-0807-23S.COL___135                                                 6
 STAT SP IPHASW D HRMM SECON CODA AMPLIT PERI AZIMU VELO SNR AR TRES W  DIS CAZ7
 BAR2 SZ EP   1    810 41.78                             173    -0.5 7   16 195 
 BAR2 SZ ES   1    810 57.31                             173     0.0 7   16 195 
 BAR2 SZ I         810 58.48        13.5 0.22                            16 195 
 BTL  SZ EP        810 42.36                             170    -0.110   25 327 
 RUS  HZ EP   2    810 45.74                             145    -0.3 5   93 176 
 RUS  HN ES   2    811  4.20                             145     0.2 5   93 176 
 RUS  HZ I         811  5.96         6.3 0.61                            93 176 
 GRA  SZ IP        810 49.33                             135     0.610  133  16 
 GRA  SZ ES   1    811  9.26                             135     0.5 7  133  16 
 GRA  SZ I         811 11.62         5.4 0.46                           133  16 
 OCA  SZ EP   1    810 51.26                             128    -0.7 7  168 354 
 OCA  SZ ES   1    811 13.80                             128    -0.7 7  168 354 
 OCA  SZ I         811 23.04         7.2 0.56                           168 354 
 NOR  SN ES   2    811 25.73                             118     0.2 4  230 236 
 CHI  HZ EP   1    810 59.81                             117     0.0 6  241 196 
 CHI  HE ES   2    811 28.18                             117    -0.3 4  241 196 
 CHI  HZ I         811 33.87         1.7 0.43                           241 196 
 HEL  HZ EP   2    811  3.45                             114     0.5 4  270 257 
 HEL  HN ES   2    811 34.49                             114     0.5 4  270 257 
 HEL  HZ I         811 36.37         2.5 0.22                           270 257 
 RREF HZ EP   2    811  9.03                             111     0.5 3  317 230 
 RREF HE ES   2    811 43.77                             111    -0.2 3  317 230 
 RREF HZ I         811 51.48         3.2 0.48                           317 230 
                                                                                
