 2012  1 8 0751 49.4 L   6.726 -73.159146.3  RSN  5 0.3 1.3LRSN                1
 GAP=180        0.76       7.6     6.7  7.8  0.1256E+02  0.4588E+01  0.8982E+01E
 Epicentro: VILLANUEVA - SANTANDER                                             3
 ACTION:UP  12-02-03 08:15 OP:REBC STATUS:               ID:20120108075149 L   I
 2012-01-08-0750-00M.COL___186                                                 6
 STAT SP IPHASW D HRMM SECON CODA AMPLIT PERI AZIMU VELO SNR AR TRES W  DIS CAZ7
 BAR2 SZ EP   1    752  9.12                             174     0.1 7   15 190 
 BAR2 SZ ES   1    752 23.91                             174    -0.3 7   15 190 
 BAR2 SZ I         752 26.32         3.7 0.32                            15 190 
 GIR2 SZ EP   1    752  9.02                             164    -0.4 7   39 354 
 GIR2 SZ ES   2    752 24.50                             164    -0.5 5   39 354 
 BRR  HZ EP   1    752 11.03                             151     0.2 7   74 305 
 BRR  HZ I         752 11.23         4.4 0.11                            74 305 
 BRR  HE ES   1    752 28.12                             151     0.6 7   74 305 
 RUS  HZ EP   1    752 12.92                             146     0.3 7   93 175 
 RUS  HE ES   2    752 31.04                             146     0.2 5   93 175 
 RUS  HZ I         752 31.86         2.8 0.51                            93 175 
 PTB  HZ EP   1    752 15.95                             133    -0.2 7  145 262 
 PTB  HN ES   1    752 36.76                             133    -0.3 7  145 262 
                                                                                
