 2010  9 8 0623 26.0 L   6.791 -73.066142.3  RSN  9 0.2 2.1LRSN                1
 GAP=173        0.54       2.9     5.1  5.9  0.6561E+00 -0.3778E-01 -0.1730E+01E
 Epicentro: LOS SANTOS - SANTANDER                                             3
 ACTION:UP  11-02-18 11:01 OP:tino STATUS:               ID:20100908062326 L   I
 2010-09-08-0621-10S.COL___120                                                 6
 STAT SP IPHASW D HRMM SECON CODA AMPLIT PERI AZIMU VELO SNR AR TRES W  DIS CAZ7
 BAR2 SZ EP   1    623 45.26                             169     0.0 7   26 211 
 BAR2 SZ I         624  1.33        30.0 0.32                            26 211 
 BTL  SZ EP        623 45.47                             169     0.210   26 302 
 GIR2 SZ EP   1    623 45.37                             166     0.0 7   35 336 
 BRR  HZ IP     D  623 47.02                             149    -0.310   80 296 
 BRR  HE ES   1    624  3.87                             149     0.0 7   80 296 
 BRR  HZ I         624  4.99        24.1 0.13                            80 296 
 RUS  HZ EP   1    623 49.72                             143     0.4 7   99 181 
 RUS  HN ES   1    624  7.34                             143    -0.2 7   99 181 
 GUE  SZ EP   1    623 50.22                             139    -0.2 7  116   8 
 OCA  SZ EP   1    623 54.04                             128    -0.2 7  163 350 
 OCA  SZ ES   1    624 16.73                             128     0.4 7  163 350 
 OCA  SZ I         624 18.52        12.7 0.20                           163 350 
 HEL  HZ EP   1    624  7.02                             113     0.0 6  280 256 
 HEL  HN ES   2    624 39.06                             113     0.1 4  280 256 
 HEL  HZ I         624 43.59         5.6 0.78                           280 256 
 PRA  HZ EP   2    624 20.05                             106     0.2 3  396 211 
 PRA  HZ I         625  5.90         4.6 1.04                           396 211 
                                                                                
