 2016  1 8 0619 57.9 L   6.222 -73.713101.2  RSN  8 0.4 1.4LRSN                1
 GAP= 95        1.08       3.9     3.7  8.0 -0.3027E+01  0.8353E+01  0.2143E+01E
 Epicentro: LANDAZURI - SANTANDER                                              3
 ACTION:UPD 16-03-09 23:23 OP:cam  STATUS:               ID:20160108061957 L   I
 OLDACT:REG 16-01-08 12:34 OP:drio STATUS:               ID:20160108061738     3
 2016-01-08-0617-38M.COL___275                                                 6
 STAT SP IPHASW D HRMM SECON CODA AMPLIT PERI AZIMU VELO AIN AR TRES W  DIS CAZ7
 BAR2 EZ EP        620 14.97                             142    0.1210 71.6  55 
 BAR2 EZ ES        620 28.18                             142    0.1310 71.6  55 
 BAR2 EZ I         620 29.40        20.8 0.18            147           71.6  55 
 SPBC HZ EP        620 15.03                             141    0.1610 74.5 212 
 SPBC HN ES        620 28.75                             141    0.6710 74.5 212 
 SPBC HZ I         620 30.14         8.4 0.10            142           74.5 212 
 RUS  HZ EP        620 15.71                             139   -0.0410 78.6 118 
 RUS  HN ES        620 29.02                             139   -0.6310 78.6 118 
 RUS  HZ I         620 31.46         3.4 0.18            144           78.6 118 
 PTB  HZ EP        620 15.24                             135   -0.7510 89.4 293 
 PTB  HE ES        620 29.64                             135   -0.4410 89.4 293 
 PTB  HZ I         620 32.31         3.0 0.42            137           89.4 293 
 BRR  HZ EP        620 16.80                             132    0.0810 97.9   0 
 BRR  HN ES        620 31.87                             132    0.5010 97.9   0 
 NOR  HZ EP        620 22.03                             119    0.33 9  147 240 
 NOR  HN ES        620 40.02                             119   -0.22 9  147 240 
 NOR  HZ I         620 44.86         6.7 0.14            121            147 240 
 HEL  HN ES   4    620 50.07                             111   -1.45 0  201 269 
 HEL  HZ I         620 55.16         1.9 0.26            113            201 269 
 GUY2CHZ EP        620 29.80                             110    0.18 8  214 239 
 GUY2CHE ES   4    620 55.88                             110    1.54 0  214 239 
 GUY2CHZ I         621  0.35         3.0 0.40                           214 239 
                                                                                
