 2016  3 8 0432  1.8 L   6.812 -73.142139.1  RSN 12 0.4 2.0LRSN                1
 GAP=136        0.83       2.4     3.0  4.7 -0.1748E+01  0.5960E+01  0.2026E+00E
 Epicentro: LOS SANTOS - SANTANDER                                             3
 ACTION:UPD 16-05-13 21:22 OP:cam  STATUS:               ID:20160308043201 L   I
 OLDACT:REG 16-03-08 14:13 OP:cara STATUS:               ID:20160308042747     3
 2016-03-08-0427-47M.COL___292                                                 6
 STAT SP IPHASW D HRMM SECON CODA AMPLIT PERI AZIMU VELO AIN AR TRES W  DIS CAZ7
 BAR2 EZ IP     C  432 20.67                             169   -0.0210 24.7 190 
 BAR2 EZ ES        432 35.50                             169    0.1010 24.7 190 
 BAR2 EZ I         432 36.59        42.7 0.14            168           24.7 190 
 PAM  EZ EP        432 23.52                             150    0.2610 76.1  40 
 PAM  EZ I         432 23.77        34.1 0.22            153           76.1  40 
 PAM  EN ES        432 40.43                             150    0.4610 76.1  40 
 RUS  HZ EP        432 24.69                             142   -0.3410  102 176 
 RUS  HN ES        432 43.39                             142    0.2610  102 176 
 RUS  HZ I         432 44.18        11.5 0.20            144            102 176 
 PTB  HZ EP   4    432 27.24                             130   -1.08 0  148 258 
 PTB  HN ES        432 48.47                             130   -0.51 9  148 258 
 PTB  HZ I         432 51.55        13.2 0.16            130            148 258 
 OCA  HZ EP        432 29.13                             128   -0.37 9  159 353 
 OCA  HN ES        432 50.46                             128   -0.63 9  159 353 
 OCA  HZ I         432 51.88        16.2 0.32            129            159 353 
 SPBC HZ EP        432 29.58                             127   -0.37 9  164 219 
 SPBC HN ES        432 51.67                             127   -0.22 9  164 219 
 SPBC HZ I         432 53.66        16.2 0.10            128            164 219 
 ZAR  HZ EP        432 34.01                             121    0.18 9  204 292 
 ZAR  HN ES        432 59.27                             121    0.48 9  204 292 
 ZAR  HZ I         433  5.47        10.2 0.36            121            204 292 
 NOR  HZ EP        432 37.14                             117   -0.16 8  236 234 
 NOR  HN ES        433  4.89                             117   -0.08 8  236 234 
 NOR  HZ I         433  9.65         9.7 0.20            117            236 234 
 CHI  HZ EP        432 39.26                             115   -0.06 8  250 195 
 CHI  HN ES        433  8.30                             115   -0.27 8  250 195 
 CHI  HZ I         433 11.84         2.8 0.58            117            250 195 
 HEL  HZ EP        432 42.26                             113    0.47 8  273 256 
 HEL  HN ES        433 12.72                             113   -0.24 8  273 256 
 HEL  HZ I         433 19.69         4.9 0.34            114            273 256 
 GUY2CHZ EP        432 45.79                             111    0.53 7  302 235 
 GUY2CHN ES        433 19.38                             111    0.24 7  302 235 
 GUY2CHZ I         433 27.26         6.2 0.52                           302 235 
 CBOC HZ EP        432 49.16                             109    0.59 7  334 252 
 CBOC HE ES        433 25.35                             109    0.33 7  334 252 
 CBOC HZ I         433 27.74         2.3 0.18            109            334 252 
                                                                                
