 2012  4 8 0248 49.6 L   6.751 -73.135143.0  RSN  7 0.4 1.5LRSN                1
 GAP=140        0.83       5.2     4.8  8.0  0.2184E+00  0.8943E+01  0.1336E+01E
 Epicentro: LOS SANTOS - SANTANDER                                             3
 ACTION:UPD 12-07-05 11:51 OP:tino STATUS:               ID:20120408024849 L   I
 2012-04-08-0246-59S.COL___204                                                 6
 STAT SP IPHASW D HRMM SECON CODA AMPLIT PERI AZIMU VELO AIN AR TRES W  DIS CAZ7
 BAR2 SZ EP   1    249  8.98                             172     0.2 7   18 196 
 BAR2 SZ ES   1    249 23.69                             172    -0.1 7   18 196 
 BRR  HZ EP   1    249 10.80                             151     0.1 7   75 302 
 BRR  HE ES   1    249 27.82                             151     0.7 7   75 302 
 BRR  HZ I         249 28.51         6.9 0.11                            75 302 
 PAM  SZ EP   1    249 11.90                             149     0.2 7   81  36 
 PAM  SZ I         249 12.16         6.2 0.17                            81  36 
 PAM  SN ES   1    249 28.27                             149    -0.7 7   81  36 
 RUS  HZ EP   1    249 12.86                             145     0.2 7   95 177 
 RUS  HN ES   1    249 30.84                             145     0.1 7   95 177 
 RUS  HZ I         249 32.72         4.9 0.34                            95 177 
 PTB  HZ EP   1    249 16.36                             131     0.0 7  148 261 
 PTB  HE ES   1    249 36.85                             131    -0.4 7  148 261 
 PTB  HZ I         249 39.51         2.4 0.16                           148 261 
 ZAR  HN ES   1    249 47.50                             121    -0.1 6  207 293 
 NOR  SN ES   2    249 51.85                             118    -0.7 4  233 236 
                                                                                
