 2011  4 8 0827 36.2 L   6.795 -73.042144.0  RSN  4 0.3 1.2LRSN                1
 GAP=283        0.45      14.1    10.8 11.8 -0.3325E+02 -0.4555E+02  0.7265E+02E
 Epicentro: LOS SANTOS - SANTANDER                                             3
 ACTION:UP  11-06-22 15:29 OP:REBC STATUS:               ID:20110408082736 L   I
 2011-04-08-0826-00S.COL___138                                                 6
 STAT SP IPHASW D HRMM SECON CODA AMPLIT PERI AZIMU VELO SNR AR TRES W  DIS CAZ7
 BTL  SZ EP        827 55.86                             170     0.210   28 299 
 GIR2 SZ EP   3    827 55.35                             167    -0.4 2   36 332 
 GIR2 SZ ES   3    828 10.54                             167    -0.5 2   36 332 
 BRR  HZ EP        827 57.56                             150    -0.210   82 295 
 BRR  HN ES   2    828 14.97                             150     0.4 5   82 295 
 GRA  SZ EP   3    828  0.99                             139    -0.1 2  123  12 
 GRA  SZ ES   3    828 20.65                             139     0.2 2  123  12 
 GRA  SZ I         828 26.07         2.2 0.32                           123  12 
                                                                                
