 2016  6 8 0437 18.1 L   6.079 -73.743122.2  RSN  4 0.3 1.2LRSN                1
 GAP=170        0.89       4.8     5.2  8.1 -0.8286E+01 -0.2707E+01 -0.3330E+01E
 Epicentro: EL PENON - SANTANDER                                               3
 ACTION:UPD 16-07-21 22:16 OP:rebc STATUS:               ID:20160608043717 L   I
 OLDACT:REG 16-06-08 13:07 OP:dani STATUS:               ID:20160608042747     3
 2016-06-08-0427-47M.COL___334                                                 6
 STAT SP IPHASW D HRMM SECON CODA AMPLIT PERI AZIMU VELO AIN AR TRES W  DIS CAZ7
 SPBC HZ EP        437 36.23                             152    0.0210 59.6 218 
 SPBC HE ES        437 50.64                             152    0.3210 59.6 218 
 BAR2 EZ EP        437 37.97                             143   -0.0510 84.1  48 
 BAR2 EZ ES        437 53.09                             143   -0.4310 84.1  48 
 BAR2 EZ I         437 56.18         5.1 0.30                          84.1  48 
 PTB  HZ EP        437 38.12                             140   -0.3410 93.9 303 
 PTB  HN ES        437 53.97                             140   -0.3310 93.9 303 
 PTB  HZ I         437 55.40         2.2 0.26                          93.9 303 
 BRR  HZ EP        437 40.39                             134    0.3110  114   2 
 BRR  HN ES        437 57.74                             134    0.5410  114   2 
 BRR  HZ I         438  0.68         3.5 0.76                           114   2 
                                                                                
