 2013  3 8 0323 16.9 L   5.923 -73.596122.7  RSN  7 0.3 2.0LRSN                1
 GAP=120        0.72       2.9     3.2  5.5  0.2839E+01  0.3817E+01  0.1770E+01E
 Epicentro: BARBOSA - SANTANDER                                                3
 ACTION:UPD 13-04-09 14:00 OP:ep   STATUS:               ID:20130308032317 L   I
 2013-03-08-0318-48M.COL___200                                                 6
 STAT SP IPHASW D HRMM SECON CODA AMPLIT PERI AZIMU VELO AIN AR TRES W  DIS CAZ7
 RUS  HZ EP        323 35.43                             154   -0.0610 56.9  93 
 RUS  HN ES        323 49.94                             154   -0.0310 56.9  93 
 RUS  HN I         323 50.89        38.9 0.20            159           56.9  93 
 BAR2 SZ EP        323 37.21                             142    0.1410 87.0  32 
 BAR2 SZ ES        323 52.58                             142   -0.2110 87.0  32 
 BAR2 SZ I         323 54.48        29.8 0.18            146           87.0  32 
 PTB  HZ EP        323 38.72                             133   -0.5210  117 306 
 PTB  HN ES        323 56.36                             133   -0.2810  117 306 
 PTB  HN I         324  2.34        13.7 0.26            135            117 306 
 BRR  HZ EP        323 40.69                             130    0.1510  132 354 
 BRR  HN ES        323 59.44                             130    0.4910  132 354 
 BRR  HN I         324  0.31        15.8 0.16            132            132 354 
 CHI  HZ EP   1    323 42.59                             127    0.32 7  144 186 
 CHI  HZ I         323 42.72         9.5 0.22            130            144 186 
 CHI  HN ES   1    324  2.36                             127    0.33 7  144 186 
 TAM  HZ EP        323 48.21                             116   -0.20 8  208  74 
 ZAR  HE ES        324 16.08                             114    0.23 8  223 321 
                                                                                
