 2017  5 8 0204 50.5 L   6.606 -73.266157.3  RSN  7 0.2 1.2LRSN                1
 GAP=128        0.79       3.9     3.6  6.5 -0.1482E+00  0.4068E+01  0.1299E+01E
 Epicentro: CABRERA - SANTANDER                                                3
 ACTION:UPD 17-06-16 13:33 OP:jn   STATUS:               ID:20170508020450 L   I
 OLDACT:UP  17-05-08 13:43 OP:edw  STATUS:               ID:20170508015741d    3
 OLDACT:DUP 17-05-08 13:39 OP:edw  STATUS:               ID:20170508015741d    3
 2017-05-08-0158-00M.COL___368                                                 6
 STAT SP IPHASW D HRMM SECON CODA AMPLIT PERI AZIMU VELO AIN AR TRES W  DIS CAZ7
 BRR  HZ EP   9    2 5 11.90                             153   -1.17 0 74.1 318 
 BRR  HN ES        2 5 28.77                             153   -0.7310 74.1 318 
 BRR  HZ I         2 5 31.41         3.9 0.38            152           74.1 318 
 RUS  HZ EP        2 5 14.29                             151    0.0910 81.5 166 
 RUS  HN ES        2 5 32.36                             151   -0.3210 81.5 166 
 RUS  HZ I         2 5 33.70         2.5 0.36            152           81.5 166 
 PAM  EN ES        2 5 35.20                             144    0.1510  102  38 
 PTB  HZ EP        2 5 17.05                             137   -0.0410  132 267 
 PTB  HN ES        2 5 38.05                             137    0.2210  132 267 
 PTB  HZ I         2 5 44.59         1.6 0.44            137            132 267 
 SPBC HN ES        2 5 39.02                             136    0.07 9  138 220 
 ZAR  HN ES        2 5 49.00                             124   -0.16 9  201 299 
 NOR  HE ES   2    2 5 50.87                             123   -0.24 4  212 237 
                                                                                
