 2013  6 8 0712 49.8 L   6.724 -73.152138.0  RSN  6 0.4 1.7LRSN                1
 GAP=217        0.90       6.5     6.7  8.6 -0.7909E+01  0.2143E+02  0.1151E+01E
 Epicentro: VILLANUEVA - SANTANDER                                             3
 ACTION:UPD 14-01-08 09:53 OP:ep   STATUS:               ID:20130608071249 L   I
 OLDACT:UP  13-06-08 14:58 OP:mh   STATUS:               ID:20130608071000     3
 OLDACT:UP  13-06-08 14:57 OP:mh   STATUS:               ID:20130608071000     3
 OLDACT:REG 13-06-08 07:03 OP:mh   STATUS:               ID:20130608071000     3
 2013-06-08-0710-00M.COL___257                                                 6
 STAT SP IPHASW D HRMM SECON CODA AMPLIT PERI AZIMU VELO AIN AR TRES W  DIS CAZ7
 BAR2 SZ EP   1    713  8.65                             173    0.28 7 15.0 193 
 BAR2 SZ ES        713 22.48                             173   -0.3610 15.0 193 
 BAR2 SZ I        713 24.66         4.8 0.20            169            15.0 193 
 BRR  HZ EP     C  713 10.59                             150    0.2210 75.0 304 
 BRR  HN ES        713 26.83                             150    0.4410 75.0 304 
 BRR  HN I         713 31.13        11.8 0.18            147           75.0 304 
 PTB  HZ EP   1    713 15.55                             130   -0.43 7  146 262 
 PTB  HN ES        713 35.86                             130   -0.51 9  146 262 
 PTB  HN I         713 41.25         6.9 0.66            129            146 262 
 ZAR  HN ES   2    713 47.38                             120    0.18 4  207 294 
 ZAR  HN I         713 48.79         7.0 0.12            120            207 294 
 NOR  HN ES        713 52.06                             117    0.45 8  229 236 
 NOR  HN I         713 58.72         5.4 0.34            117            229 236 
 SML  HN ES   2    713 54.81                             115   -0.90 4  251 336 
 SML  HN I         713 58.29         5.5 0.30            116            251 336 
                                                                                
