 2014  8 8 0549 27.6 L   6.557 -73.415 92.7  RSN  6 0.3 0.8LRSN                1
 GAP=110        0.77       3.1     3.6  7.1  0.3151E+01  0.1003E+02  0.4973E+01E
 Epicentro: HATO - SANTANDER                                                   3
 ACTION:UPD 14-09-15 21:47 OP:nd   STATUS:               ID:20140808054927 L   I
 OLDACT:DUP 14-08-08 19:15 OP:spq  STATUS:               ID:20140808053817d    3
 2014-08-08-0538-15M.COL___254                                                 6
 STAT SP IPHASW D HRMM SECON CODA AMPLIT PERI AZIMU VELO AIN AR TRES W  DIS CAZ7
 BAR2 SZ EP        549 41.16                             163    0.1510 26.0  81 
 BAR2 SZ ES   1    549 51.46                             163    0.01 7 26.0  81 
 BAR2 SZ I         549 58.31         2.3 0.28            173           26.0  81 
 BRR  HZ EP        549 43.19                             141   -0.0210 69.1 332 
 BRR  HE ES        549 55.16                             141   -0.2110 69.1 332 
 BRR  HZ I         550  6.40         2.8 0.42            149           69.1 332 
 RUS  HZ EP   1    549 44.98                             136    0.01 7 82.1 153 
 RUS  HE ES   1    549 58.59                             136    0.10 7 82.1 153 
 RUS  HZ I         550  4.92         1.1 0.30            152           82.1 153 
 PTB  HZ EP   1    549 48.35                             125    0.90 7  115 269 
 PTB  HE ES        550  3.02                             125    0.1110  115 269 
 PTB  HZ I         550 11.75         1.5 0.11            136            115 269 
 SPBC HZ EP        549 47.82                             123   -0.6010  124 216 
 SPBC HN ES        550  4.70                             123    0.0510  124 216 
 ZAR  HN ES        550 17.40                             111   -0.09 9  190 303 
 ZAR  HZ I         550 23.56         0.7 0.32            122            190 303 
                                                                                
