 2010  7 8 0306 50.2 L   6.769 -73.131143.8  RSN  7 0.4 1.8LRSN                1
 GAP=157        0.78       4.6    10.0  9.0 -0.7027E+01 -0.1120E+02 -0.7464E+01E
 Epicentro: LOS SANTOS - SANTANDER                                             3
 ACTION:UPD 10-12-01 15:16 OP:pat  STATUS:               ID:20100708030650 L   I
 2010-07-08-0302-14S.COL___116                                                 6
 STAT SP IPHASW D HRMM SECON CODA AMPLIT PERI AZIMU VELO AIN AR TRES W  DIS CAZ7
 BAR2 SZ IP     D  3 7  9.53                             172    -0.110   20 196 
 BAR2 SZ ES   2    3 7 24.06                             172    -0.6 5   20 196 
 BRR  HZ IP     C  3 7 11.31                             151    -0.110   74 300 
 BRR  HZ I         3 7 11.59        15.8 0.20                            74 300 
 BRR  HE ES   2    3 7 28.54                             151     0.7 5   74 300 
 RUS  HZ EP   1    3 7 13.58                             144     0.0 7   97 177 
 RUS  HE ES   2    3 7 31.89                             144     0.2 5   97 177 
 BRI  SZ EP   1    3 7 13.98                             140    -0.2 7  111  19 
 BRI  SZ ES   2    3 7 32.45                             140    -0.4 5  111  19 
 GUE  SZ EP   1    3 7 15.37                             138     0.3 7  120  11 
 GRA  SZ EP   1    3 7 16.25                             136     0.7 7  129  16 
 GRA  SZ ES   2    3 7 35.63                             136     0.3 5  129  16 
 OCA  SZ EP   1    3 7 17.99                             128    -0.8 7  164 353 
 OCA  SZ ES   2    3 7 40.76                             128    -0.2 5  164 353 
 OCA  SZ I         3 7 42.83         6.6 0.48                           164 353 
                                                                                
