 2013  6 8 0019 41.7 L   6.731 -73.154142.0  RSN  9 0.3 2.3LRSN                1
 GAP= 73        0.68       3.2     3.9  5.5  0.3670E+01 -0.3789E+01 -0.2771E+01E
 Epicentro: VILLANUEVA - SANTANDER                                             3
 ACTION:UPD 14-01-08 09:53 OP:ep   STATUS:               ID:20130608001941 L   I
 OLDACT:REG 13-06-08 15:37 OP:mh   STATUS:               ID:20130608001848     3
 2013-06-08-0018-48M.COL___232                                                 6
 STAT SP IPHASW D HRMM SECON CODA AMPLIT PERI AZIMU VELO AIN AR TRES W  DIS CAZ7
 BAR2 SZ EP   1    020  0.61                             174   -0.11 7 15.6 191 
 BAR2 SZ ES   2    020 15.14                             174   -0.44 5 15.6 191 
 GIR2 SZ EP   1    020  0.76                             164   -0.37 7 38.7 354 
 GIR2 SZ I         020 23.14        10.7 0.36            160           38.7 354 
 BRR  HZ EP        020  2.58                             151   -0.0310 74.3 304 
 BRR  HN ES        020 19.34                             151    0.4110 74.3 304 
 BRR  HN I         020 23.28        61.9 0.14            146           74.3 304 
 PAM  SZ EP   1    020  3.57                             148   -0.34 7 84.0  37 
 PAM  SN ES   2    020 20.90                             148   -0.35 5 84.0  37 
 PAM  SN I         020 21.62        39.6 0.50            146           84.0  37 
 RUS  HZ EP   1    020  4.90                             146    0.38 7 93.0 175 
 RUS  HN ES        020 22.53                             146    0.1910 93.0 175 
 RUS  HN I         020 23.57        17.8 0.26            144           93.0 175 
 PTB  HN ES   2    020 27.75                             132   -1.02 5  146 262 
 TAM  HZ EP        020  9.00                             130    0.02 9  154 102 
 OCA  HN ES        020 33.09                             128    0.26 9  168 354 
 OCA  HN I         020 35.25        99.7 0.18            124            168 354 
 ZAR  HZ EP        020 13.92                             122   -0.18 8  206 294 
 ZAR  HN ES   2    020 39.48                             122    0.09 4  206 294 
 ZAR  HN I         020 46.88        25.8 0.12            117            206 294 
                                                                                
