 2012  4 8 0522  6.1 L   7.430 -73.317123.7  RSN  4 0.2 1.8LRSN                1
 GAP=186        0.46       6.9     4.0  7.0  0.1402E+02  0.1967E+01 -0.9244E+01E
 Epicentro: EL PLAYON - SANTANDER                                              3
 ACTION:UPD 12-07-05 11:51 OP:tino STATUS:               ID:20120408052206 L   I
 2012-04-08-0520-00M.COL___196                                                 6
 STAT SP IPHASW D HRMM SECON CODA AMPLIT PERI AZIMU VELO AIN AR TRES W  DIS CAZ7
 BRR  HZ EP   1    522 24.12                             154     0.0 7   56 231 
 BRR  HE ES   1    522 38.28                             154     0.2 7   56 231 
 BRR  HZ I         522 39.10        23.5 0.13                            56 231 
 PAM  SN ES   2    522 40.50                             149    -0.1 5   69  98 
 BAR2 SZ EP   1    522 27.04                             141     0.1 7   94 171 
 BAR2 SZ ES   1    522 42.90                             141    -0.2 7   94 171 
 BAR2 SZ I         522 43.83        18.4 0.18                            94 171 
 ZAR  HN ES   1    522 54.95                             122    -0.2 7  170 272 
 ZAR  HZ I         522 57.97         2.9 0.16                           170 272 
                                                                                
