 2010  5 8 0756 42.2 L   6.765 -73.052142.0  RSN  8 0.4 1.6LRSN                1
 GAP=167        0.91       5.4    10.3 11.5 -0.1588E+02 -0.5059E+02  0.1368E+02E
 Epicentro: LOS SANTOS - SANTANDER                                             3
 ACTION:UP  10-08-24 10:03 OP:vdl  STATUS:               ID:20100508075642 L   I
 2010-05-08-0755-14S.COL___105                                                 6
 STAT SP IPHASW D HRMM SECON CODA AMPLIT PERI AZIMU VELO SNR AR TRES W  DIS CAZ7
 BAR2 SZ EP   2    757  1.01                             170    -0.3 5   24 217 
 GIR2 SZ EP   3    757  1.36                             165    -0.2 2   38 336 
 BRR  HZ EP        757  3.61                             149     0.010   82 297 
 BRR  HE ES   1    757 20.68                             149     0.4 7   82 297 
 BRR  HZ I         757 23.31        12.2 0.09                            82 297 
 RUS  HZ EP        757  5.17                             144    -0.110   97 182 
 RUS  HE ES   3    757 22.83                             144    -0.4 2   97 182 
 RUS  HZ I         757 24.94         3.8 0.43                            97 182 
 BRI  SZ EP        757  5.66                             141    -0.110  109  15 
 BRI  SZ ES   2    757 23.61                             141    -0.5 5  109  15 
 GUE  SZ EP        757  6.59                             139    -0.110  119   7 
 GUE  SZ ES   2    757 25.59                             139    -0.2 5  119   7 
 GRA  SZ EP        757  7.90                             136     0.710  127  12 
 GRA  SZ ES   2    757 27.47                             136     0.8 5  127  12 
 OCA  SZ EP        757 10.21                             128    -0.5 9  166 350 
 OCA  SZ ES   2    757 32.02                             128    -0.9 5  166 350 
 OCA  SZ I         757 37.35         5.2 0.25                           166 350 
                                                                                
