 2012  9 8 0044 34.8 L   6.841 -73.180131.1  RSN  4 0.3 1.3LRSN                1
 GAP=177        0.67       6.0     6.3  9.3  0.1459E+02 -0.6554E+01 -0.6558E+00E
 Epicentro: ZAPATOCA - SANTANDER                                               3
 ACTION:UPD 12-10-22 14:17 OP:ep   STATUS:               ID:20120908004434 L   I
 2012-09-08-0040-00M.COL___227                                                 6
 STAT SP IPHASW D HRMM SECON CODA AMPLIT PERI AZIMU VELO AIN AR TRES W  DIS CAZ7
 GIR2 SZ EP   1    044 52.38                             168   -0.17 7 26.3 357 
 BRR  HZ EP   1    044 54.69                             152    0.68 7 65.7 297 
 BRR  HZ I         044 55.07         7.1 0.13                          65.7 297 
 BRR  HE ES   1    045  8.78                             152   -0.25 7 65.7 297 
 RUS  HZ EP   1    044 57.33                             139   -0.15 7  105 174 
 RUS  HN ES   1    045 15.31                             139    0.11 7  105 174 
 RUS  HZ I         045 15.98         2.4 0.46                           105 174 
 PTB  HZ EP   1    044 59.92                             129   -0.39 7  145 257 
 PTB  HN ES   1    045 20.38                             129    0.14 7  145 257 
 PTB  HN I         045 21.94         2.2 0.06                           145 257 
                                                                                
