 2017  7 8 0714 34.4 L   6.761 -73.145147.2  RSN  8 0.4 1.6LRSN                1
 GAP=113        0.97       4.6     4.3  6.2  0.9369E+01  0.5510E+00  0.5825E+01E
 Epicentro: LOS SANTOS - SANTANDER                                             3
 ACTION:UPD 17-08-30 15:30 OP:rebc STATUS:               ID:20170708071434 L   I
 OLDACT:UP  17-07-08 18:41 OP:edw  STATUS:               ID:20170708070643d    3
 OLDACT:DUP 17-07-08 18:33 OP:edw  STATUS:               ID:20170708070643d    3
 2017-07-08-0707-00M.COL___359                                                 6
 STAT SP IPHASW D HRMM SECON CODA AMPLIT PERI AZIMU VELO AIN AR TRES W  DIS CAZ7
 BAR2 EZ EP     C  714 54.21                             173    0.0410 19.1 192 
 BAR2 EZ ES        715  9.57                             173    0.0210 19.1 192 
 BAR2 EZ I         715 10.84         7.2 0.12            173           19.1 192 
 BRR  HZ IP     D  714 56.02                             152    0.1510 73.4 301 
 BRR  HE ES        715 13.33                             152    0.7510 73.4 301 
 BRR  HZ I         715 17.21         5.9 0.18            152           73.4 301 
 PAM  EZ EP   2    714 56.79                             150   -0.22 5 80.7  38 
 PAM  EN ES   2    715 13.71                             150   -0.90 5 80.7  38 
 PAM  EZ I         715 16.34        11.1 0.54            152           80.7  38 
 PTB  HZ EP        715  1.52                             133    0.06 9  147 260 
 PTB  HN ES        715 21.79                             133   -0.74 9  147 260 
 PTB  HZ I         715 24.35         2.5 0.44            134            147 260 
 SPBC HZ EP        715  3.04                             130    0.30 9  160 220 
 SPBC HN ES        715 24.92                             130    0.11 9  160 220 
 SPBC HZ I         715 27.59         8.0 0.26            132            160 220 
 YPLC HZ EP        715  4.38                             128    0.41 9  173 151 
 YPLC HN ES        715 26.97                             128   -0.04 9  173 151 
 YPLC HZ I         715 29.51         6.5 0.28            130            173 151 
 ZAR  HZ EP        715  7.31                             123    0.16 8  206 293 
 ZAR  HN ES        715 32.02                             123   -0.65 8  206 293 
 ZAR  HZ I         715 38.94         4.4 0.38            124            206 293 
 NOR  HN ES   4    715 39.12                             119    1.40 0  232 235 
 GUY2CHN ES   4    715 55.33                             113    3.64 0  299 235 
 PTGC HZ EP        715 17.54                             112   -0.37 7  305 158 
 PTGC HN ES   1    715 51.11                             112   -0.70 5  305 158 
 SJC  HZ EP   4    715 29.11                             106   -1.37 0  413 327 
 SJC  HN ES   4    716  9.32                             106   -4.86 0  413 327 
                                                                                
