 2016 11 8 0136 10.1 L   6.788 -73.157141.3  RSN  6 0.4 1.3LRSN                1
 GAP=148        0.96       5.5     4.4  6.4 -0.3616E+01  0.7264E+01  0.8693E+01E
 Epicentro: LOS SANTOS - SANTANDER                                             3
 ACTION:UPD 17-10-26 21:05 OP:lp   STATUS:               ID:20161108013610 L   I
 OLDACT:REG 16-11-08 11:32 OP:lv   STATUS:               ID:20161108012745     3
 2016-11-08-0128-00M.COL___349                                                 6
 STAT SP IPHASW D HRMM SECON CODA AMPLIT PERI AZIMU VELO AIN AR TRES W  DIS CAZ7
 BAR2 EZ EP        136 28.88                             171   -0.3010 21.8 188 
 BAR2 EZ ES        136 44.27                             171    0.2210 21.8 188 
 BAR2 EZ I         136 44.95         5.8 0.31            171           21.8 188 
 BRR  HZ EP        136 30.71                             152   -0.0510 70.8 300 
 BRR  HN ES        136 47.28                             152    0.4210 70.8 300 
 BRR  HZ I         136 52.04         2.7 0.19            150           70.8 300 
 PAM  EZ EP        136 31.81                             149   -0.1610 79.2  40 
 PAM  EN ES        136 48.95                             149   -0.0610 79.2  40 
 PAM  EZ I         136 51.01         2.3 0.46            152           79.2  40 
 PTB  HZ EP        136 36.21                             131   -0.38 9  146 259 
 PTB  HN ES        136 56.65                             131   -0.59 9  146 259 
 PTB  HZ I         136 58.55         1.8 0.15            131            146 259 
 ZAR  HZ EP        136 43.09                             121    0.88 9  203 293 
 ZAR  HE ES        137  7.10                             121   -0.15 9  203 293 
 ZAR  HZ I         137 14.34         1.5 0.22            121            203 293 
 PRA  HZ EP        137  3.39                             106    0.11 6  390 210 
 PRA  HN ES        137 45.39                             106    0.64 6  390 210 
 PRA  HZ I         137 51.45         1.2 0.28            107            390 210 
                                                                                
