 2015  3 8 0621 30.1 L   6.754 -73.188150.0  RSN  6 0.4 1.1LRSN                1
 GAP=229        0.79       4.8     7.7  6.8  0.1080E+02  0.1212E+02  0.9412E+01E
 Epicentro: VILLANUEVA - SANTANDER                                             3
 ACTION:UPD 15-04-30 16:24 OP:nd   STATUS:               ID:20150308062130 L   I
 OLDACT:REG 15-03-08 12:33 OP:spq  STATUS:               ID:20150308061750     3
 2015-03-08-0617-50M.COL___284                                                 6
 STAT SP IPHASW D HRMM SECON CODA AMPLIT PERI AZIMU VELO AIN AR TRES W  DIS CAZ7
 BAR2 EZ ES   1    622  5.42                             173   -0.31 7 17.9 178 
 BAR2 EZ I         622  5.73         3.1 0.12            168           17.9 178 
 BRR  HZ EP        621 51.53                             154   -0.0610 69.8 304 
 BRR  HN ES        622  8.76                             154    0.3810 69.8 304 
 BRR  HZ I         622 11.11         1.3 0.23            153           69.8 304 
 RUS  HN ES   1    622 12.38                             146   -0.12 7 95.9 173 
 RUS  HZ I         622 13.83         1.2 0.31            143           95.9 173 
 PTB  HZ EP        621 56.75                             134   -0.13 9  142 260 
 PTB  HN ES   1    622 17.08                             134   -0.73 7  142 260 
 PTB  HZ I         622 19.26         1.4 0.22            132            142 260 
 SPBC HZ EP   1    621 58.27                             131    0.03 7  156 219 
 SPBC HE ES   1    622 21.00                             131    0.77 7  156 219 
 SPBC HZ I         622 23.07         2.3 0.20            129            156 219 
 CHI  HZ EP   1    622  7.67                             119    0.34 6  243 194 
 CHI  HN ES   1    622 36.14                             119   -0.27 6  243 194 
 CHI  HZ I         622 44.43         1.2 0.84            118            243 194 
                                                                                
