 2012 10 8 0625 59.8 L   6.803 -73.097140.0  RSN  5 0.2 1.4LRSN                1
 GAP=198        0.46       4.5     5.4  5.5  0.1542E+02  0.3885E+01  0.4004E+01E
 Epicentro: LOS SANTOS - SANTANDER                                             3
 ACTION:UPD 12-11-22 17:02 OP:ep   STATUS:               ID:20121008062559 L   I
 2012-10-08-0620-00M.COL___222                                                 6
 STAT SP IPHASW D HRMM SECON CODA AMPLIT PERI AZIMU VELO AIN AR TRES W  DIS CAZ7
 BAR2 SZ EP   1    626 18.65                             169   -0.10 7 25.1 202 
 BAR2 SZ I         626 34.72        14.1 0.24                          25.1 202 
 GIR2 SZ EP   1    626 18.85                             166    0.06 7 32.3 341 
 GIR2 SZ ES   1    626 33.41                             166   -0.21 7 32.3 341 
 BRR  HZ EP   1    626 20.54                             150   -0.04 7 75.8 296 
 BRR  HZ I         626 20.95         5.0 0.12                          75.8 296 
 BRR  HN ES   1    626 37.20                             150    0.40 7 75.8 296 
 RUS  HZ EP   1    626 23.17                             142    0.20 7  101 179 
 RUS  HN ES   1    626 40.95                             142   -0.11 7  101 179 
 RUS  HN I         626 42.82         1.7 0.20                           101 179 
 ZAR  HN ES   1    626 57.51                             120   -0.26 6  209 292 
                                                                                
