 2015  6 8 0113 37.2 L   6.147 -73.296156.5  RSN  7 0.4 1.5LRSN                1
 GAP=126        0.89       4.1     4.4  5.9 -0.2237E+01  0.1171E+02 -0.8925E+00E
 Epicentro: OIBA - SANTANDER                                                   3
 ACTION:UPD 15-09-10 22:10 OP:cam  STATUS:               ID:20150608011337 L   I
 OLDACT:REG 15-06-08 12:02 OP:drio STATUS:               ID:20150608010750     3
 2015-06-08-0107-50M.COL___297                                                 6
 STAT SP IPHASW D HRMM SECON CODA AMPLIT PERI AZIMU VELO AIN AR TRES W  DIS CAZ7
 RUS  HZ EP        113 58.52                             166   -0.2910 36.7 140 
 RUS  HN ES        114 15.60                             166   -0.0810 36.7 140 
 RUS  HZ I         114 17.02         2.7 0.30            171           36.7 140 
 BAR2 EZ EP        113 58.88                             161   -0.0410 50.8  14 
 BAR2 EZ ES        114 15.38                             161   -0.4810 50.8  14 
 BAR2 EZ I         114 17.20         5.2 0.22            162           50.8  14 
 SPBC HZ EP        114  1.44                             145   -0.0910  102 238 
 SPBC HN ES        114 20.93                             145    0.4110  102 238 
 SPBC HZ I         114 24.93         8.5 0.68            144            102 238 
 BRR  HZ EP        114  3.11                             142    0.7010  116 337 
 BRR  HE ES        114 22.51                             142    0.4310  116 337 
 ZAR  HZ EP        114 12.46                             121   -0.34 8  228 311 
 ZAR  HE ES        114 40.26                             121   -0.31 8  228 311 
 ZAR  HZ I         114 46.98         4.7 0.36            122            228 311 
 HEL  HZ EP        114 15.07                             119   -0.22 8  247 271 
 HEL  HN ES        114 44.79                             119   -0.22 8  247 271 
 HEL  HZ I         114 52.40         2.8 0.26            120            247 271 
 GUY2CHZ EP        114 16.26                             119    0.43 8  251 246 
 GUY2CHE ES        114 45.84                             119   -0.12 8  251 246 
 GUY2CHZ I         114 54.33         1.5 0.24                           251 246 
 MON  HZ EP   4    114 28.97                             108   -1.98 0  391 318 
 MON  HN ES   4    115 11.21                             108   -1.67 0  391 318 
                                                                                
