 2015  3 8 0617 22.2 L   6.821 -73.148146.0  RSN 24 0.5 2.3LRSN                1
 GAP= 70        0.96       2.5     2.9  4.6 -0.1572E+01  0.3053E+01  0.2167E+01E
 Epicentro: LOS SANTOS - SANTANDER                                             3
 ACTION:UPD 15-04-30 16:24 OP:nd   STATUS:               ID:20150308061722 L   I
 OLDACT:REG 15-03-08 12:32 OP:spq  STATUS:               ID:20150308060746     3
 2015-03-08-0607-46M.COL___281                                                 6
 STAT SP IPHASW D HRMM SECON CODA AMPLIT PERI AZIMU VELO AIN AR TRES W  DIS CAZ7
 BAR2 EZ EP        617 41.79                             170   -0.1510 25.6 188 
 BAR2 EZ ES   1    617 57.18                             170   -0.13 7 25.6 188 
 BAR2 EZ I         617 58.90        32.8 0.32            170           25.6 188 
 BRR  HZ EP     D  617 43.60                             153    0.2710 69.8 297 
 BRR  HN ES        618  0.86                             153    1.0810 69.8 297 
 BRR  HZ I         618  4.80        28.3 0.12            150           69.8 297 
 PAM  SZ EP        617 44.82                             151    0.4510 75.8  41 
 PAM  SN ES        618  1.68                             151    0.0310 75.8  41 
 PAM  SZ I         618  4.23        56.3 0.57            153           75.8  41 
 RUS  HZ EP        617 46.00                             143   -0.1810  103 176 
 RUS  HN ES   1    618  4.73                             143   -0.13 7  103 176 
 RUS  HZ I         618  5.70        30.4 0.34            145            103 176 
 PTB  HZ EP        617 48.53                             132   -0.70 9  148 258 
 PTB  HN ES        618  9.71                             132   -0.59 9  148 258 
 PTB  HZ I         618 12.17        17.1 0.14            131            148 258 
 TAM  HZ EP     D  617 50.23                             130    0.22 9  156 106 
 TAM  HN ES   1    618 11.83                             130    0.15 7  156 106 
 OCA  HZ EP        617 50.05                             130   -0.28 9  158 353 
 OCA  HN ES        618 11.64                             130   -0.61 9  158 353 
 OCA  HZ I         618 16.84        19.9 0.47            130            158 353 
 SPBC HZ EP        617 50.79                             129   -0.11 9  165 218 
 SPBC HE ES        618 13.00                             129   -0.27 9  165 218 
 SPBC HZ I         618 15.39        41.8 0.38            129            165 218 
 NOR  HZ EP        617 58.01                             118   -0.09 8  236 234 
 NOR  HN ES        618 26.18                             118    0.11 8  236 234 
 NOR  HZ I         618 28.43        16.1 0.06            118            236 234 
 SML  HZ EP        617 58.16                             118   -0.46 8  241 335 
 SML  HE ES   1    618 26.54                             118   -0.47 6  241 335 
 SML  HZ I         618 33.95        34.8 0.10            118            241 335 
 CHI  HZ EP        618  0.05                             117   -0.13 8  251 195 
 CHI  HE ES        618 29.33                             117   -0.45 8  251 195 
 CHI  HZ I         618 32.87        10.4 0.40            118            251 195 
 HEL  HZ EP   1    618  3.43                             115    0.94 6  272 255 
 HEL  HN ES   1    618 34.08                             115    0.19 6  272 255 
 HEL  HZ I         618 39.91         7.5 0.28            115            272 255 
 GUY2CHZ EP   4    618  7.06                             112    1.08 0  302 234 
 GUY2CHE ES   1    618 40.14                             112    0.04 5  302 234 
 GUY2CHZ I         618 47.85         9.0 0.30                           302 234 
 PTGC HZ EP   4    618  5.05                             111   -1.31 0  311 159 
 PTGC HE ES   4    618 38.33                             111   -2.45 0  311 159 
 PTGC HZ I         618 40.97        15.4 0.65            113            311 159 
 RREF HZ EP   4    618 10.54                             111    2.01 0  323 229 
 RREF HN ES   4    618 47.15                             111    2.50 0  323 229 
 RREF HZ I         618 51.05        13.0 0.24            111            323 229 
 CBOC HZ EP        618  9.95                             110    0.74 7  334 252 
 CBOC HE ES   1    618 45.92                             110    0.07 5  334 252 
 DBB  SZ ES   1    618 47.10                             110    0.44 5  339 274 
 DBB  SZ I         618 49.78        17.4 0.57            110            339 274 
 TOL  SZ EP        618 11.51                             109    0.84 7  345 224 
 TOL  SE ES   4    618 50.70                             109    2.25 0  345 224 
 TOL  SZ I         618 55.40         8.1 0.48            110            345 224 
 MON  HZ EP   4    618  9.14                             109   -1.90 0  352 308 
 MON  HN ES   4    618 47.59                             109   -1.53 0  352 308 
 MON  HZ I         618 49.24         3.6 0.26            109            352 308 
 ARGC HZ EP   4    618 13.19                             108    1.57 0  357 340 
 ARGC HE ES   1    618 50.56                             108    0.41 5  357 340 
 ARGC HZ I         619  2.08         5.3 0.30            109            357 340 
 ANIL HZ EP   1    618 12.86                             108    0.64 5  359 224 
 ANIL HN ES   4    618 53.43                             108    2.23 0  359 224 
 ANIL HZ I         618 56.33         2.0 0.28            109            359 224 
 PRA  HZ EP        618 15.71                             106   -0.27 6  394 209 
 PRA  HE ES        618 57.62                             106   -0.29 6  394 209 
 PRA  HZ I         619  3.71         7.4 0.22            107            394 209 
 ORTC HZ EP        618 16.28                             106   -0.08 6  397 216 
 ORTC HN ES        618 59.41                             106    0.83 6  397 216 
 ORTC HZ I         619  3.19         5.0 0.30            107            397 216 
 PAL  HZ EP        618 17.51                             106   -0.00 6  407 239 
 PAL  HN ES   1    619  0.07                             106   -0.56 4  407 239 
 PAL  HZ I         619  5.66         3.5 0.30            106            407 239 
                                                                                
