 2012  6 8 0924 25.1 L   6.812 -73.162150.0  RSN  9 0.5 2.0LRSN                1
 GAP=181        0.89       3.5     5.7  7.3  0.1128E+01  0.8723E+01 -0.2819E+00E
 Epicentro: LOS SANTOS - SANTANDER                                             3
 ACTION:UPD 12-08-06 17:48 OP:ep   STATUS:               ID:20120608092424 L   I
 2012-06-08-0920-00M.COL___200                                                 6
 STAT SP IPHASW D HRMM SECON CODA AMPLIT PERI AZIMU VELO AIN AR TRES W  DIS CAZ7
 BAR2 SZ EP        924 45.28                             170    0.0510 24.4 185 
 BAR2 SZ ES   1    925  1.17                             170    0.21 7 24.4 185 
 BAR2 SZ I         925  2.03        18.0 0.18            168           24.4 185 
 RUS  HZ EP   1    924 50.10                             144    0.75 7  102 175 
 RUS  HN ES   1    925  7.54                             144   -0.74 7  102 175 
 RUS  HZ I         925 10.98         7.6 0.22            146            102 175 
 PTB  HZ EP   1    924 51.96                             133   -0.29 7  146 258 
 PTB  HN ES   1    925 13.37                             133   -0.09 7  146 258 
 PTB  HZ I         925 19.24         9.2 0.39            132            146 258 
 OCA  HZ EP   1    924 53.55                             131   -0.02 7  159 354 
 OCA  HE ES   1    925 15.73                             131   -0.07 7  159 354 
 OCA  HZ I         925 20.24        26.7 0.21            133            159 354 
 ZAR  HE ES   1    925 23.73                             123    0.81 6  202 292 
 ZAR  HZ I         925 30.39        16.2 0.29            124            202 292 
 NOR  SE ES   1    925 28.66                             119   -0.33 6  234 234 
 CHI  HZ EP   1    925  3.14                             118    0.04 6  249 195 
 CHI  HN ES   1    925 32.47                             118   -0.29 6  249 195 
 CHI  HZ I         925 40.84         4.0 0.43            119            249 195 
 PRA  HZ EP        925 19.72                             107    0.94 6  392 209 
 PRA  HE ES   1    926  0.41                             107   -0.25 4  392 209 
 SJC  HZ EP   1    925 19.45                             106   -1.08 4  407 327 
 SJC  HZ I         925 21.35         1.9 0.22            108            407 327 
 SJC  HN ES   1    926  2.96                             106   -0.82 4  407 327 
                                                                                
