 2017  2 8 0424 19.5 L   6.521 -72.947  0.0  RSN  4 0.2 1.1LRSN                1
 GAP=245        0.60       3.3     6.3  7.2  0.1660E+02  0.3311E+02  0.1637E+02E
 Epicentro: MOGOTES - SANTANDER                                                3
 ACTION:UPD 17-05-24 15:33 OP:jn   STATUS:               ID:20170208042419 L   I
 OLDACT:UP  17-02-08 16:55 OP:edw  STATUS:               ID:20170208041747     3
 OLDACT:REG 17-02-08 12:28 OP:edw  STATUS:               ID:20170208041747     3
 2017-02-08-0418-00M.COL___319                                                 6
 STAT SP IPHASW D HRMM SECON CODA AMPLIT PERI AZIMU VELO AIN AR TRES W  DIS CAZ7
 BAR2 EZ IP     D  424 24.66                              47   -0.3210 27.2 287 
 BAR2 EZ ES        424 29.04                              47   -0.2510 27.2 287 
 BAR2 EZ I         424 29.76        11.3 0.28             47           27.2 287 
 RUS  HN ES        424 41.68                              47    0.0610 71.1 192 
 BRR  HZ EP        424 36.86                              47    0.1110  107 308 
 BRR  HN ES        424 50.50                              47    0.2510  107 308 
 PTB  HZ EP   4    424 47.52                              47    1.59 0  167 271 
 PTB  HN ES        425  6.77                              47    0.19 9  167 271 
 PTB  HZ I         425 10.32         4.4 0.28             47            167 271 
                                                                                
