 2015  5 8 0211 17.3 L   6.744 -73.154136.3  RSN  6 0.5 1.4LRSN                1
 GAP=232        1.19       6.5     8.4  8.5  0.2637E+02  0.1661E+02  0.1314E+02E
 Epicentro: LOS SANTOS - SANTANDER                                             3
 ACTION:UPD 15-09-10 22:02 OP:cam  STATUS:               ID:20150508021117 L   I
 OLDACT:REG 15-05-08 12:34 OP:drio STATUS:               ID:20150508020747     3
 2015-05-08-0207-47M.COL___282                                                 6
 STAT SP IPHASW D HRMM SECON CODA AMPLIT PERI AZIMU VELO AIN AR TRES W  DIS CAZ7
 BAR2 EZ EP        211 35.31                             173   -0.3410 17.0 191 
 BAR2 EZ ES        211 49.31                             173   -0.6710 17.0 191 
 BAR2 EZ I         211 51.74         7.7 0.22            166           17.0 191 
 BRR  HZ EP        211 38.41                             150    0.8610 73.6 303 
 BRR  HN ES        211 53.76                             150    0.3910 73.6 303 
 RUS  HZ EP        211 39.46                             144   -0.1910 94.4 175 
 RUS  HN ES        211 57.58                             144    0.4810 94.4 175 
 RUS  HZ I         211 59.19         3.7 0.28            141           94.4 175 
 SPBC HZ EP        211 44.35                             128   -0.19 9  158 220 
 SPBC HN ES        212  5.93                             128    0.12 9  158 220 
 SPBC HZ I         212  8.73         5.8 0.22            126            158 220 
 ZAR  HN ES        212 13.70                             120   -0.56 8  206 294 
 CHI  HZ EP        211 53.65                             116   -0.12 8  242 195 
 CHI  HN ES   4    212 20.93                             116   -1.31 0  242 195 
 CHI  HZ I         212 28.99         1.4 0.30            115            242 195 
                                                                                
