 2016  3 8 0849 34.0 L   6.807 -73.154148.0  RSN  7 0.2 1.5LRSN                1
 GAP=108        0.63       3.4     2.6  4.4  0.5278E+00  0.1881E+01 -0.1760E+01E
 Epicentro: LOS SANTOS - SANTANDER                                             3
 ACTION:UPD 16-05-13 21:22 OP:cam  STATUS:               ID:20160308084934 L   I
 OLDACT:REG 16-03-08 14:49 OP:cara STATUS:               ID:20160308084750     3
 2016-03-08-0847-50M.COL___288                                                 6
 STAT SP IPHASW D HRMM SECON CODA AMPLIT PERI AZIMU VELO AIN AR TRES W  DIS CAZ7
 BAR2 EZ EP        849 53.48                             170   -0.4510 24.0 188 
 BAR2 EZ ES        850  9.40                             170   -0.0610 24.0 188 
 BAR2 EZ I         850 10.13         4.1 0.36            171           24.0 188 
 PAM  EZ EP        849 56.64                             151    0.1710 77.3  40 
 PAM  EE ES        850 13.99                             151    0.0110 77.3  40 
 PAM  EZ I         850 16.26         7.3 0.64            154           77.3  40 
 RUS  HZ EP        849 58.49                             144    0.4410  101 176 
 RUS  HE ES        850 16.89                             144    0.0910  101 176 
 RUS  HZ I         850 18.84         2.2 0.54            146            101 176 
 PTB  HZ EP        850  0.89                             133   -0.22 9  147 258 
 PTB  HN ES        850 22.13                             133   -0.10 9  147 258 
 PTB  HZ I         850 27.70         3.1 0.20            133            147 258 
 TAM  HZ EP        850  1.87                             131   -0.10 9  156 105 
 ZAR  HZ EP        850  6.45                             123   -0.05 9  203 292 
 ZAR  HE ES        850 32.12                             123    0.29 9  203 292 
 ZAR  HZ I         850 35.31         4.0 0.24            124            203 292 
 GUY2CHZ EP   4    850 19.74                             113    2.04 0  301 235 
 GUY2CHE ES   4    850 53.91                             113    2.13 0  301 235 
 GUY2CHZ I         851  0.50         2.3 0.82                           301 235 
                                                                                
