 2014  8 8 0007 34.1 L   6.839 -73.190140.1  RSN 12 0.4 1.5LRSN                1
 GAP=129        0.87       2.6     3.4  6.4 -0.1258E+01  0.5734E+01  0.1526E+01E
 Epicentro: ZAPATOCA - SANTANDER                                               3
 ACTION:UPD 14-09-15 21:47 OP:nd   STATUS:               ID:20140808000734 L   I
 OLDACT:DUP 14-08-08 18:39 OP:spq  STATUS:               ID:20140808000051d    3
 2014-08-08-0000-49M.COL___260                                                 6
 STAT SP IPHASW D HRMM SECON CODA AMPLIT PERI AZIMU VELO AIN AR TRES W  DIS CAZ7
 BAR2 SZ EP        0 7 53.46                             168    0.3410 27.3 178 
 BAR2 SZ ES   1    0 8  8.08                             168    0.10 7 27.3 178 
 BAR2 SZ I         0 8 10.93         9.2 0.22            171           27.3 178 
 BRR  HZ EP        0 7 54.81                             154    0.5510 64.8 297 
 BRR  HE ES        0 8 10.21                             154    0.2110 64.8 297 
 BRR  HZ I         0 8 15.80         6.8 0.30            151           64.8 297 
 PAM  SZ EP        0 7 56.07                             150    0.3710 77.4  44 
 PAM  SN ES        0 8 12.18                             150   -0.3810 77.4  44 
 PAM  SZ I         0 8 15.52         5.2 0.48            152           77.4  44 
 RUS  HZ EP        0 7 57.11                             141   -0.5310  105 174 
 RUS  HN ES        0 8 15.79                             141   -0.2310  105 174 
 RUS  HZ I         0 8 17.20         4.8 0.26            145            105 174 
 PTB  HZ EP        0 8  0.52                             131    0.29 9  144 257 
 PTB  HE ES        0 8 20.62                             131   -0.01 9  144 257 
 PTB  HZ I         0 8 23.03         4.1 0.14            132            144 257 
 OCA  HN ES        0 8 22.63                             129   -0.25 9  155 355 
 OCA  HZ I         0 8 31.61         4.4 0.48            130            155 355 
 SPBC HE ES        0 8 24.55                             127    0.43 9  164 217 
 SPBC HZ I         0 8 29.10         5.0 0.28            129            164 217 
 ZAR  HE ES        0 8 29.55                             122   -0.49 9  198 292 
 ZAR  HZ I         0 8 37.41         2.2 0.28            122            198 292 
 NOR  HE ES        0 8 36.71                             117   -0.13 8  233 233 
 NOR  HZ I         0 8 43.73         2.4 0.18            119            233 233 
 SML  HN ES   1    0 8 37.37                             117   -0.18 6  238 336 
 SML  HZ I         0 8 43.61         4.5 0.11            118            238 336 
 CHI  HE ES   1    0 8 40.91                             115   -0.31 6  252 194 
 CHI  HZ I         0 8 44.38         2.8 0.20            118            252 194 
 GUY2CHN ES   1    0 8 50.38                             111   -0.57 5  300 234 
 GUY2CHZ I         0 9  1.32         1.7 0.28                           300 234 
                                                                                
