 2012 10 8 0105 45.8 L   6.786 -73.133147.6  RSN  6 0.4 1.8LRSN                1
 GAP=139        0.88       6.0     6.4  7.5  0.8654E+01  0.1147E+02  0.1560E+01E
 Epicentro: LOS SANTOS - SANTANDER                                             3
 ACTION:UPD 12-11-22 17:02 OP:ep   STATUS:               ID:20121008010545 L   I
 2012-10-08-0100-00M.COL___222                                                 6
 STAT SP IPHASW D HRMM SECON CODA AMPLIT PERI AZIMU VELO AIN AR TRES W  DIS CAZ7
 BAR2 SZ EP   1    1 6  5.48                             171   -0.15 7 22.1 194 
 BAR2 SZ ES   1    1 6 20.80                             171   -0.29 7 22.1 194 
 BAR2 SZ I         1 6 23.34        15.5 0.30                          22.1 194 
 GIR2 SZ EP   1    1 6  5.56                             167   -0.18 7 33.0 348 
 GIR2 SZ ES   1    1 6 20.88                             167   -0.41 7 33.0 348 
 BRR  HZ EP   1    1 6  7.37                             152    0.12 7 73.1 299 
 BRR  HZ I         1 6  7.73        16.4 0.14                          73.1 299 
 BRR  HE ES   1    1 6 25.13                             152    1.14 7 73.1 299 
 PAM  SZ EP   1    1 6  8.35                             151    0.12 7 77.7  38 
 PAM  SZ I         1 6  8.51         9.5 0.20                          77.7  38 
 PAM  SN ES   1    1 6 25.66                             151   -0.07 7 77.7  38 
 RUS  HZ EP   1    1 6 10.08                             145    0.47 7 99.0 177 
 RUS  HN ES   1    1 6 28.03                             145   -0.16 7 99.0 177 
 ZAR  HZ EP   1    1 6 18.41                             122   -0.14 6  206 292 
 ZAR  HE ES   1    1 6 43.42                             122   -0.68 6  206 292 
 ZAR  HZ I         1 6 50.64         4.0 0.12                           206 292 
                                                                                
