 2015  3 8 0910  6.7 L   6.807 -73.138151.7  RSN 11 0.3 1.5LRSN                1
 GAP=137        0.71       2.3     3.6  4.5  0.4450E+00  0.2835E+01  0.3403E+00E
 Epicentro: LOS SANTOS - SANTANDER                                             3
 ACTION:UPD 15-04-30 16:24 OP:nd   STATUS:               ID:20150308091006 L   I
 OLDACT:REG 15-03-08 12:50 OP:spq  STATUS:               ID:20150308090748     3
 2015-03-08-0907-48M.COL___284                                                 6
 STAT SP IPHASW D HRMM SECON CODA AMPLIT PERI AZIMU VELO AIN AR TRES W  DIS CAZ7
 BAR2 EZ EP        910 26.85                             170   -0.1610 24.2 192 
 BAR2 EZ ES   1    910 42.85                             170   -0.04 7 24.2 192 
 BAR2 EZ I         910 43.84         3.8 0.18            170           24.2 192 
 BRR  HZ EP        910 28.67                             153    0.2110 71.6 298 
 BRR  HN ES        910 46.12                             153    0.6410 71.6 298 
 BRR  HZ I         910 49.93         3.9 0.20            151           71.6 298 
 PAM  SZ EP        910 29.71                             152    0.2710 76.3  39 
 PAM  SE ES   1    910 47.09                             152   -0.12 7 76.3  39 
 PAM  SZ I         910 49.20         3.7 0.38            155           76.3  39 
 RUS  HZ EP        910 31.21                             145    0.1710  101 177 
 RUS  HN ES   1    910 49.58                             145   -0.48 7  101 177 
 RUS  HZ I         910 50.44         2.5 0.28            146            101 177 
 PTB  HZ EP   1    910 33.79                             133   -0.40 7  149 259 
 PTB  HE ES   1    910 55.73                             133    0.05 7  149 259 
 PTB  HZ I         910 56.97         4.7 0.18            132            149 259 
 OCA  HN ES        910 57.28                             131   -0.49 9  160 353 
 OCA  HZ I         911  3.84         3.7 0.24            131            160 353 
 SPBC HZ EP        910 35.76                             130    0.05 9  164 219 
 SPBC HE ES   1    910 58.11                             130   -0.27 7  164 219 
 SPBC HZ I         911  2.39         5.0 0.18            130            164 219 
 ZAR  HZ EP        910 39.63                             124    0.09 9  205 292 
 ZAR  HN ES   1    911  5.22                             124    0.03 6  205 292 
 ZAR  HZ I         911 10.90         5.7 0.28            123            205 292 
 SML  HZ EP        910 43.76                             119    0.18 8  243 335 
 SML  HN ES   1    911 11.81                             119   -0.57 6  243 335 
 SML  HZ I         911 16.77         3.8 0.09            119            243 335 
 CHI  HZ EP   1    910 45.13                             118    0.34 6  250 195 
 CHI  HN ES   1    911 14.19                             118   -0.34 6  250 195 
 CHI  HZ I         911 24.11         1.2 0.34            119            250 195 
 MON  HZ EP   4    910 54.07                             110   -1.84 0  354 308 
 MON  HN ES   1    911 33.93                             110   -0.40 5  354 308 
 MON  HZ I         911 40.80         0.8 0.58            110            354 308 
                                                                                
