 2010  8 8 0550 48.2 L   6.798 -73.050144.9  RSN  9 0.3 1.6LRSN                1
 GAP=169        0.61       3.5     6.3  6.5 -0.9062E+01 -0.8920E+01  0.1211E+02E
 Epicentro: LOS SANTOS - SANTANDER                                             3
 ACTION:UP  10-09-07 10:53 OP:vdl  STATUS:               ID:20100808055048 L   I
 2010-08-08-0548-23S.COL___124                                                 6
 STAT SP IPHASW D HRMM SECON CODA AMPLIT PERI AZIMU VELO SNR AR TRES W  DIS CAZ7
 BAR2 SZ EP        551  7.82                             169     0.010   27 213 
 BAR2 SZ ES   2    551 22.97                             169    -0.1 5   27 213 
 BAR2 SZ I         551 24.33         6.7 0.32                            27 213 
 BRR  HZ EP        551  9.69                             150    -0.110   81 295 
 BRR  HE ES   1    551 26.89                                     0.2 7   81 295 
 BRR  HZ I         551 30.30         6.9 0.36                            81 295 
 RUS  HZ EP        551 11.88                             143     0.110  100 182 
 RUS  HZ I         551 32.20         4.9 0.46                           100 182 
 GUE  SZ EP   1    551 13.20                             139     0.5 7  115   7 
 GRA  SZ EP   1    551 12.88                             137    -0.3 7  123  13 
 GRA  SZ ES   1    551 32.61                             137     0.0 7  123  13 
 GRA  SZ I         551 34.12         7.2 0.43                           123  13 
 OCA  SZ ES   2    551 37.97                             129    -0.8 5  162 349 
 CHI  HZ EP        551 26.21                             116     0.1 8  251 198 
 CHI  HZ I         551 26.99         2.3 0.29                           251 198 
 CHI  HE ES   2    551 55.36                             116    -0.4 4  251 198 
 RREF HZ EP   2    551 35.37                             110     0.2 3  330 231 
 RREF HN ES   2    552 12.36                             110     0.5 3  330 231 
 RREF HZ I         552 17.14         2.5 0.28                           330 231 
 PRA  HZ EP        551 42.18                             106    -0.1 6  397 211 
 PRA  HN ES   2    552 23.52                             106    -0.9 3  397 211 
 PRA  HZ I         552 32.30         2.3 0.24                           397 211 
                                                                                
