 2017  8 8 0621 56.2 L   6.582 -73.021166.0  RSN  5 0.5 1.2LRSN                1
 GAP=238        1.09       7.1     9.9  8.8  0.1135E+02  0.6131E+01 -0.5292E+01E
 Epicentro: CURITI - SANTANDER                                                 3
 ACTION:UPD 17-09-04 20:17 OP:rebc STATUS:               ID:20170808062156 L   I
 OLDACT:UP  17-08-08 16:17 OP:dani STATUS:               ID:20170808061744d    3
 OLDACT:UP  17-08-08 16:11 OP:dani STATUS:               ID:20170808061743d    3
 OLDACT:UP  17-08-08 16:10 OP:dani STATUS:               ID:20170808061743d    3
 OLDACT:DUP 17-08-08 16:07 OP:dani STATUS:               ID:20170808061743d    3
 2017-08-08-0618-00M.COL___381                                                 6
 STAT SP IPHASW D HRMM SECON CODA AMPLIT PERI AZIMU VELO AIN AR TRES W  DIS CAZ7
 BAR2 EZ EP        622 18.89                             173    0.6910 17.8 274 
 BAR2 EZ ES        622 34.89                             173   -0.4610 17.8 274 
 BAR2 EZ I         622 36.50         6.0 0.37            175           17.8 274 
 RUS  HZ EP        622 20.29                             154   -0.3010 76.6 185 
 RUS  HE ES        622 39.49                             154   -0.1010 76.6 185 
 RUS  HZ I         622 40.63         2.2 0.29            155           76.6 185 
 BRR  HZ EP        622 21.01                             148    0.0110 95.9 307 
 BRR  HN ES        622 40.62                             148    0.2910 95.9 307 
 SPBC HE ES        622 49.14                             135    0.53 9  155 229 
 PTB  HZ EP        622 25.27                             134   -0.59 9  159 268 
 PTB  HN ES   3    622 47.51                             134   -1.46 2  159 268 
 PTB  HZ I         622 48.49         0.9 0.27            135            159 268 
                                                                                
