 2013 10 8 0909 39.1 L   6.812 -73.153147.4  RSN  7 0.4 1.8LRSN                1
 GAP=135        0.86       3.3     4.4  6.2 -0.1947E+01  0.6916E+01 -0.2274E+01E
 Epicentro: LOS SANTOS - SANTANDER                                             3
 ACTION:UPD 13-11-25 09:20 OP:ep   STATUS:               ID:20131008090939 L   I
 OLDACT:REG 13-10-08 12:53 OP:mh   STATUS:               ID:20131008090849     3
 2013-10-08-0908-49M.COL___223                                                 6
 STAT SP IPHASW D HRMM SECON CODA AMPLIT PERI AZIMU VELO AIN AR TRES W  DIS CAZ7
 BAR2 SZ EP   1    9 9 59.05                             170    0.06 7 24.5 188 
 BAR2 SZ ES   1    910 14.06                             170   -0.41 7 24.5 188 
 BAR2 SZ I         910 16.94        15.3 0.28            170           24.5 188 
 BRR  HZ EP   1    910  1.01                             153    0.62 7 69.9 298 
 BRR  HN ES        910 17.48                             153    0.5110 69.9 298 
 BRR  HZ I         910 28.77         8.1 0.36            151           69.9 298 
 PAM  SZ EP   1    910  1.79                             151    0.29 7 76.9  41 
 PAM  SN ES        910 18.83                             151   -0.1110 76.9  41 
 PAM  SZ I         910 21.20         9.5 0.20            157           76.9  41 
 RUS  HZ EP   1    910  2.96                             144   -0.19 7  102 176 
 RUS  HN ES        910 21.69                             144   -0.1910  102 176 
 RUS  HZ I         910 23.03         3.7 0.36            151            102 176 
 PTB  HZ EP        910  5.77                             132   -0.42 9  147 258 
 PTB  HN ES        910 26.79                             132   -0.50 9  147 258 
 PTB  HZ I         910 32.83         9.4 0.24            134            147 258 
 SPBC HZ EP   1    910  8.00                             129    0.19 7  164 218 
 SPBC HN ES        910 30.69                             129    0.51 9  164 218 
 SPBC HZ I         910 34.98        10.8 0.40            133            164 218 
 SML  HZ EP   1    910 15.82                             118    0.13 6  242 335 
 SML  HN ES        910 43.91                             118   -0.29 8  242 335 
 SML  HZ I         910 48.60         9.7 0.10            121            242 335 
                                                                                
