 2013  3 8 0048 46.2 L   6.707 -73.199148.0  RSN  5 0.3 1.5LRSN                1
 GAP=134        0.72       4.8     4.9  8.1  0.6931E+01 -0.1548E+02 -0.9686E+01E
 Epicentro: VILLANUEVA - SANTANDER                                             3
 ACTION:UPD 13-04-09 14:00 OP:ep   STATUS:               ID:20130308004846 L   I
 2013-03-08-0038-43M.COL___206                                                 6
 STAT SP IPHASW D HRMM SECON CODA AMPLIT PERI AZIMU VELO AIN AR TRES W  DIS CAZ7
 BAR2 SZ EP        049  5.95                             175    0.0010 12.8 172 
 BAR2 SZ I         049 21.66         9.2 0.20            172           12.8 172 
 BRR  HZ EP        049  8.03                             153    0.3810 71.9 308 
 BRR  HE ES        049 24.49                             153    0.1210 71.9 308 
 PAM  SZ EP        049  9.06                             148   -0.3410 89.0  38 
 RUS  HZ EP        049  9.41                             147   -0.1210 91.0 172 
 RUS  HN ES        049 27.85                             147    0.1410 91.0 172 
 RUS  HN I         049 29.73         3.6 0.24            145           91.0 172 
 PTB  HZ EP   2    049 13.40                             134    0.69 5  140 262 
 PTB  HN ES        049 32.99                             134   -0.38 9  140 262 
                                                                                
