 2014  7 8 0214 30.1 L   6.812 -73.156142.0  RSN 24 0.5 2.7LRSN                1
 GAP= 53        1.12       2.4     2.8  4.5 -0.1276E+01  0.2605E+01  0.1847E+01E
 Epicentro: LOS SANTOS - SANTANDER                                             3
      98.0      10.0      -2.0 27.0 20.0 30.0  0.0  0.1           RSN FPFIT    F
 ACTION:UPD 15-03-16 20:42 OP:nd   STATUS:               ID:20140708021430 L   I
 OLDACT:REG 14-07-08 12:21 OP:stll STATUS:               ID:20140708020820     3
 2014-07-08-0208-20M.COL___268                                                 6
 STAT SP IPHASW D HRMM SECON CODA AMPLIT PERI AZIMU VELO AIN AR TRES W  DIS CAZ7
 BAR2 SZ IP     C  214 49.75                             170    0.4010 24.5 187 
 BAR2 SZ ES        215  4.36                             170    0.0310 24.5 187 
 BAR2 SZ I         215  7.54        95.7 0.28            168           24.5 187 
 BRR  HZ IP     D  214 51.56                             152    0.7610 69.6 298 
 BRR  HE ES        215  7.57                             152    0.6710 69.6 298 
 BRR  HZ I         215 11.81        61.5 0.20            152           69.6 298 
 PAM  SZ EP     C  214 52.67                             150    0.7310 77.1  41 
 PAM  SZ I         214 52.93       134.1 0.20            156           77.1  41 
 PAM  SN ES        215  9.20                             150    0.2610 77.1  41 
 RUS  HZ EP        214 53.54                             143   -0.0910  102 175 
 RUS  HN ES        215 11.96                             143    0.0110  102 175 
 RUS  HZ I         215 13.83        26.0 0.30            144            102 175 
 PTB  HZ EP        214 56.26                             131   -0.47 9  147 258 
 PTB  HN ES        215 16.54                             131   -0.93 9  147 258 
 PTB  HZ I         215 22.53        32.8 0.30            131            147 258 
 TAM  HZ IP     C  214 58.20                             129    0.54 9  157 105 
 TAM  HN ES        215 18.56                             129   -0.56 9  157 105 
 TAM  HZ I         215 19.16        41.8 0.36            134            157 105 
 OCA  HZ EP        214 57.76                             129   -0.26 9  159 353 
 OCA  HN ES        215 19.26                             129   -0.51 9  159 353 
 SPBC HZ IP     D  214 58.69                             128    0.30 9  164 218 
 SPBC HE ES        215 20.60                             128    0.17 9  164 218 
 SPBC HZ I         215 25.03        56.5 0.42            129            164 218 
 ZAR  HZ EP        215  2.44                             122    0.25 9  203 292 
 ZAR  HE ES        215 26.92                             122   -0.26 9  203 292 
 ZAR  HZ I         215 32.91        36.5 0.32            123            203 292 
 NOR  HZ IP     D  215  5.94                             118    0.29 8  235 234 
 NOR  HN ES        215 32.86                             118   -0.48 8  235 234 
 NOR  HZ I         215 43.10        28.6 0.42            119            235 234 
 SML  HZ EP        215  6.05                             117   -0.33 8  242 335 
 SML  HE ES        215 33.93                             117   -0.71 8  242 335 
 SML  HZ I         215 38.08        24.9 0.12            119            242 335 
 CHI  HZ EP        215  8.39                             116    0.64 8  250 195 
 CHI  HE ES        215 36.40                             116   -0.68 8  250 195 
 CHI  HZ I         215 42.65        24.5 0.24            118            250 195 
 ROSC BZ EP        215  8.65                             116    0.52 8  253 211 
 ROSC BN ES        215 37.18                             116   -0.57 8  253 211 
 ROSC BZ I         215 44.27        70.4 0.40            117            253 211 
 HEL  HZ EP        215 10.13                             114    0.04 8  271 255 
 HEL  HN ES        215 41.68                             114    0.44 8  271 255 
 HEL  HZ I         215 48.20        23.4 0.36            115            271 255 
 GUY2CHZ EP        215 13.65                             112    0.08 7  301 234 
 GUY2CHN ES        215 47.23                             112   -0.21 7  301 234 
 GUY2CHZ I         215 56.17        28.3 0.60                           301 234 
 SOCV BZ EP        215 12.08                             111   -0.96 7  301  57 
 PTGC HZ EP        215 12.91                             111   -1.11 7  310 159 
 PTGC HN ES   4    215 45.14                             111   -3.11 0  310 159 
 RREF HZ EP        215 16.30                             110    0.17 7  322 229 
 RREF HN ES        215 51.73                             110   -0.27 7  322 229 
 RREF HZ I         216  1.60        27.4 0.40            111            322 229 
 CBOC HZ EP        215 17.12                             109    0.29 7  333 252 
 CBOC HZ I         215 20.51         9.0 0.16            110            333 252 
 DBB  SZ EP        215 17.25                             109   -0.08 7  338 274 
 DBB  SZ ES   4    215 50.75                             109   -3.39 0  338 274 
 DBB  SZ I         215 57.24        55.3 0.46            110            338 274 
 TOL  SZ EP        215 18.82                             109    0.55 7  344 224 
 TOL  SE ES        215 55.64                             109   -0.17 7  344 224 
 ANIL HZ EP        215 20.14                             108    0.31 6  358 224 
 ANIL HE ES        215 59.23                             108    0.65 6  358 224 
 PRA  HZ EP        215 23.35                             106   -0.26 6  393 209 
 PRA  HN ES        216  4.55                             106   -0.77 6  393 209 
 PRA  HZ I         216 12.20        25.6 0.26            107            393 209 
 ORTC HZ EP   1    215 24.41                             106    0.42 4  396 216 
 ORTC HN ES        216  6.17                             106    0.18 6  396 216 
 ORTC HZ I         216 11.03        16.2 0.24            107            396 216 
                                                                                
