 2017  3 8 0240 20.1 L   5.852 -73.724121.0  RSN  8 0.3 1.3LRSN                1
 GAP= 86        0.58       2.2     2.8  4.4  0.1841E+01  0.2700E+00 -0.1638E+01E
 Epicentro: PUENTE NACIONAL - SANTANDER                                        3
 ACTION:UPD 17-05-25 18:37 OP:jn   STATUS:               ID:20170308024020 L   I
 OLDACT:UP  17-03-08 16:19 OP:and  STATUS:               ID:20170308023753     3
 OLDACT:UP  17-03-08 16:19 OP:and  STATUS:               ID:20170308023753     3
 OLDACT:UP  17-03-08 16:18 OP:and  STATUS:               ID:20170308023753     3
 OLDACT:UP  17-03-08 16:17 OP:and  STATUS:               ID:20170308023753     3
 OLDACT:REG 17-03-08 12:42 OP:and  STATUS:               ID:20170308023753     3
 2017-03-08-0238-00M.COL___283                                                 6
 STAT SP IPHASW D HRMM SECON CODA AMPLIT PERI AZIMU VELO AIN AR TRES W  DIS CAZ7
 SPBC HZ EP        240 37.34                             159    0.0910 44.5 240 
 SPBC HN ES        240 50.86                             159    0.2210 44.5 240 
 SPBC HZ I         240 51.46         7.6 0.11            156           44.5 240 
 RUS  HZ EP        240 39.69                             148    0.3910 71.1  86 
 RUS  HN ES        240 54.10                             148   -0.2010 71.1  86 
 RUS  HZ I         240 56.15         5.4 0.35            148           71.1  86 
 PTB  HZ EP   2    240 41.52                             134   -0.20 5  111 313 
 PTB  HN ES        240 58.59                             134   -0.0110  111 313 
 PTB  HZ I         240 59.33         2.2 0.13            132            111 313 
 CHI  HZ EP   2    240 44.69                             129    0.24 5  135 180 
 CHI  HN ES        241  3.01                             129   -0.45 9  135 180 
 CHI  HZ I         241  4.34         2.0 0.34            127            135 180 
 BRR  HZ EP        240 44.39                             127    0.14 9  139   1 
 BRR  HN ES   4    241  5.27                             127    2.17 0  139   1 
 ZAR  HZ EP   2    240 52.44                             114   -0.42 4  221 325 
 ZAR  HE ES        241 18.18                             114   -0.25 8  221 325 
 ZAR  HZ I         241 23.71         3.0 0.25            113            221 325 
 PTGC HZ EP   2    240 56.47                             111   -0.15 4  254 136 
 PRA  HZ EP   2    240 58.24                             109   -0.18 4  269 209 
 PRA  HN ES   2    241 28.86                             109    0.53 4  269 209 
 PRA  HZ I         241 33.52         1.9 0.34            108            269 209 
                                                                                
