 2016  2 8 0930  1.4 L   6.838 -73.437 97.3  RSN 14 0.7 1.8LRSN                1
 GAP= 78        1.20       3.2     4.0 11.1 -0.1542E+01  0.2073E+02 -0.1275E+01E
 Epicentro: SAN VICENTE DE CHUCURI - SANTANDER                                 3
 ACTION:UPD 16-03-04 21:24 OP:rebc STATUS:               ID:20160208093001 L   I
 OLDACT:REG 16-02-08 12:54 OP:dnl  STATUS:               ID:20160208092736     3
 2016-02-08-0927-36M.COL___322                                                 6
 STAT SP IPHASW D HRMM SECON CODA AMPLIT PERI AZIMU VELO AIN AR TRES W  DIS CAZ7
 BAR2 EZ IP     C  930 17.02                             156    1.1310 39.2 134 
 BAR2 EZ ES   2    930 28.18                             156    1.00 5 39.2 134 
 BAR2 EZ I         930 30.74        27.8 0.23            162           39.2 134 
 PAM  EZ EP   2    930 21.17                             131    0.57 5 98.6  56 
 PAM  EN ES        930 34.54                             131   -1.0410 98.6  56 
 PAM  EZ I         930 40.53        13.7 0.38            140           98.6  56 
 RUS  HZ EP        930 21.94                             127    0.0910  112 159 
 RUS  HE ES        930 37.61                             127   -0.1910  112 159 
 RUS  HZ I         930 40.91         6.7 0.30            133            112 159 
 PTB  HZ EP     D  930 21.52                             125   -0.2710  117 254 
 PTB  HN ES        930 37.04                             125   -0.6410  117 254 
 PTB  HZ I         930 43.02        14.2 0.13            129            117 254 
 SPBC HZ EP   2    930 25.64                             119    0.48 5  149 208 
 SPBC HE ES   2    930 43.93                             119    0.25 5  149 208 
 SPBC HZ I         930 51.85        13.7 0.09            122            149 208 
 OCA  HZ EP   2    930 25.79                             117   -0.17 5  155   5 
 OCA  HN ES        930 45.61                             117    0.51 9  155   5 
 ZAR  HZ EP   2    930 28.56                             115    0.87 4  173 295 
 ZAR  HN ES   2    930 49.05                             115    0.87 4  173 295 
 ZAR  HZ I         930 53.18        15.2 0.29            118            173 295 
 NOR  HZ EP   2    930 31.72                             110   -0.51 4  212 228 
 NOR  HN ES        930 56.65                             110    0.39 8  212 228 
 NOR  HZ I         931  1.09         7.7 0.14            113            212 228 
 SML  HZ EP   2    930 33.43                             108   -0.58 4  228 342 
 SML  HN ES   2    930 59.69                             108    0.26 4  228 342 
 SML  HZ I         931  5.35        13.9 0.07            112            228 342 
 HEL  HZ EP   2    930 36.89                             107    0.76 4  242 253 
 HEL  HE ES   2    931  4.02                             107    0.81 4  242 253 
 HEL  HZ I         931 10.02         4.9 0.20            110            242 253 
 CHI  HZ EP   2    930 36.87                             107    0.18 4  246 188 
 CHI  HN ES        931  3.58                             107   -0.62 8  246 188 
 CHI  HZ I         931 11.01         4.4 0.32            110            246 188 
 URE  HZ EP   4    930 32.94                             106   -3.96 0  252 294 
 URE  HN ES        931  3.91                             106   -0.68 8  252 294 
 URE  HZ I         931  6.20         8.9 0.16            109            252 294 
 CBOC HZ EP   2    930 44.34                             103    1.03 4  305 249 
 CBOC HE ES   2    931 15.57                             103   -0.42 4  305 249 
 CBOC HZ I         931 20.41         1.5 0.16            105            305 249 
 LL6C HN EP   2    930 44.04                             103   -1.02 3  321   3 
                                                                                
