 2013  3 8 0514  3.8 L   6.793 -73.168139.0  RSN  5 0.3 1.4LRSN                1
 GAP=134        0.72       3.7     3.6  5.3 -0.1220E+01  0.2496E+01  0.9783E+00E
 Epicentro: LOS SANTOS - SANTANDER                                             3
 ACTION:UPD 13-04-09 14:00 OP:ep   STATUS:               ID:20130308051403 L   I
 2013-03-08-0508-49M.COL___200                                                 6
 STAT SP IPHASW D HRMM SECON CODA AMPLIT PERI AZIMU VELO AIN AR TRES W  DIS CAZ7
 BAR2 SZ EP        514 22.57                             170   -0.0310 22.2 184 
 BAR2 SZ ES        514 37.01                             170   -0.2510 22.2 184 
 BAR2 SZ I         514 39.00         6.9 0.58            171           22.2 184 
 BRR  HZ EP        514 24.42                             152    0.2910 69.4 300 
 BRR  HN ES        514 40.46                             152    0.4910 69.4 300 
 BRR  HN I         514 46.09         7.5 0.16            151           69.4 300 
 PAM  SZ EP        514 25.47                             149    0.0210 79.6  41 
 PAM  SZ I         514 25.69         5.4 0.20            153           79.6  41 
 PAM  SN ES        514 42.04                             149   -0.2910 79.6  41 
 RUS  HZ EP        514 26.91                             142    0.0610100.0 175 
 RUS  HN ES        514 45.05                             142    0.2210100.0 175 
 RUS  HE I         514 47.17         3.8 0.50            146          100.0 175 
 PTB  HZ EP        514 29.79                             131   -0.20 9  145 259 
 PTB  HN ES        514 50.03                             131   -0.38 9  145 259 
 PTB  HE I         514 53.70         3.1 0.42            132            145 259 
                                                                                
