 2017  4 8 0323 51.4 L   6.802 -73.148143.3  RSN  7 0.4 1.0LRSN                1
 GAP=136        0.70       4.3     4.1  5.9 -0.5870E+01  0.2771E+01 -0.1615E+01E
 Epicentro: LOS SANTOS - SANTANDER                                             3
 ACTION:UPD 17-05-30 21:09 OP:jn   STATUS:               ID:20170408032351 L   I
 OLDACT:UP  17-04-08 14:25 OP:and  STATUS:               ID:20170408031746     3
 OLDACT:REG 17-04-08 12:45 OP:and  STATUS:               ID:20170408031746     3
 2017-04-08-0318-00M.COL___371                                                 6
 STAT SP IPHASW D HRMM SECON CODA AMPLIT PERI AZIMU VELO AIN AR TRES W  DIS CAZ7
 BAR2 EZ EP        324 10.67                             170   -0.0510 23.5 189 
 BAR2 EZ ES        324 25.48                             170   -0.3310 23.5 189 
 BRR  HZ EP        324 12.48                             152    0.2310 70.9 298 
 BRR  HN ES   2    324 29.53                             152    1.01 5 70.9 298 
 PAM  EZ IP     C  324 13.56                             150    0.2210 77.4  40 
 PAM  EN ES   2    324 29.98                             150   -0.48 5 77.4  40 
 RUS  HZ EP   2    324 14.96                             143    0.05 5  101 176 
 RUS  HN ES   2    324 33.28                             143    0.01 5  101 176 
 RUS  HZ I         324 38.56         1.0 0.38            143            101 176 
 PTB  HZ EP   2    324 17.39                             131   -0.74 5  148 259 
 PTB  HN ES        324 38.88                             131   -0.12 9  148 259 
 PTB  HZ I         324 43.74         1.4 0.42            130            148 259 
 SPBC HZ EP        324 19.73                             128    0.03 9  163 219 
 SPBC HN ES        324 41.99                             128    0.21 9  163 219 
 SPBC HZ I         324 48.69         1.5 0.10            127            163 219 
 ZAR  HN ES   2    324 47.98                             122   -0.81 4  204 292 
 ZAR  HZ I         324 55.61         1.4 0.13            122            204 292 
                                                                                
