 2015  9 8 0509 29.3 L   5.992 -73.755117.6  RSN  5 0.5 1.2LRSN                1
 GAP=125        1.16       6.0     6.1 10.2  0.4100E+01  0.1057E+02 -0.2631E+02E
 Epicentro: BOLIVAR - SANTANDER                                                3
 ACTION:UPD 15-10-28 16:24 OP:cam  STATUS:               ID:20150908050929 L   I
 OLDACT:UP  15-09-08 19:26 OP:mh   STATUS:               ID:20150908050748     3
 OLDACT:UP  15-09-08 14:14 OP:mh   STATUS:               ID:20150908050748     3
 OLDACT:UP  15-09-08 14:14 OP:mh   STATUS:               ID:20150908050748     3
 OLDACT:REG 15-09-08 13:42 OP:ar   STATUS:               ID:20150908050748     3
 2015-09-08-0507-48M.COL___359                                                 6
 STAT SP IPHASW D HRMM SECON CODA AMPLIT PERI AZIMU VELO AIN AR TRES W  DIS CAZ7
 SPBC HZ EP        5 9 46.70                             155    0.3010 51.4 223 
 SPBC HN ES        510  0.23                             155    0.4810 51.4 223 
 SPBC HZ I         510  1.27         4.6 0.18            153           51.4 223 
 RUS  HE ES        510  2.81                             146   -0.5510 75.2  98 
 PTB  HZ EP        5 9 48.96                             137   -0.5710 98.5 308 
 PTB  HE ES        510  4.86                             137   -0.4810 98.5 308 
 PTB  HZ I         510  6.92         2.2 0.12            133           98.5 308 
 BRR  HZ EP        5 9 51.90                             130    0.1810  123   2 
 BRR  HZ I         510  6.26         2.9 0.70            124            123   2 
 BRR  HN ES        510  9.89                             130    0.6710  123   2 
 ZAR  HZ EP        510  0.51                             115    0.26 8  206 324 
 ZAR  HN ES   1    510 24.01                             115   -0.41 6  206 324 
 ZAR  HZ I         510 25.68         2.5 0.36            111            206 324 
                                                                                
