 2011  4 8 0805 39.6 L   6.807 -73.088150.8  RSN  5 0.2 1.4LRSN                1
 GAP=260        0.33       6.9     7.6  6.1 -0.3807E+02 -0.4471E+01  0.4973E+01E
 Epicentro: LOS SANTOS - SANTANDER                                             3
 ACTION:UP  11-06-22 15:29 OP:REBC STATUS:               ID:20110408080539 L   I
 2011-04-08-0803-09S.COL___138                                                 6
 STAT SP IPHASW D HRMM SECON CODA AMPLIT PERI AZIMU VELO SNR AR TRES W  DIS CAZ7
 BTL  SZ EP        8 5 59.95                             171     0.110   23 302 
 BTL  SZ ES   3    8 6 15.30                                    -0.3 2   23 302 
 GIR2 SZ EP   2    8 5 59.73                             168    -0.2 5   32 339 
 GIR2 SZ ES   3    8 6 15.46                                    -0.3 2   32 339 
 PAM  SZ EP   3    8 6  2.51                                     0.4 2   73  36 
 PAM  SE ES   3    8 6 19.80                                     0.2 2   73  36 
 BRR  HZ EP        8 6  1.54                             152    -0.110   77 296 
 BRR  HZ I         8 6  1.88         6.9 0.26                            77 296 
 BRR  HN ES   3    8 6 19.31                             152     0.6 2   77 296 
 GRA  SZ EP        8 6  5.06                             140     0.010  123  15 
 GRA  SZ ES   2    8 6 24.87                             140    -0.1 5  123  15 
 GRA  SZ I         8 6 27.70         1.9 0.43                           123  15 
                                                                                
