 2014 10 8 0045  6.9 L   6.778 -73.170142.5  RSN  6 0.3 1.7LRSN                1
 GAP=134        0.75       3.8     3.6  5.0 -0.2966E+01  0.4525E+01  0.2815E+01E
 Epicentro: LOS SANTOS - SANTANDER                                             3
 ACTION:UPD 14-11-29 23:47 OP:nd   STATUS:               ID:20141008004506 L   I
 OLDACT:DUP 14-10-08 16:26 OP:stll STATUS:               ID:20141008003748d    3
 2014-10-08-0037-46M.COL___289                                                 6
 STAT SP IPHASW D HRMM SECON CODA AMPLIT PERI AZIMU VELO AIN AR TRES W  DIS CAZ7
 BAR2 SZ EP        045 26.02                             171   -0.0310 20.6 184 
 BAR2 SZ ES        045 40.87                             171   -0.1410 20.6 184 
 BAR2 SZ I         045 42.43        11.4 0.18            171           20.6 184 
 BRR  HZ IP     C  045 27.83                             152    0.2310 70.1 301 
 BRR  HZ I         045 28.06        14.0 0.28            152           70.1 301 
 BRR  HN ES        045 44.24                             152    0.4710 70.1 301 
 PAM  SZ EP        045 29.08                             149    0.1210 81.0  40 
 PAM  SN ES        045 45.83                             149   -0.3610 81.0  40 
 PAM  SZ I         045 46.55         9.2 0.20            151           81.0  40 
 RUS  HZ EP        045 29.95                             144   -0.1910 98.4 174 
 RUS  HZ I         045 31.27         4.8 0.18            144           98.4 174 
 RUS  HN ES        045 48.60                             144    0.3110 98.4 174 
 PTB  HZ EP        045 32.93                             132   -0.35 9  145 260 
 PTB  HN ES        045 53.63                             132   -0.26 9  145 260 
 PTB  HZ I         045 57.19         7.3 0.18            132            145 260 
 GUY2CHZ EP        045 50.39                             112    0.48 7  298 235 
 GUY2CHN ES        046 23.24                             112   -0.25 7  298 235 
 GUY2CHZ I         046 36.42         3.1 0.76                           298 235 
                                                                                
