 2012  6 8 0913 47.8 L   6.809 -73.134140.0  RSN  6 0.4 1.6LRSN                1
 GAP=184        0.66       3.8     4.9 12.0 -0.3325E+01  0.1586E+02 -0.1721E+02E
 Epicentro: LOS SANTOS - SANTANDER                                             3
 ACTION:UPD 12-08-06 17:48 OP:ep   STATUS:               ID:20120608091352 L   I
 2012-06-08-0910-00M.COL___200                                                 6
 STAT SP IPHASW D HRMM SECON CODA AMPLIT PERI AZIMU VELO AIN AR TRES W  DIS CAZ7
 BAR2 SZ EP   1    914  6.86                             170    0.08 7 24.6 193 
 BAR2 SZ I         914 25.11         6.9 0.22            170           24.6 193 
 RUS  HN ES   1    914 29.14                             142   -0.08 7  102 177 
 RUS  HZ I         914 30.64         3.9 0.37            141            102 177 
 PTB  HZ EP   1    914 13.77                             130   -0.68 7  149 259 
 PTB  HN ES   1    914 35.10                             130   -0.13 7  149 259 
 PTB  HZ I         914 40.69         3.0 0.29            131            149 259 
 OCA  HZ EP   1    914 15.88                             128    0.28 7  159 353 
 OCA  HN ES   1    914 37.35                             128    0.07 7  159 353 
 OCA  HZ I         914 42.83        12.8 0.15            126            159 353 
 ZAR  HE ES   1    914 45.02                             121   -0.04 6  205 292 
 ZAR  HZ I         914 50.36         6.3 0.40            121            205 292 
 NOR  SE ES   1    914 51.82                             117    0.68 6  236 234 
                                                                                
