 2017  2 8 0539 41.4 L   6.741 -73.122140.5  RSN 10 0.3 1.5LRSN                1
 GAP=192        0.76       3.8     3.9  4.7  0.8943E+01  0.4357E+01  0.6423E+01E
 Epicentro: LOS SANTOS - SANTANDER                                             3
 ACTION:UPD 17-05-24 15:33 OP:jn   STATUS:               ID:20170208053941 L   I
 OLDACT:UP  17-02-08 17:24 OP:edw  STATUS:               ID:20170208053745     3
 OLDACT:UP  17-02-08 17:22 OP:edw  STATUS:               ID:20170208053745     3
 OLDACT:REG 17-02-08 12:37 OP:edw  STATUS:               ID:20170208053745     3
 2017-02-08-0538-00M.COL___322                                                 6
 STAT SP IPHASW D HRMM SECON CODA AMPLIT PERI AZIMU VELO AIN AR TRES W  DIS CAZ7
 BAR2 EZ IP     C  540  0.30                             173   -0.0110 17.7 202 
 BAR2 EZ ES        540 15.20                             173    0.1510 17.7 202 
 BAR2 EZ I         540 16.00         7.1 0.20            167           17.7 202 
 BRR  HZ EP        540  2.29                             150   -0.0410 76.7 302 
 BRR  HN ES        540 18.69                             150    0.0510 76.7 302 
 BRR  HZ I         540 20.23         4.8 0.44            148           76.7 302 
 RUS  HZ EP        540  4.44                             145    0.2710 93.9 177 
 RUS  HN ES        540 21.87                             145   -0.0510 93.9 177 
 RUS  HZ I         540 23.88         5.9 0.28            142           93.9 177 
 PTB  HZ EP        540  7.98                             131   -0.11 9  149 262 
 PTB  HE ES        540 28.49                             131   -0.41 9  149 262 
 PTB  HZ I         540 30.26         3.3 0.16            129            149 262 
 ZAR  HZ EP   4    540 16.90                             121    2.86 0  209 294 
 ZAR  HN ES        540 39.44                             121   -0.05 8  209 294 
 ZAR  HZ I         540 44.53         3.2 0.28            120            209 294 
 CHI  HZ EP        540 19.09                             117    0.88 8  243 196 
 CHI  HN ES        540 47.18                             117    0.27 8  243 196 
 CHI  HZ I         540 52.15         1.4 0.38            116            243 196 
 PTGC HZ EP        540 23.57                             111   -0.67 7  302 159 
 PTGC HN ES        540 57.08                             111   -0.56 7  302 159 
 PTGC HZ I         540 59.16         3.5 0.34            111            302 159 
 CBOC HZ EP        540 28.36                             109    0.19 7  334 253 
 CBOC HN ES        541  4.47                             109   -0.18 7  334 253 
 CBOC HZ I         541  8.10         0.7 0.34            108            334 253 
 PRA  HZ EP   4    540 35.91                             106    1.67 0  388 210 
 PRA  HN ES   4    541 12.65                             106   -2.80 0  388 210 
 PRA  HZ I         541 22.14         1.3 0.40            106            388 210 
 SJC  HZ EP   9    540 29.48                             104   -8.14 0  416 327 
 SJC  HN ES        541 13.51                             106    0.19 5  416 327 
                                                                                
