 2010 10 8 0422 42.4 L   6.776 -73.096145.2  RSN 15 0.4 4.1LRSN                1
 GAP=182        0.94       3.9     6.0  6.0 -0.1268E+02  0.3085E+01  0.6264E+01E
 Epicentro: LOS SANTOS - SANTANDER                                             3
 ACTION:UP  11-02-18 11:08 OP:tino STATUS:               ID:20101008042242 L   I
 2010-10-08-0421-00S.COL___121                                                 6
 STAT SP IPHASW D HRMM SECON CODA AMPLIT PERI AZIMU VELO SNR AR TRES W  DIS CAZ7
 BAR2 SZ EP        423  2.17                             171     0.210   23 205 
 BAR2 SZ ES   1    423 16.75                             171    -0.4 7   23 205 
 BAR2 SZ I         423 20.62      2294.4 0.53                            23 205 
 BTL  SZ ES   2    423 16.46                             170    -0.8 5   25 310 
 BRR  HZ IP     C  423  3.99                             150     0.210   77 298 
 BRR  HN ES   1    423 21.14                             150     0.6 7   77 298 
 BRR  HZ I         423 23.67      1120.0 0.43                            77 298 
 GUE  SZ EP        423  7.18                             139     0.010  118   9 
 GRA  SZ IP        423  8.04                             137     0.410  127  15 
 GRA  SZ ES   1    423 27.59                             137     0.2 7  127  15 
 GRA  SZ I         423 29.10      1550.0 0.24                           127  15 
 OCA  SZ IP        423 10.53                             129    -0.4 9  164 351 
 OCA  SZ ES   1    423 33.04                             129    -0.2 7  164 351 
 OCA  SZ I         423 37.65      1083.7 0.49                           164 351 
 NOR  SZ EP        423 18.01                             118    -0.4 8  238 236 
 NOR  SE ES   1    423 46.50                             118     0.0 6  238 236 
 CHI  HZ EP        423 20.05                             117     0.1 8  248 197 
 CHI  HN ES   1    423 48.47                             117    -0.8 6  248 197 
 CHI  HZ I         423 52.82       824.1 0.43                           248 197 
 CVER SZ EP   1    423 23.53                             115     0.8 6  272 204 
 CVER SZ I         423 25.60      1038.1 0.24                           272 204 
 HEL  HZ EP   1    423 23.26                             114     0.2 6  277 257 
 HEL  HN ES   1    423 54.70                             114    -0.1 6  277 257 
 HEL  HZ I         424  0.35       619.2 0.31                           277 257 
 RREF HZ EP   1    423 28.45                             111    -0.3 5  324 230 
 RREF HN ES   1    424  5.75                             111     0.8 5  324 230 
 RREF HZ I         424 14.23       914.3 0.45                           324 230 
 DBB  SZ IP        423 29.82                             109    -0.7 7  345 275 
 TOL  SZ EP   1    423 30.91                             109     0.1 5  345 226 
 DBB  SZ I         424  8.20       126.0 0.30                           345 275 
 ANIL HZ EP   1    423 32.42                             108     0.0 5  359 225 
 ANIL HE ES   1    424 12.01                             108     0.6 5  359 225 
 ANIL HZ I         424 17.78      1109.6 0.26                           359 225 
 PRA  HZ EP        423 35.48                             106    -0.5 6  392 210 
 PRA  HE ES   1    424 18.30                             106     0.6 4  392 210 
 PRA  HZ I         424 22.27      1182.6 0.29                           392 210 
                                                                                
