 2010 11 8 0735 53.4 L   6.776 -73.080144.0  RSN 13 0.4 2.4LRSN                1
 GAP=141        0.72       3.2     5.2  4.9 -0.5563E+01  0.1032E+01  0.8453E+00E
 Epicentro: LOS SANTOS - SANTANDER                                             3
 ACTION:UP  10-12-17 16:51 OP:REBC STATUS:               ID:20101108073553 L   I
 2010-11-08-0733-23S.COL___128                                                 6
 STAT SP IPHASW D HRMM SECON CODA AMPLIT PERI AZIMU VELO SNR AR TRES W  DIS CAZ7
 BAR2 SZ IP        736 12.85                             170     0.010   23 209 
 BAR2 SZ ES        736 27.70                             170    -0.310   23 209 
 BAR2 SZ I         736 30.83        57.7 0.31                            23 209 
 GIR2 SZ EP   2    736 13.96                             165     0.9 5   36 339 
 BRR  HZ EP        736 14.79                             149    -0.110   79 298 
 BRR  HZ I         736 16.38        47.8 0.13                            79 298 
 BRR  HE ES   1    736 31.88                             149     0.3 7   79 298 
 RUS  HZ EP        736 16.69                             144    -0.110   98 180 
 RUS  HN ES   2    736 34.87                             144    -0.2 5   98 180 
 RUS  HZ I         736 38.21        21.1 0.41                            98 180 
 GUE  SZ EP        736 18.06                             138     0.010  118   8 
 GRA  SZ EP        736 18.66                             136     0.110  126  14 
 GRA  SZ ES   2    736 38.41                             136     0.2 5  126  14 
 GRA  SZ I         736 40.63        34.7 0.24                           126  14 
 OCA  SZ EP   1    736 21.56                             128    -0.4 7  164 351 
 OCA  SZ ES   2    736 44.02                             128    -0.2 5  164 351 
 OCA  SZ I         736 48.21        41.1 0.33                           164 351 
 YOP  SZ EP   2    736 23.12                             126     0.3 4  173 155 
 NOR  SZ EP   2    736 28.96                             117    -0.6 4  239 236 
 NOR  SE ES   2    736 57.28                             117    -0.5 4  239 236 
 ROSC BZ EP        736 32.46                             116     0.8 8  254 213 
 ROSC BZ I         737 10.69        21.2 0.53                           254 213 
 HEL  HZ EP   2    736 34.18                             114    -0.1 4  279 257 
 HEL  HN ES   2    737  6.22                             114     0.1 4  279 257 
 HEL  HZ I         737 12.14        15.1 0.40                           279 257 
 RREF HZ EP   2    736 39.45                             110    -0.5 3  326 231 
 RREF HN ES   2    737 16.25                             110     0.0 3  326 231 
 RREF HZ I         737 25.26        14.5 0.42                           326 231 
 PRA  HZ EP   2    736 46.98                             106    -0.1 3  393 211 
 PRA  HE ES   2    737 28.30                             106    -0.6 3  393 211 
                                                                                
