 2016  5 8 0109  1.6 L   6.796 -73.124147.2  RSN 11 0.4 1.5LRSN                1
 GAP=140        0.82       2.4     3.6  4.9 -0.2182E+00  0.4915E+01  0.1358E+01E
 Epicentro: LOS SANTOS - SANTANDER                                             3
 ACTION:UPD 16-08-18 17:43 OP:cam  STATUS:               ID:20160508010901 L   I
 OLDACT:DUP 16-05-08 15:01 OP:ak   STATUS:               ID:20160508005744d    3
 OLDACT:REG 16-05-08 13:23 OP:ak   STATUS:               ID:20160508005743     3
 2016-05-08-0057-43M.COL___310                                                 6
 STAT SP IPHASW D HRMM SECON CODA AMPLIT PERI AZIMU VELO AIN AR TRES W  DIS CAZ7
 BAR2 EZ EP   2    1 9 21.10                             171   -0.34 5 23.5 196 
 BAR2 EZ ES        1 9 36.97                             171    0.0810 23.5 196 
 BRR  HZ EP        1 9 23.04                             152   -0.0310 73.5 298 
 BRR  HN ES        1 9 40.35                             152    0.5610 73.5 298 
 PAM  EZ EP        1 9 24.12                             152    0.1910 76.2  38 
 PAM  EN ES        1 9 41.50                             152    0.1810 76.2  38 
 PAM  EZ I         1 9 44.18         3.6 0.56            154           76.2  38 
 RUS  HZ EP        1 9 25.08                             144   -0.4110  100 177 
 RUS  HN ES        1 9 44.02                             144   -0.0710  100 177 
 RUS  HZ I         1 9 45.38         3.4 0.32            145            100 177 
 PTB  HZ EP   2    1 9 28.39                             132   -0.54 5  150 259 
 PTB  HN ES        1 9 50.07                             132   -0.15 9  150 259 
 PTB  HZ I         1 9 51.92         2.5 0.16            132            150 259 
 SPBC HZ EP   2    1 9 30.26                             129   -0.10 5  164 220 
 SPBC HE ES        1 9 52.91                             129    0.15 9  164 220 
 SPBC HZ I         1 9 57.35         4.2 0.23            129            164 220 
 ZAR  HZ EP        1 9 34.87                             123    0.45 8  206 292 
 ZAR  HN IPn       1 9 59.80                                            206 292 
 ZAR  HN ES        1 9 59.80                             123   -0.20 8  206 292 
 ZAR  HZ I         110  5.29         2.6 0.32            123            206 292 
 SML  HZ EP   2    1 9 39.40                             118    0.91 4  245 335 
 SML  HN ES        110  6.29                             118   -0.95 8  245 335 
 CHI  HZ EP   2    1 9 39.64                             118    0.20 4  249 196 
 CHI  HN ES        110  8.40                             118   -0.53 8  249 196 
 PRA  HZ EP   1    1 9 55.31                             107    0.01 4  393 210 
 PRA  HN ES        110 37.89                             107    0.73 6  393 210 
 PRA  HZ I         110 43.68         1.9 0.46            107            393 210 
 ORTC HZ EP   2    1 9 56.43                             107    0.70 3  397 216 
 ORTC HN ES        110 37.92                             107   -0.01 6  397 216 
                                                                                
