 2013  2 8 0845  9.7 L   6.827 -73.176138.5  RSN 10 0.5 2.1LRSN                1
 GAP=131        1.13       3.9     4.9  8.1 -0.2781E+01  0.1595E+02 -0.1964E+01E
 Epicentro: LOS SANTOS - SANTANDER                                             3
 ACTION:UPD 13-03-12 09:31 OP:ep   STATUS:               ID:20130208084509 L   I
 2013-02-08-0840-00M.COL___241                                                 6
 STAT SP IPHASW D HRMM SECON CODA AMPLIT PERI AZIMU VELO AIN AR TRES W  DIS CAZ7
 BAR2 SZ EP   1    845 28.56                             169    0.09 7 25.9 181 
 BAR2 SZ ES   1    845 43.67                             169    0.53 7 25.9 181 
 BAR2 SZ I         845 45.02        15.1 0.40            170           25.9 181 
 BRR  HZ EP     C  845 30.30                             153    0.5310 66.8 298 
 BRR  HN I         845 50.55        32.8 0.16            149           66.8 298 
 PAM  SZ EP        845 31.35                             149    0.2410 77.4  43 
 PAM  SN ES        845 48.19                             149    0.3610 77.4  43 
 PAM  SN I         845 49.01        41.8 0.44            150           77.4  43 
 RUS  HZ EP   1    845 32.95                             141    0.00 7  104 174 
 RUS  HN ES        845 50.32                             141   -0.7910  104 174 
 RUS  HN I         845 53.31         6.9 0.40            142            104 174 
 PTB  HZ EP        845 35.33                             131   -0.46 9  145 257 
 PTB  HN ES        845 56.13                             131   -0.04 9  145 257 
 PTB  HN I         845 57.86        15.6 0.22            129            145 257 
 OCA  HZ EP   1    845 37.12                             128    0.02 7  157 354 
 OCA  HN ES        845 57.81                             128   -0.69 9  157 354 
 OCA  HN I         846  3.15        45.4 0.24            127            157 354 
 ZAR  HZ EP   1    845 41.98                             121    0.78 6  200 292 
 ZAR  HN ES   1    846  6.58                             121    0.79 6  200 292 
 ZAR  HN I         846 11.04        37.1 0.32            119            200 292 
 SML  HZ EP   1    845 44.33                             116   -1.11 6  240 336 
 SML  HN ES   2    846 12.49                             116   -0.86 4  240 336 
 SML  HN I         846 19.57        27.6 0.10            115            240 336 
 CHI  HZ EP        845 47.38                             115    0.19 8  251 194 
 CHI  HN ES   2    846 17.01                             115    0.56 4  251 194 
 CHI  HN I         846 21.55         6.4 0.28            115            251 194 
 HEL  HZ EP   1    845 49.97                             113    0.74 6  270 255 
 HEL  HN ES        846 19.67                             113   -0.42 8  270 255 
 HEL  HN I         846 27.70         3.3 0.40            112            270 255 
                                                                                
