 2017  7 8 0744  1.5 L   6.761 -73.167143.8  RSN  6 0.4 1.5LRSN                1
 GAP=243        0.96       5.6     6.2  7.1  0.3835E+01  0.9839E+01  0.1820E+01E
 Epicentro: LOS SANTOS - SANTANDER                                             3
 ACTION:UPD 17-08-30 15:30 OP:rebc STATUS:               ID:20170708074401 L   I
 OLDACT:UP  17-07-08 19:04 OP:edw  STATUS:               ID:20170708073747d    3
 OLDACT:DUP 17-07-08 18:59 OP:edw  STATUS:               ID:20170708073747d    3
 OLDACT:UP  17-07-08 18:55 OP:edw  STATUS:               ID:20170708073745     3
 OLDACT:REG 17-07-08 13:23 OP:edw  STATUS:               ID:20170708073745     3
 2017-07-08-0738-00M.COL___374                                                 6
 STAT SP IPHASW D HRMM SECON CODA AMPLIT PERI AZIMU VELO AIN AR TRES W  DIS CAZ7
 BAR2 EZ EP        744 20.63                             172   -0.1410 18.7 185 
 BAR2 EZ ES        744 35.47                             172   -0.3610 18.7 185 
 BAR2 EZ I         744 36.71         8.6 0.16            170           18.7 185 
 BRR  HZ EP        744 22.50                             152    0.1010 71.3 303 
 BRR  HN ES        744 39.34                             152    0.6010 71.3 303 
 BRR  HZ I         744 42.84         3.7 0.12            148           71.3 303 
 PTB  HZ EP        744 27.60                             132   -0.38 9  145 260 
 PTB  HN ES        744 47.95                             132   -0.72 9  145 260 
 PTB  HZ I         744 53.81         2.7 0.32            131            145 260 
 SPBC HZ EP        744 29.54                             129    0.19 9  158 219 
 SPBC HN ES        744 51.64                             129    0.54 9  158 219 
 SPBC HZ I         744 54.13         5.5 0.22            130            158 219 
 ZAR  HZ EP        744 33.87                             122    0.15 9  204 294 
 ZAR  HN ES        744 58.91                             122    0.02 9  204 294 
 ZAR  HZ I         745  5.04         3.8 0.22            122            204 294 
 NOR  HN ES   2    745  4.15                             119    0.15 4  230 235 
 HEL  HE ES   4    745  9.03                             115   -3.16 0  269 257 
                                                                                
