 2016  3 8 0637 52.9 L   6.808 -73.184142.2  RSN  6 0.3 1.3LRSN                1
 GAP=144        0.72       3.4     3.9  5.0 -0.5163E+01  0.4269E+01  0.2222E+01E
 Epicentro: ZAPATOCA - SANTANDER                                               3
 ACTION:UPD 16-05-13 21:22 OP:cam  STATUS:               ID:20160308063752 L   I
 OLDACT:DUP 16-03-08 19:09 OP:cara STATUS:               ID:20160308062749d    3
 2016-03-08-0627-48M.COL___270                                                 6
 STAT SP IPHASW D HRMM SECON CODA AMPLIT PERI AZIMU VELO AIN AR TRES W  DIS CAZ7
 BAR2 EZ EP        638 12.00                             170   -0.0910 23.8 180 
 BAR2 EZ ES        638 26.64                             170   -0.4310 23.8 180 
 BAR2 EZ I         638 29.07         2.7 0.28            169           23.8 180 
 PAM  EZ IP     D  638 14.91                             149    0.0610 79.5  42 
 PAM  EE ES        638 32.26                             149    0.2810 79.5  42 
 PAM  EZ I         638 34.09         5.9 0.42            154           79.5  42 
 RUS  HZ EP        638 16.62                             143    0.2510  102 174 
 RUS  HN ES        638 34.61                             143   -0.0810  102 174 
 RUS  HZ I         638 36.59         2.0 0.16            144            102 174 
 PTB  HZ EP     D  638 18.66                             132   -0.54 9  144 258 
 PTB  HN ES        638 40.12                             132    0.40 9  144 258 
 PTB  HZ I         638 44.66         2.5 0.24            133            144 258 
 SPBC HZ EP        638 20.93                             128    0.01 9  161 218 
 SPBC HN ES        638 42.82                             128    0.03 9  161 218 
 SPBC HZ I         638 45.45         4.8 0.34            130            161 218 
 CHI  HZ EP     D  638 30.21                             116   -0.15 8  248 194 
 CHI  HN ES        638 59.91                             116    0.32 8  248 194 
 CHI  HZ I         639  5.29         1.4 0.68            118            248 194 
                                                                                
