 2013  8 8 0757 38.4 L   6.738 -73.206152.0  RSN  5 0.4 1.1LRSN                1
 GAP=226        0.75       5.5     6.8  8.2  0.1697E+02  0.2175E+01  0.6909E+01E
 Epicentro: VILLANUEVA - SANTANDER                                             3
 ACTION:UPD 14-01-14 09:00 OP:ep   STATUS:               ID:20130808075738 L   I
 OLDACT:DUP 13-08-08 11:06 OP:jn   STATUS:               ID:20130808074960d    3
 OLDACT:REG 13-08-08 07:29 OP:jn   STATUS:               ID:20130808074959     3
 2013-08-08-0749-59M.COL___270                                                 6
 STAT SP IPHASW D HRMM SECON CODA AMPLIT PERI AZIMU VELO AIN AR TRES W  DIS CAZ7
 BRR  HZ EP   1    757 59.63                             154   -0.45 7 69.2 306 
 BRR  HN ES        758 17.42                             154    0.4010 69.2 306 
 BRR  HZ I         758 19.79         2.0 0.14            154           69.2 306 
 RUS  HZ EP   1    758  2.18                             147   -0.13 7 94.5 172 
 RUS  HN ES   1    758 20.74                             147   -0.25 7 94.5 172 
 RUS  HZ I         758 22.48         1.0 0.54            149           94.5 172 
 PTB  HZ EP   1    758  5.06                             135   -0.11 7  140 261 
 PTB  HN ES   1    758 25.73                             135   -0.34 7  140 261 
 PTB  HZ I         758 28.04         1.5 0.14            136            140 261 
 SPBC HZ EP   1    758  7.20                             132    0.73 7  154 219 
 SPBC HN ES   1    758 28.53                             132    0.13 7  154 219 
 SPBC HZ I         758 30.33         1.5 0.24            134            154 219 
 ZAR  HN ES   1    758 35.97                             124   -0.27 6  201 295 
 ZAR  HZ I         758 38.85         1.6 0.46            126            201 295 
                                                                                
