 2015  1 8 0635 26.3 L   6.756 -73.120141.6  RSN  9 0.3 1.2LRSN                1
 GAP= 74        0.76       3.3     3.2  5.2  0.1083E+01  0.1242E+01  0.2023E+01E
 Epicentro: LOS SANTOS - SANTANDER                                             3
 ACTION:UPD 15-03-02 15:37 OP:nd   STATUS:               ID:20150108063526 L   I
 OLDACT:DUP 15-01-08 15:12 OP:spq  STATUS:               ID:20150108062815d    3
 OLDACT:REG 15-01-08 13:19 OP:cam  STATUS:               ID:20150108062814     3
 2015-01-08-0628-14M.COL___268                                                 6
 STAT SP IPHASW D HRMM SECON CODA AMPLIT PERI AZIMU VELO AIN AR TRES W  DIS CAZ7
 BAR2 EZ EP        635 45.25                             172   -0.1310 19.4 201 
 BAR2 EZ ES   1    636  0.32                             172    0.08 7 19.4 201 
 BAR2 EZ I         636  1.83         2.7 0.32            171           19.4 201 
 BRR  HZ EP        635 47.18                             150   -0.1310 76.1 301 
 BRR  HN ES        636  4.16                             150    0.4810 76.1 301 
 BRR  HZ I         636  5.18         3.4 0.32            148           76.1 301 
 PAM  SZ EP        635 48.21                             149   -0.0210 79.5  36 
 PAM  SE ES        636  5.00                             149   -0.3110 79.5  36 
 PAM  SZ I         636  7.60         2.8 0.74            150           79.5  36 
 RUS  HN ES   1    636  7.51                             144    0.28 7 95.6 178 
 RUS  HZ I         636  9.33         2.2 0.50            145           95.6 178 
 PTB  HZ EP   1    635 52.88                             131   -0.25 7  150 261 
 PTB  HN ES   1    636 12.99                             131   -1.05 7  150 261 
 PTB  HZ I         636 16.15         1.9 0.36            130            150 261 
 TAM  HZ EP        635 53.43                             130    0.13 9  151 103 
 ZAR  HZ EP   1    635 59.32                             121    0.35 6  209 293 
 ZAR  HN ES        636 24.71                             121    0.28 8  209 293 
 ZAR  HZ I         636 30.32         1.7 0.50            120            209 293 
 CHI  HZ EP   1    636  3.64                             117    0.28 6  245 196 
 CHI  HE ES   1    636 32.23                             117   -0.02 6  245 196 
 CHI  HZ I         636 36.21         0.8 0.60            117            245 196 
 SML  HZ EP   4    636  1.88                             116   -1.45 0  249 335 
 SML  HN ES   1    636 32.19                             116   -0.01 6  249 335 
 SML  HZ I         636 38.34         1.6 0.28            116            249 335 
                                                                                
