 2016  5 8 0101 33.9 L   7.134 -73.261138.3  RSN  8 0.4 1.4LRSN                1
 GAP=102        0.97       3.4     3.8  6.4  0.1275E+01  0.6400E+01 -0.1325E+01E
 Epicentro: LEBRIJA - SANTANDER                                                3
 ACTION:UPD 16-08-18 17:43 OP:cam  STATUS:               ID:20160508010133 L   I
 OLDACT:REG 16-05-08 13:23 OP:ak   STATUS:               ID:20160508005743     3
 2016-05-08-0057-43M.COL___310                                                 6
 STAT SP IPHASW D HRMM SECON CODA AMPLIT PERI AZIMU VELO AIN AR TRES W  DIS CAZ7
 BRR  HZ EP        1 1 53.51                             159    0.3610 49.9 267 
 BRR  HN ES        1 2  8.43                             159    0.2710 49.9 267 
 BRR  HZ I         1 2  9.16         6.2 0.07            157           49.9 267 
 BAR2 EZ EP        1 1 54.30                             155    0.3010 60.5 172 
 BAR2 EZ ES        1 2  9.53                             155   -0.1510 60.5 172 
 BAR2 EZ I         1 2 10.21         8.3 0.15            156           60.5 172 
 PAM  EZ EP        1 1 55.10                             153    0.4410 66.1  70 
 PAM  EN ES        1 2 10.80                             153   -0.0510 66.1  70 
 PAM  EZ I         1 2 12.53         3.3 0.44            157           66.1  70 
 RUS  HZ EP        1 1 59.89                             133   -0.19 9  139 172 
 RUS  HN ES        1 2 20.04                             133   -0.45 9  139 172 
 RUS  HZ I         1 2 22.16         1.1 0.18            134            139 172 
 PTB  HZ EP        1 2  0.59                             130    0.34 9  148 244 
 PTB  HN ES        1 2 20.31                             130   -0.49 9  148 244 
 PTB  HZ I         1 2 23.52         4.2 0.28            130            148 244 
 ZAR  HZ EP        1 2  3.14                             124   -0.33 9  181 283 
 ZAR  HE ES        1 2 27.16                             124    0.63 9  181 283 
 ZAR  HZ I         1 2 34.18         5.0 0.28            124            181 283 
 SPBC HZ EP   2    1 2  4.76                             123    0.57 4  187 209 
 SPBC HN ES        1 2 27.60                             123   -0.21 9  187 209 
 SPBC HZ I         1 2 31.07         3.0 0.17            124            187 209 
 SML  HZ EP   2    1 2  5.22                             120   -0.72 4  205 334 
 SML  HN ES        1 2 30.20                             120   -0.73 9  205 334 
                                                                                
