 2010  8 8 0926 24.4 L   6.796 -73.290141.3  RSN  7 0.6 1.4LRSN                1
 GAP=139        1.36       8.8    23.1 12.3 -0.5702E+02  0.5130E+02 -0.4182E+02E
 Epicentro: ZAPATOCA - SANTANDER                                               3
 ACTION:UP  10-09-07 10:53 OP:vdl  STATUS:               ID:20100808092623 L   I
 2010-08-08-0924-06S.COL___125                                                 6
 STAT SP IPHASW D HRMM SECON CODA AMPLIT PERI AZIMU VELO SNR AR TRES W  DIS CAZ7
 BTL  SZ EP        926 43.58                             173     0.310   14  10 
 BTL  SZ ES   1    926 58.82                             173     0.8 7   14  10 
 BAR2 SZ EP   2    926 43.32                             171    -0.2 5   25 152 
 BAR2 SZ ES   1    926 57.45                             171    -1.0 7   25 152 
 BAR2 SZ I         927  0.64         6.4 0.03                            25 152 
 BRR  HZ EP   1    926 44.63                             156     0.3 7   58 306 
 BRR  HZ I         927  6.14         9.0 0.02                            58 306 
 RUS  HZ EP   1    926 48.27                                     0.5 7  102 167 
 RUS  HE ES   2    927  5.50                             144    -0.6 5  102 167 
 GUE  SZ EP   1    926 48.30                             137    -0.8 7  121  19 
 GUE  SZ I         927  9.78         1.5 0.21                           121  19 
 GRA  SZ EP        926 50.20                             135     0.510  132  24 
 GRA  SZ ES   1    927  9.85                             135     0.3 7  132  24 
 GRA  SZ I         927 10.97         4.3 0.40                           132  24 
 OCA  SZ EP        926 51.61                             129    -0.7 9  160 359 
 OCA  SZ ES   3    927 12.95                             129    -1.1 2  160 359 
 OCA  SZ I         927 19.94         3.4 0.39                           160 359 
                                                                                
