 2013  4 8 0204 39.6 L   6.805 -73.144142.0  RSN  8 0.5 1.8LRSN                1
 GAP=138        1.22       4.9     6.1  7.7 -0.5538E+01  0.1711E+01  0.4923E+01E
 Epicentro: LOS SANTOS - SANTANDER                                             3
 ACTION:UPD 13-05-22 14:36 OP:EP   STATUS:               ID:20130408020439 L   I
 2013-04-08-0158-44M.COL___221                                                 6
 STAT SP IPHASW D HRMM SECON CODA AMPLIT PERI AZIMU VELO AIN AR TRES W  DIS CAZ7
 BAR2 SZ EP        2 4 58.92                             170    0.1210 23.9 190 
 BAR2 SZ ES        2 5 13.42                             170   -0.3510 23.9 190 
 BAR2 SZ I         2 5 15.07        12.4 0.48            168           23.9 190 
 GIR2 SZ EP   1    2 4 59.05                             167    0.22 7 30.8 350 
 GIR2 SZ ES   1    2 5 13.59                             167   -0.22 7 30.8 350 
 GIR2 SZ I         2 5 15.36         4.0 0.18            168           30.8 350 
 BRR  HZ EP        2 5  0.87                             152    0.5210 71.1 298 
 BRR  HN ES        2 5 17.57                             152    1.0410 71.1 298 
 BRR  HN I         2 5 21.35        45.8 0.16            151           71.1 298 
 RUS  HZ EP        2 5  3.30                             143    0.2710  101 176 
 RUS  HN ES        2 5 21.26                             143   -0.0410  101 176 
 RUS  HE I         2 5 22.53        11.0 0.22            143            101 176 
 PTB  HZ EP        2 5  6.03                             131   -0.27 9  148 259 
 PTB  HN ES        2 5 26.18                             131   -0.94 9  148 259 
 PTB  HE I         2 5 30.51        11.4 0.58            131            148 259 
 CAPV BZ ES        2 5 27.32                             131   -0.43 9  149  38 
 OCA  HZ EP   1    2 5  7.00                             129   -0.58 7  160 353 
 CHI  HZ EP        2 5 17.48                             116    0.32 8  249 195 
 CHI  HN ES   1    2 5 46.34                             116   -0.12 6  249 195 
 CHI  HN I         2 5 53.29         5.0 0.32            117            249 195 
                                                                                
