 2011 12 8 0108 50.5 L   6.733 -73.110139.1  RSN  5 0.4 1.4LRSN                1
 GAP=144        0.70       6.0     8.2  7.9 -0.3072E+02  0.3012E+02 -0.9740E+01E
 Epicentro: JORDAN - SANTANDER                                                 3
 ACTION:UPD 12-07-13 16:14 OP:ep   STATUS:               ID:20111208010850 L   I
 2011-12-08-0107-44S.COL___162                                                 6
 STAT SP IPHASW D HRMM SECON CODA AMPLIT PERI AZIMU VELO AIN AR TRES W  DIS CAZ7
 BAR2 SZ EP   1    1 9  8.94                             172   -0.25 7 17.5 207 
 BAR2 SZ ES   1    1 9 23.30                             172   -0.50 7 17.5 207 
 BAR2 SZ I         1 9 25.58        10.6 0.37                          17.5 207 
 GIR2 SZ EP   1    1 9 10.04                             163    0.43 7 39.4 346 
 PAM  SZ EP   1    1 9 12.07                             148   -0.14 7 81.0  34 
 PAM  SN ES   1    1 9 29.38                             148    0.21 7 81.0  34 
 PAM  SZ I         1 9 31.48         5.1 0.21                          81.0  34 
 RUS  HZ EP   1    1 9 13.20                             144    0.18 7 92.9 178 
 RUS  HZ I         1 9 14.40         3.1 0.15                          92.9 178 
 RUS  HN ES   1    1 9 30.78                             144    0.17 7 92.9 178 
 NOR  SZ EP   1    1 9 25.09                             117   -0.63 6  234 237 
 NOR  SN ES   1    1 9 53.69                             117    0.48 6  234 237 
                                                                                
