 2012 10 8 0330  7.7 L   7.344 -73.176128.5  RSN  6 0.3 2.2LRSN                1
 GAP=175        0.65       4.9     4.1  5.6  0.5129E+01  0.5533E+01 -0.1967E+00E
 Epicentro: RIONEGRO - SANTANDER                                               3
 ACTION:UPD 12-11-22 17:02 OP:ep   STATUS:               ID:20121008033007 L   I
 2012-10-08-0330-00M.COL___222                                                 6
 STAT SP IPHASW D HRMM SECON CODA AMPLIT PERI AZIMU VELO AIN AR TRES W  DIS CAZ7
 GIR2 SZ EP   1    330 25.16                             166   -0.13 7 29.3 184 
 GIR2 SZ ES   1    330 38.89                             166   -0.10 7 29.3 184 
 PAM  SZ EP   1    330 26.72                             157    0.01 7 52.7  90 
 PAM  SN ES   1    330 41.48                             157   -0.04 7 52.7  90 
 BRR  HZ EP   1    330 26.31                             152   -0.33 7 64.7 246 
 BRR  HZ I         330 26.82        41.2 0.10                          64.7 246 
 BRR  HN ES   1    330 41.48                             152    0.09 7 64.7 246 
 BAR2 SZ EP   1    330 28.20                             145    0.04 7 83.1 180 
 BAR2 SZ ES   1    330 44.66                             145    0.56 7 83.1 180 
 BAR2 SZ I         330 45.80        36.0 0.12                          83.1 180 
 RUS  HZ EP   1    330 35.19                             125   -0.06 7  161 176 
 RUS  HN ES   1    330 56.36                             125   -0.36 7  161 176 
 ZAR  HZ EP   1    330 37.99                             121    0.76 7  186 275 
 ZAR  HN ES   1    330 59.83                             121   -0.41 7  186 275 
 ZAR  HZ I         331  4.34        10.2 0.14                           186 275 
                                                                                
