 2013  5 8 0701 33.9 L   7.500 -73.153144.2  RSN  5 0.3 1.3LRSN                1
 GAP=195        0.66       4.7     7.3  8.5 -0.6008E+01  0.5579E+01  0.2632E+01E
 Epicentro: EL PLAYON - SANTANDER                                              3
 ACTION:UPD 13-06-20 09:48 OP:ep   STATUS:               ID:20130508070133 L   I
 2013-05-08-0700-00M.COL___256                                                 6
 STAT SP IPHASW D HRMM SECON CODA AMPLIT PERI AZIMU VELO AIN AR TRES W  DIS CAZ7
 GIR2 SZ EP        7 1 54.04                             161    0.1210 46.8 186 
 GIR2 SZ ES   1    7 2  9.80                             161    0.28 7 46.8 186 
 BRR  HZ EP   1    7 1 55.31                             151    0.17 7 75.5 235 
 BRR  HN ES   1    7 2 12.07                             151    0.37 7 75.5 235 
 BRR  HZ I         7 2 12.55         5.3 0.12            147           75.5 235 
 OCA  HN ES   1    7 2 12.69                             148   -0.31 7 83.7 347 
 BAR2 SZ ES   1    7 2 14.76                             143   -0.50 7  100 182 
 PTB  HN ES   1    7 2 26.68                             126   -0.30 7  179 234 
 PTB  HZ I         7 2 29.73         1.6 0.24            124            179 234 
                                                                                
