 2015  3 8 0448 54.0 L   6.783 -73.129152.0  RSN  9 0.4 1.4LRSN                1
 GAP=184        0.96       3.6     5.5  7.1  0.4453E+01  0.7709E+00  0.1507E+01E
 Epicentro: LOS SANTOS - SANTANDER                                             3
 ACTION:UPD 15-04-30 16:24 OP:nd   STATUS:               ID:20150308044854 L   I
 OLDACT:REG 15-03-08 12:27 OP:spq  STATUS:               ID:20150308044746     3
 2015-03-08-0447-46M.COL___284                                                 6
 STAT SP IPHASW D HRMM SECON CODA AMPLIT PERI AZIMU VELO AIN AR TRES W  DIS CAZ7
 BAR2 EZ EP        449 14.20                             171   -0.1110 21.9 196 
 BAR2 EZ ES   1    449 30.01                             171   -0.17 7 21.9 196 
 BAR2 EZ I         449 30.83         3.9 0.40            169           21.9 196 
 BRR  HZ EP        449 16.19                             153    0.2810 73.7 299 
 BRR  HN ES        449 33.88                             153    0.8310 73.7 299 
 BRR  HZ I         449 40.78         3.9 0.38            150           73.7 299 
 RUS  HZ EP        449 18.26                             146    0.0810 98.6 177 
 RUS  HE ES   1    449 36.41                             146   -0.67 7 98.6 177 
 RUS  HZ I         449 37.52         1.5 0.50            148           98.6 177 
 PTB  HZ EP        449 21.10                             133   -0.46 9  149 260 
 PTB  HN ES        449 42.46                             133   -0.64 9  149 260 
 PTB  HZ I         449 48.05         3.0 0.22            132            149 260 
 OCA  HN ES   1    449 45.26                             131   -0.30 7  162 353 
 OCA  HZ I         449 49.23         3.3 0.40            133            162 353 
 SPBC HZ EP   1    449 22.82                             131   -0.09 7  163 220 
 SPBC HN ES        449 45.72                             131    0.23 9  163 220 
 SPBC HZ I         449 52.17         5.4 0.26            131            163 220 
 ZAR  HZ EP   1    449 26.99                             124   -0.06 6  206 292 
 ZAR  HN ES        449 52.97                             124    0.10 8  206 292 
 ZAR  HZ I         449 57.96         3.2 0.54            124            206 292 
 SML  HE ES   1    450  0.00                             119   -0.25 6  246 335 
 SML  HZ I         450  3.90         5.7 0.10            120            246 335 
 CHI  HZ EP   1    449 32.16                             119    0.30 6  247 196 
 CHI  HN ES   1    450  2.20                             119    0.77 6  247 196 
 CHI  HZ I         450  7.19         1.0 0.52            120            247 196 
                                                                                
