 2016  4 8 0809 36.3 L   6.794 -73.189139.7  RSN  5 0.2 1.7LRSN                1
 GAP=143        0.57       3.2     3.3  4.6 -0.4933E+01  0.5078E+01 -0.1569E+01E
 Epicentro: ZAPATOCA - SANTANDER                                               3
 ACTION:UPD 16-05-05 14:19 OP:rebc STATUS:               ID:20160408080936 L   I
 OLDACT:UP  16-04-08 18:24 OP:mh   STATUS:               ID:20160408080745     3
 OLDACT:UP  16-04-08 18:23 OP:mh   STATUS:               ID:20160408080745     3
 OLDACT:REG 16-04-08 12:48 OP:mh   STATUS:               ID:20160408080745     3
 2016-04-08-0807-45M.COL___316                                                 6
 STAT SP IPHASW D HRMM SECON CODA AMPLIT PERI AZIMU VELO AIN AR TRES W  DIS CAZ7
 BAR2 EZ EP        8 9 55.40                             170    0.2210 22.3 178 
 BAR2 EZ ES        810  9.48                             170   -0.4210 22.3 178 
 PAM  EZ EP        8 9 58.10                             148   -0.0010 81.0  42 
 PAM  EN ES        810 15.23                             148    0.1310 81.0  42 
 PAM  EZ I         810 17.49         5.6 0.51            149           81.0  42 
 RUS  HZ EP   1    8 9 59.45                             143    0.01 7  100 173 
 RUS  HN ES        810 17.66                             143    0.1710  100 173 
 PTB  HZ EP        810  2.12                             132   -0.22 9  143 259 
 PTB  HN ES        810 22.87                             132    0.23 9  143 259 
 PTB  HZ I         810 25.93        13.0 0.04            132            143 259 
 SPBC HZ EP        810  3.80                             128   -0.20 9  160 218 
 SPBC HN ES        810 25.69                             128    0.08 9  160 218 
                                                                                
