 2011  8 8 0846 41.7 L   6.042 -74.230 71.4  RSN  4 0.3 1.3LRSN                1
 GAP=153        0.47       3.6     3.2 11.4 -0.6297E+01 -0.1040E+02 -0.8555E+01E
 Epicentro: LA BELLEZA - SANTANDER                                             3
 ACTION:UPD 12-07-25 14:06 OP:epov STATUS:               ID:20110808084641 L   I
 2011-08-08-0842-25S.COL___144                                                 6
 STAT SP IPHASW D HRMM SECON CODA AMPLIT PERI AZIMU VELO AIN AR TRES W  DIS CAZ7
 NOR  SZ EP   2    846 57.94                             124    0.62 5 88.3 233 
 NOR  SN ES   1    847  9.28                             124   -0.25 7 88.3 233 
 RUS  HZ EP   2    847  2.18                             113   -0.03 5  128  97 
 RUS  HN ES   2    847 18.23                             113   -0.01 5  128  97 
 RUS  HZ I         847 20.30         1.8 0.36                           128  97 
 BRR  HZ I         847 19.74         6.6 0.21                           131  26 
 BAR2 SZ EP   1    847  2.12                             113   -0.10 7  131  62 
 BRR  HE ES   1    847 17.85                             112    0.13 7  131  26 
 BAR2 SZ ES   1    847 18.43                             113    0.19 7  131  62 
 BAR2 SZ I         847 20.37         5.6 0.25                           131  62 
 BRR  HZ EP   1    847  1.69                             112   -0.23 7  131  26 
                                                                                
