 2011  1 8 0948 19.4 L   6.802 -72.998144.0  RSN  6 0.4 1.6LRSN                1
 GAP=175        0.93       4.9    20.5 11.5 -0.3995E+02 -0.4371E+01  0.2124E+01E
 Epicentro: CEPITA - SANTANDER                                                 3
 ACTION:UP  11-02-08 08:39 OP:pat  STATUS:               ID:20110108094819 L   I
 2011-01-08-0943-53S.COL___135                                                 6
 STAT SP IPHASW D HRMM SECON CODA AMPLIT PERI AZIMU VELO SNR AR TRES W  DIS CAZ7
 BAR2 SZ ES   2    948 54.04                             167    -0.3 5   31 221 
 BAR2 SZ I         948 55.17         9.2 0.38                            31 221 
 BTL  SZ IP        948 38.92                             167    -0.110   32 293 
 RUS  HZ EP   1    948 43.16                             143     0.1 7  101 185 
 RUS  HN ES   2    949  1.28                             143    -0.2 5  101 185 
 RUS  HZ I         949  2.78         3.4 0.37                           101 185 
 GRA  SZ IP        948 44.34                             138     0.210  122  10 
 GRA  SZ I         948 45.81         8.6 0.42                           122  10 
 GRA  SZ ES   1    949  3.51                             138     0.1 7  122  10 
 OCA  SZ EP   1    948 46.85                             129    -1.0 7  163 347 
 OCA  SZ ES   1    949 10.60                             129     0.6 7  163 347 
 OCA  SZ I         949 13.06        10.6 0.19                           163 347 
 CHI  HZ EP   2    948 58.09                             116     0.5 4  254 199 
 CHI  HN ES   2    949 27.86                             116     0.5 4  254 199 
 CHI  HZ I         949 29.86         1.9 0.44                           254 199 
                                                                                
