 2016  7 8 0255 28.5 L   7.444 -73.173106.0  RSN  5 0.3 1.4LRSN                1
 GAP=269        0.77       5.4     5.0  7.7  0.1137E+02  0.3367E+01 -0.9909E+01E
 Epicentro: EL PLAYON - SANTANDER                                              3
 ACTION:UPD 17-03-29 16:48 OP:lp   STATUS:               ID:20160708025528 L   I
 OLDACT:UP  16-07-08 14:33 OP:dani STATUS:               ID:20160708024745     3
 OLDACT:UP  16-07-08 14:31 OP:dani STATUS:               ID:20160708024745     3
 OLDACT:REG 16-07-08 12:54 OP:dani STATUS:               ID:20160708024745     3
 2016-07-08-0247-45M.COL___335                                                 6
 STAT SP IPHASW D HRMM SECON CODA AMPLIT PERI AZIMU VELO AIN AR TRES W  DIS CAZ7
 BRR  HZ IP     C  255 45.54                             144    0.0510 70.2 238 
 BRR  HE ES        255 58.99                             144    0.2710 70.2 238 
 BRR  HZ I         256  0.49         9.3 0.12            146           70.2 238 
 BAR2 EZ EP        255 47.52                             135   -0.2110 94.1 181 
 BAR2 EZ ES        256  2.59                             135   -0.1010 94.1 181 
 BAR2 EZ I         256  5.09         5.1 0.44            139           94.1 181 
 PTB  HZ EP   4    255 53.77                             116   -1.59 0  174 235 
 PTB  HN ES        256 15.69                             116   -0.60 9  174 235 
 PTB  HZ I         256 16.58         2.6 0.22            119            174 235 
 ZAR  HZ EP        255 56.88                             115    0.14 9  186 272 
 ZAR  HN ES        256 18.73                             115   -0.01 9  186 272 
 ZAR  HZ I         256 22.71         3.6 0.32            117            186 272 
 SPBC HN ES        256 26.61                             110    0.54 8  222 207 
                                                                                
