 2013 11 8 0957 29.0 L   6.746 -73.182143.0  RSN  7 0.6 1.5LRSN                1
 GAP=134        1.39       6.3     6.2 10.9  0.5435E+01  0.7532E+01 -0.8612E+01E
 Epicentro: VILLANUEVA - SANTANDER                                             3
 ACTION:UPD 14-01-09 16:26 OP:ep   STATUS:               ID:20131108095729 L   I
 OLDACT:DUP 13-11-08 09:24 OP:jn   STATUS:               ID:20131108095001d    3
 OLDACT:UP  13-11-08 09:21 OP:jn   STATUS:               ID:20131108095000     3
 OLDACT:REG 13-11-08 07:41 OP:jn   STATUS:               ID:20131108095000     3
 2013-11-08-0950-00M.COL___273                                                 6
 STAT SP IPHASW D HRMM SECON CODA AMPLIT PERI AZIMU VELO AIN AR TRES W  DIS CAZ7
 BAR2 SZ EP        957 48.24                             173    0.0710 17.0 180 
 BAR2 SZ ES        958  3.08                             173   -0.0610 17.0 180 
 BAR2 SZ I         958  4.10        20.2 0.38            174           17.0 180 
 BRR  HZ EP        957 49.94                             152    0.1210 70.9 304 
 BRR  HN ES        958  6.72                             152    0.6510 70.9 304 
 BRR  HZ I         958  9.93         5.6 0.30            151           70.9 304 
 PAM  SZ EP        957 51.16                             148   -0.2010 84.5  39 
 PAM  SE ES        958  8.32                             148   -0.4910 84.5  39 
 PAM  SZ I         958 10.13         6.9 0.60            150           84.5  39 
 RUS  HZ EP        957 52.17                             145    0.1010 95.0 173 
 RUS  HN ES        958 10.54                             145    0.4710 95.0 173 
 RUS  HZ I         958 11.67         2.5 0.36            147           95.0 173 
 PTB  HN ES        958 14.41                             132   -1.37 9  143 261 
 PTB  HZ I         958 17.02         3.5 0.14            133            143 261 
 ZAR  HE ES        958 26.90                             122    0.73 9  203 294 
 ZAR  HZ I         958 30.64         3.0 0.24            123            203 294 
 SML  HN ES   1    958 34.71                             116    0.06 6  248 337 
                                                                                
