 2016  5 8 0637 56.3 L   6.807 -73.136149.4  RSN 18 0.4 1.9LRSN                1
 GAP=137        0.94       2.3     3.3  4.4 -0.1361E+01  0.4062E+01  0.1296E+01E
 Epicentro: LOS SANTOS - SANTANDER                                             3
 ACTION:UPD 16-08-18 17:43 OP:cam  STATUS:               ID:20160508063756 L   I
 OLDACT:REG 16-05-08 13:48 OP:ak   STATUS:               ID:20160508062748     3
 2016-05-08-0627-48M.COL___301                                                 6
 STAT SP IPHASW D HRMM SECON CODA AMPLIT PERI AZIMU VELO AIN AR TRES W  DIS CAZ7
 BAR2 EZ EP        638 16.34                             170   -0.0510 24.3 192 
 BAR2 EZ ES        638 31.80                             170   -0.2610 24.3 192 
 BAR2 EZ I         638 34.36        11.2 0.30            167           24.3 192 
 BRR  HZ EP        638 18.22                             153    0.3410 71.8 298 
 BRR  HE ES        638 35.38                             153    0.6710 71.8 298 
 BRR  HZ I         638 40.02        11.0 0.17            151           71.8 298 
 PAM  EZ EP        638 19.20                             152    0.3710 76.1  39 
 PAM  EN ES        638 36.38                             152   -0.0210 76.1  39 
 PAM  EZ I         638 38.79         9.1 0.60            157           76.1  39 
 RUS  HZ EP        638 20.19                             144   -0.2710  101 177 
 RUS  HN ES        638 38.83                             144   -0.4810  101 177 
 RUS  HZ I         638 40.14         5.7 0.34            145            101 177 
 PTB  HZ EP        638 23.12                             133   -0.55 9  149 259 
 PTB  HN ES        638 44.29                             133   -0.74 9  149 259 
 PTB  HZ I         638 46.57         8.6 0.16            132            149 259 
 OCA  HZ EP        638 24.91                             131    0.07 9  160 353 
 OCA  HE ES        638 47.63                             131    0.53 9  160 353 
 OCA  HZ I         638 51.26        29.1 0.28            133            160 353 
 SPBC HZ EP        638 25.33                             130    0.13 9  164 219 
 SPBC HN ES        638 48.17                             130    0.43 9  164 219 
 SPBC HZ I         638 52.95        19.2 0.36            130            164 219 
 ZAR  HZ EP   2    638 28.07                             123   -0.99 4  205 292 
 ZAR  HN ES        638 54.12                             123   -0.49 9  205 292 
 ZAR  HZ I         639  0.71        10.7 0.28            123            205 292 
 NOR  HZ EP        638 32.60                             119    0.22 8  236 234 
 NOR  HN ES        639  0.74                             119    0.21 8  236 234 
 NOR  HZ I         639  3.99         7.9 0.30            119            236 234 
 SML  HZ EP        638 32.73                             118   -0.37 8  243 335 
 SML  HN ES        639  1.30                             118   -0.51 8  243 335 
 SML  HZ I         639  4.88        12.6 0.06            120            243 335 
 CHI  HZ EP        638 34.01                             118   -0.30 8  250 195 
 CHI  HN ES        639  4.34                             118    0.38 8  250 195 
 CHI  HZ I         639 11.52         2.9 0.34            119            250 195 
 ROSC BZ EP        638 34.78                             117    0.03 8  254 211 
 ROSC BN ES   4    639  7.79                             117    3.04 0  254 211 
 ROSC BZ I         639 14.27         9.5 0.40            118            254 211 
 HEL  HZ EP   2    638 37.18                             115    0.35 4  273 256 
 HEL  HE ES        639  8.96                             115    0.50 8  273 256 
 HEL  HZ I         639 16.89         5.0 0.36            116            273 256 
 URE  HZ EP   2    638 37.70                             114    0.07 4  285 292 
 URE  HN ES   4    639  8.24                             114   -1.62 0  285 292 
 URE  HZ I         639 13.23         5.3 0.05            115            285 292 
 ELA  HZ EP        638 43.09                             111   -0.37 7  330 229 
 ELA  HN ES        639 20.59                             111    0.35 7  330 229 
 ELA  HZ I         639 35.98         3.8 0.52            112            330 229 
 CBOC HZ EP        638 44.35                             110    0.84 7  335 252 
 CBOC HN ES        639 20.06                             110   -0.28 7  335 252 
 CBOC HZ I         639 25.69         1.3 0.16            111            335 252 
 PRA  HZ EP        638 49.90                             107   -0.19 6  393 210 
 PRA  HN ES        639 32.25                             107    0.21 6  393 210 
 PRA  HZ I         639 37.06         3.2 0.44            108            393 210 
 SJC  HZ EP   4    638 50.61                             106   -1.36 0  409 327 
 SJC  HN ES   4    639 31.18                             106   -4.22 0  409 327 
 SJC  HZ I         639 36.90         1.4 0.44            108            409 327 
                                                                                
