 2014  6 8 0634 54.2 L   6.815 -73.152141.5  RSN 17 0.4 2.3LRSN                1
 GAP= 70        0.98       2.8     2.7  5.5 -0.1757E+01  0.4997E+01  0.1064E+01E
 Epicentro: LOS SANTOS - SANTANDER                                             3
 ACTION:UPD 14-07-01 22:52 OP:nd   STATUS:               ID:20140608063454 L   I
 OLDACT:DUP 14-06-08 16:37 OP:fm   STATUS:               ID:20140608062811d    3
 2014-06-08-0628-10M.COL___253                                                 6
 STAT SP IPHASW D HRMM SECON CODA AMPLIT PERI AZIMU VELO AIN AR TRES W  DIS CAZ7
 BAR2 SZ IP     C  635 13.31                             170   -0.0210 24.9 188 
 BAR2 SZ ES   1    635 28.16                             170   -0.11 7 24.9 188 
 BAR2 SZ I         635 29.35        52.8 0.22            169           24.9 188 
 PAM  SZ EP        635 16.13                             150    0.2410 76.5  41 
 PAM  SN ES        635 33.09                             150    0.2610 76.5  41 
 PAM  SZ I         635 35.29        26.2 0.44            145           76.5  41 
 RUS  HZ EP        635 17.29                             142   -0.3510  102 176 
 RUS  HE ES        635 36.21                             142    0.2710  102 176 
 RUS  HZ I         635 36.97        19.5 0.28            139            102 176 
 PTB  HZ EP        635 20.01                             131   -0.77 9  147 258 
 PTB  HN ES        635 40.91                             131   -0.61 9  147 258 
 PTB  HZ I         635 43.36        35.5 0.12            128            147 258 
 TAM  HZ EP        635 21.61                             129   -0.02 9  156 106 
 TAM  HZ I         635 42.27        12.5 0.24            125            156 106 
 TAM  HN ES        635 43.25                             129    0.22 9  156 106 
 OCA  HZ EP        635 21.76                             129   -0.24 9  159 353 
 OCA  HE ES        635 43.63                             129   -0.07 9  159 353 
 OCA  HZ I         635 48.42        25.5 0.20            124            159 353 
 SPBC HZ EP        635 22.26                             128   -0.18 9  164 218 
 SPBC HE ES        635 44.36                             128   -0.12 9  164 218 
 SPBC HZ I         635 50.16        23.1 0.18            124            164 218 
 ZAR  HN ES        635 51.72                             122    0.50 9  203 292 
 ZAR  HZ I         635 57.18        28.6 0.28            118            203 292 
 NOR  HZ EP        635 29.14                             117   -0.57 8  235 234 
 NOR  HN ES        635 57.15                             117   -0.28 8  235 234 
 NOR  HZ I         635 59.33        20.1 0.18            114            235 234 
 SML  HZ EP   1    635 29.87                             117   -0.51 6  242 335 
 SML  HE ES   4    636  0.11                             117    1.50 0  242 335 
 SML  HZ I         636  6.70        33.4 0.10            113            242 335 
 ROSC BZ EP   4    635 33.69                             116    1.50 0  254 211 
 ROSC BN ES        636  1.76                             116   -0.08 8  254 211 
 ROSC BZ I         636  9.04        16.0 0.45            112            254 211 
 HEL  HZ EP        635 35.05                             114    0.90 8  272 255 
 HEL  HE ES        636  5.24                             114   -0.09 8  272 255 
 HEL  HZ I         636 11.41        12.4 0.38            111            272 255 
 GUY2CHZ EP   4    635 39.45                             111    1.81 0  302 234 
 GUY2CHN ES        636 12.33                             111    0.79 7  302 234 
 GUY2CHZ I         636 17.82         8.9 0.38                           302 234 
 CBOC HZ EP        635 41.06                             109    0.15 7  333 252 
 CBOC HE ES        636 18.30                             109    0.95 7  333 252 
 CBOC HZ I         636 26.59         3.7 0.38            106            333 252 
 TOL  SZ EP        635 43.36                             108    1.01 7  344 224 
 TOL  SN ES   4    636 22.47                             108    2.55 0  344 224 
 TOL  SZ I         636 28.83        11.8 0.62            105            344 224 
 SDV  BN ES   4    636 20.20                             107   -2.66 0  360  50 
 PRA  HZ EP        635 47.52                             106   -0.17 6  393 209 
 PRA  HN ES        636 29.09                             106   -0.33 6  393 209 
 PRA  HZ I         636 32.78         5.0 0.28            103            393 209 
 ORTC HZ EP   2    635 48.20                             106    0.13 3  396 216 
 ORTC HN ES   4    636 31.80                             106    1.70 0  396 216 
                                                                                
