 2010 11 8 0523 31.4 L   6.836 -73.068145.8  RSN  4 0.3 1.3LRSN                1
 GAP=173        0.50       5.6    18.8 16.6 -0.1259E+01 -0.2532E+03 -0.6626E+00E
 Epicentro: LOS SANTOS - SANTANDER                                             3
 ACTION:UP  10-12-17 16:51 OP:REBC STATUS:               ID:20101108052331 L   I
 2010-11-08-0519-08S.COL___128                                                 6
 STAT SP IPHASW D HRMM SECON CODA AMPLIT PERI AZIMU VELO SNR AR TRES W  DIS CAZ7
 BRR  HZ EP   2    523 52.86                             150    -0.1 5   77 293 
 BRR  HN ES   2    524  9.54                             150    -0.1 5   77 293 
 BRR  HZ I         524 14.11         8.0 0.15                            77 293 
 RUS  HZ EP   2    523 55.68                             143     0.2 5  104 181 
 RUS  HZ I         524 15.73         1.1 0.15                           104 181 
 GUE  SZ EP   2    523 55.21                             141    -0.5 5  111   8 
 OCA  SZ EP        523 59.51                             130     0.010  158 350 
 OCA  SZ ES   2    524 21.71                             130     0.4 5  158 350 
 OCA  SZ I         524 24.54         3.7 0.15                           158 350 
                                                                                
