 2012 11 8 0807 28.0 L   6.718 -73.179145.6  RSN  4 0.3 1.4LRSN                1
 GAP=227        0.92       7.2     6.8  7.4  0.2415E+02  0.5970E+01  0.1838E+01E
 Epicentro: VILLANUEVA - SANTANDER                                             3
 ACTION:UPD 12-12-05 15:32 OP:}ep  STATUS:               ID:20121108080728 L   I
 2012-11-08-0800-00M.COL___230                                                 6
 STAT SP IPHASW D HRMM SECON CODA AMPLIT PERI AZIMU VELO AIN AR TRES W  DIS CAZ7
 BAR2 SZ EP        8 7 47.19                             174   -0.3010 13.9 182 
 BAR2 SZ ES        8 8  2.13                             174   -0.5310 13.9 182 
 BAR2 SZ I         8 8  4.46         3.0 0.24                          13.9 182 
 BRR  HZ EP        8 7 49.36                             152    0.0910 73.0 306 
 BRR  HN ES        8 8  6.33                             152    0.5010 73.0 306 
 BRR  HN I         8 8 10.68         5.4 0.16                          73.0 306 
 RUS  HZ EP        8 7 51.53                             146    0.3710 91.8 173 
 RUS  HN ES        8 8  9.43                             146    0.2410 91.8 173 
 RUS  HN I         8 8 11.27         2.4 0.40                          91.8 173 
 PTB  HZ EP        8 7 54.20                             133   -0.33 9  143 262 
 PTB  HN ES        8 8 15.10                             133   -0.09 9  143 262 
 PTB  HN I         8 8 20.86         8.4 0.30                           143 262 
                                                                                
