 2014  2 8 0135 38.3 L   6.799 -73.131150.4  RSN 10 0.4 2.2LRSN                1
 GAP=138        0.72       4.8     4.9  6.0  0.2297E+01  0.4926E+01  0.4202E+01E
 Epicentro: LOS SANTOS - SANTANDER                                             3
 ACTION:UPD 14-03-10 08:08 OP:ep   STATUS:               ID:20140208013538 L   I
 OLDACT:UP  14-02-08 10:52 OP:mh   STATUS:               ID:20140208013000     3
 OLDACT:REG 14-02-08 07:26 OP:mh   STATUS:               ID:20140208013000     3
 2014-02-08-0130-00M.COL___291                                                 6
 STAT SP IPHASW D HRMM SECON CODA AMPLIT PERI AZIMU VELO AIN AR TRES W  DIS CAZ7
 BAR2 SZ IP     D  135 58.38                             171   -0.0910 23.6 194 
 BAR2 SZ ES   1    136 14.03                             171   -0.19 7 23.6 194 
 BAR2 SZ I         136 15.20        31.6 0.18            155           23.6 194 
 BRR  HZ EP     C  136  0.25                             153    0.2410 72.6 298 
 BRR  HN ES   1    136 17.38                             153    0.42 7 72.6 298 
 BRR  HZ I         136 22.21        18.3 0.20            135           72.6 298 
 PAM  SZ EP   1    136  1.27                             152    0.33 7 76.5  39 
 PAM  SZ I         136 20.68        18.3 0.21            117           76.5  39 
 RUS  HZ IP     C  136  2.25                             145   -0.2310  100 177 
 RUS  HZ I         136 22.72         6.1 0.32            117            100 177 
 PTB  HZ EP   1    136  5.00                             133   -0.77 7  149 259 
 PTB  HZ I         136 32.28        40.0 0.05            111            149 259 
 ZAR  HZ EP   1    136 10.97                             123   -0.22 6  206 292 
 ZAR  HN ES   1    136 36.57                             123   -0.28 6  206 292 
 ZAR  HZ I         136 42.86        13.8 0.16            102            206 292 
 NOR  HZ EP   1    136 14.24                             119   -0.18 6  236 235 
 NOR  HN ES   1    136 42.71                             119    0.11 6  236 235 
 NOR  HZ I         136 48.33        11.7 0.23            100            236 235 
 SML  HZ EP   1    136 15.26                             118    0.00 6  244 335 
 SML  HZ I         136 46.95        17.3 0.07             99            244 335 
 URE  HZ EP   4    136 18.75                             114   -1.00 0  285 292 
 URE  HN ES   4    136 50.08                             114   -2.01 0  285 292 
 GUY2CHZ EP   1    136 23.04                             113    0.79 5  302 235 
 GUY2CHE ES   4    136 59.00                             113    2.46 0  302 235 
 GUY2CHZ I         137  5.11         8.8 0.21                           302 235 
 PRA  HZ EP   1    136 32.83                             107    0.78 4  393 210 
 PRA  HZ I         137 20.40         6.2 0.48             95            393 210 
                                                                                
