 2014  6 8 0559 47.2 L   6.814 -73.131146.0  RSN  6 0.5 1.5LRSN                1
 GAP=185        1.05       4.5     6.4  8.6 -0.4616E+01  0.1932E+02 -0.1293E+01E
 Epicentro: LOS SANTOS - SANTANDER                                             3
 ACTION:UPD 14-07-01 22:52 OP:nd   STATUS:               ID:20140608055947 L   I
 OLDACT:REG 14-06-08 13:12 OP:fm   STATUS:               ID:20140608055805     3
 2014-06-08-0558-05M.COL___253                                                 6
 STAT SP IPHASW D HRMM SECON CODA AMPLIT PERI AZIMU VELO AIN AR TRES W  DIS CAZ7
 BAR2 SZ EP        6 0  7.12                             170    0.2510 25.2 193 
 BAR2 SZ ES        6 0 22.68                             170    0.4510 25.2 193 
 BAR2 SZ I         6 0 24.13         6.8 0.20            171           25.2 193 
 RUS  HZ EP        6 0 11.09                             143    0.0410  102 177 
 RUS  HN ES        6 0 29.54                             143   -0.1410  102 177 
 RUS  HZ I         6 0 30.36         2.6 0.40            147            102 177 
 PTB  HZ EP        6 0 13.83                             132   -0.50 9  150 258 
 PTB  HN ES        6 0 35.49                             132   -0.03 9  150 258 
 PTB  HZ I         6 0 37.80         6.1 0.28            132            150 258 
 OCA  HN ES        6 0 37.21                             130   -0.16 9  159 352 
 OCA  HZ I         6 0 42.55         4.0 0.30            131            159 352 
 SPBC HZ EP   1    6 0 15.85                             129   -0.05 7  165 219 
 SPBC HE ES        6 0 37.50                             129   -0.81 9  165 219 
 SPBC HZ I         6 0 45.14         4.5 0.16            130            165 219 
 GUY2CHZ EP   1    6 0 31.83                             112    0.79 5  303 235 
 GUY2CHE ES        6 1  6.19                             112    0.93 7  303 235 
 GUY2CHZ I         6 1 12.18         2.2 0.38                           303 235 
                                                                                
