 2017  2 8 0133  6.1 L   6.848 -73.126152.5  RSN 23 0.5 2.6LRSN                1
 GAP= 66        1.20       3.4     3.6  5.3 -0.1634E+01  0.2764E+01  0.1042E+01E
 Epicentro: LOS SANTOS - SANTANDER                                             3
 ACTION:UPD 17-05-24 15:33 OP:jn   STATUS:               ID:20170208013306 L   I
 OLDACT:UP  17-02-08 13:53 OP:edw  STATUS:               ID:20170208012239     3
 OLDACT:UP  17-02-08 13:52 OP:edw  STATUS:               ID:20170208012239     3
 OLDACT:UP  17-02-08 13:45 OP:edw  STATUS:               ID:20170208012239     3
 OLDACT:REG 17-02-08 12:06 OP:edw  STATUS:               ID:20170208012239     3
 2017-02-08-0128-00M.COL___334                                                 6
 STAT SP IPHASW D HRMM SECON CODA AMPLIT PERI AZIMU VELO AIN AR TRES W  DIS CAZ7
 BAR2 EZ IP     D  133 26.73                             169    0.0410 29.0 192 
 BAR2 EZ ES        133 42.52                             169   -0.2110 29.0 192 
 BAR2 EZ I         133 43.02        99.2 0.16            167           29.0 192 
 BRR  HZ IP     D  133 28.63                             154    0.6410 70.8 294 
 BRR  HN ES        133 45.14                             154    0.1010 70.8 294 
 BRR  HZ I         133 48.75        56.3 0.28            151           70.8 294 
 PAM  EZ EP        133 29.80                             153    1.0310 71.9  41 
 PAM  EN ES        133 46.60                             153    0.1910 71.9  41 
 PAM  EZ I         133 48.94        79.1 0.52            156           71.9  41 
 RUS  HZ EP        133 30.90                             144   -0.0210  106 177 
 RUS  HN ES        133 49.56                             144   -0.6910  106 177 
 RUS  HZ I         133 51.06        73.6 0.42            143            106 177 
 PTB  HZ EP   9    133 33.51                             133   -0.44 0  151 257 
 PTB  HN ES        133 54.17                             133   -1.03 9  151 257 
 PTB  HZ I         133 56.45        45.3 0.40            131            151 257 
 TAM  HZ IP     D  133 35.17                             132    0.87 9  154 107 
 TAM  HN ES        133 55.69                             132   -0.57 9  154 107 
 TAM  HZ I         133 56.08        21.0 0.38            134            154 107 
 ZAR  HZ EP   4    133 40.50                             124    1.46 0  204 291 
 ZAR  HN ES        134  4.58                             124   -0.12 9  204 291 
 ZAR  HZ I         134  9.94        40.6 0.30            122            204 291 
 NOR  HZ EP        133 42.88                             119    0.10 8  240 234 
 NOR  HN ES        134 11.15                             119   -0.21 8  240 234 
 NOR  HZ I         134 20.11        23.3 0.40            118            240 234 
 CHI  HZ IP     C  133 44.93                             118    0.10 8  254 195 
 CHI  HN ES        134 14.32                             118   -0.68 8  254 195 
 CHI  HZ I         134 19.32        22.1 0.50            117            254 195 
 ROSC BZ EP   4    133 46.90                             117    1.66 0  258 211 
 ROSC BN ES        134 16.21                             117    0.46 8  258 211 
 ROSC BZ I         134 21.23        57.9 0.40            117            258 211 
 URE  HZ EP   4    133 46.39                             115   -1.16 0  284 291 
 URE  HN ES   4    134 17.22                             115   -2.64 0  284 291 
 URE  HZ I         134 25.85        22.2 0.12            114            284 291 
 PTGC HZ EP        133 49.85                             112   -0.92 7  313 159 
 PTGC HN ES   4    134 23.30                             112   -2.28 0  313 159 
 PTGC HZ I         134 28.23        21.5 0.26            112            313 159 
 LL6C HN EP   4    133 33.18                             112   -18.4 0  320 357 
 LL6C HN ES   4    134  9.37                             112   -17.6 0  320 357 
 CBOC HZ EP   4    133 54.66                             111    0.90 0  337 251 
 CBOC HN ES   4    134 28.11                             111   -2.80 0  337 251 
 CBOC HZ I         134 36.34         6.2 0.58            110            337 251 
 DBB  EZ EP        133 53.71                             110   -0.39 7  341 273 
 DBB  EN ES   4    134 28.81                             110   -2.70 0  341 273 
 DBB  EZ I         134 31.51         9.5 0.26            110            341 273 
 ANIL HZ EP   4    133 58.00                             109    1.18 0  363 224 
 ANIL HE ES   2    134 36.94                             109    0.59 3  363 224 
 PRA  HZ EP   2    134  1.20                             107    0.64 3  398 209 
 PRA  HN ES   4    134 35.70                             107   -7.31 0  398 209 
 PRA  HZ I         134 48.72        17.0 0.28            107            398 209 
 APAC HZ EP   9    133 59.44                             107   -1.18 0  399 287 
 APAC HN ES        134 41.46                             107   -0.47 6  399 287 
 APAC HZ I         134 47.55        10.0 0.36            107            399 287 
 ORTC HZ EP        134  1.22                             107    0.28 6  401 216 
 ORTC HN ES        134 44.28                             107    0.59 6  401 216 
 ORTC HZ I         134 48.16        14.9 0.22            107            401 216 
 VALLCHZ EP        134  0.35                             107   -1.05 6  405 358 
 VALLCHN ES        134 44.00                             107   -0.50 6  405 358 
 SJC  HZ IP     C  134  0.96                             107   -0.59 6  406 326 
 SJC  HN ES   4    134 36.43                             107   -8.34 0  406 326 
 SJC  HZ I         134 45.66         4.5 0.26            107            406 326 
 PAL  HZ EP   2    134  2.39                             106    0.32 3  410 239 
 PAL  HN ES        134 45.66                             106   -0.03 6  410 239 
 PAL  HZ I         134 50.72         5.4 0.32            106            410 239 
 CRJC HZ EP        134  7.21                             104   -0.98 5  462   3 
 CRJC HE ES   4    134 52.79                             104   -3.80 0  462   3 
 CRJC HZ I         135  1.92         9.6 0.38            104            462   3 
 YOT  HZ EP   4    134  8.10                             104   -1.88 0  477 229 
 SMAR HZ EP   2    134 11.77                             103    0.13 2  492 346 
 SMAR HN ES   4    134 58.78                             103   -3.95 0  492 346 
 SMAR HZ I         135  3.37        13.5 0.82            103            492 346 
                                                                                
