 2016  5 8 0805  4.7 L   6.798 -73.162148.3  RSN 10 0.5 1.8LRSN                1
 GAP=135        1.17       3.2     4.9  6.6 -0.7085E+00  0.4901E+01 -0.1093E+01E
 Epicentro: LOS SANTOS - SANTANDER                                             3
 ACTION:UPD 16-08-18 17:43 OP:cam  STATUS:               ID:20160508080504 L   I
 OLDACT:DUP 16-05-08 18:20 OP:ak   STATUS:               ID:20160508075751d    3
 OLDACT:REG 16-05-08 13:56 OP:ak   STATUS:               ID:20160508075750     3
 2016-05-08-0757-50M.COL___301                                                 6
 STAT SP IPHASW D HRMM SECON CODA AMPLIT PERI AZIMU VELO AIN AR TRES W  DIS CAZ7
 BAR2 EZ IP     C  8 5 24.62                             171    0.0310 22.8 186 
 BAR2 EZ ES        8 5 40.08                             171   -0.0510 22.8 186 
 BAR2 EZ I         8 5 40.89        14.9 0.22            169           22.8 186 
 BRR  HZ IP     C  8 5 26.45                             153    0.4410 69.8 299 
 BRR  HN ES        8 5 43.26                             153    0.6010 69.8 299 
 BRR  HZ I         8 5 48.68         7.3 0.14            151           69.8 299 
 PAM  EZ EP        8 5 27.47                             151    0.2410 78.7  40 
 PAM  EN ES        8 5 44.83                             151    0.0010 78.7  40 
 PAM  EZ I         8 5 46.82         5.6 0.52            155           78.7  40 
 RUS  HZ EP        8 5 28.72                             144    0.0610  100 175 
 RUS  HN ES        8 5 46.63                             144   -0.7410  100 175 
 RUS  HZ I         8 5 48.49         8.6 0.22            146            100 175 
 PTB  HZ EP        8 5 31.22                             133   -0.46 9  146 259 
 PTB  HN ES        8 5 52.41                             133   -0.34 9  146 259 
 PTB  HZ I         8 5 58.08         5.2 0.30            132            146 259 
 OCA  HZ EP        8 5 33.97                             130    0.79 9  160 354 
 OCA  HN ES        8 5 55.23                             130   -0.19 9  160 354 
 SPBC HZ EP   2    8 5 32.60                             130   -0.64 5  162 219 
 SPBC HN ES        8 5 55.38                             130   -0.14 9  162 219 
 SPBC HZ I         8 5 57.04        14.2 0.20            130            162 219 
 ZAR  HZ EP   2    8 5 37.25                             123    0.13 4  203 292 
 ZAR  HN ES        8 6  2.99                             123    0.56 9  203 292 
 ZAR  HZ I         8 6  8.53         6.4 0.17            123            203 292 
 SML  HZ EP        8 5 40.42                             118   -0.96 8  243 336 
 SML  HN ES        8 6  9.20                             118   -0.82 8  243 336 
 SML  HZ I         8 6 14.34         7.6 0.06            119            243 336 
 CHI  HZ EP        8 5 42.66                             118    0.23 8  248 195 
 CHI  HE ES        8 6 12.58                             118    0.70 8  248 195 
 CHI  HZ I         8 6 21.72         2.2 0.26            119            248 195 
                                                                                
