 2015 10 8 0547 57.1 L   6.795 -73.132143.8  RSN  7 0.6 1.6LRSN                1
 GAP=138        1.40       4.9     6.9  8.8  0.1667E+01  0.1691E+02 -0.6188E+01E
 Epicentro: LOS SANTOS - SANTANDER                                             3
 ACTION:UPD 15-12-22 20:38 OP:cam  STATUS:               ID:20151008054757 L   I
 OLDACT:REG 15-10-08 13:00 OP:spq  STATUS:               ID:20151008053744     3
 2015-10-08-0537-44M.COL___340                                                 6
 STAT SP IPHASW D HRMM SECON CODA AMPLIT PERI AZIMU VELO AIN AR TRES W  DIS CAZ7
 BAR2 EZ EP        548 16.50                             170    0.0610 23.1 194 
 BAR2 EZ ES        548 31.66                             170    0.0910 23.1 194 
 BAR2 EZ I         548 33.98         6.0 0.24            172           23.1 194 
 BRR  HZ EP        548 18.56                             152    0.4810 72.7 298 
 BRR  HZ I         548 18.82         6.3 0.20            151           72.7 298 
 BRR  HN ES        548 35.30                             152    0.8210 72.7 298 
 PAM  EZ EP        548 18.74                             151   -0.2910 76.9  38 
 PAM  EN ES        548 36.25                             151    0.0810 76.9  38 
 PAM  EZ I         548 38.87         5.9 0.50            152           76.9  38 
 RUS  HZ EP        548 20.60                             144    0.0310100.0 177 
 RUS  HN ES        548 38.12                             144   -0.7910100.0 177 
 SPBC HZ EP        548 25.65                             129    0.19 9  164 220 
 SPBC HZ I         548 26.10         5.8 0.28            130            164 220 
 SPBC HN ES        548 47.74                             129    0.14 9  164 220 
 ZAR  HZ EP        548 30.47                             122    0.93 8  206 292 
 ZAR  HE ES        548 53.53                             122   -1.34 8  206 292 
 ZAR  HZ I         549  0.37         4.5 0.28            122            206 292 
 SML  HZ EP        548 33.39                             117   -0.30 8  245 335 
 SML  HN ES        549  1.83                             117   -0.44 8  245 335 
 SML  HZ I         549  4.45         5.2 0.10            118            245 335 
                                                                                
