 2011  8 8 0302 56.9 L   6.761 -73.100149.6  RSN  4 0.2 1.6LRSN                1
 GAP=239        0.47       4.6     6.1  5.1  0.1417E+02  0.2403E+01  0.4576E+01E
 Epicentro: LOS SANTOS - SANTANDER                                             3
 ACTION:UPD 12-07-25 14:06 OP:epov STATUS:               ID:20110808030256 L   I
 2011-08-08-0301-55S.COL___144                                                 6
 STAT SP IPHASW D HRMM SECON CODA AMPLIT PERI AZIMU VELO AIN AR TRES W  DIS CAZ7
 BAR2 SZ EP   1    3 3 16.83                             172   -0.09 7 20.7 206 
 BAR2 SZ ES   1    3 3 32.62                             172    0.07 7 20.7 206 
 BAR2 SZ I         3 3 33.60         6.3 0.18                          20.7 206 
 BRR  HZ EP   1    3 3 18.46                             151   -0.35 7 77.7 300 
 BRR  HN ES        3 3 36.01                             151    0.1010 77.7 300 
 BRR  HZ I         3 3 39.16        15.3 0.18                          77.7 300 
 RUS  HZ EP   1    3 3 20.93                             146    0.24 7 96.1 179 
 RUS  HN ES   1    3 3 39.12                             146   -0.14 7 96.1 179 
 RUS  HZ I         3 3 40.77         3.6 0.29                          96.1 179 
 NOR  SZ EP   2    3 3 33.57                             119    0.56 4  236 236 
 NOR  SN ES   2    3 4  0.93                             119   -0.26 4  236 236 
                                                                                
