 2016 12 8 0823 30.5 L   6.806 -73.127147.6  RSN  6 0.5 1.4LRSN                1
 GAP=139        1.18       5.3     5.7  9.3 -0.5885E+01  0.4825E+01  0.1714E+02E
 Epicentro: LOS SANTOS - SANTANDER                                             3
 ACTION:UPD 17-01-11 20:13 OP:rebc STATUS:               ID:20161208082330 L   I
 OLDACT:REG 16-12-08 13:43 OP:ar   STATUS:               ID:20161208081745     3
 2016-12-08-0818-00M.COL___355                                                 6
 STAT SP IPHASW D HRMM SECON CODA AMPLIT PERI AZIMU VELO AIN AR TRES W  DIS CAZ7
 BRR  HZ EP        823 52.04                             152    0.0910 72.7 297 
 BRR  HN ES        824  9.43                             152    0.7610 72.7 297 
 BRR  HZ I         824 12.53         5.0 0.22            152           72.7 297 
 PAM  EZ EP        823 53.18                             152    0.3610 75.5  39 
 PAM  EN ES        824  9.97                             152   -0.2510 75.5  39 
 PAM  EZ I         824 11.95         4.3 0.58            158           75.5  39 
 RUS  HZ EP        823 54.29                             144   -0.2010  101 177 
 RUS  HN ES        824 12.87                             144   -0.3210  101 177 
 RUS  HZ I         824 15.15         2.3 0.18            145            101 177 
 PTB  HZ EP        823 57.09                             132   -0.74 9  150 259 
 PTB  HN ES        824 18.41                             132   -0.73 9  150 259 
 PTB  HZ I         824 25.69         3.5 0.40            133            150 259 
 NOR  HZ EP   2    824  6.20                             119   -0.37 4  237 235 
 NOR  HN ES        824 35.29                             119    0.59 8  237 235 
 NOR  HZ I         824 39.55         3.3 0.22            120            237 235 
 CHI  HZ EP        824  8.94                             117    0.49 8  250 196 
 CHI  HN ES        824 38.33                             117    0.30 8  250 196 
 CHI  HZ I         824 45.52         1.0 0.12            119            250 196 
                                                                                
