 2015 11 8 0930 35.9 L   7.426 -73.385114.6  RSN  8 0.4 2.0LRSN                1
 GAP= 93        1.03       4.1     4.1  7.0  0.3602E+00  0.1077E+02 -0.8344E+01E
 Epicentro: SABANA DE TORRES - SANTANDER                                       3
 ACTION:UPD 15-12-28 16:09 OP:cam  STATUS:               ID:20151108093035 L   I
 OLDACT:REG 15-11-08 15:55 OP:cara STATUS:               ID:20151108092739     3
 2015-11-08-0927-39M.COL___295                                                 6
 STAT SP IPHASW D HRMM SECON CODA AMPLIT PERI AZIMU VELO AIN AR TRES W  DIS CAZ7
 BRR  HZ EP        930 52.51                             154    0.0010 50.5 226 
 BRR  HN ES        931  5.39                             154   -0.0810 50.5 226 
 BRR  HZ I         931  6.51        12.6 0.14            155           50.5 226 
 PAM  EZ EP        930 55.53                             144    0.7110 76.3  97 
 PAM  EE ES        931  9.41                             144   -0.1810 76.3  97 
 PAM  EZ I         931 11.95        17.7 0.18            151           76.3  97 
 OCA  HZ EP        930 55.47                             139    0.0710 90.1   5 
 OCA  HN ES        931 10.67                             139    0.0510 90.1   5 
 OCA  HZ I         931 11.95        23.3 0.10            140           90.1   5 
 BAR2 EZ EP        930 55.93                             138    0.0210 94.9 166 
 BAR2 EZ ES        931 11.13                             138   -0.3810 94.9 166 
 BAR2 EZ I         931 12.19        18.7 0.44            143           94.9 166 
 ZAR  HZ EP        931  2.72                             121    0.67 9  163 273 
 ZAR  HN ES        931 22.82                             121    0.36 9  163 273 
 ZAR  HZ I         931 27.59        13.2 0.20            122            163 273 
 SML  HZ EP        931  2.15                             120   -0.63 9  170 334 
 SML  HE ES   4    931 22.54                             120   -1.21 0  170 334 
 SML  HZ I         931 29.45        18.7 0.24            121            170 334 
 URE  HZ EP        931  9.80                             110   -0.74 8  240 279 
 URE  HE ES   4    931 35.96                             110   -1.61 0  240 279 
 URE  HZ I         931 44.27         9.1 0.16            112            240 279 
 SJC  HN EP        931 21.80                             103   -0.18 7  337 324 
 SJC  HE ES   4    931 55.57                             103   -2.37 0  337 324 
 SJC  HN I         931 58.20         3.5 0.40            105            337 324 
                                                                                
