 2014  4 8 0929  0.1 L   6.818 -73.135145.0  RSN 11 0.5 2.0LRSN                1
 GAP=120        1.19       3.2     4.5  7.8 -0.3568E+01  0.8388E+01 -0.8154E+00E
 Epicentro: LOS SANTOS - SANTANDER                                             3
 ACTION:UPD 14-05-13 23:07 OP:nd   STATUS:               ID:20140408092859 L   I
 OLDACT:UP  14-04-11 04:45 OP:CF   STATUS:               ID:20140408092859 L   3
 OLDACT:REG 14-04-08 13:07 OP:stll STATUS:               ID:20140408092815     3
 2014-04-08-0928-15M.COL___244                                                 6
 STAT SP IPHASW D HRMM SECON CODA AMPLIT PERI AZIMU VELO AIN AR TRES W  DIS CAZ7
 PAM  SZ EP        929 22.66                             151    0.5410 75.2  40 
 PAM  SN ES        929 39.56                             151    0.2710 75.2  40 
 PAM  HZ I         929 41.68         8.2 0.38            155           75.2  40 
 RUS  HZ EP        929 24.17                             143    0.2410  102 177 
 RUS  HN ES        929 42.14                             143   -0.3710  102 177 
 RUS  HZ I         929 43.57         9.8 0.24            146            102 177 
 PTB  HZ EP        929 26.56                             132   -0.60 9  149 258 
 PTB  HN ES        929 47.86                             132   -0.40 9  149 258 
 PTB  HZ I         929 50.46        12.1 0.12            133            149 258 
 OCA  HN ES        929 50.67                             130    0.56 9  158 353 
 SPBC HZ EP        929 29.64                             128    0.87 9  165 219 
 SPBC HN ES        929 50.75                             128   -0.37 9  165 219 
 SPBC HZ I         929 57.11        13.2 0.22            131            165 219 
 ZAR  HZ EP        929 32.72                             122    0.17 9  204 292 
 ZAR  HN ES        929 57.82                             122   -0.03 9  204 292 
 ZAR  HZ I         930  3.22        10.1 0.52            124            204 292 
 NOR  HZ EP        929 36.03                             118    0.00 8  237 234 
 NOR  HE ES        930  4.36                             118    0.33 8  237 234 
 NOR  HZ I         930  5.67         6.4 0.54            120            237 234 
 SML  HZ EP        929 36.29                             117   -0.27 8  242 335 
 SML  HN ES        930  4.06                             117   -0.93 8  242 335 
 SML  HZ I         930  6.67        13.2 0.20            120            242 335 
 CHI  HN ES        930  6.94                             117   -0.63 8  251 195 
 SOCV BZ EP        929 42.11                             112   -0.79 7  299  57 
 SOCV BN ES   4    930 14.33                             112   -1.94 0  299  57 
 GUY2CHZ EP        929 44.27                             112    0.34 7  303 235 
 GUY2CHN ES        930 18.84                             112    0.75 7  303 235 
 GUY2CHZ I         930 24.06         5.1 1.22                           303 235 
                                                                                
