 2013  4 8 0935 17.3 L   6.675 -73.204144.7  RSN  5 0.2 1.6LRSN                1
 GAP=164        0.57       3.9     3.9  5.7  0.6029E+01 -0.3145E+01 -0.2942E+01E
 Epicentro: VILLANUEVA - SANTANDER                                             3
 ACTION:UPD 13-05-22 14:36 OP:EP   STATUS:               ID:20130408093517 L   I
 2013-04-08-0928-51M.COL___217                                                 6
 STAT SP IPHASW D HRMM SECON CODA AMPLIT PERI AZIMU VELO AIN AR TRES W  DIS CAZ7
 BAR2 SZ EP        935 36.58                             176   -0.0310 9.45 165 
 BAR2 SZ I         935 36.72         6.6 0.18            168           9.45 165 
 GIR2 SZ EP        935 36.89                             162   -0.4010 44.7   1 
 GIR2 SZ I         935 50.13         8.7 0.32            150           44.7   1 
 BRR  HZ EP        935 38.70                             151    0.2110 73.7 310 
 BRR  HN ES        935 55.19                             151    0.1910 73.7 310 
 BRR  HN I         935 57.61        10.0 0.18            147           73.7 310 
 RUS  HZ EP        935 40.21                             147    0.1610 87.5 171 
 RUS  HN ES        935 57.77                             147   -0.0210 87.5 171 
 PTB  HZ EP        935 43.51                             134    0.08 9  139 264 
 PTB  HN ES        936  3.59                             134   -0.21 9  139 264 
                                                                                
