 2014  3 8 0831 25.9 L   6.817 -73.189142.3  RSN  8 0.5 1.8LRSN                1
 GAP=130        1.22       3.5     5.4  9.3  0.1065E+00  0.1500E+02 -0.5942E+00E
 Epicentro: ZAPATOCA - SANTANDER                                               3
 ACTION:UPD 14-04-09 23:15 OP:nd   STATUS:               ID:20140308083125 L   I
 OLDACT:REG 14-03-08 09:11 OP:nd   STATUS:               ID:20140308083043     3
 2014-03-08-0830-43M.COL___229                                                 6
 STAT SP IPHASW D HRMM SECON CODA AMPLIT PERI AZIMU VELO AIN AR TRES W  DIS CAZ7
 PAM  SZ EP        831 48.23                             150    0.3710 79.1  43 
 PAM  SN ES        832  4.69                             150   -0.3010 79.1  43 
 PAM  SZ I         832  7.47       359.8 0.46            155           79.1  43 
 RUS  HZ EP        831 49.44                             142   -0.0510  103 173 
 RUS  HN ES        832  8.38                             142    0.5010  103 173 
 RUS  HZ I         832  9.08         6.7 0.26            148            103 173 
 PTB  HZ EP        831 51.35                             132   -0.84 9  143 258 
 PTB  HN ES        832 12.89                             132    0.19 9  143 258 
 PTB  HZ I         832 20.59         3.9 0.52            133            143 258 
 OCA  HZ EP        831 54.56                             129    0.84 9  158 355 
 OCA  HN ES        832 14.78                             129   -0.64 9  158 355 
 OCA  HZ I         832 21.96         4.4 0.38            132            158 355 
 ZAR  HZ EP        831 57.56                             122   -0.03 9  199 292 
 ZAR  HN ES        832 22.92                             122    0.62 9  199 292 
 ZAR  HZ I         832 30.81         3.4 0.14            124            199 292 
 SML  HZ EP        832  2.23                             117    0.30 8  240 336 
 SML  HN ES        832 29.56                             117   -0.48 8  240 336 
 SML  HZ I         832 33.70         7.9 0.10            120            240 336 
 CHI  HZ EP        832  3.48                             116    0.00 8  249 194 
 CHI  HN ES        832 32.08                             116   -0.71 8  249 194 
 CHI  HZ I         832 36.31         3.1 0.54            120            249 194 
 SJC  HZ EP   4    832 19.43                             105   -1.43 0  405 327 
 SJC  HN ES   4    833  0.45                             105   -3.27 0  405 327 
 SJC  HZ I         833 12.77         0.8 0.36            108            405 327 
                                                                                
