 2013 11 8 0808 14.1 L   6.737 -73.172144.5  RSN  4 0.3 1.1LRSN                1
 GAP=230        0.70       5.5     5.4  5.7  0.1540E+02  0.4490E+01  0.1745E+01E
 Epicentro: VILLANUEVA - SANTANDER                                             3
 ACTION:UPD 14-01-09 16:26 OP:ep   STATUS:               ID:20131108080814 L   I
 OLDACT:REG 13-11-08 07:39 OP:jn   STATUS:               ID:20131108080000     3
 2013-11-08-0800-00M.COL___273                                                 6
 STAT SP IPHASW D HRMM SECON CODA AMPLIT PERI AZIMU VELO AIN AR TRES W  DIS CAZ7
 BAR2 SZ EP   1    8 8 33.20                             173   -0.27 7 16.1 184 
 BAR2 SZ ES        8 8 48.32                             173   -0.2410 16.1 184 
 BAR2 SZ I         8 8 50.13         7.3 0.62            172           16.1 184 
 BRR  HZ EP        8 8 35.15                             152   -0.0410 72.4 304 
 BRR  HE ES        8 8 51.92                             152    0.2810 72.4 304 
 BRR  HZ I         8 8 55.06         2.3 0.44            152           72.4 304 
 RUS  HZ EP        8 8 37.74                             145    0.4710 93.9 174 
 RUS  HN ES        8 8 55.27                             145   -0.0610 93.9 174 
 RUS  HZ I         8 8 57.08         1.6 0.26            147           93.9 174 
 PTB  HZ EP        8 8 40.27                             132   -0.34 9  144 261 
 PTB  HN ES        8 9  1.34                             132    0.05 9  144 261 
 PTB  HZ I         8 9  4.47         1.4 0.50            133            144 261 
                                                                                
