 2017  7 8 0309 45.7 L   6.768 -73.190144.2  RSN  6 0.3 1.2LRSN                1
 GAP=206        0.82       6.7     5.2  6.8  0.2231E+02  0.4866E+01  0.1380E+02E
 Epicentro: LOS SANTOS - SANTANDER                                             3
 ACTION:UPD 17-08-30 15:30 OP:rebc STATUS:               ID:20170708030945 L   I
 OLDACT:UP  17-07-08 14:12 OP:edw  STATUS:               ID:20170708030738     3
 OLDACT:REG 17-07-08 12:35 OP:edw  STATUS:               ID:20170708030738     3
 2017-07-08-0308-00M.COL___374                                                 6
 STAT SP IPHASW D HRMM SECON CODA AMPLIT PERI AZIMU VELO AIN AR TRES W  DIS CAZ7
 BAR2 EZ ES        310 19.68                             172   -0.5110 19.4 177 
 BAR2 EZ I         310 20.49         4.9 0.20            169           19.4 177 
 BRR  HZ EP     D  310  6.52                             153   -0.0410 68.8 303 
 BRR  HN ES        310 23.42                             153    0.6010 68.8 303 
 BRR  HZ I         310 24.08         4.5 0.54            152           68.8 303 
 PTB  HZ EP        310 11.82                             133   -0.24 9  142 260 
 PTB  HN ES        310 32.38                             133   -0.23 9  142 260 
 PTB  HZ I         310 36.70         1.0 0.32            131            142 260 
 YPLC HZ EP        310 15.41                             126    0.08 9  176 149 
 YPLC HN ES        310 38.70                             126    0.28 9  176 149 
 ZAR  HN ES   2    310 42.72                             122    0.01 4  201 294 
 NOR  HE ES   2    310 48.48                             119    0.49 4  229 234 
                                                                                
