 2015  9 8 0540 50.1 L   6.729 -73.171159.0  RSN  4 0.4 1.1LRSN                1
 GAP=229        0.98       6.5     7.9  9.5  0.9233E+01 -0.1376E+02  0.5651E+01E
 Epicentro: VILLANUEVA - SANTANDER                                             3
 ACTION:UPD 15-10-28 16:25 OP:cam  STATUS:               ID:20150908054050 L   I
 OLDACT:REG 15-09-08 13:46 OP:ar   STATUS:               ID:20150908053748     3
 2015-09-08-0537-48M.COL___356                                                 6
 STAT SP IPHASW D HRMM SECON CODA AMPLIT PERI AZIMU VELO AIN AR TRES W  DIS CAZ7
 BRR  HZ EP        541 13.24                             154    0.4110 73.0 305 
 BRR  HN ES        541 30.44                             154   -0.0910 73.0 305 
 BRR  HZ I         541 31.17         2.3 0.14            152           73.0 305 
 RUS  HZ EP        541 14.49                             148   -0.2210 92.9 174 
 RUS  HN ES   1    541 33.87                             148   -0.01 7 92.9 174 
 RUS  HZ I         541 36.02         1.2 0.42            145           92.9 174 
 PTB  HZ EP        541 18.22                             136    0.35 9  144 262 
 PTB  HN ES        541 39.02                             136   -0.48 9  144 262 
 PTB  HZ I         541 46.16         1.6 0.56            132            144 262 
 SPBC HZ EP        541 18.42                             133   -0.56 9  155 220 
 SPBC HN ES        541 42.06                             133    0.58 9  155 220 
 SPBC HZ I         541 48.72         2.4 0.20            130            155 220 
                                                                                
