 2016  1 8 0258 48.7 L   6.763 -73.154141.1  RSN  5 0.4 1.4LRSN                1
 GAP=137        0.99       5.2     5.0  7.3 -0.2348E+01  0.4727E+01  0.1492E+01E
 Epicentro: LOS SANTOS - SANTANDER                                             3
 ACTION:UPD 16-03-09 23:23 OP:cam  STATUS:               ID:20160108025848 L   I
 OLDACT:REG 16-01-08 12:26 OP:drio STATUS:               ID:20160108025742     3
 2016-01-08-0257-42M.COL___280                                                 6
 STAT SP IPHASW D HRMM SECON CODA AMPLIT PERI AZIMU VELO AIN AR TRES W  DIS CAZ7
 BAR2 EZ EP        259  7.50                             172   -0.1410 19.1 190 
 BAR2 EZ ES        259 22.50                             172    0.0510 19.1 190 
 BAR2 EZ I         259 23.20         6.8 0.14            172           19.1 190 
 BRR  HZ EP        259  9.61                             151    0.2410 72.5 302 
 BRR  HN ES        259 26.03                             151    0.5010 72.5 302 
 PAM  EZ EP        259 10.46                             149   -0.1510 81.2  38 
 PAM  EE ES        259 27.45                             149   -0.2810 81.2  38 
 PAM  EZ I         259 29.30         5.4 0.48            150           81.2  38 
 RUS  HZ EP        259 11.51                             144   -0.1410 96.5 175 
 RUS  HN ES        259 29.80                             144    0.2110 96.5 175 
 RUS  HZ I         259 31.09         4.2 0.22            145           96.5 175 
 PTB  HZ EP        259 15.61                             131    0.52 9  146 260 
 PTB  HN ES        259 34.86                             131   -0.85 9  146 260 
 PTB  HZ I         259 37.16         3.4 0.42            132            146 260 
                                                                                
