 2013  6 8 0307 39.6 L   6.855 -73.239123.8  RSN  4 0.5 1.7LRSN                1
 GAP=191        0.95       6.9    12.5 11.6  0.1373E+02 -0.2714E+02 -0.1144E+02E
 Epicentro: ZAPATOCA - SANTANDER                                               3
 ACTION:UPD 14-01-08 09:53 OP:ep   STATUS:               ID:20130608030739 L   I
 OLDACT:UP  13-06-08 13:59 OP:mh   STATUS:               ID:20130608030000     3
 OLDACT:UP  13-06-08 13:58 OP:mh   STATUS:               ID:20130608030000     3
 OLDACT:REG 13-06-08 06:51 OP:mh   STATUS:               ID:20130608030000     3
 2013-06-08-0300-00M.COL___257                                                 6
 STAT SP IPHASW D HRMM SECON CODA AMPLIT PERI AZIMU VELO AIN AR TRES W  DIS CAZ7
 BAR2 SZ EP   1    3 7 56.69                             165   -0.12 7 29.7 168 
 BRR  HZ EP   1    3 7 58.67                             153    0.93 7 59.2 298 
 BRR  HN ES        3 8 11.62                             153   -0.2410 59.2 298 
 BRR  HN I         3 8 16.05        10.7 0.28            142           59.2 298 
 PTB  HZ EP   1    3 8  3.49                             128   -0.58 7  139 256 
 PTB  HN ES   2    3 8 23.68                             128    0.56 5  139 256 
 PTB  HN I         3 8 29.68         5.9 0.40            122            139 256 
 SML  HN ES        3 8 40.80                             113   -0.07 8  234 337 
 SML  HN I         3 8 44.32         6.5 0.10            112            234 337 
                                                                                
