 2012  4 8 0521 14.4 L   6.768 -73.152143.1  RSN  8 0.4 1.8LRSN                1
 GAP=137        0.95       5.9     5.4  8.2  0.7321E+00  0.1321E+02 -0.1554E+01E
 Epicentro: LOS SANTOS - SANTANDER                                             3
 ACTION:UPD 12-07-05 11:51 OP:tino STATUS:               ID:20120408052114 L   I
 2012-04-08-0520-00M.COL___196                                                 6
 STAT SP IPHASW D HRMM SECON CODA AMPLIT PERI AZIMU VELO AIN AR TRES W  DIS CAZ7
 BAR2 SZ EP   1    521 33.48                             172    -0.1 7   20 190 
 BAR2 SZ ES   1    521 48.16                             172    -0.4 7   20 190 
 BAR2 SZ I         521 51.73        19.0 0.63                            20 190 
 BRR  HZ EP        521 35.43                             152     0.110   72 301 
 BRR  HZ I         521 35.82        11.3 0.08                            72 301 
 BRR  HE ES   1    521 52.44                             152     0.8 7   72 301 
 PAM  SZ EP   1    521 36.48                             149     0.0 7   81  38 
 PAM  SZ I         521 36.70         8.3 0.18                            81  38 
 PAM  SE ES   1    521 53.50                             149    -0.2 7   81  38 
 RUS  HZ EP   1    521 37.46                             144    -0.1 7   97 176 
 RUS  HN ES   1    521 56.08                             144     0.4 7   97 176 
 RUS  HZ I         521 57.63         9.5 0.45                            97 176 
 PTB  HN ES   1    522  1.18                             132    -0.6 7  146 260 
 PTB  HZ I         522  4.19         5.5 0.22                           146 260 
 ZAR  HZ EP   1    521 46.30                             122    -0.4 6  205 293 
 ZAR  HN ES   1    522 11.76                             122    -0.2 6  205 293 
 NOR  SN ES   2    522 16.93                             118    -0.2 4  232 235 
 HEL  HZ EP   1    521 55.02                             114     0.8 6  271 256 
 HEL  HZ I         522 32.50         5.1 0.41                           271 256 
                                                                                
