 2013  1 8 0631  5.1 L   6.053 -73.538112.7  RSN  6 0.5 1.9LRSN                1
 GAP=154        1.28       4.5     7.8 14.6  0.1240E+02  0.1785E+01  0.6039E+01E
 Epicentro: GUEPSA - SANTANDER                                                 3
 ACTION:UPD 13-02-15 09:12 OP:ep   STATUS:               ID:20130108063105 L   I
 2013-01-08-0630-00M.COL___238                                                 6
 STAT SP IPHASW D HRMM SECON CODA AMPLIT PERI AZIMU VELO AIN AR TRES W  DIS CAZ7
 BAR2 SZ EP        631 23.85                             145    0.6710 71.4  33 
 BAR2 SZ I         631 40.28        12.7 0.22            147           71.4  33 
 PTB  HN ES        631 43.52                             131    0.4710  115 298 
 PTB  HN I         631 53.48        12.3 0.24            137            115 298 
 BRR  HZ EP        631 26.11                             130   -0.6010  118 351 
 BRR  HN ES        631 43.03                             130   -0.5010  118 351 
 BRR  HN I         631 47.08        24.3 0.16            134            118 351 
 CHI  HZ EP        631 31.79                             121    0.48 9  159 188 
 CHI  HN ES        631 51.12                             121   -0.60 9  159 188 
 CHI  HN I         631 57.31         5.9 0.46            127            159 188 
 ZAR  HZ EP        631 36.98                             113   -0.02 8  216 318 
 ZAR  HE ES        632  2.36                             113    0.51 8  216 318 
 ZAR  HN I         632  9.68        14.5 0.16            117            216 318 
 URE  HN ES        632 16.37                             106   -0.62 7  290 311 
 URE  HN I         632 24.78         7.6 0.26            110            290 311 
                                                                                
