 2016  3 8 0412 54.7 L   6.766 -73.194146.8  RSN  4 0.3 1.0LRSN                1
 GAP=273        0.69       6.6     4.8  5.9  0.8081E+01  0.7851E+01 -0.5916E+00E
 Epicentro: ZAPATOCA - SANTANDER                                               3
 ACTION:UPD 16-05-13 21:22 OP:cam  STATUS:               ID:20160308041254 L   I
 OLDACT:REG 16-03-08 14:08 OP:cara STATUS:               ID:20160308040748     3
 2016-03-08-0407-48M.COL___289                                                 6
 STAT SP IPHASW D HRMM SECON CODA AMPLIT PERI AZIMU VELO AIN AR TRES W  DIS CAZ7
 BAR2 EZ ES        413 29.83                             172    0.1310 19.3 176 
 RUS  HZ EP        413 18.40                             145    0.1110 97.4 173 
 RUS  HE ES        413 36.49                             145   -0.2310 97.4 173 
 RUS  HZ I         413 37.83         1.0 0.30            142           97.4 173 
 PTB  HZ EP        413 21.44                             133    0.25 9  142 260 
 PTB  HN ES        413 41.59                             133   -0.28 9  142 260 
 PTB  HZ I         413 43.97         1.3 0.58            131            142 260 
 SPBC HZ EP        413 22.31                             130   -0.35 9  157 218 
 SPBC HN ES        413 44.87                             130    0.38 9  157 218 
 SPBC HZ I         413 49.12         1.6 0.38            128            157 218 
                                                                                
