 2011  6 8 0900  2.4 L   6.766 -73.111141.1  RSN  6 0.3 1.7LRSN                1
 GAP=186        0.59       4.1     5.8  5.3  0.2860E+01  0.7358E+01  0.1962E+01E
 Epicentro: LOS SANTOS - SANTANDER                                             3
 ACTION:DUP 11-07-14 19:04 OP:ep   STATUS:               ID:20110608090003dL   I
 2011-06-08-0856-40S.COL___129                                                 6
 STAT SP IPHASW D HRMM SECON CODA AMPLIT PERI AZIMU VELO SNR AR TRES W  DIS CAZ7
 BAR2 SZ EP   1    9 0 21.40                             171     0.0 7   21 202 
 BAR2 SZ ES   1    9 0 36.42                             171     0.2 7   21 202 
 BAR2 SZ I         9 0 38.06        13.0 0.13                            21 202 
 BRR  HZ EP        9 0 23.36                             150     0.010   76 300 
 BRR  HN ES   1    9 0 39.77                             150     0.1 7   76 300 
 BRR  HZ I         9 0 42.93        10.0 0.08                            76 300 
 RUS  HZ EP   1    9 0 25.61                             144     0.2 7   97 178 
 RUS  HN ES   1    9 0 42.99                             144    -0.3 7   97 178 
 RUS  HZ I         9 0 46.52         3.9 0.21                            97 178 
 OCA  SZ EP   2    9 0 30.50                             128    -0.2 5  164 352 
 OCA  SZ I         9 0 56.54         8.6 0.40                           164 352 
 NOR  SZ EP   1    9 0 37.47                             117    -0.5 6  236 236 
 NOR  SN ES   1    9 1  5.68                             117     0.0 6  236 236 
 PRA  HZ EP   1    9 0 56.28                             106     0.7 4  391 210 
                                                                                
