 2012  1 8 0553 55.7 L   6.780 -73.613 16.4  RSN  8 0.3 2.2LRSN                1
 GAP=104        0.73       2.1     1.9  5.1  0.8522E+00  0.4376E+01  0.2187E+01E
 Epicentro: EL CARMEN DE CHUCURI - SANTANDER                                   3
 ACTION:UP  12-02-03 08:15 OP:REBC STATUS:               ID:20120108055355 L   I
 2012-01-08-0550-00M.COL___186                                                 6
 STAT SP IPHASW D HRMM SECON CODA AMPLIT PERI AZIMU VELO SNR AR TRES W  DIS CAZ7
 BRR  HZ IP     C  554  2.38                             109     0.110   38 343 
 BRR  HN ES   1    554  7.21                             109    -0.3 7   38 343 
 BRR  HZ I         554  8.92       494.2 0.08                            38 343 
 BAR2 SZ IP        554  4.82                             104     0.210   52 114 
 BAR2 SZ I         554  5.13       152.3 0.18                            52 114 
 BAR2 SZ ES   1    554 11.69                             104     0.1 7   52 114 
 GIR2 SZ EP        554  5.45                             103     0.210   57  55 
 GIR2 SZ ES   2    554 12.05                             103    -0.7 5   57  55 
 PTB  HZ IP     D  554 11.17                              97     0.110   97 254 
 PTB  HE ES   1    554 22.89                              97    -0.2 7   97 254 
 RUS  HZ EP        554 14.41                              96     0.210  114 149 
 RUS  HN ES   1    554 27.98                              96    -0.7 7  114 149 
 RUS  HZ I         554 30.82        53.4 0.33                           114 149 
 PAM  SZ EP   2    554 14.87                              96     0.1 5  118  58 
 PAM  SN ES   2    554 29.32                              96    -0.4 5  118  58 
 ZAR  HZ EP   1    554 19.92                              56     0.2 7  158 300 
 ZAR  HN ES   2    554 38.18                              56    -0.2 5  158 300 
 ZAR  HZ I         554 39.60        23.8 0.24                           158 300 
 HEL  HZ EP   1    554 28.48                              56     0.5 6  222 253 
 HEL  HN ES   2    554 52.42                              56    -0.8 4  222 253 
 HEL  HZ I         554 55.98         9.2 0.19                           222 253 
                                                                                
