 2011  1 8 0013 40.7 L   6.781 -72.928141.9  RSN  4 0.2 1.4LRSN                1
 GAP=205        0.39       2.5    13.5  4.3 -0.5677E+01 -0.3238E+01  0.4692E+00E
 Epicentro: CEPITA - SANTANDER                                                 3
 ACTION:UP  11-02-08 08:39 OP:pat  STATUS:               ID:20110108001340 L   I
 2011-01-08-0011-45S.COL___135                                                 6
 STAT SP IPHASW D HRMM SECON CODA AMPLIT PERI AZIMU VELO SNR AR TRES W  DIS CAZ7
 BAR2 SZ EP   1    014  0.13                             166    -0.1 7   35 233 
 BAR2 SZ I         014  0.83         7.1 0.34                            35 233 
 BAR2 SZ ES   1    014 15.39                             166     0.0 7   35 233 
 RUS  HZ EP   1    014  4.31                             143     0.3 7  100 190 
 RUS  HZ I         014  5.03         3.2 0.34                           100 190 
 RUS  HE ES   1    014 22.11                             143    -0.1 7  100 190 
 OCA  SZ EP   2    014  9.19                             127    -0.2 5  167 345 
 OCA  SZ ES   2    014 31.84                             127     0.1 5  167 345 
 CHI  HZ EP   1    014 18.61                             116    -0.2 6  254 201 
 CHI  HZ I         014 24.76         1.5 0.56                           254 201 
 CHI  HE ES   1    014 48.62                             116     0.1 6  254 201 
                                                                                
