 2011  1 8 0441  4.4 L   6.807 -73.087138.4  RSN 10 0.4 1.9LRSN                1
 GAP=141        0.83       3.1     6.3  7.1 -0.6389E+01  0.1485E+02  0.1282E+00E
 Epicentro: LOS SANTOS - SANTANDER                                             3
 ACTION:UP  11-02-08 08:39 OP:pat  STATUS:               ID:20110108044104 L   I
 2011-01-08-0436-54S.COL___134                                                 6
 STAT SP IPHASW D HRMM SECON CODA AMPLIT PERI AZIMU VELO SNR AR TRES W  DIS CAZ7
 BAR2 SZ IP        441 23.28                             169     0.110   26 204 
 BAR2 SZ ES   1    441 37.91                             169     0.1 7   26 204 
 BAR2 SZ I         441 39.49        24.4 0.31                            26 204 
 RUS  HZ EP   1    441 27.31                             142    -0.1 7  101 180 
 RUS  HN ES   1    441 45.06                             142    -0.4 7  101 180 
 RUS  HZ I         441 47.77        12.6 0.20                           101 180 
 GRA  SZ IP        441 29.04                             136     0.310  123  15 
 GRA  SZ ES   1    441 48.38                             136     0.6 7  123  15 
 GRA  SZ I         441 51.29        19.8 0.31                           123  15 
 OCA  SZ EP   1    441 31.24                             128    -0.9 7  160 351 
 OCA  SZ ES   1    441 53.33                             128    -0.5 7  160 351 
 OCA  SZ I         441 57.92        13.5 0.16                           160 351 
 YOP  SZ EP   2    441 33.74                             125     0.0 4  177 155 
 YOP  SZ I         441 34.51         5.7 0.39                           177 155 
 YOP  SE ES   2    441 56.75                             125     0.2 4  177 155 
 NOR  SZ EP   2    441 39.91                             116    -0.4 4  241 235 
 NOR  SE ES   2    442  8.40                             116     0.0 4  241 235 
 CHI  HZ EP   1    441 41.62                             115    -0.3 6  251 197 
 CHI  HE ES   1    442 11.39                             115     0.1 6  251 197 
 CHI  HZ I         442 14.34         4.9 0.33                           251 197 
 HEL  HZ EP   2    441 45.50                             113     0.6 4  279 256 
 HEL  HE ES   2    442 16.12                             113    -0.5 4  279 256 
 HEL  HZ I         442 22.44         3.5 0.52                           279 256 
 RREF HZ EP   2    441 51.68                             109     0.8 3  327 230 
 RREF HN ES   1    442 27.94                             109     0.9 5  327 230 
 RREF HZ I         442 32.16         3.6 0.12                           327 230 
 PRA  HZ EP   1    441 58.11                             105     0.0 4  396 210 
 PRA  HN ES   2    442 39.60                             105    -0.4 3  396 210 
                                                                                
