 2013  1 8 0312 28.3 L   6.744 -73.156138.6  RSN  6 0.3 2.2LRSN                1
 GAP=196        0.70       2.7     4.1  4.9  0.1264E+00  0.1117E+00  0.1699E+01E
 Epicentro: JORDAN - SANTANDER                                                 3
 ACTION:UPD 13-02-15 09:12 OP:ep   STATUS:               ID:20130108031228 L   I
 2013-01-08-0310-00M.COL___242                                                 6
 STAT SP IPHASW D HRMM SECON CODA AMPLIT PERI AZIMU VELO AIN AR TRES W  DIS CAZ7
 BAR2 SZ EP        312 46.86                             173   -0.0710 17.1 190 
 BAR2 SZ ES        313  1.33                             173   -0.1510 17.1 190 
 BAR2 SZ I         313  3.18        28.0 0.18            169           17.1 190 
 BRR  HZ EP        312 48.80                             150    0.0210 73.4 303 
 BRR  HN ES        313  5.18                             150    0.4010 73.4 303 
 BRR  HN I         313  9.91        29.0 0.20            147           73.4 303 
 PTB  HZ EP        312 54.73                             131    0.27 9  146 261 
 PTB  HN ES        313 14.50                             131   -0.39 9  146 261 
 PTB  HN I         313 19.80        16.5 0.24            129            146 261 
 OCA  HZ EP        312 56.13                             127   -0.48 9  166 354 
 OCA  HN ES        313 18.89                             127    0.17 9  166 354 
 OCA  HN I         313 21.64        39.4 0.34            128            166 354 
 ZAR  HN ES        313 25.43                             121   -0.04 8  205 294 
 ZAR  HN I         313 33.00        14.8 0.14            120            205 294 
 CHI  HZ EP        313  5.29                             116    0.39 8  242 195 
 CHI  HN ES        313 33.38                             116   -0.09 8  242 195 
 CHI  HN I         313 40.40         6.7 0.42            117            242 195 
                                                                                
