 2011 11 8 0001 13.6 L   6.754 -73.080137.4  RSN  5 0.1 1.5LRSN                1
 GAP=147        0.39       2.5     3.3  4.0 -0.1757E+01 -0.3489E+00  0.2240E+00E
 Epicentro: LOS SANTOS - SANTANDER                                             3
 ACTION:UPD 12-07-13 16:08 OP:ep   STATUS:               ID:20111108000114dL   I
 2011-11-07-2359-40S.COL___166                                                 6
 STAT SP IPHASW D HRMM SECON CODA AMPLIT PERI AZIMU VELO AIN AR TRES W  DIS CAZ7
 BAR2 SZ EP   1    0 1 32.13                             171   -0.02 7 21.2 212 
 BAR2 SZ ES   1    0 1 46.52                             171   -0.12 7 21.2 212 
 BAR2 SZ I         0 1 49.32         9.7 0.25                          21.2 212 
 PAM  SZ EP        0 1 35.08                             149    0.1910 77.2  33 
 PAM  SN ES   1    0 1 51.34                             149   -0.18 7 77.2  33 
 BRR  HZ EP   1    0 1 34.17                             148   -0.19 7 80.0 299 
 BRR  HZ I         0 1 47.11        11.4 0.41                          80.0 299 
 BRR  HN ES   1    0 1 50.75                             148    0.17 7 80.0 299 
 RUS  HZ EP   1    0 1 36.00                             143   -0.11 7 95.3 180 
 RUS  HE ES   1    0 1 53.84                             143    0.14 7 95.3 180 
 RUS  HZ I         0 1 55.55         2.9 0.40                          95.3 180 
 NOR  SE ES   2    0 2 16.84                             116   -0.08 4  238 236 
                                                                                
