 2014  8 8 0641 44.8 L   6.793 -73.165139.3  RSN  7 0.5 1.5LRSN                1
 GAP=134        1.39       5.6     5.8  8.8 -0.8386E+00  0.1376E+02  0.8196E+00E
 Epicentro: LOS SANTOS - SANTANDER                                             3
 ACTION:UPD 14-09-15 21:47 OP:nd   STATUS:               ID:20140808064144 L   I
 OLDACT:REG 14-08-08 13:24 OP:spq  STATUS:               ID:20140808063811     3
 2014-08-08-0638-11M.COL___251                                                 6
 STAT SP IPHASW D HRMM SECON CODA AMPLIT PERI AZIMU VELO AIN AR TRES W  DIS CAZ7
 BAR2 SZ IP     D  642  3.92                             170    0.3210 22.3 185 
 BAR2 SZ ES        642 18.06                             170   -0.2310 22.3 185 
 BAR2 SZ I         642 20.54         8.2 0.16            170           22.3 185 
 BRR  HZ IP     D  642  5.60                             152    0.4710 69.7 300 
 BRR  HN ES        642 22.13                             152    1.1110 69.7 300 
 BRR  HZ I         642 24.19         4.1 0.46            151           69.7 300 
 PAM  SZ IP     D  642  6.49                             149    0.0710 79.3  40 
 PAM  SZ I         642  6.69        13.4 0.14            153           79.3  40 
 PAM  SN ES        642 22.86                             149   -0.4410 79.3  40 
 RUS  HZ EP        642  7.70                             143   -0.1510  100 175 
 RUS  HN ES        642 25.32                             143   -0.5310  100 175 
 RUS  HZ I         642 27.98         3.2 0.30            145            100 175 
 PTB  HZ EP        642 10.55                             131   -0.46 9  146 259 
 PTB  HN ES        642 31.13                             131   -0.35 9  146 259 
 PTB  HZ I         642 33.98         4.8 0.12            131            146 259 
 SPBC HZ EP        642 12.93                             128    0.33 9  161 219 
 SPBC HE ES        642 34.85                             128    0.55 9  161 219 
 SPBC HZ I         642 37.88         5.1 0.24            129            161 219 
 ZAR  HZ EP        642 16.85                             121    0.22 9  202 293 
 ZAR  HN ES        642 40.35                             121   -1.12 9  202 293 
 ZAR  HZ I         642 47.26         3.7 0.42            122            202 293 
                                                                                
