 2016  8 8 0359 42.2 L   6.780 -73.151150.0  RSN  8 0.5 1.6LRSN                1
 GAP=235        1.03       5.8     6.6  7.2  0.1526E+02  0.1296E+02  0.7585E+00E
 Epicentro: LOS SANTOS - SANTANDER                                             3
 ACTION:UPD 16-10-29 15:33 OP:rebc STATUS:               ID:20160808035942 L   I
 OLDACT:REG 16-08-08 12:39 OP:dnl  STATUS:               ID:20160808035736     3
 2016-08-08-0358-00M.COL___365                                                 6
 STAT SP IPHASW D HRMM SECON CODA AMPLIT PERI AZIMU VELO AIN AR TRES W  DIS CAZ7
 BAR2 EZ EP        4 0  2.28                             172   -0.0510 21.1 190 
 BAR2 EZ ES        4 0 17.64                             172   -0.3710 21.1 190 
 BAR2 EZ I         4 0 18.62        14.2 0.86                          21.1 190 
 BRR  HZ EP   2    4 0  4.11                             153    0.24 5 71.8 300 
 BRR  HN ES        4 0 21.66                             153    0.9110 71.8 300 
 BRR  HZ I         4 0 23.95         7.3 0.18                          71.8 300 
 RUS  HZ EP   2    4 0  6.16                             145   -0.09 5 98.5 176 
 RUS  HN ES        4 0 24.83                             145   -0.1610 98.5 176 
 RUS  HZ I         4 0 26.58         2.7 0.40                          98.5 176 
 PTB  HZ EP        4 0  9.18                             133   -0.29 9  147 260 
 PTB  HN ES        4 0 30.10                             133   -0.61 9  147 260 
 PTB  HZ I         4 0 36.34         5.6 0.58                           147 260 
 SPBC HZ EP        4 0 11.29                             131    0.42 9  161 219 
 SPBC HN ES        4 0 33.64                             131    0.43 9  161 219 
 SPBC HZ I         4 0 40.43         9.5 0.36                           161 219 
 ZAR  HZ EP        4 0 14.51                             123   -0.48 9  204 293 
 ZAR  HE ES        4 0 40.43                             123   -0.11 9  204 293 
 ZAR  HZ I         4 0 46.78         5.9 0.18                           204 293 
 GUY2CHZ EP   2    4 0 26.81                             113    0.96 4  299 235 
 GUY2CHN ES   3    4 1  0.12                             113    0.25 2  299 235 
 GUY2CHZ I         4 1  9.39         2.2 0.28                           299 235 
 SJC  HZ EP   4    4 0 36.26                             106   -1.85 0  411 327 
 SJC  HN ES   4    4 1 19.01                             106   -2.69 0  411 327 
 SJC  HZ I         4 1 26.47         0.7 0.28                           411 327 
                                                                                
