 2010  8 8 0320 16.5 L   6.757 -72.994138.7  RSN  6 0.5 1.4LRSN                1
 GAP=176        0.77       7.2    10.7 12.7 -0.4327E+01 -0.6122E+02 -0.2355E+02E
 Epicentro: CEPITA - SANTANDER                                                 3
 ACTION:UP  10-09-07 10:53 OP:vdl  STATUS:               ID:20100808032017 L   I
 2010-08-08-0319-14S.COL___125                                                 6
 STAT SP IPHASW D HRMM SECON CODA AMPLIT PERI AZIMU VELO SNR AR TRES W  DIS CAZ7
 BAR2 SZ ES   3    320 51.47                             169     1.3 2   28 229 
 BTL  SZ EP   1    320 36.22                             166     0.6 7   35 301 
 BRR  HZ EP        320 37.83                             146    -0.210   88 296 
 BRR  HN ES   1    320 54.69                             146    -0.1 7   88 296 
 BRR  HZ I         320 55.92         4.5 0.07                            88 296 
 RUS  HE ES   2    320 56.40                             143    -0.6 5   96 186 
 GUE  SZ EP   1    320 41.11                             136     0.3 7  119   4 
 GUE  SZ ES   2    320 59.21                             136    -0.5 5  119   4 
 GRA  SZ EP   1    320 41.08                             134    -0.1 7  126  10 
                                                                                
