 2013 10 8 0825 31.9 L   6.800 -73.117149.0  RSN 15 0.5 2.1LRSN                1
 GAP=140        1.02       2.8     4.1  6.0 -0.1897E+01  0.5913E+01  0.2339E+01E
 Epicentro: LOS SANTOS - SANTANDER                                             3
 ACTION:UPD 13-11-25 09:20 OP:ep   STATUS:               ID:20131008082531 L   I
 OLDACT:REG 13-10-08 07:53 OP:mh   STATUS:               ID:20131008081959     3
 2013-10-08-0819-59M.COL___273                                                 6
 STAT SP IPHASW D HRMM SECON CODA AMPLIT PERI AZIMU VELO AIN AR TRES W  DIS CAZ7
 BAR2 SZ EP   1    825 52.14                             170    0.19 7 24.1 197 
 BAR2 SZ ES   1    826  6.68                             170   -0.90 7 24.1 197 
 BAR2 SZ I         826  8.21        29.5 0.26            168           24.1 197 
 BRR  HZ EP   1    825 53.94                             152    0.37 7 73.9 297 
 BRR  HN ES        826 11.29                             152    0.8310 73.9 297 
 BRR  HZ I         826 15.63        14.8 0.12            144           73.9 297 
 PAM  SZ EP   1    825 54.98                             152    0.62 7 75.4  38 
 PAM  SN ES        826 12.12                             152    0.2510 75.4  38 
 PAM  SZ I         826 14.07        34.9 0.52            149           75.4  38 
 RUS  HZ EP   1    825 56.01                             144    0.03 7  100 178 
 RUS  HN ES   1    826 14.44                             144   -0.31 7  100 178 
 RUS  HZ I         826 17.10         6.2 0.30            140            100 178 
 PTB  HZ EP   1    825 58.78                             132   -0.65 7  151 259 
 PTB  HN ES        826 20.28                             132   -0.60 9  151 259 
 PTB  HZ I         826 27.06        26.2 0.40            125            151 259 
 OCA  HZ EP   1    826  0.37                             130   -0.14 7  161 352 
 OCA  HN ES        826 22.72                             130   -0.10 9  161 352 
 OCA  HZ I         826 31.16        16.0 0.48            124            161 352 
 SPBC HZ EP   1    826  1.09                             129    0.24 7  165 220 
 SPBC HN ES        826 23.08                             129   -0.34 9  165 220 
 SPBC HZ I         826 30.64        17.6 0.18            123            165 220 
 ZAR  HZ EP   1    826  4.71                             123   -0.16 6  207 292 
 ZAR  HN ES        826 30.76                             123    0.19 8  207 292 
 ZAR  HZ I         826 35.96        23.4 0.44            116            207 292 
 NOR  HZ EP   1    826  8.20                             119    0.09 6  237 235 
 NOR  HE ES        826 36.60                             119    0.26 8  237 235 
 NOR  HZ I         826 41.39        13.1 0.30            113            237 235 
 SML  HZ EP   1    826  8.44                             118   -0.42 6  245 335 
 SML  HN ES        826 36.79                             118   -0.89 8  245 335 
 SML  HZ I         826 47.03        16.5 0.50            112            245 335 
 CHI  HZ EP        826 10.25                             118    0.36 8  250 196 
 CHI  HN ES        826 39.38                             118   -0.13 8  250 196 
 CHI  HZ I         826 49.33         4.0 0.44            113            250 196 
 HEL  HZ EP   4    826 14.44                             115    1.81 0  275 256 
 HEL  HN ES        826 45.24                             115    0.85 8  275 256 
 HEL  HZ I         826 50.94         9.9 0.32            110            275 256 
 GUY2CHZ EP   4    826 17.01                             113    1.05 0  304 235 
 GUY2CHN ES   4    826 53.18                             113    2.86 0  304 235 
 GUY2CHZ I         826 58.93         8.9 0.68                           304 235 
 CBOC HZ EP   1    826 19.16                             110   -0.15 5  337 252 
 CBOC HZ I         827  4.25         3.1 0.40            105            337 252 
 PRA  HZ EP   4    826 27.15                             107    1.42 0  394 210 
 PRA  HN ES        827  7.50                             107   -0.21 6  394 210 
 PRA  HZ I         827 11.58         4.9 0.54            103            394 210 
 SJC  HZ EP   4    826 25.85                             106   -1.93 0  411 327 
 SJC  HN ES   4    827  6.25                             106   -5.11 0  411 327 
                                                                                
