 2012  8 8 0450 49.7 L   6.744 -73.186147.6  RSN  4 0.3 1.2LRSN                1
 GAP=228        0.55       5.8     5.5  5.9  0.1558E+02  0.3297E+01  0.9936E+00E
 Epicentro: VILLANUEVA - SANTANDER                                             3
 ACTION:UPD 12-09-10 11:55 OP:ep   STATUS:               ID:20120808045049 L   I
 2012-08-08-0450-00M.COL___216                                                 6
 STAT SP IPHASW D HRMM SECON CODA AMPLIT PERI AZIMU VELO AIN AR TRES W  DIS CAZ7
 BAR2 SZ EP   1    451  9.37                             173   -0.09 7 16.8 179 
 BAR2 SZ ES   1    451 24.42                             173   -0.43 7 16.8 179 
 BAR2 SZ I         451 25.82         8.2 0.15                          16.8 179 
 BRR  HZ EP   1    451 11.10                             153    0.07 7 70.6 305 
 BRR  HN ES   1    451 28.00                             153    0.34 7 70.6 305 
 BRR  HZ I         451 38.01         3.1 0.36                          70.6 305 
 RUS  HZ EP   1    451 13.14                             146   -0.11 7 94.8 173 
 RUS  HE ES   1    451 31.97                             146    0.37 7 94.8 173 
 RUS  HZ I         451 33.20         1.1 0.26                          94.8 173 
 PTB  HZ EP   1    451 16.39                             134    0.04 7  142 261 
 PTB  HN ES   1    451 36.90                             134   -0.22 7  142 261 
                                                                                
