 2016 12 8 0048 54.6 L   6.744 -73.212156.2  RSN  4 0.3 1.3LRSN                1
 GAP=131        0.73       5.7     5.7  7.2  0.1419E+02 -0.5607E+01 -0.3936E+01E
 Epicentro: VILLANUEVA - SANTANDER                                             3
 ACTION:UPD 17-01-11 20:13 OP:rebc STATUS:               ID:20161208004854 L   I
 OLDACT:REG 16-12-08 12:36 OP:ar   STATUS:               ID:20161208004743     3
 2016-12-08-0048-00M.COL___370                                                 6
 STAT SP IPHASW D HRMM SECON CODA AMPLIT PERI AZIMU VELO AIN AR TRES W  DIS CAZ7
 BRR  HZ EP        049 16.78                             155    0.0210 68.3 306 
 BRR  HN ES        049 34.30                             155    0.2710 68.3 306 
 PAM  EZ EP   2    049 17.74                             150   -0.77 5 86.8  41 
 RUS  HZ EP        049 19.31                             147    0.2510 95.2 171 
 RUS  HN ES        049 37.99                             147   -0.1210 95.2 171 
 PTB  HZ EP        049 21.92                             136    0.17 9  139 261 
 PTB  HN ES        049 42.48                             136   -0.43 9  139 261 
 PTB  HZ I         049 50.27         2.3 0.46            131            139 261 
                                                                                
