 2017  7 8 0855 27.1 L   6.806 -73.144145.7  RSN  7 0.4 1.6LRSN                1
 GAP=112        0.92       4.2     4.1  6.1  0.5023E+01  0.1835E+01  0.4343E+01E
 Epicentro: LOS SANTOS - SANTANDER                                             3
 ACTION:UPD 17-08-30 15:31 OP:rebc STATUS:               ID:20170708085527 L   I
 OLDACT:UP  17-07-08 20:30 OP:edw  STATUS:               ID:20170708084745d    3
 OLDACT:DUP 17-07-08 20:25 OP:edw  STATUS:               ID:20170708084745d    3
 OLDACT:UP  17-07-08 20:24 OP:edw  STATUS:               ID:20170708084744     3
 OLDACT:UP  17-07-08 20:23 OP:edw  STATUS:               ID:20170708084744     3
 OLDACT:REG 17-07-08 13:34 OP:edw  STATUS:               ID:20170708084744     3
 2017-07-08-0848-00M.COL___368                                                 6
 STAT SP IPHASW D HRMM SECON CODA AMPLIT PERI AZIMU VELO AIN AR TRES W  DIS CAZ7
 BAR2 EZ IP     C  855 46.43                             170   -0.3210 24.0 190 
 BAR2 EZ ES        856  2.20                             170    0.1410 24.0 190 
 BAR2 EZ I         856  3.68         7.1 0.26            166           24.0 190 
 BRR  HZ EP        855 48.16                             152   -0.0910 71.1 298 
 BRR  HN ES        856  5.39                             152    0.6610 71.1 298 
 BRR  HZ I         856  8.31         8.4 0.48            153           71.1 298 
 PAM  EE ES        856  6.16                             151   -0.4210 76.8  40 
 PTB  HZ EP   9    855 53.47                             132   -0.63 0  148 259 
 PTB  HN ES        856 14.23                             132   -0.29 9  148 259 
 PTB  HZ I         856 15.53         3.2 0.28            132            148 259 
 SPBC HN ES        856 17.50                             129   -0.43 9  164 219 
 SPBC HZ I         856 24.42         5.6 0.24            128            164 219 
 YPLC HZ EP        855 57.00                             126    0.05 9  177 151 
 YPLC HN ES        856 20.52                             126    0.30 9  177 151 
 YPLC HZ I         856 24.54         5.6 0.32            127            177 151 
 ZAR  HZ EP        856  0.01                             122    0.46 9  204 292 
 ZAR  HN ES        856 24.54                             122   -0.31 9  204 292 
 ZAR  HZ I         856 27.34         2.9 0.26            123            204 292 
                                                                                
