 2017  2 8 0556 42.6 L   6.774 -73.162149.5  RSN  7 0.3 1.4LRSN                1
 GAP=219        0.66       3.7     4.5  4.8  0.5473E+01  0.4723E+01  0.4245E+01E
 Epicentro: LOS SANTOS - SANTANDER                                             3
 ACTION:UPD 17-05-24 15:33 OP:jn   STATUS:               ID:20170208055642 L   I
 OLDACT:UP  17-02-08 17:42 OP:edw  STATUS:               ID:20170208054743     3
 OLDACT:REG 17-02-08 12:38 OP:edw  STATUS:               ID:20170208054743     3
 2017-02-08-0548-00M.COL___322                                                 6
 STAT SP IPHASW D HRMM SECON CODA AMPLIT PERI AZIMU VELO AIN AR TRES W  DIS CAZ7
 BAR2 EZ EP        557  2.43                             172   -0.1910 20.2 186 
 BAR2 EZ ES        557 18.03                             172   -0.2110 20.2 186 
 BAR2 EZ I         557 19.21         5.6 0.30            163           20.2 186 
 BRR  HZ EP        557  4.44                             153    0.2910 71.0 301 
 BRR  HN ES        557 21.38                             153    0.4310 71.0 301 
 PTB  HZ EP        557  9.78                             133    0.11 9  145 260 
 PTB  HN ES        557 30.41                             133   -0.37 9  145 260 
 PTB  HZ I         557 37.54         1.8 0.20            129            145 260 
 ZAR  HZ EP   4    557 17.04                             123    1.81 0  203 293 
 ZAR  HN ES        557 40.68                             123   -0.00 9  203 293 
 ZAR  HZ I         557 45.93         1.9 0.11            122            203 293 
 CHI  HZ EP        557 20.07                             118   -0.09 8  245 195 
 CHI  HN ES   4    557 46.73                             118   -2.72 0  245 195 
 CHI  HZ I         557 53.69         1.1 0.64            117            245 195 
 PRA  HZ EP   4    557 36.42                             107    0.56 0  389 210 
 PRA  HE ES        558 17.64                             107    0.25 6  389 210 
 PRA  HZ I         558 24.95         1.3 0.40            107            389 210 
 SJC  HZ EP   4    557 35.83                             106   -2.63 0  411 327 
 SJC  HN ES        558 21.63                             106   -0.39 6  411 327 
                                                                                
