 2011 12 8 0402 42.2 L   6.717 -73.149129.5  RSN  6 0.4 1.9LRSN                1
 GAP=140        0.69       5.5     6.0  8.0  0.3465E+01  0.1357E+02  0.9173E+01E
 Epicentro: VILLANUEVA - SANTANDER                                             3
 ACTION:UPD 12-07-13 16:14 OP:ep   STATUS:               ID:20111208040242 L   I
 2011-12-08-0400-00M.COL___170                                                 6
 STAT SP IPHASW D HRMM SECON CODA AMPLIT PERI AZIMU VELO AIN AR TRES W  DIS CAZ7
 BAR2 SZ EP   1    4 2 59.81                             173    0.07 7 14.3 195 
 BAR2 SZ ES   1    4 3 12.77                             173   -0.63 7 14.3 195 
 BAR2 SZ I         4 3 15.90        30.5 0.29                          14.3 195 
 BRR  HZ IP     C  4 3  1.98                             147    0.0410 75.8 305 
 BRR  HZ I         4 3  2.43        36.9 0.10                          75.8 305 
 BRR  HE ES   1    4 3 17.71                             147    0.40 7 75.8 305 
 PAM  SZ I         4 3  3.29        15.1 0.16                          84.9  36 
 PAM  SN ES   2    4 3 19.32                             145   -0.32 5 84.9  36 
 RUS  HZ EP   1    4 3  3.76                             143    0.03 7 91.4 175 
 RUS  HE ES   2    4 3 21.33                             143    0.84 5 91.4 175 
 RUS  HZ I         4 3 23.45         8.1 0.26                          91.4 175 
 NOR  SN ES   2    4 3 42.81                             115   -0.36 4  229 236 
 HEL  HN ES   2    4 3 51.65                             111   -0.29 4  270 258 
 HEL  HZ I         4 4  1.69         3.8 0.32                           270 258 
                                                                                
