 2017  7 8 0342 55.2 L   6.616 -73.176133.5  RSN  4 0.2 1.3LRSN                1
 GAP=243        0.51       6.5     4.8  5.1 -0.9474E+00  0.9669E+01  0.2588E+01E
 Epicentro: BARICHARA - SANTANDER                                              3
 ACTION:UPD 17-08-30 15:30 OP:rebc STATUS:               ID:20170708034255 L   I
 OLDACT:REG 17-07-08 12:48 OP:edw  STATUS:               ID:20170708033739     3
 2017-07-08-0338-00M.COL___368                                                 6
 STAT SP IPHASW D HRMM SECON CODA AMPLIT PERI AZIMU VELO AIN AR TRES W  DIS CAZ7
 BAR2 EZ ES        343 27.05                             179    0.0010 2.69 196 
 BAR2 EZ I         343 28.81         6.0 0.28            174           2.69 196 
 BRR  HZ EP     D  343 15.36                             147   -0.2510 80.4 313 
 BRR  HN ES        343 31.68                             147    0.1410 80.4 313 
 BRR  HZ I         343 33.47         4.3 0.40            148           80.4 313 
 PTB  HZ EP        343 20.91                             130    0.28 9  142 267 
 PTB  HN ES        343 40.32                             130   -0.16 9  142 267 
 PTB  HZ I         343 44.26         1.8 0.20            131            142 267 
 ZAR  HE ES   3    343 52.61                             119   -0.02 2  210 298 
                                                                                
