 2017  1 8 0015 40.8 L   6.748 -73.185142.0  RSN  5 0.3 1.2LRSN                1
 GAP=229        0.73       6.3     6.4  8.6  0.2617E+02  0.2379E+02  0.8182E+01E
 Epicentro: VILLANUEVA - SANTANDER                                             3
 ACTION:UPD 17-05-22 15:56 OP:jn   STATUS:               ID:20170108001540 L   I
 OLDACT:UP  17-01-08 13:06 OP:dnl  STATUS:               ID:20170108000743     3
 OLDACT:REG 17-01-08 12:23 OP:dnl  STATUS:               ID:20170108000743     3
 2017-01-08-0008-00M.COL___380                                                 6
 STAT SP IPHASW D HRMM SECON CODA AMPLIT PERI AZIMU VELO AIN AR TRES W  DIS CAZ7
 BAR2 EZ EP   2    016  0.24                             173    0.33 5 17.2 179 
 BAR2 EZ ES        016 14.71                             173   -0.0710 17.2 179 
 BAR2 EZ I         016 17.84         4.2 0.34            177           17.2 179 
 BRR  HZ EP   2    016  1.90                             152    0.35 5 70.5 304 
 BRR  HE ES        016 17.93                             152    0.2310 70.5 304 
 BRR  HZ I         016 24.76         5.3 0.30            150           70.5 304 
 RUS  HZ EP   2    016  4.10                             145    0.26 5 95.2 173 
 RUS  HN ES        016 21.53                             145   -0.2510 95.2 173 
 RUS  HZ I         016 23.73         1.2 0.16            151           95.2 173 
 PTB  HZ EP   2    016  6.97                             132   -0.06 5  142 261 
 PTB  HN ES        016 27.84                             132    0.39 9  142 261 
 PTB  HZ I         016 30.39         1.9 0.20            134            142 261 
 ZAR  HE ES        016 37.20                             122   -0.65 9  202 294 
 ZAR  HZ I         016 45.32         1.7 0.14            123            202 294 
                                                                                
