 2015  1 8 0152 55.4 L   6.809 -73.189142.1  RSN  9 0.4 1.8LRSN                1
 GAP=131        0.93       2.7     3.8  5.1  0.3994E+00  0.4475E+01  0.5124E-01E
 Epicentro: ZAPATOCA - SANTANDER                                               3
 ACTION:UPD 15-03-02 15:37 OP:nd   STATUS:               ID:20150108015255 L   I
 OLDACT:REG 15-01-08 13:02 OP:cam  STATUS:               ID:20150108014819     3
 2015-01-08-0148-19M.COL___271                                                 6
 STAT SP IPHASW D HRMM SECON CODA AMPLIT PERI AZIMU VELO AIN AR TRES W  DIS CAZ7
 BAR2 EZ EP        153 14.74                             170    0.1110 23.9 178 
 BAR2 EZ ES        153 29.55                             170   -0.0510 23.9 178 
 BAR2 EZ I         153 30.90        11.9 0.18            169           23.9 178 
 BRR  HZ EP        153 16.18                             153    0.2610 66.6 300 
 BRR  HN ES        153 31.61                             153   -0.2910 66.6 300 
 BRR  HN I         153 34.17        25.8 0.32            152           66.6 300 
 PAM  SZ EP        153 17.67                             149    0.2710 79.8  43 
 PAM  SN ES        153 34.50                             149   -0.0410 79.8  43 
 PAM  SZ I         153 36.79        12.4 0.52            154           79.8  43 
 RUS  HZ EP        153 18.74                             143   -0.1810  102 173 
 RUS  HN ES        153 37.38                             143    0.1410  102 173 
 RUS  HZ I         153 38.42         4.6 0.26            144            102 173 
 PTB  HZ EP        153 21.76                             132    0.07 9  143 258 
 PTB  HN ES        153 41.90                             132   -0.27 9  143 258 
 PTB  HZ I         153 45.14         3.8 0.10            132            143 258 
 SPBC HZ EP        153 23.63                             129    0.20 9  161 217 
 SPBC HN ES        153 45.59                             129    0.31 9  161 217 
 SPBC HZ I         153 54.17         7.6 0.26            129            161 217 
 ZAR  HZ EP        153 28.01                             122    0.87 9  199 292 
 ZAR  HN ES        153 51.84                             122   -0.03 9  199 292 
 ZAR  HZ I         153 57.80         5.1 0.32            123            199 292 
 SML  HZ EP        153 31.08                             117   -0.46 8  241 336 
 SML  HN ES        153 59.54                             117   -0.17 8  241 336 
 SML  HZ I         154  2.65         9.9 0.10            118            241 336 
 CHI  HZ EP        153 31.72                             116   -1.17 8  248 194 
 CHI  HN ES        154  2.19                             116    0.08 8  248 194 
 CHI  HZ I         154  5.71         3.7 0.58            118            248 194 
                                                                                
