 2015  8 8 0150 16.7 L   6.818 -73.086143.6  RSN  8 0.4 1.9LRSN                1
 GAP=143        1.01       3.4     5.0  6.1  0.1079E+01  0.1017E+02 -0.1990E+01E
 Epicentro: LOS SANTOS - SANTANDER                                             3
 ACTION:UPD 15-09-15 23:00 OP:cam  STATUS:               ID:20150808015016 L   I
 OLDACT:UP  15-08-08 16:06 OP:mh   STATUS:               ID:20150808014747     3
 OLDACT:UP  15-08-08 16:04 OP:mh   STATUS:               ID:20150808014747     3
 OLDACT:REG 15-08-08 13:04 OP:mh   STATUS:               ID:20150808014747     3
 2015-08-08-0147-47M.COL___358                                                 6
 STAT SP IPHASW D HRMM SECON CODA AMPLIT PERI AZIMU VELO AIN AR TRES W  DIS CAZ7
 BAR2 EZ EP        150 35.94                             169   -0.2310 27.1 203 
 BAR2 EZ ES        150 50.75                             169   -0.5910 27.1 203 
 BAR2 EZ I         150 54.49        13.6 0.42            170           27.1 203 
 PAM  EZ EP        150 39.13                             152    0.7510 71.8  36 
 PAM  EN ES        150 55.68                             152    0.4110 71.8  36 
 PAM  EZ I         150 58.45         8.0 0.36            155           71.8  36 
 BRR  HZ EP        150 38.12                             150    0.1910 76.2 295 
 BRR  HN ES        150 55.03                             150    0.5610 76.2 295 
 BRR  HZ I         150 58.87        12.5 0.30            150           76.2 295 
 RUS  HZ EP        150 40.32                             143   -0.0610  102 180 
 RUS  HN ES        150 58.54                             143   -0.3010  102 180 
 RUS  HZ I         150 58.75         7.6 0.24            147            102 180 
 OCA  HZ EP   1    150 44.41                             129   -0.36 7  159 351 
 OCA  HN ES        151  6.27                             129   -0.37 9  159 351 
 OCA  HZ I         151  9.10        25.9 0.32            131            159 351 
 ZAR  HZ EP        150 49.34                             121   -0.25 8  209 291 
 ZAR  HN ES        151 15.41                             121    0.19 8  209 291 
 ZAR  HZ I         151 20.49        11.5 0.36            123            209 291 
 SML  HZ EP        150 53.08                             117   -0.26 8  245 334 
 SML  HN ES        151 21.36                             117   -0.55 8  245 334 
 SML  HZ I         151 24.35        15.1 0.10            119            245 334 
 URE  HN ES   4    151 27.80                             113   -2.92 0  289 291 
 GUY2CHZ EP        151  1.23                             111    0.27 7  308 235 
 GUY2CHN ES   1    151 36.04                             111    0.57 5  308 235 
 GUY2CHZ I         151 41.43         2.0 0.24                           308 235 
                                                                                
