 2014  8 8 0006 58.3 L   6.804 -73.179138.9  RSN 14 0.3 1.6LRSN                1
 GAP=132        0.78       2.2     2.9  4.7 -0.1134E+01  0.3560E+01  0.1766E+01E
 Epicentro: ZAPATOCA - SANTANDER                                               3
 ACTION:UPD 14-09-15 21:47 OP:nd   STATUS:               ID:20140808000658 L   I
 OLDACT:UP  14-08-08 18:40 OP:spq  STATUS:               ID:20140808000050d    3
 OLDACT:DUP 14-08-08 18:20 OP:spq  STATUS:               ID:20140808000050d    3
 2014-08-08-0000-49M.COL___260                                                 6
 STAT SP IPHASW D HRMM SECON CODA AMPLIT PERI AZIMU VELO AIN AR TRES W  DIS CAZ7
 BAR2 SZ EP        0 7 17.20                             170    0.0410 23.4 181 
 BAR2 SZ ES   1    0 7 31.52                             170   -0.31 7 23.4 181 
 BAR2 SZ I         0 7 33.75         8.3 0.22            170           23.4 181 
 BRR  HZ EP        0 7 18.97                             152    0.4110 67.8 300 
 BRR  HE ES        0 7 34.62                             152    0.2910 67.8 300 
 BRR  HZ I         0 7 39.75         5.5 0.29            151           67.8 300 
 PAM  SZ EP        0 7 20.42                             149    0.4510 79.5  42 
 PAM  SE ES        0 7 36.36                             149   -0.4810 79.5  42 
 PAM  SZ I         0 7 39.69        11.0 0.48            153           79.5  42 
 RUS  HZ EP        0 7 21.61                             142    0.1310  101 174 
 RUS  HN ES   1    0 7 40.00                             142    0.47 7  101 174 
 RUS  HZ I         0 7 41.42         5.1 0.32            145            101 174 
 PTB  HZ EP        0 7 24.05                             131   -0.39 9  144 258 
 PTB  HE ES        0 7 45.01                             131    0.22 9  144 258 
 PTB  HZ I         0 7 47.33         3.2 0.16            132            144 258 
 OCA  HE ES        0 7 47.51                             128   -0.16 9  159 354 
 OCA  HZ I         0 7 53.09         3.8 0.14            130            159 354 
 SPBC HZ EP        0 7 25.91                             128   -0.23 9  161 218 
 SPBC HN ES        0 7 47.37                             128   -0.44 9  161 218 
 SPBC HZ I         0 7 51.11         6.9 0.36            129            161 218 
 ZAR  HZ EP        0 7 30.06                             121    0.08 9  200 292 
 ZAR  HN ES        0 7 55.12                             121    0.46 9  200 292 
 ZAR  HZ I         0 8  2.01         2.0 0.14            122            200 292 
 NOR  HZ EP   1    0 7 33.46                             117    0.07 6  232 234 
 NOR  HN ES        0 8  0.66                             117   -0.06 8  232 234 
 NOR  HZ I         0 8  4.09         3.1 0.16            119            232 234 
 SML  HZ EP   1    0 7 34.27                             116   -0.12 6  242 336 
 SML  HN ES   1    0 8  1.87                             116   -0.64 6  242 336 
 SML  HZ I         0 8  4.61         8.5 0.10            118            242 336 
 CHI  HZ EP   1    0 7 35.51                             116   -0.10 6  248 194 
 CHI  HN ES   1    0 8  4.80                             116    0.12 6  248 194 
 CHI  HZ I         0 8  8.82         2.9 0.44            118            248 194 
 HEL  HN ES        0 8  7.98                             114   -0.65 8  269 256 
 HEL  HZ I         0 8 14.95         3.5 0.36            115            269 256 
 GUY2CHZ EP   1    0 7 41.65                             111    0.32 5  298 234 
 GUY2CHE ES   1    0 8 15.43                             111    0.57 5  298 234 
 GUY2CHZ I         0 8 23.58         2.5 0.26                           298 234 
 PRA  HE ES        0 8 32.62                             105   -0.28 6  391 209 
 PRA  HZ I         0 8 42.00         2.1 0.42            107            391 209 
                                                                                
