 2011  5 8 0705 56.8 L   6.105 -74.187  4.0  RSN  5 0.5 1.1LRSN                1
 GAP=131        0.98       4.9     4.7 10.6 -0.1309E+02  0.3271E+02 -0.1688E+02E
 Epicentro: CIMITARRA - SANTANDER                                              3
 *NOR-BRR-RUS-HEL                                                              3
 ACTION:UP  11-06-29 08:51 OP:tino STATUS:               ID:20110508070214 L   I
 2011-05-08-0702-14S.COL___133                                                 6
 STAT SP IPHASW D HRMM SECON CODA AMPLIT PERI AZIMU VELO SNR AR TRES W  DIS CAZ7
 NOR  SN ES   1    7 6 23.87                              96    -0.1 7   96 232 
 BRR  HZ EP   1    7 6 15.68                              94    -0.3 7  123  25 
 BRR  HZ I         7 6 16.31         3.1 0.08                           123  25 
 BRR  HN ES   1    7 6 30.68                              94    -0.2 7  123  25 
 RUS  HZ EP   1    7 6 16.90                              95     0.2 7  124 101 
 RUS  HZ I         7 6 17.58         3.5 0.12                           124 101 
 RUS  HN ES   2    7 6 31.59                              95    -0.7 5  124 101 
 BTL  SZ EP   1    7 6 18.90                              94     0.7 7  136  48 
 HEL  HZ EP   1    7 6 20.87                              56     0.6 7  149 274 
 HEL  HZ I         7 6 36.87         2.9 0.54                           149 274 
 HEL  HN ES   1    7 6 38.07                              56    -0.6 7  149 274 
                                                                                
