 2016  9 8 0349  2.7 L   5.855 -73.670122.4  RSN  6 0.4 1.1LRSN                1
 GAP=157        1.01       7.9     5.5  8.4 -0.2604E+02  0.4198E+01 -0.3557E+01E
 Epicentro: PUENTE NACIONAL - SANTANDER                                        3
 ACTION:UPD 17-08-17 21:07 OP:lp   STATUS:               ID:20160908034902 L   I
 OLDACT:UP  16-09-08 14:43 OP:dani STATUS:               ID:20160908034734     3
 OLDACT:REG 16-09-08 12:21 OP:dani STATUS:               ID:20160908034734     3
 2016-09-08-0348-00M.COL___348                                                 6
 STAT SP IPHASW D HRMM SECON CODA AMPLIT PERI AZIMU VELO AIN AR TRES W  DIS CAZ7
 SPBC HZ EP        349 19.60                             156   -0.6910 49.9 243 
 SPBC HE ES        349 33.85                             156   -0.1610 49.9 243 
 SPBC HZ I         349 34.71         7.0 0.80            157           49.9 243 
 RUS  HZ EP        349 21.47                             151   -0.2310 65.1  86 
 RUS  HN ES   2    349 36.62                             151    0.10 5 65.1  86 
 RUS  HZ I         349 37.20         1.4 0.36            152           65.1  86 
 BAR2 EZ EP        349 23.74                             139    0.0910 97.7  33 
 BAR2 EZ ES        349 40.42                             139    0.4310 97.7  33 
 BAR2 EZ I         349 40.91         5.9 0.40            140           97.7  33 
 PTB  HZ EP        349 24.70                             133   -0.1310  115 311 
 PTB  HE ES   2    349 41.27                             133   -0.82 5  115 311 
 PTB  HZ I         349 43.00         1.0 0.15            134            115 311 
 NOR  HE ES        349 46.32                             128    0.63 9  137 256 
 GUY2CHZ EP        349 34.37                             117    0.43 9  200 250 
 GUY2CHZ I         350  4.50         0.9 0.44                           200 250 
                                                                                
