 2013  8 8 0450 11.0 L   6.755 -73.065145.5  RSN  5 0.2 1.1LRSN                1
 GAP=149        0.56       4.1     5.4  5.8 -0.4276E+01  0.5499E+01 -0.2289E+01E
 Epicentro: LOS SANTOS - SANTANDER                                             3
 ACTION:UPD 14-01-14 09:00 OP:ep   STATUS:               ID:20130808045011 L   I
 OLDACT:REG 13-08-08 07:23 OP:jn   STATUS:               ID:20130808044959     3
 2013-08-08-0449-59M.COL___270                                                 6
 STAT SP IPHASW D HRMM SECON CODA AMPLIT PERI AZIMU VELO AIN AR TRES W  DIS CAZ7
 BAR2 SZ EP        450 30.63                             171    0.0510 22.2 216 
 BAR2 SZ ES   1    450 45.32                             171   -0.52 7 22.2 216 
 BAR2 SZ I         450 47.41         2.4 0.52            170           22.2 216 
 GIR2 SZ EP   1    450 30.64                             164   -0.22 7 38.5 338 
 PAM  SZ EP   1    450 33.20                             151    0.08 7 76.2  32 
 PAM  SN ES        450 50.44                             151    0.0810 76.2  32 
 PAM  SZ I         450 52.07         2.7 0.24            154           76.2  32 
 BRR  HZ EP        450 32.63                             149   -0.1010 81.5 299 
 BRR  HN ES   1    450 50.00                             149    0.32 7 81.5 299 
 BRR  HZ I         450 53.47         3.8 0.12            149           81.5 299 
 RUS  HN ES   1    450 52.85                             145    0.28 7 95.4 181 
 RUS  HZ I         450 53.83         1.6 0.22            149           95.4 181 
                                                                                
