 2012  2 8 0608 55.9 L   6.779 -73.161142.1  RSN  7 0.4 1.7LRSN                1
 GAP=136        0.88       5.7     5.1  9.2  0.2562E+01  0.8326E+01  0.1064E+02E
 ACTION:UP  12-03-07 16:28 OP:epov STATUS:               ID:20120208060855 L   I
 2012-02-08-0606-00S.MAN___181                                                 6
 STAT SP IPHASW D HRMM SECON CODA AMPLIT PERI AZIMU VELO AIN AR TRES W  DIS CAZ7
 BAR2 SZ EP   1    6 9 14.92                             171   -0.12 7 20.8 186 
 BAR2 SZ I         6 9 31.59         8.7 0.26                          20.8 186 
 BRR  HZ EP        6 9 16.88                             152    0.2410 70.9 301 
 BRR  HN ES   1    6 9 33.69                             152    0.88 7 70.9 301 
 BRR  HZ I         6 9 36.84        10.4 0.17                          70.9 301 
 PAM  SZ EP   1    6 9 17.89                             149   -0.02 7 80.3  39 
 PAM  SN ES   1    6 9 34.55                             149   -0.52 7 80.3  39 
 RUS  HZ EP   1    6 9 19.44                             144    0.30 7 98.4 175 
 RUS  HE ES   1    6 9 37.21                             144   -0.05 7 98.4 175 
 RUS  HZ I         6 9 39.45         4.6 0.31                          98.4 175 
 PTB  HZ EP   1    6 9 21.85                             132   -0.53 7  146 260 
 PTB  HN ES   1    6 9 42.33                             132   -0.70 7  146 260 
 ZAR  HE ES   1    6 9 53.07                             122   -0.04 6  203 293 
 ZAR  HZ I         6 9 58.97         7.2 0.26                           203 293 
 PRA  HZ EP   1    6 9 49.50                             106    0.54 4  389 210 
                                                                                
