 2014  1 8 0047 24.4 L   7.451 -73.466106.0  RSN  7 0.4 1.8LRSN                1
 GAP= 88        1.06       2.9     3.8  8.7  0.1299E+01  0.1400E+02  0.4858E+01E
 Epicentro: SABANA DE TORRES - SANTANDER                                       3
 ACTION:UPD 14-03-13 09:52 OP:ep   STATUS:               ID:20140108004724 L   I
 OLDACT:REG 14-01-08 07:19 OP:carl STATUS:               ID:20140108004000     3
 2014-01-08-0040-00M.COL___285                                                 6
 STAT SP IPHASW D HRMM SECON CODA AMPLIT PERI AZIMU VELO AIN AR TRES W  DIS CAZ7
 PAM  SZ EP        047 43.30                             139    0.0710 85.5  98 
 PAM  SN ES        047 58.17                             139    0.2610 85.5  98 
 OCA  HZ EP        047 42.91                             137   -0.1110 88.6  11 
 OCA  HN ES        047 57.63                             137    0.1010 88.6  11 
 OCA  HZ I         047 59.77        18.7 0.36            141           88.6  11 
 BAR2 SZ EP        047 43.95                             133   -0.1810  100 162 
 BAR2 SZ ES        047 59.49                             133   -0.0010  100 162 
 BAR2 SZ I         047 59.99        17.6 0.12            135            100 162 
 PTB  HZ EP        047 48.19                             121   -0.41 9  149 227 
 PTB  HN ES        048  6.73                             121   -0.72 9  149 227 
 PTB  HZ I         048 13.96         4.3 0.18            121            149 227 
 ZAR  HZ EP        047 49.92                             120    0.82 9  154 272 
 ZAR  HN ES        048  9.09                             120    0.73 9  154 272 
 ZAR  HZ I         048 13.43        10.0 0.26            120            154 272 
 SML  HZ EP        047 49.67                             118   -0.46 9  163 336 
 SML  HN ES        048  9.79                             118   -0.39 9  163 336 
 SML  HZ I         048 13.15        11.2 0.10            120            163 336 
 CHI  HZ EP        048  8.28                             103    0.38 7  313 185 
 CHI  HN ES        048 41.91                             103    0.09 7  313 185 
 CHI  HZ I         048 52.10         1.8 0.40            104            313 185 
                                                                                
