 2012  3 8 0726 37.2 L   6.797 -73.194135.2  RSN  7 0.4 1.7LRSN                1
 GAP=232        0.89       5.9     6.4  8.5  0.1774E+02  0.1815E+02  0.7078E+01E
 ACTION:UP  12-03-31 23:18 OP:EP   STATUS:               ID:20120308072637 L   I
 2012-03-08-0720-00M.COL___194                                                 6
 STAT SP IPHASW D HRMM SECON CODA AMPLIT PERI AZIMU VELO SNR AR TRES W  DIS CAZ7
 BAR2 SZ EP   1    726 54.97                             170    -0.6 7   23 177 
 BAR2 SZ ES   1    727  9.36                             170    -0.5 7   23 177 
 BAR2 SZ I         727 11.98         5.3 0.18                            23 177 
 BRR  HZ EP   1    726 57.35                             152     0.4 7   67 301 
 BRR  HZ I         726 57.71        12.8 0.12                            67 301 
 BRR  HN ES   1    727 13.04                             152     0.7 7   67 301 
 RUS  HZ EP   1    727  0.12                             141     0.2 7  101 173 
 RUS  HN ES   1    727 17.89                             141     0.2 7  101 173 
 PTB  HZ EP   1    727  2.44                             131    -0.4 7  142 259 
 PTB  HN ES   1    727 22.41                             131    -0.4 7  142 259 
 ZAR  HZ EP   1    727  8.55                             121     0.1 6  199 293 
 ZAR  HN ES   1    727 33.04                             121     0.2 6  199 293 
 ZAR  HZ I         727 39.33        10.6 0.29                           199 293 
 CHI  HE ES   1    727 43.57                             115     0.6 6  247 194 
 HEL  HN ES   1    727 46.62                             113    -0.2 6  267 256 
                                                                                
