 2017  8 8 0041  2.2 L   6.801 -73.139140.6  RSN 17 0.6 2.3LRSN                1
 GAP=112        1.10       3.6     3.7  5.7  0.1883E+01  0.8562E+01  0.4389E+01E
 Epicentro: LOS SANTOS - SANTANDER                                             3
 ACTION:UPD 17-09-04 20:17 OP:rebc STATUS:               ID:20170808004102 L   I
 OLDACT:UP  17-08-08 14:10 OP:dani STATUS:               ID:20170808003741     3
 OLDACT:UP  17-08-08 14:09 OP:dani STATUS:               ID:20170808003741     3
 OLDACT:UP  17-08-08 14:09 OP:dani STATUS:               ID:20170808003741     3
 OLDACT:UP  17-08-08 14:08 OP:dani STATUS:               ID:20170808003741     3
 OLDACT:REG 17-08-08 12:55 OP:dani STATUS:               ID:20170808003741     3
 2017-08-08-0038-00M.COL___390                                                 6
 STAT SP IPHASW D HRMM SECON CODA AMPLIT PERI AZIMU VELO AIN AR TRES W  DIS CAZ7
 BAR2 HZ EP        041 21.04                             170   -0.1710 23.5 192 
 BAR2 HZ ES        041 35.40                             170   -0.6310 23.5 192 
 BRR  HZ IP     C  041 22.97                             151    0.1410 71.8 298 
 BRR  HN ES        041 39.58                             151    0.6710 71.8 298 
 BRR  HZ I         041 44.89        44.3 0.24            152           71.8 298 
 PAM  EZ EP        041 24.04                             149    0.2110 76.8  39 
 PAM  EN ES        041 40.85                             149    0.1510 76.8  39 
 PAM  EZ I         041 45.43        22.7 0.36            154           76.8  39 
 RUS  HZ EP        041 25.20                             143   -0.2410  101 176 
 RUS  HN ES        041 43.00                             143   -0.5710  101 176 
 PTB  HZ EP        041 27.95                             130   -0.87 9  149 259 
 PTB  HN ES   3    041 48.30                             130   -1.28 2  149 259 
 PTB  HZ I         041 50.85        21.4 0.16            132            149 259 
 SPBC HZ EP        041 30.33                             128   -0.03 9  164 219 
 SPBC HE ES        041 52.34                             128    0.02 9  164 219 
 SPBC HZ I         041 55.88        34.4 0.26            130            164 219 
 YPLC HZ EP        041 31.63                             125    0.04 9  177 152 
 YPLC HN ES        041 55.23                             125    0.72 9  177 152 
 YPLC HZ I         041 56.06        14.2 0.30            129            177 152 
 ZAR  HZ EP        041 34.26                             121   -0.12 9  205 292 
 ZAR  HN ES        042  0.28                             121    0.80 9  205 292 
 ZAR  HZ I         042  6.00        32.6 0.26            123            205 292 
 NOR  HZ EP        041 37.18                             117   -0.52 8  235 235 
 NOR  HN ES        042  4.89                             117   -0.51 8  235 235 
 NOR  HZ I         042  7.83        19.3 0.28            119            235 235 
 CHI  HZ EP   3    041 38.36                             116   -1.28 2  249 195 
 CHI  HN ES   3    042 10.14                             116    1.29 2  249 195 
 CHI  HZ I         042 13.03         6.1 0.58            119            249 195 
 HEL  HZ EP   3    041 43.39                             113    1.15 2  273 256 
 HEL  HN ES   4    042 11.09                             113   -2.38 0  273 256 
 HEL  HZ I         042 20.32        10.0 0.36            116            273 256 
 GUY2CHZ EP        041 46.50                             111    0.85 7  302 235 
 GUY2CHE ES   3    042 20.57                             111    1.03 2  302 235 
 GUY2CHZ I         042 26.44        13.6 0.26                           302 235 
 LL6C HZ EP   3    041 46.07                             109   -1.61 2  325 357 
 CBOC HZ EP        041 49.95                             109    0.96 7  334 252 
 CBOC HN ES        042 24.89                             109   -0.60 7  334 252 
 CBOC HZ I         042 27.19         4.4 0.28            111            334 252 
 DBB  EZ EP        041 49.41                             108   -0.15 7  340 274 
 DBB  EN ES        042 26.31                             108   -0.19 7  340 274 
 DBB  EZ I         042 27.06         7.3 0.18            110            340 274 
 PRA  HZ EP        041 55.88                             105    0.28 6  392 210 
 PRA  HE ES        042 38.17                             105    0.93 6  392 210 
 PRA  HZ I         042 43.08         7.8 0.46            108            392 210 
 SJC  HZ EP   3    041 55.94                             104   -1.70 1  410 327 
 SJC  HN ES   4    042 37.16                             104   -3.72 0  410 327 
 SJC  HZ I         042 40.54         7.1 0.58            107            410 327 
                                                                                
