 2010  8 8 0334  6.1 L   6.812 -73.082138.2  RSN  8 0.3 1.7LRSN                1
 GAP=166        0.48       2.4     5.8  4.3 -0.4747E+01 -0.1096E+01 -0.1847E-01E
 Epicentro: LOS SANTOS - SANTANDER                                             3
 ACTION:UP  10-09-07 10:53 OP:vdl  STATUS:               ID:20100808033406 L   I
 2010-08-08-0330-59S.COL___125                                                 6
 STAT SP IPHASW D HRMM SECON CODA AMPLIT PERI AZIMU VELO SNR AR TRES W  DIS CAZ7
 BAR2 SZ EP        334 24.79                             168    -0.110   27 205 
 BAR2 SZ ES   1    334 39.20                             168    -0.3 7   27 205 
 GIR2 SZ EP   3    334 24.81                             166    -0.1 2   32 337 
 GIR2 SZ ES   3    334 39.34                             166    -0.2 2   32 337 
 BRR  HZ EP        334 26.65                             149    -0.110   77 295 
 BRR  HE ES   2    334 43.36                             149     0.5 5   77 295 
 RUS  HZ EP        334 29.30                             142     0.110  102 180 
 RUS  HN ES   2    334 47.53                             142     0.4 5  102 180 
 RUS  HZ I         334 50.94         2.3 0.11                           102 180 
 GUE  SZ EP   1    334 29.84                             138     0.0 7  114   9 
 GUE  SZ ES   1    334 48.49                             138     0.0 7  114   9 
 GRA  SZ EP        334 30.62                             136     0.210  123  15 
 GRA  SZ ES   1    334 49.01                             136    -0.3 7  123  15 
 GRA  SZ I         334 51.08         8.9 0.44                           123  15 
 OCA  SZ EP   1    334 33.81                             128     0.0 7  160 351 
 PRA  HZ EP   2    334 59.65                             105    -0.2 3  397 210 
 PRA  HN ES   3    335 40.71                             105    -1.1 1  397 210 
 PRA  HZ I         335 47.66         3.2 0.29                           397 210 
                                                                                
