 2013  3 8 0702 10.3 L   6.320 -73.797 96.2  RSN  4 0.2 1.5LRSN                1
 GAP=168        0.56       3.1     2.4  5.7  0.2682E+01  0.1545E+01  0.3618E+01E
 Epicentro: LANDAZURI - SANTANDER                                              3
 ACTION:UPD 13-04-09 14:00 OP:ep   STATUS:               ID:20130308070210 L   I
 2013-03-08-0658-43M.COL___200                                                 6
 STAT SP IPHASW D HRMM SECON CODA AMPLIT PERI AZIMU VELO AIN AR TRES W  DIS CAZ7
 BAR2 SZ EP        7 2 27.17                             140    0.2510 74.4  66 
 BAR2 SZ ES        7 2 40.20                             140    0.2810 74.4  66 
 BAR2 SZ I         7 2 41.20        22.4 0.24            136           74.4  66 
 PTB  HZ EP        7 2 26.86                             138    0.0510 76.9 288 
 PTB  HZ I         7 2 26.96         8.2 0.18            138           76.9 288 
 PTB  HN ES        7 2 39.81                             138    0.0810 76.9 288 
 BRR  HZ EP        7 2 27.53                             134   -0.1710 87.6   6 
 BRR  HN ES        7 2 41.08                             134   -0.2310 87.6   6 
 BRR  HN I         7 2 50.51        10.2 0.26            130           87.6   6 
 RUS  HZ EP        7 2 28.75                             134   -0.0210 92.0 121 
 RUS  HZ I         7 2 29.29         4.5 0.14            136           92.0 121 
 RUS  HN ES        7 2 42.96                             134   -0.2510 92.0 121 
                                                                                
