 2015  4 8 0739 28.7 L   6.332 -73.588113.8  RSN  4 0.1 1.6LRSN                1
 GAP=182        0.37       4.2     2.7  3.7 -0.9037E+01 -0.2946E+00  0.1960E+01E
 Epicentro: SANTA HELENA DEL OPON - SANTANDER                                  3
 ACTION:UPD 15-06-03 16:53 OP:cam  STATUS:               ID:20150408073928 L   I
 OLDACT:UP  15-04-08 16:50 OP:mh   STATUS:               ID:20150408073747     3
 OLDACT:UP  15-04-08 16:49 OP:mh   STATUS:               ID:20150408073747     3
 OLDACT:REG 15-04-08 13:19 OP:akv  STATUS:               ID:20150408073747     3
 2015-04-08-0737-47M.COL___257                                                 6
 STAT SP IPHASW D HRMM SECON CODA AMPLIT PERI AZIMU VELO AIN AR TRES W  DIS CAZ7
 BAR2 EZ EP        739 45.54                             153   -0.2210 53.2  57 
 BAR2 EZ ES        739 59.10                             153    0.0710 53.2  57 
 BAR2 EZ I         740  0.24        14.0 0.32            152           53.2  57 
 PTB  HN ES   1    740  4.19                             136   -0.06 7 98.8 283 
 PTB  HZ I         740  5.19         9.1 0.12            135           98.8 283 
 PAM  SZ EP        739 54.07                             124    0.07 9  148  41 
 PAM  SN ES        740 13.75                             124    0.05 9  148  41 
 PAM  SZ I         740 18.09         3.1 0.48            123            148  41 
 NOR  HZ EP   1    739 55.27                             120    0.09 7  165 239 
 NOR  HN ES   1    740 15.90                             120    0.09 7  165 239 
 NOR  HZ I         740 17.36         6.3 0.16            120            165 239 
                                                                                
