 2014  2 8 0211 24.0 L   6.814 -73.156147.7  RSN  8 0.4 1.8LRSN                1
 GAP=154        0.87       3.2     4.1  7.2 -0.3243E+01  0.4942E+01  0.2981E+01E
 Epicentro: LOS SANTOS - SANTANDER                                             3
 ACTION:UPD 14-03-10 08:08 OP:ep   STATUS:               ID:20140208021124 L   I
 OLDACT:UP  14-02-08 10:57 OP:mh   STATUS:               ID:20140208021000     3
 OLDACT:REG 14-02-08 07:30 OP:mh   STATUS:               ID:20140208021000     3
 2014-02-08-0210-00M.COL___291                                                 6
 STAT SP IPHASW D HRMM SECON CODA AMPLIT PERI AZIMU VELO AIN AR TRES W  DIS CAZ7
 PAM  SZ EP        211 46.48                             151    0.0510 76.9  41 
 PAM  SN ES        212  4.04                             151    0.1410 76.9  41 
 PAM  SZ I         212  6.24         8.5 0.16            158           76.9  41 
 PTB  HZ EP   1    211 50.88                             133   -0.21 7  147 258 
 PTB  HN ES        212 11.81                             133   -0.37 9  147 258 
 PTB  HZ I         212 17.91         7.8 0.14            134            147 258 
 SPBC HZ EP   1    211 52.85                             129    0.12 7  164 218 
 SPBC HN ES        212 15.33                             129    0.22 9  164 218 
 SPBC HZ I         212 20.90        10.2 0.19            132            164 218 
 ZAR  HZ EP   1    211 56.72                             123    0.28 6  202 292 
 ZAR  HN ES        212 22.23                             123    0.52 9  202 292 
 ZAR  HZ I         212 28.48         4.5 0.15            126            202 292 
 NOR  HZ EP   1    211 59.45                             119   -0.42 6  235 234 
 NOR  HN ES   1    212 28.04                             119    0.21 6  235 234 
 NOR  HZ I         212 31.79         4.0 0.26            122            235 234 
 SML  HZ EP        212  0.93                             118    0.36 8  242 335 
 SML  HN ES   1    212 27.64                             118   -1.42 6  242 335 
 SML  HZ I         212 30.90         9.8 0.06            122            242 335 
 CHI  HZ EP        212  1.87                             117   -0.10 8  250 195 
 CHI  HN ES        212 31.18                             117   -0.38 8  250 195 
 CHI  HZ I         212 34.40         1.5 0.21            121            250 195 
 GUY2CHZ EP   1    212  8.25                             113    0.52 5  301 234 
 GUY2CHE ES   4    212 45.09                             113    3.28 0  301 234 
 GUY2CHZ I         212 50.65         3.5 0.37                           301 234 
                                                                                
