 2012  7 8 0945 19.5 L   6.761 -72.986140.0  RSN  4 0.4 1.0LRSN                1
 GAP=160        0.81       6.2     8.6 10.0 -0.5092E+01 -0.1373E+01 -0.9660E+01E
 Epicentro: CEPITA - SANTANDER                                                 3
 ACTION:UPD 12-08-14 11:43 OP:ep   STATUS:               ID:20120708094519 L   I
 2012-07-08-0940-00M.COL___201                                                 6
 STAT SP IPHASW D HRMM SECON CODA AMPLIT PERI AZIMU VELO AIN AR TRES W  DIS CAZ7
 BAR2 SZ EP   1    945 38.78                             168     0.2 7   29 229 
 BAR2 SZ ES   1    945 53.97                             168     0.5 7   29 229 
 BAR2 SZ I         945 54.83         2.5 0.30                            29 229 
 PAM  SZ EP   1    945 41.17                             152     0.4 7   71  26 
 PAM  SN ES   1    945 56.94                             152    -0.4 7   71  26 
 BRR  HZ EP   1    945 40.83                             146    -0.3 7   89 296 
 BRR  HN ES   1    945 58.04                             146     0.0 7   89 296 
 RUS  HN ES   1    945 59.92                             144    -0.4 7   97 186 
 RUS  HZ I         946  2.95         1.4 0.45                            97 186 
