 2015 11 8 0727 59.0 L   6.838 -73.160144.7  RSN 29 0.5 2.9LRSN                1
 GAP= 69        1.17       2.3     2.8  4.5 -0.1290E+01  0.2761E+01  0.2762E-01E
 Epicentro: LOS SANTOS - SANTANDER                                             3
 ACTION:UPD 15-12-28 16:09 OP:cam  STATUS:               ID:20151108072759 L   I
 OLDACT:REG 15-11-08 15:32 OP:cara STATUS:               ID:20151108071744     3
 2015-11-08-0717-44M.COL___298                                                 6
 STAT SP IPHASW D HRMM SECON CODA AMPLIT PERI AZIMU VELO AIN AR TRES W  DIS CAZ7
 BAR2 EZ EP     D  728 18.68                             169    0.0610 27.3 185 
 BAR2 EZ ES        728 32.90                             169   -1.0010 27.3 185 
 BAR2 EZ I         728 34.86       161.2 0.18            170           27.3 185 
 BRR  HZ EP     C  728 20.45                             154    0.5610 67.9 296 
 BRR  HN ISg       728 36.35                             154    0.2010 67.9 296 
 BRR  HN ES        728 37.31                             154    1.1610 67.9 296 
 BRR  HZ I         728 38.59        76.2 0.14            149           67.9 296 
 PAM  EZ EP        728 21.59                             151    0.5810 75.2  42 
 PAM  EN ES        728 38.58                             151    0.4310 75.2  42 
 PAM  EZ I         728 40.84       196.0 0.50            147           75.2  42 
 RUS  HZ EP        728 22.62                             143   -0.3810  105 175 
 RUS  HN ES        728 41.59                             143   -0.0910  105 175 
 RUS  HZ I         728 42.36       113.5 0.24            141            105 175 
 OCA  HZ EP        728 26.72                             130   -0.14 9  156 354 
 OCA  HN ES        728 48.55                             130   -0.01 9  156 354 
 OCA  HZ I         728 55.00       139.0 0.42            125            156 354 
 TAM  HZ EP        728 27.04                             130    0.17 9  158 106 
 TAM  HE ES        728 48.78                             130    0.20 9  158 106 
 SPBC HZ EP        728 27.48                             128   -0.19 9  166 218 
 SPBC HN ES        728 49.44                             128   -0.57 9  166 218 
 SPBC HZ I         728 52.18       167.1 0.38            125            166 218 
 ZAR  HZ EP        728 31.07                             123   -0.03 9  201 291 
 ZAR  HN ES        728 56.03                             123   -0.09 9  201 291 
 ZAR  HZ I         729  1.92        70.2 0.42            118            201 291 
 NOR  HZ EP        728 34.69                             118   -0.14 8  236 233 
 NOR  HN ES        729  2.03                             118   -0.73 8  236 233 
 NOR  HZ I         729 10.49        79.0 0.14            115            236 233 
 SML  HZ EP        728 34.96                             118   -0.16 8  239 335 
 SML  HN ES        729  3.21                             118   -0.06 8  239 335 
 SML  HZ I         729  6.99       118.2 0.28            114            239 335 
 CHI  HZ EP        728 36.86                             117   -0.21 8  252 195 
 CHI  HE ES        729  6.15                             117   -0.59 8  252 195 
 CHI  HZ I         729  9.57        52.1 0.46            114            252 195 
 ROSC BZ EP        728 38.39                             116    0.99 8  256 210 
 ROSC BN ES        729  7.60                             116    0.27 8  256 210 
 ROSC BZ I         729 16.76        68.9 0.30            113            256 210 
 HEL  HZ EP        728 39.62                             115    0.47 8  272 255 
 HEL  HN ES        729  9.72                             115   -0.71 8  272 255 
 HEL  HZ I         729 16.59        43.6 0.28            111            272 255 
 URE  HZ EP   4    728 38.38                             114   -1.34 0  281 291 
 URE  HE ES   4    729  9.15                             114   -2.30 0  281 291 
 URE  HZ I         729 21.32        49.2 0.24            110            281 291 
 PTGC HZ EP   4    728 41.82                             111   -1.53 0  313 159 
 PTGC HN ES   4    729 14.32                             111   -3.60 0  313 159 
 PTGC HZ I         729 20.10        66.9 0.26            108            313 159 
 ELA  HZ EP   4    728 47.67                             110    1.65 0  331 229 
 ELA  HN ES        729 22.26                             110   -0.41 7  331 229 
 ELA  HZ I         729 31.27        24.1 0.24            107            331 229 
 CBOC HZ EP        728 46.42                             110    0.53 7  333 251 
 CBOC HN ES        729 22.36                             110   -0.07 7  333 251 
 CBOC HZ I         729 26.96         9.9 0.40            107            333 251 
 DBB  SZ EP        728 46.04                             109   -0.22 7  338 274 
 DBB  SZ ES   4    729 21.44                             109   -1.65 0  338 274 
 DBB  SZ I         729 26.49       108.6 0.32            106            338 274 
 MON  HZ EP   4    728 45.71                             109   -1.85 0  350 308 
 MON  HN ES        729 24.33                             109   -1.07 6  350 308 
 MON  HZ I         729 40.58        14.0 0.32            105            350 308 
 ARGC HZ EP        728 48.82                             108    0.69 6  355 340 
 ARGC HN ES        729 26.53                             108    0.10 6  355 340 
 ARGC HZ I         729 38.84        16.7 0.24            105            355 340 
 SDV  BZ EP        728 48.41                             108   -0.46 6  359  51 
 SDV  BN ES        729 27.09                             108   -0.64 6  359  51 
 SDV  BZ I         729 28.90        16.0 0.30            105            359  51 
 ANIL HZ EP   4    728 49.99                             108    0.97 0  359 224 
 ANIL HN ES        729 28.55                             108    0.54 6  359 224 
 ORTC HZ EP        728 53.04                             106   -0.17 6  398 216 
 ORTC HN ES        729 36.36                             106    0.90 6  398 216 
 ORTC HZ I         729 40.00        26.4 0.32            103            398 216 
 SJC  HZ EP   4    728 52.35                             106   -1.70 0  405 327 
 SJC  HN ES   4    729 33.83                             106   -3.13 0  405 327 
 SJC  HZ I         729 41.16        13.5 0.42            103            405 327 
 CVALLEE ES        729 36.19                             106   -0.95 6  406 358 
 PAL  HZ EP        728 54.21                             106   -0.05 6  407 238 
 PAL  HN ES        729 38.14                             106    0.81 6  407 238 
 PAL  HZ I         729 42.64        15.9 0.70            103            407 238 
 GUA  SZ EP   4    729  1.30                             103   -1.38 0  478 173 
 GUA  SN ES   4    729 48.72                             103   -3.59 0  478 173 
 GUA  SZ I         729 57.45        32.6 0.24            101            478 173 
 MACC HZ EP   4    729  5.86                             101   -2.33 0  524 188 
 MACC HN ES   4    729 57.05                             101   -5.07 0  524 188 
 MACC HZ I         730  1.05         7.7 0.72             99            524 188 
 URI  HZ EP   4    729  9.08                             101   -2.49 0  553  13 
 URI  HE ES        730  6.71                             101   -1.43 4  553  13 
 GARC HZ EP   4    729 12.58                             100   -2.05 0  576 207 
 GARC HE ES   4    730 10.54                             100   -3.05 0  576 207 
                                                                                
