 2011  2 8 0520 57.4 L   6.771 -73.092143.9  RSN  7 0.2 1.8LRSN                1
 GAP=165        0.36       2.1     4.5  4.4 -0.3988E+01  0.8831E+01 -0.1207E+01E
 Epicentro: LOS SANTOS - SANTANDER                                             3
 ACTION:UP  11-03-28 15:06 OP:jfem STATUS:               ID:20110208052057 L   I
 2011-02-08-0520-00M.COL___140                                                 6
 STAT SP IPHASW D HRMM SECON CODA AMPLIT PERI AZIMU VELO SNR AR TRES W  DIS CAZ7
 BAR2 SZ IP        521 16.82                             171     0.010   22 207 
 BAR2 SZ ES   2    521 31.76                             171    -0.1 5   22 207 
 BAR2 SZ I         521 33.18        26.9 0.18                            22 207 
 RUS  HZ EP   1    521 20.74                             144     0.0 7   97 179 
 RUS  HN ES   2    521 38.71                             144    -0.2 5   97 179 
 RUS  HZ I         521 41.20         6.4 0.46                            97 179 
 GRA  SZ EP   1    521 22.74                             136     0.1 7  127  14 
 GRA  SZ ES   2    521 42.36                             136     0.1 5  127  14 
 GRA  SZ I         521 45.20         6.9 0.37                           127  14 
 OCA  SZ EP   1    521 25.62                             128    -0.3 7  164 351 
 OCA  SZ ES   2    521 48.35                             128     0.1 5  164 351 
 OCA  SZ I         521 50.80        11.1 0.20                           164 351 
 NOR  SZ EP   1    521 33.29                             118    -0.1 6  238 236 
 NOR  SN ES   2    522  1.67                             118     0.3 4  238 236 
 CHI  HZ EP   1    521 35.03                             117     0.2 6  247 197 
 CHI  HE ES   2    522  3.99                             117     0.0 4  247 197 
 CHI  HZ I         522  7.47         3.4 0.47                           247 197 
 HEL  HZ EP   1    521 37.97                             114    -0.1 6  277 257 
 HEL  HZ I         522 16.00         3.4 0.37                           277 257 
                                                                                
