 2015  6 8 0938 10.4 L   6.375 -73.747 49.2  RSN  5 0.4 1.2LRSN                1
 GAP=111        0.94       3.1     3.8 16.6 -0.2007E+01  0.4092E+02 -0.1990E+02E
 Epicentro: SANTA HELENA DEL OPON - SANTANDER                                  3
 ACTION:UPD 15-09-10 22:10 OP:cam  STATUS:               ID:20150608093810 L   I
 OLDACT:REG 15-06-08 12:29 OP:drio STATUS:               ID:20150608092749     3
 2015-06-08-0927-49M.COL___288                                                 6
 STAT SP IPHASW D HRMM SECON CODA AMPLIT PERI AZIMU VELO AIN AR TRES W  DIS CAZ7
 BAR2 EZ EP        938 23.00                             117    0.4010 66.9  69 
 BAR2 EZ ES        938 31.79                             117   -0.3410 66.9  69 
 BAR2 EZ I         938 33.63        21.7 0.48            149           66.9  69 
 SPBC HZ EP        938 24.71                             109   -0.0710 87.7 204 
 SPBC HN ES        938 36.05                             109    0.0410 87.7 204 
 SPBC HZ I         938 48.53         4.0 0.18            126           87.7 204 
 RUS  HZ EP        938 25.05                             108   -0.6010 90.8 126 
 RUS  HN ES        938 38.03                             108    0.4810 90.8 126 
 RUS  HZ I         938 38.93         1.8 0.24            133           90.8 126 
 ZAR  HZ EP        938 34.79                              96   -0.37 9  174 315 
 ZAR  HE ES        938 54.70                              96    0.21 9  174 315 
 ZAR  HZ I         938 56.63         3.0 0.38            110            174 315 
 SML  HZ EP        938 47.39                              93    0.36 8  271 352 
 SML  HN ES   4    939 10.20                              93   -5.40 0  271 352 
 SML  HZ I         939 15.81         2.1 0.28            103            271 352 
                                                                                
