 2016  6 8 0030  6.1 L   6.831 -73.129146.9  RSN 19 0.5 2.6LRSN                1
 GAP= 71        1.14       3.7     3.5  5.3 -0.2329E+01  0.4081E+01  0.2412E+01E
 Epicentro: LOS SANTOS - SANTANDER                                             3
 ACTION:UPD 16-07-21 22:16 OP:rebc STATUS:               ID:20160608003006 L   I
 OLDACT:UP  16-06-08 14:42 OP:dani STATUS:               ID:20160608002741     3
 OLDACT:UP  16-06-08 14:40 OP:dani STATUS:               ID:20160608002741     3
 OLDACT:REG 16-06-08 12:27 OP:dani STATUS:               ID:20160608002741     3
 2016-06-08-0027-41M.COL___334                                                 6
 STAT SP IPHASW D HRMM SECON CODA AMPLIT PERI AZIMU VELO AIN AR TRES W  DIS CAZ7
 BAR2 EZ EP        030 25.84                             169   -0.1410 27.1 193 
 BAR2 EZ ES        030 40.83                             169   -0.6410 27.1 193 
 BAR2 EZ I         030 41.82       111.3 0.16                          27.1 193 
 BRR  HZ IP     C  030 27.66                             153    0.2510 71.3 295 
 BRR  HN ES        030 44.64                             153    0.6310 71.3 295 
 BRR  HZ I         030 47.78        75.7 0.18                          71.3 295 
 PAM  EZ EP        030 28.72                             152    0.4710 73.5  40 
 PAM  EE ES        030 45.81                             152    0.3110 73.5  40 
 PAM  EZ I         030 48.05        80.5 0.52                          73.5  40 
 RUS  HZ EP        030 30.19                             143   -0.0510  104 177 
 RUS  HE ES        030 48.96                             143   -0.0910  104 177 
 RUS  HZ I         030 49.34        30.8 0.22                           104 177 
 PTB  HZ EP        030 32.70                             132   -0.72 9  150 258 
 PTB  HN ES   4    030 53.66                             132   -1.05 0  150 258 
 PTB  HZ I         030 59.15        50.1 0.15                           150 258 
 TAM  HZ IP     D  030 34.10                             131    0.28 9  154 106 
 TAM  HN ES        030 55.60                             131    0.18 9  154 106 
 TAM  HZ I         031  1.07        15.7 0.49                           154 106 
 OCA  HZ EP        030 33.56                             130   -0.67 9  157 352 
 OCA  HE ES        030 55.98                             130   -0.17 9  157 352 
 OCA  HZ I         030 59.25       104.3 0.24                           157 352 
 SPBC HZ EP        030 34.82                             129   -0.27 9  167 219 
 SPBC HN ES   4    030 57.07                             129   -0.60 0  167 219 
 SPBC HZ I         031  3.65        54.1 0.24                           167 219 
 NOR  HZ EP        030 41.82                             118   -0.49 8  238 234 
 NOR  HE ES   4    031  9.78                             118   -0.74 0  238 234 
 NOR  HZ I         031 13.83        37.8 0.32                           238 234 
 CHI  HZ EP        030 44.30                             117   -0.01 8  252 195 
 ROSC BN ES   4    031 18.30                             116    3.44 0  257 211 
 HEL  HZ EP        030 48.38                             115    1.68 8  275 255 
 HEL  HE ES        031 18.15                             115   -0.19 8  275 255 
 HEL  HZ I         031 25.00        20.8 0.48                           275 255 
 URE  HZ EP   4    030 48.84                             114    1.53 0  284 291 
 URE  HE ES   2    031 19.10                             114   -0.32 4  284 291 
 URE  HZ I         031 21.17        23.6 0.26                           284 291 
 PTGC HZ EP   4    030 49.02                             112   -1.31 0  311 159 
 PTGC HN ES   4    031 22.32                             112   -2.49 0  311 159 
 PTGC HZ I         031 25.03        12.8 0.44                           311 159 
 DBB  SZ EP        030 53.99                             110    0.15 7  341 274 
 SDV  BZ EP        030 55.52                             109   -0.27 6  357  50 
 SDV  BE ES        031 33.94                             109   -0.59 6  357  50 
 SDV  BZ I         031 37.20         7.0 0.50                           357  50 
 ANIL HN ES   4    031 39.69                             108    4.05 0  361 224 
 PRA  HZ EP        031  0.74                             106    0.59 6  396 210 
 PRA  HN ES   4    031 43.85                             106    1.56 0  396 210 
 PRA  HZ I         031 47.08        12.1 0.20                           396 210 
 ORTC HZ EP        031  0.79                             106    0.24 6  399 216 
 ORTC HN ES   4    031 44.94                             106    1.95 0  399 216 
 ORTC HZ I         031 48.91        10.4 0.50                           399 216 
 SJC  HZ EP   4    031  0.04                             106   -1.47 0  407 326 
 SJC  HE ES   4    031 41.72                             106   -2.98 0  407 326 
 SJC  HZ I         031 45.98         7.1 0.53                           407 326 
 PAL  HZ EP        031  2.02                             106    0.29 6  409 239 
 PAL  HN ES        031 44.58                             106   -0.51 6  409 239 
 PAL  HZ I         031 50.21         6.2 0.36                           409 239 
 LCBC HE ES   4    031 49.46                             105    1.93 0  422 302 
 PCON HN EP   4    031 21.54                              99   -5.45 0  616 216 
                                                                                
