 2011 11 8 0926 52.6 L   6.856 -73.275117.4  RSN  4 0.1 1.6LRSN                1
 GAP=131        0.37       3.9     6.2  5.0  0.1643E+02 -0.1105E+02 -0.5463E+01E
 Epicentro: ZAPATOCA - SANTANDER                                               3
 ACTION:UPD 12-07-13 16:08 OP:ep   STATUS:               ID:20111108092652 L   I
 2011-11-08-0925-16S.COL___175                                                 6
 STAT SP IPHASW D HRMM SECON CODA AMPLIT PERI AZIMU VELO AIN AR TRES W  DIS CAZ7
 BAR2 SZ EP   1    927  9.26                             164    0.23 7 30.9 161 
 BAR2 SZ ES   1    927 21.73                             164   -0.12 7 30.9 161 
 BAR2 SZ I         927 23.62        24.3 0.26                          30.9 161 
 BRR  HZ EP   1    927  9.60                             153   -0.18 7 55.7 300 
 BRR  HE ES   1    927 23.30                             153    0.10 7 55.7 300 
 BRR  HZ I         927 24.58         9.8 0.05                          55.7 300 
 PAM  SZ EP   2    927 12.26                             143   -0.01 5 83.1  50 
 RUS  HZ EP   2    927 14.27                             134   -0.07 5  109 169 
 RUS  HE ES   1    927 31.33                             134    0.01 7  109 169 
 RUS  HZ I         927 32.55         3.6 0.57                           109 169 
                                                                                
