 2010  7 8 0801 58.9 L   6.801 -73.093142.5  RSN 12 0.4 2.1LRSN                1
 GAP=161        0.75       3.5     7.0  6.1 -0.1203E+02  0.7087E+01  0.3011E+01E
 Epicentro: LOS SANTOS - SANTANDER                                             3
 ACTION:UPD 10-12-01 15:16 OP:pat  STATUS:               ID:20100708080158 L   I
 2010-07-08-0800-18S.COL___117                                                 6
 STAT SP IPHASW D HRMM SECON CODA AMPLIT PERI AZIMU VELO AIN AR TRES W  DIS CAZ7
 BAR2 SZ IP     D  8 2 18.02                             169    -0.110   25 203 
 BAR2 SZ ES   2    8 2 32.93                             169    -0.3 5   25 203 
 GIR2 SZ EP   1    8 2 18.11                             166    -0.1 7   33 340 
 GIR2 SZ ES   2    8 2 33.34                             166     0.1 5   33 340 
 BRR  HZ IP     D  8 2 19.91                             150    -0.110   76 296 
 BRR  HE ES   2    8 2 36.82                             150     0.4 5   76 296 
 BRR  HZ I         8 2 39.24        41.6 0.23                            76 296 
 RUS  HZ EP   1    8 2 22.04                             143    -0.3 7  100 179 
 RUS  HE ES   2    8 2 40.53                             143     0.0 5  100 179 
 RUS  HZ I         8 2 41.77        17.2 0.26                           100 179 
 BRI  SZ EP   1    8 2 22.61                             141     0.3 7  106  18 
 BRI  SZ ES   2    8 2 39.72                             141    -0.8 5  106  18 
 GUE  SZ EP   1    8 2 22.95                             139    -0.2 7  115   9 
 GUE  SZ ES   2    8 2 43.18                             139     1.0 5  115   9 
 GRA  SZ IP     C  8 2 23.85                             137     0.210  124  15 
 GRA  SZ ES   2    8 2 43.36                             137     0.3 5  124  15 
 OCA  SZ EP   1    8 2 26.58                             129    -0.4 7  161 351 
 OCA  SZ ES   2    8 2 48.78                             129    -0.2 5  161 351 
 OCA  SZ I         8 2 54.07        18.9 0.46                           161 351 
 CHI  HZ EP   1    8 2 36.78                             116     0.2 6  250 196 
 CHI  HE ES   2    8 3  5.51                             116    -0.5 4  250 196 
 CHI  HZ I         8 3 12.99         4.6 0.50                           250 196 
 ROSC BZ EP   1    8 2 38.04                             116     0.9 6  256 212 
 ROSC BE ES   2    8 3  7.87                             116     0.8 4  256 212 
 ROSC BZ I         8 3 12.93         8.4 0.62                           256 212 
 HEL  HZ EP   1    8 2 39.23                             114    -0.3 6  278 256 
 HEL  HZ I         8 3 17.60         7.6 0.25                           278 256 
 RREF HZ EP   1    8 2 45.37                             110     0.0 5  326 230 
 RREF HN ES   2    8 3 20.97                             110    -0.7 3  326 230 
 RREF HZ I         8 3 28.68         6.8 0.23                           326 230 
                                                                                
