 2014 12 8 0932 46.4 L   6.764 -73.174138.1  RSN 14 0.6 2.0LRSN                1
 GAP= 71        1.42       3.5     3.8  6.9 -0.5689E+00  0.5764E+01  0.9377E+00E
 Epicentro: LOS SANTOS - SANTANDER                                             3
 ACTION:UPD 15-02-10 17:01 OP:nd   STATUS:               ID:20141208093246 L   I
 OLDACT:ARG 14-12-08 13:49 OP:stll STATUS:               ID:20141208092747     3
 2014-12-08-0927-47M.COL___303                                                 6
 STAT SP IPHASW D HRMM SECON CODA AMPLIT PERI AZIMU VELO AIN AR TRES W  DIS CAZ7
 BAR2 SZ EP        933  5.25                             172    0.2210 19.0 183 
 BAR2 SZ ES        933 19.62                             172    0.0610 19.0 183 
 BAR2 SZ I         933 21.33        26.0 0.18            171           19.0 183 
 BRR  HZ EP        933  7.52                             151    0.8310 70.5 303 
 BRR  HZ I         933  8.65        20.9 0.14            150           70.5 303 
 BRR  HN ES        933 23.57                             151    1.0510 70.5 303 
 PAM  SZ EP        933  8.54                             148    0.4010 82.5  39 
 PAM  SN ES        933 24.91                             148   -0.1810 82.5  39 
 PAM  SZ I         933 27.78        18.7 0.48            150           82.5  39 
 RUS  HZ EP        933  9.02                             143   -0.1210 96.9 174 
 RUS  HZ I         933  9.76         7.8 0.32            145           96.9 174 
 RUS  HN ES        933 26.72                             143   -0.1510 96.9 174 
 PTB  HZ EP        933 12.31                             131   -0.10 9  144 260 
 PTB  HN ES        933 31.39                             131   -1.30 9  144 260 
 PTB  HZ I         933 38.86        12.2 0.18            131            144 260 
 TAM  HZ EP        933 13.57                             128   -0.12 9  157 103 
 TAM  HZ I         933 13.63        30.1 0.20            132            157 103 
 TAM  HE ES        933 34.80                             128   -0.16 9  157 103 
 SPBC HZ EP        933 14.11                             128    0.27 9  158 219 
 SPBC HE ES        933 35.50                             128    0.27 9  158 219 
 SPBC HZ I         933 38.23        16.1 0.22            129            158 219 
 OCA  HZ EP        933 14.29                             127   -0.20 9  164 354 
 OCA  HN ES        933 35.59                             127   -0.80 9  164 354 
 OCA  HZ I         933 39.12        11.9 0.52            128            164 354 
 ZAR  HZ EP        933 18.66                             121    0.43 9  203 294 
 ZAR  HN ES        933 43.53                             121    0.49 9  203 294 
 ZAR  HZ I         933 49.87        12.4 0.26            121            203 294 
 CHI  HZ EP        933 22.97                             116   -0.21 8  244 195 
 CHI  HN ES        933 50.86                             116   -1.00 8  244 195 
 CHI  HZ I         933 56.43         2.7 0.50            117            244 195 
 SML  HZ EP        933 22.50                             115   -0.38 8  246 336 
 SML  HN ES        933 50.81                             115   -0.51 8  246 336 
 SML  HZ I         933 53.31        11.4 0.24            116            246 336 
 HEL  HZ EP        933 25.90                             114    0.11 8  268 256 
 HEL  HE ES        933 55.42                             114   -1.09 8  268 256 
 HEL  HZ I         934  3.92         4.2 0.44            114            268 256 
 GUY2CHZ EP        933 30.17                             111    1.05 7  296 235 
 GUY2CHN ES        934  3.18                             111    0.75 7  296 235 
 GUY2CHZ I         934 10.35         4.0 0.28                           296 235 
 MON  HZ EP   9    933 33.26                             107   -1.87 0  354 309 
 MON  HZ I         933 40.10         1.8 0.34            108            354 309 
 MON  HN ES        934 10.61                                   -0.65 6  354 309 
                                                                                
