 2013 10 8 0858 38.4 L   6.832 -73.151139.1  RSN  7 0.4 1.6LRSN                1
 GAP=201        0.75       3.2     4.5  6.1  0.4400E+01  0.2294E+01 -0.5134E+01E
 Epicentro: LOS SANTOS - SANTANDER                                             3
 ACTION:UPD 13-11-25 09:20 OP:ep   STATUS:               ID:20131008085838 L   I
 OLDACT:UP  13-10-08 13:36 OP:mh   STATUS:               ID:20131008085739     3
 OLDACT:REG 13-10-08 12:52 OP:mh   STATUS:               ID:20131008085739     3
 2013-10-08-0857-39M.COL___223                                                 6
 STAT SP IPHASW D HRMM SECON CODA AMPLIT PERI AZIMU VELO AIN AR TRES W  DIS CAZ7
 BAR2 SZ EP   1    858 57.57                             169    0.24 8 26.7 187 
 BAR2 SZ ES   1    859 11.48                             169   -0.60 8 26.7 187 
 BAR2 SZ I         859 14.18        12.3 0.20            177           26.7 187 
 BRR  HZ EP   1    858 59.38                             152    0.65 8 69.1 296 
 BRR  HN ES   1    859 14.92                             152    0.34 8 69.1 296 
 BRR  HZ I         859 20.45         6.2 0.16            151           69.1 296 
 RUS  HZ EP   1    859  1.60                             141   -0.19 7  104 176 
 RUS  HN ES        859 20.20                             141    0.1810  104 176 
 RUS  HZ I         859 21.29         3.2 0.28            149            104 176 
 PTB  HZ EP   1    859  4.66                             130   -0.21 7  148 257 
 PTB  HN ES        859 25.22                             130   -0.28 9  148 257 
 PTB  HZ I         859 28.01         4.3 0.10            134            148 257 
 SPBC HZ EP        859  6.57                             127   -0.08 9  166 218 
 SPBC HN ES        859 28.73                             127    0.06 9  166 218 
 SPBC HZ I         859 32.85         5.9 0.46            133            166 218 
 ZAR  HZ EP   1    859  9.74                             121   -0.51 6  202 291 
 ZAR  HN ES        859 35.46                             121    0.38 9  202 291 
 ZAR  HZ I         859 35.80         5.9 0.10            123            202 291 
 SML  HZ EP   1    859 14.64                             116    0.33 6  240 335 
 SML  HN ES        859 41.91                             116   -0.39 8  240 335 
 SML  HZ I         9 0  0.37         4.7 0.10            117            240 335 
                                                                                
