 2017  4 8 1104 43.8 L   6.787 -73.157145.7  RSN  5 0.3 1.6LRSN                1
 GAP=136        0.85       4.5     4.4  6.2 -0.1857E+01  0.3293E+01  0.1244E+01E
 Epicentro: LOS SANTOS - SANTANDER                                             3
 ACTION:UPD 17-05-30 21:09 OP:jn   STATUS:               ID:20170408110443 L   I
 OLDACT:REG 17-04-08 20:55 OP:ar   STATUS:               ID:20170408105742     3
 2017-04-08-1058-00M.COL___371                                                 6
 STAT SP IPHASW D HRMM SECON CODA AMPLIT PERI AZIMU VELO AIN AR TRES W  DIS CAZ7
 BAR2 EZ EP       11 5  3.63                             171    0.2210 21.7 187 
 BAR2 EZ ES       11 5 18.29                             171   -0.3910 21.7 187 
 BAR2 EZ I        11 5 19.74        10.1 0.46            171           21.7 187 
 BRR  HZ EP       11 5  5.04                             153    0.1010 70.8 300 
 BRR  HE ES       11 5 22.01                             153    0.6110 70.8 300 
 BRR  HZ I        11 5 25.08         8.6 0.28            151           70.8 300 
 PAM  EZ EP       11 5  6.25                             150    0.1110 79.3  40 
 PAM  EE ES       11 5 23.21                             150   -0.3410 79.3  40 
 PAM  EZ I        11 5 24.77        15.1 0.52            153           79.3  40 
 RUS  HZ EP       11 5  7.56                             144    0.0910 99.2 175 
 RUS  HN ES       11 5 26.10                             144    0.1910 99.2 175 
 RUS  HZ I        11 5 27.45         2.0 0.42            147           99.2 175 
 PTB  HZ EP       11 5 10.22                             132   -0.42 9  146 259 
 PTB  HE ES       11 5 31.30                             132   -0.26 9  146 259 
 PTB  HZ I        11 5 36.30         5.5 0.22            133            146 259 
                                                                                
