 2011  6 8 1632 13.9 L   6.845 -73.073136.3  RSN  4 0.1 1.5LRSN                1
 GAP=248        0.41       4.6     6.8  5.8  0.5066E+01  0.9766E+01 -0.5453E+01E
 Epicentro: LOS SANTOS - SANTANDER                                             3
 ACTION:UP  11-07-14 19:04 OP:ep   STATUS:               ID:20110608163213 L   I
 2011-06-08-1627-43S.COL___120                                                 6
 STAT SP IPHASW D HRMM SECON CODA AMPLIT PERI AZIMU VELO SNR AR TRES W  DIS CAZ7
 BAR2 SZ EP   1   1632 32.52                             167     0.0 7   30 203 
 BAR2 SZ ES   1   1632 47.00                             167    -0.1 7   30 203 
 BAR2 SZ I        1632 49.41         5.7 0.28                            30 203 
 BRR  HZ EP   1   1632 34.50                             149     0.2 7   76 292 
 BRR  HZ I        1633  1.54        17.9 0.46                            76 292 
 RUS  HZ EP   1   1632 36.96                             140    -0.1 7  105 181 
 RUS  HN ES   1   1632 55.37                             140     0.2 7  105 181 
 RUS  HZ I        1632 56.18         2.5 0.39                           105 181 
 NOR  SN ES   2   1633 18.26                             115    -0.1 4  244 235 
                                                                                
