 2011 11 8 1107 10.6 L   6.785 -73.124140.5  RSN  7 0.3 1.9LRSN                1
 GAP=140        0.56       3.2     3.8  5.8 -0.1775E+01  0.1181E+02 -0.4954E+01E
 Epicentro: LOS SANTOS - SANTANDER                                             3
 ACTION:UPD 12-07-13 16:09 OP:ep   STATUS:               ID:20111108110710 L   I
 2011-11-08-1105-00M.COL___167                                                 6
 STAT SP IPHASW D HRMM SECON CODA AMPLIT PERI AZIMU VELO AIN AR TRES W  DIS CAZ7
 BAR2 SZ EP   1   11 7 29.60                             171    0.05 7 22.3 197 
 BAR2 SZ ES   1   11 7 44.16                             171   -0.18 7 22.3 197 
 BAR2 SZ I        11 7 45.48        15.9 0.21                          22.3 197 
 BRR  HZ EP   2   11 7 31.35                             150    0.02 5 74.1 299 
 BRR  HZ I        11 7 47.30        49.8 0.08                          74.1 299 
 PAM  SZ EP   1   11 7 32.52                             150    0.30 7 77.2  37 
 PAM  SN ES   1   11 7 49.24                             150    0.14 7 77.2  37 
 PAM  SZ I        11 7 51.61        12.5 0.45                          77.2  37 
 RUS  HZ EP   1   11 7 33.61                             143   -0.07 7 98.8 177 
 RUS  HN ES   1   11 7 51.50                             143   -0.20 7 98.8 177 
 RUS  HZ I        11 7 53.26        12.3 0.38                          98.8 177 
 ZAR  HZ EP   1   11 7 43.55                             121    0.57 6  207 292 
 ZAR  HN ES   1   11 8  8.39                             121    0.13 6  207 292 
 ZAR  HZ I        11 8 14.61         7.0 0.13                           207 292 
 HEL  HZ EP   1   11 7 50.50                             113   -0.24 6  274 256 
 HEL  HN ES   1   11 8 21.97                             113   -0.10 6  274 256 
 HEL  HZ I        11 8 26.75         3.8 0.34                           274 256 
 COD  HN ES   1   11 8 35.81                             108   -0.90 5  350 354 
                                                                                
