 2010 10 8 1902  1.5 L   7.451 -73.218132.0  RSN  4 0.1 1.5LRSN                1
 GAP=162        0.39      10.1    10.1  5.7 -0.9423E+02 -0.2246E+02  0.2131E+02E
 Epicentro: EL PLAYON - SANTANDER                                              3
 ACTION:UP  11-02-18 11:08 OP:tino STATUS:               ID:20101008190201 L   I
 2010-10-08-1858-12S.COL___121                                                 6
 STAT SP IPHASW D HRMM SECON CODA AMPLIT PERI AZIMU VELO SNR AR TRES W  DIS CAZ7
 GUE  SZ EP   1   19 2 20.67                             157     0.0 7   53  38 
 GUE  SZ I        19 2 21.52         1.8 0.07                            53  38 
 BTL  SZ EP   1   19 2 20.86                             154     0.0 7   59 185 
 GRA  SZ EP       19 2 21.23                             152     0.110   66  44 
 GRA  SZ ES   1   19 2 36.31                             152    -0.1 7   66  44 
 GRA  SZ I        19 2 38.22        14.5 0.42                            66  44 
 BRR  HZ EP   1   19 2 20.73                             152    -0.2 7   67 235 
 BRR  HN ES   1   19 2 36.14                             152     0.1 7   67 235 
 BRR  HZ I        19 2 39.38        15.2 0.34                            67 235 
                                                                                
