 2011  9 8 1505 51.6 L   6.809 -73.125144.7  RSN  6 0.2 1.4LRSN                1
 GAP=139        0.40       2.8     3.4  4.2  0.9853E+00  0.4303E+00 -0.2181E+00E
 Epicentro: LOS SANTOS - SANTANDER                                             3
 ACTION:UPD 12-07-13 15:56 OP:ep   STATUS:               ID:20110908150551 L   I
 2011-09-08-1500-57S.COL___170                                                 6
 STAT SP IPHASW D HRMM SECON CODA AMPLIT PERI AZIMU VELO AIN AR TRES W  DIS CAZ7
 BAR2 SZ EP   1   15 6 10.98                             170   -0.17 7 24.8 195 
 BAR2 SZ ES   1   15 6 26.67                             170    0.29 7 24.8 195 
 BAR2 SZ I        15 6 27.55         5.8 0.15                          24.8 195 
 GIR2 SZ EP   1   15 6 11.17                             167    0.02 7 30.8 346 
 BRR  HZ EP   1   15 6 12.89                             152    0.15 7 72.8 297 
 BRR  HE ES   1   15 6 29.21                             152    0.00 7 72.8 297 
 BRR  HZ I        15 6 33.86        13.1 0.30                          72.8 297 
 PAM  SZ EP   1   15 6 13.78                             151    0.19 7 75.2  39 
 PAM  SE ES   1   15 6 30.50                             151   -0.22 7 75.2  39 
 PAM  SZ I        15 6 31.34         2.6 0.40                          75.2  39 
 RUS  HZ EP   1   15 6 15.31                             143   -0.02 7  101 177 
 RUS  HZ I        15 6 16.48         4.1 0.12                           101 177 
 RUS  HE ES   1   15 6 33.68                             143   -0.14 7  101 177 
 ZAR  HE ES   2   15 6 49.25                             122   -0.32 4  206 292 
                                                                                
