 2014  1 8 1706 37.0 L   7.368 -73.089138.6  RSN  4 0.4 1.4LRSN                1
 GAP=207        1.10      12.5     7.8 10.4 -0.5457E+02  0.3745E+02 -0.4110E+02E
 Epicentro: MATANZA - SANTANDER                                                3
 ACTION:UPD 14-03-13 09:52 OP:ep   STATUS:               ID:20140108170637 L   I
 OLDACT:REG 14-01-08 15:09 OP:stll STATUS:               ID:20140108165810     3
 2014-01-08-1658-10M.COL___246                                                 6
 STAT SP IPHASW D HRMM SECON CODA AMPLIT PERI AZIMU VELO AIN AR TRES W  DIS CAZ7
 PAM  SZ EP       17 6 57.10                             162    0.3410 43.1  94 
 PAM  SZ I        17 6 57.28         4.1 0.18            157           43.1  94 
 PAM  SN ES       17 7 11.94                             162   -0.2210 43.1  94 
 BRR  HZ EP       17 6 58.04                             150    0.4310 74.6 247 
 BRR  HN ES       17 7 13.42                             150   -0.2510 74.6 247 
 BAR2 SZ ES       17 7 15.65                             146    0.0210 86.4 187 
 BAR2 SZ I        17 7 19.51         7.4 0.48            140           86.4 187 
 PTB  HZ EP       17 7  5.33                             125   -0.89 9  177 239 
 PTB  HZ I        17 7  6.07         2.1 0.22            124            177 239 
 PTB  HN ES       17 7 29.48                             125    0.49 9  177 239 
                                                                                
