 2016 12 8 1150 30.7 L   6.807 -73.131144.5  RSN 10 0.6 1.8LRSN                1
 GAP=240        1.19       5.0     6.0  7.4  0.8861E+01  0.1283E+02  0.1034E+02E
 Epicentro: LOS SANTOS - SANTANDER                                             3
 ACTION:UPD 17-01-11 20:13 OP:rebc STATUS:               ID:20161208115030 L   I
 OLDACT:UP  16-12-09 04:59 OP:dani STATUS:               ID:20161208114749d    3
 OLDACT:UP  16-12-09 04:58 OP:dani STATUS:               ID:20161208114749d    3
 OLDACT:DUP 16-12-09 04:54 OP:dani STATUS:               ID:20161208114749d    3
 OLDACT:UP  16-12-09 04:53 OP:dani STATUS:               ID:20161208114748     3
 OLDACT:REG 16-12-09 02:57 OP:dani STATUS:               ID:20161208114748     3
 2016-12-08-1148-00M.COL___354                                                 6
 STAT SP IPHASW D HRMM SECON CODA AMPLIT PERI AZIMU VELO AIN AR TRES W  DIS CAZ7
 BAR2 EZ EP       1150 50.36                             170    0.1610 24.4 193 
 BAR2 EZ ES       1151  5.41                             170    0.0010 24.4 193 
 BAR2 EZ I        1151  6.48        22.6 0.38            166           24.4 193 
 BRR  HZ EP       1150 52.11                             152    0.3410 72.3 297 
 BRR  HN ES       1151  8.93                             152    0.7210 72.3 297 
 BRR  HZ I        1151  9.83        13.3 0.19            150           72.3 297 
 RUS  HZ EP       1150 54.44                             143    0.0710  101 177 
 RUS  HN ES       1151 12.57                             143   -0.2710  101 177 
 RUS  HZ I        1151 14.09         4.3 0.21            143            101 177 
 PTB  HZ EP       1150 57.02                             131   -0.70 9  149 259 
 PTB  HN ES       1151 17.93                             131   -0.87 9  149 259 
 PTB  HZ I        1151 23.11        13.5 0.15            130            149 259 
 ZAR  HZ EP       1151  2.58                             122   -0.61 8  205 292 
 ZAR  HN ES       1151 28.51                             122   -0.02 8  205 292 
 ZAR  HZ I        1151 34.63         5.7 0.17            122            205 292 
 NOR  HN ES       1151 34.60                             118    0.10 8  236 235 
 CHI  HZ EP       1151  8.88                             117    0.43 8  250 195 
 CHI  HE ES       1151 37.33                             117   -0.57 8  250 195 
 CHI  HZ I        1151 44.03         2.4 0.31            117            250 195 
 GUY2CHZ EP   3   1151 16.95                             112    2.50 2  303 235 
 GUY2CHN ES     D 1151 49.66                             112    1.09 7  303 235 
 GUY2CHZ I        1151 57.46         3.9 0.46                           303 235 
 PRA  HZ EP       1151 24.76                             106    0.42 6  393 210 
 PRA  HN ES       1152  6.28                             106    0.09 6  393 210 
 PRA  HZ I        1152 12.17         2.6 0.46            106            393 210 
 SJC  HZ EP   4   1151 24.19                             105   -2.06 0  409 327 
 SJC  HN ES   4   1152  6.23                             105   -3.35 0  409 327 
 SJC  HZ I        1152 10.04         2.5 0.54            106            409 327 
                                                                                
