 2017  9 8 1743  3.9 L   6.843 -73.253125.2  RSN  5 0.3 1.2LRSN                1
 GAP=209        0.81       8.3     8.8  5.5  0.6588E+02  0.1638E+01  0.1698E+01E
 Epicentro: ZAPATOCA - SANTANDER                                               3
 ACTION:UPD 17-10-05 19:10 OP:rebc STATUS:               ID:20170908174303 L   I
 OLDACT:DUP 17-09-09 02:41 OP:edw  STATUS:               ID:20170908173740d    3
 OLDACT:UP  17-09-09 02:41 OP:edw  STATUS:               ID:20170908173739     3
 OLDACT:UP  17-09-09 02:39 OP:edw  STATUS:               ID:20170908173739     3
 OLDACT:UP  17-09-09 02:35 OP:edw  STATUS:               ID:20170908173739     3
 OLDACT:REG 17-09-08 20:31 OP:lv   STATUS:               ID:20170908173739     3
 2017-09-08-1738-00M.COL___419                                                 6
 STAT SP IPHASW D HRMM SECON CODA AMPLIT PERI AZIMU VELO AIN AR TRES W  DIS CAZ7
 BAR2 EZ EP       1743 21.48                             166    0.2810 28.8 164 
 BAR2 EZ ES       1743 35.10                             166    0.4010 28.8 164 
 BAR2 EZ I        1743 36.39         4.7 0.36            166           28.8 164 
 BRR  HZ EP       1743 21.83                             153   -0.2710 58.5 300 
 BRR  HN ES       1743 35.93                             153   -0.3810 58.5 300 
 BRR  HZ I        1743 37.53         6.8 0.32            153           58.5 300 
 RUS  HZ EP       1743 26.48                             137    0.3010  107 170 
 RUS  HN ES       1743 43.58                             137    0.0110  107 170 
 RUS  HZ I        1743 44.94         2.3 0.20            138            107 170 
 YPLC HZ EP       1743 33.12                             120   -0.21 9  187 149 
 YPLC HN ES       1743 55.83                             120   -0.47 9  187 149 
 ZAR  HZ EP       1743 34.09                             119    0.38 9  191 292 
 ZAR  HN ES       1743 56.84                             119   -0.13 9  191 292 
 ZAR  HZ I        1743 58.25         1.6 0.10            120            191 292 
                                                                                
