 2016 11 8 1032 19.0 L   6.683 -73.193147.4  RSN  4 0.1 1.4LRSN                1
 GAP=224        0.40       4.8     2.9  4.0  0.5267E+01  0.2245E+01 -0.1263E+01E
 Epicentro: VILLANUEVA - SANTANDER                                             3
 ACTION:UPD 17-10-26 21:05 OP:lp   STATUS:               ID:20161108103219 L   I
 OLDACT:REG 16-11-08 21:52 OP:dnl  STATUS:               ID:20161108102744     3
 2016-11-08-1028-00M.COL___337                                                 6
 STAT SP IPHASW D HRMM SECON CODA AMPLIT PERI AZIMU VELO AIN AR TRES W  DIS CAZ7
 BAR2 EZ EP       1032 38.58                             176   -0.0410 10.1 173 
 BAR2 EZ ES       1032 53.84                             176   -0.1010 10.1 173 
 BAR2 EZ I        1032 56.39         6.8 0.32            169           10.1 173 
 BRR  HZ EP       1032 40.64                             152    0.1710 74.1 309 
 BRR  HN ES       1032 57.32                             152    0.0810 74.1 309 
 BRR  HZ I        1033  1.42         4.3 0.28            150           74.1 309 
 PTB  HZ EP   2   1032 45.16                             134   -0.29 5  141 264 
 PTB  HN ES       1033  6.21                             134    0.12 9  141 264 
 PTB  HZ I        1033 13.55         2.0 0.18            132            141 264 
 ZAR  HZ EP   3   1032 51.73                             123    0.15 2  205 296 
 ZAR  HE ES       1033 16.80                             123   -0.22 9  205 296 
 ZAR  HZ I        1033 21.77         2.0 0.28            123            205 296 
                                                                                
