 2012  7 8 1925 34.4 L   6.790 -73.135142.5  RSN  9 0.4 2.0LRSN                1
 GAP=138        0.99       4.9     5.8  8.0  0.2270E+01  0.1194E+02  0.3604E+01E
 Epicentro: LOS SANTOS - SANTANDER                                             3
 ACTION:UPD 12-08-14 11:43 OP:ep   STATUS:               ID:20120708192534 L   I
 2012-07-08-1920-00M.COL___201                                                 6
 STAT SP IPHASW D HRMM SECON CODA AMPLIT PERI AZIMU VELO AIN AR TRES W  DIS CAZ7
 BAR2 SZ EP   1   1925 53.58                             171     0.0 7   22 193 
 BAR2 SZ ES   1   1926  9.18                             171     0.6 7   22 193 
 BAR2 SZ I        1926 10.27        50.4 0.19                            22 193 
 BRR  HZ EP       1925 55.39                             151     0.110   73 299 
 BRR  HZ I        1925 55.75        30.1 0.15                            73 299 
 BRR  HN ES   1   1926 12.14                             151     0.6 7   73 299 
 PAM  SZ EP   1   1925 56.39                             150     0.2 7   78  38 
 PAM  SN ES   1   1926 13.19                             150    -0.1 7   78  38 
 RUS  HZ EP   1   1925 57.74                             143     0.0 7   99 177 
 RUS  HN ES   1   1926 15.31                             143    -0.6 7   99 177 
 RUS  HZ I        1926 17.49        23.4 0.36                            99 177 
 PTB  HN ES   1   1926 21.34                             131    -0.7 7  149 259 
 PTB  HZ I        1926 26.99         7.1 0.18                           149 259 
 OCA  HN ES   1   1926 23.73                             129    -0.8 7  162 353 
 ZAR  HZ EP   1   1926  7.06                             121     0.3 6  206 292 
 ZAR  HN ES   1   1926 31.90                             121    -0.1 6  206 292 
 CHI  HZ EP   1   1926 11.67                             117    -0.1 6  248 195 
 CHI  HZ I        1926 12.13         6.9 0.11                           248 195 
 HEL  HZ EP   1   1926 14.95                             114     0.4 6  273 256 
 HEL  HZ I        1926 52.80         4.1 0.23                           273 256 
