 2012 12 8 1239 47.8 L   6.866 -73.399118.5  RSN  6 0.4 2.0LRSN                1
 GAP=161        0.96       3.6     5.5  7.2  0.5418E+01  0.8559E+01 -0.3867E+01E
 Epicentro: SAN VICENTE DE CHUCURI - SANTANDER                                 3
 ACTION:UPD 13-01-04 14:26 OP:ep   STATUS:               ID:20121208123947 L   I
 2012-12-08-1237-36M.COL___208                                                 6
 STAT SP IPHASW D HRMM SECON CODA AMPLIT PERI AZIMU VELO AIN AR TRES W  DIS CAZ7
 BAR2 SZ EP       1240  5.06                             161    0.3710 38.6 142 
 BAR2 SZ ES       1240 18.06                             161    0.2310 38.6 142 
 BAR2 SZ I        1240 19.30        80.0 0.20                          38.6 142 
 RUS  HZ EP       1240 10.23                             134    0.1410  113 162 
 RUS  HN ES       1240 26.82                             134   -0.6310  113 162 
 RUS  HN I        1240 29.93         5.5 0.22                           113 162 
 PTB  HZ EP       1240 10.25                             131   -0.0310  122 253 
 PTB  HN ES       1240 27.79                             131    0.0110  122 253 
 PTB  HN I        1240 32.12        15.8 0.22                           122 253 
 ZAR  HZ EP   4   1240 17.32                             120    1.76 0  175 293 
 ZAR  HN ES   4   1240 40.50                             120    3.30 0  175 293 
 ZAR  HN I        1240 44.95        14.2 0.14                           175 293 
 SML  HZ EP       1240 20.36                             113   -0.77 8  226 341 
 SML  HN ES       1240 47.30                             113    0.20 8  226 341 
 SML  HN I        1240 58.58        18.4 0.10                           226 341 
 CHI  HZ EP       1240 24.96                             111    0.62 8  250 189 
 CHI  HN ES       1240 52.63                             111   -0.18 8  250 189 
 CHI  HN I        1241  5.28         3.5 0.52                           250 189 
                                                                                
