 2017  8 8 1440 48.8 L   5.788 -73.942 98.0  RSN  5 0.2 1.1LRSN                1
 GAP=173        0.54       2.7     1.7  6.1 -0.4229E+00  0.3922E+00 -0.4955E+00E
 Epicentro: FLORIAN - SANTANDER                                                3
 ACTION:UPD 17-09-04 20:18 OP:rebc STATUS:               ID:20170808144048 L   I
 OLDACT:REG 17-08-08 22:07 OP:mg   STATUS:               ID:20170808143744     3
 2017-08-08-1438-00M.COL___396                                                 6
 STAT SP IPHASW D HRMM SECON CODA AMPLIT PERI AZIMU VELO AIN AR TRES W  DIS CAZ7
 RUS  HZ IP     C 1441  7.45                             133   -0.3010 95.8  83 
 RUS  HN ES       1441 22.50                             133   -0.0710 95.8  83 
 RUS  HZ I        1441 40.10         1.7 0.25            140           95.8  83 
 PTB  HZ EP   2   1441  7.82                             131    0.26 5  101 326 
 PTB  HN ES     D 1441 22.15                             131   -0.0810  101 326 
 PTB  HZ I        1441 23.65         1.9 0.16            150            101 326 
 NOR  HZ EP       1441  8.34                             129    0.2610  106 256 
 NOR  HN ES       1441 23.12                             129   -0.0410  106 256 
 NOR  HZ I        1441 25.87         6.3 0.38            146            106 256 
 BAR2 EZ IP     D 1441  9.98                             125    0.0210  122  43 
 BAR2 EZ ES       1441 26.83                             125    0.3210  122  43 
 ZAR  HE ES       1441 43.74                             110   -0.19 8  214 332 
                                                                                
