 2011  5 8 1054 52.7 L   6.777 -73.098148.5  RSN  6 0.2 1.6LRSN                1
 GAP=164        0.41       3.2     5.2  5.0  0.1428E+01 -0.2838E+01 -0.1803E+01E
 Epicentro: LOS SANTOS - SANTANDER                                             3
 ACTION:UP  11-06-29 08:51 OP:tino STATUS:               ID:20110508105452 L   I
 2011-05-08-1051-05S.COL___131                                                 6
 STAT SP IPHASW D HRMM SECON CODA AMPLIT PERI AZIMU VELO SNR AR TRES W  DIS CAZ7
 BAR2 SZ EP   1   1055 12.46                             171    -0.2 7   22 204 
 BAR2 SZ ES   1   1055 28.31                             171     0.1 7   22 204 
 BAR2 SZ I        1055 30.50         8.6 0.23                            22 204 
 BRR  HZ EP   1   1055 14.43                             151    -0.1 7   77 298 
 BRR  HZ I        1055 18.62         6.7 0.03                            77 298 
 BRR  HE ES   1   1055 31.41                             151    -0.1 7   77 298 
 RUS  HZ EP   2   1055 16.82                             145     0.3 5   98 179 
 RUS  HZ I        1055 17.45         4.4 0.48                            98 179 
 RUS  HE ES   2   1055 35.20                             145     0.0 5   98 179 
 GRA  SZ EP   2   1055 18.30                             137     0.0 5  127  15 
 GRA  SZ I        1055 39.46         5.8 0.64            138            127  15 
 OCA  SZ ES   2   1055 44.42                             130     0.4 5  163 351 
 OCA  SZ I        1055 48.91         8.2 0.25            130            163 351 
 NOR  SN ES   2   1055 57.37                             119     0.2 4  238 236 
                                                                                
