 2013 10 8 1247 42.4 L   6.827 -73.164138.1  RSN  4 0.2 1.5LRSN                1
 GAP=200        0.57       3.1     4.1  5.2  0.3753E+01  0.1951E+01 -0.7290E+01E
 Epicentro: LOS SANTOS - SANTANDER                                             3
 ACTION:UPD 13-11-25 09:20 OP:ep   STATUS:               ID:20131008124742 L   I
 OLDACT:REG 13-10-08 15:19 OP:nd   STATUS:               ID:20131008123959     3
 2013-10-08-1239-59M.COL___273                                                 6
 STAT SP IPHASW D HRMM SECON CODA AMPLIT PERI AZIMU VELO AIN AR TRES W  DIS CAZ7
 BAR2 SZ EP       1248  1.53                             169    0.3210 26.0 185 
 BAR2 SZ ES       1248 15.90                             169    0.0510 26.0 185 
 BAR2 SZ I        1248 18.84         8.1 0.18            175           26.0 185 
 RUS  HZ EP     D 1248  5.84                             141    0.1610  104 175 
 RUS  HN ES       1248 23.45                             141   -0.3610  104 175 
 RUS  HZ I        1248 25.21         3.0 0.30            148            104 175 
 PTB  HZ EP       1248  8.49                             130   -0.18 9  146 258 
 PTB  HN ES       1248 29.26                             130    0.13 9  146 258 
 PTB  HZ I        1248 32.10         3.8 0.44            134            146 258 
 SML  HZ EP       1248 18.18                             116   -0.08 8  240 335 
 SML  HN ES       1248 46.06                             116   -0.14 8  240 335 
 SML  HZ I        1248 54.34         4.8 0.22            118            240 335 
                                                                                
