 2016  9 8 1513 41.0 L   6.684 -73.174151.2  RSN  4 0.2 1.4LRSN                1
 GAP=225        0.63       5.0     4.8  5.0  0.1154E+02  0.2665E+01  0.5970E+00E
 Epicentro: VILLANUEVA - SANTANDER                                             3
 ACTION:UPD 17-08-17 21:08 OP:lp   STATUS:               ID:20160908151341 L   I
 OLDACT:REG 16-09-08 20:15 OP:lv   STATUS:               ID:20160908150731     3
 2016-09-08-1508-00M.COL___353                                                 6
 STAT SP IPHASW D HRMM SECON CODA AMPLIT PERI AZIMU VELO AIN AR TRES W  DIS CAZ7
 BAR2 EZ EP       1514  0.77                             176   -0.3110 10.2 185 
 BAR2 EZ ES       1514 16.80                             176    0.0410 10.2 185 
 BAR2 EZ I        1514 17.43         5.1 0.24            177           10.2 185 
 BRR  HZ EP       1514  2.83                             152   -0.1410 75.7 308 
 BRR  HZ I        1514 19.66        10.4 0.26            143           75.7 308 
 BRR  HN ES       1514 20.32                             152    0.1910 75.7 308 
 RUS  HZ EP       1514  4.89                             148    0.4610 88.1 173 
 RUS  HN ES       1514 22.56                             148   -0.1710 88.1 173 
 RUS  HZ I        1514 24.53         2.6 0.26            149           88.1 173 
 PTB  HZ EP       1514  7.93                             134   -0.03 9  143 264 
 PTB  HN ES       1514 28.96                             134   -0.04 9  143 264 
 PTB  HZ I        1514 34.68         2.3 0.18            128            143 264 
                                                                                
