 2012  1 8 1555 20.1 L   6.780 -73.156138.3  RSN 12 0.4 2.3LRSN                1
 GAP=136        0.90       3.5     4.8  5.7 -0.3975E+00  0.7520E+01  0.3576E+01E
 Epicentro: LOS SANTOS - SANTANDER                                             3
 ACTION:UP  12-02-03 08:15 OP:REBC STATUS:               ID:20120108155520 L   I
 2012-01-08-1550-00M.COL___186                                                 6
 STAT SP IPHASW D HRMM SECON CODA AMPLIT PERI AZIMU VELO SNR AR TRES W  DIS CAZ7
 BAR2 SZ IP       1555 38.71                             171     0.010   21 188 
 BAR2 SZ ES   1   1555 53.33                             171     0.0 7   21 188 
 BAR2 SZ I        1555 54.78        62.3 0.24                            21 188 
 GIR2 SZ IP       1555 38.73                             166    -0.210   33 353 
 GIR2 SZ ES   1   1555 53.39                             166    -0.2 7   33 353 
 BRR  HZ IP     C 1555 40.55                             151     0.110   71 301 
 BRR  HZ I        1555 40.80        70.8 0.26                            71 301 
 BRR  HN ES   1   1555 57.29                             151     1.0 7   71 301 
 PAM  SZ IP       1555 41.50                             149    -0.110   80  39 
 PAM  SN ES   1   1555 58.03                             149    -0.4 7   80  39 
 RUS  HZ EP       1555 43.30                             143     0.410   98 175 
 RUS  HN ES   1   1556  0.55                             143    -0.2 7   98 175 
 RUS  HZ I        1556  2.96        37.4 0.32                            98 175 
 PTB  HZ EP       1555 45.75                             130    -0.5 9  146 260 
 PTB  HE ES   2   1556  6.76                             130     0.0 5  146 260 
 PTB  HZ I        1556 11.53        18.4 0.26                           146 260 
 OCA  SZ EP       1555 48.53                             127     0.5 9  162 354 
 OCA  SZ ES   1   1556  9.78                             127     0.0 7  162 354 
 OCA  SZ I        1556 11.80        27.1 0.73                           162 354 
 ZAR  HZ EP   2   1555 51.63                             121    -0.4 4  204 293 
 ZAR  HE ES   1   1556 16.29                             121    -0.6 6  204 293 
 ZAR  HZ I        1556 22.59        27.5 0.34                           204 293 
 NOR  SZ EP       1555 55.24                             117     0.1 8  232 235 
 CHI  HZ EP       1555 57.15                             116     0.1 8  246 195 
 CHI  HN ES   2   1556 25.88                             116    -0.1 4  246 195 
 CHI  HZ I        1556 34.21         7.6 0.44                           246 195 
 HEL  HZ EP   2   1556  0.14                             113     0.4 4  270 256 
 HEL  HE ES   3   1556 30.82                             113     0.2 2  270 256 
 HEL  HZ I        1556 37.83        14.2 0.38                           270 256 
 GUY  SZ EP   3   1556  2.99                             111    -0.4 2  301 235 
 GUY  SZ I        1556 48.52        11.5 0.30                           301 235 
                                                                                
