 2016  6 8 1111 59.0 L   6.803 -73.163145.6  RSN  5 0.2 1.6LRSN                1
 GAP=236        0.65       3.8     4.6  4.7  0.6905E+01  0.3124E+01  0.4839E+01E
 Epicentro: LOS SANTOS - SANTANDER                                             3
 ACTION:UPD 16-07-21 22:16 OP:rebc STATUS:               ID:20160608111159 L   I
 OLDACT:UP  16-06-08 23:22 OP:edw  STATUS:               ID:20160608110747d    3
 OLDACT:DUP 16-06-08 23:17 OP:edw  STATUS:               ID:20160608110747d    3
 2016-06-08-1107-46M.COL___325                                                 6
 STAT SP IPHASW D HRMM SECON CODA AMPLIT PERI AZIMU VELO AIN AR TRES W  DIS CAZ7
 BAR2 EZ EP       1112 18.37                             171   -0.2410 23.4 185 
 BAR2 EZ ES       1112 33.73                             171   -0.1810 23.4 185 
 BAR2 EZ I        1112 34.71         9.8 0.22                          23.4 185 
 BRR  HZ EP       1112 20.25                             153    0.2310 69.3 299 
 BRR  HE ES       1112 36.83                             153    0.4110 69.3 299 
 RUS  HZ EP       1112 22.81                             144    0.0410  101 175 
 RUS  HN ES       1112 41.23                             144   -0.0810  101 175 
 RUS  HZ I        1112 42.23         4.6 0.26                           101 175 
 PTB  HZ EP       1112 25.44                             132   -0.34 9  146 259 
 PTB  HN ES       1112 46.44                             132   -0.23 9  146 259 
 PTB  HZ I        1112 49.17         3.6 0.14                           146 259 
 CHI  HN EP       1112 36.86                             117    0.20 8  248 195 
 CHI  HE ES       1113  6.35                             117    0.30 8  248 195 
 CHI  HN I        1113  8.44         6.5 0.56                           248 195 
                                                                                
