 2017  1 8 1213 45.7 L   6.612 -73.577112.6  RSN 14 0.5 2.0LRSN                1
 GAP= 50        1.20       4.1     3.3  6.3  0.3920E+01  0.1149E+01  0.5128E+01E
 Epicentro: EL CARMEN - SANTANDER                                              3
 ACTION:UPD 17-05-22 15:57 OP:jn   STATUS:               ID:20170108121345 L   I
 OLDACT:UP  17-01-08 21:48 OP:and  STATUS:               ID:20170108120749     3
 OLDACT:UP  17-01-08 21:47 OP:and  STATUS:               ID:20170108120749     3
 OLDACT:UP  17-01-08 21:46 OP:and  STATUS:               ID:20170108120749     3
 OLDACT:UP  17-01-08 21:45 OP:and  STATUS:               ID:20170108120749     3
 OLDACT:UP  17-01-08 21:44 OP:and  STATUS:               ID:20170108120749     3
 OLDACT:UP  17-01-08 21:42 OP:and  STATUS:               ID:20170108120749     3
 OLDACT:UP  17-01-08 21:42 OP:and  STATUS:               ID:20170108120749     3
 OLDACT:UP  17-01-08 21:40 OP:and  STATUS:               ID:20170108120749     3
 OLDACT:UP  17-01-08 21:39 OP:and  STATUS:               ID:20170108120749     3
 OLDACT:UP  17-01-08 21:38 OP:and  STATUS:               ID:20170108120749     3
 OLDACT:REG 17-01-08 19:53 OP:and  STATUS:               ID:20170108120749     3
 2017-01-08-1208-00M.COL___374                                                 6
 STAT SP IPHASW D HRMM SECON CODA AMPLIT PERI AZIMU VELO AIN AR TRES W  DIS CAZ7
 BAR2 EZ IP     D 1214  2.37                             157    0.2410 43.7  93 
 BAR2 EZ ES       1214 14.96                             157    0.0310 43.7  93 
 BAR2 EZ I        1214 16.42        81.3 0.16            160           43.7  93 
 BRR  HZ EP       1214  2.53                             151    0.0610 56.8 345 
 BRR  HN ES       1214 15.86                             151    0.3210 56.8 345 
 BRR  HZ I        1214 16.74        37.4 0.14            157           56.8 345 
 RUS  HZ IP     D 1214  6.29                             137    0.2610 96.5 145 
 RUS  HE ES       1214 22.30                             137    0.4210 96.5 145 
 RUS  HZ I        1214 24.42        10.4 0.39            136           96.5 145 
 PTB  HZ IP     D 1214  5.07                             136   -0.4010 97.5 265 
 PTB  HN ES       1214 19.90                             136   -0.9710 97.5 265 
 PTB  HZ I        1214 22.72        25.5 0.16            136           97.5 265 
 PAM  EZ EP       1214  9.19                             128    0.5010  126  50 
 PAM  EN ES       1214 25.72                             128   -0.8810  126  50 
 PAM  EZ I        1214 30.52         8.6 0.23            133            126  50 
 ZAR  HZ EP       1214 13.40                             119    0.68 9  172 305 
 ZAR  HE ES       1214 34.60                             119    0.82 9  172 305 
 ZAR  HZ I        1214 37.04        19.2 0.28            121            172 305 
 TAM  HZ EP       1214 15.42                             115   -0.25 9  198  96 
 TAM  HN ES       1214 38.87                             115   -0.16 9  198  96 
 TAM  HZ I        1214 40.97        10.7 0.22            117            198  96 
 ROSC BZ EP   4   1214 21.35                             113    3.67 0  212 203 
 ROSC BN ES   4   1214 47.68                             113    5.08 0  212 203 
 ROSC BZ I        1214 52.86         7.4 0.30            113            212 203 
 CHI  HZ EP       1214 18.80                             112    0.27 8  220 184 
 CHI  HN ES   4   1214 46.57                             112    2.44 0  220 184 
 URE  HZ EP       1214 20.78                             109   -0.70 8  250 300 
 URE  HE ES   3   1214 47.78                             109   -1.60 2  250 300 
 GUY2CHZ EP   9   1214 25.20                             109    3.10 0  250 232 
 GUY2CHN ES       1214 53.48                             109   -0.10 8  250 232 
 PTGC HZ EP       1214 28.26                             104   -0.34 7  311 149 
 PTGC HN ES       1215  2.00                             104   -0.04 7  311 149 
 LL6C HZ EP   9   1214 14.98                             102   -17.9 0  347   6 
 LL6C HN ES   3   1214 53.40                                    1.64 2  347   6 
 ORTC HZ EP   4   1214 36.07                             102    2.63 0  351 212 
 ORTC HN ES   4   1215 14.54                             102    3.87 0  351 212 
 ORTC HZ I        1215 18.09         3.7 0.32            103            351 212 
                                                                                
