 2010  2 8 1227 15.6 L   6.808 -72.934143.1  RSN  7 0.4 2.3LRSN                1
 GAP=215        0.66       5.0    12.9  8.5 -0.3171E+02  0.2716E+02  0.7255E+01E
 Epicentro: CEPITA - SANTANDER                                                 3
 ACTION:UP  10-08-24 09:48 OP:vdl  STATUS:               ID:20100208122715 L   I
 2010-02-08-1226-13S.COL___093                                                 6
 STAT SP IPHASW D HRMM SECON CODA AMPLIT PERI AZIMU VELO SNR AR TRES W  DIS CAZ7
 BAR2 SZ EP   1   1227 35.52                             165     0.3 7   37 229 
 BAR2 SZ ES   2   1227 50.58                             165     0.0 5   37 229 
 OCA  SZ EP   1   1227 43.94                             129    -0.1 7  164 345 
 OCA  SZ ES   2   1228  5.68                             129    -0.5 5  164 345 
 CHI  HZ EP   1   1227 54.27                             116     0.3 6  257 200 
 CHI  HE ES   2   1228 22.99                             116    -1.0 4  257 200 
 CHI  HZ I        1228 27.16         5.1 0.62                           257 200 
 ROSC BZ EP   1   1227 55.43                             115     0.4 6  266 215 
 ROSC BZ I        1228 30.09        10.2 0.58                           266 215 
 RREF BZ EP   1   1228  3.85                             109     0.1 5  340 232 
 RREF BN ES   2   1228 41.61                             109     0.3 3  340 232 
 RREF BZ I        1228 47.72         8.3 0.24                           340 232 
 TOL  SZ EP   1   1228  5.64                             108    -0.1 5  361 227 
 TOL  SZ ES   2   1228 44.93                             108     0.1 3  361 227 
 PRA  HZ EP   1   1228  9.42                             105    -1.1 4  405 212 
 PRA  HN ES   2   1228 53.18                             105    -0.2 3  405 212 
 PRA  HZ I        1228 57.38         9.8 0.27                           405 212 
                                                                                
