 2017  8 8 1757 27.6 L   6.755 -73.167148.0  RSN  5 0.3 1.7LRSN                1
 GAP=136        0.77       4.7     5.0  6.8  0.3286E+01 -0.1937E+01 -0.1898E+01E
 Epicentro: LOS SANTOS - SANTANDER                                             3
 ACTION:UPD 17-09-04 20:18 OP:rebc STATUS:               ID:20170808175728dL   I
 OLDACT:REG 17-08-09 00:04 OP:dani STATUS:               ID:20170808174743d    3
 2017-08-08-1748-00M.COL___402                                                 6
 STAT SP IPHASW D HRMM SECON CODA AMPLIT PERI AZIMU VELO AIN AR TRES W  DIS CAZ7
 BAR2 EZ IP     C 1757 47.31                             173   -0.1010 18.1 186 
 BAR2 EZ ES   2   1758  2.63                             173   -0.23 5 18.1 186 
 BAR2 EZ I        1758  5.01        17.8 0.30            174           18.1 186 
 BRR  HZ EP       1757 49.07                             153    0.0510 71.8 303 
 BRR  HN ES       1758  6.25                             153    0.5210 71.8 303 
 BRR  HZ I        1758  8.23        13.1 0.17            154           71.8 303 
 PAM  EZ IP     C 1757 50.18                             150   -0.2010 82.7  39 
 PAM  EN ES   2   1758  7.60                             150   -0.54 5 82.7  39 
 PAM  EZ I        1758 10.29         7.7 0.36            152           82.7  39 
 RUS  HZ EP       1757 51.63                             146    0.3910 95.8 174 
 RUS  HN ES       1758  9.63                             146   -0.0510 95.8 174 
 RUS  HZ I        1758 11.26         8.2 0.26            149           95.8 174 
 PTB  HZ EP       1757 54.37                             133   -0.10 9  145 261 
 PTB  HN ES   1   1758 14.75                             133   -0.68 7  145 261 
 PTB  HZ I        1758 17.13         4.3 0.09            136            145 261 
                                                                                
