 2013  8 8 1340 15.2 L   6.801 -73.148148.7  RSN 12 0.4 2.3LRSN                1
 GAP=136        0.87       3.2     3.9  6.6 -0.1753E+01  0.5988E+01  0.3550E+01E
 Epicentro: LOS SANTOS - SANTANDER                                             3
 ACTION:UPD 14-01-14 09:00 OP:ep   STATUS:               ID:20130808134015 L   I
 OLDACT:UP  13-08-08 18:31 OP:mh   STATUS:               ID:20130808133959     3
 OLDACT:REG 13-08-08 15:55 OP:mh   STATUS:               ID:20130808133959     3
 2013-08-08-1339-59M.COL___270                                                 6
 STAT SP IPHASW D HRMM SECON CODA AMPLIT PERI AZIMU VELO AIN AR TRES W  DIS CAZ7
 BAR2 SZ EP   1   1340 35.20                             171    0.02 8 23.4 189 
 BAR2 SZ I        1340 53.20        15.2 0.26            171           23.4 189 
 GIR2 SZ EP   1   1340 35.31                             168    0.10 8 31.1 351 
 GIR2 SZ I        1340 51.56        13.2 0.32            167           31.1 351 
 BRR  HZ EP   1   1340 37.05                             153    0.40 8 70.9 299 
 BRR  HN ES   1   1340 54.29                             153    0.91 8 70.9 299 
 BRR  HN I        1340 56.77        49.2 0.18            154           70.9 299 
 PAM  SZ EP   1   1340 38.09                             151    0.36 8 77.5  40 
 PAM  SN ES   1   1340 55.15                             151   -0.15 8 77.5  40 
 PAM  SN I        1340 56.05        34.0 0.46            149           77.5  40 
 RUS  HZ EP   1   1340 39.03                             144   -0.21 8  101 176 
 RUS  HN ES   1   1340 57.48                             144   -0.52 8  101 176 
 PTB  HZ EP   1   1340 42.15                             133   -0.23 7  148 259 
 PTB  HN ES       1341  3.05                             133   -0.5410  148 259 
 PTB  HN I        1341  8.49        47.6 0.46            134            148 259 
 OCA  HN ES   1   1341  5.17                             130   -0.80 7  160 353 
 OCA  HN I        1341  9.38        42.4 0.34            130            160 353 
 SPBC HZ EP   1   1340 44.12                             130    0.21 7  163 219 
 SPBC HN ES       1341  6.53                             130    0.2210  163 219 
 SPBC HN I        1341 12.55        54.6 0.10            130            163 219 
 ZAR  HZ EP       1340 47.73                             123   -0.08 9  204 292 
 ZAR  HN ES   1   1341 13.76                             123    0.52 7  204 292 
 ZAR  HN I        1341 19.50        25.9 0.52            123            204 292 
 CHI  HZ EP   1   1340 53.28                             118    0.22 6  249 195 
 CHI  HN ES       1341 22.83                             118    0.23 8  249 195 
 CHI  HN I        1341 26.14        11.8 0.24            118            249 195 
 HEL  HZ EP       1340 55.11                             115   -0.43 8  272 256 
 HEL  HN ES       1341 27.17                             115    0.17 8  272 256 
 HEL  HN I        1341 33.98         6.5 0.32            116            272 256 
 GUY2CHZ EP   1   1340 59.58                             113    0.65 6  301 235 
 GUY2CHN ES   1   1341 32.18                             113   -0.85 6  301 235 
 GUY2CHN I        1341 44.07        11.8 0.56                           301 235 
                                                                                
