 2011  6 8 1030 41.5 L   6.812 -73.164138.4  RSN  5 0.2 1.6LRSN                1
 GAP=134        0.47       3.4     7.5  5.7 -0.8591E+01  0.1845E+02 -0.7193E+01E
 Epicentro: LOS SANTOS - SANTANDER                                             3
 ACTION:UP  11-07-14 19:04 OP:ep   STATUS:               ID:20110608103041 L   I
 2011-06-08-1026-37S.COL___121                                                 6
 STAT SP IPHASW D HRMM SECON CODA AMPLIT PERI AZIMU VELO SNR AR TRES W  DIS CAZ7
 BAR2 SZ EP   1   1031  0.10                             169    -0.2 7   24 185 
 BAR2 SZ ES   1   1031 14.69                             169    -0.2 7   24 185 
 BAR2 SZ I        1031 16.34        13.6 0.16                            24 185 
 BRR  HZ EP   1   1031  2.00                             152     0.3 7   69 298 
 BRR  HZ I        1031 21.23         8.5 0.13                            69 298 
 PAM  SZ EP   1   1031  3.01                             149     0.1 7   78  41 
 PAM  SE ES   1   1031 19.78                             149     0.1 7   78  41 
 RUS  HZ EP   1   1031  4.57                             142    -0.1 7  102 175 
 RUS  HN ES   1   1031 22.84                             142     0.1 7  102 175 
 RUS  HZ I        1031 24.73         3.6 0.23                           102 175 
 OCA  SZ EP   1   1031  8.89                             128    -0.2 7  159 354 
 OCA  SZ I        1031 35.09         5.3 0.24                           159 354 
                                                                                
