 2013  2 8 1646 31.6 L   6.778 -73.146145.7  RSN  6 0.3 1.6LRSN                1
 GAP=138        0.65       3.5     4.3  5.5 -0.2349E+01  0.1500E+01  0.3596E+01E
 Epicentro: LOS SANTOS - SANTANDER                                             3
 ACTION:UPD 13-03-12 09:31 OP:ep   STATUS:               ID:20130208164631 L   I
 2013-02-08-1640-00M.COL___241                                                 6
 STAT SP IPHASW D HRMM SECON CODA AMPLIT PERI AZIMU VELO AIN AR TRES W  DIS CAZ7
 BAR2 SZ EP       1646 51.04                             171   -0.1610 20.9 191 
 BAR2 SZ ES   1   1647  6.37                             171   -0.10 7 20.9 191 
 BAR2 SZ I        1647  7.51        10.4 0.23            170           20.9 191 
 BRR  HZ EP       1646 53.03                             152    0.2010 72.4 300 
 BRR  HZ I        1646 59.96        14.2 0.23            150           72.4 300 
 BRR  HE ES   1   1647 10.01                             152    0.63 7 72.4 300 
 PAM  SZ EP       1646 53.97                             150    0.0210 79.3  38 
 PAM  SN ES   1   1647 11.01                             150   -0.35 7 79.3  38 
 PAM  SZ I        1647 13.66         5.0 0.56            150           79.3  38 
 RUS  HZ EP   1   1646 55.15                             144   -0.04 7 98.1 176 
 RUS  HN ES   1   1647 13.80                             144    0.22 7 98.1 176 
 RUS  HN I        1647 15.00         7.7 0.25            143           98.1 176 
 PTB  HZ EP   1   1646 58.29                             132   -0.25 7  147 260 
 PTB  HN ES   1   1647 19.00                             132   -0.54 7  147 260 
 PTB  HZ I        1647 22.32         5.2 0.33            130            147 260 
 CHI  HZ EP   1   1647  9.52                             117    0.47 6  246 195 
 CHI  HE ES   1   1647 38.13                             117   -0.13 6  246 195 
 CHI  HZ I        1647 43.73         1.5 0.66            116            246 195 
                                                                                
