 2013  6 8 1717 50.7 L   6.808 -73.132139.9  RSN  7 0.4 2.0LRSN                1
 GAP=190        1.02       5.5     5.6  6.7  0.2130E+01  0.1076E+02  0.9716E+01E
 Epicentro: LOS SANTOS - SANTANDER                                             3
 ACTION:UPD 14-01-08 09:53 OP:ep   STATUS:               ID:20130608171750 L   I
 OLDACT:REG 13-06-08 16:36 OP:nd   STATUS:               ID:20130608170959     3
 2013-06-08-1709-59M.COL___261                                                 6
 STAT SP IPHASW D HRMM SECON CODA AMPLIT PERI AZIMU VELO AIN AR TRES W  DIS CAZ7
 BAR2 SZ EP       1718  9.69                             170    0.0410 24.5 193 
 BAR2 SZ ES       1718 24.35                             170   -0.0910 24.5 193 
 BAR2 SZ I        1718 28.33        15.8 0.18            167           24.5 193 
 GIR2 SZ EP       1718  9.97                             167    0.3110 30.7 347 
 GIR2 SZ ES       1718 24.12                             167   -0.3410 30.7 347 
 GIR2 SZ I        1718 26.58        24.3 0.32            168           30.7 347 
 BRR  HZ EP       1718 11.81                             151    0.5310 72.2 297 
 BRR  HN ES       1718 27.49                             151    0.1610 72.2 297 
 BRR  HZ I        1718 32.19        23.0 0.32            151           72.2 297 
 RUS  HZ EP       1718 13.89                             142   -0.0510  101 177 
 RUS  HN ES       1718 32.11                             142    0.0410  101 177 
 RUS  HZ I        1718 34.26         7.3 0.30            144            101 177 
 PTB  HZ EP       1718 17.07                             130   -0.28 9  149 259 
 PTB  HN ES       1718 37.69                             130   -0.46 9  149 259 
 PTB  HZ I        1718 40.76        18.2 0.34            131            149 259 
 NOR  HZ EP       1718 25.47                             117   -0.82 8  236 235 
 NOR  HN ES       1718 54.92                             117    0.87 8  236 235 
 NOR  HZ I        1718 59.75        10.7 0.18            119            236 235 
 GUY2CHZ EP   4   1718 35.16                             111    0.91 0  303 235 
 GUY2CHN ES   4   1719  7.21                             111   -1.00 0  303 235 
 GUY2CHZ I        1719 16.76         4.3 0.28                           303 235 
                                                                                
