 2012  2 8 1439 44.4 L   6.729 -73.155144.0  RSN  7 0.4 1.9LRSN                1
 GAP=181        0.71       5.4     5.6  6.5  0.1320E+02  0.7796E+01  0.3810E+01E
 ACTION:UP  12-03-07 16:28 OP:epov STATUS:               ID:20120208143944 L   I
 2012-02-08-1437-36S.COL___159                                                 6
 STAT SP IPHASW D HRMM SECON CODA AMPLIT PERI AZIMU VELO AIN AR TRES W  DIS CAZ7
 BAR2 SZ EP   1   1440  3.45                             174   -0.27 7 15.4 191 
 BAR2 SZ ES   1   1440 18.31                             174   -0.45 7 15.4 191 
 BAR2 SZ I        1440 20.65        25.6 0.27                          15.4 191 
 GIR2 SZ EP   1   1440  4.29                             164    0.16 7 39.0 354 
 BRR  HZ EP   1   1440  6.05                             151    0.47 7 74.5 304 
 BRR  HE ES   1   1440 22.62                             151    0.54 7 74.5 304 
 BRR  HZ I        1440 27.24        26.9 0.14                          74.5 304 
 RUS  HZ EP   1   1440  7.26                             146   -0.20 7 92.8 175 
 RUS  HN ES   1   1440 25.65                             146    0.23 7 92.8 175 
 RUS  HZ I        1440 27.82         5.6 0.21                          92.8 175 
 PTB  HZ EP   1   1440 11.16                             132    0.12 7  145 262 
 PTB  HN ES   1   1440 31.29                             132   -0.51 7  145 262 
 PTB  HZ I        1440 34.82                                            145 262 
 ZAR  HZ EP   2   1440 16.11                             122   -0.88 4  206 294 
 ZAR  HN ES   1   1440 42.31                             122   -0.07 6  206 294 
 ZAR  HZ I        1440 48.43         7.4 0.26                           206 294 
 PRA  HZ EP   1   1440 37.20                             107    0.17 4  385 210 
 PRA  HE ES   2   1441 18.91                             107    0.85 3  385 210 
                                                                                
