 2015  3 8 1559 48.5 L   6.532 -73.538109.6  RSN 17 0.6 2.4LRSN                1
 GAP= 59        1.35       3.0     3.0  6.3 -0.1201E+01  0.4746E+01  0.2249E+01E
 Epicentro: EL CARMEN - SANTANDER                                              3
 ACTION:UPD 15-04-30 16:24 OP:nd   STATUS:               ID:20150308155948 L   I
 OLDACT:REG 15-03-08 22:58 OP:carl STATUS:               ID:20150308155748     3
 2015-03-08-1557-48M.COL___284                                                 6
 STAT SP IPHASW D HRMM SECON CODA AMPLIT PERI AZIMU VELO AIN AR TRES W  DIS CAZ7
 BAR2 EZ IP     D 16 0  4.65                             159    0.2910 39.9  80 
 BAR2 EZ ES       16 0 16.83                             159    0.0710 39.9  80 
 BRR  HZ EP       16 0  5.49                             146   -0.0310 66.5 343 
 BRR  HN ES       16 0 19.18                             146    0.3610 66.5 343 
 BRR  HZ I        16 0 26.69        48.3 0.14            149           66.5 343 
 RUS  HZ EP       16 0  7.55                             139   -0.1610 86.8 145 
 RUS  HE ES       16 0 23.05                             139    0.3210 86.8 145 
 RUS  HZ I        16 0 23.57        39.2 0.20            142           86.8 145 
 PTB  HZ IP     D 16 0  7.40                             134   -0.9010  102 271 
 PTB  HN ES       16 0 22.38                             134   -1.4010  102 271 
 PTB  HZ I        16 0 23.50        96.7 0.32            135            102 271 
 SPBC HZ EP       16 0  9.40                             130   -0.1210  114 211 
 SPBC HN ES       16 0 26.70                             130    0.7710  114 211 
 SPBC HZ I        16 0 33.22        53.2 0.14            132            114 211 
 PAM  SZ EP       16 0 11.49                             127    0.0210  129  46 
 PAM  SN ES       16 0 29.16                             127   -0.2510  129  46 
 PAM  SZ I        16 0 30.75        42.7 0.30            131            129  46 
 ZAR  HZ EP       16 0 16.63                             116    0.40 9  180 306 
 ZAR  HN ES       16 0 39.17                             116    1.28 9  180 306 
 ZAR  HZ I        16 0 42.85        63.2 0.44            119            180 306 
 NOR  HZ EP       16 0 16.21                             116   -0.26 9  182 234 
 NOR  HN ES       16 0 37.32                             116   -1.00 9  182 234 
 NOR  HZ I        16 0 39.86        32.2 0.24            118            182 234 
 TAM  HZ EP       16 0 17.40                             114   -0.31 9  194  93 
 TAM  HN ES       16 0 40.26                             114   -0.27 9  194  93 
 TAM  HZ I        16 0 40.89        25.2 0.20            118            194  93 
 CHI  HZ EP       16 0 20.37                             112    0.18 8  211 186 
 CHI  HN ES       16 0 45.29                             112    0.36 8  211 186 
 CHI  HZ I        16 0 49.42         9.5 0.26            115            211 186 
 HEL  HZ EP       16 0 21.39                             111   -0.11 8  223 260 
 HEL  HN ES       16 0 47.57                             111    0.31 8  223 260 
 HEL  HZ I        16 0 51.50        16.7 0.20            113            223 260 
 GUY2CHZ EP   4   16 0 26.04                             108    1.52 0  249 235 
 GUY2CHE ES   4   16 0 55.04                             108    2.39 0  249 235 
 GUY2CHZ I        16 0 57.02        14.5 0.32                           249 235 
 SML  HZ EP       16 0 24.45                             107   -0.53 8  258 347 
 SML  HE ES       16 0 54.02                             107    0.56 8  258 347 
 SML  HZ I        16 0 56.56        51.7 0.28            110            258 347 
 RREF HZ EP   4   16 0 34.51                             107    7.35 0  270 228 
 RREF HN ES   4   16 0 58.51                             107    1.17 0  270 228 
 RREF HZ I        16 1  5.12        10.3 0.26            109            270 228 
 CBOC HZ EP       16 0 28.75                             105    0.53 7  284 255 
 CBOC HN ES       16 0 59.05                             105   -0.18 7  284 255 
 CBOC HZ I        16 1  2.67        13.7 0.42            107            284 255 
 TOL  SZ EP       16 0 29.35                             105   -0.07 7  292 223 
 TOL  SN ES       16 1  1.35                             105   -0.02 7  292 223 
 TOL  SZ I        16 1  4.80        13.0 0.72            107            292 223 
 PRA  HZ EP       16 0 35.53                             101    0.12 6  346 206 
 PRA  HN ES       16 1 13.05                             101    1.02 6  346 206 
 PRA  HZ I        16 1 20.39        11.1 0.46            104            346 206 
                                                                                
