 2015  4 8 1559 55.6 L   6.807 -73.146148.7  RSN  8 0.6 2.0LRSN                1
 GAP=150        1.35       5.4     6.1  8.6 -0.8528E+01  0.1506E+02  0.1756E+01E
 Epicentro: LOS SANTOS - SANTANDER                                             3
 ACTION:UPD 15-06-03 16:53 OP:cam  STATUS:               ID:20150408155955 L   I
 OLDACT:UP  15-04-08 22:12 OP:carl STATUS:               ID:20150408155747     3
 OLDACT:REG 15-04-08 21:06 OP:carl STATUS:               ID:20150408155747     3
 2015-04-08-1557-47M.COL___260                                                 6
 STAT SP IPHASW D HRMM SECON CODA AMPLIT PERI AZIMU VELO AIN AR TRES W  DIS CAZ7
 BAR2 EZ EP       16 0 15.61                             170    0.0310 24.1 190 
 BAR2 EZ ES       16 0 30.70                             170   -0.4710 24.1 190 
 BAR2 EZ I        16 0 31.53        17.7 0.18            170           24.1 190 
 BRR  HZ EP       16 0 17.56                             153    0.5310 70.8 298 
 BRR  HN ES       16 0 34.51                             153    0.7610 70.8 298 
 BRR  HZ I        16 0 37.68        18.1 0.48            152           70.8 298 
 PAM  SZ EP       16 0 18.39                             151    0.3110 76.8  40 
 PAM  SE ES       16 0 35.43                             151   -0.1910 76.8  40 
 PAM  SZ I        16 0 38.07        12.6 0.44            155           76.8  40 
 PTB  HZ EP       16 0 22.41                             133   -0.39 9  148 259 
 PTB  HN ES       16 0 43.54                             133   -0.49 9  148 259 
 PTB  HZ I        16 0 44.68        11.4 0.28            133            148 259 
 SPBC HZ EP       16 0 24.74                             130    0.38 9  164 219 
 SPBC HN ES       16 0 46.92                             130    0.11 9  164 219 
 SPBC HZ I        16 0 52.48        13.2 0.20            131            164 219 
 ZAR  HZ EP       16 0 28.85                             123    0.66 9  204 292 
 ZAR  HN ES       16 0 54.17                             123    0.55 9  204 292 
 ZAR  HZ I        16 0 59.79        11.3 0.70            124            204 292 
 NOR  HZ EP       16 0 30.74                             119   -0.79 8  235 234 
 NOR  HN ES       16 0 59.33                             119   -0.23 8  235 234 
 NOR  HZ I        16 1  2.52         7.9 0.18            120            235 234 
 SML  HN ES       16 0 59.65                             118   -1.29 8  243 335 
                                                                                
