 2012  8 8 1253 52.1 L   6.745 -73.107146.0  RSN  6 0.4 1.8LRSN                1
 GAP=144        0.66       6.0     4.8  7.0 -0.4608E+01  0.3035E+01 -0.5585E+01E
 Epicentro: JORDAN - SANTANDER                                                 3
 ACTION:UP  12-09-10 11:55 OP:ep   STATUS:               ID:20120808125352 L   I
 2012-08-08-1250-00M.COL___216                                                 6
 STAT SP IPHASW D HRMM SECON CODA AMPLIT PERI AZIMU VELO AIN AR TRES W  DIS CAZ7
 BAR2 SZ EP   1   1254 11.65                             172    0.01 7 18.9 206 
 BAR2 SZ ES   1   1254 26.41                             172   -0.50 7 18.9 206 
 BAR2 SZ I        1254 28.14        10.7 0.20                          18.9 206 
 BRR  HZ EP   1   1254 13.42                             150   -0.21 7 77.9 301 
 BRR  HZ I        1254 14.88        11.1 0.12                          77.9 301 
 BRR  HN ES   1   1254 30.63                             150    0.18 7 77.9 301 
 PAM  SZ EP       1254 14.59                             150    0.1510 79.6  34 
 PAM  SZ I        1254 14.77        20.6 0.21                          79.6  34 
 PAM  SN ES   1   1254 31.91                             150    0.02 7 79.6  34 
 RUS  HN ES   2   1254 34.36                             146    0.76 5 94.3 178 
 PTB  HZ EP   2   1254 18.56                             131   -0.78 5  151 261 
 PTB  HN ES   2   1254 40.59                             131   -0.02 5  151 261 
 PTB  HZ I        1254 42.17         3.9 0.13                           151 261 
 ZAR  HN ES   2   1254 51.63                             121    0.63 4  210 293 
 ZAR  HZ I        1254 56.27         6.2 0.27                           210 293 
                                                                                
