 2011 12 8 1351 51.6 L   6.762 -73.091137.2  RSN  9 0.3 2.1LRSN                1
 GAP=145        0.62       3.0     4.3  4.6 -0.3240E+01  0.8087E+01  0.1525E+01E
 Epicentro: LOS SANTOS - SANTANDER                                             3
 ACTION:UPD 12-07-13 16:15 OP:ep   STATUS:               ID:20111208135151 L   I
 2011-12-08-1350-00M.COL___170                                                 6
 STAT SP IPHASW D HRMM SECON CODA AMPLIT PERI AZIMU VELO AIN AR TRES W  DIS CAZ7
 BAR2 SZ EP   1   1352  9.96                             171   -0.15 7 21.3 208 
 BAR2 SZ ES   1   1352 24.41                             171   -0.17 7 21.3 208 
 BAR2 SZ I        1352 26.14        33.1 0.12                          21.3 208 
 PAM  SZ EP       1352 13.12                             149    0.2810 77.1  34 
 PAM  SE ES   1   1352 28.93                             149   -0.52 7 77.1  34 
 BRR  HZ EP       1352 12.24                             148    0.0110 78.5 299 
 BRR  HE ES   1   1352 28.64                             148    0.28 7 78.5 299 
 BRR  HZ I        1352 30.31        35.9 0.18                          78.5 299 
 RUS  HZ EP   1   1352 14.17                             143    0.03 7 96.2 179 
 RUS  HN ES       1352 32.04                             143    0.2810 96.2 179 
 RUS  HZ I        1352 34.48        14.9 0.40                          96.2 179 
 NOR  SZ EP   1   1352 26.38                             116   -0.70 6  237 236 
 CHI  HZ EP   1   1352 28.55                             115    0.02 6  246 197 
 CHI  HN ES   1   1352 56.90                             115   -0.47 6  246 197 
 HEL  HZ EP   1   1352 31.90                             113    0.01 6  277 257 
 HEL  HZ I        1353  9.78         5.3 0.40                           277 257 
 GUY  SZ EP   1   1352 35.80                             110    0.46 5  306 236 
 GUY  SN ES   1   1353  9.08                             110   -0.42 5  306 236 
 RREF HZ EP   1   1352 37.73                             109    0.17 5  324 231 
 RREF HE ES   1   1353 13.78                             109    0.33 5  324 231 
 RREF HZ I        1353 20.96         4.1 0.19                           324 231 
                                                                                
