 2017  8 8 1434  9.9 L   6.824 -73.093146.8  RSN  9 0.4 1.8LRSN                1
 GAP=245        0.76       3.2     4.1  4.2  0.3362E+01  0.2290E+01  0.1676E+01E
 Epicentro: LOS SANTOS - SANTANDER                                             3
 ACTION:UPD 17-09-04 20:18 OP:rebc STATUS:               ID:20170808143409 L   I
 OLDACT:REG 17-08-08 22:04 OP:mg   STATUS:               ID:20170808142738     3
 2017-08-08-1428-00M.COL___396                                                 6
 STAT SP IPHASW D HRMM SECON CODA AMPLIT PERI AZIMU VELO AIN AR TRES W  DIS CAZ7
 BAR2 EZ EP       1434 29.75                             169   -0.0210 27.5 201 
 BAR2 EZ ES       1434 45.10                             169   -0.1410 27.5 201 
 BAR2 EZ I        1434 45.97        15.2 0.20            168           27.5 201 
 BRR  HZ IP     D 1434 31.53                             152    0.1210 75.2 295 
 BRR  HE ES       1434 48.62                             152    0.4510 75.2 295 
 BRR  HZ I        1434 50.85        19.5 0.20            150           75.2 295 
 RUS  HZ IP     D 1434 33.77                             144   -0.1810  103 179 
 RUS  HN ES       1434 52.92                             144    0.2310  103 179 
 RUS  HZ I        1434 53.57         6.5 0.28            144            103 179 
 PTB  HZ EP   9   1434 36.48                             131   -1.06 0  154 258 
 PTB  HN ES       1434 57.87                                   -0.15 9  154 258 
 PTB  HZ I        1434 58.63         7.0 0.14            130            154 258 
 SPBC HZ IP     D 1434 38.76                             128   -0.29 9  169 220 
 SPBC HN ES       1435  1.65                             128   -0.12 9  169 220 
 SPBC HZ I        1435  4.39         8.0 0.25            128            169 220 
 ZAR  HZ EP       1434 43.29                             122    0.40 8  209 291 
 ZAR  HE ES       1435  7.97                             122   -0.64 8  209 291 
 ZAR  HZ I        1435 13.27         5.8 0.14            122            209 291 
 NOR  HZ EP       1434 46.82                             118    0.43 8  241 235 
 NOR  HN ES       1435 14.45                             118   -0.38 8  241 235 
 NOR  HZ I        1435 18.54         4.2 0.18            118            241 235 
 CHI  HZ EP       1434 48.04                             117   -0.09 8  253 196 
 CHI  HE ES       1435 17.89                             117   -0.04 8  253 196 
 CHI  HZ I        1435 19.71         6.0 0.30            117            253 196 
 GUY2CHZ EP       1434 54.34                             112    0.05 7  308 235 
 GUY2CHN ES   3   1435 31.64                             112    2.74 2  308 235 
 GUY2CHZ I        1435 35.14         2.9 0.22                           308 235 
                                                                                
