 2016  2 8 1752 40.1 L   6.815 -73.130144.6  RSN 17 0.6 2.2LRSN                1
 GAP=120        1.21       3.0     4.1  6.3 -0.1902E+01  0.7500E+01 -0.1923E+01E
 Epicentro: LOS SANTOS - SANTANDER                                             3
 ACTION:UPD 16-03-04 21:24 OP:rebc STATUS:               ID:20160208175240 L   I
 OLDACT:REG 16-02-08 21:58 OP:ak   STATUS:               ID:20160208174748     3
 2016-02-08-1747-48M.COL___331                                                 6
 STAT SP IPHASW D HRMM SECON CODA AMPLIT PERI AZIMU VELO AIN AR TRES W  DIS CAZ7
 BAR2 EZ EP     C 1752 59.87                             170    0.2310 25.3 193 
 BAR2 EZ ES       1753 14.70                             170   -0.1710 25.3 193 
 BAR2 EZ I        1753 15.71        25.7 0.30            169           25.3 193 
 PAM  EZ EP   1   1753  2.93                             151    0.87 7 75.0  39 
 PAM  EN ES       1753 19.65                             151    0.4710 75.0  39 
 PAM  EZ I        1753 21.72        50.0 0.58            154           75.0  39 
 RUS  HZ EP       1753  3.80                             143   -0.0610  102 177 
 RUS  HN ES       1753 22.56                             143    0.1810  102 177 
 RUS  HZ I        1753 24.10        14.6 0.34            145            102 177 
 PTB  HZ EP       1753  7.09                             131   -0.07 9  150 258 
 PTB  HN ES       1753 27.36                             131   -0.91 9  150 258 
 PTB  HZ I        1753 30.42        16.4 0.14            132            150 258 
 OCA  HZ EP       1753  8.34                             130    0.15 9  159 352 
 OCA  HN ES       1753 29.89                             130   -0.21 9  159 352 
 OCA  HZ I        1753 35.20        26.8 0.24            131            159 352 
 SPBC HZ EP       1753  8.83                             128    0.09 9  166 219 
 SPBC HN ES       1753 30.48                             128   -0.60 9  166 219 
 SPBC HZ I        1753 34.15        17.9 0.10            129            166 219 
 ZAR  HZ EP   1   1753 13.12                             122    0.54 6  205 292 
 ZAR  HN ES       1753 38.61                             122    0.71 9  205 292 
 ZAR  HZ I        1753 43.92        16.1 0.18            123            205 292 
 NOR  HZ EP       1753 16.21                             118    0.19 8  237 234 
 NOR  HN ES       1753 43.50                             118   -0.54 8  237 234 
 NOR  HZ I        1753 51.93         5.8 0.14            119            237 234 
 SML  HZ EP       1753 15.67                             117   -0.91 8  243 335 
 SML  HN ES       1753 45.26                             117    0.23 8  243 335 
 CHI  HZ EP       1753 18.88                             117    0.91 8  251 195 
 CHI  HN ES       1753 47.07                             117   -0.43 8  251 195 
 URE  HZ EP   4   1753 24.00                             113    2.77 0  285 291 
 URE  HN ES   4   1753 51.95                             113   -1.35 0  285 291 
 URE  HZ I        1753 53.28        14.2 0.14            114            285 291 
 SOCV BZ EP       1753 21.84                             112   -1.00 7  299  57 
 SOCV BN ES   4   1753 53.38                             112   -2.78 0  299  57 
 GUY2CHZ EP   4   1753 25.36                             112    1.43 0  304 235 
 GUY2CHE ES       1753 58.70                             112    0.59 7  304 235 
 GUY2CHZ I        1754  4.98         6.1 0.24                           304 235 
 DBB  SZ EP   2   1753 28.54                             109    0.82 3  341 274 
 DBB  SZ ES       1754  5.73                             109    0.87 7  341 274 
 DBB  SZ I        1754  8.45        21.2 0.48            110            341 274 
 MON  HN ES       1754  6.63                             108   -0.68 6  354 308 
 ORTC HZ EP       1753 34.55                             106    0.29 6  398 216 
 ORTC HE ES   4   1754 14.89                             106   -1.62 0  398 216 
 ORTC HZ I        1754 22.01         3.0 0.37            107            398 216 
 SJC  HZ EP       1753 34.74                             105   -0.84 6  409 327 
 SJC  HN ES   4   1754 15.52                             105   -3.32 0  409 327 
 SJC  HZ I        1754 19.90         3.7 0.62            107            409 327 
                                                                                
