 2012  4 8 1735 19.8 L   6.803 -73.133149.8  RSN 18 0.5 2.8LRSN                1
 GAP=104        1.26       5.3     6.1  7.2 -0.2316E+01  0.9158E+01  0.8795E+01E
 Epicentro: LOS SANTOS - SANTANDER                                             3
 ACTION:UPD 12-07-05 11:51 OP:tino STATUS:               ID:20120408173519 L   I
 2012-04-08-1730-00M.COL___196                                                 6
 STAT SP IPHASW D HRMM SECON CODA AMPLIT PERI AZIMU VELO AIN AR TRES W  DIS CAZ7
 BAR2 SZ IP       1735 39.92                             171     0.010   24 193 
 BAR2 SZ ES   1   1735 55.34                             171    -0.3 7   24 193 
 BAR2 SZ I        1735 57.69        97.8 0.48                            24 193 
 BRR  HZ EP       1735 41.89                             153     0.510   72 298 
 BRR  HE ES   1   1735 58.92                             153     0.6 7   72 298 
 BRR  HZ I        1736  1.55       105.2 0.16                            72 298 
 PAM  SZ EP       1735 42.73                             152     0.410   76  39 
 PAM  SN ES   1   1735 59.99                             152     0.0 7   76  39 
 RUS  HZ EP       1735 43.70                             145    -0.210  101 177 
 RUS  HZ I        1735 45.09        33.9 0.48                           101 177 
 RUS  HE ES   1   1736  2.72                             145    -0.1 7  101 177 
 PTB  HZ EP       1735 45.95                             133    -1.3 9  149 259 
 PTB  HN ES   2   1736  7.73                             133    -0.9 5  149 259 
 PTB  HZ I        1736 13.66        63.9 0.40                           149 259 
 OCA  SZ EP       1735 48.56                             131     0.2 9  160 353 
 YOP  SZ EP   2   1735 50.30                             127     0.2 4  179 154 
 YOP  SZ I        1735 50.67        27.8 0.58                           179 154 
 ZAR  HZ EP       1735 52.44                             123    -0.2 8  205 292 
 ZAR  HN ES   1   1736 17.98                             123    -0.2 6  205 292 
 ZAR  HZ I        1736 24.37        73.2 0.54                           205 292 
 NOR  SZ EP       1735 55.93                             119     0.0 8  236 235 
 CHI  HZ EP       1735 58.08                             118     0.3 8  249 195 
 CHI  HZ I        1735 59.73        17.7 0.20                           249 195 
 HEL  HZ EP   1   1736  0.41                             115     0.0 6  274 256 
 HEL  HZ I        1736 38.09        25.7 0.86                           274 256 
 VIL  SZ EP       1736  2.90                             113    -0.6 7  304 192 
 GUY  SZ EP   3   1736  5.65                             113     1.7 2  305 235 
 GUY  SZ I        1736 47.28        57.2 0.34                           305 235 
 RREF HZ EP       1736  6.85                             111     0.6 7  323 230 
 RREF HZ I        1736 48.30        32.7 0.26                           323 230 
 TOL  SZ EP       1736  9.00                             110     0.7 7  345 225 
 SDV  BZ EP       1736  8.94                             109    -0.9 6  359  50 
 ANIL HZ EP       1736 10.68                             109     0.8 6  359 225 
 ANIL HZ I        1736 55.64        91.8 0.44                           359 225 
 PRA  HZ EP       1736 13.66                             107     0.1 6  393 210 
                                                                                
