 2017  3 8 1317 18.6 L   6.774 -73.127143.9  RSN  8 0.3 2.0LRSN                1
 GAP= 97        0.82       3.5     3.1  4.8  0.7066E+00  0.2107E+01  0.2596E+01E
 Epicentro: LOS SANTOS - SANTANDER                                             3
 ACTION:UPD 17-05-25 18:37 OP:jn   STATUS:               ID:20170308131718 L   I
 OLDACT:REG 17-03-08 20:46 OP:ar   STATUS:               ID:20170308130744     3
 2017-03-08-1308-00M.COL___332                                                 6
 STAT SP IPHASW D HRMM SECON CODA AMPLIT PERI AZIMU VELO AIN AR TRES W  DIS CAZ7
 BAR2 EZ IP     C 1317 37.81                             171   -0.1110 21.0 197 
 BAR2 EZ ES       1317 52.97                             171   -0.0510 21.0 197 
 BAR2 EZ I        1317 57.89        10.3 0.46            169           21.0 197 
 BRR  HZ EP       1317 39.82                             151    0.1310 74.4 300 
 BRR  HE ES       1317 56.66                             151    0.4910 74.4 300 
 BRR  HZ I        1318  0.96        27.4 0.12            150           74.4 300 
 PAM  EZ EP       1317 40.82                             150    0.1910 78.3  37 
 PAM  EN ES       1317 57.57                             150   -0.2810 78.3  37 
 PAM  EZ I        1317 59.73        31.0 0.44            155           78.3  37 
 RUS  HZ EP       1317 41.92                             144    0.0110 97.6 177 
 RUS  HN ES       1317 59.90                             144   -0.2310 97.6 177 
 RUS  HZ I        1318  0.86        10.1 0.22            146           97.6 177 
 PTB  HZ EP       1317 44.89                             131   -0.62 9  149 260 
 PTB  HN ES       1318  6.61                             131    0.07 9  149 260 
 PTB  HZ I        1318 12.25         9.5 0.34            132            149 260 
 TAM  HZ EP       1317 46.20                             131    0.36 9  152 104 
 ZAR  HZ EP       1317 50.62                             121   -0.58 8  207 293 
 ZAR  HN ES       1318 16.82                             121    0.17 8  207 293 
 ZAR  HZ I        1318 21.83        14.9 0.62            123            207 293 
 PRA  HZ EP       1318 12.56                             106    0.71 6  391 210 
 PRA  HN ES       1318 53.63                             106    0.22 6  391 210 
 PRA  HZ I        1319  1.13         4.4 0.34            108            391 210 
                                                                                
