 2015  9 8 1329 20.9 L   6.811 -73.120132.9  RSN  5 0.4 1.5LRSN                1
 GAP=221        0.61       5.6     5.3  9.7  0.7745E+01  0.1297E+02 -0.8846E+01E
 Epicentro: LOS SANTOS - SANTANDER                                             3
 ACTION:UPD 15-10-28 16:25 OP:cam  STATUS:               ID:20150908132920 L   I
 OLDACT:UP  15-09-08 21:12 OP:ar   STATUS:               ID:20150908132749     3
 OLDACT:REG 15-09-08 20:30 OP:stll STATUS:               ID:20150908132749     3
 2015-09-08-1327-49M.COL___359                                                 6
 STAT SP IPHASW D HRMM SECON CODA AMPLIT PERI AZIMU VELO AIN AR TRES W  DIS CAZ7
 BAR2 EZ EP       1329 39.14                             169    0.1610 25.1 196 
 BAR2 EZ ES   2   1329 52.93                             169   -0.19 5 25.1 196 
 BAR2 EZ I        1329 55.18         4.3 0.24            171           25.1 196 
 PTB  HZ EP   2   1329 46.10                             128   -0.99 5  151 259 
 PTB  HN ES   2   1330  7.52                             128   -0.04 5  151 259 
 PTB  HZ I        1330  9.11         3.9 0.30            131            151 259 
 ZAR  HN ES       1330 17.75                             119    0.16 8  206 292 
 ZAR  HZ I        1330 22.89         4.6 0.48            121            206 292 
 SML  HZ EP   2   1329 56.30                             115   -0.50 4  244 335 
 SML  HN ES   2   1330 24.85                             115    0.00 4  244 335 
 GUY2CHZ EP   2   1330  5.12                             109    0.88 4  304 235 
 GUY2CHE ES   2   1330 37.77                             109   -0.31 4  304 235 
                                                                                
