 2017  2 8 1631 46.0 L   6.773 -73.152139.6  RSN 16 0.5 2.4LRSN                1
 GAP= 72        1.15       3.9     3.2  5.5  0.1042E-01  0.4509E+01  0.3125E+01E
 Epicentro: LOS SANTOS - SANTANDER                                             3
 ACTION:UPD 17-05-24 15:34 OP:jn   STATUS:               ID:20170208163146 L   I
 OLDACT:UP  17-02-08 23:05 OP:and  STATUS:               ID:20170208162744     3
 OLDACT:UP  17-02-08 23:03 OP:and  STATUS:               ID:20170208162744     3
 OLDACT:UP  17-02-08 23:02 OP:and  STATUS:               ID:20170208162744     3
 OLDACT:UP  17-02-08 22:59 OP:and  STATUS:               ID:20170208162744     3
 OLDACT:UP  17-02-08 22:55 OP:and  STATUS:               ID:20170208162744     3
 OLDACT:REG 17-02-08 20:33 OP:and  STATUS:               ID:20170208162744     3
 2017-02-08-1628-00M.COL___352                                                 6
 STAT SP IPHASW D HRMM SECON CODA AMPLIT PERI AZIMU VELO AIN AR TRES W  DIS CAZ7
 BAR2 EZ IP     D 1632  4.70                             171   -0.1010 20.3 189 
 BAR2 EZ ES       1632 19.64                             171    0.1610 20.3 189 
 BAR2 EZ I        1632 20.78        68.1 0.18            166           20.3 189 
 BRR  HZ IP     D 1632  6.63                             151    0.1310 72.0 301 
 BRR  HN ES       1632 23.47                             151    0.9510 72.0 301 
 BRR  HZ I        1632 25.93        47.9 0.08            148           72.0 301 
 PAM  EZ IP     D 1632  7.64                             149   -0.0710 80.2  39 
 PAM  EN ES       1632 24.46                             149   -0.2010 80.2  39 
 PAM  EZ I        1632 26.25        47.0 0.20            154           80.2  39 
 RUS  HZ IP     D 1632  8.44                             144   -0.4710 97.7 175 
 RUS  HN ES       1632 26.59                             144   -0.2010 97.7 175 
 RUS  HZ I        1632 28.21        69.7 0.34            141           97.7 175 
 PTB  HZ EP       1632 11.58                             131   -0.74 9  146 260 
 PTB  HN ES       1632 32.00                             131   -0.88 9  146 260 
 PTB  HZ I        1632 33.29        38.8 0.16            128            146 260 
 TAM  HZ IP     D 1632 13.19                             129    0.02 9  155 104 
 TAM  HN ES       1632 34.65                             129    0.28 9  155 104 
 TAM  HZ I        1632 35.20        29.7 0.24            131            155 104 
 ZAR  HZ EP       1632 17.78                             121   -0.29 9  205 293 
 ZAR  HN ES       1632 43.75                             121    0.65 9  205 293 
 ZAR  HZ I        1632 49.63        43.3 0.28            119            205 293 
 NOR  HZ IP     D 1632 21.28                             118    0.18 8  232 235 
 NOR  HN ES       1632 48.43                             118   -0.06 8  232 235 
 NOR  HZ I        1632 57.24        16.2 0.21            115            232 235 
 CHI  HZ EP       1632 23.42                             116    0.42 8  246 195 
 CHI  HN ES       1632 51.77                             116   -0.11 8  246 195 
 CHI  HZ I        1632 55.49         7.2 0.36            115            246 195 
 ROSC BZ EP   9   1632 25.91                             116    2.47 0  250 211 
 ROSC BN ES       1632 56.00                             115    0.87 8  250 211 
 ROSC BZ I        1632 58.26        20.7 0.35            114            250 211 
 URE  HZ EP       1632 26.31                             113   -0.49 7  284 293 
 URE  HN ES   3   1632 57.06                             113   -1.58 2  284 293 
 URE  HZ I        1633  8.54        26.5 0.30            111            284 293 
 CBOC HZ EP       1632 33.06                             109    0.61 7  332 253 
 CBOC HN ES       1633  9.06                             109    0.36 7  332 253 
 CBOC HZ I        1633 23.94         6.6 0.34            108            332 253 
 ANIL HZ EP   9   1632 37.29                             108    2.05 0  355 225 
 ANIL HN ES       1633 16.64                             108    0.92 6  355 225 
 ANIL HZ I        1633 34.75        20.7 0.28            106            355 225 
 ORTC HZ EP       1632 40.03                             106    0.68 6  393 216 
 ORTC HN ES   4   1633 23.89                             106    2.90 0  393 216 
 ORTC HZ I        1633 29.20         8.4 0.62            105            393 216 
 PAL  HZ IP     D 1632 40.91                             105    0.23 6  404 239 
 SJC  HZ EP   9   1632 38.89                             105   -2.69 0  411 327 
 SJC  HN ES       1633 21.29                             105   -0.98 6  411 327 
 SJC  HZ I        1633 25.05         4.5 0.50            104            411 327 
                                                                                
