 2010 11 8 1036  4.7 L   6.794 -73.101143.3  RSN  7 0.3 1.9LRSN                1
 GAP=164        0.80       3.7     5.8  6.4 -0.3628E+01 -0.1286E+01 -0.9524E+00E
 Epicentro: LOS SANTOS - SANTANDER                                             3
 ACTION:UP  10-12-17 16:51 OP:REBC STATUS:               ID:20101108103604 L   I
 2010-11-08-1035-19S.COL___128                                                 6
 STAT SP IPHASW D HRMM SECON CODA AMPLIT PERI AZIMU VELO SNR AR TRES W  DIS CAZ7
 BTL  SZ EP       1036 24.18                             170     0.110   23 307 
 BAR2 SZ EP       1036 24.09                             170     0.010   24 202 
 BAR2 SZ I        1036 24.48        36.3 0.28                            24 202 
 BAR2 SZ ES   1   1036 38.91                             170    -0.2 7   24 202 
 GIR2 SZ EP       1036 24.18                             166     0.010   33 342 
 BRR  HZ EP       1036 25.97                             150     0.110   76 297 
 BRR  HZ I        1036 26.36        30.8 0.23                            76 297 
 BRR  HN ES       1036 42.68                             150     0.310   76 297 
 RUS  HZ EP       1036 28.08                             144    -0.110  100 179 
 RUS  HN ES       1036 46.56                             144     0.110  100 179 
 RUS  HZ I        1036 47.76        13.4 0.88                           100 179 
 GRA  SZ EP       1036 29.91                             137     0.210  125  15 
 GRA  SZ ES   1   1036 48.34                             137    -0.8 7  125  15 
 GRA  SZ I        1036 50.93        12.5 0.35                           125  15 
 NOR  SZ EP   1   1036 40.47                             117    -0.2 6  238 235 
 NOR  SN ES   1   1037  8.18                             117    -0.6 6  238 235 
 NOR  SZ I        1037 14.33         1.4 0.25                           238 235 
                                                                                
