 2015  7 8 1229 42.5 L   6.798 -73.152136.9  RSN 10 0.5 2.3LRSN                1
 GAP=136        1.01       3.4     5.4  7.8 -0.6199E+01  0.2516E+02 -0.3561E+01E
 Epicentro: LOS SANTOS - SANTANDER                                             3
 ACTION:UPD 15-09-08 21:47 OP:cam  STATUS:               ID:20150708122942 L   I
 OLDACT:REG 15-07-08 21:01 OP:ar   STATUS:               ID:20150708122750     3
 2015-07-08-1227-50M.COL___346                                                 6
 STAT SP IPHASW D HRMM SECON CODA AMPLIT PERI AZIMU VELO AIN AR TRES W  DIS CAZ7
 BAR2 EZ EP     C 1230  0.98                             170   -0.0510 23.0 188 
 BAR2 EZ ES       1230 15.72                             170    0.2210 23.0 188 
 BAR2 EZ I        1230 16.95        69.4 0.22            170           23.0 188 
 PAM  EZ EP       1230  3.91                             149    0.1210 78.0  40 
 PAM  EN ES       1230 20.76                             149    0.3410 78.0  40 
 PAM  EZ I        1230 25.38        21.8 0.54            152           78.0  40 
 RUS  HE ES   2   1230 23.03                             142   -0.17 5  100 176 
 RUS  HZ I        1230 24.38        25.1 0.22            144            100 176 
 OCA  HE ES       1230 30.73                             127   -0.95 9  160 353 
 ZAR  HZ EP       1230 14.54                             120    0.25 9  203 292 
 ZAR  HE ES       1230 38.94                             120   -0.16 9  203 292 
 ZAR  HZ I        1230 45.21        28.5 0.24            122            203 292 
 NOR  HZ EP       1230 17.30                             117   -0.32 8  234 234 
 NOR  HN ES       1230 44.64                             117   -0.40 8  234 234 
 NOR  HZ I        1230 48.77        17.2 0.60            118            234 234 
 SML  HZ EP       1230 18.52                             116   -0.08 8  244 335 
 SML  HE ES       1230 47.41                             116    0.63 8  244 335 
 SML  HZ I        1230 50.11        19.7 0.53            117            244 335 
 CHI  HE ES   2   1230 47.33                             115   -1.32 4  248 195 
 CHI  HZ I        1230 51.70         5.2 0.36            117            248 195 
 GUY2CHZ EP   2   1230 27.36                             111    1.76 4  300 235 
 GUY2CHN ES       1230 59.34                             111    0.10 7  300 235 
 GUY2CHZ I        1231  7.53         8.4 0.34                           300 235 
 TOL  SN ES       1231  8.03                             108    0.41 7  343 225 
 TOL  SZ I        1231 13.17         7.5 0.44            109            343 225 
                                                                                
