 2011  9 8 1954  1.4 L   6.813 -73.106137.8  RSN 11 0.2 2.5LRSN                1
 GAP=141        0.48       2.0     2.2  3.2 -0.5620E+00  0.2311E+01  0.1434E+01E
 Epicentro: LOS SANTOS - SANTANDER                                             3
 ACTION:UPD 12-07-13 15:56 OP:ep   STATUS:               ID:20110908195401 L   I
 2011-09-08-1940-00M.COL___172                                                 6
 STAT SP IPHASW D HRMM SECON CODA AMPLIT PERI AZIMU VELO AIN AR TRES W  DIS CAZ7
 BAR2 SZ IP       1954 20.14                             169    0.0110 25.8 199 
 BAR2 SZ I        1954 20.69        57.8 0.15                          25.8 199 
 BAR2 SZ ES   1   1954 35.23                             169    0.49 7 25.8 199 
 GIR2 SZ EP       1954 19.97                             167   -0.1510 30.9 342 
 PAM  SZ EP       1954 22.66                             151    0.1210 73.5  38 
 PAM  SN ES       1954 39.07                             151    0.0410 73.5  38 
 BRR  HZ IP     C 1954 21.75                             150   -0.1410 74.4 296 
 BRR  HE ES       1954 37.76                             150   -0.1110 74.4 296 
 BRR  HZ I        1954 40.93       101.2 0.16                          74.4 296 
 RUS  HZ EP       1954 24.20                             142   -0.2810  102 179 
 RUS  HE ES   1   1954 42.37                             142   -0.10 7  102 179 
 RUS  HZ I        1954 44.44        22.4 0.53                           102 179 
 OCA  SZ EP   1   1954 29.25                             128    0.22 7  159 352 
 OCA  SZ I        1954 54.88        29.3 0.50                           159 352 
 ZAR  HZ EP   1   1954 33.66                             120   -0.05 6  208 291 
 ZAR  HE ES   1   1954 58.64                             120   -0.27 6  208 291 
 ZAR  HZ I        1955  3.75        82.0 0.44                           208 291 
 CHI  HZ EP   1   1954 38.83                             115   -0.13 6  251 196 
 CHI  HE ES   1   1955  8.14                             115   -0.11 6  251 196 
 CHI  HZ I        1955 17.13        10.2 0.65                           251 196 
 HEL  HZ EP   1   1954 42.30                             113    0.56 6  277 256 
 HEL  HN ES   1   1955 13.10                             113   -0.10 6  277 256 
 HEL  HZ I        1955 19.73        26.9 0.34                           277 256 
 GUY  SZ EP   1   1954 45.48                             110    0.05 5  308 235 
 GUY  SE ES   1   1955 20.17                             110    0.41 5  308 235 
 GUY  SZ I        1955 29.02        25.5 0.65                           308 235 
 RREF HZ EP   1   1954 48.08                             109    0.37 5  326 230 
 RREF HN ES   1   1955 23.91                             109    0.09 5  326 230 
 RREF HZ I        1955 30.92        15.0 0.29                           326 230 
                                                                                
