 2017  3 8 1130 29.7 L   6.793 -73.160147.3  RSN 11 0.4 2.0LRSN                1
 GAP=135        1.05       3.7     4.2  6.0 -0.9703E+00  0.6331E+01  0.4000E+01E
 Epicentro: LOS SANTOS - SANTANDER                                             3
 ACTION:UPD 17-05-25 18:37 OP:jn   STATUS:               ID:20170308113029 L   I
 OLDACT:UP  17-03-08 21:49 OP:ar   STATUS:               ID:20170308112740     3
 OLDACT:REG 17-03-08 20:43 OP:ar   STATUS:               ID:20170308112740     3
 2017-03-08-1128-00M.COL___329                                                 6
 STAT SP IPHASW D HRMM SECON CODA AMPLIT PERI AZIMU VELO AIN AR TRES W  DIS CAZ7
 BAR2 EZ IP     C 1130 49.22                             171   -0.2710 22.3 186 
 BAR2 EZ ES       1131  4.43                             171   -0.5010 22.3 186 
 BAR2 EZ I        1131  6.83        34.6 0.30            169           22.3 186 
 BRR  HZ EP       1130 51.06                             153    0.1010 70.2 300 
 BRR  HN ES       1131  8.26                             153    0.7310 70.2 300 
 BRR  HZ I        1131 15.11        17.9 0.36            151           70.2 300 
 PAM  EZ EP       1130 52.15                             151   -0.0210 79.0  40 
 PAM  EN ES       1131  9.55                             151   -0.1410 79.0  40 
 PAM  EZ I        1131 11.88        12.4 0.58            156           79.0  40 
 RUS  HZ EP       1130 53.25                             144   -0.3010 99.9 175 
 RUS  HN ES       1131 12.66                             144    0.5110 99.9 175 
 RUS  HZ I        1131 12.91        12.6 0.36            146           99.9 175 
 PTB  HZ EP       1130 55.91                             133   -0.73 9  146 259 
 PTB  HN ES       1131 17.58                             133   -0.07 9  146 259 
 PTB  HZ I        1131 17.68         9.5 0.18            132            146 259 
 SPBC HZ EP       1130 58.95                             130    0.79 9  162 219 
 SPBC HN ES       1131 20.09                             130   -0.28 9  162 219 
 SPBC HZ I        1131 26.25        18.0 0.24            130            162 219 
 ZAR  HZ EP       1131  2.09                             123   -0.04 9  203 293 
 ZAR  HE ES       1131 27.55                             123    0.13 9  203 293 
 ZAR  HZ I        1131 32.30         8.8 0.28            124            203 293 
 NOR  HZ EP       1131  5.69                             119    0.36 8  233 234 
 NOR  HN ES       1131 32.51                             119   -0.61 8  233 234 
 NOR  HZ I        1131 40.97         6.8 0.20            120            233 234 
 CHI  HZ EP       1131  7.56                             118    0.20 8  247 195 
 CHI  HN ES       1131 36.95                             118    0.22 8  247 195 
 CHI  HZ I        1131 42.94         4.6 0.32            119            247 195 
 HEL  HN ES   4   1131 43.59                             115    2.51 0  270 256 
 HEL  HZ I        1131 49.42         6.0 0.38            116            270 256 
 GUY2CHZ EP   4   1131 14.86                             113    1.68 0  299 235 
 GUY2CHN ES   4   1131 51.34                             113    4.24 0  299 235 
 GUY2CHZ  IAML    1131 59.31         4.8 0.40                           299 235 
                                                                                
