 2014  6 8 1620 52.8 L   6.837 -73.178131.7  RSN 10 0.6 1.8LRSN                1
 GAP=199        1.35       4.5     6.2  7.7  0.2479E+01  0.1647E+02 -0.9623E+00E
 Epicentro: ZAPATOCA - SANTANDER                                               3
 ACTION:UPD 14-07-01 22:52 OP:nd   STATUS:               ID:20140608162052 L   I
 OLDACT:REG 14-06-08 21:36 OP:stll STATUS:               ID:20140608161814     3
 2014-06-08-1618-14M.COL___253                                                 6
 STAT SP IPHASW D HRMM SECON CODA AMPLIT PERI AZIMU VELO AIN AR TRES W  DIS CAZ7
 BAR2 SZ EP       1621 10.99                             168    0.1310 27.1 181 
 BAR2 SZ ES       1621 25.05                             168    0.1210 27.1 181 
 BAR2 SZ I        1621 26.63        10.6 0.32            166           27.1 181 
 BRR  HZ IP     C 1621 12.76                             152    0.5810 66.2 297 
 BRR  HN ES       1621 27.91                             152    0.6410 66.2 297 
 BRR  HZ I        1621 33.66        11.9 0.26            144           66.2 297 
 RUS  HZ EP       1621 15.58                             140    0.0110  105 174 
 RUS  HE ES       1621 32.99                             140   -0.3110  105 174 
 PTB  HZ EP       1621 17.84                             129   -0.60 9  145 257 
 PTB  HN ES       1621 37.31                             129   -1.11 9  145 257 
 PTB  HZ I        1621 40.30         9.0 0.46            123            145 257 
 ZAR  HZ EP       1621 23.86                             120   -0.03 9  199 291 
 ZAR  HN ES       1621 48.74                             120    0.62 9  199 291 
 ZAR  HZ I        1621 55.41         6.0 0.36            115            199 291 
 NOR  HZ EP       1621 27.49                             115   -0.25 8  234 233 
 NOR  HE ES       1621 54.78                             115   -0.19 8  234 233 
 NOR  HZ I        1621 58.72         6.3 0.42            111            234 233 
 SML  HZ EP       1621 27.34                             115   -0.79 8  239 336 
 SML  HN ES       1621 55.09                             115   -0.58 8  239 336 
 SML  HZ I        1621 59.39        10.1 0.10            111            239 336 
 HEL  HZ EP       1621 33.15                             112    1.05 8  270 255 
 HEL  HZ I        1622  9.32         4.3 0.42            108            270 255 
 GUY2CHZ EP       1621 36.77                             110    1.00 7  301 234 
 GUY2CHN ES       1622  9.37                             110    0.10 7  301 234 
 GUY2CHZ I        1622 17.22         3.5 0.46                           301 234 
 RREF HN ES       1622 13.75                             108   -0.21 7  322 228 
 RREF HZ I        1622 21.48         3.3 0.26            105            322 228 
                                                                                
