 2011  7 8 1331 11.5 L   6.786 -73.082146.0  RSN  9 0.4 2.1LRSN                1
 GAP=189        0.63       2.9     4.6  4.7 -0.4350E+00  0.3763E+01  0.3062E+01E
 Epicentro: LOS SANTOS - SANTANDER                                             3
 ACTION:UPD 12-07-25 13:59 OP:epov STATUS:               ID:20110708133111 L   I
 2011-07-08-1327-32S.COL___140                                                 6
 STAT SP IPHASW D HRMM SECON CODA AMPLIT PERI AZIMU VELO AIN AR TRES W  DIS CAZ7
 BAR2 SZ EP       1331 31.13                             170   -0.0610 24.2 207 
 BAR2 SZ ES   1   1331 45.85                             170   -0.68 7 24.2 207 
 BAR2 SZ I        1331 47.90        36.8 0.21                          24.2 207 
 BRR  HZ EP       1331 33.06                             150   -0.0310 78.2 297 
 BRR  HN ES       1331 50.29                             150    0.3610 78.2 297 
 BRR  HZ I        1331 53.84        28.6 0.30                          78.2 297 
 RUS  HZ EP   2   1331 35.30                             144    0.14 5 98.8 180 
 RUS  HN ES   1   1331 54.06                             144    0.46 7 98.8 180 
 RUS  HZ I        1331 55.23        17.9 0.25                          98.8 180 
 OCA  SZ EP   1   1331 39.83                             129   -0.25 7  163 351 
 OCA  SZ I        1331 43.43        19.3 0.42                           163 351 
 OCA  SZ ES   2   1332  2.48                             129    0.12 5  163 351 
 NOR  SZ EP   1   1331 47.57                             118   -0.21 6  240 236 
 NOR  SE ES   1   1332 15.61                             118   -0.46 6  240 236 
 CHI  HZ EP   1   1331 49.30                             117    0.02 6  249 197 
 CHI  HE ES   1   1332 19.01                             117    0.28 6  249 197 
 CHI  HZ I        1332 28.97         6.6 0.39                           249 197 
 HEL  HZ EP   2   1331 53.07                             114    0.61 4  279 256 
 HEL  HN ES   1   1332 24.31                             114   -0.08 6  279 256 
 TOL  SZ EP   2   1332  1.12                             109    0.89 3  347 226 
 PRA  HZ EP   1   1332  5.10                             106   -0.20 4  394 211 
 PRA  HN ES   1   1332 46.91                             106   -0.34 4  394 211 
                                                                                
