 2015  3 8 1733 20.1 L   6.788 -73.116148.3  RSN  5 0.5 2.0LRSN                1
 GAP=162        1.14       6.5     8.5  8.9  0.6806E+01  0.8899E+01 -0.1726E+02E
 Epicentro: LOS SANTOS - SANTANDER                                             3
 ACTION:UPD 15-04-30 16:24 OP:nd   STATUS:               ID:20150308173320 L   I
 OLDACT:REG 15-03-08 23:04 OP:carl STATUS:               ID:20150308172749     3
 2015-03-08-1727-49M.COL___287                                                 6
 STAT SP IPHASW D HRMM SECON CODA AMPLIT PERI AZIMU VELO AIN AR TRES W  DIS CAZ7
 BAR2 EZ EP       1733 40.14                             171    0.0610 22.8 199 
 BAR2 EZ ES       1733 55.17                             171   -0.4510 22.8 199 
 BAR2 EZ I        1733 56.09        20.5 0.22            170           22.8 199 
 BRR  HZ EP       1733 41.98                             152    0.2110 74.7 298 
 BRR  HN ES       1733 58.97                             152    0.3310 74.7 298 
 BRR  HZ I        1734  5.01         9.5 0.14            149           74.7 298 
 PAM  SZ EP       1733 42.99                             151    0.4110 76.5  37 
 PAM  SN ES       1733 59.75                             151   -0.3310 76.5  37 
 PAM  SZ I        1734  2.07        15.5 0.58            154           76.5  37 
 OCA  HN ES       1734 11.92                             130    0.73 9  162 352 
 SML  HZ EP       1733 56.61                             118   -0.59 8  246 335 
 SML  HN ES       1734 25.35                             118   -0.75 8  246 335 
 SML  HZ I        1734 31.35        11.7 0.10            119            246 335 
                                                                                
