 2012  1 8 1938 43.6 L   6.733 -73.048146.0  RSN  6 0.5 1.2LRSN                1
 GAP=153        0.96      14.8    13.0 12.4  0.1277E+02  0.3683E+01  0.6108E+02E
 Epicentro: ARATOCA - SANTANDER                                                3
 ACTION:UP  12-02-03 08:15 OP:REBC STATUS:               ID:20120108193843 L   I
 2012-01-08-1930-00M.COL___186                                                 6
 STAT SP IPHASW D HRMM SECON CODA AMPLIT PERI AZIMU VELO SNR AR TRES W  DIS CAZ7
 BAR2 SZ ES   2   1939 18.27                             171    -0.3 5   22 224 
 GIR2 SZ EP       1939  3.09                             163    -0.610   41 337 
 GIR2 SZ ES   2   1939 18.86                             163    -0.4 5   41 337 
 PAM  SN ES   2   1939 24.13                             151     0.9 5   77  30 
 BRR  HZ EP       1939  5.78                             148     0.210   84 299 
 BRR  HZ I        1939  7.52         7.3 0.28                            84 299 
 BRR  HN ES   1   1939 22.91                             148     0.2 7   84 299 
 RUS  HZ EP   2   1939  7.55                             146     0.7 5   93 182 
 RUS  HZ I        1939 29.24         1.1 0.38                            93 182 
 PTB  HZ EP   3   1939 11.76                             130     0.3 2  157 262 
 PTB  HZ I        1939 39.13         1.8 0.32                           157 262 
                                                                                
