 2017  8 8 1319 58.8 L   6.663 -73.297111.5  RSN  4 0.2 1.2LRSN                1
 GAP=218        0.64       5.4     3.6  5.6  0.5018E+01  0.1066E+02  0.5789E+01E
 Epicentro: GALAN - SANTANDER                                                  3
 ACTION:UPD 17-09-04 20:17 OP:rebc STATUS:               ID:20170808131958 L   I
 OLDACT:REG 17-08-08 21:55 OP:mg   STATUS:               ID:20170808131738     3
 2017-08-08-1318-00M.COL___396                                                 6
 STAT SP IPHASW D HRMM SECON CODA AMPLIT PERI AZIMU VELO AIN AR TRES W  DIS CAZ7
 BAR2 EZ EP   1   1320 14.09                             172   -0.01 7 14.9 122 
 BAR2 EZ ES       1320 25.85                             172   -0.2210 14.9 122 
 BAR2 EZ I        1320 28.06         4.9 0.16            169           14.9 122 
 RUS  HZ EP       1320 18.40                             139    0.0910 88.4 164 
 RUS  HE ES       1320 33.71                             139    0.1410 88.4 164 
 RUS  HZ I        1320 35.08         3.3 0.22            139           88.4 164 
 PTB  HZ EP       1320 21.06                             127   -0.2310  129 264 
 PTB  HN ES       1320 39.27                             127    0.4110  129 264 
 PTB  HZ I        1320 41.68         1.5 0.17            127            129 264 
 NOR  HZ EP       1320 30.39                             113    0.18 8  212 235 
 NOR  HN ES       1320 54.33                             113   -0.41 8  212 235 
 NOR  HZ I        1321  2.71         2.2 0.14            113            212 235 
                                                                                
