 2016  9 8 1456  2.1 L   6.753 -73.049140.1  RSN  4 0.3 1.3LRSN                1
 GAP=152        0.79       4.1     6.2  6.5 -0.8112E+00 -0.2988E+01  0.7954E+00E
 Epicentro: JORDAN - SANTANDER                                                 3
 ACTION:UPD 17-08-17 21:08 OP:lp   STATUS:               ID:20160908145602 L   I
 OLDACT:REG 16-09-08 20:13 OP:lv   STATUS:               ID:20160908144735     3
 2016-09-08-1448-00M.COL___350                                                 6
 STAT SP IPHASW D HRMM SECON CODA AMPLIT PERI AZIMU VELO AIN AR TRES W  DIS CAZ7
 BAR2 EZ EP       1456 20.70                             170   -0.3410 23.1 220 
 BAR2 EZ ES       1456 36.26                             170    0.4410 23.1 220 
 BAR2 EZ I        1456 36.55         4.3 0.16            164           23.1 220 
 PAM  EZ EP       1456 23.51                             150   -0.0810 75.5  31 
 PAM  EE ES       1456 40.34                             150   -0.0210 75.5  31 
 PAM  EZ I        1456 43.64         2.2 0.26            145           75.5  31 
 BRR  HZ EP       1456 23.82                             148    0.4510 83.1 298 
 BRR  HN ES       1456 39.62                             148   -0.3410 83.1 298 
 BRR  HZ I        1456 41.61         8.5 0.28            145           83.1 298 
 RUS  HZ EP       1456 24.98                             144    0.0810 95.2 182 
 RUS  HZ I        1456 41.47         3.8 0.38            134           95.2 182 
 RUS  HN ES       1456 42.51                             144   -0.1910 95.2 182 
                                                                                
