 2011  2 8 1207 51.5 L   6.770 -73.039140.7  RSN  5 0.4 1.5LRSN                1
 GAP=171        0.87       7.2    23.9  8.5 -0.1274E+03  0.7148E+02 -0.1137E+02E
 Epicentro: CEPITA - SANTANDER                                                 3
 ACTION:UP  11-03-28 15:06 OP:jfem STATUS:               ID:20110208120751 L   I
 2011-02-08-1203-01S.COL___137                                                 6
 STAT SP IPHASW D HRMM SECON CODA AMPLIT PERI AZIMU VELO SNR AR TRES W  DIS CAZ7
 BAR2 SZ EP       12 8 10.34                             169    -0.210   25 219 
 BAR2 SZ ES   1   12 8 25.17                             169    -0.3 7   25 219 
 BAR2 SZ I        12 8 26.84        10.9 0.14                            25 219 
 RUS  HZ EP   1   12 8 14.32                             144    -0.2 7   97 183 
 RUS  HN ES   1   12 8 32.96                             144     0.5 7   97 183 
 RUS  HZ I        12 8 34.41         4.0 0.28                            97 183 
 GRA  SZ EP   1   12 8 16.33                             136     0.0 7  126  12 
 GRA  SZ ES   2   12 8 35.92                             136     0.3 5  126  12 
 GRA  SZ I        12 8 37.93         2.9 0.52                           126  12 
 CHI  HZ EP   1   12 8 28.57                             116    -0.4 6  249 198 
 CHI  HZ I        12 8 29.84         2.1 0.41                           249 198 
 CHI  HE ES   1   12 8 57.65                             116    -0.5 6  249 198 
 ROSC BZ EP       12 8 30.36                             115     0.6 8  256 214 
                                                                                
