 2014 10 8 1443 44.0 L   6.847 -73.177136.1  RSN  4 0.2 1.4LRSN                1
 GAP=130        0.46       2.6     2.8  6.2 -0.1137E+01  0.5934E+01 -0.2122E+01E
 Epicentro: ZAPATOCA - SANTANDER                                               3
 ACTION:UPD 14-11-29 23:47 OP:nd   STATUS:               ID:20141008144344 L   I
 OLDACT:REG 14-10-08 22:09 OP:fm   STATUS:               ID:20141008143748     3
 2014-10-08-1437-48M.COL___292                                                 6
 STAT SP IPHASW D HRMM SECON CODA AMPLIT PERI AZIMU VELO AIN AR TRES W  DIS CAZ7
 PAM  SZ EP   1   1444  5.13                             150    0.01 8 75.8  44 
 PAM  SN ES   1   1444 21.77                             150    0.19 8 75.8  44 
 PAM  SZ I        1444 25.41         4.4 0.52            153           75.8  44 
 RUS  HZ EP   1   1444  7.23                             140   -0.03 8  106 174 
 RUS  HE ES   1   1444 25.08                             140   -0.30 8  106 174 
 RUS  HZ I        1444 28.67         2.6 0.38            147            106 174 
 PTB  HZ EP       1444 10.16                             130    0.1510  146 257 
 PTB  HN ES       1444 30.36                             130    0.0810  146 257 
 PTB  HZ I        1444 33.50         3.4 0.14            135            146 257 
 SML  HN ES   1   1444 46.71                             116   -0.37 6  238 336 
 SML  HZ I        1444 51.42         4.6 0.10            120            238 336 
                                                                                
