 2012 10 8 1017 54.6 L   6.810 -73.119148.0  RSN 19 0.5 3.1LRSN 3.4WRSN        1
 SPEC AVERAGE  MO 14.2 ST  6.6 OM  2.9 f0 2.43 R0.7000 AL 1.62 WI 18.5 MW  3.4 3
 SPEC SD       MO  0.2 ST  7.8 OM  0.6 f00.908 R0.2831 AL      WI      MW  0.2 3
 GAP= 56        0.93       3.7     3.7  5.2 -0.7834E+00  0.3323E+01  0.5101E+01E
 Epicentro: LOS SANTOS - SANTANDER                                             3
 SPEC TAM HH Z MO 14.4 ST  3.7 OM  1.9 f0 2.26 R0.6504 AL 0.99 WI  4.3 MW  3.5 3
 SPEC TAM HH Z T101822 K 0.000 GD  212 VP 7.60 DE 3.00 Q0230.0 QA 0.60 VS 4.20 3
 SPEC RUS HH N MO 13.7 ST0.126 OM  2.1 f0 1.20 R1.2250 AL 1.20 WI  9.3 MW  3.1 3
 SPEC RUS HH N T101837 K 0.000 GD  179 VS 4.20 DE 3.00 Q0230.0 QA 0.60 VS 4.20 3
 SPEC HEL HH N MO 14.3 ST  3.0 OM  2.4 f0 2.29 R0.6419 AL 1.94 WI 32.4 MW  3.5 3
 SPEC HEL HH N T1019 6 K 0.000 GD  312 VS 4.20 DE 3.00 Q0230.0 QA 0.60 VS 4.20 3
 SPEC CHI HH N MO 14.3 ST  4.0 OM  2.5 f0 2.38 R0.6176 AL 1.76 WI 23.9 MW  3.5 3
 SPEC CHI HH N T1019 1 K 0.000 GD  291 VS 4.20 DE 3.00 Q0230.0 QA 0.60 VS 4.20 3
 SPEC BRR HH N MO 14.4 ST 22.0 OM  2.8 f0 4.03 R0.3648 AL 2.21 WI 22.7 MW  3.5 3
 SPEC BRR HH N T101833 K 0.000 GD  165 VS 4.20 DE 3.00 Q0230.0 QA 0.60 VS 4.20 3
 ACTION:UPD 12-11-22 17:02 OP:ep   STATUS:               ID:20121008101754 L   I
 2012-10-08-1010-00M.COL___222                                                 6
 STAT SP IPHASW D HRMM SECON CODA AMPLIT PERI AZIMU VELO AIN AR TRES W  DIS CAZ7
 BAR2 SZ IP       1018 14.50                             170   -0.0510 25.1 196 
 BAR2 SZ ES   1   1018 29.62                             170   -0.48 7 25.1 196 
 BAR2 SZ I        1018 31.94       184.3 0.22                          25.1 196 
 GIR2 SZ IP       1018 14.58                             168    0.0310 30.8 344 
 GIR2 SZ ES   3   1018 29.03                             168   -1.05 2 30.8 344 
 BRR  HZ IP     D 1018 16.39                             152    0.2610 73.3 297 
 BRR  HZ I        1018 20.99       181.7 0.10                          73.3 297 
 BRR  HN ES   1   1018 33.44                             152    0.54 7 73.3 297 
 PAM  SZ EP       1018 17.37                             152    0.4610 74.6  38 
 PAM  SN ES   1   1018 34.62                             152    0.32 7 74.6  38 
 PAM  SN I        1018 35.97       278.3 0.44                          74.6  38 
 RUS  HZ EP       1018 18.37                             144   -0.2910  102 178 
 RUS  HN ES   1   1018 37.49                             144    0.08 7  102 178 
 RUS  HN I        1018 38.81        94.7 0.44                           102 178 
 TAM  HZ IP     D 1018 22.64                             131    0.40 9  153 106 
 TAM  HZ I        1018 22.78       242.6 0.34                           153 106 
 ZAR  HZ EP       1018 26.82                             123   -0.63 8  206 292 
 ZAR  HN ES   1   1018 52.07                             123   -0.99 6  206 292 
 ZAR  HN I        1018 56.98       128.7 0.16                           206 292 
 AGZ  SZ EP       1018 28.45                             121   -0.37 8  220 161 
 NOR  SZ EP       1018 30.58                             119   -0.23 8  238 235 
 NOR  SN ES   3   1018 58.36                             119   -0.67 2  238 235 
 NOR  SN I        1019  7.36       165.8 0.18                           238 235 
 CHI  HZ EP       1018 32.44                             117   -0.21 8  251 196 
 CHI  HN ES   1   1019  1.49                             117   -0.82 6  251 196 
 CHI  HN I        1019  4.63        71.9 0.48                           251 196 
 ROSC BN ES   2   1019  4.66                             117    1.48 4  255 211 
 HEL  HZ EP       1018 36.17                             115    0.87 8  275 256 
 HEL  HN ES   2   1019  7.04                             115    0.02 4  275 256 
 HEL  HN I        1019 11.95        40.3 0.60                           275 256 
 GUY  SZ EP   3   1018 39.29                             112    0.35 2  307 235 
 RREF HZ EP   1   1018 41.43                             111    0.23 5  325 230 
 RREF HE ES   2   1019 18.44                             111    0.91 3  325 230 
 DBB  SZ EP       1018 42.07                             110   -0.45 7  342 274 
 SDV  BZ EP       1018 43.91                             109   -0.49 6  357  50 
 ANIL HZ EP       1018 45.49                             109    0.64 6  360 225 
 ANIL HN ES   2   1019 24.23                             109    0.21 3  360 225 
 PRA  HZ EP       1018 47.90                             107   -0.61 6  394 210 
 PRA  HN ES   3   1019 30.47                             107   -0.07 1  394 210 
 PRA  HN I        1019 35.82        28.0 0.42                           394 210 
 SJA  SZ EP       1018 50.03                             106    0.57 6  402 193 
 SJA  SZ I        1019 39.80        56.9 0.36                           402 193 
                                                                                
