 2013  5 8 1455 51.1 L   5.928 -73.772118.9  RSN  5 0.3 2.0LRSN                1
 GAP=159        0.62       4.9     3.5  9.8 -0.6848E+01 -0.8870E+01  0.2072E+02E
 Epicentro: GUAVATA - SANTANDER                                                3
 ACTION:UPD 13-06-20 09:48 OP:ep   STATUS:               ID:20130508145551 L   I
 2013-05-08-1450-00M.COL___256                                                 6
 STAT SP IPHASW D HRMM SECON CODA AMPLIT PERI AZIMU VELO AIN AR TRES W  DIS CAZ7
 RUS  HZ EP       1456 10.20                             145   -0.2410 76.4  93 
 BAR2 SZ EP   1   1456 12.02                             138    0.27 7 98.2  42 
 BAR2 SZ ES       1456 27.93                             138    0.0610 98.2  42 
 BAR2 SZ I        1456 29.32        57.8 0.41            139           98.2  42 
 PTB  HZ EP   4   1456 10.24                             137   -1.47 0  101 312 
 PTB  HN ES   1   1456 27.29                             137   -0.51 7  101 312 
 PTB  HZ I        1456 28.26        13.0 0.12            137            101 312 
 NOR  HZ EP   2   1456 14.09                             129   -0.04 5  128 252 
 NOR  HE ES   1   1456 32.51                             129    0.40 7  128 252 
 NOR  HZ I        1456 33.77        16.9 0.16            131            128 252 
 BRR  HZ EP   1   1456 14.23                             129   -0.06 7  131   3 
 BRR  HN ES   1   1456 32.70                             129    0.30 7  131   3 
 BRR  HZ I        1456 35.41        10.7 0.44            130            131   3 
                                                                                
