 2011  2 8 1541 36.0 L   6.510 -73.544112.0  RSN 13 0.5 2.4LRSN                1
 GAP=107        1.01       3.6     4.2  8.2 -0.2783E+01  0.1860E+02  0.1588E+01E
 Epicentro: EL CARMEN DE CHUCURI - SANTANDER                                   3
 ACTION:UP  11-03-28 15:06 OP:jfem STATUS:               ID:20110208154136 L   I
 2011-02-08-1540-02S.COL___137                                                 6
 STAT SP IPHASW D HRMM SECON CODA AMPLIT PERI AZIMU VELO SNR AR TRES W  DIS CAZ7
 BAR2 SZ IP       1541 52.14                             159    -0.110   41  77 
 BAR2 SZ ES   1   1542  4.83                             159     0.0 7   41  77 
 BTL  SZ EP   1   1541 52.73                             152    -0.2 7   55  34 
 GIR2 SZ EP       1541 54.70                             144     0.710   74  32 
 GIR2 SZ ES   1   1542  8.58                             144     0.5 7   74  32 
 RUS  HZ EP   1   1541 55.05                             140    -0.3 7   85 143 
 RUS  HE ES   1   1542 10.37                             140    -0.1 7   85 143 
 RUS  HZ I        1542 12.25        39.1 0.14                            85 143 
 GRA  SZ EP       1542  2.60                             119    -0.7 9  173  28 
 GRA  SZ ES   1   1542 24.02                             119    -0.5 7  173  28 
 GRA  SZ I        1542 25.99        36.1 0.28                           173  28 
 YOP  SZ EP   2   1542  4.08                             118     0.3 4  178 136 
 YOP  SN ES   1   1542 25.69                             118     0.2 7  178 136 
 YOP  SZ I        1542 27.79        54.3 0.35                           178 136 
 NOR  SZ EP   1   1542  3.76                             117    -0.2 7  180 235 
 NOR  SN ES   1   1542 24.92                             117    -0.8 7  180 235 
 CHI  HZ EP   1   1542  7.80                             113     0.2 6  209 186 
 CHI  HE ES   1   1542 32.09                             113    -0.1 6  209 186 
 CHI  HZ I        1542 38.15        11.8 0.39                           209 186 
 HEL  HZ EP   1   1542  9.11                             112     0.1 6  222 261 
 HEL  HE ES   1   1542 34.96                             112     0.2 6  222 261 
 HEL  HZ I        1542 43.17        21.9 0.32                           222 261 
 GUY  SZ EP   1   1542 11.26                             109    -0.7 6  247 235 
 GUY  SZ I        1542 46.13        46.7 0.26                           247 235 
 RREF HZ EP   1   1542 15.35                             108     0.8 6  267 228 
 RREF HZ I        1542 50.97        20.4 0.26                           267 228 
 TOL  SZ EP   1   1542 17.66                             106     0.9 5  290 223 
 DBB  SZ EP   1   1542 17.98                             105     0.3 5  300 281 
 DBB  SZ ES   1   1542 50.33                             105     0.2 5  300 281 
 DBB  SZ I        1542 55.76         5.7 0.60                           300 281 
                                                                                
