 2012  1 8 1652 17.7 L   6.698 -73.199145.4  RSN  5 0.2 1.1LRSN                1
 GAP=170        0.32       5.0     4.4  4.2  0.7295E+01 -0.1164E+01  0.2169E+01E
 Epicentro: VILLANUEVA - SANTANDER                                             3
 ACTION:UP  12-02-03 08:15 OP:REBC STATUS:               ID:20120108165217 L   I
 2012-01-08-1650-00M.COL___186                                                 6
 STAT SP IPHASW D HRMM SECON CODA AMPLIT PERI AZIMU VELO SNR AR TRES W  DIS CAZ7
 BAR2 SZ EP       1652 37.14                             175     0.010   12 171 
 BAR2 SZ ES   1   1652 52.22                             175     0.0 7   12 171 
 BAR2 SZ I        1652 54.01         3.8 0.26                            12 171 
 GIR2 SZ EP   3   1652 38.24                             163     0.6 2   42   1 
 BRR  HZ EP   3   1652 38.52                             152    -0.4 2   73 309 
 BRR  HN ES   3   1652 55.31                             152    -0.1 2   73 309 
 RUS  HZ EP       1652 40.65                             147     0.010   90 172 
 RUS  HZ I        1652 41.97         2.0 0.18                            90 172 
 RUS  HN ES   2   1652 58.70                             147     0.1 5   90 172 
 PTB  HN ES   2   1653  4.49                             133     0.0 5  140 263 
                                                                                
