 2011 11 8 1149  5.6 L   6.782 -73.174146.3  RSN  5 0.4 1.5LRSN                1
 GAP=134        0.78       5.4     5.8  8.3  0.7219E+01  0.5432E+01 -0.3583E+00E
 Epicentro: LOS SANTOS - SANTANDER                                             3
 ACTION:UPD 12-07-13 16:09 OP:ep   STATUS:               ID:20111108114905 L   I
 2011-11-08-1145-00M.COL___167                                                 6
 STAT SP IPHASW D HRMM SECON CODA AMPLIT PERI AZIMU VELO AIN AR TRES W  DIS CAZ7
 BAR2 SZ EP   1   1149 24.77                             171   -0.45 7 21.0 182 
 BAR2 SZ ES   1   1149 40.33                             171   -0.22 7 21.0 182 
 BAR2 SZ I        1149 43.35         8.5 0.23                          21.0 182 
 BRR  HZ EP   1   1149 27.34                             153    0.66 7 69.5 301 
 BRR  HN ES   1   1149 43.65                             153    0.50 7 69.5 301 
 PAM  SZ EP   1   1149 28.14                             150    0.08 7 81.0  40 
 PAM  SZ I        1149 28.59         4.8 0.15                          81.0  40 
 PAM  SN ES   1   1149 45.41                             150   -0.19 7 81.0  40 
 RUS  HZ EP   1   1149 29.27                             144    0.02 7 98.8 174 
 RUS  HN ES   1   1149 47.81                             144    0.09 7 98.8 174 
 RUS  HZ I        1149 49.44         6.1 0.23                          98.8 174 
 ZAR  HN ES   1   1150  2.34                             123   -0.65 6  202 293 
                                                                                
