 2013  7 8 1519 56.8 L   6.769 -73.134139.8  RSN 12 0.5 2.5LRSN                1
 GAP= 73        1.22       4.0     3.4  6.1 -0.2844E+01  0.2595E+01  0.1817E+01E
 Epicentro: LOS SANTOS - SANTANDER                                             3
 ACTION:UPD 13-08-12 10:36 OP:ep   STATUS:               ID:20130708151956 L   I
 OLDACT:UP  13-07-09 05:54 OP:Juan STATUS:               ID:20130708151956 L   3
 OLDACT:REG 13-07-08 15:28 OP:stll STATUS:               ID:20130708151845     3
 2013-07-08-1518-45M.COL___233                                                 6
 STAT SP IPHASW D HRMM SECON CODA AMPLIT PERI AZIMU VELO AIN AR TRES W  DIS CAZ7
 BAR2 SZ IP     D 1520 15.69                             171    0.0010 20.2 195 
 BAR2 SZ I        1520 16.16        34.5 0.26            170           20.2 195 
 BAR2 SZ ES       1520 30.35                             171   -0.0410 20.2 195 
 GIR2 SZ EP       1520 15.80                             165   -0.1010 34.9 349 
 GIR2 SZ ES       1520 30.44                             165   -0.3410 34.9 349 
 BRR  HZ IP     C 1520 17.59                             150    0.0910 74.0 300 
 BRR  HN ES       1520 34.33                             150    0.7010 74.0 300 
 BRR  HN I        1520 34.70        48.8 0.22            150           74.0 300 
 PAM  SN ES       1520 35.09                             149   -0.3810 79.3  37 
 PAM  SN I        1520 36.65        89.6 0.68            151           79.3  37 
 RUS  HZ EP       1520 19.98                             144    0.2410 97.1 177 
 RUS  HE ES       1520 37.90                             144    0.2810 97.1 177 
 RUS  HE I        1520 39.16        31.1 0.50            144           97.1 177 
 GRA  SZ EP       1520 21.64                             135   -0.1610  129  16 
 GRA  SZ ES       1520 40.72                             135   -0.5610  129  16 
 PTB  HZ EP       1520 22.37                             130   -1.00 9  148 260 
 PTB  HN ES       1520 43.37                             130   -0.71 9  148 260 
 PTB  HN I        1520 48.70        41.8 0.62            130            148 260 
 CAPV BZ EP       1520 23.80                             130   -0.13 9  151  37 
 CAPV BZ ES       1520 45.88                             130    0.81 9  151  37 
 TAM  HZ EP       1520 24.06                             130    0.21 9  153 104 
 TAM  HN ES       1520 44.94                             130    0.02 9  153 104 
 TAM  HN I        1520 46.20        26.0 0.30            131            153 104 
 OCA  HZ EP   4   1520 23.26                             128   -1.77 0  164 353 
 OCA  HN ES   4   1520 45.38                             128   -1.64 0  164 353 
 OCA  HN I        1520 48.35        49.0 0.68            129            164 353 
 ZAR  HZ EP       1520 29.86                             121    0.71 8  207 293 
 ZAR  HE ES       1520 55.02                             121    0.65 8  207 293 
 ZAR  HE I        1520 55.81        53.7 0.34            121            207 293 
 NOR  HZ EP       1520 31.55                             117   -0.57 8  234 235 
 NOR  HN ES       1521  0.14                             117    0.50 8  234 235 
 NOR  HN I        1521  4.71        39.7 0.16            117            234 235 
                                                                                
