 2017  3 8 1820 47.1 L   6.808 -73.152147.0  RSN  5 0.5 1.6LRSN                1
 GAP=135        1.24       6.6     6.1  9.9 -0.1040E+02  0.1027E+02  0.1486E+02E
 Epicentro: LOS SANTOS - SANTANDER                                             3
 ACTION:UPD 17-05-25 18:38 OP:jn   STATUS:               ID:20170308182047 L   I
 OLDACT:UP  17-04-26 16:34 OP:nlst STATUS:               ID:20170308182047 L   3
 OLDACT:REG 17-03-08 21:05 OP:ar   STATUS:               ID:20170308181746     3
 2017-03-08-1818-00M.COL___383                                                 6
 STAT SP IPHASW D HRMM SECON CODA AMPLIT PERI AZIMU VELO AIN AR TRES W  DIS CAZ7
 BRR  HZ EP       1821  8.58                             153    0.2310 70.2 298 
 BRR  HN ES       1821 25.57                             153    0.6610 70.2 298 
 PAM  EZ EP       1821  9.60                             151    0.1410 77.1  40 
 PAM  EN ES       1821 26.66                             151   -0.2210 77.1  40 
 PAM  EZ I        1821 27.90         9.7 0.18            154           77.1  40 
 RUS  HZ EP       1821 11.22                             144    0.1510  102 176 
 RUS  HN ES       1821 29.54                             144   -0.2110  102 176 
 RUS  HZ I        1821 30.61         2.8 0.28            144            102 176 
 PTB  HZ EP       1821 13.34                             132   -0.81 9  147 258 
 PTB  HN ES       1821 34.41                             132   -0.82 9  147 258 
 PTB  HZ I        1821 36.86         5.4 0.40            132            147 258 
 NOR  HZ EP       1821 23.26                             119    0.33 8  235 234 
 NOR  HN ES       1821 51.56                             119    0.71 8  235 234 
 NOR  HZ I        1821 56.91         3.7 0.24            119            235 234 
                                                                                
