 2016  5 8 1057 15.3 L   6.858 -73.362116.1  RSN 12 0.4 1.8LRSN                1
 GAP= 92        0.84       2.9     3.8  6.0  0.1068E+01  0.8464E+01  0.5509E-01E
 Epicentro: SAN VICENTE DE CHUCURI - SANTANDER                                 3
 ACTION:UPD 16-08-18 17:43 OP:cam  STATUS:               ID:20160508105715 L   I
 OLDACT:REG 16-05-08 20:17 OP:dnl  STATUS:               ID:20160508104746     3
 2016-05-08-1047-46M.COL___291                                                 6
 STAT SP IPHASW D HRMM SECON CODA AMPLIT PERI AZIMU VELO AIN AR TRES W  DIS CAZ7
 BAR2 EZ IP     C 1057 31.78                             162   -0.0110 35.4 146 
 BAR2 EZ ES       1057 44.45                             162   -0.1810 35.4 146 
 BAR2 EZ I        1057 45.55        17.4 0.36            163           35.4 146 
 BRR  HZ EP       1057 31.64                             156   -0.3210 47.5 306 
 BRR  HN ES       1057 45.07                             156    0.1310 47.5 306 
 BRR  HZ I        1057 45.89        13.1 0.20            155           47.5 306 
 PAM  EZ EP   2   1057 35.72                             140    0.25 5 90.5  54 
 PAM  EN ES   2   1057 52.06                             140    0.88 5 90.5  54 
 PAM  EZ I        1057 54.02         7.8 0.24            139           90.5  54 
 RUS  HZ EP       1057 37.12                             134   -0.0810  111 164 
 RUS  HN ES   2   1057 54.67                             134    0.41 5  111 164 
 RUS  HZ I        1057 55.65         4.1 0.16            133            111 164 
 PTB  HZ EP   4   1057 36.44                             129   -1.49 0  126 254 
 PTB  HE ES   4   1057 54.24                             129   -1.32 0  126 254 
 PTB  HZ I        1057 57.55        11.8 0.10            128            126 254 
 OCA  HE ES   4   1057 59.20                             123   -1.39 0  153   2 
 OCA  HZ I        1058  6.24        12.1 0.19            123            153   2 
 SPBC HN ES       1058  0.33                             123   -0.46 9  155 211 
 SPBC HZ I        1058  6.91        11.9 0.18            122            155 211 
 ZAR  HZ EP       1057 42.92                             119   -0.44 9  180 293 
 ZAR  HN ES       1058  5.39                             119    0.16 9  180 293 
 ZAR  HZ I        1058  8.41         7.7 0.26            118            180 293 
 NOR  HZ EP   2   1057 48.22                             113    0.38 4  220 229 
 NOR  HN ES       1058 14.15                             113    0.95 8  220 229 
 NOR  HZ I        1058 17.07         8.4 0.20            112            220 229 
 SML  HZ EP   4   1057 47.37                             112   -1.41 0  229 340 
 SML  HE ES       1058 14.97                             112    0.10 8  229 340 
 SML  HZ I        1058 17.79        11.5 0.10            111            229 340 
 HEL  HZ EP   3   1057 51.84                             110    0.08 2  251 253 
 HEL  HN ES   2   1058 19.52                             110   -0.65 4  251 253 
 HEL  HZ I        1058 24.40         8.9 0.28            109            251 253 
 URE  HZ EP   4   1057 50.74                             109   -1.55 0  259 293 
 URE  HE ES   4   1058 18.20                             109   -2.92 0  259 293 
 URE  HZ I        1058 21.14         4.3 0.14            108            259 293 
                                                                                
