 2011  5 8 1041 24.8 L   6.671 -74.184 39.8  RSN  5 0.3 1.3LRSN                1
 GAP=157        0.72       5.9     3.5 16.4 -0.4671E+01  0.1461E+02  0.5638E+02E
 Epicentro: PUERTO PARRA - SANTANDER                                           3
 ACTION:UP  11-06-29 08:51 OP:tino STATUS:               ID:20110508104125 L   I
 2011-05-08-1037-24S.COL___131                                                 6
 STAT SP IPHASW D HRMM SECON CODA AMPLIT PERI AZIMU VELO SNR AR TRES W  DIS CAZ7
 BRR  HZ EP   1   1041 36.31                             105    -0.5 7   71  47 
 BRR  HZ I        1041 37.56         7.8 0.12                            71  47 
 BRR  HN ES   1   1041 46.28                             105     0.2 7   71  47 
 BAR2 SZ EP   1   1041 42.08                              97     0.1 7  111  94 
 BAR2 SZ I        1041 58.45         5.5 0.27                           111  94 
 RUS  HZ EP   1   1041 47.53                              81     0.5 7  149 125 
 RUS  HZ I        1041 47.79         3.4 0.19                           149 125 
 RUS  HN ES   2   1042  3.58                              81    -0.7 5  149 125 
 HEL  HZ EP   1   1041 47.96                              81     0.0 7  158 250 
 HEL  HN ES   1   1042  6.01                              81     0.0 7  158 250 
 HEL  HZ I        1042  7.26         3.7 0.22                           158 250 
 GRA  SZ EP   1   1041 53.32                              81     0.1 6  203  49 
 GRA  SZ ES   2   1042 15.40                              81     0.0 4  203  49 
 GRA  SZ I        1042 18.26         3.7 0.43                           203  49 
                                                                                
