 2013  9 8 1940  8.1 L   6.785 -73.163153.3  RSN  7 0.4 1.8LRSN                1
 GAP=146        0.84       8.9     5.5 10.8 -0.2064E+02 -0.1028E+02  0.5658E+02E
 Epicentro: LOS SANTOS - SANTANDER                                             3
 ACTION:UPD 13-10-22 09:21 OP:ep   STATUS:               ID:20130908194008 L   I
 OLDACT:UP  13-09-08 18:05 OP:mh   STATUS:               ID:20130908193959     3
 OLDACT:REG 13-09-08 16:50 OP:mh   STATUS:               ID:20130908193959     3
 2013-09-08-1939-59M.COL___269                                                 6
 STAT SP IPHASW D HRMM SECON CODA AMPLIT PERI AZIMU VELO AIN AR TRES W  DIS CAZ7
 BAR2 SZ EP   1   1940 28.30                             172   -0.35 7 21.4 186 
 BAR2 SZ I        1940 44.72        11.8 0.16            166           21.4 186 
 BRR  HZ EP   1   1940 30.76                             154    0.69 7 70.4 300 
 BRR  HN ES       1940 47.57                             154    0.4010 70.4 300 
 BRR  HZ I        1940 48.44        10.0 0.42            156           70.4 300 
 PAM  SZ EP   1   1940 31.61                             151    0.30 7 79.9  40 
 PAM  SN ES   1   1940 48.87                             151   -0.52 7 79.9  40 
 PTB  HZ EP   1   1940 35.13                             134   -0.41 7  146 259 
 PTB  HN ES   1   1940 56.52                             134   -0.40 7  146 259 
 PTB  HZ I        1940 57.19         5.7 0.12            132            146 259 
 SPBC HZ EP   1   1940 37.06                             131    0.06 7  161 219 
 ZAR  HE ES   1   1941  6.15                             124   -0.44 6  203 293 
 ZAR  HZ I        1941 13.03         6.6 0.26            122            203 293 
 NOR  HN ES   1   1941 12.28                             120    0.22 6  232 235 
 NOR  HZ I        1941 17.39         3.8 0.38            117            232 235 
                                                                                
