 2012  4 8 1257 26.3 L   6.740 -73.179146.2  RSN  5 0.3 1.7LRSN                1
 GAP=229        0.66       6.8     7.0  6.4  0.3006E+02  0.7088E+01  0.2617E+01E
 Epicentro: VILLANUEVA - SANTANDER                                             3
 ACTION:UPD 12-07-05 11:51 OP:tino STATUS:               ID:20120408125726 L   I
 2012-04-08-1250-00M.COL___196                                                 6
 STAT SP IPHASW D HRMM SECON CODA AMPLIT PERI AZIMU VELO AIN AR TRES W  DIS CAZ7
 BAR2 SZ EP       1257 45.80                             173    -0.110   16 181 
 BAR2 SZ ES   1   1258  0.66                             173    -0.5 7   16 181 
 BAR2 SZ I        1258  2.09        17.4 0.22                            16 181 
 BRR  HZ EP       1257 47.63                             152     0.110   72 305 
 BRR  HZ I        1257 49.60        16.1 0.10                            72 305 
 BRR  HN ES   1   1258  4.44                             152     0.3 7   72 305 
 RUS  HZ EP       1257 49.69                             146     0.010   94 174 
 RUS  HN ES   1   1258  8.31                             146     0.4 7   94 174 
 RUS  HZ I        1258  9.33         4.6 0.32                            94 174 
 PTB  HZ EP       1257 52.80                             133    -0.1 9  143 261 
 PTB  HN ES   2   1258 13.34                             133    -0.3 5  143 261 
 PTB  HZ I        1258 15.77         6.0 0.44                           143 261 
 ZAR  HE ES   2   1258 24.12                             123     0.1 4  203 294 
                                                                                
