 2011  8 8 1309 46.7 L   6.810 -73.037141.9  RSN  4 0.2 2.0LRSN                1
 GAP=249        0.48       4.8     6.8  5.8  0.1625E+02 -0.2133E+01 -0.2391E+00E
 Epicentro: CEPITA - SANTANDER                                                 3
 ACTION:UPD 12-07-13 15:50 OP:ep   STATUS:               ID:20110808130946 L   I
 2011-08-08-1308-49S.COL___143                                                 6
 STAT SP IPHASW D HRMM SECON CODA AMPLIT PERI AZIMU VELO AIN AR TRES W  DIS CAZ7
 BAR2 SZ EP   1   1310  6.03                             168    0.00 7 28.9 214 
 BAR2 SZ ES   1   1310 20.79                             168   -0.29 7 28.9 214 
 BAR2 SZ I        1310 22.74        26.7 0.24                          28.9 214 
 BRR  HZ EP   1   1310  7.84                             148   -0.25 7 81.5 294 
 BRR  HZ I        1310  8.10        25.3 0.13                          81.5 294 
 BRR  HN ES   1   1310 25.06                             148    0.31 7 81.5 294 
 RUS  HZ EP   1   1310 10.32                             143    0.14 7  102 183 
 RUS  HN ES   1   1310 28.61                             143    0.14 7  102 183 
 RUS  HZ I        1310 29.44         7.6 0.23                           102 183 
 NOR  SE ES   2   1310 51.77                             116   -0.19 4  245 236 
                                                                                
