 2012  5 8 1557 16.0 L   6.634 -73.517112.0  RSN 11 0.4 2.1LRSN                1
 GAP= 53        0.91       3.5     4.2  7.7  0.1047E+01  0.1623E+02  0.7189E+01E
 Epicentro: EL CARMEN DE CHUCURI - SANTANDER                                   3
 ACTION:UP  12-07-05 12:03 OP:pat  STATUS:               ID:20120508155716 L   I
 2012-05-08-1550-00M.COL___192                                                 6
 STAT SP IPHASW D HRMM SECON CODA AMPLIT PERI AZIMU VELO SNR AR TRES W  DIS CAZ7
 BAR2 SZ IP     C 1557 32.17                             161     0.110   37  97 
 BAR2 SZ ES   1   1557 44.55                             161     0.0 7   37  97 
 BAR2 SZ I        1557 45.57       177.6 0.36                            37  97 
 BRR  HZ EP       1557 32.67                             151     0.010   57 338 
 BRR  HZ I        1557 32.91        72.5 0.10                            57 338 
 BRR  HE ES   1   1557 46.12                             151     0.4 7   57 338 
 RUS  HZ EP   1   1557 35.76                             137    -0.4 7   95 150 
 RUS  HN ES   1   1557 51.87                             137     0.0 7   95 150 
 RUS  HZ I        1557 53.26        23.8 0.28                            95 150 
 PTB  HZ EP   1   1557 35.27                             134    -1.0 7  104 264 
 PTB  HZ I        1557 51.16        27.4 0.21                           104 264 
 PAM  SZ EP   1   1557 38.42                             130     0.1 7  119  49 
 PAM  SN ES   1   1557 55.34                             130    -0.3 7  119  49 
 ZAR  HZ EP   1   1557 43.89                             118     0.5 7  176 303 
 ZAR  HE ES   1   1558  4.93                             118     0.1 7  176 303 
 ZAR  HZ I        1558  8.26        17.2 0.15                           176 303 
 OCA  HN ES   2   1558  5.98                             118     0.3 4  179   7 
 NOR  SZ EP   1   1557 44.49                             116    -0.6 7  191 232 
 NOR  SN ES   2   1558  7.83                             116     0.0 4  191 232 
 CHI  HZ EP   1   1557 49.49                             112     0.4 6  223 186 
 CHI  HN ES   1   1558 15.52                             112     0.5 6  223 186 
 CHI  HZ I        1558 23.00         4.5 0.39                           223 186 
 HEL  HZ EP   1   1557 49.27                             111    -0.4 6  228 258 
 HEL  HN ES   2   1558 15.91                             111     0.0 4  228 258 
 HEL  HZ I        1558 21.84         7.1 0.49                           228 258 
 RREF HZ EP   1   1557 56.69                             107     0.8 6  279 227 
 RREF HE ES   2   1558 27.00                             107     0.0 4  279 227 
 RREF HZ I        1558 34.69         4.8 0.25                           279 227 
                                                                                
