 2014  6 8 1953 38.8 L   6.827 -73.127145.4  RSN  7 0.6 1.5LRSN                1
 GAP=203        1.47       6.7     9.3 15.0  0.1500E+02  0.3138E+02 -0.2976E+02E
 Epicentro: LOS SANTOS - SANTANDER                                             3
 ACTION:UPD 14-07-01 22:52 OP:nd   STATUS:               ID:20140608195338 L   I
 OLDACT:DUP 14-06-09 00:44 OP:stll STATUS:               ID:20140608194822d    3
 2014-06-08-1948-21M.COL___259                                                 6
 STAT SP IPHASW D HRMM SECON CODA AMPLIT PERI AZIMU VELO AIN AR TRES W  DIS CAZ7
 BAR2 SZ EP       1953 58.80                             169    0.3810 26.7 193 
 BAR2 SZ ES       1954 13.35                             169   -0.4110 26.7 193 
 BAR2 SZ I        1954 14.67         4.8 0.26            168           26.7 193 
 BRR  HZ EP       1954  0.51                             152    0.6110 71.6 296 
 BRR  HZ I        1954  0.76         7.6 0.34            148           71.6 296 
 BRR  HN ES       1954 17.12                             152    0.7410 71.6 296 
 RUS  HN ES       1954 21.07                             143   -0.2810  103 177 
 PTB  HN ES       1954 26.41                             131   -0.73 9  150 258 
 PTB  HZ I        1954 31.98         3.3 0.12            129            150 258 
 SPBC HN ES       1954 30.01                             128   -0.05 9  167 219 
 ZAR  HN ES       1954 37.12                             122    0.50 9  205 291 
 ZAR  HZ I        1954 42.84         3.2 0.26            120            205 291 
 SML  HN ES       1954 42.39                             117   -1.17 8  242 335 
 SML  HZ I        1954 47.80         3.3 0.10            116            242 335 
                                                                                
