 2017  4 8 1231 45.7 L   7.470 -73.014160.0  RSN  5 0.4 1.8LRSN                1
 GAP=230        1.09       8.2     7.0  8.9 -0.1163E+02  0.2455E+01  0.3275E+01E
 Epicentro: SURATA - SANTANDER                                                 3
 ACTION:UPD 17-05-30 21:09 OP:jn   STATUS:               ID:20170408123145 L   I
 OLDACT:UP  17-05-08 16:47 OP:nlst STATUS:               ID:20170408123145 L   3
 OLDACT:REG 17-04-08 20:59 OP:ar   STATUS:               ID:20170408122744     3
 2017-04-08-1228-00M.COL___371                                                 6
 STAT SP IPHASW D HRMM SECON CODA AMPLIT PERI AZIMU VELO AIN AR TRES W  DIS CAZ7
 PAM  EZ EP       1232  7.89                             166    0.1710 37.6 113 
 PAM  EN ES       1232 24.65                             166   -0.2710 37.6 113 
 PAM  EZ I        1232 25.34         9.9 0.22            167           37.6 113 
 BRR  HZ EP       1232  9.66                             150    0.4110 86.9 243 
 BRR  HE ES       1232 27.83                             150    0.1810 86.9 243 
 BAR2 EZ EP       1232  9.49                             147   -0.8710 98.9 191 
 BAR2 EZ ES       1232 30.00                             147    0.3810 98.9 191 
 BAR2 EZ I        1232 34.23        19.1 0.28            145           98.9 191 
 RUS  HZ EP       1232 17.34                             130    0.46 9  175 183 
 RUS  HN ES       1232 41.17                             130   -0.06 9  175 183 
 RUS  HZ I        1232 42.59         1.9 0.20            130            175 183 
 PTB  HN ES       1232 42.22                             128   -0.42 9  190 237 
 PTB  HZ I        1232 46.41         7.3 0.14            128            190 237 
                                                                                
