 2011  6 8 1722  1.1 L   6.800 -73.202138.8  RSN  5 0.2 1.6LRSN                1
 GAP=152        0.41       3.2     5.8  6.3 -0.8722E+01  0.1585E+02 -0.7917E+01E
 Epicentro: ZAPATOCA - SANTANDER                                               3
 ACTION:UP  11-07-14 19:04 OP:ep   STATUS:               ID:20110608172201 L   I
 2011-06-08-1718-22S.COL___121                                                 6
 STAT SP IPHASW D HRMM SECON CODA AMPLIT PERI AZIMU VELO SNR AR TRES W  DIS CAZ7
 BAR2 SZ EP   1   1722 19.83                             170    -0.1 7   23 175 
 BAR2 SZ ES   2   1722 34.52                             170     0.0 5   23 175 
 BAR2 SZ I        1722 35.42        11.3 0.15                            23 175 
 BRR  HZ EP   2   1722 21.60                             153     0.4 5   66 301 
 BRR  HZ I        1722 21.94        12.3 0.11                            66 301 
 RUS  HZ EP   1   1722 24.37                             142     0.1 7  101 173 
 RUS  HN ES   1   1722 42.19                             142    -0.1 7  101 173 
 RUS  HZ I        1722 44.02         4.4 0.25                           101 173 
 GRA  SZ EP   1   1722 25.92                             135     0.0 7  128  20 
 GRA  SZ ES   2   1722 45.04                             135    -0.2 5  128  20 
 NOR  SZ EP   2   1722 35.41                             117    -0.5 4  230 234 
 NOR  SN ES   2   1723  3.06                             117     0.0 4  230 234 
                                                                                
