 2015  5 8 1133 41.4 L   6.807 -73.139144.9  RSN  9 0.5 2.1LRSN                1
 GAP=130        1.22       4.0     5.2  8.1 -0.3793E+00  0.1862E+01 -0.4526E+00E
 Epicentro: LOS SANTOS - SANTANDER                                             3
 ACTION:UPD 15-09-10 22:02 OP:cam  STATUS:               ID:20150508113341 L   I
 OLDACT:REG 15-05-08 20:23 OP:stll STATUS:               ID:20150508112749     3
 2015-05-08-1127-49M.COL___282                                                 6
 STAT SP IPHASW D HRMM SECON CODA AMPLIT PERI AZIMU VELO AIN AR TRES W  DIS CAZ7
 BRR  HZ EP       1134  2.94                             152    0.4610 71.6 298 
 BRR  HN ES       1134 19.68                             152    0.7610 71.6 298 
 BRR  HZ I        1134 23.71        14.2 0.12            150           71.6 298 
 RUS  HZ EP       1134  4.75                             144   -0.3610  101 177 
 RUS  HN ES       1134 23.33                             144   -0.2810  101 177 
 RUS  HZ I        1134 24.54        12.5 0.28            147            101 177 
 TAM  HZ EP       1134  9.12                             131    0.17 9  155 105 
 TAM  HZ I        1134  9.39        20.9 0.36            135            155 105 
 SPBC HZ EP       1134  9.93                             129   -0.00 9  164 219 
 SPBC HN ES       1134 31.93                             129   -0.26 9  164 219 
 SPBC HZ I        1134 34.52        23.1 0.28            130            164 219 
 NOR  HZ EP       1134 16.78                             118   -0.41 8  236 234 
 NOR  HN ES       1134 44.99                             118   -0.12 8  236 234 
 NOR  HZ I        1134 50.43        11.4 0.38            119            236 234 
 SML  HZ EP       1134 17.79                             117   -0.15 8  243 335 
 SML  HN ES       1134 45.39                             117   -1.05 8  243 335 
 SML  HZ I        1134 52.38        10.3 0.10            118            243 335 
 CHI  HZ EP       1134 19.01                             117   -0.14 8  250 195 
 CHI  HZ I        1134 19.94         4.3 0.50            119            250 195 
 CHI  HN ES       1134 48.64                             117    0.05 8  250 195 
 HEL  HZ EP       1134 22.52                             115    0.85 8  273 256 
 HEL  HN ES       1134 53.00                             115   -0.09 8  273 256 
 HEL  HZ I        1134 59.87         6.2 0.52            116            273 256 
 GUY2CHZ EP       1134 26.31                             112    1.22 7  302 235 
 GUY2CHN ES       1134 58.38                             112   -0.78 7  302 235 
 GUY2CHZ I        1135  7.43         7.0 0.34                           302 235 
                                                                                
