 2013  8 8 1352 57.4 L   6.123 -73.994 26.7  RSN 10 0.5 2.1LRSN                1
 GAP= 85        1.07       2.6     2.7  5.0  0.6907E-01 -0.2224E+01 -0.4932E+01E
 Epicentro: CIMITARRA - SANTANDER                                              3
 ACTION:UPD 14-01-14 09:00 OP:ep   STATUS:               ID:20130808135257 L   I
 OLDACT:UP  13-08-08 19:31 OP:mh   STATUS:               ID:20130808134960d    3
 OLDACT:UP  13-08-08 19:31 OP:mh   STATUS:               ID:20130808134960d    3
 OLDACT:DUP 13-08-08 19:14 OP:mh   STATUS:               ID:20130808134960d    3
 OLDACT:UP  13-08-08 18:45 OP:mh   STATUS:               ID:20130808134959     3
 OLDACT:REG 13-08-08 15:55 OP:mh   STATUS:               ID:20130808134959     3
 2013-08-08-1349-59M.COL___269                                                 6
 STAT SP IPHASW D HRMM SECON CODA AMPLIT PERI AZIMU VELO AIN AR TRES W  DIS CAZ7
 SPBC HZ EP   1   1353  6.94                             107    0.12 7 52.7 189 
 SPBC HN ES       1353 13.91                             107   -0.2510 52.7 189 
 PTB  HZ EP       1353  9.09                              98    0.1110 68.9 312 
 PTB  HN ES       1353 17.88                              98   -0.1210 68.9 312 
 PTB  HZ I        1353 18.45       244.9 0.20             99           68.9 312 
 RUS  HZ EP   1   1353 14.46                              61    0.12 7  104 104 
 RUS  HN ES   2   1353 26.66                              61   -0.88 5  104 104 
 RUS  HN I        1353 27.95        25.2 0.38             96            104 104 
 BAR2 SZ EP   1   1353 14.13                              61    0.13 7  104  60 
 BAR2 SZ ES   1   1353 26.31                              61   -0.63 7  104  60 
 BAR2 SZ I        1353 28.76        42.3 0.82             95            104  60 
 BRR  HZ EP   1   1353 15.76                              61    0.86 7  113  16 
 BRR  HN ES       1353 29.06                              61    0.5110  113  16 
 BRR  HN I        1353 30.58        95.7 0.16             95            113  16 
 GIR2 SZ EP   4   1353 19.57                              61    1.42 0  138  40 
 GIR2 SZ I        1353 37.67        41.2 0.34             94            138  40 
 HEL  HZ EP       1353 22.48                              61    0.03 9  170 273 
 HEL  HN ES       1353 41.50                              61   -0.48 9  170 273 
 HEL  HN I        1353 48.67        12.7 0.24             56            170 273 
 ZAR  HN ES       1353 42.52                              61   -0.69 9  179 328 
 ZAR  HN I        1353 50.68        13.9 0.14             56            179 328 
 GUY2CHZ EP   4   1353 25.94                              61    1.93 0  181 237 
 GUY2CHN ES       1353 45.50                              61    0.74 9  181 237 
 GUY2CHN I        1353 47.22        10.4 0.34                           181 237 
 PAM  SZ EP   4   1353 28.29                              61    2.40 0  196  47 
 PAM  SN ES   4   1353 51.30                              61    3.19 0  196  47 
 PAM  SN I        1353 52.48        21.7 0.60             56            196  47 
 RREF HN ES   4   1353 51.31                              61    1.68 0  202 228 
                                                                                
