 2011  6 8 1926  1.0 L   6.780 -73.123143.1  RSN  8 0.3 2.4LRSN                1
 GAP=140        0.51       2.9     4.6  5.0 -0.7926E+01  0.1971E+01  0.2450E+01E
 Epicentro: LOS SANTOS - SANTANDER                                             3
 ACTION:UP  11-07-14 19:04 OP:ep   STATUS:               ID:20110608192601 L   I
 2011-06-08-1920-00M.COL___122                                                 6
 STAT SP IPHASW D HRMM SECON CODA AMPLIT PERI AZIMU VELO SNR AR TRES W  DIS CAZ7
 BAR2 SZ EP   1   1926 20.12                             171    -0.1 8   22 198 
 BAR2 SZ ES   2   1926 34.97                             171    -0.3 5   22 198 
 BAR2 SZ I        1926 36.11        55.8 0.30                            22 198 
 BRR  HZ EP   1   1926 22.11                             151     0.1 8   74 299 
 BRR  HN ES   2   1926 39.07                             151     0.6 5   74 299 
 BRR  HZ I        1926 43.08        75.8 0.11                            74 299 
 PAM  SZ EP   1   1926 23.08                             150     0.1 8   78  37 
 PAM  SN ES   2   1926 40.07                             150     0.0 5   78  37 
 RUS  HZ EP   1   1926 24.46                             144     0.2 8   98 177 
 RUS  HE ES   2   1926 42.86                             144     0.4 5   98 177 
 RUS  HZ I        1926 44.75        37.3 0.32                            98 177 
 BRI  SZ EP   1   1926 24.74                             140     0.0 8  110  19 
 BRI  SZ ES   2   1926 43.23                             140     0.0 5  110  19 
 GRA  SZ IP       1926 26.02                             136    -0.110  127  16 
 GRA  SZ ES   1   1926 45.43                             136    -0.3 7  127  16 
 GRA  SZ I        1926 46.63        32.2 0.32                           127  16 
 NOR  SZ EP   1   1926 36.66                             118     0.0 6  235 235 
 NOR  SE ES   1   1927  4.15                             118    -0.3 6  235 235 
 CHI  HZ EP   1   1926 38.77                             117     0.4 6  247 196 
 CHI  HE ES   2   1927  6.96                             117    -0.6 4  247 196 
 CHI  HZ I        1927 10.94         9.6 0.41                           247 196 
                                                                                
