 2017  3 8 1530 57.1 L   6.791 -73.129149.1  RSN  8 0.4 1.7LRSN                1
 GAP=139        1.02       4.3     4.2  6.4 -0.2486E+01  0.6902E+01  0.3134E+01E
 Epicentro: LOS SANTOS - SANTANDER                                             3
 ACTION:UPD 17-05-25 18:37 OP:jn   STATUS:               ID:20170308153057 L   I
 OLDACT:UP  17-03-08 23:18 OP:ar   STATUS:               ID:20170308152742     3
 OLDACT:REG 17-03-08 20:54 OP:ar   STATUS:               ID:20170308152742     3
 2017-03-08-1528-00M.COL___383                                                 6
 STAT SP IPHASW D HRMM SECON CODA AMPLIT PERI AZIMU VELO AIN AR TRES W  DIS CAZ7
 BAR2 EZ EP       1531 16.80                             171   -0.3610 22.8 195 
 BAR2 EZ ES       1531 32.59                             171   -0.1910 22.8 195 
 BAR2 EZ I        1531 34.42        10.2 0.34            169           22.8 195 
 BRR  HZ EP       1531 18.72                             153   -0.0410 73.2 299 
 BRR  HN ES       1531 36.44                             153    0.8110 73.2 299 
 PAM  EZ EP       1531 19.66                             152   -0.0310 77.0  38 
 PAM  EN ES       1531 37.11                             152   -0.1710 77.0  38 
 PAM  EZ I        1531 38.70         5.0 0.62            156           77.0  38 
 RUS  HZ EP       1531 21.36                             145    0.2110 99.5 177 
 RUS  HN ES       1531 40.14                             145    0.2710 99.5 177 
 RUS  HZ I        1531 41.11         4.0 0.38            146           99.5 177 
 PTB  HZ EP       1531 24.69                             133    0.17 9  149 259 
 PTB  HN ES       1531 44.94                             133   -0.94 9  149 259 
 PTB  HZ I        1531 51.73         6.4 0.28            132            149 259 
 SPBC HZ EP       1531 25.71                             130   -0.22 9  164 220 
 SPBC HN ES       1531 48.82                             130    0.42 9  164 220 
 SPBC HZ I        1531 54.01         8.1 0.20            130            164 220 
 ZAR  HZ EP   2   1531 31.16                             123    1.15 4  206 292 
 ZAR  HN ES       1531 55.56                             123   -0.09 8  206 292 
 ZAR  HZ I        1532  0.46         8.2 0.28            124            206 292 
 NOR  HZ EP       1531 33.15                             119   -0.01 8  236 235 
 NOR  HN ES       1532  1.07                             119   -0.19 8  236 235 
 NOR  HZ I        1532  6.29         3.5 0.54            120            236 235 
                                                                                
