 2016 10 8 1138 44.8 L   6.733 -73.172142.8  RSN  4 0.2 1.0LRSN                1
 GAP=136        0.52       3.2     3.1  4.4 -0.2945E+01  0.3557E+01 -0.1505E+01E
 Epicentro: VILLANUEVA - SANTANDER                                             3
 ACTION:UPD 16-11-09 19:17 OP:rebc STATUS:               ID:20161008113844 L   I
 OLDACT:REG 16-10-08 20:17 OP:lv   STATUS:               ID:20161008113747     3
 2016-10-08-1138-00M.COL___357                                                 6
 STAT SP IPHASW D HRMM SECON CODA AMPLIT PERI AZIMU VELO AIN AR TRES W  DIS CAZ7
 BAR2 EZ EP       1139  4.13                             173    0.2010 15.6 184 
 BAR2 EZ ES       1139 19.08                             173    0.2310 15.6 184 
 BAR2 EZ I        1139 20.19         3.1 0.16            173           15.6 184 
 PAM  EZ EP       1139  6.98                             148   -0.1810 85.0  38 
 PAM  EN ES       1139 24.55                             148   -0.0610 85.0  38 
 PAM  EZ I        1139 26.20         2.0 0.29            150           85.0  38 
 RUS  HZ EP       1139  7.93                             145    0.1910 93.5 174 
 RUS  HN ES       1139 25.36                             145   -0.2810 93.5 174 
 RUS  HZ I        1139 28.25         1.0 0.25            146           93.5 174 
 PTB  HZ EP       1139 11.11                             132   -0.03 9  144 261 
 PTB  HN ES       1139 31.60                             132   -0.09 9  144 261 
 PTB  HZ I        1139 33.68         1.5 0.16            134            144 261 
                                                                                
