 2017  4 8 1723 42.3 L   6.856 -73.580110.0  RSN  5 0.5 1.0LRSN                1
 GAP=151        0.61       7.8     6.9  8.0  0.4693E+02  0.2473E+02  0.2044E+02E
 Epicentro: SAN VICENTE DE CHUCURI - SANTANDER                                 3
 ACTION:UPD 17-05-30 21:09 OP:jn   STATUS:               ID:20170408172341 L   I
 OLDACT:UP  17-05-08 16:47 OP:nlst STATUS:               ID:20170408172341 L   3
 OLDACT:UP  17-04-08 23:22 OP:edw  STATUS:               ID:20170408171411     3
 OLDACT:UP  17-04-08 23:21 OP:edw  STATUS:               ID:20170408171411     3
 OLDACT:REG 17-04-08 21:08 OP:ar   STATUS:               ID:20170408171411     3
 2017-04-08-1718-00M.COL___377                                                 6
 STAT SP IPHASW D HRMM SECON CODA AMPLIT PERI AZIMU VELO AIN AR TRES W  DIS CAZ7
 BRR  HZ EP   3   1723 59.34                             163    1.84 2 31.4 332 
 BAR2 EZ EP       1723 58.85                             153    0.0110 52.8 124 
 BAR2 EZ ES       1724 11.75                             153   -0.0310 52.8 124 
 PTB  HZ EP   3   1724  3.24                             134    0.99 2  103 250 
 PTB  HZ I        1724 26.41         1.8 0.44            102            103 250 
 RUS  HZ EP       1724  4.24                             129   -0.2010  120 153 
 RUS  HN ES       1724 21.85                             129    0.1010  120 153 
 RUS  HZ I        1724 24.14         2.4 0.30            105            120 153 
 ZAR  HN ES       1724 27.30                             121   -0.07 9  158 297 
                                                                                
