 2016  4 8 1556 21.1 L   6.795 -73.141141.1  RSN 14 0.5 2.4LRSN                1
 GAP=120        1.07       3.7     3.7  5.8 -0.3446E+01  0.6655E+01 -0.1044E+01E
 Epicentro: LOS SANTOS - SANTANDER                                             3
 ACTION:UPD 16-05-05 14:19 OP:rebc STATUS:               ID:20160408155621 L   I
 OLDACT:UP  16-04-08 21:35 OP:drio STATUS:               ID:20160408154749     3
 OLDACT:UP  16-04-08 21:34 OP:drio STATUS:               ID:20160408154749     3
 OLDACT:REG 16-04-08 19:59 OP:drio STATUS:               ID:20160408154749     3
 2016-04-08-1547-49M.COL___310                                                 6
 STAT SP IPHASW D HRMM SECON CODA AMPLIT PERI AZIMU VELO AIN AR TRES W  DIS CAZ7
 BAR2 EZ EP       1556 40.22                             170    0.0910 22.9 191 
 BAR2 EZ ES       1556 54.38                             170   -0.6110 22.9 191 
 BAR2 EZ I        1556 56.23        77.5 0.18            169           22.9 191 
 PAM  EZ EP     C 1556 43.14                             150    0.3410 77.5  39 
 PAM  EE ES       1557  0.28                             150    0.5410 77.5  39 
 PAM  EZ I        1557  2.55        66.5 0.58            154           77.5  39 
 RUS  HZ EP       1556 44.26                             143   -0.0610  100 176 
 RUS  HE ES       1557  2.99                             143    0.5310  100 176 
 RUS  HZ I        1557  3.74        25.5 0.32            144            100 176 
 PTB  HZ EP       1556 47.15                             131   -0.55 9  148 259 
 PTB  HN ES       1557  7.89                             131   -0.57 9  148 259 
 PTB  HZ I        1557 10.17        36.0 0.14            130            148 259 
 SPBC HZ EP       1556 49.15                             128   -0.05 9  163 219 
 SPBC HE ES       1557 10.66                             128   -0.49 9  163 219 
 SPBC HZ I        1557 16.38        43.9 0.26            128            163 219 
 ZAR  HZ EP       1556 53.76                             121    0.47 9  205 292 
 ZAR  HN ES       1557 18.64                             121    0.23 9  205 292 
 ZAR  HZ I        1557 27.12        33.4 0.36            121            205 292 
 NOR  HZ EP       1556 56.95                             117    0.41 8  235 235 
 NOR  HE ES       1557 24.11                             117   -0.10 8  235 235 
 NOR  HZ I        1557 26.00        18.9 0.32            118            235 235 
 CHI  HZ EP       1556 58.66                             116    0.19 8  248 195 
 CHI  HN ES       1557 27.34                             116   -0.30 8  248 195 
 CHI  HZ I        1557 35.85         6.0 0.38            117            248 195 
 HEL  HZ EP   4   1557  2.14                             114    1.05 0  272 256 
 HEL  HE ES       1557 32.53                             114    0.23 8  272 256 
 HEL  HZ I        1557 39.72        12.6 0.42            114            272 256 
 URE  HZ EP       1557  1.41                             112   -0.58 7  284 292 
 URE  HE ES   4   1557 31.96                             112   -1.95 0  284 292 
 GUY2CHZ EP       1557  4.69                             111    0.21 7  301 235 
 GUY2CHN ES       1557 39.21                             111    0.88 7  301 235 
 GUY2CHZ I        1557 46.86        13.2 0.44                           301 235 
 SOCV BZ EP       1557  3.06                             111   -0.83 7  301  57 
 SOCV BE ES   4   1557 34.73                             111   -2.56 0  301  57 
 ELA  HZ EP   4   1557  9.49                             109    1.76 0  329 230 
 ELA  HN ES   4   1557 47.27                             109    3.14 0  329 230 
 ELA  HZ I        1557 53.66         8.1 0.58            110            329 230 
 SJC  HZ EP   4   1557 13.55                             105   -3.02 0  410 327 
 SJC  HN ES   4   1557 55.92                             105   -3.94 0  410 327 
 SJC  HZ I        1558  0.28         6.2 0.72            106            410 327 
                                                                                
