 2016  8 8 1604 44.9 L   6.778 -73.082154.8  RSN  5 0.4 1.8LRSN                1
 GAP=242        0.88       5.5     7.5  8.0  0.1722E+02  0.1842E+02  0.2065E+01E
 Epicentro: LOS SANTOS - SANTANDER                                             3
 ACTION:UPD 16-10-29 15:33 OP:rebc STATUS:               ID:20160808160444 L   I
 OLDACT:REG 16-08-08 20:17 OP:lv   STATUS:               ID:20160808155759     3
 2016-08-08-1557-59S.COL___343                                                 6
 STAT SP IPHASW D HRMM SECON CODA AMPLIT PERI AZIMU VELO AIN AR TRES W  DIS CAZ7
 BRR  HZ EP       16 5  7.60                             152    0.2010 78.5 298 
 BRR  HE ES       16 5 25.44                             152    0.4510 78.5 298 
 BRR  HZ I        16 5 38.97        18.1 0.36                          78.5 298 
 RUS  HZ EP   2   16 5  9.62                             146    0.29 5 97.9 180 
 RUS  HE ES       16 5 28.00                             146   -0.4210 97.9 180 
 RUS  HZ I        16 5 30.10         3.2 0.23                          97.9 180 
 ZAR  HZ EP       16 5 18.34                             123   -0.32 8  211 292 
 ZAR  HN ES       16 5 44.44                             123   -0.59 8  211 292 
 ZAR  HZ I        16 5 50.19         6.1 0.18                           211 292 
 NOR  HZ EP       16 5 21.90                             120    0.31 8  239 236 
 NOR  HE ES       16 5 50.46                             120    0.22 8  239 236 
 NOR  HZ I        16 5 52.99         4.6 0.18                           239 236 
 GUY2CHZ EP   4   16 5 30.97                             114    1.58 0  306 236 
 GUY2CHE ES   4   16 6  2.56                             114   -1.56 0  306 236 
 GUY2CHZ I        16 6 12.93         2.8 0.32                           306 236 
                                                                                
