 2011  5 8 1417 44.2 L   6.781 -73.052143.3  RSN 10 0.4 2.6LRSN                1
 GAP=167        0.85       3.3     5.7  6.0 -0.9283E+01  0.6853E+01  0.1841E+01E
 Epicentro: LOS SANTOS - SANTANDER                                             3
 ACTION:UP  11-06-29 08:51 OP:tino STATUS:               ID:20110508141744 L   I
 2011-05-08-1415-53S.COL___131                                                 6
 STAT SP IPHASW D HRMM SECON CODA AMPLIT PERI AZIMU VELO SNR AR TRES W  DIS CAZ7
 BAR2 SZ IP       1418  3.35                             169    -0.210   25 215 
 BAR2 SZ ES   1   1418 18.66                             169     0.0 7   25 215 
 BAR2 SZ I        1418 19.65       104.8 0.40                            25 215 
 BRR  HZ IP     C 1418  5.23                             149    -0.410   81 296 
 BRR  HZ I        1418  5.51       225.7 0.15                            81 296 
 BRR  HE ES   1   1418 22.59                             149     0.2 7   81 296 
 RUS  HZ EP   1   1418  7.45                             144    -0.1 7   98 182 
 RUS  HN ES   1   1418 25.85                             144     0.1 7   98 182 
 RUS  HZ I        1418 27.22        42.5 0.20                            98 182 
 BRI  SZ EP       1418  7.88                             141     0.110  107  15 
 BRI  SZ ES   1   1418 26.17                             141     0.0 7  107  15 
 BRI  SZ I        1418 31.35        35.2 0.28                           107  15 
 GRA  SZ IP       1418  9.15                             137     0.010  125  13 
 GRA  SZ ES   1   1418 28.76                             137     0.1 7  125  13 
 GRA  SZ I        1418 29.84        47.4 0.24                           125  13 
 OCA  SZ EP   1   1418 11.93                             128    -0.7 7  164 350 
 OCA  SZ ES   1   1418 35.44                             128     0.6 7  164 350 
 OCA  SZ I        1418 39.80        46.7 0.23                           164 350 
 ROSC BZ EP   1   1418 23.02                             116     0.4 6  256 213 
 ROSC BE ES   1   1418 52.28                             116    -0.2 6  256 213 
 ROSC BZ I        1419  1.10        30.7 0.34                           256 213 
 HEL  HZ EP   1   1418 25.65                             113     0.3 6  282 257 
 HEL  HN ES   1   1418 56.83                             113    -0.6 6  282 257 
 HEL  HZ I        1419  2.02        22.0 0.20                           282 257 
 RREF HZ EP   1   1418 31.95                             110     1.0 5  328 231 
 RREF HN ES   1   1419  8.18                             110     0.7 5  328 231 
 RREF HZ I        1419 12.35        15.2 0.21                           328 231 
 PRA  HZ EP   1   1418 37.79                             106    -0.2 4  395 211 
 PRA  HN ES   1   1419 19.91                             106    -0.1 4  395 211 
                                                                                
