 2014  4 8 1543 34.5 L   6.821 -73.297128.9  RSN 10 0.3 2.3LRSN                1
 GAP=118        0.75       2.3     3.8  5.3  0.4412E+00  0.6080E+01 -0.4248E-01E
 Epicentro: ZAPATOCA - SANTANDER                                               3
 ACTION:UPD 14-05-13 23:07 OP:nd   STATUS:               ID:20140408154334 L   I
 OLDACT:REG 14-04-08 20:57 OP:cam  STATUS:               ID:20140408153816     3
 2014-04-08-1538-16M.COL___259                                                 6
 STAT SP IPHASW D HRMM SECON CODA AMPLIT PERI AZIMU VELO AIN AR TRES W  DIS CAZ7
 BRR  HZ IP     D 1543 53.05                             155    0.0810 55.8 305 
 BRR  HN ES       1544  7.51                             155    0.1310 55.8 305 
 BRR  HZ I        1544  8.07        73.9 0.34            154           55.8 305 
 PAM  SZ EP   1   1543 56.13                             144    0.49 7 87.4  49 
 PAM  SE ES   1   1544 12.39                             144    0.26 7 87.4  49 
 PAM  SZ I        1544 15.87        21.2 0.36            146           87.4  49 
 RUS  HZ EP       1543 56.79                             139   -0.2210  105 167 
 RUS  HN ES       1544 14.27                             139   -0.2910  105 167 
 RUS  HZ I        1544 14.98        14.5 0.22            140            105 167 
 PTB  HZ EP   4   1543 57.37                             131   -1.29 0  132 256 
 PTB  HN ES   4   1544 15.01                             131   -2.49 0  132 256 
 PTB  HZ I    4   1544 22.39        19.7 0.14            131            132 256 
 SPBC HZ EP       1544  1.10                             126    0.14 9  155 214 
 OCA  HZ EP       1544  1.47                             126    0.25 9  157 359 
 OCA  HN ES       1544 21.68                             126   -0.38 9  157 359 
 OCA  HZ I        1544 23.05        33.1 0.48            127            157 359 
 ZAR  HZ EP   1   1544  4.50                             121    0.32 7  188 293 
 ZAR  HE ES   1   1544 27.81                             121    0.48 7  188 293 
 ZAR  HZ I        1544 30.10        49.8 0.88            121            188 293 
 NOR  HZ EP   1   1544  8.50                             116    0.51 6  223 231 
 NOR  HE ES   1   1544 33.98                             116   -0.13 6  223 231 
 NOR  HZ I        1544 42.82         9.2 0.32            117            223 231 
 SML  HZ EP   1   1544  9.43                             115    0.15 6  235 339 
 SML  HN ES       1544 36.02                             115   -0.39 8  235 339 
 SML  HZ I        1544 43.68        34.4 0.10            115            235 339 
 URE  HZ EP       1544 12.22                             111   -0.73 8  268 293 
 URE  HN ES   4   1544 40.88                             111   -2.05 0  268 293 
 URE  HZ I        1544 42.42        13.6 0.36            112            268 293 
 GUY2CHZ EP   4   1544 18.55                             110    2.56 0  289 232 
 GUY2CHZ I        1544 54.82         6.0 0.42                           289 232 
                                                                                
