 2013 11 8 1402 30.6 L   7.018 -73.766 94.0  RSN  9 0.3 2.3LRSN                1
 GAP= 98        0.62       2.6     2.0  4.1  0.1252E+01  0.2967E+01  0.3362E+01E
 Epicentro: YONDO - ANTIOQUIA                                                  3
 ACTION:UPD 14-01-09 16:26 OP:ep   STATUS:               ID:20131108140230 L   I
 OLDACT:UP  13-11-08 17:31 OP:cam  STATUS:               ID:20131108140000     3
 OLDACT:REG 13-11-08 16:47 OP:cam  STATUS:               ID:20131108140000     3
 2013-11-08-1400-00M.COL___273                                                 6
 STAT SP IPHASW D HRMM SECON CODA AMPLIT PERI AZIMU VELO AIN AR TRES W  DIS CAZ7
 BRR  HZ IP     C 14 2 43.15                             173   -0.2710 11.5  31 
 BRR  HN ES       14 2 53.36                             173   -0.0510 11.5  31 
 BRR  HZ I        14 2 54.16        97.9 0.14            169           11.5  31 
 BAR2 SZ EP       14 2 47.52                             137   -0.0110 79.8 126 
 BAR2 SZ ES       14 3  0.98                             137    0.2610 79.8 126 
 PTB  HZ IP   4 C 14 2 46.94                             132   -1.44 0 92.9 235 
 PTB  HN ES   4   14 2 59.73                             132   -2.50 0 92.9 235 
 PTB  HZ I        14 3  0.53        62.3 0.12            132           92.9 235 
 PAM  SZ EP       14 2 52.15                             124    0.2010  123  73 
 PAM  SE ES   1   14 3  8.79                             124    0.20 7  123  73 
 PAM  SZ I        14 3 13.51        29.8 0.54            122            123  73 
 ZAR  HZ EP       14 2 51.93                             121   -0.2810  132 294 
 ZAR  HN ES       14 3  9.17                             121    0.1210  132 294 
 ZAR  HZ I        14 3 11.18        54.3 0.48            120            132 294 
 RUS  HZ EP       14 2 54.01                             119   -0.32 9  146 149 
 RUS  HN ES       14 3 12.66                             119   -0.17 9  146 149 
 RUS  HZ I        14 3 14.02        22.5 0.18            118            146 149 
 NOR  HZ EP       14 2 59.84                             110   -0.28 9  202 217 
 NOR  HE ES       14 3 23.27                             110    0.15 9  202 217 
 NOR  HZ I        14 3 26.75        18.4 0.26            110            202 217 
 HEL  HZ EP   1   14 3  2.53                             109    0.46 6  215 245 
 GUY2CHZ EP       14 3  8.62                             105    0.46 8  266 222 
                                                                                
