 2012  9 8 1651 47.0 L   6.787 -73.142147.3  RSN 22 0.5 3.7LRSN 3.9WRSN        1
 SPEC AVERAGE  MO 14.9 ST 57.5 OM  3.4 f0 3.09 R0.5627 AL 2.25 WI 27.2 MW  3.9 3
 SPEC SD       MO  0.2 ST 65.4 OM  0.6 f0 1.11 R0.2582 AL      WI      MW  0.2 3
 GAP= 55        0.89       3.4     3.4  4.6 -0.5190E+00  0.3569E+01  0.4057E+01E
 Epicentro: LOS SANTOS - SANTANDER                                             3
 SPEC VIL SH N MO 15.3 ST 17.2 OM  3.4 f0 1.85 R0.7946 AL 1.76 WI 33.8 MW  4.1 3
 SPEC VIL SH N T1653 3 K 0.000 GD  336 VS 4.20 DE 3.00 Q0230.0 QA 0.60 VS 4.20 3
 SPEC TAM HH E MO 14.8 ST  1.8 OM  3.1 f0 1.28 R1.1484 AL 1.09 WI 15.5 MW  3.8 3
 SPEC TAM HH E T165235 K 0.000 GD  213 VS 4.20 DE 3.00 Q0230.0 QA 0.60 VS 4.20 3
 SPEC TAM HH N MO 14.6 ST  9.8 OM  2.9 f0 2.62 R0.5611 AL 1.87 WI 19.6 MW  3.7 3
 SPEC TAM HH N T165236 K 0.000 GD  213 VS 4.20 DE 3.00 Q0230.0 QA 0.60 VS 4.20 3
 SPEC PRA HH N MO 15.0 ST 13.2 OM  3.0 f0 2.14 R0.6869 AL 1.46 WI 24.8 MW  3.9 3
 SPEC PRA HH N T165321 K 0.000 GD  417 VS 4.20 DE 3.00 Q0230.0 QA 0.60 VS 4.20 3
 SPEC ROSCBH Z MO 14.9 ST 50.6 OM  2.3 f0 3.57 R0.4118 AL 3.03 WI 26.6 MW  3.9 3
 SPEC ROSCBH Z T165225 K 0.000 GD  291 VP 7.60 DE 3.00 Q0230.0 QA 0.60 VS 4.20 3
 SPEC NOR SH N MO 15.0 ST133.1 OM  3.2 f0 4.55 R0.3231 AL 2.57 WI 24.5 MW  4.0 3
 SPEC NOR SH N T165249 K 0.000 GD  276 VS 4.20 DE 3.00 Q0230.0 QA 0.60 VS 4.20 3
 SPEC PTB HH N MO 14.6 ST 19.0 OM  2.9 f0 3.29 R0.4468 AL 1.49 WI 28.2 MW  3.7 3
 SPEC PTB HH N T165233 K 0.000 GD  208 VS 4.20 DE 3.00 Q0230.0 QA 0.60 VS 4.20 3
 SPEC CHI HH Z MO 14.8 ST 65.9 OM  2.2 f0 4.23 R0.3475 AL 3.29 WI 24.3 MW  3.8 3
 SPEC CHI HH Z T165224 K 0.000 GD  287 VP 7.60 DE 3.00 Q0230.0 QA 0.60 VS 4.20 3
 SPEC BRR HH N MO 15.3 ST206.4 OM  3.7 f0 4.27 R0.3443 AL 3.73 WI 47.6 MW  4.1 3
 SPEC BRR HH N T165222 K 0.000 GD  164 VS 4.20 DE 3.00 Q0230.0 QA 0.60 VS 4.20 3
 ACTION:UPD 12-10-22 14:17 OP:ep   STATUS:               ID:20120908165147 L   I
 2012-09-08-1650-00M.COL___227                                                 6
 STAT SP IPHASW D HRMM SECON CODA AMPLIT PERI AZIMU VELO AIN AR TRES W  DIS CAZ7
 BAR2 SZ IP       1652  6.84                             171    0.1010 22.0 192 
 BAR2 SZ ES   1   1652 21.28                             171   -0.89 7 22.0 192 
 GIR2 SZ IP       1652  6.88                             167    0.0310 32.8 350 
 GIR2 SZ ES   1   1652 22.23                             167   -0.13 7 32.8 350 
 BRR  HZ IP     C 1652  8.71                             152    0.3810 72.3 299 
 BRR  HZ I        1652  8.75       669.7 0.16                          72.3 299 
 BRR  HN ES   1   1652 25.88                             152    0.88 7 72.3 299 
 PAM  SZ IP       1652  9.63                             151    0.2510 78.2  39 
 PAM  SZ I        1652  9.79       702.8 0.22                          78.2  39 
 PAM  SN ES   1   1652 26.82                             151   -0.05 7 78.2  39 
 RUS  HZ IP     D 1652 10.59                             144   -0.1610 99.1 176 
 RUS  HN ES   1   1652 28.70                             144   -0.61 7 99.1 176 
 PTB  HZ EP       1652 13.42                             132   -0.64 9  148 259 
 PTB  HN ES   3   1652 34.50                             132   -0.70 2  148 259 
 PTB  HN I        1652 40.38       536.6 0.40                           148 259 
 TAM  HZ IP     D 1652 15.02                             131    0.34 9  154 105 
 TAM  HZ I        1652 15.09       397.7 0.36                           154 105 
 TAM  HN ES   1   1652 36.78                             131    0.48 7  154 105 
 YOP  SZ EP       1652 17.23                             127    0.27 9  177 153 
 YOP  SN ES   3   1652 40.22                             127   -0.14 2  177 153 
 ZAR  HZ EP       1652 19.44                             122   -0.15 9  205 292 
 ZAR  HN ES   3   1652 45.36                             122    0.31 2  205 292 
 NOR  SZ EP       1652 22.69                             119   -0.03 8  234 235 
 NOR  SN ES   2   1652 49.91                             119   -0.70 4  234 235 
 NOR  SN I        1652 58.85       479.7 0.20                           234 235 
 CHI  HZ EP       1652 24.78                             117    0.19 8  247 195 
 CHI  HE ES   3   1652 54.07                             117    0.12 2  247 195 
 CHI  HN I        1652 56.69       399.3 0.36                           247 195 
 ROSC BN ES   3   1652 54.95                             117    0.20 2  252 211 
 HEL  HZ EP   1   1652 27.98                             115    0.73 6  272 256 
 VIL  SZ EP       1652 29.67                             112   -0.62 7  302 192 
 VIL  SN ES   1   1653  3.98                             112   -0.11 5  302 192 
 VIL  SN I        1653  8.62       353.2 0.62                           302 192 
 GUY  SN ES   3   1653  5.90                             112    0.83 2  303 235 
 DBB  SZ EP       1652 34.24                             110   -0.31 7  340 274 
 TOL  SZ EP       1652 36.00                             109    0.82 7  343 225 
 COD  EZ EP   1   1652 34.74                             109   -0.82 5  350 355 
 ANIL HZ EP   1   1652 37.79                             109    1.06 5  357 225 
 ANIL HN ES   2   1653 16.24                             109    0.69 3  357 225 
 SDV  BZ EP       1652 36.16                             108   -0.96 6  361  50 
 PRA  HZ EP       1652 40.19                             107   -0.21 6  391 210 
 PRA  HN ES   3   1653 22.70                             107    0.61 1  391 210 
 PRA  HN I        1653 27.79       197.1 0.44                           391 210 
 HORQ SZ EP   2   1652 56.83                             101   -0.51 2  531 227 
                                                                                
