 2017  2 8 1226  1.6 L   6.816 -73.172142.0  RSN  7 0.4 1.6LRSN                1
 GAP=110        0.76       3.7     3.3  5.5  0.2221E+01 -0.9989E+00 -0.1565E+01E
 Epicentro: LOS SANTOS - SANTANDER                                             3
 ACTION:UPD 17-05-24 15:34 OP:jn   STATUS:               ID:20170208122601 L   I
 OLDACT:UP  17-02-08 21:44 OP:and  STATUS:               ID:20170208121746     3
 OLDACT:REG 17-02-08 20:14 OP:and  STATUS:               ID:20170208121746     3
 2017-02-08-1218-00M.COL___337                                                 6
 STAT SP IPHASW D HRMM SECON CODA AMPLIT PERI AZIMU VELO AIN AR TRES W  DIS CAZ7
 BAR2 EZ EP       1226 20.65                             170   -0.1710 24.8 183 
 BAR2 EZ ES       1226 36.23                             170    0.4310 24.8 183 
 BAR2 EZ I        1226 36.57        11.0 0.24            165           24.8 183 
 PAM  EZ IP     D 1226 23.45                             150   -0.0010 77.9  42 
 RUS  HZ EP       1226 25.25                             143    0.1110  103 175 
 RUS  HN ES       1226 43.22                             143   -0.2710  103 175 
 RUS  HZ I        1226 45.10         6.1 0.34            140            103 175 
 PTB  HZ EP       1226 28.36                             132    0.31 9  145 258 
 PTB  HN ES       1226 48.64                             132   -0.03 9  145 258 
 PTB  HZ I        1226 51.07         5.9 0.20            128            145 258 
 TAM  HZ IP     D 1226 29.04                             129   -0.25 9  158 105 
 ZAR  HZ EP   3   1226 35.85                             122    2.38 2  201 292 
 ZAR  HN ES       1226 57.89                             122   -0.42 9  201 292 
 ZAR  HZ I        1227  5.24         4.2 0.10            120            201 292 
 CHI  HZ EP       1226 39.48                             116    0.27 8  250 194 
 CHI  HN ES       1227  8.36                             116   -0.17 8  250 194 
 CHI  HZ I        1227 17.25         1.9 0.38            114            250 194 
                                                                                
