 2016 11 8 1035 36.3 L   6.651 -73.231132.8  RSN  4 0.4 1.2LRSN                1
 GAP=187        0.87      10.0     7.1  8.7  0.1579E+02  0.2855E+02 -0.1466E+02E
 Epicentro: BARICHARA - SANTANDER                                              3
 ACTION:UPD 17-10-26 21:05 OP:lp   STATUS:               ID:20161108103536 L   I
 OLDACT:DUP 16-11-08 22:21 OP:dnl  STATUS:               ID:20161108102745d    3
 OLDACT:REG 16-11-08 21:52 OP:dnl  STATUS:               ID:20161108102744     3
 2016-11-08-1028-00M.COL___337                                                 6
 STAT SP IPHASW D HRMM SECON CODA AMPLIT PERI AZIMU VELO AIN AR TRES W  DIS CAZ7
 BAR2 EZ EP   2   1035 53.63                             176   -0.57 5 8.44 140 
 BAR2 EZ ES       1036  8.07                             176   -0.0510 8.44 140 
 BAR2 EZ I        1036 10.57         3.6 0.70            173           8.44 140 
 BRR  HZ EP   2   1035 55.72                             149   -0.52 5 73.3 314 
 BRR  HN ES       1036 11.97                             149    0.2110 73.3 314 
 BRR  HZ I        1036 16.10         4.3 0.28            148           73.3 314 
 PTB  HZ EP   3   1036  0.59                             131   -0.61 2  136 265 
 PTB  HN ES       1036 20.61                             131    0.03 9  136 265 
 PTB  HZ I        1036 27.16         1.9 0.30            131            136 265 
 ZAR  HZ EP       1036  8.53                             119    0.72 9  202 297 
 ZAR  HN ES       1036 31.78                             119   -0.57 9  202 297 
 ZAR  HZ I        1036 37.63         2.4 0.32            121            202 297 
                                                                                
