 2012  2 8 1413 17.5 L   6.689 -73.157148.4  RSN  6 0.2 1.5LRSN                1
 GAP=180        0.51       4.0     3.9  6.7  0.1205E+01 -0.2019E-02 -0.3403E+00E
 ACTION:UP  12-03-07 16:28 OP:epov STATUS:               ID:20120208141317 L   I
 2012-02-08-1409-59S.COL___187                                                 6
 STAT SP IPHASW D HRMM SECON CODA AMPLIT PERI AZIMU VELO AIN AR TRES W  DIS CAZ7
 BAR2 SZ EP   1   1413 37.26                             176   -0.04 7 11.1 195 
 GIR2 SZ EP   1   1413 37.61                             163   -0.28 7 43.3 355 
 BRR  HZ EP   1   1413 39.39                             151    0.11 7 76.8 307 
 BRR  HZ I        1413 44.99        13.1 0.45                          76.8 307 
 BRR  HN ES   1   1413 56.56                             151    0.31 7 76.8 307 
 RUS  HZ EP   1   1413 41.06                             148    0.34 7 88.5 175 
 RUS  HZ I        1413 41.67         2.8 0.16                          88.5 175 
 RUS  HN ES   1   1413 58.63                             148   -0.17 7 88.5 175 
 PTB  HZ EP   1   1413 44.26                             133   -0.18 7  145 263 
 PTB  HN ES   1   1414  5.11                             133   -0.32 7  145 263 
 NOR  SN ES   1   1414 20.15                             120    0.24 6  227 237 
                                                                                
