 2011  3 8 1356  1.9 L   6.792 -73.164139.2  RSN  5 0.3 1.9LRSN                1
 GAP=167        0.85       5.4    14.0  9.1 -0.5001E+02  0.5734E+02 -0.7200E+01E
 Epicentro: LOS SANTOS - SANTANDER                                             3
 ACTION:UP  11-06-16 14:32 OP:jfem STATUS:               ID:20110308135601 L   I
 2011-03-08-1353-44S.COL___135                                                 6
 STAT SP IPHASW D HRMM SECON CODA AMPLIT PERI AZIMU VELO SNR AR TRES W  DIS CAZ7
 BAR2 SZ EP       1356 21.00                             170     0.310   22 186 
 BAR2 SZ ES   1   1356 35.56                             170     0.2 7   22 186 
 BAR2 SZ I        1356 38.86        39.5 0.25                            22 186 
 GRA  SZ EP       1356 26.83                             135     0.210  127  18 
 GRA  SZ ES   1   1356 45.33                             135    -0.7 7  127  18 
 GRA  SZ I        1356 48.15         9.0 0.27                           127  18 
 CHI  HZ EP       1356 39.10                             116     0.0 8  247 195 
 CHI  HN ES       1357  7.64                             116    -0.4 8  247 195 
 CHI  HZ I        1357 16.83         6.3 0.45                           247 195 
 HEL  HZ EP   1   1356 41.45                             114    -0.1 6  270 256 
 HEL  HZ I        1357 18.87         4.9 0.23                           270 256 
 DBB  SZ EP   2   1356 48.96                             108     0.1 3  337 274 
 DBB  SZ I        1357 27.32         1.0 0.24                           337 274 
                                                                                
