 2014  3 8 1738  5.9 L   6.803 -73.167134.0  RSN 12 0.6 2.1LRSN                1
 GAP=102        1.37       4.9     3.9  7.0 -0.3308E+01  0.6496E+01  0.6581E+01E
 Epicentro: LOS SANTOS - SANTANDER                                             3
 ACTION:UPD 14-04-09 23:15 OP:nd   STATUS:               ID:20140308173805 L   I
 OLDACT:REG 14-03-08 16:49 OP:stll STATUS:               ID:20140308172814     3
 2014-03-08-1728-14M.COL___229                                                 6
 STAT SP IPHASW D HRMM SECON CODA AMPLIT PERI AZIMU VELO AIN AR TRES W  DIS CAZ7
 BAR2 SZ IP     D 1738 24.15                             170    0.0710 23.4 184 
 BAR2 SZ ES       1738 38.42                             170    0.1310 23.4 184 
 BAR2 HZ I        1738 39.61        47.3 0.30            169           23.4 184 
 BRR  HZ IP     C 1738 26.08                             151    0.4610 69.0 299 
 BRR  HE ES       1738 41.57                             151    0.5410 69.0 299 
 BRR  HZ I        1738 47.65        26.4 0.14            153           69.0 299 
 PAM  SZ IP     C 1738 27.00                             148    0.0910 78.6  41 
 PAM  SN ES       1738 43.57                             148    0.2310 78.6  41 
 RUS  HZ IP     C 1738 28.14                             141   -0.3810  101 175 
 RUS  HN ES       1738 45.51                             141   -0.6810  101 175 
 RUS  HZ I        1738 47.61        15.1 0.36            142            101 175 
 PTB  HZ EP       1738 30.78                             130   -0.91 9  146 259 
 PTB  HN ES       1738 51.06                             130   -0.77 9  146 259 
 PTB  HZ I        1738 54.12        32.4 0.12            131            146 259 
 TAM  HZ EP       1738 32.52                             127   -0.34 9  157 105 
 TAM  HE ES       1738 54.00                             127    0.09 9  157 105 
 TAM  HZ I        1739  2.21        11.5 0.94            129            157 105 
 SPBC HZ EP       1738 33.26                             126   -0.11 9  162 218 
 SPBC HN ES       1738 54.45                             126   -0.38 9  162 218 
 SPBC HZ I        1738 56.07        19.1 0.26            128            162 218 
 ZAR  HZ EP       1738 37.36                             120    0.04 9  202 292 
 NOR  HZ EP       1738 40.12                             116   -0.63 8  233 234 
 NOR  HE ES       1739  7.43                             116   -0.54 8  233 234 
 NOR  HZ I        1739 15.07        10.5 0.20            118            233 234 
 CHI  HZ EP       1738 43.07                             115    0.16 8  248 195 
 CHI  HN ES       1739 13.36                             115    1.55 8  248 195 
 CHI  HZ I        1739 18.09         3.1 0.40            116            248 195 
 HEL  HZ EP       1738 45.96                             112    0.70 8  270 256 
 HEL  HN ES       1739 16.08                             112    0.09 8  270 256 
 HEL  HZ I        1739 22.78        10.4 0.24            114            270 256 
 GUY2CHZ EP       1738 49.10                             110    0.34 7  300 234 
 GUY2CHN ES       1739 23.49                             110    1.27 7  300 234 
 GUY2CHZ I        1739 31.21         7.7 0.40                           300 234 
                                                                                
