 2013  6 8 1310  7.3 L   6.588 -73.165135.9  RSN  4 0.5 1.4LRSN                1
 GAP=271        1.11      12.0     8.0  9.9 -0.8821E+01  0.2157E+02  0.3915E+02E
 Epicentro: SAN GIL - SANTANDER                                                3
 ACTION:UPD 14-01-08 09:53 OP:ep   STATUS:               ID:20130608131007 L   I
 OLDACT:REG 13-06-08 16:04 OP:nd   STATUS:               ID:20130608130959     3
 2013-06-08-1309-59M.COL___261                                                 6
 STAT SP IPHASW D HRMM SECON CODA AMPLIT PERI AZIMU VELO AIN AR TRES W  DIS CAZ7
 BAR2 SZ EP       1310 25.95                             179    0.4110 1.95 282 
 BAR2 SZ ES       1310 39.25                             179   -0.4810 1.95 282 
 BAR2 SZ I        1310 42.53         4.3 0.10            133           1.95 282 
 GIR2 SZ EP   2   1310 26.12                             157   -0.62 5 54.3 357 
 GIR2 SZ I        1310 36.85         5.8 0.34            119           54.3 357 
 GIR2 SZ ES       1310 42.50                             157    0.6410 54.3 357 
 BRR  HZ EP       1310 28.19                             146   -0.0210 83.3 314 
 BRR  HN ES       1310 43.97                             146   -0.5110 83.3 314 
 BRR  HZ I        1311  9.33        13.8 0.50            116           83.3 314 
 PTB  HZ EP       1310 32.77                             131   -0.30 9  143 268 
 PTB  HN ES       1310 53.58                             131    0.44 9  143 268 
 PTB  HZ I        1310 55.92         2.5 0.10            114            143 268 
                                                                                
