 2014  4 8 1807  6.6 L   6.779 -73.166143.9  RSN  7 0.2 1.9LRSN                1
 GAP=135        0.49       2.2     2.3  4.2 -0.1636E+01  0.3855E+01 -0.2018E+01E
 Epicentro: LOS SANTOS - SANTANDER                                             3
 ACTION:UPD 14-05-13 23:07 OP:nd   STATUS:               ID:20140408180706 L   I
 OLDACT:UP  14-04-08 23:47 OP:cam  STATUS:               ID:20140408180545     3
 OLDACT:UP  14-04-08 23:47 OP:cam  STATUS:               ID:20140408180545     3
 OLDACT:REG 14-04-08 23:36 OP:cam  STATUS:               ID:20140408180545     3
 2014-04-08-1805-45M.COL___259                                                 6
 STAT SP IPHASW D HRMM SECON CODA AMPLIT PERI AZIMU VELO AIN AR TRES W  DIS CAZ7
 PAM  SZ EP       18 7 28.81                             149   -0.0310 80.6  40 
 PAM  SN ES       18 7 46.17                             149   -0.0010 80.6  40 
 PAM  SZ I        18 7 48.07        15.1 0.18            156           80.6  40 
 RUS  HZ EP       18 7 30.28                             144    0.2410 98.4 175 
 RUS  HE ES       18 7 48.22                             144   -0.0810 98.4 175 
 RUS  HZ I        18 7 49.72         6.7 0.46            148           98.4 175 
 PTB  HZ EP       18 7 32.82                             132   -0.38 9  145 260 
 PTB  HN ES       18 7 53.88                             132   -0.05 9  145 260 
 PTB  HZ I        18 7 59.78        10.2 0.22            133            145 260 
 SPBC HZ EP   1   18 7 34.84                             129    0.16 7  160 219 
 SPBC HN ES       18 7 56.68                             129    0.13 9  160 219 
 SPBC HZ I        18 8  1.98        14.4 0.40            132            160 219 
 ZAR  HZ EP       18 7 39.10                             122    0.27 9  203 293 
 ZAR  HE ES   1   18 8  4.23                             122    0.28 6  203 293 
 ZAR  HZ I        18 8 10.15        11.6 0.30            124            203 293 
 NOR  HZ EP   1   18 7 41.89                             118   -0.02 6  231 235 
 NOR  HN ES       18 8  9.24                             118   -0.18 8  231 235 
 NOR  HZ I        18 8 16.98         6.5 0.22            121            231 235 
 SML  HZ EP   1   18 7 43.00                             117   -0.28 6  245 336 
                                                                                
