 2015  3 8 1223 15.3 L   5.946 -73.772112.9  RSN 10 0.4 2.0LRSN                1
 GAP= 84        1.07       3.0     3.3  6.3 -0.2963E+01  0.3931E+01  0.3935E+01E
 Epicentro: SUCRE - SANTANDER                                                  3
 ACTION:UPD 15-04-30 16:24 OP:nd   STATUS:               ID:20150308122315 L   I
 OLDACT:REG 15-03-08 22:50 OP:carl STATUS:               ID:20150308121747     3
 2015-03-08-1217-47M.COL___284                                                 6
 STAT SP IPHASW D HRMM SECON CODA AMPLIT PERI AZIMU VELO AIN AR TRES W  DIS CAZ7
 SPBC HZ EP       1223 31.64                             156   -0.0510 46.5 226 
 SPBC HN ES       1223 44.13                             156   -0.3210 46.5 226 
 SPBC HZ I        1223 45.74        35.0 0.12            157           46.5 226 
 RUS  HZ EP       1223 34.22                             144    0.1110 76.5  94 
 RUS  HN ES       1223 48.44                             144   -0.3210 76.5  94 
 BAR2 EZ IP     D 1223 35.80                             136    0.4610 96.7  42 
 BAR2 EZ ES       1223 51.30                             136    0.3510 96.7  42 
 BAR2 EZ I        1223 52.60        37.7 0.38            139           96.7  42 
 PTB  HZ EP       1223 34.05                             135   -1.2710  100 311 
 PTB  HN ES       1223 50.98                             135    0.0610  100 311 
 PTB  HZ I        1223 53.77        10.9 0.20            137            100 311 
 BRR  HZ EP       1223 37.98                             127    0.0810  129   3 
 BRR  HE ES       1223 55.78                             127    0.2710  129   3 
 BRR  HZ I        1223 59.13        17.2 0.34            130            129   3 
 NOR  HZ EP       1223 38.14                             127    0.1510  129 251 
 NOR  HN ES       1223 55.93                             127    0.2710  129 251 
 NOR  HZ I        1223 57.29        45.1 0.24            129            129 251 
 CHI  HZ IP     C 1223 40.08                             124   -0.07 9  146 178 
 CHI  HN ES       1223 59.50                             124   -0.01 9  146 178 
 CHI  HZ I        1224  3.77         5.0 0.38            126            146 178 
 GUY2CHZ EP       1223 45.09                             116   -0.23 9  194 246 
 GUY2CHN ES       1224  9.29                             116    0.58 9  194 246 
 GUY2CHZ I        1224  9.88        13.8 0.30                           194 246 
 TOL  SZ EP       1223 49.10                             111    0.10 8  228 229 
 TOL  SN ES       1224 15.02                             111   -0.25 8  228 229 
 TOL  SZ I        1224 19.26         7.7 0.62            113            228 229 
 PRA  HZ EP       1223 53.75                             107   -0.40 7  276 207 
 PRA  HN ES       1224 25.12                             107    0.69 7  276 207 
                                                                                
