 2011  8 8 1412  9.2 L   6.737 -73.152146.3  RSN  5 0.2 2.0LRSN                1
 GAP=232        0.51       3.6     4.9  4.9  0.3282E+01  0.2573E+01  0.4293E+01E
 Epicentro: JORDAN - SANTANDER                                                 3
 ACTION:UPD 12-07-25 14:07 OP:epov STATUS:               ID:20110808141209 L   I
 2011-08-08-1409-33S.COL___143                                                 6
 STAT SP IPHASW D HRMM SECON CODA AMPLIT PERI AZIMU VELO AIN AR TRES W  DIS CAZ7
 BAR2 SZ EP       1412 28.68                             173   -0.1210 16.4 192 
 BAR2 SZ ES   1   1412 43.95                             173   -0.12 7 16.4 192 
 BRR  HZ EP       1412 30.44                             152   -0.1610 74.2 303 
 BRR  HZ I        1412 30.67        47.6 0.12                          74.2 303 
 BRR  HE ES   1   1412 47.71                             152    0.43 7 74.2 303 
 RUS  HZ EP       1412 32.58                             146    0.0310 93.7 175 
 RUS  HN ES   1   1412 50.76                             146    0.02 7 93.7 175 
 RUS  HZ I        1412 52.34        13.1 0.40                          93.7 175 
 NOR  SN ES   1   1413 11.71                             119   -0.32 6  230 236 
 CHI  HZ EP   1   1412 46.61                             118    0.40 6  242 195 
 CHI  HZ I        1412 49.14         4.2 0.44                           242 195 
 CHI  HE ES   2   1413 15.38                             118    0.31 4  242 195 
                                                                                
