 2017  1 8 1748 11.7 L   6.815 -73.182159.4  RSN  7 0.3 1.5LRSN                1
 GAP=207        0.61       4.9     5.5  5.6  0.1422E+02 -0.6354E+01 -0.8034E+01E
 Epicentro: ZAPATOCA - SANTANDER                                               3
 ACTION:UPD 17-05-22 15:57 OP:jn   STATUS:               ID:20170108174811 L   I
 OLDACT:UP  17-01-08 23:38 OP:and  STATUS:               ID:20170108173748d    3
 OLDACT:UP  17-01-08 23:37 OP:and  STATUS:               ID:20170108173748d    3
 OLDACT:DUP 17-01-08 23:33 OP:and  STATUS:               ID:20170108173748d    3
 2017-01-08-1738-00M.COL___377                                                 6
 STAT SP IPHASW D HRMM SECON CODA AMPLIT PERI AZIMU VELO AIN AR TRES W  DIS CAZ7
 BRR  HZ EP       1748 34.32                             156    0.2210 66.8 299 
 BRR  HN ES       1748 51.64                             156    0.0610 66.8 299 
 PAM  EZ I        1748 53.36         2.9 0.18            155           78.8  43 
 RUS  HZ EP       1748 37.13                             146    0.2010  103 174 
 RUS  HN ES       1748 56.34                             146   -0.2910  103 174 
 RUS  HZ I        1748 57.95         3.1 0.30            147            103 174 
 PTB  HZ EP       1748 39.62                             136    0.14 9  144 258 
 PTB  HN ES       1749  1.04                             136   -0.12 9  144 258 
 PTB  HZ I        1749  2.79         3.0 0.14            133            144 258 
 ZAR  HN ES   4   1749 12.60                             126    2.29 0  200 292 
 ZAR  HZ I        1749 17.59         3.8 0.26            124            200 292 
 GUY2CHZ EP   4   1748 59.17                             115    3.47 0  299 234 
 GUY2CHN ES   4   1749 35.74                             115    5.71 0  299 234 
 GUY2CHZ  IAML    1749 40.99         2.8 0.48                           299 234 
 SJC  HZ EP       1749  6.69                             108   -0.62 6  406 327 
 SJC  HN ES   4   1749 48.54                             108   -2.16 0  406 327 
                                                                                
