 2016  9 8 1522 26.4 L   6.738 -73.139145.8  RSN  5 0.2 1.8LRSN                1
 GAP=140        0.67       3.5     3.7  4.9  0.3047E+01  0.4278E+01 -0.9120E+00E
 Epicentro: LOS SANTOS - SANTANDER                                             3
 ACTION:UPD 17-08-17 21:08 OP:lp   STATUS:               ID:20160908152226 L   I
 OLDACT:DUP 16-09-09 00:41 OP:lv   STATUS:               ID:20160908151740d    3
 2016-09-08-1518-00M.COL___353                                                 6
 STAT SP IPHASW D HRMM SECON CODA AMPLIT PERI AZIMU VELO AIN AR TRES W  DIS CAZ7
 BAR2 EZ EP       1522 45.75                             173   -0.1710 16.9 196 
 BAR2 EZ ES       1523  1.43                             173    0.2810 16.9 196 
 BAR2 EZ I        1523  2.47        14.2 0.29            174           16.9 196 
 BRR  HZ EP       1522 48.01                             151    0.2210 75.3 303 
 BRR  HN ES       1523  4.66                             151    0.1910 75.3 303 
 BRR  HZ I        1523  8.48        12.2 0.23            151           75.3 303 
 PAM  EZ EP       1522 48.88                             149   -0.0410 82.3  36 
 PAM  EE ES       1523  6.31                             149   -0.1810 82.3  36 
 PAM  EZ I        1523  8.39        12.3 0.44            152           82.3  36 
 RUS  HZ EP       1522 50.05                             146    0.3710 93.7 176 
 RUS  HN ES       1523  7.43                             146   -0.4010 93.7 176 
 RUS  HZ I        1523  9.50         6.9 0.34            149           93.7 176 
 ZAR  HZ EP       1522 59.10                             122   -0.09 8  207 294 
 ZAR  HN ES       1523 24.49                             122   -0.27 8  207 294 
 ZAR  HZ I        1523 26.71         6.9 0.13            124            207 294 
                                                                                
