 2011  7 8 1407 53.9 L   6.789 -73.039139.1  RSN 10 0.3 2.3LRSN                1
 GAP=168        0.67       2.5     4.3  4.8 -0.2598E+01 -0.4410E+00  0.1735E+01E
 Epicentro: CEPITA - SANTANDER                                                 3
 ACTION:UPD 12-07-25 13:59 OP:epov STATUS:               ID:20110708140753 L   I
 2011-07-08-1404-15S.COL___140                                                 6
 STAT SP IPHASW D HRMM SECON CODA AMPLIT PERI AZIMU VELO AIN AR TRES W  DIS CAZ7
 BAR2 SZ EP       14 8 12.36                             169   -0.4910 26.9 216 
 BAR2 SZ ES   1   14 8 27.60                             169    0.00 7 26.9 216 
 BAR2 SZ I        14 8 29.23        52.8 0.26                          26.9 216 
 BRR  HZ IP     C 14 8 14.90                             148   -0.1610 82.3 295 
 BRR  HZ I        14 8 15.29        68.9 0.13                          82.3 295 
 BRR  HN ES       14 8 31.72                             148    0.1910 82.3 295 
 RUS  HZ EP       14 8 17.28                             143    0.3410 99.3 183 
 RUS  HE ES   1   14 8 34.74                             143   -0.14 7 99.3 183 
 RUS  HZ I        14 8 37.72        18.3 0.44                          99.3 183 
 BRI  SZ EP       14 8 17.35                             141    0.3410  106  15 
 GRA  SZ EP   1   14 8 18.53                             136    0.09 7  124  12 
 GRA  SZ I        14 8 19.91        32.7 0.29                           124  12 
 GRA  SZ ES   1   14 8 37.98                             136    0.44 7  124  12 
 OCA  SZ EP   1   14 8 21.61                             128   -0.42 7  163 349 
 OCA  SZ ES   1   14 8 43.28                             128   -0.66 7  163 349 
 OCA  SZ I        14 8 47.75        37.9 0.22                           163 349 
 NOR  SZ EP   1   14 8 30.05                             116   -0.23 6  244 236 
 CHI  HZ EP   1   14 8 31.63                             115    0.11 6  251 198 
 CHI  HN ES   2   14 9  0.57                             115   -0.26 4  251 198 
 CHI  HZ I        14 9  8.82         7.7 0.59                           251 198 
 HEL  HZ EP   2   14 8 35.46                             112    0.38 4  283 257 
 HEL  HN ES   1   14 9  7.48                             112    0.32 6  283 257 
 PRA  HZ EP   2   14 8 47.77                             105   -0.05 3  397 211 
 PRA  HE ES   1   14 9 29.94                             105    0.10 4  397 211 
                                                                                
