 2013  1 8 1700 53.2 L   6.855 -73.119150.2  RSN 28 0.6 4.4LRSN 4.6WRSN        1
 SPEC AVERAGE  MO 15.9 ST 35.8 OM  4.1 f0 1.05 R1.6222 AL 1.80 WI 37.4 MW  4.6 3
 SPEC SD       MO  0.2 ST 73.6 OM  0.6 f00.417 R0.6494 AL      WI      MW  0.2 3
 GAP=127        1.21       2.8     4.5  5.1 -0.1933E+01  0.1974E+01  0.2926E+00E
 Epicentro: LOS SANTOS - SANTANDER                                             3
 SPEC URE HH N MO 16.3 ST 76.1 OM  4.4 f0 1.43 R1.0280 AL 1.99 WI 47.6 MW  4.8 3
 SPEC URE HH N T17 2 3 K 0.000 GD  321 VS 4.20 DE 3.00 Q0230.0 QA 0.60 VS 4.20 3
 SPEC ZAR HH N MO 15.8 ST 16.0 OM  4.0 f0 1.25 R1.1760 AL 1.38 WI 35.6 MW  4.5 3
 SPEC ZAR HH N T17 150 K 0.000 GD  254 VS 4.20 DE 3.00 Q0230.0 QA 0.60 VS 4.20 3
 SPEC POP2HH Z MO 15.6 ST  3.4 OM  2.7 f00.825 R1.7818 AL 2.08 WI 51.9 MW  4.4 3
 SPEC POP2HH Z T17 212 K 0.000 GD  636 VP 7.60 DE 3.00 Q0230.0 QA 0.60 VS 4.20 3
 SPEC RREFHH Z MO 16.1 ST 15.7 OM  3.4 f00.967 R1.5202 AL 2.07 WI 37.8 MW  4.7 3
 SPEC RREFHH Z T17 140 K 0.000 GD  360 VP 7.60 DE 3.00 Q0230.0 QA 0.60 VS 4.20 3
 SPEC PTB HH N MO 15.7 ST  5.1 OM  4.0 f00.907 R1.6207 AL 1.28 WI 27.6 MW  4.4 3
 SPEC PTB HH N T17 140 K 0.000 GD  213 VS 4.20 DE 3.00 Q0230.0 QA 0.60 VS 4.20 3
 SPEC RUS HH N MO 15.9 ST0.990 OM  4.3 f00.437 R3.3638 AL 1.60 WI 25.2 MW  4.6 3
 SPEC RUS HH N T17 135 K 0.000 GD  184 VS 4.20 DE 3.00 Q0230.0 QA 0.60 VS 4.20 3
 SPEC HEL HH N MO 15.9 ST  7.9 OM  4.0 f00.921 R1.5961 AL 1.98 WI 43.0 MW  4.5 3
 SPEC HEL HH N T17 2 5 K 0.000 GD  314 VS 4.20 DE 3.00 Q0230.0 QA 0.60 VS 4.20 3
 SPEC NOR HH Z MO 15.7 ST  6.8 OM  3.1 f00.998 R1.4729 AL 1.37 WI 27.5 MW  4.4 3
 SPEC NOR HH Z T17 129 K 0.000 GD  283 VP 7.60 DE 3.00 Q0230.0 QA 0.60 VS 4.20 3
 SPEC OCA HH N MO 16.3 ST271.5 OM  4.6 f0 2.14 R0.6869 AL 2.43 WI 28.3 MW  4.8 3
 SPEC OCA HH N T17 142 K 0.000 GD  215 VS 4.20 DE 3.00 Q0230.0 QA 0.60 VS 4.20 3
 SPEC COD HH N MO 15.6 ST  3.0 OM  3.7 f00.796 R1.8467 AL 1.18 WI 48.2 MW  4.4 3
 SPEC COD HH N T17 217 K 0.000 GD  373 VS 4.20 DE 3.00 Q0230.0 QA 0.60 VS 4.20 3
 SPEC CHI HH N MO 16.2 ST  7.4 OM  4.4 f00.675 R2.1778 AL 2.20 WI 50.5 MW  4.8 3
 SPEC CHI HH N T17 159 K 0.000 GD  295 VS 4.20 DE 3.00 Q0230.0 QA 0.60 VS 4.20 3
 SPEC BRR HH N MO 15.8 ST 15.8 OM  4.2 f0 1.23 R1.1951 AL 2.07 WI 26.1 MW  4.5 3
 SPEC BRR HH N T17 131 K 0.000 GD  166 VS 4.20 DE 3.00 Q0230.0 QA 0.60 VS 4.20 3
 ACTION:UPD 13-02-15 09:12 OP:ep   STATUS:               ID:20130108170053 L   I
 2013-01-08-1700-00M.COL___239                                                 6
 STAT SP IPHASW D HRMM SECON CODA AMPLIT PERI AZIMU VELO AIN AR TRES W  DIS CAZ7
 BAR2 SZ IP       17 1 13.75                             168    0.2510 29.9 193 
 BAR2 SZ ES       17 1 29.02                             168   -0.3210 29.9 193 
 BAR2 SZ I        17 1 29.72      3158.2 0.28            165           29.9 193 
 BRR  HZ IP     C 17 1 15.51                             153    0.6910 71.1 293 
 BRR  HE ES       17 1 32.23                             153    0.5510 71.1 293 
 BRR  HE I        17 1 33.14      6559.8 0.26            137           71.1 293 
 RUS  HZ IP     C 17 1 17.74                             143   -0.0710  107 178 
 RUS  HN ES       17 1 36.37                             143   -0.6410  107 178 
 RUS  HN I        17 1 38.13      2992.9 0.38            134            107 178 
 PTB  HZ IP     D 17 1 20.30                             132   -0.59 9  152 257 
 PTB  HE ES       17 1 41.68                             132   -0.82 9  152 257 
 PTB  HN I        17 1 43.05      2607.3 0.64            118            152 257 
 OCA  HZ EP       17 1 21.83                             131    0.51 9  155 352 
 OCA  HN ES       17 1 43.12                             131   -0.15 9  155 352 
 OCA  HN I        17 1 46.56      6156.8 0.24            117            155 352 
 ZAR  HZ EP       17 1 26.22                             123    0.24 9  205 290 
 ZAR  HN ES       17 1 51.55                             123    0.00 9  205 290 
 ZAR  HN I        17 1 57.55      2537.4 0.40            110            205 290 
 NOR  HZ IP     D 17 1 29.56                             118   -0.26 8  241 234 
 NOR  HE ES       17 1 57.92                             118   -0.46 8  241 234 
 NOR  HN I        17 2  9.13       995.5 0.18            107            241 234 
 CHI  HZ IP     D 17 1 31.95                             117    0.09 8  255 195 
 CHI  HN ES       17 2  1.10                             117   -0.92 8  255 195 
 CHI  HN I        17 2  4.40      1547.3 0.54            107            255 195 
 ROSC BZ EP       17 1 33.60                             117    1.31 8  260 211 
 ROSC BN ES       17 2  3.25                             117    0.47 8  260 211 
 ROSC BZ I        17 2  8.43      1570.5 0.45            106            260 211 
 HEL  HZ EP       17 1 33.91                             115   -0.20 7  276 255 
 HEL  HN ES       17 2  5.67                             115   -0.36 7  276 255 
 HEL  HN I        17 2 11.84       865.8 0.46            104            276 255 
 URE  HZ EP       17 1 33.77                             114   -0.76 7  284 291 
 URE  HN I        17 2 16.45      1557.4 0.26            103            284 291 
 VIL  SZ EP       17 1 37.29                             112   -0.27 7  310 192 
 VIL  SN ES       17 2 12.04                             112   -0.12 7  310 192 
 VIL  SE I        17 2 20.11      3183.9 0.50            102            310 192 
 RREF HZ EP       17 1 40.26                             111    0.03 7  328 229 
 RREF HN ES       17 2 17.36                             111    0.43 7  328 229 
 RREF HZ I        17 2 22.12       521.2 0.52            101            328 229 
 COD  HZ IP     D 17 1 41.10                             110    0.02 7  342 354 
 COD  HN ES       17 2 18.14                             110   -0.29 7  342 354 
 DBB  SZ IP       17 1 41.44                             110    0.30 7  342 273 
 DBB  SZ I        17 2 25.96       647.5 0.40             99            342 273 
 TOL  SZ EP       17 1 42.58                             109    0.22 6  350 224 
 TOL  SZ I        17 2 28.49       361.3 0.40            100            350 224 
 SDV  BZ IP     D 17 1 43.24                             109    0.54 6  354  51 
 ANIL HZ IP     C 17 1 45.40                             109    1.49 6  364 224 
 ANIL HN ES       17 2 25.00                             109    1.53 6  364 224 
 ANIL HN I        17 2 32.85      1386.3 0.52             99            364 224 
 SJC  HN EP       17 1 48.10                             106   -0.39 6  406 326 
 SJC  HN I        17 2 32.64       524.3 0.44             96            406 326 
 PAL  HZ EP       17 1 49.66                             106    0.50 6  411 239 
 PAL  HZ I        17 1 51.35       601.6 0.30             96            411 239 
 YOT  HZ IP       17 1 56.15                             103   -0.95 5  478 229 
 SMAR HZ EP       17 1 58.27                             103   -0.29 4  492 346 
 SMAR HN I        17 2 48.12       214.0 0.22             93            492 346 
 BET  SZ EP       17 2  1.60                             102   -1.41 4  529 209 
 MARA HZ EP       17 2  4.44                             101   -0.68 4  544 215 
 URI  HZ EP       17 2  4.00                             101   -1.50 4  550  13 
 MAL  SZ EP       17 2  8.23                             101    1.18 3  563 236 
 MAL  SZ I        17 2 10.27       172.6 0.44             92            563 236 
 POP2 HZ IP     D 17 2 13.53                             100   -0.55 3  619 220 
 FLO2 HZ IP     C 17 2 16.72                              99   -0.50 2  647 206 
                                                                                
