 2013 12 8 1443  9.1 L   6.813 -73.161146.4  RSN 13 0.3 2.3LRSN                1
 GAP= 70        0.63       2.2     2.5  4.1 -0.7894E+00  0.3506E+01 -0.1228E+01E
 Epicentro: LOS SANTOS - SANTANDER                                             3
 ACTION:UPD 14-01-13 10:16 OP:ep   STATUS:               ID:20131208144309 L   I
 OLDACT:UP  13-12-08 16:12 OP:cam  STATUS:               ID:20131208144000     3
 OLDACT:REG 13-12-08 14:27 OP:cam  STATUS:               ID:20131208144000     3
 2013-12-08-1440-00M.COL___285                                                 6
 STAT SP IPHASW D HRMM SECON CODA AMPLIT PERI AZIMU VELO AIN AR TRES W  DIS CAZ7
 BAR2 SZ IP     C 1443 28.80                             170   -0.0610 24.5 186 
 BAR2 SZ ES       1443 44.11                             170   -0.1410 24.5 186 
 BAR2 SZ I        1443 45.59        51.9 0.44            173           24.5 186 
 BRR  HZ EP       1443 30.67                             153    0.4510 69.0 298 
 BRR  HZ I        1443 51.73        21.9 0.14            144           69.0 298 
 PAM  SZ EP       1443 31.67                             151    0.2610 77.4  41 
 PAM  SN ES       1443 48.97                             151    0.1810 77.4  41 
 PAM  SZ I        1443 50.94        42.5 0.58            144           77.4  41 
 RUS  HZ EP       1443 32.72                             144   -0.3310  102 175 
 RUS  HN ES       1443 51.54                             144   -0.1710  102 175 
 RUS  HZ I        1443 54.02        18.5 0.46            142            102 175 
 PTB  HZ EP       1443 35.81                             132   -0.21 9  146 258 
 PTB  HN ES       1443 56.61                             132   -0.39 9  146 258 
 PTB  HZ I        1444  4.17        24.6 0.30            126            146 258 
 TAM  HZ EP   2   1443 36.96                             130   -0.08 5  157 105 
 SPBC HZ EP   1   1443 37.78                             129    0.10 7  163 218 
 SPBC HN ES       1444  0.20                             129    0.25 9  163 218 
 SPBC HZ I        1444  4.72        35.7 0.20            124            163 218 
 ZAR  HZ EP   1   1443 41.36                             123   -0.04 6  202 292 
 ZAR  HN ES       1444  6.55                             123   -0.02 9  202 292 
 ZAR  HZ I        1444 14.11        19.6 0.32            116            202 292 
 NOR  HZ EP       1443 44.80                             119   -0.04 8  234 234 
 NOR  HN ES       1444 13.20                             119    0.51 8  234 234 
 NOR  HZ I        1444 14.85        12.5 0.30            114            234 234 
 SML  HZ EP   1   1443 45.11                             118   -0.46 6  242 336 
 SML  HE ES       1444 13.99                             118   -0.01 8  242 336 
 SML  HZ I        1444 16.64        28.1 0.28            111            242 336 
 CHI  HZ EP   2   1443 46.87                             117   -0.09 4  250 195 
 ROSC BZ EP   4   1443 48.95                             117    1.63 0  253 211 
 HEL  HZ EP   4   1443 50.80                             115    1.57 0  271 255 
 HEL  HE ES   4   1444 19.99                             115   -0.52 0  271 255 
 HEL  HZ I        1444 26.88        10.0 0.32            110            271 255 
 GUY2CHZ EP   4   1443 54.76                             112    2.06 0  301 234 
 PTGC HZ EP   4   1443 51.77                             112   -1.46 0  311 158 
 RREF HZ EP   4   1443 57.62                             111    2.36 0  321 229 
 PRA  HZ EP   4   1444  2.64                             107   -0.08 0  392 209 
 SJC  HZ EP   4   1444  3.00                             106   -1.46 0  407 327 
 SJC  HZ I        1444 49.90         3.6 0.28            101            407 327 
                                                                                
