 2010  6 8 1620  4.1 L   6.586 -73.322124.2  RSN 12 0.5 2.5LRSN                1
 GAP=104        1.07       6.3    11.1 12.2 -0.4993E+02  0.6676E+02 -0.1714E+02E
 Epicentro: HATO - SANTANDER                                                   3
 ACTION:UP  10-08-24 10:09 OP:vdl  STATUS:               ID:20100608162004 L   I
 2010-06-08-1618-16S.COL___111                                                 6
 STAT SP IPHASW D HRMM SECON CODA AMPLIT PERI AZIMU VELO SNR AR TRES W  DIS CAZ7
 BAR2 SZ IP       1620 21.36                             172     0.410   15  88 
 BAR2 SZ ES   2   1620 33.53                             172    -0.6 5   15  88 
 GIR2 SZ EP       1620 22.70                             154     0.510   56  15 
 GUE  SZ IP       1620 28.75                             128    -0.7 9  144  18 
 GRA  SZ EP       1620 30.12                             126    -0.1 9  155  22 
 GRA  SZ ES   1   1620 50.79                             126     0.2 7  155  22 
 OCA  SZ EP   1   1620 33.63                             121     0.5 7  183   0 
 OCA  SZ I        1621  3.04        59.6 0.28                           183   0 
 CHI  HZ EP   1   1620 37.74                             116     0.2 6  221 192 
 CHI  HE ES   1   1621  3.12                             116    -0.6 6  221 192 
 CHI  HZ I        1621 12.40        21.9 0.60                           221 192 
 ROSC BZ EP   2   1620 37.53                             115    -0.2 4  223 210 
 ROSC BZ I        1621 11.37        21.9 0.37                           223 210 
 HEL  HZ EP       1620 39.73                             113    -0.8 8  248 260 
 HEL  HZ I        1621 12.97        29.0 0.20                           248 260 
 GUY  HN ES   2   1621 14.85                             110     0.8 4  272 237 
 RREF BZ EP   2   1620 46.11                             109     0.3 4  292 230 
 RREF BN ES   2   1621 18.95                             109     0.5 4  292 230 
 RREF BZ I        1621 25.37        24.2 0.37                           292 230 
 TOL  SZ EP       1620 48.01                             107     0.1 7  313 225 
 SDV  BZ EP   2   1620 57.89                             103     1.0 3  391  49 
 SDV  BZ I        1621 42.21         5.9 0.48                           391  49 
                                                                                
