 2013  1 8 1908  7.8 L   6.361 -73.677103.4  RSN  7 0.4 2.3LRSN                1
 GAP=101        1.08       4.0     4.2  7.9  0.5831E+01  0.1036E+02  0.3781E+01E
 Epicentro: SANTA HELENA DEL OPON - SANTANDER                                  3
 ACTION:UPD 13-02-15 09:13 OP:ep   STATUS:               ID:20130108190808 L   I
 2013-01-08-1900-00M.COL___239                                                 6
 STAT SP IPHASW D HRMM SECON CODA AMPLIT PERI AZIMU VELO AIN AR TRES W  DIS CAZ7
 BAR2 SZ EP       19 8 24.33                             147    0.2310 60.4  65 
 BAR2 SZ ES       19 8 37.18                             147    0.3210 60.4  65 
 BAR2 SZ I        19 8 38.28        77.9 0.14            141           60.4  65 
 BRR  HZ EP       19 8 25.40                             138   -0.0110 82.6 357 
 BRR  HE ES       19 8 39.53                             138    0.3510 82.6 357 
 BRR  HN I        19 8 48.45        39.5 0.16            133           82.6 357 
 RUS  HZ EP       19 8 26.26                             138    0.0710 83.7 128 
 RUS  HZ I        19 8 26.54        14.4 0.32            129           83.7 128 
 RUS  HN ES       19 8 40.21                             138   -0.3510 83.7 128 
 PTB  HZ EP       19 8 25.37                             136   -0.5510 88.4 283 
 PTB  HN ES       19 8 39.65                             136   -0.4410 88.4 283 
 PTB  HN I        19 8 41.72        60.4 0.22            128           88.4 283 
 ZAR  HZ EP       19 8 35.08                             114   -0.15 9  181 314 
 ZAR  HN ES       19 8 57.42                             114    0.76 9  181 314 
 CHI  HZ EP       19 8 37.46                             113    0.50 9  192 182 
 CHI  HN I        19 9  3.16        19.4 0.28            107            192 182 
 OCA  HN ES       19 9  2.43                             110   -0.70 8  211  11 
 OCA  HN I        19 9  7.62       108.1 0.20            106            211  11 
                                                                                
