 2012  2 8 1522  6.4 L   6.291 -73.747 99.1  RSN  6 0.3 1.4LRSN                1
 GAP=116        0.62       3.8     2.6  7.1 -0.2393E+01  0.5663E+01 -0.1889E+01E
 ACTION:UP  12-03-07 16:28 OP:epov STATUS:               ID:20120208152206 L   I
 2012-02-08-1519-59S.COL___187                                                 6
 STAT SP IPHASW D HRMM SECON CODA AMPLIT PERI AZIMU VELO AIN AR TRES W  DIS CAZ7
 BAR2 SZ EP   1   1522 23.26                             142    0.22 7 70.8  62 
 BAR2 SZ ES   1   1522 36.38                             142    0.34 7 70.8  62 
 BAR2 SZ I        1522 38.12        11.2 0.16                          70.8  62 
 PTB  HZ EP   1   1522 23.51                             137   -0.21 7 83.1 289 
 PTB  HN ES   1   1522 37.07                             137   -0.18 7 83.1 289 
 PTB  HZ I        1522 37.75                                           83.1 289 
 RUS  HZ EP   1   1522 24.51                             137   -0.08 7 85.7 121 
 RUS  HZ I        1522 24.99         4.1 0.25                          85.7 121 
 RUS  HE ES   1   1522 38.82                             137    0.03 7 85.7 121 
 NOR  SZ EP   1   1522 29.90                             120   -0.20 7  148 237 
 NOR  SE ES   1   1522 48.64                             120    0.03 7  148 237 
 PAM  SN ES   1   1522 52.10                             117   -0.55 7  164  45 
 ZAR  HZ EP   1   1522 34.28                             115    0.62 7  181 317 
 ZAR  HZ I        1522 59.03         3.1 0.15                           181 317 
                                                                                
