 2011  5 8 1541 25.2 L   6.789 -73.049144.9  RSN  6 0.2 1.7LRSN                1
 GAP=167        0.66       3.8     6.7  6.6  0.3305E+00 -0.1689E+02 -0.8007E+01E
 Epicentro: LOS SANTOS - SANTANDER                                             3
 ACTION:UP  11-06-29 08:51 OP:tino STATUS:               ID:20110508154125 L   I
 2011-05-08-1537-47S.COL___131                                                 6
 STAT SP IPHASW D HRMM SECON CODA AMPLIT PERI AZIMU VELO SNR AR TRES W  DIS CAZ7
 BAR2 SZ EP       1541 44.73                             169    -0.110   26 214 
 BAR2 SZ ES   1   1541 59.93                             169    -0.2 7   26 214 
 BAR2 SZ I        1542  1.41        10.6 0.16                            26 214 
 BRR  HZ EP       1541 46.59                             149    -0.310   81 296 
 BRR  HZ I        1541 46.85        34.2 0.16                            81 296 
 BRR  HE ES       1542  3.98                             149     0.210   81 296 
 RUS  HZ EP   2   1541 48.60                             144    -0.2 5   99 182 
 RUS  HN ES   1   1542  7.35                             144     0.2 7   99 182 
 RUS  HZ I        1542  8.55         5.6 0.25                            99 182 
 BRI  SZ EP   1   1541 49.21                             142     0.3 7  106  15 
 BRI  SZ I        1541 49.89         5.9 0.06                           106  15 
 GRA  SZ EP       1541 50.49                             137     0.210  124  13 
 GRA  SZ ES   1   1542  9.47                             137    -0.3 7  124  13 
 GRA  SZ I        1542 17.39         4.7 0.25                           124  13 
 OCA  SZ EP   1   1541 53.68                             129    -0.1 7  163 349 
 OCA  SZ I        1542 21.11         5.8 0.17                           163 349 
                                                                                
