 2010  3 8 1720 15.5 L   6.789 -73.058151.9  RSN 11 0.3 2.4LRSN                1
 GAP=192        0.71       2.8     5.2  4.7  0.2993E+00  0.3986E+01  0.3006E+01E
 Epicentro: LOS SANTOS - SANTANDER                                             3
 ACTION:UP  10-08-24 09:52 OP:vdl  STATUS:               ID:20100308172015 L   I
 2010-03-08-1719-01S.COL___101                                                 6
 STAT SP IPHASW D HRMM SECON CODA AMPLIT PERI AZIMU VELO SNR AR TRES W  DIS CAZ7
 BAR2 SZ EP       1720 35.76                             170    -0.110   26 213 
 BAR2 SZ ES   1   1720 51.67                             170    -0.2 7   26 213 
 BRR  HZ IP       1720 37.85                             151     0.010   80 296 
 BRR  HZ I        1720 39.29        53.1 0.10                            80 296 
 BRR  HN ES       1720 55.50                             151     0.210   80 296 
 RUS  BZ EP       1720 39.66                             145    -0.110   99 182 
 RUS  BN ES   1   1720 58.63                             145     0.0 7   99 182 
 RUS  BZ I        1720 59.90        23.0 0.44                            99 182 
 OCA  SZ EP       1720 44.38                             130    -0.1 9  163 350 
 OCA  SZ ES   1   1721  7.42                             130     0.3 7  163 350 
 CHI  HZ EP       1720 54.02                             118     0.3 8  250 197 
 CHI  HE ES   1   1721 23.18                             118    -0.3 6  250 197 
 CHI  HZ I        1721 28.88        10.1 0.34                           250 197 
 ROSC BZ EP   1   1720 54.44                             117     0.0 6  257 213 
 ROSC BZ I        1721 33.14        16.0 0.51                           257 213 
 HEL  HN ES   1   1721 28.81                             115    -0.6 6  281 257 
 HEL  HZ I        1721 33.57        12.9 0.79                           281 257 
 RREF BZ EP   1   1721  3.21                             111     0.6 5  328 231 
 RREF BE ES   2   1721 40.04                             111     0.6 3  328 231 
 RREF BZ I        1721 46.59        13.8 0.28                           328 231 
 DBB  SZ EP       1721  3.67                             110    -0.7 6  349 274 
 TOL  SZ EP   1   1721  5.46                             110     0.8 5  350 226 
 PRA  HZ EP   1   1721  9.55                             107    -0.1 4  396 211 
 PRA  HN ES   1   1721 52.25                             107     0.3 4  396 211 
 PRA  HZ I        1721 55.77        11.8 0.49                           396 211 
                                                                                
