 2011  5 8 1901  3.3 L   6.800 -73.123150.0  RSN  7 0.3 2.1LRSN                1
 GAP=158        0.66       3.1     5.3  5.8 -0.7064E+01  0.2103E+01  0.3543E+00E
 Epicentro: LOS SANTOS - SANTANDER                                             3
 ACTION:UP  11-06-29 08:51 OP:tino STATUS:               ID:20110508190103 L   I
 2011-05-08-1856-44S.COL___131                                                 6
 STAT SP IPHASW D HRMM SECON CODA AMPLIT PERI AZIMU VELO SNR AR TRES W  DIS CAZ7
 BAR2 SZ EP   1   19 1 23.37                             171    -0.1 8   24 196 
 BAR2 SZ ES   2   19 1 38.87                             171    -0.3 5   24 196 
 BAR2 SZ I        19 1 39.48        24.6 0.13                            24 196 
 BRR  HZ EP   1   19 1 25.18                             153     0.1 8   73 298 
 BRR  HN ES   1   19 1 42.25                             153     0.2 8   73 298 
 BRR  HZ I        19 1 44.36        37.4 0.11                            73 298 
 RUS  HZ EP   1   19 1 27.52                             145     0.0 8  100 178 
 RUS  HE ES   1   19 1 46.45                             145     0.1 8  100 178 
 RUS  HZ I        19 1 47.94        13.6 0.43                           100 178 
 BRI  SZ EP   1   19 1 27.80                             143     0.2 8  108  20 
 BRI  SZ ES   1   19 1 46.70                             143     0.2 8  108  20 
 BRI  SZ I        19 1 51.19        20.1 0.44                           108  20 
 GRA  SZ EP       19 1 29.02                             138     0.110  125  16 
 GRA  SZ ES   1   19 1 48.29                             138    -0.6 7  125  16 
 GRA  SZ I        19 1 49.89        21.3 0.30                           125  16 
 OCA  SZ EP   1   19 1 31.49                             130    -0.5 7  161 352 
 OCA  SZ ES   1   19 1 54.62                             130     0.2 7  161 352 
 OCA  SZ I        19 1 57.40        19.8 0.23                           161 352 
 NOR  SZ EP   1   19 1 39.79                             119     0.3 6  237 235 
 NOR  SN ES   1   19 2  7.40                             119    -0.4 6  237 235 
                                                                                
