 2013  9 8 1937 22.2 L   6.744 -73.156140.7  RSN  4 0.5 1.7LRSN                1
 GAP=277        0.83       7.8    13.8 15.6 -0.4983E+02 -0.9378E+02  0.3327E+02E
 Epicentro: JORDAN - SANTANDER                                                 3
 ACTION:UPD 13-10-22 09:21 OP:ep   STATUS:               ID:20130908193722 L   I
 OLDACT:REG 13-09-08 16:50 OP:mh   STATUS:               ID:20130908192959     3
 2013-09-08-1929-59M.COL___269                                                 6
 STAT SP IPHASW D HRMM SECON CODA AMPLIT PERI AZIMU VELO AIN AR TRES W  DIS CAZ7
 BRR  HZ EP   1   1937 43.26                             151    0.30 8 73.4 303 
 BRR  HN ES   2   1937 59.54                             151    0.41 5 73.4 303 
 BRR  HZ I        1938  3.45         8.2 0.62            154           73.4 303 
 PTB  HZ EP   1   1937 48.16                             131   -0.43 8  146 261 
 PTB  HN ES   1   1938  8.65                             131   -0.50 8  146 261 
 PTB  HZ I        1938 12.00         5.5 0.50            137            146 261 
 SPBC HZ EP   1   1937 49.83                             129    0.01 7  158 220 
 SPBC HN ES       1938 11.14                             129   -0.2010  158 220 
 SPBC HZ I        1938 13.40         7.6 0.24            136            158 220 
 NOR  HN ES   1   1938 25.40                             118    0.94 7  230 236 
                                                                                
