 2017  1 8 1153 57.1 L   6.790 -73.158146.5  RSN  6 0.4 1.5LRSN                1
 GAP=135        0.93       4.7     4.1  6.3  0.2068E+01  0.6440E+01 -0.1240E+01E
 Epicentro: LOS SANTOS - SANTANDER                                             3
 ACTION:UPD 17-05-22 15:56 OP:jn   STATUS:               ID:20170108115357 L   I
 OLDACT:REG 17-01-08 19:52 OP:and  STATUS:               ID:20170108114742     3
 2017-01-08-1148-00M.COL___371                                                 6
 STAT SP IPHASW D HRMM SECON CODA AMPLIT PERI AZIMU VELO AIN AR TRES W  DIS CAZ7
 BAR2 EZ EP       1154 16.42                             171   -0.3710 22.0 187 
 BAR2 EZ ES       1154 31.99                             171   -0.1610 22.0 187 
 BAR2 EZ I        1154 35.46         7.4 0.36            173           22.0 187 
 BRR  HZ EP       1154 18.49                             153    0.2110 70.5 300 
 BRR  HN ES       1154 35.33                             153    0.5210 70.5 300 
 PAM  EZ EP       1154 19.37                             150   -0.1210 79.1  40 
 PAM  EN ES       1154 36.73                             150   -0.2310 79.1  40 
 PAM  EZ I        1154 40.83         4.7 0.42            152           79.1  40 
 RUS  HZ EP       1154 21.07                             144    0.2210 99.6 175 
 RUS  HN ES       1154 39.73                             144    0.3610 99.6 175 
 RUS  HZ I        1154 41.07         4.5 0.28            148           99.6 175 
 PTB  HZ EP       1154 23.52                             132   -0.46 9  146 259 
 PTB  HN ES       1154 44.42                             132   -0.53 9  146 259 
 PTB  HZ I        1154 47.07         3.8 0.19            135            146 259 
 ZAR  HZ EP       1154 30.09                             123    0.59 9  203 293 
 ZAR  HN ES       1154 54.79                             123    0.02 9  203 293 
 ZAR  HZ I        1154 57.73         2.7 0.27            125            203 293 
                                                                                
