 2012 10 8 1329 24.1 L   6.774 -73.079141.9  RSN  5 0.3 2.0LRSN                1
 GAP=146        0.56       5.1     6.7  6.5  0.6532E+01 -0.1598E+02 -0.4297E+00E
 Epicentro: LOS SANTOS - SANTANDER                                             3
 ACTION:UPD 12-11-22 17:02 OP:ep   STATUS:               ID:20121008132924 L   I
 2012-10-08-1328-19M.COL___201                                                 6
 STAT SP IPHASW D HRMM SECON CODA AMPLIT PERI AZIMU VELO AIN AR TRES W  DIS CAZ7
 BAR2 SZ EP       1329 43.08                             171   -0.2010 23.1 210 
 BAR2 SZ I        1329 43.20        29.2 0.40                          23.1 210 
 BAR2 SZ ES   1   1329 57.97                             171   -0.25 7 23.1 210 
 GIR2 SZ EP   3   1329 43.33                             165   -0.14 2 36.0 339 
 PAM  SZ EP       1329 46.00                             151    0.2010 75.3  34 
 PAM  SE ES   3   1330  2.69                             151   -0.01 2 75.3  34 
 PAM  SN I        1330  4.43        27.1 0.42                          75.3  34 
 BRR  HZ EP       1329 45.03                             149   -0.2910 79.1 298 
 BRR  HZ I        1329 45.23        24.6 0.30                          79.1 298 
 BRR  HE ES   1   1330  2.22                             149    0.36 7 79.1 298 
 RUS  HZ EP       1329 47.47                             144    0.2110 97.5 180 
 RUS  HN ES   3   1330  5.78                             144    0.47 2 97.5 180 
 RUS  HN I        1330  7.33         9.7 0.42                          97.5 180 
                                                                                
