 2010  8 8 1433 43.2 L   6.790 -73.036150.1  RSN  6 0.4 1.4LRSN                1
 GAP=171        0.64       5.0    10.7  9.2 -0.3926E+01 -0.2931E+02 -0.6721E+01E
 Epicentro: CEPITA - SANTANDER                                                 3
 ACTION:UP  10-09-07 10:53 OP:vdl  STATUS:               ID:20100808143342 L   I
 2010-08-08-1428-52S.COL___125                                                 6
 STAT SP IPHASW D HRMM SECON CODA AMPLIT PERI AZIMU VELO SNR AR TRES W  DIS CAZ7
 BAR2 SZ EP   1   1434  3.56                             169     0.1 7   27 217 
 BAR2 SZ I        1434  3.86         9.3 0.39                            27 217 
 BAR2 SZ ES   2   1434 18.57                             169    -0.7 5   27 217 
 BTL  SZ EP   1   1434  3.74                             169     0.2 7   29 299 
 BRR  HZ EP   1   1434  5.53                             150     0.0 7   83 295 
 BRR  HZ I        1434 22.79         6.0 0.42                            83 295 
 BRR  HN ES   2   1434 22.92                             150     0.0 5   83 295 
 RUS  HZ EP   1   1434  7.23                             145    -0.1 7   99 183 
 RUS  HN ES   2   1434 26.42                             145     0.3 5   99 183 
 RUS  HZ I        1434 29.00         2.3 0.25                            99 183 
 GUE  SZ EP   2   1434  7.43                             141    -0.8 5  116   6 
 GRA  SZ EP   1   1434  8.70                             139     0.0 7  124  12 
 GRA  SZ ES   2   1434 28.99                             139     0.4 5  124  12 
                                                                                
