 2013  5 8 1345 45.8 L   6.791 -73.118149.2  RSN 12 0.6 2.7LRSN                1
 GAP=140        0.97       3.9     4.7  6.9 -0.5291E+00  0.8256E+01  0.1562E+01E
 Epicentro: LOS SANTOS - SANTANDER                                             3
 ACTION:UPD 13-06-20 09:48 OP:ep   STATUS:               ID:20130508134545 L   I
 2013-05-08-1340-00M.COL___256                                                 6
 STAT SP IPHASW D HRMM SECON CODA AMPLIT PERI AZIMU VELO AIN AR TRES W  DIS CAZ7
 BAR2 SZ EP     C 1346  5.69                             171   -0.1310 23.1 198 
 BAR2 SZ ES   1   1346 21.17                             171   -0.28 7 23.1 198 
 BRR  HZ IP     C 1346  7.55                             152    0.0710 74.4 298 
 BRR  HZ I        1346  7.89       108.7 0.16            148           74.4 298 
 BRR  HN ES   1   1346 25.10                             152    0.70 7 74.4 298 
 PAM  SZ EP     C 1346  8.48                             152    0.1810 76.3  37 
 PAM  SZ I        1346  8.81        62.3 0.42            153           76.3  37 
 PAM  SN ES   1   1346 25.91                             152    0.05 7 76.3  37 
 RUS  HZ EP       1346  9.58                             145   -0.2110 99.4 178 
 RUS  HN ES   1   1346 28.86                             145    0.35 7 99.4 178 
 RUS  HZ I        1346 31.09        32.9 0.38            147           99.4 178 
 PTB  HZ EP   2   1346 12.30                             132   -0.98 5  151 259 
 PTB  HN ES   1   1346 33.61                             132   -1.12 7  151 259 
 PTB  HZ I        1346 39.36        85.9 0.34            130            151 259 
 ZAR  HZ EP   1   1346 18.41                             123   -0.37 6  207 292 
 ZAR  HN ES   1   1346 44.65                             123    0.13 6  207 292 
 ZAR  HZ I        1346 50.90        45.6 0.24            121            207 292 
 NOR  HZ EP     C 1346 21.61                             119   -0.30 8  237 235 
 NOR  HE ES   1   1346 50.26                             119    0.17 6  237 235 
 NOR  HZ I        1346 53.37        34.6 0.22            119            237 235 
 SML  HZ EP   1   1346 22.17                             118   -0.66 6  246 335 
 SML  HN ES   1   1346 52.02                             118    0.28 6  246 335 
 SML  HZ I        1346 57.80        64.7 0.10            117            246 335 
 CHI  HZ EP   1   1346 23.98                             118    0.33 6  248 196 
 CHI  HN ES   1   1346 53.51                             118    0.32 6  248 196 
 HEL  HZ EP   2   1346 28.70                             115    2.24 4  275 256 
 HEL  HN ES   1   1346 58.82                             115    0.62 6  275 256 
 HEL  HZ I        1347  3.97        31.3 0.30            115            275 256 
 URE  HZ EP   4   1346 25.54                             114   -1.83 0  287 292 
 COD  HZ EP   4   1346 33.71                             110   -0.73 0  350 354 
 COD  HE ES   4   1347  9.50                             110   -2.90 0  350 354 
 COD  HZ I        1347 19.54         8.9 0.46            109            350 354 
 PRA  HZ EP   4   1346 39.27                             107   -0.22 0  393 210 
 PRA  HE ES   4   1347 22.65                             107    1.26 0  393 210 
 PRA  HZ I        1347 24.77        18.7 0.68            107            393 210 
                                                                                
