 2015  6 8 1921 10.2 L   6.805 -73.141144.1  RSN 11 0.4 1.8LRSN                1
 GAP=152        0.93       2.9     3.9  5.4 -0.2859E+01  0.6611E+01  0.2615E+01E
 Epicentro: LOS SANTOS - SANTANDER                                             3
 ACTION:UPD 15-09-10 22:10 OP:cam  STATUS:               ID:20150608192110 L   I
 OLDACT:UP  15-06-17 09:49 OP:AK   STATUS:               ID:20150608192110 L   3
 OLDACT:REG 15-06-08 22:02 OP:ak   STATUS:               ID:20150608191749     3
 2015-06-08-1917-49M.COL___300                                                 6
 STAT SP IPHASW D HRMM SECON CODA AMPLIT PERI AZIMU VELO AIN AR TRES W  DIS CAZ7
 BAR2 EZ EP       1921 29.42                             170   -0.2510 23.9 191 
 BAR2 EZ ES       1921 44.22                             170   -0.6210 23.9 191 
 BAR2 EZ I        1921 47.39        12.8 0.17            168           23.9 191 
 BRR  HZ EP       1921 31.50                             152    0.2910 71.4 298 
 BRR  HN ES       1921 48.11                             152    0.5310 71.4 298 
 BRR  HZ I        1921 55.07         7.1 0.18            151           71.4 298 
 PAM  SZ EP       1921 32.45                             151    0.2210 76.6  39 
 PAM  SN ES       1921 49.81                             151    0.4310 76.6  39 
 PAM  SZ I        1921 51.93         6.8 0.30            157           76.6  39 
 SPBC HZ EP       1921 38.63                             128   -0.04 9  164 219 
 SPBC HN ES       1922  0.82                             128   -0.04 9  164 219 
 SPBC HZ I        1922  6.55        13.8 0.14            130            164 219 
 ZAR  HN ES       1922  7.59                             122   -0.26 9  204 292 
 ZAR  HZ I        1922 14.21         7.0 0.19            124            204 292 
 NOR  HZ EP   1   1921 45.10                             118   -0.85 6  235 234 
 NOR  HN ES       1922 13.79                             118   -0.01 8  235 234 
 NOR  HZ I        1922 17.38         8.5 0.18            120            235 234 
 SML  HZ EP       1921 46.57                             117   -0.17 8  243 335 
 SML  HN ES       1922 14.59                             117   -0.62 8  243 335 
 SML  HZ I        1922 18.87        10.8 0.10            120            243 335 
 CHI  HZ EP       1921 47.86                             117   -0.05 8  249 195 
 CHI  HN ES       1922 16.83                             117   -0.47 8  249 195 
 CHI  HZ I        1922 25.62         2.4 0.21            120            249 195 
 HEL  HZ EP       1921 50.50                             114    0.07 8  273 256 
 HEL  HN ES       1922 21.50                             114   -0.29 8  273 256 
 HEL  HZ I        1922 28.86         2.6 0.32            116            273 256 
 GUY2CHZ EP   1   1921 54.55                             112    0.70 5  302 235 
 GUY2CHN ES       1922 28.44                             112    0.57 7  302 235 
 GUY2CHZ I        1922 36.36         4.1 0.30                           302 235 
 TOL  SZ EP   1   1921 59.03                             109    0.52 5  344 225 
 TOL  SE ES       1922 36.87                             109    0.71 7  344 225 
 TOL  SZ I        1922 40.75         2.9 0.30            111            344 225 
                                                                                
