 2013 12 8 1148 25.8 L   6.798 -73.102146.0  RSN  6 0.5 1.8LRSN                1
 GAP=142        1.12       4.9     6.2  8.0  0.8501E+01  0.7885E+01 -0.7541E+01E
 Epicentro: LOS SANTOS - SANTANDER                                             3
 ACTION:UPD 14-01-13 10:16 OP:ep   STATUS:               ID:20131208114825 L   I
 OLDACT:UP  13-12-08 15:19 OP:cam  STATUS:               ID:20131208114000     3
 OLDACT:REG 13-12-08 14:22 OP:cam  STATUS:               ID:20131208114000     3
 2013-12-08-1140-00M.COL___285                                                 6
 STAT SP IPHASW D HRMM SECON CODA AMPLIT PERI AZIMU VELO AIN AR TRES W  DIS CAZ7
 BAR2 SZ EP       1148 45.53                             170    0.0410 24.5 201 
 BAR2 SZ ES       1149  0.03                             170   -0.8110 24.5 201 
 BAR2 SZ I        1149  1.81        16.3 0.24            169           24.5 201 
 PAM  SZ EP     D 1148 48.41                             151    0.5310 74.5  37 
 PAM  SN ES       1149  5.45                             151    0.3610 74.5  37 
 PAM  SN I        1149  6.47        12.5 0.44            155           74.5  37 
 BRR  HZ IP     C 1148 47.31                             151    0.0810 75.6 297 
 BRR  HN ES       1149  4.30                             151    0.3610 75.6 297 
 BRR  HZ I        1149  8.65         9.6 0.44            150           75.6 297 
 RUS  HZ EP       1148 49.59                             144    0.0410  100 179 
 RUS  HN ES       1149  7.90                             144   -0.1710  100 179 
 RUS  HZ I        1149  9.46         3.7 0.26            146            100 179 
 ZAR  HZ EP   2   1148 58.85                             122    0.11 4  209 292 
 ZAR  HN ES       1149 24.91                             122    0.48 8  209 292 
 ZAR  HZ I        1149 29.09         6.3 0.42            123            209 292 
 SML  HZ EP   1   1149  2.04                             117   -0.65 6  246 334 
 SML  HN ES       1149 30.54                             117   -0.91 8  246 334 
 SML  HZ I        1149 32.10         6.1 0.10            119            246 334 
                                                                                
