 2017  8 8 1605 55.5 L   6.711 -73.199148.5  RSN  4 0.3 1.4LRSN                1
 GAP=224        0.67       8.0     7.6  6.3  0.2963E+02  0.1425E+02  0.5887E+01E
 Epicentro: VILLANUEVA - SANTANDER                                             3
 ACTION:UPD 17-09-04 20:18 OP:rebc STATUS:               ID:20170808160555 L   I
 OLDACT:REG 17-08-08 22:09 OP:mg   STATUS:               ID:20170808155745     3
 2017-08-08-1558-00M.COL___402                                                 6
 STAT SP IPHASW D HRMM SECON CODA AMPLIT PERI AZIMU VELO AIN AR TRES W  DIS CAZ7
 BAR2 EZ IP     C 16 6 15.02                             175   -0.3010 13.2 172 
 BAR2 HN ES       16 6 30.55                             175   -0.2110 13.2 172 
 BAR2 EZ I        16 6 31.11         5.1 0.08            172           13.2 172 
 BRR  HZ EP       16 6 17.12                             153    0.1310 71.6 308 
 BRR  HN ES   2   16 6 34.41                             153    0.68 5 71.6 308 
 BRR  HZ I        16 6 35.09         8.8 0.31            152           71.6 308 
 RUS  HZ EP       16 6 19.29                             147    0.3910 91.4 172 
 RUS  HN ES   2   16 6 37.12                             147   -0.02 5 91.4 172 
 RUS  HZ I        16 6 38.62         5.3 0.30            147           91.4 172 
 PTB  HZ EP       16 6 21.83                             134   -0.22 9  140 262 
 PTB  HN ES   2   16 6 42.83                             134    0.09 5  140 262 
 PTB  HZ I        16 6 44.71         1.9 0.17            133            140 262 
                                                                                
