 2012 12 8 1111  6.3 L   6.822 -73.142141.4  RSN 14 0.5 2.7LRSN 3.1WRSN        1
 SPEC AVERAGE  MO 13.7 ST  3.3 OM  2.6 f0 3.55 R0.4182 AL 2.48 WI 23.6 MW  3.1 3
 SPEC SD       MO  0.2 ST  1.4 OM  0.9 f00.358 R0.0408 AL      WI      MW  0.1 3
 GAP= 70        1.29       3.2     3.9  6.2 -0.1507E+00  0.7495E+01  0.2544E+01E
 Epicentro: LOS SANTOS - SANTANDER                                             3
 SPEC PRA HH N MO 13.6 ST  3.8 OM  1.6 f0 4.03 R0.3648 AL 2.69 WI 19.6 MW  3.0 3
 SPEC PRA HH N T111241 K 0.000 GD  418 VS 4.20 DE 3.20 Q0300.0 QA 0.60 VS 4.20 3
 SPEC HEL HH N MO 13.5 ST  1.3 OM  1.6 f0 3.17 R0.4637 AL 2.52 WI 30.9 MW  2.9 3
 SPEC HEL HH N T111216 K 0.000 GD  307 VS 4.20 DE 3.20 Q0300.0 QA 0.60 VS 4.20 3
 SPEC OCA HH N MO 13.9 ST  4.7 OM  2.2 f0 3.45 R0.4261 AL 2.22 WI 20.3 MW  3.2 3
 SPEC OCA HH N T111153 K 0.000 GD  212 VS 4.20 DE 3.20 Q0300.0 QA 0.60 VS 4.20 3
 ACTION:UPD 13-01-04 14:26 OP:ep   STATUS:               ID:20121208111106 L   I
 2012-12-08-1110-00M.COL___243                                                 6
 STAT SP IPHASW D HRMM SECON CODA AMPLIT PERI AZIMU VELO AIN AR TRES W  DIS CAZ7
 BAR2 SZ IP       1111 25.61                             169    0.1410 25.7 190 
 BAR2 SZ ES       1111 39.97                             169   -0.4410 25.7 190 
 BAR2 SZ I        1111 42.07        97.1 0.18                          25.7 190 
 GIR2 SZ EP       1111 25.66                             168    0.2610 29.0 349 
 GIR2 SZ ES       1111 41.03                             168    0.7410 29.0 349 
 PAM  SZ EP       1111 28.44                             151    0.5010 75.3  40 
 PAM  SN ES       1111 45.48                             151    0.6810 75.3  40 
 PAM  SN I        1111 47.37        60.5 0.50                          75.3  40 
 RUS  HZ EP       1111 29.66                             142   -0.1510  103 176 
 RUS  HN ES       1111 47.96                             142   -0.1810  103 176 
 RUS  HN I        1111 50.68        33.3 0.20                           103 176 
 PTB  HZ EP       1111 32.28                             131   -0.73 9  149 258 
 PTB  HN ES       1111 53.01                             131   -0.82 9  149 258 
 PTB  HN I        1111 58.57        61.3 0.32                           149 258 
 TAM  HZ EP       1111 33.95                             129    0.28 9  155 106 
 TAM  HE ES       1111 54.17                             129   -0.84 9  155 106 
 TAM  HN I        1111 56.21        49.3 0.38                           155 106 
 OCA  HZ EP       1111 33.61                             129   -0.46 9  158 353 
 OCA  HN ES       1111 55.36                             129   -0.35 9  158 353 
 OCA  HN I        1112  0.33       154.7 0.32                           158 353 
 ZAR  HZ EP       1111 39.32                             121    0.90 9  204 291 
 ZAR  HN ES       1112  2.83                             121   -0.64 9  204 291 
 ZAR  HN I        1112  9.24        59.5 0.20                           204 291 
 SML  HZ EP       1111 42.01                             117   -0.47 8  242 335 
 SML  HN ES       1112 10.69                             117    0.00 8  242 335 
 SML  HN I        1112 13.18        90.2 0.10                           242 335 
 CHI  HZ EP       1111 43.94                             116   -0.10 8  251 195 
 CHI  HN ES       1112 13.09                             116   -0.37 8  251 195 
 CHI  HN I        1112 19.05        33.1 0.44                           251 195 
 ROSC BZ EP       1111 44.65                             115    0.20 8  255 211 
 ROSC BN ES       1112 15.18                             115    0.99 8  255 211 
 HEL  HZ EP       1111 47.11                             114    0.69 8  273 255 
 HEL  HN ES       1112 18.20                             114    0.50 8  273 255 
 HEL  HN I        1112 23.33        17.6 0.30                           273 255 
 COD  HZ EP   4   1111 54.10                             108   -0.15 0  346 355 
 COD  HE ES   4   1112 29.45                             108   -2.19 0  346 355 
 COD  HN I        1112 36.17         7.1 0.68                           346 355 
 PRA  HZ EP       1111 59.55                             106   -0.40 6  394 209 
 PRA  HN ES       1112 42.03                             106    0.24 6  394 209 
 PRA  HN I        1112 47.25        15.8 0.38                           394 209 
                                                                                
