 2010 10 8 1825 12.5 L   6.793 -73.048142.0  RSN  7 0.4 2.1LRSN                1
 GAP=185        0.93       6.0     9.7 10.2 -0.3264E+02 -0.4438E+02  0.2858E+02E
 Epicentro: LOS SANTOS - SANTANDER                                             3
 ACTION:UP  11-02-18 11:08 OP:tino STATUS:               ID:20101008182512 L   I
 2010-10-08-1823-35S.COL___121                                                 6
 STAT SP IPHASW D HRMM SECON CODA AMPLIT PERI AZIMU VELO SNR AR TRES W  DIS CAZ7
 BAR2 SZ EP   1   1825 31.43                             169    -0.3 7   27 214 
 BAR2 SZ ES   2   1825 46.19                             169    -0.6 5   27 214 
 BAR2 SZ I        1825 47.75        30.1 0.20                            27 214 
 BTL  SZ EP       1825 31.91                             169     0.210   28 300 
 BRR  HZ EP       1825 33.36                             149    -0.510   81 295 
 BRR  HZ I        1825 33.70        40.1 0.11                            81 295 
 BRR  HN ES       1825 50.62                             149     0.110   81 295 
 GUE  SZ EP   1   1825 36.77                             139     0.0 7  116   7 
 GRA  SZ EP       1825 37.29                             137     0.110  124  13 
 GRA  SZ ES   2   1825 57.42                             137     0.9 5  124  13 
 GRA  SZ I        1825 59.21        11.7 0.28                           124  13 
 CHI  HZ EP   1   1825 49.60                             116    -0.6 6  251 198 
 CHI  HN ES   1   1826 20.49                             116     0.8 6  251 198 
 CHI  HZ I        1826 24.74         5.4 0.53                           251 198 
 RREF HZ EP   2   1825 59.75                             110     0.4 3  330 231 
 RREF HN ES   1   1826 36.14                             110     0.2 5  330 231 
 RREF HZ I        1826 39.83         8.2 0.40                           330 231 
                                                                                
