 2014  7 8 1127 45.8 L   6.818 -73.121151.9  RSN  4 0.2 1.7LRSN                1
 GAP=203        0.48       3.4     4.8  4.8  0.1007E+02  0.2170E+01 -0.6492E+01E
 Epicentro: LOS SANTOS - SANTANDER                                             3
 ACTION:UPD 15-03-16 20:42 OP:nd   STATUS:               ID:20140708112745 L   I
 OLDACT:UP  14-07-08 22:04 OP:cam  STATUS:               ID:20140708112000     3
 OLDACT:REG 14-07-08 19:46 OP:cam  STATUS:               ID:20140708112000     3
 2014-07-08-1120-00M.COL___282                                                 6
 STAT SP IPHASW D HRMM SECON CODA AMPLIT PERI AZIMU VELO AIN AR TRES W  DIS CAZ7
 BAR2 SZ EP       1128  6.18                             170   -0.0710 25.9 195 
 BAR2 SZ ES       1128 22.42                             170    0.2510 25.9 195 
 BAR2 SZ I        1128 26.07         8.6 0.14            172           25.9 195 
 RUS  HZ EP   1   1128 10.47                             145    0.15 7  102 178 
 RUS  HN ES       1128 29.16                             145   -0.2610  102 178 
 RUS  HZ I        1128 33.97         5.4 0.28            151            102 178 
 ZAR  HZ EP       1128 19.07                             123    0.21 8  206 291 
 ZAR  HE ES       1128 44.56                             123   -0.07 8  206 291 
 ZAR  HZ I        1128 51.42         4.3 0.12            126            206 291 
 SML  HZ EP   1   1128 22.77                             119    0.04 6  243 335 
 SML  HN ES       1128 51.32                             119   -0.19 8  243 335 
 SML  HZ I        1129  0.32         4.5 0.10            122            243 335 
                                                                                
