 2016  5 8 1122 58.1 L   6.770 -73.149146.5  RSN  9 0.4 1.9LRSN                1
 GAP=137        0.85       3.6     3.7  6.3 -0.9359E+00  0.3860E+01  0.1688E+01E
 Epicentro: LOS SANTOS - SANTANDER                                             3
 ACTION:UPD 16-08-18 17:43 OP:cam  STATUS:               ID:20160508112258 L   I
 OLDACT:REG 16-05-08 20:18 OP:dnl  STATUS:               ID:20160508111749     3
 2016-05-08-1117-49M.COL___291                                                 6
 STAT SP IPHASW D HRMM SECON CODA AMPLIT PERI AZIMU VELO AIN AR TRES W  DIS CAZ7
 BAR2 EZ EP   2   1123 17.69                             172   -0.09 5 20.0 191 
 BAR2 EZ ES   2   1123 32.50                             172   -0.62 5 20.0 191 
 BAR2 EZ I        1123 33.72        20.6 0.36            173           20.0 191 
 BRR  HZ EP       1123 19.67                             152    0.2410 72.5 301 
 BRR  HE ES       1123 36.59                             152    0.5410 72.5 301 
 BRR  HZ I        1123 37.62        10.3 0.27            150           72.5 301 
 PAM  EZ EP       1123 20.78                             150    0.1910 80.2  38 
 PAM  EE ES       1123 37.77                             150   -0.3410 80.2  38 
 PAM  EZ I        1123 40.10        16.7 0.64            151           80.2  38 
 RUS  HZ EP       1123 21.77                             145    0.0510 97.3 176 
 RUS  HE ES       1123 40.25                             145    0.1310 97.3 176 
 RUS  HZ I        1123 41.27         4.3 0.34            147           97.3 176 
 PTB  HZ EP       1123 24.86                             132   -0.21 9  147 260 
 PTB  HN ES       1123 45.33                             132   -0.75 9  147 260 
 PTB  HZ I        1123 47.60         9.9 0.16            132            147 260 
 SPBC HZ EP       1123 26.52                             130    0.10 9  160 220 
 SPBC HN ES       1123 48.58                             130    0.10 9  160 220 
 SPBC HZ I        1123 50.95         6.8 0.10            130            160 220 
 ZAR  HZ EP   4   1123 32.16                             122    1.44 0  205 293 
 ZAR  HN ES       1123 56.39                             122    0.25 9  205 293 
 ZAR  HZ I        1124  2.53         9.2 0.40            122            205 293 
 SML  HZ EP   2   1123 34.20                             117   -0.91 4  247 336 
 SML  HN ES   4   1124  2.90                             117   -1.05 0  247 336 
 SML  HZ I        1124  7.20         8.9 0.10            117            247 336 
 URE  HZ EP   4   1123 42.00                             114    2.66 0  285 293 
 URE  HE ES   4   1124  8.89                             114   -2.59 0  285 293 
 URE  HZ I        1124 13.22         5.5 0.16            114            285 293 
                                                                                
