 2014  3 8 1017 37.0 L   6.811 -73.192145.0  RSN 15 0.5 2.1LRSN                1
 GAP= 68        1.09       2.9     3.1  5.4 -0.2155E+01  0.3655E+01 -0.7424E+00E
 Epicentro: ZAPATOCA - SANTANDER                                               3
 ACTION:UPD 14-04-09 23:15 OP:nd   STATUS:               ID:20140308101737 L   I
 OLDACT:DUP 14-03-08 17:07 OP:stll STATUS:               ID:20140308100808d    3
 2014-03-08-1008-07M.COL___226                                                 6
 STAT SP IPHASW D HRMM SECON CODA AMPLIT PERI AZIMU VELO AIN AR TRES W  DIS CAZ7
 BAR2 SZ EP       1017 57.03                             170    0.4910 24.2 177 
 BAR2 SZ ES       1018 11.91                             170    0.1110 24.2 177 
 BAR2 SZ I        1018 12.65        58.6 0.32            168           24.2 177 
 PAM  SZ IP     D 1017 59.80                             150    0.5410 79.9  43 
 PAM  SN ES       1018 16.65                             150    0.0010 79.9  43 
 RUS  HZ IP     C 1018  0.90                             143    0.1210  102 173 
 RUS  HE ES       1018 19.17                             143   -0.1810  102 173 
 RUS  SZ I        1018 20.30        12.8 0.44            142            102 173 
 PTB  HZ EP       1018  3.79                             133    0.34 9  143 258 
 PTB  HN ES       1018 23.64                             133   -0.46 9  143 258 
 PTB  SZ I        1018 31.03        12.1 0.22            132            143 258 
 OCA  HN ES       1018 27.00                             130    0.03 9  158 355 
 TAM  HZ IP     C 1018  5.20                             129    0.10 9  160 105 
 TAM  HN ES       1018 26.54                             129   -0.49 9  160 105 
 TAM  SZ I        1018 34.94         7.8 0.90            131            160 105 
 SPBC HZ EP       1018  5.66                             129    0.45 9  161 217 
 SPBC HN ES       1018 27.51                             129    0.28 9  161 217 
 SPBC SZ I        1018 31.90        15.6 0.10            128            161 217 
 ZAR  HZ EP       1018  9.53                             123    0.70 9  199 292 
 NOR  HZ EP       1018 12.59                             119    0.30 8  231 233 
 NOR  HN ES       1018 38.96                             119   -0.88 8  231 233 
 NOR  SZ I        1018 47.64         9.8 0.22            118            231 233 
 SML  HZ EP       1018 13.08                             118   -0.13 8  240 336 
 SML  HN ES       1018 41.11                             118   -0.36 8  240 336 
 SML  SZ I        1018 47.37        16.5 0.08            119            240 336 
 CHI  HZ EP       1018 15.00                             117    0.37 8  249 194 
 CHI  HN ES       1018 43.77                             117   -0.22 8  249 194 
 CHI  SZ I        1018 56.50         7.0 2.52            117            249 194 
 HEL  HZ EP       1018 17.18                             115    0.55 8  267 255 
 HEL  HE ES       1018 46.74                             115   -0.82 8  267 255 
 HEL  SZ I        1018 55.56         5.5 0.32            115            267 255 
 SOCV BZ EP       1018 19.26                             112   -1.15 7  305  58 
 SDV  BZ EP       1018 26.55                             108   -0.81 6  364  51 
 ORTC HZ EP       1018 30.88                             106    0.24 6  393 215 
 ORTC HN ES       1019 11.81                             106   -0.68 6  393 215 
 ORTC SZ I        1019 18.51         3.2 0.34            106            393 215 
                                                                                
