 2012  2 8 1912 58.2 L   6.009 -73.712118.1  RSN 12 0.5 2.4LRSN                1
 GAP= 79        0.90       3.4     3.2  7.4 -0.2547E+01  0.4793E+01  0.5649E+01E
 ACTION:UP  12-03-07 16:28 OP:epov STATUS:               ID:20120208191258 L   I
 2012-02-08-1910-00M.COL___188                                                 6
 STAT SP IPHASW D HRMM SECON CODA AMPLIT PERI AZIMU VELO AIN AR TRES W  DIS CAZ7
 RUS  HZ IP     D 1913 17.16                             147    0.0710 70.9 100 
 RUS  HN ES   1   1913 31.25                             147   -0.59 7 70.9 100 
 RUS  HZ I        1913 35.78        22.8 0.20                          70.9 100 
 BAR2 SZ EP   1   1913 18.43                             141    0.53 7 87.2  42 
 BAR2 SZ ES   1   1913 33.47                             141    0.19 7 87.2  42 
 BAR2 SZ I        1913 34.97       269.0 0.33                          87.2  42 
 PTB  HZ EP       1913 17.95                             136   -0.7610  101 306 
 PTB  HN ES   1   1913 34.95                             136    0.23 7  101 306 
 BRR  HZ EP   1   1913 20.66                             131    0.18 7  121   0 
 BRR  HE ES   1   1913 38.29                             131    0.41 7  121   0 
 BRR  HZ I        1913 41.36        90.1 0.10                           121   0 
 GIR2 SZ EP   1   1913 22.22                             128    0.60 7  131  26 
 NOR  SZ EP   1   1913 22.15                             127    0.09 7  137 249 
 NOR  SN ES   1   1913 40.96                             127    0.28 7  137 249 
 PAM  SZ EP   1   1913 26.87                             118   -0.66 7  185  37 
 PAM  SN ES   1   1913 50.44                             118    0.03 7  185  37 
 PAM  SZ I        1913 57.92         7.0 0.37                           185  37 
 HEL  HZ EP   1   1913 30.14                             116    0.91 6  202 276 
 HEL  HN ES   1   1913 52.97                             116   -0.48 6  202 276 
 HEL  HZ I        1913 58.42        20.8 0.31                           202 276 
 ZAR  HZ EP   1   1913 29.42                             115    0.08 6  207 322 
 ZAR  HN ES   1   1913 53.11                             115   -0.53 6  207 322 
 ZAR  HZ I        1913 55.51        23.1 0.06                           207 322 
 VIL  SZ EP   1   1913 29.38                             115   -0.40 6  210 179 
 VIL  SZ I        1914  0.72         9.5 0.27                           210 179 
 RREF HZ EP   1   1913 31.42                             114    0.01 6  219 236 
 RREF HN ES   1   1913 57.26                             114   -0.07 6  219 236 
 RREF HZ I        1914  1.96        14.8 0.27                           219 236 
 PRA  HZ EP   1   1913 37.97                             107   -0.29 6  285 207 
 PRA  HN ES   1   1914 10.30                             107    0.78 6  285 207 
 PRA  HZ I        1914 16.64        52.8 0.19                           285 207 
                                                                                
