 2010  8 8 1547 28.3 L   7.190 -74.021  5.4  RSN  6 0.3 1.7LRSN                1
 GAP=276        0.64       4.3     7.6  9.5  0.4465E+01  0.3318E+02  0.1934E+02E
 Epicentro: PUERTO WILCHES - SANTANDER                                         3
 ACTION:UP  10-09-07 10:53 OP:vdl  STATUS:               ID:20100808154728 L   I
 2010-08-08-1543-33S.COL___125                                                 6
 STAT SP IPHASW D HRMM SECON CODA AMPLIT PERI AZIMU VELO SNR AR TRES W  DIS CAZ7
 BRR  HZ IP     D 1547 33.89                              92    -0.410   35 105 
 BRR  HE ES   2   1547 39.46                              92     0.6 5   35 105 
 BRR  HZ I        1547 40.38        53.3 0.30                            35 105 
 BTL  SZ EP   1   1547 42.46                              91    -0.1 7   88 110 
 BAR2 SZ EP   1   1547 46.59                              91     0.2 7  114 126 
 BAR2 SZ ES   2   1548  0.42                              91    -0.1 5  114 126 
 BAR2 SZ I        1548  2.75         6.7 0.15                           114 126 
 GUE  SZ EP   1   1547 50.76                              90     0.3 7  140  60 
 GRA  SZ EP   1   1547 52.81                              90     0.3 7  155  60 
 GRA  SZ ES   2   1548 10.94                              90    -0.5 5  155  60 
 GRA  SZ I        1548 13.86        28.0 0.37                           155  60 
 RUS  HZ EP   1   1547 56.27                              56     0.1 7  177 144 
 RUS  HN ES   2   1548 17.95                              56     0.0 4  177 144 
 RUS  HZ I        1548 19.63         8.7 0.21                           177 144 
                                                                                
