 2012  5 8 1450 16.1 L   6.779 -73.157146.3  RSN  6 0.3 1.6LRSN                1
 GAP=136        0.74       6.0     4.7  8.1 -0.2184E+01  0.3312E+01  0.1035E+02E
 Epicentro: LOS SANTOS - SANTANDER                                             3
 ACTION:UP  12-07-05 12:03 OP:pat  STATUS:               ID:20120508145016 L   I
 2012-05-08-1450-00M.COL___192                                                 6
 STAT SP IPHASW D HRMM SECON CODA AMPLIT PERI AZIMU VELO SNR AR TRES W  DIS CAZ7
 BAR2 SZ EP   1   1450 35.70                             171     0.0 7   21 188 
 BAR2 SZ I        1450 35.92         8.5 0.08                            21 188 
 BAR2 SZ ES   2   1450 50.66                             171    -0.4 5   21 188 
 BRR  HZ EP   1   1450 37.50                             153     0.2 7   71 301 
 BRR  HN ES   1   1450 54.15                             153     0.3 7   71 301 
 BRR  HZ I        1450 58.14        24.7 0.53                            71 301 
 PAM  SZ EP   1   1450 38.60                             150     0.1 7   80  39 
 PAM  SE ES   1   1450 55.69                             150    -0.3 7   80  39 
 RUS  HZ EP   1   1450 40.08                             144     0.4 7   98 175 
 RUS  HN ES   2   1450 58.45                             144     0.3 5   98 175 
 RUS  HZ I        1451  0.64         3.6 0.26                            98 175 
 PTB  HZ EP   1   1450 42.27                             132    -0.7 7  146 260 
 PTB  HN ES   1   1451  3.64                             132    -0.2 7  146 260 
 PTB  HZ I        1451 10.61         3.3 0.22                           146 260 
 ZAR  HE ES   2   1451 14.37                             122     0.5 4  204 293 
                                                                                
