 2011  7 8 1453 23.6 L   6.790 -73.018141.4  RSN  8 0.3 1.9LRSN                1
 GAP=173        0.61       2.8     4.8  5.1 -0.3051E+01  0.2649E+01  0.1611E+01E
 Epicentro: CEPITA - SANTANDER                                                 3
 ACTION:UPD 12-07-25 13:59 OP:epov STATUS:               ID:20110708145323 L   I
 2011-07-08-1451-22S.COL___140                                                 6
 STAT SP IPHASW D HRMM SECON CODA AMPLIT PERI AZIMU VELO AIN AR TRES W  DIS CAZ7
 BAR2 SZ EP       1453 42.91                             168    0.0910 28.5 220 
 BAR2 SZ ES   1   1453 57.85                             168    0.04 7 28.5 220 
 BAR2 SZ I        1453 59.56        20.6 0.32                          28.5 220 
 BRR  HZ EP       1453 44.90                             147   -0.1810 84.3 295 
 BRR  HZ I        1453 47.27        31.2 0.07                          84.3 295 
 BRR  HN ES   1   1454  2.03                             147    0.19 7 84.3 295 
 RUS  HZ EP   1   1453 46.94                             143    0.10 7 99.5 184 
 RUS  HE ES   2   1454  5.15                             143    0.18 5 99.5 184 
 RUS  HZ I        1454  9.02         7.5 0.57                          99.5 184 
 GRA  SZ EP   1   1453 48.66                             137    0.42 7  123  11 
 GRA  SZ ES   1   1454  6.65                             137   -0.82 7  123  11 
 GRA  SZ I        1454 11.45        12.0 0.26                           123  11 
 OCA  SZ EP   1   1453 52.26                             128    0.37 7  164 348 
 OCA  SZ ES   1   1454 14.22                             128    0.27 7  164 348 
 OCA  SZ I        1454 18.19        16.1 0.29                           164 348 
 CHI  HZ EP   2   1454  1.13                             116   -0.26 4  252 198 
 CHI  HZ I        1454  3.28         4.2 0.21                           252 198 
 CHI  HE ES   2   1454 30.47                             116   -0.40 4  252 198 
 HEL  HZ EP   1   1454  4.66                             113   -0.44 6  286 257 
 HEL  HE ES   1   1454 37.45                             113   -0.02 6  286 257 
 PRA  HZ EP   1   1454 17.78                             105    0.08 4  398 211 
                                                                                
