 2010 10 8 1600 44.8 L   6.807 -73.096144.0  RSN  5 0.2 2.0LRSN                1
 GAP=215        0.50       6.6     7.0  5.5 -0.3421E+02 -0.2021E+02  0.1425E+02E
 Epicentro: LOS SANTOS - SANTANDER                                             3
 ACTION:UP  11-02-18 11:08 OP:tino STATUS:               ID:20101008160044 L   I
 2010-10-08-1556-32S.COL___121                                                 6
 STAT SP IPHASW D HRMM SECON CODA AMPLIT PERI AZIMU VELO SNR AR TRES W  DIS CAZ7
 BTL  SZ EP       16 1  4.25                             171     0.110   23 303 
 BTL  SZ ES   1   16 1 19.30                             171     0.0 7   23 303 
 BRR  HZ EP       16 1  5.65                             151    -0.310   76 296 
 BRR  HN ES       16 1 22.69                             151     0.110   76 296 
 BRR  HZ I        16 1 23.95        29.7 0.04                            76 296 
 GUE  SZ EP   1   16 1  9.37                             140     0.2 7  115   9 
 GRA  SZ EP       16 1  9.71                             137     0.010  123  15 
 GRA  SZ ES   1   16 1 28.99                             137    -0.1 7  123  15 
 GRA  SZ I        16 1 30.26        11.6 0.57                           123  15 
 RREF HN ES   2   16 2  7.95                             110     0.2 3  326 230 
                                                                                
