 2016  6 8 1648  0.1 L   6.766 -73.147149.2  RSN  4 0.2 1.4LRSN                1
 GAP=235        0.54       4.3     4.2  4.3  0.8969E+01  0.1318E+01  0.1702E-01E
 Epicentro: LOS SANTOS - SANTANDER                                             3
 ACTION:UPD 16-07-21 22:16 OP:rebc STATUS:               ID:20160608164800 L   I
 OLDACT:REG 16-06-08 21:46 OP:edw  STATUS:               ID:20160608164743     3
 2016-06-08-1647-43M.COL___325                                                 6
 STAT SP IPHASW D HRMM SECON CODA AMPLIT PERI AZIMU VELO AIN AR TRES W  DIS CAZ7
 BAR2 EZ EP       1648 20.11                             172    0.0110 19.6 191 
 BAR2 EZ ES       1648 35.36                             172   -0.3210 19.6 191 
 BAR2 EZ I        1648 37.49         5.4 0.28                          19.6 191 
 BRR  HZ EP       1648 21.61                             152   -0.1310 72.9 301 
 BRR  HN ES       1648 38.92                             152    0.3210 72.9 301 
 BRR  HZ I        1648 42.31        10.4 0.42                          72.9 301 
 RUS  HZ EP       1648 24.12                             146    0.1710 96.8 176 
 RUS  HN ES       1648 42.64                             146    0.1110 96.8 176 
 RUS  HZ I        1648 43.60         2.6 0.28                          96.8 176 
 PTB  HZ EP       1648 27.19                             133   -0.11 9  147 260 
 PTB  HE ES       1648 48.43                             133   -0.06 9  147 260 
 PTB  HZ I        1648 50.05         2.2 0.16                           147 260 
                                                                                
