 2013  5 8 1710 57.5 L   6.798 -73.107150.7  RSN  4 0.2 1.7LRSN                1
 GAP=142        0.49       3.5     5.1  5.0 -0.1469E+01 -0.3333E+01 -0.5277E-01E
 Epicentro: LOS SANTOS - SANTANDER                                             3
 ACTION:UPD 13-06-20 09:48 OP:ep   STATUS:               ID:20130508171057 L   I
 2013-05-08-1710-00M.COL___256                                                 6
 STAT SP IPHASW D HRMM SECON CODA AMPLIT PERI AZIMU VELO AIN AR TRES W  DIS CAZ7
 BAR2 SZ EP       1711 17.47                             171   -0.2610 24.2 200 
 BAR2 SZ ES   1   1711 33.72                             171    0.20 7 24.2 200 
 PAM  SZ EP     D 1711 20.38                             152    0.2810 74.9  37 
 PAM  SZ I        1711 20.52        11.7 0.20            155           74.9  37 
 PAM  SE ES   1   1711 37.50                             152   -0.23 7 74.9  37 
 BRR  HZ EP   1   1711 19.43                             152    0.03 7 75.1 297 
 BRR  HN ES   1   1711 36.44                             152   -0.04 7 75.1 297 
 BRR  HZ I        1711 40.68        12.3 0.36            149           75.1 297 
 RUS  HZ EP   1   1711 21.64                             145   -0.06 7  100 178 
 RUS  HN ES   1   1711 40.64                             145    0.06 7  100 178 
 RUS  HZ I        1711 41.86         3.5 0.34            147            100 178 
                                                                                
