 2013  4 8 1202 46.3 L   6.833 -73.196150.7  RSN  5 0.4 1.6LRSN                1
 GAP=176        0.86       7.7     8.7 10.6  0.3989E+01 -0.3513E+01 -0.4307E-01E
 Epicentro: ZAPATOCA - SANTANDER                                               3
 ACTION:UPD 13-05-22 14:36 OP:EP   STATUS:               ID:20130408120246 L   I
 2013-04-08-1200-00M.COL___245                                                 6
 STAT SP IPHASW D HRMM SECON CODA AMPLIT PERI AZIMU VELO AIN AR TRES W  DIS CAZ7
 BAR2 SZ EP       12 3  6.42                             169   -0.1910 26.7 177 
 GIR2 SZ ES   1   12 3 21.86                             169   -0.34 7 27.1   1 
 BRR  HZ EP       12 3  8.07                             156    0.4210 64.5 298 
 BRR  HE ES   1   12 3 24.86                             156    0.57 7 64.5 298 
 BRR  HZ I        12 3 29.51        10.4 0.44            155           64.5 298 
 PTB  HN ES   1   12 3 33.87                             134   -0.43 7  143 257 
 PTB  HZ I        12 3 36.44         3.2 0.42            136            143 257 
 SML  HN ES   1   12 3 50.49                             119   -0.44 6  238 336 
                                                                                
