 2010  3 8 1157 22.8 L   6.825 -73.041144.7  RSN 13 0.4 2.8LRSN                1
 GAP=133        0.95       3.3     5.5  5.6 -0.5031E+01  0.8270E+00  0.3282E+01E
 Epicentro: LOS SANTOS - SANTANDER                                             3
 ACTION:UP  10-08-24 09:52 OP:vdl  STATUS:               ID:20100308115722 L   I
 2010-03-08-1155-36S.COL___101                                                 6
 STAT SP IPHASW D HRMM SECON CODA AMPLIT PERI AZIMU VELO SNR AR TRES W  DIS CAZ7
 BAR2 SZ IP       1157 42.47                             168     0.010   30 212 
 BAR2 SZ ES   1   1157 57.37                             168    -0.4 7   30 212 
 BRR  HZ IP       1157 44.16                             149    -0.210   81 293 
 BRR  HZ I        1157 44.42       251.3 0.12                            81 293 
 BRR  HN ES       1158  1.40                             149     0.210   81 293 
 RUS  BZ EP       1157 46.72                             143     0.110  103 183 
 RUS  BN ES   1   1158  5.03                             143    -0.2 7  103 183 
 RUS  BZ I        1158  6.25        39.9 0.31                           103 183 
 OCA  SZ EP       1157 51.08                             129     0.1 9  159 349 
 OCA  SZ ES   1   1158 13.14                             129     0.2 7  159 349 
 OCA  SZ I        1158 20.93       108.8 0.26                           159 349 
 CHI  HZ EP       1158  0.92                             116    -0.2 8  255 198 
 CHI  HN ES       1158 30.57                             116    -0.4 8  255 198 
 CHI  HZ I        1158 32.53        28.4 0.17                           255 198 
 ROSC BZ EP   1   1158  1.89                             116     0.1 6  261 213 
 ROSC BN ES       1158 33.17                             116     1.0 8  261 213 
 ROSC BZ I        1158 36.59        24.5 0.28                           261 213 
 HEL  HZ EP   1   1158  3.61                             113    -0.7 6  284 256 
 HEL  HN ES   2   1158 36.27                             113    -0.4 4  284 256 
 HEL  HZ I        1158 40.94        28.1 0.47                           284 256 
 RREF BZ EP       1158 10.53                             110     0.4 7  332 230 
 RREF BN ES       1158 47.41                             110     0.4 7  332 230 
 RREF BZ I        1158 52.05        26.4 0.18                           332 230 
 SDV  BZ EP       1158 12.07                             109     0.5 6  350  49 
 SDV  BZ I        1158 13.11        15.5 0.18                           350  49 
 DBB  SZ EP       1158 10.69                             108    -0.9 6  351 274 
 TOL  SZ EP   1   1158 12.46                             108     0.3 5  354 226 
 ANIL BN ES   1   1158 53.70                             108     0.2 5  367 226 
 ANIL BZ I        1158 56.77        18.1 0.28                           367 226 
 PRA  HZ EP       1158 16.56                             106    -0.7 6  400 211 
 PRA  HN ES   1   1158 59.66                             106     0.0 4  400 211 
 PRA  HZ I        1159  3.33        21.4 0.66                           400 211 
                                                                                
