 2016  3 8 1230 54.0 L   6.802 -73.172139.3  RSN 10 0.4 1.9LRSN                1
 GAP=133        1.05       3.6     3.9  7.1 -0.8451E+00  0.1166E+02  0.1016E+01E
 Epicentro: LOS SANTOS - SANTANDER                                             3
 ACTION:UPD 16-05-13 21:22 OP:cam  STATUS:               ID:20160308123054 L   I
 OLDACT:UP  16-03-08 21:47 OP:ar   STATUS:               ID:20160308122747     3
 OLDACT:REG 16-03-08 20:35 OP:ar   STATUS:               ID:20160308122747     3
 2016-03-08-1227-47M.COL___315                                                 6
 STAT SP IPHASW D HRMM SECON CODA AMPLIT PERI AZIMU VELO AIN AR TRES W  DIS CAZ7
 BAR2 EZ EP       1231 12.66                             170   -0.1410 23.3 183 
 BAR2 EZ ES       1231 27.36                             170   -0.1410 23.3 183 
 BAR2 EZ I        1231 28.68        29.7 0.20            171           23.3 183 
 PAM  EZ EP       1231 15.55                             149   -0.0310 79.1  41 
 PAM  EN ES       1231 32.66                             149    0.2010 79.1  41 
 PAM  EZ I        1231 34.52        20.9 0.56            144           79.1  41 
 RUS  HZ EP       1231 17.02                             142   -0.0910  101 174 
 RUS  HE ES       1231 35.11                             142   -0.0610  101 174 
 RUS  HZ I        1231 37.09         9.5 0.32            140            101 174 
 PTB  HZ EP       1231 19.44                             131   -0.70 9  145 259 
 PTB  HN ES       1231 39.91                             131   -0.65 9  145 259 
 PTB  HZ I        1231 43.76         9.6 0.60            124            145 259 
 SPBC HZ EP   2   1231 21.37                             128   -0.44 5  162 218 
 SPBC HN ES       1231 44.28                             128    0.75 9  162 218 
 SPBC HZ I        1231 51.32        10.3 0.22            123            162 218 
 ZAR  HZ EP       1231 26.63                             121    0.94 9  201 292 
 ZAR  HN ES       1231 50.81                             121    0.36 9  201 292 
 ZAR  HZ I        1231 56.21        10.2 0.30            115            201 292 
 NOR  HZ EP   4   1231 34.26                             117    5.19 0  232 234 
 NOR  HN ES       1231 56.89                             117    0.42 8  232 234 
 NOR  HZ I        1232  3.87         5.4 0.18            112            232 234 
 CHI  HZ EP       1231 31.01                             116   -0.24 8  248 195 
 CHI  HN ES       1232  0.65                             116    0.32 8  248 195 
 URE  HZ EP   4   1231 37.11                             112    2.71 0  281 292 
 URE  HZ I        1232  4.86         6.1 0.14            107            281 292 
 URE  HN ES       1232  5.70                             112   -0.25 7  281 292 
 GUY2CHZ EP   4   1231 39.12                             111    2.10 0  299 234 
 GUY2CHN ES       1232 10.14                             111   -0.47 7  299 234 
 GUY2CHZ I        1232 19.12         4.2 0.78                           299 234 
 SOCV BZ EP   4   1231 34.39                             111   -2.58 0  304  57 
 SOCV BN ES   4   1232  6.47                             111   -4.05 0  304  57 
                                                                                
