 2013  4 8 1607 40.4 L   6.751 -73.151144.3  RSN  5 0.4 1.2LRSN                1
 GAP=183        0.92       6.0     7.8  7.5  0.1896E+02  0.3970E+01  0.7097E+01E
 Epicentro: LOS SANTOS - SANTANDER                                             3
 ACTION:UPD 13-05-22 14:36 OP:EP   STATUS:               ID:20130408160740 L   I
 2013-04-08-1606-39M.COL___224                                                 6
 STAT SP IPHASW D HRMM SECON CODA AMPLIT PERI AZIMU VELO AIN AR TRES W  DIS CAZ7
 BAR2 SZ EP   1   16 7 59.64                             172   -0.14 7 17.9 191 
 BAR2 SZ ES       16 8 14.20                             172   -0.6710 17.9 191 
 GIR2 SZ EP   1   16 7 59.61                             165   -0.47 7 36.5 353 
 GIR2 SZ ES       16 8 15.56                             165    0.1610 36.5 353 
 GIR2 SZ I        16 8 15.92         3.3 0.19            166           36.5 353 
 BRR  HZ EP       16 8  1.61                             151    0.0710 73.4 302 
 BRR  HN ES       16 8 18.46                             151    0.4510 73.4 302 
 RUS  HZ EP       16 8  3.83                             145    0.1810 95.2 175 
 RUS  HN ES       16 8 22.10                             145    0.3410 95.2 175 
 RUS  HZ I        16 8 23.13         3.3 0.24            145           95.2 175 
 PTB  HN ES   1   16 8 27.56                             132   -0.40 7  146 261 
                                                                                
