 2015  6 8 1537 17.1 L   6.827 -73.122148.3  RSN  6 0.5 1.7LRSN                1
 GAP=259        1.14       6.6     7.3  8.2  0.2593E+01  0.2218E+02  0.1127E+02E
 Epicentro: LOS SANTOS - SANTANDER                                             3
 ACTION:UPD 15-09-10 22:10 OP:cam  STATUS:               ID:20150608153717 L   I
 OLDACT:REG 15-06-08 21:31 OP:ak   STATUS:               ID:20150608152750     3
 2015-06-08-1527-50M.COL___294                                                 6
 STAT SP IPHASW D HRMM SECON CODA AMPLIT PERI AZIMU VELO AIN AR TRES W  DIS CAZ7
 BAR2 EZ EP       1537 36.95                             169   -0.2010 26.8 194 
 BAR2 EZ ES       1537 52.47                             169   -0.2910 26.8 194 
 BAR2 EZ I        1537 54.50         5.4 0.20            165           26.8 194 
 BRR  HZ EP       1537 38.83                             153    0.2110 72.2 295 
 BRR  HN ES       1537 56.22                             153    0.8410 72.2 295 
 BRR  HZ I        1537 58.45         7.0 0.09            149           72.2 295 
 SPBC HZ EP       1537 45.81                             129   -0.40 9  167 219 
 SPBC HE ES       1538  8.71                             129   -0.18 9  167 219 
 SPBC HZ I        1538 15.04        12.1 0.30            129            167 219 
 ZAR  HZ EP   1   1537 49.54                             123   -0.35 6  205 291 
 ZAR  HE ES       1538 14.55                             123   -0.88 8  205 291 
 ZAR  HZ I        1538 21.41         6.9 0.13            123            205 291 
 HEL  HZ EP       1537 58.35                             115    0.50 7  275 255 
 HEL  HN ES       1538 29.38                             115   -0.22 7  275 255 
 HEL  HZ I        1538 36.24         3.0 0.64            116            275 255 
 GUY2CHZ EP       1538  2.03                             112    0.73 7  305 235 
 GUY2CHN ES       1538 36.09                             112    0.34 7  305 235 
 GUY2CHZ I        1538 43.59         2.7 0.26                           305 235 
                                                                                
