 2011  8 8 1450 16.6 L   6.730 -73.119148.3  RSN  4 0.4 1.8LRSN                1
 GAP=235        0.51       9.3    11.7  9.6  0.6645E+02 -0.3794E+02  0.2224E+01E
 Epicentro: JORDAN - SANTANDER                                                 3
 ACTION:UPD 12-07-25 14:07 OP:epov STATUS:               ID:20110808145016 L   I
 2011-08-08-1448-51S.COL___143                                                 6
 STAT SP IPHASW D HRMM SECON CODA AMPLIT PERI AZIMU VELO AIN AR TRES W  DIS CAZ7
 BAR2 SZ EP       1450 36.38                             173   -0.0610 16.7 205 
 BAR2 SZ ES   3   1450 50.67                             173   -1.23 2 16.7 205 
 BAR2 SZ I        1450 52.89         7.7 0.34                          16.7 205 
 BRR  HZ EP       1450 38.34                             151   -0.0710 77.7 303 
 BRR  HZ I        1450 50.78        22.5 0.52                          77.7 303 
 BRR  HE ES   1   1450 55.57                             151    0.16 7 77.7 303 
 RUS  HZ EP   2   1450 40.50                             146    0.43 5 92.7 178 
 RUS  HN ES   3   1450 58.93                             146    0.57 2 92.7 178 
 NOR  SN ES   3   1451 19.44                             119   -0.66 2  233 236 
                                                                                
