 2012  6 8 1651 42.9 L   6.777 -73.165143.8  RSN  4 0.2 1.3LRSN                1
 GAP=181        0.44       5.6    12.0  7.1  0.2307E+02 -0.8976E+01 -0.8907E+01E
 Epicentro: LOS SANTOS - SANTANDER                                             3
 ACTION:UPD 12-08-06 17:48 OP:ep   STATUS:               ID:20120608165142 L   I
 2012-06-08-1650-00M.COL___201                                                 6
 STAT SP IPHASW D HRMM SECON CODA AMPLIT PERI AZIMU VELO AIN AR TRES W  DIS CAZ7
 BAR2 SZ EP       1652  2.22                             172   -0.0510 20.6 185 
 BAR2 SZ ES   2   1652 17.65                             172    0.30 5 20.6 185 
 RUS  HZ EP       1652  6.48                             144    0.1610 98.3 175 
 RUS  HN ES   1   1652 24.28                             144   -0.28 7 98.3 175 
 RUS  HZ I        1652 26.35         3.2 0.38            143           98.3 175 
 PTB  HE ES   3   1652 30.08                             132   -0.15 2  145 260 
 OCA  HE ES   3   1652 32.98                             128   -0.45 2  163 354 
                                                                                
