 2010 10 8 1220 30.3 L   7.395 -73.377118.0  RSN  5 0.2 1.4LRSN                1
 GAP=177        0.54       5.9     7.5  8.2 -0.3209E+02  0.1717E+02 -0.3220E+01E
 Epicentro: SABANA DE TORRES - SANTANDER                                       3
 ACTION:UP  11-02-18 11:08 OP:tino STATUS:               ID:20101008122030 L   I
 2010-10-08-1217-52S.COL___121                                                 6
 STAT SP IPHASW D HRMM SECON CODA AMPLIT PERI AZIMU VELO SNR AR TRES W  DIS CAZ7
 BRR  HZ EP       1220 47.31                             156     0.110   49 229 
 BRR  HN ES   2   1221  0.24                             156    -0.2 5   49 229 
 BTL  SZ EP       1220 47.95                             154     0.110   54 167 
 GUE  SZ EP       1220 48.56                             148    -0.310   69  46 
 GUE  SZ I        1221  2.81         2.9 0.07                            69  46 
 GRA  SZ ES       1221  4.79                             143     0.110   83  49 
 GRA  SZ I        1221  5.98        11.1 0.52                            83  49 
 BAR2 SZ ES   2   1221  5.74                             140    -0.2 5   91 166 
                                                                                
