 2012 11 8 1256 11.4 L   7.061 -73.410113.8  RSN  6 0.5 2.2LRSN                1
 GAP=142        1.03       6.5     5.2  9.1  0.1002E+02  0.1729E+02  0.5115E+01E
 Epicentro: SAN VICENTE DE CHUCURI - SANTANDER                                 3
 ACTION:UPD 12-12-05 15:32 OP:}ep  STATUS:               ID:20121108125611 L   I
 OLDACT:REG 12-11-08 18:36 OP:carl STATUS:               ID:20121108125000     3
 2012-11-08-1250-00M.COL___228                                                 6
 STAT SP IPHASW D HRMM SECON CODA AMPLIT PERI AZIMU VELO AIN AR TRES W  DIS CAZ7
 BRR  HZ IP     D 1256 27.05                             162   -0.1310 33.8 279 
 BRR  HN ES   1   1256 39.59                             162    0.10 7 33.8 279 
 BRR  HN I        1256 39.95       127.6 0.26                          33.8 279 
 BAR2 SZ EP       1256 29.06                             151    0.3810 57.6 154 
 BAR2 SZ ES   1   1256 42.52                             151    0.37 7 57.6 154 
 BAR2 SZ I        1256 45.41        57.3 0.22                          57.6 154 
 PAM  SN ES   1   1256 45.44                             141   -0.57 7 84.3  69 
 PAM  SN I        1256 50.47        27.2 0.58                          84.3  69 
 PTB  HZ EP       1256 33.46                             128   -0.6810  129 244 
 PTB  HN ES   1   1256 51.34                             128   -0.53 7  129 244 
 PTB  HN I        1256 54.42        20.6 0.24                           129 244 
 RUS  HZ EP   1   1256 35.92                             127    0.67 7  134 164 
 RUS  HE ES   1   1256 53.68                             127   -0.17 7  134 164 
 RUS  HZ I        1256 57.59         5.6 0.28                           134 164 
 ZAR  HZ EP       1256 38.01                             120    0.06 9  167 287 
 ZAR  HN ES   1   1256 59.54                             120    0.88 7  167 287 
 ZAR  HN I        1257  1.97        49.5 0.36                           167 287 
                                                                                
