 2010 12 8 1637 38.2 L   6.807 -73.125145.8  RSN 12 0.3 2.2LRSN                1
 GAP=179        0.67       3.7     5.8  5.9 -0.1314E+02  0.1131E+02  0.4825E+00E
 Epicentro: LOS SANTOS - SANTANDER                                             3
 ACTION:UP  11-01-14 15:23 OP:pat  STATUS:               ID:20101208163738 L   I
 2010-12-08-1637-47S.COL___135                                                 6
 STAT SP IPHASW D HRMM SECON CODA AMPLIT PERI AZIMU VELO SNR AR TRES W  DIS CAZ7
 BTL  SZ IP       1637 57.99                             172     0.210   20 308 
 BAR2 SZ EP       1637 57.81                             170     0.010   25 195 
 BAR2 SZ ES   1   1638 13.15                             170     0.0 7   25 195 
 BAR2 SZ I        1638 14.50        61.7 0.16                            25 195 
 GIR2 SZ EP       1637 57.92                             167     0.110   31 346 
 GRA  SZ EP       1638  3.56                             137     0.310  124  17 
 GRA  SZ ES   1   1638 22.22                             137    -0.7 7  124  17 
 GRA  SZ I        1638 25.15        13.6 0.12                           124  17 
 OCA  SZ EP       1638  6.26                             130    -0.2 9  160 352 
 OCA  SZ ES   2   1638 28.93                             130     0.4 5  160 352 
 OCA  SZ I        1638 32.45        17.1 0.47                           160 352 
 NOR  SZ EP   2   1638 13.64                             118    -0.5 4  237 235 
 NOR  SN ES   2   1638 41.57                             118    -0.7 4  237 235 
 CHI  HZ EP       1638 15.90                             117    -0.1 8  250 196 
 CHI  HN ES   2   1638 45.82                             117     0.3 4  250 196 
 CHI  HZ I        1638 50.56         7.4 0.52                           250 196 
 ROSC BN ES   3   1638 46.59                             116     0.2 2  255 211 
 ROSC BZ I        1638 52.75        18.7 0.18                           255 211 
 HEL  HZ EP       1638 19.07                             114     0.4 8  274 256 
 HEL  HN ES   2   1638 49.89                             114    -0.3 4  274 256 
 HEL  HZ I        1638 57.35         8.0 0.23                           274 256 
 GUY  SN ES   1   1638 56.52                             112     0.2 5  304 235 
 RREF HZ EP   2   1638 24.47                             111    -0.1 3  324 230 
 RREF HN ES   1   1639  0.67                             111    -0.1 5  324 230 
 RREF HZ I        1639  8.32        10.7 0.03                           324 230 
 PRA  HZ EP       1638 31.39                             106    -0.5 6  394 210 
                                                                                
