 2017  8 8 1409 30.4 L   6.922 -73.142123.9  RSN  5 0.5 1.4LRSN                1
 GAP=248        1.13       7.5     6.6  9.4  0.2074E+02  0.1919E+02 -0.9127E+01E
 Epicentro: PIEDECUESTA - SANTANDER                                            3
 ACTION:UPD 17-09-04 20:17 OP:rebc STATUS:               ID:20170808140930 L   I
 OLDACT:REG 17-08-08 22:02 OP:mg   STATUS:               ID:20170808140744     3
 2017-08-08-1408-00M.COL___396                                                 6
 STAT SP IPHASW D HRMM SECON CODA AMPLIT PERI AZIMU VELO AIN AR TRES W  DIS CAZ7
 BAR2 EZ IP     C 14 9 47.69                             163   -0.0910 36.7 187 
 BAR2 EZ ES       1410  1.59                             163    0.2210 36.7 187 
 BAR2 EZ I        1410  3.61         7.6 0.21            166           36.7 187 
 RUS  HZ EP       14 9 53.85                             135    0.6910  114 177 
 RUS  HE ES       1410 10.28                             135   -0.6610  114 177 
 RUS  HZ I        1410 10.96         4.1 0.26            140            114 177 
 PTB  HZ EP   2   14 9 54.51                             126   -1.50 5  151 254 
 PTB  HE ES       1410 16.20                             126    0.20 9  151 254 
 PTB  HZ I        1410 18.37         3.2 0.22            127            151 254 
 ZAR  HZ EP       1410  0.58                             118   -0.45 9  200 289 
 ZAR  HN ES       1410 25.08                             118    0.13 9  200 289 
 ZAR  HZ I        1410 34.57         3.4 0.24            118            200 289 
 NOR  HZ EP       1410  6.39                             113    0.51 8  243 232 
 NOR  HE ES       1410 33.40                             113   -0.17 8  243 232 
 NOR  HZ I        1410 37.05         2.3 0.20            115            243 232 
                                                                                
