 2016  6 8 1047 57.4 L   6.780 -73.080145.8  RSN 11 0.4 2.0LRSN                1
 GAP=126        1.05       3.0     4.1  5.4 -0.1029E+01  0.2124E+01  0.4394E+01E
 Epicentro: LOS SANTOS - SANTANDER                                             3
 ACTION:UPD 16-07-21 22:16 OP:rebc STATUS:               ID:20160608104757 L   I
 OLDACT:REG 16-06-08 21:04 OP:edw  STATUS:               ID:20160608104744     3
 2016-06-08-1047-44M.COL___328                                                 6
 STAT SP IPHASW D HRMM SECON CODA AMPLIT PERI AZIMU VELO AIN AR TRES W  DIS CAZ7
 BAR2 EZ EP       1048 17.04                             170    0.0110 23.7 208 
 BAR2 EZ ES       1048 31.71                             170   -0.6410 23.7 208 
 BAR2 EZ I        1048 33.69        20.9 0.14                          23.7 208 
 PAM  EZ EP       1048 20.00                             152    0.5510 74.8  34 
 PAM  EE ES       1048 36.92                             152    0.2610 74.8  34 
 PAM  EZ I        1048 39.22        25.0 0.50                          74.8  34 
 BRR  HZ EP       1048 19.02                             150    0.0510 78.6 297 
 BRR  HN ES       1048 35.99                             150    0.1810 78.6 297 
 BRR  HZ I        1048 37.42        17.6 0.34                          78.6 297 
 RUS  HZ EP       1048 21.53                             144    0.5610 98.2 180 
 RUS  HN ES       1048 39.89                             144    0.5310 98.2 180 
 RUS  HZ I        1048 40.81        10.5 0.26                          98.2 180 
 PTB  HZ EP       1048 24.17                             131   -0.80 9  154 260 
 PTB  HN ES       1048 45.97                             131   -0.52 9  154 260 
 PTB  HZ I        1048 49.25         7.8 0.12                           154 260 
 OCA  HZ EP       1048 26.13                             129    0.13 9  163 351 
 OCA  HE ES       1048 47.74                             129   -0.57 9  163 351 
 OCA  HZ I        1048 50.47        17.8 0.18                           163 351 
 SPBC HZ EP       1048 26.26                             129    0.08 9  166 221 
 SPBC HE ES       1048 48.88                             129    0.25 9  166 221 
 SPBC HZ I        1048 52.68        21.9 0.36                           166 221 
 CHI  HZ EP       1048 35.26                             117    0.18 8  249 197 
 CHI  HN ES       1049  4.49                             117    0.01 8  249 197 
 CHI  HZ I        1049  8.00         5.8 0.62                           249 197 
 HEL  HZ EP       1048 38.45                             114    0.13 7  279 257 
 HEL  HN ES       1049 10.71                             114    0.46 7  279 257 
 HEL  HZ I        1049 16.06         5.8 0.38                           279 257 
 PTGC HZ EP       1048 40.25                             112   -0.48 7  304 160 
 PTGC HN ES       1049 13.60                             112   -0.93 7  304 160 
 PRA  HZ EP       1048 50.96                             106   -0.15 6  394 211 
 PRA  HE ES       1049 33.12                             106    0.10 6  394 211 
 PRA  HZ I        1049 37.39         3.3 0.22                           394 211 
                                                                                
