 2015  6 8 1523 30.3 L   6.796 -73.144145.9  RSN  5 0.4 1.6LRSN                1
 GAP=252        1.00       5.5     7.8  8.1  0.1311E+02  0.2848E+02  0.1431E+02E
 Epicentro: LOS SANTOS - SANTANDER                                             3
 ACTION:UPD 15-09-10 22:10 OP:cam  STATUS:               ID:20150608152330 L   I
 OLDACT:REG 15-06-08 21:30 OP:ak   STATUS:               ID:20150608151750     3
 2015-06-08-1517-50M.COL___294                                                 6
 STAT SP IPHASW D HRMM SECON CODA AMPLIT PERI AZIMU VELO AIN AR TRES W  DIS CAZ7
 BAR2 EZ EP       1523 49.87                             171   -0.0210 22.9 191 
 BAR2 EZ ES       1524  4.98                             171   -0.2310 22.9 191 
 BAR2 EZ I        1524  6.00        10.5 0.24            170           22.9 191 
 BRR  HZ IP     C 1523 51.62                             152    0.1810 71.6 299 
 BRR  HN ES       1524  8.54                             152    0.5710 71.6 299 
 BRR  HZ I        1524  9.91         6.6 0.18            150           71.6 299 
 ZAR  HZ EP       1524  2.53                             122   -0.21 9  204 292 
 ZAR  HN ES       1524 27.31                             122   -0.77 9  204 292 
 ZAR  HZ I        1524 33.56         4.6 0.35            122            204 292 
 CHI  HN ES       1524 36.84                             117   -0.45 8  248 195 
 GUY2CHZ EP       1524 14.41                             112    0.56 7  301 235 
 GUY2CHE ES       1524 48.27                             112    0.42 7  301 235 
 GUY2CHZ I        1524 57.89         1.6 0.29                           301 235 
                                                                                
