 2013  4 8 1608 50.1 L   6.791 -73.138144.0  RSN  5 0.1 1.5LRSN                1
 GAP=188        0.35       3.5     4.1  3.3  0.1043E+02 -0.1755E+01 -0.2415E+01E
 Epicentro: LOS SANTOS - SANTANDER                                             3
 ACTION:UPD 13-05-22 14:36 OP:EP   STATUS:               ID:20130408160850 L   I
 2013-04-08-1606-39M.COL___224                                                 6
 STAT SP IPHASW D HRMM SECON CODA AMPLIT PERI AZIMU VELO AIN AR TRES W  DIS CAZ7
 BAR2 SZ EP       16 9  9.65                             171    0.1010 22.6 193 
 BAR2 SZ ES       16 9 24.72                             171    0.0410 22.6 193 
 GIR2 SZ EP       16 9  9.51                             167   -0.1310 32.4 349 
 BRR  HZ EP       16 9 11.33                             152    0.1510 72.4 299 
 BRR  HN ES   1   16 9 27.49                             152   -0.09 7 72.4 299 
 RUS  HZ EP       16 9 13.57                             144   -0.0810 99.6 177 
 RUS  HN ES   1   16 9 31.98                             144   -0.01 7 99.6 177 
 RUS  HZ I        16 9 33.57         4.5 0.36            138           99.6 177 
 ZAR  HN ES   1   16 9 47.86                             122   -0.05 6  205 292 
 ZAR  HZ I        16 9 53.29         2.9 0.22            118            205 292 
                                                                                
