 2011  7 8 1641 38.0 L   6.769 -73.083146.1  RSN 20 0.4 4.1LRSN                1
 GAP= 66        0.88       2.6     4.1  4.1 -0.4415E+01  0.2792E+01  0.2122E+01E
 Epicentro: LOS SANTOS - SANTANDER                                             3
 ACTION:UPD 12-07-25 13:59 OP:epov STATUS:               ID:20110708164137 L   I
 2011-07-08-1639-16S.COL___140                                                 6
 STAT SP IPHASW D HRMM SECON CODA AMPLIT PERI AZIMU VELO AIN AR TRES W  DIS CAZ7
 SAN  SZ EP   2   1641 58.12                             179    0.78 5 1.15 115 
 BAR2 SZ IP       1641 57.85                             171    0.2410 22.4 209 
 BAR2 SZ ES       1642 12.88                             171   -0.0610 22.4 209 
 BAR2 SZ I        1642 14.72      2343.7 0.36                          22.4 209 
 GIR2 SZ EP       1641 58.05                             165    0.2310 36.3 340 
 PAM  SZ EP       1642  0.52                             151    0.3910 76.0  34 
 PAM  SE ES   1   1642 17.15                             151   -0.27 7 76.0  34 
 BRR  HZ IP     C 1641 59.76                             150    0.1610 78.9 298 
 BRR  HZ I        1642  0.18      3431.6 0.23                          78.9 298 
 BRR  HN ES       1642 16.77                             150    0.3010 78.9 298 
 RUS  HZ IP     C 1642  1.69                             145    0.2010 96.9 180 
 RUS  HN ES       1642 19.73                             145   -0.1010 96.9 180 
 RUS  HZ I        1642 21.83      1259.3 0.42                          96.9 180 
 BRI  SZ IP       1642  2.39                             141    0.4310  109  17 
 BRI  SZ ES       1642 20.09                             141   -0.5910  109  17 
 BRI  SZ I        1642 26.05      1265.2 0.46                           109  17 
 GRA  SZ IP       1642  3.67                             137    0.3210  127  14 
 GRA  SZ ES       1642 22.95                             137   -0.2010  127  14 
 GRA  SZ I        1642 24.39      2414.1 0.39                           127  14 
 OCA  SZ EP       1642  6.38                             129   -0.33 9  165 351 
 OCA  SZ ES   1   1642 28.50                             129   -0.63 7  165 351 
 OCA  SZ I        1642 34.42      1971.0 0.33                           165 351 
 NOR  SZ EP       1642 13.58                             118   -0.53 8  238 236 
 NOR  SE ES   1   1642 41.88                             118   -0.43 6  238 236 
 CHI  HZ EP       1642 15.49                             117   -0.04 8  247 197 
 CHI  HN ES   1   1642 44.66                             117   -0.17 6  247 197 
 CHI  HZ I        1642 55.17       436.7 0.41                           247 197 
 ROSC BZ EP       1642 17.03                             117    0.85 8  254 213 
 ROSC BZ I        1642 55.09      1125.6 0.51                           254 213 
 HEL  HZ EP       1642 19.39                             114    0.54 7  278 257 
 HEL  HN ES   1   1642 50.59                             114   -0.15 6  278 257 
 VIL  SZ EP   1   1642 20.69                             112   -0.49 5  302 193 
 VIL  SN ES   2   1642 54.76                             112   -0.14 4  302 193 
 VIL  SZ I        1643  1.41       305.9 0.51                           302 193 
 TOL  SZ EP   1   1642 27.12                             109    0.60 5  346 226 
 DBB  SZ EP       1642 25.76                             109   -0.52 6  347 275 
 SDV  BZ EP       1642 27.09                             108   -0.57 6  357  49 
 PRA  HZ EP       1642 31.38                             106   -0.17 6  393 211 
 PRA  HE ES   1   1643 12.68                             106   -0.68 4  393 211 
 SJA  SZ EP       1642 31.35                             106   -0.98 6  398 194 
 SJA  SZ I        1643 27.41       484.5 0.48                           398 194 
 MARA HZ EP   2   1642 48.84                             101   -0.31 2  538 216 
                                                                                
