 2013  8 8 1158 54.9 L   6.740 -73.205141.2  RSN  4 0.2 1.8LRSN                1
 GAP=225        0.47       4.5     4.5  4.9  0.9601E+01  0.2200E+01 -0.4594E+00E
 Epicentro: VILLANUEVA - SANTANDER                                             3
 ACTION:UPD 14-01-14 09:00 OP:ep   STATUS:               ID:20130808115854 L   I
 OLDACT:UP  13-08-08 18:08 OP:mh   STATUS:               ID:20130808115748     3
 OLDACT:REG 13-08-08 16:46 OP:mh   STATUS:               ID:20130808115748     3
 2013-08-08-1157-48M.COL___223                                                 6
 STAT SP IPHASW D HRMM SECON CODA AMPLIT PERI AZIMU VELO AIN AR TRES W  DIS CAZ7
 BAR2 SZ EP   1   1159 13.52                             173   -0.36 7 16.6 171 
 BAR2 SZ ES   1   1159 28.65                             173   -0.01 7 16.6 171 
 BAR2 SZ I        1159 30.05        12.8 0.42            165           16.6 171 
 BRR  HZ EP       1159 15.75                             152    0.2910 69.1 306 
 BRR  HN ES   1   1159 31.38                             152   -0.10 7 69.1 306 
 BRR  HN I        1159 33.39        18.4 0.26            150           69.1 306 
 RUS  HZ EP   1   1159 17.77                             145   -0.03 7 94.7 172 
 RUS  HN ES   1   1159 35.79                             145    0.15 7 94.7 172 
 RUS  HN I        1159 38.13        16.0 0.32            142           94.7 172 
 PTB  HZ EP   1   1159 20.68                             133   -0.14 7  140 261 
 PTB  HN ES   1   1159 40.99                             133   -0.04 7  140 261 
 PTB  HN I        1159 47.05         6.3 0.34            130            140 261 
                                                                                
