 2011  8 8 1721 59.5 L   6.721 -73.260142.7  RSN  4 0.3 2.0LRSN                1
 GAP=198        0.64       5.7     5.7  8.6  0.1858E+01  0.6092E+01  0.2054E+02E
 Epicentro: GALAN - SANTANDER                                                  3
 ACTION:UPD 12-07-13 15:50 OP:ep   STATUS:               ID:20110808172159 L   I
 2011-08-08-1720-00M.COL___144                                                 6
 STAT SP IPHASW D HRMM SECON CODA AMPLIT PERI AZIMU VELO AIN AR TRES W  DIS CAZ7
 BAR2 SZ EP       1722 18.40                             173   -0.2710 16.6 149 
 BRR  HZ EP       1722 19.81                             154   -0.2310 65.7 311 
 BRR  HE ES   1   1722 36.43                             154    0.39 7 65.7 311 
 BRR  HZ I        1722 37.67        46.7 0.14                          65.7 311 
 RUS  HZ EP       1722 22.79                             145    0.3010 93.7 168 
 RUS  HN ES   2   1722 40.22                             145   -0.17 5 93.7 168 
 RUS  HZ I        1722 42.41         6.4 0.42                          93.7 168 
 NOR  SZ EP       1722 33.64                             120    0.20 8  219 234 
 NOR  SN ES   1   1722 59.61                             120   -0.28 6  219 234 
                                                                                
