 2013 12 8 1853 10.0 L   6.704 -73.203149.8  RSN  6 0.4 1.5LRSN                1
 GAP=221        0.91       9.2     6.6  7.9  0.1726E+02  0.7683E+01  0.3388E+02E
 Epicentro: VILLANUEVA - SANTANDER                                             3
 ACTION:UPD 14-01-13 10:16 OP:ep   STATUS:               ID:20131208185310 L   I
 OLDACT:REG 13-12-08 14:33 OP:cam  STATUS:               ID:20131208185000     3
 2013-12-08-1850-00M.COL___285                                                 6
 STAT SP IPHASW D HRMM SECON CODA AMPLIT PERI AZIMU VELO AIN AR TRES W  DIS CAZ7
 BAR2 SZ EP       1853 29.47                             175   -0.4610 12.6 170 
 BAR2 SZ ES       1853 45.56                             175    0.0710 12.6 170 
 BAR2 SZ I        1853 45.65        12.5 0.10            173           12.6 170 
 BRR  HZ EP       1853 31.68                             153    0.0810 71.8 308 
 BRR  HN ES       1853 48.77                             153    0.3110 71.8 308 
 PAM  SZ I        1853 50.44         3.1 0.22            150           89.6  38 
 RUS  HZ EP       1853 33.32                             147   -0.1310 90.7 172 
 PTB  HZ EP       1853 36.44                             135   -0.14 9  140 263 
 PTB  HN ES       1853 56.93                             135   -0.39 9  140 263 
 SPBC HZ EP       1853 38.37                             132    0.70 9  151 220 
                                                                                
