 2014  3 8 1803  3.8 L   6.813 -73.151147.2  RSN  5 0.5 1.5LRSN                1
 GAP=135        1.24       6.9     6.4 10.8 -0.4846E+01  0.4511E+01  0.1188E+02E
 Epicentro: LOS SANTOS - SANTANDER                                             3
 ACTION:UPD 14-04-09 23:15 OP:nd   STATUS:               ID:20140308180303 L   I
 OLDACT:DUP 14-03-08 20:25 OP:stll STATUS:               ID:20140308175818d    3
 2014-03-08-1758-17M.COL___228                                                 6
 STAT SP IPHASW D HRMM SECON CODA AMPLIT PERI AZIMU VELO AIN AR TRES W  DIS CAZ7
 BAR2 SZ EP       18 3 23.35                             170   -0.2510 24.6 188 
 BAR2 SZ I        18 3 24.52         9.3 0.34            170           24.6 188 
 BRR  HZ EP       18 3 25.38                             153    0.3810 70.0 298 
 BRR  HZ I        18 3 30.86         8.8 0.50            148           70.0 298 
 BRR  HN ES       18 3 42.33                             153    0.7610 70.0 298 
 PAM  SZ EP       18 3 26.47                             151    0.3810 76.7  41 
 PAM  SN ES       18 3 42.79                             151   -0.7210 76.7  41 
 RUS  HZ EP       18 3 27.84                             144    0.0810  102 176 
 RUS  HZ I        18 3 28.62         2.2 0.22            143            102 176 
 RUS  HN ES       18 3 46.70                             144    0.2210  102 176 
 PTB  HZ EP       18 3 30.54                             132   -0.28 9  147 258 
 PTB  HN ES       18 3 51.25                             132   -0.68 9  147 258 
 PTB  HZ I        18 3 55.39         3.5 0.18            129            147 258 
                                                                                
