 2013 10 8 1802 53.0 L   6.823 -73.151149.7  RSN 10 0.4 2.3LRSN                1
 GAP=213        1.08       4.1     6.9  6.7  0.1440E+01  0.4568E+01 -0.5209E+00E
 Epicentro: LOS SANTOS - SANTANDER                                             3
 ACTION:UPD 13-11-25 09:20 OP:ep   STATUS:               ID:20131008180253 L   I
 OLDACT:REG 13-10-08 15:42 OP:nd   STATUS:               ID:20131008175959     3
 2013-10-08-1759-59M.COL___273                                                 6
 STAT SP IPHASW D HRMM SECON CODA AMPLIT PERI AZIMU VELO AIN AR TRES W  DIS CAZ7
 BAR2 SZ EP       18 3 13.00                             170   -0.1310 25.8 188 
 BAR2 SZ ES       18 3 28.28                             170   -0.5710 25.8 188 
 BAR2 SZ I        18 3 29.91        51.5 0.42            166           25.8 188 
 BRR  HZ EP       18 3 15.02                             154    0.5610 69.5 297 
 BRR  HN ES       18 3 31.78                             154    0.5710 69.5 297 
 BRR  HZ I        18 3 39.46        20.1 0.38            149           69.5 297 
 PTB  HZ EP       18 3 19.59                             133   -0.68 9  148 258 
 PTB  HN ES       18 3 40.99                             133   -0.56 9  148 258 
 PTB  HZ I        18 3 45.66        25.1 0.26            131            148 258 
 SPBC HZ EP       18 3 21.98                             130    0.04 9  165 218 
 SPBC HN ES       18 3 45.32                             130    0.80 9  165 218 
 SPBC HZ I        18 3 49.39        19.7 0.48            130            165 218 
 ZAR  HZ EP       18 3 25.56                             123    0.03 9  203 292 
 ZAR  HN ES       18 3 50.72                             123   -0.20 9  203 292 
 ZAR  HZ I        18 3 57.96        25.3 0.36            123            203 292 
 SML  HZ EP       18 3 29.49                             119   -0.06 8  241 335 
 SML  HN ES       18 3 58.22                             119    0.14 8  241 335 
 SML  HZ I        18 4  1.54        19.5 0.08            120            241 335 
 HEL  HZ EP   4   18 3 34.46                             115    1.06 0  272 255 
 HEL  HN ES   4   18 4  5.25                             115    0.32 0  272 255 
 HEL  HZ I        18 4 11.33         8.4 0.30            116            272 255 
 GUY2CHZ EP   4   18 3 39.01                             113    2.12 0  302 234 
 GUY2CHN ES   4   18 4 14.20                             113    3.07 0  302 234 
 GUY2CHZ I        18 4 18.90         7.9 0.52                           302 234 
 PRA  HZ EP       18 3 46.95                             107    0.08 6  394 209 
 PRA  HN ES       18 4 28.90                             107    0.00 6  394 209 
 PRA  HZ I        18 4 32.09         6.9 0.66            109            394 209 
 SJC  HZ EP   4   18 3 46.93                             106   -1.46 0  407 327 
 SJC  HN ES   4   18 4 29.31                             106   -2.29 0  407 327 
 SJC  HZ I        18 4 33.40         2.3 0.40            108            407 327 
                                                                                
