 2013 12 8 1736 11.2 L   6.746 -73.153144.6  RSN  7 0.4 1.6LRSN                1
 GAP=138        1.04       5.3     4.7  7.6  0.9635E+00  0.7692E+01 -0.3791E+01E
 Epicentro: JORDAN - SANTANDER                                                 3
 ACTION:UPD 14-01-13 10:16 OP:ep   STATUS:               ID:20131208173611 L   I
 OLDACT:UP  13-12-08 16:58 OP:cam  STATUS:               ID:20131208173000     3
 OLDACT:UP  13-12-08 16:58 OP:cam  STATUS:               ID:20131208173000     3
 OLDACT:REG 13-12-08 14:31 OP:cam  STATUS:               ID:20131208173000     3
 2013-12-08-1730-00M.COL___285                                                 6
 STAT SP IPHASW D HRMM SECON CODA AMPLIT PERI AZIMU VELO AIN AR TRES W  DIS CAZ7
 BAR2 SZ EP       1736 30.71                             173    0.1010 17.4 191 
 BAR2 SZ ES       1736 45.35                             173   -0.3910 17.4 191 
 BAR2 SZ I        1736 46.78        11.8 0.20            174           17.4 191 
 BRR  HZ IP     C 1736 32.61                             151    0.2210 73.6 303 
 BRR  HE ES       1736 49.46                             151    0.5610 73.6 303 
 BRR  HZ I        1736 53.44         6.8 0.52            150           73.6 303 
 PAM  SZ EP       1736 33.74                             149    0.1010 82.5  37 
 PAM  SN ES       1736 50.72                             149   -0.4010 82.5  37 
 PAM  SZ I        1736 53.29         3.7 0.40            151           82.5  37 
 RUS  HZ EP   1   1736 34.70                             145    0.25 7 94.7 175 
 RUS  HE ES       1736 52.96                             145    0.3910 94.7 175 
 RUS  HZ I        1736 53.88         5.0 0.24            149           94.7 175 
 PTB  HZ EP       1736 37.53                             132   -0.41 9  146 261 
 PTB  HN ES       1736 58.01                             132   -0.76 9  146 261 
 PTB  HZ I        1737  0.76         4.9 0.30            133            146 261 
 ZAR  HN ES       1737  9.65                             122    0.51 8  206 294 
 ZAR  HZ I        1737 14.42         5.4 0.50            123            206 294 
 SML  HZ EP   2   1736 47.81                             117   -0.53 4  249 336 
 SML  HN ES   4   1737 15.54                             117   -1.75 0  249 336 
                                                                                
