 2014  1 8 1101 15.0 L   6.805 -73.164149.1  RSN  6 0.2 1.3LRSN                1
 GAP=199        0.60       3.0     3.8  4.4  0.5221E+01  0.1098E+01 -0.3671E+01E
 Epicentro: LOS SANTOS - SANTANDER                                             3
 ACTION:UPD 14-03-13 09:52 OP:ep   STATUS:               ID:20140108110115 L   I
 OLDACT:REG 14-01-08 14:50 OP:stll STATUS:               ID:20140108105811     3
 2014-01-08-1058-11M.COL___225                                                 6
 STAT SP IPHASW D HRMM SECON CODA AMPLIT PERI AZIMU VELO AIN AR TRES W  DIS CAZ7
 BAR2 SZ EP       11 1 35.02                             171    0.0110 23.6 185 
 BAR2 SZ ES       11 1 50.88                             171    0.2410 23.6 185 
 BAR2 SZ I        11 1 51.15         7.5 0.40            170           23.6 185 
 RUS  HZ EP       11 1 38.95                             144   -0.1510  101 175 
 RUS  HE ES       11 1 57.86                             144   -0.0710  101 175 
 RUS  HZ I        11 1 58.73         1.5 0.24            145            101 175 
 PTB  HZ EP       11 1 42.08                             133    0.03 9  146 258 
 PTB  HN ES       11 2  2.82                             133   -0.35 9  146 258 
 PTB  HZ I        11 2  4.58         1.6 0.12            132            146 258 
 ZAR  HZ EP       11 1 47.93                             123    0.50 9  202 292 
 ZAR  HN ES       11 2 12.96                             123    0.22 9  202 292 
 ZAR  HZ I        11 2 19.15         2.3 0.12            123            202 292 
 SML  HZ EP       11 1 51.59                             118   -0.05 8  242 336 
 SML  HN ES       11 2 19.88                             118   -0.36 8  242 336 
 CHI  HZ EP       11 1 52.84                             118   -0.02 8  249 195 
                                                                                
