 2014 12 8 1010 42.1 L   6.862 -73.213133.8  RSN  8 0.4 1.3LRSN                1
 GAP=125        1.06       4.4     4.5  7.8  0.6299E+00  0.1127E+02 -0.5156E+01E
 Epicentro: ZAPATOCA - SANTANDER                                               3
 ACTION:UPD 15-02-10 17:01 OP:nd   STATUS:               ID:20141208101042 L   I
 OLDACT:REG 14-12-08 20:17 OP:fm   STATUS:               ID:20141208100745     3
 2014-12-08-1007-45M.COL___309                                                 6
 STAT SP IPHASW D HRMM SECON CODA AMPLIT PERI AZIMU VELO AIN AR TRES W  DIS CAZ7
 BAR2 SZ EP       1011  0.34                             167   -0.0910 30.0 174 
 BAR2 SZ ES       1011 15.26                             167    0.5110 30.0 174 
 BAR2 SZ I        1011 16.95         3.9 0.34            174           30.0 174 
 BRR  HZ EP       1011  2.17                             154    0.7910 61.5 296 
 BRR  HE ES       1011 15.95                             154   -0.4910 61.5 296 
 BRR  HZ I        1011 23.71         2.7 0.24            150           61.5 296 
 PAM  SZ EP       1011  3.00                             148   -0.0310 77.5  47 
 PAM  SN ES       1011 19.47                             148    0.0910 77.5  47 
 PAM  SZ I        1011 22.54         3.0 0.30            150           77.5  47 
 RUS  HN ES       1011 22.73                             139   -0.6110  108 172 
 PTB  HZ EP       1011  7.20                             130   -0.35 9  142 256 
 PTB  HE ES       1011 27.66                             130    0.24 9  142 256 
 PTB  HZ I        1011 29.53         1.6 0.12            133            142 256 
 ZAR  HN ES       1011 36.87                             121    0.16 9  195 291 
 ZAR  HZ I        1011 44.37         2.4 0.30            122            195 291 
 SML  HN ES       1011 43.84                             116   -0.45 8  234 336 
 SML  HZ I        1011 52.58         3.2 0.10            117            234 336 
 GUY2CHZ EP   1   1011 25.22                             110    0.30 5  299 233 
                                                                                
