 2011  1 8 1812 37.7 L   6.786 -73.200141.2  RSN  9 0.3 2.0LRSN                1
 GAP=132        0.58       2.8     5.2  5.5 -0.5731E+01  0.9315E+01  0.4259E+00E
 Epicentro: ZAPATOCA - SANTANDER                                               3
 ACTION:UP  11-02-08 08:39 OP:pat  STATUS:               ID:20110108181237 L   I
 2011-01-08-1811-44S.COL___135                                                 6
 STAT SP IPHASW D HRMM SECON CODA AMPLIT PERI AZIMU VELO SNR AR TRES W  DIS CAZ7
 BTL  SZ EP       1812 57.05                             173     0.410   16 333 
 BAR2 SZ EP   1   1812 56.76                             171     0.0 7   22 175 
 BAR2 SZ ES   1   1813 11.35                             171    -0.2 7   22 175 
 BAR2 SZ I        1813 13.42        46.3 0.17                            22 175 
 GIR2 SZ EP   1   1812 56.93                             166     0.1 7   32   1 
 RUS  HZ EP   1   1813  0.70                             143    -0.2 7  100 173 
 RUS  HN ES   1   1813 19.32                             143     0.3 7  100 173 
 RUS  HZ I        1813 20.74        12.1 0.26                           100 173 
 GRA  SZ EP   1   1813  2.53                             135    -0.3 7  129  20 
 GRA  SZ ES   1   1813 22.20                             135    -0.2 7  129  20 
 GRA  SZ I        1813 23.27        12.8 0.39                           129  20 
 YOP  SZ EP   2   1813  7.10                             125    -0.5 4  180 151 
 YOP  SN ES   2   1813 30.75                             125    -0.1 4  180 151 
 YOP  SZ I        1813 32.10        10.9 0.23                           180 151 
 NOR  SZ EP   1   1813 12.85                             118     0.3 6  229 234 
 NOR  SN ES   1   1813 39.34                             118    -0.4 6  229 234 
 CHI  HZ EP   1   1813 14.87                             116     0.1 6  246 194 
 CHI  HN ES   1   1813 43.83                             116     0.1 6  246 194 
 CHI  HZ I        1813 54.38         7.1 0.56                           246 194 
 PRA  HZ EP   2   1813 30.93                             106     0.4 3  388 209 
 PRA  HN ES   2   1814 11.16                             106    -0.6 3  388 209 
                                                                                
