 2010  7 8 1528 57.7 L   6.789 -73.078140.4  RSN 10 0.3 1.9LRSN                1
 GAP=163        0.68       3.2     7.4  5.8 -0.1066E+02  0.3395E+01 -0.2051E+01E
 Epicentro: LOS SANTOS - SANTANDER                                             3
 ACTION:UPD 10-12-01 15:16 OP:pat  STATUS:               ID:20100708152857 L   I
 2010-07-08-1526-00S.COL___117                                                 6
 STAT SP IPHASW D HRMM SECON CODA AMPLIT PERI AZIMU VELO AIN AR TRES W  DIS CAZ7
 BAR2 SZ EP       1529 16.56                             170    -0.210   25 208 
 BAR2 SZ ES   1   1529 31.32                             170    -0.2 7   25 208 
 BAR2 SZ I        1529 34.28        21.1 0.40                            25 208 
 BRR  HZ EP   1   1529 18.35                             149    -0.4 7   78 297 
 BRR  HE ES   2   1529 35.28                             149     0.2 5   78 297 
 BRR  HZ I        1529 40.04        14.7 0.23                            78 297 
 RUS  HZ EP   1   1529 20.56                             143    -0.3 7   99 180 
 RUS  HE ES   1   1529 39.33                             143     0.5 7   99 180 
 RUS  HZ I        1529 40.25         8.2 0.44                            99 180 
 BRI  SZ EP   1   1529 21.07                             141     0.1 7  107  17 
 BRI  SZ ES   2   1529 38.87                             141    -0.3 5  107  17 
 BRI  SZ I        1529 45.23        10.9 0.47                           107  17 
 GUE  SZ EP       1529 22.37                             138     0.510  116   8 
 GUE  SZ I        1529 43.77         3.8 0.19                           116   8 
 GRA  SZ EP       1529 22.18                             136    -0.210  125  14 
 GRA  SZ ES   2   1529 42.03                             136     0.4 5  125  14 
 GRA  SZ I        1529 44.66        18.3 0.29                           125  14 
 OCA  SZ EP   2   1529 25.65                             128    -0.2 5  163 351 
 OCA  SZ ES   2   1529 47.91                             128     0.2 5  163 351 
 OCA  SZ I        1529 52.52        16.4 0.23                           163 351 
 CHI  HZ EP   2   1529 34.77                             116    -0.4 4  249 197 
 CHI  HZ I        1529 37.59         3.9 0.19                           249 197 
 CHI  HN ES   2   1530  4.59                             116     0.1 4  249 197 
 RREF HZ EP   2   1529 44.67                             110     0.5 3  327 230 
 RREF HE ES   2   1530 20.99                             110     0.6 3  327 230 
 RREF HZ I        1530 26.35         5.8 0.25                           327 230 
 PRA  HZ EP   2   1529 51.62                             105     0.3 3  395 211 
 PRA  HN ES   2   1530 32.62                             105    -0.6 3  395 211 
 PRA  HZ I        1530 36.78         4.3 0.78                           395 211 
                                                                                
