 2013  8 8 1637 49.1 L   6.741 -73.141137.4  RSN  6 0.4 1.8LRSN                1
 GAP=140        0.70       5.7     4.4 10.4  0.2846E+01  0.3706E+01  0.3899E+01E
 Epicentro: JORDAN - SANTANDER                                                 3
 ACTION:UPD 14-01-14 09:00 OP:ep   STATUS:               ID:20130808163749 L   I
 OLDACT:REG 13-08-08 16:14 OP:mh   STATUS:               ID:20130808162959     3
 2013-08-08-1629-59M.COL___269                                                 6
 STAT SP IPHASW D HRMM SECON CODA AMPLIT PERI AZIMU VELO AIN AR TRES W  DIS CAZ7
 BAR2 SZ EP       1638  7.46                             173   -0.1510 17.1 195 
 BRR  HZ EP   1   1638  9.80                             150    0.22 7 74.9 303 
 BRR  HN ES   2   1638 25.35                             150   -0.20 5 74.9 303 
 BRR  HN I        1638 27.23        21.6 0.24            151           74.9 303 
 PAM  SZ EP   1   1638 10.77                             148    0.02 7 82.2  36 
 PAM  SN ES   2   1638 27.46                             148   -0.17 5 82.2  36 
 PAM  SN I        1638 29.71         8.1 0.48            154           82.2  36 
 RUS  HZ EP   1   1638 12.02                             144    0.46 7 94.1 176 
 RUS  HN ES   2   1638 29.29                             144    0.21 5 94.1 176 
 RUS  HN I        1638 32.25         3.0 0.32            147           94.1 176 
 PTB  HZ EP   1   1638 14.58                             130   -0.76 7  147 261 
 PTB  HN ES   1   1638 35.68                             130   -0.13 7  147 261 
 PTB  HN I        1638 40.98        10.0 0.30            132            147 261 
 ZAR  HE ES   1   1638 47.06                             120    0.59 6  207 294 
 ZAR  HE I        1638 51.94        16.3 0.20            123            207 294 
                                                                                
