 2015  3 8 1004 35.0 L   6.793 -73.128139.4  RSN 12 0.5 1.7LRSN                1
 GAP=139        1.21       3.0     4.9  6.1 -0.1031E+01  0.7628E+01  0.8223E+00E
 Epicentro: LOS SANTOS - SANTANDER                                             3
 ACTION:UPD 15-04-30 16:24 OP:nd   STATUS:               ID:20150308100435 L   I
 OLDACT:UP  15-03-08 23:17 OP:carl STATUS:               ID:20150308095749     3
 OLDACT:REG 15-03-08 22:36 OP:carl STATUS:               ID:20150308095749     3
 2015-03-08-0957-49M.COL___287                                                 6
 STAT SP IPHASW D HRMM SECON CODA AMPLIT PERI AZIMU VELO AIN AR TRES W  DIS CAZ7
 BAR2 EZ EP       10 4 54.03                             170    0.2210 23.0 195 
 BAR2 EZ ES       10 5  8.28                             170   -0.2410 23.0 195 
 BAR2 EZ I        10 5  9.76        10.9 0.24            167           23.0 195 
 BRR  HZ EP       10 4 56.05                             151    0.5110 73.3 298 
 BRR  HN ES       10 5 12.72                             151    1.1210 73.3 298 
 BRR  HZ I        10 5 17.14        13.7 0.14            147           73.3 298 
 PAM  SZ EP       10 4 56.99                             150    0.5310 76.8  38 
 PAM  SN ES       10 5 12.78                             150   -0.4510 76.8  38 
 PAM  SZ I        10 5 15.79         5.0 0.28            154           76.8  38 
 RUS  HZ EP       10 4 58.24                             143    0.2210 99.7 177 
 RUS  HN ES       10 5 15.69                             143   -0.3210 99.7 177 
 RUS  HZ I        10 5 17.38         5.6 0.26            145           99.7 177 
 PTB  HZ EP       10 5  1.48                             130   -0.09 9  150 259 
 PTB  HN ES       10 5 21.74                             130   -0.60 9  150 259 
 PTB  HZ I        10 5 25.11         5.3 0.24            129            150 259 
 OCA  HZ EP       10 5  3.41                             128    0.54 9  161 352 
 OCA  HN ES       10 5 24.36                             128   -0.29 9  161 352 
 OCA  HZ I        10 5 26.96         6.5 0.26            129            161 352 
 SPBC HZ EP       10 5  3.06                             127    0.02 9  164 220 
 SPBC HN ES       10 5 24.73                             127   -0.21 9  164 220 
 SPBC HZ I        10 5 33.80         7.3 0.22            127            164 220 
 ZAR  HZ EP     D 10 5  7.25                             121    0.04 8  206 292 
 ZAR  HN ES       10 5 32.66                             121    0.29 8  206 292 
 ZAR  HZ I        10 5 38.70         9.2 0.56            120            206 292 
 SML  HZ EP       10 5 10.52                             116   -0.88 8  245 335 
 SML  HN ES       10 5 38.66                             116   -1.16 8  245 335 
 SML  HZ I        10 5 49.44         7.4 0.10            117            245 335 
 CHI  HZ EP       10 5 12.25                             116   -0.03 8  248 196 
 CHI  HN ES       10 5 41.10                             116   -0.30 8  248 196 
 CHI  HZ I        10 5 44.79         1.8 0.30            117            248 196 
 HEL  HZ EP       10 5 15.52                             113    0.48 8  274 256 
 HEL  HN ES   4   10 5 45.37                             113   -0.94 0  274 256 
 HEL  HZ I        10 5 53.54         2.3 0.44            114            274 256 
 MON  HZ EP   4   10 5 21.95                             107   -2.00 0  356 308 
 MON  HN ES   4   10 6  0.85                             107   -1.31 0  356 308 
 PRA  HZ EP       10 5 28.34                             105    0.04 6  392 210 
 PRA  HN ES       10 6  9.70                             105   -0.21 6  392 210 
 PRA  HZ I        10 6 18.58         1.9 0.50            106            392 210 
                                                                                
