 2012  1 8 1842 54.0 L   6.800 -73.156144.1  RSN 20 0.4 2.9LRSN                1
 GAP=113        0.95       3.5     4.2  5.5 -0.1006E+01  0.6367E+01  0.5181E+01E
 Epicentro: LOS SANTOS - SANTANDER                                             3
 ACTION:UP  12-02-03 08:15 OP:REBC STATUS:               ID:20120108184254 L   I
 2012-01-08-1840-00M.COL___186                                                 6
 STAT SP IPHASW D HRMM SECON CODA AMPLIT PERI AZIMU VELO SNR AR TRES W  DIS CAZ7
 BAR2 SZ IP       1843 13.47                             170     0.110   23 187 
 BAR2 SZ I        1843 13.78       192.0 0.10                            23 187 
 BAR2 SZ ES   1   1843 28.22                             170    -0.3 7   23 187 
 GIR2 SZ IP       1843 13.44                             167     0.010   31 352 
 BRR  HZ IP     C 1843 15.26                             153     0.410   70 299 
 BRR  HZ I        1843 15.51       268.8 0.30                            70 299 
 BRR  HN ES   1   1843 32.18                             153     1.0 7   70 299 
 PAM  SZ IP       1843 16.20                             150     0.210   78  40 
 PAM  SN ES   1   1843 33.11                             150    -0.2 7   78  40 
 RUS  HZ IP     C 1843 17.53                             143     0.010  101 175 
 RUS  HZ I        1843 18.69        88.7 0.18                           101 175 
 RUS  HN ES   1   1843 35.37                             143    -0.6 7  101 175 
 PTB  HZ EP       1843 20.08                             132    -0.6 9  147 259 
 PTB  HN ES   1   1843 41.30                             132    -0.2 7  147 259 
 PTB  HZ I        1843 47.01        94.8 0.34                           147 259 
 OCA  SZ EP       1843 21.44                             129    -0.7 9  160 354 
 OCA  SZ I        1843 47.63        71.8 0.23                           160 354 
 YOP  SZ EP       1843 24.29                             126     0.3 9  179 153 
 YOP  SN ES   2   1843 47.98                             126     0.7 4  179 153 
 YOP  SZ I        1843 51.24        46.3 0.28                           179 153 
 ZAR  HZ EP       1843 26.04                             122    -0.2 9  203 292 
 ZAR  HZ I        1843 57.01       172.7 0.50                           203 292 
 NOR  SZ EP       1843 29.57                             118     0.1 8  234 234 
 NOR  SN ES   1   1843 57.62                             118     0.4 6  234 234 
 CHI  HZ EP       1843 31.77                             117     0.2 8  248 195 
 CHI  HN ES   2   1844  0.10                             117    -0.8 4  248 195 
 CHI  HZ I        1844  6.29        34.4 0.30                           248 195 
 HEL  HZ EP       1843 34.21                             115     0.2 8  271 256 
 HEL  HE ES   3   1844  4.76                             115    -0.4 2  271 256 
 HEL  HZ I        1844 11.88        66.3 0.34                           271 256 
 VIL  SZ EP       1843 37.46                             112     0.2 7  303 191 
 VIL  SN ES   2   1844 10.86                             112    -0.2 4  303 191 
 VIL  SZ I        1844 18.35        22.7 0.36                           303 191 
 GUY  SZ EP       1843 37.82                             112     0.2 7  303 235 
 GUY  SZ I        1844 23.38        41.6 0.36                           303 235 
 RREF HE ES   2   1844 15.35                             111    -0.5 3  321 229 
 TOL  SZ EP       1843 42.40                             109     0.3 7  343 225 
 ANIL HZ EP   2   1843 44.45                             108     0.8 3  357 224 
 ANIL HZ I        1844 29.73        63.8 0.30                           357 224 
 PRA  HZ EP       1843 46.80                             106    -0.6 6  391 209 
 PRA  HN ES   1   1844 29.26                             106     0.2 4  391 209 
 SJA  SZ EP   2   1843 47.74                             106    -0.7 3  400 193 
 SJA  SZ I        1844 30.20        38.1 0.42                           400 193 
 YOT  HZ EP   1   1843 56.49                             103    -0.4 4  471 229 
 YOT  HZ I        1845  0.23         6.3 0.68                           471 229 
                                                                                
