 2013  1 8 1003 11.3 L   6.771 -73.199150.6  RSN  7 0.4 2.2LRSN 2.9WRSN        1
 SPEC AVERAGE  MO 13.5 ST  6.9 OM  2.3 f0 4.24 R0.3922 AL 2.13 WI 24.3 MW  2.9 3
 SPEC SD       MO  0.2 ST  9.8 OM  0.5 f0 1.52 R0.1372 AL      WI      MW  0.1 3
 GAP=179        1.10       5.3     5.7  7.3 -0.3741E+01  0.4409E+01  0.2224E+01E
 Epicentro: VILLANUEVA - SANTANDER                                             3
 SPEC ZAR HH N MO 13.8 ST 26.3 OM  2.0 f0 6.88 R0.2137 AL 3.08 WI 24.3 MW  3.1 3
 SPEC ZAR HH N T10 4 8 K 0.000 GD  250 VS 4.20 DE 3.00 Q0230.0 QA 0.60 VS 4.20 3
 SPEC PTB HH N MO 13.4 ST  1.8 OM  1.7 f0 3.76 R0.3910 AL 1.67 WI 12.4 MW  2.9 3
 SPEC PTB HH N T10 359 K 0.000 GD  206 VS 4.20 DE 3.00 Q0230.0 QA 0.60 VS 4.20 3
 SPEC HEL HH E MO 13.3 ST0.317 OM  1.4 f0 2.34 R0.6282 AL 1.12 WI 38.3 MW  2.8 3
 SPEC HEL HH E T10 418 K 0.000 GD  305 VS 4.20 DE 3.00 Q0230.0 QA 0.60 VS 4.20 3
 SPEC OCA HH N MO 13.6 ST  2.5 OM  1.9 f0 3.55 R0.4141 AL 1.82 WI 28.3 MW  3.0 3
 SPEC OCA HH N T10 4 1 K 0.000 GD  221 VS 4.20 DE 3.00 Q0230.0 QA 0.60 VS 4.20 3
 SPEC BRR HH N MO 13.4 ST  3.4 OM  1.8 f0 4.68 R0.3141 AL 2.95 WI 18.2 MW  2.9 3
 SPEC BRR HH N T10 350 K 0.000 GD  165 VS 4.20 DE 3.00 Q0230.0 QA 0.60 VS 4.20 3
 ACTION:UPD 13-02-15 09:12 OP:ep   STATUS:               ID:20130108100311 L   I
 2013-01-08-1000-00M.COL___242                                                 6
 STAT SP IPHASW D HRMM SECON CODA AMPLIT PERI AZIMU VELO AIN AR TRES W  DIS CAZ7
 BAR2 SZ EP       10 3 31.25                             172   -0.2510 19.8 175 
 BAR2 SZ ES       10 3 46.86                             172   -0.3510 19.8 175 
 BAR2 SZ I        10 3 48.04        29.3 0.42            153           19.8 175 
 BRR  HZ EP       10 3 33.16                             154    0.3210 67.8 303 
 BRR  HZ I        10 3 33.35        14.5 0.26            152           67.8 303 
 BRR  HN ES       10 3 50.51                             154    0.9110 67.8 303 
 PTB  HZ EP       10 3 37.75                             134   -0.40 9  141 260 
 PTB  HE ES       10 3 58.95                             134   -0.11 9  141 260 
 PTB  HN I        10 4  4.85        29.1 0.44            121            141 260 
 OCA  HZ EP       10 3 40.30                             130    0.02 9  163 355 
 OCA  HN ES       10 4  2.26                             130   -0.59 9  163 355 
 OCA  HN I        10 4  5.45        34.4 0.20            122            163 355 
 ZAR  HZ EP       10 3 43.93                             124    0.24 9  200 294 
 ZAR  HE ES       10 4  9.12                             124    0.21 9  200 294 
 ZAR  HN I        10 4 15.46        27.9 0.28            113            200 294 
 CHI  HZ EP       10 3 49.32                             119    0.50 8  244 194 
 CHI  HN I        10 4 23.53         8.9 0.24            104            244 194 
 HEL  HE ES       10 4 21.49                             116   -0.61 8  266 256 
 HEL  HN I        10 4 29.75         4.4 0.40            104            266 256 
                                                                                
