 2015  3 8 1658 10.7 L   6.863 -73.180146.1  RSN  5 0.5 1.8LRSN                1
 GAP=135        1.17       6.0     7.1 10.5 -0.1973E+02  0.3439E+02 -0.2666E+02E
 Epicentro: ZAPATOCA - SANTANDER                                               3
 ACTION:UPD 15-04-30 16:24 OP:nd   STATUS:               ID:20150308165810 L   I
 OLDACT:REG 15-03-08 23:02 OP:carl STATUS:               ID:20150308164747     3
 2015-03-08-1647-47M.COL___287                                                 6
 STAT SP IPHASW D HRMM SECON CODA AMPLIT PERI AZIMU VELO AIN AR TRES W  DIS CAZ7
 BAR2 EZ EP       1658 30.52                             168    0.0510 29.9 180 
 BAR2 EZ ES       1658 45.20                             168   -0.7310 29.9 180 
 PAM  SZ EP       1658 33.02                             152    0.2710 74.8  45 
 PAM  SN ES       1658 50.33                             152    0.3510 74.8  45 
 PAM  SZ I        1658 52.23        13.1 0.56            157           74.8  45 
 PTB  HZ EP       1658 36.61                             132   -0.83 9  146 256 
 PTB  HN ES       1658 58.70                             132    0.36 9  146 256 
 PTB  HZ I        1659  6.72         6.9 0.28            133            146 256 
 SPBC HN ES       1659  2.56                             128    0.60 9  166 216 
 SML  HZ EP       1658 46.42                             118   -0.02 8  236 335 
 SML  HE ES       1659 14.34                             118   -0.01 8  236 335 
                                                                                
