 2010  3 8 1053 14.2 L   6.836 -72.957139.9  RSN  6 0.5 1.6LRSN                1
 GAP=258        0.98       8.4    11.9 12.2 -0.6876E+01  0.8262E+01  0.3924E+02E
 Epicentro: CEPITA - SANTANDER                                                 3
 ACTION:UP  10-08-24 09:52 OP:vdl  STATUS:               ID:20100308105314 L   I
 2010-03-08-1048-57S.COL___101                                                 6
 STAT SP IPHASW D HRMM SECON CODA AMPLIT PERI AZIMU VELO SNR AR TRES W  DIS CAZ7
 BAR2 SZ EP       1053 33.70                             165     0.210   37 223 
 BAR2 SZ ES   1   1053 48.56                             165     0.0 7   37 223 
 BRR  HZ EP   1   1053 35.22                             146    -0.6 7   89 290 
 BRR  HN ES   2   1053 52.63                             146    -0.1 5   89 290 
 BRR  HZ I        1053 53.60        10.2 0.08                            89 290 
 RUS  BZ EP       1053 37.98                             141     0.310  105 188 
 RUS  BZ I        1053 38.86         3.8 0.05                           105 188 
 RUS  BN ES   3   1053 56.27                             141     0.2 2  105 188 
 CHI  HN ES   1   1054 21.69                             115    -1.0 6  259 199 
 CHI  HZ I        1054 23.50         2.1 0.33                           259 199 
 RREF BN ES   1   1054 40.52                             109     0.8 5  340 231 
 RREF BZ I        1054 45.02         3.1 0.15                           340 231 
 PRA  HN ES   2   1054 51.67                             105    -0.4 3  406 212 
                                                                                
