 2016 11 8 1141  7.3 L   6.700 -73.124142.6  RSN  5 0.4 1.5LRSN                1
 GAP=175        0.99       8.2     4.8  7.7 -0.9113E+01  0.8648E+01  0.9732E+00E
 Epicentro: JORDAN - SANTANDER                                                 3
 ACTION:UPD 17-10-26 21:05 OP:lp   STATUS:               ID:20161108114107 L   I
 OLDACT:REG 16-11-08 21:54 OP:dnl  STATUS:               ID:20161108113743     3
 2016-11-08-1138-00M.COL___352                                                 6
 STAT SP IPHASW D HRMM SECON CODA AMPLIT PERI AZIMU VELO AIN AR TRES W  DIS CAZ7
 BAR2 EZ EP       1141 26.74                             174    0.3810 13.5 209 
 BAR2 EZ ES       1141 41.60                             174    0.3410 13.5 209 
 BAR2 EZ I        1141 42.71         5.7 0.46            172           13.5 209 
 BRR  HZ EP       1141 28.64                             150    0.0910 79.1 305 
 BRR  HN ES       1141 45.51                             150    0.3510 79.1 305 
 BRR  HZ I        1141 49.98         6.6 0.12            146           79.1 305 
 PAM  EZ EP       1141 29.58                             148   -0.0410 84.9  33 
 PAM  EN ES       1141 46.51                             148   -0.5510 84.9  33 
 PAM  EZ I        1141 47.21         4.1 0.28            149           84.9  33 
 PTB  HZ EP       1141 33.83                             131   -0.22 9  148 263 
 PTB  HN ES       1141 54.17                             131   -0.76 9  148 263 
 PTB  HZ I        1141 58.02         4.9 0.12            131            148 263 
 ZAR  HZ EP   2   1141 40.89                             121    0.68 4  211 295 
 ZAR  HE ES       1142  6.12                             121    0.22 8  211 295 
 ZAR  HZ I        1142 11.59         5.6 0.42            121            211 295 
                                                                                
