 2014 11 8 1307 51.6 L   6.831 -73.092144.8  RSN 17 0.5 2.9LRSN                1
 GAP=129        1.03       3.0     4.0  4.8 -0.5108E+01  0.5124E+01  0.2354E+01E
 Epicentro: LOS SANTOS - SANTANDER                                             3
 ACTION:UPD 14-12-19 15:40 OP:nd   STATUS:               ID:20141108130751 L   I
 OLDACT:DUP 14-11-08 23:44 OP:carl STATUS:               ID:20141108125747d    3
 2014-11-08-1257-46M.COL___292                                                 6
 STAT SP IPHASW D HRMM SECON CODA AMPLIT PERI AZIMU VELO AIN AR TRES W  DIS CAZ7
 BAR2 SZ IP     C 13 8 11.25                             168    0.0610 28.3 201 
 BAR2 SZ ES       13 8 26.38                             168   -0.1110 28.3 201 
 BAR2 SZ I        13 8 27.61       257.9 0.54            165           28.3 201 
 PAM  SZ EP     C 13 8 13.91                             153    0.6110 70.9  38 
 PAM  SE ES       13 8 30.61                             153    0.3510 70.9  38 
 PAM  SZ I        13 8 33.29       134.2 0.26            157           70.9  38 
 BRR  HZ IP     D 13 8 13.03                             151    0.2010 75.0 294 
 BRR  HN ES       13 8 29.80                             151    0.3810 75.0 294 
 BRR  HZ I        13 8 30.45       140.8 0.12            150           75.0 294 
 RUS  HZ IP     D 13 8 15.26                             143   -0.2010  104 179 
 RUS  HE ES       13 8 34.07                             143   -0.0210  104 179 
 RUS  HZ I        13 8 35.84        35.6 0.40            142            104 179 
 PTB  HZ IP   4 D 13 8 17.77                             130   -1.29 0  154 258 
 PTB  HN ES   4   13 8 38.79                             130   -1.71 0  154 258 
 PTB  HZ I        13 8 41.45        98.6 0.46            130            154 258 
 OCA  HZ EP       13 8 19.27                             130   -0.29 9  158 351 
 OCA  HN ES       13 8 40.75                             130   -0.64 9  158 351 
 OCA  HZ I        13 8 44.18        99.3 0.20            132            158 351 
 SPBC HZ EP       13 8 20.21                             128   -0.40 9  170 220 
 SPBC HN ES       13 8 42.95                             128   -0.32 9  170 220 
 SPBC HZ I        13 8 51.19        79.2 0.20            127            170 220 
 NOR  HZ EP       13 8 27.24                             117   -0.74 8  242 235 
 NOR  HE ES       13 8 55.47                             117   -0.92 8  242 235 
 NOR  HZ I        13 9  2.38        56.5 0.18            117            242 235 
 CHI  HZ EP       13 8 29.64                             116   -0.11 8  254 196 
 CHI  HN ES       13 8 59.57                             116    0.03 8  254 196 
 CHI  HZ I        13 9  7.89        28.4 0.42            117            254 196 
 HEL  HZ EP       13 8 33.39                             114    0.92 7  279 255 
 HEL  HN ES       13 9  3.80                             114   -0.57 7  279 255 
 HEL  HZ I        13 9 10.81        41.9 0.46            114            279 255 
 URE  HZ EP   4   13 8 31.82                             113   -1.25 0  288 291 
 URE  HN ES   4   13 9  1.57                             113   -3.87 0  288 291 
 GUY2CHZ EP       13 8 35.94                             112    0.03 7  308 235 
 GUY2CHE ES       13 9 11.03                             112    0.53 7  308 235 
 GUY2CHZ I        13 9 19.30        45.5 0.68                           308 235 
 CBOC HZ EP       13 8 39.85                             109    0.63 7  340 252 
 CBOC HN ES       13 9 16.38                             109   -0.01 7  340 252 
 CBOC HZ I        13 9 26.51        14.1 0.30            110            340 252 
 TOL  SZ EP       13 8 41.20                             109    0.64 6  350 225 
 TOL  SN ES       13 9 19.32                             109    0.56 6  350 225 
 TOL  SZ I        13 9 27.60        70.1 0.46            109            350 225 
 SDV  BZ EP       13 8 40.49                             108   -0.29 6  354  50 
 SDV  BE ES   4   13 9 17.96                             108   -1.21 0  354  50 
 MON  HZ EP   4   13 8 38.64                             108   -2.19 0  356 307 
 MON  HN ES   4   13 9 16.63                             108   -2.62 0  356 307 
 ANIL HZ EP       13 8 41.51                             108   -0.60 6  364 225 
 ANIL HN ES       13 9 22.08                             108    0.55 6  364 225 
 ANIL HZ I        13 9 29.69         8.7 0.34            108            364 225 
 PRA  HZ EP       13 8 45.68                             106   -0.08 6  398 210 
 PRA  HN ES       13 9 27.21                             106   -0.81 6  398 210 
 PRA  HZ I        13 9 34.03        33.3 0.28            107            398 210 
 ORTC HZ EP       13 8 46.52                             106    0.32 6  402 217 
 ORTC HE ES       13 9 29.69                             106    0.88 6  402 217 
 ORTC HZ I        13 9 33.91        27.6 0.40            106            402 217 
 SJC  HZ EP   4   13 8 45.62                             105   -1.52 0  410 326 
 SJC  HN ES   4   13 9 26.56                             105   -3.93 0  410 326 
                                                                                
