 2013  2 8 1433 56.1 L   6.765 -73.093148.1  RSN  4 0.3 1.4LRSN                1
 GAP=145        0.69       4.5     4.3  6.7 -0.1662E+01  0.3899E+01  0.9511E+01E
 Epicentro: LOS SANTOS - SANTANDER                                             3
 ACTION:UPD 13-03-12 09:31 OP:ep   STATUS:               ID:20130208143356 L   I
 2013-02-08-1430-00M.COL___241                                                 6
 STAT SP IPHASW D HRMM SECON CODA AMPLIT PERI AZIMU VELO AIN AR TRES W  DIS CAZ7
 PAM  SZ EP   1   1434 18.44                             151   -0.13 7 76.9  34 
 PAM  SE ES       1434 35.97                             151   -0.1010 76.9  34 
 PAM  SZ I        1434 37.05         2.7 0.40            154           76.9  34 
 BRR  HZ EP       1434 18.20                             151    0.2610 78.2 299 
 BRR  HN ES       1434 35.00                             151    0.0610 78.2 299 
 BRR  HN I        1434 37.91        10.8 0.26            151           78.2 299 
 RUS  HZ EP       1434 20.19                             145    0.3610 96.5 179 
 RUS  HE ES   1   1434 38.05                             145   -0.26 7 96.5 179 
 RUS  HE I        1434 40.53         2.7 0.45            146           96.5 179 
 PTB  HZ EP       1434 23.25                             131   -0.51 9  153 261 
 PTB  HZ I        1434 26.24         3.0 0.40            132            153 261 
 PTB  HE ES   1   1434 45.45                             131    0.15 7  153 261 
                                                                                
