 2013  5 8 1633 41.9 L   6.838 -73.107150.7  RSN  6 0.4 2.1LRSN                1
 GAP=205        0.78       4.7     8.0  7.6  0.9660E+01  0.1462E+02 -0.3106E+01E
 Epicentro: LOS SANTOS - SANTANDER                                             3
 ACTION:UPD 13-06-20 09:48 OP:ep   STATUS:               ID:20130508163341 L   I
 2013-05-08-1630-00M.COL___256                                                 6
 STAT SP IPHASW D HRMM SECON CODA AMPLIT PERI AZIMU VELO AIN AR TRES W  DIS CAZ7
 BAR2 SZ EP   1   1634  2.33                             169    0.06 7 28.5 197 
 BAR2 SZ ES   1   1634 17.63                             169   -0.50 7 28.5 197 
 BAR2 SZ I        1634 18.77        26.4 0.25            155           28.5 197 
 BRR  HZ EP   1   1634  4.23                             153    0.51 7 73.2 294 
 BRR  HN ES   1   1634 21.13                             153    0.41 7 73.2 294 
 BRR  HZ I        1634 24.94        21.3 0.16            136           73.2 294 
 RUS  HZ EP   1   1634  6.77                             144    0.31 7  105 179 
 RUS  HZ I        1634  6.98         7.4 0.30            135            105 179 
 RUS  HN ES   1   1634 25.59                             144   -0.00 7  105 179 
 PTB  HZ EP   1   1634  8.83                             132   -0.93 7  153 258 
 PTB  HZ I        1634 37.13        16.2 0.30            119            153 258 
 NOR  HZ EP   2   1634 18.86                             119    0.27 4  241 234 
 NOR  HN ES   1   1634 47.29                             119    0.11 6  241 234 
 NOR  HZ I        1634 50.99         7.9 0.34            110            241 234 
 SML  HZ EP   2   1634 18.28                             119   -0.34 4  242 334 
 SML  HN ES   1   1634 47.17                             119   -0.07 6  242 334 
 SML  HZ I        1634 51.76        12.1 0.22            111            242 334 
                                                                                
