 2016 12 8 1423 46.3 L   6.801 -73.186148.2  RSN  7 0.5 1.8LRSN                1
 GAP=131        1.20       5.2     5.2  8.6 -0.2279E+00  0.9718E+01  0.5462E+01E
 Epicentro: ZAPATOCA - SANTANDER                                               3
 ACTION:UPD 17-01-11 20:13 OP:rebc STATUS:               ID:20161208142346 L   I
 OLDACT:UP  16-12-09 09:15 OP:dani STATUS:               ID:20161208141645d    3
 OLDACT:DUP 16-12-09 09:11 OP:dani STATUS:               ID:20161208141645d    3
 OLDACT:UP  16-12-09 05:26 OP:dani STATUS:               ID:20161208141644     3
 OLDACT:REG 16-12-09 03:05 OP:dani STATUS:               ID:20161208141644     3
 2016-12-08-1417-00M.COL___358                                                 6
 STAT SP IPHASW D HRMM SECON CODA AMPLIT PERI AZIMU VELO AIN AR TRES W  DIS CAZ7
 BAR2 EZ EP       1424  5.55                             171   -0.6610 23.1 179 
 BAR2 EZ ES       1424 21.61                             171   -0.1310 23.1 179 
 BAR2 EZ I        1424 22.35        18.1 0.30            172           23.1 179 
 BRR  HZ EP       1424  7.87                             154    0.3810 67.2 300 
 BRR  HN ES       1424 24.97                             154    0.9510 67.2 300 
 BRR  HZ I        1424 28.93         8.1 0.41            151           67.2 300 
 PAM  EZ EP       1424  9.05                             150    0.1210 80.2  42 
 PAM  EN ES       1424 26.41                             150   -0.1810 80.2  42 
 PAM  EZ I        1424 28.80         8.5 0.86            153           80.2  42 
 RUS  HZ EP       1424 10.50                             144    0.1810  101 174 
 RUS  HN ES       1424 28.87                             144   -0.1910  101 174 
 RUS  HZ I        1424 30.32         6.2 0.41            148            101 174 
 PTB  HZ EP       1424 13.20                             133    0.13 9  143 258 
 PTB  HN ES       1424 33.32                             133   -0.63 9  143 258 
 PTB  HZ I        1424 39.61         5.0 0.25            133            143 258 
 ZAR  HN ES       1424 43.03                             123   -0.53 9  200 293 
 ZAR  HZ I        1424 50.81         6.2 0.18            124            200 293 
 ROSC BN ES       1424 54.52                             117    0.56 8  251 210 
 ROSC BZ I        1424 55.72        10.6 0.35            119            251 210 
                                                                                
