 2013  5 8 1657 32.5 L   6.555 -73.601113.9  RSN  4 0.1 1.8LRSN                1
 GAP=127        0.35       3.9     1.7  3.8  0.2412E+01  0.1247E+01  0.1282E+01E
 Epicentro: EL CARMEN DE CHUCURI - SANTANDER                                   3
 ACTION:UPD 13-06-20 09:48 OP:ep   STATUS:               ID:20130508165732 L   I
 2013-05-08-1650-00M.COL___256                                                 6
 STAT SP IPHASW D HRMM SECON CODA AMPLIT PERI AZIMU VELO AIN AR TRES W  DIS CAZ7
 BAR2 SZ EP   1   1657 49.25                             157    0.01 7 46.5  85 
 BAR2 SZ ES       1658  2.15                             157   -0.1110 46.5  85 
 BAR2 SZ I        1658  3.04        25.9 0.42            157           46.5  85 
 BRR  HZ EP   2   1657 50.11                             149    0.34 5 62.2 349 
 RUS  HZ EP   1   1657 52.60                             138   -0.10 7 93.0 142 
 RUS  HN ES   1   1658  8.57                             138    0.16 7 93.0 142 
 PTB  HZ IP     D 1657 52.08                             137   -0.0910 94.6 269 
 PTB  HN ES   1   1658  7.51                             137    0.04 7 94.6 269 
 PTB  HN IS       1658  7.51                             137    0.0410 94.6 269 
 PTB  HZ I        1658  8.14         8.9 0.16            138           94.6 269 
                                                                                
