 2011  7 8 1151 58.5 L   6.793 -73.097147.3  RSN 15 0.4 2.6LRSN                1
 GAP=161        0.66       2.5     4.5  4.6 -0.4688E+01  0.4227E+01  0.1440E+01E
 Epicentro: LOS SANTOS - SANTANDER                                             3
 ACTION:UPD 12-07-25 13:59 OP:epov STATUS:               ID:20110708115158 L   I
 2011-07-08-1150-56S.COL___140                                                 6
 STAT SP IPHASW D HRMM SECON CODA AMPLIT PERI AZIMU VELO AIN AR TRES W  DIS CAZ7
 BTL  SZ EP       1152 18.84                             171    0.4810 23.4 306 
 BAR2 SZ IP       1152 18.41                             170    0.0410 24.2 203 
 BAR2 SZ ES   1   1152 33.62                             170   -0.22 7 24.2 203 
 BAR2 SZ I        1152 34.96       110.8 0.28                          24.2 203 
 GIR2 SZ EP       1152 18.58                             167    0.1310 33.3 341 
 BRR  HZ EP       1152 20.28                             151    0.1310 76.3 297 
 BRR  HE ES   1   1152 37.12                             151    0.12 7 76.3 297 
 BRR  HZ I        1152 40.16        68.8 0.17                          76.3 297 
 RUS  HZ EP   1   1152 22.22                             144   -0.15 7 99.6 179 
 RUS  HN ES   1   1152 41.03                             144    0.07 7 99.6 179 
 RUS  HZ I        1152 42.22        47.3 0.24                          99.6 179 
 BRI  SZ EP   1   1152 22.83                             142    0.34 7  107  18 
 GRA  SZ EP       1152 23.93                             137    0.0810  125  15 
 GRA  SZ ES   1   1152 43.18                             137   -0.42 7  125  15 
 GRA  SZ I        1152 45.42        47.4 0.34                           125  15 
 OCA  SZ EP   1   1152 27.08                             130   -0.03 7  162 351 
 OCA  SZ ES   1   1152 48.58                             130   -0.81 7  162 351 
 OCA  SZ I        1152 53.72        56.2 0.27                           162 351 
 NOR  SZ EP   1   1152 34.28                             118   -0.50 6  239 235 
 NOR  SE ES   2   1153  2.80                             118   -0.26 4  239 235 
 CHI  HZ EP   1   1152 36.18                             117   -0.22 6  249 196 
 CHI  HE ES   1   1153  5.73                             117   -0.21 6  249 196 
 CHI  HZ I        1153 13.91        18.2 0.51                           249 196 
 HEL  HZ EP   1   1152 40.31                             115    0.92 6  277 256 
 HEL  HN ES   2   1153 11.11                             115   -0.14 4  277 256 
 RREF HZ EP   1   1152 44.66                             111   -0.50 5  325 230 
 RREF HN ES   1   1153 21.85                             111    0.32 5  325 230 
 RREF HZ I        1153 30.32        27.1 0.55                           325 230 
 TOL  SZ EP   1   1152 47.21                             109   -0.02 5  347 225 
 PRA  HZ EP   1   1152 51.88                             107   -0.47 4  394 210 
 PRA  HN ES   1   1153 34.18                             107   -0.14 4  394 210 
 SJA  SZ EP   2   1152 52.38                             106   -0.82 3  401 194 
 SJA  SZ I        1153 39.76        22.8 0.58                           401 194 
                                                                                
