 2014  5 8 1827 36.4 L   6.831 -73.152144.8  RSN  8 0.4 1.9LRSN                1
 GAP=134        0.83       3.1     4.0  6.6 -0.1085E+01  0.1099E+02  0.3867E+01E
 Epicentro: LOS SANTOS - SANTANDER                                             3
 OLDACT:REG 14-05-08 19:58 OP:mh   STATUS:               ID:20140508182650     3
 ACTION:UPD 15-03-16 16:56 OP:nd   STATUS:               ID:20140508182736 L   I
 OLDACT:UP  14-05-08 23:18 OP:mh   STATUS:               ID:20140508182650     3
 2014-05-08-1826-50M.COL___239                                                 6
 STAT SP IPHASW D HRMM SECON CODA AMPLIT PERI AZIMU VELO AIN AR TRES W  DIS CAZ7
 PAM  SZ EP       1827 58.93                             151    0.5410 75.2  42 
 PAM  SE ES       1828 15.51                             151   -0.0210 75.2  42 
 PAM  SZ I        1828 18.18         7.9 0.30            158           75.2  42 
 RUS  HZ EP       1828  0.15                             143   -0.1710  104 176 
 RUS  HN ES       1828 18.71                             143   -0.2510  104 176 
 PTB  HZ EP   1   1828  2.93                             132   -0.37 7  148 257 
 PTB  HN ES   2   1828 23.83                             132   -0.45 5  148 257 
 PTB  SZ I        1828 25.69        10.3 0.14            133            148 257 
 SPBC HZ EP       1828  4.89                             128   -0.16 9  165 218 
 SPBC HN ES   1   1828 27.81                             128    0.42 7  165 218 
 SPBC SZ I        1828 34.34        11.7 0.30            130            165 218 
 ZAR  HZ EP       1828  7.89                             122   -0.70 9  202 291 
 ZAR  HN ES       1828 33.96                             122    0.26 9  202 291 
 ZAR  SZ I        1828 43.09         7.6 0.10            124            202 291 
 NOR  HZ EP       1828 12.83                             118    0.59 8  236 234 
 NOR  HN ES       1828 40.18                             118   -0.01 8  236 234 
 NOR  SZ I        1828 45.12         5.3 0.66            120            236 234 
 CHI  HZ EP       1828 14.48                             117    0.09 8  252 195 
 CHI  HN ES       1828 43.99                             117   -0.03 8  252 195 
 CHI  SZ I        1828 51.11         7.0 2.62            119            252 195 
 PRA  HZ EP       1828 29.69                             106   -0.51 6  395 209 
 PRA  HN ES       1829 12.73                             106    0.56 6  395 209 
 PRA  SZ I        1829 21.22         4.4 2.88            109            395 209 
                                                                                
