 2012  8 8 1744 39.3 L   6.825 -73.131150.9  RSN 17 0.5 3.9LRSN 4.0WRSN        1
 SPEC AVERAGE  MO 15.1 ST 67.2 OM  4.2 f0 3.27 R0.4589 AL 3.09 WI 34.5 MW  4.0 3
 SPEC SD       MO  0.1 ST 36.2 OM  1.0 f00.448 R0.0664 AL      WI      MW  0.1 3
 GAP= 66        1.09       3.5     3.5  6.2 -0.2373E-02  0.3628E+01  0.5966E+01E
 Epicentro: LOS SANTOS - SANTANDER                                             3
 SPEC PRA HH N MO 15.2 ST121.4 OM  3.2 f0 3.83 R0.3838 AL 3.47 WI 49.3 MW  4.1 3
 SPEC PRA HH N T174610 K 0.000 GD  422 VS 4.20 DE 3.00 Q0230.0 QA 0.60 VS 4.20 3
 SPEC CHI HH Z MO 14.9 ST 21.4 OM  3.1 f0 2.62 R0.5611 AL 2.89 WI 29.6 MW  3.9 3
 SPEC CHI HH Z T174541 K 0.000 GD  293 VS 4.20 DE 3.00 Q0230.0 QA 0.60 VS 4.20 3
 SPEC HEL HH E MO 15.0 ST 54.0 OM  3.1 f0 3.49 R0.4212 AL 3.22 WI 40.2 MW  3.9 3
 SPEC HEL HH E T174544 K 0.000 GD  312 VS 4.20 DE 3.00 Q0230.0 QA 0.60 VS 4.20 3
 SPEC RUS HH N MO 15.2 ST 71.9 OM  3.6 f0 3.13 R0.4696 AL 2.78 WI 19.0 MW  4.1 3
 SPEC RUS HH N T174520 K 0.000 GD  182 VS 4.20 DE 3.00 Q0230.0 QA 0.60 VS 4.20 3
 ACTION:UPD 12-09-10 11:55 OP:ep   STATUS:               ID:20120808174439 L   I
 2012-08-08-1740-00M.COL___216                                                 6
 STAT SP IPHASW D HRMM SECON CODA AMPLIT PERI AZIMU VELO AIN AR TRES W  DIS CAZ7
 BAR2 SZ IP       1744 59.52                             170   -0.1210 26.3 192 
 BAR2 SZ ES   1   1745 14.75                             170   -0.74 7 26.3 192 
 BAR2 SZ I        1745 16.28      2007.7 0.35                          26.3 192 
 BRR  HZ IP     D 1745  1.39                             153    0.3410 71.3 296 
 BRR  HN ES   1   1745 18.80                             153    0.81 7 71.3 296 
 BRR  HZ I        1745 22.31       648.4 0.19                          71.3 296 
 PAM  SZ IP     D 1745  2.33                             152    0.4110 74.3  40 
 PAM  SN ES   1   1745 19.42                             152   -0.12 7 74.3  40 
 PAM  SZ I        1745 22.00       976.0 0.46                          74.3  40 
 RUS  HZ IP     D 1745  3.36                             144   -0.4210  103 177 
 RUS  HN ES   1   1745 21.96                             144   -0.89 7  103 177 
 RUS  HZ I        1745 23.43       585.6 0.35                           103 177 
 PTB  HZ EP       1745  6.01                             133   -0.90 9  150 258 
 PTB  HE ES       1745 28.19                             133   -0.23 9  150 258 
 PTB  HZ I        1745 33.42       736.9 0.38                           150 258 
 TAM  HZ IP     D 1745  7.68                             132    0.33 9  154 106 
 TAM  HZ I        1745  8.16       613.7 0.25                           154 106 
 TAM  HN ES   1   1745 29.40                             132    0.20 7  154 106 
 OCA  HZ EP   1   1745  7.67                             131   -0.15 7  158 352 
 OCA  HN ES   1   1745 30.41                             131    0.38 7  158 352 
 OCA  HZ I        1745 36.10      1348.5 0.42                           158 352 
 YOP  SZ IP     D 1745 10.00                             127    0.08 9  181 154 
 YOP  SZ I        1745 10.77       463.0 0.27                           181 154 
 YOP  SE ES   2   1745 34.37                             127    0.59 4  181 154 
 ZAR  HZ EP   1   1745 12.10                             123   -0.06 6  205 291 
 ZAR  HE ES   1   1745 37.77                             123    0.00 6  205 291 
 ZAR  HZ I        1745 43.99       992.1 0.21                           205 291 
 NOR  SZ EP       1745 15.29                             119   -0.38 8  238 234 
 NOR  SN ES   1   1745 44.17                             119    0.16 6  238 234 
 NOR  SZ I        1745 47.40       533.0 0.26                           238 234 
 CHI  HZ EP       1745 17.15                             118   -0.50 8  252 195 
 CHI  HN ES       1745 48.11                             118    0.58 8  252 195 
 CHI  HZ I        1745 52.94       371.0 0.38                           252 195 
 ROSC BZ EP       1745 19.00                             117    0.92 8  256 211 
 ROSC BE ES   1   1745 49.48                             117    1.18 6  256 211 
 ROSC BZ I        1745 54.09       950.4 0.53                           256 211 
 HEL  HZ EP       1745 19.70                             115   -0.35 8  274 255 
 HEL  HN ES   1   1745 52.46                             115    0.64 6  274 255 
 HEL  HZ I        1745 58.44       379.2 0.24                           274 255 
 URE  HZ EP   1   1745 20.04                             114   -0.67 6  284 291 
 URE  HZ I        1746  0.37       335.8 0.31                           284 291 
 VIL  SZ EP   1   1745 22.55                             113   -0.77 5  306 192 
 VIL  SN ES   1   1745 57.21                             113   -0.43 5  306 192 
 VIL  SZ I        1746  8.49       423.2 0.38                           306 192 
 TOL  SZ EP       1745 29.02                             110    0.87 6  347 225 
 TOL  SZ I        1746 13.57       255.0 0.34                           347 225 
 PRA  HZ EP   1   1745 32.87                             107   -0.53 4  395 210 
 PRA  HN ES   1   1746 16.10                             107    0.53 4  395 210 
 PRA  HZ I        1746 21.40       516.7 0.36                           395 210 
                                                                                
