 2010  2 8 1523  6.0 L   6.715 -72.979142.1  RSN  6 0.3 2.0LRSN                1
 GAP=191        0.49       5.5    11.2  6.4 -0.4771E+02  0.1370E+02  0.4554E+01E
 Epicentro: CEPITA - SANTANDER                                                 3
 ACTION:UP  10-08-24 09:48 OP:vdl  STATUS:               ID:20100208152306 L   I
 2010-02-08-1519-50S.COL___088                                                 6
 STAT SP IPHASW D HRMM SECON CODA AMPLIT PERI AZIMU VELO SNR AR TRES W  DIS CAZ7
 BAR2 SZ EP   1   1523 25.02                             169    -0.2 7   26 239 
 BAR2 SZ ES   2   1523 40.45                             169     0.2 5   26 239 
 GRA  SZ EP   1   1523 31.75                             135     0.4 7  131   9 
 GRA  SZ ES   2   1523 50.78                             135    -0.3 5  131   9 
 CHI  HZ EP   1   1523 43.08                             117     0.0 6  245 200 
 CHI  HE ES   2   1524 12.12                             117     0.1 4  245 200 
 CHI  HZ I        1524 18.31         4.3 0.33                           245 200 
 RREF HZ EP   1   1523 52.95                             110     0.0 5  330 233 
 RREF HN ES   2   1524 29.68                             110     0.1 3  330 233 
 RREF HZ I        1524 36.59         5.5 0.25                           330 233 
 TOL  SZ EP   1   1523 54.32                             108    -0.6 5  350 228 
 PRA  HZ EP   1   1523 59.46                             106    -0.1 4  393 213 
 PRA  HN ES   2   1524 41.75                             106     0.4 3  393 213 
 PRA  HZ I        1524 44.78         4.0 0.42                           393 213 
                                                                                
