 2011  1 8 1727 29.0 L   6.069 -73.709107.8  RSN  7 0.2 1.5LRSN                1
 GAP=114        0.44       2.8     2.7  5.8 -0.1909E+01  0.7696E+01 -0.4109E+00E
 Epicentro: BOLIVAR - SANTANDER                                                3
 ACTION:UP  11-02-08 08:39 OP:pat  STATUS:               ID:20110108172729 L   I
 2011-01-08-1725-44S.COL___135                                                 6
 STAT SP IPHASW D HRMM SECON CODA AMPLIT PERI AZIMU VELO SNR AR TRES W  DIS CAZ7
 RUS  HZ IP     D 1727 46.85                             144    -0.110   72 106 
 RUS  HZ I        1727 47.36         8.1 0.35                            72 106 
 RUS  HE ES   1   1728  0.76                             144    -0.2 7   72 106 
 BAR2 SZ EP   1   1727 47.42                             140     0.1 7   82  45 
 BAR2 SZ ES   1   1728  1.75                             140     0.1 7   82  45 
 BTL  SZ EP       1727 49.40                             132     0.010  106  27 
 NOR  SZ EP   1   1727 52.39                             123     0.0 7  140 247 
 NOR  SE ES   2   1728 11.10                             123     0.4 5  140 247 
 CHI  HZ EP   2   1727 54.72                             120    -0.1 5  159 181 
 CHI  HN ES   2   1728 15.40                             120     0.3 5  159 181 
 CHI  HZ I        1728 21.95         3.3 0.21                           159 181 
 YOP  SZ EP   2   1727 54.80                             119    -0.1 5  163 119 
 YOP  SZ I        1728 16.76         5.7 0.27                           163 119 
 HEL  HZ EP   2   1727 59.84                             113     0.4 4  202 274 
 HEL  HZ I        1728 13.50         4.2 0.61                           202 274 
 HEL  HE ES   2   1728 22.67                             113    -0.6 4  202 274 
                                                                                
