 2014  2 8 1620 16.0 L   6.798 -73.156140.9  RSN 11 0.5 2.1LRSN                1
 GAP=135        1.03       3.2     4.8  6.3 -0.2438E+01  0.1196E+02  0.3584E+00E
 Epicentro: LOS SANTOS - SANTANDER                                             3
 ACTION:UPD 14-03-10 08:08 OP:ep   STATUS:               ID:20140208162016 L   I
 OLDACT:REG 14-02-08 15:07 OP:nd   STATUS:               ID:20140208162000     3
 2014-02-08-1620-00M.COL___291                                                 6
 STAT SP IPHASW D HRMM SECON CODA AMPLIT PERI AZIMU VELO AIN AR TRES W  DIS CAZ7
 BAR2 SZ EP       1620 35.38                             170    0.3110 23.0 187 
 BAR2 SZ ES       1620 49.70                             170   -0.2210 23.0 187 
 BAR2 SZ I        1620 51.45        39.0 0.16            171           23.0 187 
 PAM  SZ EP       1620 38.40                             149    0.6110 78.3  40 
 PAM  SN ES       1620 54.94                             149    0.1810 78.3  40 
 PAM  SZ I        1620 57.55        37.1 0.62            145           78.3  40 
 RUS  HZ EP       1620 39.33                             143    0.0310  100 175 
 RUS  HN ES       1620 56.96                             143   -0.4910  100 175 
 RUS  HZ I        1620 58.93        11.8 0.38            140            100 175 
 PTB  HZ EP       1620 42.44                             131   -0.06 9  147 259 
 PTB  HN ES       1621  3.15                             131    0.00 9  147 259 
 PTB  HZ I        1621  6.47        15.6 0.14            125            147 259 
 ZAR  HZ EP   2   1620 47.86                             121   -0.21 4  203 292 
 ZAR  HN ES   2   1621 13.73                             121    0.68 4  203 292 
 ZAR  HZ I        1621 19.62        13.1 0.30            116            203 292 
 NOR  HZ EP       1620 51.93                             117    0.55 8  234 234 
 NOR  HN ES       1621 19.66                             117    0.72 8  234 234 
 NOR  HZ I        1621 24.79         7.9 0.18            113            234 234 
 SML  HZ EP       1620 51.89                             116   -0.47 8  243 336 
 SML  HN ES       1621 19.80                             116   -0.89 8  243 336 
 SML  HZ I        1621 23.56        18.8 0.10            111            243 336 
 CHI  HZ EP       1620 53.68                             116    0.26 8  248 195 
 CHI  HN ES       1621 22.13                             116   -0.44 8  248 195 
 CHI  HZ I        1621 27.12         3.3 0.28            112            248 195 
 GUY2CHZ EP   4   1620 59.73                             111    0.42 0  300 235 
 GUY2CHN ES   4   1621 32.86                             111   -0.19 0  300 235 
 GUY2CHZ I        1621 43.07         4.7 0.60                           300 235 
 PRA  HZ EP       1621  9.39                             105    0.08 6  391 209 
 PRA  HN ES       1621 49.88                             105   -0.98 6  391 209 
 PRA  HZ I        1621 58.45         4.1 0.30            102            391 209 
 SJC  HZ EP   4   1621 10.33                             105   -1.06 0  409 327 
 SJC  HZ I        1621 41.41         2.0 0.50            101            409 327 
 SJC  HN ES   4   1621 51.38                             105   -3.18 0  409 327 
                                                                                
