 2016 10 8 1124  5.6 L   6.792 -73.152141.0  RSN  5 0.2 1.3LRSN                1
 GAP=136        0.62       3.3     2.9  5.2 -0.2775E+00  0.4903E+01 -0.1406E+01E
 Epicentro: LOS SANTOS - SANTANDER                                             3
 ACTION:UPD 16-11-09 19:17 OP:rebc STATUS:               ID:20161008112405 L   I
 OLDACT:REG 16-10-08 20:16 OP:lv   STATUS:               ID:20161008111742     3
 2016-10-08-1118-00M.COL___357                                                 6
 STAT SP IPHASW D HRMM SECON CODA AMPLIT PERI AZIMU VELO AIN AR TRES W  DIS CAZ7
 BAR2 EZ EP       1124 24.68                             171    0.0110 22.3 189 
 BAR2 EZ ES       1124 39.13                             171   -0.3910 22.3 189 
 BAR2 EZ I        1124 42.46         7.0 0.42            170           22.3 189 
 PAM  EZ EP       1124 27.56                             150    0.1410 78.5  39 
 PAM  EN ES       1124 44.45                             150    0.0510 78.5  39 
 PAM  EZ I        1124 47.10         5.2 0.35            154           78.5  39 
 RUS  HZ EP       1124 28.73                             143   -0.1310 99.7 176 
 RUS  HN ES       1124 47.33                             143    0.3610 99.7 176 
 RUS  HZ I        1124 48.89         1.0 0.19            148           99.7 176 
 PTB  HZ EP       1124 31.83                             131   -0.31 9  147 259 
 PTB  HE ES       1124 52.92                             131    0.11 9  147 259 
 PTB  HZ I        1124 59.98         4.2 0.38            131            147 259 
 ZAR  HN ES       1125  2.98                             121    0.19 9  204 292 
 ZAR  HZ I        1125 11.79         1.6 0.16            122            204 292 
                                                                                
