 2013  1 8 1048 17.0 L   6.785 -73.163149.4  RSN  5 0.3 1.9LRSN                1
 GAP=192        0.71       3.9     5.4  5.6 -0.1992E+01  0.1195E+00  0.5309E+01E
 Epicentro: LOS SANTOS - SANTANDER                                             3
 ACTION:UPD 13-02-15 09:12 OP:ep   STATUS:               ID:20130108104817 L   I
 2013-01-08-1040-00M.COL___242                                                 6
 STAT SP IPHASW D HRMM SECON CODA AMPLIT PERI AZIMU VELO AIN AR TRES W  DIS CAZ7
 BAR2 SZ EP       1048 37.08                             171    0.0610 21.4 186 
 BAR2 SZ I        1048 37.62         6.4 0.10            170           21.4 186 
 BAR2 SZ ES       1048 52.48                             171   -0.1610 21.4 186 
 BRR  HZ EP       1048 39.01                             153    0.5210 70.3 300 
 BRR  HN ES       1048 55.49                             153    0.2410 70.3 300 
 BRR  HN I        1048 59.63        16.8 0.16            149           70.3 300 
 PTB  HZ EP       1048 43.78                             133   -0.28 9  146 259 
 PTB  HN ES       1049  5.05                             133   -0.12 9  146 259 
 PTB  HN I        1049 10.66         9.1 0.42            132            146 259 
 OCA  HN ES       1049  7.82                             130   -0.31 9  162 354 
 OCA  HN I        1049 10.69        14.7 0.24            130            162 354 
 CHI  HZ EP       1048 54.60                             118   -0.07 8  247 195 
                                                                                
