 2012  9 8 1054 18.2 L   6.703 -73.176144.0  RSN  6 0.4 1.8LRSN                1
 GAP=176        0.44       9.3     8.9  6.3  0.5843E+02 -0.5791E+01 -0.2245E+01E
 Epicentro: VILLANUEVA - SANTANDER                                             3
 ACTION:UPD 12-10-22 14:17 OP:ep   STATUS:               ID:20120908105418 L   I
 2012-09-08-1050-00M.COL___227                                                 6
 STAT SP IPHASW D HRMM SECON CODA AMPLIT PERI AZIMU VELO AIN AR TRES W  DIS CAZ7
 BAR2 SZ EP       1054 37.50                             175    0.0810 12.2 183 
 BAR2 SZ ES   2   1054 52.10                             175   -0.33 5 12.2 183 
 GIR2 SZ EP   3   1054 37.49                             163   -0.48 2 41.6 357 
 BRR  HZ IP     C 1054 39.17                             151   -0.1410 74.2 307 
 BRR  HE ES   1   1054 56.08                             151    0.29 7 74.2 307 
 BRR  HN I        1054 56.83        18.3 0.22                          74.2 307 
 RUS  HZ EP   3   1054 42.16                             147    1.13 2 90.2 173 
 RUS  HE ES   3   1054 58.58                             147   -0.27 2 90.2 173 
 PTB  HZ EP   3   1054 44.30                             133   -0.25 2  143 263 
 PTB  HN ES   3   1055  5.07                             133   -0.04 2  143 263 
 PTB  HN I        1055 10.22         4.3 0.64                           143 263 
 ZAR  HZ EP   3   1054 50.89                             122    0.25 2  205 295 
 ZAR  HE ES   3   1055 15.17                             122   -0.79 2  205 295 
                                                                                
