 2011  4 8 1150 52.1 L   6.816 -73.116145.1  RSN 10 0.4 2.4LRSN                1
 GAP=157        0.94       4.7     5.9  8.4 -0.1286E+02  0.3313E+01  0.1398E+02E
 Epicentro: LOS SANTOS - SANTANDER                                             3
 ACTION:UP  11-06-22 15:29 OP:REBC STATUS:               ID:20110408115052 L   I
 2011-04-08-1149-35S.COL___138                                                 6
 STAT SP IPHASW D HRMM SECON CODA AMPLIT PERI AZIMU VELO SNR AR TRES W  DIS CAZ7
 BTL  SZ IP       1151 11.67                             172     0.110   20 304 
 BAR2 SZ EP       1151 11.54                             169    -0.110   26 197 
 BAR2 SZ I        1151 27.95        99.7 0.19                            26 197 
 BRR  HZ EP       1151 13.32                             152     0.010   73 296 
 BRR  HN ES   1   1151 30.10                             152     0.3 7   73 296 
 BRR  HZ I        1151 31.10        68.6 0.08                            73 296 
 PAM  SZ EP       1151 14.25                             152     0.210   74  38 
 PAM  SN ES   1   1151 31.27                             152     0.1 7   74  38 
 PAM  SZ I        1151 33.77         9.8 0.26                            74  38 
 GRA  SZ EP       1151 17.27                             138     0.210  123  16 
 GRA  SZ I        1151 39.63        24.0 0.18                           123  16 
 OCA  SZ EP       1151 19.98                             130    -0.2 9  159 352 
 OCA  SZ ES   1   1151 41.21                             130    -0.9 7  159 352 
 OCA  SZ I        1151 51.83        33.4 0.36                           159 352 
 NOR  SZ EP       1151 27.96                             118    -0.2 8  238 235 
 NOR  SN ES   1   1151 55.50                             118    -0.8 6  238 235 
 CHI  HZ EP       1151 29.95                             117    -0.1 8  251 196 
 CHI  HE ES   1   1151 59.42                             117    -0.2 6  251 196 
 CHI  HZ I        1152  6.96        15.5 0.30                           251 196 
 HEL  HZ EP   1   1151 33.33                             114     0.7 6  276 256 
 HEL  HN ES   1   1152  5.04                             114     0.7 6  276 256 
 HEL  HZ I        1152 11.01        18.2 0.52                           276 256 
 RREF HZ EP   1   1151 38.70                             110     0.1 5  325 230 
 RREF HZ I        1152 22.77        10.6 0.23                           325 230 
                                                                                
