 2013  6 8 1720 46.5 L   6.840 -73.292123.3  RSN  4 0.4 1.6LRSN                1
 GAP=134        1.14      10.9     7.0  9.1 -0.8674E+01  0.1792E+02  0.1739E+02E
 Epicentro: ZAPATOCA - SANTANDER                                               3
 ACTION:UPD 14-01-08 09:53 OP:ep   STATUS:               ID:20130608172046 L   I
 OLDACT:DUP 13-06-08 18:34 OP:nd   STATUS:               ID:20130608171960d    3
 2013-06-08-1719-59M.COL___261                                                 6
 STAT SP IPHASW D HRMM SECON CODA AMPLIT PERI AZIMU VELO AIN AR TRES W  DIS CAZ7
 GIR2 SZ EP       1721  3.58                             166    0.1210 28.6  22 
 GIR2 SZ ES       1721 16.12                             166   -0.5410 28.6  22 
 GIR2 SZ I        1721 17.25         6.4 0.30            168           28.6  22 
 BAR2 SZ EP       1721  4.16                             166    0.5110 30.0 156 
 BAR2 SZ ES       1721 16.92                             166   -0.0810 30.0 156 
 BAR2 SZ I        1721 18.52        30.0 0.32            168           30.0 156 
 BRR  HZ EP       1721  4.65                             154    0.3010 55.0 303 
 BRR  HN ES       1721 18.52                             154    0.2810 55.0 303 
 BRR  HZ I        1721 21.77         6.1 0.22            153           55.0 303 
 PTB  HZ IP     D 1721  9.47                             129   -0.8710  133 256 
 PTB  HN ES       1721 29.13                             129    0.2210  133 256 
 PTB  HZ I        1721 31.22         4.8 0.28            130            133 256 
                                                                                
