 2014  7 8 1255 55.0 L   6.823 -73.171141.3  RSN  4 0.3 1.3LRSN                1
 GAP=207        0.59       4.3     4.1  7.3  0.1684E+01  0.7853E+01 -0.1540E+02E
 Epicentro: LOS SANTOS - SANTANDER                                             3
 ACTION:UPD 15-03-16 20:42 OP:nd   STATUS:               ID:20140708125555 L   I
 OLDACT:REG 14-07-08 19:52 OP:cam  STATUS:               ID:20140708125000     3
 2014-07-08-1250-00M.COL___282                                                 6
 STAT SP IPHASW D HRMM SECON CODA AMPLIT PERI AZIMU VELO AIN AR TRES W  DIS CAZ7
 BAR2 SZ EP       1256 14.35                             169    0.1710 25.6 183 
 BAR2 SZ ES       1256 29.10                             169   -0.0110 25.6 183 
 PTB  HZ EP   1   1256 21.11                             131   -0.33 7  146 258 
 PTB  HN ES       1256 41.85                             131   -0.18 9  146 258 
 PTB  HZ I        1256 43.86         2.4 0.20            130            146 258 
 ZAR  HZ EP   4   1256 28.65                             122    1.83 0  200 292 
 ZAR  HN ES       1256 52.02                             122    0.40 9  200 292 
 ZAR  HZ I        1256 57.96         2.3 0.44            121            200 292 
 SML  HZ EP   2   1256 31.36                             117    0.33 4  240 336 
 SML  HE ES       1256 58.82                             117   -0.29 8  240 336 
                                                                                
