 2016 12 8 1629 20.8 L   6.799 -73.176148.5  RSN  4 0.1 1.5LRSN                1
 GAP=143        0.34       2.1     2.0  2.8 -0.1293E+01  0.1486E+01 -0.5607E+00E
 Epicentro: LOS SANTOS - SANTANDER                                             3
 ACTION:UPD 17-01-11 20:13 OP:rebc STATUS:               ID:20161208162920 L   I
 OLDACT:REG 16-12-09 03:13 OP:dani STATUS:               ID:20161208162640     3
 2016-12-08-1627-00M.COL___358                                                 6
 STAT SP IPHASW D HRMM SECON CODA AMPLIT PERI AZIMU VELO AIN AR TRES W  DIS CAZ7
 BAR2 EZ EP       1629 40.71                             171   -0.0810 22.9 182 
 BAR2 HN ES       1629 56.43                             171    0.0810 22.9 182 
 BAR2 EZ I        1629 57.55        10.6 0.32            172           22.9 182 
 PAM  EZ EP       1629 43.63                             151    0.1510 79.7  41 
 PAM  EN ES       1630  1.04                             151   -0.1010 79.7  41 
 PAM  EZ I        1630  2.97         8.3 0.57            152           79.7  41 
 RUS  HZ EP       1629 44.90                             144    0.0310  101 174 
 RUS  HN ES       1630  3.58                             144   -0.0410  101 174 
 RUS  HZ I        1630  5.06         4.7 0.28            146            101 174 
 PTB  HZ EP       1629 47.64                             133   -0.09 9  144 259 
 PTB  HE ES       1630  8.75                             133    0.04 9  144 259 
 PTB  HZ I        1630 10.60         2.9 0.17            135            144 259 
                                                                                
