 2017  5 8 1224 26.5 L   6.520 -73.759 84.5  RSN 11 0.4 2.0LRSN                1
 GAP= 77        1.04       2.9     2.3  7.9  0.3749E+00 -0.9088E+00 -0.1803E+01E
 Epicentro: SANTA HELENA DEL OPON - SANTANDER                                  3
 ACTION:UPD 17-06-16 13:34 OP:jn   STATUS:               ID:20170508122426 L   I
 OLDACT:REG 17-05-08 20:08 OP:lv   STATUS:               ID:20170508121734     3
 2017-05-08-1218-00M.COL___374                                                 6
 STAT SP IPHASW D HRMM SECON CODA AMPLIT PERI AZIMU VELO AIN AR TRES W  DIS CAZ7
 BRR  HZ IP     D 1224 41.20                             139    0.2510 65.1   5 
 BRR  HE ES   4   1224 54.32                             139    2.07 0 65.1   5 
 PTB  HZ IP     D 1224 41.18                             134   -0.8210 77.2 272 
 PTB  HN ES       1224 53.90                             134   -0.2210 77.2 272 
 RUS  HZ EP       1224 44.42                             126   -0.5710  102 133 
 RUS  HN ES       1224 59.40                             126   -0.0510  102 133 
 SPBC HZ EP       1224 44.05                             125   -0.4110  102 200 
 SPBC HN ES       1224 58.77                             125    0.2610  102 200 
 SPBC HZ I        1224 59.83        21.1 0.15            124            102 200 
 PAM  EZ EP       1224 49.56                             115   -0.35 9  148  52 
 PAM  EN ES       1225  8.55                             115    0.35 9  148  52 
 PAM  EZ I        1225 15.46        47.2 0.04            113            148  52 
 ZAR  HZ EP       1224 50.94                             112    0.04 9  162 312 
 NOR  HZ EP       1224 50.64                             112   -0.31 9  162 229 
 ZAR  HN ES       1225 10.48                             112    0.51 9  162 312 
 NOR  HE ES       1225 10.53                             112    0.47 9  162 229 
 NOR  HZ I        1225 11.96        13.3 0.06            111            162 229 
 YPLC HZ EP       1224 54.83                             108   -0.16 9  197 129 
 YPLC HN ES       1225 18.01                             108    0.76 9  197 129 
 HEL  HZ EP       1224 56.03                             108    0.39 9  199 260 
 HEL  HE ES       1225 18.55                             108    0.15 9  199 260 
 HEL  HZ I        1225 21.58         6.7 0.14            107            199 260 
 ORTC HZ EP       1225 11.48                             100    0.24 7  332 210 
 ORTC HN ES   4   1225 48.63                             100    2.46 0  332 210 
 ORTC HZ I        1225 54.69         5.9 0.36             99            332 210 
 SJC  HZ EP   9   1225 18.34                              98   -1.77 0  405 337 
 SJC  HN ES       1225 59.71                                   -0.48 6  405 337 
                                                                                
