 2011  9 8 1546 52.8 L   6.695 -73.154147.4  RSN  5 0.2 1.5LRSN                1
 GAP=181        0.41       5.6     7.6  4.9  0.3374E+02 -0.4577E+01 -0.4667E+01E
 Epicentro: VILLANUEVA - SANTANDER                                             3
 ACTION:UPD 12-07-13 15:56 OP:ep   STATUS:               ID:20110908154652 L   I
 2011-09-08-1542-37S.COL___171                                                 6
 STAT SP IPHASW D HRMM SECON CODA AMPLIT PERI AZIMU VELO AIN AR TRES W  DIS CAZ7
 BAR2 SZ EP   1   1547 12.55                             175    0.14 7 11.8 195 
 BAR2 SZ I        1547 12.77         6.1 0.21                          11.8 195 
 BAR2 SZ ES   1   1547 27.52                             175   -0.22 7 11.8 195 
 GIR2 SZ EP   2   1547 12.85                             163   -0.13 5 42.7 354 
 BRR  HZ EP   1   1547 14.60                             151    0.20 7 76.7 306 
 BRR  HN ES   1   1547 31.33                             151    0.05 7 76.7 306 
 BRR  HZ I        1547 32.94         9.6 0.25                          76.7 306 
 RUS  HZ EP   1   1547 15.64                             147   -0.24 7 89.1 175 
 RUS  HE ES   1   1547 34.10                             147    0.19 7 89.1 175 
 RUS  HZ I        1547 36.40         3.8 0.20                          89.1 175 
 ZAR  HN ES   2   1547 51.18                             122   -0.22 4  208 295 
 ZAR  HZ I        1547 56.90         3.6 0.21                           208 295 
                                                                                
