 2010  4 8 1618 44.5 L   6.836 -73.076156.9  RSN 11 0.4 2.9LRSN                1
 GAP=147        0.84       5.3     7.2  8.5 -0.1590E+02 -0.8110E+01  0.2147E+02E
 Epicentro: LOS SANTOS - SANTANDER                                             3
 ACTION:UPD 10-08-24 09:58 OP:vdl  STATUS:               ID:20100408161844 L   I
 2010-04-08-1616-35S.COL___097                                                 6
 STAT SP IPHASW D HRMM SECON CODA AMPLIT PERI AZIMU VELO AIN AR TRES W  DIS CAZ7
 BAR2 SZ IP       1619  5.22                             169    -0.410   30 204 
 BRR  HZ IP     C 1619  7.34                             153     0.210   76 293 
 BRR  HN ES   1   1619 24.84                             153     0.1 7   76 293 
 BRR  HZ I        1619 28.46       112.2 0.30                            76 293 
 OCA  SZ EP       1619 13.70                             133     0.3 9  157 350 
 OCA  SZ ES   2   1619 35.67                             133    -0.3 5  157 350 
 OCA  SZ I        1619 42.32       103.4 0.29                           157 350 
 CHI  HZ EP       1619 23.34                             119    -0.1 8  255 197 
 CHI  HZ I        1620  2.40        30.8 0.46                           255 197 
 ROSC BZ EP       1619 24.51                             118     0.5 8  260 212 
 ROSC BE ES   3   1619 54.76                             118    -0.1 2  260 212 
 ROSC BZ I        1620  0.23        30.9 0.38                           260 212 
 HEL  HZ EP       1619 25.91                             116    -0.3 7  280 255 
 HEL  HZ I        1620  3.76        30.4 0.37                           280 255 
 RREF BZ EP       1619 32.52                             112     0.4 7  330 230 
 RREF BN ES   2   1620 10.07                             112     0.9 3  330 230 
 RREF BZ I        1620 14.43        32.6 0.24                           330 230 
 DBB  SZ EP       1619 32.57                             111    -0.7 6  347 273 
 SDV  BE EP   2   1619 34.97                             111     1.0 3  352  50 
 SDV  BN ES   2   1620 12.11                             111    -0.5 3  352  50 
 ANIL BZ EP   2   1619 36.10                             110     0.4 3  366 225 
 ANIL BN ES   2   1620 15.92                             110     0.3 3  366 225 
 ANIL BZ I        1620 23.09        32.5 0.21                           366 225 
 PRA  HZ EP       1619 38.55                             108    -0.7 6  399 210 
 PRA  HN ES   2   1620 21.58                             108    -0.4 3  399 210 
 PRA  HZ I        1620 27.17        30.2 0.51                           399 210 
                                                                                
