 2010 12 8 1833 32.8 L   6.772 -73.147141.0  RSN  9 0.5 2.4LRSN                1
 GAP=174        0.98       5.5    11.2  7.0 -0.3800E+02  0.2133E+02  0.4124E+00E
 Epicentro: LOS SANTOS - SANTANDER                                             3
 ACTION:UP  11-01-14 15:23 OP:pat  STATUS:               ID:20101208183332 L   I
 2010-12-08-1832-07S.COL___135                                                 6
 STAT SP IPHASW D HRMM SECON CODA AMPLIT PERI AZIMU VELO SNR AR TRES W  DIS CAZ7
 BAR2 SZ IP       1833 51.76                             171     0.010   20 191 
 BAR2 SZ I        1833 52.31        77.8 0.35            171             20 191 
 BAR2 SZ ES   1   1834  6.06                             171    -0.5 7   20 191 
 BTL  SZ IP       1833 51.86                             173     0.110   21 321 
 BTL  SZ ES   1   1834  6.99                             173     0.4 7   21 321 
 GIR2 SZ IP       1833 51.79                             166    -0.210   34 351 
 GIR2 SZ ES   2   1834  6.96                             166     0.0 5   34 351 
 GRA  SZ IP       1833 58.50                             135     0.710  129  17 
 GRA  SZ ES   1   1834 17.97                             135     0.6 7  129  17 
 GRA  SZ I        1834 19.35        49.4 0.42                           129  17 
 OCA  SZ EP       1834  0.34                             128    -0.7 9  163 353 
 OCA  SZ ES   1   1834 22.26                             128    -0.8 7  163 353 
 OCA  SZ I        1834 26.93        28.1 0.32                           163 353 
 NOR  SZ EP       1834  7.73                             118    -0.3 8  233 235 
 NOR  SN ES   2   1834 35.89                             118     0.4 4  233 235 
 CHI  HZ EP       1834  9.95                             116     0.1 8  246 195 
 CHI  HN ES   3   1834 38.36                             116    -0.4 2  246 195 
 CHI  HZ I        1834 49.17         8.8 0.40                           246 195 
 RREF HZ EP   2   1834 19.14                             110     0.7 3  320 230 
 RREF HN ES   2   1834 54.83                             110     0.7 3  320 230 
 RREF HZ I        1835  6.70        14.8 0.35                           320 230 
 PRA  HZ EP   2   1834 26.15                             106     0.4 3  389 210 
                                                                                
