 2011 12 8 1126 59.3 L   6.765 -73.091145.3  RSN  6 0.3 1.6LRSN                1
 GAP=145        0.52       3.5     4.4  5.4 -0.3696E+01  0.2615E+01  0.2196E+01E
 Epicentro: LOS SANTOS - SANTANDER                                             3
 ACTION:UPD 12-07-13 16:14 OP:ep   STATUS:               ID:20111208112659 L   I
 2011-12-08-1125-00S.MAN___170                                                 6
 STAT SP IPHASW D HRMM SECON CODA AMPLIT PERI AZIMU VELO AIN AR TRES W  DIS CAZ7
 BAR2 SZ EP   1   1127 18.59                             171   -0.30 7 21.6 208 
 BAR2 SZ ES   1   1127 34.09                             171   -0.04 7 21.6 208 
 BAR2 SZ I        1127 36.38         8.8 0.26                          21.6 208 
 PAM  SZ EP   1   1127 21.62                             151    0.14 7 76.9  34 
 PAM  SN ES   1   1127 38.70                             151   -0.05 7 76.9  34 
 BRR  HZ EP   1   1127 20.84                             150   -0.03 7 78.4 299 
 BRR  HE ES   1   1127 37.82                             150    0.16 7 78.4 299 
 BRR  HZ I        1127 40.79         6.3 0.28                          78.4 299 
 RUS  HZ EP   1   1127 22.82                             145    0.06 7 96.4 180 
 RUS  HN ES   1   1127 41.14                             145    0.12 7 96.4 180 
 RUS  HZ I        1127 43.21         4.0 0.39                          96.4 180 
 NOR  SN ES   2   1128  2.56                             118   -0.87 4  237 236 
 RREF HN ES   2   1128 22.80                             111    0.92 3  324 231 
 RREF HZ I        1128 28.61         2.3 0.32                           324 231 
                                                                                
