 2016  9 8 1412 57.0 L   6.730 -73.148135.0  RSN  5 0.4 1.5LRSN                1
 GAP=139        1.05       5.3     4.9  8.2 -0.9517E+00  0.1572E+02 -0.7795E+01E
 Epicentro: JORDAN - SANTANDER                                                 3
 ACTION:UPD 17-08-17 21:08 OP:lp   STATUS:               ID:20160908141257 L   I
 OLDACT:REG 16-09-08 20:08 OP:lv   STATUS:               ID:20160908140733     3
 2016-09-08-1408-00M.COL___357                                                 6
 STAT SP IPHASW D HRMM SECON CODA AMPLIT PERI AZIMU VELO AIN AR TRES W  DIS CAZ7
 BAR2 EZ EP       1413 15.27                             173    0.0710 15.7 194 
 BAR2 EZ ES       1413 29.79                             173    0.3910 15.7 194 
 BAR2 EZ I        1413 31.24         9.9 0.24            173           15.7 194 
 PAM  EZ EP       1413 18.12                             147   -0.3810 83.6  36 
 PAM  EN ES       1413 35.10                             147   -0.1610 83.6  36 
 PAM  EZ I        1413 37.54         6.6 0.58            149           83.6  36 
 RUS  HZ EP       1413 19.71                             144    0.5610 92.9 176 
 RUS  HN ES       1413 36.20                             144   -0.2110 92.9 176 
 RUS  HZ I        1413 39.18         2.8 0.28            148           92.9 176 
 PTB  HZ EP       1413 22.30                             130   -0.67 9  146 262 
 PTB  HN ES       1413 42.82                             130   -0.40 9  146 262 
 PTB  HZ I        1413 45.32         5.4 0.13            131            146 262 
 ZAR  HZ EP       1413 29.66                             119    0.59 8  207 294 
 ZAR  HN ES       1413 54.39                             119    0.32 8  207 294 
 ZAR  HZ I        1414  2.29         4.7 0.46            121            207 294 
                                                                                
