 2015 12 8 1116 56.3 L   7.514 -73.487107.8  RSN  5 0.4 1.7LRSN                1
 GAP=106        1.12       4.7     4.4  9.6  0.3479E+00  0.9949E+01 -0.1218E+02E
 Epicentro: SABANA DE TORRES - SANTANDER                                       3
 ACTION:UPD 16-02-04 15:03 OP:cam  STATUS:               ID:20151208111656 L   I
 OLDACT:REG 15-12-08 21:39 OP:mh   STATUS:               ID:20151208110749     3
 2015-12-08-1107-49M.COL___316                                                 6
 STAT SP IPHASW D HRMM SECON CODA AMPLIT PERI AZIMU VELO AIN AR TRES W  DIS CAZ7
 BRR  HZ EP       1117 12.17                             153   -0.0710 51.3 209 
 BRR  HZ I        1117 22.23        10.5 0.32            147           51.3 209 
 BRR  HN ES       1117 24.12                             153   -0.5410 51.3 209 
 OCA  HZ EP       1117 13.77                             140   -0.8010 82.3  13 
 OCA  HN ES       1117 29.30                             140    0.4910 82.3  13 
 PAM  EZ EP       1117 15.86                             138    0.2810 89.1 102 
 PAM  EN ES       1117 30.91                             138    0.3010 89.1 102 
 ZAR  HZ EP   1   1117 21.43                             121    0.58 7  151 269 
 ZAR  HN ES       1117 40.44                             121    0.45 9  151 269 
 ZAR  HZ I        1117 44.87         6.0 0.26            118            151 269 
 SML  HZ EP       1117 21.08                             120   -0.28 9  156 336 
 SML  HN ES       1117 40.78                             120   -0.11 9  156 336 
 SML  HZ I        1117 45.38        11.6 0.26            119            156 336 
                                                                                
