 2016  9 8 1300 18.7 L   6.801 -73.176141.4  RSN  9 0.3 1.7LRSN                1
 GAP=133        0.70       2.5     2.9  4.5 -0.6769E+00  0.3798E+01  0.2032E+00E
 Epicentro: LOS SANTOS - SANTANDER                                             3
 ACTION:UPD 17-08-17 21:08 OP:lp   STATUS:               ID:20160908130018 L   I
 OLDACT:REG 16-09-08 19:46 OP:lv   STATUS:               ID:20160908125741     3
 2016-09-08-1258-00M.COL___359                                                 6
 STAT SP IPHASW D HRMM SECON CODA AMPLIT PERI AZIMU VELO AIN AR TRES W  DIS CAZ7
 BAR2 EZ EP       13 0 37.56                             170   -0.2710 23.1 182 
 BAR2 EZ ES       13 0 52.52                             170   -0.2210 23.1 182 
 BAR2 EZ I        13 0 54.21        17.0 0.13            170           23.1 182 
 BRR  HZ EP       13 0 39.47                             153    0.2310 68.3 300 
 BRR  HN ES   4   13 0 56.50                             153    1.25 0 68.3 300 
 BRR  HZ I        13 0 57.13        10.4 0.11            151           68.3 300 
 PAM  EZ EP       13 0 40.51                             149   -0.1010 79.5  41 
 PAM  EE ES       13 0 57.75                             149    0.0710 79.5  41 
 PAM  EZ I        13 0 59.71        14.8 0.50            152           79.5  41 
 RUS  HZ EP       13 0 42.00                             143   -0.0810  101 174 
 RUS  HN ES       13 1  0.69                             143    0.3910  101 174 
 RUS  HZ I        13 1  1.34         5.8 0.26            145            101 174 
 PTB  HZ EP       13 0 44.65                             132   -0.40 9  145 259 
 PTB  HN ES       13 1  5.54                             132   -0.04 9  145 259 
 PTB  HZ I        13 1  8.34         5.4 0.15            132            145 259 
 SPBC HZ EP       13 0 46.64                             128   -0.07 9  161 218 
 SPBC HN ES       13 1  8.35                             128   -0.18 9  161 218 
 SPBC HZ I        13 1 11.81         9.9 0.10            129            161 218 
 ZAR  HZ EP       13 0 50.93                             122    0.36 9  201 292 
 ZAR  HE ES       13 1 15.66                             122    0.25 9  201 292 
 ZAR  HZ I        13 1 22.33         4.9 0.16            122            201 292 
 CHI  HZ EP       13 0 55.91                             116   -0.20 8  248 194 
 CHI  HE ES       13 1 25.70                             116    0.44 8  248 194 
 CHI  HZ I        13 1 29.34         1.8 0.13            118            248 194 
 GUY2CHZ EP   9   13 1  3.78                             112    1.94 0  299 234 
 GUY2CHN ES       13 1 36.77                                   -0.64 7  299 234 
 GUY2CHZ I        13 1 43.84         2.7 0.36                           299 234 
                                                                                
