 2010  5 8 1706  3.3 L   6.342 -73.801100.0  RSN 15 0.5 2.2LRSN                1
 GAP= 81        0.96       3.4     4.8  8.1 -0.7010E+01  0.1844E+02 -0.4483E+01E
 Epicentro: LANDAZURI - SANTANDER                                              3
 ACTION:UP  10-08-24 10:03 OP:vdl  STATUS:               ID:20100508170603 L   I
 2010-05-08-1704-31S.COL___105                                                 6
 STAT SP IPHASW D HRMM SECON CODA AMPLIT PERI AZIMU VELO SNR AR TRES W  DIS CAZ7
 BAR2 SZ IP       17 6 20.25                             141     0.010   74  68 
 BAR2 SZ ES   1   17 6 33.42                             141     0.0 7   74  68 
 BRR  HZ IP     D 17 6 21.06                             137     0.210   85   7 
 BRR  HN ES   1   17 6 34.43                             137    -0.1 7   85   7 
 BRR  HZ I        17 6 35.80        95.6 0.08                            85   7 
 RUS  HZ EP   1   17 6 22.62                             134     0.4 7   94 122 
 RUS  HE ES   1   17 6 36.80                             134    -0.2 7   94 122 
 RUS  HZ I        17 6 38.29        11.0 0.17                            94 122 
 GIR2 SZ IP       17 6 22.76                             130    -0.110  106  39 
 BRI  SZ EP       17 6 31.18                             114    -0.4 9  188  36 
 BRI  SZ ES   1   17 6 54.67                             114     0.9 7  188  36 
 CHI  HN ES   2   17 6 53.90                             114    -0.6 4  190 178 
 CHI  HZ I        17 7  2.24         7.9 0.34                           190 178 
 GUE  SZ EP       17 6 31.65                             114    -0.4 9  191  30 
 HEL  HZ EP   1   17 6 31.87                             113    -0.4 7  192 265 
 HEL  HN ES   2   17 6 54.17                             113    -0.8 4  192 265 
 HEL  HZ I        17 6 57.02        18.7 0.34                           192 265 
 GRA  SZ EP       17 6 33.17                             112    -0.1 9  203  33 
 GRA  SZ ES   1   17 6 56.55                             112    -0.1 6  203  33 
 OCA  SZ EP       17 6 34.37                             111    -0.4 8  216  14 
 OCA  SZ ES   1   17 7  0.35                             111     0.9 6  216  14 
 OCA  SZ I        17 7  3.20        33.9 0.42                           216  14 
 RREF BZ EP   1   17 6 38.19                             109     0.7 6  234 227 
 RREF BN ES   2   17 7  4.60                             109     0.5 4  234 227 
 RREF BZ I        17 7 10.16        22.4 0.19                           234 227 
 TOL  SZ EP   1   17 6 39.41                             107    -0.4 6  257 221 
 DBB  SZ EP   2   17 6 42.22                             106     0.4 4  277 286 
 PRA  HZ EP   1   17 6 47.06                             104     0.8 5  315 203 
 PRA  HN ES   2   17 7 20.64                             104     0.8 3  315 203 
 PRA  HZ I        17 7 26.39        11.3 0.17                           315 203 
 SDV  BZ EP   1   17 7  2.87                              99     0.2 4  448  51 
 SDV  BZ I        17 7 53.41         4.8 0.46                           448  51 
                                                                                
