 2017  4 8 1852 47.4 L   6.804 -73.130147.1  RSN 15 0.4 2.1LRSN                1
 GAP=113        0.90       3.0     2.9  4.7  0.1629E+01  0.4748E+01  0.4440E+01E
 Epicentro: LOS SANTOS - SANTANDER                                             3
 ACTION:UPD 17-05-30 21:09 OP:jn   STATUS:               ID:20170408185247 L   I
 OLDACT:UP  17-04-08 22:20 OP:edw  STATUS:               ID:20170408184746     3
 OLDACT:UP  17-04-08 22:20 OP:edw  STATUS:               ID:20170408184746     3
 OLDACT:REG 17-04-08 21:12 OP:ar   STATUS:               ID:20170408184746     3
 2017-04-08-1848-00M.COL___377                                                 6
 STAT SP IPHASW D HRMM SECON CODA AMPLIT PERI AZIMU VELO AIN AR TRES W  DIS CAZ7
 BAR2 EZ EP       1853  7.04                             170   -0.1910 24.1 194 
 BAR2 EZ ES       1853 22.53                             170   -0.1510 24.1 194 
 BAR2 EZ I        1853 23.33        30.4 0.30            167           24.1 194 
 BRR  HZ EP       1853  9.30                             152    0.5010 72.6 298 
 BRR  HN ES       1853 26.17                             152    0.7010 72.6 298 
 PAM  EZ IP     D 1853  9.78                             151    0.0810 75.9  39 
 PAM  EN ES       1853 27.12                             151    0.0510 75.9  39 
 PAM  EZ I        1853 29.13        24.5 0.60            155           75.9  39 
 RUS  HZ EP       1853 11.08                             144   -0.2510  101 177 
 RUS  HN ES       1853 29.55                             144   -0.4310  101 177 
 RUS  HZ I        1853 30.88        15.7 0.22            143            101 177 
 PTB  HZ EP       1853 14.74                             132    0.07 9  150 259 
 PTB  HN ES       1853 35.24                             132   -0.68 9  150 259 
 PTB  HZ I        1853 37.42        12.5 0.16            131            150 259 
 YPLC HZ IP     C 1853 17.39                             127    0.12 9  176 152 
 YPLC HN ES       1853 40.70                             127    0.15 9  176 152 
 YPLC HZ I        1853 42.29         9.9 0.22            127            176 152 
 ZAR  HZ EP       1853 19.76                             122   -0.35 8  206 292 
 ZAR  HN ES       1853 45.44                             122   -0.17 8  206 292 
 ZAR  HZ I        1853 51.62        17.1 0.28            122            206 292 
 NOR  HZ EP       1853 22.89                             119   -0.52 8  236 235 
 NOR  HN ES       1853 51.70                             119    0.22 8  236 235 
 NOR  HZ I        1853 55.29         8.3 0.30            118            236 235 
 CHI  HZ EP       1853 25.68                             117    0.39 8  249 196 
 CHI  HN ES       1853 54.59                             117   -0.24 8  249 196 
 CHI  HZ I        1854  2.66         5.1 0.56            117            249 196 
 HEL  HZ EP       1853 28.03                             115    0.12 8  274 256 
 HEL  HN ES       1854  0.08                             115    0.60 8  274 256 
 HEL  HZ I        1854  5.86         6.4 0.34            115            274 256 
 DBB  EZ EP   2   1853 34.78                             110   -0.37 3  341 274 
 DBB  EN ES       1854 11.68                             110   -0.70 7  341 274 
 DBB  EZ I        1854 12.41         3.5 0.34            110            341 274 
 ANIL HE ES   4   1854 17.53                             109    1.05 0  359 225 
 PRA  HZ EP       1853 41.09                             107   -0.04 6  393 210 
 PRA  HN ES       1854 23.11                             107    0.08 6  393 210 
 PRA  HZ I        1854 33.27         5.1 0.32            107            393 210 
 ORTC HZ EP       1853 41.56                             106    0.01 6  397 216 
 ORTC HN ES       1854 25.01                             106    1.24 6  397 216 
 ORTC HZ I        1854 32.10         1.7 0.68            106            397 216 
 PAL  HZ EP   2   1853 42.59                             106   -0.24 3  407 239 
 PAL  HN ES   4   1854 24.82                             106   -1.23 0  407 239 
 SJC  HZ EP   4   1853 40.96                             106   -2.14 0  410 327 
 SJC  HN ES   4   1854 22.39                             106   -4.14 0  410 327 
 SJC  HZ I        1854 26.79         5.1 0.44            106            410 327 
                                                                                
