 2013  1 8 1915  7.7 L   6.722 -73.173141.7  RSN  4 0.2 2.0LRSN                1
 GAP=228        0.63       4.9     4.7  5.1  0.1136E+02  0.3051E+01  0.1021E+01E
 Epicentro: VILLANUEVA - SANTANDER                                             3
 ACTION:UPD 13-02-15 09:13 OP:ep   STATUS:               ID:20130108191507 L   I
 2013-01-08-1910-00M.COL___239                                                 6
 STAT SP IPHASW D HRMM SECON CODA AMPLIT PERI AZIMU VELO AIN AR TRES W  DIS CAZ7
 BAR2 SZ EP       1915 26.64                             174   -0.0110 14.4 184 
 BAR2 SZ ES       1915 41.10                             174   -0.3610 14.4 184 
 BAR2 SZ I        1915 42.90        15.7 0.20            175           14.4 184 
 BRR  HZ EP       1915 28.42                             151   -0.0610 73.2 306 
 BRR  HN ES       1915 45.05                             151    0.3210 73.2 306 
 BRR  HN I        1915 49.12        37.3 0.20            150           73.2 306 
 RUS  HZ EP       1915 30.69                             145    0.2810 92.3 174 
 RUS  HN ES       1915 48.25                             145    0.0810 92.3 174 
 PTB  HZ EP       1915 33.58                             132   -0.31 9  143 262 
 PTB  HN ES       1915 54.38                             132    0.03 9  143 262 
 PTB  HZ I        1915 57.04         7.9 0.14            133            143 262 
                                                                                
