 2017  9 8 1411  0.0 L   6.784 -73.143145.9  RSN  5 0.4 1.4LRSN                1
 GAP=138        0.93       4.8     5.1  6.7  0.5819E+01  0.7969E+01 -0.1385E+01E
 Epicentro: LOS SANTOS - SANTANDER                                             3
 ACTION:UPD 17-10-05 19:10 OP:rebc STATUS:               ID:20170908141100 L   I
 OLDACT:REG 17-09-08 20:18 OP:lv   STATUS:               ID:20170908140743     3
 2017-09-08-1408-00M.COL___424                                                 6
 STAT SP IPHASW D HRMM SECON CODA AMPLIT PERI AZIMU VELO AIN AR TRES W  DIS CAZ7
 BAR2 EZ EP       1411 19.87                             171    0.2110 21.6 192 
 BAR2 EZ ES       1411 34.97                             171    0.0110 21.6 192 
 BAR2 EZ I        1411 36.25         9.5 0.20            171           21.6 192 
 BRR  HZ EP       1411 21.76                             152    0.4910 72.3 300 
 BRR  HN ES       1411 38.08                             152    0.2510 72.3 300 
 PAM  EZ EP       1411 22.48                             150    0.1310 78.6  39 
 PAM  EN ES       1411 39.38                             150   -0.3610 78.6  39 
 PAM  EZ I        1411 40.59         4.3 0.29            152           78.6  39 
 RUS  HZ EP       1411 23.94                             144    0.2610 98.8 176 
 RUS  HE ES       1411 41.74                             144   -0.3710 98.8 176 
 RUS  HZ I        1411 43.34         2.0 0.16            145           98.8 176 
 ZAR  HZ EP       1411 31.79                             122   -0.81 9  205 293 
 ZAR  HE ES       1411 57.96                             122   -0.03 9  205 293 
 ZAR  HZ I        1411 59.96         3.3 0.10            123            205 293 
                                                                                
