 2010 10 8 1406  6.4 L   6.799 -73.164157.9  RSN  5 0.1 1.6LRSN                1
 GAP=176        0.40       3.7     6.3  5.7 -0.1593E+02 -0.2133E+02  0.1267E+02E
 Epicentro: LOS SANTOS - SANTANDER                                             3
 ACTION:UP  11-02-18 11:08 OP:tino STATUS:               ID:20101008140606 L   I
 2010-10-08-1403-24S.COL___121                                                 6
 STAT SP IPHASW D HRMM SECON CODA AMPLIT PERI AZIMU VELO SNR AR TRES W  DIS CAZ7
 BRR  HN ES       14 6 46.28                             155     0.110   70 299 
 GUE  SZ EP   1   14 6 32.20                             142    -0.1 7  117  13 
 GUE  SZ I        14 6 33.32         2.7 0.20                           117  13 
 GRA  SZ EP   1   14 6 32.65                             139    -0.1 7  126  18 
 GRA  SZ I        14 6 33.89         9.7 0.49                           126  18 
 NOR  SZ EP       14 6 42.79                             121     0.1 8  233 234 
 NOR  SN ES   2   14 7 10.60                             121    -0.4 4  233 234 
 CHI  HN ES   1   14 7 14.52                             120    -0.1 6  248 195 
 CHI  HZ I        14 7 17.94         3.7 0.24                           248 195 
                                                                                
