 2013  2 8 1910 36.6 L   6.838 -73.110148.3  RSN  6 0.2 1.6LRSN                1
 GAP=139        0.43       3.0     3.8  4.6 -0.6022E+00  0.5277E+01  0.4971E+01E
 Epicentro: LOS SANTOS - SANTANDER                                             3
 ACTION:UPD 13-03-12 09:31 OP:ep   STATUS:               ID:20130208191036 L   I
 2013-02-08-1910-00M.COL___241                                                 6
 STAT SP IPHASW D HRMM SECON CODA AMPLIT PERI AZIMU VELO AIN AR TRES W  DIS CAZ7
 BAR2 SZ EP   1   1910 56.60                             169   -0.06 7 28.3 196 
 PAM  SZ EP   1   1910 58.98                             153    0.20 7 71.6  39 
 PAM  SE ES       1911 15.91                             153   -0.1510 71.6  39 
 PAM  SZ I        1911 16.79         4.4 0.25            157           71.6  39 
 BRR  HZ EP       1910 58.27                             152    0.1310 72.9 294 
 BRR  HN ES   1   1911 15.06                             152    0.14 7 72.9 294 
 BRR  HN I        1911 19.14        12.7 0.39            150           72.9 294 
 RUS  HZ EP   1   1911  0.87                             143   -0.04 7  105 178 
 RUS  HN ES   1   1911 19.88                             143    0.03 7  105 178 
 PTB  HZ EP   1   1911  3.81                             132   -0.41 7  152 258 
 CHI  HZ EP   1   1911 15.19                             117    0.18 6  254 196 
                                                                                
