 2011 11 8 1241 12.5 L   7.182 -73.070145.0  RSN  5 0.3 2.0LRSN                1
 GAP=147        0.60       4.6     4.3  5.8  0.4904E+01  0.5867E+01 -0.1232E+00E
 Epicentro: BUCARAMANGA - SANTANDER                                            3
 ACTION:UPD 12-07-13 16:09 OP:ep   STATUS:               ID:20111108124112 L   I
 2011-11-08-1225-00M.COL___167                                                 6
 STAT SP IPHASW D HRMM SECON CODA AMPLIT PERI AZIMU VELO AIN AR TRES W  DIS CAZ7
 PAM  SZ EP   1   1241 33.03                             162   -0.02 7 44.4  67 
 PAM  SZ I        1241 33.45        14.8 0.20                          44.4  67 
 PAM  SN ES   1   1241 49.03                             162   -0.03 7 44.4  67 
 BAR2 SZ EP   1   1241 33.69                             154    0.01 7 66.4 191 
 BAR2 SZ ES   1   1241 50.21                             154    0.03 7 66.4 191 
 BAR2 SZ I        1241 51.54        17.3 0.06                          66.4 191 
 BRR  HZ EP   1   1241 33.51                             152   -0.10 7 71.4 263 
 BRR  HZ I        1241 34.13        54.1 0.12                          71.4 263 
 BRR  HN ES   1   1241 50.20                             152    0.15 7 71.4 263 
 RUS  HZ EP   1   1241 39.22                             133   -0.40 7  143 181 
 RUS  HN ES   1   1242  0.92                             133    0.17 7  143 181 
 RUS  HZ I        1242  3.27         5.7 0.38                           143 181 
 ZAR  HZ EP   1   1241 45.29                             123    0.74 6  200 280 
 ZAR  HZ I        1241 46.20         8.7 0.15                           200 280 
 ZAR  HN ES   1   1242  9.01                             123   -0.51 6  200 280 
                                                                                
