 2017  9 8 1231 59.9 L   6.759 -73.112141.9  RSN  5 0.3 1.2LRSN                1
 GAP=143        0.92       4.7     5.1  7.3  0.4862E+01  0.4618E+01 -0.7462E+00E
 Epicentro: LOS SANTOS - SANTANDER                                             3
 ACTION:UPD 17-10-05 19:10 OP:rebc STATUS:               ID:20170908123159 L   I
 OLDACT:UP  17-09-08 23:34 OP:lv   STATUS:               ID:20170908122739     3
 OLDACT:REG 17-09-08 20:14 OP:lv   STATUS:               ID:20170908122739     3
 2017-09-08-1228-00M.COL___422                                                 6
 STAT SP IPHASW D HRMM SECON CODA AMPLIT PERI AZIMU VELO AIN AR TRES W  DIS CAZ7
 BAR2 EZ EP       1232 18.70                             172   -0.2610 20.0 203 
 BAR2 EZ ES       1232 33.29                             172   -0.5710 20.0 203 
 BAR2 EZ I        1232 34.59         5.6 0.28            172           20.0 203 
 BRR  HZ EP       1232 20.57                             150   -0.3410 76.6 300 
 BRR  HN ES       1232 37.76                             150    0.4310 76.6 300 
 PAM  EZ EP       1232 21.57                             150   -0.1710 78.8  35 
 PAM  EN ES       1232 39.11                             150    0.2910 78.8  35 
 PAM  EZ I        1232 40.92         3.3 0.57            150           78.8  35 
 RUS  HZ EP       1232 23.36                             144    0.4710 95.9 178 
 RUS  HN ES       1232 40.99                             144    0.1410 95.9 178 
 RUS  HZ I        1232 42.93         1.6 0.15            145           95.9 178 
 ZAR  HN ES       1232 58.12                             121    0.00 8  209 293 
                                                                                
