 2015 12 8 1030 31.4 L   6.823 -73.123146.0  RSN 12 0.5 2.2LRSN                1
 GAP=138        1.10       3.4     4.5  6.8 -0.2230E+01  0.9343E+01 -0.2823E+01E
 Epicentro: LOS SANTOS - SANTANDER                                             3
 ACTION:UPD 16-02-04 15:03 OP:cam  STATUS:               ID:20151208103031 L   I
 OLDACT:REG 15-12-08 21:34 OP:mh   STATUS:               ID:20151208102749     3
 2015-12-08-1027-49M.COL___320                                                 6
 STAT SP IPHASW D HRMM SECON CODA AMPLIT PERI AZIMU VELO AIN AR TRES W  DIS CAZ7
 BAR2 EZ EP   1   1030 51.31                             169    0.16 7 26.4 195 
 BAR2 EZ ES   1   1031  6.27                             169   -0.27 7 26.4 195 
 BAR2 EZ I        1031  8.44        16.4 0.22            167           26.4 195 
 BRR  HZ EP   1   1030 52.96                             152    0.29 7 72.3 296 
 BRR  HN ES       1031  9.52                             152    0.2910 72.3 296 
 BRR  HZ I        1031 12.88        15.9 0.34            148           72.3 296 
 PAM  EZ EP   1   1030 53.94                             152    0.48 7 73.8  39 
 PAM  EN ES       1031 11.14                             152    0.5010 73.8  39 
 RUS  HZ EP       1030 55.25                             143   -0.1310  103 178 
 RUS  HN ES       1031 13.86                             143   -0.2010  103 178 
 PTB  HZ EP       1030 58.03                             131   -0.66 9  151 258 
 PTB  HN ES       1031 20.40                             131    0.45 9  151 258 
 PTB  HZ I        1031 24.39        16.3 0.56            130            151 258 
 OCA  HZ EP       1031  0.04                             130    0.49 9  158 352 
 OCA  HN ES       1031 20.79                             130   -0.70 9  158 352 
 OCA  HZ I        1031 25.87        35.0 0.28            131            158 352 
 SPBC HN ES       1031 22.07                             128   -0.72 9  167 219 
 SPBC HZ I        1031 30.50        23.0 0.12            129            167 219 
 ZAR  HZ EP   1   1031  3.80                             122   -0.24 6  205 291 
 ZAR  HN ES       1031 29.33                             122   -0.14 8  205 291 
 ZAR  HZ I        1031 33.68        11.5 0.28            122            205 291 
 SML  HZ EP   1   1031  7.23                             118   -0.71 6  242 334 
 SML  HN ES       1031 36.00                             118   -0.41 8  242 334 
 SML  HZ I        1031 41.34        23.4 0.10            118            242 334 
 HEL  HZ EP   1   1031 12.20                             115    0.20 6  275 255 
 HEL  HN ES       1031 44.55                             115    0.91 8  275 255 
 HEL  HZ I        1031 49.62         8.8 0.40            115            275 255 
 URE  HZ EP   4   1031 13.59                             114    0.92 0  285 291 
 URE  HN ES   4   1031 41.20                             114   -3.64 0  285 291 
 URE  HZ I        1031 52.53        10.1 0.16            114            285 291 
 GUY2CHZ EP   1   1031 16.34                             112    0.89 5  305 235 
 GUY2CHN ES   4   1031 52.57                             112    2.78 0  305 235 
 GUY2CHZ I        1031 59.59        11.7 0.30                           305 235 
                                                                                
