 2016  2 8 1712 43.4 L   6.825 -73.149143.2  RSN  5 0.2 1.7LRSN                1
 GAP=201        0.57       3.1     3.5  4.9  0.4499E+01  0.9896E+00 -0.6804E+01E
 Epicentro: LOS SANTOS - SANTANDER                                             3
 ACTION:UPD 16-03-04 21:24 OP:rebc STATUS:               ID:20160208171243 L   I
 OLDACT:UP  16-02-08 23:27 OP:ak   STATUS:               ID:20160208170748     3
 OLDACT:REG 16-02-08 21:55 OP:ak   STATUS:               ID:20160208170748     3
 2016-02-08-1707-48M.COL___328                                                 6
 STAT SP IPHASW D HRMM SECON CODA AMPLIT PERI AZIMU VELO AIN AR TRES W  DIS CAZ7
 BAR2 EZ EP       1713  2.98                             169    0.1910 26.0 188 
 BAR2 EZ ES       1713 18.05                             169    0.1510 26.0 188 
 BAR2 EZ I        1713 20.25        11.9 0.40            169           26.0 188 
 RUS  HZ EP       1713  7.07                             142   -0.0410  103 176 
 RUS  HN ES       1713 25.37                             142   -0.2310  103 176 
 RUS  HZ I        1713 26.37         5.3 0.28            146            103 176 
 PTB  HZ EP       1713 10.56                             131    0.37 9  148 258 
 PTB  HN ES       1713 30.84                             131   -0.24 9  148 258 
 PTB  HZ I        1713 34.10         4.6 0.15            132            148 258 
 ZAR  HZ EP       1713 15.29                             122   -0.26 9  203 291 
 ZAR  HN ES       1713 40.85                             122    0.23 9  203 291 
 ZAR  HZ I        1713 47.88         8.3 0.32            123            203 291 
 SML  HZ EP       1713 19.58                             117   -0.03 8  241 335 
 SML  HN ES       1713 47.64                             117   -0.21 8  241 335 
                                                                                
