 2013  1 8 1815 54.4 L   6.695 -73.218145.5  RSN  4 0.4 1.7LRSN                1
 GAP=211        1.02      10.4    14.8  8.6  0.1150E+03  0.4256E+02  0.2156E+02E
 Epicentro: VILLANUEVA - SANTANDER                                             3
 ACTION:UPD 13-02-15 09:13 OP:ep   STATUS:               ID:20130108181554 L   I
 2013-01-08-1810-00M.COL___239                                                 6
 STAT SP IPHASW D HRMM SECON CODA AMPLIT PERI AZIMU VELO AIN AR TRES W  DIS CAZ7
 BAR2 SZ EP       1816 13.82                             175   -0.0310 12.0 161 
 BAR2 SZ ES       1816 28.36                             175   -0.6410 12.0 161 
 BAR2 SZ I        1816 29.54        11.9 0.26            173           12.0 161 
 BRR  HZ EP       1816 15.49                             152   -0.0510 71.1 310 
 BRR  HN ES       1816 32.55                             152    0.5410 71.1 310 
 BRR  HN I        1816 33.13        17.4 0.30            153           71.1 310 
 RUS  HZ EP       1816 17.76                             147    0.3510 89.9 170 
 RUS  HN ES       1816 35.56                             147    0.2210 89.9 170 
 RUS  HN I        1816 37.17         5.3 0.52            146           89.9 170 
 PTB  HZ EP       1816 20.06                             134   -0.44 9  138 263 
                                                                                
