 2011 11 8 1735 22.6 L   6.996 -73.227124.9  RSN  5 0.3 1.7LRSN                1
 GAP=130        0.68       5.6     4.2  7.1 -0.3915E+01  0.1211E+02 -0.2714E+01E
 Epicentro: GIRON - SANTANDER                                                  3
 ACTION:UPD 12-07-13 16:09 OP:ep   STATUS:               ID:20111108173522 L   I
 2011-11-08-1725-00M.COL___170                                                 6
 STAT SP IPHASW D HRMM SECON CODA AMPLIT PERI AZIMU VELO AIN AR TRES W  DIS CAZ7
 BAR2 SZ EP   1   1735 40.69                             159    0.21 7 45.0 174 
 BAR2 SZ ES   1   1735 53.85                             159   -0.56 7 45.0 174 
 BAR2 SZ I        1735 56.39        32.1 0.36                          45.0 174 
 BRR  HZ EP   1   1735 40.96                             155    0.35 7 54.9 283 
 BRR  HZ I        1735 47.43        15.5 0.29                          54.9 283 
 BRR  HE ES   1   1735 55.05                             155    0.41 7 54.9 283 
 PAM  SZ EP   1   1735 42.21                             149    0.06 7 69.5  57 
 PAM  SN ES   1   1735 57.36                             149   -0.03 7 69.5  57 
 PAM  SZ I        1735 59.28         3.9 0.20                          69.5  57 
 ZAR  HZ EP   1   1735 51.62                             120   -0.48 7  188 287 
 ZAR  HN ES   1   1736 14.80                             120   -0.30 7  188 287 
 ZAR  HZ I        1736 20.56         6.3 0.29                           188 287 
 NOR  SN ES   1   1736 25.75                             113    0.25 6  241 229 
                                                                                
