 2016  6 8 1658 18.8 L   6.742 -73.143143.9  RSN  5 0.3 1.6LRSN                1
 GAP=139        0.71       4.3     4.0  6.4 -0.7930E+01  0.5314E+01 -0.5409E-01E
 Epicentro: LOS SANTOS - SANTANDER                                             3
 ACTION:UPD 16-07-21 22:16 OP:rebc STATUS:               ID:20160608165818 L   I
 OLDACT:UP  16-06-09 00:46 OP:cara STATUS:               ID:20160608164744d    3
 OLDACT:DUP 16-06-09 00:34 OP:cara STATUS:               ID:20160608164744d    3
 OLDACT:REG 16-06-08 21:46 OP:edw  STATUS:               ID:20160608164743     3
 2016-06-08-1647-43M.COL___325                                                 6
 STAT SP IPHASW D HRMM SECON CODA AMPLIT PERI AZIMU VELO AIN AR TRES W  DIS CAZ7
 BAR2 EZ EP       1658 37.74                             173   -0.3910 17.1 195 
 BAR2 EZ ES       1658 53.48                             173    0.3010 17.1 195 
 BAR2 EZ I        1658 56.20        11.2 0.32                          17.1 195 
 PAM  EZ IP       1658 41.18                             149    0.0310 82.3  37 
 PAM  EN ES       1658 58.64                             149    0.0810 82.3  37 
 PAM  EZ I        1659  0.50         5.6 0.18                          82.3  37 
 RUS  HZ EP       1658 42.16                             145    0.2210 94.1 176 
 RUS  HN ES       1658 59.71                             145   -0.2610 94.1 176 
 RUS  HZ I        1659  2.05         5.2 0.28                          94.1 176 
 PTB  HN ES       1659  6.14                             132   -0.29 9  147 261 
 PTB  HZ I        1659  9.28         5.6 0.10                           147 261 
 NOR  HN ES       1659 21.97                             119    0.39 8  231 236 
 NOR  HZ I        1659 26.38         5.0 0.20                           231 236 
                                                                                
