 2012  2 8 1040 13.9 L   6.782 -73.179146.5  RSN 10 0.4 1.9LRSN                1
 GAP=133        0.72       4.0     4.1  5.4  0.5764E+00  0.3053E+01  0.2035E+01E
 ACTION:UP  12-03-07 16:28 OP:epov STATUS:               ID:20120208104013 L   I
 2012-02-08-1040-00M.COL___188                                                 6
 STAT SP IPHASW D HRMM SECON CODA AMPLIT PERI AZIMU VELO AIN AR TRES W  DIS CAZ7
 BAR2 SZ EP       1040 33.74                             171    0.1610 21.0 181 
 BAR2 SZ ES   1   1040 48.75                             171   -0.17 7 21.0 181 
 BAR2 SZ I        1040 50.51        36.1 0.23                          21.0 181 
 GIR2 SZ EP   1   1040 33.87                             167    0.16 7 32.8 357 
 GIR2 SZ ES   1   1040 49.09                             167   -0.06 7 32.8 357 
 BRR  HZ EP   1   1040 35.60                             153    0.59 7 69.0 301 
 BRR  HN ES   1   1040 52.18                             153    0.71 7 69.0 301 
 BRR  HZ I        1040 55.38        20.4 0.16                          69.0 301 
 PAM  SZ EP   1   1040 36.55                             150    0.12 7 81.2  41 
 PAM  SN ES   1   1040 53.69                             150   -0.31 7 81.2  41 
 PAM  SZ I        1040 55.97         9.5 0.22                          81.2  41 
 RUS  HZ EP   1   1040 37.52                             144   -0.09 7 99.0 174 
 RUS  HE ES   1   1040 55.94                             144   -0.16 7 99.0 174 
 RUS  HZ I        1040 57.58         7.3 0.24                          99.0 174 
 PTB  HZ EP   1   1040 40.59                             133    0.01 7  144 259 
 PTB  HN ES   1   1041  0.81                             133   -0.57 7  144 259 
 PTB  HZ I        1041  4.36         0.0 0.15                           144 259 
 OCA  SZ EP   1   1040 41.76                             129   -0.66 7  162 355 
 ZAR  HN ES   1   1041 11.04                             123   -0.22 6  201 293 
 ZAR  HZ I        1041 17.66         5.8 0.10                           201 293 
 CHI  HZ EP   1   1040 51.51                             118    0.17 6  246 194 
 HEL  HZ I        1041 31.22         4.9 0.32                           268 256 
                                                                                
