 2014  1 8 1730 20.6 L   7.414 -73.500 90.0  RSN  5 0.4 1.3LRSN                1
 GAP=118        0.90       3.5     3.6 15.2 -0.1771E+00  0.2567E+02 -0.6576E+01E
 Epicentro: SABANA DE TORRES - SANTANDER                                       3
 ACTION:UPD 14-03-13 09:53 OP:ep   STATUS:               ID:20140108173020 L   I
 OLDACT:UP  14-01-08 22:57 OP:mher STATUS:               ID:20140108172809     3
 OLDACT:UP  14-01-08 22:57 OP:mher STATUS:               ID:20140108172809     3
 OLDACT:UP  14-01-08 22:56 OP:mher STATUS:               ID:20140108172809     3
 OLDACT:REG 14-01-08 15:11 OP:stll STATUS:               ID:20140108172809     3
 2014-01-08-1728-09M.COL___246                                                 6
 STAT SP IPHASW D HRMM SECON CODA AMPLIT PERI AZIMU VELO AIN AR TRES W  DIS CAZ7
 PAM  SZ EP       1730 39.00                             131    0.7110 88.8  95 
 PAM  SN ES       1730 51.81                             131   -0.2810 88.8  95 
 PAM  SZ I        1730 56.45         3.1 0.15            142           88.8  95 
 PTB  HZ EP   1   1730 42.90                             117   -0.32 7  143 228 
 PTB  HN ES       1731  0.79                             117   -0.07 9  143 228 
 PTB  HZ I        1731  5.82         3.0 0.20            125            143 228 
 ZAR  HN ES   1   1731  2.74                             116    0.55 7  150 273 
 SML  HZ EP   1   1730 45.43                             113   -0.28 7  166 338 
 SML  HN ES       1731  5.05                             113   -0.24 9  166 338 
 SML  HZ I        1731  7.09         6.0 0.08            122            166 338 
 RUS  HN ES   1   1731  7.81                             112   -0.33 7  174 165 
                                                                                
