 2012  8 8 1210 23.5 L   6.760 -73.109147.8  RSN  4 0.1 1.7LRSN                1
 GAP=169        0.37       7.6     3.5  7.5 -0.2315E+01  0.6663E+01  0.3552E+02E
 Epicentro: LOS SANTOS - SANTANDER                                             3
 ACTION:UPD 12-09-10 11:55 OP:ep   STATUS:               ID:20120808121023 L   I
 2012-08-08-1210-00M.COL___216                                                 6
 STAT SP IPHASW D HRMM SECON CODA AMPLIT PERI AZIMU VELO AIN AR TRES W  DIS CAZ7
 BAR2 SZ EP   1   1210 43.29                             172   -0.08 7 20.2 204 
 BAR2 SZ I        1210 43.61        11.0 0.09                          20.2 204 
 BRR  HZ EP   1   1210 45.23                             151   -0.02 7 76.9 300 
 BRR  HZ I        1210 45.67        15.5 0.12                          76.9 300 
 BRR  HN ES   2   1211  2.38                             151    0.20 5 76.9 300 
 PAM  SZ EP   1   1210 46.25                             150    0.20 7 78.5  35 
 PAM  SZ I        1210 46.61         7.7 0.21                          78.5  35 
 PAM  SN ES       1211  3.51                             150   -0.0810 78.5  35 
 ZAR  HN ES   2   1211 22.39                             122   -0.15 4  210 293 
 ZAR  HZ I        1211 27.77         4.3 0.26                           210 293 
                                                                                
