 2011  9 8 1232 50.6 L   6.520 -73.532109.3  RSN  4 0.1 1.9LRSN                1
 GAP=199        0.34       3.8     6.7  4.2  0.2003E+02  0.1321E+02  0.6244E+01E
 Epicentro: EL CARMEN DE CHUCURI - SANTANDER                                   3
 ACTION:UPD 12-07-13 15:56 OP:ep   STATUS:               ID:20110908123250 L   I
 2011-09-08-1228-00S.COL___169                                                 6
 STAT SP IPHASW D HRMM SECON CODA AMPLIT PERI AZIMU VELO AIN AR TRES W  DIS CAZ7
 BAR2 SZ EP       1233  6.57                             159    0.1310 39.5  78 
 BAR2 SZ ES       1233 18.71                             159   -0.0810 39.5  78 
 BAR2 SZ I        1233 20.76        46.0 0.46                          39.5  78 
 BRR  HZ EP   1   1233  7.53                             146   -0.18 7 67.9 343 
 BRR  HE ES   1   1233 21.16                             146    0.10 7 67.9 343 
 BRR  HZ I        1233 28.34        14.4 0.63                          67.9 343 
 GIR2 SZ EP   1   1233  8.22                             144    0.00 7 72.2  31 
 RUS  HZ EP   1   1233  9.69                             139   -0.01 7 85.4 144 
 RUS  HE ES   1   1233 24.60                             139    0.00 7 85.4 144 
                                                                                
