 2015  1 8 1835 41.7 L   6.792 -73.124139.5  RSN 12 0.5 2.2LRSN                1
 GAP=140        1.24       3.6     4.7  6.6 -0.1737E+01  0.9608E+01  0.2379E+01E
 Epicentro: LOS SANTOS - SANTANDER                                             3
 ACTION:UPD 15-03-02 15:38 OP:nd   STATUS:               ID:20150108183541 L   I
 OLDACT:UP  15-01-09 01:51 OP:mh   STATUS:               ID:20150108182748     3
 OLDACT:UP  15-01-09 01:50 OP:mh   STATUS:               ID:20150108182748     3
 OLDACT:UP  15-01-09 01:44 OP:mh   STATUS:               ID:20150108182748     3
 OLDACT:REG 15-01-08 21:42 OP:mh   STATUS:               ID:20150108182748     3
 2015-01-08-1827-48M.COL___268                                                 6
 STAT SP IPHASW D HRMM SECON CODA AMPLIT PERI AZIMU VELO AIN AR TRES W  DIS CAZ7
 BAR2 EZ EP     C 1836  0.88                             170    0.3210 23.0 196 
 BAR2 EZ ES       1836 14.84                             170   -0.4410 23.0 196 
 BAR2 EZ I        1836 20.98        16.3 0.14            171           23.0 196 
 BRR  HZ EP       1836  2.76                             150    0.4410 73.8 298 
 BRR  HN ES       1836 19.05                             150    0.6410 73.8 298 
 BRR  HZ I        1836 20.75        26.5 0.14            149           73.8 298 
 PAM  SZ EP       1836  3.71                             150    0.5210 76.6  38 
 PAM  SN ES       1836 20.51                             150    0.5510 76.6  38 
 PAM  SZ I        1836 23.52        24.4 0.28            152           76.6  38 
 RUS  HZ EP       1836  4.81                             143    0.0610 99.5 177 
 RUS  HN ES       1836 22.13                             143   -0.6110 99.5 177 
 RUS  HZ I        1836 24.71        14.5 0.37            147           99.5 177 
 PTB  HZ EP       1836  7.45                             130   -0.91 9  150 259 
 PTB  HN ES       1836 28.87                             130   -0.29 9  150 259 
 PTB  HZ I        1836 30.68        31.0 0.18            131            150 259 
 OCA  HN ES       1836 30.58                             128   -0.86 9  161 352 
 SPBC HZ EP       1836  9.96                             127    0.16 9  164 220 
 SPBC HN ES   1   1836 30.93                             127   -0.79 7  164 220 
 SPBC HZ I        1836 34.69        21.2 0.22            130            164 220 
 ZAR  HZ EP       1836 13.95                             121   -0.06 8  207 292 
 ZAR  HN ES       1836 39.33                             121    0.11 8  207 292 
 ZAR  HZ I        1836 47.70        19.9 0.24            122            207 292 
 NOR  HZ EP       1836 17.59                             117    0.37 8  236 235 
 NOR  HN ES       1836 45.68                             117    0.74 8  236 235 
 SML  HZ EP       1836 17.47                             116   -0.71 8  246 335 
 SML  HN ES   4   1836 44.39                             116   -2.24 0  246 335 
 SML  HZ I        1836 54.51        21.5 0.10            118            246 335 
 CHI  HZ EP       1836 18.64                             116   -0.39 8  248 196 
 CHI  HN ES       1836 48.50                             116    0.36 8  248 196 
 HEL  HZ EP       1836 22.13                             113    0.30 8  274 256 
 HEL  HN ES       1836 53.23                             113    0.09 8  274 256 
 HEL  HZ I        1836 59.57        11.7 0.26            115            274 256 
                                                                                
