 2017  8 8 1757 27.6 L   6.783 -73.148148.2  RSN  7 0.2 1.7LRSN                1
 GAP=137        0.50       2.4     3.1  3.7 -0.1002E+01  0.1844E+01  0.2685E+01E
 Epicentro: LOS SANTOS - SANTANDER                                             3
 ACTION:UPD 17-09-04 20:18 OP:rebc STATUS:               ID:20170808175727 L   I
 OLDACT:UP  17-08-09 01:37 OP:mg   STATUS:               ID:20170808174742     3
 OLDACT:UP  17-08-09 01:31 OP:mg   STATUS:               ID:20170808174742     3
 OLDACT:REG 17-08-08 22:53 OP:mg   STATUS:               ID:20170808174742     3
 2017-08-08-1748-00M.COL___402                                                 6
 STAT SP IPHASW D HRMM SECON CODA AMPLIT PERI AZIMU VELO AIN AR TRES W  DIS CAZ7
 BAR2 EZ IP     C 1757 47.31                             171   -0.1310 21.5 190 
 BAR2 EZ ES   2   1758  2.86                             171   -0.09 5 21.5 190 
 BAR2 EZ I        1758  5.01        17.6 0.27            172           21.5 190 
 BRR  HZ IP       1757 49.07                             153    0.0710 71.8 300 
 BRR  HN ES       1758  5.94                             153    0.2110 71.8 300 
 BRR  HZ I        1758  8.24        13.1 0.17            154           71.8 300 
 PAM  EZ IP     C 1757 50.15                             151    0.0310 79.0  39 
 PAM  EN ES       1758  7.59                             151   -0.1410 79.0  39 
 PAM  EZ I        1758 10.49         7.5 0.36            153           79.0  39 
 RUS  HZ IP     C 1757 51.64                             145    0.2310 98.8 176 
 RUS  HN ES       1758 10.00                             145   -0.0310 98.8 176 
 RUS  HZ I        1758 11.28        14.1 0.26            147           98.8 176 
 PTB  HZ EP       1757 54.37                             133   -0.29 9  147 260 
 PTB  HN ES   2   1758 15.35                             133   -0.46 5  147 260 
 PTB  HZ I        1758 17.20         3.2 0.17            135            147 260 
 SPBC HZ EP       1757 56.47                             130    0.38 9  162 219 
 SPBC HN ES   2   1758 18.23                             130   -0.11 5  162 219 
 CHI  HZ EP       1758  4.95                             118   -0.24 8  247 195 
 CHI  HN ES   2   1758 34.48                             118   -0.06 4  247 195 
                                                                                
