 2012 11 8 1043 32.9 L   6.786 -73.139148.0  RSN 10 0.5 2.6LRSN                1
 GAP=138        1.14       4.6     5.5  7.6  0.6850E+00  0.9761E+01  0.1063E+02E
 Epicentro: LOS SANTOS - SANTANDER                                             3
 ACTION:UP  12-12-05 15:32 OP:}ep  STATUS:               ID:20121108104333 L   I
 OLDACT:REG 12-11-08 18:30 OP:carl STATUS:               ID:20121108104000     3
 2012-11-08-1040-00M.COL___228                                                 6
 STAT SP IPHASW D HRMM SECON CODA AMPLIT PERI AZIMU VELO AIN AR TRES W  DIS CAZ7
 BAR2 SZ IP     C 1043 52.67                             171   -0.1110 21.9 193 
 BAR2 SZ ES   1   1044  8.05                             171   -0.23 7 21.9 193 
 BAR2 SZ I        1044 10.21        83.0 0.26                          21.9 193 
 BRR  HZ IP     C 1043 54.59                             152    0.2110 72.7 299 
 BRR  HN ES       1044 12.06                             152    0.9410 72.7 299 
 BRR  HN I        1044 16.25        69.2 0.20                          72.7 299 
 PAM  SZ EP       1043 55.53                             151    0.1310 78.1  38 
 PAM  SN ES   1   1044 12.71                             151   -0.24 7 78.1  38 
 PAM  SN I        1044 14.02        17.4 0.70                          78.1  38 
 RUS  HZ EP       1043 56.62                             145   -0.1410 98.9 176 
 RUS  HN ES   1   1044 15.37                             145    0.00 7 98.9 176 
 RUS  HN I        1044 16.19        30.3 0.33                          98.9 176 
 PTB  HZ EP       1043 59.23                             132   -0.87 9  148 259 
 PTB  HN ES   1   1044 20.50                             132   -0.81 7  148 259 
 PTB  HN I        1044 21.31        35.1 0.24                           148 259 
 OCA  HN ES   1   1044 23.46                             130   -0.42 7  162 353 
 ZAR  HZ EP   1   1044  5.84                             123    0.21 6  205 292 
 ZAR  HN ES   1   1044 30.36                             123   -0.80 6  205 292 
 ZAR  HN I        1044 33.06      1454.0 0.10                           205 292 
 CHI  HZ EP       1044 10.64                             118    0.06 8  247 195 
 CHI  HN ES   1   1044 39.97                             118    0.00 6  247 195 
 CHI  HN I        1044 45.19        16.8 0.36                           247 195 
 HEL  HZ EP       1044 14.55                             115    1.28 8  272 256 
 HEL  HN ES   1   1044 44.73                             115   -0.03 6  272 256 
 PRA  HZ EP   1   1044 26.36                             107   -0.03 4  391 210 
 PRA  HN ES   1   1045  8.47                             107    0.37 4  391 210 
 PRA  HN I        1045 13.61         6.0 0.36                           391 210 
                                                                                
