 2011  2 8 1533 24.3 L   6.749 -73.117138.8  RSN  7 0.4 1.8LRSN                1
 GAP=162        0.94       5.9    10.7  9.5 -0.3552E+02  0.3750E+02 -0.8905E+01E
 Epicentro: LOS SANTOS - SANTANDER                                             3
 ACTION:UP  11-03-28 15:06 OP:jfem STATUS:               ID:20110208153324 L   I
 2011-02-08-1529-17S.COL___137                                                 6
 STAT SP IPHASW D HRMM SECON CODA AMPLIT PERI AZIMU VELO SNR AR TRES W  DIS CAZ7
 BAR2 SZ EP   1   1533 42.97                             172     0.0 7   19 203 
 BAR2 SZ ES   1   1533 57.38                             172    -0.2 7   19 203 
 BAR2 SZ I        1533 59.22        20.7 0.25                            19 203 
 BTL  SZ EP   1   1533 43.10                             169     0.0 7   25 318 
 GIR2 SZ EP   1   1533 44.08                             164     0.8 7   37 347 
 RUS  HZ EP   1   1533 46.28                             144    -0.7 7   95 178 
 RUS  HN ES   1   1534  4.93                             144     0.3 7   95 178 
 RUS  HZ I        1534  6.81        10.2 0.39                            95 178 
 GRA  SZ EP   1   1533 48.82                             134    -0.5 7  130  15 
 GRA  SZ ES   1   1534  8.90                             134     0.1 7  130  15 
 GRA  SZ I        1534  9.51        10.7 0.23                           130  15 
 NOR  SZ EP   1   1534  0.10                             117     0.5 6  234 236 
 NOR  SN ES   1   1534 26.66                             117    -0.4 6  234 236 
 CHI  HZ EP   1   1534  1.41                             116     0.3 6  244 196 
 CHI  HZ I        1534 37.05         3.1 0.27                           244 196 
                                                                                
