 2012  7 8 1700 16.0 L   6.775 -73.089142.8  RSN  5 0.3 1.3LRSN                1
 GAP=145        0.76       5.9     6.8  8.9  0.8509E+01  0.2750E+02 -0.4774E+01E
 Epicentro: LOS SANTOS - SANTANDER                                             3
 ACTION:UPD 12-08-14 11:43 OP:ep   STATUS:               ID:20120708170016 L   I
 2012-07-08-1700-00M.COL___201                                                 6
 STAT SP IPHASW D HRMM SECON CODA AMPLIT PERI AZIMU VELO AIN AR TRES W  DIS CAZ7
 BAR2 SZ EP   1   17 0 35.15                             170    -0.1 7   23 207 
 BAR2 SZ ES   1   17 0 49.83                             170    -0.4 7   23 207 
 BAR2 SZ I        17 0 52.16         8.1 0.25                            23 207 
 PAM  SN ES   1   17 0 54.81                             151     0.0 7   76  35 
 BRR  HZ EP   1   17 0 36.97                             150    -0.2 7   78 298 
 BRR  HE ES   1   17 0 54.35                             150     0.6 7   78 298 
 RUS  HN ES   1   17 0 57.56                             144     0.2 7   98 180 
 RUS  HZ I        17 0 59.15         2.4 0.37                            98 180 
 ZAR  HZ EP   1   17 0 49.35                             121     0.4 6  211 292 
 ZAR  HN ES   1   17 1 14.22                             121    -0.4 6  211 292 
