 2014  1 8 1725 34.1 L   6.749 -73.145134.0  RSN  8 0.7 1.3LRSN                1
 GAP=139        1.56       7.1     6.8  9.8 -0.1205E+02  0.1495E+02  0.1773E+02E
 Epicentro: LOS SANTOS - SANTANDER                                             3
 ACTION:UPD 14-03-13 09:53 OP:ep   STATUS:               ID:20140108172534 L   I
 OLDACT:DUP 14-01-08 21:02 OP:stll STATUS:               ID:20140108171811d    3
 2014-01-08-1718-10M.COL___246                                                 6
 STAT SP IPHASW D HRMM SECON CODA AMPLIT PERI AZIMU VELO AIN AR TRES W  DIS CAZ7
 BAR2 SZ EP       1725 52.13                             172   -0.0510 17.9 193 
 BAR2 SZ ES       1726  6.96                             172    0.6510 17.9 193 
 BAR2 SZ I        1726  8.14        11.1 0.46            170           17.9 193 
 BRR  HZ EP       1725 53.90                             150   -0.2410 74.1 302 
 BRR  HN ES       1726 10.55                             150    0.7610 74.1 302 
 PAM  SZ EP       1725 54.98                             148   -0.3510 81.7  37 
 PAM  SZ I        1725 55.05         4.6 0.20            150           81.7  37 
 PAM  SN ES       1726 11.93                             148    0.0110 81.7  37 
 RUS  HZ EP       1725 56.37                             143    0.1010 95.0 176 
 RUS  HZ I        1725 56.47         0.9 0.12            144           95.0 176 
 RUS  HN ES       1726 13.22                             143   -0.3610 95.0 176 
 PTB  HZ EP       1725 59.20                             130   -0.82 9  147 261 
 PTB  HN ES       1726 19.25                             130   -1.01 9  147 261 
 PTB  HZ I        1726 26.72         3.2 0.38            129            147 261 
 NOR  HN ES       1726 36.09                             117    0.20 8  232 236 
 CHI  HZ EP       1726 10.26                             115   -0.29 8  243 196 
 CHI  HZ I        1726 13.06         1.7 0.58            116            243 196 
 GUY2CHZ EP       1726 18.66                             110    1.86 7  298 236 
 GUY2CHN ES       1726 50.43                             110    0.30 7  298 236 
 GUY2CHZ I        1726 57.93         1.2 0.48                           298 236 
                                                                                
