 2015  3 8 1334  0.6 L   7.275 -73.460109.2  RSN  5 0.4 1.7LRSN                1
 GAP=180        0.95       4.2     4.9  8.2  0.4725E+01  0.2228E+01 -0.1353E+02E
 Epicentro: SABANA DE TORRES - SANTANDER                                       3
 ACTION:UPD 15-04-30 16:24 OP:nd   STATUS:               ID:20150308133400 L   I
 OLDACT:REG 15-03-08 22:54 OP:carl STATUS:               ID:20150308132745     3
 2015-03-08-1327-45M.COL___287                                                 6
 STAT SP IPHASW D HRMM SECON CODA AMPLIT PERI AZIMU VELO AIN AR TRES W  DIS CAZ7
 BRR  HZ EP       1334 15.82                             162    0.0310 33.4 236 
 BRR  HN ES       1334 27.83                             162    0.1610 33.4 236 
 BRR  HZ I        1334 29.03        13.3 0.26            163           33.4 236 
 BAR2 EZ EP       1334 19.26                             141    0.2610 81.5 158 
 BAR2 EZ ES       1334 33.29                             141   -0.1010 81.5 158 
 BAR2 EZ I        1334 33.94        11.1 0.18            145           81.5 158 
 PTB  HZ EP       1334 23.43                             124   -0.28 9  137 234 
 PTB  HN ES       1334 41.30                             124   -0.47 9  137 234 
 PTB  HZ I        1334 44.53         8.0 0.14            127            137 234 
 ZAR  HN ES       1334 45.91                             120    0.61 9  156 279 
 SML  HZ EP       1334 28.81                             116    0.39 9  182 338 
 SML  HN ES       1334 49.52                             116   -0.64 9  182 338 
 SML  HZ I        1334 56.64        11.1 0.10            117            182 338 
                                                                                
