 2010 10 8 1617  7.7 L   6.758 -73.121144.5  RSN  6 0.3 2.2LRSN                1
 GAP=190        0.86       9.1     8.1  8.9 -0.2060E+02 -0.1278E+02 -0.8930E+01E
 Epicentro: LOS SANTOS - SANTANDER                                             3
 ACTION:UP  11-02-18 11:08 OP:tino STATUS:               ID:20101008161707 L   I
 2010-10-08-1613-53S.COL___121                                                 6
 STAT SP IPHASW D HRMM SECON CODA AMPLIT PERI AZIMU VELO SNR AR TRES W  DIS CAZ7
 BAR2 SZ EP   1   1617 27.34                             172     0.2 7   20 201 
 BAR2 SZ ES   1   1617 41.85                             172    -0.4 7   20 201 
 BAR2 SZ I        1617 43.40        37.7 0.30                            20 201 
 BTL  SZ EP       1617 27.74                             170     0.510   24 318 
 BRR  HZ EP       1617 29.03                             151     0.010   76 301 
 BRR  HN ES       1617 45.74                             151     0.110   76 301 
 BRR  HZ I        1617 46.77        37.6 0.12                            76 301 
 GUE  SZ EP       1617 32.26                             138    -0.410  121  10 
 NOR  SN ES   2   1618 10.68                             118    -0.5 4  234 236 
 HEL  HN ES   2   1618 19.21                             114    -0.3 4  274 257 
 HEL  HZ I        1618 25.74         8.2 1.07                           274 257 
                                                                                
