 2016  9 8 1342 34.3 L   6.407 -73.675 95.2  RSN  5 0.4 1.6LRSN                1
 GAP=150        0.91       5.9     3.0  8.4  0.1913E+01  0.1273E+02  0.1320E+02E
 Epicentro: SANTA HELENA DEL OPON - SANTANDER                                  3
 ACTION:UPD 17-08-17 21:08 OP:lp   STATUS:               ID:20160908134234 L   I
 OLDACT:DUP 16-09-08 23:31 OP:lv   STATUS:               ID:20160908133733d    3
 2016-09-08-1338-00M.COL___359                                                 6
 STAT SP IPHASW D HRMM SECON CODA AMPLIT PERI AZIMU VELO AIN AR TRES W  DIS CAZ7
 BAR2 EZ EP       1342 49.97                             147    0.3010 58.2  69 
 BAR2 EZ ES       1343  1.81                             147    0.1610 58.2  69 
 BAR2 EZ I        1343  4.14        27.7 0.21            154           58.2  69 
 RUS  HZ EP       1342 51.91                             135   -0.3510 86.7 131 
 RUS  HE ES       1343  6.13                             135   -0.1410 86.7 131 
 RUS  HZ I        1343  7.93         4.1 0.22            140           86.7 131 
 PTB  HZ EP       1342 51.04                             134   -0.6610 87.7 280 
 PTB  HN ES       1343  5.39                             134    0.1310 87.7 280 
 PTB  HZ I        1343  7.84        16.2 0.20            137           87.7 280 
 NOR  HZ EP       1342 59.71                             116    0.40 9  162 235 
 NOR  HN ES       1343 19.06                             116    0.25 9  162 235 
 NOR  HZ I        1343 23.36         6.5 0.12            118            162 235 
 HEL  HZ EP       1343  5.20                             110    0.42 8  207 263 
 HEL  HN ES       1343 28.14                             110   -0.41 8  207 263 
 HEL  HZ I        1343 32.46         4.9 0.30            113            207 263 
                                                                                
