 2016 12 8 1222 14.7 L   6.754 -73.187144.0  RSN  6 0.4 1.7LRSN                1
 GAP=229        0.93       4.7     7.3  6.4  0.1937E+02  0.2003E+02  0.1189E+02E
 Epicentro: VILLANUEVA - SANTANDER                                             3
 ACTION:UPD 17-01-11 20:13 OP:rebc STATUS:               ID:20161208122214 L   I
 OLDACT:UP  16-12-09 05:08 OP:dani STATUS:               ID:20161208121742     3
 OLDACT:REG 16-12-09 02:58 OP:dani STATUS:               ID:20161208121742     3
 2016-12-08-1218-00M.COL___355                                                 6
 STAT SP IPHASW D HRMM SECON CODA AMPLIT PERI AZIMU VELO AIN AR TRES W  DIS CAZ7
 BAR2 EZ EP       1222 33.62                             173   -0.3710 17.9 178 
 BAR2 EZ ES       1222 48.85                             173   -0.2110 17.9 178 
 BRR  HZ EP       1222 35.60                             153    0.0510 69.9 304 
 BRR  HN ES       1222 52.43                             153    0.5910 69.9 304 
 BRR  HZ I        1222 55.80        20.4 0.37            148           69.9 304 
 RUS  HZ EP       1222 37.83                             145   -0.0910 95.9 173 
 RUS  HE ES       1222 56.37                             145    0.3210 95.9 173 
 RUS  HZ I        1222 57.69         3.9 0.29            144           95.9 173 
 ZAR  HZ EP       1222 46.64                             122   -0.13 9  202 294 
 ZAR  HN ES       1223 11.39                             122   -0.41 9  202 294 
 ZAR  HZ I        1223 16.91         5.3 0.27            122            202 294 
 CHI  HZ EP       1222 51.93                             117    0.32 8  243 194 
 CHI  HE ES       1223 19.66                             117   -0.76 8  243 194 
 CHI  HZ I        1223 24.92         2.3 0.39            117            243 194 
 PRA  HZ EP       1223  7.86                             106    0.52 6  385 209 
 PRA  HN ES       1223 48.98                             106    0.55 6  385 209 
 PRA  HZ I        1223 55.84         2.8 0.41            107            385 209 
                                                                                
