 2011  9 8 1807  6.1 L   6.759 -73.166137.6  RSN  6 0.2 1.6LRSN                1
 GAP=136        0.49       3.2     4.0  4.9  0.1863E+01  0.1624E+01 -0.4719E+00E
 Epicentro: LOS SANTOS - SANTANDER                                             3
 ACTION:UPD 12-07-13 15:56 OP:ep   STATUS:               ID:20110908180706 L   I
 2011-09-08-1805-36S.COL___170                                                 6
 STAT SP IPHASW D HRMM SECON CODA AMPLIT PERI AZIMU VELO AIN AR TRES W  DIS CAZ7
 BAR2 SZ EP       18 7 24.42                             172   -0.2210 18.5 186 
 BAR2 SZ ES   1   18 7 39.44                             172    0.32 7 18.5 186 
 BAR2 SZ I        18 7 41.86         8.8 0.30                          18.5 186 
 GIR2 SZ EP   2   18 7 24.92                             165    0.01 5 35.5 355 
 BRR  HZ EP       18 7 26.66                             151    0.2810 71.6 303 
 BRR  HZ I        18 7 35.06        17.8 0.50                          71.6 303 
 BRR  HE ES   1   18 7 41.95                             151   -0.26 7 71.6 303 
 PAM  SZ EP   1   18 7 27.58                             148   -0.17 7 82.3  39 
 PAM  SN ES   1   18 7 44.70                             148    0.05 7 82.3  39 
 RUS  HZ EP   1   18 7 28.85                             143    0.13 7 96.2 175 
 RUS  HE ES   1   18 7 46.21                             143   -0.16 7 96.2 175 
 RUS  HZ I        18 7 48.14         2.9 0.24                          96.2 175 
 ZAR  HN ES   2   18 8  2.81                             120   -0.05 4  204 294 
 ZAR  HZ I        18 8  5.71         4.2 0.14                           204 294 
                                                                                
