 2010 12 8 1803 52.8 L   6.702 -73.113145.4  RSN  4 0.2 1.7LRSN                1
 GAP=198        0.44       8.8    24.4  6.4 -0.1896E+03 -0.6303E+02  0.1659E+02E
 Epicentro: JORDAN - SANTANDER                                                 3
 ACTION:UP  11-01-14 15:23 OP:pat  STATUS:               ID:20101208180352 L   I
 2010-12-08-1759-37S.COL___135                                                 6
 STAT SP IPHASW D HRMM SECON CODA AMPLIT PERI AZIMU VELO SNR AR TRES W  DIS CAZ7
 BAR2 SZ EP       18 4 12.17                             174     0.010   14 213 
 BAR2 SZ ES   2   18 4 27.46                             174     0.1 5   14 213 
 BAR2 SZ I        18 4 29.05        11.4 0.30                            14 213 
 BTL  SZ EP       18 4 12.42                             168    -0.110   29 324 
 BTL  SZ ES   2   18 4 28.09                             168     0.2 5   29 324 
 GIR2 SZ EP   3   18 4 12.32                             163    -0.4 2   43 348 
 GRA  SZ EP       18 4 19.01                             135     0.2 9  135  15 
 GRA  SZ I        18 4 20.19         7.5 0.31                           135  15 
 GRA  SZ ES   1   18 4 38.87                             135    -0.2 7  135  15 
                                                                                
