 2017  6 8 1948 32.4 L   6.794 -73.143149.0  RSN  6 0.4 1.5LRSN                1
 GAP=237        0.92       4.6     5.5  7.0  0.8377E+01  0.1967E+01 -0.5431E+00E
 Epicentro: LOS SANTOS - SANTANDER                                             3
 ACTION:UPD 17-09-14 16:50 OP:jn   STATUS:               ID:20170608194832 L   I
 OLDACT:REG 17-06-08 22:21 OP:osc  STATUS:               ID:20170608194732     3
 2017-06-08-1948-00M.COL___362                                                 6
 STAT SP IPHASW D HRMM SECON CODA AMPLIT PERI AZIMU VELO AIN AR TRES W  DIS CAZ7
 BRR  HZ EP       1948 54.07                             153    0.1710 71.7 299 
 BRR  HN ES       1949 11.18                             153    0.4910 71.7 299 
 RUS  HZ EP       1948 56.05                             145   -0.3410 99.9 176 
 RUS  HN ES       1949 15.03                             145   -0.1010 99.9 176 
 RUS  HZ I        1949 15.79         2.3 0.48            141           99.9 176 
 PTB  HZ EP       1948 59.40                             133   -0.21 9  148 259 
 PTB  HN ES       1949 20.07                             133   -0.79 9  148 259 
 PTB  HZ I        1949 22.91         2.5 0.18            130            148 259 
 SPBC HZ EP       1949  1.07                             130   -0.01 9  163 219 
 SPBC HN ES       1949 23.88                             130    0.40 9  163 219 
 SPBC HZ I        1949 29.06         7.8 0.18            127            163 219 
 ZAR  HZ EP       1949  4.96                             123   -0.11 9  205 292 
 ZAR  HE ES       1949 30.45                             123   -0.14 9  205 292 
 NOR  HZ EP       1949  8.82                             119    0.55 8  235 235 
 NOR  HN ES       1949 36.52                             119    0.25 8  235 235 
 NOR  HZ I        1949 42.47         2.5 0.14            117            235 235 
                                                                                
