 2014  9 8 1218 25.3 L   6.802 -73.160148.0  RSN 21 0.5 3.0LRSN 3.6WRSN        1
 SPEC AVERAGE  MO 14.4 ST0.529 OM  2.5 f0 1.39 R1.6027 AL 0.00 WI 30.0 MW  3.6 3
 SPEC SD       MO  0.3 ST0.560 OM  0.3 f00.614 R0.5423 AL      WI      MW  0.2 3
 GAP= 70        1.17       2.8     3.1  5.2 -0.7872E+00  0.4779E+01  0.1841E+01E
 Epicentro: LOS SANTOS - SANTANDER                                             3
 SPEC BAR2SH Z MO 14.5 ST0.544 OM  2.6 f0 1.42 R1.3549 AL-0.00 WI 30.0 MW  3.6 3
 SPEC BAR2SH Z T121859 K 0.000 GD  149 VS 5.20 DE 3.50 Q0750.0 QA 1.50 VS 5.20 3
 SPEC BRR HH Z MO 14.3 ST0.556 OM  2.4 f0 1.62 R1.1877 AL-0.00 WI 30.0 MW  3.5 3
 SPEC BRR HH Z T1219 2 K 0.000 GD  163 VS 5.20 DE 3.50 Q0750.0 QA 1.50 VS 5.20 3
 SPEC RUS HH Z MO 14.7 ST0.187 OM  2.7 f00.868 R2.2166 AL-0.00 WI 30.0 MW  3.7 3
 SPEC RUS HH Z T1219 6 K 0.000 GD  179 VS 5.20 DE 3.50 Q0750.0 QA 1.50 VS 5.20 3
 SPEC PTB HH Z MO 14.1 ST  2.2 OM  2.1 f0 2.98 R0.6456 AL-0.00 WI 30.0 MW  3.4 3
 SPEC PTB HH Z T121911 K 0.000 GD  207 VS 5.20 DE 3.50 Q0750.0 QA 1.50 VS 5.20 3
 SPEC ZAR HH Z MO 14.7 ST0.605 OM  2.6 f0 1.24 R1.5516 AL-0.00 WI 30.0 MW  3.8 3
 SPEC ZAR HH Z T121922 K 0.000 GD  250 VS 5.20 DE 3.50 Q0750.0 QA 1.50 VS 5.20 3
 SPEC NOR HH Z MO 14.2 ST0.727 OM  2.0 f0 2.02 R0.9525 AL-0.00 WI 30.0 MW  3.4 3
 SPEC NOR HH Z T121927 K 0.000 GD  276 VS 5.20 DE 3.50 Q0750.0 QA 1.50 VS 5.20 3
 SPEC CHI HH Z MO 14.5 ST0.167 OM  2.3 f00.969 R1.9856 AL-0.00 WI 30.0 MW  3.6 3
 SPEC CHI HH Z T121930 K 0.000 GD  288 VS 5.20 DE 3.50 Q0750.0 QA 1.50 VS 5.20 3
 SPEC HEL HH Z MO 14.3 ST0.152 OM  2.1 f0 1.07 R1.7981 AL-0.00 WI 30.0 MW  3.5 3
 SPEC HEL HH Z T121935 K 0.000 GD  308 VS 5.20 DE 3.50 Q0750.0 QA 1.50 VS 5.20 3
 SPECGUY2CHH Z MO 14.4 ST  0.1 OM  2.2 f00.908 R  2.12 AL-0.00 WI 30.0 MW  3.6 3
 SPECGUY2CHH Z T121940 K       GD334.5 VS 5.20 DE 3.50 Q0750.0 QA 1.50 VS 5.20 3
 SPEC TOL SH Z MO 15.0 ST0.302 OM  2.7 f00.797 R2.4141 AL-0.00 WI 30.0 MW  3.9 3
 SPEC TOL SH Z T121948 K 0.000 GD  373 VS 5.20 DE 3.50 Q0750.0 QA 1.50 VS 5.20 3
 SPEC PRA HH Z MO 14.5 ST0.158 OM  2.2 f00.908 R2.1189 AL-0.00 WI 30.0 MW  3.6 3
 SPEC PRA HH Z T121959 K 0.000 GD  418 VS 5.20 DE 3.50 Q0750.0 QA 1.50 VS 5.20 3
 SPEC ORTCHH Z MO 14.1 ST0.218 OM  1.8 f0 1.37 R1.4044 AL-0.00 WI 30.0 MW  3.4 3
 SPEC ORTCHH Z T1220 0 K 0.000 GD  421 VS 5.20 DE 3.50 Q0750.0 QA 1.50 VS 5.20 3
 OLDACT:REG 14-09-08 21:04 OP:carl STATUS:               ID:20140908121818     3
 ACTION:UPD 14-10-03 23:03 OP:nd   STATUS:               ID:20140908121825 L   I
 OLDACT:UP  14-09-18 06:04 OP:MHER STATUS:               ID:20140908121825 L   3
 OLDACT:UP  14-09-08 22:20 OP:carl STATUS:               ID:20140908121818     3
 2014-09-08-1218-18M.COL___268                                                 6
 STAT SP IPHASW D HRMM SECON CODA AMPLIT PERI AZIMU VELO AIN AR TRES W  DIS CAZ7
 BAR2 SZ EP       1218 45.19                             171    0.0210 23.3 186 
 BAR2 SZ ES       1219  0.88                             171    0.1910 23.3 186 
 BAR2 SZ I        1219  3.73       294.3 0.78            169           23.3 186 
 BRR  HZ EP     D 1218 47.10                             153    0.5210 69.7 299 
 BRR  HN ES       1219  3.95                             153    0.7510 69.7 299 
 BRR  HZ I        1219  6.91       156.7 0.28            152           69.7 299 
 PAM  SZ EP     D 1218 48.00                             151    0.2210 78.3  41 
 PAM  SN ES       1219  5.47                             151    0.1410 78.3  41 
 PAM  SZ I        1219  7.45       184.2 0.48            156           78.3  41 
 RUS  HZ EP       1218 48.30                             144   -0.9710  101 175 
 RUS  HN ES       1219  7.80                             144   -0.1810  101 175 
 RUS  HZ I        1219 10.36       127.1 0.48            146            101 175 
 PTB  HZ EP       1218 51.75                             133   -0.53 9  146 259 
 PTB  HN ES       1219 13.11                             133   -0.24 9  146 259 
 PTB  HZ I        1219 19.03       140.1 0.44            133            146 259 
 TAM  HZ EP     D 1218 53.31                             131    0.04 9  157 105 
 TAM  HN ES       1219 15.19                             131    0.08 9  157 105 
 TAM  HZ I        1219 16.30        67.0 0.50            136            157 105 
 OCA  HZ EP       1218 53.34                             130   -0.38 9  160 354 
 OCA  HN ES       1219 15.58                             130   -0.33 9  160 354 
 OCA  HZ I        1219 22.31       130.2 0.26            133            160 354 
 SPBC HZ EP       1218 54.06                             130    0.20 9  162 219 
 SPBC HN ES       1219 16.20                             130    0.04 9  162 219 
 SPBC HZ I        1219 22.43       150.5 0.32            130            162 219 
 ZAR  HZ EP       1218 57.83                             123    0.13 9  202 292 
 ZAR  HN ES       1219 23.64                             123    0.64 9  202 292 
 ZAR  HZ I        1219 30.66       134.5 0.42            124            202 292 
 NOR  HZ EP       1219  0.91                             119   -0.09 8  234 234 
 NOR  HN ES       1219 28.50                             119   -0.38 8  234 234 
 NOR  HZ I        1219 32.77        89.8 0.66            120            234 234 
 SML  HZ EP       1219  1.58                             118   -0.35 8  243 336 
 SML  HN ES       1219 29.62                             118   -0.91 8  243 336 
 SML  HZ I        1219 37.43        80.4 0.22            120            243 336 
 CHI  HZ EP       1219  3.33                             118    0.26 8  248 195 
 CHI  HN ES       1219 32.31                             118   -0.24 8  248 195 
 CHI  HZ I        1219 37.75        49.6 0.30            119            248 195 
 ROSC BZ EP   4   1219  4.60                             117    1.16 0  252 211 
 ROSC BN ES   4   1219 35.45                             117    2.23 0  252 211 
 ROSC BZ I        1219 41.06       135.0 0.55            119            252 211 
 HEL  HZ EP       1219  6.49                             115    1.06 8  271 256 
 HEL  HN ES       1219 36.58                             115   -0.18 8  271 256 
 HEL  HZ I        1219 46.38        55.4 0.26            116            271 256 
 URE  HZ EP   4   1219  5.69                             114   -0.59 0  282 292 
 URE  HN ES   4   1219 36.06                             114   -2.20 0  282 292 
 GUY2CHZ EP   4   1219 10.98                             113    2.13 0  300 235 
 GUY2CHN ES   4   1219 41.85                             113   -0.99 0  300 235 
 GUY2CHZ I        1219 50.00        65.2 0.44                           300 235 
 CBOC HZ EP       1219 12.96                             110    0.85 7  332 252 
 CBOC HN ES       1219 48.24                             110   -0.41 7  332 252 
 CBOC HZ I        1219 55.45        26.0 0.52            112            332 252 
 DBB  SZ EP       1219 13.41                             110    0.76 7  338 274 
 DBB  SZ ES       1219 48.76                             110   -0.85 7  338 274 
 TOL  SZ EP       1219 14.54                             110    1.04 7  343 224 
 TOL  SN ES       1219 50.11                             110   -1.02 7  343 224 
 TOL  SZ I        1220  0.83       102.7 0.72            111            343 224 
 ANIL HZ EP   4   1219 16.11                             109    1.06 0  356 224 
 ANIL HN ES   4   1219 54.48                             109    0.61 0  356 224 
 ANIL HZ I        1220  4.18        13.5 0.44            110            356 224 
 PRA  HZ EP       1219 18.40                             107   -0.40 6  391 209 
 PRA  HE ES       1220  0.69                             107    0.14 6  391 209 
 PRA  HZ I        1220  7.57        40.7 0.30            108            391 209 
 ORTC HZ EP       1219 18.88                             107   -0.30 6  395 216 
 ORTC HN ES       1220  2.21                             107    0.99 6  395 216 
 ORTC HZ I        1220  8.67        37.5 0.34            108            395 216 
 SJC  HZ EP   4   1219 19.24                             106   -1.55 0  408 327 
 SJC  HN ES   4   1219 59.78                             106   -4.31 0  408 327 
                                                                                
