 2013 12 8 1106 58.0 L   6.785 -73.115147.3  RSN  5 0.3 1.4LRSN                1
 GAP=203        0.75       5.5     8.2  8.4  0.3481E+02 -0.2986E+02 -0.2580E+02E
 Epicentro: LOS SANTOS - SANTANDER                                             3
 ACTION:UPD 14-01-13 10:16 OP:ep   STATUS:               ID:20131208110658 L   I
 OLDACT:DUP 13-12-08 15:05 OP:cam  STATUS:               ID:20131208110001d    3
 OLDACT:REG 13-12-08 14:20 OP:cam  STATUS:               ID:20131208110000     3
 2013-12-08-1100-00M.COL___285                                                 6
 STAT SP IPHASW D HRMM SECON CODA AMPLIT PERI AZIMU VELO AIN AR TRES W  DIS CAZ7
 BAR2 SZ EP       11 7 17.77                             171   -0.0610 22.5 199 
 BRR  HZ EP       11 7 19.68                             151    0.1210 75.0 298 
 BRR  HN ES       11 7 36.76                             151    0.4110 75.0 298 
 RUS  HZ EP       11 7 22.07                             145    0.2710 98.7 178 
 RUS  HN ES       11 7 39.94                             145   -0.4010 98.7 178 
 RUS  HZ I        11 7 40.78         1.8 0.20            141           98.7 178 
 ZAR  HE ES       11 7 56.48                             122   -0.17 8  208 292 
 ZAR  HZ I        11 8  2.12         3.4 0.30            118            208 292 
 SML  HZ EP       11 7 35.23                             117    0.16 8  247 335 
 SML  HE ES       11 8  3.47                             117   -0.48 8  247 335 
 SML  HZ I        11 8  6.42         3.4 0.26            115            247 335 
                                                                                
