 2013 10 8 1234 24.0 L   6.795 -73.161146.8  RSN  5 0.3 1.6LRSN                1
 GAP=199        0.81       4.1     5.8  6.0  0.1002E+02 -0.1643E+01 -0.8104E+01E
 Epicentro: LOS SANTOS - SANTANDER                                             3
 ACTION:UPD 13-11-25 09:20 OP:ep   STATUS:               ID:20131008123424 L   I
 OLDACT:REG 13-10-08 15:18 OP:nd   STATUS:               ID:20131008122959     3
 2013-10-08-1229-59M.COL___273                                                 6
 STAT SP IPHASW D HRMM SECON CODA AMPLIT PERI AZIMU VELO AIN AR TRES W  DIS CAZ7
 BAR2 SZ EP       1234 43.93                             171    0.1510 22.5 186 
 BAR2 SZ ES       1234 58.85                             171   -0.3310 22.5 186 
 BAR2 SZ I        1235  0.51        11.7 0.30            170           22.5 186 
 BRR  HZ EP       1234 45.93                             153    0.7010 70.0 300 
 BRR  HN ES       1235  1.99                             153    0.2310 70.0 300 
 BRR  HZ I        1235  8.34         8.6 0.32            149           70.0 300 
 RUS  HZ EP       1234 47.73                             144   -0.1310  100 175 
 RUS  HN ES       1235  6.42                             144   -0.0210  100 175 
 RUS  HZ I        1235  9.17         2.1 0.50            149            100 175 
 PTB  HZ EP       1234 50.93                             133    0.00 9  146 259 
 PTB  HN ES       1235 11.70                             133   -0.20 9  146 259 
 PTB  HZ I        1235 19.32         5.1 0.42            132            146 259 
 SML  HZ EP       1235  0.26                             118   -0.44 8  243 336 
 SML  HN ES       1235 29.07                             118   -0.23 8  243 336 
 SML  HZ I        1235 37.96         7.9 0.10            119            243 336 
                                                                                
