 2012  4 8 1742 28.5 L   6.793 -73.168143.7  RSN  6 0.3 2.0LRSN                1
 GAP=134        0.76       5.7     5.1  9.5 -0.1660E+00  0.1366E+02  0.1259E+02E
 Epicentro: LOS SANTOS - SANTANDER                                             3
 ACTION:UPD 12-07-05 11:51 OP:tino STATUS:               ID:20120408174228 L   I
 2012-04-08-1740-00M.COL___196                                                 6
 STAT SP IPHASW D HRMM SECON CODA AMPLIT PERI AZIMU VELO AIN AR TRES W  DIS CAZ7
 BAR2 SZ EP       1742 47.75                             171    -0.110   22 184 
 BAR2 SZ I        1743  3.94        23.1 0.40                            22 184 
 BRR  HZ IP       1742 49.51                             153     0.210   69 300 
 BRR  HZ I        1742 49.72        29.2 0.30                            69 300 
 BRR  HE ES   2   1743  6.03                             153     0.5 5   69 300 
 PAM  SZ EP       1742 50.59                             150     0.010   80  41 
 PAM  SN ES   1   1743  7.55                             150    -0.3 7   80  41 
 RUS  HZ EP       1742 52.18                             143     0.210  100 175 
 RUS  HN ES   2   1743 10.28                             143     0.0 5  100 175 
 PTB  HZ EP       1742 54.53                             132    -0.5 9  145 259 
 PTB  HE ES   2   1743 15.79                             132     0.0 5  145 259 
 PTB  HZ I        1743 17.75         8.7 0.14                           145 259 
 ZAR  HZ EP   2   1743  1.53                             122     1.0 4  202 293 
 ZAR  HN ES   2   1743 25.27                             122    -0.3 4  202 293 
 ZAR  HZ I        1743 31.58        10.5 0.64                           202 293 
                                                                                
