 2013 12 8 1755 11.4 L   6.788 -73.181147.5  RSN  4 0.2 1.5LRSN                1
 GAP=142        0.57       3.5     3.4  4.9 -0.3713E+01  0.4586E+01 -0.1739E+01E
 Epicentro: LOS SANTOS - SANTANDER                                             3
 ACTION:UPD 14-01-13 10:16 OP:ep   STATUS:               ID:20131208175511 L   I
 OLDACT:REG 13-12-08 14:33 OP:cam  STATUS:               ID:20131208175000     3
 2013-12-08-1750-00M.COL___285                                                 6
 STAT SP IPHASW D HRMM SECON CODA AMPLIT PERI AZIMU VELO AIN AR TRES W  DIS CAZ7
 BAR2 SZ EP   2   1755 31.17                             171   -0.01 5 21.7 180 
 BAR2 SZ ES       1755 46.76                             171    0.1310 21.7 180 
 BAR2 SZ I        1755 47.95        13.9 0.22            172           21.7 180 
 PAM  SZ EP       1755 34.12                             150    0.1410 80.9  41 
 PAM  SE ES       1755 51.48                             150   -0.1410 80.9  41 
 PAM  SZ I        1755 53.61         2.5 0.42            150           80.9  41 
 RUS  HZ EP       1755 35.49                             144    0.2710 99.6 174 
 RUS  HN ES       1755 53.61                             144   -0.2210 99.6 174 
 RUS  HZ I        1755 54.91         4.7 0.24            146           99.6 174 
 PTB  HZ EP       1755 37.75                             133   -0.36 9  144 259 
 PTB  HN ES       1755 59.14                             133    0.17 9  144 259 
                                                                                
