 2017  4 8 1602 45.3 L   6.457 -73.553119.3  RSN  9 0.5 1.9LRSN                1
 GAP= 73        1.44       4.6     4.7  8.5 -0.4154E+01  0.7877E+01 -0.1673E+01E
 Epicentro: SANTA HELENA DEL OPON - SANTANDER                                  3
 ACTION:UPD 17-05-30 21:09 OP:jn   STATUS:               ID:20170408160245 L   I
 OLDACT:UP  17-04-08 22:59 OP:ar   STATUS:               ID:20170408155744     3
 OLDACT:UP  17-04-08 22:58 OP:ar   STATUS:               ID:20170408155744     3
 OLDACT:REG 17-04-08 21:07 OP:ar   STATUS:               ID:20170408155744     3
 2017-04-08-1558-00M.COL___371                                                 6
 STAT SP IPHASW D HRMM SECON CODA AMPLIT PERI AZIMU VELO AIN AR TRES W  DIS CAZ7
 BAR2 EZ EP       16 3  2.62                             158    0.1810 43.7  70 
 BAR2 EZ ES       16 3 15.73                             158   -0.1010 43.7  70 
 BAR2 EZ I        16 3 16.48        71.6 0.14            159           43.7  70 
 BRR  HZ EP       16 3  3.50                             145   -0.3310 74.0 346 
 BRR  HE ES       16 3 17.87                             145   -0.4310 74.0 346 
 BRR  HZ I        16 3 18.01         9.8 0.36            146           74.0 346 
 RUS  HZ EP       16 3  5.18                             142    0.1510 81.2 140 
 RUS  HE ES       16 3 19.96                             142   -0.4810 81.2 140 
 RUS  HZ I        16 3 20.92        12.8 0.74            141           81.2 140 
 PTB  HZ IP   9 C 16 3  4.59                             136   -1.26 0  100 275 
 PTB  HE ES       16 3 19.74                             135   -0.9010  100 275 
 PTB  HZ I        16 3 19.93        27.0 0.20            135            100 275 
 SPBC HZ EP       16 3  6.38                             135   -0.0510  106 213 
 SPBC HN ES       16 3 24.04                             135    1.1210  106 213 
 SPBC HZ I        16 3 26.36        14.3 0.22            133            106 213 
 PAM  EZ EP       16 3 10.07                             127    0.39 9  136  44 
 PAM  EE ES       16 3 28.80                             127    0.08 9  136  44 
 PAM  EZ I        16 3 32.81         6.4 0.26            127            136  44 
 NOR  HZ EP       16 3 12.61                             119   -0.58 9  176 236 
 NOR  HN ES       16 3 34.48                             119   -0.48 9  176 236 
 NOR  HZ I        16 3 42.24         7.8 0.18            118            176 236 
 ZAR  HZ EP       16 3 13.79                             118   -0.20 9  184 309 
 ZAR  HN ES       16 3 37.07                             118    0.69 9  184 309 
 ZAR  HZ I        16 3 38.00         8.7 0.22            117            184 309 
 HEL  HZ EP   9   16 3 20.72                             113    2.28 0  221 262 
 HEL  HN ES       16 3 45.43                             112   -1.15 8  221 262 
 HEL  HZ I        16 3 47.20         8.0 0.28            112            221 262 
                                                                                
