 2012  8 8 1125 51.8 L   6.806 -73.133150.6  RSN 12 0.5 2.7LRSN                1
 GAP=102        0.94       3.8     3.3  6.0  0.1327E+01  0.3840E+01  0.6939E+01E
 Epicentro: LOS SANTOS - SANTANDER                                             3
 ACTION:UPD 12-09-10 11:55 OP:ep   STATUS:               ID:20120808112551 L   I
 2012-08-08-1120-00M.COL___216                                                 6
 STAT SP IPHASW D HRMM SECON CODA AMPLIT PERI AZIMU VELO AIN AR TRES W  DIS CAZ7
 BAR2 SZ EP   1   1126 11.74                             170   -0.28 7 24.3 193 
 BAR2 SZ ES   1   1126 27.26                             170   -0.54 7 24.3 193 
 BRR  HZ EP       1126 13.61                             153    0.0910 72.1 298 
 BRR  HE ES       1126 31.10                             153    0.6410 72.1 298 
 BRR  HZ I        1126 34.96        97.3 0.16                          72.1 298 
 PAM  SZ EP   1   1126 14.56                             152    0.12 7 75.9  39 
 PAM  SZ I        1126 15.03       108.3 0.21                          75.9  39 
 PAM  SN ES   1   1126 32.01                             152   -0.10 7 75.9  39 
 RUS  HZ EP   1   1126 15.60                             145   -0.46 7  101 177 
 RUS  HN ES   1   1126 34.42                             145   -0.57 7  101 177 
 RUS  HZ I        1126 36.22        62.1 0.27                           101 177 
 PTB  HZ EP   1   1126 18.30                             133   -0.99 7  149 259 
 PTB  HN ES   1   1126 40.84                             133    0.09 7  149 259 
 PTB  HZ I        1126 42.85        35.1 0.14                           149 259 
 TAM  HZ IP     C 1126 20.01                             132    0.26 9  154 105 
 TAM  HZ I        1126 40.93        42.6 0.37                           154 105 
 TAM  HN ES       1126 41.77                             132    0.22 9  154 105 
 ZAR  HZ EP   1   1126 23.94                             123   -0.72 6  205 292 
 ZAR  HN ES       1126 50.32                             123    0.01 9  205 292 
 ZAR  HZ I        1126 56.37        36.2 0.12                           205 292 
 CHI  HZ EP   1   1126 29.76                             118   -0.11 6  250 195 
 CHI  HN ES       1126 59.53                             118   -0.05 8  250 195 
 CHI  HZ I        1127  5.00        24.9 0.45                           250 195 
 ROSC BZ EP   1   1126 31.51                             117    1.19 6  254 211 
 ROSC BE ES   1   1127  0.57                             117    0.19 6  254 211 
 ROSC BZ I        1127  7.65        59.6 0.49                           254 211 
 HEL  HZ EP   1   1126 32.78                             116    0.36 6  274 256 
 HEL  HZ I        1127 12.07        27.3 0.42                           274 256 
 DBB  SZ EP   1   1126 39.16                             110   -0.46 5  341 274 
 PRA  HZ EP   1   1126 45.32                             107   -0.31 4  393 210 
 PRA  HN ES       1127 28.40                             107    0.77 6  393 210 
                                                                                
