 2012 12 8 1722  8.9 L   6.765 -73.175146.2  RSN  7 0.4 2.1LRSN                1
 GAP=177        0.92       4.9     4.7  7.6  0.6780E+01  0.1097E+02 -0.3919E+01E
 Epicentro: LOS SANTOS - SANTANDER                                             3
 ACTION:UPD 13-01-04 14:26 OP:ep   STATUS:               ID:20121208172208 L   I
 2012-12-08-1720-00M.COL___243                                                 6
 STAT SP IPHASW D HRMM SECON CODA AMPLIT PERI AZIMU VELO AIN AR TRES W  DIS CAZ7
 BAR2 SZ EP       1722 28.50                             172    0.0510 19.1 183 
 BAR2 SZ ES       1722 43.16                             172   -0.5810 19.1 183 
 BAR2 SZ I        1722 44.82        46.9 0.16                          19.1 183 
 GIR2 SZ EP       1722 28.72                             166    0.0510 34.8 357 
 RUS  HZ EP       1722 32.63                             145    0.2410 97.0 174 
 RUS  HN ES       1722 51.42                             145    0.6810 97.0 174 
 RUS  HN I        1722 52.63        16.8 0.26                          97.0 174 
 PTB  HZ EP       1722 35.37                             133   -0.13 9  144 260 
 PTB  HN ES       1722 56.35                             133    0.06 9  144 260 
 PTB  HN I        1723  0.64        15.1 0.24                           144 260 
 ZAR  HZ EP       1722 40.90                             123   -0.27 9  203 293 
 ZAR  HN ES       1723  6.59                             123    0.21 9  203 293 
 ZAR  HN I        1723 13.95        19.6 0.28                           203 293 
 CHI  HN ES       1723 14.44                             118   -0.67 8  244 195 
 HEL  HE ES       1723 19.84                             115    0.17 8  268 256 
 HEL  HE I        1723 28.95         5.0 0.40                           268 256 
                                                                                
