 2016 10 8 1801 29.0 L   6.818 -73.130141.1  RSN  6 0.3 1.5LRSN                1
 GAP=138        0.74       3.0     3.3  6.2  0.9540E-01  0.6220E+01  0.2038E+01E
 Epicentro: LOS SANTOS - SANTANDER                                             3
 ACTION:UPD 16-11-09 19:17 OP:rebc STATUS:               ID:20161008180129 L   I
 OLDACT:REG 16-10-08 20:37 OP:lv   STATUS:               ID:20161008175745     3
 2016-10-08-1758-00M.COL___357                                                 6
 STAT SP IPHASW D HRMM SECON CODA AMPLIT PERI AZIMU VELO AIN AR TRES W  DIS CAZ7
 PAM  EZ EP       18 1 50.44                             151   -0.0910 74.8  39 
 PAM  EN ES       18 2  7.35                             151    0.0010 74.8  39 
 PAM  EZ I        18 2  9.31         8.1 0.50            153           74.8  39 
 RUS  HZ EP       18 1 52.10                             142   -0.3010  102 177 
 RUS  HN ES       18 2 10.96                             142    0.2910  102 177 
 RUS  HZ I        18 2 11.78         3.1 0.25            144            102 177 
 PTB  HZ EP       18 1 55.40                             130   -0.35 9  150 258 
 PTB  HN ES       18 2 16.16                             130   -0.48 9  150 258 
 PTB  HZ I        18 2 18.02         5.5 0.11            130            150 258 
 ZAR  HZ EP       18 2  1.59                             121    0.39 9  205 291 
 ZAR  HE ES       18 2 26.79                             121    0.44 9  205 291 
 ZAR  HZ I        18 2 34.88         4.2 0.15            121            205 291 
 CHI  HZ EP       18 2  6.78                             116    0.11 8  251 195 
 CHI  HN ES       18 2 36.31                             116    0.24 8  251 195 
 CHI  HZ I        18 2 41.77         2.2 0.22            117            251 195 
 GUY2CHZ EP   9   18 2 14.20                             111    1.55 0  304 235 
 GUY2CHE ES       18 2 48.10                                   -0.17 7  304 235 
 GUY2CHZ I        18 2 54.29         1.8 0.30                           304 235 
                                                                                
