 2017  1 8 1449 59.6 L   6.631 -73.237150.0  RSN  5 0.4 1.6LRSN                1
 GAP=170        0.79       8.0     5.5  7.1  0.1912E+02  0.1043E+02  0.9283E+01E
 Epicentro: BARICHARA - SANTANDER                                              3
 ACTION:UPD 17-05-22 15:57 OP:jn   STATUS:               ID:20170108144959 L   I
 OLDACT:UP  17-01-08 22:31 OP:and  STATUS:               ID:20170108144744     3
 OLDACT:REG 17-01-08 20:03 OP:and  STATUS:               ID:20170108144744     3
 2017-01-08-1448-00M.COL___374                                                 6
 STAT SP IPHASW D HRMM SECON CODA AMPLIT PERI AZIMU VELO AIN AR TRES W  DIS CAZ7
 BAR2 EZ EP       1450 19.58                             177    0.0310 7.44 125 
 BAR2 EZ ES       1450 34.75                             177   -0.3510 7.44 125 
 BAR2 EZ I        1450 36.07         9.6 0.46            167           7.44 125 
 BRR  HZ EP       1450 21.12                             151   -0.2810 74.3 315 
 BRR  HN ES       1450 38.53                             151    0.1410 74.3 315 
 BRR  HZ I        1450 38.81         5.8 0.42            149           74.3 315 
 RUS  HZ EP   2   1450 23.42                             150    0.77 5 83.4 168 
 RUS  HN ES   3   1450 41.71                             150    1.10 2 83.4 168 
 RUS  HZ I        1450 42.96         7.6 0.25            145           83.4 168 
 PTB  HZ EP     D 1450 25.89                             135    0.06 9  135 266 
 PTB  HN ES       1450 45.99                             135   -0.29 9  135 266 
 PTB  HZ I        1450 54.84         4.1 0.19            130            135 266 
 ZAR  HZ EP   4   1450 34.38                             123    2.17 0  203 298 
 ZAR  HN ES       1450 58.19                             123    0.55 9  203 298 
 ZAR  HZ I        1451  4.15         6.1 0.32            122            203 298 
                                                                                
