 2015 10 8 1135  2.1 L   6.796 -73.143136.2  RSN  6 0.3 1.8LRSN                1
 GAP=216        0.80       3.3     5.5  5.8 -0.1319E+01  0.1094E+02 -0.2852E+01E
 Epicentro: LOS SANTOS - SANTANDER                                             3
 ACTION:UPD 15-12-22 20:38 OP:cam  STATUS:               ID:20151008113502 L   I
 OLDACT:UP  15-10-08 22:28 OP:akl  STATUS:               ID:20151008112748     3
 OLDACT:UP  15-10-08 22:27 OP:akl  STATUS:               ID:20151008112748     3
 OLDACT:REG 15-10-08 21:16 OP:ak   STATUS:               ID:20151008112748     3
 2015-10-08-1127-48M.COL___336                                                 6
 STAT SP IPHASW D HRMM SECON CODA AMPLIT PERI AZIMU VELO AIN AR TRES W  DIS CAZ7
 BAR2 EZ EP       1135 20.70                             170    0.1210 23.0 191 
 BAR2 EZ ES       1135 34.81                             170   -0.1810 23.0 191 
 BAR2 EZ I        1135 36.68        12.0 0.15            173           23.0 191 
 BRR  HZ EP       1135 22.47                             151    0.2210 71.6 299 
 BRR  HN ES       1135 38.15                             151    0.1810 71.6 299 
 SPBC HN ES       1135 51.52                             127   -0.01 9  163 219 
 ZAR  HZ EP       1135 34.56                             120    0.57 9  204 292 
 ZAR  HN ES       1135 59.10                             120    0.25 9  204 292 
 ZAR  HZ I        1136  5.23         5.7 0.32            120            204 292 
 NOR  HZ EP       1135 37.09                             116   -0.21 8  235 235 
 NOR  HN ES       1136  4.30                             116   -0.44 8  235 235 
 SML  HZ EP   1   1135 38.21                             115   -0.06 6  244 335 
 SML  HN ES       1136  5.71                             115   -0.76 8  244 335 
 SML  HZ I        1136 14.12         6.3 0.10            115            244 335 
                                                                                
