 2012  7 8 1742  1.6 L   6.719 -73.158152.4  RSN  5 0.3 1.5LRSN                1
 GAP=138        0.75       8.7     8.1 10.3  0.4101E+02 -0.2176E+02 -0.4462E+02E
 Epicentro: VILLANUEVA - SANTANDER                                             3
 ACTION:UPD 12-08-14 11:43 OP:ep   STATUS:               ID:20120708174201 L   I
 2012-07-08-1740-00M.COL___201                                                 6
 STAT SP IPHASW D HRMM SECON CODA AMPLIT PERI AZIMU VELO AIN AR TRES W  DIS CAZ7
 BAR2 SZ EP   1   1742 21.93                             174     0.1 7   14 191 
 BAR2 SZ ES   1   1742 37.22                             174    -0.4 7   14 191 
 BAR2 SZ I        1742 38.16        11.1 0.23                            14 191 
 BRR  HZ EP   1   1742 23.83                             152     0.2 7   75 305 
 BRR  HN ES   1   1742 41.33                             152     0.5 7   75 305 
 PAM  SZ EP   1   1742 24.82                             150    -0.1 7   85  36 
 PAM  SZ I        1742 24.98         7.0 0.22                            85  36 
 RUS  HN ES   1   1742 44.05                             148     0.1 7   92 175 
 RUS  HZ I        1742 45.47         3.0 0.37                            92 175 
 ZAR  HN ES   1   1743  0.08                             123    -0.4 6  206 295 
