 2016 12 8 1704  0.1 L   6.721 -73.160148.3  RSN  6 0.3 1.6LRSN                1
 GAP=138        0.90       4.6     4.1  6.6  0.1635E+01  0.4963E+01 -0.2973E-01E
 Epicentro: VILLANUEVA - SANTANDER                                             3
 ACTION:UPD 17-01-11 20:13 OP:rebc STATUS:               ID:20161208170400 L   I
 OLDACT:UP  16-12-09 10:30 OP:dani STATUS:               ID:20161208165643     3
 OLDACT:UP  16-12-09 10:27 OP:dani STATUS:               ID:20161208165643     3
 OLDACT:UP  16-12-09 10:26 OP:dani STATUS:               ID:20161208165643     3
 OLDACT:REG 16-12-09 03:14 OP:dani STATUS:               ID:20161208165643     3
 2016-12-08-1657-00M.COL___357                                                 6
 STAT SP IPHASW D HRMM SECON CODA AMPLIT PERI AZIMU VELO AIN AR TRES W  DIS CAZ7
 BAR2 EZ EP       17 4 19.73                             174   -0.1810 14.5 190 
 BAR2 HN ES       17 4 35.16                             174   -0.1910 14.5 190 
 BAR2 EZ I        17 4 37.05         6.7 0.18            174           14.5 190 
 BRR  HZ EP       17 4 21.94                             152    0.2210 74.4 305 
 BRR  HE ES       17 4 39.16                             152    0.5910 74.4 305 
 BRR  HZ I        17 4 41.26        14.6 0.27            150           74.4 305 
 PAM  EE EP       17 4 22.94                             149   -0.1410 85.2  37 
 PAM  EZ ES       17 4 40.71                             149   -0.2810 85.2  37 
 PAM  EE I        17 4 43.24         7.6 0.45            151           85.2  37 
 RUS  HZ EP       17 4 23.99                             147    0.4610 92.0 175 
 RUS  HN ES       17 4 41.91                             147    0.1210 92.0 175 
 RUS  HZ I        17 4 42.84         2.4 0.39            150           92.0 175 
 PTB  HZ EP       17 4 26.70                             133   -0.32 9  145 262 
 PTB  HE ES       17 4 47.42                             133   -0.58 9  145 262 
 PTB  HZ I        17 4 52.85         3.6 0.19            133            145 262 
 ZAR  HZ EP   4   17 4 35.06                             123    2.14 0  206 295 
 ZAR  HE ES       17 4 58.76                             123    0.24 8  206 295 
 ZAR  HZ I        17 5  4.12         4.0 0.15            123            206 295 
                                                                                
