 2012  6 8 1528 49.4 L   6.846 -73.132145.1  RSN  7 0.4 2.5LRSN                1
 GAP=185        0.77       8.8     7.9  7.8  0.3594E+02  0.2560E+02 -0.4635E+01E
 Epicentro: LOS SANTOS - SANTANDER                                             3
 ACTION:UPD 12-08-06 17:48 OP:ep   STATUS:               ID:20120608152846 L   I
 2012-06-08-1520-00M.COL___201                                                 6
 STAT SP IPHASW D HRMM SECON CODA AMPLIT PERI AZIMU VELO AIN AR TRES W  DIS CAZ7
 BAR2 SZ EP       1529  9.25                             169    0.1510 28.6 191 
 BAR2 SZ ES   1   1529 24.51                             169    0.08 7 28.6 191 
 BAR2 SZ I        1529 26.25        60.0 0.74            163           28.6 191 
 RUS  HZ EP       1529 13.41                             142   -0.0710  106 177 
 RUS  HN ES   2   1529 32.31                             142    0.07 5  106 177 
 PTB  HZ EP       1529 15.78                             131   -0.79 9  150 257 
 PTB  HN ES   2   1529 37.66                             131   -0.08 5  150 257 
 PTB  HZ I        1529 43.60        25.2 0.20            130            150 257 
 OCA  HN ES   3   1529 38.32                             130   -0.59 2  155 352 
 ZAR  HZ EP       1529 22.01                             122    0.23 9  204 291 
 ZAR  HE ES   2   1529 47.21                             122    0.19 4  204 291 
 ZAR  HZ I        1529 52.71        61.7 0.46            123            204 291 
 HEL  HZ EP       1529 30.54                             114    0.63 8  275 255 
 DBB  SZ EP       1529 37.10                             109    0.09 7  341 273 
                                                                                
