 2016  1 8 1417 31.1 L   6.808 -73.129142.0  RSN 19 0.5 2.9LRSN                1
 GAP=138        1.16       2.7     3.8  5.2 -0.1385E+01  0.6647E+01  0.1679E+01E
 Epicentro: LOS SANTOS - SANTANDER                                             3
 ACTION:UPD 16-03-09 23:23 OP:cam  STATUS:               ID:20160108141731 L   I
 OLDACT:DUP 16-01-08 22:20 OP:ar   STATUS:               ID:20160108140750d    3
 OLDACT:REG 16-01-08 21:28 OP:ar   STATUS:               ID:20160108140749     3
 2016-01-08-1407-49M.COL___277                                                 6
 STAT SP IPHASW D HRMM SECON CODA AMPLIT PERI AZIMU VELO AIN AR TRES W  DIS CAZ7
 BAR2 EZ EP     D 1417 50.32                             170   -0.0110 24.6 194 
 BAR2 EZ ES       1418  5.11                             170   -0.2010 24.6 194 
 BAR2 EZ I        1418  6.42       102.0 0.18            170           24.6 194 
 BRR  HZ EP       1417 52.21                             151    0.2710 72.4 297 
 BRR  HN ES       1418  9.00                             151    0.8310 72.4 297 
 BRR  HZ I        1418 13.22       114.4 0.10            150           72.4 297 
 PAM  EZ IP     C 1417 53.20                             151    0.3710 75.5  39 
 PAM  EN ES       1418  9.93                             151    0.1810 75.5  39 
 PAM  EZ I        1418 12.14       215.8 0.52            154           75.5  39 
 RUS  HZ EP       1417 54.35                             143   -0.2210  101 177 
 RUS  HN ES       1418 12.68                             143   -0.1710  101 177 
 RUS  HZ I        1418 13.76        58.6 0.38            145            101 177 
 PTB  HZ EP       1417 57.17                             131   -0.80 9  150 259 
 PTB  HN ES       1418 18.70                             131   -0.21 9  150 259 
 PTB  HZ I        1418 21.37        66.4 0.18            131            150 259 
 OCA  HZ EP     C 1417 58.58                             129   -0.50 9  160 352 
 OCA  HN ES       1418 20.30                             129   -0.59 9  160 352 
 OCA  HZ I        1418 25.61       178.3 0.34            130            160 352 
 SPBC HZ EP       1417 59.66                             128    0.14 9  165 219 
 SPBC HN ES       1418 21.10                             128   -0.56 9  165 219 
 SPBC HZ I        1418 26.81        98.5 0.26            129            165 219 
 ZAR  HZ EP       1418  3.69                             121    0.22 8  205 292 
 ZAR  HN ES       1418 29.17                             121    0.47 8  205 292 
 ZAR  HZ I        1418 34.29        90.4 0.32            122            205 292 
 NOR  HZ EP       1418  7.07                             117    0.21 8  237 235 
 NOR  HE ES       1418 34.23                             117   -0.50 8  237 235 
 NOR  HZ I        1418 36.25        36.7 0.12            119            237 235 
 SML  HZ EP       1418  6.77                             117   -0.77 8  244 335 
 SML  HN ES       1418 36.37                             117    0.43 8  244 335 
 SML  HZ I        1418 45.17        86.3 0.10            118            244 335 
 ROSC BZ EP       1418 10.23                             116    1.00 8  255 211 
 ROSC BN ES   4   1418 42.33                             116    3.37 0  255 211 
 ROSC BZ I        1418 46.64        44.5 0.50            117            255 211 
 HEL  HZ EP       1418 12.34                             114    0.96 8  274 256 
 HEL  HN ES       1418 42.28                             114   -0.49 8  274 256 
 URE  HZ EP       1418 11.62                             113   -0.55 7  285 292 
 URE  HE ES   4   1418 42.37                             113   -1.82 0  285 292 
 URE  HZ I        1418 44.07        75.9 0.14            114            285 292 
 SOCV BZ EP   4   1418 12.31                             112   -1.46 0  299  57 
 SOCV BN ES   4   1418 43.69                             112   -3.34 0  299  57 
 GUY2CHZ EP       1418 15.23                             111    0.44 7  303 235 
 GUY2CHN ES       1418 49.86                             111    1.00 7  303 235 
 GUY2CHZ I        1418 57.88        27.8 0.58                           303 235 
 VIL  SZ EP       1418 14.40                             111   -0.12 7  305 192 
 VIL  SE ES       1418 48.82                             111    0.46 7  305 192 
 CBOC HZ EP       1418 18.56                             109    0.44 7  336 252 
 CBOC HN ES       1418 55.02                             109    0.24 7  336 252 
 CBOC HZ I        1418 59.27        10.4 0.18            110            336 252 
 DBB  SZ EP       1418 18.51                             109   -0.15 7  341 274 
 DBB  SZ ES       1418 55.01                             109   -0.72 7  341 274 
 DBB  SZ I        1418 58.98        89.5 0.34            110            341 274 
 PRA  HZ EP       1418 24.24                             106   -0.48 6  394 210 
 PRA  HN ES       1419  5.34                             106   -1.18 6  394 210 
 PRA  HZ I        1419 14.81        15.9 0.28            107            394 210 
 ORTC HZ EP       1418 25.51                             106    0.38 6  397 216 
 ORTC HN ES       1419  7.37                             106    0.11 6  397 216 
 ORTC HZ I        1419 13.51        18.1 0.48            107            397 216 
                                                                                
