 2011 10 8 1350 34.4 L   6.749 -73.109146.0  RSN  5 0.2 1.6LRSN                1
 GAP=144        0.50       4.7     8.1  6.5  0.1897E+02 -0.2514E+02 -0.1258E+02E
 Epicentro: LOS SANTOS - SANTANDER                                             3
 ACTION:UPD 12-07-13 16:02 OP:ep   STATUS:               ID:20111008135034 L   I
 2011-10-08-1340-00M.COL___171                                                 6
 STAT SP IPHASW D HRMM SECON CODA AMPLIT PERI AZIMU VELO AIN AR TRES W  DIS CAZ7
 BAR2 SZ EP   1   1350 54.31                             172    0.34 7 19.1 205 
 BAR2 SZ ES   1   1351  9.04                             172   -0.21 7 19.1 205 
 BAR2 SZ I        1351 10.38        11.7 0.22                          19.1 205 
 GIR2 SZ EP   1   1350 54.57                             165    0.29 7 37.7 346 
 BRR  HZ EP   1   1350 55.62                             150   -0.31 7 77.5 301 
 BRR  HZ I        1350 57.61         9.4 0.11                          77.5 301 
 BRR  HN ES   1   1351 12.84                             150    0.10 7 77.5 301 
 PAM  SZ EP   1   1350 56.62                             150   -0.14 7 79.5  35 
 RUS  HZ EP   1   1350 57.61                             146   -0.14 7 94.7 178 
 RUS  HN ES   1   1351 16.04                             146    0.07 7 94.7 178 
 RUS  HZ I        1351 17.43         5.5 0.57                          94.7 178 
                                                                                
