 2017  9 8 1924 24.5 L   6.794 -73.153139.4  RSN  4 0.3 0.8LRSN                1
 GAP=136        0.82       4.3     6.3  6.7 -0.3599E+00 -0.2752E+01  0.1266E+01E
 Epicentro: LOS SANTOS - SANTANDER                                             3
 ACTION:UPD 17-10-05 19:10 OP:rebc STATUS:               ID:20170908192424 L   I
 OLDACT:UP  17-09-11 16:29 OP:nlst STATUS:               ID:20170908192424 L   3
 OLDACT:UP  17-09-09 00:11 OP:dani STATUS:               ID:20170908191739     3
 OLDACT:UP  17-09-09 00:10 OP:dani STATUS:               ID:20170908191739     3
 OLDACT:UP  17-09-09 00:10 OP:dani STATUS:               ID:20170908191739     3
 OLDACT:UP  17-09-09 00:10 OP:dani STATUS:               ID:20170908191739     3
 OLDACT:UP  17-09-09 00:09 OP:dani STATUS:               ID:20170908191739     3
 OLDACT:UP  17-09-09 00:09 OP:dani STATUS:               ID:20170908191739     3
 OLDACT:REG 17-09-08 20:36 OP:lv   STATUS:               ID:20170908191739     3
 2017-09-08-1918-00M.COL___419                                                 6
 STAT SP IPHASW D HRMM SECON CODA AMPLIT PERI AZIMU VELO AIN AR TRES W  DIS CAZ7
 BAR2 EZ EP       1924 43.04                             170   -0.3410 22.5 188 
 BAR2 EZ ES       1924 57.56                             170   -0.5210 22.5 188 
 BRR  HZ EP       1924 45.18                             151    0.2110 70.8 299 
 BRR  HN ES       1925  1.04                             151    0.1210 70.8 299 
 PAM  EZ EP       1924 46.08                             149   -0.0510 78.4  40 
 PAM  EN ES       1925  3.21                             149    0.2210 78.4  40 
 PAM  EZ I        1925  5.42         1.6 0.27            148           78.4  40 
 RUS  HZ EP       1924 47.50                             143   -0.1110100.0 176 
 RUS  HN ES       1925  6.10                             143    0.4810100.0 176 
 RUS  HZ I        1925  6.48         1.0 0.32            144          100.0 176 
                                                                                
