 2016  8 8 2118 11.0 L   6.785 -73.147135.5  RSN  7 0.4 1.9LRSN                1
 GAP=137        1.03       4.1     4.9  6.6 -0.9640E-01  0.1089E+02  0.1978E+01E
 Epicentro: LOS SANTOS - SANTANDER                                             3
 ACTION:UPD 16-10-29 15:33 OP:rebc STATUS:               ID:20160808211811 L   I
 OLDACT:REG 16-08-09 03:18 OP:drio STATUS:               ID:20160808210759     3
 2016-08-08-2107-59S.COL___343                                                 6
 STAT SP IPHASW D HRMM SECON CODA AMPLIT PERI AZIMU VELO AIN AR TRES W  DIS CAZ7
 BAR2 EZ EP       2118 29.04                             170   -0.3310 21.6 190 
 BAR2 EZ ES       2118 44.23                             170    0.5410 21.6 190 
 BAR2 EZ I        2118 45.32        19.6 0.24                          21.6 190 
 BRR  HZ EP       2118 31.27                             150    0.1810 71.8 300 
 BRR  HN ES       2118 45.82                             150   -0.9410 71.8 300 
 PAM  EZ EP       2118 32.28                             148    0.0510 78.8  39 
 PAM  HN ES       2118 48.95                             148    0.1610 78.8  39 
 PAM  EZ I        2118 52.12        11.1 0.50                          78.8  39 
 RUS  HZ EP       2118 33.33                             142   -0.3110 98.9 176 
 RUS  HE ES       2118 51.42                             142    0.1310 98.9 176 
 RUS  HZ I        2118 52.39        11.4 0.24                          98.9 176 
 SPBC HZ EP       2118 38.22                             127   -0.38 9  162 219 
 SPBC HN ES       2119  0.31                             127    0.19 9  162 219 
 SPBC HZ I        2119  3.94        12.6 0.18                           162 219 
 ZAR  HZ EP       2118 43.27                             120    0.42 9  205 293 
 ZAR  HE ES       2119  8.14                             120    0.45 9  205 293 
 ZAR  HZ I        2119 14.47        10.4 0.34                           205 293 
 GUY2CHZ EP       2118 54.11                             110    0.08 7  300 235 
 GUY2CHN ES   4   2119 29.59                             110    2.00 0  300 235 
 GUY2CHZ I        2119 34.26         3.4 0.56                           300 235 
                                                                                
