 2011 10 8 2244 43.2 L   6.754 -73.129145.4  RSN  6 0.2 1.8LRSN                1
 GAP=141        0.45       2.8     3.0  4.3 -0.3752E+00  0.1499E+01  0.1389E+01E
 Epicentro: LOS SANTOS - SANTANDER                                             3
 ACTION:UPD 12-07-13 16:02 OP:ep   STATUS:               ID:20111008224443 L   I
 2011-10-08-2242-16S.COL___167                                                 6
 STAT SP IPHASW D HRMM SECON CODA AMPLIT PERI AZIMU VELO AIN AR TRES W  DIS CAZ7
 BAR2 SZ EP   1   2245  2.55                             172   -0.19 7 18.8 198 
 BAR2 SZ ES   1   2245 18.04                             172    0.09 7 18.8 198 
 BAR2 SZ I        2245 19.63        12.5 0.27                          18.8 198 
 BRR  HZ EP       2245  4.75                             151    0.1710 75.3 301 
 BRR  HE ES       2245 21.34                             151    0.1110 75.3 301 
 BRR  HZ I        2245 23.79        18.7 0.17                          75.3 301 
 PAM  SZ EP   1   2245  5.77                             150    0.19 7 80.3  36 
 PAM  SN ES   1   2245 22.63                             150   -0.39 7 80.3  36 
 RUS  HZ EP   1   2245  6.59                             145    0.01 7 95.4 177 
 RUS  HE ES   1   2245 24.86                             145    0.07 7 95.4 177 
 RUS  HZ I        2245 26.79         6.4 0.22                          95.4 177 
 ZAR  HN ES   2   2245 41.26                             122   -0.35 4  208 293 
 ZAR  HZ I        2245 47.87         6.3 0.48                           208 293 
 NOR  SN ES   1   2245 46.28                             118   -0.24 6  233 236 
                                                                                
