 2013 10 8 2228  9.9 L   6.813 -73.157143.8  RSN 14 0.4 2.2LRSN                1
 GAP= 70        1.03       2.7     3.1  5.0 -0.8923E+00  0.6398E+00 -0.4836E+00E
 Epicentro: LOS SANTOS - SANTANDER                                             3
 ACTION:UPD 13-11-25 09:20 OP:ep   STATUS:               ID:20131008222809 L   I
 OLDACT:REG 13-10-08 23:44 OP:stll STATUS:               ID:20131008221843     3
 2013-10-08-2218-43M.COL___235                                                 6
 STAT SP IPHASW D HRMM SECON CODA AMPLIT PERI AZIMU VELO AIN AR TRES W  DIS CAZ7
 BAR2 SZ EP       2228 29.58                             170    0.2710 24.5 187 
 BAR2 SZ ES       2228 43.75                             170   -0.7110 24.5 187 
 BAR2 SZ I        2228 46.21        29.2 0.50            169           24.5 187 
 BRR  HZ EP       2228 31.43                             153    0.7010 69.5 298 
 BRR  HE ES       2228 47.57                             153    0.5810 69.5 298 
 BRR  HZ I        2228 51.75        18.6 0.40            150           69.5 298 
 PAM  SZ IP     C 2228 32.42                             151    0.5410 77.1  41 
 PAM  SZ I        2228 32.61        12.7 0.24            154           77.1  41 
 PAM  SN ES       2228 48.97                             151   -0.0710 77.1  41 
 RUS  HZ EP       2228 33.50                             143   -0.0610  102 175 
 RUS  HN ES       2228 52.08                             143    0.0610  102 175 
 RUS  HZ I        2228 53.09        12.7 0.30            144            102 175 
 PTB  HZ EP       2228 36.30                             132   -0.32 9  147 258 
 PTB  HN ES       2228 57.14                             132   -0.33 9  147 258 
 PTB  HZ I        2228 59.69        19.8 0.10            131            147 258 
 CAPV BZ IP     D 2228 37.41                             131    0.31 9  149  39 
 TAM  HZ EP       2228 37.67                             130    0.11 9  157 105 
 OCA  HN ES       2228 59.91                             129    0.15 9  159 354 
 OCA  HN I        2229  3.99        87.2 0.40            130            159 354 
 SPBC HZ EP   2   2228 38.69                             129    0.42 5  164 218 
 SPBC HN ES       2229  0.03                             129   -0.38 9  164 218 
 SPBC HZ I        2229  7.84        17.5 0.22            128            164 218 
 ZAR  HZ EP       2228 41.54                             122   -0.50 9  202 292 
 ZAR  HN ES       2229  7.29                             122    0.17 9  202 292 
 ZAR  HN I        2229 15.87        30.4 0.20            122            202 292 
 SML  HZ EP       2228 45.93                             117   -0.29 8  242 335 
 SML  HN ES       2229 13.87                             117   -0.68 8  242 335 
 SML  HZ I        2229 19.81        17.0 0.10            118            242 335 
 CHI  HZ EP       2228 47.70                             117    0.11 8  250 195 
 CHI  HN ES       2229 17.11                             117    0.11 8  250 195 
 CHI  HZ I        2229 23.32         4.5 0.58            117            250 195 
 HEL  HZ EP       2228 50.15                             114    0.24 8  271 255 
 HEL  HN ES       2229 21.32                             114    0.19 8  271 255 
 HEL  HN I        2229 27.32         9.3 0.42            114            271 255 
 SOCV BZ EP       2228 51.81                             112   -1.07 7  302  57 
                                                                                
