 2014  7 8 2229  6.1 L   6.788 -73.149148.8  RSN  8 0.3 1.5LRSN                1
 GAP=137        0.79       3.0     3.4  5.4  0.5790E-01  0.5188E+01 -0.1506E+01E
 Epicentro: LOS SANTOS - SANTANDER                                             3
 ACTION:UPD 15-03-16 20:42 OP:nd   STATUS:               ID:20140708222906 L   I
 OLDACT:REG 14-07-09 02:58 OP:spq  STATUS:               ID:20140708222816     3
 2014-07-08-2228-16M.COL___265                                                 6
 STAT SP IPHASW D HRMM SECON CODA AMPLIT PERI AZIMU VELO AIN AR TRES W  DIS CAZ7
 BAR2 SZ EP       2229 25.78                             171   -0.2510 22.0 190 
 BAR2 SZ ES   1   2229 41.15                             171   -0.46 7 22.0 190 
 BAR2 SZ I        2229 42.26         8.6 0.09            171           22.0 190 
 BRR  HZ EP       2229 28.13                             153    0.5710 71.5 300 
 BRR  HE ES       2229 44.42                             153    0.1010 71.5 300 
 BRR  HZ I        2229 51.63        15.3 0.32            151           71.5 300 
 PAM  SZ EP   1   2229 29.03                             151    0.36 7 78.6  39 
 PAM  SN ES       2229 46.29                             151   -0.0210 78.6  39 
 PAM  SZ I        2229 48.44         3.0 0.34            156           78.6  39 
 RUS  HZ EP       2229 29.88                             145   -0.1410 99.3 176 
 RUS  HN ES       2229 49.01                             145    0.3010 99.3 176 
 RUS  HZ I        2229 51.76         1.5 0.24            150           99.3 176 
 PTB  HZ EP       2229 33.09                             133   -0.13 9  147 259 
 PTB  HN ES       2229 54.05                             133   -0.36 9  147 259 
 PTB  HZ I        2230  1.47         5.1 0.46            134            147 259 
 ZAR  HN ES       2230  4.37                             123    0.17 9  204 293 
 ZAR  HZ I        2230 10.10         3.4 0.40            125            204 293 
 SML  HZ EP       2229 42.34                             118   -0.63 8  245 335 
 SML  HN ES       2230 11.89                             118    0.14 8  245 335 
 SML  HZ I        2230 15.82         4.3 0.10            121            245 335 
 GUY2CHN ES       2230 23.94                             113    0.21 7  300 235 
 GUY2CHZ I        2230 33.36         1.7 0.32                           300 235 
                                                                                
