 2017  9 8 2125 32.4 L   6.593 -73.415121.0  RSN 12 0.3 1.9LRSN                1
 GAP= 74        0.77       2.1     2.3  4.3  0.9982E-02  0.3017E+01  0.2443E+01E
 Epicentro: HATO - SANTANDER                                                   3
 ACTION:UPD 17-10-05 19:10 OP:rebc STATUS:               ID:20170908212532 L   I
 OLDACT:UP  17-09-09 06:09 OP:osc  STATUS:               ID:20170908211740d    3
 OLDACT:DUP 17-09-09 06:05 OP:osc  STATUS:               ID:20170908211740d    3
 OLDACT:UP  17-09-09 06:03 OP:osc  STATUS:               ID:20170908211739d    3
 OLDACT:DUP 17-09-09 05:51 OP:osc  STATUS:               ID:20170908211739d    3
 2017-09-08-2118-00M.COL___422                                                 6
 STAT SP IPHASW D HRMM SECON CODA AMPLIT PERI AZIMU VELO AIN AR TRES W  DIS CAZ7
 BAR2 EZ EP       2125 49.10                             167   -0.0310 25.7  90 
 BAR2 EZ ES       2126  2.23                             167    0.0510 25.7  90 
 BAR2 EZ I        2126  3.28        71.3 0.26            170           25.7  90 
 BRR  HZ EP       2125 50.40                             149   -0.1910 65.7 330 
 BRR  HE ES       2126  4.91                             149    0.1410 65.7 330 
 RUS  HZ EP       2125 52.20                             143   -0.4510 85.7 155 
 RUS  HE ES       2126  8.50                             143    0.0510 85.7 155 
 RUS  HZ I        2126  9.27        17.1 0.34            144           85.7 155 
 PAM  EZ EP       2125 54.95                             134   -0.0310  114  44 
 PAM  EE ES       2126 12.83                             134    0.2510  114  44 
 PAM  EZ I        2126 17.12         7.9 0.17            135            114  44 
 SPBC HZ EP       2125 55.10                             130   -0.4810  127 215 
 SPBC HE ES       2126 13.05                             130   -0.6010  127 215 
 YPLC HZ EP       2126  0.40                             121    0.06 9  175 139 
 YPLC HE ES       2126 22.44                             121    0.31 9  175 139 
 ZAR  HZ EP       2126  1.57                             119   -0.06 9  188 302 
 ZAR  HN ES       2126 24.44                             119    0.02 9  188 302 
 ZAR  HZ I        2126 31.79        13.7 0.27            118            188 302 
 NOR  HZ EP       2126  2.69                             117    0.01 9  197 235 
 NOR  HE ES       2126 26.50                             117    0.21 9  197 235 
 NOR  HZ I        2126 29.25         9.0 0.14            117            197 235 
 CHI  HZ EP       2126  6.36                             115    0.72 8  220 189 
 CHI  HN ES       2126 31.54                             115   -0.02 8  220 189 
 CHI  HZ I        2126 35.06         3.5 0.26            115            220 189 
 HEL  HZ EP   2   2126  8.13                             112    0.52 4  238 259 
 HEL  HN ES   2   2126 35.82                             112    0.75 4  238 259 
 HEL  HZ I        2126 39.34         6.4 0.34            112            238 259 
 GUY2CHZ EP   4   2126 12.62                             110    1.96 0  264 235 
 GUY2CHE ES       2126 40.87                             110    0.38 8  264 235 
 GUY2CHZ I        2126 49.62         5.9 0.50                           264 235 
 PRA  HZ EP       2126 20.49                             104   -0.61 6  358 207 
 PRA  HE ES       2126 59.36                             104    0.28 6  358 207 
 PRA  HZ I        2127  7.90         3.1 0.17            104            358 207 
                                                                                
