 2017  8 8 2143 53.7 L   6.795 -73.183149.9  RSN  7 0.4 1.7LRSN                1
 GAP=132        0.94       4.0     4.3  6.5  0.1591E+01  0.5272E+01  0.7621E+01E
 Epicentro: ZAPATOCA - SANTANDER                                               3
 ACTION:UPD 17-09-04 20:18 OP:rebc STATUS:               ID:20170808214353 L   I
 OLDACT:REG 17-08-09 02:32 OP:edw  STATUS:               ID:20170808213743     3
 2017-08-08-2138-00M.COL___405                                                 6
 STAT SP IPHASW D HRMM SECON CODA AMPLIT PERI AZIMU VELO AIN AR TRES W  DIS CAZ7
 BAR2 EZ ES       2144 29.84                             171    0.3510 22.5 180 
 BAR2 EZ I        2144 30.13        16.1 0.50            167           22.5 180 
 BRR  HN ES       2144 32.21                             154    0.4010 67.8 301 
 PAM  EZ EP     C 2144 16.50                             151   -0.0210 80.5  42 
 PAM  EN ES       2144 34.22                             151   -0.1210 80.5  42 
 PAM  EZ I        2144 35.67         7.4 0.52            153           80.5  42 
 RUS  HZ EP       2144 17.61                             145   -0.2310  100 174 
 RUS  HN ES       2144 36.20                             145   -0.4810  100 174 
 RUS  HZ I        2144 37.72         9.9 0.24            142            100 174 
 PTB  HZ EP       2144 21.04                             134    0.42 9  144 259 
 PTB  HN ES       2144 41.05                             134   -0.59 9  144 259 
 PTB  HZ I        2144 43.80         2.6 0.38            133            144 259 
 ZAR  HN ES       2144 51.09                             124   -0.17 9  200 293 
 CHI  HZ EP       2144 31.37                             118   -0.08 8  247 194 
 CHI  HN ES       2145  1.57                             118    0.66 8  247 194 
 CHI  HZ I        2145 10.91         3.3 0.46            117            247 194 
                                                                                
