 2010 11 8 2219 45.0 L   6.763 -73.120142.3  RSN  5 0.2 1.4LRSN                1
 GAP=162        0.70       4.3     8.2  7.4 -0.1299E+01 -0.1394E+02  0.2744E+00E
 Epicentro: LOS SANTOS - SANTANDER                                             3
 ACTION:UP  10-12-17 16:51 OP:REBC STATUS:               ID:20101108221945 L   I
 2010-11-08-2217-04S.COL___129                                                 6
 STAT SP IPHASW D HRMM SECON CODA AMPLIT PERI AZIMU VELO SNR AR TRES W  DIS CAZ7
 BAR2 SZ ES   1   2220 18.78                             172    -0.3 7   20 200 
 BAR2 SZ I        2220 20.00         9.3 0.33                            20 200 
 BTL  SZ EP       2220  4.64                             170     0.410   24 316 
 BRR  HZ EP       2220  5.78                             150    -0.210   76 300 
 BRR  HE ES   1   2220 22.51                             150     0.1 7   76 300 
 BRR  HZ I        2220 24.27         7.0 0.14                            76 300 
 RUS  HZ EP       2220  7.98                             144    -0.110   96 178 
 RUS  HZ I        2220  9.09         2.9 0.18                            96 178 
 RUS  HN ES   2   2220 26.35                             144     0.2 5   96 178 
 GRA  SZ EP   1   2220 10.04                             135    -0.1 7  129  16 
 GRA  SZ ES   1   2220 29.81                             135     0.0 7  129  16 
 GRA  SZ I        2220 31.29         3.5 0.27                           129  16 
                                                                                
