 2015  8 8 2054 34.4 L   6.796 -73.163147.3  RSN 18 0.5 2.4LRSN                1
 GAP= 70        1.09       2.7     3.0  5.3 -0.1171E+01  0.4446E+01 -0.8304E+00E
 Epicentro: LOS SANTOS - SANTANDER                                             3
 ACTION:UPD 15-09-15 23:00 OP:cam  STATUS:               ID:20150808205434 L   I
 OLDACT:UP  15-08-31 07:26 OP:ar   STATUS:               ID:20150808205434 L   3
 OLDACT:REG 15-08-09 06:03 OP:stll STATUS:               ID:20150808204749     3
 2015-08-08-2047-49M.COL___355                                                 6
 STAT SP IPHASW D HRMM SECON CODA AMPLIT PERI AZIMU VELO AIN AR TRES W  DIS CAZ7
 BAR2 EZ EP       2054 54.40                             171    0.1610 22.6 185 
 BAR2 EZ ES       2055  9.72                             171    0.0410 22.6 185 
 BAR2 EZ I        2055 10.78        34.3 0.34            168           22.6 185 
 BRR  HZ EP       2054 56.28                             153    0.6110 69.7 300 
 BRR  HZ I        2054 56.72        67.0 0.22            146           69.7 300 
 BRR  HE ES       2055 12.37                             153    0.1410 69.7 300 
 PAM  EZ IP     D 2054 57.28                             150    0.3710 79.0  40 
 PAM  EZ I        2054 57.54        58.8 0.24            149           79.0  40 
 PAM  EN ES       2055 14.53                             150    0.0910 79.0  40 
 RUS  HZ EP       2054 58.34                             144    0.0210  100 175 
 RUS  HN ES       2055 17.02                             144    0.0810  100 175 
 RUS  HZ I        2055 17.84        18.1 0.42            141            100 175 
 CPBEREZ EP       2055  1.63                             133    0.28 9  146 259 
 CPBEREE ES       2055 22.12                             133   -0.23 9  146 259 
 TAM  HZ EP     C 2055  2.68                             130    0.28 9  157 105 
 TAM  HE ES       2055 23.91                             130   -0.30 9  157 105 
 OCA  HZ EP       2055  2.90                             130    0.01 9  160 354 
 OCA  HE ES       2055 24.56                             130   -0.52 9  160 354 
 OCA  HZ I        2055 31.33        64.9 0.18            125            160 354 
 SPBC HN ES       2055 24.94                             130   -0.17 9  162 219 
 SPBC HZ I        2055 26.84        25.6 0.24            124            162 219 
 ZAR  HZ EP       2055  7.25                             123    0.44 9  202 292 
 ZAR  HN ES       2055 32.61                             123    0.54 9  202 292 
 ZAR  HZ I        2055 39.08        32.8 0.38            117            202 292 
 NOR  HZ EP       2055 10.45                             119    0.39 8  233 234 
 NOR  HN ES       2055 37.50                             119   -0.34 8  233 234 
 NOR  HZ I        2055 41.73        12.8 0.24            114            233 234 
 SML  HZ EP       2055 10.32                             118   -0.78 8  243 336 
 SML  HE ES       2055 38.85                             118   -0.85 8  243 336 
 SML  HZ I        2055 42.73        28.8 0.10            113            243 336 
 CHI  HN ES       2055 40.37                             117   -1.14 8  248 195 
 CHI  HZ I        2055 44.94         5.1 0.34            113            248 195 
 HEL  HN ES       2055 45.71                             115   -0.05 8  270 256 
 HEL  HZ I        2055 52.84        11.4 0.64            110            270 256 
 GUY2CHE ES       2055 51.72                             113   -0.09 7  299 235 
 GUY2CHZ I        2056  1.11         9.0 0.60                           299 235 
 CBOC HZ EP       2055 22.24                             110    1.06 7  332 252 
 CBOC HN ES   4   2055 53.61                             110   -4.04 0  332 252 
 CBOC HZ I        2056 17.19         5.3 0.26            106            332 252 
 DBB  SZ EP       2055 22.19                             110    0.44 7  338 274 
 DBB  SZ I        2056  2.62        23.5 0.56            106            338 274 
 TOL  SN ES       2055 59.58                             110   -0.52 7  342 224 
 TOL  SZ I        2056  5.76         5.5 0.56            106            342 224 
 SJC  HZ EP     D 2055 28.82                             106   -1.15 6  409 327 
 SJC  HN ES   4   2056  9.80                             106   -3.48 0  409 327 
 SJC  HZ I        2056 14.16         6.2 0.46            103            409 327 
                                                                                
