 2016 10 8 2200 43.2 L   7.063 -73.359108.2  RSN  6 0.2 1.1LRSN                1
 GAP=233        0.51       3.3     2.7  4.9  0.4421E+01  0.3928E+01 -0.1886E+01E
 Epicentro: LEBRIJA - SANTANDER                                                3
 ACTION:UPD 16-11-09 19:17 OP:rebc STATUS:               ID:20161008220043 L   I
 OLDACT:UP  16-10-09 03:49 OP:edw  STATUS:               ID:20161008215748     3
 OLDACT:UP  16-10-09 03:47 OP:edw  STATUS:               ID:20161008215748     3
 OLDACT:REG 16-10-09 02:46 OP:edw  STATUS:               ID:20161008215748     3
 2016-10-08-2158-00M.COL___360                                                 6
 STAT SP IPHASW D HRMM SECON CODA AMPLIT PERI AZIMU VELO AIN AR TRES W  DIS CAZ7
 BAR2 EZ EP       22 1  0.05                             151    0.3210 55.6 159 
 BAR2 EZ ES       22 1 12.64                             151   -0.0110 55.6 159 
 RUS  HZ EP       22 1  6.61                             125    0.1110  133 167 
 RUS  HN ES       22 1 24.39                             125   -0.3010  133 167 
 RUS  HZ I        22 1 28.02         0.6 0.13            125            133 167 
 PTB  HZ EP       22 1  5.84                             125   -0.1710  134 245 
 PTB  HN ES       22 1 23.91                             125    0.0810  134 245 
 PTB  HZ I        22 1 25.32         3.3 0.22            122            134 245 
 ZAR  HZ EP       22 1  9.80                             117   -0.17 9  172 286 
 ZAR  HN ES       22 1 30.85                             117   -0.02 9  172 286 
 ZAR  HZ I        22 1 37.59         2.0 0.26            116            172 286 
 NOR  HZ EP   4   22 1 15.77                             109   -1.35 0  235 225 
 NOR  HN ES   4   22 1 40.67                             109   -2.92 0  235 225 
 NOR  HZ I        22 1 50.19         1.8 0.36            108            235 225 
 GUY2CHZ EP   4   22 1 27.14                             104    1.82 0  301 228 
 GUY2CHN ES       22 1 58.38                             104    0.18 7  301 228 
                                                                                
