 2011  2 8 2045 47.3 L   6.780 -73.184141.4  RSN 12 0.3 2.6LRSN                1
 GAP=133        0.53       2.9     3.7  5.4 -0.1276E+00  0.8801E+01  0.1283E+01E
 Epicentro: LOS SANTOS - SANTANDER                                             3
 ACTION:UP  11-03-28 15:07 OP:jfem STATUS:               ID:20110208204547 L   I
 2011-02-08-2044-06S.COL___136                                                 6
 STAT SP IPHASW D HRMM SECON CODA AMPLIT PERI AZIMU VELO SNR AR TRES W  DIS CAZ7
 BAR2 SZ EP       2046  6.47                             171     0.110   21 180 
 BAR2 SZ ES   2   2046 21.44                             171     0.2 5   21 180 
 BAR2 SZ I        2046 23.01       212.4 0.18                            21 180 
 GIR2 SZ EP   2   2046  6.53                             166     0.0 5   33 358 
 URB  SZ EP   1   2046  7.19                             158     0.0 7   53 342 
 RUS  HZ EP       2046 10.33                             143    -0.210   99 174 
 RUS  HE ES   1   2046 28.61                             143     0.0 7   99 174 
 RUS  HZ I        2046 30.30        84.8 0.29                            99 174 
 GRA  SZ EP   2   2046 12.07                             135    -0.4 5  129  19 
 GRA  SZ ES   2   2046 31.94                             135    -0.1 5  129  19 
 GRA  SZ I        2046 38.08        34.3 0.30                           129  19 
 YOP  SZ EP   1   2046 16.95                             125    -0.1 7  179 152 
 YOP  SN ES   2   2046 41.03                             125     0.8 4  179 152 
 YOP  SZ I        2046 45.52        28.3 0.18                           179 152 
 NOR  SZ EP   1   2046 22.09                             118    -0.2 6  230 234 
 NOR  SE ES   2   2046 49.31                             118    -0.3 4  230 234 
 CHI  HZ EP       2046 24.40                             117     0.0 8  245 194 
 CHI  HE ES   2   2046 52.58                             117    -0.8 4  245 194 
 CHI  HZ I        2046 58.06        24.9 0.21                           245 194 
 HEL  HZ EP   2   2046 27.74                             114     0.9 4  267 256 
 HEL  HN ES   2   2046 57.49                             114    -0.1 4  267 256 
 HEL  HZ I        2047  4.46        24.4 0.29                           267 256 
 RREF HZ EP   2   2046 33.07                             110     0.3 3  317 229 
 RREF HN ES   2   2047  8.07                             110    -0.1 3  317 229 
 RREF HZ I        2047 17.64        36.4 0.23                           317 229 
 DBB  SZ EP   1   2046 34.38                             109     0.2 5  335 275 
 DBB  SZ ES   2   2047 10.87                             109     0.2 3  335 275 
 TOL  SZ EP   2   2046 35.51                             109     0.6 3  339 224 
                                                                                
