 2016  5 8 2241  6.6 L   6.806 -73.144148.5  RSN 15 0.5 2.2LRSN                1
 GAP=119        1.16       2.9     4.6  5.6 -0.2494E+00  0.4521E+01  0.1740E+01E
 Epicentro: LOS SANTOS - SANTANDER                                             3
 ACTION:UPD 16-08-18 17:43 OP:cam  STATUS:               ID:20160508224106 L   I
 OLDACT:UP  16-05-15 07:32 OP:ar   STATUS:               ID:20160508224106 L   3
 OLDACT:UP  16-05-09 04:49 OP:ar   STATUS:               ID:20160508223744     3
 OLDACT:REG 16-05-09 03:45 OP:ar   STATUS:               ID:20160508223744     3
 2016-05-08-2237-44M.COL___292                                                 6
 STAT SP IPHASW D HRMM SECON CODA AMPLIT PERI AZIMU VELO AIN AR TRES W  DIS CAZ7
 BAR2 EZ EP       2241 26.67                             170    0.0710 24.0 190 
 BAR2 EZ ES       2241 41.81                             170   -0.3710 24.0 190 
 BAR2 EZ I        2241 43.24        48.4 0.20            168           24.0 190 
 BRR  HZ EP       2241 28.52                             153    0.4610 71.0 298 
 BRR  HN ES       2241 45.58                             153    0.8010 71.0 298 
 BRR  HZ I        2241 46.61        20.2 0.12            150           71.0 298 
 PAM  EZ EP       2241 29.52                             151    0.4210 76.8  40 
 PAM  EN ES       2241 46.95                             151    0.3210 76.8  40 
 PAM  EZ I        2241 48.91        21.0 0.56            155           76.8  40 
 RUS  HZ EP       2241 30.60                             144   -0.1010  101 176 
 RUS  HN ES       2241 49.40                             144   -0.0710  101 176 
 RUS  HZ I        2241 50.44        27.3 0.32            145            101 176 
 PTB  HZ EP       2241 33.54                             133   -0.31 9  148 259 
 PTB  HN ES       2241 54.33                             133   -0.74 9  148 259 
 PTB  HZ I        2241 59.94        11.3 0.26            131            148 259 
 OCA  HZ EP       2241 35.00                             130   -0.10 9  160 353 
 OCA  HN ES       2241 56.72                             130   -0.58 9  160 353 
 OCA  HZ I        2241 59.87        23.7 0.28            131            160 353 
 SPBC HZ EP       2241 35.67                             129    0.27 9  164 219 
 SPBC HN ES       2241 57.77                             129   -0.06 9  164 219 
 SPBC HZ I        2242  0.18        27.9 0.16            129            164 219 
 ZAR  HZ EP       2241 38.78                             123   -0.46 9  204 292 
 ZAR  HN ES       2242  4.95                             123    0.27 9  204 292 
 ZAR  HZ I        2242 10.42        13.0 0.22            122            204 292 
 SML  HZ EP       2241 43.91                             118    0.56 8  243 335 
 SML  HN ES       2242 11.06                             118   -0.93 8  243 335 
 SML  HZ I        2242 15.82        22.1 0.10            118            243 335 
 CHI  HZ EP       2241 44.77                             118    0.21 8  249 195 
 CHI  HE ES       2242 13.66                             118   -0.48 8  249 195 
 CHI  HZ I        2242 19.49         6.7 0.32            118            249 195 
 ROSC BZ EP   4   2241 46.81                             117    1.84 0  253 211 
 ROSC BN ES   4   2242 18.08                             117    3.21 0  253 211 
 ROSC BZ I        2242 21.16        13.5 0.35            117            253 211 
 HEL  HZ EP       2241 47.97                             115    0.95 8  272 256 
 HEL  HN ES   4   2242 20.62                             115    2.10 0  272 256 
 HEL  HZ I        2242 25.50         6.2 0.22            115            272 256 
 PTGC HZ EP       2241 49.85                             112   -0.83 7  309 159 
 PTGC HN ES   4   2242 23.58                             112   -1.45 0  309 159 
 PRA  HZ EP       2242  0.10                             107   -0.22 6  393 210 
 PRA  HN ES       2242 42.95                             107    0.75 6  393 210 
 PRA  HZ I        2242 48.59         7.4 0.48            107            393 210 
 CRJC HZ EP   9   2242  6.92                             104   -2.21 0  467   4 
 CRJC HN ES       2242 54.97                             104   -0.70 5  467   4 
 CRJC HZ I        2242 59.61         4.1 0.40            104            467   4 
                                                                                
