 2016 11 8 2038 54.3 L   6.820 -73.170151.4  RSN  6 0.4 1.6LRSN                1
 GAP=152        0.78       3.8     3.7  7.4 -0.2651E+01  0.4260E+01  0.1272E+02E
 Epicentro: LOS SANTOS - SANTANDER                                             3
 ACTION:UPD 17-10-26 21:06 OP:lp   STATUS:               ID:20161108203854 L   I
 OLDACT:REG 16-11-09 02:50 OP:cog  STATUS:               ID:20161108203744     3
 2016-11-08-2038-00M.COL___342                                                 6
 STAT SP IPHASW D HRMM SECON CODA AMPLIT PERI AZIMU VELO AIN AR TRES W  DIS CAZ7
 PAM  EZ EP       2039 17.34                             152    0.2110 77.5  42 
 PAM  EE ES       2039 34.79                             152   -0.1410 77.5  42 
 PAM  EZ I        2039 36.61         8.9 0.46            159           77.5  42 
 PTB  HZ EP       2039 21.62                             134    0.08 9  146 258 
 PTB  HE ES       2039 42.30                             134   -0.49 9  146 258 
 PTB  HZ I        2039 44.78         3.8 0.11            135            146 258 
 ZAR  HZ EP       2039 26.66                             124   -0.13 9  201 292 
 ZAR  HN ES       2039 52.24                             124    0.12 9  201 292 
 ZAR  HZ I        2040  3.38         3.4 0.28            127            201 292 
 NOR  HZ EP       2039 30.52                             120    0.24 8  234 234 
 NOR  HE ES       2039 58.96                             120    0.63 8  234 234 
 NOR  HZ I        2040  6.26         4.2 0.20            122            234 234 
 CHI  HZ EP       2039 32.19                             118   -0.29 8  250 194 
 CHI  HN ES       2040  2.63                             118    0.38 8  250 194 
 CHI  HZ I        2040 12.05         2.5 0.56            121            250 194 
 PRA  HZ EP       2039 47.93                             107   -0.17 6  393 209 
 PRA  HN ES       2040 29.24                             107   -0.81 6  393 209 
                                                                                
