 2014  9 8 2257 37.6 L   6.825 -73.054188.2  RSN  5 0.4 2.1LRSN                1
 GAP=224        0.74       9.7     7.5 11.7 -0.4498E+02  0.4825E+02 -0.3148E+02E
 Epicentro: LOS SANTOS - SANTANDER                                             3
 ACTION:UPD 14-10-03 23:03 OP:nd   STATUS:               ID:20140908225737 L   I
 OLDACT:DUP 14-09-09 04:30 OP:fm   STATUS:               ID:20140908224819d    3
 2014-09-08-2248-18M.COL___263                                                 6
 STAT SP IPHASW D HRMM SECON CODA AMPLIT PERI AZIMU VELO AIN AR TRES W  DIS CAZ7
 PAM  SN ES       2258 24.97                             159    0.2210 69.1  35 
 PAM  SZ I        2258 27.35        20.6 0.52            156           69.1  35 
 BRR  HN ES       2258 24.19                             156   -0.1010 79.1 293 
 BRR  HZ I        2258 28.43        19.9 0.40            150           79.1 293 
 PTB  HN ES       2258 33.52                             138   -0.21 9  158 259 
 PTB  HZ I        2258 35.22         8.3 0.38            138            158 259 
 OCA  HN ES   1   2258 33.71                             138   -0.49 7  159 349 
 OCA  HZ I        2258 38.41        10.1 0.46            135            159 349 
 ZAR  HZ EP   1   2258 13.85                             129   -0.06 6  212 290 
 ZAR  HN ES   1   2258 43.01                             129    0.77 6  212 290 
 ZAR  HZ I        2258 49.90        12.6 0.60            128            212 290 
                                                                                
