 2015 11 8 2238 50.2 L   6.825 -73.133146.9  RSN  7 0.4 2.0LRSN                1
 GAP=137        0.97       3.3     4.9  6.5 -0.1285E+01  0.4735E+01 -0.7278E+00E
 Epicentro: LOS SANTOS - SANTANDER                                             3
 *PAM-OCA                                                                      3
 ACTION:UPD 15-12-28 16:09 OP:cam  STATUS:               ID:20151108223850 L   I
 OLDACT:UP  15-11-09 05:17 OP:mh   STATUS:               ID:20151108222747d    3
 OLDACT:UP  15-11-09 05:14 OP:mh   STATUS:               ID:20151108222747d    3
 OLDACT:UP  15-11-09 05:14 OP:mh   STATUS:               ID:20151108222747d    3
 OLDACT:UP  15-11-09 05:12 OP:mh   STATUS:               ID:20151108222747d    3
 OLDACT:DUP 15-11-09 05:09 OP:mh   STATUS:               ID:20151108222747d    3
 2015-11-08-2227-46M.COL___310                                                 6
 STAT SP IPHASW D HRMM SECON CODA AMPLIT PERI AZIMU VELO AIN AR TRES W  DIS CAZ7
 BAR2 EZ EP       2239 10.22                             169    0.1510 26.3 192 
 BAR2 EZ ES       2239 24.99                             169   -0.5410 26.3 192 
 BAR2 EZ I        2239 26.20        17.2 0.16            168           26.3 192 
 BRR  HZ EP       2239 11.88                             153    0.3710 71.2 296 
 BRR  HN ES       2239 28.45                             153    0.3510 71.2 296 
 BRR  HZ I        2239 31.54        14.1 0.50            148           71.2 296 
 PAM  EZ EP       2239 13.01                             152    0.6110 74.3  40 
 PAM  EN ES       2239 29.99                             152    0.3110 74.3  40 
 PAM  EZ I        2239 31.88        11.3 0.50            155           74.3  40 
 RUS  HZ EP       2239 14.04                             143   -0.2510  103 177 
 RUS  HN ES       2239 32.84                             143   -0.2110  103 177 
 RUS  HZ I        2239 33.73        10.4 0.22            146            103 177 
 OCA  HZ EP       2239 17.85                             130   -0.55 9  158 353 
 OCA  HN ES       2239 39.90                             130   -0.46 9  158 353 
 OCA  HZ I        2239 45.56        16.5 0.22            130            158 353 
 SPBC HZ EP       2239 18.99                             129   -0.12 9  166 219 
 SPBC HN ES       2239 41.87                             129    0.24 9  166 219 
 SPBC HZ I        2239 47.90        16.3 0.22            129            166 219 
 ZAR  HZ EP   4   2239 29.15                             123    6.36 0  204 291 
 ZAR  HN ES       2239 48.13                             123   -0.05 9  204 291 
 ZAR  HZ I        2239 56.13        10.7 0.36            122            204 291 
                                                                                
