 2010  5 8 2246 48.0 L   6.721 -73.041148.2  RSN 13 0.4 2.3LRSN                1
 GAP=135        0.63       2.9     5.3  5.1 -0.6995E+01 -0.5369E+01  0.2091E+01E
 Epicentro: ARATOCA - SANTANDER                                                3
 ACTION:UP  10-08-24 10:03 OP:vdl  STATUS:               ID:20100508224648 L   I
 2010-05-08-2243-57S.COL___105                                                 6
 STAT SP IPHASW D HRMM SECON CODA AMPLIT PERI AZIMU VELO SNR AR TRES W  DIS CAZ7
 BAR2 SZ EP   2   2247  7.45                             171    -0.4 5   21 228 
 BAR2 SZ ES   2   2247 23.07                             171    -0.3 5   21 228 
 GIR2 SZ EP   1   2247  7.90                             163    -0.4 7   43 337 
 BRR  HZ IP     C 2247 10.38                             148     0.110   86 300 
 BRR  HZ I        2247 10.72        58.6 0.10                            86 300 
 BRR  HN ES   1   2247 27.68                             148     0.0 7   86 300 
 RUS  HZ IP     C 2247 11.46                             147     0.110   92 183 
 RUS  HN ES   1   2247 29.80                             147     0.2 7   92 183 
 RUS  HZ I        2247 31.68        29.8 0.59                            92 183 
 BRI  SZ EP   1   2247 12.52                             141     0.0 7  113  14 
 BRI  SZ ES   2   2247 31.60                             141     0.0 5  113  14 
 GUE  SZ EP   1   2247 13.96                             138     0.5 7  123   6 
 GUE  SZ ES   2   2247 33.95                             138     0.6 5  123   6 
 GRA  SZ IP       2247 13.81                             136    -0.110  131  12 
 GRA  SZ ES   2   2247 33.61                             136    -0.5 5  131  12 
 CHI  HZ EP   2   2247 25.55                             118     0.3 4  244 198 
 CHI  HE ES   2   2247 54.15                             118    -0.2 4  244 198 
 CHI  HZ I        2247 58.00         5.8 0.39                           244 198 
 HEL  HZ EP   3   2247 28.53                             114    -0.8 2  281 258 
 HEL  HZ I        2248  6.98         9.8 0.35                           281 258 
 RREF BZ EP   2   2247 34.77                             111     0.1 3  325 232 
 RREF BE ES   2   2248 10.14                             111    -0.9 3  325 232 
 RREF BZ I        2248 17.06        11.6 0.24                           325 232 
 TOL  SZ EP   2   2247 37.48                             109     0.9 3  346 227 
 SDV  BZ IP     C 2247 37.42                             109    -0.4 6  357  48 
 SDV  BZ I        2247 38.33         4.0 0.36                           357  48 
 PRA  HZ EP   1   2247 41.87                             107     0.5 4  390 212 
 PRA  HN ES   2   2248 22.26                             107    -0.8 3  390 212 
 PRA  HZ I        2248 29.32         5.8 0.30                           390 212 
                                                                                
