 2016  6 8 2322 16.5 L   6.791 -73.140144.9  RSN 15 0.5 2.1LRSN                1
 GAP=120        1.00       2.9     3.8  5.0 -0.2307E+01  0.3465E+01  0.3547E+01E
 Epicentro: LOS SANTOS - SANTANDER                                             3
 ACTION:UPD 16-07-21 22:16 OP:rebc STATUS:               ID:20160608232216 L   I
 OLDACT:REG 16-06-09 03:12 OP:ak   STATUS:               ID:20160608231743     3
 2016-06-08-2317-43M.COL___337                                                 6
 STAT SP IPHASW D HRMM SECON CODA AMPLIT PERI AZIMU VELO AIN AR TRES W  DIS CAZ7
 BAR2 EZ IP     D 2322 36.05                             171    0.0210 22.5 192 
 BAR2 EZ ES       2322 51.04                             171   -0.2010 22.5 192 
 BAR2 EZ I        2322 52.11        28.7 0.18                          22.5 192 
 BRR  HZ EP       2322 38.00                             152    0.3710 72.2 299 
 BRR  HN ES       2322 54.81                             152    0.7210 72.2 299 
 BRR  HZ I        2322 58.15        36.4 0.30                          72.2 299 
 PAM  EZ IP     D 2322 38.86                             151    0.2010 77.8  39 
 PAM  EN ES       2322 55.82                             151   -0.1110 77.8  39 
 PAM  EZ I        2322 58.65        20.0 0.50                          77.8  39 
 RUS  HZ EP       2322 39.96                             144   -0.1510 99.6 176 
 RUS  HN ES       2322 58.62                             144    0.1110 99.6 176 
 RUS  HZ I        2322 59.75        19.8 0.32                          99.6 176 
 PTB  HZ EP       2322 42.70                             132   -0.75 9  148 259 
 PTB  HN ES       2323  3.85                             132   -0.61 9  148 259 
 PTB  HZ I        2323  6.16        14.7 0.14                           148 259 
 OCA  HZ EP       2322 45.31                             129    0.45 9  161 353 
 OCA  HN ES       2323  6.61                             129   -0.35 9  161 353 
 OCA  HZ I        2323 11.28        33.7 0.16                           161 353 
 SPBC HZ EP       2322 44.65                             129   -0.26 9  163 219 
 SPBC HE ES       2323  7.40                             129    0.34 9  163 219 
 SPBC HZ I        2323  9.70        13.2 0.16                           163 219 
 NOR  HZ EP       2322 52.36                             118    0.17 8  235 235 
 NOR  HN ES       2323 19.99                             118   -0.02 8  235 235 
 NOR  HZ I        2323 25.50         8.4 0.20                           235 235 
 CHI  HZ EP       2322 54.05                             117   -0.03 8  248 195 
 CHI  HN ES       2323 22.84                             117   -0.54 8  248 195 
 CHI  HZ I        2323 30.66         4.5 0.68                           248 195 
 URE  HZ EP   4   2323  0.67                             113    3.02 0  285 292 
 URE  HE ES   1   2323 28.95                             113   -0.78 6  285 292 
 URE  HZ I        2323 29.90        10.3 0.13                           285 292 
 PTGC HZ EP       2322 59.42                             111   -0.79 7  308 159 
 PTGC HE ES   4   2323 32.24                             111   -2.04 0  308 159 
 CBOC HZ EP   1   2323  3.58                             110    0.15 5  334 252 
 CBOC HN ES       2323 39.97                             110   -0.05 7  334 252 
 CBOC HZ I        2323 41.80         1.7 0.33                           334 252 
 ANIL HN ES   4   2323 48.16                             108    3.11 0  357 225 
 PRA  HZ EP       2323 10.69                             106    0.75 6  391 210 
 PRA  HN ES       2323 51.90                             106    0.29 6  391 210 
 PRA  HZ I        2323 58.63         5.7 0.38                           391 210 
 ORTC HZ EP       2323 11.18                             106    0.82 6  395 216 
 ORTC HN ES       2323 53.28                             106    0.93 6  395 216 
 ORTC HZ I        2323 59.27         3.9 0.19                           395 216 
 SJC  HZ EP   4   2323 10.67                             105   -1.52 0  410 327 
 SJC  HN ES   4   2323 52.22                             105   -3.39 0  410 327 
 SJC  HZ I        2323 55.84         2.3 0.35                           410 327 
                                                                                
