 2011  2 8 2005 51.3 L   6.720 -73.092145.1  RSN  6 0.3 1.5LRSN                1
 GAP=195        0.48       5.5    12.7  8.2 -0.6742E+01  0.6283E+02 -0.1847E+01E
 Epicentro: JORDAN - SANTANDER                                                 3
 ACTION:UP  11-03-28 15:07 OP:jfem STATUS:               ID:20110208200551 L   I
 2011-02-08-2001-15S.COL___136                                                 6
 STAT SP IPHASW D HRMM SECON CODA AMPLIT PERI AZIMU VELO SNR AR TRES W  DIS CAZ7
 BAR2 SZ EP   1   20 6 10.61                             173    -0.1 7   17 215 
 BAR2 SZ ES   2   20 6 26.09                             173     0.2 5   17 215 
 BAR2 SZ I        20 6 26.53        10.1 0.21                            17 215 
 GIR2 SZ EP   2   20 6 10.80                             163    -0.4 5   41 344 
 RUS  HZ EP   2   20 6 14.58                             146     0.3 5   92 179 
 RUS  HZ I        20 6 15.64         4.7 0.14                            92 179 
 RUS  HE ES   2   20 6 32.37                             146     0.1 5   92 179 
 NOR  SZ EP   2   20 6 26.93                             118     0.0 4  235 237 
 CHI  HZ EP   2   20 6 28.65                             118     0.5 4  242 197 
 CHI  HE ES   2   20 6 56.40                             118    -0.6 4  242 197 
 CHI  HZ I        20 7  3.23         1.9 0.35                           242 197 
 DBB  SZ EP   2   20 6 39.81                             109     0.3 3  346 276 
                                                                                
