 2012  7 8 2341 51.9 L   6.769 -73.132147.5  RSN  6 0.4 1.6LRSN                1
 GAP=140        0.87       6.6     7.3  8.4 -0.5938E+00 -0.6972E+01  0.7491E+01E
 Epicentro: LOS SANTOS - SANTANDER                                             3
 ACTION:UPD 12-08-14 11:43 OP:ep   STATUS:               ID:20120708234151 L   I
 2012-07-08-2340-00M.COL___201                                                 6
 STAT SP IPHASW D HRMM SECON CODA AMPLIT PERI AZIMU VELO AIN AR TRES W  DIS CAZ7
 BAR2 SZ EP       2342 11.60                             172     0.010   20 196 
 BAR2 SZ ES   1   2342 26.91                             172    -0.2 7   20 196 
 BAR2 SZ I        2342 28.18         9.1 0.36                            20 196 
 BRR  HZ EP       2342 13.40                             152     0.010   74 300 
 BRR  HN ES   1   2342 30.84                             152     0.7 7   74 300 
 BRR  HZ I        2342 33.55         8.3 0.16                            74 300 
 PAM  SZ EP       2342 14.27                             151    -0.110   79  37 
 PAM  SN ES   2   2342 31.27                             151    -0.6 5   79  37 
 RUS  HZ EP       2342 15.83                             145     0.310   97 177 
 RUS  HN ES   2   2342 33.83                             145    -0.2 5   97 177 
 RUS  HZ I        2342 35.51         4.5 0.58                            97 177 
 PTB  HZ EP   2   2342 18.50                             132    -0.5 5  149 260 
 PTB  HN ES   2   2342 39.14                             132    -1.1 5  149 260 
 PTB  HZ I        2342 46.77         4.7 0.46                           149 260 
 CHI  HZ EP   2   2342 29.34                             118     0.0 4  246 196 
