 2011  2 8 2358 58.0 L   6.651 -73.100164.0  RSN  6 0.3 2.6LRSN                1
 GAP=139        0.59       3.2     7.5  6.5  0.4721E+00  0.1040E+02 -0.2511E+01E
 Epicentro: CURITI - SANTANDER                                                 3
 ACTION:UP  11-03-28 15:07 OP:jfem STATUS:               ID:20110208235858 L   I
 2011-02-08-2340-00M.COL___138                                                 6
 STAT SP IPHASW D HRMM SECON CODA AMPLIT PERI AZIMU VELO SNR AR TRES W  DIS CAZ7
 BAR2 SZ EP       2359 19.74                             176     0.110   11 235 
 BAR2 SZ ES   2   2359 35.86                             176    -0.7 5   11 235 
 BAR2 SZ I        2359 40.17       103.0 0.61                            11 235 
 RUS  HZ EP       2359 22.64                             152     0.110   84 179 
 RUS  HN ES   1   2359 41.86                             152     0.2 7   84 179 
 RUS  HZ I        2359 43.67        54.1 0.19                            84 179 
 GRA  SZ IP       2359 25.97                             138    -0.1 9  140  13 
 GRA  SZ ES   1   2359 48.17                             138     0.2 7  140  13 
 GRA  SZ I        2359 50.03        51.1 0.30                           140  13 
 YOP  SZ EP   1   2359 27.40                             133    -0.5 7  162 152 
 YOP  SZ I        2359 28.04        46.3 0.36                           162 152 
 YOP  SN ES   1   2359 51.36                             133     0.2 7  162 152 
 NOR  SZ EP   2   2359 34.23                             123    -0.1 4  230 239 
 HEL  HZ EP   2   2359 39.54                             118     0.2 4  273 259 
                                                                                
