 2013  9 8 2328 51.3 L   6.761 -73.175148.9  RSN  4 0.3 1.3LRSN                1
 GAP=231        0.73       5.9     5.5  5.9  0.1598E+02  0.2839E+01  0.6051E+00E
 Epicentro: LOS SANTOS - SANTANDER                                             3
 ACTION:UPD 13-10-22 09:21 OP:ep   STATUS:               ID:20130908232851 L   I
 OLDACT:REG 13-09-09 01:31 OP:nd   STATUS:               ID:20130908231959     3
 2013-09-08-2319-59M.COL___269                                                 6
 STAT SP IPHASW D HRMM SECON CODA AMPLIT PERI AZIMU VELO AIN AR TRES W  DIS CAZ7
 BAR2 SZ EP       2329 10.73                             172   -0.4510 18.7 182 
 BAR2 SZ ES       2329 26.51                             172   -0.2110 18.7 182 
 BAR2 SZ I        2329 30.09         4.0 0.24            174           18.7 182 
 BRR  HZ EP       2329 13.04                             153    0.3310 70.6 303 
 BRR  HN ES       2329 29.61                             153    0.1710 70.6 303 
 BRR  HZ I        2329 32.47         8.9 0.32            154           70.6 303 
 RUS  HZ EP       2329 15.34                             146    0.3010 96.6 174 
 RUS  HN ES       2329 33.71                             146    0.1310 96.6 174 
 RUS  HZ I        2329 34.69         1.5 0.20            149           96.6 174 
 PTB  HZ EP       2329 17.83                             133   -0.29 9  144 260 
 PTB  HN ES       2329 39.06                             133   -0.02 9  144 260 
 PTB  HZ I        2329 41.28         3.3 0.42            136            144 260 
                                                                                
