 2011  8 8 2336 44.6 L   6.796 -73.052138.8  RSN  5 0.2 1.8LRSN                1
 GAP=192        0.44       3.4     6.9  5.5  0.2438E+01  0.3262E+01 -0.3470E+01E
 Epicentro: LOS SANTOS - SANTANDER                                             3
 ACTION:UPD 12-07-25 14:07 OP:epov STATUS:               ID:20110808233644 L   I
 2011-08-08-2335-31S.COL___144                                                 6
 STAT SP IPHASW D HRMM SECON CODA AMPLIT PERI AZIMU VELO AIN AR TRES W  DIS CAZ7
 BAR2 SZ EP   1   2337  3.47                             169    0.00 7 26.8 213 
 BAR2 SZ ES   1   2337 18.13                             169   -0.06 7 26.8 213 
 BAR2 SZ I        2337 19.37        25.8 0.26                          26.8 213 
 BRR  HZ EP   1   2337  5.16                             148   -0.42 7 80.6 295 
 BRR  HE ES   2   2337 22.28                             148    0.34 5 80.6 295 
 BRR  HZ I        2337 26.24        17.4 0.12                          80.6 295 
 RUS  HZ EP   2   2337  7.94                             143    0.31 5  100 182 
 RUS  HE ES   2   2337 25.59                             143    0.00 5  100 182 
 RUS  HZ I        2337 27.05         5.5 0.24                           100 182 
 OCA  SZ EP   2   2337 12.76                             128    0.19 5  162 350 
 OCA  SZ ES   2   2337 34.59                             128    0.21 5  162 350 
 OCA  SZ I        2337 37.19        10.4 0.27                           162 350 
 RREF HN ES   2   2338  7.99                             109    0.20 3  329 231 
 RREF HZ I        2338 17.56         2.2 0.38                           329 231 
                                                                                
