 2017  8 8 2302 18.1 L   6.696 -73.173158.7  RSN  5 0.4 1.3LRSN                1
 GAP=137        0.98       7.9     7.2  8.5  0.1669E+02  0.6903E+01 -0.1220E+02E
 Epicentro: VILLANUEVA - SANTANDER                                             3
 ACTION:UPD 17-09-04 20:18 OP:rebc STATUS:               ID:20170808230218 L   I
 OLDACT:UP  17-08-09 05:45 OP:edw  STATUS:               ID:20170808225743     3
 OLDACT:UP  17-08-09 05:45 OP:edw  STATUS:               ID:20170808225743     3
 OLDACT:UP  17-08-09 05:43 OP:edw  STATUS:               ID:20170808225743     3
 OLDACT:REG 17-08-09 03:08 OP:edw  STATUS:               ID:20170808225743     3
 2017-08-08-2258-00M.COL___402                                                 6
 STAT SP IPHASW D HRMM SECON CODA AMPLIT PERI AZIMU VELO AIN AR TRES W  DIS CAZ7
 BAR2 EZ EP       23 2 38.95                             176   -0.1910 11.5 185 
 BAR2 EZ ES       23 2 55.17                             176   -0.3710 11.5 185 
 BRR  HZ EP       23 2 41.62                             153    0.7410 74.9 307 
 BRR  HN ES       23 2 58.80                             153    0.1710 74.9 307 
 PAM  EZ EP   2   23 2 41.74                             149   -0.62 5 88.4  36 
 PAM  EE ES   4   23 2 58.71                             149   -2.57 0 88.4  36 
 PAM  EZ I        23 3  1.39         4.6 0.10            151           88.4  36 
 RUS  HZ EP   4   23 2 43.96                             150    1.53 0 89.4 174 
 RUS  HN ES       23 3  1.67                             150    0.2710 89.4 174 
 RUS  HZ I        23 3  2.58         1.9 0.46            149           89.4 174 
 PTB  HZ EP       23 2 45.37                             136   -0.38 9  143 263 
 PTB  HE ES       23 3  7.15                             136   -0.16 9  143 263 
 PTB  HZ I        23 3  9.51         2.0 0.28            135            143 263 
                                                                                
