 2013  7 8 2141 22.1 L   6.747 -73.146147.4  RSN  7 0.4 1.9LRSN                1
 GAP=139        0.83       4.5     4.8  7.1  0.3791E+01  0.1446E+01 -0.5116E+01E
 Epicentro: LOS SANTOS - SANTANDER                                             3
 ACTION:UPD 13-08-12 10:36 OP:ep   STATUS:               ID:20130708214122 L   I
 OLDACT:REG 13-07-08 21:20 OP:jn   STATUS:               ID:20130708213959     3
 2013-07-08-2139-59M.COL___264                                                 6
 STAT SP IPHASW D HRMM SECON CODA AMPLIT PERI AZIMU VELO AIN AR TRES W  DIS CAZ7
 BAR2 SZ EP       2141 41.62                             173   -0.1910 17.5 193 
 BAR2 SZ ES       2141 57.20                             173    0.0010 17.5 193 
 BAR2 SZ I        2141 57.81        16.4 0.28            172           17.5 193 
 BRR  HZ EP       2141 43.99                             152    0.4010 74.2 303 
 BRR  HN ES   1   2142  0.93                             152    0.58 7 74.2 303 
 BRR  HZ I        2142  5.83        13.3 0.14            148           74.2 303 
 PAM  SZ EP       2141 44.98                             149    0.2210 82.0  37 
 PAM  SN ES   1   2142  2.02                             149   -0.42 7 82.0  37 
 PAM  SZ I        2142  4.36        18.9 0.46            152           82.0  37 
 RUS  HZ EP       2141 45.51                             146   -0.0810 94.7 176 
 RUS  HE ES   1   2142  3.98                             146    0.06 7 94.7 176 
 RUS  HZ I        2142  5.48        10.2 0.36            150           94.7 176 
 PTB  HN ES   1   2142  9.32                             133   -0.84 7  147 261 
 PTB  HZ I        2142 12.40         7.7 0.34            132            147 261 
 ZAR  HE ES   1   2142 20.72                             122    0.27 6  206 294 
 ZAR  HZ I        2142 29.40         7.8 0.28            122            206 294 
 SML  HN ES   1   2142 27.97                             117   -0.51 6  249 336 
                                                                                
