 2011 11 8 2209 48.7 L   6.731 -73.102141.0  RSN  5 0.2 2.0LRSN                1
 GAP=145        0.42       3.8     4.0  4.5 -0.2052E+01 -0.8758E+00 -0.1004E+01E
 Epicentro: JORDAN - SANTANDER                                                 3
 ACTION:UPD 12-07-13 16:09 OP:ep   STATUS:               ID:20111108220948 L   I
 2011-11-08-2207-33S.COL___178                                                 6
 STAT SP IPHASW D HRMM SECON CODA AMPLIT PERI AZIMU VELO AIN AR TRES W  DIS CAZ7
 BAR2 SZ EP       2210  7.82                             172    0.1810 17.7 210 
 BAR2 SZ ES   1   2210 22.41                             172   -0.01 7 17.7 210 
 BAR2 SZ I        2210 23.88        22.0 0.36                          17.7 210 
 BRR  HZ EP       2210  9.59                             149   -0.2210 79.2 302 
 BRR  HZ I        2210  9.84        19.6 0.26                          79.2 302 
 BRR  HN ES   1   2210 26.39                             149    0.12 7 79.2 302 
 PAM  SZ EP       2210 10.72                             149    0.1210 80.7  33 
 PAM  SE ES   1   2210 27.54                             149   -0.15 7 80.7  33 
 RUS  HN ES   3   2210 28.65                             145   -0.48 2 92.7 179 
 OCA  SZ ES   2   2210 39.73                             127   -0.11 5  168 352 
                                                                                
