 2016  2 8 2025 24.8 L   6.825 -73.117143.3  RSN 16 0.4 2.7LRSN                1
 GAP=139        0.87       2.2     3.1  4.6 -0.1308E+01  0.5318E+01 -0.2961E+00E
 Epicentro: LOS SANTOS - SANTANDER                                             3
 ACTION:UPD 16-03-04 21:24 OP:rebc STATUS:               ID:20160208202524 L   I
 OLDACT:DUP 16-02-09 04:43 OP:cara STATUS:               ID:20160208201749d    3
 2016-02-08-2017-48M.COL___331                                                 6
 STAT SP IPHASW D HRMM SECON CODA AMPLIT PERI AZIMU VELO AIN AR TRES W  DIS CAZ7
 BAR2 EZ IP       2025 44.31                             169    0.1010 26.7 196 
 BAR2 EZ ES       2025 58.91                             169   -0.4410 26.7 196 
 BAR2 EZ I        2025 59.94        84.4 0.36            167           26.7 196 
 PAM  EZ IP     C 2025 47.24                             152    0.7310 73.3  39 
 PAM  EE ES       2026  3.97                             152    0.5310 73.3  39 
 PAM  EZ I        2026  5.99       157.8 0.48            155           73.3  39 
 RUS  HZ EP       2025 48.48                             143   -0.0210  103 178 
 RUS  HN ES       2026  7.13                             143    0.1510  103 178 
 RUS  HZ I        2026  8.49        60.7 0.28            143            103 178 
 PTB  HZ EP       2025 51.50                             131   -0.41 9  151 258 
 PTB  HN ES       2026 13.11                             131    0.06 9  151 258 
 PTB  HZ I        2026 14.86        48.4 0.16            130            151 258 
 OCA  HZ IP       2025 52.48                             129   -0.23 9  158 352 
 OCA  HN ES       2026 14.00                             129   -0.47 9  158 352 
 OCA  HZ I        2026 19.37       105.3 0.28            131            158 352 
 SPBC HZ EP       2025 53.27                             128   -0.24 9  167 219 
 SPBC HN ES       2026 15.32                             128   -0.58 9  167 219 
 SPBC HZ I        2026 22.60        75.0 0.22            128            167 219 
 ZAR  HZ EP       2025 57.43                             122    0.14 8  206 291 
 ZAR  HN ES       2026 22.91                             122    0.28 8  206 291 
 ZAR  HZ I        2026 24.80        45.7 0.22            122            206 291 
 NOR  HZ EP       2026  0.74                             117   -0.10 8  239 234 
 NOR  HN ES       2026 29.24                             117    0.29 8  239 234 
 NOR  HZ I        2026 35.79        31.4 0.16            118            239 234 
 SML  HZ EP       2026  0.79                             117   -0.38 8  243 334 
 SML  HN ES       2026 29.51                             117   -0.03 8  243 334 
 SML  HZ I        2026 31.56        41.9 0.10            118            243 334 
 CHI  HZ EP       2026  2.76                             116    0.02 8  252 196 
 CHI  HN ES       2026 31.77                             116   -0.56 8  252 196 
 CHI  HZ I        2026 35.68        10.4 0.50            117            252 196 
 HEL  HZ EP   9   2026  6.65                             114    1.34 0  276 255 
 HEL  HN ES       2026 38.48                                    0.23 7  276 255 
 HEL  HZ I        2026 42.90        22.4 0.40            114            276 255 
 GUY2CHZ EP   4   2026 10.64                             111    1.87 0  305 235 
 GUY2CHN ES       2026 43.66                             111    0.60 7  305 235 
 GUY2CHZ I        2026 52.75        19.5 0.26                           305 235 
 CBOC HZ EP   4   2026 12.99                             109    0.93 0  337 252 
 CBOC HN ES       2026 48.92                             109   -0.00 7  337 252 
 CBOC HZ I        2026 53.41         7.3 0.54            110            337 252 
 DBB  SZ IP       2026 12.37                             109   -0.15 7  342 274 
 DBB  SZ ES       2026 49.77                             109    0.02 7  342 274 
 DBB  SZ I        2026 56.74        49.2 0.38            109            342 274 
 ANIL HZ EP   4   2026 16.00                             108    1.01 0  362 225 
 ANIL HE ES   4   2026 56.58                             108    2.43 0  362 225 
 ANIL HZ I        2027  3.47        32.7 0.34            108            362 225 
 ORTC HZ EP       2026 19.46                             106    0.35 6  400 216 
 ORTC HN ES       2027  2.38                             106    0.90 6  400 216 
 ORTC HZ I        2027  7.83        10.8 0.22            106            400 216 
                                                                                
