 2014  5 8 2034 41.4 L   6.798 -73.156151.0  RSN  4 0.3 1.5LRSN                1
 GAP=135        0.64       3.6     4.7  7.6  0.3055E+00  0.7217E+01  0.1721E+01E
 Epicentro: LOS SANTOS - SANTANDER                                             3
 OLDACT:REG 14-05-09 03:27 OP:fm   STATUS:               ID:20140508202805     3
 OLDACT:UP  14-05-09 03:58 OP:fm   STATUS:               ID:20140508202805     3
 OLDACT:UP  14-05-09 03:58 OP:fm   STATUS:               ID:20140508202805     3
 ACTION:UPD 15-03-16 16:56 OP:nd   STATUS:               ID:20140508203441 L   I
 OLDACT:UP  14-05-09 04:01 OP:fm   STATUS:               ID:20140508202805     3
 2014-05-08-2028-05M.COL___246                                                 6
 STAT SP IPHASW D HRMM SECON CODA AMPLIT PERI AZIMU VELO AIN AR TRES W  DIS CAZ7
 BRR  HN ES   2   2035 20.44                             154    0.50 5 70.3 299 
 PAM  SZ EP       2035  4.55                             151    0.3510 78.3  40 
 PAM  SE ES       2035 21.74                             151   -0.2710 78.3  40 
 PAM  SZ I        2035 24.23         5.1 0.36            152           78.3  40 
 RUS  HZ EP       2035  5.48                             145   -0.1510  100 175 
 RUS  HN ES       2035 24.60                             145    0.0510  100 175 
 RUS  SZ I        2035 25.35         6.2 0.26            147            100 175 
 ZAR  HE ES   1   2035 39.29                             123   -0.27 6  203 292 
                                                                                
