 2010  8 8 2221 28.3 L   6.769 -73.116145.0  RSN  9 0.3 2.1LRSN                1
 GAP=162        0.80       3.3     7.3  6.2 -0.4102E+01 -0.1081E+01 -0.4319E+00E
 Epicentro: LOS SANTOS - SANTANDER                                             3
 ACTION:UP  10-09-07 10:53 OP:vdl  STATUS:               ID:20100808222128 L   I
 2010-08-08-2220-36S.COL___124                                                 6
 STAT SP IPHASW D HRMM SECON CODA AMPLIT PERI AZIMU VELO SNR AR TRES W  DIS CAZ7
 BAR2 SZ ES   1   2222  2.71                             171    -0.3 7   21 201 
 BAR2 SZ I        2222  4.46        38.0 0.22                            21 201 
 GIR2 SZ EP       2221 47.99                             166     0.010   35 346 
 BRR  HZ IP     D 2221 49.71                             151     0.010   76 300 
 BRR  HN ES   1   2222  6.46                             151     0.2 7   76 300 
 BRR  HZ I        2222 10.79        38.5 0.18                            76 300 
 RUS  HZ EP   1   2221 51.94                             145     0.2 7   97 178 
 RUS  HN ES   1   2222 10.05                             145     0.0 7   97 178 
 RUS  HZ I        2222 11.55        10.2 0.14                            97 178 
 GRA  SZ IP       2221 53.69                             136     0.010  128  16 
 GRA  SZ I        2221 54.94        15.9 0.31                           128  16 
 OCA  SZ IP       2221 56.40                             129    -0.5 9  164 352 
 OCA  SZ ES   1   2222 19.95                             129     0.7 7  164 352 
 OCA  SZ I        2222 21.31        19.4 0.15                           164 352 
 CHI  HZ EP   1   2222  6.31                             117     0.6 6  246 196 
 CHI  HN ES   2   2222 34.54                             117    -0.4 4  246 196 
 CHI  HZ I        2222 42.79         4.6 0.83                           246 196 
 HEL  HN ES   2   2222 39.80                             114    -0.5 4  274 257 
 HEL  HZ I        2222 47.04         5.5 0.51                           274 257 
 PRA  HZ EP   1   2222 21.87                             106     0.2 4  391 210 
 PRA  HN ES   1   2223  3.24                             106     0.0 4  391 210 
 PRA  HZ I        2223  7.38         7.0 0.18                           391 210 
                                                                                
