 2010  7 8 2316 30.3 L   6.807 -73.073142.0  RSN  7 0.4 1.8LRSN                1
 GAP=164        0.96       5.2    10.0  9.8 -0.1887E+02 -0.2898E+02  0.6970E+01E
 Epicentro: LOS SANTOS - SANTANDER                                             3
 ACTION:UPD 10-12-01 15:16 OP:pat  STATUS:               ID:20100708231630 L   I
 2010-07-08-2313-40S.COL___117                                                 6
 STAT SP IPHASW D HRMM SECON CODA AMPLIT PERI AZIMU VELO AIN AR TRES W  DIS CAZ7
 BAR2 SZ EP       2316 49.59                             169     0.010   27 207 
 BAR2 SZ ES   2   2317  4.44                             169    -0.2 5   27 207 
 BAR2 SZ I        2317  6.15        14.2 0.21                            27 207 
 BRR  HZ EP       2316 51.46                             150     0.010   78 295 
 BRR  HN ES   1   2317  8.17                             150     0.2 7   78 295 
 BRR  HZ I        2317 11.75        16.9 0.18                            78 295 
 RUS  HZ EP       2316 53.76                             143     0.010  101 181 
 RUS  HN ES   2   2317 11.84                             143    -0.2 5  101 181 
 RUS  HZ I        2317 14.15         5.5 0.40                           101 181 
 BRI  SZ EP       2316 54.00                             141     0.410  105  17 
 BRI  SZ ES   1   2317 12.26                             141     0.5 7  105  17 
 BRI  SZ I        2317 15.58         9.3 0.15                           105  17 
 GUE  SZ EP       2316 54.20                             139    -0.310  114   8 
 GUE  SZ ES   2   2317 11.78                             139    -1.6 5  114   8 
 GUE  SZ I        2317 17.92         4.1 0.14                           114   8 
 GRA  SZ EP       2316 54.92                             137    -0.110  123  14 
 GRA  SZ ES   2   2317 14.43                             137     0.2 5  123  14 
 GRA  SZ I        2317 15.90        13.3 0.11                           123  14 
 RREF HE ES   3   2317 53.33                             110    -0.2 2  328 230 
 RREF HZ I        2317 59.21         4.6 0.31                           328 230 
                                                                                
