 2012 10 8 2331 50.8 L   6.788 -73.113144.0  RSN 10 0.4 2.3LRSN                1
 GAP=194        0.77       4.3     5.9  6.2  0.8351E+01  0.1194E+02  0.5859E+01E
 Epicentro: LOS SANTOS - SANTANDER                                             3
 ACTION:UPD 12-11-22 17:02 OP:ep   STATUS:               ID:20121008233150 L   I
 2012-10-08-2330-00M.COL___223                                                 6
 STAT SP IPHASW D HRMM SECON CODA AMPLIT PERI AZIMU VELO AIN AR TRES W  DIS CAZ7
 BAR2 SZ EP       2332 10.17                             170   -0.0410 23.0 200 
 BAR2 SZ ES   1   2332 25.25                             170   -0.10 7 23.0 200 
 BAR2 SZ I        2332 27.91        72.1 0.34                          23.0 200 
 GIR2 SZ EP   1   2332 10.17                             166   -0.15 7 33.3 344 
 BRR  HZ IP     C 2332 12.01                             151    0.0310 75.0 298 
 BRR  HZ I        2332 12.45        27.1 0.10                          75.0 298 
 BRR  HN ES   1   2332 29.24                             151    0.74 7 75.0 298 
 BRR  HN I        2332 33.40        90.3 0.18                          75.0 298 
 RUS  HZ EP   1   2332 14.08                             144   -0.19 7 99.1 178 
 RUS  HN ES   1   2332 32.56                             144   -0.02 7 99.1 178 
 RUS  HN I        2332 34.07         6.9 0.18                          99.1 178 
 ZAR  HZ EP   1   2332 23.02                             122   -0.51 6  208 292 
 ZAR  HE ES   1   2332 48.62                             122   -0.44 6  208 292 
 ZAR  HN I        2332 53.61        34.7 0.42                           208 292 
 NOR  SN ES   1   2332 54.14                             118   -0.51 6  237 235 
 NOR  SN I        2332 57.99        31.5 0.16                           237 235 
 CHI  HZ EP   1   2332 28.25                             117   -0.13 6  248 196 
 CHI  HZ I        2332 29.76         6.7 0.38                           248 196 
 CHI  HN ES   1   2332 57.78                             117    0.10 6  248 196 
 CHI  HN I        2333  2.94        14.0 0.30                           248 196 
 HEL  HZ EP   1   2332 31.54                             114    0.26 6  275 256 
 HEL  HZ I        2332 34.11         3.2 0.24                           275 256 
 RREF HZ EP   1   2332 38.47                             110    1.38 5  324 230 
 PRA  HZ EP   1   2332 44.37                             106    0.03 4  393 210 
                                                                                
