 2012  3 8 2238 50.2 L   6.293 -73.646105.8  RSN 10 0.4 1.8LRSN                1
 GAP= 68        0.91       3.9     3.6  7.6 -0.8974E+00  0.9242E+01  0.5230E+01E
 ACTION:UP  12-03-31 23:18 OP:EP   STATUS:               ID:20120308223850 L   I
 2012-03-08-2237-59S.COL___195                                                 6
 STAT SP IPHASW D HRMM SECON CODA AMPLIT PERI AZIMU VELO SNR AR TRES W  DIS CAZ7
 BAR2 SZ EP   1   2239  7.16                             148     0.3 7   61  57 
 BAR2 SZ ES   1   2239 20.49                             148     0.6 7   61  57 
 RUS  HZ EP   1   2239  8.18                             142    -0.1 7   76 125 
 RUS  HZ I        2239  8.52         9.8 0.12                            76 125 
 RUS  HN ES   1   2239 22.02                             142    -0.4 7   76 125 
 BRR  HZ EP   1   2239  8.86                             136     0.1 7   90 355 
 BRR  HZ I        2239 17.43        15.2 0.22                            90 355 
 BRR  HE ES   1   2239 23.56                             136     0.4 7   90 355 
 PTB  HZ EP   1   2239  8.28                             135    -0.8 7   94 287 
 PTB  HN ES   1   2239 23.15                             135    -0.6 7   94 287 
 PAM  SZ EP   1   2239 15.83                             120     0.1 7  156  42 
 PAM  SN ES   1   2239 35.34                             120    -0.3 7  156  42 
 PAM  SZ I        2239 37.13         6.6 0.18                           156  42 
 NOR  SZ EP   1   2239 15.53                             119     0.1 7  158 239 
 NOR  SN ES   1   2239 35.53                             119     0.5 7  158 239 
 CHI  HZ EP   1   2239 18.60                             115    -0.1 7  184 183 
 CHI  HZ I        2239 49.14         5.7 0.49                           184 183 
 ZAR  HZ EP   1   2239 18.58                             114    -0.1 7  188 315 
 ZAR  HE ES   1   2239 40.87                             114     0.0 7  188 315 
 ZAR  HZ I        2239 44.96         7.7 0.12                           188 315 
 HEL  HZ EP   1   2239 21.77                             112     0.3 6  209 267 
 HEL  HZ I        2239 50.35         7.3 0.40                           209 267 
 GUY  SZ EP   1   2239 23.93                             110     0.3 6  227 239 
 GUY  SZ I        2239 54.83         9.4 0.38                           227 239 
                                                                                
