 2010  8 8 2004 50.8 L   6.765 -73.106140.0  RSN  4 0.3 2.2LRSN                1
 GAP=225        0.49       8.4    14.6  7.5  0.9609E+02 -0.3374E+02 -0.1923E+02E
 Epicentro: LOS SANTOS - SANTANDER                                             3
 ACTION:UP  10-09-07 10:53 OP:vdl  STATUS:               ID:20100808200451 L   I
 2010-08-08-2001-27S.COL___125                                                 6
 STAT SP IPHASW D HRMM SECON CODA AMPLIT PERI AZIMU VELO SNR AR TRES W  DIS CAZ7
 BAR2 SZ EP       20 5  9.66                             168     0.010   21 204 
 BAR2 SZ ES   2   20 5 24.57                             168     0.2 5   21 204 
 BAR2 SZ I        20 5 27.04        25.2 0.09                            21 204 
 BTL  SZ IP       20 5  9.89                             170     0.110   25 314 
 BTL  SZ ES   3   20 5 23.48                                    -1.1 2   25 314 
 BRR  HZ EP       20 5 11.49                             149    -0.210   77 300 
 BRR  HZ I        20 5 11.73        67.7 0.13                            77 300 
 BRR  HE ES   2   20 5 28.29                             149     0.3 5   77 300 
 RUS  HZ EP   1   20 5 13.64                                     0.0 7   96 179 
 RUS  HN ES   2   20 5 31.53                             141     0.0 5   96 179 
 RUS  HZ I        20 5 33.19        18.6 0.21                            96 179 
                                                                                
