 2013 10 8 2218  7.4 L   6.795 -73.160144.7  RSN  5 0.6 1.7LRSN                1
 GAP=199        1.41       7.2    10.0 10.4  0.2999E+02 -0.4700E+01 -0.2442E+02E
 Epicentro: LOS SANTOS - SANTANDER                                             3
 ACTION:UPD 13-11-25 09:20 OP:ep   STATUS:               ID:20131008221807 L   I
 OLDACT:DUP 13-10-09 02:37 OP:stll STATUS:               ID:20131008220845d    3
 2013-10-08-2208-43M.COL___235                                                 6
 STAT SP IPHASW D HRMM SECON CODA AMPLIT PERI AZIMU VELO AIN AR TRES W  DIS CAZ7
 BAR2 SZ EP       2218 27.34                             171    0.4910 22.6 186 
 BAR2 SZ ES       2218 41.40                             171   -0.6510 22.6 186 
 BAR2 SZ I        2218 43.22        14.6 0.26            173           22.6 186 
 BRR  HZ EP       2218 28.88                             153    0.5510 70.1 300 
 BRR  HZ I        2218 29.02         8.1 0.12            152           70.1 300 
 BRR  HE ES       2218 45.58                             153    0.8910 70.1 300 
 RUS  HZ EP       2218 31.08                             144    0.1010  100 175 
 RUS  HN ES       2218 49.03                             144   -0.3710  100 175 
 RUS  HZ I        2218 50.67         3.5 0.32            146            100 175 
 PTB  HZ EP       2218 33.67                             132   -0.42 9  146 259 
 PTB  HN ES       2218 54.83                             132   -0.11 9  146 259 
 PTB  HZ I        2218 56.75         5.3 0.42            133            146 259 
 SML  HZ EP       2218 44.08                             117    0.18 8  244 336 
 SML  HN ES       2219 11.34                             117   -1.07 8  244 336 
 SML  HZ I        2219 17.67         6.1 0.24            117            244 336 
                                                                                
