 2012 10 8 2324  1.4 L   6.769 -73.147147.6  RSN  5 0.5 1.9LRSN                1
 GAP=235        1.06       8.0    11.9 10.5  0.5647E+02  0.2486E+02  0.1952E+02E
 Epicentro: LOS SANTOS - SANTANDER                                             3
 ACTION:UPD 12-11-22 17:02 OP:ep   STATUS:               ID:20121008232401 L   I
 2012-10-08-2320-00M.COL___223                                                 6
 STAT SP IPHASW D HRMM SECON CODA AMPLIT PERI AZIMU VELO AIN AR TRES W  DIS CAZ7
 BAR2 SZ EP       2324 21.06                             172   -0.0810 19.9 191 
 BAR2 SZ ES   1   2324 36.35                             172   -0.22 7 19.9 191 
 BAR2 SZ I        2324 37.28        16.8 0.25                          19.9 191 
 BRR  HZ EP       2324 23.14                             152    0.3510 72.8 301 
 BRR  HN ES   1   2324 40.38                             152    0.87 7 72.8 301 
 BRR  HN I        2324 42.91        33.4 0.18                          72.8 301 
 RUS  HZ EP   1   2324 24.78                             145   -0.26 7 97.1 176 
 RUS  HN ES   1   2324 43.00                             145   -0.52 7 97.1 176 
 RUS  HN I        2324 44.19         3.2 0.34                          97.1 176 
 ZAR  HN ES   1   2324 58.44                             123   -1.10 6  205 293 
 ZAR  HN I        2325  3.09        10.9 0.10                           205 293 
 CHI  HZ EP   1   2324 38.84                             118    0.05 6  245 195 
 CHI  HZ I        2324 41.74         2.8 0.20                           245 195 
 CHI  HN ES   1   2325  8.66                             118    0.67 6  245 195 
 CHI  HN I        2325 12.72         7.0 0.22                           245 195 
                                                                                
