 2015  2 8 2048 37.4 L   6.799 -73.133151.3  RSN 14 0.4 2.0LRSN                1
 GAP= 72        0.88       2.8     3.0  5.1 -0.1742E+01  0.8903E+00  0.1713E+01E
 Epicentro: LOS SANTOS - SANTANDER                                             3
 ACTION:UPD 15-04-30 21:24 OP:nd   STATUS:               ID:20150208204837 L   I
 OLDACT:UP  15-02-09 04:33 OP:spq  STATUS:               ID:20150208204747     3
 OLDACT:REG 15-02-09 02:40 OP:spq  STATUS:               ID:20150208204747     3
 2015-02-08-2047-47M.COL___293                                                 6
 STAT SP IPHASW D HRMM SECON CODA AMPLIT PERI AZIMU VELO AIN AR TRES W  DIS CAZ7
 BAR2 EZ EP     D 2048 57.50                             171   -0.2110 23.5 194 
 BAR2 EZ ES   1   2049 13.44                             171   -0.10 7 23.5 194 
 BAR2 EZ I        2049 15.45        19.3 0.26            169           23.5 194 
 BRR  HZ EP       2048 59.43                             153    0.2010 72.5 298 
 BRR  HE ES       2049 16.69                             153    0.4310 72.5 298 
 BRR  HZ I        2049 20.63        19.2 0.14            151           72.5 298 
 PAM  SZ EP       2049  0.36                             152    0.1910 76.6  39 
 PAM  SN ES       2049 17.65                             152   -0.2810 76.6  39 
 PAM  SZ I        2049 19.76        24.2 0.56            156           76.6  39 
 RUS  HZ EP       2049  1.41                             145   -0.2810  100 177 
 RUS  HE ES   1   2049 20.12                             145   -0.51 7  100 177 
 RUS  HZ I        2049 21.09         6.2 0.30            146            100 177 
 PTB  HZ EP       2049  4.36                             133   -0.60 9  149 259 
 PTB  HE ES       2049 26.36                             133   -0.09 9  149 259 
 PTB  HZ I        2049 31.40        22.5 0.30            132            149 259 
 TAM  HZ EP       2049  5.61                             132    0.21 9  154 105 
 TAM  HE ES   1   2049 27.73                             132    0.50 7  154 105 
 TAM  HZ I        2049 27.84         6.5 0.33            136            154 105 
 OCA  HZ EP       2049  6.76                             131    0.57 9  161 353 
 OCA  HE ES   1   2049 28.07                             131   -0.56 7  161 353 
 OCA  HZ I        2049 31.11        10.1 0.16            132            161 353 
 SPBC HZ EP       2049  5.92                             130   -0.49 9  164 219 
 SPBC HE ES       2049 29.41                             130    0.37 9  164 219 
 SPBC HZ I        2049 33.64        20.5 0.24            130            164 219 
 NOR  HZ EP   1   2049 13.77                             119    0.19 6  236 235 
 NOR  HE ES       2049 42.42                             119    0.62 8  236 235 
 NOR  HZ I        2049 49.22        10.3 0.20            120            236 235 
 SML  HZ EP   1   2049 13.84                             118   -0.59 6  244 335 
 SML  HE ES   1   2049 43.54                             118    0.23 6  244 335 
 SML  HZ I        2049 49.14        13.4 0.10            119            244 335 
 CHI  HZ EP       2049 15.72                             118    0.27 8  249 196 
 CHI  HN ES   1   2049 45.06                             118   -0.06 6  249 196 
 CHI  HZ I        2049 49.95         4.9 0.42            119            249 196 
 ROSC BZ EP   4   2049 18.14                             118    2.23 0  253 211 
 ROSC BN ES   4   2049 48.41                             118    2.48 0  253 211 
 ROSC BZ I        2049 51.13         8.0 0.35            118            253 211 
 HEL  HN ES   1   2049 49.34                             116   -0.43 6  273 256 
 HEL  HZ I        2049 57.14         5.4 0.24            116            273 256 
 GUY2CHZ EP   4   2049 22.71                             113    1.31 0  302 235 
 GUY2CHN ES   4   2049 57.80                             113    2.08 0  302 235 
 GUY2CHZ I        2050  4.65         6.0 0.28                           302 235 
                                                                                
