 2012  4 8 2059 58.7 L   6.785 -73.129146.9  RSN  5 0.3 1.3LRSN                1
 GAP=139        0.50       4.2     5.0  6.8  0.5450E+01 -0.4900E+01 -0.4274E+01E
 Epicentro: LOS SANTOS - SANTANDER                                             3
 ACTION:UPD 12-07-05 11:51 OP:tino STATUS:               ID:20120408205958 L   I
 2012-04-08-2100-00M.COL___196                                                 6
 STAT SP IPHASW D HRMM SECON CODA AMPLIT PERI AZIMU VELO AIN AR TRES W  DIS CAZ7
 BAR2 SZ EP   1   21 0 18.38                             171    -0.1 7   22 195 
 BAR2 SZ ES   2   21 0 34.06                             171     0.2 5   22 195 
 BAR2 SZ I        21 0 34.46         6.7 0.19                            22 195 
 BRR  HZ EP   2   21 0 20.59                             152     0.4 5   74 299 
 BRR  HN ES   1   21 0 37.02                             152     0.2 7   74 299 
 BRR  HZ I        21 0 39.42         3.9 0.12                            74 299 
 PAM  SZ EP   1   21 0 21.23                             151     0.1 7   78  38 
 PAM  SN ES   2   21 0 38.10                             151    -0.4 5   78  38 
 RUS  HZ EP   2   21 0 22.40                             145    -0.1 5   99 177 
 RUS  HN ES   1   21 0 40.95                             145    -0.1 7   99 177 
 RUS  HZ I        21 0 41.00         2.8 0.44                            99 177 
 ZAR  HN ES   2   21 0 56.48                             122    -0.6 4  206 292 
                                                                                
