 2014 12 8 2152 15.6 L   6.811 -73.140146.4  RSN 12 0.5 2.1LRSN                1
 GAP=137        1.19       3.1     4.6  6.2 -0.1694E+01  0.8371E+01  0.1672E+01E
 Epicentro: LOS SANTOS - SANTANDER                                             3
 ACTION:UPD 15-02-10 17:01 OP:nd   STATUS:               ID:20141208215215 L   I
 OLDACT:REG 14-12-09 09:54 OP:carl STATUS:               ID:20141208214747     3
 2014-12-08-2147-47M.COL___306                                                 6
 STAT SP IPHASW D HRMM SECON CODA AMPLIT PERI AZIMU VELO AIN AR TRES W  DIS CAZ7
 BAR2 SZ EP       2152 35.44                             170    0.1210 24.6 191 
 BAR2 SZ ES       2152 50.65                             170   -0.0710 24.6 191 
 BAR2 SZ I        2152 51.70        47.7 0.18            169           24.6 191 
 BRR  HE ES       2152 54.25                             153    0.9010 71.1 297 
 PAM  SZ EP       2152 38.09                             151    0.2910 76.1  40 
 PAM  SN ES       2152 55.24                             151    0.1210 76.1  40 
 PAM  SZ I        2152 57.35        19.4 0.52            154           76.1  40 
 RUS  HZ EP       2152 39.41                             144   -0.0810  102 176 
 RUS  HE ES       2152 57.90                             144   -0.2310  102 176 
 RUS  HZ I        2152 59.08        15.6 0.36            145            102 176 
 PTB  HZ EP       2152 41.92                             132   -0.76 9  149 258 
 PTB  HN ES       2153  3.01                             132   -0.80 9  149 258 
 PTB  HZ I        2153  7.21        12.3 0.34            131            149 258 
 OCA  HE ES       2153  5.30                             130   -0.58 9  159 353 
 OCA  HZ I        2153  8.47        13.4 0.22            131            159 353 
 SPBC HZ EP       2152 44.13                             129   -0.13 9  164 219 
 SPBC HE ES       2153  6.92                             129    0.30 9  164 219 
 SPBC HZ I        2153 12.13        22.4 0.32            129            164 219 
 ZAR  HZ EP       2152 49.00                             122    0.92 9  204 292 
 ZAR  HE ES       2153 13.99                             122    0.56 9  204 292 
 ZAR  HZ I        2153 20.17        10.5 0.38            122            204 292 
 NOR  HZ EP       2152 51.67                             118    0.19 8  236 234 
 NOR  HN ES       2153 19.20                             118   -0.28 8  236 234 
 NOR  HZ I        2153 25.51        13.5 0.76            119            236 234 
 SML  HZ EP       2152 52.19                             118    0.03 8  243 335 
 SML  HN ES       2153 19.78                             118   -0.90 8  243 335 
 SML  HZ I        2153 26.68        13.0 0.10            118            243 335 
 CHI  HZ EP       2152 53.44                             117   -0.02 8  250 195 
 CHI  HN ES       2153 22.80                             117   -0.21 8  250 195 
 CHI  HZ I        2153 28.85         4.2 0.64            118            250 195 
 GUY2CHZ EP       2153  0.07                             112    0.71 7  302 235 
 GUY2CHN ES       2153 33.45                             112   -0.05 7  302 235 
 GUY2CHZ I        2153 41.73         7.6 0.26                           302 235 
                                                                                
