 2016  1 8 2319 27.1 L   6.808 -73.155143.7  RSN 16 0.5 2.3LRSN                1
 GAP=135        1.06       3.3     5.2  5.9 -0.1859E+01  0.8424E+01  0.1918E+01E
 Epicentro: LOS SANTOS - SANTANDER                                             3
 ACTION:UPD 16-03-09 23:23 OP:cam  STATUS:               ID:20160108231927 L   I
 OLDACT:REG 16-01-09 04:36 OP:dnl  STATUS:               ID:20160108231748     3
 2016-01-08-2317-48M.COL___268                                                 6
 STAT SP IPHASW D HRMM SECON CODA AMPLIT PERI AZIMU VELO AIN AR TRES W  DIS CAZ7
 BAR2 EZ EP       2319 46.76                             170    0.2810 24.1 187 
 BAR2 EZ ES       2320  1.18                             170   -0.4310 24.1 187 
 BAR2 EZ I        2320  3.40        61.8 0.12            167           24.1 187 
 BRR  HZ EP     C 2319 48.46                             152    0.5210 69.9 298 
 BRR  HE ES       2320  5.45                             152    1.2510 69.9 298 
 BRR  HZ I        2320  9.81        31.2 0.22            148           69.9 298 
 PAM  EZ EP     C 2319 49.54                             151    0.4610 77.3  41 
 PAM  EE ES       2320  5.39                             151   -0.8410 77.3  41 
 PAM  EZ I        2320 10.20        16.1 0.18            156           77.3  41 
 RUS  HZ EP     D 2319 50.68                             143   -0.0210  102 176 
 RUS  HE ES   2   2320  8.96                             143   -0.17 5  102 176 
 RUS  HZ I        2320 10.92        27.8 0.25            145            102 176 
 PTB  HZ EP       2319 53.71                             131   -0.10 9  147 258 
 PTB  HE ES   2   2320 14.04                             131   -0.62 5  147 258 
 PTB  HZ I        2320 20.16        25.5 0.19            130            147 258 
 OCA  HZ EP       2319 54.86                             129   -0.28 9  159 353 
 OCA  HE ES       2320 16.57                             129   -0.45 9  159 353 
 OCA  HZ I        2320 20.55        51.4 0.22            131            159 353 
 SPBC HZ EP   2   2319 55.73                             128    0.30 5  163 219 
 SPBC HN ES   2   2320 17.11                             128   -0.43 5  163 219 
 SPBC HZ I        2320 19.48        36.4 0.11            128            163 219 
 ZAR  HZ EP       2319 59.63                             122    0.36 9  203 292 
 ZAR  HE ES   2   2320 24.45                             122    0.08 4  203 292 
 ZAR  HZ I        2320 29.92        25.6 0.25            122            203 292 
 NOR  HZ EP   4   2319 58.52                             118   -4.15 0  234 234 
 NOR  HE ES   2   2320 30.21                             118   -0.21 4  234 234 
 NOR  HZ I        2320 37.61        14.1 0.22            118            234 234 
 SML  HZ EP       2320  2.98                             117   -0.48 8  242 335 
 SML  HE ES       2320 31.48                             117   -0.36 8  242 335 
 SML  HZ I        2320 38.15        31.7 0.09            118            242 335 
 CHI  HZ EP       2320  5.05                             117    0.31 8  249 195 
 CHI  HE ES   2   2320 33.91                             117   -0.19 4  249 195 
 CHI  HZ I        2320 39.56         9.0 0.32            118            249 195 
 HEL  HZ EP   4   2320  9.93                             114    2.82 0  271 256 
 HEL  HN ES   2   2320 38.06                             114   -0.27 4  271 256 
 HEL  HZ I        2320 46.91         8.7 0.20            115            271 256 
 GUY2CHZ EP   4   2320 12.28                             112    1.71 0  301 235 
 GUY2CHN ES   2   2320 43.41                             112   -1.07 4  301 235 
 GUY2CHZ I        2320 52.94         7.0 0.42                           301 235 
 PRA  HZ EP       2320 20.76                             106    0.19 6  392 209 
 PRA  HE ES   2   2321  2.12                             106   -0.17 3  392 209 
 PRA  HZ I        2321  7.97        13.3 0.25            107            392 209 
 ORTC HZ EP   2   2320 20.74                             106   -0.21 3  396 216 
 ORTC HE ES   2   2321  2.47                             106   -0.50 3  396 216 
 ORTC HZ I        2321 10.35         6.2 0.66            107            396 216 
 SJC  HZ EP   4   2320 20.87                             105   -1.56 0  408 327 
 SJC  HE ES   4   2321  0.17                             105   -5.43 0  408 327 
 SJC  HZ I        2321 10.03         4.0 0.44            106            408 327 
                                                                                
