 2012 10 8 2157 34.5 L   6.801 -73.120141.1  RSN  9 0.3 2.3LRSN                1
 GAP=169        0.65       3.6     4.8  4.8  0.6982E+01  0.8197E+01  0.6491E+01E
 Epicentro: LOS SANTOS - SANTANDER                                             3
 ACTION:UPD 12-11-22 17:02 OP:ep   STATUS:               ID:20121008215734 L   I
 2012-10-08-2150-00M.COL___223                                                 6
 STAT SP IPHASW D HRMM SECON CODA AMPLIT PERI AZIMU VELO AIN AR TRES W  DIS CAZ7
 BAR2 SZ EP   1   2157 53.51                             170   -0.04 7 24.1 197 
 BAR2 SZ I        2157 53.91        49.6 0.34                          24.1 197 
 BAR2 SZ ES   1   2158  8.50                             170    0.06 7 24.1 197 
 GIR2 SZ EP   1   2157 53.55                             167   -0.05 7 31.7 345 
 GIR2 SZ ES   1   2158  8.58                             167    0.06 7 31.7 345 
 BRR  HZ EP       2157 55.27                             151    0.0110 73.6 297 
 BRR  HZ I        2157 55.95        29.2 0.10                          73.6 297 
 BRR  HN ES   1   2158 12.07                             151    0.60 7 73.6 297 
 RUS  HZ EP   1   2157 57.56                             143   -0.20 7  101 178 
 RUS  HN ES   1   2158 15.45                             143   -0.49 7  101 178 
 RUS  HN I        2158 19.03         9.9 0.36                           101 178 
 YOP  SZ EP   1   2158  4.42                             125    0.35 7  178 154 
 YOP  SZ I        2158  5.15        25.2 0.16                           178 154 
 ZAR  HZ EP   1   2158  6.33                             121   -0.55 6  207 292 
 ZAR  HZ I        2158 11.84         7.2 0.12                           207 292 
 ZAR  HN ES   1   2158 31.64                             121   -0.52 6  207 292 
 ZAR  HN I        2158 39.05        55.7 0.28                           207 292 
 CHI  HZ EP   1   2158 12.00                             116   -0.01 6  250 196 
 CHI  HZ I        2158 13.43         7.8 0.26                           250 196 
 CHI  HN ES   1   2158 41.30                             116    0.01 6  250 196 
 CHI  HN I        2158 43.95        30.1 0.36                           250 196 
 HEL  HZ EP   1   2158 15.03                             114    0.27 6  275 256 
 HEL  HN I        2158 52.65        17.5 0.36                           275 256 
 RREF HZ EP   1   2158 21.48                             110    0.81 5  324 230 
 RREF HN ES   1   2158 56.74                             110    0.03 5  324 230 
                                                                                
