 2017  1 8 2121 19.6 L   6.774 -73.141145.8  RSN  6 0.3 1.1LRSN                1
 GAP=138        0.74       4.3     4.1  5.7  0.2751E+01  0.9971E+00 -0.2439E+01E
 Epicentro: LOS SANTOS - SANTANDER                                             3
 ACTION:UPD 17-05-22 15:57 OP:jn   STATUS:               ID:20170108212119 L   I
 OLDACT:UP  17-01-09 04:02 OP:edw  STATUS:               ID:20170108211749d    3
 OLDACT:DUP 17-01-09 03:58 OP:edw  STATUS:               ID:20170108211749d    3
 OLDACT:UP  17-01-09 03:57 OP:edw  STATUS:               ID:20170108211748     3
 OLDACT:REG 17-01-09 02:53 OP:edw  STATUS:               ID:20170108211748     3
 2017-01-08-2118-00M.COL___371                                                 6
 STAT SP IPHASW D HRMM SECON CODA AMPLIT PERI AZIMU VELO AIN AR TRES W  DIS CAZ7
 BAR2 EZ ES       2121 54.30                             172   -0.1310 20.6 193 
 BAR2 EZ I        2121 55.54         5.0 0.05            172           20.6 193 
 BRR  HZ EP       2121 40.83                             152    0.0010 73.1 300 
 BRR  HN ES       2121 57.76                             152    0.3510 73.1 300 
 PAM  EZ EP     D 2121 41.82                             150   -0.0810 79.3  38 
 PAM  EN ES   2   2121 59.01                             150   -0.31 5 79.3  38 
 PAM  EZ I        2122  1.00         2.7 0.58            152           79.3  38 
 RUS  HZ EP       2121 43.04                             145   -0.0810 97.7 176 
 RUS  HN ES       2122  1.73                             145    0.2410 97.7 176 
 RUS  HZ I        2122  2.95         2.0 0.28            146           97.7 176 
 PTB  HZ EP       2121 46.73                             132    0.19 9  148 260 
 PTB  HE ES       2122  6.96                             132   -0.62 9  148 260 
 PTB  HZ I        2122 10.31         0.7 0.11            133            148 260 
 ZAR  HE ES   2   2122 18.42                             122    0.80 4  206 293 
                                                                                
