 2017  4 8 2351 49.2 L   7.368 -73.298123.1  RSN  4 0.3 0.9LRSN                1
 GAP=257        0.69       7.7     5.0  8.8  0.2757E+02 -0.9821E+01 -0.2670E+02E
 Epicentro: EL PLAYON - SANTANDER                                              3
 ACTION:UPD 17-05-30 21:09 OP:jn   STATUS:               ID:20170408235149 L   I
 OLDACT:REG 17-04-09 05:05 OP:lv   STATUS:               ID:20170408234743     3
 2017-04-08-2348-00M.COL___371                                                 6
 STAT SP IPHASW D HRMM SECON CODA AMPLIT PERI AZIMU VELO AIN AR TRES W  DIS CAZ7
 BAR2 EZ EP       2352  9.32                             143   -0.0510 86.7 172 
 BAR2 EZ ES       2352 25.10                             143    0.0010 86.7 172 
 PTB  HZ EP       2352 14.94                             124   -0.45 9  157 234 
 PTB  HE ES       2352 36.02                             124    0.21 9  157 234 
 PTB  HZ I        2352 37.67         1.5 0.15            119            157 234 
 RUS  HZ EP       2352 17.24                             123    0.47 9  165 172 
 RUS  HN ES       2352 38.05                             123   -0.22 9  165 172 
 RUS  HZ I        2352 42.53         0.8 0.34            118            165 172 
 ZAR  HE ES       2352 38.63                             122    0.04 9  173 275 
                                                                                
