 2010  8 8 2133 26.2 L   6.772 -73.084140.1  RSN  5 0.3 1.4LRSN                1
 GAP=166        0.71       4.7     8.8  8.3 -0.4054E+01 -0.2425E+02 -0.9308E+01E
 Epicentro: LOS SANTOS - SANTANDER                                             3
 ACTION:UP  10-09-07 10:53 OP:vdl  STATUS:               ID:20100808213326 L   I
 2010-08-08-2131-33S.COL___125                                                 6
 STAT SP IPHASW D HRMM SECON CODA AMPLIT PERI AZIMU VELO SNR AR TRES W  DIS CAZ7
 BTL  SZ EP       2133 45.12                                    -0.110   26 309 
 BTL  SZ ES   1   2133 59.81                             169    -0.3 7   26 309 
 BRR  HZ EP   1   2133 46.96                             149    -0.3 7   79 298 
 BRR  HE ES   1   2134  3.89                             149     0.3 7   79 298 
 BRR  HZ I        2134  7.42         9.5 0.19                            79 298 
 RUS  HN ES   1   2134  7.25                             144     0.2 7   97 180 
 RUS  HZ I        2134  8.51         2.8 0.42                            97 180 
 GUE  SZ EP   1   2133 51.12                             138     0.5 7  118   9 
 GUE  SZ I        2134 12.98         2.3 0.21                           118   9 
 GRA  SZ EP   1   2133 50.81                             135    -0.3 7  127  14 
 GRA  SZ ES   1   2134 10.46                             135     0.0 7  127  14 
 GRA  SZ I        2134 11.85         6.6 0.52                           127  14 
                                                                                
