 2016  2 8 2307 59.7 L   6.821 -73.090143.2  RSN  7 0.2 1.8LRSN                1
 GAP=189        0.55       1.8     4.2  4.0  0.2975E+01  0.6352E+01  0.4436E-01E
 Epicentro: LOS SANTOS - SANTANDER                                             3
 ACTION:UPD 16-03-04 21:24 OP:rebc STATUS:               ID:20160208230759 L   I
 OLDACT:REG 16-02-09 04:18 OP:cara STATUS:               ID:20160208225750     3
 2016-02-08-2257-50M.COL___328                                                 6
 STAT SP IPHASW D HRMM SECON CODA AMPLIT PERI AZIMU VELO AIN AR TRES W  DIS CAZ7
 BAR2 EZ IP     C 23 8 19.33                             169    0.2110 27.2 202 
 BAR2 EZ ES       23 8 34.59                             169    0.3410 27.2 202 
 BAR2 EZ I        23 8 35.26        10.1 0.16            170           27.2 202 
 RUS  HZ EP       23 8 23.32                             143   -0.0410  103 180 
 RUS  HN ES       23 8 41.45                             143   -0.3510  103 180 
 RUS  HZ I        23 8 42.18         5.2 0.44            146            103 180 
 PTB  HZ EP       23 8 27.17                             130    0.10 9  154 258 
 PTB  HN ES   4   23 8 46.92                             130   -1.49 0  154 258 
 PTB  HZ I        23 8 50.14         6.3 0.24            130            154 258 
 OCA  HN ES       23 8 49.34                             129   -0.17 9  159 351 
 OCA  HZ I        23 8 54.12        21.3 0.62            129            159 351 
 ZAR  HZ EP       23 8 32.72                             121    0.22 8  209 291 
 ZAR  HN ES       23 8 58.00                             121   -0.07 8  209 291 
 ZAR  HZ I        23 9  3.41         6.5 0.30            121            209 291 
 SML  HZ EP       23 8 36.37                             117    0.11 8  244 334 
 SML  HE ES       23 9  4.47                             117   -0.29 8  244 334 
 SML  HZ I        23 9 10.09         8.4 0.28            117            244 334 
 CHI  HZ EP       23 8 37.69                             116   -0.00 8  253 196 
 CHI  HE ES       23 9  7.16                             116   -0.15 8  253 196 
                                                                                
