 2013 10 8 2215 47.5 L   7.073 -73.395118.0  RSN  8 0.6 1.9LRSN                1
 GAP= 87        1.54       4.4     5.5  9.5 -0.3423E+01  0.6803E+01 -0.9373E+01E
 Epicentro: SAN VICENTE DE CHUCURI - SANTANDER                                 3
 ACTION:UPD 13-11-25 09:20 OP:ep   STATUS:               ID:20131008221547 L   I
 OLDACT:DUP 13-10-09 02:10 OP:stll STATUS:               ID:20131008220844d    3
 2013-10-08-2208-43M.COL___235                                                 6
 STAT SP IPHASW D HRMM SECON CODA AMPLIT PERI AZIMU VELO AIN AR TRES W  DIS CAZ7
 BRR  HZ IP     D 2216  4.36                             162    0.5310 35.2 276 
 BRR  HZ I        2216  4.50        31.4 0.16            163           35.2 276 
 BRR  HN ES       2216 17.37                             162    0.8110 35.2 276 
 BAR2 SZ IP     C 2216  5.67                             152    0.4010 58.1 156 
 BAR2 SZ ES       2216 19.22                             152    0.1010 58.1 156 
 BAR2 SZ I        2216 21.25        15.0 0.24            154           58.1 156 
 PAM  SN ES       2216 22.46                             143   -0.1210 82.3  69 
 PAM  SN I        2216 25.26        14.5 0.46            145           82.3  69 
 OCA  HZ EP       2216 11.20                             129    0.4510  129   4 
 OCA  HN ES       2216 28.78                             129   -0.0910  129   4 
 OCA  HZ I        2216 30.72        20.5 0.26            131            129   4 
 PTB  HZ EP       2216 10.48                             128   -0.2810  131 243 
 PTB  HN ES       2216 28.48                             128   -0.4110  131 243 
 PTB  HZ I        2216 31.17         7.5 0.14            131            131 243 
 RUS  HZ EP       2216 11.89                             128    0.1410  135 165 
 RUS  HN ES       2216 29.65                             128   -1.0110  135 165 
 CAPV BZ EP       2216 13.48                             125    0.80 9  148  54 
 CAPV BZ ES       2216 31.62                             125   -0.69 9  148  54 
 SML  HZ EP       2216 18.79                             115    0.37 9  205 339 
 SML  HE ES       2216 41.17                             115   -1.36 9  205 339 
                                                                                
