 2012 12 8 2107 11.6 L   6.785 -73.161146.9  RSN  6 0.3 2.1LRSN                1
 GAP=135        0.76       3.7     4.4  5.1 -0.4279E+01  0.4047E+01  0.4281E+01E
 Epicentro: LOS SANTOS - SANTANDER                                             3
 ACTION:UPD 13-01-04 14:26 OP:ep   STATUS:               ID:20121208210711 L   I
 2012-12-08-2100-00M.COL___243                                                 6
 STAT SP IPHASW D HRMM SECON CODA AMPLIT PERI AZIMU VELO AIN AR TRES W  DIS CAZ7
 BAR2 SZ ES       21 7 46.77                             171    0.0710 21.5 186 
 BAR2 SZ I        21 7 49.20        30.8 0.32                          21.5 186 
 GIR2 SZ EP       21 7 31.38                             167   -0.0410 32.7 354 
 GIR2 SZ ES       21 7 47.39                             167    0.4910 32.7 354 
 PAM  SZ EP       21 7 34.13                             150    0.0810 79.7  40 
 PAM  SZ I        21 7 34.34        27.3 0.19                          79.7  40 
 PAM  SN ES       21 7 51.33                             150   -0.2510 79.7  40 
 RUS  HZ EP       21 7 35.44                             144    0.1110 99.1 175 
 RUS  HN ES       21 7 53.40                             144   -0.4610 99.1 175 
 RUS  HN I        21 7 55.82        20.0 0.44                          99.1 175 
 PTB  HZ EP       21 7 38.21                             133   -0.25 9  146 259 
 PTB  HE ES       21 7 59.30                             133   -0.13 9  146 259 
 PTB  HZ I        21 8  5.21        11.5 0.55                           146 259 
 CHI  HZ EP       21 7 49.22                             118    0.10 8  247 195 
 CHI  HE ES   1   21 8 19.20                             118    0.80 6  247 195 
                                                                                
