 2013 12 8 2250  0.4 L   6.746 -73.093143.2  RSN  5 0.1 1.2LRSN                1
 GAP=146        0.41       2.2     2.5  4.2  0.1325E+01  0.2396E+01  0.1100E+01E
 Epicentro: JORDAN - SANTANDER                                                 3
 ACTION:UPD 14-01-13 10:16 OP:ep   STATUS:               ID:20131208225000 L   I
 OLDACT:UP  13-12-09 04:07 OP:mh   STATUS:               ID:20131208224741     3
 OLDACT:REG 13-12-09 04:05 OP:mh   STATUS:               ID:20131208224741     3
 2013-12-08-2247-41M.COL___256                                                 6
 STAT SP IPHASW D HRMM SECON CODA AMPLIT PERI AZIMU VELO AIN AR TRES W  DIS CAZ7
 PAM  SZ EP   1   2250 22.72                             150    0.28 7 78.7  33 
 PAM  SN ES       2250 39.48                             150   -0.1410 78.7  33 
 PAM  SZ I        2250 42.28         3.4 0.45            153           78.7  33 
 BRR  HZ EP       2250 21.71                             149   -0.0610 79.2 300 
 BRR  HN ES       2250 38.58                             149    0.1510 79.2 300 
 BRR  HZ I        2250 42.30                             152           79.2 300 
 RUS  HZ EP       2250 23.44                             145   -0.0310 94.3 179 
 RUS  HN ES       2250 41.45                             145   -0.0010 94.3 179 
 RUS  HZ I        2250 43.38         2.8 0.45            149           94.3 179 
 ZAR  HN ES       2250 59.19                             121   -0.11 8  212 293 
 CBOC HN E        2250 47.60                                            337 253 
                                                                                
