 2016  1 8 2025 52.7 L   6.803 -73.159146.0  RSN 22 0.4 2.7LRSN                1
 GAP=135        0.87       2.3     3.5  4.8 -0.1374E+01  0.3534E+01  0.1955E+01E
 Epicentro: LOS SANTOS - SANTANDER                                             3
 ACTION:UPD 16-03-09 23:23 OP:cam  STATUS:               ID:20160108202552 L   I
 OLDACT:REG 16-01-09 04:18 OP:dnl  STATUS:               ID:20160108201748     3
 2016-01-08-2017-48M.COL___277                                                 6
 STAT SP IPHASW D HRMM SECON CODA AMPLIT PERI AZIMU VELO AIN AR TRES W  DIS CAZ7
 BAR2 EZ EP       2026 12.50                             170    0.1510 23.4 186 
 BAR2 EZ ES   2   2026 27.20                             170   -0.48 5 23.4 186 
 BAR2 EZ I        2026 28.67       129.9 0.36            168           23.4 186 
 BRR  HZ EP     C 2026 14.26                             153    0.4710 69.8 299 
 BRR  HE ES       2026 31.24                             153    1.0010 69.8 299 
 BRR  HZ I        2026 35.27        81.4 0.30            148           69.8 299 
 PAM  EZ IP     C 2026 15.29                             151    0.3210 78.1  40 
 PAM  EN ES       2026 31.62                             151   -0.7310 78.1  40 
 PAM  EZ I        2026 34.74        44.1 0.35            155           78.1  40 
 RUS  HZ EP     D 2026 16.45                             144   -0.0410  101 175 
 RUS  HN ES       2026 35.18                             144    0.1210  101 175 
 RUS  HZ I        2026 36.68        43.5 0.24            146            101 175 
 PTB  HZ EP       2026 19.18                             132   -0.38 9  146 259 
 PTB  HE ES   2   2026 39.74                             132   -0.77 5  146 259 
 PTB  HZ I        2026 45.93        29.8 0.23            130            146 259 
 OCA  HZ EP       2026 20.48                             130   -0.50 9  160 354 
 OCA  HN ES       2026 43.30                             130    0.26 9  160 354 
 OCA  HZ I        2026 46.32       117.4 0.21            130            160 354 
 SPBC HZ EP   2   2026 21.48                             129    0.34 5  162 219 
 SPBC HE ES       2026 42.83                             129   -0.51 9  162 219 
 ZAR  HZ EP   2   2026 25.45                             123    0.45 4  203 292 
 ZAR  HN ES       2026 50.13                             123   -0.08 9  203 292 
 ZAR  HZ I        2026 55.68        54.7 0.27            121            203 292 
 NOR  HZ EP   2   2026 27.47                             119   -0.86 4  234 234 
 NOR  HE ES   1   2026 55.88                             119   -0.24 6  234 234 
 NOR  HZ I        2027  2.38        23.0 0.22            118            234 234 
 SML  HZ EP       2026 28.74                             118   -0.50 8  243 336 
 SML  HE ES   2   2026 57.74                             118   -0.00 4  243 336 
 SML  HZ I        2027  1.23        55.8 0.06            118            243 336 
 CHI  HZ EP     D 2026 30.63                             117    0.24 8  249 195 
 CHI  HE ES   2   2026 59.69                             117   -0.11 4  249 195 
 CHI  HZ I        2027  5.30        24.3 0.33            118            249 195 
 ROSC BZ EP   4   2026 32.42                             117    1.65 0  252 211 
 ROSC BE ES   2   2027  0.12                             117   -0.35 4  252 211 
 ROSC BZ I        2027  7.30        79.0 0.42            117            252 211 
 HEL  HZ EP   2   2026 33.41                             115    0.64 4  271 256 
 HEL  HE ES   2   2027  3.56                             115   -0.47 4  271 256 
 HEL  HZ I        2027 10.93        17.1 0.32            114            271 256 
 URE  HZ EP   4   2026 36.58                             114    2.97 0  282 292 
 URE  HE ES   4   2027  3.47                             114   -2.06 0  282 292 
 URE  HZ I        2027 16.19        33.3 0.36            113            282 292 
 GUY2CHZ EP   2   2026 36.01                             113   -0.19 4  300 235 
 GUY2CHE ES       2027  9.88                             113   -0.25 7  300 235 
 GUY2CHZ I        2027 18.69        20.4 0.39                           300 235 
 VIL  SZ EP       2026 36.27                             112    0.15 7  303 191 
 VIL  SE ES       2027 10.49                             112    0.50 7  303 191 
 DBB  SZ EP   3   2026 40.54                             110    0.53 2  338 274 
 DBB  SZ ES   4   2027 15.39                             110   -1.53 0  338 274 
 DBB  SZ I        2027 20.34        55.1 0.52            109            338 274 
 ARGC HZ EP   2   2026 42.41                             108    0.14 3  358 341 
 ARGC HE ES   4   2027 19.45                             108   -1.49 0  358 341 
 ARGC HZ I        2027 30.52        11.3 0.16            109            358 341 
 PRA  HZ EP   2   2026 46.61                             107    0.44 3  392 209 
 PRA  HE ES       2027 27.65                             107   -0.22 6  392 209 
 PRA  HZ I        2027 33.71        31.2 0.30            107            392 209 
 ORTC HZ EP       2026 46.84                             106    0.29 6  395 216 
 ORTC HE ES   2   2027 29.01                             106    0.46 3  395 216 
 ORTC HZ I        2027 33.86        16.3 0.27            107            395 216 
 SJC  HZ EP   4   2026 46.66                             106   -1.48 0  408 327 
 SJC  HE ES   4   2027 27.75                             106   -3.64 0  408 327 
 SJC  HZ I        2027 35.75        10.1 0.29            106            408 327 
 CRJC HZ EP   4   2026 52.98                             103   -2.19 0  467   4 
 CRJC HE ES   4   2027 35.08                             103   -8.83 0  467   4 
 CRJC HZ I        2027 43.78        11.4 0.25            104            467   4 
                                                                                
