 2016  8 8 2107  1.7 L   6.789 -73.148146.4  RSN 11 0.4 1.9LRSN                1
 GAP=137        0.87       3.0     3.9  4.8 -0.8285E+00  0.6440E+01  0.3342E+01E
 Epicentro: LOS SANTOS - SANTANDER                                             3
 ACTION:UPD 16-10-29 15:33 OP:rebc STATUS:               ID:20160808210701 L   I
 OLDACT:UP  16-08-09 03:38 OP:drio STATUS:               ID:20160808205759     3
 OLDACT:UP  16-08-09 03:29 OP:drio STATUS:               ID:20160808205759     3
 OLDACT:REG 16-08-09 03:18 OP:drio STATUS:               ID:20160808205759     3
 2016-08-08-2057-59S.COL___343                                                 6
 STAT SP IPHASW D HRMM SECON CODA AMPLIT PERI AZIMU VELO AIN AR TRES W  DIS CAZ7
 BAR2 EZ EP       21 7 21.27                             171   -0.1610 22.1 190 
 BAR2 EZ ES       21 7 36.52                             171   -0.2710 22.1 190 
 BAR2 EZ I        21 7 39.02        19.4 0.32                          22.1 190 
 BRR  HZ EP       21 7 23.05                             152    0.0610 71.6 299 
 BRR  HN ES       21 7 40.05                             152    0.5010 71.6 299 
 PAM  EZ EP       21 7 24.22                             151    0.1310 78.4  39 
 PAM  EE ES       21 7 41.44                             151   -0.0810 78.4  39 
 PAM  EZ I        21 7 42.03         8.4 0.18                          78.4  39 
 RUS  HZ EP       21 7 25.06                             144   -0.4210 99.4 176 
 RUS  HN ES       21 7 44.32                             144    0.3310 99.4 176 
 RUS  HZ I        21 7 45.28         5.1 0.30                          99.4 176 
 PTB  HZ EP       21 7 28.00                             132   -0.73 9  147 259 
 PTB  HE ES   4   21 7 48.97                             132   -0.80 0  147 259 
 PTB  HZ I        21 7 56.12         8.7 0.32                           147 259 
 SPBC HZ EP       21 7 30.15                             129   -0.04 9  162 219 
 SPBC HN ES       21 7 52.27                             129   -0.11 9  162 219 
 SPBC HZ I        21 7 59.07        12.0 0.24                           162 219 
 ZAR  HZ EP       21 7 34.25                             122   -0.01 9  204 292 
 ZAR  HN ES       21 7 59.63                             122    0.01 9  204 292 
 ZAR  HZ I        21 8  4.36         7.4 0.32                           204 292 
 NOR  HZ EP       21 7 37.38                             119   -0.04 8  234 235 
 NOR  HE ES       21 8  4.95                             119   -0.29 8  234 235 
 NOR  HZ I        21 8  8.03         6.4 0.20                           234 235 
 CHI  HZ EP       21 7 39.63                             117    0.28 8  247 195 
 CHI  HN ES       21 8  9.01                             117    0.33 8  247 195 
 CHI  HZ I        21 8 12.52         4.3 0.50                           247 195 
 GUY2CHZ EP       21 7 46.43                             112    1.14 7  300 235 
 GUY2CHE ES   4   21 8 23.67                             112    4.42 0  300 235 
 GUY2CHZ I        21 8 27.59         4.4 0.64                           300 235 
 PRA  HZ EP       21 7 55.15                             107   -0.00 6  391 210 
 PRA  HE ES       21 8 36.57                             107   -0.24 6  391 210 
 PRA  HZ I        21 8 43.41         3.9 0.50                           391 210 
                                                                                
