 2016 11 8 2318 33.9 L   6.775 -73.197140.0  RSN  6 0.5 1.6LRSN                1
 GAP=134        1.21       6.0     6.1  8.1 -0.6890E+01  0.8021E+01  0.1333E+02E
 Epicentro: ZAPATOCA - SANTANDER                                               3
 ACTION:UPD 17-10-26 21:06 OP:lp   STATUS:               ID:20161108231833 L   I
 OLDACT:REG 16-11-09 03:37 OP:cog  STATUS:               ID:20161108230743     3
 2016-11-08-2308-00M.COL___343                                                 6
 STAT SP IPHASW D HRMM SECON CODA AMPLIT PERI AZIMU VELO AIN AR TRES W  DIS CAZ7
 BAR2 EZ EP       2318 52.63                             171   -0.1210 20.3 175 
 BAR2 EZ ES       2319  7.49                             171    0.0210 20.3 175 
 BAR2 EZ I        2319  8.84        12.7 0.26            174           20.3 175 
 BRR  HZ EP       2318 54.04                             153   -0.1610 67.7 303 
 BRR  HE ES       2319 10.78                             153    0.7310 67.7 303 
 PAM  EZ EP       2318 55.55                             148   -0.2910 83.2  41 
 PAM  EN ES       2319 12.91                             148   -0.0710 83.2  41 
 PAM  EZ I        2319 15.43         5.3 0.40            149           83.2  41 
 PTB  HZ EP       2318 59.37                             132   -0.44 9  142 259 
 PTB  HN ES       2319 19.20                             132   -0.85 9  142 259 
 PTB  HZ I        2319 22.40         4.4 0.17            132            142 259 
 ZAR  HZ EP       2319  6.46                             122    0.95 9  200 293 
 ZAR  HN ES   3   2319 29.95                             122   -0.24 2  200 293 
 ZAR  HZ I        2319 35.77         4.2 0.32            121            200 293 
 CHI  HZ EP       2319 10.72                             116   -0.09 8  245 194 
 CHI  HN ES       2319 40.28                             116    0.66 8  245 194 
                                                                                
