 2011 11 8 2140  9.6 L   6.770 -73.113142.6  RSN  5 0.3 1.6LRSN                1
 GAP=142        0.63       4.0     5.1  6.0  0.1908E+01  0.4569E-01  0.2199E+00E
 Epicentro: LOS SANTOS - SANTANDER                                             3
 ACTION:UPD 12-07-13 16:09 OP:ep   STATUS:               ID:20111108214009 L   I
 2011-11-08-2137-15S.COL___178                                                 6
 STAT SP IPHASW D HRMM SECON CODA AMPLIT PERI AZIMU VELO AIN AR TRES W  DIS CAZ7
 BAR2 SZ EP       2140 28.62                             171   -0.2110 21.1 201 
 BAR2 SZ ES   1   2140 43.35                             171   -0.46 7 21.1 201 
 BAR2 SZ I        2140 44.97        10.3 0.26                          21.1 201 
 BRR  HZ EP       2140 30.73                             150    0.0110 76.0 299 
 BRR  HE ES   1   2140 47.65                             150    0.49 7 76.0 299 
 PAM  SZ EP       2140 31.72                             150    0.1910 77.8  36 
 PAM  SN ES   1   2140 48.50                             150   -0.12 7 77.8  36 
 RUS  HZ EP       2140 32.82                             144    0.0010 97.1 178 
 RUS  HN ES   1   2140 51.20                             144    0.30 7 97.1 178 
 RUS  HZ I        2140 52.24         4.5 0.22                          97.1 178 
 ZAR  HN ES   2   2141  7.28                             121   -0.59 4  209 293 
 ZAR  HZ I        2141 13.62         5.1 0.28                           209 293 
                                                                                
