 2013 12 8 2250 37.6 L   6.768 -73.157148.0  RSN  9 0.5 1.8LRSN                1
 GAP= 72        1.25       5.0     5.8  7.3  0.2437E+01  0.2773E+01 -0.6210E+00E
 Epicentro: LOS SANTOS - SANTANDER                                             3
 ACTION:UPD 14-01-13 10:16 OP:ep   STATUS:               ID:20131208225037 L   I
 OLDACT:DUP 13-12-09 04:03 OP:mh   STATUS:               ID:20131208224946d    3
 OLDACT:UP  13-12-09 04:02 OP:mh   STATUS:               ID:20131208224945     3
 OLDACT:UP  13-12-09 03:59 OP:mh   STATUS:               ID:20131208224945     3
 OLDACT:UP  13-12-09 03:57 OP:mh   STATUS:               ID:20131208224945     3
 OLDACT:REG 13-12-09 03:56 OP:mh   STATUS:               ID:20131208224945     3
 2013-12-08-2249-45M.COL___256                                                 6
 STAT SP IPHASW D HRMM SECON CODA AMPLIT PERI AZIMU VELO AIN AR TRES W  DIS CAZ7
 BAR2 SZ ES       2251 12.72                             172   -0.1410 19.7 188 
 BAR2 SZ I        2251 14.98        12.6 0.28            175           19.7 188 
 BRR  HZ EP       2250 59.46                             153    0.4710 71.9 301 
 BRR  HN ES       2251 15.97                             153    0.2610 71.9 301 
 BRR  HZ I        2251 20.31        11.1 0.16            150           71.9 301 
 PAM  SZ EP   1   2251  0.69                             150    0.47 7 80.9  39 
 PAM  SN ES   1   2251 17.40                             150   -0.50 7 80.9  39 
 RUS  HN ES       2251 20.23                             145    0.4310 97.2 175 
 PTB  HZ EP       2251  3.70                             133   -0.85 9  146 260 
 PTB  HN ES   1   2251 25.04                             133   -0.56 7  146 260 
 TAM  HZ EP       2251  5.51                             131    0.07 9  155 104 
 OCA  HZ EP       2251  5.62                             130   -0.74 9  164 354 
 OCA  HN ES   4   2251 27.43                             130   -1.39 0  164 354 
 OCA  HZ I        2251 33.86         7.3 0.39            129            164 354 
 ZAR  HZ EP       2251 10.47                             123    0.29 9  204 293 
 ZAR  HN ES   1   2251 36.51                             123    0.89 6  204 293 
 ZAR  HZ I        2251 41.45         7.1 0.33            123            204 293 
 CHI  HZ EP       2251 15.67                             118    0.69 8  245 195 
 CHI  HN ES       2251 43.46                             118   -0.71 8  245 195 
 ROSC BZ EP   4   2251 16.20                             118    0.79 0  249 211 
                                                                                
