 2015  3 8 2317 37.8 L   6.843 -73.190139.7  RSN  5 0.4 1.2LRSN                1
 GAP=129        1.03       4.9     5.7  8.7  0.7407E+00  0.1624E+01  0.1541E+02E
 Epicentro: ZAPATOCA - SANTANDER                                               3
 ACTION:UPD 15-04-30 16:24 OP:nd   STATUS:               ID:20150308231737 L   I
 OLDACT:UP  15-03-09 05:21 OP:mh   STATUS:               ID:20150308230751d    3
 OLDACT:UP  15-03-09 05:21 OP:mh   STATUS:               ID:20150308230751d    3
 OLDACT:DUP 15-03-09 05:18 OP:mh   STATUS:               ID:20150308230751d    3
 2015-03-08-2307-50M.COL___281                                                 6
 STAT SP IPHASW D HRMM SECON CODA AMPLIT PERI AZIMU VELO AIN AR TRES W  DIS CAZ7
 BRR  HZ EP       2317 58.47                             154    0.5410 64.7 297 
 BRR  HN ES       2318 13.09                             154   -0.5410 64.7 297 
 BRR  HZ I        2318 21.63         4.0 0.40            156           64.7 297 
 PAM  SZ EP   1   2317 59.68                             150    0.32 7 77.1  45 
 PAM  SN ES   1   2318 16.43                             150    0.25 7 77.1  45 
 PAM  SZ I        2318 20.09         2.1 0.36            154           77.1  45 
 RUS  HZ EP       2318  0.75                             141   -0.6010  106 174 
 RUS  HN ES       2318 19.77                             141    0.0510  106 174 
 RUS  HZ I        2318 21.65                             146            106 174 
 PTB  HZ EP       2318  3.78                             131   -0.15 9  144 257 
 PTB  HN ES       2318 24.59                             131    0.27 9  144 257 
 PTB  HZ I        2318 26.47         1.7 0.04            136            144 257 
 CHI  HZ EP       2318 15.09                             115   -0.44 8  252 194 
 CHI  HN ES       2318 45.59                             115    0.62 8  252 194 
 CHI  HZ I        2318 48.27         1.0 0.50            120            252 194 
                                                                                
