 2012 12 8 2317 57.6 L   6.802 -73.188143.2  RSN  7 0.2 2.2LRSN                1
 GAP=131        0.46       2.1     2.2  3.1 -0.4548E+00  0.1697E+01  0.1172E+01E
 Epicentro: ZAPATOCA - SANTANDER                                               3
 ACTION:UPD 13-01-04 14:26 OP:ep   STATUS:               ID:20121208231757 L   I
 2012-12-08-2310-00M.COL___243                                                 6
 STAT SP IPHASW D HRMM SECON CODA AMPLIT PERI AZIMU VELO AIN AR TRES W  DIS CAZ7
 BAR2 SZ EP       2318 16.85                             170   -0.1010 23.2 178 
 BAR2 SZ ES       2318 31.94                             170   -0.0810 23.2 178 
 BAR2 SZ I        2318 34.96        45.9 0.34                          23.2 178 
 GIR2 SZ EP       2318 17.27                             167    0.2910 30.7 359 
 GIR2 SZ ES   1   2318 32.11                             167    0.04 7 30.7 359 
 GIR2 SZ I        2318 34.07        17.2 0.13                          30.7 359 
 PAM  SZ EP       2318 19.87                             149    0.1210 80.3  42 
 PAM  SZ I        2318 20.02        24.2 0.22                          80.3  42 
 PAM  SE ES       2318 36.92                             149   -0.0910 80.3  42 
 RUS  HZ EP       2318 20.97                             143   -0.2110  101 173 
 RUS  HN ES       2318 39.61                             143    0.0710  101 173 
 RUS  HN I        2318 41.55        23.8 0.23                           101 173 
 PTB  HZ EP       2318 23.68                             132   -0.30 9  143 258 
 PTB  HE ES       2318 44.51                             132   -0.02 9  143 258 
 PTB  HZ I        2318 50.94        21.3 0.42                           143 258 
 ZAR  HN ES   1   2318 54.48                             122    0.20 6  200 293 
 ZAR  HZ I        2319  0.98        15.9 0.37                           200 293 
 CHI  HZ EP       2318 35.19                             117    0.11 8  248 194 
 CHI  HE ES   1   2319  4.60                             117    0.31 6  248 194 
                                                                                
