 2013 12 8 2142 13.7 L   6.747 -73.225144.9  RSN  4 0.3 1.6LRSN                1
 GAP=218        0.85       7.3     8.5  9.2  0.3734E+02 -0.9726E+01 -0.3367E+01E
 Epicentro: VILLANUEVA - SANTANDER                                             3
 ACTION:UPD 14-01-13 10:16 OP:ep   STATUS:               ID:20131208214213 L   I
 OLDACT:UP  13-12-09 01:45 OP:mh   STATUS:               ID:20131208214000     3
 OLDACT:REG 13-12-08 23:03 OP:mh   STATUS:               ID:20131208214000     3
 2013-12-08-2140-00M.COL___285                                                 6
 STAT SP IPHASW D HRMM SECON CODA AMPLIT PERI AZIMU VELO AIN AR TRES W  DIS CAZ7
 BAR2 SZ EP   1   2142 32.73                             173   -0.35 7 17.7 165 
 BRR  HZ EP       2142 34.20                             154   -0.2810 67.0 307 
 BRR  HN ES       2142 50.96                             154    0.2510 67.0 307 
 BRR  HZ I        2142 55.19         7.8 0.05            153           67.0 307 
 RUS  HZ EP       2142 37.60                             145    0.6210 95.7 171 
 RUS  HN ES       2142 54.88                             145   -0.2810 95.7 171 
 PTB  HZ EP   1   2142 39.42                             134   -0.27 7  138 261 
 PTB  HN ES   1   2143  0.03                             134    0.04 7  138 261 
 PTB  HZ I        2143  3.03         4.3 0.19            135            138 261 
                                                                                
