 2010  9 8 2144 31.3 L   6.820 -73.052145.7  RSN  4 0.2 1.6LRSN                1
 GAP=247        0.48       6.4    11.7  5.7  0.5679E+02 -0.2347E+02 -0.1227E+02E
 Epicentro: LOS SANTOS - SANTANDER                                             3
 ACTION:UP  11-02-18 11:01 OP:tino STATUS:               ID:20100908214431 L   I
 2010-09-08-2141-02S.COL___120                                                 6
 STAT SP IPHASW D HRMM SECON CODA AMPLIT PERI AZIMU VELO SNR AR TRES W  DIS CAZ7
 BTL  SZ EP       2144 51.20                             169     0.210   26 295 
 BTL  SZ ES   1   2145  6.31                             169    -0.1 7   26 295 
 BAR2 SZ EP   2   2144 51.01                             168    -0.1 5   29 210 
 BAR2 SZ ES   2   2145  6.24                             168    -0.3 5   29 210 
 BAR2 SZ I        2145  8.37         6.3 0.16                            29 210 
 BRR  HZ IP     C 2144 52.74                             150    -0.210   80 294 
 BRR  HZ I        2144 52.99        10.8 0.14                            80 294 
 BRR  HN ES   1   2145 10.07                             150     0.2 7   80 294 
 RUS  HZ EP   2   2144 55.52                             143     0.3 5  103 182 
 RUS  HE ES   1   2145 13.83                             143     0.0 7  103 182 
                                                                                
