 2012  8 8 2018 59.5 L   6.759 -73.152146.8  RSN  5 0.4 1.9LRSN                1
 GAP=138        0.84       5.5     6.0  7.3 -0.2190E+01  0.6771E+01  0.1589E+01E
 Epicentro: LOS SANTOS - SANTANDER                                             3
 ACTION:UPD 12-09-10 11:55 OP:ep   STATUS:               ID:20120808201859 L   I
 2012-08-08-2010-00M.COL___216                                                 6
 STAT SP IPHASW D HRMM SECON CODA AMPLIT PERI AZIMU VELO AIN AR TRES W  DIS CAZ7
 BAR2 SZ IP       2019 19.27                             172    0.0610 18.8 190 
 BAR2 SZ ES   1   2019 33.93                             172   -0.62 7 18.8 190 
 BAR2 SZ I        2019 35.42        40.8 0.22                          18.8 190 
 BRR  HZ EP       2019 21.14                             152    0.2510 72.9 302 
 BRR  HN ES   1   2019 38.21                             152    0.66 7 72.9 302 
 BRR  HZ I        2019 40.27        16.9 0.16                          72.9 302 
 PAM  SZ EP       2019 22.19                             150    0.0910 81.3  38 
 PAM  SN ES   1   2019 39.31                             150   -0.38 7 81.3  38 
 PAM  SZ I        2019 41.12        11.0 0.56                          81.3  38 
 RUS  HZ EP       2019 23.06                             145   -0.0210 96.1 175 
 RUS  HN ES   1   2019 41.92                             145    0.49 7 96.1 175 
 RUS  HZ I        2019 43.30         9.8 0.32                          96.1 175 
 PTB  HZ EP       2019 26.05                             133   -0.41 9  146 261 
 PTB  HN ES   2   2019 46.95                             133   -0.50 5  146 261 
                                                                                
