 2010  4 8 2333 59.3 L   6.788 -72.935143.6  RSN  4 0.4 1.9LRSN                1
 GAP=280        0.63       8.9    11.9  9.3 -0.1632E+02  0.1095E+02  0.4137E+02E
 Epicentro: CEPITA - SANTANDER                                                 3
 ACTION:UP  10-08-24 09:58 OP:vdl  STATUS:               ID:20100408233359 L   I
 2010-04-08-2330-35S.COL___097                                                 6
 STAT SP IPHASW D HRMM SECON CODA AMPLIT PERI AZIMU VELO AIN AR TRES W  DIS CAZ7
 BAR2 SZ EP   1   2334 19.02                             165     0.0 7   35 232 
 BAR2 SZ ES   2   2334 34.69                             165     0.3 5   35 232 
 BRR  HZ EP   1   2334 21.43                             146    -0.2 7   93 292 
 BRR  HE ES   2   2334 38.81                             146    -0.2 5   93 292 
 BRR  HZ I        2334 53.87        17.9 0.53                            93 292 
 RREF BZ EP   1   2334 48.16                             109     0.8 5  339 232 
 RREF BE ES   2   2335 25.09                             109     0.3 3  339 232 
 RREF BZ I        2335 27.73         2.9 0.17                           339 232 
 PRA  HZ EP   1   2334 53.58                             106    -0.5 4  403 213 
 PRA  HE ES   2   2335 35.96                             106    -0.8 3  403 213 
                                                                                
