 2011  4 8 2226  6.0 L   6.842 -73.110143.0  RSN  6 0.3 1.7LRSN                1
 GAP=179        0.55       4.1     7.3  5.3 -0.1551E+02 -0.1355E+02  0.7318E+01E
 Epicentro: LOS SANTOS - SANTANDER                                             3
 ACTION:UP  11-06-22 15:29 OP:REBC STATUS:               ID:20110408222606 L   I
 2011-04-08-2224-47S.COL___139                                                 6
 STAT SP IPHASW D HRMM SECON CODA AMPLIT PERI AZIMU VELO SNR AR TRES W  DIS CAZ7
 BTL  SZ EP   1   2226 25.33                             172     0.1 7   19 296 
 BTL  SZ ES   1   2226 39.82                             172    -0.4 7   19 296 
 GIR2 SZ EP   3   2226 25.11                                    -0.1 2   28 340 
 BAR2 SZ EP   2   2226 25.39                             168     0.0 5   29 196 
 BAR2 SZ ES   2   2226 40.53                             168     0.0 5   29 196 
 BAR2 SZ I        2226 42.52        11.8 0.13                            29 196 
 BRR  HZ EP       2226 26.88                             151     0.010   73 294 
 BRR  HE ES   1   2226 43.43                             151     0.2 7   73 294 
 BRR  HZ I        2226 44.72        15.8 0.13                            73 294 
 GRA  SZ EP       2226 30.46                             138    -0.110  120  16 
 GRA  SZ ES   1   2226 49.92                             138     0.3 7  120  16 
 GRA  SZ I        2226 50.86         9.0 0.26                           120  16 
 CHI  HZ EP   1   2226 43.88                             116    -0.3 6  254 196 
 CHI  HE ES   2   2227 14.77                             116     0.9 4  254 196 
 CHI  HZ I        2227 26.94         2.5 0.54                           254 196 
                                                                                
