 2012  4 8 2254 39.5 L   5.755 -73.924101.5  RSN  5 0.3 1.0LRSN                1
 GAP=178        0.54       4.4     2.8  9.4 -0.9732E-01  0.4270E+01  0.8464E+01E
 Epicentro: ALBANIA - SANTANDER                                                3
 ACTION:UPD 12-07-05 11:51 OP:tino STATUS:               ID:20120408225439 L   I
 2012-04-08-2250-00M.COL___196                                                 6
 STAT SP IPHASW D HRMM SECON CODA AMPLIT PERI AZIMU VELO AIN AR TRES W  DIS CAZ7
 RUS  HZ EP   1   2254 58.31                             134    -0.4 7   94  81 
 RUS  HE ES   1   2255 13.81                             134     0.2 7   94  81 
 RUS  HZ I        2255 14.95         2.3 0.39                            94  81 
 PTB  HZ EP   1   2254 59.26                             130     0.2 7  105 326 
 PTB  HE ES   1   2255 14.15                             130    -0.1 7  105 326 
 PTB  HZ I        2255 20.14         2.5 0.11                           105 326 
 NOR  SZ EP   1   2254 59.48                             129     0.2 7  107 259 
 NOR  SN ES   2   2255 14.34                             129    -0.3 5  107 259 
 BAR2 SZ EP   2   2255  1.07                             125    -0.1 5  124  42 
 BAR2 SZ ES   2   2255 18.36                             125     0.4 5  124  42 
 BRR  HE ES   2   2255 22.13                             119    -0.4 5  151   9 
                                                                                
