 2013 12 8 2132 59.0 L   6.752 -73.154149.0  RSN  7 0.5 1.6LRSN                1
 GAP=138        1.06       4.3     5.3  8.5  0.3585E-01  0.1460E+02 -0.1408E+01E
 Epicentro: LOS SANTOS - SANTANDER                                             3
 ACTION:UPD 14-01-13 10:16 OP:ep   STATUS:               ID:20131208213259 L   I
 OLDACT:UP  13-12-09 01:42 OP:mh   STATUS:               ID:20131208213000     3
 OLDACT:UP  13-12-09 01:42 OP:mh   STATUS:               ID:20131208213000     3
 OLDACT:REG 13-12-08 23:03 OP:mh   STATUS:               ID:20131208213000     3
 2013-12-08-2130-00M.COL___285                                                 6
 STAT SP IPHASW D HRMM SECON CODA AMPLIT PERI AZIMU VELO AIN AR TRES W  DIS CAZ7
 BRR  HZ EP   1   2133 21.44                             152    0.83 7 73.1 303 
 BRR  HN ES       2133 37.85                             152    0.3910 73.1 303 
 BRR  HZ I        2133 42.01         5.5 0.13            150           73.1 303 
 PAM  SZ EP   1   2133 22.31                             150    0.46 7 82.1  38 
 PAM  SZ I        2133 22.61         7.9 0.16            153           82.1  38 
 PAM  SE ES       2133 39.36                             150   -0.3010 82.1  38 
 RUS  HZ EP   1   2133 23.07                             146    0.36 7 95.4 175 
 RUS  HN ES       2133 41.03                             146   -0.1710 95.4 175 
 RUS  HZ I        2133 42.48         4.3 0.21            148           95.4 175 
 PTB  HZ EP       2133 25.47                             133   -0.60 9  146 261 
 PTB  HN ES   1   2133 46.40                             133   -0.79 7  146 261 
 PTB  HZ I        2133 51.05         3.7 0.12            132            146 261 
 ZAR  HN ES       2133 57.94                             123    0.59 8  205 294 
 NOR  HZ EP   1   2133 34.39                             120   -0.13 6  231 235 
 NOR  HN ES   1   2134  2.42                             120    0.20 6  231 235 
 NOR  HZ I        2134  8.29         3.6 0.37            120            231 235 
 SML  HZ EP   1   2133 36.31                             118    0.02 6  248 336 
 SML  HN ES       2134  4.75                             118   -0.62 8  248 336 
 SML  HZ I        2134 11.94         5.2 0.07            118            248 336 
                                                                                
