 2014 10 8 2315  2.5 L   6.781 -73.136139.5  RSN  5 0.5 1.3LRSN                1
 GAP=139        1.34       7.0     6.9 10.0 -0.4810E+01  0.1087E+02  0.2316E+01E
 Epicentro: LOS SANTOS - SANTANDER                                             3
 ACTION:UPD 14-11-29 23:48 OP:nd   STATUS:               ID:20141008231502 L   I
 OLDACT:UP  14-10-09 07:32 OP:cam  STATUS:               ID:20141008231000     3
 OLDACT:REG 14-10-09 06:55 OP:cam  STATUS:               ID:20141008231000     3
 2014-10-08-2310-00M.COL___252                                                 6
 STAT SP IPHASW D HRMM SECON CODA AMPLIT PERI AZIMU VELO AIN AR TRES W  DIS CAZ7
 BAR2 SZ ES       2315 35.81                             171   -0.1810 21.5 194 
 BAR2 SZ I        2315 37.38        10.2 0.12            168           21.5 194 
 BRR  HZ EP       2315 23.38                             151    0.3310 73.2 300 
 BRR  HN ES       2315 40.01                             151    0.9010 73.2 300 
 PAM  SZ EP     D 2315 24.47                             149    0.4010 78.3  38 
 PAM  SN ES       2315 40.14                             149   -0.7910 78.3  38 
 RUS  HZ EP       2315 25.52                             143    0.0810 98.4 177 
 RUS  HN ES       2315 43.59                             143    0.2310 98.4 177 
 RUS  HZ I        2315 45.98         1.6 0.44            142           98.4 177 
 PTB  HZ EP       2315 28.54                             130   -0.45 9  148 260 
 PTB  HN ES       2315 49.02                             130   -0.66 9  148 260 
 PTB  HZ I        2315 52.12         2.2 0.40            131            148 260 
                                                                                
