 2013 11 8 2209 56.0 L   6.034 -74.064 11.0  RSN  6 0.4 1.3LRSN                1
 GAP=192        1.02       3.6     3.8  5.2 -0.7175E+01 -0.7626E+01  0.5315E+01E
 Epicentro: LA BELLEZA - SANTANDER                                             3
 ACTION:UPD 14-01-09 16:26 OP:ep   STATUS:               ID:20131108220956 L   I
 OLDACT:REG 13-11-09 04:16 OP:carl STATUS:               ID:20131108220850     3
 2013-11-08-2208-50M.COL___219                                                 6
 STAT SP IPHASW D HRMM SECON CODA AMPLIT PERI AZIMU VELO AIN AR TRES W  DIS CAZ7
 PTB  HZ EP       2210  6.73                              96   -0.6510 70.8 322 
 PTB  HN ES       2210 16.85                              96    0.5910 70.8 322 
 PTB  HZ I        2210 19.21        12.9 0.28             47           70.8 322 
 NOR  HZ EP       2210 12.00                              94   -0.3210  103 240 
 NOR  HN ES       2210 25.30                              94    0.2510  103 240 
 NOR  HZ I        2210 25.59         9.2 0.26             47            103 240 
 RUS  HZ EP   4   2210 10.73                              94   -3.03 0  110  98 
 RUS  HN ES   4   2210 22.30                              94   -5.32 0  110  98 
 RUS  HZ I        2210 23.28         3.9 0.26             47            110  98 
 HEL  HZ EP       2210 20.97                              56   -0.51 9  163 276 
 HEL  HE ES       2210 41.11                              56   -0.24 9  163 276 
 GUY2CHZ EP       2210 22.90                              56    0.47 9  170 238 
 GUY2CHN ES       2210 43.23                              56    0.18 9  170 238 
 GUY2CHZ I        2210 47.20         3.1 0.18                           170 238 
 PAM  SZ EP       2210 27.61                              56    0.27 8  209  46 
 PAM  SN ES       2210 51.84                              56    0.04 8  209  46 
 PAM  SZ I        2210 54.09         5.2 0.18             37            209  46 
                                                                                
