 2017  1 8 2302 12.9 L   6.753 -73.192145.2  RSN  5 0.3 1.0LRSN                1
 GAP=133        0.90       4.8     4.6  6.7 -0.2158E+01  0.4420E+01  0.7259E+00E
 Epicentro: VILLANUEVA - SANTANDER                                             3
 ACTION:UPD 17-05-22 15:57 OP:jn   STATUS:               ID:20170108230212 L   I
 OLDACT:UP  17-01-09 04:22 OP:edw  STATUS:               ID:20170108225744     3
 OLDACT:REG 17-01-09 03:00 OP:edw  STATUS:               ID:20170108225744     3
 2017-01-08-2258-00M.COL___371                                                 6
 STAT SP IPHASW D HRMM SECON CODA AMPLIT PERI AZIMU VELO AIN AR TRES W  DIS CAZ7
 BAR2 EZ ES       23 2 47.24                             173   -0.2810 17.8 177 
 BRR  HZ EP     D 23 2 34.36                             153    0.4810 69.6 304 
 BRR  HN ES       23 2 50.77                             153    0.5210 69.6 304 
 PAM  EZ EP     D 23 2 35.41                             148   -0.0810 84.6  40 
 PAM  EN ES       23 2 52.80                             148   -0.3210 84.6  40 
 PAM  EZ I        23 2 54.21         2.5 0.66            142           84.6  40 
 RUS  HZ EP       23 2 36.37                             145    0.1310 95.9 173 
 RUS  HN ES       23 2 54.69                             145    0.2310 95.9 173 
 RUS  HZ I        23 2 55.87         1.8 0.36            137           95.9 173 
 PTB  HZ EP       23 2 38.91                             133   -0.36 9  142 260 
 PTB  HZ I        23 2 57.07         0.7 0.15            122            142 260 
 PTB  HN ES       23 2 59.45                             133   -0.40 9  142 260 
                                                                                
