 2010  9 8 2131 19.1 L   6.800 -73.038144.9  RSN 10 0.3 2.1LRSN                1
 GAP=171        0.44       3.0     5.8  6.4 -0.3556E+01  0.1512E+02  0.4476E+01E
 Epicentro: CEPITA - SANTANDER                                                 3
 ACTION:UP  11-02-18 11:01 OP:tino STATUS:               ID:20100908213119 L   I
 2010-09-08-2128-10S.COL___120                                                 6
 STAT SP IPHASW D HRMM SECON CODA AMPLIT PERI AZIMU VELO SNR AR TRES W  DIS CAZ7
 BAR2 SZ EP   2   2131 38.35                             168    -0.4 5   28 215 
 BAR2 SZ I        2131 38.95        34.7 0.30                            28 215 
 BAR2 SZ ES   2   2131 53.81                             168    -0.2 5   28 215 
 BTL  SZ ES   2   2131 54.44                             168     0.4 5   29 297 
 BRR  HE ES   2   2131 57.66                             149    -0.1 5   82 295 
 BRR  HZ I        2132  1.58        23.8 0.16                            82 295 
 RUS  HE ES   2   2132  1.19                             144     0.0 5  100 183 
 GRA  SZ ES   2   2132  3.66                             138     0.2 5  123  12 
 GRA  SZ I        2132  5.05        23.5 0.30                           123  12 
 OCA  SZ ES   2   2132  9.50                             129    -0.2 5  162 349 
 OCA  SZ I        2132 19.64        12.5 0.55                           162 349 
 CHI  HN ES   2   2132 26.74                             117     0.0 4  252 198 
 CHI  HZ I        2132 28.76         4.3 0.29                           252 198 
 HEL  HE ES   2   2132 32.57                             114    -0.3 4  284 256 
 HEL  HZ I        2132 37.51         8.6 0.31                           284 256 
 RREF HZ EP   2   2132  6.54                             110     0.3 3  331 231 
 RREF HN ES   2   2132 43.46                             110     0.5 3  331 231 
 RREF HZ I        2132 46.14         6.5 0.43                           331 231 
 PRA  HE ES   2   2132 55.55                             106     0.0 3  398 211 
 PRA  HZ I        2133  0.63         6.9 0.71                           398 211 
                                                                                
