 2012 10 8 2206 28.4 L   6.764 -73.189144.0  RSN  9 0.5 2.3LRSN                1
 GAP=230        0.88       5.8     6.4  8.2  0.1458E+02  0.2007E+02  0.1911E+02E
 Epicentro: VILLANUEVA - SANTANDER                                             3
 ACTION:UPD 12-11-22 17:02 OP:ep   STATUS:               ID:20121008220628 L   I
 2012-10-08-2200-00M.COL___223                                                 6
 STAT SP IPHASW D HRMM SECON CODA AMPLIT PERI AZIMU VELO AIN AR TRES W  DIS CAZ7
 BAR2 SZ EP   1   22 6 47.34                             172   -0.37 7 19.0 178 
 BAR2 SZ ES   1   22 7  2.60                             172   -0.19 7 19.0 178 
 BAR2 SZ I        22 7  4.17        60.8 0.40                          19.0 178 
 BRR  HZ EP   1   22 6 49.22                             153    0.00 7 69.2 303 
 BRR  HZ I        22 6 49.45        26.6 0.28                          69.2 303 
 BRR  HN ES   1   22 7  6.53                             153    1.05 7 69.2 303 
 BRR  HN I        22 7  7.54       130.5 0.20                          69.2 303 
 RUS  HZ EP   1   22 6 51.24                             145   -0.46 7 97.1 173 
 RUS  HN ES   1   22 7 10.04                             145    0.15 7 97.1 173 
 RUS  HN I        22 7 15.45         4.8 0.36                          97.1 173 
 ZAR  HE ES   1   22 7 24.66                             123   -0.74 6  201 294 
 NOR  SN ES   1   22 7 30.63                             119    0.02 6  229 235 
 NOR  SN I        22 7 37.54        39.0 0.18                           229 235 
 CHI  HZ EP   1   22 7  5.41                             118   -0.02 6  244 194 
 CHI  HZ I        22 7  7.02         5.5 0.16                           244 194 
 CHI  HN ES   1   22 7 34.39                             118    0.07 6  244 194 
 CHI  HN I        22 7 39.64        24.8 0.26                           244 194 
 HEL  HN ES   1   22 7 38.30                             115   -0.40 6  267 256 
 HEL  HN I        22 7 45.85        12.1 0.44                           267 256 
 RREF HZ EP   1   22 7 14.52                             111    0.79 5  316 229 
 RREF HZ I        22 7 18.50         5.2 0.22                           316 229 
 PRA  HZ EP   1   22 7 21.65                             107    0.49 4  386 209 
 PRA  HN I        22 8  8.19         8.9 0.38                           386 209 
                                                                                
