 2015  2 8 2250  3.0 L   6.805 -73.149144.8  RSN  7 0.4 1.4LRSN                1
 GAP=136        0.89       4.1     5.1  6.8 -0.1086E+01  0.2342E+01 -0.2716E+01E
 Epicentro: LOS SANTOS - SANTANDER                                             3
 ACTION:UPD 15-04-30 21:24 OP:nd   STATUS:               ID:20150208225003 L   I
 OLDACT:DUP 15-02-09 05:09 OP:spq  STATUS:               ID:20150208224748d    3
 OLDACT:REG 15-02-09 02:51 OP:spq  STATUS:               ID:20150208224747     3
 2015-02-08-2247-47M.COL___290                                                 6
 STAT SP IPHASW D HRMM SECON CODA AMPLIT PERI AZIMU VELO AIN AR TRES W  DIS CAZ7
 BAR2 EZ EP       2250 22.43                             170   -0.0510 23.8 189 
 BAR2 EZ ES   1   2250 37.44                             170   -0.27 7 23.8 189 
 BAR2 EZ I        2250 38.45         4.4 0.28            169           23.8 189 
 BRR  HZ EP       2250 24.36                             153    0.3910 70.6 298 
 BRR  HE ES       2250 41.07                             153    0.7210 70.6 298 
 BRR  HZ I        2250 43.58         6.3 0.48            152           70.6 298 
 PAM  SZ EP       2250 25.22                             151    0.1610 77.2  40 
 PAM  SN ES   1   2250 41.89                             151   -0.41 7 77.2  40 
 PAM  SZ I        2250 43.02         3.7 0.19            154           77.2  40 
 RUS  HZ EP       2250 26.77                             144    0.1110  101 176 
 RUS  HE ES   1   2250 44.86                             144   -0.28 7  101 176 
 RUS  HZ I        2250 46.01         1.3 0.26            145            101 176 
 PTB  HZ EP       2250 29.64                             132   -0.19 9  147 259 
 PTB  HN ES   1   2250 49.97                             132   -0.81 7  147 259 
 PTB  HZ I        2250 52.16         3.0 0.32            132            147 259 
 SPBC HN ES   1   2250 53.76                             129    0.17 7  163 219 
 SPBC HZ I        2250 57.92         3.3 0.20            129            163 219 
 SML  HZ EP   1   2250 39.11                             117   -0.35 6  243 335 
 SML  HN ES   1   2251  7.41                             117   -0.51 6  243 335 
 SML  HZ I        2251  9.30         3.3 0.23            119            243 335 
                                                                                
