 2011  5 8 2213 52.2 L   6.743 -73.135142.8  RSN  6 0.3 1.8LRSN                1
 GAP=140        0.72       3.6     5.7  6.6 -0.4977E+01  0.7188E+01 -0.1789E+01E
 Epicentro: JORDAN - SANTANDER                                                 3
 ACTION:UP  11-06-29 08:51 OP:tino STATUS:               ID:20110508221351 L   I
 2011-05-08-2210-00S.COL___127                                                 6
 STAT SP IPHASW D HRMM SECON CODA AMPLIT PERI AZIMU VELO SNR AR TRES W  DIS CAZ7
 BAR2 SZ EP   1   2214 11.20                             173    -0.2 7   17 197 
 BAR2 SZ ES   1   2214 26.06                             173    -0.3 7   17 197 
 BAR2 SZ I        2214 28.71        15.6 0.27                            17 197 
 BRR  HZ EP   1   2214 13.27                             150     0.0 7   75 302 
 BRR  HN ES   1   2214 30.13                             150     0.4 7   75 302 
 BRR  HZ I        2214 33.38        11.6 0.16                            75 302 
 PAM  SZ EP   1   2214 14.16                             149    -0.2 7   82  36 
 PAM  SN ES   1   2214 31.30                             149    -0.4 7   82  36 
 RUS  HZ EP   1   2214 15.32                             145     0.1 7   94 177 
 RUS  HN ES   1   2214 33.71                             145     0.5 7   94 177 
 RUS  HZ I        2214 35.25         6.9 0.27                            94 177 
 OCA  SZ EP   1   2214 21.29                             128     0.4 7  167 353 
 OCA  SZ ES   1   2214 43.41                             128     0.1 7  167 353 
 OCA  SZ I        2214 45.02         8.6 0.31                           167 353 
 NOR  SZ EP   2   2214 27.59                             118     0.1 4  232 236 
 NOR  SN ES   1   2214 54.46                             118    -0.6 6  232 236 
                                                                                
