 2010  8 8 2105 53.9 L   6.847 -73.341119.4  RSN  6 0.2 1.9LRSN                1
 GAP=140        0.59       3.0     6.3  5.3  0.3133E+01 -0.4086E+01 -0.3033E+01E
 Epicentro: ZAPATOCA - SANTANDER                                               3
 ACTION:UP  10-09-07 10:53 OP:vdl  STATUS:               ID:20100808210553 L   I
 2010-08-08-2102-33S.COL___125                                                 6
 STAT SP IPHASW D HRMM SECON CODA AMPLIT PERI AZIMU VELO SNR AR TRES W  DIS CAZ7
 BTL  SZ IP       21 6 10.22                             175     0.110   11  46 
 BTL  SZ ES   2   21 6 22.37                                    -0.4 5   11  46 
 BAR2 SZ EP       21 6 10.67                             165     0.010   33 148 
 BAR2 SZ ES   1   21 6 23.56                             165    -0.1 7   33 148 
 BAR2 SZ I        21 6 25.21        41.6 0.27                            33 148 
 BRR  HZ IP     C 21 6 11.04                             155     0.010   50 305 
 BRR  HZ I        21 6 11.40        22.1 0.05                            50 305 
 BRR  HN ES   1   21 6 24.49                             155     0.1 7   50 305 
 RUS  HZ EP   1   21 6 15.51                             136    -0.4 7  109 165 
 RUS  HE ES   1   21 6 33.25                             136     0.2 7  109 165 
 RUS  HZ I        21 6 34.34         5.5 0.21                           109 165 
 GUE  SZ EP   1   21 6 16.77                             133     0.4 7  118  23 
 GUE  SZ ES   1   21 6 34.01                             133     0.0 7  118  23 
 OCA  SZ EP   1   21 6 19.19                             125    -0.4 7  154   1 
 OCA  SZ I        21 6 40.10        12.2 0.40                           154   1 
                                                                                
