 2011  9 8 2303 40.8 L   7.358 -73.151131.5  RSN  5 0.3 1.2LRSN                1
 GAP=178        0.56       6.0     3.7  6.0  0.3602E+01  0.3370E+01  0.2150E+01E
 Epicentro: RIONEGRO - SANTANDER                                               3
 ACTION:UPD 12-07-13 15:56 OP:ep   STATUS:               ID:20110908230340 L   I
 2011-09-08-2300-57S.COL___170                                                 6
 STAT SP IPHASW D HRMM SECON CODA AMPLIT PERI AZIMU VELO AIN AR TRES W  DIS CAZ7
 PAM  SZ EP   1   23 4  0.05                             158    0.01 7 49.9  92 
 PAM  SN ES   1   23 4 15.16                             158    0.14 7 49.9  92 
 PAM  SZ I        23 4 17.36         2.1 0.54                          49.9  92 
 BRR  HZ EP   1   23 3 59.84                             151   -0.42 7 67.8 246 
 BRR  HN ES   1   23 4 15.05                             151   -0.36 7 67.8 246 
 BRR  HZ I        23 4 16.72        10.7 0.26                          67.8 246 
 BAR2 SZ EP   1   23 4  1.72                             145    0.03 7 84.7 182 
 BAR2 SZ ES   1   23 4 18.16                             145    0.20 7 84.7 182 
 BAR2 SZ I        23 4 19.30         6.3 0.13                          84.7 182 
 RUS  HZ EP   1   23 4  8.78                             126    0.06 7  162 177 
 RUS  HZ I        23 4  9.92         0.8 0.29                           162 177 
 ZAR  HN ES   1   23 4 34.63                             121    0.45 7  189 275 
                                                                                
