 2010  2 8 2045 44.9 L   6.731 -73.150142.6  RSN  6 0.4 2.1LRSN                1
 GAP=202        0.61       6.2    13.2 10.8 -0.2663E+02  0.4301E+02  0.3332E+02E
 Epicentro: JORDAN - SANTANDER                                                 3
 ACTION:UP  10-08-24 09:48 OP:vdl  STATUS:               ID:20100208204544 L   I
 2010-02-08-2044-01S.COL___094                                                 6
 STAT SP IPHASW D HRMM SECON CODA AMPLIT PERI AZIMU VELO SNR AR TRES W  DIS CAZ7
 GIR2 SZ EP   2   2046  3.99                             164    -0.5 8   39 353 
 GIR2 SZ ES   2   2046 19.59                             164    -0.1 8   39 353 
 OCA  SZ ES   2   2046 36.61                             127     0.4 8  168 354 
 OCA  SZ I        2046 37.99        24.5 0.18                           168 354 
 CHI  HZ EP   2   2046 21.10                             117    -0.5 7  241 196 
 CHI  HE ES   2   2046 51.04                             117     0.8 7  241 196 
 CHI  HZ I        2046 56.50         3.7 0.31                           241 196 
 GUY  HZ EP   2   2046 27.95                             112     0.1 6  297 236 
 GUY  HE ES   2   2047  0.87                             112    -0.5 6  297 236 
 TOL  SZ EP   1   2046 32.80                             109     0.4 8  338 225 
 PRA  HZ IP       2046 37.46                             106    -0.110  385 210 
 PRA  HZ I        2047 25.61         6.1 0.37                           385 210 
                                                                                
