 2017  2 8 2040 19.6 L   6.578 -73.593113.7  RSN  5 0.3 1.5LRSN                1
 GAP=142        0.68       3.8     2.8  6.2  0.3480E+01  0.7496E+01  0.4700E+01E
 Epicentro: EL CARMEN - SANTANDER                                              3
 ACTION:UPD 17-05-24 15:34 OP:jn   STATUS:               ID:20170208204019 L   I
 OLDACT:REG 17-02-09 05:30 OP:lv   STATUS:               ID:20170208203745     3
 2017-02-08-2038-00M.COL___364                                                 6
 STAT SP IPHASW D HRMM SECON CODA AMPLIT PERI AZIMU VELO AIN AR TRES W  DIS CAZ7
 BAR2 EZ EP       2040 36.43                             157    0.2010 45.5  88 
 BAR2 EZ ES       2040 49.41                             157    0.2210 45.5  88 
 BAR2 EZ I        2040 50.59        15.3 0.29            159           45.5  88 
 RUS  HZ EP       2040 39.81                             138   -0.0610 94.5 143 
 RUS  HN ES       2040 55.43                             138   -0.2310 94.5 143 
 RUS  HZ I        2040 56.57         1.8 0.10            140           94.5 143 
 PTB  HZ EP       2040 39.27                             137   -0.0310 95.5 267 
 PTB  HN ES       2040 54.30                             137   -0.3410 95.5 267 
 PTB  HZ I        2040 55.58         9.9 0.17            137           95.5 267 
 ZAR  HZ EP   4   2040 49.32                             119    2.56 0  172 306 
 ZAR  HN ES       2041  7.96                             119    0.04 9  172 306 
 ZAR  HZ I        2041 12.87         4.3 0.39            119            172 306 
 NOR  HZ EP       2040 47.40                             118   -0.26 9  180 232 
 NOR  HN ES       2041 10.07                             118    0.53 9  180 232 
 NOR  HZ I        2041 12.59         5.1 0.22            119            180 232 
                                                                                
