 2010 11 8 2321 48.9 L   6.876 -73.287120.4  RSN  4 0.2 1.8LRSN                1
 GAP=139        0.61      11.2    10.7  6.5  0.7989E+02 -0.2969E+01 -0.3952E+01E
 Epicentro: BETULIA - SANTANDER                                                3
 ACTION:UP  10-12-17 16:51 OP:REBC STATUS:               ID:20101108232148 L   I
 2010-11-08-2318-54S.COL___129                                                 6
 STAT SP IPHASW D HRMM SECON CODA AMPLIT PERI AZIMU VELO SNR AR TRES W  DIS CAZ7
 BTL  SZ EP       2322  5.67                             176     0.410    5  24 
 BTL  SZ ES   2   2322 18.24                             176     0.3 5    5  24 
 GIR2 SZ EP   1   2322  5.36                             167    -0.1 7   25  25 
 GIR2 SZ ES   2   2322 17.93                             167    -0.3 5   25  25 
 BAR2 SZ EP       2322  5.75                             164    -0.110   33 160 
 BAR2 SZ ES   1   2322 18.86                             164    -0.1 7   33 160 
 BAR2 SZ I        2322 20.06        28.6 0.37                            33 160 
 BRR  HZ EP       2322  6.11                             155    -0.210   54 299 
 BRR  HZ I        2322  6.40        10.5 0.04                            54 299 
 BRR  HE ES   1   2322 20.03                             155     0.1 7   54 299 
                                                                                
