 2014  6 8 2322 35.2 L   6.109 -73.766101.1  RSN 11 0.4 1.9LRSN                1
 GAP=106        1.01       3.0     2.8  6.1 -0.2509E+01  0.5604E+01 -0.3762E+01E
 Epicentro: BOLIVAR - SANTANDER                                                3
 ACTION:UPD 14-07-01 22:52 OP:nd   STATUS:               ID:20140608232235 L   I
 OLDACT:UP  14-06-09 03:17 OP:cam  STATUS:               ID:20140608232000     3
 OLDACT:UP  14-06-09 03:16 OP:cam  STATUS:               ID:20140608232000     3
 OLDACT:REG 14-06-09 02:23 OP:cam  STATUS:               ID:20140608232000     3
 2014-06-08-2320-00M.COL___276                                                 6
 STAT SP IPHASW D HRMM SECON CODA AMPLIT PERI AZIMU VELO AIN AR TRES W  DIS CAZ7
 SPBC HZ EP     D 2322 50.91                             146   -0.2210 60.8 214 
 SPBC HN ES       2323  3.77                             146    0.2210 60.8 214 
 SPBC HZ I        2323  6.64        21.1 0.22            148           60.8 214 
 RUS  HZ EP       2322 52.97                             139   -0.0910 79.3 108 
 RUS  HN ES       2323  6.69                             139   -0.3010 79.3 108 
 RUS  HZ I        2323  8.01        13.5 0.32            144           79.3 108 
 BAR2 SZ IP     D 2322 53.30                             137    0.2310 83.8  50 
 BAR2 SZ ES       2323  7.71                             137    0.6910 83.8  50 
 BAR2 SZ I        2323  9.23        38.3 0.36            141           83.8  50 
 PTB  HZ EP       2322 52.47                             135   -0.8210 90.0 302 
 PTB  HN ES       2323  6.80                             135   -0.6110 90.0 302 
 PTB  HZ I        2323 11.03        10.6 0.10            136           90.0 302 
 NOR  HZ EP       2322 57.74                             122   -0.05 9  136 244 
 NOR  HN ES       2323 15.53                             122    0.11 9  136 244 
 NOR  HZ I        2323 18.68        20.9 0.16            124            136 244 
 PAM  SZ EP       2323  3.03                             114   -0.06 9  180  41 
 PAM  SZ I        2323  4.72        11.7 0.16            117            180  41 
 HEL  HZ EP   1   2323  5.28                             112    0.63 6  195 273 
 HEL  HE ES   1   2323 28.40                             112    0.78 6  195 273 
 HEL  HZ I        2323 31.22         3.8 0.22            114            195 273 
 ZAR  HZ EP       2323  3.63                             112   -0.51 9  195 322 
 ZAR  HE ES       2323 27.05                             112    0.33 9  195 322 
 ZAR  HZ I        2323 31.74         7.6 0.26            114            195 322 
 GUY2CHZ EP   1   2323  5.73                             111    0.15 6  202 241 
 GUY2CHE ES       2323 29.57                             111    0.29 9  202 241 
 GUY2CHZ I        2323 33.54         6.6 0.44                           202 241 
 TOL  SZ EP       2323 10.24                             106    0.38 8  241 226 
 TOL  SZ ES       2323 36.63                             106   -0.28 8  241 226 
 TOL  SZ I        2323 42.06         7.1 0.38            109            241 226 
 SML  HZ EP   4   2323 14.89                             102   -1.49 0  300 354 
 SML  HE ES       2323 48.70                             102    0.19 7  300 354 
 SML  HZ I        2323 50.05         5.7 0.24            104            300 354 
                                                                                
