 2015  2 8 2201 29.1 L   6.729 -73.146147.1  RSN  6 0.4 1.4LRSN                1
 GAP=140        0.87       4.5     4.8  6.6  0.5690E+00  0.1085E+01 -0.3065E+01E
 Epicentro: JORDAN - SANTANDER                                                 3
 ACTION:UPD 15-04-30 21:24 OP:nd   STATUS:               ID:20150208220129 L   I
 OLDACT:REG 15-02-09 02:46 OP:spq  STATUS:               ID:20150208215744     3
 2015-02-08-2157-44M.COL___293                                                 6
 STAT SP IPHASW D HRMM SECON CODA AMPLIT PERI AZIMU VELO AIN AR TRES W  DIS CAZ7
 BAR2 EZ EP       22 1 48.64                             174   -0.0710 15.7 195 
 BAR2 EZ ES   1   22 2  3.43                             174   -0.61 7 15.7 195 
 BAR2 EZ I        22 2  7.97         3.6 0.38            175           15.7 195 
 BRR  HZ EP       22 1 50.73                             151    0.1610 75.2 304 
 BRR  HE ES       22 2  8.11                             151    0.7610 75.2 304 
 BRR  HZ I        22 2 12.18         6.9 0.26            152           75.2 304 
 PAM  SZ EP     C 22 1 51.90                             149    0.1210 83.6  36 
 PAM  SN ES   1   22 2  9.10                             149   -0.41 7 83.6  36 
 PAM  SZ I        22 2 11.39         4.9 0.80            152           83.6  36 
 RUS  HZ EP       22 1 52.62                             146    0.2410 92.8 176 
 RUS  HN ES   1   22 2 10.67                             146    0.09 7 92.8 176 
 RUS  HZ I        22 2 12.25         2.6 0.22            151           92.8 176 
 PTB  HZ EP       22 1 55.82                             133   -0.18 9  146 262 
 PTB  HN ES       22 2 16.62                             133   -0.40 9  146 262 
 PTB  HZ I        22 2 18.89         3.0 0.20            136            146 262 
 SML  HZ EP   1   22 2  6.51                             117   -0.01 6  251 336 
 SML  HE ES   1   22 2 35.27                             117   -0.48 6  251 336 
 SML  HZ I        22 2 38.98         3.8 0.10            120            251 336 
                                                                                
