 2013  2 8 2115 52.1 L   6.790 -73.162143.0  RSN  8 0.4 1.9LRSN                1
 GAP=135        0.69       3.5     3.8  5.9  0.1990E+00  0.5080E+01  0.3832E+01E
 Epicentro: LOS SANTOS - SANTANDER                                             3
 ACTION:UPD 13-03-12 09:31 OP:ep   STATUS:               ID:20130208211552 L   I
 2013-02-08-2110-00M.COL___241                                                 6
 STAT SP IPHASW D HRMM SECON CODA AMPLIT PERI AZIMU VELO AIN AR TRES W  DIS CAZ7
 BAR2 SZ EP   1   2116 11.29                             171   -0.12 7 22.0 186 
 BAR2 SZ ES   1   2116 26.42                             171   -0.02 7 22.0 186 
 BAR2 SZ I        2116 27.68        27.5 0.38            168           22.0 186 
 BRR  HZ EP   1   2116 13.01                             152    0.09 7 70.1 300 
 BRR  HN ES   1   2116 29.88                             152    0.75 7 70.1 300 
 BRR  HZ I        2116 33.00        20.6 0.38            150           70.1 300 
 PAM  SZ EP   1   2116 14.19                             150    0.01 7 79.4  40 
 PAM  SN ES   1   2116 30.95                             150   -0.42 7 79.4  40 
 PAM  SZ I        2116 33.15        13.9 0.46            154           79.4  40 
 RUS  HZ EP   1   2116 15.33                             143   -0.22 7 99.7 175 
 RUS  HE ES   1   2116 33.97                             143    0.16 7 99.7 175 
 RUS  HZ I        2116 35.26         5.2 0.34            143           99.7 175 
 PTB  HZ EP   4   2116 18.02                             132   -0.68 0  146 259 
 PTB  HN ES   1   2116 38.71                             132   -0.70 7  146 259 
 PTB  HZ I        2116 43.98        10.8 0.12            130            146 259 
 ZAR  HZ EP   1   2116 24.55                             122    0.28 6  203 293 
 ZAR  HE ES   1   2116 49.37                             122    0.04 6  203 293 
 ZAR  HZ I        2116 54.85        13.1 0.22            122            203 293 
 NOR  HE ES   1   2116 54.68                             118   -0.36 6  233 234 
 NOR  HZ I        2116 58.91         5.4 0.36            118            233 234 
 CHI  HZ EP   1   2116 29.75                             117    0.23 6  247 195 
 CHI  HN ES   1   2116 59.08                             117    0.40 6  247 195 
 CHI  HZ I        2117  7.06         2.9 0.34            117            247 195 
                                                                                
