 2014  7 8 2117 28.5 L   6.849 -73.070136.6  RSN  7 0.4 1.6LRSN                1
 GAP=191        0.90       3.5     5.5  7.8  0.5556E+01  0.4722E+01 -0.4171E+01E
 Epicentro: LOS SANTOS - SANTANDER                                             3
 ACTION:UPD 15-03-16 20:42 OP:nd   STATUS:               ID:20140708211728 L   I
 OLDACT:UP  14-07-09 05:12 OP:spq  STATUS:               ID:20140708210817     3
 OLDACT:REG 14-07-09 02:53 OP:spq  STATUS:               ID:20140708210817     3
 2014-07-08-2108-17M.COL___271                                                 6
 STAT SP IPHASW D HRMM SECON CODA AMPLIT PERI AZIMU VELO AIN AR TRES W  DIS CAZ7
 BAR2 SZ ES   1   2118  1.75                             167   -0.10 7 31.0 204 
 BAR2 SZ I        2118  4.10        10.2 0.27            172           31.0 204 
 BRR  HZ EP       2117 49.30                             149    0.2910 76.5 292 
 BRR  HE ES       2118  5.24                             149    0.2510 76.5 292 
 BRR  HZ I        2118 13.74        14.0 0.44            149           76.5 292 
 RUS  HZ EP       2117 52.32                             140    0.5410  106 181 
 RUS  HN ES       2118  9.67                             140   -0.2610  106 181 
 RUS  HZ I        2118 11.56         3.3 0.34            149            106 181 
 OCA  HN ES       2118 16.70                             128   -0.26 9  156 350 
 OCA  HZ I        2118 24.19         8.9 0.32            129            156 350 
 PTB  HZ EP       2117 54.97                             128   -0.67 9  157 257 
 PTB  HN ES       2118 16.58                             128   -0.21 9  157 257 
 PTB  HZ I        2118 19.03         2.8 0.14            132            157 257 
 ZAR  HN ES       2118 26.75                             119    0.41 8  210 290 
 ZAR  HZ I        2118 32.34         3.7 0.22            122            210 290 
 SML  HN ES       2118 32.44                             116   -0.14 8  242 333 
 SML  HZ I        2118 43.79         4.8 0.05            118            242 333 
                                                                                
