 2013  3 8 2257 34.2 L   6.850 -73.161135.1  RSN  4 0.5 1.2LRSN                1
 GAP=132        1.01       5.8     7.5 15.1 -0.4752E+01  0.4574E+02 -0.1109E+02E
 Epicentro: LOS SANTOS - SANTANDER                                             3
 ACTION:UPD 13-04-09 14:00 OP:ep   STATUS:               ID:20130308225734 L   I
 2013-03-08-2250-00M.COL___231                                                 6
 STAT SP IPHASW D HRMM SECON CODA AMPLIT PERI AZIMU VELO AIN AR TRES W  DIS CAZ7
 PAM  SZ EP   1   2257 55.90                             150    0.78 7 74.3  43 
 PAM  SN ES   1   2258 10.85                             150   -0.58 7 74.3  43 
 PAM  SZ I        2258 13.00         2.9 0.40            156           74.3  43 
 RUS  HZ EP   1   2257 56.70                             140   -0.68 7  106 175 
 RUS  HE ES   1   2258 16.01                             140    0.57 7  106 175 
 RUS  HZ I        2258 17.82         2.0 0.26            144            106 175 
 PTB  HZ EP   1   2258  0.01                             129   -0.28 7  147 257 
 PTB  HN ES   1   2258 20.62                             129   -0.01 7  147 257 
 PTB  HZ I        2258 24.50         3.2 0.24            132            147 257 
 SML  HN ES   1   2258 37.52                             116    0.26 6  238 335 
                                                                                
