 2012  2 8 2351  6.2 L   6.749 -73.124144.0  RSN 13 0.4 2.5LRSN                1
 GAP=142        0.80       3.7     3.4  4.8 -0.2730E+01  0.4089E+01  0.6154E+01E
 ACTION:UP  12-03-07 16:28 OP:epov STATUS:               ID:20120208235106 L   I
 2012-02-08-2350-00M.COL___188                                                 6
 STAT SP IPHASW D HRMM SECON CODA AMPLIT PERI AZIMU VELO AIN AR TRES W  DIS CAZ7
 BAR2 SZ IP       2351 25.63                             172    0.1410 18.5 200 
 BAR2 SZ ES       2351 40.37                             172   -0.2010 18.5 200 
 BAR2 SZ I        2351 42.47        72.9 0.33                          18.5 200 
 GIR2 SZ EP       2351 25.73                             165   -0.0710 37.2 348 
 GIR2 SZ ES   1   2351 41.25                             165    0.13 7 37.2 348 
 BRR  HZ IP     C 2351 27.52                             151    0.1210 76.0 301 
 BRR  HZ I        2351 27.82       160.2 0.20                          76.0 301 
 BRR  HE ES       2351 44.88                             151    0.9110 76.0 301 
 PAM  SZ EP       2351 28.40                             150    0.0310 80.4  36 
 PAM  SE ES       2351 45.34                             150   -0.3610 80.4  36 
 RUS  HZ EP       2351 29.58                             145    0.2510 94.9 177 
 RUS  HN ES   1   2351 47.27                             145   -0.14 7 94.9 177 
 RUS  HZ I        2351 49.57        31.0 0.36                          94.9 177 
 PTB  HZ EP       2351 32.36                             131   -0.75 9  149 261 
 PTB  HE ES   1   2351 54.05                             131   -0.08 7  149 261 
 ZAR  HE ES   1   2352  3.91                             122   -0.60 6  208 293 
 ZAR  HZ I        2352 10.76        45.2 0.36                           208 293 
 NOR  SZ EP   1   2351 41.68                             118    0.02 6  233 236 
 NOR  SN ES       2352  9.23                             118   -0.11 8  233 236 
 CHI  HZ EP   1   2351 43.33                             117    0.08 6  244 196 
 CHI  HZ I        2352 17.09         7.4 0.39                           244 196 
 HEL  HZ EP   1   2351 46.31                             114   -0.09 6  273 257 
 HEL  HN ES   1   2352 17.74                             114   -0.04 6  273 257 
 HEL  HZ I        2352 24.00        12.4 0.28                           273 257 
 GUY  SZ EP   2   2351 50.48                             112    0.66 4  302 236 
 GUY  SZ I        2352 32.29        20.3 0.50                           302 236 
 RREF HZ EP   1   2351 52.10                             111    0.08 5  320 230 
 RREF HN ES   1   2352 27.57                             111   -0.23 5  320 230 
 RREF HZ I        2352 36.76        14.7 0.62                           320 230 
 PRA  HZ EP   1   2351 59.66                             106    0.47 4  388 210 
 PRA  HE ES   1   2352 40.86                             106    0.30 4  388 210 
                                                                                
