 2014 10 8 2222 26.5 L   6.758 -73.144144.6  RSN  5 0.4 1.6LRSN                1
 GAP=139        0.99       5.4     5.1  7.6 -0.3262E+01  0.3271E+01  0.4120E+01E
 Epicentro: LOS SANTOS - SANTANDER                                             3
 ACTION:UPD 14-11-29 23:48 OP:nd   STATUS:               ID:20141008222226 L   I
 OLDACT:UP  14-10-09 07:29 OP:cam  STATUS:               ID:20141008222000     3
 OLDACT:REG 14-10-09 06:54 OP:cam  STATUS:               ID:20141008222000     3
 2014-10-08-2220-00M.COL___252                                                 6
 STAT SP IPHASW D HRMM SECON CODA AMPLIT PERI AZIMU VELO AIN AR TRES W  DIS CAZ7
 BAR2 SZ EP       2222 45.78                             172   -0.1010 18.8 193 
 BAR2 SZ ES       2223  0.33                             172   -0.6910 18.8 193 
 BAR2 SZ I        2223  1.63        15.0 0.26            173           18.8 193 
 BRR  HN ES       2223  4.80                             151    0.6510 73.6 302 
 BRR  HN I        2223  8.73        13.7 0.30            151           73.6 302 
 PAM  SZ EP       2222 48.86                             149    0.0810 80.9  37 
 PAM  SN ES       2223  6.09                             149   -0.0910 80.9  37 
 PAM  SZ I        2223  8.00         8.5 0.64            151           80.9  37 
 RUS  HZ EP       2222 49.98                             145    0.2010 95.9 176 
 RUS  HE ES       2223  8.34                             145    0.3810 95.9 176 
 RUS  HZ I        2223  9.28         2.5 0.34            148           95.9 176 
 PTB  HZ EP       2222 52.97                             132   -0.31 9  147 261 
 PTB  HE ES       2223 14.01                             132   -0.19 9  147 261 
 PTB  HZ I        2223 16.26         4.2 0.10            133            147 261 
                                                                                
