 2014  1 8 2155 53.7 L   6.779 -73.116146.6  RSN  5 0.4 1.5LRSN                1
 GAP=245        0.96       9.7     8.1 10.8  0.5001E+02 -0.3828E+01 -0.1176E+02E
 Epicentro: LOS SANTOS - SANTANDER                                             3
 ACTION:UPD 14-03-13 09:53 OP:ep   STATUS:               ID:20140108215553 L   I
 OLDACT:UP  14-01-09 02:08 OP:mher STATUS:               ID:20140108215000     3
 OLDACT:REG 14-01-08 22:44 OP:mh   STATUS:               ID:20140108215000     3
 2014-01-08-2150-00M.COL___285                                                 6
 STAT SP IPHASW D HRMM SECON CODA AMPLIT PERI AZIMU VELO AIN AR TRES W  DIS CAZ7
 RUS  HZ EP       2156 17.49                             145    0.1710 98.1 178 
 RUS  HN ES   1   2156 35.88                             145    0.12 7 98.1 178 
 RUS  HZ I        2156 38.15         3.7 0.31            140           98.1 178 
 PTB  HZ EP       2156 20.39                             132   -0.56 9  151 260 
 PTB  HN ES       2156 41.81                             132   -0.43 9  151 260 
 PTB  HZ I        2156 48.74         3.9 0.21            129            151 260 
 ZAR  HN ES       2156 52.74                             122    0.51 8  208 292 
 NOR  HZ EP       2156 29.20                             118   -0.39 8  236 235 
 NOR  HN ES   1   2156 58.07                             118    0.47 6  236 235 
 NOR  HZ I        2157  4.20         3.6 0.14            117            236 235 
 GUY2CHZ EP       2156 38.11                             112    0.65 7  303 235 
                                                                                
