 2010  4 8 2319 25.7 L   6.941 -72.956159.5  RSN  4 0.4 1.9LRSN                1
 GAP=276        0.66       8.0    16.0  9.7  0.4162E+01 -0.1743E+02  0.3589E+02E
 Epicentro: SANTA BARBARA - SANTANDER                                          3
 ACTION:UPD 10-08-24 09:58 OP:vdl  STATUS:               ID:20100408231925 L   I
 2010-04-08-2315-49S.COL___097                                                 6
 STAT SP IPHASW D HRMM SECON CODA AMPLIT PERI AZIMU VELO AIN AR TRES W  DIS CAZ7
 BAR2 SZ EP   1   2319 47.90                             163     0.3 7   46 213 
 BAR2 SZ ES   2   2320  4.21                             163    -0.4 5   46 213 
 BRR  HZ EP   1   2319 48.65                             151    -0.5 7   86 282 
 BRR  HN ES   2   2320  7.88                             151     0.5 5   86 282 
 BRR  HZ I        2320  8.69        12.4 0.34                            86 282 
 CHI  HZ EP   1   2320  6.69                             118     0.3 6  270 199 
 CHI  HN ES   2   2320 38.12                             118    -0.1 4  270 199 
 CHI  HZ I        2320 41.99         2.6 0.40                           270 199 
 PRA  HZ EP   1   2320 22.27                             108    -0.2 4  416 211 
 PRA  HN ES   2   2321  6.68                             108    -0.1 3  416 211 
 PRA  HZ I        2321  6.80         2.6 0.46                           416 211 
                                                                                
