 2011  6 8 2003 51.0 L   6.776 -73.125139.0  RSN 18 0.5 3.3LRSN                1
 GAP=140        1.28       3.8     6.9  6.0 -0.1273E+02  0.6973E+01  0.5900E+01E
 Epicentro: LOS SANTOS - SANTANDER                                             3
 ACTION:UP  11-07-14 19:04 OP:ep   STATUS:               ID:20110608200351 L   I
 2011-06-08-2002-09S.COL___121                                                 6
 STAT SP IPHASW D HRMM SECON CODA AMPLIT PERI AZIMU VELO SNR AR TRES W  DIS CAZ7
 BAR2 SZ EP       20 4  9.83                             171     0.010   21 197 
 BAR2 SZ ES       20 4 24.29                             171    -0.110   21 197 
 BAR2 SZ I        20 4 25.62       679.0 0.28                            21 197 
 BTL  SZ EP       20 4 10.46                             171     0.610   22 315 
 GIR2 SZ EP       20 4  9.86                             166    -0.110   34 347 
 GIR2 SZ ES       20 4 24.06                             166    -0.710   34 347 
 BRR  HZ IP     D 20 4 11.78                             150     0.110   74 300 
 BRR  HZ I        20 4 12.21       419.8 0.11                            74 300 
 BRR  HE ES       20 4 28.40                             150     0.710   74 300 
 PAM  SZ IP       20 4 12.77                             149     0.210   78  37 
 PAM  SZ I        20 4 13.64        82.6 0.22                            78  37 
 RUS  HZ EP       20 4 13.85                             143    -0.110   98 177 
 RUS  HE ES   1   20 4 31.53                             143    -0.2 7   98 177 
 RUS  HZ I        20 4 33.07       313.3 0.27                            98 177 
 BRI  SZ EP       20 4 14.55                             139     0.110  110  19 
 BRI  SZ ES       20 4 33.42                             139     0.810  110  19 
 BRI  SZ I        20 4 34.94       289.2 0.38                           110  19 
 GRA  SZ EP       20 4 15.76                             135    -0.110  128  16 
 GRA  SZ ES       20 4 34.78                             135    -0.410  128  16 
 GRA  SZ I        20 4 39.28       199.2 0.41                           128  16 
 OCA  SZ EP       20 4 18.47                             127    -0.6 9  163 352 
 OCA  SZ ES   1   20 4 40.21                             127    -0.8 7  163 352 
 OCA  SZ I        20 4 44.61       221.5 0.29                           163 352 
 NOR  SZ EP       20 4 25.79                             117    -0.6 8  235 235 
 NOR  SE ES   1   20 4 53.66                             117    -0.3 6  235 235 
 CHI  HZ EP       20 4 28.01                             116    -0.1 8  247 196 
 CHI  HN ES   1   20 4 57.11                             116     0.0 6  247 196 
 CHI  HZ I        20 5  0.48        64.4 0.40                           247 196 
 ROSC BZ EP       20 4 29.71                             115     1.0 8  252 212 
 ROSC BE ES   1   20 4 58.27                             115     0.3 6  252 212 
 ROSC BZ I        20 5  5.94       158.9 0.49                           252 212 
 VIL  SZ EP   1   20 4 33.12                                    -0.8 5  301 192 
 VIL  SE ES   1   20 5  6.94                                    -0.4 5  301 192 
 VIL  SZ I        20 5 13.39        39.4 0.31                           301 192 
 GUY  SZ EP       20 4 34.26                             111    -0.4 7  304 236 
 GUY  SZ I        20 5 14.98       149.5 0.45                           304 236 
 DBB  SZ EP       20 4 38.38                             108    -0.1 7  342 275 
 TOL  SZ EP       20 4 39.84                             108     0.9 7  343 225 
 ANIL HZ EP   1   20 4 41.38                                     0.8 5  357 225 
 ANIL HN ES   1   20 5 18.69                                    -0.5 5  357 225 
 ANIL HZ I        20 5 25.17       186.4 0.33                           357 225 
 PRA  HZ EP       20 4 43.80                             105    -0.4 6  391 210 
 PRA  HN ES   1   20 5 25.62                             105     0.0 4  391 210 
 PRA  HZ I        20 5 29.52       166.2 0.29                           391 210 
                                                                                
