 2011  6 8 2131 33.8 L   7.413 -73.199131.2  RSN  5 0.1 1.8LRSN                1
 GAP=161        0.41       5.0     4.1  4.0 -0.1383E+02  0.1799E+01  0.1894E+01E
 Epicentro: EL PLAYON - SANTANDER                                              3
 ACTION:UP  11-07-14 19:04 OP:ep   STATUS:               ID:20110608213133 L   I
 2011-06-08-2129-20S.COL___121                                                 6
 STAT SP IPHASW D HRMM SECON CODA AMPLIT PERI AZIMU VELO SNR AR TRES W  DIS CAZ7
 BTL  SZ EP       2131 52.85                             156     0.010   55 188 
 PAM  SZ EP       2131 53.25                             156     0.010   56  98 
 PAM  SN ES   1   2132  8.48                             156     0.1 7   56  98 
 PAM  SZ I        2132  9.47         4.9 0.21                            56  98 
 BRI  SZ EP   1   2131 52.90                             156     0.1 7   56  53 
 BRI  SZ ES   1   2132  7.39                             156    -0.2 7   56  53 
 BRI  SZ I        2132  9.42        13.9 0.22                            56  53 
 BRR  HZ EP       2131 52.93                             152    -0.210   66 239 
 BRR  HZ I        2131 53.04        19.4 0.16                            66 239 
 BRR  HE ES   1   2132  8.29                             152     0.1 7   66 239 
 GRA  SZ EP       2131 53.59                             151     0.110   68  40 
 GRA  SZ ES   1   2132  8.73                             151     0.0 7   68  40 
 GRA  SZ I        2132 10.18        27.3 0.36                            68  40 
                                                                                
