 2016  8 8 2316 57.4 L   6.789 -73.135145.7  RSN  9 0.4 1.7LRSN                1
 GAP=138        0.96       4.2     4.0  5.9 -0.5540E+00  0.7522E+01  0.2897E+01E
 Epicentro: LOS SANTOS - SANTANDER                                             3
 ACTION:UPD 16-10-29 15:34 OP:rebc STATUS:               ID:20160808231657 L   I
 OLDACT:UP  16-08-09 05:05 OP:drio STATUS:               ID:20160808230760d    3
 OLDACT:DUP 16-08-09 04:56 OP:drio STATUS:               ID:20160808230760d    3
 2016-08-08-2307-59S.COL___343                                                 6
 STAT SP IPHASW D HRMM SECON CODA AMPLIT PERI AZIMU VELO AIN AR TRES W  DIS CAZ7
 BAR2 EZ EP       2317 16.90                             171   -0.1010 22.4 194 
 BAR2 EZ ES       2317 32.16                             171   -0.1310 22.4 194 
 BAR2 EZ I        2317 33.09        12.5 0.40                          22.4 194 
 BRR  HZ EP       2317 18.81                             152    0.1710 72.9 299 
 BRR  HE ES       2317 35.77                             152    0.5710 72.9 299 
 PAM  EZ EP       2317 19.82                             151    0.2010 77.6  38 
 PAM  EE ES       2317 36.64                             151   -0.3110 77.6  38 
 PAM  EZ I        2317 38.79        10.1 0.44                          77.6  38 
 RUS  HZ EP       2317 20.91                             144   -0.1410 99.3 177 
 RUS  HN ES       2317 39.66                             144    0.1610 99.3 177 
 RUS  HZ I        2317 40.84         7.4 0.32                          99.3 177 
 PTB  HZ EP       2317 24.06                             132   -0.39 9  149 259 
 PTB  HE ES       2317 44.67                             132   -0.88 9  149 259 
 PTB  HZ I        2317 46.97         6.6 0.16                           149 259 
 SPBC HZ EP       2317 26.46                             129    0.58 9  163 220 
 SPBC HE ES   4   2317 46.77                             129   -1.32 0  163 220 
 SPBC HZ I        2317 50.42        10.3 0.10                           163 220 
 ZAR  HZ EP       2317 29.78                             122   -0.23 8  206 292 
 ZAR  HN ES       2317 55.78                             122    0.34 8  206 292 
 ZAR  HZ I        2318  5.27         5.6 0.30                           206 292 
 NOR  HZ EP       2317 32.98                             118   -0.18 8  235 235 
 NOR  HE ES       2318  1.38                             118    0.33 8  235 235 
 NOR  HZ I        2318  6.63         3.9 0.14                           235 235 
 GUY2CHZ EP   4   2317 42.69                             112    1.65 0  301 235 
 GUY2CHE ES   4   2318 18.02                             112    2.94 0  301 235 
 GUY2CHZ I        2318 23.07         2.0 0.28                           301 235 
                                                                                
