 2013  3 8 2301 30.9 L   6.297 -73.608110.0  RSN  5 0.4 1.6LRSN                1
 GAP=139        0.81       7.0     4.4  9.5  0.1433E+02  0.2180E+02  0.1208E+02E
 Epicentro: SANTA HELENA DEL OPON - SANTANDER                                  3
 ACTION:UPD 13-04-09 14:00 OP:ep   STATUS:               ID:20130308230130 L   I
 2013-03-08-2300-00M.COL___231                                                 6
 STAT SP IPHASW D HRMM SECON CODA AMPLIT PERI AZIMU VELO AIN AR TRES W  DIS CAZ7
 BAR2 SZ EP   1   23 1 47.93                             151    0.13 7 57.3  55 
 BAR2 SZ ES   1   23 2  1.02                             151    0.08 7 57.3  55 
 RUS  HZ EP       23 1 49.23                             144    0.0110 73.3 128 
 RUS  HN ES   1   23 2  3.40                             144   -0.07 7 73.3 128 
 RUS  HZ I        23 2  6.23         4.2 0.38            148           73.3 128 
 PTB  HZ EP   1 C 23 1 49.56                             135   -0.91 7 97.6 286 
 PTB  HN ES   1   23 2  6.04                             135    0.34 7 97.6 286 
 PTB  HZ I        23 2  7.39        10.8 0.13            136           97.6 286 
 ZAR  HZ EP   2   23 1 59.75                             115   -0.17 4  191 314 
 ZAR  HE ES   1   23 2 22.51                             115    0.00 7  191 314 
 ZAR  HZ I        23 2 26.78         6.6 0.33            117            191 314 
 HEL  HZ EP   1   23 2  3.68                             112    0.88 6  213 267 
 HEL  HE ES   1   23 2 27.43                             112   -0.22 6  213 267 
 HEL  HZ I        23 2 31.48         4.1 0.36            114            213 267 
                                                                                
