 2013  7 9 0238  5.0 L   6.790 -73.147140.5  RSN 15 0.4 2.2LRSN                1
 GAP= 66        0.99       2.9     2.9  4.7  0.6353E+00  0.2787E+01  0.4177E+00E
 Epicentro: LOS SANTOS - SANTANDER                                             3
 ACTION:UPD 13-08-12 10:36 OP:ep   STATUS:               ID:20130709023805 L   I
 OLDACT:DUP 13-07-09 08:42 OP:nd   STATUS:               ID:20130709022960d    3
 2013-07-09-0229-59M.COL___266                                                 6
 STAT SP IPHASW D HRMM SECON CODA AMPLIT PERI AZIMU VELO AIN AR TRES W  DIS CAZ7
 BAR2 SZ IP     C  238 23.99                             171   -0.0110 22.2 190 
 BAR2 SZ ES        238 38.54                             171   -0.2610 22.2 190 
 BAR2 SZ I         238 40.00        30.9 0.18            170           22.2 190 
 GIR2 SZ EP     C  238 24.18                             166    0.0710 32.4 351 
 GIR2 SZ ES        238 38.81                             166   -0.1810 32.4 351 
 GIR2 SZ I         238 40.46        16.7 0.10            166           32.4 351 
 BRR  HZ EP        238 25.83                             151    0.1910 71.7 299 
 BRR  HN ES        238 42.79                             151    1.0810 71.7 299 
 BRR  HZ I         238 45.96        30.5 0.30            150           71.7 299 
 PAM  SZ IP     C  238 27.03                             149    0.2810 78.3  39 
 PAM  SN ES        238 43.72                             149    0.0410 78.3  39 
 PAM  SZ I         238 46.25        28.1 0.50            151           78.3  39 
 RUS  HZ EP        238 28.29                             143    0.1110 99.4 176 
 RUS  HN ES        238 46.05                             143   -0.1910 99.4 176 
 RUS  HZ I         238 47.18        20.5 0.24            144           99.4 176 
 PTB  HZ EP        238 31.07                             131   -0.47 9  147 259 
 PTB  HN ES        238 51.72                             131   -0.50 9  147 259 
 PTB  HZ I         238 54.51        26.7 0.12            130            147 259 
 TAM  HZ IP     D  238 32.40                             129    0.12 9  155 105 
 TAM  HN ES        238 53.32                             129   -0.21 9  155 105 
 TAM  HZ I         238 54.42        16.2 0.48            131            155 105 
 OCA  HZ EP        238 33.79                             128    0.75 9  161 353 
 OCA  HN ES        238 54.16                             128   -0.73 9  161 353 
 OCA  HZ I         238 57.46        40.6 0.30            128            161 353 
 YOP  SZ EP   3    238 34.80                             125    0.20 2  178 153 
 YOP  SN ES   3    238 58.59                             125    0.93 2  178 153 
 YOP  SZ I         239  0.78        18.5 0.30            126            178 153 
 ZAR  HZ EP        238 37.02                             121   -0.15 9  204 292 
 ZAR  HE ES        239  2.72                             121    0.48 9  204 292 
 ZAR  HZ I         239  8.18        26.8 0.32            121            204 292 
 SML  HZ EP        238 41.05                             116   -0.43 8  245 335 
 SML  HN ES        239  9.40                             116   -0.50 8  245 335 
 SML  HZ I         239 17.72        20.9 0.10            116            245 335 
 CHI  HZ EP   4    238 42.32                             116    0.00 0  247 195 
 CHI  HN ES   4    239 10.82                             116   -0.58 0  247 195 
 CHI  HZ I         239 14.60         4.8 0.34            117            247 195 
 HEL  HZ EP   2    238 45.32                             114    0.38 4  272 256 
 HEL  HN ES        239 15.93                             114   -0.13 8  272 256 
 HEL  HZ I         239 23.12         8.2 0.46            114            272 256 
 GUY2CHZ EP   4    238 49.86                             111    1.55 0  300 235 
 GUY2CHN ES   4    239 22.81                             111    0.74 0  300 235 
 GUY2CHZ I         239 30.01         4.2 0.38                           300 235 
 PRA  HZ EP        238 58.53                             106    0.28 6  391 210 
 PRA  HN ES        239 39.72                             106   -0.04 6  391 210 
 PRA  HZ I         239 42.80         3.6 0.22            106            391 210 
                                                                                
