 2015  5 9 0113 51.6 L   6.801 -73.142148.9  RSN 15 0.4 2.5LRSN                1
 GAP=137        0.92       2.3     3.5  5.1 -0.1884E+01  0.5831E+01  0.1453E+01E
 Epicentro: LOS SANTOS - SANTANDER                                             3
 ACTION:UPD 15-09-10 22:02 OP:cam  STATUS:               ID:20150509011351 L   I
 OLDACT:UP  15-05-09 14:07 OP:drio STATUS:               ID:20150509010750     3
 OLDACT:REG 15-05-09 12:08 OP:drio STATUS:               ID:20150509010750     3
 2015-05-09-0107-50M.COL___284                                                 6
 STAT SP IPHASW D HRMM SECON CODA AMPLIT PERI AZIMU VELO AIN AR TRES W  DIS CAZ7
 BRR  HZ EP     C  114 13.38                             153    0.2510 71.5 298 
 BRR  HN ES        114 30.36                             153    0.4610 71.5 298 
 BRR  HZ I         114 33.22        47.6 0.28            148           71.5 298 
 PAM  SZ EP        114 14.36                             151    0.2110 77.0  39 
 PAM  SN ES        114 31.50                             151   -0.2210 77.0  39 
 PAM  SZ I         114 33.44        70.6 0.60            158           77.0  39 
 RUS  HZ EP        114 15.58                             144   -0.1110  101 176 
 RUS  HN ES        114 34.09                             144   -0.3710  101 176 
 RUS  HZ I         114 34.79        18.6 0.22            147            101 176 
 OCA  HZ EP        114 19.99                             130   -0.18 9  160 353 
 OCA  HN ES        114 42.51                             130    0.08 9  160 353 
 OCA  HZ I         114 48.69        79.2 0.46            132            160 353 
 SPBC HZ EP        114 20.63                             130    0.23 9  164 219 
 SPBC HN ES        114 42.31                             130   -0.53 9  164 219 
 SPBC HZ I         114 50.13        27.3 0.30            130            164 219 
 ZAR  HZ EP        114 24.54                             123    0.23 9  204 292 
 ZAR  HN ES        114 50.50                             123    0.70 9  204 292 
 ZAR  HZ I         114 56.21        25.8 0.46            123            204 292 
 NOR  HZ EP        114 27.40                             119   -0.18 8  235 234 
 NOR  HN ES        114 55.07                             119   -0.55 8  235 234 
 NOR  HZ I         115  2.34        16.5 0.14            120            235 234 
 SML  HZ EP        114 27.94                             118   -0.49 8  244 335 
 SML  HN ES        114 56.65                             118   -0.49 8  244 335 
 SML  HZ I         115  3.85        40.0 0.10            119            244 335 
 CHI  HZ EP        114 30.02                             118    0.50 8  249 195 
 CHI  HN ES        115  0.06                             118    0.98 8  249 195 
 CHI  HZ I         115  5.34        10.3 0.34            120            249 195 
 HEL  HZ EP        114 31.99                             115   -0.05 8  273 256 
 HEL  HN ES        115  3.30                             115   -0.27 8  273 256 
 HEL  HZ I         115 10.40        11.4 0.46            116            273 256 
 GUY2CHZ EP        114 35.55                             113    0.13 7  302 235 
 GUY2CHN ES        115  9.41                             113   -0.18 7  302 235 
 GUY2CHZ I         115 15.73        11.0 0.32                           302 235 
 RREF HZ EP        114 38.05                             111    0.10 7  322 229 
 RREF HN ES        115 14.22                             111    0.14 7  322 229 
 RREF HZ I         115 23.12         5.0 0.34            112            322 229 
 CBOC HZ EP        114 39.21                             110    0.49 7  334 252 
 CBOC HN ES        115 15.01                             110   -0.44 7  334 252 
 CBOC HZ I         115 44.20        19.9 0.10            111            334 252 
 MON  HZ EP   4    114 39.06                             109   -1.71 0  354 308 
 MON  HN ES   4    115 17.92                             109   -1.19 0  354 308 
 ANIL HZ EP        114 40.68                             109   -0.91 6  358 225 
 ANIL HN ES        115 20.70                             109    0.13 6  358 225 
 ANIL HZ I         115 26.79        21.6 0.30            110            358 225 
 SJC  HZ EP   4    114 45.69                             106   -1.61 0  409 327 
 SJC  HN ES   4    115 29.69                             106   -1.04 0  409 327 
 SJC  HZ I         115 31.51         8.5 0.46            108            409 327 
                                                                                
