 2010  4 9 0606 13.8 L   6.811 -73.071150.9  RSN 12 0.5 3.6LRSN                1
 GAP=147        1.05       4.0     5.9  5.8 -0.8605E+01  0.2136E+01  0.6285E+01E
 Epicentro: LOS SANTOS - SANTANDER                                             3
 ACTION:UPD 10-08-24 09:58 OP:vdl  STATUS:               ID:20100409060613 L   I
 2010-04-09-0604-39S.COL___097                                                 6
 STAT SP IPHASW D HRMM SECON CODA AMPLIT PERI AZIMU VELO AIN AR TRES W  DIS CAZ7
 BAR2 SZ IP        6 6 34.04                             169    -0.110   27 207 
 BAR2 SZ ES        6 6 49.75                             169    -0.210   27 207 
 BRR  HZ IP     D  6 6 36.22                             151     0.310   78 295 
 BRR  HN ES        6 6 53.70                             151     0.610   78 295 
 BRR  HZ I         6 6 55.54       263.1 0.15                            78 295 
 OCA  SZ EP        6 6 42.36                             131    -0.2 9  160 350 
 OCA  SZ ES   1    6 7  4.44                             131    -0.5 7  160 350 
 OCA  SZ I         6 7 10.38       304.9 0.16                           160 350 
 CHI  HZ EP        6 6 52.17                             118     0.0 8  252 197 
 CHI  HE ES        6 7 21.54                             118    -0.5 8  252 197 
 CHI  HZ I         6 7 27.25        69.5 0.33                           252 197 
 ROSC BZ EP        6 6 53.66                             117     0.9 8  258 212 
 HEL  HZ EP        6 6 55.36                             115     0.2 7  280 256 
 HEL  HN ES   2    6 7 26.63                             115    -0.9 4  280 256 
 HEL  HZ I         6 7 32.76      2089.7 0.15                           280 256 
 RREF BZ EP        6 7  0.97                             111     0.0 7  329 230 
 RREF BN ES        6 7 37.54                             111    -0.2 7  329 230 
 RREF BZ I         6 7 45.87       124.6 0.42                           329 230 
 DBB  SZ EP        6 7  1.75                             110    -0.7 6  348 274 
 DBB  SZ ES   1    6 7 39.51                             110    -0.8 5  348 274 
 TOL  SZ EP        6 7  3.34                             110     0.3 6  350 225 
 TOL  SZ ES        6 7 41.13                             110    -0.3 6  350 225 
 SDV  BZ EP        6 7  3.19                             110     0.0 6  353  49 
 SDV  BZ I         6 7  4.32        95.2 0.13                           353  49 
 ANIL BZ EP        6 7  5.25                             109     0.7 6  364 225 
 ANIL BN ES        6 7 44.98                             109     0.8 6  364 225 
 ANIL BZ I         6 7 50.90       206.4 0.32                           364 225 
 PRA  HZ EP        6 7  7.67                             107    -0.4 6  397 211 
 PRA  HN ES        6 7 50.09                             107    -0.4 6  397 211 
 PRA  HZ I         6 7 55.58        97.3 0.44                           397 211 
                                                                                
