 2010  3 9 0519 16.4 L   6.798 -73.081145.6  RSN 11 0.4 3.0LRSN                1
 GAP=131        0.89       3.5     6.2  5.6 -0.1542E+01 -0.9988E+00  0.1478E+01E
 Epicentro: LOS SANTOS - SANTANDER                                             3
 ACTION:UP  10-08-24 09:52 OP:vdl  STATUS:               ID:20100309051916 L   I
 2010-03-09-0515-25S.COL___101                                                 6
 STAT SP IPHASW D HRMM SECON CODA AMPLIT PERI AZIMU VELO SNR AR TRES W  DIS CAZ7
 BAR2 SZ IP        519 36.16                             170     0.110   26 206 
 BAR2 SZ ES   1    519 50.49                             170    -0.9 7   26 206 
 BRR  HZ IP        519 37.91                             150     0.010   78 296 
 BRR  HZ I         519 38.37       213.9 0.10                            78 296 
 BRR  HE ES        519 54.80                             150     0.110   78 296 
 RUS  BZ EP        519 40.29                             144     0.210  100 180 
 RUS  BE ES   1    519 58.79                             144     0.2 7  100 180 
 RUS  BZ I         520  0.80       100.1 0.28                           100 180 
 OCA  SZ IP        519 44.36                             129    -0.4 9  161 351 
 OCA  SZ ES   1    520  7.77                             129     0.8 7  161 351 
 OCA  SZ I         520 10.72       169.6 0.16                           161 351 
 CHI  HZ EP   1    519 54.62                             117     0.3 6  250 197 
 CHI  HE ES   1    520 24.14                             117     0.3 6  250 197 
 CHI  HZ I         520 30.34        34.8 0.62                           250 197 
 HEL  HZ EP   1    519 57.53                             114     0.2 6  279 256 
 HEL  HE ES   3    520 28.97                             114    -0.3 2  279 256 
 HEL  HZ I         520 34.83        41.5 0.47                           279 256 
 RREF BZ EP   2    520  3.35                             110     0.2 3  327 230 
 RREF BE ES   2    520 39.56                             110     0.0 3  327 230 
 RREF BZ I         520 48.05        42.5 0.26                           327 230 
 DBB  SZ EP        520  4.14                             109    -0.5 6  347 274 
 SDV  BZ EP        520  5.63                             108    -0.2 6  355  49 
 SDV  BZ I         520  6.47        26.8 0.10                           355  49 
 ANIL BZ EP   2    520  7.60                             108     0.8 3  362 225 
 PRA  HZ EP        520  9.90                             106    -0.4 6  395 210 
 PRA  HN ES   2    520 51.56                             106    -0.8 3  395 210 
 PRA  HZ I         520 59.97        43.7 0.40                           395 210 
                                                                                
