 2014  9 9 0218 11.6 L   6.936 -73.337123.1  RSN  8 0.5 1.6LRSN                1
 GAP= 98        1.35       4.1     4.8  8.3 -0.1678E+01  0.9305E+01 -0.1271E+01E
 Epicentro: BETULIA - SANTANDER                                                3
 ACTION:UPD 14-10-03 23:03 OP:nd   STATUS:               ID:20140909021811 L   I
 OLDACT:DUP 14-09-09 14:15 OP:carl STATUS:               ID:20140909020819d    3
 2014-09-09-0208-18M.COL___263                                                 6
 STAT SP IPHASW D HRMM SECON CODA AMPLIT PERI AZIMU VELO AIN AR TRES W  DIS CAZ7
 BAR2 SZ EP        218 29.29                             160    0.1810 41.7 156 
 BAR2 SZ ES        218 42.71                             160   -0.0610 41.7 156 
 BAR2 SZ I         218 43.79        18.3 0.26            161           41.7 156 
 BRR  HZ EP        218 29.44                             158    0.5110 45.6 295 
 BRR  HN ES        218 43.32                             158    0.8710 45.6 295 
 PAM  SZ EP        218 31.98                             144    0.1110 83.3  58 
 PAM  SN ES        218 47.84                             144    0.1510 83.3  58 
 PAM  SZ I         218 48.80         6.9 0.26            149           83.3  58 
 RUS  HZ EP        218 34.99                             133    0.2510  119 166 
 RUS  HE ES        218 52.27                             133   -0.5210  119 166 
 RUS  HZ I         218 56.54         2.0 0.40            135            119 166 
 PTB  HZ EP        218 34.85                             130   -0.3910  131 251 
 PTB  HN ES        218 52.63                             130   -1.0510  131 251 
 PTB  HZ I         218 57.75         7.1 0.16            130            131 251 
 OCA  HZ EP        218 36.18                             127   -0.47 9  144   1 
 OCA  HN ES        218 55.27                             127   -0.92 9  144   1 
 OCA  HZ I         218 56.55        10.9 0.30            130            144   1 
 SPBC HZ EP        218 38.91                             123    0.40 9  164 210 
 SPBC HN ES        218 59.45                             123   -0.05 9  164 210 
 SPBC HZ I         219  4.77         5.7 0.36            124            164 210 
 ZAR  HZ EP        218 40.59                             121    0.60 9  179 290 
 ZAR  HN ES        219  2.46                             121    0.33 9  179 290 
 ZAR  HZ I         219  7.80         4.4 0.50            121            179 290 
                                                                                
