 2013  3 9 0616 12.4 L   7.464 -73.422115.1  RSN 18 0.6 3.1LRSN 3.3WRSN        1
 SPEC AVERAGE  MO 14.0 ST 17.7 OM  2.5 f0 4.40 R0.3703 AL 2.56 WI 24.7 MW  3.3 3
 SPEC SD       MO  0.2 ST 17.5 OM  0.5 f0 1.42 R0.1152 AL      WI      MW  0.1 3
 GAP= 55        1.42       3.4     3.8  6.5  0.2618E+00  0.2781E+01  0.2695E+00E
 Epicentro: SABANA DE TORRES - SANTANDER                                       3
 SPEC ZAR HH N MO 14.3 ST 57.2 OM  2.6 f0 5.97 R0.2462 AL 3.46 WI 21.1 MW  3.5 3
 SPEC ZAR HH N T 61659 K 0.000 GD  196 VS 4.20 DE 3.20 Q0300.0 QA 0.60 VS 4.20 3
 SPEC RUS HH E MO 13.6 ST  1.7 OM  1.9 f0 3.06 R0.4804 AL 1.94 WI 16.9 MW  3.0 3
 SPEC RUS HH E T 617 1 K 0.000 GD  211 VS 4.20 DE 3.20 Q0300.0 QA 0.60 VS 4.20 3
 SPEC PTB HH E MO 14.0 ST 11.3 OM  2.3 f0 4.41 R0.3333 AL 1.64 WI 26.4 MW  3.3 3
 SPEC PTB HH E T 61655 K 0.000 GD  191 VS 4.20 DE 3.20 Q0300.0 QA 0.60 VS 4.20 3
 SPEC HEL HH N MO 13.8 ST  5.4 OM  1.9 f0 4.06 R0.3621 AL 2.28 WI 34.8 MW  3.1 3
 SPEC HEL HH N T 61721 K 0.000 GD  295 VS 4.20 DE 3.20 Q0300.0 QA 0.60 VS 4.20 3
 SPEC OCA HH N MO 14.4 ST 16.2 OM  2.8 f0 3.73 R0.3941 AL 2.59 WI 33.6 MW  3.5 3
 SPEC OCA HH N T 61646 K 0.000 GD  143 VS 4.20 DE 3.20 Q0300.0 QA 0.60 VS 4.20 3
 SPEC PAM SH N MO 14.1 ST  4.0 OM  2.6 f0 2.76 R0.5326 AL 2.92 WI 23.4 MW  3.4 3
 SPEC PAM SH N T 61647 K 0.000 GD  140 VS 4.20 DE 3.20 Q0300.0 QA 0.60 VS 4.20 3
 SPEC CHI HH N MO 13.9 ST  2.5 OM  2.0 f0 2.80 R0.5250 AL 1.66 WI 38.8 MW  3.2 3
 SPEC CHI HH N T 61729 K 0.000 GD  335 VS 4.20 DE 3.20 Q0300.0 QA 0.60 VS 4.20 3
 SPEC BAR2SH Z MO 13.9 ST 29.1 OM  2.3 f0 6.53 R0.2251 AL 3.33 WI 15.0 MW  3.2 3
 SPEC BAR2SH Z T 61647 K 0.000 GD  152 VS 4.20 DE 3.20 Q0300.0 QA 0.60 VS 4.20 3
 SPEC BRR HH Z MO 14.0 ST 31.8 OM  1.7 f0 6.28 R0.2341 AL 3.24 WI 12.4 MW  3.3 3
 SPEC BRR HH Z T 61629 K 0.000 GD  125 VP 7.60 DE 3.20 Q0300.0 QA 0.60 VS 4.20 3
 ACTION:UPD 13-04-09 14:01 OP:ep   STATUS:               ID:20130309061612 L   I
 2013-03-09-0608-50M.COL___198                                                 6
 STAT SP IPHASW D HRMM SECON CODA AMPLIT PERI AZIMU VELO AIN AR TRES W  DIS CAZ7
 BRR  HZ IP     D  616 29.17                             155    0.0810 50.8 219 
 BRR  HE ES        616 42.43                             155    0.3210 50.8 219 
 PAM  SZ IP     D  616 32.13                             143    0.4110 80.9 100 
 PAM  SE ES        616 46.96                             143    0.1810 80.9 100 
 PAM  SN I         616 48.02       370.4 0.28            138           80.9 100 
 OCA  HZ EP        616 31.68                             140    0.0110 86.5   7 
 OCA  HN ES        616 46.74                             140    0.0510 86.5   7 
 OCA  HN I         616 47.36       531.9 0.20            135           86.5   7 
 BAR2 SZ IP        616 32.90                             136    0.0210 99.9 165 
 BAR2 SZ ES        616 48.23                             136   -0.6210 99.9 165 
 BAR2 SZ I         616 49.47       382.3 0.14            127           99.9 165 
 CAPV BZ EP        616 36.17                             128    0.5810  130  70 
 PTB  HZ IP     D  616 37.05                             123   -0.58 9  153 228 
 PTB  HN ES        616 56.18                             123   -1.13 9  153 228 
 PTB  HE I         617  1.72       149.3 0.32            113            153 228 
 ZAR  HZ IP     C  616 38.36                             122    0.20 9  159 271 
 ZAR  HE ES        616 59.57                             122    1.32 9  159 271 
 ZAR  HN I         617  3.18       244.0 0.16            113            159 271 
 SML  HZ EP        616 38.11                             121   -0.64 9  164 334 
 RUS  HZ EP        616 39.88                             119   -0.93 9  178 168 
 RUS  HE ES        617  2.07                             119   -0.89 9  178 168 
 TAM  HZ IP     C  616 44.09                             114   -0.01 8  213 122 
 TAM  HN ES        617  8.80                             114   -0.03 8  213 122 
 HEL  HZ EP        616 51.54                             108    0.28 8  272 239 
 HEL  HN I         617 29.33        38.7 0.24            103            272 239 
 COD  HZ EP        616 51.14                             107    0.21 8  273 359 
 DBB  SZ EP        616 54.92                             105   -0.63 7  312 261 
 CHI  HZ EP        616 57.23                             105    0.86 7  315 186 
 CHI  HE ES        617 31.64                             105    0.98 7  315 186 
 CHI  HN I         617 37.10        42.0 0.48            101            315 186 
 SJC  HE EP        616 57.13                             104   -0.71 7  331 324 
 SDV  BZ IP     C  616 59.55                             103   -0.10 7  345  63 
 VIL  SZ EP        617  3.11                             102    0.37 6  372 185 
 VIL  SE ES        617 43.14                             102    1.14 6  372 185 
 VIL  SN I         617 50.12        77.7 0.44             99            372 185 
 PRA  HZ EP        617 12.00                              99    0.56 5  445 201 
 PRA  HN I         618  8.93        14.3 0.42                           445 201 
 PRA  HN E         618  9.52                                            445 201 
                                                                                
