 2015  7 9 0443 14.8 L   6.807 -73.096141.9  RSN  9 0.4 1.8LRSN                1
 GAP=188        0.77       2.7     4.8  6.5  0.1546E+01  0.1382E+02  0.2356E+01E
 Epicentro: LOS SANTOS - SANTANDER                                             3
 ACTION:UPD 15-09-08 21:47 OP:cam  STATUS:               ID:20150709044314 L   I
 OLDACT:REG 15-07-09 13:09 OP:spq  STATUS:               ID:20150709043748     3
 2015-07-09-0437-48M.COL___343                                                 6
 STAT SP IPHASW D HRMM SECON CODA AMPLIT PERI AZIMU VELO AIN AR TRES W  DIS CAZ7
 BAR2 EZ EP        443 33.95                             169   -0.0210 25.6 202 
 BAR2 EZ ES   1    443 49.24                             169    0.28 7 25.6 202 
 BAR2 EZ I         443 51.77        11.2 0.28            167           25.6 202 
 RUS  HZ EP        443 37.89                             143   -0.2810  101 179 
 RUS  HN ES   1    443 56.77                             143    0.34 7  101 179 
 RUS  HZ I         443 57.51         3.2 0.39            145            101 179 
 OCA  HZ EP   1    443 42.76                             129   -0.01 7  160 351 
 OCA  HE ES        444  4.20                             129   -0.41 9  160 351 
 OCA  HZ I         444  9.72        18.0 0.24            130            160 351 
 ZAR  HZ EP   1    443 48.03                             121    0.58 6  209 291 
 ZAR  HE ES        444 12.80                             121   -0.15 8  209 291 
 ZAR  HZ I         444 18.04         7.9 0.36            121            209 291 
 SML  HZ EP   4    443 50.25                             116   -1.10 0  245 334 
 SML  HE ES   1    444 19.76                             116   -0.12 6  245 334 
 SML  HZ I         444 28.68        11.3 0.10            117            245 334 
 CHI  HN ES   1    444 21.36                             116   -0.56 6  251 196 
 CHI  HZ I         444 31.19         3.0 0.42            118            251 196 
 HEL  HZ EP        443 56.15                             113    0.76 7  278 256 
 HEL  HE ES   1    444 26.88                             113   -0.20 6  278 256 
 HEL  HZ I         444 35.13         3.0 0.26            114            278 256 
 GUY2CHZ EP        443 59.29                             111    0.54 7  306 235 
 GUY2CHN ES   1    444 32.82                             111   -0.24 5  306 235 
 GUY2CHZ I         444 42.69         3.9 0.58                           306 235 
 PRA  HZ EP        444  8.58                             106    0.03 6  395 210 
 PRA  HE ES   1    444 49.62                             106   -0.88 4  395 210 
 PRA  HZ I         444 53.76         2.7 0.38            107            395 210 
                                                                                
