 2012 12 9 0652 46.8 L   6.294 -73.449 31.1  RSN  5 0.3 1.2LRSN                1
 GAP=130        0.62       3.2     5.5  8.2 -0.9959E-01  0.4028E+02  0.1904E+00E
 Epicentro: CONTRATACION - SANTANDER                                           3
 ACTION:UPD 13-01-04 14:26 OP:ep   STATUS:               ID:20121209065246 L   I
 2012-12-09-0650-00M.COL___243                                                 6
 STAT SP IPHASW D HRMM SECON CODA AMPLIT PERI AZIMU VELO AIN AR TRES W  DIS CAZ7
 BAR2 SZ EP        652 55.25                             119   -0.2610 44.2  42 
 BAR2 SZ ES   1    653  2.49                             119    0.17 7 44.2  42 
 BAR2 SZ I         653  3.18        14.5 0.38                          44.2  42 
 RUS  HZ EP   1    652 58.27                             110    0.43 7 60.0 138 
 RUS  HN ES   2    653  5.99                             110   -0.48 5 60.0 138 
 RUS  HZ I         653  7.66         4.7 0.10                          60.0 138 
 GIR2 SZ EP   1    653  1.49                              61    0.09 7 91.3  18 
 PTB  HZ EP   1    653  4.39                              61    0.21 7  115 284 
 PTB  HE ES   1    653 17.39                              61   -0.36 7  115 284 
 PTB  HZ I         653 17.73        10.9 0.14                           115 284 
 HEL  HE ES   2    653 44.75                              61    0.49 4  230 267 
                                                                                
