 2016  9 9 0151 44.5 L   6.814 -73.129148.4  RSN 16 0.5 2.0LRSN                1
 GAP=102        1.06       3.4     3.7  5.2 -0.1357E+01  0.1708E+01  0.1785E+01E
 Epicentro: LOS SANTOS - SANTANDER                                             3
 ACTION:UPD 17-08-17 21:08 OP:lp   STATUS:               ID:20160909015144 L   I
 OLDACT:UP  16-09-09 14:18 OP:dani STATUS:               ID:20160909014737     3
 OLDACT:UP  16-09-09 14:18 OP:dani STATUS:               ID:20160909014737     3
 OLDACT:UP  16-09-09 14:15 OP:dani STATUS:               ID:20160909014737     3
 OLDACT:REG 16-09-09 12:22 OP:dani STATUS:               ID:20160909014737     3
 2016-09-09-0148-00M.COL___362                                                 6
 STAT SP IPHASW D HRMM SECON CODA AMPLIT PERI AZIMU VELO AIN AR TRES W  DIS CAZ7
 BAR2 EZ EP        152  4.59                             170    0.0610 25.2 193 
 BAR2 EZ ES        152 19.47                             170   -0.6510 25.2 193 
 BAR2 EZ I         152 20.27        16.5 0.19            168           25.2 193 
 BAR2 EZ I         152 21.66        21.2 0.18                          25.2 193 
 BRR  HZ EP     D  152  6.33                             153    0.3010 72.1 297 
 BRR  HE ES        152 23.39                             153    0.6010 72.1 297 
 BRR  HZ I         152 26.11        17.8 0.14            151           72.1 297 
 PAM  EZ EP        152  7.46                             152    0.5510 75.1  39 
 PAM  EE ES        152 24.43                             152    0.0810 75.1  39 
 PAM  EZ I         152 26.60        26.5 0.62            155           75.1  39 
 RUS  HZ EP        152  8.56                             144   -0.0910  102 177 
 RUS  HN ES        152 27.36                             144   -0.1010  102 177 
 RUS  HZ I         152 28.46         6.4 0.18            144            102 177 
 PTB  HZ EP        152 11.44                             132   -0.48 9  150 258 
 PTB  HE ES        152 32.92                             132   -0.34 9  150 258 
 PTB  HZ I         152 35.95        12.5 0.42            131            150 258 
 OCA  HE ES        152 34.61                             130   -0.48 9  159 352 
 SPBC HZ EP        152 13.63                             129    0.17 9  165 219 
 SPBC HE ES        152 36.55                             129    0.53 9  165 219 
 SPBC HZ I         152 40.07        14.9 0.76            128            165 219 
 ZAR  HZ EP   4    152 18.88                             123    1.60 0  205 292 
 ZAR  HN ES        152 42.80                             123   -0.01 9  205 292 
 ZAR  HZ I         152 49.35        15.1 0.34            122            205 292 
 NOR  HZ EP        152 21.10                             119    0.42 8  237 234 
 NOR  HE ES   2    152 49.12                             119    0.26 4  237 234 
 NOR  HZ I         152 52.73         8.6 0.31            118            237 234 
 CHI  HZ EP        152 22.70                             117    0.10 8  251 195 
 CHI  HE ES   4    152 53.63                             117    1.35 0  251 195 
 CHI  HZ I         152 59.75         3.5 0.27            117            251 195 
 HEL  HZ EP   4    152 26.84                             115    1.71 0  274 256 
 HEL  HN ES        152 56.05                             115   -0.73 8  274 256 
 HEL  HZ I         153  3.00         4.9 0.32            115            274 256 
 URE  HZ EP        152 26.72                             114    0.85 7  285 291 
 URE  HE ES   4    152 56.22                             114   -1.88 0  285 291 
 URE  HZ I         152 59.14         7.9 0.19            114            285 291 
 SOCV BZ EP        152 27.43                             113   -0.02 7  299  57 
 SOCV BN ES   4    152 59.63                             113   -1.29 0  299  57 
 GUY2CHZ EP   4    152 30.20                             113    1.66 0  304 235 
 GUY2CHN ES   4    153  6.86                             113    4.00 0  304 235 
 GUY2CHZ I         153 10.97         4.9 0.30                           304 235 
 PTGC HZ EP        152 27.97                             112   -0.63 7  309 159 
 PTGC HN ES   4    153  1.75                             112   -1.22 0  309 159 
 PTGC HZ I         153  3.83         4.7 0.35            113            309 159 
 SJC  HZ EP        152 39.17                             106   -1.00 6  409 327 
 SJC  HE ES   4    153 21.24                             106   -2.31 0  409 327 
 SJC  HZ I         153 27.07         1.7 0.42            106            409 327 
                                                                                
