 2017  4 9 0526 34.1 L   6.793 -73.145144.5  RSN 11 0.4 1.6LRSN                1
 GAP=120        0.79       3.2     3.4  5.1 -0.2850E+00  0.8097E+01  0.4753E-01E
 Epicentro: LOS SANTOS - SANTANDER                                             3
 ACTION:UPD 17-05-30 21:09 OP:jn   STATUS:               ID:20170409052634 L   I
 OLDACT:UP  17-04-09 15:37 OP:and  STATUS:               ID:20170409051751d    3
 OLDACT:UP  17-04-09 15:37 OP:and  STATUS:               ID:20170409051751d    3
 OLDACT:UP  17-04-09 15:36 OP:and  STATUS:               ID:20170409051751d    3
 OLDACT:UP  17-04-09 15:35 OP:and  STATUS:               ID:20170409051751d    3
 OLDACT:UP  17-04-09 15:34 OP:and  STATUS:               ID:20170409051751d    3
 OLDACT:DUP 17-04-09 15:32 OP:and  STATUS:               ID:20170409051751d    3
 OLDACT:UP  17-04-09 15:32 OP:and  STATUS:               ID:20170409051750d    3
 OLDACT:UP  17-04-09 15:31 OP:and  STATUS:               ID:20170409051750d    3
 OLDACT:UP  17-04-09 15:31 OP:and  STATUS:               ID:20170409051750d    3
 OLDACT:UP  17-04-09 15:28 OP:and  STATUS:               ID:20170409051750d    3
 OLDACT:UP  17-04-09 15:28 OP:and  STATUS:               ID:20170409051750d    3
 OLDACT:UP  17-04-09 15:28 OP:and  STATUS:               ID:20170409051750d    3
 OLDACT:UP  17-04-09 15:26 OP:and  STATUS:               ID:20170409051750d    3
 OLDACT:DUP 17-04-09 15:23 OP:and  STATUS:               ID:20170409051750d    3
 OLDACT:UP  17-04-09 15:22 OP:and  STATUS:               ID:20170409051749     3
 OLDACT:UP  17-04-09 15:21 OP:and  STATUS:               ID:20170409051749     3
 OLDACT:UP  17-04-09 15:21 OP:and  STATUS:               ID:20170409051749     3
 OLDACT:UP  17-04-09 15:20 OP:and  STATUS:               ID:20170409051749     3
 OLDACT:UP  17-04-09 15:19 OP:and  STATUS:               ID:20170409051749     3
 OLDACT:UP  17-04-09 15:18 OP:and  STATUS:               ID:20170409051749     3
 OLDACT:REG 17-04-09 12:50 OP:and  STATUS:               ID:20170409051749     3
 2017-04-09-0518-00M.COL___361                                                 6
 STAT SP IPHASW D HRMM SECON CODA AMPLIT PERI AZIMU VELO AIN AR TRES W  DIS CAZ7
 BAR2 EZ IP     D  526 53.51                             171   -0.0410 22.5 191 
 BAR2 EZ ES        527  8.97                             171    0.2410 22.5 191 
 BAR2 EZ I         527 10.54         7.3 0.22            169           22.5 191 
 PAM  EZ IP     D  526 56.37                             150    0.1610 77.9  39 
 PAM  EN ES        527 13.39                             150   -0.0610 77.9  39 
 PAM  EZ I         527 16.10         4.9 0.38            154           77.9  39 
 RUS  HZ EP        526 57.49                             144   -0.1710 99.8 176 
 RUS  HN ES        527 15.84                             144   -0.2010 99.8 176 
 RUS  HZ I         527 17.43         3.0 0.26            146           99.8 176 
 PTB  HZ EP        527  0.53                             132   -0.42 9  148 259 
 PTB  HE ES        527 21.43                             132   -0.47 9  148 259 
 PTB  HZ I         527 23.59         5.2 0.14            131            148 259 
 ZAR  HZ EP        527  6.58                             122    0.08 9  204 292 
 ZAR  HN ES        527 32.15                             122    0.38 9  204 292 
 ZAR  HZ I         527 37.58         7.1 0.28            122            204 292 
 NOR  HZ EP        527 10.08                             118    0.37 8  234 235 
 NOR  HN ES   2    527 38.10                             118    0.62 4  234 235 
 NOR  HZ I         527 39.29         3.6 0.20            118            234 235 
 CHI  HZ EP   3    527 10.29                             117   -1.35 2  248 195 
 CHI  HN ES        527 41.25                             117    0.33 8  248 195 
 CHI  HZ I         527 48.87         1.4 0.44            118            248 195 
 HEL  HZ EP        527 15.04                             114    0.81 8  272 256 
 HEL  HN ES   4    527 50.28                             114    4.75 0  272 256 
 HEL  HZ I         527 53.81         2.9 0.40            115            272 256 
 URE  HZ EP        527 14.68                             113   -0.47 7  284 292 
 URE  HN ES   4    527 50.69                             113    3.53 0  284 292 
 URE  HZ I         527 59.79         3.1 0.16            113            284 292 
 PTGC HZ EP   2    527 17.53                             111   -0.28 4  308 159 
 CBOC HZ EP   3    527 22.37                             109    1.43 2  333 252 
 CBOC HN ES        527 57.02                             109   -0.45 7  333 252 
                                                                                
