 2014  7 9 0131 27.5 L   6.798 -73.126144.1  RSN  7 0.3 3.0LRSN                1
 GAP=100        0.74       3.7     3.6  4.8 -0.1787E+01 -0.4322E+01  0.2081E+01E
 Epicentro: LOS SANTOS - SANTANDER                                             3
 ACTION:UPD 15-03-16 20:42 OP:nd   STATUS:               ID:20140709013127 L   I
 OLDACT:DUP 14-07-09 15:50 OP:stll STATUS:               ID:20140709012819d    3
 2014-07-09-0128-17M.COL___264                                                 6
 STAT SP IPHASW D HRMM SECON CODA AMPLIT PERI AZIMU VELO AIN AR TRES W  DIS CAZ7
 BAR2 SZ EP        131 47.01                             170    0.1010 23.6 195 
 BAR2 SZ ES        132  2.01                             170   -0.0510 23.6 195 
 BAR2 SZ I         132  4.77       351.7 0.38            166           23.6 195 
 BRR  HE ES        132  4.78                             151   -0.2210 73.3 298 
 PAM  SZ IP     C  131 49.81                             151    0.3710 76.2  38 
 PAM  SE ES        132  6.68                             151    0.1110 76.2  38 
 PAM  SZ I         132  7.71       193.2 0.50            138           76.2  38 
 RUS  HZ EP        131 50.94                             143   -0.0910  100 177 
 RUS  HN ES        132  9.32                             143   -0.0910  100 177 
 RUS  HZ I         132 10.92       148.6 0.34            131            100 177 
 TAM  HZ EP        131 55.29                             130    0.48 9  153 105 
 TAM  HE ES        132 15.91                             130   -0.23 9  153 105 
 TAM  HZ I         132 16.10       129.2 0.36            117            153 105 
 SPBC HZ EP        131 56.03                             128    0.07 9  164 220 
 SOCV BZ EP        132  9.46                             112   -0.79 7  300  57 
 SOCV BE ES   4    132 36.65                             112   -6.96 0  300  57 
                                                                                
