 2010  9 9 0145  5.8 L   6.797 -73.011148.9  RSN 14 0.6 2.6LRSN                1
 GAP=174        1.28       5.2     9.7  8.5 -0.2293E+02  0.2374E+02 -0.5248E+00E
 Epicentro: CEPITA - SANTANDER                                                 3
 ACTION:UP  11-02-18 11:01 OP:tino STATUS:               ID:20100909014505 L   I
 2010-09-09-0143-00S.COL___120                                                 6
 STAT SP IPHASW D HRMM SECON CODA AMPLIT PERI AZIMU VELO SNR AR TRES W  DIS CAZ7
 BAR2 SZ IP        145 26.07                             168     0.110   30 220 
 BAR2 SZ ES   1    145 41.25                             168    -0.4 7   30 220 
 BAR2 SZ I         145 43.97        94.8 0.19                            30 220 
 BTL  SZ EP        145 26.37                             168     0.410   31 295 
 GIR2 SZ EP   1    145 25.23                             165    -0.8 7   37 327 
 BRR  HZ EP   1    145 27.98                             149    -0.1 7   85 294 
 BRR  HN ES   1    145 45.10                             149    -0.4 7   85 294 
 BRR  HZ I         145 47.81        68.8 0.19                            85 294 
 RUS  HZ EP   1    145 29.92                             144     0.1 7  100 185 
 RUS  HN ES        145 48.80                             144     0.210  100 185 
 RUS  HZ I         145 49.81        24.0 0.33                           100 185 
 GUE  SZ EP   1    145 29.68                             140    -1.0 7  115   5 
 GUE  SZ I         145 50.67        14.2 0.14                           115   5 
 GRA  SZ IP        145 31.82                             138     0.710  122  11 
 GRA  SZ ES   1    145 51.19                             138     0.4 7  122  11 
 GRA  SZ I         145 54.42        36.5 0.62                           122  11 
 OCA  SZ EP   1    145 34.43                             130    -0.2 7  163 348 
 OCA  SZ I         146  2.19        38.9 0.19                           163 348 
 CHI  HZ EP   1    145 44.02                             117    -0.1 6  253 198 
 CHI  HN ES   1    146 13.95                             117    -0.1 6  253 198 
 CHI  HZ I         146 21.17        17.1 0.15                           253 198 
 HEL  HZ EP   1    145 47.13                             114    -0.7 6  286 257 
 HEL  HZ I         146 24.24        19.6 0.26                           286 257 
 GUY  SZ EP   1    145 51.30                             112     0.3 5  313 236 
 GUY  SN ES   1    146 27.28                             112     1.1 5  313 236 
 GUY  SZ I         146 36.75        92.9 0.40                           313 236 
 RREF HZ EP        145 54.19                             110     0.8 7  333 231 
 RREF HN ES   1    146 30.86                             110     0.4 5  333 231 
 RREF HZ I         146 37.27        24.0 0.38                           333 231 
 TOL  SZ EP   1    145 55.29                             109    -0.1 5  354 226 
 PRA  HZ EP        145 59.42                             107    -0.9 6  399 211 
 PRA  HN ES   1    146 41.77                             107    -1.0 4  399 211 
 PRA  HZ I         146 47.70        22.3 0.22                           399 211 
                                                                                
