 2014  2 9 0902 30.2 L   6.794 -73.134146.4  RSN 15 0.5 1.8LRSN                1
 GAP= 72        0.91       2.7     3.0  5.9 -0.4837E+00  0.5700E+01  0.2091E+00E
 Epicentro: LOS SANTOS - SANTANDER                                             3
 ACTION:UPD 14-03-10 08:08 OP:ep   STATUS:               ID:20140209090230 L   I
 OLDACT:UP  14-02-09 13:06 OP:mh   STATUS:               ID:20140209090000     3
 OLDACT:UP  14-02-09 13:06 OP:mh   STATUS:               ID:20140209090000     3
 OLDACT:UP  14-02-09 13:04 OP:mh   STATUS:               ID:20140209090000     3
 OLDACT:REG 14-02-09 08:11 OP:mh   STATUS:               ID:20140209090000     3
 2014-02-09-0900-00M.COL___291                                                 6
 STAT SP IPHASW D HRMM SECON CODA AMPLIT PERI AZIMU VELO AIN AR TRES W  DIS CAZ7
 BAR2 SZ EP   1    9 2 50.23                             171    0.30 7 23.0 194 
 BAR2 SZ ES   1    9 3  5.46                             171    0.16 7 23.0 194 
 BAR2 SZ I         9 3  6.94        21.5 0.26            169           23.0 194 
 PAM  SZ EP   1    9 2 53.34                             151    0.84 7 77.1  38 
 PAM  SN ES   1    9 3 10.27                             151    0.41 7 77.1  38 
 PAM  SZ I         9 3 11.91         5.5 0.23            155           77.1  38 
 RUS  HZ EP        9 2 53.93                             144   -0.0610 99.8 177 
 RUS  HN ES   1    9 3 12.56                             144    0.03 7 99.8 177 
 RUS  HZ I         9 3 13.98         6.8 0.32            147           99.8 177 
 PTB  HZ EP        9 2 56.95                             132   -0.41 9  149 259 
 PTB  HN ES   1    9 3 17.91                             132   -0.60 7  149 259 
 PTB  HZ I         9 3 22.05         8.6 0.14            132            149 259 
 TAM  HZ EP   1    9 2 58.46                             131    0.63 7  154 105 
 TAM  HN ES        9 3 18.89                             131   -0.46 9  154 105 
 TAM  HZ I         9 3 19.28         5.0 0.24            136            154 105 
 OCA  HZ EP        9 2 57.97                             130   -0.70 9  161 353 
 OCA  HN ES   1    9 3 20.35                             130   -0.50 7  161 353 
 SPBC HZ EP   1    9 2 58.98                             129    0.17 7  163 219 
 SPBC HN ES   1    9 3 20.86                             129   -0.24 7  163 219 
 SPBC HZ I         9 3 27.35         7.0 0.13            130            163 219 
 ZAR  HZ EP        9 3  2.43                             122   -0.44 8  206 292 
 ZAR  HN ES        9 3 28.83                             122    0.50 8  206 292 
 ZAR  HZ I         9 3 36.63         7.4 0.28            123            206 292 
 NOR  HZ EP   1    9 3  5.36                             119   -0.71 6  235 235 
 NOR  HN ES   2    9 3 33.41                             119   -0.62 4  235 235 
 NOR  HZ I         9 3 39.24         6.4 0.38            120            235 235 
 SML  HZ EP        9 3  7.36                             118    0.34 8  245 335 
 SML  HN ES   1    9 3 35.82                             118    0.11 6  245 335 
 SML  HZ I         9 3 45.47         8.8 0.05            119            245 335 
 CHI  HZ EP        9 3  7.83                             117   -0.11 8  248 196 
 CHI  HN ES   1    9 3 37.40                             117    0.06 6  248 196 
 CHI  HZ I         9 3 43.24         2.0 0.36            119            248 196 
 HEL  HZ EP   1    9 3 11.45                             115    0.85 6  273 256 
 HEL  HN ES        9 3 42.77                             115    0.68 8  273 256 
 HEL  HZ I         9 3 49.39         4.0 0.22            116            273 256 
 GUY2CHZ EP   4    9 3 14.33                             112    0.38 0  302 235 
 GUY2CHN ES   1    9 3 48.08                             112    0.03 5  302 235 
 PTGC HZ EP   4    9 3 12.51                             112   -1.48 0  308 159 
 PRA  HZ EP   1    9 3 23.76                             107   -0.02 4  392 210 
 PRA  HN ES   1    9 4  6.01                             107    0.46 4  392 210 
 PRA  HZ I         9 4 11.12         1.9 0.40            108            392 210 
 ORTC HN ES   1    9 4  6.40                             106    0.10 4  396 216 
 SJC  HZ EP   4    9 3 24.66                             106   -1.30 0  410 327 
 SJC  HE ES   4    9 4  6.69                             106   -2.74 0  410 327 
                                                                                
