 2015  5 9 0708 37.9 L   6.782 -73.111144.0  RSN 17 0.4 2.1LRSN                1
 GAP=142        1.02       2.7     4.0  5.0 -0.2372E+01  0.8061E+01  0.1574E+01E
 Epicentro: LOS SANTOS - SANTANDER                                             3
 ACTION:UPD 15-09-10 22:02 OP:cam  STATUS:               ID:20150509070837 L   I
 OLDACT:REG 15-05-09 12:42 OP:drio STATUS:               ID:20150509070748     3
 2015-05-09-0707-48M.COL___282                                                 6
 STAT SP IPHASW D HRMM SECON CODA AMPLIT PERI AZIMU VELO AIN AR TRES W  DIS CAZ7
 BAR2 EZ EP        7 8 57.24                             171   -0.0710 22.4 201 
 BAR2 EZ ES        7 9 12.37                             171   -0.0710 22.4 201 
 BAR2 EZ I         7 9 14.86        21.8 0.26            168           22.4 201 
 BRR  HZ EP        7 8 59.13                             151    0.0110 75.5 298 
 BRR  HN ES        7 9 16.53                             151    0.8610 75.5 298 
 BRR  HZ I         7 9 21.40        17.3 0.12            149           75.5 298 
 PAM  SN ES        7 9 17.37                             151    0.3310 76.6  36 
 RUS  HZ EP        7 9  1.13                             144   -0.2010 98.4 178 
 RUS  HE ES        7 9 18.94                             144   -0.6610 98.4 178 
 RUS  HZ I         7 9 21.25         7.8 0.32            147           98.4 178 
 OCA  HZ EP        7 9  7.08                             129    0.76 9  163 352 
 OCA  HN ES        7 9 28.01                             129   -0.47 9  163 352 
 OCA  HZ I         7 9 35.63        23.5 0.24            132            163 352 
 SPBC HZ EP        7 9  6.23                             128   -0.13 9  164 220 
 SPBC HN ES        7 9 28.64                             128    0.08 9  164 220 
 SPBC HZ I         7 9 34.06        32.7 0.12            130            164 220 
 ZAR  HZ EP        7 9  9.87                             121   -0.82 8  208 292 
 ZAR  HN ES        7 9 35.60                             121   -0.66 8  208 292 
 ZAR  HZ I         7 9 41.56        18.5 0.54            122            208 292 
 NOR  HZ EP        7 9 13.42                             118   -0.34 8  237 235 
 NOR  HN ES        7 9 41.52                             118   -0.19 8  237 235 
 NOR  HZ I         7 9 48.31        11.7 0.28            119            237 235 
 SML  HZ EP        7 9 14.52                             117   -0.29 8  247 335 
 CHI  HZ EP        7 9 15.39                             117   -0.03 8  248 196 
 CHI  HN ES        7 9 44.98                             117    0.31 8  248 196 
 CHI  HZ I         7 9 50.57         4.8 0.30            119            248 196 
 HEL  HZ EP        7 9 19.21                             114    0.81 7  275 256 
 HEL  HN ES        7 9 49.61                             114   -0.36 7  275 256 
 HEL  HZ I         7 9 55.87         8.3 0.34            115            275 256 
 GUY2CHZ EP        7 9 21.69                             112    0.02 7  303 236 
 GUY2CHE ES        7 9 56.03                             112    0.24 7  303 236 
 GUY2CHZ I         710  4.09        12.6 0.74                           303 236 
 RREF HZ EP        7 9 24.30                             110    0.13 7  323 230 
 RREF HN ES        7 9 59.84                             110   -0.40 7  323 230 
 RREF HZ I         710  8.86         3.3 0.50            112            323 230 
 CBOC HZ EP        7 9 25.25                             109    0.14 7  337 253 
 CBOC HN ES        710  2.20                             109    0.28 7  337 253 
 CBOC HZ I         710  9.42         2.4 0.46            111            337 253 
 MON  HZ EP   4    7 9 25.55                             108   -1.79 0  358 308 
 MON  HN ES   4    710  2.76                             108   -3.13 0  358 308 
 MON  HZ I         710  5.56         3.1 0.40            110            358 308 
 ANIL HZ EP        7 9 28.38                             108    0.58 6  359 225 
 ANIL HN ES        710  7.45                             108    0.74 6  359 225 
 ORTC HZ EP        7 9 31.50                             106   -0.35 6  396 217 
 ORTC HN ES        710 14.42                             106    0.50 6  396 217 
 ORTC HZ I         710 21.89         5.1 0.22            108            396 217 
                                                                                
