 2013  9 9 0930  4.1 L   6.787 -73.153142.0  RSN  9 0.3 1.7LRSN                1
 GAP=136        0.79       2.8     3.3  5.1 -0.4331E+00  0.4690E+01 -0.2937E+01E
 Epicentro: LOS SANTOS - SANTANDER                                             3
 ACTION:UPD 13-10-22 09:21 OP:ep   STATUS:               ID:20130909093004 L   I
 OLDACT:REG 13-09-09 08:23 OP:carl STATUS:               ID:20130909092959     3
 2013-09-09-0929-59M.COL___269                                                 6
 STAT SP IPHASW D HRMM SECON CODA AMPLIT PERI AZIMU VELO AIN AR TRES W  DIS CAZ7
 BAR2 SZ EP        930 23.27                             171    0.0310 21.8 189 
 BAR2 SZ ES        930 37.94                             171   -0.2310 21.8 189 
 BAR2 SZ I         930 38.99        10.3 0.18            171           21.8 189 
 BRR  HZ EP   1    930 25.17                             152    0.34 7 71.2 300 
 BRR  HN ES   1    930 41.37                             152    0.36 7 71.2 300 
 BRR  HZ I         930 45.09         6.4 0.34            150           71.2 300 
 PAM  SZ EP        930 26.22                             150    0.2110 79.0  39 
 PAM  SN ES   1    930 43.32                             150    0.22 7 79.0  39 
 PAM  SZ I         930 45.58         4.3 0.60            153           79.0  39 
 RUS  HZ EP        930 27.25                             143   -0.1210 99.2 176 
 RUS  HN ES        930 45.44                             143   -0.0910 99.2 176 
 RUS  HZ I         930 46.67         5.6 0.30            147           99.2 176 
 PTB  HZ EP        930 30.72                             131    0.06 9  147 259 
 PTB  HN ES        930 50.67                             131   -0.71 9  147 259 
 PTB  HZ I         930 53.85         7.8 0.22            132            147 259 
 SPBC HZ EP        930 32.32                             128    0.17 9  162 219 
 SPBC HN ES   1    930 54.23                             128    0.20 7  162 219 
 ZAR  HZ EP        930 36.33                             121    0.06 9  204 293 
 ZAR  HN ES        931  2.00                             121    0.62 9  204 293 
 ZAR  HZ I         931  7.98         7.8 0.32            122            204 293 
 NOR  HN ES        931  7.20                             118    0.18 8  233 235 
 NOR  HZ I         931 13.56         5.0 0.18            119            233 235 
 SML  HZ EP        930 40.00                             116   -0.62 8  245 336 
 SML  HN ES        931  8.75                             116   -0.36 8  245 336 
                                                                                
