 2016 12 9 0610 51.8 L   6.720 -73.172150.8  RSN  4 0.3 1.3LRSN                1
 GAP=228        0.86       6.9     6.6  6.9  0.2203E+02  0.4406E+01  0.8780E+00E
 Epicentro: VILLANUEVA - SANTANDER                                             3
 ACTION:UPD 17-01-11 20:13 OP:rebc STATUS:               ID:20161209061051 L   I
 OLDACT:REG 16-12-09 12:34 OP:dnl  STATUS:               ID:20161209060745     3
 2016-12-09-0608-00M.COL___367                                                 6
 STAT SP IPHASW D HRMM SECON CODA AMPLIT PERI AZIMU VELO AIN AR TRES W  DIS CAZ7
 BAR2 EZ EP        611 11.66                             174   -0.2010 14.1 185 
 BAR2 EZ ES        611 27.00                             174   -0.5410 14.1 185 
 BAR2 EZ I         611 29.26         6.9 0.26            169           14.1 185 
 BRR  HZ EP        611 13.56                             153   -0.0310 73.5 306 
 BRR  HN ES        611 31.14                             153    0.5310 73.5 306 
 BRR  HZ I         611 35.04         3.0 0.30            150           73.5 306 
 RUS  HZ EP        611 15.74                             147    0.3110 92.0 174 
 RUS  HN ES        611 34.13                             147    0.2410 92.0 174 
 RUS  HZ I         611 35.24         2.6 0.32            148           92.0 174 
 PTB  HZ EP        611 18.55                             134   -0.22 9  143 262 
 PTB  HN ES        611 39.69                             134   -0.14 9  143 262 
 PTB  HZ I         611 46.85         3.6 0.34            132            143 262 
                                                                                
