 2012  8 9 0626 14.5 L   6.745 -73.139135.1  RSN  6 0.4 1.5LRSN                1
 GAP=140        0.99       6.0     7.3  8.4  0.6229E+00  0.1857E+02 -0.2987E+00E
 Epicentro: JORDAN - SANTANDER                                                 3
 ACTION:UPD 12-09-10 11:55 OP:ep   STATUS:               ID:20120809062614 L   I
 2012-08-09-0620-00M.COL___215                                                 6
 STAT SP IPHASW D HRMM SECON CODA AMPLIT PERI AZIMU VELO AIN AR TRES W  DIS CAZ7
 BAR2 SZ EP        626 33.07                             172    0.3010 17.6 196 
 BAR2 SZ I         626 33.40        12.6 0.11                          17.6 196 
 BAR2 SZ ES   1    626 46.07                             172   -0.92 7 17.6 196 
 BRR  HZ EP        626 34.81                             149    0.0410 74.9 302 
 BRR  HN ES   1    626 51.32                             149    0.77 7 74.9 302 
 BRR  HZ I         626 55.72         8.4 0.33                          74.9 302 
 PAM  SZ EP        626 35.86                             147   -0.0410 81.7  36 
 PAM  SZ I         626 36.17         5.4 0.22                          81.7  36 
 PAM  SN ES   1    626 52.42                             147   -0.15 7 81.7  36 
 RUS  HZ EP        626 36.98                             143    0.1810 94.5 176 
 RUS  HN ES   1    626 54.48                             143    0.32 7 94.5 176 
 RUS  HZ I         626 56.64         3.5 0.21                          94.5 176 
 PTB  HZ EP        626 40.01                             129   -0.62 9  147 261 
 ZAR  HZ EP   1    626 46.75                             119    0.12 6  207 294 
 ZAR  HZ I         627 17.51         3.7 0.32                           207 294 
                                                                                
