 2010  7 9 0414  6.9 L   6.198 -73.745105.0  RSN  4 0.2 1.4LRSN                1
 GAP=247        0.44       4.1     7.6  7.2  0.1825E+02  0.2720E+02  0.9394E+01E
 Epicentro: LANDAZURI - SANTANDER                                              3
 ACTION:UPD 10-12-01 15:16 OP:pat  STATUS:               ID:20100709041406 L   I
 2010-07-09-0412-07S.COL___117                                                 6
 STAT SP IPHASW D HRMM SECON CODA AMPLIT PERI AZIMU VELO AIN AR TRES W  DIS CAZ7
 BAR2 SZ EP   1    414 24.75                             141     0.2 7   76  55 
 BAR2 SZ ES   1    414 38.44                             141     0.2 7   76  55 
 BAR2 SZ I         414 40.25        15.7 0.16                            76  55 
 RUS  HZ EP   1    414 25.34                             140     0.1 7   81 115 
 RUS  HZ I         414 25.59         3.4 0.14                            81 115 
 RUS  HN ES   2    414 39.13                             140    -0.5 5   81 115 
 BRR  HZ EP   1    414 26.19                             132    -0.1 7  101   2 
 BRR  HZ I         414 26.44         7.1 0.12                           101   2 
 BRR  HN ES   1    414 41.34                             132     0.0 7  101   2 
 GUE  SZ EP   2    414 37.28                             112     0.0 4  202  27 
 GUE  SZ ES   2    415  0.68                             112    -0.2 4  202  27 
 GUE  SZ I         415  1.48         1.8 0.20                           202  27 
                                                                                
