 2010 12 9 0503  0.9 L   6.814 -73.140141.5  RSN 12 0.4 2.3LRSN                1
 GAP=174        0.66       4.2     6.9  6.1 -0.1810E+02  0.1548E+02 -0.3698E+01E
 Epicentro: LOS SANTOS - SANTANDER                                             3
 ACTION:UP  11-01-14 15:23 OP:pat  STATUS:               ID:20101209050300 L   I
 2010-12-09-0500-00M.COL___136                                                 6
 STAT SP IPHASW D HRMM SECON CODA AMPLIT PERI AZIMU VELO SNR AR TRES W  DIS CAZ7
 BTL  SZ IP        5 3 19.88                             173     0.010   18 309 
 BAR2 SZ EP        5 3 19.92                             169    -0.110   25 191 
 BAR2 SZ ES   1    5 3 34.91                             169    -0.1 7   25 191 
 BAR2 SZ I         5 3 36.68        38.6 0.18                            25 191 
 GIR2 SZ EP   1    5 3 19.73                             168    -0.3 7   30 349 
 GIR2 SZ ES   2    5 3 35.20                             168     0.3 5   30 349 
 GUE  SZ EP   2    5 3 24.57                             139    -0.5 5  115  12 
 GRA  SZ IP        5 3 26.25                             136     0.610  124  17 
 GRA  SZ ES   2    5 3 45.15                             136     0.3 5  124  17 
 GRA  SZ I         5 3 46.44        34.6 0.23                           124  17 
 OCA  SZ EP   1    5 3 28.01                             129    -0.7 7  159 353 
 OCA  SZ ES   2    5 3 50.06                             129    -0.4 5  159 353 
 OCA  SZ I         5 3 51.74        15.5 0.16                           159 353 
 NOR  SZ EP   2    5 3 36.47                             117    -0.1 4  236 234 
 NOR  SE ES   2    5 4  4.87                             117     0.5 4  236 234 
 CHI  HZ EP   2    5 3 38.58                             116     0.1 4  250 195 
 CHI  HN ES   2    5 4  7.90                             116     0.0 4  250 195 
 CHI  HZ I         5 4 16.09         8.1 0.44                           250 195 
 HEL  HZ EP   2    5 3 41.21                             114     0.2 4  273 256 
 HEL  HE ES   2    5 4 12.38                             114     0.1 4  273 256 
 HEL  HZ I         5 4 19.45        13.8 0.29                           273 256 
 RREF HZ EP   2    5 3 47.40                             110     0.4 3  323 229 
 RREF HE ES   2    5 4 22.58                             110    -0.4 3  323 229 
 RREF HZ I         5 4 32.88        11.2 0.24                           323 229 
 DBB  SZ EP   2    5 3 48.26                             109     0.0 3  340 274 
 PRA  HZ EP   2    5 3 54.50                             106     0.1 3  394 210 
 PRA  HN ES   2    5 4 35.77                             106    -0.4 3  394 210 
                                                                                
