 2013  2 9 0837 23.8 L   6.785 -73.093151.4  RSN  6 0.3 1.3LRSN                1
 GAP=205        0.72       5.1    11.4  7.3  0.3650E+02  0.2372E+01 -0.6737E+00E
 Epicentro: LOS SANTOS - SANTANDER                                             3
 ACTION:UPD 13-03-12 09:31 OP:ep   STATUS:               ID:20130209083723 L   I
 2013-02-09-0830-00M.COL___240                                                 6
 STAT SP IPHASW D HRMM SECON CODA AMPLIT PERI AZIMU VELO AIN AR TRES W  DIS CAZ7
 BAR2 SZ EP   1    837 44.00                             171   -0.15 7 23.5 205 
 BAR2 SZ I         838  2.03         4.2 0.34            157           23.5 205 
 BRR  HZ EP        837 46.14                             152    0.2010 77.1 298 
 BRR  HN ES   1    838  3.56                             152    0.39 7 77.1 298 
 BRR  HN I         838  7.71         7.7 0.26            138           77.1 298 
 RUS  HZ EP   1    837 48.10                             145    0.08 7 98.7 179 
 RUS  HN ES   1    838  6.49                             145   -0.39 7 98.7 179 
 RUS  HN I         838  8.61         2.4 0.32            137           98.7 179 
 PTB  HZ EP        837 51.28                             132   -0.48 9  153 260 
 PTB  HZ I         838 18.01         3.3 0.32            120            153 260 
 SML  HZ EP   1    838  1.13                             118   -0.09 6  248 334 
 SML  HN ES   1    838 30.23                             118   -0.14 6  248 334 
 CHI  HZ EP        838  2.39                             118    0.53 8  249 197 
 CHI  HZ I         838  4.29         0.9 0.07            111            249 197 
                                                                                
