 2016  5 9 0131 26.9 L   6.789 -73.140142.7  RSN 16 0.5 2.3LRSN                1
 GAP=138        1.12       3.0     4.2  5.4 -0.1532E+01  0.6688E+01  0.9797E+00E
 Epicentro: LOS SANTOS - SANTANDER                                             3
 ACTION:UPD 16-08-18 17:43 OP:cam  STATUS:               ID:20160509013126 L   I
 OLDACT:UP  16-05-09 13:39 OP:drio STATUS:               ID:20160509012749     3
 OLDACT:UP  16-05-09 13:38 OP:drio STATUS:               ID:20160509012749     3
 OLDACT:REG 16-05-09 12:14 OP:drio STATUS:               ID:20160509012749     3
 2016-05-09-0127-49M.COL___292                                                 6
 STAT SP IPHASW D HRMM SECON CODA AMPLIT PERI AZIMU VELO AIN AR TRES W  DIS CAZ7
 BAR2 EZ EP        131 46.15                             171    0.0510 22.3 192 
 BAR2 EZ ES        132  0.68                             171   -0.4310 22.3 192 
 BAR2 EZ I         132  3.47        54.7 0.42            167           22.3 192 
 BRR  HZ EP        131 48.04                             152    0.2910 72.3 299 
 BRR  HN ES        132  4.89                             152    0.8610 72.3 299 
 BRR  HZ I         132  5.28        28.8 0.18            151           72.3 299 
 PAM  EZ EP        131 49.03                             150    0.2410 77.9  39 
 PAM  EE ES        132  5.96                             150    0.0810 77.9  39 
 PAM  EZ I         132  8.28        40.7 0.58            156           77.9  39 
 RUS  HZ EP        131 50.13                             143   -0.1010 99.4 176 
 RUS  HE ES        132  8.86                             143    0.4110 99.4 176 
 RUS  HZ I         132 10.23        27.4 0.38            143           99.4 176 
 PTB  HZ EP        131 52.91                             131   -0.71 9  148 259 
 PTB  HN ES        132 13.79                             131   -0.69 9  148 259 
 PTB  HZ I         132 17.31        26.3 0.44            130            148 259 
 OCA  HZ EP        131 54.65                             129   -0.41 9  162 353 
 OCA  HE ES        132 16.31                             129   -0.73 9  162 353 
 OCA  HZ I         132 19.50        38.3 0.28            132            162 353 
 SPBC HZ EP        131 55.07                             128   -0.01 9  163 219 
 SPBC HN ES        132 16.97                             128   -0.11 9  163 219 
 SPBC HZ I         132 22.82        20.3 0.22            128            163 219 
 ZAR  HZ EP        131 59.64                             122    0.42 9  205 292 
 ZAR  HE ES        132 25.02                             122    0.57 9  205 292 
 ZAR  HZ I         132 31.99        13.0 0.20            122            205 292 
 NOR  HZ EP        132  1.99                             118   -0.41 8  234 235 
 NOR  HE ES   4    132 29.08                             118   -1.03 0  234 235 
 NOR  HZ I         132 35.82        13.2 0.20            118            234 235 
 SML  HZ EP        132  2.92                             117   -0.55 8  245 335 
 SML  HE ES   4    132 30.78                             117   -1.23 0  245 335 
 CHI  HZ EP        132  4.72                             117    0.43 8  248 195 
 CHI  HN ES        132 33.21                             117   -0.27 8  248 195 
 CHI  HZ I         132 43.18         7.7 0.48            117            248 195 
 ROSC BZ EP   4    132  6.60                             116    1.86 0  252 211 
 ROSC BE ES   4    132 38.29                             116    4.00 0  252 211 
 ROSC BZ I         132 43.16        14.8 0.40            116            252 211 
 HEL  HZ EP   4    132  8.70                             114    1.74 0  272 256 
 HEL  HN ES        132 38.03                             114   -0.20 8  272 256 
 HEL  HZ I         132 44.95        10.9 0.38            114            272 256 
 URE  HZ EP        132  8.63                             113    0.73 7  285 292 
 URE  HE ES   4    132 37.82                             113   -2.08 0  285 292 
 URE  HZ I         132 40.11        10.3 0.34            114            285 292 
 CBOC HZ EP        132 14.45                             109    0.77 7  334 252 
 CBOC HN ES   4    132 51.34                             109    1.15 0  334 252 
 CBOC HZ I         132 52.82         3.7 0.18            110            334 252 
 PRA  HZ EP        132 20.50                             106    0.30 6  391 210 
 PRA  HN ES        133  1.54                             106   -0.25 6  391 210 
 PRA  HZ I         133  9.70         5.5 0.30            107            391 210 
                                                                                
