 2010  7 9 0808 29.4 L   6.799 -73.102143.5  RSN  9 0.3 1.9LRSN                1
 GAP=160        0.63       2.8     5.4  4.7 -0.5490E+01 -0.4549E+01  0.1468E+01E
 Epicentro: LOS SANTOS - SANTANDER                                             3
 ACTION:UPD 10-12-01 15:16 OP:pat  STATUS:               ID:20100709080829 L   I
 2010-07-09-0806-56S.COL___117                                                 6
 STAT SP IPHASW D HRMM SECON CODA AMPLIT PERI AZIMU VELO AIN AR TRES W  DIS CAZ7
 BAR2 SZ EP   1    8 8 48.60                             170    -0.2 7   25 202 
 BAR2 SZ ES   2    8 9  3.82                             170    -0.1 5   25 202 
 BAR2 SZ I         8 9  5.72        13.8 0.48                            25 202 
 BRR  HZ EP   1    8 8 50.53                             151     0.0 7   76 297 
 BRR  HE ES        8 9  7.19                             151     0.110   76 297 
 BRR  HZ I         8 9 12.57        14.7 0.15                            76 297 
 RUS  HZ EP   1    8 8 52.97                             143     0.1 7  100 179 
 RUS  HE ES   1    8 9 11.09                             143    -0.2 7  100 179 
 RUS  HZ I         8 9 12.61        11.5 0.30                           100 179 
 BRI  SZ EP        8 8 53.26                             141     0.310  107  18 
 BRI  SZ ES   1    8 9 11.17                             141    -0.2 7  107  18 
 BRI  SZ I         8 9 16.65        19.3 0.56                           107  18 
 GUE  SZ EP        8 8 53.71                             139    -0.110  116  10 
 GUE  SZ ES   1    8 9 13.03                             139     0.1 7  116  10 
 GUE  SZ I         8 9 15.08         7.5 0.15                           116  10 
 GRA  SZ EP        8 8 54.50                             137     0.110  125  15 
 GRA  SZ ES   1    8 9 14.22                             137     0.4 7  125  15 
 GRA  SZ I         8 9 14.83        19.4 0.20                           125  15 
 OCA  SZ EP        8 8 57.19                             129    -0.4 9  161 351 
 OCA  SZ ES   2    8 9 19.07                             129    -0.6 5  161 351 
 OCA  SZ I         8 9 28.89        10.9 0.44                           161 351 
 RREF HZ EP   2    8 9 16.33                             110     0.5 3  325 230 
 RREF HZ I         810  1.80         3.8 0.30                           325 230 
 PRA  HZ EP   1    8 9 23.36                             106     0.2 4  394 210 
 PRA  HE ES   2    810  5.45                             106     0.4 3  394 210 
 PRA  HZ I         810  9.58         3.4 0.32                           394 210 
                                                                                
