 2016  6 9 0404 32.6 L   6.770 -73.166147.1  RSN  4 0.4 1.2LRSN                1
 GAP=233        0.93       6.4     7.8 10.9  0.2865E+01 -0.2590E+02  0.1120E+02E
 Epicentro: LOS SANTOS - SANTANDER                                             3
 ACTION:UPD 16-07-21 22:16 OP:rebc STATUS:               ID:20160609040432 L   I
 OLDACT:UP  16-06-13 20:08 OP:nlst STATUS:               ID:20160609040432 L   3
 OLDACT:REG 16-06-09 13:02 OP:dani STATUS:               ID:20160609035748     3
 2016-06-09-0357-48M.COL___337                                                 6
 STAT SP IPHASW D HRMM SECON CODA AMPLIT PERI AZIMU VELO AIN AR TRES W  DIS CAZ7
 BRR  HZ EP        4 4 53.62                             154   -0.2210 70.9 302 
 BRR  HE ES        4 5 10.85                             154    0.4110 70.9 302 
 BRR  HZ I         4 5 12.08         3.2 0.14                          70.9 302 
 RUS  HZ EP        4 4 56.25                             145    0.0210 97.5 175 
 RUS  HN ES   2    4 5 14.17                             145   -0.51 5 97.5 175 
 RUS  HZ I         4 5 15.55         2.4 0.32                          97.5 175 
 PTB  HZ EP        4 4 59.47                             134    0.08 9  145 260 
 PTB  HE ES        4 5 19.66                             134   -0.65 9  145 260 
 PTB  HZ I         4 5 22.38         1.4 0.18                           145 260 
 SPBC HE ES        4 5 23.29                             131    0.48 9  159 219 
 SPBC HZ I         4 5 24.41         3.8 0.16                           159 219 
                                                                                
