 2017  8 9 0029  5.0 L   5.754 -73.897106.9  RSN 31 0.6 2.6LRSN                1
 GAP= 37        1.15       1.9     2.0  4.6 -0.3957E+00  0.1018E+01  0.2092E+00E
 Epicentro: ALBANIA - SANTANDER                                                3
 ACTION:UPD 17-09-04 20:18 OP:rebc STATUS:               ID:20170809002905 L   I
 OLDACT:UP  17-08-09 13:21 OP:dhb  STATUS:               ID:20170809002736     3
 OLDACT:REG 17-08-09 11:51 OP:dhb  STATUS:               ID:20170809002736     3
 2017-08-09-0028-00M.COL___399                                                 6
 STAT SP IPHASW D HRMM SECON CODA AMPLIT PERI AZIMU VELO AIN AR TRES W  DIS CAZ7
 SPBC HZ IP     D  029 19.59                             167   -0.1810 22.4 240 
 SPBC HN ES        029 31.13                             167   -0.1410 22.4 240 
 TABC EZ IP     C  029 24.89                             137    0.7210 88.9 203 
 TABC EZ I         029 41.70       212.5 0.46            135           88.9 203 
 RUS  HZ IP     D  029 24.29                             137   -0.1310 91.4  80 
 RUS  HN ES        029 39.43                             137   -0.1110 91.4  80 
 RUS  HZ I         029 40.89        45.4 0.20            133           91.4  80 
 PTB  HZ IP   2 C  029 23.98                             131   -1.13 5  107 325 
 PTB  HN ES        029 40.74                             131   -0.0310  107 325 
 PTB  HZ I         029 43.05        53.7 0.10            130            107 325 
 NOR  HZ EP        029 24.88                             130   -0.5610  110 259 
 NOR  HE ES        029 40.86                             130   -0.5010  110 259 
 NOR  HZ I         029 42.83        95.6 0.10            130            110 259 
 ROSC BZ IP     C  029 26.73                             130    0.6810  111 205 
 ROSC BN ES        029 42.89                             130    0.4410  111 205 
 ROSC BZ I         029 46.22       120.8 0.40            128            111 205 
 BAR2 EZ IP     D  029 27.00                             127    0.1610  122  40 
 BAR2 HE ES        029 44.46                             127    0.6110  122  40 
 CHI  HZ EP        029 27.18                             126   -0.2610  126 172 
 CHI  HE ES        029 44.51                             126   -0.4110  126 172 
 CHI  HZ I         029 49.66        52.1 0.52            124            126 172 
 BRR  HZ IP     C  029 29.29                             121   -0.19 9  151   8 
 BRR  HN ES        029 48.87                             121    0.32 9  151   8 
 BRR  HZ I         029 51.72       109.3 0.20            119            151   8 
 YPLC HZ IP     D  029 32.34                             117    0.46 9  173 103 
 YPLC HN ES        029 52.86                             117    0.03 9  173 103 
 YPLC HZ I         029 58.64        78.4 0.28            114            173 103 
 GUY2CHZ EP        029 32.47                             117    0.04 9  173 250 
 GUY2CHE ES        029 53.91                             117    0.11 9  173 250 
 GUY2CHZ I         029 59.43        32.2 0.46                           173 250 
 VIL  EZ IP     C  029 32.87                             115   -0.22 9  183 173 
 VIL  EN ES        029 55.29                             115    0.32 9  183 173 
 VIL  EZ I         030  0.52        63.0 0.34            113            183 173 
 HEL  HZ EP        029 34.59                             115    0.75 9  187 285 
 HEL  HN ES        029 55.50                             115   -0.82 9  187 285 
 HEL  HZ I         029 59.99        22.6 0.27            114            187 285 
 ZAR  HZ EP        029 35.99                             110   -1.07 8  220 331 
 ZAR  HE ES        030  1.71                             110   -0.33 8  220 331 
 ZAR  HZ I         030  4.65        69.7 0.26            109            220 331 
 PAM  EZ EP   2    029 38.82                             111    1.15 4  220  37 
 PAM  EE ES        030  2.85                             111   -0.28 8  220  37 
 PAM  EZ I         030  7.07        35.9 0.34            109            220  37 
 CBOC HZ EP        029 39.40                             109    0.42 8  235 273 
 CBOC HN ES        030  5.46                             109   -0.00 8  235 273 
 CBOC HZ I         030  7.73        15.5 0.24            107            235 273 
 TAM  HZ IP     C  029 40.04                             108    0.02 8  245  72 
 TAM  HZ I         030  5.85        13.4 0.26            106            245  72 
 TAM  HN ES   2    030  5.89                             108   -1.42 4  245  72 
 PRA  HZ IP     C  029 40.01                             107   -0.69 8  251 206 
 PRA  HN ES        030  8.58                             107    0.05 8  251 206 
 PRA  HZ I         030 14.03        44.3 0.21            105            251 206 
 ORTC HZ EP        029 40.47                             107   -0.48 8  253 216 
 ORTC HE ES        030  9.65                             107    0.68 8  253 216 
 ORTC HZ I         030 13.47        53.7 0.48            105            253 216 
 PTGC HZ IP     C  029 41.00                             106   -0.76 8  260 131 
 PTGC HE ES   2    030  9.23                             106   -1.18 4  260 131 
 PTGC HZ I         030 11.46        38.5 0.22            104            260 131 
 PAL  HZ EP        029 45.01                             105    0.78 7  281 251 
 PAL  HN ES   2    030 16.04                             105    1.24 4  281 251 
 URE  HZ IP   2 D  029 42.72                             104   -2.01 4  286 321 
 URE  HN ES   3    030 12.96                             104   -2.74 2  286 321 
 URE  HZ I         030 14.58        70.5 0.17            103            286 321 
 DBB  EZ EP        029 46.04                             104    0.51 7  292 299 
 DBB  EE ES        030 17.59                             104    0.47 7  292 299 
 DBB  EZ I         030 19.63        14.4 0.44            103            292 299 
 YOT  HZ EP        029 50.22                             101   -0.50 7  335 234 
 YOT  HE ES   2    030 26.89                             101    0.53 3  335 234 
 GUA  EZ EP        029 56.89                              99    0.66 6  382 158 
 GUA  EN ES   3    030 33.88                              99   -2.28 1  382 158 
 GUA  EZ I         030 37.37        32.8 0.22             97            382 158 
 MARO HZ EP        029 58.50                              98    0.38 6  395 215 
 MARO HN ES   1    030 40.02                              98    0.49 4  395 215 
 MARO HZ I         030 47.79         5.6 0.10             96            395 215 
 MACC HZ IP   4 D  029 56.28                              98   -2.04 0  399 179 
 MACC HE ES   4    030 36.03                              98   -3.85 0  399 179 
 MACC HZ I         030 39.70         9.8 0.36             96            399 179 
 GARC HZ EP   3    030  0.98                              97   -1.66 1  432 204 
 GARC HN ES        030 46.60                              97   -0.98 5  432 204 
 GARC HZ I         030 48.23        18.9 0.18             94            432 204 
 LCBC HN ES        030 48.47                              97    0.17 5  438 322 
 LCBC HZ I         030 50.11        17.4 0.20             94            438 322 
 LL6C HZ IP     C  030  4.32                              96    0.38 5  446   9 
 LL6C HN ES        030 51.01                              96    1.12 5  446   9 
 LL6C HZ I         031  4.02        10.8 0.52             93            446   9 
 SJC  HZ IP   4 C  030  6.01                              95   -2.11 0  480 343 
 SJC  HN ES   4    030 53.33                              95   -4.00 0  480 343 
 SJC  HZ I         030 56.54         8.1 0.17             92            480 343 
                                                                                
