 2015  3 9 0339 54.8 L   6.709 -73.080138.0  RSN  4 0.3 1.6LRSN                1
 GAP=166        0.77       4.7     6.1  8.6 -0.1694E+02 -0.1652E+02  0.2600E+02E
 Epicentro: JORDAN - SANTANDER                                                 3
 ACTION:UPD 15-04-30 16:24 OP:nd   STATUS:               ID:20150309033954 L   I
 OLDACT:UP  15-03-09 16:01 OP:cam  STATUS:               ID:20150309033747     3
 OLDACT:UP  15-03-09 16:00 OP:cam  STATUS:               ID:20150309033747     3
 OLDACT:UP  15-03-09 16:00 OP:cam  STATUS:               ID:20150309033747     3
 OLDACT:REG 15-03-09 14:01 OP:cam  STATUS:               ID:20150309033747     3
 2015-03-09-0337-47M.COL___278                                                 6
 STAT SP IPHASW D HRMM SECON CODA AMPLIT PERI AZIMU VELO AIN AR TRES W  DIS CAZ7
 PAM  SZ IP     C  340 16.61                             148    0.1210 81.4  31 
 PAM  SN ES        340 33.30                             148   -0.0810 81.4  31 
 PAM  SZ I         340 35.43         6.7 0.42            153           81.4  31 
 BRR  HZ EP        340 15.34                             147   -0.5310 82.6 302 
 BRR  HN ES        340 32.63                             147    0.3610 82.6 302 
 BRR  HN I         340 33.18        15.6 0.20            154           82.6 302 
 SPBC HZ EP        340 22.50                             128    0.01 9  160 223 
 SPBC HN ES        340 43.94                             128   -0.12 9  160 223 
 SPBC HZ I         340 46.24         5.2 0.16            131            160 223 
 CHI  HZ EP        340 31.81                             116    0.52 8  241 197 
 CHI  HN ES        340 59.56                             116   -0.16 8  241 197 
 CHI  HZ I         341  4.57         1.3 0.38            119            241 197 
                                                                                
