 2010  5 9 0721  2.2 L   6.816 -72.940133.3  RSN  4 0.4 1.5LRSN                1
 GAP=182        0.61       6.7    12.8 11.0  0.2740E+02 -0.5472E+02 -0.1512E+02E
 Epicentro: CEPITA - SANTANDER                                                 3
 ACTION:UP  10-08-24 10:03 OP:vdl  STATUS:               ID:20100509072102 L   I
 2010-05-09-0718-08S.COL___105                                                 6
 STAT SP IPHASW D HRMM SECON CODA AMPLIT PERI AZIMU VELO SNR AR TRES W  DIS CAZ7
 GIR2 SZ EP   2    721 20.79                             162     0.1 5   40 316 
 GIR2 SZ ES   2    721 34.54                             162    -0.5 5   40 316 
 BRR  HZ EP   1    721 23.01                             144    -0.3 7   91 291 
 BRR  HZ I         721 24.46         6.2 0.11                            91 291 
 BRR  HN ES   2    721 40.35                             144     0.5 5   91 291 
 RUS  HZ EP   2    721 24.69                             140    -0.2 5  103 189 
 RUS  HN ES   2    721 42.96                             140     0.3 5  103 189 
 GRA  SZ EP   2    721 26.21                             136     0.5 5  119   7 
                                                                                
