 2014  4 9 0914 29.1 L   6.886 -73.157145.6  RSN 10 0.4 2.2LRSN                1
 GAP=131        0.94       3.3     4.2  7.6 -0.2663E+01  0.7868E+01  0.5363E+01E
 Epicentro: BETULIA - SANTANDER                                                3
 ACTION:UPD 14-05-13 23:07 OP:nd   STATUS:               ID:20140409091429 L   I
 OLDACT:UP  14-04-09 19:45 OP:mh   STATUS:               ID:20140409090813     3
 OLDACT:UP  14-04-09 19:32 OP:mh   STATUS:               ID:20140409090813     3
 OLDACT:UP  14-04-09 19:26 OP:mh   STATUS:               ID:20140409090813     3
 OLDACT:REG 14-04-09 14:33 OP:stll STATUS:               ID:20140409090813     3
 2014-04-09-0908-13M.COL___244                                                 6
 STAT SP IPHASW D HRMM SECON CODA AMPLIT PERI AZIMU VELO AIN AR TRES W  DIS CAZ7
 PAM  SZ EP        914 51.33                             153    0.4310 71.2  45 
 PAM  SN ES        915  8.12                             153    0.1910 71.2  45 
 PAM  SZ I         915 10.38        28.6 0.28            158           71.2  45 
 RUS  HZ EP        914 53.72                             141    0.2210  110 176 
 RUS  HN ES   1    915 12.36                             141   -0.21 7  110 176 
 RUS  HZ I         915 15.56         6.7 0.33            143            110 176 
 PTB  HZ EP        914 55.53                             132   -0.56 9  149 255 
 PTB  HN ES        915 16.81                             132   -0.37 9  149 255 
 PTB  HZ I         915 19.38        88.5 0.04            133            149 255 
 OCA  HZ EP   1    914 56.36                             131   -0.11 7  151 353 
 OCA  HN ES   1    915 17.12                             131   -0.72 7  151 353 
 OCA  HZ I         915 19.17         7.7 0.15            135            151 353 
 SPBC HZ EP        914 58.02                             128   -0.17 9  170 217 
 SPBC HN ES        915 20.65                             128   -0.26 9  170 217 
 SPBC HZ I         915 26.20        17.0 0.30            129            170 217 
 ZAR  HN ES        915 26.63                             123    0.68 9  199 290 
 ZAR  HZ I         915 32.19        29.4 0.31            125            199 290 
 SML  HE ES   1    915 32.59                             118    0.11 6  235 335 
 NOR  HZ EP        915  4.85                             118   -0.43 8  239 232 
 NOR  HN ES   1    915 34.42                             118    0.89 6  239 232 
 NOR  HZ I         915 36.86         9.1 0.13            120            239 232 
 RREF HZ EP   4    915 17.28                             110    1.48 0  327 228 
 RREF HN ES   4    915 54.86                             110    2.60 0  327 228 
 RREF HZ I         916  0.27         5.2 0.20            112            327 228 
 PRA  HZ EP        915 23.87                             106    0.40 6  400 209 
 PRA  HN ES        916  6.32                             106    0.40 6  400 209 
 PRA  HZ I         916 11.41         5.7 0.37            108            400 209 
 SJC  HZ EP   4    915 22.40                             106   -1.20 0  401 326 
 SJC  HN ES   4    916  3.72                             106   -2.42 0  401 326 
                                                                                
