 2010  3 9 0829 35.3 L   6.804 -73.052147.7  RSN 13 0.4 3.2LRSN                1
 GAP=133        0.68       2.9     3.8  3.9 -0.3588E+01  0.1168E+01  0.1305E+01E
 Epicentro: LOS SANTOS - SANTANDER                                             3
 ACTION:UP  10-08-24 09:52 OP:vdl  STATUS:               ID:20100309082935 L   I
 2010-03-09-0827-33S.COL___101                                                 6
 STAT SP IPHASW D HRMM SECON CODA AMPLIT PERI AZIMU VELO SNR AR TRES W  DIS CAZ7
 BAR2 SZ IP        829 55.46                             169     0.210   28 212 
 BAR2 SZ ES   1    830 10.87                             169     0.0 7   28 212 
 BRR  HZ IP        829 57.28                             150     0.110   80 295 
 BRR  HN ES        830 14.33                             150     0.010   80 295 
 BRR  HZ I         830 18.35       307.5 0.19                            80 295 
 RUS  BZ EP   1    829 59.32                             144     0.0 7  101 182 
 RUS  BE ES   1    830 17.86                             144    -0.1 7  101 182 
 RUS  BZ I         830 18.97       143.0 0.40                           101 182 
 OCA  SZ EP        830  3.73                             130    -0.2 9  161 349 
 OCA  SZ I         830 31.27       472.7 0.22                           161 349 
 CHI  HZ IP        830 13.54                             117     0.0 8  252 197 
 CHI  HZ I         830 16.38        47.7 0.21                           252 197 
 CHI  HN ES   1    830 42.81                             117    -0.5 6  252 197 
 HEL  HZ EP        830 17.19                             114     0.4 7  282 256 
 HEL  HN ES   2    830 48.33                             114    -0.8 4  282 256 
 HEL  HZ I         830 54.78        48.4 0.39                           282 256 
 GUY  HZ EP        830 20.00                             112     0.0 7  310 236 
 GUY  HN ES   1    830 54.81                             112    -0.1 5  310 236 
 RREF BZ EP        830 22.51                             111     0.0 7  330 231 
 RREF BN ES   1    830 59.48                             111     0.2 5  330 231 
 RREF BZ I         831  5.10       103.9 0.30                           330 231 
 DBB  SZ EP        830 23.38                             109    -0.7 6  350 274 
 TOL  SZ EP        830 24.90                             109     0.3 6  351 226 
 TOL  SZ ES   2    831  2.72                             109    -0.2 3  351 226 
 SDV  BZ EP        830 24.72                             109     0.2 6  352  49 
 SDV  BZ I         830 25.77        29.3 0.13                           352  49 
 SDV  BZ ES   2    831  2.16                             109    -0.7 3  352  49 
 ANIL BZ EP        830 26.73                             108     0.6 6  365 226 
 ANIL BN ES   1    831  6.27                             108     0.6 5  365 226 
 PRA  HZ EP        830 28.90                             107    -0.7 6  398 211 
 PRA  HN ES   2    831 11.09                             107    -0.8 3  398 211 
 PRA  HZ I         831 15.47        57.4 0.53                           398 211 
                                                                                
