 2013  1 9 0310 52.3 L   6.781 -73.169150.3  RSN  8 0.3 2.4LRSN                1
 GAP=180        0.83       3.2     4.1  6.0  0.3267E+01  0.5044E+01  0.4017E+01E
 Epicentro: LOS SANTOS - SANTANDER                                             3
 ACTION:UPD 13-02-15 09:13 OP:ep   STATUS:               ID:20130109031052 L   I
 2013-01-09-0310-00M.COL___242                                                 6
 STAT SP IPHASW D HRMM SECON CODA AMPLIT PERI AZIMU VELO AIN AR TRES W  DIS CAZ7
 BAR2 SZ EP        311 12.27                             172   -0.1110 20.9 184 
 BAR2 SZ ES        311 27.53                             172   -0.5410 20.9 184 
 BAR2 SZ I         311 28.60        63.1 0.16            172           20.9 184 
 BRR  HZ EP        311 14.17                             154    0.3510 70.1 301 
 BRR  HN ES        311 31.27                             154    0.6210 70.1 301 
 BRR  HN I         311 31.93        47.9 0.30            153           70.1 301 
 RUS  HZ EP        311 16.08                             145   -0.2310 98.6 174 
 RUS  HN ES        311 35.35                             145    0.2710 98.6 174 
 RUS  HN I         311 36.52        35.5 0.28            146           98.6 174 
 PTB  HZ EP   1    311 19.04                             134   -0.29 7  145 259 
 PTB  HN ES        311 40.30                             134   -0.15 9  145 259 
 PTB  HN I         311 45.61        31.8 0.24            133            145 259 
 OCA  HN ES        311 43.37                             130   -0.21 9  162 354 
 OCA  HN I         311 47.41        41.5 0.26            131            162 354 
 ZAR  HN ES        311 50.27                             124    0.02 9  203 293 
 CHI  HZ EP        311 30.31                             118    0.40 8  246 195 
 CHI  HN ES        311 59.29                             118    0.01 8  246 195 
 CHI  HN I         312  1.87        11.9 0.50            119            246 195 
 HEL  HN ES        312  3.33                             116   -0.33 8  269 256 
                                                                                
