 2016  9 9 0939  4.6 L   6.819 -73.145147.2  RSN 11 0.4 1.9LRSN                1
 GAP=136        0.84       2.9     3.5  5.4 -0.2116E+01  0.5251E+01  0.9181E+00E
 Epicentro: LOS SANTOS - SANTANDER                                             3
 ACTION:UPD 17-08-17 21:08 OP:lp   STATUS:               ID:20160909093904 L   I
 OLDACT:REG 16-09-09 13:22 OP:dani STATUS:               ID:20160909093734     3
 2016-09-09-0938-00M.COL___347                                                 6
 STAT SP IPHASW D HRMM SECON CODA AMPLIT PERI AZIMU VELO AIN AR TRES W  DIS CAZ7
 BAR2 EZ EP        939 24.00                             170   -0.4110 25.4 189 
 BAR2 EZ ES        939 39.34                             170   -0.5410 25.4 189 
 BAR2 EZ I         939 40.76        19.6 0.20            170           25.4 189 
 BRR  HZ EP   2    939 26.38                             153    0.56 5 70.3 297 
 BRR  HN ES        939 43.05                             153    0.6610 70.3 297 
 BRR  HZ I         939 44.80        10.3 0.16            153           70.3 297 
 PAM  EZ EP        939 27.44                             152    0.6110 75.7  40 
 PAM  EN ES        939 44.23                             152    0.0310 75.7  40 
 PAM  EZ I         939 46.67        19.2 0.48            153           75.7  40 
 RUS  HZ EP   2    939 28.70                             143    0.10 5  103 176 
 RUS  HN ES        939 47.59                             143    0.2310  103 176 
 RUS  HZ I         939 48.26        10.7 0.26            145            103 176 
 PTB  HZ EP        939 31.31                             132   -0.38 9  148 258 
 PTB  HE ES        939 52.85                             132   -0.01 9  148 258 
 PTB  HZ I         939 55.22         5.9 0.12            132            148 258 
 OCA  HZ EP   2    939 32.55                             130   -0.24 5  158 353 
 OCA  HE ES        939 54.34                             130   -0.47 9  158 353 
 OCA  HZ I         939 57.70        14.9 0.48            131            158 353 
 SPBC HZ EP        939 33.46                             129    0.13 9  165 219 
 SPBC HN ES        939 55.52                             129   -0.25 9  165 219 
 SPBC HZ I         939 58.08        14.3 0.38            130            165 219 
 ZAR  HZ EP   2    939 37.03                             123   -0.00 4  203 292 
 ZAR  HN ES        940  2.35                             123   -0.01 9  203 292 
 ZAR  HZ I         940  4.90         5.1 0.24            123            203 292 
 NOR  HZ EP   2    939 40.66                             119    0.14 4  236 234 
 NOR  HE ES        940  8.78                             119    0.22 8  236 234 
 NOR  HZ I         940 11.04         5.8 0.16            119            236 234 
 CHI  HZ EP   2    939 42.54                             117   -0.02 4  251 195 
 CHI  HN ES   4    940 10.75                             117   -1.45 0  251 195 
 CHI  HZ I         940 15.77         5.3 0.58            118            251 195 
 GUY2CHZ EP   2    939 48.24                             112   -0.15 4  303 234 
 GUY2CHN ES   4    940 23.78                             112    1.21 0  303 234 
 GUY2CHZ I         940 30.64         3.9 0.28                           303 234 
                                                                                
