 2015  8 9 0620 29.3 L   6.803 -72.919144.2  RSN  7 0.5 1.9LRSN                1
 GAP=206        1.19       4.4     8.1 10.8  0.7890E+01 -0.1152E+02 -0.1733E+02E
 Epicentro: SAN ANDRES - SANTANDER                                             3
 ACTION:UPD 15-09-15 23:01 OP:cam  STATUS:               ID:20150809062030dL   I
 OLDACT:UP  15-08-09 16:54 OP:mh   STATUS:               ID:20150809061749d    3
 OLDACT:UP  15-08-09 16:47 OP:mh   STATUS:               ID:20150809061749d    3
 OLDACT:DUP 15-08-09 16:46 OP:mh   STATUS:               ID:20150809061749d    3
 OLDACT:DUP 15-08-09 16:40 OP:mh   STATUS:               ID:20150809061748d    3
 OLDACT:UP  15-08-09 16:38 OP:mh   STATUS:               ID:20150809061747     3
 OLDACT:UP  15-08-09 16:36 OP:mh   STATUS:               ID:20150809061747     3
 OLDACT:UP  15-08-09 16:35 OP:mh   STATUS:               ID:20150809061747     3
 OLDACT:UP  15-08-09 16:34 OP:mh   STATUS:               ID:20150809061747     3
 OLDACT:UP  15-08-09 16:32 OP:mh   STATUS:               ID:20150809061747     3
 OLDACT:UP  15-08-09 16:29 OP:mh   STATUS:               ID:20150809061747     3
 OLDACT:REG 15-08-09 12:35 OP:mh   STATUS:               ID:20150809061747     3
 2015-08-09-0617-47M.COL___343                                                 6
 STAT SP IPHASW D HRMM SECON CODA AMPLIT PERI AZIMU VELO AIN AR TRES W  DIS CAZ7
 BAR2 EZ EP        620 49.32                             165    0.2610 37.3 231 
 BAR2 EZ I         621  6.07        12.1 0.18            169           37.3 231 
 BRR  HZ EP        620 51.02                             145   -0.6610 93.9 291 
 BRR  HN ES        621  8.64                             145   -0.5310 93.9 291 
 BRR  HZ I         621 13.00        16.0 0.12            149           93.9 291 
 RUS  HZ EP        620 53.01                             143    0.0310  102 190 
 RUS  HN ES        621 11.35                             143   -0.1310  102 190 
 RUS  HZ I         621 13.22         3.9 0.56            145            102 190 
 OCA  HZ EP        620 58.57                             128    0.69 9  165 344 
 OCA  HN ES        621 20.42                             128    0.21 9  165 344 
 OCA  HZ I         621 24.20        20.0 0.36            130            165 344 
 SPBC HN ES        621 23.41                             126    0.69 9  180 225 
 SPBC HZ I         621 24.78         7.1 0.10            129            180 225 
 ZAR  HZ EP     C  621  3.54                             119   -0.51 8  227 290 
 ZAR  HN ES        621 31.40                             119    0.21 8  227 290 
 ZAR  HZ I         621 34.47         7.6 0.24            122            227 290 
 SML  HZ EP        621  6.31                             116   -0.71 8  255 330 
 SML  HN ES        621 37.12                             116    0.64 8  255 330 
 SML  HZ I         621 40.68        11.2 0.26            118            255 330 
                                                                                
