 2012  5 9 0021 34.7 L   7.271 -73.168131.5  RSN  4 0.3 1.2LRSN                1
 GAP=164        0.49      19.0     6.4  7.9 -0.8587E+02  0.2272E+01  0.4566E+02E
 Epicentro: RIONEGRO - SANTANDER                                               3
 ACTION:UP  12-07-05 12:03 OP:pat  STATUS:               ID:20120509002134 L   I
 2012-05-09-0020-00M.COL___192                                                 6
 STAT SP IPHASW D HRMM SECON CODA AMPLIT PERI AZIMU VELO SNR AR TRES W  DIS CAZ7
 PAM  SZ EP        021 53.98                             158    -0.110   52  82 
 PAM  SN ES   2    022  9.03                             158    -0.1 5   52  82 
 BRR  HZ EP        021 53.99                             153     0.110   63 253 
 BRR  HE ES   2    022  9.00                             153     0.2 5   63 253 
 PTB  HZ EP        022  2.02                             126    -0.1 9  164 240 
 PTB  HZ I         022 28.30         1.3 0.18                           164 240 
 ZAR  HZ EP   3    022  5.60                             121     1.0 2  188 278 
 ZAR  HN ES   3    022 26.87                             121    -1.1 2  188 278 
 ZAR  HZ I         022 28.47         2.0 0.28                           188 278 
                                                                                
