 2016  8 9 0215 51.2 L   6.802 -73.186144.0  RSN  5 0.4 1.3LRSN                1
 GAP=233        0.76       6.1     6.4  8.0  0.1969E+02  0.1191E+02  0.9547E+00E
 Epicentro: ZAPATOCA - SANTANDER                                               3
 ACTION:UPD 16-10-29 15:34 OP:rebc STATUS:               ID:20160809021551 L   I
 OLDACT:REG 16-08-09 12:54 OP:dnl  STATUS:               ID:20160809020759     3
 2016-08-09-0207-59S.COL___343                                                 6
 STAT SP IPHASW D HRMM SECON CODA AMPLIT PERI AZIMU VELO AIN AR TRES W  DIS CAZ7
 BAR2 EZ EP   3    216 10.44                             170   -0.20 2 23.2 179 
 BAR2 EZ ES        216 25.85                             170    0.0710 23.2 179 
 BAR2 EZ I         216 28.19         6.6 0.38                          23.2 179 
 BRR  HZ EP        216 12.47                             153    0.5110 67.2 300 
 BRR  HN ES        216 27.67                             153   -0.4610 67.2 300 
 BRR  HZ I         216 32.16         3.4 0.40                          67.2 300 
 RUS  HZ EP   2    216 14.44                             143   -0.41 5  101 174 
 RUS  HN ES        216 33.26                             143   -0.0210  101 174 
 RUS  HZ I         216 34.23         2.6 0.24                           101 174 
 PTB  HZ EP   2    216 16.94                             132   -0.72 5  143 258 
 PTB  HN ES        216 38.43                             132    0.15 9  143 258 
 PTB  HZ I         216 40.56         1.5 0.34                           143 258 
 ZAR  HN ES   3    216 48.82                             122    0.82 2  200 293 
 ZAR  HZ I         217  5.85         2.5 0.38                           200 293 
                                                                                
