 2010  9 9 0523 31.8 L   6.766 -73.082147.6  RSN 15 0.4 3.2LRSN                1
 GAP=166        1.05       3.3     6.7  5.4 -0.9122E+01  0.6137E+01  0.2236E+01E
 Epicentro: LOS SANTOS - SANTANDER                                             3
 ACTION:UP  11-02-18 11:01 OP:tino STATUS:               ID:20100909052331 L   I
 2010-09-09-0521-25S.COL___120                                                 6
 STAT SP IPHASW D HRMM SECON CODA AMPLIT PERI AZIMU VELO SNR AR TRES W  DIS CAZ7
 BAR2 SZ IP        523 51.63                             171     0.010   22 210 
 BAR2 SZ ES        524  6.90                             171    -0.210   22 210 
 BAR2 SZ I         524  8.40       437.5 0.15                            22 210 
 GIR2 SZ EP   1    523 51.69                             165    -0.2 7   37 340 
 GIR2 SZ ES   1    524  7.77                             165     0.3 7   37 340 
 BRR  HZ IP     C  523 53.51                             150    -0.110   79 299 
 BRR  HZ I         523 53.77       403.1 0.16                            79 299 
 BRR  HN ES        524 10.87                             150     0.210   79 299 
 RUS  HZ IP     D  523 55.46                             145     0.010   97 180 
 RUS  HE ES        524 13.95                             145     0.010   97 180 
 RUS  HZ I         524 15.52       106.7 0.32                            97 180 
 GUE  SZ EP        523 56.53                             139    -0.410  119   8 
 GRA  SZ IP        523 58.41                             137     1.010  128  14 
 GRA  SZ I         523 59.56       162.9 0.18                           128  14 
 GRA  SZ ES   1    524 17.40                             137     0.1 7  128  14 
 OCA  SZ IP        523 59.97                             129    -0.8 9  165 351 
 OCA  SZ ES   1    524 22.99                             129    -0.3 7  165 351 
 OCA  SZ I         524 26.79       163.4 0.37                           165 351 
 CHI  HZ EP   1    524  9.46                             118     0.0 6  247 197 
 CHI  HE ES        524 38.58                             118    -0.2 8  247 197 
 CHI  HZ I         524 42.56        72.1 0.62                           247 197 
 ROSC BZ EP   1    524 11.05                             117     0.9 6  253 213 
 ROSC BN ES   1    524 40.19                             117     0.2 6  253 213 
 ROSC BZ I         524 45.46        89.4 0.44                           253 213 
 CVER SZ EP   2    524 11.78                             115    -0.4 4  271 204 
 CVER SZ I         524 54.60        93.4 0.45                           271 204 
 HEL  HZ EP   2    524 13.05                             115     0.3 4  278 257 
 HEL  HZ I         524 50.23        27.7 0.33                           278 257 
 GUY  SZ EP   1    524 16.51                             112     0.6 5  305 236 
 GUY  SE ES   1    524 50.61                             112     0.3 5  305 236 
 GUY  SZ I         524 57.60       224.5 0.63                           305 236 
 RREF HZ EP        524 18.77                             111     0.4 7  325 231 
 RREF HN ES   1    524 54.01                             111    -0.7 5  325 231 
 RREF HZ I         525  4.13       104.1 0.25                           325 231 
 TOL  SZ EP   1    524 20.31                             109    -0.1 5  346 226 
 PRA  HZ EP        524 24.95                             107    -0.5 6  392 211 
 PRA  HE ES        525  7.01                             107    -0.2 6  392 211 
 PRA  HZ I         525 13.34        78.9 0.31                           392 211 
                                                                                
