 2012  4 9 0515 33.3 L   6.767 -73.174139.3  RSN  5 0.4 1.1LRSN                1
 GAP=134        0.87       5.7     5.1 10.2  0.1973E+01  0.9318E+01  0.5711E+01E
 Epicentro: LOS SANTOS - SANTANDER                                             3
 ACTION:UPD 12-07-05 11:52 OP:tino STATUS:               ID:20120409051533 L   I
 2012-04-09-0510-00M.COL___196                                                 6
 STAT SP IPHASW D HRMM SECON CODA AMPLIT PERI AZIMU VELO AIN AR TRES W  DIS CAZ7
 BRR  HZ EP   1    515 53.81                             152     0.1 7   70 302 
 BRR  HZ I         515 56.34         4.5 0.46                            70 302 
 BRR  HN ES   1    516 10.06                             152     0.5 7   70 302 
 PAM  SZ EP   1    515 54.98                             148    -0.1 7   82  40 
 PAM  SZ I         515 55.17         3.0 0.17                            82  40 
 PAM  SN ES   1    516 11.82                             148    -0.3 7   82  40 
 RUS  HZ EP   1    515 56.76                             143     0.6 7   97 174 
 RUS  HN ES   1    516 13.82                             143    -0.2 7   97 174 
 RUS  HZ I         516 17.58         1.4 0.32                            97 174 
 PTB  HZ EP   1    515 58.87                             131    -0.5 7  144 260 
 PTB  HN ES   1    516 19.35                             131    -0.4 7  144 260 
 PTB  HZ I         516 23.74         1.2 0.08                           144 260 
 ZAR  HE ES   1    516 30.18                             121     0.2 6  203 293 
                                                                                
