 2016 11 9 0407 14.3 L   6.753 -73.128149.3  RSN  5 0.3 1.2LRSN                1
 GAP=162        0.86       7.4     4.2  6.9 -0.6864E+01  0.6020E+01  0.1754E+01E
 Epicentro: LOS SANTOS - SANTANDER                                             3
 ACTION:UPD 17-10-26 21:06 OP:lp   STATUS:               ID:20161109040714 L   I
 OLDACT:REG 16-11-09 12:40 OP:lv   STATUS:               ID:20161109035739     3
 2016-11-09-0358-00M.COL___349                                                 6
 STAT SP IPHASW D HRMM SECON CODA AMPLIT PERI AZIMU VELO AIN AR TRES W  DIS CAZ7
 BAR2 EZ EP        4 7 34.53                             172    0.2910 18.8 199 
 BAR2 EZ ES        4 7 49.89                             172    0.0710 18.8 199 
 BAR2 EZ I         4 7 50.46         4.9 0.26            173           18.8 199 
 BRR  HZ EP        4 7 36.07                             152    0.0310 75.5 301 
 BRR  HN ES        4 7 53.54                             152    0.5210 75.5 301 
 PAM  EZ EP        4 7 36.93                             151   -0.1010 80.3  36 
 PAM  EZ I         4 7 54.20         1.7 0.16            139           80.3  36 
 PAM  EE ES        4 7 54.40                             151   -0.3810 80.3  36 
 PTB  HZ EP        4 7 41.75                             133    0.14 9  149 261 
 PTB  HN ES        4 8  2.28                             133   -0.66 9  149 261 
 PTB  HZ I         4 8  8.07         1.5 0.32            126            149 261 
 ZAR  HZ EP   4    4 7 50.84                             123    3.51 0  208 293 
 ZAR  HN ES        4 8 13.16                             123    0.04 8  208 293 
 ZAR  HZ I         4 8 17.58         1.3 0.11            115            208 293 
                                                                                
