 2013  3 9 0459 15.3 L   6.792 -73.153141.3  RSN  6 0.5 1.8LRSN                1
 GAP=149        1.19       7.9     6.5  8.7 -0.2477E+02  0.2950E+01 -0.7419E+01E
 Epicentro: LOS SANTOS - SANTANDER                                             3
 ACTION:UPD 13-04-09 14:00 OP:ep   STATUS:               ID:20130309045915 L   I
 2013-03-09-0458-49M.COL___198                                                 6
 STAT SP IPHASW D HRMM SECON CODA AMPLIT PERI AZIMU VELO AIN AR TRES W  DIS CAZ7
 BAR2 SZ ES        459 48.83                             171   -0.3910 22.4 188 
 BAR2 SZ I         459 51.23        10.4 0.26            172           22.4 188 
 BRR  HZ IP     C  459 36.34                             152    0.4210 70.9 299 
 BRR  HE ES        459 52.92                             152    0.8910 70.9 299 
 BRR  HN I         459 57.69        14.6 0.18            152           70.9 299 
 PAM  SZ EP        459 37.34                             150    0.2610 78.5  40 
 PAM  SE ES        459 53.99                             150   -0.1010 78.5  40 
 PTB  HZ EP        459 41.51                             131   -0.28 9  147 259 
 PTB  HN ES        5 0  2.07                             131   -0.41 9  147 259 
 CAPV BZ EP        459 42.51                             131    0.10 9  150  38 
 OCA  HN ES        5 0  4.50                             128   -0.67 9  161 353 
                                                                                
