 2013  6 9 0608 32.9 L   6.794 -73.162148.0  RSN  7 0.4 2.1LRSN                1
 GAP=135        0.68       4.2     5.8  8.4 -0.5687E+00  0.3896E+01 -0.6238E+01E
 Epicentro: LOS SANTOS - SANTANDER                                             3
 ACTION:UPD 14-01-08 09:53 OP:ep   STATUS:               ID:20130609060832 L   I
 OLDACT:UP  13-06-09 08:55 OP:mh   STATUS:               ID:20130609060000     3
 OLDACT:REG 13-06-09 07:40 OP:mh   STATUS:               ID:20130609060000     3
 2013-06-09-0600-00M.COL___257                                                 6
 STAT SP IPHASW D HRMM SECON CODA AMPLIT PERI AZIMU VELO AIN AR TRES W  DIS CAZ7
 BAR2 SZ EP        6 8 52.82                             171    0.0410 22.4 186 
 BRR  HN ES   2    6 9 11.89                             153    1.04 5 70.0 300 
 BRR  HZ I         6 9 16.95         8.3 0.50            150           70.0 300 
 PAM  SZ EP        6 8 55.62                             151    0.1710 79.0  40 
 PAM  SN ES   2    6 9 12.87                             151   -0.16 5 79.0  40 
 PAM  SN I         6 9 13.39        19.4 0.40            157           79.0  40 
 RUS  HZ EP   1    6 8 57.16                             144    0.33 7  100 175 
 RUS  HN ES   2    6 9 14.61                             144   -0.89 5  100 175 
 RUS  HN I         6 9 17.29        10.6 0.28            150            100 175 
 PTB  HZ EP   1    6 8 59.71                             133   -0.17 7  146 259 
 PTB  HN ES   2    6 9 20.65                             133   -0.28 5  146 259 
 PTB  HN I         6 9 26.38        29.7 0.24            133            146 259 
 OCA  HZ EP   1    6 9  1.14                             130   -0.28 7  161 354 
 OCA  HN ES   2    6 9 23.31                             130   -0.36 5  161 354 
 OCA  HN I         6 9 28.24        47.1 0.26            133            161 354 
 SML  HZ EP   1    6 9  9.77                             118    0.13 6  244 336 
 SML  HN ES   2    6 9 37.71                             118   -0.58 4  244 336 
 SML  HZ I         6 9 41.36        16.7 0.24            121            244 336 
                                                                                
