 2012  5 9 0652 45.6 L   6.682 -73.260143.9  RSN  4 0.1 1.3LRSN                1
 GAP=186        0.36       4.7     3.3  6.0  0.3335E+01 -0.3242E+01  0.1361E+02E
 Epicentro: BARICHARA - SANTANDER                                              3
 ACTION:UP  12-07-05 12:03 OP:pat  STATUS:               ID:20120509065245 L   I
 2012-05-09-0650-00M.COL___192                                                 6
 STAT SP IPHASW D HRMM SECON CODA AMPLIT PERI AZIMU VELO SNR AR TRES W  DIS CAZ7
 BAR2 SZ EP        653  4.77                             175    -0.110   13 139 
 BAR2 SZ I         653  4.92         4.7 0.36                            13 139 
 BRR  HZ EP        653  6.34                             153    -0.110   69 313 
 BRR  HZ I         653  6.57         3.7 0.30                            69 313 
 BRR  HN ES   1    653 22.74                             153     0.1 7   69 313 
 RUS  HZ EP        653  8.44                             147     0.010   89 167 
 PTB  HZ EP        653 11.22                             135     0.110  133 263 
 PTB  HN ES   1    653 30.93                             135    -0.1 7  133 263 
                                                                                
