 2012  7 9 0355 57.3 L   6.749 -73.138148.9  RSN  6 0.4 1.5LRSN                1
 GAP=183        1.02       6.1     7.0  9.2  0.1193E+02  0.7500E+01 -0.3213E+01E
 Epicentro: LOS SANTOS - SANTANDER                                             3
 ACTION:UPD 12-08-14 11:43 OP:ep   STATUS:               ID:20120709035558dL   I
 2012-07-09-0350-00M.COL___201                                                 6
 STAT SP IPHASW D HRMM SECON CODA AMPLIT PERI AZIMU VELO AIN AR TRES W  DIS CAZ7
 BAR2 SZ EP   1    356 17.36                             173     0.2 7   18 196 
 BAR2 SZ ES   1    356 32.13                             173    -0.6 7   18 196 
 BAR2 SZ I         356 35.79         6.3 0.13                            18 196 
 BRR  HZ EP   1    356 19.49                             152     0.5 7   75 302 
 BRR  HN ES        356 36.39                             152     0.510   75 302 
 BRR  HZ I         356 39.17         9.5 0.15                            75 302 
 RUS  HZ EP   1    356 21.28                             146     0.4 7   95 176 
 RUS  HN ES   1    356 39.19                             146    -0.2 7   95 176 
 RUS  HZ I         356 42.37         2.0 0.26                            95 176 
 PTB  HZ EP   1    356 24.50                             133     0.0 7  148 261 
 PTB  HN ES        356 45.48                             133    -0.2 9  148 261 
 PTB  HZ I         356 51.47         4.5 0.25                           148 261 
 OCA  HE ES   1    356 48.73                             129    -0.3 7  166 353 
 ZAR  HZ EP   1    356 29.42                             123    -0.8 6  207 294 
 ZAR  HN ES   1    356 55.89                             123     0.0 6  207 294 
 ZAR  HZ I         357  2.58         4.7 0.13                           207 294 
