 2015  1 9 0708  6.6 L   6.794 -73.168142.5  RSN 14 0.5 2.3LRSN                1
 GAP= 70        1.26       3.6     3.6  6.4  0.7128E+00  0.4481E+01 -0.1113E+01E
 Epicentro: LOS SANTOS - SANTANDER                                             3
 ACTION:UPD 15-03-02 15:38 OP:nd   STATUS:               ID:20150109070806 L   I
 OLDACT:UP  15-01-09 17:26 OP:cam  STATUS:               ID:20150109070649     3
 OLDACT:UP  15-01-09 17:25 OP:cam  STATUS:               ID:20150109070649     3
 OLDACT:REG 15-01-09 17:20 OP:cam  STATUS:               ID:20150109070649     3
 2015-01-09-0706-49M.COL___265                                                 6
 STAT SP IPHASW D HRMM SECON CODA AMPLIT PERI AZIMU VELO AIN AR TRES W  DIS CAZ7
 BAR2 EZ EP        7 8 25.85                             171    0.0710 22.3 184 
 BAR2 EZ ES        7 8 40.25                             171   -0.5210 22.3 184 
 BAR2 EZ I         7 8 41.61        46.4 0.22            171           22.3 184 
 BRR  HZ IP     C  7 8 27.78                             153    0.5310 69.4 300 
 BRR  HN ES        7 8 44.60                             153    1.2010 69.4 300 
 BRR  HN I         7 8 49.16        81.3 0.14            152           69.4 300 
 PAM  SZ EP        7 8 28.66                             150    0.1110 79.5  41 
 PAM  SN ES        7 8 45.53                             150   -0.1810 79.5  41 
 PAM  SZ I         7 8 48.01        53.6 0.58            153           79.5  41 
 RUS  HZ EP        7 8 30.31                             143    0.3610  100 175 
 RUS  HE ES   1    7 8 48.91                             143    0.71 7  100 175 
 RUS  HE I         7 8 49.25        32.1 0.18            146            100 175 
 PTB  HZ EP        7 8 32.57                             132   -0.46 9  145 259 
 PTB  HN ES        7 8 52.74                             132   -0.94 9  145 259 
 PTB  HZ I         7 8 56.29        29.9 0.14            133            145 259 
 TAM  HZ IP     D  7 8 34.16                             129   -0.02 9  157 105 
 TAM  HN ES        7 8 55.34                             129   -0.39 9  157 105 
 TAM  HN I         7 8 56.18        20.9 0.44            133            157 105 
 SPBC HZ EP        7 8 34.91                             129    0.30 9  161 218 
 SPBC HN ES        7 8 55.92                             129   -0.57 9  161 218 
 SPBC HZ I         7 9  1.55        11.5 0.24            131            161 218 
 OCA  HZ EP        7 8 34.31                             129   -0.34 9  161 354 
 OCA  HN ES        7 8 56.25                             129   -0.32 9  161 354 
 OCA  HZ I         7 9  0.89        21.2 0.32            131            161 354 
 ZAR  HZ EP        7 8 39.02                             122    0.43 9  202 293 
 ZAR  HN ES        7 9  3.95                             122    0.38 9  202 293 
 ZAR  HN I         7 9  6.18        49.8 0.46            123            202 293 
 SML  HZ EP        7 8 42.39                             117   -0.57 8  243 336 
 SML  HE ES        7 9 11.63                             117    0.27 8  243 336 
 SML  HZ I         7 9 13.93        23.2 0.10            119            243 336 
 CHI  HZ EP        7 8 44.23                             117    0.29 8  247 195 
 HEL  HZ EP   4    7 8 47.91                             114    1.59 0  270 256 
 HEL  HN ES        7 9 17.02                             114   -0.32 8  270 256 
 HEL  HZ I         7 9 24.84         6.3 0.26            116            270 256 
 URE  HZ EP        7 8 47.80                             113    0.55 7  282 292 
 CBOC HZ EP   4    7 8 54.96                             109    1.91 0  331 252 
 MON  HZ EP   4    7 8 53.75                             108   -1.51 0  352 309 
 MON  HN ES        7 9 32.47                             108   -0.78 6  352 309 
 MON  HZ I         7 9 33.08         5.6 0.18            110            352 309 
 SJC  HZ EP   4    7 9  0.85                             105   -1.08 0  408 327 
                                                                                
