 2012  4 9 0645 41.1 L   6.636 -73.672 98.4  RSN  5 0.4 0.8LRSN                1
 GAP=121        0.80       5.0     5.4 10.4  0.3642E+01 -0.3638E+01  0.1155E+02E
 Epicentro: EL CARMEN DE CHUCURI - SANTANDER                                   3
 ACTION:UPD 12-07-05 11:52 OP:tino STATUS:               ID:20120409064541 L   I
 2012-04-09-0640-00M.COL___196                                                 6
 STAT SP IPHASW D HRMM SECON CODA AMPLIT PERI AZIMU VELO AIN AR TRES W  DIS CAZ7
 BRR  HZ EP   1    645 56.24                             150     0.2 7   52 355 
 BRR  HZ I         645 56.70         2.7 0.10                            52 355 
 BRR  HN ES   1    646  8.19                             150     0.4 7   52 355 
 BAR2 SZ EP   1    645 56.73                             149     0.2 7   54  95 
 BAR2 SZ ES   1    646  8.57                             149     0.0 7   54  95 
 PTB  HN ES   2    646 11.71                             135    -0.8 5   87 263 
 RUS  HZ EP   1    646  1.27                             130     0.3 7  105 142 
 RUS  HZ I         646  3.23         1.1 0.44                           105 142 
 RUS  HN ES   1    646 16.44                             130     0.0 7  105 142 
 PAM  SN ES   1    646 20.74                             123    -0.6 7  133  54 
                                                                                
