 2012  4 9 0919 41.8 L   6.656 -73.638101.9  RSN  8 0.4 2.3LRSN                1
 GAP= 85        0.87       3.8     3.4  7.5 -0.7046E+00  0.1196E+02  0.1806E+01E
 Epicentro: EL CARMEN DE CHUCURI - SANTANDER                                   3
 ACTION:UPD 12-07-05 11:52 OP:tino STATUS:               ID:20120409091941 L   I
 2012-04-09-0917-29S.COL___204                                                 6
 STAT SP IPHASW D HRMM SECON CODA AMPLIT PERI AZIMU VELO AIN AR TRES W  DIS CAZ7
 BRR  HZ EP        919 56.87                             151    -0.210   51 351 
 BRR  HE ES   1    920  8.78                             151    -0.2 7   51 351 
 BRR  HZ I         920 10.62        98.7 0.13                            51 351 
 BAR2 SZ EP        919 57.84                             152     0.410   51  98 
 BAR2 SZ I         919 58.13        76.0 0.24                            51  98 
 BAR2 SZ ES   1    920 10.22                             152     0.6 7   51  98 
 RUS  HZ EP   1    920  2.01                             131     0.1 7  104 144 
 RUS  HN ES   1    920 17.31                             131    -0.3 7  104 144 
 RUS  HZ I         920 21.28        20.9 0.42                           104 144 
 PAM  SZ EP   1    920  4.60                             124     0.3 7  128  54 
 PAM  SE ES   1    920 21.01                             124    -0.7 7  128  54 
 ZAR  HZ EP   1    920  7.39                             117     0.1 7  163 305 
 ZAR  HN ES   1    920 27.33                             117     0.1 7  163 305 
 ZAR  HZ I         920 29.47        36.2 0.36                           163 305 
 OCA  SZ EP   1    920  9.15                             114     0.0 7  178  11 
 NOR  SZ EP   1    920  8.82                             114    -0.6 7  182 229 
 NOR  SN ES   1    920 30.65                             114    -0.3 7  182 229 
 HEL  HZ EP        920 13.92                             110     0.3 8  215 256 
 HEL  HN ES   1    920 38.61                             110     0.2 6  215 256 
 HEL  HZ I         920 41.57        13.3 0.19                           215 256 
                                                                                
