 2016  3 9 0537 21.6 L   7.161 -73.067146.3  RSN  4 0.2 1.3LRSN                1
 GAP=178        0.60       4.2     4.1  5.4 -0.5705E+01  0.7988E+01 -0.8313E+00E
 Epicentro: BUCARAMANGA - SANTANDER                                            3
 ACTION:UPD 16-05-13 21:22 OP:cam  STATUS:               ID:20160309053721 L   I
 OLDACT:UP  16-03-09 16:45 OP:cara STATUS:               ID:20160309052751d    3
 OLDACT:DUP 16-03-09 16:42 OP:cara STATUS:               ID:20160309052751d    3
 OLDACT:DUP 16-03-09 16:34 OP:cara STATUS:               ID:20160309052750d    3
 2016-03-09-0527-49M.COL___289                                                 6
 STAT SP IPHASW D HRMM SECON CODA AMPLIT PERI AZIMU VELO AIN AR TRES W  DIS CAZ7
 PAM  EZ EP        537 42.54                             162    0.2110 45.1  64 
 PAM  EN ES        537 58.23                             162   -0.2410 45.1  64 
 PAM  EZ I         538  0.33         2.4 0.54            164           45.1  64 
 BAR2 EZ IP   4    537 43.86                             155    1.05 0 64.2 191 
 BAR2 EZ ES        537 59.61                             155    0.2910 64.2 191 
 BAR2 EZ I         538  2.54         4.4 0.52            155           64.2 191 
 RUS  HZ EP        537 48.76                             134    0.14 9  140 181 
 RUS  HE ES        538  9.43                             134   -0.25 9  140 181 
 RUS  HZ I         538 12.67         1.1 0.38            135            140 181 
 PTB  HZ EP        537 50.30                             128   -0.26 9  168 246 
 PTB  HE ES        538 13.17                             128    0.05 9  168 246 
 PTB  HZ I         538 14.56         6.6 0.90            130            168 246 
                                                                                
