 2013  8 9 0811  3.7 L   6.769 -73.137140.0  RSN  9 0.5 1.4LRSN                1
 GAP=139        1.12       5.1     5.2  7.0 -0.4495E+01  0.8846E+01  0.6197E+01E
 Epicentro: LOS SANTOS - SANTANDER                                             3
 ACTION:UPD 14-01-14 09:00 OP:ep   STATUS:               ID:20130809081103 L   I
 OLDACT:REG 13-08-09 06:45 OP:jn   STATUS:               ID:20130809080959     3
 2013-08-09-0809-59M.COL___267                                                 6
 STAT SP IPHASW D HRMM SECON CODA AMPLIT PERI AZIMU VELO AIN AR TRES W  DIS CAZ7
 BAR2 SZ EP        811 22.57                             171    0.0310 20.2 194 
 BAR2 SZ ES        811 37.73                             171    0.4710 20.2 194 
 BAR2 SZ I         811 38.56         8.4 0.22            170           20.2 194 
 GIR2 SZ EP   1    811 22.52                             165   -0.24 7 34.8 350 
 GIR2 SZ ES        811 37.08                             165   -0.5710 34.8 350 
 GIR2 SZ I         811 38.60         4.7 0.16            164           34.8 350 
 BRR  HZ EP        811 24.55                             151    0.2110 73.7 301 
 BRR  HN ES        811 41.12                             151    0.6510 73.7 301 
 BRR  HZ I         811 46.31         5.2 0.18            149           73.7 301 
 PAM  SZ EP        811 25.56                             149    0.1610 79.5  37 
 PAM  SN ES        811 42.07                             149   -0.2910 79.5  37 
 PAM  SZ I         811 45.98         2.7 0.40            153           79.5  37 
 RUS  HZ EP        811 26.51                             144   -0.0910 97.1 176 
 RUS  HN ES   1    811 44.92                             144    0.43 7 97.1 176 
 RUS  HZ I         811 46.66         2.6 0.38            147           97.1 176 
 PTB  HZ EP        811 29.38                             131   -0.81 9  148 260 
 PTB  HN ES   1    811 49.91                             131   -0.98 7  148 260 
 PTB  HZ I         811 54.49         3.4 0.32            131            148 260 
 SPBC HZ EP   1    811 31.51                             128   -0.02 7  161 220 
 SPBC HN ES   1    811 52.99                             128   -0.27 7  161 220 
 SPBC HZ I         811 58.10         3.0 0.36            130            161 220 
 ZAR  HZ EP   1    811 37.02                             121    1.05 6  206 293 
 ZAR  HN ES   1    812  1.36                             121    0.20 6  206 293 
 ZAR  HZ I         812  7.40         3.3 0.30            122            206 293 
 NOR  HE ES   1    812  6.81                             117    0.37 6  233 235 
                                                                                
