 2017  2 9 0512 28.9 L   6.764 -73.102117.8  RSN  4 0.1 1.1LRSN                1
 GAP=239        0.49       3.8     5.5  5.0  0.1584E+01 -0.1123E+02  0.3605E+01E
 Epicentro: LOS SANTOS - SANTANDER                                             3
 ACTION:UPD 17-05-24 15:34 OP:jn   STATUS:               ID:20170209051230 L   I
 OLDACT:UP  17-04-17 12:53 OP:nlst STATUS:               ID:20170209051230 L   3
 OLDACT:UP  17-02-09 18:18 OP:edw  STATUS:               ID:20170209050745d    3
 OLDACT:UP  17-02-09 18:17 OP:edw  STATUS:               ID:20170209050745d    3
 OLDACT:DUP 17-02-09 18:14 OP:edw  STATUS:               ID:20170209050745d    3
 2017-02-09-0508-00M.COL___364                                                 6
 STAT SP IPHASW D HRMM SECON CODA AMPLIT PERI AZIMU VELO AIN AR TRES W  DIS CAZ7
 BRR  HZ EP        512 47.39                             143   -0.1510 77.3 299 
 BRR  HN ES        513  2.09                             143    0.0210 77.3 299 
 RUS  HZ EP   9    512 51.14                             138    1.46 0 96.3 179 
 RUS  HN ES        513  7.05                             136   -0.2910 96.3 179 
 RUS  HZ I         513 10.68         1.1 0.42            139           96.3 179 
 PTB  HZ EP   4    512 52.95                             123   -1.21 0  152 261 
 PTB  HN ES        513 13.91                             123    0.06 9  152 261 
 PTB  HZ I         513 16.15         4.2 0.80            128            152 261 
 CHI  HZ EP        513  5.05                             110    0.12 8  246 196 
 CHI  HN ES   4    513 32.06                             110   -0.97 0  246 196 
 CHI  HZ I         513 33.26         1.1 0.30            113            246 196 
                                                                                
