 2012  2 9 0446 11.4 L   6.767 -73.087144.0  RSN  5 0.2 1.2LRSN                1
 GAP=198        0.41       4.5     6.8  5.7  0.1853E+02 -0.4154E+01 -0.5673E+01E
 ACTION:UP  12-03-07 16:28 OP:epov STATUS:               ID:20120209044611 L   I
 2012-02-09-0440-00M.COL___187                                                 6
 STAT SP IPHASW D HRMM SECON CODA AMPLIT PERI AZIMU VELO AIN AR TRES W  DIS CAZ7
 BAR2 SZ EP   1    446 30.93                             171    0.12 7 22.0 209 
 BAR2 SZ I         446 41.89         5.1 0.42                          22.0 209 
 GIR2 SZ EP   1    446 30.91                             165   -0.13 7 36.4 341 
 BRR  HZ EP        446 32.74                             150   -0.0810 78.6 299 
 BRR  HN ES   1    446 49.64                             150    0.13 7 78.6 299 
 BRR  HZ I         446 54.20         2.9 0.15                          78.6 299 
 RUS  HZ EP   2    446 35.19                             145    0.47 5 96.7 180 
 RUS  HN ES   1    446 52.76                             145   -0.13 7 96.7 180 
 RUS  HZ I         446 54.93         1.7 0.32                          96.7 180 
 PTB  HZ EP   1    446 38.71                             130   -0.06 7  153 261 
                                                                                
