 2016  8 9 0623 19.7 L   6.757 -73.149146.1  RSN  5 0.5 1.2LRSN                1
 GAP=234        1.01       6.1     7.4  9.7  0.9715E+01  0.1848E+02  0.4031E+01E
 Epicentro: LOS SANTOS - SANTANDER                                             3
 ACTION:UPD 16-10-29 15:34 OP:rebc STATUS:               ID:20160809062319 L   I
 OLDACT:DUP 16-08-09 15:35 OP:ndl  STATUS:               ID:20160809061660d    3
 OLDACT:REG 16-08-09 13:05 OP:dnl  STATUS:               ID:20160809061659     3
 2016-08-09-0616-59S.COL___340                                                 6
 STAT SP IPHASW D HRMM SECON CODA AMPLIT PERI AZIMU VELO AIN AR TRES W  DIS CAZ7
 BAR2 EZ EP   2    623 39.12                             172   -0.12 5 18.6 192 
 BAR2 EZ ES        623 54.40                             172   -0.1210 18.6 192 
 BAR2 EZ I         623 56.96         4.3 0.30                          18.6 192 
 BRR  HZ EP        623 41.01                             152    0.0510 73.3 302 
 BRR  HE ES        623 58.02                             152    0.4410 73.3 302 
 BRR  HZ I         624  1.12         3.1 0.36                          73.3 302 
 RUS  HZ EP   2    623 43.57                             145    0.46 5 95.8 176 
 RUS  HE ES        624  1.04                             145   -0.3610 95.8 176 
 RUS  HZ I         624  3.32         1.4 0.28                          95.8 176 
 PTB  HZ EP   2    623 46.08                             132   -0.46 5  147 261 
 PTB  HE ES        624  6.81                             132   -0.71 9  147 261 
 PTB  HZ I         624  9.16         1.9 0.14                           147 261 
 SPBC HZ EP   2    623 47.63                             130   -0.18 5  159 220 
 SPBC HN ES        624 10.56                             130    0.79 9  159 220 
 SPBC HZ I         624 17.23         4.1 0.34                           159 220 
                                                                                
