 2013  8 9 0352  6.0 L   6.765 -73.167148.9  RSN  5 0.3 1.1LRSN                1
 GAP=232        0.83       5.3     5.6  6.3  0.4847E+01  0.3606E+01  0.5408E+01E
 Epicentro: LOS SANTOS - SANTANDER                                             3
 ACTION:UPD 14-01-14 09:00 OP:ep   STATUS:               ID:20130809035206 L   I
 OLDACT:REG 13-08-09 06:23 OP:jn   STATUS:               ID:20130809034959     3
 2013-08-09-0349-59M.COL___267                                                 6
 STAT SP IPHASW D HRMM SECON CODA AMPLIT PERI AZIMU VELO AIN AR TRES W  DIS CAZ7
 BAR2 SZ EP   1    352 25.69                             172   -0.20 7 19.2 185 
 BAR2 SZ ES        352 41.03                             172   -0.4110 19.2 185 
 BAR2 SZ I         352 43.18         3.1 0.54            171           19.2 185 
 BRR  HZ EP        352 27.60                             153    0.1610 71.1 302 
 BRR  HN ES        352 44.71                             153    0.5210 71.1 302 
 BRR  HZ I         352 51.96         3.0 0.52            152           71.1 302 
 RUS  HZ EP        352 29.63                             145   -0.1410 97.0 175 
 RUS  HN ES   1    352 48.61                             145    0.28 7 97.0 175 
 RUS  HZ I         352 51.74         0.9 0.52            150           97.0 175 
 PTB  HZ EP        352 32.61                             133   -0.31 9  145 260 
 PTB  HN ES        352 53.51                             133   -0.43 9  145 260 
 PTB  HZ I         353  0.95         2.9 0.30            134            145 260 
 SPBC HZ EP        352 34.67                             131    0.38 9  159 219 
 SPBC HN ES        352 56.56                             131    0.18 9  159 219 
 SPBC HZ I         352 59.54         1.9 0.26            133            159 219 
                                                                                
