 2017  6 9 0438 47.9 L   6.761 -73.225151.8  RSN  5 0.4 1.3LRSN                1
 GAP=225        0.89       6.6     6.8  8.6  0.2696E+02 -0.1737E+01 -0.5323E+01E
 Epicentro: ZAPATOCA - SANTANDER                                               3
 ACTION:UPD 17-09-14 16:50 OP:jn   STATUS:               ID:20170609043847 L   I
 OLDACT:REG 17-06-09 13:02 OP:edw  STATUS:               ID:20170609043739     3
 2017-06-09-0438-00M.COL___368                                                 6
 STAT SP IPHASW D HRMM SECON CODA AMPLIT PERI AZIMU VELO AIN AR TRES W  DIS CAZ7
 BRR  HZ EP        439  9.55                             155    0.1110 66.0 305 
 BRR  HN ES        439 26.58                             155    0.3410 66.0 305 
 BRR  HZ I         439 29.57         2.8 0.46            156           66.0 305 
 RUS  HZ EP        439 11.83                             146   -0.2010 97.3 171 
 RUS  HN ES        439 30.51                             146   -0.3410 97.3 171 
 RUS  HZ I         439 31.43         3.4 0.34            150           97.3 171 
 PTB  HZ EP        439 15.15                             135    0.59 9  138 260 
 PTB  HN ES        439 35.23                             135   -0.11 9  138 260 
 SPBC HN ES   2    439 38.74                             132    0.70 5  154 217 
 ZAR  HZ EP   2    439 19.73                             124   -0.38 4  198 294 
 ZAR  HN ES        439 44.66                             124   -0.57 9  198 294 
                                                                                
