 2015  9 9 0134  4.3 L   6.736 -73.143145.1  RSN  6 0.4 1.5LRSN                1
 GAP=140        1.09       6.1     6.3  9.1 -0.3781E+01  0.4290E+01 -0.1301E+02E
 Epicentro: LOS SANTOS - SANTANDER                                             3
 ACTION:UPD 15-10-28 16:25 OP:cam  STATUS:               ID:20150909013404 L   I
 OLDACT:REG 15-09-09 12:54 OP:stll STATUS:               ID:20150909012746     3
 2015-09-09-0127-46M.COL___356                                                 6
 STAT SP IPHASW D HRMM SECON CODA AMPLIT PERI AZIMU VELO AIN AR TRES W  DIS CAZ7
 BAR2 EZ EP        134 23.98                             173    0.2810 16.5 195 
 BAR2 EZ ES        134 38.12                             173   -0.7310 16.5 195 
 BAR2 EZ I         134 41.42         4.5 0.30            174           16.5 195 
 BRR  HZ EP        134 25.48                             151   -0.0810 75.0 303 
 BRR  HZ I         134 26.09        11.6 0.26            153           75.0 303 
 BRR  HN ES        134 42.89                             151    0.7110 75.0 303 
 PAM  EZ EP        134 26.70                             149   -0.0410 82.8  36 
 RUS  HN ES        134 45.75                             146    0.2110 93.5 176 
 PTB  HZ EP        134 30.82                             132   -0.27 9  147 262 
 PTB  HN ES        134 51.56                             132   -0.46 9  147 262 
 SPBC HN ES        134 54.35                             130    0.33 9  158 221 
                                                                                
