 2012  1 9 0857 44.3 L   6.795 -73.111148.8  RSN  9 0.4 1.7LRSN                1
 GAP=194        0.75       6.7     6.1  7.4  0.6126E+01  0.1749E+02  0.1131E+02E
 Epicentro: LOS SANTOS - SANTANDER                                             3
 ACTION:UP  12-02-03 08:15 OP:REBC STATUS:               ID:20120109085744 L   I
 2012-01-09-0850-00M.COL___186                                                 6
 STAT SP IPHASW D HRMM SECON CODA AMPLIT PERI AZIMU VELO SNR AR TRES W  DIS CAZ7
 BAR2 SZ EP   1    858  4.08                             170    -0.210   24 199 
 BAR2 SZ ES   2    858 20.00                             170     0.1 7   24 199 
 BAR2 SZ I         858 21.84         7.0 0.40                            24 199 
 GIR2 SZ EP   1    858  4.13                             167    -0.210   33 344 
 GIR2 SZ ES   2    858 19.89                             167    -0.1 7   33 344 
 BRR  HZ EP   1    858  5.96                             152     0.010   75 298 
 BRR  HN ES   2    858 23.48                             152     0.6 7   75 298 
 BRR  HZ I         858 25.67         9.9 0.16                            75 298 
 RUS  HZ EP   1    858  8.48                             145     0.210  100 178 
 RUS  HN ES   2    858 27.44                             145     0.4 7  100 178 
 RUS  HZ I         858 27.45         3.0 0.49                           100 178 
 PTB  HZ EP   1    858 11.11                             132    -0.7 9  151 259 
 PTB  HN ES   2    858 32.68                             132    -0.6 6  151 259 
 ZAR  HZ EP   2    858 18.01                             122     0.7 6  208 292 
 ZAR  HN ES   2    858 43.26                             122     0.2 6  208 292 
 ZAR  HZ I         858 48.79        10.2 0.36                           208 292 
 NOR  SZ EP   1    858 20.24                             119    -0.3 8  237 235 
 NOR  SN ES   2    858 48.56                             119    -0.2 5  237 235 
 HEL  HZ EP        858 25.70                             115     0.610  276 256 
 HEL  HN ES   2    858 57.00                             115     0.2 5  276 256 
 HEL  HZ I         859  2.44         3.3 0.43                           276 256 
 RREF HZ EP   2    858 30.78                             111    -0.1 5  324 230 
 RREF HZ I         859 17.95         2.7 0.43                           324 230 
                                                                                
