 2012  8 9 0154 27.4 L   7.110 -73.393113.9  RSN  7 0.3 1.9LRSN                1
 GAP= 86        0.85       3.0     3.4  5.8 -0.2080E+00  0.2999E+01 -0.9633E+00E
 Epicentro: LEBRIJA - SANTANDER                                                3
 ACTION:UPD 12-09-10 11:55 OP:ep   STATUS:               ID:20120809015427 L   I
 2012-08-09-0150-00M.COL___215                                                 6
 STAT SP IPHASW D HRMM SECON CODA AMPLIT PERI AZIMU VELO AIN AR TRES W  DIS CAZ7
 BRR  HZ EP        154 43.56                             162    0.3010 35.2 269 
 BRR  HZ I         154 43.76        46.6 0.11                          35.2 269 
 BRR  HN ES        154 55.82                             162    0.2010 35.2 269 
 BAR2 SZ EP        154 45.07                             150    0.1110 61.8 158 
 BAR2 SZ ES        154 59.01                             150    0.3710 61.8 158 
 BAR2 SZ I         155  1.35        34.8 0.45                          61.8 158 
 PAM  SZ EP        154 47.07                             143    0.4710 80.7  72 
 PAM  SN ES        155  1.05                             143   -0.5110 80.7  72 
 PAM  SZ I         155  5.62        11.6 0.44                          80.7  72 
 OCA  HZ EP        154 50.00                             129    0.0610  125   4 
 OCA  HN ES        155  7.17                             129   -0.3510  125   4 
 OCA  HZ I         155  9.32        25.0 0.37                           125   4 
 PTB  HZ EP   1    154 50.16                             127   -0.40 7  133 242 
 PTB  HN ES   1    155  7.95                             127   -0.67 7  133 242 
 PTB  HZ I         155 10.77         6.8 0.10                           133 242 
 RUS  HZ EP        154 51.41                             126   -0.33 9  139 166 
 RUS  HN ES   1    155 10.65                             126   -0.06 7  139 166 
 ZAR  HZ EP   1    154 54.25                             120    0.25 7  167 285 
 ZAR  HN ES   1    155 14.93                             120    0.19 7  167 285 
 ZAR  HZ I         155 18.87        10.3 0.24                           167 285 
                                                                                
