 2015  6 9 0556 32.6 L   6.792 -73.140143.6  RSN  5 0.2 1.1LRSN                1
 GAP=138        0.66       3.5     5.2  5.8 -0.1468E+00 -0.6941E+01 -0.1967E+01E
 Epicentro: LOS SANTOS - SANTANDER                                             3
 ACTION:UPD 15-09-10 22:10 OP:cam  STATUS:               ID:20150609055632 L   I
 OLDACT:DUP 15-06-09 18:04 OP:stll STATUS:               ID:20150609054753d    3
 OLDACT:REG 15-06-09 13:22 OP:stll STATUS:               ID:20150609054750     3
 2015-06-09-0547-50M.COL___300                                                 6
 STAT SP IPHASW D HRMM SECON CODA AMPLIT PERI AZIMU VELO AIN AR TRES W  DIS CAZ7
 BAR2 EZ EP        556 51.69                             171   -0.2310 22.5 192 
 BAR2 EZ ES        557  6.65                             171   -0.3610 22.5 192 
 BAR2 EZ I         557 12.15         2.2 0.38            168           22.5 192 
 BRR  HZ EP        556 53.63                             152    0.0910 72.2 299 
 BRR  HN ES        557 10.13                             152    0.2410 72.2 299 
 PAM  SZ EP        556 54.56                             150   -0.0110 77.7  39 
 PAM  SZ I         556 54.83         3.3 0.20            155           77.7  39 
 RUS  HZ EP        556 56.09                             144    0.0610 99.6 176 
 RUS  HN ES        557 14.73                             144    0.3910 99.6 176 
 RUS  HZ I         557 15.41         1.3 0.32            144           99.6 176 
 SPBC HN ES        557 22.72                             129   -0.22 9  163 219 
 SPBC HZ I         557 28.89         2.7 0.32            129            163 219 
                                                                                
