 2012  4 9 0323 32.2 L   6.739 -73.181154.3  RSN  4 0.2 1.1LRSN                1
 GAP=229        0.51       5.8     5.8  6.8  0.2083E+02 -0.2048E+01 -0.2700E+01E
 Epicentro: VILLANUEVA - SANTANDER                                             3
 ACTION:UPD 12-07-05 11:51 OP:tino STATUS:               ID:20120409032332 L   I
 2012-04-09-0320-00M.COL___196                                                 6
 STAT SP IPHASW D HRMM SECON CODA AMPLIT PERI AZIMU VELO AIN AR TRES W  DIS CAZ7
 BRR  HZ EP   1    323 54.15                             154    -0.1 7   71 305 
 BRR  HZ I         323 54.55         2.8 0.11                            71 305 
 BRR  HN ES   1    324 11.42                             154    -0.1 7   71 305 
 RUS  HZ EP   1    323 56.46                             147     0.1 7   94 173 
 RUS  HE ES   1    324 15.30                             147     0.1 7   94 173 
 RUS  HZ I         324 17.37         1.6 0.30                            94 173 
 PTB  HZ EP   1    323 59.37                             135    -0.1 7  143 261 
 PTB  HN ES   1    324 20.46                             135    -0.2 7  143 261 
 PTB  HZ I         324 26.08         1.9 0.50                           143 261 
 ZAR  HE ES   2    324 31.50                             124     0.7 4  203 294 
                                                                                
