 2014 10 9 0553 41.2 L   6.764 -73.095146.7  RSN  5 0.4 1.4LRSN                1
 GAP=145        0.86       5.5     6.2  8.4 -0.7631E+01  0.4071E+01  0.1217E+02E
 Epicentro: LOS SANTOS - SANTANDER                                             3
 ACTION:UPD 14-11-29 23:48 OP:nd   STATUS:               ID:20141009055341 L   I
 OLDACT:DUP 14-10-09 16:52 OP:fm   STATUS:               ID:20141009054745d    3
 2014-10-09-0547-44M.COL___238                                                 6
 STAT SP IPHASW D HRMM SECON CODA AMPLIT PERI AZIMU VELO AIN AR TRES W  DIS CAZ7
 BAR2 SZ EP        554  0.94                             171    0.0810 21.3 207 
 BAR2 SZ ES   1    554 17.11                             171    0.88 7 21.3 207 
 BAR2 SZ I         554 17.67         9.3 0.24            172           21.3 207 
 PAM  SZ EP   1    554  3.39                             151   -0.07 7 77.2  34 
 PAM  SN ES        554 20.87                             151    0.0210 77.2  34 
 PAM  SZ I         554 23.12         3.9 0.48            153           77.2  34 
 BRR  HZ EP   1    554  2.88                             150    0.08 7 78.0 299 
 BRR  HN ES        554 19.29                             150   -0.4010 78.0 299 
 BRR  HZ I         554 22.26         3.4 0.52            152           78.0 299 
 RUS  HZ EP   1    554  4.79                             145    0.09 7 96.4 179 
 RUS  HN ES   1    554 22.41                             145   -0.66 7 96.4 179 
 RUS  HZ I         554 25.00         1.8 0.38            147           96.4 179 
 GUY2CHN ES   1    554 59.79                             112    0.46 5  304 236 
 GUY2CHZ I         555  7.85         2.4 0.78                           304 236 
                                                                                
