 2014 12 9 0624 19.2 L   6.303 -73.378127.2  RSN 14 0.5 1.8LRSN                1
 GAP=110        1.16       2.8     3.8  5.9 -0.2346E+01  0.8019E+01 -0.1860E+01E
 Epicentro: CHIMA - SANTANDER                                                  3
 ACTION:UPD 15-02-10 17:01 OP:nd   STATUS:               ID:20141209062419 L   I
 OLDACT:DUP 14-12-09 15:40 OP:fm   STATUS:               ID:20141209061748d    3
 OLDACT:REG 14-12-09 13:00 OP:fm   STATUS:               ID:20141209061747     3
 2014-12-09-0617-47M.COL___297                                                 6
 STAT SP IPHASW D HRMM SECON CODA AMPLIT PERI AZIMU VELO AIN AR TRES W  DIS CAZ7
 BAR2 SZ EP        624 37.51                             162    0.4910 38.6  34 
 BAR2 SZ ES        624 51.58                             162    0.6310 38.6  34 
 BAR2 SZ I         624 57.45         6.1 0.20            165           38.6  34 
 RUS  HZ EP        624 38.66                             155    0.5010 55.9 144 
 RUS  HE ES        624 52.30                             155   -0.6910 55.9 144 
 RUS  HZ I         624 55.82         5.0 0.36            163           55.9 144 
 BRR  HZ EP        624 40.67                             140    0.5710 96.3 337 
 BRR  HE ES        624 56.69                             140    0.2510 96.3 337 
 BRR  HZ I         625  5.48         7.7 0.16            143           96.3 337 
 SPBC HZ EP        624 41.59                             138    0.6410  105 227 
 SPBC HN ES        624 57.78                             138   -0.1710  105 227 
 SPBC HZ I         625  5.70        15.2 0.36            141            105 227 
 PTB  HZ EP        624 41.84                             133   -0.4510  122 282 
 PTB  HE ES        624 59.68                             133   -0.6510  122 282 
 PTB  HZ I         625  3.71        10.7 0.38            135            122 282 
 NOR  HE ES        625 11.40                             121    0.16 9  184 244 
 NOR  HZ I         625 16.28        14.7 0.24            125            184 244 
 CHI  HZ EP        624 48.94                             120   -0.46 9  189 192 
 CHI  HN ES        625 12.19                             120   -0.80 9  189 192 
 CHI  HZ I         625 16.31         2.4 0.24            126            189 192 
 ZAR  HZ EP        624 50.52                             117   -0.57 8  210 309 
 ZAR  HE ES        625 15.69                             117   -0.32 8  210 309 
 ZAR  HZ I         625 22.75        10.7 0.40            121            210 309 
 OCA  HZ EP        624 51.40                             117   -0.35 8  214   2 
 OCA  HN ES        625 17.00                             117   -0.17 8  214   2 
 OCA  HZ I         625 21.48         8.7 0.38            121            214   2 
 HEL  HZ EP        624 54.84                             114    0.15 8  238 267 
 HEL  HN ES        625 22.44                             114    0.04 8  238 267 
 HEL  HZ I         625 30.42         4.3 0.24            118            238 267 
 GUY2CHZ EP        624 56.87                             113    0.71 8  250 242 
 GUY2CHE ES        625 25.79                             113    0.76 8  250 242 
 GUY2CHZ I         625 32.97         4.3 0.30                           250 242 
 TOL  SN ES        625 32.09                             110   -0.06 7  287 229 
 TOL  SZ I         625 38.98         6.5 0.28            114            287 229 
 SML  HZ EP        624 59.54                             109   -0.15 7  287 345 
 SML  HE ES        625 30.94                             109   -0.37 7  287 345 
 SML  HZ I         625 38.90         9.0 0.10            113            287 345 
 CBOC HZ EP        625  0.76                             109   -0.19 7  296 261 
 CBOC HN ES        625 33.63                             109    0.09 7  296 261 
 CBOC HZ I         625 41.02         1.4 0.46            113            296 261 
                                                                                
