 2010  8 9 0621 44.2 L   6.017 -73.652116.0  RSN  8 0.6 1.5LRSN                1
 GAP=120        1.24       6.4    12.5 14.6 -0.3798E+02  0.1021E+03  0.2997E+01E
 Epicentro: VELEZ - SANTANDER                                                  3
 ACTION:UP  10-09-07 10:53 OP:vdl  STATUS:               ID:20100809062144 L   I
 2010-08-09-0618-33S.COL___124                                                 6
 STAT SP IPHASW D HRMM SECON CODA AMPLIT PERI AZIMU VELO SNR AR TRES W  DIS CAZ7
 RUS  HZ EP   2    622  2.28                             148    -0.2 5   64 102 
 RUS  HZ I         622  2.74         5.1 0.27                            64 102 
 RUS  HE ES   2    622 17.56                             148     0.8 5   64 102 
 BAR2 SZ EP   1    622  3.25                             141    -0.1 7   82  39 
 BAR2 SZ ES        622 17.44                             141    -0.810   82  39 
 BAR2 SZ I         622 18.81        18.2 0.11                            82  39 
 BTL  SZ EP        622  6.23                             133     0.710  108  23 
 BTL  SZ ES        622 22.57                             133     0.510  108  23 
 BRR  HZ EP   2    622  5.46                             129    -0.8 5  121 357 
 BRR  HE ES   2    622 22.65                             129    -0.9 5  121 357 
 BRR  HZ I         622 29.27         3.7 0.12                           121 357 
 CHI  HZ EP   1    622  9.70                             122    -0.4 7  154 183 
 CHI  HN ES   2    622 30.46                             122     0.2 5  154 183 
 CHI  HZ I         622 32.95         2.7 0.45                           154 183 
 GUE  SZ EP   1    622 16.82                             113     0.2 6  216  22 
 GUE  SZ ES   2    622 42.01                             113     0.1 4  216  22 
 GUE  SZ I         622 46.15         2.2 0.09                           216  22 
 RREF HZ EP   1    622 17.89                             112    -0.1 6  225 237 
 RREF HN ES   2    622 44.99                             112     0.6 4  225 237 
 RREF HZ I         622 50.33         2.3 0.25                           225 237 
 PRA  HZ EP   2    622 24.16                             106    -0.5 4  289 208 
 PRA  HZ I         622 26.86         2.9 0.20                           289 208 
                                                                                
