 2012  8 9 0204 34.6 L   6.549 -73.550113.1  RSN 11 0.3 2.2LRSN                1
 GAP= 61        0.82       2.6     3.1  5.1  0.4695E+00  0.7548E+01  0.2579E+01E
 Epicentro: EL CARMEN DE CHUCURI - SANTANDER                                   3
 ACTION:UPD 12-09-10 11:55 OP:ep   STATUS:               ID:20120809020434 L   I
 2012-08-09-0200-00M.COL___215                                                 6
 STAT SP IPHASW D HRMM SECON CODA AMPLIT PERI AZIMU VELO AIN AR TRES W  DIS CAZ7
 BAR2 SZ EP        2 4 51.15                             159    0.2610 40.9  83 
 BAR2 SZ ES        2 5  3.63                             159   -0.0110 40.9  83 
 BRR  HZ EP        2 4 52.11                             148    0.2910 64.3 344 
 BRR  HZ I         2 5  0.02        34.5 0.43                          64.3 344 
 BRR  HE ES        2 5  5.73                             148    0.4310 64.3 344 
 RUS  HZ EP        2 4 54.33                             139    0.0210 89.0 145 
 RUS  HE ES        2 5  9.36                             139   -0.3510 89.0 145 
 PTB  HZ IP     D  2 4 54.11                             135   -0.4710  100 269 
 PTB  HZ I         2 5 10.25        30.3 0.13                           100 269 
 PAM  SZ EP        2 4 57.95                             128    0.1710  128  47 
 PAM  SE ES        2 5 15.49                             128   -0.4110  128  47 
 PAM  SZ I         2 5 17.47        32.4 0.25                           128  47 
 ZAR  HZ EP        2 5  2.87                             118    0.59 9  178 306 
 ZAR  HE ES   1    2 5 23.39                             118   -0.52 7  178 306 
 ZAR  HZ I         2 5 29.80        20.3 0.33                           178 306 
 NOR  SZ EP        2 5  2.80                             117    0.04 9  182 233 
 NOR  SZ I         2 5 26.44        17.3 0.31                           182 233 
 OCA  HZ EP        2 5  3.14                             116   -0.45 9  189   8 
 OCA  HZ I         2 5 32.97        65.3 0.37                           189   8 
 CHI  HZ EP        2 5  7.01                             113    0.37 8  213 185 
 CHI  HN ES   1    2 5 31.85                             113    0.18 6  213 185 
 CHI  HZ I         2 5 37.32         6.8 0.34                           213 185 
 HEL  HZ EP   1    2 5  7.49                             112   -0.14 6  223 260 
 HEL  HN ES   1    2 5 33.12                             112   -0.32 6  223 260 
 HEL  HZ I         2 5 39.88        15.7 0.37                           223 260 
 PRA  HZ EP        2 5 21.68                             102   -0.05 6  347 205 
 PRA  HZ I         2 6  7.74         8.5 0.39                           347 205 
                                                                                
