 2017  1 9 0430 25.3 L   6.795 -73.080147.0  RSN 11 0.4 1.5LRSN                1
 GAP=125        1.14       4.8     4.4  6.0 -0.1327E+01  0.4340E+01  0.3458E+01E
 Epicentro: LOS SANTOS - SANTANDER                                             3
 ACTION:UPD 17-05-22 15:57 OP:jn   STATUS:               ID:20170109043025 L   I
 OLDACT:UP  17-01-09 15:48 OP:e    STATUS:               ID:20170109042749     3
 OLDACT:UP  17-01-09 15:47 OP:e    STATUS:               ID:20170109042749     3
 OLDACT:UP  17-01-09 15:47 OP:e    STATUS:               ID:20170109042749     3
 OLDACT:UP  17-01-09 15:46 OP:e    STATUS:               ID:20170109042749     3
 OLDACT:UP  17-01-09 15:45 OP:e    STATUS:               ID:20170109042749     3
 OLDACT:REG 17-01-09 12:55 OP:and  STATUS:               ID:20170109042749     3
 2017-01-09-0428-00M.COL___347                                                 6
 STAT SP IPHASW D HRMM SECON CODA AMPLIT PERI AZIMU VELO AIN AR TRES W  DIS CAZ7
 BAR2 EZ EP        430 45.28                             170    0.1410 25.1 207 
 BAR2 EZ ES        431  0.23                             170   -0.3610 25.1 207 
 BAR2 EZ I         431  1.38        13.8 0.22            170           25.1 207 
 PAM  EZ EP        430 48.13                             151    0.7010 73.4  35 
 PAM  EN ES        431  4.40                             151   -0.2910 73.4  35 
 PAM  EZ I         431  7.46         4.6 0.50            153           73.4  35 
 BRR  HZ EP        430 47.24                             150    0.2510 77.9 296 
 BRR  HN ES        431  4.03                             150    0.1310 77.9 296 
 BRR  HZ I         431  9.66         5.1 0.16            148           77.9 296 
 RUS  HZ EP        430 49.26                             144    0.1210 99.8 180 
 RUS  HN ES        431  7.45                             144   -0.2610 99.8 180 
 RUS  HZ I         431  8.58         3.4 0.26            147           99.8 180 
 PTB  HZ EP   9    430 52.16                             130   -0.87 0  155 260 
 PTB  HN ES        431 12.65                             130   -1.13 9  155 260 
 PTB  HZ I         431 15.81         4.5 0.13            130            155 260 
 ZAR  HN ES        431 24.32                             121   -0.18 8  211 292 
 ZAR  HZ I         431 30.03         3.4 0.21            121            211 292 
 NOR  HZ EP        431  2.12                             118    0.39 8  240 236 
 NOR  HN ES        431 29.89                             118   -0.24 8  240 236 
 NOR  HZ I         431 35.21         2.3 0.18            119            240 236 
 PTGC HZ EP     D  431  8.42                             111   -0.46 7  306 160 
 GUY2CHZ EP   9    431 11.09                             112    1.46 0  307 236 
 GUY2CHN ES        431 45.91                             111    0.26 7  307 236 
 GUY2CHZ I         431 50.70         1.7 0.30                           307 236 
 CBOC HZ EP        431 12.89                             109   -0.17 7  340 253 
 CBOC HN ES        431 51.00                             109    0.69 7  340 253 
 CBOC HZ I         431 53.12         0.7 0.34            110            340 253 
 SJC  HZ EP        431 20.17                             105   -1.28 6  414 326 
 SJC  HN ES   4    432  1.63                             105   -3.60 0  414 326 
                                                                                
