 2014 10 9 0909 17.1 L   6.804 -73.136150.6  RSN  9 0.4 1.5LRSN                1
 GAP=138        0.91       3.6     4.6  6.6 -0.8506E+00  0.7503E+01  0.4998E+00E
 Epicentro: LOS SANTOS - SANTANDER                                             3
 ACTION:UPD 14-11-29 23:48 OP:nd   STATUS:               ID:20141009090917 L   I
 OLDACT:REG 14-10-09 13:41 OP:fm   STATUS:               ID:20141009090742     3
 2014-10-09-0907-42M.COL___250                                                 6
 STAT SP IPHASW D HRMM SECON CODA AMPLIT PERI AZIMU VELO AIN AR TRES W  DIS CAZ7
 BAR2 SZ EP   1    9 9 37.35                             170    0.06 7 23.9 192 
 BAR2 SZ ES   1    9 9 52.84                             170   -0.22 7 23.9 192 
 BAR2 SZ I         9 9 55.02        15.6 0.48            169           23.9 192 
 BRR  HZ EP   1    9 9 39.37                             153    0.59 7 71.9 298 
 BRR  HN ES        9 9 56.36                             153    0.6510 71.9 298 
 BRR  HZ I         910  1.19         4.4 0.16            150           71.9 298 
 PAM  SZ EP   1    9 9 40.24                             152    0.50 7 76.4  39 
 PAM  SN ES        9 9 57.06                             152   -0.3710 76.4  39 
 PAM  SZ I         9 9 58.95         3.3 0.22            156           76.4  39 
 RUS  HZ EP        9 9 41.50                             145    0.1810  101 177 
 RUS  HN ES   1    9 9 59.58                             145   -0.65 7  101 177 
 RUS  HZ I         910  1.40         1.7 0.42            147            101 177 
 PTB  HZ EP   1    9 9 44.36                             133   -0.17 7  149 259 
 PTB  HN ES   1    910  5.60                             133   -0.35 7  149 259 
 PTB  HZ I         910  8.64         5.1 0.42            132            149 259 
 SPBC HZ EP   1    9 9 45.88                             130   -0.15 7  164 219 
 SPBC HN ES   1    910  9.25                             130    0.63 7  164 219 
 SPBC HZ I         910 16.85         6.5 0.82            131            164 219 
 ZAR  HN ES   1    910 15.16                             123   -0.37 6  205 292 
 ZAR  HZ I         910 22.67         5.0 0.32            124            205 292 
 SML  HZ EP   1    9 9 53.96                             118   -0.01 6  244 335 
 SML  HN ES        910 22.29                             118   -0.47 8  244 335 
 SML  HZ I         910 28.34         2.8 0.22            120            244 335 
 GUY2CHZ EP   4    910  2.52                             113    1.50 0  302 235 
 GUY2CHE ES   1    910 34.76                             113   -0.54 5  302 235 
 GUY2CHZ I         910 44.25         1.5 0.34                           302 235 
 MON  HN ES   4    910 42.77                             109   -1.97 0  354 308 
                                                                                
