 2015 10 9 0405 57.6 L   6.814 -73.097149.4  RSN 11 0.5 1.8LRSN                1
 GAP=159        1.16       3.3     5.0  6.3 -0.4759E+01  0.9198E+01  0.2004E+01E
 Epicentro: LOS SANTOS - SANTANDER                                             3
 ACTION:UPD 15-12-22 20:38 OP:cam  STATUS:               ID:20151009040557 L   I
 OLDACT:UP  15-10-09 16:45 OP:ak   STATUS:               ID:20151009035742d    3
 OLDACT:DUP 15-10-09 16:39 OP:ak   STATUS:               ID:20151009035742d    3
 2015-10-09-0357-41M.COL___292                                                 6
 STAT SP IPHASW D HRMM SECON CODA AMPLIT PERI AZIMU VELO AIN AR TRES W  DIS CAZ7
 BAR2 EZ EP        4 6 17.66                             170   -0.0510 26.3 201 
 BAR2 EZ ES        4 6 32.75                             170   -0.6610 26.3 201 
 BAR2 EZ I         4 6 33.75        12.7 0.26            168           26.3 201 
 PAM  EZ EP        4 6 20.49                             153    0.5610 72.8  37 
 PAM  EN ES        4 6 37.76                             153    0.4110 72.8  37 
 PAM  EZ I         4 6 40.00        12.7 0.46            157           72.8  37 
 BRR  HZ EP        4 6 19.54                             152    0.1810 75.3 296 
 BRR  HN ES        4 6 37.01                             152    0.6710 75.3 296 
 BRR  HZ I         4 6 40.61         6.2 0.18            152           75.3 296 
 OCA  HZ EP        4 6 25.40                             131   -0.70 9  159 351 
 OCA  HN ES        4 6 48.41                             131    0.06 9  159 351 
 OCA  HZ I         4 6 52.63        14.5 0.30            133            159 351 
 SPBC HZ EP        4 6 26.67                             129   -0.13 9  168 220 
 SPBC HN ES        4 6 49.52                             129   -0.06 9  168 220 
 SPBC HZ I         4 6 56.32         7.9 0.23            130            168 220 
 ZAR  HZ EP        4 6 31.58                             123    0.86 8  208 291 
 ZAR  HE ES        4 6 55.74                             123   -0.83 8  208 291 
 ZAR  HZ I         4 7  1.87         6.0 0.33            124            208 291 
 NOR  HZ EP        4 6 34.17                             119    0.08 8  240 235 
 NOR  HE ES        4 7  2.43                             119   -0.13 8  240 235 
 SML  HZ EP        4 6 34.32                             118   -0.19 8  245 334 
 SML  HN ES        4 7  2.47                             118   -0.85 8  245 334 
 CHI  HZ EP        4 6 35.38                             118   -0.42 8  252 196 
 CHI  HN ES        4 7  5.10                             118   -0.51 8  252 196 
 CHI  HZ I         4 7 14.79         2.2 0.32            119            252 196 
 HEL  HZ EP        4 6 38.75                             115    0.15 7  278 256 
 HEL  HE ES        4 7 11.07                             115    0.48 7  278 256 
 HEL  HZ I         4 7 16.35         3.3 0.30            116            278 256 
 GUY2CHZ EP        4 6 42.44                             113    0.49 7  306 235 
 GUY2CHN ES        4 7 16.99                             113    0.43 7  306 235 
 GUY2CHZ I         4 7 24.30         2.6 0.48                           306 235 
                                                                                
