 2015  1 9 0335 38.6 L   6.833 -73.119150.0  RSN  7 0.2 1.6LRSN                1
 GAP=221        0.57       2.1     3.9  3.8  0.1354E+01  0.1456E+00 -0.1135E+00E
 Epicentro: LOS SANTOS - SANTANDER                                             3
 ACTION:UPD 15-03-02 15:38 OP:nd   STATUS:               ID:20150109033538 L   I
 OLDACT:REG 15-01-09 13:54 OP:cam  STATUS:               ID:20150109032813     3
 2015-01-09-0328-13M.COL___265                                                 6
 STAT SP IPHASW D HRMM SECON CODA AMPLIT PERI AZIMU VELO AIN AR TRES W  DIS CAZ7
 BAR2 EZ EP   1    335 58.97                             169    0.11 7 27.5 195 
 BAR2 EZ ES        336 14.61                             169   -0.0310 27.5 195 
 BAR2 EZ I         336 15.83         5.9 0.12            169           27.5 195 
 BRR  HZ EP   1    336  0.46                             153    0.16 7 72.2 295 
 BRR  HN ES        336 17.38                             153    0.1810 72.2 295 
 BRR  HZ I         336 22.01         6.1 0.48            152           72.2 295 
 PTB  HZ EP        336  6.21                             132   -0.07 9  151 258 
 PTB  HN ES        336 27.74                             132   -0.10 9  151 258 
 PTB  HZ I         336 29.14         3.4 0.12            133            151 258 
 SPBC HZ EP        336  8.08                             129    0.17 9  168 219 
 SPBC HN ES        336 30.64                             129   -0.09 9  168 219 
 SPBC HZ I         336 37.02         4.8 0.24            130            168 219 
 ZAR  HN ES        336 37.42                             123    0.27 8  205 291 
 SML  HZ EP        336 15.51                             119    0.22 8  242 334 
 SML  HN ES        336 43.23                             119   -0.64 8  242 334 
 SML  HZ I         336 49.08         4.2 0.10            120            242 334 
 CHI  HZ EP   1    336 17.16                             117    0.12 6  253 196 
 CHI  HN ES        336 46.68                             117   -0.31 8  253 196 
                                                                                
