 2015  6 9 0431 47.4 L   6.771 -73.115145.8  RSN  7 0.5 1.5LRSN                1
 GAP=142        1.39       4.9     7.2 10.2 -0.2320E+01  0.1509E+02  0.2255E+01E
 Epicentro: LOS SANTOS - SANTANDER                                             3
 ACTION:UPD 15-09-10 22:10 OP:cam  STATUS:               ID:20150609043147 L   I
 OLDACT:REG 15-06-09 13:08 OP:stll STATUS:               ID:20150609042749     3
 2015-06-09-0427-49M.COL___300                                                 6
 STAT SP IPHASW D HRMM SECON CODA AMPLIT PERI AZIMU VELO AIN AR TRES W  DIS CAZ7
 BAR2 EZ ES        432 22.38                             171    0.1010 21.1 201 
 BAR2 EZ I         432 24.96         6.1 0.46            172           21.1 201 
 BRR  HZ EP        432  9.16                             151    0.3410 75.8 299 
 BRR  HN ES        432 26.25                             151    0.7310 75.8 299 
 PAM  SZ EP        432  9.76                             151    0.1210 77.8  36 
 PAM  SZ I         432 10.35         5.1 0.24            152           77.8  36 
 PAM  SN ES        432 27.35                             151    0.3610 77.8  36 
 RUS  HZ EP        432 11.22                             145    0.3110 97.2 178 
 RUS  HN ES        432 28.25                             145   -1.0110 97.2 178 
 RUS  HZ I         432 31.02         2.3 0.26            147           97.2 178 
 SPBC HZ EP        432 16.12                             129    0.24 9  163 221 
 SPBC HN ES        432 38.12                             129    0.03 9  163 221 
 SPBC HZ I         432 39.45         4.6 0.16            130            163 221 
 OCA  HN ES        432 37.39                             129   -1.01 9  164 352 
 OCA  HZ I         432 42.93         4.9 0.36            129            164 352 
 ZAR  HN ES        432 45.49                             122   -0.48 8  208 293 
 ZAR  HZ I         432 50.59         2.5 0.34            122            208 293 
                                                                                
