 2013 11 9 0442 57.5 L   7.316 -73.197134.2  RSN  4 0.1 1.3LRSN                1
 GAP=287        0.38       3.5     3.1  3.7  0.4833E+01 -0.3537E+00 -0.2246E+01E
 Epicentro: RIONEGRO - SANTANDER                                               3
 ACTION:UPD 14-01-09 16:26 OP:ep   STATUS:               ID:20131109044257 L   I
 OLDACT:DUP 13-11-09 12:28 OP:stll STATUS:               ID:20131109043847d    3
 2013-11-09-0438-46M.COL___210                                                 6
 STAT SP IPHASW D HRMM SECON CODA AMPLIT PERI AZIMU VELO AIN AR TRES W  DIS CAZ7
 BRR  HZ EP        443 16.66                             154   -0.2010 61.3 248 
 BRR  HN ES        443 32.03                             154    0.0810 61.3 248 
 BRR  HZ I         443 32.37         5.5 0.48            153           61.3 248 
 BAR2 SZ EP        443 18.43                             147    0.1110 80.0 179 
 BAR2 SZ ES        443 34.55                             147   -0.0010 80.0 179 
 BAR2 SZ I         443 36.12         8.9 0.12            145           80.0 179 
 RUS  HN ES        443 46.69                             128   -0.05 9  158 175 
 RUS  HN I         443 49.27         1.3 0.34            126            158 175 
 PTB  HZ EP        443 25.21                             126    0.13 9  163 238 
 PTB  HZ I         443 26.08         1.9 0.20            126            163 238 
 PTB  HN ES        443 46.54                             126   -0.05 9  163 238 
                                                                                
