 2012 11 9 0325 59.4 L   6.722 -73.172148.0  RSN  6 0.3 1.6LRSN                1
 GAP=179        0.69       4.0     4.4  6.1  0.5555E+01  0.1093E+01  0.8658E+00E
 Epicentro: VILLANUEVA - SANTANDER                                             3
 ACTION:UPD 12-12-05 15:32 OP:}ep  STATUS:               ID:20121109032559 L   I
 2012-11-09-0320-00M.COL___228                                                 6
 STAT SP IPHASW D HRMM SECON CODA AMPLIT PERI AZIMU VELO AIN AR TRES W  DIS CAZ7
 BAR2 SZ EP        326 18.89                             174   -0.2710 14.4 185 
 BAR2 SZ ES   1    326 34.18                             174   -0.39 7 14.4 185 
 BRR  HZ EP        326 20.89                             152   -0.0210 73.3 306 
 BRR  HN ES        326 37.88                             152    0.1910 73.3 306 
 RUS  HZ EP        326 22.71                             147   -0.0910 92.2 174 
 RUS  HN ES   1    326 41.70                             147    0.65 7 92.2 174 
 RUS  HN I         326 43.25         3.8 0.26                          92.2 174 
 PTB  HZ EP        326 26.39                             133    0.22 9  143 262 
 PTB  HN ES        326 46.71                             133   -0.34 9  143 262 
 PTB  HN I         326 52.56         7.8 0.26                           143 262 
 OCA  HN ES   1    326 51.58                             129    0.09 7  169 354 
 ZAR  HN ES   1    326 57.82                             123    0.27 6  205 295 
                                                                                
