 2016 10 9 0409 11.1 L   6.603 -73.401116.3  RSN  6 0.7 1.5LRSN                1
 GAP= 90        1.84       7.2     8.1 16.2  0.2782E+01  0.4779E+02 -0.3716E+02E
 Epicentro: HATO - SANTANDER                                                   3
 ACTION:UPD 16-11-09 19:17 OP:rebc STATUS:               ID:20161009040911 L   I
 OLDACT:REG 16-10-09 12:36 OP:dani STATUS:               ID:20161009040744     3
 2016-10-09-0408-00M.COL___357                                                 6
 STAT SP IPHASW D HRMM SECON CODA AMPLIT PERI AZIMU VELO AIN AR TRES W  DIS CAZ7
 BAR2 EZ EP     C  4 9 27.51                             167    0.2410 24.2  93 
 BAR2 EZ ES        4 9 40.20                             167    0.3610 24.2  93 
 BAR2 EZ I         4 9 41.61        16.1 0.31            168           24.2  93 
 RUS  HZ EP        4 9 31.17                             141    0.2110 86.1 156 
 RUS  HE ES        4 9 46.36                             141   -0.0710 86.1 156 
 RUS  HZ I         4 9 49.32         3.1 0.28            144           86.1 156 
 PTB  HZ IP     D  4 9 32.01                             131   -0.9010  117 267 
 PTB  HN ES        4 9 48.78                             131   -1.1210  117 267 
 PTB  HZ I         4 9 49.70         5.1 0.16            133            117 267 
 SPBC HN ES        4 9 52.34                             129    0.3010  129 215 
 OCA  HE ES        410  0.91                             118   -0.79 9  181   3 
 ZAR  HZ EP        4 9 40.56                             117    0.39 9  189 302 
 ZAR  HE ES        410  4.43                             117    1.62 9  189 302 
 ZAR  HZ I         410  7.33         5.0 0.27            119            189 302 
                                                                                
