 2016  3 9 0003 19.3 L   7.162 -73.957 22.5  RSN  4 0.1 1.1LRSN                1
 GAP=196        0.46       2.0     2.0  3.7  0.1453E+01 -0.4336E+01  0.3061E+00E
 Epicentro: BARRANCABERMEJA - SANTANDER                                        3
 ACTION:UPD 16-05-13 21:22 OP:cam  STATUS:               ID:20160309000319 L   I
 OLDACT:DUP 16-03-09 14:31 OP:cara STATUS:               ID:20160309000009d    3
 2016-03-09-0000-08M.COL___289                                                 6
 STAT SP IPHASW D HRMM SECON CODA AMPLIT PERI AZIMU VELO AIN AR TRES W  DIS CAZ7
 PTB  HZ IP        0 3 33.28                             102   -0.3010 88.2 219 
 PTB  HN ES        0 3 44.87                             102    0.1510 88.2 219 
 PTB  HZ I         0 3 45.81         6.7 0.30             98           88.2 219 
 ZAR  HZ EP        0 3 36.28                             100    0.0710  106 290 
 ZAR  HN ES        0 3 49.42                             100    0.0110  106 290 
 ZAR  HZ I         0 3 53.08         7.0 0.12             96            106 290 
 BAR2 EZ EP        0 3 36.56                             100    0.0610  106 126 
 RUS  HE ES        0 4  4.82                              56    0.02 9  170 145 
 RUS  HZ I         0 4  6.27         1.6 0.58             56            170 145 
                                                                                
