 2012  3 9 0348 48.0 L   6.783 -73.206133.6  RSN  4 0.3 1.3LRSN                1
 GAP=130        0.76       5.2     4.9  9.1 -0.2768E+01  0.3596E+01  0.7415E+01E
 ACTION:UP  12-03-31 23:18 OP:EP   STATUS:               ID:20120309034848 L   I
 2012-03-09-0346-37M.COL___182                                                 6
 STAT SP IPHASW D HRMM SECON CODA AMPLIT PERI AZIMU VELO SNR AR TRES W  DIS CAZ7
 BRR  HZ EP   1    349  8.16                             152     0.6 7   66 303 
 BRR  HZ I         349 11.31         5.4 0.30                            66 303 
 BRR  HN ES   1    349 22.67                             152    -0.1 7   66 303 
 PAM  SZ EP   1    349  9.03                             146    -0.3 7   83  42 
 PAM  SN ES   1    349 25.91                             146     0.0 7   83  42 
 PAM  SZ I         349 28.05         3.1 0.62                            83  42 
 RUS  HZ EP   1    349 10.66                             141     0.2 7   99 172 
 RUS  HN ES   1    349 27.93                             141    -0.1 7   99 172 
 RUS  HZ I         349 30.79         3.3 0.35                            99 172 
 PTB  HZ EP   1    349 12.84                             130    -0.5 7  141 259 
 PTB  HN ES   1    349 33.15                             130     0.1 7  141 259 
 PTB  HZ I         349 36.69         3.2 0.21                           141 259 
                                                                                
