 2011  7 9 0752 34.7 L   6.760 -73.096147.1  RSN 12 0.4 2.4LRSN                1
 GAP=162        0.68       2.8     4.8  4.6 -0.5300E+01  0.4051E+01  0.1120E+01E
 Epicentro: LOS SANTOS - SANTANDER                                             3
 ACTION:UPD 12-07-25 13:59 OP:epov STATUS:               ID:20110709075234 L   I
 2011-07-09-0740-00M.COL___130                                                 6
 STAT SP IPHASW D HRMM SECON CODA AMPLIT PERI AZIMU VELO AIN AR TRES W  DIS CAZ7
 BAR2 SZ EP        752 54.62                             172    0.1710 20.8 207 
 BAR2 SZ ES   1    753  9.46                             172   -0.39 7 20.8 207 
 BAR2 SZ I         753 12.44        64.0 0.40                          20.8 207 
 BRR  HZ IP     D  752 56.50                             150    0.0910 78.2 299 
 BRR  HZ I         752 56.71        69.9 0.16                          78.2 299 
 BRR  HE ES   1    753 13.86                             150    0.53 7 78.2 299 
 RUS  HZ EP   1    752 58.34                             145    0.08 7 95.9 179 
 RUS  HN ES   1    753 16.72                             145    0.09 7 95.9 179 
 RUS  HZ I         753 18.38        28.5 0.27                          95.9 179 
 BRI  SZ EP        752 59.12                             141    0.2110  111  17 
 BRI  SZ ES   1    753 17.60                             141   -0.19 7  111  17 
 BRI  SZ I         753 22.91        24.0 0.47                           111  17 
 GRA  SZ IP     D  753  0.42                             137    0.1210  129  15 
 GRA  SZ ES   1    753 19.81                             137   -0.46 7  129  15 
 GRA  SZ I         753 20.99        27.7 0.30                           129  15 
 OCA  SZ EP   1    753  3.29                             129   -0.32 7  165 351 
 OCA  SZ ES   1    753 26.19                             129    0.04 7  165 351 
 OCA  SZ I         753 31.66        41.3 0.36                           165 351 
 NOR  SZ EP   1    753 10.15                             118   -0.58 6  237 236 
 NOR  SN ES   1    753 38.34                             118   -0.48 6  237 236 
 CHI  HZ EP   1    753 12.64                             118    0.46 6  246 197 
 CHI  HZ I         753 13.52        10.9 0.44                           246 197 
 HEL  HZ EP   1    753 16.09                             115    0.62 6  276 257 
 HEL  HZ I         753 53.20        15.4 0.32                           276 257 
 DBB  SZ EP   1    753 22.42                             109   -0.49 5  345 275 
 PRA  HZ EP   1    753 28.38                             107    0.23 4  391 211 
 SJA  SZ EP   1    753 28.10                             106   -0.85 4  397 194 
                                                                                
