 2012  1 9 0847  5.8 L   6.853 -73.076142.3  RSN  7 0.4 1.7LRSN                1
 GAP=164        0.77       8.6     6.4  7.2 -0.1260E+02  0.8698E+01  0.9506E+01E
 Epicentro: LOS SANTOS - SANTANDER                                             3
 ACTION:UP  12-02-03 08:15 OP:REBC STATUS:               ID:20120109084705 L   I
 2012-01-09-0840-00M.COL___186                                                 6
 STAT SP IPHASW D HRMM SECON CODA AMPLIT PERI AZIMU VELO SNR AR TRES W  DIS CAZ7
 GIR2 SZ EP        847 24.78                             168    -0.210   28 333 
 GIR2 SZ ES   2    847 39.42                             168    -0.5 5   28 333 
 BAR2 SZ EP   1    847 24.75                             168    -0.5 7   31 202 
 BAR2 SZ ES   1    847 40.43                             168     0.1 7   31 202 
 BAR2 SZ I         847 40.91        13.5 0.24                            31 202 
 PAM  SZ EP   1    847 27.84                             153     0.7 7   68  38 
 PAM  SN ES   2    847 43.90                             153     0.2 5   68  38 
 BRR  HZ EP   1    847 26.78                             150    -0.1 7   76 292 
 BRR  HE ES   1    847 43.63                             150     0.4 7   76 292 
 BRR  HZ I         847 44.65         9.1 0.21                            76 292 
 ZAR  HN ES   2    848  3.92                             121    -0.2 4  209 290 
 HEL  HZ EP   1    847 46.46                             113    -0.4 6  281 255 
 GUY  SZ EP   2    847 50.49                             111    -0.1 3  313 235 
 GUY  SE ES   2    848 26.56                             111     1.0 3  313 235 
                                                                                
