 2013  2 9 0134 20.1 L   6.789 -73.199149.1  RSN  7 0.3 1.7LRSN                1
 GAP=196        0.73       3.6     4.8  5.4  0.7271E+01  0.1502E+00 -0.4652E+00E
 Epicentro: ZAPATOCA - SANTANDER                                               3
 ACTION:UPD 13-03-12 09:31 OP:ep   STATUS:               ID:20130209013420 L   I
 2013-02-09-0130-00M.COL___240                                                 6
 STAT SP IPHASW D HRMM SECON CODA AMPLIT PERI AZIMU VELO AIN AR TRES W  DIS CAZ7
 BAR2 SZ EP        134 40.07                             172   -0.0210 21.8 175 
 BAR2 SZ ES   1    134 55.67                             172   -0.03 7 21.8 175 
 BAR2 SZ I         134 56.51        10.2 0.42            166           21.8 175 
 BRR  HZ EP   1    134 41.72                             155    0.36 7 66.7 302 
 BRR  HN ES        134 58.52                             155    0.5710 66.7 302 
 BRR  HN I         135  2.48        16.2 0.18            150           66.7 302 
 RUS  HZ EP        134 43.97                             145   -0.1510 99.9 173 
 RUS  HE ES   1    135  2.35                             145   -0.52 7 99.9 173 
 RUS  HE I         135  3.57         6.7 0.60            144           99.9 173 
 PTB  HZ EP        134 46.68                             134   -0.12 9  142 259 
 PTB  HN ES        135  7.24                             134   -0.39 9  142 259 
 PTB  HN I         135 13.17        14.2 0.54            131            142 259 
 ZAR  HZ EP   1    134 52.39                             124    0.14 6  199 293 
 ZAR  HN ES   1    135 16.98                             124   -0.35 6  199 293 
 ZAR  HZ I         135 24.34         3.7 0.29            123            199 293 
 SML  HZ EP   1    134 56.55                             118   -0.21 6  242 337 
 SML  HN ES   1    135 25.31                             118   -0.06 6  242 337 
 CHI  HZ EP   1    134 58.11                             118    0.42 6  246 194 
 CHI  HN ES   1    135 27.59                             118    0.58 6  246 194 
 CHI  HZ I         135 32.79         1.7 0.63            118            246 194 
                                                                                
