 2015  6 9 0453 54.4 L   6.797 -73.155143.2  RSN  4 0.3 1.3LRSN                1
 GAP=243        0.70       5.0     5.3  6.6  0.1037E+02  0.9972E+01  0.2128E+00E
 Epicentro: LOS SANTOS - SANTANDER                                             3
 ACTION:UPD 15-09-10 22:10 OP:cam  STATUS:               ID:20150609045354 L   I
 OLDACT:REG 15-06-09 13:10 OP:stll STATUS:               ID:20150609044749     3
 2015-06-09-0447-49M.COL___300                                                 6
 STAT SP IPHASW D HRMM SECON CODA AMPLIT PERI AZIMU VELO AIN AR TRES W  DIS CAZ7
 BAR2 EZ EP        454 13.49                             170   -0.1910 22.8 188 
 BAR2 EZ ES        454 29.02                             170    0.2810 22.8 188 
 BAR2 EZ I         454 30.43         4.2 0.26            154           22.8 188 
 RUS  HZ EP        454 17.68                             143   -0.1610  100 175 
 RUS  HZ I         454 18.66         1.4 0.28            147            100 175 
 RUS  HN ES        454 35.99                             143   -0.1710  100 175 
 SPBC HZ I         454 23.12         4.0 0.10            136            162 219 
 SPBC HZ EP        454 23.13                             129    0.55 9  162 219 
 SPBC HE ES        454 44.46                             129   -0.13 9  162 219 
 ZAR  HN ES        454 51.52                             122   -0.15 9  203 292 
 ZAR  HZ I         454 58.13         2.4 0.32            114            203 292 
                                                                                
