 2011  1 9 0055 10.0 L   6.774 -73.163148.6  RSN 18 0.5 3.2LRSN                1
 GAP=102        1.19       3.6     5.3  6.8 -0.5950E+01  0.7895E+01  0.3703E+01E
 Epicentro: LOS SANTOS - SANTANDER                                             3
 ACTION:UP  11-02-08 08:39 OP:pat  STATUS:               ID:20110109005510 L   I
 2011-01-09-0050-58S.COL___135                                                 6
 STAT SP IPHASW D HRMM SECON CODA AMPLIT PERI AZIMU VELO SNR AR TRES W  DIS CAZ7
 BTL  SZ EP        055 30.13                             172     0.310   20 324 
 BAR2 SZ IP        055 29.88                             172     0.010   20 187 
 BAR2 SZ ES   1    055 45.19                             172    -0.2 7   20 187 
 BAR2 SZ I         055 46.39       725.0 0.17                            20 187 
 GIR2 SZ EP   1    055 30.93                             166     0.9 7   34 354 
 GIR2 SZ ES   1    055 45.99                             166     0.3 7   34 354 
 RUS  HZ IP     D  055 33.67                             145    -0.110   98 175 
 RUS  HN ES   1    055 51.81                             145    -0.6 7   98 175 
 RUS  HZ I         055 53.77       229.9 0.42                            98 175 
 GRA  SZ IP        055 36.64                             137     0.910  129  18 
 GRA  SZ ES   1    055 55.25                             137    -0.6 7  129  18 
 GRA  SZ I         055 59.13       135.1 0.24                           129  18 
 OCA  SZ EP        055 38.22                             130    -0.5 9  163 354 
 OCA  SZ ES   1    056  1.07                             130    -0.1 7  163 354 
 OCA  SZ I         056  4.54       178.3 0.28                           163 354 
 YOP  SZ IP        055 40.37                             127     0.3 9  177 152 
 YOP  SZ I         055 40.97        73.7 0.91                           177 152 
 YOP  SE ES   2    056  4.43                             127     0.9 4  177 152 
 NOR  SZ EP        055 45.56                             119     0.0 8  232 235 
 NOR  SN ES   1    056 13.19                             119    -0.1 6  232 235 
 CHI  HZ EP        055 47.78                             118     0.3 8  245 195 
 CHI  HE ES   1    056 16.18                             118    -0.5 6  245 195 
 CHI  HZ I         056 25.95       112.0 0.56                           245 195 
 ROSC BE ES   1    056 16.61                             117    -0.8 6  249 211 
 ROSC BZ I         056 24.24       268.7 0.40                           249 211 
 HEL  HZ EP   1    055 50.44                             115     0.4 6  270 256 
 HEL  HE ES        056 20.86                             115    -0.5 8  270 256 
 HEL  HZ I         056 29.37        86.7 0.29                           270 256 
 VIL  SZ EP   1    055 52.91                             113    -0.1 5  298 190 
 VIL  SN ES   1    056 26.61                             113     0.1 5  298 190 
 VIL  SZ I         056 34.84        82.3 0.51                           298 190 
 RREF HZ EP   1    055 56.01                             111     0.1 5  318 230 
 RREF HE ES   1    056 31.79                             111     0.1 5  318 230 
 RREF HZ I         056 41.39       122.6 0.29                           318 230 
 DBB  SZ IP        055 57.45                             110     0.1 7  338 275 
 DBB  SZ I         056 35.88        18.9 0.31                           338 275 
 TOL  SZ EP   1    055 58.38                             110     0.4 5  340 225 
 SDV  BZ EP        055 59.08                             108    -1.4 6  364  50 
 SDV  BZ I         056  0.15        29.3 0.21                           364  50 
 PRA  HZ EP        056  3.43                             107     0.2 6  389 210 
 PRA  HN ES   1    056 45.43                             107     0.7 4  389 210 
 SJA  SZ EP   1    056  3.33                             107    -0.9 4  397 193 
 SJA  SZ I         056 51.24       143.2 0.52                           397 193 
                                                                                
