 2017  6 9 0813 31.4 L   6.710 -73.193150.0  RSN  5 0.4 1.5LRSN                1
 GAP=225        1.07       6.2     7.2  9.5  0.2107E+02 -0.2147E+01 -0.1298E+02E
 Epicentro: VILLANUEVA - SANTANDER                                             3
 ACTION:UPD 17-09-14 16:50 OP:jn   STATUS:               ID:20170609081331 L   I
 OLDACT:REG 17-06-09 13:18 OP:edw  STATUS:               ID:20170609080738     3
 2017-06-09-0808-00M.COL___353                                                 6
 STAT SP IPHASW D HRMM SECON CODA AMPLIT PERI AZIMU VELO AIN AR TRES W  DIS CAZ7
 BRR  HZ IP     C  813 52.58                             153   -0.5310 72.2 307 
 BRR  HN ES        814 10.14                             153    0.1410 72.2 307 
 BRR  HZ I         814 13.56         6.0 0.36            151           72.2 307 
 RUS  HZ EP        813 55.19                             147    0.2110 91.2 172 
 RUS  HN ES        814 13.39                             147    0.0610 91.2 172 
 RUS  HZ I         814 14.36         2.3 0.18            149           91.2 172 
 PTB  HZ EP        813 57.73                             134   -0.43 9  141 262 
 PTB  HN ES        814 18.34                             134   -0.66 9  141 262 
 PTB  HZ I         814 23.52         2.9 0.20            134            141 262 
 SPBC HN ES        814 21.30                             132    0.35 9  152 220 
 SPBC HZ I         814 25.41         4.6 0.26            132            152 220 
 ZAR  HZ EP        814  4.50                             123    0.42 9  203 295 
 ZAR  HE ES        814 30.21                             123    0.67 9  203 295 
 ZAR  HZ I         814 35.75         4.7 0.48            124            203 295 
                                                                                
