 2012  2 9 0601 46.9 L   6.767 -73.207147.3  RSN  5 0.2 1.4LRSN                1
 GAP=228        0.45       4.4     4.3  5.7  0.1302E+02 -0.1689E+01 -0.5062E+01E
 ACTION:UP  12-03-07 16:28 OP:epov STATUS:               ID:20120209060146 L   I
 2012-02-09-0600-00M.COL___187                                                 6
 STAT SP IPHASW D HRMM SECON CODA AMPLIT PERI AZIMU VELO AIN AR TRES W  DIS CAZ7
 BAR2 SZ EP   1    6 2  6.48                             172   -0.20 7 19.5 172 
 BAR2 SZ I         6 2 23.97         5.5 0.27                          19.5 172 
 BRR  HZ EP   1    6 2  8.41                             154    0.38 7 67.2 304 
 BRR  HN ES   1    6 2 24.46                             154   -0.03 7 67.2 304 
 BRR  HZ I         6 2 29.85         6.5 0.14                          67.2 304 
 RUS  HZ EP   1    6 2 10.66                             145    0.03 7 97.7 172 
 RUS  HN ES        6 2 29.07                             145   -0.0410 97.7 172 
 RUS  HZ I         6 2 30.88         4.1 0.23                          97.7 172 
 PTB  HZ EP   1    6 2 13.25                             134   -0.12 7  140 260 
 PTB  HN ES   1    6 2 34.19                             134    0.20 7  140 260 
 ZAR  HN ES   1    6 2 43.71                             123   -0.27 6  199 294 
                                                                                
