 2012  5 9 0654 47.1 L   6.711 -73.133140.8  RSN  5 0.4 1.4LRSN                1
 GAP=142        0.60      15.1     7.0 12.4 -0.6709E+02 -0.1871E+02  0.1151E+03E
 Epicentro: JORDAN - SANTANDER                                                 3
 ACTION:UP  12-07-05 12:03 OP:pat  STATUS:               ID:20120509065447 L   I
 2012-05-09-0650-00M.COL___192                                                 6
 STAT SP IPHASW D HRMM SECON CODA AMPLIT PERI AZIMU VELO SNR AR TRES W  DIS CAZ7
 BRR  HZ EP        655  8.23                             149     0.210   78 304 
 BRR  HN ES   2    655 24.85                             149     0.4 5   78 304 
 BRR  HZ I         655 28.06         4.6 0.48                            78 304 
 PAM  SZ EP        655  9.23                             147     0.110   84  35 
 PAM  SN ES   2    655 25.95                             147    -0.5 5   84  35 
 RUS  HZ EP   3    655 10.36                             146     0.8 2   91 177 
 PTB  HZ EP        655 13.33                             131    -0.3 9  148 263 
 PTB  HN ES   3    655 33.20                             131    -1.1 2  148 263 
 ZAR  HZ EP   2    655 19.85                             120     0.1 4  209 294 
                                                                                
