 2011  4 9 0520 15.0 L   6.829 -73.076150.3  RSN  8 0.3 2.1LRSN                1
 GAP=120        0.66       3.6     6.5  6.6 -0.4262E+00  0.5125E+01  0.4668E+01E
 Epicentro: LOS SANTOS - SANTANDER                                             3
 ACTION:UP  11-06-22 15:29 OP:REBC STATUS:               ID:20110409052015 L   I
 2011-04-09-0516-42S.COL___138                                                 6
 STAT SP IPHASW D HRMM SECON CODA AMPLIT PERI AZIMU VELO SNR AR TRES W  DIS CAZ7
 BTL  SZ IP        520 35.48                             171     0.310   23 295 
 BAR2 SZ EP   1    520 35.27                             168    -0.1 7   29 204 
 BAR2 SZ ES   2    520 50.74                             168    -0.4 5   29 204 
 BAR2 SZ I         520 51.56        17.4 0.28                            29 204 
 PAM  SZ EP   1    520 37.85                             154     0.5 7   70  36 
 PAM  SN ES   1    520 54.98                             154     0.3 7   70  36 
 BRR  HZ IP     C  520 37.12                             152     0.110   77 294 
 BRR  HZ I         520 37.46        53.2 0.14                            77 294 
 BRR  HN ES   2    520 54.04                             152    -0.1 5   77 294 
 GRA  SZ EP        520 39.93                             139    -0.310  121  14 
 GRA  SZ ES   1    520 59.52                             139    -0.4 7  121  14 
 GRA  SZ I         521  0.74        13.8 0.31                           121  14 
 OCA  SZ EP   1    520 43.30                             131    -0.2 7  158 350 
 OCA  SZ ES   1    521  5.80                             131     0.1 7  158 350 
 OCA  SZ I         521 11.39        17.6 0.29                           158 350 
 YOP  SZ EP   2    520 45.25                             127    -0.1 4  179 156 
 YOP  SE ES   2    521  9.06                             127     0.0 4  179 156 
 CHI  HZ EP   2    520 53.22                             117    -0.3 4  254 197 
 CHI  HZ I         520 55.98         4.1 0.43                           254 197 
                                                                                
