 2017  4 9 0205 55.3 L   6.814 -73.165139.0  RSN  4 0.2 1.1LRSN                1
 GAP=143        0.61       3.6     3.7  5.5 -0.4484E+01  0.3168E+01 -0.8417E+00E
 Epicentro: LOS SANTOS - SANTANDER                                             3
 ACTION:UPD 17-05-30 21:09 OP:jn   STATUS:               ID:20170409020555 L   I
 OLDACT:DUP 17-04-09 13:41 OP:and  STATUS:               ID:20170409015747d    3
 2017-04-09-0158-00M.COL___371                                                 6
 STAT SP IPHASW D HRMM SECON CODA AMPLIT PERI AZIMU VELO AIN AR TRES W  DIS CAZ7
 BAR2 EZ EP        2 6 13.71                             169   -0.4010 24.6 185 
 BAR2 EZ ES        2 6 28.85                             169    0.0410 24.6 185 
 BAR2 EZ I         2 6 30.53         2.8 0.17            174           24.6 185 
 PAM  EZ EP        2 6 16.81                             149    0.0310 77.6  41 
 PAM  EN ES        2 6 33.60                             149    0.0510 77.6  41 
 PAM  EZ I         2 6 41.25         3.1 0.42            148           77.6  41 
 RUS  HZ EP        2 6 18.86                             142    0.3810  102 175 
 RUS  HN ES        2 6 36.45                             142   -0.1410  102 175 
 RUS  HZ I         2 6 37.76         1.8 0.38            148            102 175 
 PTB  HZ EP   2    2 6 21.19                             131   -0.34 5  146 258 
 PTB  HE ES        2 6 42.14                             131    0.13 9  146 258 
                                                                                
