 2013 11 9 0931 27.8 L   6.787 -73.140136.4  RSN  5 0.2 1.5LRSN                1
 GAP=138        0.56       2.8     2.8  4.1 -0.7232E+00  0.1593E+01  0.5754E+00E
 Epicentro: LOS SANTOS - SANTANDER                                             3
 ACTION:UPD 14-01-09 16:26 OP:ep   STATUS:               ID:20131109093127 L   I
 OLDACT:REG 13-11-09 08:22 OP:stll STATUS:               ID:20131109092838     3
 2013-11-09-0928-38M.COL___206                                                 6
 STAT SP IPHASW D HRMM SECON CODA AMPLIT PERI AZIMU VELO AIN AR TRES W  DIS CAZ7
 BAR2 SZ EP        931 45.92                             170   -0.3710 22.0 192 
 BAR2 SZ ES        932  0.92                             170    0.2210 22.0 192 
 BAR2 SZ I         932  2.00         9.5 0.44            171           22.0 192 
 BRR  HZ EP        931 48.36                             150    0.3310 72.5 299 
 BRR  HN ES        932  3.70                             150   -0.1010 72.5 299 
 BRR  HZ I         932  9.70         5.4 0.38            150           72.5 299 
 PAM  SZ EP        931 49.20                             149    0.1110 78.1  39 
 PAM  SZ I         931 49.36        10.2 0.22            151           78.1  39 
 PAM  SN ES        932  5.56                             149   -0.1210 78.1  39 
 RUS  HZ EP        931 50.42                             142   -0.1210 99.1 176 
 RUS  HN ES        932  8.35                             142    0.0810 99.1 176 
 RUS  HZ I         932  9.80         2.9 0.24            146           99.1 176 
 PTB  HZ EP        931 54.17                             130    0.11 9  148 259 
 PTB  HN ES        932 14.40                             130   -0.14 9  148 259 
 PTB  HZ I         932 16.12         3.7 0.14            131            148 259 
                                                                                
