 2016  6 9 0450  3.6 L   6.862 -73.103147.9  RSN 22 0.6 2.7LRSN                1
 GAP= 74        1.26       3.7     3.7  5.9 -0.4167E+01  0.5137E+01  0.1516E+01E
 Epicentro: LOS SANTOS - SANTANDER                                             3
 ACTION:UPD 16-07-21 22:16 OP:rebc STATUS:               ID:20160609045003 L   I
 OLDACT:UP  16-06-09 16:25 OP:dani STATUS:               ID:20160609044744     3
 OLDACT:UP  16-06-09 16:24 OP:dani STATUS:               ID:20160609044744     3
 OLDACT:UP  16-06-09 16:22 OP:dani STATUS:               ID:20160609044744     3
 OLDACT:REG 16-06-09 13:06 OP:dani STATUS:               ID:20160609044744     3
 2016-06-09-0447-44M.COL___337                                                 6
 STAT SP IPHASW D HRMM SECON CODA AMPLIT PERI AZIMU VELO AIN AR TRES W  DIS CAZ7
 BAR2 EZ IP     C  450 23.34                             168   -0.3710 31.0 196 
 BAR2 EZ I         450 39.17        64.3 0.28                          31.0 196 
 PAM  EZ EP     C  450 26.11                             154    0.4910 69.2  40 
 PAM  EE ES        450 43.21                             154    0.4410 69.2  40 
 PAM  EZ I         450 43.71        76.1 0.26                          69.2  40 
 BRR  HZ IP     C  450 25.12                             152    0.0210 72.5 292 
 BRR  HE ES        450 42.07                             152    0.2410 72.5 292 
 BRR  HZ I         450 46.04        68.9 0.12                          72.5 292 
 RUS  HZ EP        450 27.37                             142   -0.7210  107 179 
 RUS  HN ES        450 46.56                             142   -0.5910  107 179 
 RUS  HZ I         450 47.24        47.1 0.28                           107 179 
 TAM  HZ EP     C  450 31.75                             131    0.49 9  153 108 
 TAM  HE ES        450 53.49                             131    0.70 9  153 108 
 TAM  HZ I         450 53.97        44.7 0.56                           153 108 
 PTB  HZ EP   9    450 29.91                             131   -1.42 0  154 257 
 PTB  HN ES        450 51.03                             130   -0.48 9  154 257 
 PTB  HZ I         450 53.09        47.6 0.16                           154 257 
 SPBC HZ EP     C  450 32.42                             128   -0.67 9  171 219 
 SPBC HE ES   4    450 54.60                             128   -1.46 0  171 219 
 SPBC HZ I         450 57.00        70.1 0.20                           171 219 
 NOR  HZ EP        450 39.86                             118   -0.47 8  242 234 
 NOR  HN ES        451  8.81                             118   -0.14 8  242 234 
 NOR  HZ I         451 11.38        49.1 0.32                           242 234 
 CHI  HZ EP        450 42.51                             117    0.20 8  256 196 
 CHI  HN ES        451 11.37                             117   -1.10 8  256 196 
 CHI  HZ I         451 16.25        13.4 0.36                           256 196 
 ROSC BZ EP   9    450 44.38                             116    1.60 0  261 211 
 ROSC BE ES        451 14.72                             115   -0.19 8  261 211 
 HEL  HZ EP        450 45.28                             115    0.62 7  278 255 
 HEL  HN ES   4    451 19.80                             115    3.15 0  278 255 
 HEL  HZ I         451 21.59        29.1 0.38                           278 255 
 URE  HZ EP   4    450 47.76                             114    2.73 0  286 290 
 URE  HN ES   4    451 15.76                             114   -1.55 0  286 290 
 URE  HZ I         451 27.51        26.5 0.16                           286 290 
 VIL  SZ EP   4    450 44.59                             112   -3.43 0  311 192 
 VIL  SE ES        451 22.09                             112   -0.54 7  311 192 
 VIL  SZ I         451 26.48       777.5 0.26                           311 192 
 ELA  HZ EP        450 52.48                             110    0.98 7  337 229 
 ELA  HE ES   4    451 31.18                             110    2.36 0  337 229 
 ELA  HZ I         451 39.37        24.2 0.34                           337 229 
 CBOC HZ EP     D  450 51.36                             110   -0.04 7  340 251 
 CBOC HN ES        451 29.68                             110    1.03 7  340 251 
 CBOC HZ I         451 33.88         7.3 0.39                           340 251 
 DBB  SZ EP        450 51.24                             110   -0.45 7  344 273 
 DBB  SZ I         451 34.76        57.9 0.32                           344 273 
 SDV  BZ EP        450 52.99                             109    0.14 6  352  51 
 SDV  BE ES        451 30.70                             109   -0.53 6  352  51 
 SDV  BZ I         451 32.08         9.4 0.45                           352  51 
 ANIL HZ EP        450 54.47                             108    0.00 6  365 224 
 ANIL HN ES        451 35.52                             108    1.41 6  365 224 
 ANIL HZ I         451 44.27        31.5 0.26                           365 224 
 PRA  HZ EP        450 58.58                             106    0.38 6  400 210 
 PRA  HE ES        451 41.55                             106    0.80 6  400 210 
 PRA  HZ I         451 45.95        21.0 0.32                           400 210 
 ORTC HZ EP        450 58.18                             106   -0.42 6  404 216 
 ORTC HN ES        451 42.20                             106    0.73 6  404 216 
 ORTC HZ I         451 46.61        14.2 0.46                           404 216 
 SJC  HZ EP        450 57.98                             106   -0.93 6  406 326 
 SJC  HE ES        451 41.05                             106   -0.98 6  406 326 
 SJC  HZ I         451 43.08         4.5 0.33                           406 326 
 PAL  HZ EP        450 59.41                             106   -0.34 6  413 239 
 PAL  HN ES   4    451 45.86                             106    2.34 0  413 239 
 PAL  HZ I         451 47.36         4.7 0.27                           413 239 
                                                                                
