 2016  9 9 0323 23.7 L   6.810 -73.138157.2  RSN  8 0.5 1.5LRSN                1
 GAP=137        0.97       5.3     6.0  9.9 -0.1543E+01 -0.1668E+02  0.6076E+01E
 Epicentro: LOS SANTOS - SANTANDER                                             3
 ACTION:UPD 17-08-17 21:08 OP:lp   STATUS:               ID:20160909032323 L   I
 OLDACT:UP  16-09-09 14:59 OP:dani STATUS:               ID:20160909031739     3
 OLDACT:UP  16-09-09 14:59 OP:dani STATUS:               ID:20160909031739     3
 OLDACT:REG 16-09-09 12:30 OP:dani STATUS:               ID:20160909031739     3
 2016-09-09-0318-00M.COL___359                                                 6
 STAT SP IPHASW D HRMM SECON CODA AMPLIT PERI AZIMU VELO AIN AR TRES W  DIS CAZ7
 BRR  HZ EP        323 46.10                             155    0.0110 71.4 297 
 BRR  HE ES        324  3.62                             155    0.0510 71.4 297 
 BRR  HZ I         324  4.75         7.8 0.39            152           71.4 297 
 PAM  EZ EP        323 47.48                             153    0.4210 76.0  40 
 RUS  HZ EP   2    323 47.30                             146   -1.35 5  102 177 
 RUS  HE ES   2    324  7.35                             146   -0.78 5  102 177 
 RUS  HZ I         324  8.74         2.5 0.25            147            102 177 
 PTB  HZ EP        323 51.23                             135   -0.47 9  149 258 
 PTB  HE ES        324 13.52                             135   -0.03 9  149 258 
 PTB  HZ I         324 14.17         3.3 0.42            133            149 258 
 SPBC HZ EP        323 53.61                             131    0.40 9  165 219 
 SPBC HN ES        324 16.74                             131    0.50 9  165 219 
 SPBC HZ I         324 17.95         4.4 0.14            131            165 219 
 ZAR  HN ES        324 22.51                             125   -0.36 9  204 292 
 ZAR  HZ I         324 28.80         3.2 0.29            124            204 292 
 CHI  HN ES   2    324 32.20                             119   -0.01 4  250 195 
 GUY2CHZ EP   4    324  9.99                             115    2.00 0  302 235 
 GUY2CHE ES   4    324 47.71                             115    5.16 0  302 235 
 GUY2CHZ I         324 50.71         1.6 0.29                           302 235 
                                                                                
