 2011  9 9 0731 58.1 L   6.063 -73.616115.6  RSN  8 0.3 1.4LRSN                1
 GAP= 77        0.46       2.7     3.6  7.4 -0.4315E+00  0.1751E+02  0.6855E+00E
 Epicentro: CHIPATA - SANTANDER                                                3
 ACTION:UPD 12-07-13 15:56 OP:ep   STATUS:               ID:20110909073158 L   I
 2011-09-09-0729-52S.COL___169                                                 6
 STAT SP IPHASW D HRMM SECON CODA AMPLIT PERI AZIMU VELO AIN AR TRES W  DIS CAZ7
 RUS  HZ EP   1    732 16.07                             150   -0.13 7 61.9 108 
 RUS  HN ES   2    732 30.05                             150   -0.26 5 61.9 108 
 RUS  HZ I         732 32.48         3.1 0.29                          61.9 108 
 BAR2 SZ EP   1    732 16.97                             144    0.23 7 75.6  39 
 BAR2 SZ ES   1    732 31.13                             144   -0.14 7 75.6  39 
 BAR2 SZ I         732 32.99        12.9 0.41                          75.6  39 
 BRR  HZ EP   1    732 19.89                             131    0.18 7  116 355 
 BRR  HN ES   2    732 36.97                             131    0.41 5  116 355 
 BRR  HZ I         732 40.80         7.1 0.08                           116 355 
 GIR2 SZ EP   3    732 20.57                             130    0.14 2  122  23 
 GIR2 SZ ES   3    732 38.46                             130    0.62 2  122  23 
 CHI  HN ES   2    732 44.99                             122   -0.06 5  159 185 
 CHI  HZ I         732 48.22         3.3 0.32                           159 185 
 ZAR  HZ EP   2    732 28.81                             114   -0.57 4  209 319 
 ZAR  HE ES   2    732 53.09                             114   -0.68 4  209 319 
 ZAR  HZ I         732 55.78         4.9 0.32                           209 319 
 HEL  HZ EP   2    732 30.17                             114    0.01 4  212 274 
 HEL  HE ES   2    732 55.18                             114    0.02 4  212 274 
 HEL  HZ I         733  1.83         1.6 0.42                           212 274 
 RREF HN ES   2    732 59.98                             112    0.48 4  231 236 
 RREF HZ I         733  6.19         1.6 0.34                           231 236 
                                                                                
