 2011  8 9 0035 35.2 L   6.773 -73.116144.4  RSN  8 0.2 2.0LRSN                1
 GAP=142        0.38       2.0     3.1  3.2 -0.1384E+01  0.2633E+01  0.1650E+01E
 Epicentro: LOS SANTOS - SANTANDER                                             3
 ACTION:UPD 12-07-25 14:07 OP:epov STATUS:               ID:20110809003535 L   I
 2011-08-09-0035-34S.COL___144                                                 6
 STAT SP IPHASW D HRMM SECON CODA AMPLIT PERI AZIMU VELO AIN AR TRES W  DIS CAZ7
 BAR2 SZ EP   2    035 54.63                             171   -0.04 5 21.3 200 
 BAR2 SZ ES   1    036  9.66                             171   -0.16 7 21.3 200 
 BAR2 SZ I         036 11.10        47.5 0.21                          21.3 200 
 BRR  HZ EP   1    035 56.53                             151    0.04 7 75.5 299 
 BRR  HN ES   1    036 13.44                             151    0.37 7 75.5 299 
 BRR  HZ I         036 14.80        20.6 0.18                          75.5 299 
 PAM  SZ EP   2    035 57.44                             150    0.11 5 77.7  36 
 PAM  SZ I         035 57.99        12.0 0.20                          77.7  36 
 PAM  SE ES   1    036 14.50                             150   -0.06 7 77.7  36 
 RUS  HZ EP   1    035 58.72                             144    0.09 7 97.4 178 
 RUS  HN ES   1    036 16.87                             144    0.00 7 97.4 178 
 RUS  HZ I         036 18.40        18.0 0.30                          97.4 178 
 OCA  SZ EP   2    036  3.52                             129   -0.25 5  164 352 
 OCA  SZ ES   2    036 25.77                             129   -0.25 5  164 352 
 OCA  SZ I         036 31.05        16.3 0.39                           164 352 
 NOR  SZ EP   1    036 10.68                             118   -0.31 6  236 236 
 NOR  SE ES   1    036 38.63                             118   -0.25 6  236 236 
 CHI  HZ EP   1    036 12.88                             117    0.24 6  247 196 
 CHI  HN ES   2    036 41.60                             117   -0.22 4  247 196 
 CHI  HZ I         036 46.51         4.5 0.68                           247 196 
 PRA  HZ EP   1    036 29.00                             106    0.40 4  391 210 
 PRA  HN ES   1    037 10.29                             106    0.07 4  391 210 
                                                                                
