 2016 11 9 0147  1.5 L   6.475 -73.331131.0  RSN  7 0.4 1.5LRSN                1
 GAP=140        0.96       3.8     4.1  6.4 -0.3802E+01  0.4530E+01  0.4898E+01E
 Epicentro: SIMACOTA - SANTANDER                                               3
 ACTION:UPD 17-10-26 21:06 OP:lp   STATUS:               ID:20161109014701 L   I
 OLDACT:REG 16-11-09 12:25 OP:lv   STATUS:               ID:20161109013730     3
 2016-11-09-0138-00M.COL___343                                                 6
 STAT SP IPHASW D HRMM SECON CODA AMPLIT PERI AZIMU VELO AIN AR TRES W  DIS CAZ7
 BAR2 EZ EP        147 18.91                             170   -0.4410 21.0  52 
 BAR2 EZ ES        147 33.42                             170    0.1810 21.0  52 
 BRR  HZ EP        147 21.35                             146   -0.4410 81.6 329 
 BRR  HN ES        147 37.88                             146    0.3010 81.6 329 
 BRR  HZ I         147 39.84         4.1 0.12            145           81.6 329 
 PAM  EZ EP        147 25.83                             135    0.5110  118  36 
 PAM  EN ES        147 43.74                             135   -0.1210  118  36 
 PAM  EZ I         147 44.98         3.6 0.22            138            118  36 
 PTB  HZ EP   9    147 23.66                             134   -1.55 0  125 273 
 PTB  HE ES        147 41.81                                   -0.3210  125 273 
 NOR  HZ EP        147 32.39                             120   -0.08 9  198 239 
 NOR  HN ES        147 57.09                             120    0.50 9  198 239 
 NOR  HZ I         148  3.26         3.6 0.12            119            198 239 
 ZAR  HZ EP        147 33.37                             119    0.44 9  203 304 
 ZAR  HE ES        147 56.82                             119   -0.59 9  203 304 
 ZAR  HZ I         148  2.08         3.8 0.23            119            203 304 
 CHI  HE ES        147 59.25                             118   -0.25 8  209 192 
                                                                                
