 2011  7 9 0530  9.7 L   6.780 -73.195137.0  RSN 14 0.4 3.2LRSN                1
 GAP=131        0.88       2.9     5.1  6.3 -0.7082E+01  0.1342E+02  0.2372E-01E
 Epicentro: ZAPATOCA - SANTANDER                                               3
 ACTION:UPD 12-07-25 13:59 OP:epov STATUS:               ID:20110709053009 L   I
 2011-07-09-0527-46S.COL___140                                                 6
 STAT SP IPHASW D HRMM SECON CODA AMPLIT PERI AZIMU VELO AIN AR TRES W  DIS CAZ7
 BAR2 SZ IP     D  530 28.36                             171    0.1610 20.8 176 
 BAR2 SZ ES   1    530 43.02                             171    0.37 7 20.8 176 
 BAR2 SZ I         530 44.03       617.9 0.24                          20.8 176 
 GIR2 SZ IP     D  530 28.57                             166    0.2110 33.0   0 
 BRR  HZ IP     C  530 30.29                             152    0.6210 67.6 302 
 BRR  HZ I         530 30.64       814.5 0.11                          67.6 302 
 PAM  SZ EP   1    530 31.24                             147   -0.06 7 82.6  41 
 PAM  SN ES   1    530 47.97                             147   -0.20 7 82.6  41 
 RUS  HZ EP   1    530 32.34                             142   -0.11 7 98.9 173 
 RUS  HN ES   1    530 50.11                             142   -0.10 7 98.9 173 
 RUS  HZ I         530 52.23       244.6 0.31                          98.9 173 
 BRI  SZ IP     C  530 33.08                             138    0.0110  113  23 
 BRI  SZ ES   1    530 50.57                             138   -0.75 7  113  23 
 BRI  SZ I         530 53.19       319.0 0.44                           113  23 
 GRA  SZ IP     C  530 35.38                             134    0.9010  130  19 
 GRA  SZ ES   1    530 53.43                             134   -0.40 7  130  19 
 GRA  SZ I         530 56.08       219.4 0.15                           130  19 
 OCA  SZ EP        530 37.13                             127   -0.35 9  162 355 
 OCA  SZ ES   1    530 58.55                             127   -0.61 7  162 355 
 OCA  SZ I         531  0.65       214.2 0.09                           162 355 
 NOR  SZ EP   1    530 43.65                             117   -0.64 6  229 234 
 NOR  SN ES        531 11.04                             117   -0.24 8  229 234 
 NOR  SZ I         531 14.18        20.5 0.18                           229 234 
 CHI  HZ EP   1    530 46.44                             115   -0.08 6  245 194 
 CHI  HN ES   1    531 15.56                             115    0.31 6  245 194 
 CHI  HZ I         531 19.96        49.6 0.30                           245 194 
 HEL  HZ EP   1    530 48.93                             113    0.13 6  266 256 
 HEL  HN ES   1    531 19.15                             113   -0.17 6  266 256 
 HEL  HZ I         531 28.15       131.5 0.41                           266 256 
 VIL  SZ EP   1    530 52.03                             110   -0.31 5  300 191 
 VIL  SN ES   1    531 25.32                             110   -0.29 5  300 191 
 VIL  SZ I         531 30.80        38.5 0.36                           300 191 
 DBB  SZ EP   1    530 56.92                             108    0.72 5  334 275 
 PRA  HZ EP        531  1.74                             105   -0.62 6  387 209 
 PRA  HN ES   1    531 43.28                             105   -0.18 4  387 209 
 PRA  HZ I         531 49.50       171.7 0.20                           387 209 
                                                                                
