 2014  8 9 0829 35.2 L   6.827 -73.395115.4  RSN  4 0.4 1.2LRSN                1
 GAP=186        1.05       6.7     6.5  9.8 -0.2642E+01  0.1934E+02  0.1192E+02E
 Epicentro: SAN VICENTE DE CHUCURI - SANTANDER                                 3
 ACTION:UPD 14-09-15 21:48 OP:nd   STATUS:               ID:20140809082935 L   I
 OLDACT:DUP 14-08-10 00:26 OP:carl STATUS:               ID:20140809081819d    3
 2014-08-09-0818-18M.COL___260                                                 6
 STAT SP IPHASW D HRMM SECON CODA AMPLIT PERI AZIMU VELO AIN AR TRES W  DIS CAZ7
 BAR2 SZ EP        829 50.96                             162   -0.5910 35.1 138 
 BAR2 SZ ES        830  4.64                             162    0.3310 35.1 138 
 BAR2 SZ I         830  5.82         7.8 0.42            165           35.1 138 
 BRR  HZ EP        829 51.59                             156   -0.1110 46.7 312 
 BRR  HE ES        830  4.64                             156    0.0610 46.7 312 
 PTB  HZ EP        829 58.03                             130    0.7210  122 255 
 PTB  HN ES        830 14.16                             130   -0.4010  122 255 
 PTB  HZ I         830 18.89         2.1 0.30            131            122 255 
 SPBC HN ES        830 19.68                             124   -0.01 9  150 210 
                                                                                
