 2016  3 9 0807 51.8 L   6.741 -73.098140.3  RSN  5 0.3 1.3LRSN                1
 GAP=172        0.77       5.0     8.5  5.7 -0.3079E+02  0.8117E+01  0.2184E+01E
 Epicentro: JORDAN - SANTANDER                                                 3
 ACTION:UPD 16-05-13 21:22 OP:cam  STATUS:               ID:20160309080751 L   I
 OLDACT:DUP 16-03-09 18:09 OP:cara STATUS:               ID:20160309075748d    3
 OLDACT:DUP 16-03-09 18:06 OP:cara STATUS:               ID:20160309075747d    3
 2016-03-09-0757-46M.COL___288                                                 6
 STAT SP IPHASW D HRMM SECON CODA AMPLIT PERI AZIMU VELO AIN AR TRES W  DIS CAZ7
 BAR2 EZ EP        8 8 10.46                             172   -0.2510 18.9 210 
 BAR2 EZ ES        8 8 25.69                             172    0.2410 18.9 210 
 BAR2 EZ I         8 8 27.11         5.0 0.18            168           18.9 210 
 PAM  EZ EP        8 8 13.54                             149   -0.0510 79.4  34 
 PAM  EN ES        8 8 30.69                             149    0.1210 79.4  34 
 PAM  EZ I         8 8 32.59         4.9 0.48            153           79.4  34 
 RUS  HZ EP        8 8 14.11                             145   -0.4410 93.9 179 
 RUS  HN ES        8 8 32.24                             145   -0.0510 93.9 179 
 RUS  HZ I         8 8 34.31         1.8 0.30            146           93.9 179 
 SPBC HZ EP        8 8 20.26                             128    0.50 9  162 222 
 SPBC HN ES        8 8 41.16                             128   -0.40 9  162 222 
 SPBC HZ I         8 8 47.81         2.9 0.20            128            162 222 
 CHI  HZ EP        8 8 28.83                             116    0.13 8  244 197 
 CHI  HN ES        8 8 57.88                             116    0.42 8  244 197 
 CHI  HZ I         8 9  1.48         1.1 0.44            118            244 197 
                                                                                
