 2017  9 9 0600 30.9 L   6.805 -73.137146.3  RSN 15 0.4 2.1LRSN                1
 GAP=112        0.80       2.5     2.8  4.2  0.4053E+00  0.2768E+01  0.2737E+01E
 Epicentro: LOS SANTOS - SANTANDER                                             3
 ACTION:UPD 17-10-05 19:10 OP:rebc STATUS:               ID:20170909060030 L   I
 OLDACT:UP  17-09-09 16:15 OP:dnl  STATUS:               ID:20170909055741     3
 OLDACT:REG 17-09-09 12:58 OP:dnl  STATUS:               ID:20170909055741     3
 2017-09-09-0558-00M.COL___410                                                 6
 STAT SP IPHASW D HRMM SECON CODA AMPLIT PERI AZIMU VELO AIN AR TRES W  DIS CAZ7
 BAR2 EZ IP     C  6 0 50.50                             170   -0.1210 24.1 192 
 BAR2 EZ ES        6 1  5.38                             170   -0.6110 24.1 192 
 BAR2 EZ I         6 1  6.63        30.4 0.22            167           24.1 192 
 BRR  HZ IP     C  6 0 52.31                             152    0.1710 71.7 298 
 BRR  HN ES        6 1  9.10                             152    0.3910 71.7 298 
 BRR  HZ I         6 1 12.46        15.2 0.21            150           71.7 298 
 PAM  EZ EP        6 0 53.49                             151    0.3710 76.3  39 
 PAM  EN ES        6 1 10.44                             151    0.0010 76.3  39 
 PAM  EZ I         6 1 12.46        21.1 0.48            151           76.3  39 
 RUS  HZ EP        6 0 54.55                             144   -0.2010  101 177 
 RUS  HN ES        6 1 13.01                             144   -0.3310  101 177 
 RUS  HZ I         6 1 14.96        11.1 0.40            140            101 177 
 SPBC HZ EP        6 0 59.53                             129   -0.02 9  164 219 
 SPBC HN ES        6 1 22.20                             129    0.32 9  164 219 
 SPBC HZ I         6 1 24.79        17.9 0.16            126            164 219 
 YPLC HZ EP   2    6 1  0.95                             127    0.20 4  177 152 
 YPLC HE ES        6 1 24.72                             127    0.70 9  177 152 
 YPLC HZ I         6 1 25.85         6.3 0.28            124            177 152 
 ZAR  HZ EP        6 1  3.30                             122   -0.15 9  205 292 
 ZAR  HN ES        6 1 28.76                             122   -0.08 9  205 292 
 ZAR  HZ I         6 1 34.67        16.7 0.38            120            205 292 
 NOR  HZ EP        6 1  6.79                             118    0.00 8  236 234 
 NOR  HN ES        6 1 34.74                             118   -0.03 8  236 234 
 NOR  HZ I         6 1 39.58         8.9 0.26            116            236 234 
 CHI  HZ EP        6 1  8.87                             117    0.15 8  249 195 
 CHI  HN ES        6 1 38.46                             117    0.24 8  249 195 
 CHI  HZ I         6 1 45.14         6.3 0.50            114            249 195 
 ROSC BZ EP   9    6 1 11.08                             117    1.92 0  254 211 
 ROSC BN ES        6 1 40.86                                   -0.06 8  254 211 
 ROSC BZ I         6 1 44.46        11.0 0.50            114            254 211 
 HEL  HZ EP   4    6 1 12.49                             115    1.23 0  273 256 
 HEL  HE ES        6 1 42.48                             115   -0.26 8  273 256 
 HEL  HZ I         6 1 49.69         6.4 0.54            112            273 256 
 GUY2CHZ EP   2    6 1 15.07                             112    0.40 4  302 235 
 GUY2CHN ES   4    6 1 50.35                             112    1.55 0  302 235 
 GUY2CHZ I         6 1 57.06         6.8 0.60                           302 235 
 PTGC HZ EP        6 1 13.76                             112   -1.05 7  309 159 
 PTGC HZ I         6 1 37.95         3.1 0.54            109            309 159 
 PTGC HN ES   4    6 1 47.21                             112   -1.85 0  309 159 
 PRA  HZ EP        6 1 24.61                             106    0.05 6  393 210 
 PRA  HN ES        6 2  6.49                             106    0.08 6  393 210 
 PRA  HZ I         6 2 11.42         7.5 0.74            104            393 210 
 SJC  HN EP   4    6 1 24.90                             106   -1.59 0  409 327 
 SJC  HE ES   4    6 2  5.51                             106   -4.33 0  409 327 
 SJC  HN I         6 2  9.36         3.3 0.56            104            409 327 
                                                                                
