 2011  7 9 0935 42.9 L   7.022 -73.157140.7  RSN 12 0.3 2.7LRSN                1
 GAP=149        0.50       2.1     3.4  3.8 -0.2059E+01  0.2838E+01  0.1354E+01E
 Epicentro: GIRON - SANTANDER                                                  3
 ACTION:UPD 12-07-25 13:59 OP:epov STATUS:               ID:20110709093542 L   I
 2011-07-09-0933-11S.COL___139                                                 6
 STAT SP IPHASW D HRMM SECON CODA AMPLIT PERI AZIMU VELO AIN AR TRES W  DIS CAZ7
 GIR2 SZ EP        936  1.50                             177   -0.0210 7.40 327 
 BTL  SZ IP     C  936  1.98                             173    0.2110 16.7 227 
 BAR2 SZ EP        936  2.68                             160    0.0410 47.7 183 
 BAR2 SZ ES   1    936 18.06                             160   -0.01 7 47.7 183 
 BAR2 SZ I         936 19.74        62.3 0.20                          47.7 183 
 BRR  HZ IP     C  936  2.70                             155   -0.2610 62.0 279 
 BRR  HZ I         936  3.09       276.3 0.15                          62.0 279 
 BRR  HE ES   1    936 18.39                             155   -0.24 7 62.0 279 
 BRI  SZ EP   1    936  4.84                             147    0.16 7 86.5  27 
 BRI  SZ ES   1    936 21.71                             147    0.02 7 86.5  27 
 GRA  SZ EP   1    936  5.97                             142    0.14 7  103  22 
 GRA  SZ ES   1    936 24.09                             142    0.34 7  103  22 
 GRA  SZ I         936 25.90        83.0 0.38                           103  22 
 RUS  HZ EP   1    936  7.76                             136   -0.32 7  125 176 
 RUS  HN ES   1    936 27.73                             136   -0.01 7  125 176 
 OCA  SZ EP   1    936  8.29                             133   -0.23 7  136 352 
 OCA  SZ ES   1    936 28.30                             133   -0.23 7  136 352 
 OCA  SZ I         936 30.96        37.6 0.27                           136 352 
 NOR  SZ EP   2    936 20.65                             116    0.81 4  249 230 
 CHI  HZ EP   1    936 22.85                             114   -0.04 6  272 194 
 HEL  HZ EP   1    936 23.42                             113   -0.06 6  278 251 
 HEL  HN ES   1    936 55.75                             113    0.60 6  278 251 
 HEL  HZ I         937  0.19        29.4 0.39                           278 251 
 PRA  HZ EP   1    936 38.23                             105   -0.45 4  413 208 
 PRA  HZ I         936 41.98        14.7 0.21                           413 208 
 PRA  HN ES   2    937 22.40                             105    0.18 3  413 208 
                                                                                
