 2014  6 9 0647 48.2 L   7.227 -73.296119.1  RSN  4 0.3 1.7LRSN                1
 GAP=171        0.80       3.7     5.4 10.4  0.9858E+00  0.2253E+02 -0.4568E+01E
 Epicentro: LEBRIJA - SANTANDER                                                3
 OLDACT:UP  14-06-09 17:40 OP:fm   STATUS:               ID:20140609063813     3
 OLDACT:REG 14-06-09 13:18 OP:fm   STATUS:               ID:20140609063813     3
 ACTION:UPD 14-07-01 22:52 OP:nd   STATUS:               ID:20140609064748 L   I
 OLDACT:UP  14-06-09 17:42 OP:fm   STATUS:               ID:20140609063813     3
 2014-06-09-0638-13M.COL___256                                                 6
 STAT SP IPHASW D HRMM SECON CODA AMPLIT PERI AZIMU VELO AIN AR TRES W  DIS CAZ7
 BAR2 SZ EP   1    648  6.78                             147   -0.07 8 71.3 170 
 BAR2 SZ ES   1    648 21.15                             147   -0.27 8 71.3 170 
 BAR2 SZ I         648 22.13        19.8 0.20            149           71.3 170 
 OCA  HZ EP        648 10.19                             134    0.2910  112 359 
 OCA  HN ES        648 27.10                             134    0.2510  112 359 
 OCA  SZ I         648 27.84         5.6 0.28            136            112 359 
 OCA  HZ I         648 28.48         7.0 0.30                           112 359 
 ZAR  HZ EP        648 15.81                             120   -0.07 9  175 280 
 ZAR  HN ES        648 37.80                             120    0.29 9  175 280 
 ZAR  SZ I         648 39.36         5.7 0.12            122            175 280 
 SML  HN ES        648 40.41                             117   -0.68 9  194 334 
                                                                                
