 2012 12 9 0706 21.1 L   6.810 -73.171141.1  RSN 11 0.4 2.0LRSN                1
 GAP=110        0.66       2.4     2.8  4.5  0.8360E+00  0.3006E+01  0.5984E+00E
 Epicentro: LOS SANTOS - SANTANDER                                             3
 ACTION:UPD 13-01-04 14:26 OP:ep   STATUS:               ID:20121209070621 L   I
 2012-12-09-0700-00M.COL___243                                                 6
 STAT SP IPHASW D HRMM SECON CODA AMPLIT PERI AZIMU VELO AIN AR TRES W  DIS CAZ7
 BAR2 SZ IP        7 6 40.45                             170    0.2210 24.1 183 
 BAR2 SZ ES   1    7 6 54.95                             170   -0.17 7 24.1 183 
 BAR2 SZ I         7 6 56.85        41.5 0.38                          24.1 183 
 GIR2 SZ EP   1    7 6 40.09                             167   -0.13 7 29.9 355 
 GIR2 SZ ES   1    7 6 55.58                             167    0.47 7 29.9 355 
 GIR2 SZ I         7 6 57.40        20.0 0.30                          29.9 355 
 RUS  HZ EP     C  7 6 44.48                             142   -0.0510  102 175 
 RUS  HN ES   1    7 7  2.31                             142   -0.47 7  102 175 
 RUS  HZ I         7 7  5.37         4.1 0.18                           102 175 
 PTB  HZ EP   1    7 6 47.11                             131   -0.39 7  145 258 
 PTB  HN ES   1    7 7  7.45                             131   -0.61 7  145 258 
 PTB  HZ I         7 7 13.82        14.1 0.28                           145 258 
 TAM  HZ EP   1    7 6 48.92                             129    0.18 7  158 105 
 TAM  HE ES   1    7 7 10.56                             129    0.30 7  158 105 
 OCA  HZ EP   1    7 6 48.82                             129   -0.14 7  159 354 
 OCA  HN ES   1    7 7 10.55                             129   -0.11 7  159 354 
 OCA  HZ I         7 7 13.96        10.3 0.14                           159 354 
 ZAR  HZ EP   1    7 6 53.26                             122    0.29 6  201 292 
 ZAR  HE ES   1    7 7 18.61                             122    0.81 6  201 292 
 ZAR  HZ I         7 7 27.86         9.1 0.28                           201 292 
 SML  HZ EP   1    7 6 56.78                             117   -0.49 6  242 336 
 SML  HN ES   1    7 7 24.96                             117   -0.50 6  242 336 
 SML  HZ I         7 7 35.56        13.3 0.10                           242 336 
 CHI  HZ EP   1    7 6 58.77                             116    0.15 6  249 194 
 CHI  HN ES   1    7 7 27.93                             116    0.08 6  249 194 
 CHI  HZ I         7 7 39.25         2.7 0.38                           249 194 
 HEL  HZ EP   1    7 7  1.07                             114    0.23 6  270 255 
 HEL  HN ES   1    7 7 32.29                             114    0.48 6  270 255 
 HEL  HZ I         7 7 38.73         6.7 0.36                           270 255 
 PRA  HZ EP   1    7 7 14.35                             106   -0.10 4  392 209 
 PRA  HN ES   1    7 7 55.99                             106   -0.04 4  392 209 
 PRA  HZ I         7 8  3.78         3.9 0.36                           392 209 
                                                                                
