 2010  1 9 0042 59.2 L   6.814 -73.100149.8  RSN 13 0.3 3.1LRSN                1
 GAP=129        0.62       2.7     4.3  4.1 -0.3741E+01  0.6146E+01  0.6461E-01E
 Epicentro: LOS SANTOS - SANTANDER                                             3
 ACTION:UP  10-08-24 09:43 OP:vdl  STATUS:               ID:20100109004259 L   I
 2010-01-09-0041-11S.COL___097                                                 6
 STAT SP IPHASW D HRMM SECON CODA AMPLIT PERI AZIMU VELO SNR AR TRES W  DIS CAZ7
 BAR2 SZ IP        043 19.42                             170     0.010   26 201 
 BAR2 SZ ES   1    043 34.82                             170    -0.3 7   26 201 
 GIR2 SZ IP        043 19.52                             168     0.210   31 341 
 GIR2 SZ ES   1    043 35.70                             168     0.6 7   31 341 
 RUS  BZ IP        043 23.28                             144    -0.210  102 179 
 RUS  BZ ES   1    043 42.11                             144    -0.3 7  102 179 
 RUS  BZ I         043 43.41       142.0 0.49                           102 179 
 OCA  SZ IP        043 27.75                             131     0.0 9  159 351 
 OCA  SZ ES   2    043 49.79                             131    -0.2 5  159 351 
 OCA  SZ I         043 55.69       346.2 0.25                           159 351 
 CHI  HZ IP        043 37.43                             118     0.0 8  252 196 
 CHI  HN ES   1    044  7.42                             118     0.1 6  252 196 
 CHI  HZ I         044 16.73        53.5 0.52                           252 196 
 ROSC BZ EP   2    043 38.52                             117     0.5 4  257 212 
 ROSC BN ES   1    044  8.24                             117     0.0 6  257 212 
 ROSC BZ I         044 13.24        79.5 0.56                           257 212 
 HEL  HZ EP   2    043 40.97                             115     0.8 4  277 256 
 HEL  HN ES   1    044 11.59                             115    -0.6 6  277 256 
 HEL  HZ I         044 17.86        66.2 0.33                           277 256 
 RREF BZ EP        043 46.44                             111     0.4 7  327 230 
 RREF BE ES   2    044 22.62                             111     0.0 3  327 230 
 DBB  SZ EP        043 47.03                             110    -0.4 7  344 274 
 TOL  SZ ES   2    044 26.91                             110     0.6 3  348 225 
 SDV  BZ EP   1    043 48.79                             109    -0.1 5  356  50 
 ANIL BZ EP        043 49.83                             109     0.1 6  362 225 
 ANIL BN ES   2    044 29.14                             109     0.0 3  362 225 
 PRA  HZ EP   1    043 52.84                             107    -0.5 4  396 210 
 PRA  HZ I         044 39.19        57.5 0.42                           396 210 
                                                                                
