 2014  7 9 0731 46.2 L   6.844 -73.211138.1  RSN  7 0.4 1.9LRSN                1
 GAP=120        0.96       2.9     5.5  6.4 -0.1685E+01  0.8440E+01 -0.3664E+01E
 Epicentro: ZAPATOCA - SANTANDER                                               3
 ACTION:UPD 15-03-16 20:42 OP:nd   STATUS:               ID:20140709073146 L   I
 OLDACT:DUP 14-07-09 18:58 OP:stll STATUS:               ID:20140709072818d    3
 2014-07-09-0728-17M.COL___262                                                 6
 STAT SP IPHASW D HRMM SECON CODA AMPLIT PERI AZIMU VELO AIN AR TRES W  DIS CAZ7
 BAR2 SZ EP        732  5.27                             168    0.3010 28.0 173 
 BAR2 SZ ES        732 19.29                             168   -0.3610 28.0 173 
 BAR2 SZ I         732 21.36        15.5 0.38            160           28.0 173 
 PAM  SZ EP        732  8.13                             149    0.4910 78.7  46 
 PAM  SN ES        732 24.52                             149    0.1110 78.7  46 
 PAM  SZ I         732 26.84        13.0 0.52            152           78.7  46 
 RUS  HZ EP        732  9.22                             141   -0.3710  106 172 
 RUS  HN ES        732 28.07                             141    0.2110  106 172 
 RUS  HZ I         732 29.92         7.7 0.24            134            106 172 
 OCA  HZ EP        732 14.09                             129    0.74 9  155 356 
 OCA  HN ES        732 34.24                             129   -0.32 9  155 356 
 OCA  HZ I         732 39.87        16.1 0.42            125            155 356 
 TAM  HZ EP        732 13.50                             127   -0.54 9  163 106 
 SPBC HZ EP        732 13.80                             127   -0.22 9  163 216 
 SPBC HE ES        732 36.01                             127    0.25 9  163 216 
 SPBC HZ I         732 43.06        16.6 0.34            119            163 216 
 SML  HZ EP        732 21.36                             117   -0.19 8  236 336 
 SML  HN ES        732 48.86                             117   -0.30 8  236 336 
                                                                                
