 2015  1 9 0528 52.5 L   6.798 -73.130142.0  RSN 12 0.6 1.7LRSN                1
 GAP=139        1.36       4.5     5.5  7.8 -0.4112E+01  0.1284E+02  0.3992E+00E
 Epicentro: LOS SANTOS - SANTANDER                                             3
 ACTION:UPD 15-03-02 15:38 OP:nd   STATUS:               ID:20150109052852 L   I
 OLDACT:UP  15-01-09 16:26 OP:cam  STATUS:               ID:20150109052814     3
 OLDACT:REG 15-01-09 13:58 OP:cam  STATUS:               ID:20150109052814     3
 2015-01-09-0528-14M.COL___262                                                 6
 STAT SP IPHASW D HRMM SECON CODA AMPLIT PERI AZIMU VELO AIN AR TRES W  DIS CAZ7
 BAR2 EZ EP        529 11.88                             170    0.1710 23.5 194 
 BAR2 EZ ES        529 26.22                             170   -0.4510 23.5 194 
 BAR2 EZ I         529 27.72        14.0 0.10            170           23.5 194 
 BRR  HZ EP        529 13.73                             151    0.3610 72.8 298 
 BRR  HN ES        529 30.70                             151    1.0810 72.8 298 
 BRR  HZ I         529 36.13         6.3 0.12            150           72.8 298 
 PAM  SZ EP        529 14.76                             150    0.4710 76.4  38 
 PAM  SN ES        529 31.42                             150    0.1610 76.4  38 
 PAM  SZ I         529 33.76         8.9 0.52            154           76.4  38 
 RUS  HN ES        529 33.88                             143   -0.2410  100 177 
 RUS  HZ I         529 35.36         6.3 0.32            147            100 177 
 PTB  HZ EP        529 18.87                             131   -0.48 9  149 259 
 PTB  HN ES        529 39.37                             131   -0.90 9  149 259 
 PTB  HZ I         529 46.21         4.4 0.16            132            149 259 
 OCA  HN ES        529 41.84                             129   -0.63 9  161 353 
 OCA  HZ I         529 43.87         5.3 0.58            131            161 353 
 SPBC HZ EP        529 20.94                             128    0.10 9  164 220 
 SPBC HN ES        529 42.55                             128   -0.37 9  164 220 
 SPBC HZ I         529 45.25         7.8 0.34            130            164 220 
 ZAR  HN ES        529 50.44                             121    0.27 8  206 292 
 ZAR  HN I         529 56.09        10.8 0.26            123            206 292 
 SML  HZ EP        529 28.07                             116   -0.98 8  245 335 
 SML  HN ES   4    529 54.74                             116   -2.79 0  245 335 
 CHI  HZ EP        529 30.55                             116    0.49 8  249 196 
 HEL  HZ EP   4    529 34.19                             114    1.45 0  274 256 
 HEL  HN ES        530  4.75                             114    0.64 8  274 256 
 CBOC HZ EP        529 39.82                             109    0.34 7  335 252 
                                                                                
