 2015  9 9 0121 23.0 L   6.850 -73.115143.4  RSN  7 0.6 1.8LRSN                1
 GAP=204        1.42       5.9     7.7  8.9  0.1223E+02  0.1308E+02 -0.8084E+01E
 Epicentro: LOS SANTOS - SANTANDER                                             3
 ACTION:UPD 15-10-28 16:25 OP:cam  STATUS:               ID:20150909012123 L   I
 OLDACT:REG 15-09-09 12:53 OP:stll STATUS:               ID:20150909011750     3
 2015-09-09-0117-50M.COL___356                                                 6
 STAT SP IPHASW D HRMM SECON CODA AMPLIT PERI AZIMU VELO AIN AR TRES W  DIS CAZ7
 BAR2 EZ IP     C  121 42.72                             168    0.2310 29.4 195 
 BAR2 EZ ES        121 57.78                             168    0.0810 29.4 195 
 BAR2 EZ I         121 59.38         9.9 0.42            171           29.4 195 
 BRR  HZ EP     C  121 44.58                             152    0.6410 71.9 293 
 BRR  HZ I         121 44.80        13.7 0.26            150           71.9 293 
 BRR  HE ES        122  0.89                             152    0.6210 71.9 293 
 RUS  HZ EP        121 46.93                             142    0.0110  106 178 
 RUS  HE ES        122  5.00                             142   -0.5710  106 178 
 RUS  HZ I         122  6.25         5.8 0.28            145            106 178 
 PTB  HZ EP        121 49.33                             131   -0.87 9  152 257 
 PTB  HZ I         121 51.95         6.6 0.20            131            152 257 
 PTB  HE ES        122 10.93                             131   -0.48 9  152 257 
 ZAR  HZ EP        121 56.58                             122    1.16 8  205 290 
 ZAR  HN ES        122 20.81                             122    0.10 8  205 290 
 ZAR  HZ I         122 26.71        10.2 0.36            122            205 290 
 SML  HZ EP        121 58.90                             117   -0.22 8  240 334 
 SML  HN ES        122 26.13                             117   -1.16 8  240 334 
 SML  HZ I         122 34.61         7.0 0.22            117            240 334 
 GUY2CHZ EP        122  7.36                             111    0.18 7  307 234 
 GUY2CHN ES        122 41.67                             111    0.03 7  307 234 
 GUY2CHZ I         122 51.38         3.0 0.54                           307 234 
                                                                                
