 2017  5 9 0844 21.0 L   6.786 -73.151148.2  RSN  6 0.3 1.5LRSN                1
 GAP=136        0.70       3.3     3.0  6.1 -0.7343E+00  0.3793E+01  0.2960E+01E
 Epicentro: LOS SANTOS - SANTANDER                                             3
 ACTION:UPD 17-06-16 13:34 OP:jn   STATUS:               ID:20170509084421 L   I
 OLDACT:DUP 17-05-09 15:28 OP:osc  STATUS:               ID:20170509083742d    3
 2017-05-09-0838-00M.COL___347                                                 6
 STAT SP IPHASW D HRMM SECON CODA AMPLIT PERI AZIMU VELO AIN AR TRES W  DIS CAZ7
 BRR  HZ EP        844 42.65                             153    0.2510 71.4 300 
 BRR  HE ES        844 59.43                             153    0.3210 71.4 300 
 PAM  EZ EP        844 43.54                             151   -0.0010 79.0  39 
 PAM  EE ES        845  0.89                             151   -0.2610 79.0  39 
 PAM  EZ I         845  2.58         3.6 0.36            152           79.0  39 
 RUS  HZ EP        844 45.08                             145    0.2210 99.1 176 
 RUS  HN ES        845  3.49                             145    0.0010 99.1 176 
 RUS  HZ I         845  4.03         4.4 0.46            148           99.1 176 
 PTB  HZ EP        844 47.64                             133   -0.42 9  147 259 
 PTB  HN ES        845  8.76                             133   -0.43 9  147 259 
 PTB  HZ I         845 14.49         3.8 0.27            132            147 259 
 ZAR  HZ EP   4    844 54.64                             123    1.06 0  204 293 
 ZAR  HE ES        845 19.18                             123    0.16 9  204 293 
 ZAR  HZ I         845 28.49         3.5 0.38            122            204 293 
 NOR  HN ES        845 24.72                             119    0.16 8  233 235 
                                                                                
