 2016 12 9 0901  5.9 L   6.802 -73.194143.8  RSN  7 0.4 1.5LRSN                1
 GAP=130        0.86       4.1     4.3  6.0  0.4826E+01  0.5501E+01 -0.8826E+00E
 Epicentro: ZAPATOCA - SANTANDER                                               3
 ACTION:UPD 17-01-11 20:13 OP:rebc STATUS:               ID:20161209090106 L   I
 OLDACT:REG 16-12-09 12:42 OP:dnl  STATUS:               ID:20161209085742     3
 2016-12-09-0858-00M.COL___355                                                 6
 STAT SP IPHASW D HRMM SECON CODA AMPLIT PERI AZIMU VELO AIN AR TRES W  DIS CAZ7
 BAR2 EZ EP        9 1 25.34                             170    0.0210 23.2 177 
 BAR2 EZ ES        9 1 40.78                             170    0.3410 23.2 177 
 BAR2 EZ I         9 1 41.88        11.4 0.18            173           23.2 177 
 PAM  EZ EP        9 1 28.12                             149   -0.0210 80.7  43 
 PAM  EZ I         9 1 47.26         4.3 0.38            139           80.7  43 
 RUS  HZ EP        9 1 29.31                             143   -0.2310  101 173 
 RUS  HN ES        9 1 47.92                             143   -0.0410  101 173 
 RUS  HZ I         9 1 49.34         2.1 0.44            146            101 173 
 PTB  HZ EP        9 1 32.34                             133    0.07 9  143 258 
 PTB  HN ES        9 1 52.41                             133   -0.40 9  143 258 
 PTB  HZ I         9 1 58.47         3.4 0.18            133            143 258 
 ZAR  HZ EP        9 1 37.66                             123   -0.08 9  199 293 
 ZAR  HN ES        9 2  2.54                             123    0.00 9  199 293 
 ZAR  HZ I         9 2  8.78         3.7 0.32            120            199 293 
 CHI  HZ EP        9 1 42.90                             117   -0.50 8  248 194 
 CHI  HN ES        9 2 12.62                             117   -0.00 8  248 194 
 CHI  HZ I         9 2 16.95         1.4 0.52            117            248 194 
 GUY2CHZ EP        9 1 50.16                             112    1.18 7  297 234 
 GUY2CHE ES   4    9 2 25.58                             112    3.03 0  297 234 
 GUY2CHZ I         9 2 32.13         3.0 0.86                           297 234 
                                                                                
