 2013  3 9 0331 33.1 L   6.795 -73.177146.5  RSN 11 0.5 1.8LRSN                1
 GAP= 70        1.16       3.8     4.3  6.8  0.1190E+01  0.2016E+01 -0.4945E+00E
 Epicentro: LOS SANTOS - SANTANDER                                             3
 ACTION:UPD 13-04-09 14:00 OP:ep   STATUS:               ID:20130309033133 L   I
 2013-03-09-0328-48M.COL___204                                                 6
 STAT SP IPHASW D HRMM SECON CODA AMPLIT PERI AZIMU VELO AIN AR TRES W  DIS CAZ7
 BAR2 SZ EP        331 52.85                             171    0.0210 22.4 181 
 BAR2 SZ ES        332  7.43                             171   -0.7610 22.4 181 
 BAR2 SZ I         332  8.87        17.0 0.34            170           22.4 181 
 BRR  HZ IP     C  331 54.64                             154    0.4410 68.5 300 
 BRR  HE ES        332 11.73                             154    1.0910 68.5 300 
 BRR  HN I         332 12.49        33.8 0.24            152           68.5 300 
 PAM  SZ EP        331 55.85                             150    0.2710 80.1  41 
 PAM  SZ I         331 56.12         2.2 0.22            152           80.1  41 
 PAM  SE ES        332 12.93                             150   -0.1610 80.1  41 
 RUS  HZ EP        331 57.39                             144    0.4610  100 174 
 RUS  HN ES        332 15.39                             144   -0.1010  100 174 
 RUS  HE I         332 18.27         6.6 0.66            145            100 174 
 PTB  HZ EP        331 59.40                             133   -0.44 9  144 259 
 PTB  HN ES        332 20.44                             133   -0.23 9  144 259 
 PTB  HE I         332 25.54         5.5 0.18            132            144 259 
 TAM  HZ EP        332  1.34                             130    0.18 9  158 104 
 OCA  HN ES   2    332 23.09                             130   -0.56 5  160 354 
 OCA  HN I         332 29.46        17.6 0.34            130            160 354 
 ZAR  HE ES        332 30.52                             123    0.10 9  201 293 
 NOR  HZ ES   1    332 36.42                             119    0.23 6  232 234 
 NOR  HN I         332 41.94         8.1 0.16            119            232 234 
 SML  HZ EP        332  9.26                             118   -0.44 8  243 336 
 SML  HN ES        332 37.58                             118   -0.64 8  243 336 
 CHI  HZ EP   1    332 11.01                             117    0.30 6  247 194 
 CHI  HE ES   1    332 39.18                             117   -0.84 6  247 194 
 CHI  HN I         332 42.81         5.4 0.50            118            247 194 
                                                                                
