 2014 10 9 0758 40.2 L   6.843 -73.398122.0  RSN  7 0.5 1.4LRSN                1
 GAP= 92        1.27       4.6     5.6 10.5  0.4283E+00  0.6645E+01 -0.6431E+01E
 Epicentro: SAN VICENTE DE CHUCURI - SANTANDER                                 3
 ACTION:UPD 14-11-29 23:48 OP:nd   STATUS:               ID:20141009075840 L   I
 OLDACT:DUP 14-10-09 17:16 OP:fm   STATUS:               ID:20141009074745d    3
 2014-10-09-0747-44M.COL___250                                                 6
 STAT SP IPHASW D HRMM SECON CODA AMPLIT PERI AZIMU VELO AIN AR TRES W  DIS CAZ7
 BAR2 SZ EP        758 57.85                             162    0.5010 36.6 139 
 BAR2 SZ ES   1    759 10.81                             162    0.06 7 36.6 139 
 BRR  HZ EP        758 58.28                             158    0.9210 45.3 310 
 BRR  HN ES        759 11.29                             158    0.5210 45.3 310 
 BRR  HZ I         759 13.81         5.2 0.12            155           45.3 310 
 PAM  SZ EP   1    759  1.09                             140   -0.09 7 94.7  55 
 PAM  SN ES        759 17.36                             140   -0.2210 94.7  55 
 PAM  SZ I         759 18.16         2.7 0.26            144           94.7  55 
 RUS  HZ EP   1    759  2.35                             135   -0.16 7  111 162 
 RUS  HN ES        759 19.43                             135   -0.5110  111 162 
 PTB  HZ EP   1    759  3.18                             132    0.35 7  122 254 
 PTB  HN ES        759 19.79                             132   -0.7210  122 254 
 PTB  HZ I         759 26.20         3.1 0.42            131            122 254 
 OCA  HN ES   1    759 25.59                             125   -0.86 7  155   3 
 OCA  HZ I         759 27.15         7.5 0.30            126            155   3 
 SML  HN ES        759 39.89                             113   -0.34 8  229 341 
 SML  HZ I         759 43.56         4.2 0.10            115            229 341 
                                                                                
