 2016  3 9 0423 24.8 L   6.083 -73.701117.6  RSN  4 0.2 1.1LRSN                1
 GAP=114        0.64       4.0     2.9  6.3  0.3883E+00  0.3523E+01 -0.8335E+00E
 Epicentro: CHIPATA - SANTANDER                                                3
 ACTION:UPD 16-05-13 21:22 OP:cam  STATUS:               ID:20160309042324 L   I
 OLDACT:UP  16-03-09 16:16 OP:cara STATUS:               ID:20160309041750d    3
 OLDACT:DUP 16-03-09 16:13 OP:cara STATUS:               ID:20160309041750d    3
 OLDACT:REG 16-03-09 13:15 OP:cara STATUS:               ID:20160309041749     3
 2016-03-09-0417-49M.COL___289                                                 6
 STAT SP IPHASW D HRMM SECON CODA AMPLIT PERI AZIMU VELO AIN AR TRES W  DIS CAZ7
 SPBC HZ EP        423 42.59                             150    0.0510 62.9 221 
 SPBC HZ I         423 42.77         5.0 0.10            152           62.9 221 
 SPBC HN ES        423 56.65                             150    0.2410 62.9 221 
 RUS  HZ EP        423 43.59                             147   -0.0810 71.6 107 
 RUS  HN ES        423 58.10                             147   -0.3210 71.6 107 
 RUS  HZ I         423 59.75         1.5 0.28            148           71.6 107 
 BAR2 EZ ES        423 59.19                             143    0.3210 80.4  46 
 BAR2 EZ I         424  0.73         5.5 0.36            143           80.4  46 
 PTB  HZ EP        423 45.05                             137    0.0910 97.6 301 
 PTB  HE ES        424  0.41                             137   -0.3010 97.6 301 
 PTB  HZ I         424  1.98         1.9 0.12            139           97.6 301 
                                                                                
