 2012  2 9 0808 34.5 L   6.776 -73.149138.0  RSN 11 0.4 2.3LRSN                1
 GAP=137        0.77       3.4     3.6  5.4  0.8119E+00  0.5855E+01  0.4499E+01E
 ACTION:UP  12-03-07 16:28 OP:epov STATUS:               ID:20120209080834 L   I
 2012-02-09-0806-00S.MAN___181                                                 6
 STAT SP IPHASW D HRMM SECON CODA AMPLIT PERI AZIMU VELO AIN AR TRES W  DIS CAZ7
 BAR2 SZ EP        8 8 53.12                             171    0.0210 20.7 190 
 BAR2 SZ ES   1    8 9  7.57                             171   -0.07 7 20.7 190 
 BAR2 SZ I         8 9  9.21        67.0 0.16                          20.7 190 
 BRR  HZ EP        8 8 55.01                             151    0.1810 72.2 301 
 BRR  HE ES   1    8 9 11.65                             151    0.93 7 72.2 301 
 BRR  HZ I         8 9 16.20        88.5 0.14                          72.2 301 
 PAM  SZ EP        8 8 55.91                             149   -0.0810 79.7  39 
 PAM  SN ES   1    8 9 12.58                             149   -0.21 7 79.7  39 
 RUS  HZ EP        8 8 57.17                             143   -0.0810 98.0 176 
 RUS  HN ES   1    8 9 15.02                             143   -0.02 7 98.0 176 
 RUS  HZ I         8 9 16.93        13.2 0.31                          98.0 176 
 PTB  HZ EP        8 9  0.05                             130   -0.67 9  147 260 
 PTB  HN ES   1    8 9 20.52                             130   -0.69 7  147 260 
 ZAR  HZ EP   1    8 9  6.39                             120   -0.09 6  205 293 
 ZAR  HE ES        8 9 31.38                             120   -0.07 9  205 293 
 ZAR  HZ I         8 9 37.76        29.4 0.33                           205 293 
 NOR  SZ EP   1    8 9  9.59                             117    0.05 6  233 235 
 NOR  SE ES   1    8 9 37.03                             117    0.12 6  233 235 
 CHI  HZ EP   1    8 9 11.71                             116    0.27 6  246 195 
 CHI  HE ES   1    8 9 40.26                             116   -0.03 6  246 195 
 CHI  HZ I         8 9 44.10         6.7 0.29                           246 195 
 ROSC BZ EP   1    8 9 12.31                             115    0.42 6  250 211 
 HEL  HZ EP   1    8 9 14.78                             113    0.61 6  271 256 
 HEL  HZ I         8 9 51.60        10.7 0.43                           271 256 
 RREF HZ EP   1    8 9 20.49                             109    0.45 5  320 230 
 RREF HZ I         810  1.37         8.8 0.28                           320 230 
                                                                                
