 2017  3 9 0105 26.4 L   6.755 -73.117144.6  RSN  7 0.3 1.5LRSN                1
 GAP=142        0.64       3.2     3.9  4.4 -0.8683E+00  0.4558E+01 -0.4819E+00E
 Epicentro: LOS SANTOS - SANTANDER                                             3
 ACTION:UPD 17-05-25 18:38 OP:jn   STATUS:               ID:20170309010526 L   I
 OLDACT:UP  17-03-09 14:09 OP:and  STATUS:               ID:20170309005742d    3
 OLDACT:UP  17-03-09 14:09 OP:and  STATUS:               ID:20170309005742d    3
 OLDACT:DUP 17-03-09 14:07 OP:and  STATUS:               ID:20170309005742d    3
 OLDACT:UP  17-03-09 14:06 OP:and  STATUS:               ID:20170309005741d    3
 OLDACT:UP  17-03-09 14:06 OP:and  STATUS:               ID:20170309005741d    3
 OLDACT:UP  17-03-09 14:04 OP:and  STATUS:               ID:20170309005741d    3
 OLDACT:UP  17-03-09 14:04 OP:and  STATUS:               ID:20170309005741d    3
 OLDACT:UP  17-03-09 14:03 OP:and  STATUS:               ID:20170309005741d    3
 OLDACT:UP  17-03-09 14:01 OP:and  STATUS:               ID:20170309005741d    3
 OLDACT:UP  17-03-09 14:01 OP:and  STATUS:               ID:20170309005741d    3
 OLDACT:UP  17-03-09 14:01 OP:and  STATUS:               ID:20170309005741d    3
 OLDACT:DUP 17-03-09 13:59 OP:and  STATUS:               ID:20170309005741d    3
 2017-03-09-0058-00M.COL___403                                                 6
 STAT SP IPHASW D HRMM SECON CODA AMPLIT PERI AZIMU VELO AIN AR TRES W  DIS CAZ7
 BAR2 EZ IP     C  1 5 45.66                             172   -0.1210 19.4 202 
 BAR2 EZ ES        1 6  0.56                             172   -0.3710 19.4 202 
 BAR2 EZ I         1 6  1.55         7.2 0.38            168           19.4 202 
 BRR  HZ EP        1 5 47.61                             150   -0.0810 76.4 301 
 BRR  HN ES        1 6  4.82                             150    0.5010 76.4 301 
 PAM  EZ IP     D  1 5 48.83                             150    0.2510 79.4  36 
 PAM  EN ES        1 6  5.73                             150   -0.1710 79.4  36 
 PAM  EZ I         1 6  6.54         3.7 0.18            153           79.4  36 
 RUS  HZ EP   2    1 5 49.94                             145    0.30 5 95.5 178 
 RUS  HN ES        1 6  7.92                             145    0.1310 95.5 178 
 RUS  HZ I         1 6  8.75         6.7 0.48            147           95.5 178 
 PTB  HZ EP   9    1 5 52.64                             131   -0.80 0  150 261 
 PTB  HN ES   2    1 6 13.48                             131   -0.28 5  150 261 
 PTB  HZ I         1 6 20.05         2.4 0.22            129            150 261 
 SPBC HZ EP        1 5 54.75                             129    0.14 9  161 221 
 SPBC HN ES   2    1 6 16.24                             129   -0.40 5  161 221 
 SPBC HZ I         1 6 17.75         5.7 0.14            129            161 221 
 ZAR  HZ EP        1 5 58.90                             121   -0.33 8  209 293 
 ZAR  HN ES   2    1 6 24.78                             121   -0.09 4  209 293 
 ZAR  HZ I         1 6 31.81         5.1 0.32            120            209 293 
                                                                                
