 2010  7 9 0716 45.0 L   6.830 -73.040146.9  RSN 10 0.4 2.0LRSN                1
 GAP=167        1.02       4.6     7.8  7.4 -0.1582E+02  0.8213E+01 -0.7786E-01E
 Epicentro: CEPITA - SANTANDER                                                 3
 ACTION:UPD 10-12-01 15:16 OP:pat  STATUS:               ID:20100709071645 L   I
 2010-07-09-0715-13S.COL___117                                                 6
 STAT SP IPHASW D HRMM SECON CODA AMPLIT PERI AZIMU VELO AIN AR TRES W  DIS CAZ7
 BAR2 SZ EP        717  4.65                             168    -0.310   31 211 
 BAR2 SZ ES   1    717 20.47                             168    -0.1 7   31 211 
 BAR2 SZ I         717 21.04        26.3 0.21                            31 211 
 BRR  HZ EP        717  6.52                             150    -0.310   80 293 
 BRR  HN ES   1    717 24.04                             150     0.2 7   80 293 
 BRR  HZ I         717 26.06        21.6 0.14                            80 293 
 BRI  SZ EP        717  9.21                             143     0.710  102  15 
 BRI  SZ I         717 32.83         8.8 0.48                           102  15 
 RUS  HZ EP   1    717  8.57                             143    -0.6 7  104 183 
 RUS  HZ I         717  9.74         8.4 0.08                           104 183 
 RUS  HN ES   1    717 27.71                             143    -0.2 7  104 183 
 GUE  SZ EP   1    717  9.02                             141    -0.4 7  111   7 
 GRA  SZ IP        717 10.44                             138     0.610  120  13 
 GRA  SZ ES   1    717 29.39                             138     0.1 7  120  13 
 GRA  SZ I         717 31.14         7.1 0.24                           120  13 
 OCA  SZ EP   1    717 12.61                             130    -0.7 7  159 349 
 OCA  SZ ES   2    717 35.01                             130    -0.3 5  159 349 
 OCA  SZ I         717 39.94        13.5 0.22                           159 349 
 ROSC BZ EP        717 24.53                             116     0.3 8  262 213 
 ROSC BN ES   2    717 55.08                             116     0.3 4  262 213 
 ROSC BZ I         718  2.56         9.5 0.34                           262 213 
 HEL  HZ EP   1    717 26.48                             114    -0.2 6  284 256 
 HEL  HN ES   2    717 59.29                             114     0.2 4  284 256 
 HEL  HZ I         718  3.74         7.3 0.32                           284 256 
 RREF HZ EP        717 32.72                             110     0.2 7  333 230 
 RREF HE ES   2    718  9.68                             110     0.2 3  333 230 
 RREF HZ I         718 16.69         5.0 0.46                           333 230 
                                                                                
