 2012  4 9 0336 51.8 L   6.796 -73.172151.5  RSN  6 0.4 1.2LRSN                1
 GAP=133        0.96       6.7     5.8 10.1  0.3512E+01  0.8744E+01  0.4382E+01E
 Epicentro: LOS SANTOS - SANTANDER                                             3
 ACTION:UPD 12-07-05 11:52 OP:tino STATUS:               ID:20120409033651 L   I
 2012-04-09-0330-00M.COL___196                                                 6
 STAT SP IPHASW D HRMM SECON CODA AMPLIT PERI AZIMU VELO AIN AR TRES W  DIS CAZ7
 BAR2 SZ EP   1    337 11.78                             171    -0.3 7   23 183 
 BAR2 SZ ES   2    337 27.57                             171    -0.3 5   23 183 
 BRR  HZ EP   1    337 13.80                             154     0.4 7   69 300 
 BRR  HE ES   1    337 30.63                             154     0.3 7   69 300 
 BRR  HZ I         337 33.53         5.1 0.15                            69 300 
 PAM  SZ EP   1    337 15.47                             151     0.7 7   80  41 
 PAM  SN ES   1    337 32.09                             151    -0.5 7   80  41 
 PAM  SZ I         337 33.08         1.2 0.16                            80  41 
 RUS  HZ EP   1    337 15.71                             145    -0.4 7  100 174 
 RUS  HZ I         337 18.06         1.3 0.38                           100 174 
 RUS  HN ES   1    337 35.39                             145     0.4 7  100 174 
 PTB  HZ EP   1    337 18.55                             134    -0.4 7  145 259 
 PTB  HN ES   1    337 40.21                             134     0.1 7  145 259 
 PTB  HZ I         337 45.81         2.5 0.38                           145 259 
 ZAR  HN ES   1    337 49.51                             124    -0.2 6  202 293 
 ZAR  HZ I         337 56.38         2.6 0.27                           202 293 
                                                                                
