 2013  6 9 0936 41.8 L   6.811 -73.191135.0  RSN  7 0.4 1.9LRSN                1
 GAP=178        0.99       5.5     6.1  9.6 -0.7493E+00  0.4373E+01  0.1707E+02E
 Epicentro: ZAPATOCA - SANTANDER                                               3
 ACTION:UPD 14-01-08 09:53 OP:ep   STATUS:               ID:20130609093641 L   I
 OLDACT:REG 13-06-09 07:45 OP:mh   STATUS:               ID:20130609093000     3
 2013-06-09-0930-00M.COL___257                                                 6
 STAT SP IPHASW D HRMM SECON CODA AMPLIT PERI AZIMU VELO AIN AR TRES W  DIS CAZ7
 BAR2 SZ EP        937  0.27                             169    0.1410 24.2 178 
 BAR2 SZ ES   1    937 14.94                             169    0.50 7 24.2 178 
 BAR2 SZ I         937 17.77         6.9 0.52            171           24.2 178 
 BRR  HZ EP        937  2.18                             152    0.7110 66.2 300 
 BRR  HN ES        937 16.20                             152   -0.6410 66.2 300 
 BRR  HZ I         937 20.08        15.1 0.24            151           66.2 300 
 RUS  HZ EP   1    937  3.91                             141   -0.70 7  102 173 
 RUS  HN ES   2    937 22.38                             141   -0.04 5  102 173 
 RUS  HN I         937 24.22        13.5 0.30            144            102 173 
 PTB  HZ EP   1    937  7.10                             130   -0.35 7  143 258 
 PTB  HN ES        937 27.57                             130    0.10 9  143 258 
 PTB  HN I         937 33.48         9.9 0.38            131            143 258 
 OCA  HN ES   2    937 30.12                             127   -0.29 5  159 355 
 OCA  HN I         937 35.46        12.4 0.20            129            159 355 
 NOR  HE ES        937 43.86                             116    0.21 8  231 233 
 NOR  HE I         937 47.58         9.2 0.16            118            231 233 
 CHI  HN ES   1    937 47.60                             115   -0.24 6  249 194 
 CHI  HN I         937 49.67         4.9 0.54            117            249 194 
                                                                                
