 2016  4 9 0156 14.4 L   6.786 -73.171145.7  RSN 11 0.3 1.7LRSN                1
 GAP=134        0.82       2.7     3.3  5.5 -0.1001E+01  0.5771E+01  0.2234E+01E
 Epicentro: LOS SANTOS - SANTANDER                                             3
 ACTION:UPD 16-05-05 14:19 OP:rebc STATUS:               ID:20160409015614 L   I
 OLDACT:UP  16-04-09 13:05 OP:mh   STATUS:               ID:20160409014748     3
 OLDACT:UP  16-04-09 12:48 OP:mh   STATUS:               ID:20160409014748     3
 OLDACT:UP  16-04-09 12:48 OP:mh   STATUS:               ID:20160409014748     3
 OLDACT:UP  16-04-09 12:47 OP:mh   STATUS:               ID:20160409014748     3
 OLDACT:REG 16-04-09 12:01 OP:mh   STATUS:               ID:20160409014748     3
 2016-04-09-0147-48M.COL___310                                                 6
 STAT SP IPHASW D HRMM SECON CODA AMPLIT PERI AZIMU VELO AIN AR TRES W  DIS CAZ7
 BAR2 EZ EP        156 33.89                             171   -0.1010 21.5 183 
 BAR2 EZ ES        156 49.02                             171   -0.2410 21.5 183 
 BAR2 EZ I         156 51.86         8.0 0.26            169           21.5 183 
 PAM  EZ EP        156 36.96                             150    0.1710 80.3  40 
 PAM  EN ES        156 53.98                             150   -0.2610 80.3  40 
 PAM  EZ I         156 56.69         6.4 0.56            155           80.3  40 
 RUS  HZ EP        156 37.86                             144   -0.1910 99.3 174 
 RUS  HN ES        156 56.70                             144    0.2010 99.3 174 
 RUS  HZ I         156 58.59         3.2 0.22            145           99.3 174 
 PTB  HN EP        156 40.53                             133   -0.56 9  145 259 
 PTB  HZ ES        157  2.19                             133    0.29 9  145 259 
 PTB  HN I         157  6.30        17.7 0.50            134            145 259 
 SPBC HZ EP        156 42.71                             130    0.09 9  160 219 
 SPBC HN ES        157  5.12                             130    0.50 9  160 219 
 SPBC HZ I         157 10.62         8.5 0.26            131            160 219 
 OCA  HN ES        157  5.61                             129    0.63 9  161 354 
 ZAR  HE ES        157 11.32                             123   -0.46 9  202 293 
 CHI  HZ EP        156 51.80                             117   -0.06 8  246 195 
 CHI  HN ES        157 20.98                             117   -0.09 8  246 195 
 CHI  HZ I         157 26.80         2.5 0.18            119            246 195 
 HEL  HE ES        157 25.17                             115   -0.20 8  269 256 
 GUY2CHZ EP   1    156 58.29                             113    0.64 5  298 235 
 GUY2CHN ES   4    157 35.50                             113    4.11 0  298 235 
 PTGC HZ EP   4    156 57.08                             112   -1.13 0  308 158 
 PTGC HN ES   4    157 29.74                             112   -2.64 0  308 158 
 MON  HE ES   4    157 38.68                             109   -2.69 0  352 309 
 MON  HZ I         157 41.68         1.4 0.60            111            352 309 
                                                                                
