 2015  4 9 0949 23.9 L   7.439 -73.221130.1  RSN  6 0.4 1.7LRSN                1
 GAP=184        0.99       4.0     6.4  8.0  0.3209E+01  0.7514E+01 -0.7783E+01E
 Epicentro: EL PLAYON - SANTANDER                                              3
 ACTION:UPD 15-06-03 16:53 OP:cam  STATUS:               ID:20150409094923 L   I
 OLDACT:UP  15-04-09 17:41 OP:mh   STATUS:               ID:20150409094748     3
 OLDACT:REG 15-04-09 13:43 OP:akv  STATUS:               ID:20150409094748     3
 2015-04-09-0947-48M.COL___260                                                 6
 STAT SP IPHASW D HRMM SECON CODA AMPLIT PERI AZIMU VELO AIN AR TRES W  DIS CAZ7
 BRR  HZ EP   1    949 43.42                             152    0.40 7 65.5 236 
 BRR  HN ES        949 57.93                             152   -0.0210 65.5 236 
 BRR  HZ I         949 59.05        14.8 0.07            138           65.5 236 
 OCA  HZ EP        949 45.05                             144    0.2510 89.1 353 
 OCA  HN ES   1    950  1.62                             144    0.52 7 89.1 353 
 OCA  HZ I         950  4.45        11.3 0.32            136           89.1 353 
 BAR2 EZ EP   1    949 45.74                             142    0.48 7 93.8 177 
 BAR2 EZ ES        950  1.54                             142   -0.3910 93.8 177 
 BAR2 EZ I         950  3.02         9.5 0.14            129           93.8 177 
 PTB  HZ EP        949 51.20                             124   -0.51 9  169 234 
 PTB  HZ I         950 17.84         2.4 0.17            113            169 234 
 SML  HZ EP        949 52.24                             123   -0.31 9  177 328 
 SML  HN ES        950 14.19                             123   -0.71 9  177 328 
 SML  HZ I         950 15.64         7.7 0.32            114            177 328 
 ZAR  HZ EP        949 53.25                             122    0.34 9  181 272 
 ZAR  HN ES        950 15.96                             122    0.41 9  181 272 
 ZAR  HZ I         950 20.38         4.1 0.28            112            181 272 
                                                                                
