 2011  4 9 0625 17.5 L   6.794 -73.135142.0  RSN  8 0.4 1.8LRSN                1
 GAP=115        0.95       4.2     6.3  9.4 -0.3964E+01  0.3840E+01  0.1463E+02E
 Epicentro: LOS SANTOS - SANTANDER                                             3
 ACTION:UP  11-06-22 15:29 OP:REBC STATUS:               ID:20110409062517 L   I
 2011-04-09-0622-12S.COL___138                                                 6
 STAT SP IPHASW D HRMM SECON CODA AMPLIT PERI AZIMU VELO SNR AR TRES W  DIS CAZ7
 BTL  SZ EP        625 35.98                             171    -0.610   20 313 
 BRR  HZ EP        625 38.71                             151     0.410   73 299 
 BRR  HE ES   1    625 54.77                             151     0.2 7   73 299 
 BRR  HZ I         625 59.59        13.5 0.14                            73 299 
 PAM  SZ EP   1    625 39.69                             150     0.4 7   77  39 
 PAM  SN ES   1    625 56.47                             150     0.2 7   77  39 
 GRA  SZ EP        625 42.63                             136     0.210  126  17 
 GRA  SZ ES   1    626  1.49                             136    -0.4 7  126  17 
 GRA  SZ I         626  3.41         8.4 0.26                           126  17 
 OCA  SZ EP   1    625 44.94                             128    -0.6 7  161 353 
 OCA  SZ I         626 11.95         9.3 0.47                           161 353 
 YOP  SZ EP   1    625 47.17                             126     0.0 7  178 154 
 YOP  SN ES   1    626 10.12                             126    -0.1 7  178 154 
 YOP  SZ I         626 12.49         6.4 0.15                           178 154 
 NOR  SZ EP   1    625 52.80                             117    -0.2 6  235 235 
 NOR  SN ES   2    626 20.62                             117    -0.2 4  235 235 
 CHI  HZ EP   1    625 55.67                             116     0.8 6  248 195 
 CHI  HE ES   1    626 23.83                             116    -0.3 6  248 195 
 CHI  HZ I         626 32.15         2.2 0.60                           248 195 
                                                                                
