 2011  6 9 0615 54.7 L   6.274 -73.872 47.2  RSN 17 0.4 4.0LRSN                1
 GAP= 90        0.95       2.6     3.6 17.7 -0.3594E+01  0.3022E+02 -0.3569E+01E
 Epicentro: CIMITARRA - SANTANDER                                              3
 ACTION:UP  11-07-14 19:04 OP:ep   STATUS:               ID:20110609061554 L   I
 2011-06-09-0613-25S.COL___121                                                 6
 STAT SP IPHASW D HRMM SECON CODA AMPLIT PERI AZIMU VELO SNR AR TRES W  DIS CAZ7
 BAR2 SZ IP        616  9.00                             107     0.210   84  65 
 BAR2 SZ ES   1    616 20.08                             107     0.3 7   84  65 
 BAR2 SZ I         616 20.99      7175.0 0.20                            84  65 
 BRR  HZ IP     D  616  9.92                             104     0.210   94  11 
 BRR  HZ I         616 10.15      4075.6 0.25                            94  11 
 BRR  HE ES   1    616 21.33                             104     0.0 7   94  11 
 RUS  HZ EP        616 10.21                             103    -0.510   97 116 
 RUS  HE ES   1    616 22.77                             103    -0.3 7   97 116 
 RUS  HZ I         616 23.39      1781.5 0.26                            97 116 
 NOR  SZ EP   1    616 14.72                              97    -0.1 7  136 235 
 NOR  SN ES   1    616 29.75                              97    -0.7 7  136 235 
 PAM  SZ EP   1    616 20.00                              94    -0.2 7  175  48 
 PAM  SN ES   2    616 39.86                              94    -0.2 4  175  48 
 CHI  HZ EP   1    616 20.93                              94    -0.1 7  183 175 
 CHI  HN ES   3    616 40.57                              94    -0.9 2  183 175 
 BRI  SZ IP        616 22.59                              93    -0.1 9  199  37 
 BRI  SZ ES   1    616 45.23                              93     0.7 6  199  37 
 GUE  SZ EP   1    616 22.98                              93    -0.2 6  201  31 
 GUE  SZ I         616 23.35                                            201  31 
 GRA  SZ EP   1    616 24.26                              93    -0.3 6  214  33 
 GRA  SZ I         616 49.66      1563.8 0.32                           214  33 
 OCA  SZ IP        616 25.68                              93    -0.3 8  226  16 
 OCA  SZ I         616 27.91      1193.7 0.38                           226  16 
 OCA  SZ ES   1    616 50.37                              93     0.0 6  226  16 
 VIL  SZ EP        616 28.54                              92     0.8 8  240 175 
 VIL  SZ I         617  4.34       371.1 0.44                           240 175 
 TOL  SZ EP        616 29.82                              92     1.0 8  246 221 
 TOL  SZ ES   1    616 55.38                              92     0.1 6  246 221 
 PRA  HZ EP   2    616 35.09                              92    -0.5 4  305 202 
 SJA  SZ EP   1    616 38.96                              91    -0.1 5  332 182 
 SJA  SZ I         617 25.98       755.7 0.50                           332 182 
 MON  HZ EP   1    616 39.66                              91    -0.3 5  340 325 
 MON  HZ I         617 34.99       225.6 0.55                           340 325 
 SJC  HZ EP   1    616 50.17                              91    -0.4 4  426 340 
 SJC  HN ES   2    617 34.61                              91     0.5 3  426 340 
 SJC  HZ I         617 38.71       148.2 0.49                           426 340 
 SDV  BZ EP   1    616 54.56                              91    -0.3 4  459  51 
 SDV  BZ I         617 42.66       247.4 0.46                           459  51 
                                                                                
