 2015  7 9 0012 13.4 L   6.541 -73.443116.0  RSN 13 0.4 2.1LRSN                1
 GAP= 72        0.87       2.1     3.7  6.5 -0.2147E+01  0.1427E+02 -0.2068E+00E
 Epicentro: HATO - SANTANDER                                                   3
 ACTION:UPD 15-09-08 21:47 OP:cam  STATUS:               ID:20150709001213 L   I
 OLDACT:REG 15-07-09 12:46 OP:spq  STATUS:               ID:20150709000749     3
 2015-07-09-0007-49M.COL___346                                                 6
 STAT SP IPHASW D HRMM SECON CODA AMPLIT PERI AZIMU VELO AIN AR TRES W  DIS CAZ7
 BAR2 EZ EP     D  012 29.75                             165    0.1210 29.4  79 
 BAR2 EZ ES   1    012 41.94                             165   -0.35 7 29.4  79 
 RUS  HZ EP        012 32.63                             143   -0.2510 82.0 151 
 RUS  HN ES   1    012 48.11                             143    0.03 7 82.0 151 
 PAM  EZ EP        012 36.52                             131    0.4010  121  43 
 PAM  EE ES        012 54.28                             131    0.4410  121  43 
 PAM  EZ I         012 55.77        16.5 0.18            113            121  43 
 OCA  HZ EP        012 41.87                             117   -0.68 9  188   4 
 OCA  HN ES        013  4.79                             117   -0.50 9  188   4 
 OCA  HZ I         013 10.00        36.7 0.14            104            188   4 
 ZAR  HZ EP        012 42.83                             117    0.45 9  188 304 
 ZAR  HE ES        013  5.47                             117    0.48 9  188 304 
 ZAR  HZ I         013  6.24        20.9 0.52            104            188 304 
 NOR  HZ EP   1    012 41.98                             117   -0.77 7  191 236 
 NOR  HE ES   4    013  3.04                             117   -2.62 0  191 236 
 NOR  HZ I         013  4.79         7.5 0.38            105            191 236 
 CHI  HZ EP   1    012 46.22                             114    0.53 6  214 189 
 CHI  HN ES        013 10.91                             114    0.03 8  214 189 
 CHI  HZ I         013 19.23         4.6 0.62            103            214 189 
 HEL  HZ EP        012 47.90                             112   -0.01 8  234 261 
 HEL  HE ES   4    013 12.41                             112   -2.42 0  234 261 
 HEL  HZ I         013 16.52         5.4 0.48            101            234 261 
 GUY2CHZ EP        012 51.09                             109    0.32 8  258 236 
 GUY2CHN ES        013 19.55                             109   -0.37 8  258 236 
 GUY2CHZ I         013 22.20         5.0 0.32                           258 236 
 SML  HZ EP        012 49.78                             109   -0.56 8  259 345 
 SML  HE ES   1    013 19.40                             109    0.24 6  259 345 
 SML  HZ I         013 22.79        22.0 0.10             99            259 345 
 TOL  SZ EP   1    012 55.54                             106    0.04 5  300 224 
 TOL  SN ES        013 28.34                             106    0.00 7  300 224 
 TOL  SZ I         013 36.17         5.0 0.36             98            300 224 
 PRA  HZ EP        013  0.73                             103   -0.44 6  351 207 
 PRA  HE ES   1    013 38.31                             103   -0.13 5  351 207 
 PRA  HZ I         013 42.52         7.6 0.24             97            351 207 
 ORTC HZ EP        013  2.13                             103    0.73 6  353 215 
 ORTC HN ES        013 38.82                             103   -0.02 6  353 215 
 ORTC HZ I         013 46.24         4.2 0.36             97            353 215 
                                                                                
