 2011  5 9 0931 37.3 L   6.787 -73.077144.7  RSN  5 0.1 1.6LRSN                1
 GAP=166        0.29       1.6     4.2  3.2  0.2531E+01 -0.6540E+01 -0.2213E+01E
 Epicentro: LOS SANTOS - SANTANDER                                             3
 ACTION:UP  11-06-29 08:51 OP:tino STATUS:               ID:20110509093137 L   I
 2011-05-09-0920-00M.COL___137                                                 6
 STAT SP IPHASW D HRMM SECON CODA AMPLIT PERI AZIMU VELO AIN AR TRES W  DIS CAZ7
 BAR2 SZ EP        931 56.79                             170     0.010   25 208 
 BAR2 SZ ES   1    932 11.93                             170    -0.1 7   25 208 
 BAR2 SZ I         932 13.16         8.4 0.20                            25 208 
 BRR  HZ EP        931 58.70                             150     0.010   79 297 
 BRR  HN ES   1    932 15.56                             150     0.1 7   79 297 
 BRR  HZ I         932 18.76         9.3 0.20                            79 297 
 RUS  HZ EP        932  0.75                             144     0.010   99 180 
 RUS  HN ES   1    932 19.26                             144     0.1 7   99 180 
 GRA  SZ EP        932  2.41                             137     0.110  125  14 
 GRA  SZ I         932 24.20         4.4 0.32                           125  14 
 OCA  SZ EP   1    932  5.77                             129     0.0 7  163 351 
 OCA  SZ ES   1    932 27.88                             129     0.0 7  163 351 
 OCA  SZ I         932 31.87         6.6 0.07                           163 351 
                                                                                
