 2012  5 9 0636  0.4 L   6.772 -73.171153.3  RSN  4 0.2 1.2LRSN                1
 GAP=135        0.45       5.6     4.8  7.5 -0.8323E+00 -0.1294E+02 -0.8580E+01E
 Epicentro: LOS SANTOS - SANTANDER                                             3
 ACTION:UP  12-07-05 12:03 OP:pat  STATUS:               ID:20120509063600 L   I
 2012-05-09-0630-00M.COL___192                                                 6
 STAT SP IPHASW D HRMM SECON CODA AMPLIT PERI AZIMU VELO SNR AR TRES W  DIS CAZ7
 BRR  HZ EP        636 22.49                             154     0.210   70 302 
 BRR  HN ES   1    636 39.45                             154     0.1 7   70 302 
 BRR  HZ I         636 46.16         3.1 0.36                            70 302 
 PAM  SZ EP        636 23.46                             151    -0.210   82  40 
 RUS  HN ES   2    636 43.69                             146     0.1 5   98 174 
 PTB  HZ EP   2    636 27.78                             134     0.1 5  144 260 
 PTB  HN ES   2    636 48.63                             134    -0.3 5  144 260 
                                                                                
