 2010 10 9 0721 34.0 L   6.788 -73.122144.0  RSN  9 0.4 1.8LRSN                1
 GAP=180        0.77       4.2     7.7  6.5 -0.1841E+02 -0.3299E+01  0.3596E+01E
 Epicentro: LOS SANTOS - SANTANDER                                             3
 ACTION:UP  11-02-18 11:08 OP:tino STATUS:               ID:20101009072134 L   I
 2010-10-09-0717-32S.COL___119                                                 6
 STAT SP IPHASW D HRMM SECON CODA AMPLIT PERI AZIMU VELO SNR AR TRES W  DIS CAZ7
 BAR2 SZ EP   1    721 53.29                             170    -0.1 7   23 197 
 BAR2 SZ ES   1    722  8.17                             170    -0.3 7   23 197 
 BAR2 SZ I         722  9.73        15.7 0.13                            23 197 
 BRR  HZ IP     C  721 55.24                             151     0.210   74 298 
 BRR  HZ I         721 55.70        27.6 0.10                            74 298 
 BRR  HE ES   1    722 12.19                             151     0.6 7   74 298 
 GUE  SZ EP   2    721 58.81                             139     0.2 5  117  11 
 GRA  SZ IP        721 59.35                             136     0.310  126  16 
 GRA  SZ ES   1    722 18.77                             136     0.1 7  126  16 
 GRA  SZ I         722 21.08         9.5 0.43                           126  16 
 OCA  SZ EP        722  2.17                             129    -0.1 9  162 352 
 OCA  SZ ES   1    722 23.40                             129    -1.0 7  162 352 
 OCA  SZ I         722 27.04         7.7 0.17                           162 352 
 NOR  SZ EP   2    722  9.62                             118    -0.1 4  236 235 
 NOR  SN ES   2    722 37.44                             118    -0.2 4  236 235 
 CHI  HZ EP   2    722 11.72                             117     0.2 4  248 196 
 CHI  HN ES   2    722 40.44                             117    -0.3 4  248 196 
 CHI  HZ I         722 46.91         1.7 0.39                           248 196 
 RREF HE ES   2    722 56.27                             110     0.1 3  323 230 
 RREF HZ I         723  2.38         2.8 0.16                           323 230 
 PRA  HZ EP   2    722 27.61                             106     0.2 3  392 210 
 PRA  HN ES   2    723  8.84                             106    -0.3 3  392 210 
                                                                                
