 2017  7 9 0538 10.4 L   7.092 -73.288121.4  RSN  9 0.6 1.9LRSN                1
 GAP=227        1.44       9.6     7.6  9.1  0.4526E+02 -0.6166E+01 -0.7409E+01E
 Epicentro: LEBRIJA - SANTANDER                                                3
 ACTION:UPD 17-08-30 15:31 OP:rebc STATUS:               ID:20170709053810 L   I
 OLDACT:UP  17-07-10 21:16 OP:nlst STATUS:               ID:20170709053810 L   3
 OLDACT:REG 17-07-09 14:07 OP:ar   STATUS:               ID:20170709052742     3
 2017-07-09-0528-00M.COL___368                                                 6
 STAT SP IPHASW D HRMM SECON CODA AMPLIT PERI AZIMU VELO AIN AR TRES W  DIS CAZ7
 BRR  HZ IP     D  538 27.19                             157   -0.3810 46.9 272 
 BRR  HN ES        538 40.93                             157   -0.0610 46.9 272 
 BRR  HZ I         538 41.19        18.5 0.12            149           46.9 272 
 BAR2 EZ EP        538 28.28                             153   -0.1310 56.4 168 
 BAR2 EZ ES        538 42.42                             153   -0.0510 56.4 168 
 BAR2 EZ I         538 43.40        44.7 0.20            147           56.4 168 
 PTB  HZ EP        538 33.74                             126   -1.25 9  143 245 
 PTB  HN ES        538 53.96                             126   -0.24 9  143 245 
 PTB  HZ I         538 56.57         7.3 0.16            121            143 245 
 ZAR  HZ EP        538 39.06                             120    0.40 9  179 284 
 ZAR  HN ES        539  1.81                             120    1.08 9  179 284 
 ZAR  HZ I         539  9.35         7.2 0.32            116            179 284 
 SPBC HZ EP   9    538 41.03                             119    2.02 0  181 209 
 SPBC HN ES        539  4.18                             116    0.81 9  181 209 
 SPBC HZ I         539  8.02        12.1 0.26            115            181 209 
 YPLC HZ EP        538 42.65                             115    0.26 8  213 152 
 YPLC HE ES        539  7.89                             115    0.53 8  213 152 
 YPLC HZ I         539  9.46        13.6 0.30            113            213 152 
 NOR  HZ EP        538 46.11                             112    0.33 8  243 226 
 NOR  HN ES   4    539 13.59                             112    0.20 0  243 226 
 NOR  HZ I         539 15.61         5.0 0.30            109            243 226 
 HEL  HZ EP   4    538 51.04                             110    2.15 0  267 248 
 HEL  HN ES   4    539 21.95                             110    3.01 0  267 248 
 HEL  HZ I         539 24.91         3.5 0.42            107            267 248 
 GUY2CHZ EP   4    538 56.41                             107    2.53 0  309 228 
 GUY2CHN ES   4    539 32.01                             107    4.19 0  309 228 
 GUY2CHZ I         539 35.91         5.2 0.30                           309 228 
                                                                                
