 2017  2 9 0431 46.6 L   6.800 -73.143145.1  RSN  4 0.2 1.1LRSN                1
 GAP=238        0.52       6.2     7.4  4.2  0.3968E+02  0.4725E+01  0.2368E+00E
 Epicentro: LOS SANTOS - SANTANDER                                             3
 ACTION:UPD 17-05-24 15:34 OP:jn   STATUS:               ID:20170209043146 L   I
 OLDACT:UP  17-04-17 12:53 OP:nlst STATUS:               ID:20170209043146 L   3
 OLDACT:UP  17-02-09 17:38 OP:edw  STATUS:               ID:20170209042743     3
 OLDACT:REG 17-02-09 13:20 OP:edw  STATUS:               ID:20170209042743     3
 2017-02-09-0428-00M.COL___364                                                 6
 STAT SP IPHASW D HRMM SECON CODA AMPLIT PERI AZIMU VELO AIN AR TRES W  DIS CAZ7
 BAR2 EZ ES        432 21.23                             170   -0.1510 23.4 191 
 BRR  HZ EP        432  7.86                             152    0.1910 71.5 298 
 BRR  HN ES        432 24.15                             152    0.0310 71.5 298 
 RUS  HZ EP        432 10.40                             144    0.1410  101 176 
 RUS  HN ES        432 28.70                             144   -0.0310  101 176 
 RUS  HZ I         432 29.54         2.4 0.52            142            101 176 
 ZAR  HZ EP        432 18.61                             122   -0.40 9  204 292 
 ZAR  HN ES        432 44.44                             122    0.14 9  204 292 
 ZAR  HZ I         432 45.04         1.2 0.22            122            204 292 
                                                                                
