 2017  6 9 0959 39.5 L   6.779 -73.197149.4  RSN  6 0.3 1.8LRSN                1
 GAP=230        0.73       4.2     5.0  5.9  0.9660E+01 -0.2809E+01 -0.2764E+01E
 Epicentro: ZAPATOCA - SANTANDER                                               3
 ACTION:UPD 17-09-14 16:50 OP:jn   STATUS:               ID:20170609095939 L   I
 OLDACT:REG 17-06-09 20:44 OP:osc  STATUS:               ID:20170609095740     3
 2017-06-09-0958-00M.COL___344                                                 6
 STAT SP IPHASW D HRMM SECON CODA AMPLIT PERI AZIMU VELO AIN AR TRES W  DIS CAZ7
 BRR  HZ EP       10 0  0.96                             154    0.1110 67.4 303 
 BRR  HN ES       10 0 17.64                             154    0.1510 67.4 303 
 BRR  HZ I        10 0 18.04        12.6 0.26            152           67.4 303 
 RUS  HZ EP       10 0  3.25                             145   -0.2510 98.8 173 
 RUS  HN ES   2   10 0 21.73                             145   -0.48 5 98.8 173 
 RUS  HZ I        10 0 23.10         4.1 0.40            144           98.8 173 
 PTB  HZ EP       10 0  5.97                             134   -0.27 9  142 259 
 PTB  HN ES       10 0 26.66                             134   -0.43 9  142 259 
 PTB  HZ I        10 0 28.78         5.5 0.22            132            142 259 
 SPBC HZ EP       10 0  8.15                             131    0.36 9  158 218 
 SPBC HE ES       10 0 30.21                             131    0.36 9  158 218 
 SPBC HZ I        10 0 34.95         9.0 0.24            129            158 218 
 ZAR  HZ EP       10 0 12.09                             124    0.34 9  200 293 
 ZAR  HE ES       10 0 37.17                             124    0.27 9  200 293 
 ZAR  HZ I        10 0 43.85         9.1 0.26            123            200 293 
 URE  HZ EP       10 0 20.09                             115   -0.18 7  279 293 
 URE  HN ES       10 0 51.67                             115   -0.39 7  279 293 
 URE  HZ I        10 0 53.03         5.5 0.12            115            279 293 
                                                                                
