 2010  6 9 0438 19.3 L   6.842 -73.318117.1  RSN  7 0.5 1.4LRSN                1
 GAP=124        1.32       5.4    18.6 11.2 -0.2938E+02  0.7890E+02 -0.1916E+02E
 Epicentro: ZAPATOCA - SANTANDER                                               3
 ACTION:UP  10-08-24 10:09 OP:vdl  STATUS:               ID:20100609043819 L   I
 2010-06-09-0435-26S.COL___111                                                 6
 STAT SP IPHASW D HRMM SECON CODA AMPLIT PERI AZIMU VELO SNR AR TRES W  DIS CAZ7
 GIR2 SZ EP        438 35.53                             165     0.010   30  28 
 GIR2 SZ ES   1    438 48.23                             165     0.0 7   30  28 
 BAR2 SZ IP        438 35.98                             164     0.210   31 152 
 BAR2 SZ ES   1    438 48.35                             164    -0.2 7   31 152 
 RUS  HZ EP   1    438 40.91                             135    -0.1 7  108 166 
 RUS  HE ES   1    438 57.98                             135     0.0 7  108 166 
 RUS  HZ I         438 59.19         1.8 0.09                           108 166 
 GUE  SZ IP        438 40.85                             132    -0.810  118  22 
 GUE  SZ ES   1    438 58.26                             132    -0.8 7  118  22 
 GRA  SZ EP        438 43.31                             129     0.910  129  26 
 GRA  SZ ES   1    439  1.23                             129     0.8 7  129  26 
 OCA  SZ EP        438 44.41                             123    -0.6 9  155 360 
 OCA  SZ ES   1    439  5.58                             123     0.6 7  155 360 
 OCA  SZ I         439  9.30        10.2 0.24                           155 360 
 HEL  HZ EP   2    438 57.05                             110     0.8 4  255 254 
 HEL  HZ I         439 26.02         1.9 0.54                           255 254 
                                                                                
