 2010  4 9 0913 55.5 L   6.818 -73.023148.2  RSN  7 0.3 2.3LRSN                1
 GAP=223        0.74       3.8     6.2  5.0 -0.8877E+01  0.4377E+01  0.3521E+01E
 Epicentro: CEPITA - SANTANDER                                                 3
 ACTION:UPD 10-08-24 09:58 OP:vdl  STATUS:               ID:20100409091355 L   I
 2010-04-09-0912-37S.COL___097                                                 6
 STAT SP IPHASW D HRMM SECON CODA AMPLIT PERI AZIMU VELO AIN AR TRES W  DIS CAZ7
 BAR2 SZ EP        914 15.59                             168     0.010   31 215 
 BAR2 SZ ES        914 31.34                             168     0.010   31 215 
 BRR  HZ IP     D  914 17.65                             149     0.010   83 293 
 BRR  HZ I         914 17.99        48.5 0.13                            83 293 
 BRR  HN ES        914 35.04                             149     0.210   83 293 
 OCA  SZ EP        914 23.85                             130    -0.2 9  161 348 
 OCA  SZ ES        914 46.17                             130    -0.1 9  161 348 
 OCA  SZ I         914 50.37        33.8 0.29                           161 348 
 HEL  HZ EP   1    914 37.44                             114     0.1 6  286 256 
 HEL  HN ES   1    915 10.22                             114     0.2 6  286 256 
 HEL  HZ I         915 15.23         8.9 0.44                           286 256 
 RREF BZ EP        914 43.76                             111     0.7 7  333 231 
 RREF BN ES        915 19.40                             111    -0.8 7  333 231 
 RREF BZ I         915 23.55         4.0 0.72                           333 231 
 TOL  SZ EP   1    914 45.38                             109     0.2 5  354 226 
 PRA  HZ EP        914 50.11                             107     0.0 6  401 211 
 PRA  HZ I         915 39.30         5.8 0.19                           401 211 
                                                                                
