 2016  8 9 0618 52.0 L   6.799 -73.157149.6  RSN  6 0.4 1.7LRSN                1
 GAP=236        1.03       6.3     7.1  8.0  0.8085E+01  0.1088E+02  0.2846E+01E
 Epicentro: LOS SANTOS - SANTANDER                                             3
 ACTION:UPD 16-10-29 15:34 OP:rebc STATUS:               ID:20160809061852 L   I
 OLDACT:REG 16-08-09 13:05 OP:dnl  STATUS:               ID:20160809061659     3
 2016-08-09-0616-59S.COL___340                                                 6
 STAT SP IPHASW D HRMM SECON CODA AMPLIT PERI AZIMU VELO AIN AR TRES W  DIS CAZ7
 BAR2 EZ EP        619 11.85                             171   -0.1910 23.1 187 
 BAR2 EZ ES        619 27.07                             171   -0.6310 23.1 187 
 BAR2 EZ I         619 28.57        10.2 0.12                          23.1 187 
 BRR  HZ EP        619 13.74                             153    0.2810 70.1 299 
 BRR  HE ES        619 30.86                             153    0.6310 70.1 299 
 BRR  HZ I         619 31.38         9.5 0.10                          70.1 299 
 RUS  HZ EP   2    619 15.95                             145   -0.13 5  101 175 
 RUS  HE ES        619 35.19                             145    0.2910  101 175 
 RUS  HZ I         619 37.19         9.5 1.02                           101 175 
 PTB  HZ EP        619 18.73                             133   -0.39 9  146 259 
 PTB  HE ES        619 39.80                             133   -0.51 9  146 259 
 PTB  HZ I         619 46.95         3.0 0.14                           146 259 
 SPBC HZ EP        619 20.88                             130    0.21 9  162 219 
 SPBC HN ES        619 43.38                             130    0.32 9  162 219 
 SPBC HZ I         619 50.84         6.1 0.22                           162 219 
 ZAR  HZ EP   4    619 27.44                             123    2.91 0  203 292 
 ZAR  HE ES   4    619 51.75                             123    1.81 0  203 292 
 ZAR  HZ I         619 56.88         3.8 0.34                           203 292 
                                                                                
