 2017  7 9 0543 11.3 L   6.774 -73.136144.3  RSN 10 0.4 1.9LRSN                1
 GAP=164        1.02       4.6     3.8  6.2  0.5263E+01  0.2467E+01  0.3180E+01E
 Epicentro: LOS SANTOS - SANTANDER                                             3
 ACTION:UPD 17-08-30 15:31 OP:rebc STATUS:               ID:20170709054311 L   I
 OLDACT:UP  17-07-09 16:55 OP:ar   STATUS:               ID:20170709053743     3
 OLDACT:UP  17-07-09 16:47 OP:ar   STATUS:               ID:20170709053743     3
 OLDACT:REG 17-07-09 14:07 OP:ar   STATUS:               ID:20170709053743     3
 2017-07-09-0538-00M.COL___368                                                 6
 STAT SP IPHASW D HRMM SECON CODA AMPLIT PERI AZIMU VELO AIN AR TRES W  DIS CAZ7
 BAR2 EZ EP        543 30.33                             171   -0.3510 20.8 194 
 BAR2 EZ ES        543 45.26                             171   -0.5510 20.8 194 
 BAR2 EZ I         543 46.01        15.8 0.28            169           20.8 194 
 BRR  HZ EP        543 32.26                             151   -0.1510 73.6 300 
 BRR  HN ES        543 49.43                             151    0.5510 73.6 300 
 BRR  HZ I         543 52.25         9.3 0.36            148           73.6 300 
 TAM  HZ IP     C  543 38.56                             130   -0.12 9  153 104 
 SPBC HZ EP        543 39.44                             129   -0.08 9  162 220 
 SPBC HN ES        544  1.34                             129   -0.21 9  162 220 
 SPBC HZ I         544  4.02        11.0 0.12            128            162 220 
 YPLC HZ EP        543 40.58                             127   -0.09 9  174 151 
 YPLC HE ES        544  4.59                             127    1.00 9  174 151 
 YPLC HZ I         544  5.12         5.9 0.26            128            174 151 
 ZAR  HZ EP        543 43.65                             122   -0.20 8  206 293 
 ZAR  HE ES        544  9.44                             122    0.19 8  206 293 
 ZAR  HZ I         544 17.28         7.9 0.12            121            206 293 
 NOR  HZ EP        543 46.68                             118   -0.17 8  234 235 
 NOR  HN ES        544 14.45                             118   -0.13 8  234 235 
 NOR  HZ I         544 21.36         6.0 0.20            118            234 235 
 HEL  HZ EP        543 51.77                             114    0.31 8  272 256 
 HEL  HN ES        544 23.05                             114    0.25 8  272 256 
 HEL  HZ I         544 29.09         5.9 0.34            114            272 256 
 GUY2CHZ EP   4    544  1.74                             112    7.00 0  300 235 
 GUY2CHN ES   4    544 31.11                             112    2.48 0  300 235 
 GUY2CHZ I         544 37.64         2.8 0.42                           300 235 
 PTGC HZ EP   9    543 53.35                             111   -1.37 0  306 159 
 PTGC HE ES        544 26.27                             111   -0.96 7  306 159 
 PTGC HZ I         544 26.33         4.3 0.30            112            306 159 
 PTGC HN ES   4    544 26.76                             111   -0.47 0  306 159 
                                                                                
