 2014 12 9 0016 10.9 L   6.781 -73.199130.0  RSN  4 0.3 1.1LRSN                1
 GAP=131        0.67       3.3     3.1  7.0 -0.3134E+00  0.8985E+01 -0.2832E+01E
 Epicentro: ZAPATOCA - SANTANDER                                               3
 ACTION:UPD 15-02-10 17:01 OP:nd   STATUS:               ID:20141209001610 L   I
 OLDACT:REG 14-12-09 12:44 OP:fm   STATUS:               ID:20141209000744     3
 2014-12-09-0007-44M.COL___309                                                 6
 STAT SP IPHASW D HRMM SECON CODA AMPLIT PERI AZIMU VELO AIN AR TRES W  DIS CAZ7
 PAM  SZ EP        016 31.69                             146   -0.0910 82.8  42 
 PAM  SN ES        016 48.21                             146    0.1110 82.8  42 
 PAM  SZ I         016 50.18         2.3 0.18            152           82.8  42 
 RUS  HZ EP        016 32.89                             141   -0.0810 99.1 173 
 RUS  HN ES        016 50.17                             141   -0.0610 99.1 173 
 RUS  HZ I         016 52.95         1.9 0.40            146           99.1 173 
 PTB  HZ EP        016 35.85                             129   -0.14 9  142 259 
 PTB  HN ES        016 55.91                             129    0.31 9  142 259 
 PTB  HZ I         017  0.48         2.1 0.16            132            142 259 
 ZAR  HZ EP        016 42.29                             119    0.46 9  199 293 
 ZAR  HN ES        017  5.49                             119   -0.50 9  199 293 
 ZAR  HZ I         017 12.69         2.2 0.40            123            199 293 
                                                                                
