 2011  6 9 0350 29.6 L   6.790 -73.078148.7  RSN  4 0.2 1.3LRSN                1
 GAP=244        0.42       4.5     6.4  6.6  0.8748E+01  0.4144E+01 -0.5297E+01E
 Epicentro: LOS SANTOS - SANTANDER                                             3
 ACTION:UP  11-07-14 19:04 OP:ep   STATUS:               ID:20110609035029 L   I
 2011-06-09-0347-21S.COL___121                                                 6
 STAT SP IPHASW D HRMM SECON CODA AMPLIT PERI AZIMU VELO SNR AR TRES W  DIS CAZ7
 BAR2 SZ EP   1    350 49.54                             170     0.0 7   25 208 
 BAR2 SZ ES   2    351  4.79                             170    -0.4 5   25 208 
 BAR2 SZ I         351  6.06         4.7 0.19                            25 208 
 BRR  HZ EP   1    350 51.42                             151     0.0 7   78 297 
 BRR  HZ I         350 52.94         4.0 0.10                            78 297 
 BRR  HN ES   2    351  8.80                             151     0.3 5   78 297 
 RUS  HZ EP   2    350 53.57                             145     0.1 5   99 180 
 RUS  HN ES   1    351 12.31                             145     0.1 7   99 180 
 RUS  HZ I         351 13.29         2.2 0.34                            99 180 
 NOR  SN ES   2    351 34.34                             118    -0.2 4  240 236 
                                                                                
