 2016  5 9 0840 55.5 L   6.771 -73.168152.0  RSN  4 0.5 1.5LRSN                1
 GAP=233        1.18       9.6     9.1  9.5  0.4275E+02  0.6015E+01  0.3552E+00E
 Epicentro: LOS SANTOS - SANTANDER                                             3
 ACTION:UPD 16-08-18 17:43 OP:cam  STATUS:               ID:20160509084055 L   I
 OLDACT:DUP 16-05-09 15:01 OP:drio STATUS:               ID:20160509083749d    3
 2016-05-09-0837-48M.COL___279                                                 6
 STAT SP IPHASW D HRMM SECON CODA AMPLIT PERI AZIMU VELO AIN AR TRES W  DIS CAZ7
 BAR2 EZ EP        841 16.20                             172    0.3710 19.8 185 
 BAR2 EZ ES        841 30.98                             172   -0.6910 19.8 185 
 BAR2 EZ I         841 32.30        14.0 0.18            171           19.8 185 
 BRR  HZ EP        841 16.70                             154   -0.6010 70.6 302 
 BRR  HE ES        841 35.02                             154    0.7210 70.6 302 
 BRR  HZ I         841 35.68         5.2 0.16            154           70.6 302 
 RUS  HZ EP        841 19.90                             146    0.2310 97.6 174 
 RUS  HE ES        841 38.70                             146    0.1810 97.6 174 
 RUS  HZ I         841 39.74         3.1 0.28            146           97.6 174 
 PTB  HZ EP        841 22.63                             134   -0.09 9  145 260 
 PTB  HN ES        841 43.81                             134   -0.14 9  145 260 
 PTB  HZ I         841 45.41         3.3 0.22            134            145 260 
                                                                                
