 2012 12 9 0827 59.8 L   6.813 -73.174151.6  RSN  7 0.4 1.5LRSN                1
 GAP=199        0.75       3.9     7.3  7.5  0.3343E+01  0.1049E+02 -0.1100E+01E
 Epicentro: LOS SANTOS - SANTANDER                                             3
 ACTION:UPD 13-01-04 14:26 OP:ep   STATUS:               ID:20121209082759 L   I
 2012-12-09-0820-00M.COL___243                                                 6
 STAT SP IPHASW D HRMM SECON CODA AMPLIT PERI AZIMU VELO AIN AR TRES W  DIS CAZ7
 BAR2 SZ EP   1    828 20.54                             171    0.37 7 24.4 182 
 BAR2 SZ ES   1    828 36.11                             171    0.07 7 24.4 182 
 BAR2 SZ I         828 36.77         7.1 0.28                          24.4 182 
 RUS  HZ EP   2    828 24.56                             145    0.30 5  102 174 
 PTB  HZ EP   1    828 27.31                             134    0.29 7  145 258 
 PTB  HN ES   1    828 48.16                             134   -0.08 7  145 258 
 PTB  HZ I         828 51.58         3.9 0.30                           145 258 
 ZAR  HZ EP   1    828 32.58                             124    0.27 6  201 292 
 ZAR  HZ I         829  4.16         3.6 0.38                           201 292 
 SML  HZ EP   1    828 36.77                             119    0.26 6  241 336 
 SML  HN ES   1    829  4.39                             119   -0.73 6  241 336 
 SML  HZ I         829 11.35         4.2 0.10                           241 336 
 CHI  HZ EP   1    828 37.20                             118   -0.71 6  249 194 
 CHI  HN ES   1    829  6.93                             118   -0.68 6  249 194 
 CHI  HZ I         829 12.70         1.0 0.38                           249 194 
 PRA  HE ES   1    829 36.02                             107    0.63 4  392 209 
 PRA  HZ I         829 40.99         1.2 0.26                           392 209 
                                                                                
