 2017  5 9 0143 12.7 L   6.747 -73.236150.3  RSN  5 0.3 1.6LRSN                1
 GAP=200        0.77       4.6     5.5  6.9  0.1340E+02 -0.6495E+01  0.8338E+00E
 Epicentro: ZAPATOCA - SANTANDER                                               3
 ACTION:UPD 17-06-16 13:34 OP:jn   STATUS:               ID:20170509014312 L   I
 OLDACT:DUP 17-05-09 13:52 OP:lv   STATUS:               ID:20170509013728d    3
 2017-05-09-0138-00M.COL___355                                                 6
 STAT SP IPHASW D HRMM SECON CODA AMPLIT PERI AZIMU VELO AIN AR TRES W  DIS CAZ7
 BRR  HZ EP        143 33.91                             155   -0.1610 66.0 307 
 BRR  HN ES        143 50.92                             155    0.1810 66.0 307 
 BRR  HZ I         143 55.44         5.4 0.13            149           66.0 307 
 RUS  HZ EP        143 36.47                             146   -0.1210 96.0 170 
 RUS  HN ES        143 55.29                             146    0.0710 96.0 170 
 RUS  HZ I         143 56.64         4.9 0.10            136           96.0 170 
 SPBC HZ EP        143 41.26                             132    0.69 9  152 217 
 SPBC HN ES        144  1.98                             132   -0.32 9  152 217 
 SPBC HZ I         144  8.07         7.9 0.29            124            152 217 
 YPLC HZ EP        143 42.63                             128   -0.21 9  177 148 
 YPLC HZ I         144  8.87         2.9 0.22            115            177 148 
 ZAR  HN ES        144  9.59                             124   -0.18 9  197 295 
 ZAR  HZ I         144 16.10         3.7 0.15            115            197 295 
                                                                                
