 2012  1 9 0422 48.2 L   6.779 -73.100145.4  RSN 11 0.4 1.7LRSN                1
 GAP=143        0.71       3.9     4.4  5.8 -0.2272E+01  0.4832E+01  0.4982E+01E
 Epicentro: LOS SANTOS - SANTANDER                                             3
 ACTION:UP  12-02-03 08:15 OP:REBC STATUS:               ID:20120109042248 L   I
 2012-01-09-0420-00M.COL___186                                                 6
 STAT SP IPHASW D HRMM SECON CODA AMPLIT PERI AZIMU VELO SNR AR TRES W  DIS CAZ7
 BAR2 SZ EP        423  7.76                             171     0.010   23 204 
 BAR2 SZ ES   1    423 22.56                             171    -0.5 7   23 204 
 BAR2 SZ I         423 24.20        14.9 0.38                            23 204 
 GIR2 SZ EP        423  7.83                             166    -0.110   35 343 
 GIR2 SZ ES   2    423 23.29                             166     0.0 5   35 343 
 PAM  SZ EP   1    423 10.74                             151     0.4 7   76  36 
 PAM  SN ES   1    423 27.79                             151     0.2 7   76  36 
 BRR  HZ IP     C  423  9.62                             151     0.010   77 298 
 BRR  HZ I         423  9.89        19.1 0.22                            77 298 
 BRR  HE ES   1    423 26.87                             151     0.5 7   77 298 
 RUS  HZ EP   1    423 11.71                             144     0.0 7   98 179 
 RUS  HN ES   2    423 29.88                             144    -0.2 5   98 179 
 RUS  HZ I         423 31.48         5.6 0.49                            98 179 
 PTB  HZ EP   1    423 14.86                             131    -0.7 7  152 260 
 PTB  HE ES   2    423 36.50                             131    -0.4 5  152 260 
 OCA  SZ EP   2    423 16.35                             129    -0.4 5  163 351 
 OCA  SZ ES   2    423 38.67                             129    -0.4 5  163 351 
 OCA  SZ I         423 45.55         7.1 0.35                           163 351 
 ZAR  HE ES   2    423 46.70                             121    -0.2 4  210 292 
 ZAR  HZ I         423 52.13        10.0 0.62                           210 292 
 NOR  SE ES   2    423 52.78                             118     0.5 4  237 236 
 CHI  HZ EP   1    423 25.95                             117     0.2 6  248 196 
 CHI  HN ES   2    423 55.59                             117     0.5 4  248 196 
 CHI  HZ I         424  2.14         1.5 0.34                           248 196 
 HEL  HZ EP   2    423 29.43                             114     0.6 4  276 257 
 HEL  HN ES   2    424  1.30                             114     0.7 4  276 257 
 HEL  HZ I         424  6.17         2.2 0.48                           276 257 
                                                                                
