 2012  3 9 0415 24.6 L   6.695 -73.239155.1  RSN  6 0.5 1.6LRSN                1
 GAP=200        1.01       9.4     7.9 11.9  0.2604E+02  0.3680E+02 -0.9323E+00E
 ACTION:UP  12-03-31 23:18 OP:EP   STATUS:               ID:20120309041524 L   I
 2012-03-09-0410-00M.COL___194                                                 6
 STAT SP IPHASW D HRMM SECON CODA AMPLIT PERI AZIMU VELO SNR AR TRES W  DIS CAZ7
 BAR2 SZ EP   1    415 44.61                             175    -0.6 7   13 151 
 BAR2 SZ ES   1    416  0.87                             175    -0.4 7   13 151 
 BAR2 SZ I         416  1.91         4.2 0.15                            13 151 
 BRR  HZ EP   1    415 46.96                             154     0.3 7   69 311 
 BRR  HZ I         415 47.23        14.0 0.14                            69 311 
 BRR  HN ES   1    416  4.04                             154     0.2 7   69 311 
 RUS  HE ES   1    416  7.41                             148     0.1 7   90 169 
 PTB  HZ EP   1    415 51.98                             136     0.7 7  136 263 
 PTB  HE ES   1    416 12.64                             136     0.5 7  136 263 
 PTB  HZ I         416 20.36                                            136 263 
 ZAR  HN ES   1    416 22.26                             125    -0.4 6  199 296 
 HEL  HN ES   1    416 33.84                             118    -0.7 6  259 258 
                                                                                
