 2010 10 9 0448  0.3 L   6.778 -73.077142.1  RSN  7 0.3 1.7LRSN                1
 GAP=183        0.59       3.8     5.6  5.1 -0.1283E+02 -0.3830E+00  0.5969E+01E
 Epicentro: LOS SANTOS - SANTANDER                                             3
 ACTION:UP  11-02-18 11:08 OP:tino STATUS:               ID:20101009044800 L   I
 2010-10-09-0445-01S.COL___119                                                 6
 STAT SP IPHASW D HRMM SECON CODA AMPLIT PERI AZIMU VELO SNR AR TRES W  DIS CAZ7
 BAR2 SZ EP   2    448 19.75                             170     0.3 5   24 210 
 BAR2 SZ ES   1    448 34.52                             170     0.1 7   24 210 
 BAR2 SZ I         448 38.12        11.9 0.63                            24 210 
 BRR  HZ IP     D  448 21.28                             149    -0.210   79 297 
 BRR  HE ES   1    448 38.13                             149     0.1 7   79 297 
 BRR  HZ I         448 42.32         9.1 0.10                            79 297 
 GRA  SZ IP        448 25.09                             136    -0.110  126  14 
 GRA  SZ ES   1    448 44.88                             136     0.2 7  126  14 
 GRA  SZ I         448 46.37         3.7 0.40                           126  14 
 CHI  HZ EP   2    448 37.35                             116    -0.4 4  248 197 
 CHI  HE ES   2    449  6.58                             116    -0.4 4  248 197 
 CHI  HZ I         449 16.63         1.5 0.27                           248 197 
 HEL  HZ EP   2    448 41.27                             113     0.2 4  279 257 
 HEL  HN ES   2    449 12.64                             113    -0.3 4  279 257 
 HEL  HZ I         449 18.74         2.8 0.50                           279 257 
 RREF HZ EP   1    448 47.56                             110     0.8 5  326 231 
 RREF HN ES   1    449 22.80                             110    -0.2 5  326 231 
 RREF HZ I         449 31.69         2.4 0.18                           326 231 
 PRA  HZ EP   1    448 53.91                             106     0.0 4  394 211 
 PRA  HE ES   1    449 36.14                             106     0.4 4  394 211 
 PRA  HZ I         449 37.51         6.3 0.11                           394 211 
                                                                                
