 2013  4 9 0922  1.7 L   6.735 -73.186142.8  RSN  6 0.4 1.6LRSN                1
 GAP=174        1.00       5.1     6.6  7.0  0.1071E+02  0.1307E+02  0.1590E+02E
 Epicentro: VILLANUEVA - SANTANDER                                             3
 ACTION:UPD 13-05-22 14:36 OP:EP   STATUS:               ID:20130409092201 L   I
 2013-04-09-0918-48M.COL___218                                                 6
 STAT SP IPHASW D HRMM SECON CODA AMPLIT PERI AZIMU VELO AIN AR TRES W  DIS CAZ7
 BAR2 SZ EP        922 20.52                             173   -0.2710 15.8 179 
 BAR2 SZ ES        922 35.38                             173   -0.3410 15.8 179 
 BAR2 SZ I         922 36.78        16.2 0.40            173           15.8 179 
 GIR2 SZ ES        922 36.07                             164   -0.3310 38.0 359 
 BRR  HZ EP        922 22.33                             152   -0.1510 71.2 305 
 BRR  HZ I         922 22.74         4.5 0.38            152           71.2 305 
 BRR  HN ES        922 39.58                             152    0.8510 71.2 305 
 RUS  HZ EP        922 25.00                             145    0.3710 93.8 173 
 RUS  HN ES        922 42.81                             145    0.2610 93.8 173 
 PTB  HZ EP        922 27.61                             132   -0.26 9  142 261 
 PTB  HN ES        922 48.07                             132   -0.25 9  142 261 
 CHI  HZ EP        922 38.67                             117    0.36 8  241 195 
 CHI  HN I         922 40.59         2.6 0.28            117            241 195 
 CHI  HN ES        923  6.61                             117   -0.29 8  241 195 
                                                                                
