 2017  2 9 0831 22.0 L   6.786 -73.123145.0  RSN  7 0.5 1.6LRSN                1
 GAP=239        1.23       6.2     7.0  7.7  0.2070E+02  0.1723E+02  0.9826E+01E
 Epicentro: LOS SANTOS - SANTANDER                                             3
 ACTION:UPD 17-05-24 15:34 OP:jn   STATUS:               ID:20170209083122 L   I
 OLDACT:REG 17-02-09 13:42 OP:edw  STATUS:               ID:20170209082740     3
 2017-02-09-0828-00M.COL___352                                                 6
 STAT SP IPHASW D HRMM SECON CODA AMPLIT PERI AZIMU VELO AIN AR TRES W  DIS CAZ7
 BAR2 EZ EP        831 41.44                             171   -0.1110 22.4 197 
 BAR2 EZ ES        831 56.48                             171   -0.2910 22.4 197 
 BAR2 EZ I         831 59.30        11.6 0.40            175           22.4 197 
 BRR  HZ IP        831 43.43                             151    0.1610 74.1 299 
 BRR  HN ES        832  0.68                             151    0.8510 74.1 299 
 BRR  HZ I         832  4.73         9.7 0.14            155           74.1 299 
 RUS  HZ EP        831 45.85                             144    0.2610 98.9 177 
 RUS  HN ES        832  4.01                             144    0.0510 98.9 177 
 RUS  HZ I         832  5.16         4.7 0.42            151           98.9 177 
 PTB  HZ EP        831 48.22                             131   -0.91 9  150 260 
 PTB  HN ES        832  9.50                             131   -0.77 9  150 260 
 PTB  HZ I         832 12.42         5.3 0.24            140            150 260 
 ZAR  HZ EP        831 54.24                             122   -0.49 8  207 292 
 ZAR  HN ES        832 20.27                             122    0.04 8  207 292 
 ZAR  HZ I         832 28.99         5.8 0.52            127            207 292 
 CHI  HZ EP        831 59.89                             117    0.29 8  248 196 
 CHI  HN ES        832 28.89                             117   -0.01 8  248 196 
 CHI  HZ I         832 31.70         1.5 0.50            123            248 196 
 CBOC HZ EP        832  9.84                             110    0.71 7  336 252 
 CBOC HN ES        832 46.68                             110    0.81 7  336 252 
 CBOC HZ I         832 56.34         1.0 0.54            114            336 252 
                                                                                
