 2016  2 9 0018 19.1 L   6.826 -73.167147.3  RSN  6 0.3 1.6LRSN                1
 GAP=199        0.76       2.9     4.5  5.6  0.1573E+01  0.5049E+01 -0.2765E+01E
 Epicentro: LOS SANTOS - SANTANDER                                             3
 ACTION:UPD 16-03-04 21:24 OP:rebc STATUS:               ID:20160209001819 L   I
 OLDACT:REG 16-02-09 12:38 OP:ak   STATUS:               ID:20160209000750     3
 2016-02-09-0007-50M.COL___325                                                 6
 STAT SP IPHASW D HRMM SECON CODA AMPLIT PERI AZIMU VELO AIN AR TRES W  DIS CAZ7
 BAR2 EZ EP        018 39.05                             170    0.1310 25.9 184 
 BAR2 EZ ES        018 54.46                             170    0.0410 25.9 184 
 BAR2 EZ I         018 55.93        12.4 0.14            168           25.9 184 
 RUS  HZ EP        018 42.84                             143   -0.3310  104 175 
 RUS  HN ES        019  1.94                             143   -0.0510  104 175 
 RUS  HZ I         019  3.05         4.5 0.30            144            104 175 
 PTB  HZ EP        018 45.41                             133   -0.58 9  146 258 
 PTB  HN ES        019  6.82                             133   -0.18 9  146 258 
 PTB  HZ I         019 10.01         3.2 0.16            131            146 258 
 NOR  HN ES        019 23.00                             119    0.23 8  234 234 
 NOR  HZ I         019 28.69         2.8 0.22            118            234 234 
 SML  HZ EP        018 55.30                             118   -0.08 8  240 336 
 SML  HN ES        019 24.21                             118    0.50 8  240 336 
 SML  HZ I         019 27.64         7.8 0.06            118            240 336 
 CHI  HZ EP        018 57.26                             117    0.19 8  251 194 
 CHI  HN ES        019 27.24                             117    0.52 8  251 194 
 CHI  HZ I         019 30.56         2.7 0.56            117            251 194 
                                                                                
