 2011  1 9 0809 13.5 L   6.802 -73.033149.7  RSN  4 0.5 1.6LRSN                1
 GAP=171        1.08       7.0    31.6 12.6 -0.8557E+02 -0.2963E+02 -0.1245E+02E
 Epicentro: CEPITA - SANTANDER                                                 3
 ACTION:UP  11-02-08 08:39 OP:pat  STATUS:               ID:20110109080913 L   I
 2011-01-09-0804-14S.COL___135                                                 6
 STAT SP IPHASW D HRMM SECON CODA AMPLIT PERI AZIMU VELO SNR AR TRES W  DIS CAZ7
 BAR2 SZ IP        8 9 33.55                             169    -0.110   29 216 
 BAR2 SZ I         8 9 34.12         8.2 0.35                            29 216 
 BAR2 SZ ES   1    8 9 50.01                             169     0.6 7   29 216 
 RUS  HZ EP   1    8 9 37.37                             145    -0.2 7  101 183 
 RUS  HN ES   2    8 9 55.90                             145    -0.5 5  101 183 
 RUS  HZ I         8 9 57.15         2.5 0.33                           101 183 
 GRA  SZ EP   1    8 9 39.65                             139     0.9 7  122  12 
 GRA  SZ ES   1    8 9 58.03                             139    -0.5 7  122  12 
 GRA  SZ I         810  0.01         8.5 0.33                           122  12 
 OCA  SZ EP   1    8 9 42.12                             130    -0.1 7  162 349 
 OCA  SZ ES   2    810  4.22                             130    -0.5 5  162 349 
 OCA  SZ I         810  8.96         7.0 0.43                           162 349 
                                                                                
