 2012  6 9 0726 24.6 L   6.793 -73.146126.0  RSN  5 0.5 1.5LRSN                1
 GAP=183        0.89       5.1     6.2 14.2  0.4349E+01  0.1281E+02 -0.2855E+02E
 Epicentro: LOS SANTOS - SANTANDER                                             3
 ACTION:UPD 12-08-06 17:48 OP:ep   STATUS:               ID:20120609072626 L   I
 2012-06-09-0720-00M.COL___201                                                 6
 STAT SP IPHASW D HRMM SECON CODA AMPLIT PERI AZIMU VELO AIN AR TRES W  DIS CAZ7
 BAR2 SZ EP        726 41.91                             169    0.1110 22.6 190 
 BAR2 SZ I         726 57.87         6.7 0.25            169           22.6 190 
 RUS  HZ EP   1    726 45.94                             140   -0.42 7 99.8 176 
 RUS  HN ES   1    727  3.73                             140    0.36 7 99.8 176 
 RUS  HZ I         727  5.61         2.8 0.39            141           99.8 176 
 PTB  HZ EP   1    726 49.14                             127   -0.84 7  148 259 
 PTB  HN ES   1    727  9.69                             127   -0.12 7  148 259 
 PTB  HZ I         727 12.96         4.4 0.23            132            148 259 
 OCA  HZ EP   1    726 51.81                             125    0.32 7  161 353 
 OCA  HN ES   1    727 12.09                             125   -0.40 7  161 353 
 OCA  HZ I         727 15.45        16.6 0.27            127            161 353 
 ZAR  HZ EP   1    726 56.67                             118    0.84 6  204 292 
 ZAR  HN ES   1    727 20.47                             118    0.24 6  204 292 
                                                                                
