 2011  8 9 0420 51.8 L   6.778 -73.081144.0  RSN  4 0.3 1.5LRSN                1
 GAP=189        0.51       4.7    10.9  6.9  0.3586E+02 -0.3536E+02 -0.1285E+02E
 Epicentro: LOS SANTOS - SANTANDER                                             3
 ACTION:UPD 12-07-13 15:50 OP:ep   STATUS:               ID:20110809042051 L   I
 2011-08-09-0416-45S.COL___144                                                 6
 STAT SP IPHASW D HRMM SECON CODA AMPLIT PERI AZIMU VELO AIN AR TRES W  DIS CAZ7
 BAR2 SZ EP   1    421 11.15                             171   -0.05 7 23.4 209 
 BAR2 SZ ES   2    421 25.83                             171   -0.52 5 23.4 209 
 BAR2 SZ I         421 27.91         6.0 0.44                          23.4 209 
 BRR  HZ EP        421 12.99                             150   -0.1910 78.6 298 
 BRR  HZ I         421 16.49        10.7 0.51                          78.6 298 
 BRR  HN ES   1    421 30.06                             150    0.19 7 78.6 298 
 RUS  HZ EP        421 15.09                             145   -0.0810 97.9 180 
 RUS  HN ES   1    421 33.77                             145    0.36 7 97.9 180 
 RUS  HZ I         421 35.10         2.7 0.21                          97.9 180 
 OCA  SZ EP   2    421 20.53                             129    0.25 5  164 351 
 OCA  SZ ES   2    421 42.81                             129    0.31 5  164 351 
 OCA  SZ I         421 47.57         4.5 0.28                           164 351 
                                                                                
