 2015  3 9 0924  9.3 L   6.815 -73.144140.8  RSN 14 0.5 2.1LRSN                1
 GAP=183        1.06       2.7     4.8  5.3 -0.1851E+01  0.6154E+01  0.6697E+00E
 Epicentro: LOS SANTOS - SANTANDER                                             3
 ACTION:UPD 15-04-30 16:24 OP:nd   STATUS:               ID:20150309092409 L   I
 OLDACT:UP  15-03-09 18:14 OP:cam  STATUS:               ID:20150309091749     3
 OLDACT:REG 15-03-09 14:39 OP:cam  STATUS:               ID:20150309091749     3
 2015-03-09-0917-49M.COL___275                                                 6
 STAT SP IPHASW D HRMM SECON CODA AMPLIT PERI AZIMU VELO AIN AR TRES W  DIS CAZ7
 BAR2 EZ EP        924 28.51                             169    0.1210 24.9 190 
 BAR2 EZ ES        924 43.04                             169   -0.2310 24.9 190 
 BAR2 EZ I         924 44.97        22.2 0.48            167           24.9 190 
 BRR  HZ IP     D  924 30.44                             152    0.5410 70.6 297 
 BRR  HN ES        924 46.31                             152    0.3510 70.6 297 
 BRR  HZ I         924 49.96        18.6 0.16            146           70.6 297 
 RUS  HZ EP        924 32.97                             142    0.2610  102 176 
 RUS  HN ES        924 51.28                             142    0.3310  102 176 
 RUS  HZ I         924 51.80        16.7 0.30            139            102 176 
 PTB  HZ EP        924 35.41                             131   -0.52 9  148 258 
 PTB  HN ES        924 55.89                             131   -0.80 9  148 258 
 PTB  HZ I         924 58.33        27.1 0.14            125            148 258 
 OCA  HZ EP        924 36.81                             129   -0.29 9  159 353 
 OCA  HN ES        924 59.06                             129    0.29 9  159 353 
 OCA  HZ I         925  4.63        15.5 0.20            124            159 353 
 SPBC HZ EP        924 37.30                             128   -0.28 9  165 219 
 SPBC HN ES        924 59.50                             128   -0.12 9  165 219 
 SPBC HZ I         925  1.52        22.0 0.18            123            165 219 
 NOR  HZ EP        924 44.34                             117   -0.54 8  236 234 
 NOR  HN ES        925 12.26                             117   -0.36 8  236 234 
 NOR  HZ I         925 15.89        13.8 0.18            113            236 234 
 SML  HZ EP        924 44.78                             117   -0.74 8  242 335 
 SML  HN ES        925 13.65                             117   -0.11 8  242 335 
 SML  HZ I         925 16.00        18.4 0.10            112            242 335 
 CHI  HZ EP        924 46.61                             116   -0.31 8  250 195 
 CHI  HN ES        925 15.93                             116   -0.33 8  250 195 
 CHI  HZ I         925 25.48         5.7 0.32            112            250 195 
 HEL  HZ EP        924 49.90                             114    0.55 8  273 255 
 HEL  HN ES        925 21.12                             114    0.55 8  273 255 
 HEL  HZ I         925 27.24         8.1 0.60            109            273 255 
 GUY2CHZ EP        924 53.67                             111    0.84 7  302 235 
 GUY2CHE ES   4    925 29.72                             111    2.96 0  302 235 
 CBOC HZ EP        924 56.52                             109    0.41 7  334 252 
 CBOC HZ I         925 43.35         2.3 0.40            105            334 252 
 TOL  SZ EP        924 58.10                             108    0.57 7  345 224 
 TOL  SN ES        925 35.92                             108    0.79 7  345 224 
 TOL  SZ I         925 39.39         5.9 0.40            105            345 224 
 PRA  HZ EP   4    925  1.01                             106   -1.84 0  394 209 
 PRA  HE ES        925 44.05                             106   -0.55 6  394 209 
 PRA  HZ I         925 52.48         8.0 0.34            102            394 209 
                                                                                
