 2011 10 9 0947 16.5 L   6.870 -72.867168.3  RSN  6 0.3 1.7LRSN                1
 GAP=173        0.58       3.5     6.3  5.3 -0.1096E+01 -0.1046E+01  0.2567E+01E
 Epicentro: GUACA - SANTANDER                                                  3
 ACTION:UPD 12-07-13 16:02 OP:ep   STATUS:               ID:20111009094716 L   I
 2011-10-09-0940-00M.COL___171                                                 6
 STAT SP IPHASW D HRMM SECON CODA AMPLIT PERI AZIMU VELO AIN AR TRES W  DIS CAZ7
 GIR2 SZ EP   1    947 39.02                             165   -0.13 7 42.8 303 
 GIR2 SZ ES   1    947 57.00                             165    0.16 7 42.8 303 
 BAR2 SZ EP   1    947 39.21                             164   -0.20 7 46.4 229 
 BAR2 SZ ES   1    947 57.23                             164   -0.08 7 46.4 229 
 BAR2 SZ I         947 59.51        10.7 0.37                          46.4 229 
 PAM  SZ EP   1    947 39.95                             161   -0.15 7 55.1  20 
 PAM  SN ES        947 58.41                             161   -0.1210 55.1  20 
 BRR  HZ EP   1    947 41.23                             149   -0.33 7 97.0 286 
 BRR  HN ES   1    948  0.98                             149   -0.15 7 97.0 286 
 BRR  HZ I         948  4.69         7.8 0.32                          97.0 286 
 RUS  HZ EP   1    947 43.70                             145    0.52 7  111 192 
 RUS  HN ES   1    948  4.14                             145    0.13 7  111 192 
 RUS  HZ I         948  5.67         4.6 0.26                           111 192 
 OCA  SZ ES   1    948 10.56                             134    0.56 7  159 342 
 OCA  SZ I         948 11.45         3.5 0.19                           159 342 
                                                                                
