 2014  9 9 0716 43.8 L   6.762 -73.184153.6  RSN  6 0.4 1.5LRSN                1
 GAP=230        1.00       5.5     5.9  6.8  0.1303E+02  0.6284E+01 -0.1331E+01E
 Epicentro: LOS SANTOS - SANTANDER                                             3
 ACTION:UPD 14-10-03 23:03 OP:nd   STATUS:               ID:20140909071643 L   I
 OLDACT:DUP 14-09-09 14:37 OP:carl STATUS:               ID:20140909070807d    3
 2014-09-09-0708-06M.COL___263                                                 6
 STAT SP IPHASW D HRMM SECON CODA AMPLIT PERI AZIMU VELO AIN AR TRES W  DIS CAZ7
 BAR2 SZ EP        717  3.72                             173   -0.5410 18.8 179 
 BAR2 SZ ES        717 20.22                             173   -0.0210 18.8 179 
 BAR2 SZ I         717 21.35         4.9 0.24            179           18.8 179 
 BRR  HZ EP        717  5.78                             154    0.1010 69.7 303 
 BRR  HZ I         717 23.28         3.5 0.48            148           69.7 303 
 BRR  HN ES        717 23.36                             154    0.5810 69.7 303 
 RUS  HZ EP        717  8.32                             146    0.2910 96.8 173 
 RUS  HN ES        717 26.64                             146   -0.3310 96.8 173 
 RUS  HZ I         717 27.23         4.8 0.40            150           96.8 173 
 PTB  HZ EP        717 10.77                             135   -0.18 9  143 260 
 PTB  HN ES        717 31.46                             135   -0.69 9  143 260 
 PTB  HZ I         717 33.89         5.5 0.10            132            143 260 
 SPBC HZ EP        717 12.81                             132    0.48 9  157 219 
 SPBC HN ES        717 35.05                             132    0.43 9  157 219 
 SPBC HZ I         717 37.16         4.5 0.28            132            157 219 
 ZAR  HZ EP        717 16.35                             124   -0.15 9  202 294 
 ZAR  HN ES        717 42.07                             124    0.04 9  202 294 
 ZAR  HZ I         717 52.23         3.9 0.42            120            202 294 
                                                                                
