 2017  4 9 0518 56.4 L   6.805 -73.142147.6  RSN 15 0.5 1.8LRSN                1
 GAP=112        0.90       3.2     2.9  4.9  0.9423E+00  0.3384E+01  0.4080E+01E
 Epicentro: LOS SANTOS - SANTANDER                                             3
 ACTION:UPD 17-05-30 21:09 OP:jn   STATUS:               ID:20170409051856 L   I
 OLDACT:UP  17-04-09 15:22 OP:and  STATUS:               ID:20170409051749     3
 OLDACT:UP  17-04-09 15:21 OP:and  STATUS:               ID:20170409051749     3
 OLDACT:UP  17-04-09 15:21 OP:and  STATUS:               ID:20170409051749     3
 OLDACT:UP  17-04-09 15:20 OP:and  STATUS:               ID:20170409051749     3
 OLDACT:UP  17-04-09 15:19 OP:and  STATUS:               ID:20170409051749     3
 OLDACT:UP  17-04-09 15:18 OP:and  STATUS:               ID:20170409051749     3
 OLDACT:REG 17-04-09 12:50 OP:and  STATUS:               ID:20170409051749     3
 2017-04-09-0518-00M.COL___361                                                 6
 STAT SP IPHASW D HRMM SECON CODA AMPLIT PERI AZIMU VELO AIN AR TRES W  DIS CAZ7
 BAR2 EZ IP     C  519 16.14                             170   -0.1410 24.0 191 
 BAR2 EZ ES        519 31.45                             170   -0.3210 24.0 191 
 BAR2 EZ I         519 33.97        21.8 0.20            168           24.0 191 
 BRR  HZ EP   2    519 17.98                             153    0.21 5 71.3 298 
 BRR  HN ES        519 35.01                             153    0.5810 71.3 298 
 BRR  HZ I         519 38.96        17.1 0.40            150           71.3 298 
 PAM  EZ EP     D  519 18.91                             151    0.1310 76.6  40 
 PAM  EN ES        519 36.17                             151   -0.0610 76.6  40 
 PAM  EZ I         519 38.28        10.2 0.56            155           76.6  40 
 RUS  HZ IP     C  519 20.09                             144   -0.3010  101 176 
 RUS  HN ES        519 38.80                             144   -0.2910  101 176 
 RUS  HZ I         519 40.24         3.8 0.26            145            101 176 
 PTB  HZ EP   3    519 21.57                             132   -2.01 2  148 259 
 PTB  HE ES        519 44.56                             132   -0.21 9  148 259 
 PTB  HZ I         519 51.14         7.1 0.16            131            148 259 
 SPBC HZ EP     C  519 25.44                             129    0.32 9  164 219 
 SPBC HN ES   2    519 48.31                             129    0.79 5  164 219 
 SPBC HZ I         519 51.52        12.6 0.16            129            164 219 
 YPLC HZ IP     C  519 26.57                             127    0.20 9  177 152 
 YPLC HN ES        519 50.28                             127    0.54 9  177 152 
 YPLC HZ I         519 51.49         5.7 0.28            129            177 152 
 ZAR  HZ EP   3    519 30.06                             123    1.06 2  204 292 
 ZAR  HN ES        519 54.10                             123   -0.32 9  204 292 
 ZAR  HZ I         519 59.33         7.7 0.24            122            204 292 
 NOR  HZ EP        519 31.52                             119   -0.81 8  235 234 
 NOR  HN ES        519 59.84                             119   -0.50 8  235 234 
 NOR  HZ I         520  5.66         4.1 0.22            119            235 234 
 CHI  HZ EP        519 34.49                             117    0.20 8  249 195 
 CHI  HN ES        520  3.84                             117    0.01 8  249 195 
 CHI  HZ I         520  7.24         4.5 0.46            118            249 195 
 ROSC BZ EP   9    519 36.37                             117    1.66 0  253 211 
 ROSC BN ES        520  6.69                             117    0.45 8  253 211 
 ROSC BZ I         520 10.63         9.9 0.45            117            253 211 
 HEL  HN ES        520  8.93                             115    0.65 8  273 256 
 URE  HE ES   4    520  7.55                             114   -2.17 0  284 292 
 URE  HZ I         520 20.02         3.8 0.16            114            284 292 
 PTGC HZ EP   9    519 39.26                             112   -1.13 0  309 159 
 PTGC HN ES        520 13.08                             112   -0.49 7  309 159 
 PTGC HZ I         520 15.56         3.6 0.44            113            309 159 
 CBOC HZ EP        519 43.46                             110   -0.01 7  334 252 
 CBOC HN ES        520 20.54                             110    0.36 7  334 252 
 CBOC HZ I         520 26.03         1.1 0.38            110            334 252 
 SJC  HZ EP   4    519 50.37                             106   -1.64 0  409 327 
 SJC  HN ES   4    520 33.21                             106   -2.16 0  409 327 
                                                                                
