 2015  9 9 0833  9.3 L   6.838 -73.166142.2  RSN  7 0.4 1.7LRSN                1
 GAP=181        0.96       3.9     5.9  7.7  0.1273E+00  0.6522E+01 -0.1378E+02E
 Epicentro: LOS SANTOS - SANTANDER                                             3
 ACTION:UPD 15-10-28 16:25 OP:cam  STATUS:               ID:20150909083309 L   I
 OLDACT:REG 15-09-09 13:09 OP:stll STATUS:               ID:20150909082748     3
 2015-09-09-0827-48M.COL___355                                                 6
 STAT SP IPHASW D HRMM SECON CODA AMPLIT PERI AZIMU VELO AIN AR TRES W  DIS CAZ7
 BAR2 EZ IP     D  833 28.69                             169    0.1010 27.3 184 
 BAR2 EZ ES        833 43.86                             169    0.2210 27.3 184 
 BAR2 EZ I         833 46.32         8.3 0.28            178           27.3 184 
 BRR  HZ EP        833 30.66                             153    0.8210 67.2 296 
 BRR  HZ I         833 53.12         5.6 0.14            145           67.2 296 
 RUS  HZ EP        833 32.77                             142   -0.2610  105 175 
 RUS  HZ I         833 33.43         3.5 0.44            146            105 175 
 RUS  HN ES        833 51.08                             142   -0.4610  105 175 
 PTB  HZ EP        833 35.72                             131   -0.14 9  146 257 
 PTB  HN ES        833 56.36                             131   -0.21 9  146 257 
 PTB  HZ I         834  4.00         6.8 0.48            129            146 257 
 OCA  HZ EP        833 37.01                             130    0.10 9  156 354 
 OCA  HZ I         834  4.27         9.8 0.48            122            156 354 
 SPBC HZ EP        833 37.58                             128   -0.13 9  165 217 
 SPBC HN ES        834  0.18                             128    0.30 9  165 217 
 SPBC HZ I         834  5.46        12.2 0.16            128            165 217 
 SML  HZ EP        833 45.37                             117    0.17 8  239 335 
 SML  HN ES        834 12.51                             117   -0.70 8  239 335 
 SML  HZ I         834 18.24         5.3 0.26            112            239 335 
                                                                                
