 2015  2 9 0502 28.6 L   6.807 -73.147138.0  RSN 14 0.5 1.8LRSN                1
 GAP=136        1.11       2.9     4.0  5.8 -0.1915E+01  0.8893E+01 -0.1366E+00E
 Epicentro: LOS SANTOS - SANTANDER                                             3
 ACTION:UPD 15-04-30 21:24 OP:nd   STATUS:               ID:20150209050228 L   I
 OLDACT:REG 15-02-09 13:23 OP:fm   STATUS:               ID:20150209045745     3
 2015-02-09-0457-45M.COL___295                                                 6
 STAT SP IPHASW D HRMM SECON CODA AMPLIT PERI AZIMU VELO AIN AR TRES W  DIS CAZ7
 BAR2 EZ EP        5 2 47.62                             170    0.2910 24.1 189 
 BAR2 EZ ES        5 3  1.67                             170   -0.2610 24.1 189 
 BAR2 EZ I         5 3  3.72        14.1 0.24            168           24.1 189 
 BRR  HZ EP        5 2 49.70                             151    0.8010 70.7 298 
 BRR  HE ES        5 3  4.85                             151    0.1210 70.7 298 
 BRR  HZ I         5 3 10.55        18.0 0.12            147           70.7 298 
 PAM  SZ EP        5 2 50.61                             149    0.6310 76.8  40 
 PAM  SE ES        5 3  6.80                             149    0.1610 76.8  40 
 PAM  SZ I         5 3  8.89         7.8 0.24            154           76.8  40 
 RUS  HZ EP        5 2 51.63                             142   -0.0410  101 176 
 RUS  HE ES        5 3  9.08                             142   -0.5810  101 176 
 RUS  HZ I         5 3 11.09         6.7 0.42            145            101 176 
 PTB  HZ EP        5 2 54.70                             130   -0.27 9  148 259 
 PTB  HN ES        5 3 15.19                             130   -0.33 9  148 259 
 PTB  HZ I         5 3 18.13        11.6 0.46            129            148 259 
 OCA  HZ EP   1    5 2 56.75                             128    0.49 7  159 353 
 OCA  HE ES        5 3 17.05                             128   -0.77 9  159 353 
 OCA  HZ I         5 3 20.48         6.6 0.22            129            159 353 
 SPBC HZ EP        5 2 56.73                             127    0.14 9  164 219 
 SPBC HE ES        5 3 18.74                             127    0.34 9  164 219 
 SPBC HZ I         5 3 22.54        10.0 0.18            128            164 219 
 ZAR  HZ EP   1    5 3  0.77                             121    0.24 6  204 292 
 ZAR  HN ES        5 3 26.29                             121    0.87 9  204 292 
 ZAR  HZ I         5 3 32.48         9.2 0.28            121            204 292 
 SML  HZ EP        5 3  3.67                             116   -1.07 8  243 335 
 SML  HE ES        5 3 32.52                             116   -0.39 8  243 335 
 SML  HZ I         5 3 40.67         8.4 0.26            117            243 335 
 CHI  HN ES        5 3 34.94                             115   -0.18 8  249 195 
 HEL  HZ EP        5 3  8.39                             113   -0.07 8  272 256 
 HEL  HN ES        5 3 38.98                             113   -0.55 8  272 256 
 HEL  HZ I         5 3 47.28         4.1 0.32            114            272 256 
 GUY2CHZ EP        5 3 11.75                             111   -0.17 7  302 235 
 GUY2CHE ES        5 3 45.88                             111    0.18 7  302 235 
 GUY2CHZ I         5 3 53.11         3.0 0.30                           302 235 
 CBOC HZ EP        5 3 15.17                             108   -0.07 7  334 252 
 CBOC HN ES        5 3 51.80                             108    0.20 7  334 252 
 CBOC HZ I         5 4  3.47         2.3 0.36            109            334 252 
 TOL  SN ES   4    5 3 51.04                             108   -3.04 0  344 225 
 TOL  SZ I         5 4  2.76         2.2 0.26            109            344 225 
                                                                                
