 2017  8 9 0938 11.8 L   6.794 -73.103141.7  RSN  6 0.2 1.6LRSN                1
 GAP=247        0.47       3.0     2.8  3.8  0.9685E+00  0.3336E+01 -0.6550E+00E
 Epicentro: LOS SANTOS - SANTANDER                                             3
 ACTION:UPD 17-09-04 20:18 OP:rebc STATUS:               ID:20170809093811 L   I
 OLDACT:REG 17-08-09 12:52 OP:dhb  STATUS:               ID:20170809093737     3
 2017-08-09-0938-00M.COL___384                                                 6
 STAT SP IPHASW D HRMM SECON CODA AMPLIT PERI AZIMU VELO AIN AR TRES W  DIS CAZ7
 BAR2 EZ IP     D  938 30.99                             170    0.0210 23.9 202 
 BAR2 EZ ES        938 45.87                             170   -0.0310 23.9 202 
 BAR2 EZ I         938 47.26         7.5 0.18            166           23.9 202 
 RUS  HZ EP        938 35.03                             143   -0.0710 99.6 179 
 RUS  HN ES        938 53.46                             143    0.2010 99.6 179 
 RUS  HZ I         938 54.77         5.0 0.40            142           99.6 179 
 SPBC HZ EP        938 40.15                             128   -0.09 9  166 220 
 SPBC HN ES        939  2.03                             128   -0.39 9  166 220 
 SPBC HZ I         939  6.50         5.7 0.20            127            166 220 
 ZAR  HN ES        939  9.98                             121    0.01 8  209 292 
 NOR  HZ EP        938 47.79                             117    0.10 8  238 235 
 NOR  HN ES        939 15.98                             117    0.31 8  238 235 
 NOR  HZ I         939 18.77         3.3 0.16            117            238 235 
 GUY2CHZ EP   9    938 58.24                             111    2.60 0  305 235 
 GUY2CHN ES        939 32.36                                   -0.06 7  305 235 
 GUY2CHZ I         939 36.52         1.6 0.54                           305 235 
                                                                                
