 2010  5 9 0528 41.4 L   6.825 -73.051140.9  RSN 10 0.4 1.8LRSN                1
 GAP=166        0.89       3.8     6.8  6.7 -0.8830E+01  0.2505E+01 -0.1457E+01E
 Epicentro: LOS SANTOS - SANTANDER                                             3
 ACTION:DUP 10-08-24 10:03 OP:vdl  STATUS:               ID:20100509052842dL   I
 2010-05-09-0526-10S.COL___105                                                 6
 STAT SP IPHASW D HRMM SECON CODA AMPLIT PERI AZIMU VELO SNR AR TRES W  DIS CAZ7
 BAR2 SZ IP        529  0.44                             167    -0.110   30 210 
 BAR2 SZ ES   1    529 15.11                             167    -0.4 7   30 210 
 GIR2 SZ EP   1    529  0.28                             167    -0.2 7   32 331 
 BRR  HZ IP     C  529  2.77                             149     0.310   79 293 
 BRR  HN ES   1    529 19.58                             149     0.6 7   79 293 
 BRR  HZ I         529 23.71        18.3 0.16                            79 293 
 BRI  SZ EP        529  4.59                             142     0.210  103  16 
 BRI  SZ ES   1    529 22.62                             142     0.4 7  103  16 
 RUS  HZ EP   1    529  4.69                             142    -0.1 7  103 182 
 RUS  HE ES   1    529 23.07                             142    -0.1 7  103 182 
 RUS  HZ I         529 24.73         4.5 0.33                           103 182 
 GUE  SZ EP        529  5.06                             139    -0.210  112   7 
 GRA  SZ IP        529  5.81                             137     0.110  120  13 
 GRA  SZ ES   1    529 24.90                             137     0.2 7  120  13 
 OCA  SZ EP   1    529  8.75                             128    -0.4 7  159 349 
 OCA  SZ ES   1    529 30.03                             128    -0.9 7  159 349 
 OCA  SZ I         529 34.56         9.5 0.17                           159 349 
 HEL  HZ EP   1    529 23.07                             112     0.5 6  283 256 
 HEL  HN ES   2    529 53.73                             112    -0.9 4  283 256 
 HEL  HZ I         530  0.42         3.6 0.46                           283 256 
 PRA  HZ EP   1    529 36.28                             105     0.7 4  400 211 
 PRA  HZ I         530 24.98         3.3 0.77                           400 211 
                                                                                
