 2014  5 9 0148 49.8 L   6.814 -73.147147.8  RSN 11 0.5 1.9LRSN                1
 GAP=136        1.06       3.3     4.1  6.8 -0.6398E+00  0.6581E+01  0.5373E+01E
 Epicentro: LOS SANTOS - SANTANDER                                             3
 ACTION:UPD 15-03-16 16:56 OP:nd   STATUS:               ID:20140509014849 L   I
 OLDACT:REG 14-05-09 14:12 OP:carl STATUS:               ID:20140509013814     3
 2014-05-09-0138-14M.COL___239                                                 6
 STAT SP IPHASW D HRMM SECON CODA AMPLIT PERI AZIMU VELO AIN AR TRES W  DIS CAZ7
 BRR  HZ EP        149 11.48                             153    0.4010 70.3 298 
 BRR  HN ES        149 28.11                             153    0.4010 70.3 298 
 BRR  HZ I         149 33.33        12.1 0.14            154           70.3 298 
 PAM  SZ EP        149 12.52                             151    0.3910 76.3  40 
 PAM  SN ES        149 29.69                             151    0.1110 76.3  40 
 PAM  SZ I         149 31.86        12.7 0.18            159           76.3  40 
 RUS  HZ EP        149 13.48                             144   -0.3410  102 176 
 RUS  HN ES        149 32.48                             144   -0.1110  102 176 
 PTB  HZ EP        149 16.44                             132   -0.47 9  148 258 
 PTB  HN ES        149 37.42                             132   -0.66 9  148 258 
 PTB  HZ I         149 43.62        15.6 0.38            135            148 258 
 SPBC HZ EP        149 18.62                             129    0.10 9  164 219 
 SPBC HN ES        149 41.16                             129    0.21 9  164 219 
 SPBC HZ I         149 47.77        19.9 0.32            132            164 219 
 ZAR  HE ES        149 47.69                             123    0.07 9  203 292 
 NOR  HZ EP        149 25.50                             119   -0.19 8  235 234 
 NOR  HN ES        149 53.94                             119    0.23 8  235 234 
 NOR  HZ I         149 57.32         9.0 0.18            122            235 234 
 SML  HE ES        149 54.22                             118   -0.66 8  242 335 
 CHI  HZ EP        149 27.67                             117   -0.06 8  250 195 
 CHI  HN ES        149 56.43                             117   -0.91 8  250 195 
 CHI  HZ I         150  4.78         2.6 0.28            120            250 195 
 HEL  HZ EP        149 30.77                             115    0.67 8  272 255 
 HEL  HN ES        150  1.60                             115    0.03 8  272 255 
 HEL  HZ I         150  8.72         4.1 0.38            118            272 255 
 PRA  HN ES        150 26.63                             107    1.22 6  393 209 
                                                                                
