 2011  3 9 0017 46.7 L   6.553 -73.486114.0  RSN 11 0.4 1.9LRSN                1
 GAP=106        0.66       3.0     4.0  7.1 -0.2194E+01  0.1187E+02  0.1038E+00E
 Epicentro: EL CARMEN DE CHUCURI - SANTANDER                                   3
 ACTION:UP  11-06-16 14:32 OP:jfem STATUS:               ID:20110309001746 L   I
 2011-03-09-0015-33S.COL___135                                                 6
 STAT SP IPHASW D HRMM SECON CODA AMPLIT PERI AZIMU VELO SNR AR TRES W  DIS CAZ7
 BAR2 SZ EP   1    018  3.04                             163     0.2 7   34  83 
 BAR2 SZ ES   2    018 15.59                             163     0.2 5   34  83 
 BAR2 SZ I         018 16.78       135.9 0.36                            34  83 
 RUS  HZ EP   1    018  6.08                             141    -0.1 7   86 149 
 RUS  HN ES   2    018 21.17                             141    -0.3 5   86 149 
 RUS  HZ I         018 23.15        11.9 0.20                            86 149 
 GUE  SZ EP   3    018 12.81                             123     0.5 2  154  24 
 GRA  SZ EP   3    018 15.15                             121     1.9 2  165  27 
 GRA  SZ I         018 37.89        10.4 0.30                           165  27 
 YOP  SZ EP   1    018 14.10                             118    -0.4 7  177 138 
 YOP  SN ES   2    018 36.47                             118     0.3 4  177 138 
 YOP  SZ I         018 41.28        13.8 0.27                           177 138 
 OCA  SZ EP   1    018 15.16                             117    -0.5 7  187   6 
 OCA  SZ ES   1    018 38.28                             117     0.1 7  187   6 
 OCA  SZ I         018 47.15         9.3 0.30                           187   6 
 CHI  HZ EP   1    018 19.30                             114     0.4 6  214 187 
 CHI  HZ I         018 47.82         3.5 0.17                           214 187 
 HEL  HZ EP   1    018 20.69                             112     0.1 6  230 260 
 HEL  HN ES   2    018 46.38                             112    -0.7 4  230 260 
 HEL  HZ I         018 54.04         5.2 0.54                           230 260 
 RREF HZ EP   1    018 26.17                             108     0.0 6  275 229 
 RREF HE ES   1    018 57.45                             108     0.4 6  275 229 
 RREF HZ I         019  2.69         4.1 0.28                           275 229 
 PRA  HZ EP   1    018 34.19                             103    -0.1 5  350 206 
 PRA  HE ES   2    019 10.88                             103    -0.5 3  350 206 
 SDV  BZ EP   1    018 41.25                             100     0.0 4  407  51 
 SDV  BZ I         018 42.16         2.6 0.45                           407  51 
                                                                                
