 2017  2 9 0504 50.5 L   6.736 -73.217155.7  RSN  5 0.3 1.3LRSN                1
 GAP=219        0.84       6.7     5.9  6.7  0.2439E+02  0.5055E+01  0.3789E+00E
 Epicentro: VILLANUEVA - SANTANDER                                             3
 ACTION:UPD 17-05-24 15:34 OP:jn   STATUS:               ID:20170209050450 L   I
 OLDACT:UP  17-02-09 18:12 OP:edw  STATUS:               ID:20170209045643d    3
 OLDACT:DUP 17-02-09 18:09 OP:edw  STATUS:               ID:20170209045643d    3
 OLDACT:UP  17-02-09 18:07 OP:edw  STATUS:               ID:20170209045642     3
 OLDACT:REG 17-02-09 13:22 OP:edw  STATUS:               ID:20170209045642     3
 2017-02-09-0457-00M.COL___364                                                 6
 STAT SP IPHASW D HRMM SECON CODA AMPLIT PERI AZIMU VELO AIN AR TRES W  DIS CAZ7
 BAR2 EZ EP        5 5 10.94                             174   -0.2510 16.3 166 
 BAR2 EZ ES        5 5 27.91                             174    0.5610 16.3 166 
 BAR2 EZ I         5 5 31.28         4.9 0.24            172           16.3 166 
 BRR  HZ EP        5 5 12.38                             155   -0.1810 68.4 307 
 BRR  HN ES        5 5 29.48                             155   -0.3110 68.4 307 
 RUS  HZ EP        5 5 15.21                             147    0.4110 94.4 171 
 RUS  HN ES        5 5 33.38                             147   -0.4010 94.4 171 
 RUS  HZ I         5 5 36.23         1.7 0.64            148           94.4 171 
 PTB  HZ EP        5 5 17.50                             136    0.01 9  139 261 
 PTB  HN ES        5 5 38.58                             136    0.01 9  139 261 
 PTB  HZ I         5 5 41.80         3.5 0.28            137            139 261 
 ZAR  HN ES        5 5 48.85                             125    0.22 9  200 295 
                                                                                
