 2014  6 9 0628  5.9 L   6.824 -73.669 88.6  RSN 14 0.5 1.9LRSN                1
 GAP= 53        1.20       2.7     3.3  9.2 -0.1721E+01  0.9789E+01 -0.5058E+01E
 Epicentro: EL CARMEN DE CHUCURI - SANTANDER                                   3
 ACTION:UPD 14-07-01 22:52 OP:nd   STATUS:               ID:20140609062805 L   I
 OLDACT:REG 14-06-09 13:16 OP:fm   STATUS:               ID:20140609061813     3
 2014-06-09-0618-13M.COL___253                                                 6
 STAT SP IPHASW D HRMM SECON CODA AMPLIT PERI AZIMU VELO AIN AR TRES W  DIS CAZ7
 BAR2 SZ EP        628 21.42                             144    0.6810 59.6 115 
 BAR2 SZ ES   1    628 32.80                             144    0.52 7 59.6 115 
 BAR2 SZ I         628 34.70        28.9 0.26             95           59.6 115 
 PTB  HZ IP     C  628 22.65                             130   -0.5810 92.5 250 
 PTB  HN ES        628 36.10                             130   -0.6210 92.5 250 
 PTB  HZ I         628 37.31        36.5 0.18             94           92.5 250 
 PAM  SE ES        628 42.87                             122   -0.0910  121  62 
 RUS  HZ EP        628 27.08                             122    0.3010  122 148 
 RUS  HN ES        628 42.79                             122   -0.2410  122 148 
 RUS  HZ I         628 45.46         8.1 0.16             93            122 148 
 SPBC HZ EP        628 27.36                             118   -0.53 9  137 199 
 SPBC HE ES        628 44.80                             118   -0.21 9  137 199 
 SPBC HZ I         628 50.79        14.6 0.20             92            137 199 
 ZAR  HZ EP        628 29.84                             116    0.54 9  151 299 
 ZAR  HN ES        628 48.07                             116    0.56 9  151 299 
 OCA  HZ EP        628 29.92                             114   -0.74 9  161  14 
 OCA  HN ES        628 50.02                             114    0.08 9  161  14 
 OCA  HZ I         628 59.11         9.8 0.16             92            161  14 
 NOR  HZ EP        628 34.36                             110    0.25 9  192 224 
 NOR  HN ES        628 56.40                             110    0.31 9  192 224 
 NOR  HZ I         628 59.82        11.6 0.18             56            192 224 
 HEL  HZ EP        628 38.29                             107    0.88 8  217 251 
 HEL  HN ES   4    629  4.27                             107    2.32 0  217 251 
 HEL  HZ I         629  8.30         4.7 0.30             56            217 251 
 SML  HZ EP        628 36.87                             107   -0.76 8  223 349 
 SML  HE ES        629  2.44                             107    0.08 8  223 349 
 SML  HZ I         629  6.07        15.6 0.26             56            223 349 
 GUY2CHZ EP   4    628 43.80                             104    1.44 0  258 227 
 GUY2CHN ES   4    629  9.04                             104   -1.73 0  258 227 
 GUY2CHZ I         629 17.97         5.2 0.70                           258 227 
 RREF HE ES   1    629 15.99                             103   -0.35 6  282 221 
 TOL  SZ EP   4    628 50.02                             102    1.84 0  308 217 
 TOL  SN ES   4    629 23.72                             102    2.59 0  308 217 
 TOL  SZ I         629 25.96         4.0 0.28             55            308 217 
 PRA  HZ EP   1    628 55.59                              99    0.29 5  369 201 
 PRA  HZ I         629 43.78         1.5 0.26             55            369 201 
 SJC  HN ES   4    629 33.23                              99   -2.58 0  378 334 
                                                                                
