 2012  5 9 0442 16.8 L   6.733 -73.156154.0  RSN  4 0.1 1.3LRSN                1
 GAP=138        0.43       3.9     4.3  5.8  0.2306E+01 -0.3175E+01  0.2006E+01E
 Epicentro: VILLANUEVA - SANTANDER                                             3
 ACTION:UP  12-07-05 12:03 OP:pat  STATUS:               ID:20120509044216 L   I
 2012-05-09-0440-00M.COL___192                                                 6
 STAT SP IPHASW D HRMM SECON CODA AMPLIT PERI AZIMU VELO SNR AR TRES W  DIS CAZ7
 BRR  HZ EP        442 39.16                             153     0.210   74 304 
 BRR  HN ES   1    442 56.27                             153     0.0 7   74 304 
 BRR  HZ I         443  0.88         5.8 0.16                            74 304 
 PAM  SZ EP        442 40.16                             150    -0.110   84  37 
 RUS  HZ EP        442 40.91                             147     0.110   93 175 
 RUS  HN ES   2    442 59.55                             147    -0.1 5   93 175 
 RUS  HZ I         443  0.83         2.3 0.48                            93 175 
 PTB  HZ EP        442 44.08                             134    -0.1 9  145 262 
 PTB  HZ I         443  6.76         2.1 0.20                           145 262 
                                                                                
