 2011  1 9 0209 20.8 L   6.833 -73.151144.0  RSN 13 0.5 2.4LRSN                1
 GAP=103        0.98       3.7     6.0  7.2 -0.9125E+01  0.1084E+02 -0.1482E+01E
 Epicentro: LOS SANTOS - SANTANDER                                             3
 ACTION:UP  11-02-08 08:39 OP:pat  STATUS:               ID:20110109020920 L   I
 2011-01-09-0200-00M.COL___136                                                 6
 STAT SP IPHASW D HRMM SECON CODA AMPLIT PERI AZIMU VELO SNR AR TRES W  DIS CAZ7
 BAR2 SZ IP        2 9 40.48                             169     0.110   27 188 
 BAR2 SZ ES   1    2 9 55.55                             169     0.0 7   27 188 
 BAR2 SZ I         2 9 57.42        48.9 0.29                            27 188 
 RUS  HZ EP   1    2 9 44.20                             142    -0.5 7  104 176 
 RUS  HN ES   1    210  2.96                             142    -0.3 7  104 176 
 RUS  HZ I         210  4.28        25.4 0.13                           104 176 
 GRA  SZ IP        2 9 46.27                             137     0.610  122  18 
 GRA  SZ ES   1    210  5.35                             137     0.3 7  122  18 
 GRA  SZ I         210  7.03        55.8 0.41                           122  18 
 OCA  SZ EP        2 9 48.17                             130    -0.5 9  157 353 
 OCA  SZ ES   1    210 10.20                             130    -0.2 7  157 353 
 OCA  SZ I         210 15.75        45.1 0.19                           157 353 
 YOP  SZ EP   2    2 9 51.70                             125     0.6 4  182 154 
 YOP  SN ES   2    210 15.35                             125     0.6 4  182 154 
 YOP  SZ I         210 17.56         7.6 0.24                           182 154 
 NOR  SZ EP   1    2 9 56.54                             118    -0.1 6  237 234 
 NOR  SN ES   1    210 24.02                             118    -0.6 6  237 234 
 CHI  HZ EP   1    2 9 58.51                             116    -0.3 6  252 195 
 CHI  HE ES   2    210 28.15                             116    -0.3 4  252 195 
 CHI  HZ I         210 33.79         8.1 0.32                           252 195 
 ROSC BZ EP   2    2 9 59.20                             116     0.0 4  256 211 
 ROSC BZ I         210 37.15        20.0 0.44                           256 211 
 HEL  HZ EP   1    210  1.58                             114     0.6 6  272 255 
 HEL  HE ES   2    210 32.10                             114    -0.2 4  272 255 
 HEL  HZ I         210 38.95        24.8 0.21                           272 255 
 RREF HZ EP   1    210  7.92                             110     0.8 5  324 229 
 RREF HE ES   1    210 43.91                             110     0.7 5  324 229 
 RREF HZ I         210 51.99        17.3 0.36                           324 229 
 TOL  SZ EP   2    210  9.28                             109     0.0 3  346 224 
 SDV  BZ EP        210  9.73                             108    -0.9 6  359  51 
 SDV  BZ I         210 10.67         6.2 0.20                           359  51 
 SJA  SZ EP   2    210 16.04                             106     0.3 3  404 193 
 SJA  SZ I         211  3.65        12.3 0.40                           404 193 
                                                                                
