 2011  9 9 0419 25.4 L   6.525 -73.475106.3  RSN  5 0.2 1.4LRSN                1
 GAP=157        0.39       3.3     4.5  7.4  0.4283E+01  0.1585E+02  0.5656E+01E
 Epicentro: SIMACOTA - SANTANDER                                               3
 ACTION:UPD 12-07-13 15:56 OP:ep   STATUS:               ID:20110909041925 L   I
 2011-09-09-0414-49S.COL___170                                                 6
 STAT SP IPHASW D HRMM SECON CODA AMPLIT PERI AZIMU VELO AIN AR TRES W  DIS CAZ7
 BAR2 SZ EP   1    419 40.51                             161   -0.15 7 33.2  77 
 BAR2 SZ ES   2    419 52.25                             161   -0.29 5 33.2  77 
 BAR2 SZ I         419 54.46        12.8 0.27                          33.2  77 
 GIR2 SZ EP   3    419 42.10                             145   -0.40 2 68.7  27 
 GIR2 SZ ES   2    419 55.86                             145    0.05 5 68.7  27 
 RUS  HZ EP   1    419 43.97                             140   -0.03 7 82.3 148 
 RUS  HE ES   2    419 58.86                             140    0.36 5 82.3 148 
 RUS  HZ I         420  0.62         2.4 0.36                          82.3 148 
 PAM  SN ES   2    420  5.44                             127    0.27 5  124  44 
 ZAR  HE ES   2    420 15.91                             114    0.17 4  187 305 
 ZAR  HZ I         420 17.11         3.8 0.49                           187 305 
                                                                                
