 2013  8 9 0507 17.8 L   6.777 -73.161146.1  RSN  9 0.4 1.4LRSN                1
 GAP=136        0.88       3.2     3.7  5.4 -0.6754E+00  0.3676E+01  0.4182E+01E
 Epicentro: LOS SANTOS - SANTANDER                                             3
 ACTION:UPD 14-01-14 09:00 OP:ep   STATUS:               ID:20130809050717 L   I
 OLDACT:UP  13-08-09 08:20 OP:jn   STATUS:               ID:20130809045959     3
 OLDACT:REG 13-08-09 06:26 OP:jn   STATUS:               ID:20130809045959     3
 2013-08-09-0459-59M.COL___267                                                 6
 STAT SP IPHASW D HRMM SECON CODA AMPLIT PERI AZIMU VELO AIN AR TRES W  DIS CAZ7
 BAR2 SZ EP        5 7 37.05                             172   -0.3510 20.6 187 
 BAR2 SZ ES        5 7 53.01                             172    0.3110 20.6 187 
 BAR2 SZ I         5 7 53.89         7.5 0.26            170           20.6 187 
 GIR2 SZ EP   1    5 7 37.30                             166   -0.25 7 33.5 354 
 GIR2 SZ ES   1    5 7 53.18                             166    0.21 7 33.5 354 
 GIR2 SZ I         5 7 53.95         4.4 0.12            169           33.5 354 
 BRR  HZ EP        5 7 39.43                             153    0.4810 71.0 301 
 BRR  HN ES        5 7 55.84                             153    0.3810 71.0 301 
 BRR  HZ I         5 8  0.30         4.7 0.20            154           71.0 301 
 PAM  SZ EP        5 7 40.26                             150    0.0510 80.4  39 
 PAM  SN ES        5 7 57.46                             150   -0.2410 80.4  39 
 PAM  SZ I         5 7 59.77         4.5 0.54            154           80.4  39 
 RUS  HZ EP        5 7 41.36                             145   -0.0410 98.2 175 
 RUS  HN ES        5 7 59.44                             145   -0.3710 98.2 175 
 RUS  HZ I         5 8  1.37         3.5 0.32            145           98.2 175 
 PTB  HZ EP        5 7 44.26                             132   -0.33 9  146 260 
 PTB  HN ES        5 8  4.71                             132   -0.78 9  146 260 
 PTB  HZ I         5 8  7.71         2.9 0.14            133            146 260 
 SPBC HZ EP        5 7 46.20                             130    0.18 9  160 219 
 SPBC HN ES        5 8  8.12                             130    0.07 9  160 219 
 SPBC HZ I         5 8 13.08         4.2 0.28            131            160 219 
 ZAR  HN ES        5 8 15.64                             122    0.18 9  203 293 
 CHI  HZ EP   1    5 7 55.40                             117    0.21 6  246 195 
 CHI  HN ES        5 8 24.95                             117    0.58 8  246 195 
 CHI  HZ I         5 8 30.05         1.6 0.18            119            246 195 
                                                                                
