 2017  1 9 0946 58.9 L   6.774 -73.134148.0  RSN  6 0.4 1.3LRSN                1
 GAP=139        1.02       5.2     4.6  6.9  0.2439E+01  0.7906E+01 -0.1622E+01E
 Epicentro: LOS SANTOS - SANTANDER                                             3
 ACTION:UPD 17-05-22 15:57 OP:jn   STATUS:               ID:20170109094658 L   I
 OLDACT:UP  17-01-09 19:31 OP:and  STATUS:               ID:20170109093748     3
 OLDACT:REG 17-01-09 13:28 OP:and  STATUS:               ID:20170109093748     3
 2017-01-09-0938-00M.COL___341                                                 6
 STAT SP IPHASW D HRMM SECON CODA AMPLIT PERI AZIMU VELO AIN AR TRES W  DIS CAZ7
 BAR2 EZ EP        947 18.69                             172   -0.0610 20.8 195 
 BAR2 EZ ES        947 34.63                             172    0.4010 20.8 195 
 BAR2 EZ I         947 35.02         4.9 0.20            173           20.8 195 
 BRR  HZ EP        947 20.56                             152    0.1210 73.7 300 
 BRR  HN ES        947 37.68                             152    0.4510 73.7 300 
 PAM  EZ EP        947 21.49                             151    0.0410 78.9  38 
 PAM  EN ES        947 38.48                             151   -0.5510 78.9  38 
 PAM  EZ I         947 40.52         2.7 0.22            151           78.9  38 
 RUS  HZ EP        947 22.65                             145   -0.0210 97.6 177 
 RUS  HN ES        947 41.24                             145    0.0410 97.6 177 
 RUS  HZ I         947 42.47         2.6 0.28            147           97.6 177 
 PTB  HZ EP        947 25.67                             132   -0.45 9  148 260 
 PTB  HN ES        947 46.77                             132   -0.57 9  148 260 
 PTB  HZ I         947 47.74         2.0 0.32            133            148 260 
 ZAR  HZ EP        947 32.59                             123    0.86 8  206 293 
 ZAR  HN ES        947 57.09                             123   -0.24 8  206 293 
 ZAR  HZ I         948  3.07         2.9 0.06            123            206 293 
                                                                                
