 2013  2 9 0437 32.2 L   6.749 -73.138144.6  RSN  5 0.4 1.5LRSN                1
 GAP=140        0.91       6.1     5.9  9.5  0.5618E+00 -0.2228E+01  0.1430E+02E
 Epicentro: LOS SANTOS - SANTANDER                                             3
 ACTION:UPD 13-03-12 09:31 OP:ep   STATUS:               ID:20130209043732 L   I
 2013-02-09-0430-00M.COL___240                                                 6
 STAT SP IPHASW D HRMM SECON CODA AMPLIT PERI AZIMU VELO AIN AR TRES W  DIS CAZ7
 BAR2 SZ EP        437 51.73                             173    0.1610 18.0 196 
 BAR2 SZ I         437 52.06         9.2 0.08            172           18.0 196 
 BRR  HZ EP        437 53.60                             151    0.1910 74.8 302 
 BRR  HN ES        438 10.49                             151    0.5110 74.8 302 
 BRR  HN I         438 11.14        10.1 0.21            154           74.8 302 
 PAM  SZ EP   1    437 54.62                             149    0.11 7 81.3  37 
 PAM  SN ES   1    438 11.18                             149   -0.75 7 81.3  37 
 PAM  SZ I         438 13.96         3.3 0.52            152           81.3  37 
 RUS  HZ EP        437 55.53                             145    0.1210 94.9 176 
 RUS  HN ES   1    438 13.49                             145   -0.04 7 94.9 176 
 RUS  HN I         438 15.67         4.1 0.26            147           94.9 176 
 PTB  HZ EP   1    437 58.56                             132   -0.48 7  148 261 
 PTB  HE ES   1    438 19.27                             132   -0.72 7  148 261 
 PTB  HZ I         438 21.75         4.1 0.17            134            148 261 
                                                                                
