 2012 12 9 0438 42.1 L   6.503 -73.527 31.5  RSN  4 0.3 1.3LRSN                1
 GAP=128        0.66       4.9     3.4  5.7  0.9262E+01  0.1445E+02  0.1867E+02E
 Epicentro: SIMACOTA - SANTANDER                                               3
 ACTION:UPD 13-01-04 14:26 OP:ep   STATUS:               ID:20121209043842 L   I
 2012-12-09-0430-00M.COL___243                                                 6
 STAT SP IPHASW D HRMM SECON CODA AMPLIT PERI AZIMU VELO AIN AR TRES W  DIS CAZ7
 BAR2 SZ EP   1    438 50.39                             125    0.14 8 39.4  76 
 BAR2 SZ ES   1    438 56.37                             125   -0.26 8 39.4  76 
 BAR2 SZ I         438 57.24        20.6 0.18                          39.4  76 
 GIR2 SZ EP   1    438 54.47                              61    0.03 8 73.5  30 
 RUS  HZ EP   1    438 56.74                              61    0.63 8 83.5 144 
 RUS  HN ES   1    439  6.67                              61   -0.40 8 83.5 144 
 RUS  HZ I         439  8.38         4.6 0.32                          83.5 144 
 PTB  HZ EP     D  438 58.02                              61    0.0710  103 272 
 PTB  HN ES   1    439 10.09                              61   -0.25 7  103 272 
 PTB  HZ I         439 10.77        12.4 0.22                           103 272 
                                                                                
