 2016  5 9 0120  6.0 L   6.824 -73.130143.7  RSN 14 0.4 2.0LRSN                1
 GAP=137        1.06       2.8     4.3  5.6 -0.1819E+01  0.7841E+01  0.8211E+00E
 Epicentro: LOS SANTOS - SANTANDER                                             3
 ACTION:UPD 16-08-18 17:43 OP:cam  STATUS:               ID:20160509012006 L   I
 OLDACT:UP  16-05-09 13:28 OP:drio STATUS:               ID:20160509011747     3
 OLDACT:UP  16-05-09 13:27 OP:drio STATUS:               ID:20160509011747     3
 OLDACT:REG 16-05-09 12:13 OP:drio STATUS:               ID:20160509011747     3
 2016-05-09-0117-47M.COL___292                                                 6
 STAT SP IPHASW D HRMM SECON CODA AMPLIT PERI AZIMU VELO AIN AR TRES W  DIS CAZ7
 BAR2 EZ EP        120 25.47                             169    0.0110 26.2 193 
 BAR2 EZ ES        120 40.05                             169   -0.5810 26.2 193 
 BAR2 EZ I         120 41.57        21.4 0.18            167           26.2 193 
 BRR  HZ EP        120 27.23                             152    0.2710 71.5 296 
 BRR  HE ES        120 44.13                             152    0.8310 71.5 296 
 BRR  HZ I         120 47.96        18.9 0.12            151           71.5 296 
 PAM  EZ EP        120 28.26                             151    0.4410 74.3  40 
 PAM  EN ES        120 45.17                             151    0.3310 74.3  40 
 PAM  EZ I         120 47.65        12.2 0.70            157           74.3  40 
 RUS  HZ EP        120 29.60                             143   -0.1510  103 177 
 RUS  HE ES        120 48.16                             143   -0.1010  103 177 
 RUS  HZ I         120 49.89         5.8 0.24            145            103 177 
 PTB  HZ EP        120 32.63                             131   -0.39 9  150 258 
 PTB  HN ES   4    120 52.96                             131   -1.12 0  150 258 
 PTB  HZ I         121  0.74         6.9 0.20            131            150 258 
 OCA  HZ EP        120 33.43                             130   -0.51 9  158 352 
 OCA  HN ES        120 55.20                             130   -0.52 9  158 352 
 OCA  HZ I         120 59.61        18.6 0.28            133            158 352 
 SPBC HZ EP        120 34.62                             128   -0.03 9  166 219 
 SPBC HE ES        120 56.38                             128   -0.61 9  166 219 
 SPBC HZ I         121  4.13        12.6 0.20            129            166 219 
 ZAR  HZ EP   4    120 40.07                             122    1.68 0  205 291 
 ZAR  HE ES        121  4.19                             122    0.54 9  205 291 
 ZAR  HZ I         121 10.29         9.2 0.24            123            205 291 
 NOR  HZ EP   4    120 41.25                             118   -0.69 0  238 234 
 NOR  HE ES        121 10.04                             118    0.08 8  238 234 
 NOR  HZ I         121 10.67         5.5 0.14            119            238 234 
 SML  HZ EP        120 42.27                             117   -0.07 8  242 335 
 SML  HE ES        121 10.34                             117   -0.34 8  242 335 
 CHI  HZ EP        120 44.38                             116    0.46 8  252 195 
 CHI  HN ES   4    121 15.68                             116    2.19 0  252 195 
 CHI  HZ I         121 20.59         3.2 0.54            118            252 195 
 ROSC BE EP   4    120 46.30                             116    1.94 0  256 211 
 ROSC BN ES   4    121 17.11                             116    2.83 0  256 211 
 URE  HZ EP   4    120 50.18                             113    3.13 0  284 291 
 URE  HE ES   4    121 16.10                             113   -2.97 0  284 291 
 URE  HZ I         121 20.70        10.7 0.86            115            284 291 
 CBOC HZ EP        120 53.47                             109    0.35 7  336 252 
 CBOC HN ES        121 29.16                             109   -0.71 7  336 252 
 PRA  HZ EP        121  0.12                             106    0.29 6  395 210 
 PRA  HE ES        121 42.61                             106    0.80 6  395 210 
 PRA  HZ I         121 47.55         4.7 0.56            108            395 210 
                                                                                
