 2013  7 9 0323  7.2 L   6.799 -73.195148.7  RSN  4 0.2 1.4LRSN                1
 GAP=200        0.63       4.0     4.9  5.1  0.1034E+01  0.2021E+01 -0.7520E+01E
 Epicentro: ZAPATOCA - SANTANDER                                               3
 ACTION:UPD 13-08-12 10:36 OP:ep   STATUS:               ID:20130709032307 L   I
 OLDACT:REG 13-07-09 07:37 OP:nd   STATUS:               ID:20130709031959     3
 2013-07-09-0319-59M.COL___266                                                 6
 STAT SP IPHASW D HRMM SECON CODA AMPLIT PERI AZIMU VELO AIN AR TRES W  DIS CAZ7
 BAR2 SZ EP        323 26.87                             171   -0.3310 22.9 177 
 BAR2 SZ ES        323 43.00                             171    0.2210 22.9 177 
 BAR2 SZ I         323 45.00         3.2 0.26            170           22.9 177 
 BRR  HZ EP        323 28.81                             155    0.3710 66.5 301 
 BRR  HN ES        323 44.70                             155   -0.2910 66.5 301 
 BRR  HZ I         323 54.43         3.4 0.22            149           66.5 301 
 PTB  HZ EP        323 33.83                             134   -0.13 9  142 258 
 PTB  HN ES        323 54.91                             134    0.10 9  142 258 
 PTB  HZ I         324  2.32         4.1 0.36            134            142 258 
 SML  HZ EP        323 43.82                             118    0.04 8  242 336 
 SML  HN ES        324 12.33                             118    0.03 8  242 336 
 SML  HZ I         324 18.75         4.0 0.10            121            242 336 
                                                                                
