 2013  6 9 0549 17.4 L   6.780 -73.107146.9  RSN 16 0.5 3.1LRSN                1
 GAP= 74        1.04       3.3     3.2  5.4  0.4978E+00  0.3875E+01  0.2615E+01E
 Epicentro: LOS SANTOS - SANTANDER                                             3
 ACTION:UPD 14-01-08 09:53 OP:ep   STATUS:               ID:20130609054917 L   I
 OLDACT:REG 13-06-09 08:10 OP:mh   STATUS:               ID:20130609054745     3
 2013-06-09-0547-45M.COL___231                                                 6
 STAT SP IPHASW D HRMM SECON CODA AMPLIT PERI AZIMU VELO AIN AR TRES W  DIS CAZ7
 BAR2 SZ IP     C  549 37.30                             171    0.1110 22.3 202 
 BAR2 SZ ES   1    549 53.05                             171    0.46 7 22.3 202 
 GIR2 SZ EP        549 37.45                             166    0.1110 34.4 344 
 GIR2 SZ ES   2    549 52.26                             166   -0.60 5 34.4 344 
 GIR2 SZ I         549 54.21        48.0 0.30            158           34.4 344 
 BRR  HZ IP     C  549 39.24                             151    0.2510 76.0 298 
 BRR  HN ES        549 56.56                             151    0.7610 76.0 298 
 BRR  HN I         549 59.05       256.4 0.18            144           76.0 298 
 PAM  SZ EP        549 40.18                             151    0.4510 76.6  36 
 PAM  SN ES   1    549 57.34                             151    0.22 7 76.6  36 
 PAM  SZ I         549 59.40        51.2 0.20            145           76.6  36 
 RUS  HZ EP     D  549 41.15                             145    0.0210 98.1 178 
 RUS  HN ES        549 59.01                             145   -0.6010 98.1 178 
 TAM  HZ EP   1    549 45.42                             132    0.64 7  150 105 
 TAM  HE ES        550  5.55                             132   -0.55 9  150 105 
 TAM  HE I         550  8.30       142.6 0.52            129            150 105 
 PTB  HZ EP        549 44.24                             131   -0.61 9  152 260 
 PTB  HN ES        550  5.55                             131   -0.67 9  152 260 
 PTB  HN I         550 10.60       270.5 0.48            126            152 260 
 OCA  HZ EP   1    549 45.62                             129   -0.49 7  163 352 
 OCA  HN ES   2    550  8.39                             129   -0.07 5  163 352 
 OCA  HN I         550 11.38       380.9 0.24            122            163 352 
 ZAR  HZ EP   1    549 49.94                             122   -0.52 6  209 292 
 ZAR  HN ES        550 15.98                             122   -0.23 8  209 292 
 ZAR  HN I         550 21.79       216.7 0.22            116            209 292 
 NOR  HZ EP        549 53.38                             118   -0.09 8  237 236 
 NOR  HN ES   1    550 21.69                             118    0.11 6  237 236 
 NOR  HN I         550 26.03       157.0 0.32            115            237 236 
 CHI  HZ EP   1    549 55.32                             117    0.23 6  248 196 
 CHI  HN ES   2    550 24.57                             117    0.11 4  248 196 
 SML  HZ EP        549 53.79                             117   -0.76 8  248 335 
 SML  HN ES   1    550 23.36                             117   -0.13 6  248 335 
 SML  HN I         550 24.60       138.5 0.12            112            248 335 
 ROSC BZ EP        549 56.72                             117    1.06 8  253 212 
 ROSC BN ES   4    550 28.86                             117    3.39 0  253 212 
 HEL  HZ EP        549 58.69                             115    0.58 7  276 256 
 HEL  HN ES        550 30.16                             115    0.33 7  276 256 
 HEL  HN I         550 37.40        34.8 0.24            111            276 256 
 VIL  SZ EP   1    550  0.62                             112   -0.14 5  302 192 
 VIL  SE ES   4    550 36.41                             112    1.86 0  302 192 
 PRA  HZ EP        550 10.76                             107   -0.26 6  392 210 
 PRA  HN ES   1    550 52.62                             107   -0.19 4  392 210 
 PRA  HZ I         550 57.94        26.3 0.52            104            392 210 
                                                                                
