 2011  5 9 0528 39.2 L   6.798 -73.053148.0  RSN  5 0.3 1.4LRSN                1
 GAP=169        0.64       3.9     9.3  7.0  0.7512E+01 -0.1869E+02 -0.4715E+00E
 Epicentro: LOS SANTOS - SANTANDER                                             3
 ACTION:UP  11-06-29 08:51 OP:tino STATUS:               ID:20110509052839 L   I
 2011-05-09-0526-52S.COL___131                                                 6
 STAT SP IPHASW D HRMM SECON CODA AMPLIT PERI AZIMU VELO AIN AR TRES W  DIS CAZ7
 BAR2 SZ EP        528 58.93                             169    -0.210   27 212 
 BAR2 SZ I         529  0.41         5.0 0.51                            27 212 
 BAR2 SZ ES   1    529 15.04                             169     0.3 7   27 212 
 BRR  HZ EP        529  0.95                             150    -0.110   80 295 
 BRR  HN ES   1    529 18.25                             150     0.0 7   80 295 
 RUS  HZ EP        529  3.13                             144     0.010  100 182 
 RUS  HN ES   3    529 21.59                             144    -0.2 2  100 182 
 RUS  HZ I         529 23.33         3.1 0.42                           100 182 
 GRA  SZ ES   2    529 23.86                             138    -0.2 5  123  13 
 GRA  SZ I         529 25.58         4.0 0.34                           123  13 
 OCA  SZ EP   1    529  8.41                             130     0.6 7  162 350 
 OCA  SZ ES   1    529 29.98                             130    -0.2 7  162 350 
 OCA  SZ I         529 34.44         3.0 0.53                           162 350 
                                                                                
