 2017  1 9 0825 48.1 L   6.817 -73.178145.2  RSN  4 0.2 1.0LRSN                1
 GAP=132        0.56       3.3     3.3  6.0 -0.2833E+01  0.6513E+01 -0.1651E+01E
 Epicentro: ZAPATOCA - SANTANDER                                               3
 ACTION:UPD 17-05-22 15:57 OP:jn   STATUS:               ID:20170109082548 L   I
 OLDACT:UP  17-01-09 18:49 OP:and  STATUS:               ID:20170109081744     3
 OLDACT:UP  17-01-09 18:48 OP:and  STATUS:               ID:20170109081744     3
 OLDACT:REG 17-01-09 13:19 OP:and  STATUS:               ID:20170109081744     3
 2017-01-09-0818-00M.COL___341                                                 6
 STAT SP IPHASW D HRMM SECON CODA AMPLIT PERI AZIMU VELO AIN AR TRES W  DIS CAZ7
 BRR  HZ EP        826  9.33                             154    0.3510 67.1 299 
 BRR  HN ES   4    826 26.93                             154    1.67 0 67.1 299 
 PAM  EZ EP        826 10.43                             150    0.1010 78.3  42 
 PAM  EN ES        826 27.48                             150   -0.1710 78.3  42 
 PAM  EZ I         826 29.66         1.3 0.48            153           78.3  42 
 RUS  HZ EP        826 11.80                             143   -0.1710  103 174 
 RUS  HN ES        826 30.72                             143    0.1310  103 174 
 RUS  HZ I         826 31.81         2.2 0.26            146            103 174 
 PTB  HZ EP        826 14.54                             132   -0.22 9  145 258 
 PTB  HN ES        826 35.48                             132   -0.05 9  145 258 
 PTB  HZ I         826 38.26         1.0 0.06            135            145 258 
                                                                                
