 2012  8 9 0713 16.7 L   6.729 -73.143142.0  RSN  5 0.2 1.2LRSN                1
 GAP=140        0.57       6.0     4.3  5.5  0.2277E+01 -0.2564E+01  0.7305E+01E
 Epicentro: JORDAN - SANTANDER                                                 3
 ACTION:UPD 12-09-10 11:55 OP:ep   STATUS:               ID:20120809071316 L   I
 2012-08-09-0710-00M.COL___215                                                 6
 STAT SP IPHASW D HRMM SECON CODA AMPLIT PERI AZIMU VELO AIN AR TRES W  DIS CAZ7
 BAR2 SZ EP        713 35.73                             173   -0.0210 15.8 196 
 BAR2 SZ I         713 36.05         5.7 0.16                          15.8 196 
 BAR2 SZ ES   1    713 50.35                             173   -0.26 7 15.8 196 
 BRR  HZ EP        713 37.70                             150    0.0010 75.5 304 
 BRR  HZ I         713 39.47         4.9 0.12                          75.5 304 
 BRR  HN ES        713 54.37                             150    0.2910 75.5 304 
 PAM  SZ EP   1    713 38.63                             148   -0.27 7 83.4  36 
 RUS  HZ EP   1    713 39.97                             145    0.44 7 92.8 176 
 RUS  HZ I         713 59.93         1.3 0.23                          92.8 176 
 PTB  HZ EP        713 43.19                             131   -0.09 9  147 262 
 PTB  HN ES   1    714  3.73                             131   -0.28 7  147 262 
 PTB  HZ I         714  5.99         2.3 0.52                           147 262 
                                                                                
