 2016 11 9 0334 22.9 L   6.813 -73.180148.4  RSN  4 0.2 0.9LRSN                1
 GAP=242        0.57       7.1     4.6  5.6  0.1637E+02  0.8944E+01  0.6853E+01E
 Epicentro: ZAPATOCA - SANTANDER                                               3
 ACTION:UPD 17-10-26 21:06 OP:lp   STATUS:               ID:20161109033422 L   I
 OLDACT:DUP 16-11-09 16:05 OP:lv   STATUS:               ID:20161109032745d    3
 2016-11-09-0328-00M.COL___349                                                 6
 STAT SP IPHASW D HRMM SECON CODA AMPLIT PERI AZIMU VELO AIN AR TRES W  DIS CAZ7
 BAR2 EZ EP        334 42.98                             170    0.1310 24.4 181 
 BAR2 EZ ES        334 58.16                             170   -0.2710 24.4 181 
 BAR2 EZ I         334 58.66         2.3 0.37            163           24.4 181 
 BRR  HN ES        335  0.91                             154    0.2610 67.2 299 
 PTB  HZ EP        334 49.74                             133   -0.02 9  144 258 
 PTB  HE ES        335 10.84                             133    0.12 9  144 258 
 PTB  HZ I         335 14.64         0.8 0.21            131            144 258 
 ZAR  HN ES        335 19.92                             123   -0.28 9  200 292 
                                                                                
