 2017  4 9 0348 14.9 L   6.544 -73.533107.2  RSN 14 0.4 1.7LRSN                1
 GAP= 64        0.88       3.0     3.0  5.2 -0.2437E+01  0.6282E+01 -0.3025E+01E
 Epicentro: EL CARMEN - SANTANDER                                              3
 ACTION:UPD 17-05-30 21:09 OP:jn   STATUS:               ID:20170409034814 L   I
 OLDACT:UP  17-04-09 14:44 OP:and  STATUS:               ID:20170409034746     3
 OLDACT:UP  17-04-09 14:44 OP:and  STATUS:               ID:20170409034746     3
 OLDACT:UP  17-04-09 14:42 OP:and  STATUS:               ID:20170409034746     3
 OLDACT:UP  17-04-09 14:41 OP:and  STATUS:               ID:20170409034746     3
 OLDACT:UP  17-04-09 14:41 OP:and  STATUS:               ID:20170409034746     3
 OLDACT:UP  17-04-09 14:40 OP:and  STATUS:               ID:20170409034746     3
 OLDACT:UP  17-04-09 14:40 OP:and  STATUS:               ID:20170409034746     3
 OLDACT:UP  17-04-09 14:39 OP:and  STATUS:               ID:20170409034746     3
 OLDACT:UP  17-04-09 14:38 OP:and  STATUS:               ID:20170409034746     3
 OLDACT:UP  17-04-09 14:38 OP:and  STATUS:               ID:20170409034746     3
 OLDACT:UP  17-04-09 14:36 OP:and  STATUS:               ID:20170409034746     3
 OLDACT:UP  17-04-09 14:36 OP:and  STATUS:               ID:20170409034746     3
 OLDACT:UP  17-04-09 14:36 OP:and  STATUS:               ID:20170409034746     3
 OLDACT:UP  17-04-09 14:36 OP:and  STATUS:               ID:20170409034746     3
 OLDACT:UP  17-04-09 14:36 OP:and  STATUS:               ID:20170409034746     3
 OLDACT:UP  17-04-09 14:33 OP:and  STATUS:               ID:20170409034746     3
 OLDACT:UP  17-04-09 14:33 OP:and  STATUS:               ID:20170409034746     3
 OLDACT:UP  17-04-09 14:32 OP:and  STATUS:               ID:20170409034746     3
 OLDACT:REG 17-04-09 12:45 OP:and  STATUS:               ID:20170409034746     3
 2017-04-09-0348-00M.COL___368                                                 6
 STAT SP IPHASW D HRMM SECON CODA AMPLIT PERI AZIMU VELO AIN AR TRES W  DIS CAZ7
 BAR2 EZ IP     C  348 30.73                             158    0.2310 39.2  82 
 BAR2 EZ ES        348 43.00                             158    0.3410 39.2  82 
 BRR  HZ EP        348 31.41                             146   -0.2310 65.4 342 
 BRR  HN ES   4    348 50.86                             146    6.17 0 65.4 342 
 BRR  HZ I         348 55.31        12.5 0.26            132           65.4 342 
 RUS  HZ EP        348 33.68                             138   -0.3210 87.5 145 
 RUS  HN ES        348 49.09                             138    0.2010 87.5 145 
 RUS  HZ I         348 49.65         9.8 0.26            131           87.5 145 
 PTB  HZ IP   9 C  348 33.53                             133   -1.06 0  102 270 
 PTB  HE ES        348 48.45                             134   -0.4310  102 270 
 PTB  HZ I         348 49.97        15.1 0.06            123            102 270 
 SPBC HN ES        348 52.31                             129    0.0310  115 211 
 SPBC HZ I         348 53.80        21.8 0.10            122            115 211 
 PAM  EZ EP        348 37.28                             126   -0.3310  127  46 
 PAM  EN ES        348 55.25                             126   -0.0610  127  46 
 PAM  EZ I         348 56.82         8.2 0.34            115            127  46 
 YPLC HZ IP     D  348 42.55                             116   -0.03 9  180 135 
 YPLC HN ES   3    349  5.25                             116    1.09 2  180 135 
 YPLC HZ I         349  6.52         8.0 0.28            109            180 135 
 ZAR  HZ EP        348 42.82                             116    0.32 9  180 306 
 ZAR  HE ES   4    349  6.38                             116    2.35 0  180 306 
 ZAR  HZ I         349  9.14        13.5 0.22            107            180 306 
 NOR  HN ES        349  4.04                             115   -0.73 9  183 234 
 NOR  HZ I         349  5.85         4.8 0.12            108            183 234 
 CHI  HZ EP        348 46.61                             111   -0.07 8  213 186 
 CHI  HN ES   4    349 13.20                             111    1.74 0  213 186 
 CHI  HZ I         349 15.92         2.2 0.20            106            213 186 
 HEL  HZ EP        348 48.68                             110    0.76 8  224 260 
 HEL  HN ES   3    349 15.08                             110    1.41 2  224 260 
 HEL  HZ I         349 17.29         3.1 0.18            104            224 260 
 URE  HZ EP        348 50.77                             107   -0.63 8  258 301 
 URE  HN ES   4    349 18.56                             107   -1.30 0  258 301 
 URE  HZ I         349 28.61         5.9 0.16            102            258 301 
 CBOC HZ EP        348 55.09                             105    0.40 7  284 255 
 CBOC HN ES   2    349 25.89                             105    0.17 4  284 255 
 CBOC HZ I         349 28.58         1.2 0.46            101            284 255 
 PTGC HZ EP   9    348 55.09                             103   -1.48 0  302 149 
 PTGC HN ES        349 27.47                             104   -0.11 7  302 149 
 SJC  HZ EP   4    349  8.47                              98   -1.44 0  413 334 
 SJC  HN ES   4    349 50.40                              98   -2.42 0  413 334 
                                                                                
