 2012 10 9 0536 39.9 L   6.766 -72.983147.5  RSN  5 0.4 1.4LRSN                1
 GAP=220        0.72       7.4     9.0  8.3  0.3798E+02  0.6201E+01 -0.8998E+01E
 Epicentro: CEPITA - SANTANDER                                                 3
 ACTION:UPD 12-11-22 17:02 OP:ep   STATUS:               ID:20121009053639 L   I
 2012-10-09-0530-00M.COL___223                                                 6
 STAT SP IPHASW D HRMM SECON CODA AMPLIT PERI AZIMU VELO AIN AR TRES W  DIS CAZ7
 BAR2 SZ EP   1    536 59.96                             168    0.09 7 29.3 229 
 BAR2 SZ I         537  0.31         6.3 0.08                          29.3 229 
 BAR2 SZ ES   1    537 15.23                             168   -0.22 7 29.3 229 
 GIR2 SZ EP   1    537  0.17                             163    0.07 7 41.7 326 
 GIR2 SZ ES   1    537 16.34                             163    0.49 7 41.7 326 
 BRR  HZ EP   1    537  1.95                             147   -0.37 7 88.9 295 
 BRR  HZ I         537  2.35         5.1 0.10                          88.9 295 
 BRR  HN ES   1    537 19.24                             147   -0.57 7 88.9 295 
 RUS  HN ES   1    537 22.21                             145    0.15 7 97.2 187 
 RUS  HN I         537 22.88         4.0 0.24                          97.2 187 
 ZAR  HN ES   1    537 41.74                             120    0.53 6  222 291 
                                                                                
