 2017  6 9 0815 42.9 L   6.773 -73.124150.5  RSN  4 0.3 1.1LRSN                1
 GAP=238        0.83       5.3     6.3  8.6  0.1077E+02 -0.5101E+01 -0.3321E+01E
 Epicentro: LOS SANTOS - SANTANDER                                             3
 ACTION:UPD 17-09-14 16:50 OP:jn   STATUS:               ID:20170609081542 L   I
 OLDACT:DUP 17-06-09 18:00 OP:ar   STATUS:               ID:20170609080739d    3
 OLDACT:REG 17-06-09 13:18 OP:edw  STATUS:               ID:20170609080738     3
 2017-06-09-0808-00M.COL___353                                                 6
 STAT SP IPHASW D HRMM SECON CODA AMPLIT PERI AZIMU VELO AIN AR TRES W  DIS CAZ7
 BRR  HZ EP        816  4.77                             152    0.0610 74.8 300 
 BRR  HN ES        816 21.94                             152    0.1810 74.8 300 
 BRR  HZ I         816 24.62         4.8 0.34            149           74.8 300 
 RUS  HZ EP        816  7.22                             146    0.3710 97.4 177 
 RUS  HN ES        816 25.16                             146   -0.4010 97.4 177 
 RUS  HZ I         816 26.19         1.5 0.24            145           97.4 177 
 PTB  HZ EP        816  9.91                             133   -0.46 9  150 260 
 PTB  HN ES        816 31.68                             133   -0.16 9  150 260 
 PTB  HZ I         816 37.37         0.9 0.68            130            150 260 
 SPBC HE ES        816 34.50                             130    0.40 9  162 220 
 SPBC HZ I         816 39.49         2.2 0.30            129            162 220 
                                                                                
