 2010  6 9 0723 42.8 L   6.816 -73.082136.8  RSN 13 0.5 2.6LRSN                1
 GAP=130        1.02       3.7     8.1  7.2 -0.1522E+02  0.1862E+02 -0.3425E+00E
 Epicentro: LOS SANTOS - SANTANDER                                             3
 ACTION:UP  10-08-24 10:09 OP:vdl  STATUS:               ID:20100609072342 L   I
 2010-06-09-0721-40S.COL___111                                                 6
 STAT SP IPHASW D HRMM SECON CODA AMPLIT PERI AZIMU VELO SNR AR TRES W  DIS CAZ7
 BAR2 SZ IP        724  1.67                             168     0.210   27 204 
 BAR2 SZ ES   1    724 15.77                             168    -0.2 7   27 204 
 GIR2 SZ EP        724  1.72                             166     0.310   32 337 
 RUS  HZ IP     C  724  5.67                             141    -0.110  102 180 
 RUS  HN ES   1    724 24.04                             141     0.3 7  102 180 
 RUS  HZ I         724 26.13        47.9 0.25                           102 180 
 GUE  SZ EP        724  6.64                             138     0.210  113   9 
 GUE  SZ ES   1    724 24.56                             138    -0.3 7  113   9 
 GRA  SZ ES   1    724 26.12                             136     0.3 7  122  15 
 OCA  SZ IP        724 10.09                             128    -0.3 9  159 351 
 OCA  SZ ES   1    724 31.54                             128    -0.3 7  159 351 
 OCA  SZ I         724 35.12        57.4 0.22                           159 351 
 CHI  HZ EP   1    724 19.81                             115    -0.6 6  252 197 
 CHI  HE ES   1    724 49.09                             115    -0.7 6  252 197 
 CHI  HZ I         724 53.19        21.3 0.40                           252 197 
 ROSC BZ IP     D  724 21.95                             114     0.9 8  258 212 
 ROSC BE ES   1    724 49.98                             114    -0.9 6  258 212 
 ROSC BZ I         724 55.54        32.2 0.61                           258 212 
 HEL  HZ EP   1    724 23.86                             112     0.5 6  279 256 
 HEL  HZ I         725  0.82        28.4 0.37                           279 256 
 RREF BZ EP   1    724 29.95                             109     0.6 5  328 230 
 RREF BE ES   1    725  5.81                             109     0.2 5  328 230 
 RREF BZ I         725 13.66        23.0 0.33                           328 230 
 DBB  SZ EP   1    724 29.72                             107    -1.0 5  346 274 
 TOL  SZ EP   1    724 31.64                             107     0.2 5  350 225 
 SDV  BZ EP        724 31.30                             107    -0.5 6  354  50 
 SDV  BZ I         725 11.13         7.0 0.36                           354  50 
                                                                                
