 2014 11 9 0353 41.0 L   6.017 -73.948 82.9  RSN  6 0.4 1.3LRSN                1
 GAP=187        1.09       4.4     5.7  8.0 -0.1424E+02  0.1013E+02 -0.6458E+01E
 Epicentro: EL PENON - SANTANDER                                               3
 ACTION:UPD 14-12-19 15:40 OP:nd   STATUS:               ID:20141109035341 L   I
 OLDACT:REG 14-11-09 14:31 OP:carl STATUS:               ID:20141109034740     3
 2014-11-09-0347-40M.COL___292                                                 6
 STAT SP IPHASW D HRMM SECON CODA AMPLIT PERI AZIMU VELO AIN AR TRES W  DIS CAZ7
 SPBC HN ES        354  4.16                             150    0.2710 42.7 199 
 PTB  HZ EP        353 56.03                             132   -0.7010 80.6 316 
 PTB  HE ES        354  8.70                             132   -0.2810 80.6 316 
 PTB  HZ I         354 12.82         5.4 0.10            131           80.6 316 
 NOR  HZ EP        353 59.51                             121   -0.5610  114 244 
 NOR  HN ES        354 14.54                             121   -0.3910  114 244 
 NOR  HZ I         354 16.80         8.7 0.16            124            114 244 
 BRR  HZ EP        354  1.09                             119    0.0710  123  12 
 BRR  HN ES        354 17.06                             119    0.4310  123  12 
 BRR  HZ I         354 22.30         3.6 0.42            120            123  12 
 HEL  HZ EP        354  7.62                             110    0.19 9  176 276 
 HEL  HE ES        354 28.63                             110    0.59 9  176 276 
 HEL  HZ I         354 32.11         2.1 0.24            112            176 276 
 GUY2CHZ EP        354  8.19                             110    0.19 9  180 241 
 GUY2CHE ES        354 29.54                             110    0.49 9  180 241 
 GUY2CHZ I         354 33.01         2.9 0.44                           180 241 
                                                                                
