 2016  4 9 0001 15.1 L   6.791 -73.135146.0  RSN 10 0.4 2.0LRSN                1
 GAP=138        0.97       3.9     4.3  7.4 -0.2191E+01  0.1074E+02  0.1600E+01E
 Epicentro: LOS SANTOS - SANTANDER                                             3
 ACTION:UPD 16-05-05 14:19 OP:rebc STATUS:               ID:20160409000114 L   I
 OLDACT:UP  16-04-11 19:09 OP:nlst STATUS:               ID:20160409000114 L   3
 OLDACT:UP  16-04-09 12:24 OP:mh   STATUS:               ID:20160409000004     3
 OLDACT:UP  16-04-09 12:23 OP:mh   STATUS:               ID:20160409000004     3
 OLDACT:REG 16-04-09 11:54 OP:mh   STATUS:               ID:20160409000004     3
 2016-04-09-0000-04M.COL___310                                                 6
 STAT SP IPHASW D HRMM SECON CODA AMPLIT PERI AZIMU VELO AIN AR TRES W  DIS CAZ7
 BAR2 EZ EP        0 1 34.86                             171    0.0810 22.6 193 
 BAR2 EZ I         0 1 51.25        16.0 1.79            173           22.6 193 
 PAM  EZ EP        0 1 37.54                             151    0.1710 77.4  38 
 PAM  EN ES        0 1 54.60                             151   -0.1210 77.4  38 
 PAM  EZ I         0 1 57.18        13.5 0.45            150           77.4  38 
 RUS  HZ EP        0 1 38.79                             144   -0.0410 99.5 177 
 RUS  HN ES        0 1 57.62                             144    0.3010 99.5 177 
 RUS  HZ I         0 1 58.80         9.3 0.38            148           99.5 177 
 PTB  HZ EP        0 1 41.29                             132   -0.92 9  149 259 
 PTB  HN ES        0 2  3.90                             132    0.57 9  149 259 
 PTB  HZ I         0 2  7.94         7.9 0.23            132            149 259 
 SPBC HZ EP        0 1 43.71                             129    0.06 9  163 220 
 SPBC HN ES        0 2  5.40                             129   -0.49 9  163 220 
 SPBC HZ I         0 2  8.95        17.6 0.16            131            163 220 
 ZAR  HZ EP        0 1 47.37                             122   -0.38 8  206 292 
 ZAR  HN ES        0 2 13.37                             122    0.19 8  206 292 
 ZAR  HZ I         0 2 18.16        14.0 0.24            122            206 292 
 NOR  HZ EP   1    0 1 51.32                             119    0.40 6  235 235 
 NOR  HN ES   1    0 2 18.60                             119   -0.23 6  235 235 
 NOR  HZ I         0 2 23.52         5.0 0.12            119            235 235 
 CHI  HZ EP   1    0 1 52.83                             117    0.05 6  248 195 
 CHI  HN ES   1    0 2 21.78                             117   -0.36 6  248 195 
 GUY2CHZ EP        0 1 59.70                             112    0.90 7  302 235 
 GUY2CHN ES   4    0 2 35.48                             112    2.62 0  302 235 
 MON  HZ EP   4    0 2  2.03                             109   -2.29 0  355 308 
 MON  HN ES   4    0 2 40.61                             109   -2.08 0  355 308 
 MON  HZ I         0 2 56.00         5.7 0.84            108            355 308 
 SJC  HZ EP   4    0 2  8.21                             106   -2.66 0  411 327 
 SJC  HN ES   4    0 2 50.64                             106   -3.71 0  411 327 
                                                                                
