 2011 10 9 0149  5.3 L   6.763 -73.121146.0  RSN  8 0.3 1.9LRSN                1
 GAP=141        0.60       4.0     5.2  5.0 -0.3773E+01  0.5154E+01  0.3961E+01E
 Epicentro: LOS SANTOS - SANTANDER                                             3
 ACTION:UPD 12-07-13 16:02 OP:ep   STATUS:               ID:20111009014905 L   I
 2011-10-09-0140-00M.COL___171                                                 6
 STAT SP IPHASW D HRMM SECON CODA AMPLIT PERI AZIMU VELO AIN AR TRES W  DIS CAZ7
 BAR2 SZ EP   1    149 24.56                             172   -0.37 7 20.1 200 
 BAR2 SZ ES   1    149 40.00                             172   -0.21 7 20.1 200 
 BAR2 SZ I         149 42.28        13.5 0.43                          20.1 200 
 GIR2 SZ EP   1    149 25.17                             166    0.01 7 35.8 347 
 GIR2 SZ ES   1    149 41.42                             166    0.79 7 35.8 347 
 BRR  HZ EP   1    149 26.64                             151   -0.12 7 75.5 300 
 BRR  HN ES   1    149 43.19                             151   -0.28 7 75.5 300 
 BRR  HZ I         149 46.08        23.4 0.14                          75.5 300 
 PAM  SZ EP   1    149 27.53                             151   -0.13 7 78.9  36 
 PAM  SN ES   1    149 45.00                             151   -0.08 7 78.9  36 
 RUS  HZ EP   1    149 29.04                             145    0.23 7 96.4 177 
 RUS  HN ES   1    149 47.13                             145    0.01 7 96.4 177 
 RUS  HZ I         149 48.30         7.4 0.39                          96.4 177 
 NOR  SN ES   2    150  9.00                             119    0.07 4  235 236 
 HEL  HZ EP   2    149 46.25                             115    0.51 4  274 257 
 HEL  HZ I         150 23.04         5.4 0.27                           274 257 
 RREF HZ EP   1    149 51.40                             111   -0.02 5  321 230 
                                                                                
