 2016 10 9 0319  1.9 L   6.763 -73.123148.4  RSN  5 0.2 1.4LRSN                1
 GAP=141        0.45       2.1     2.4  4.2  0.7380E-01  0.4331E+01 -0.3534E-01E
 Epicentro: LOS SANTOS - SANTANDER                                             3
 ACTION:UPD 16-11-09 19:17 OP:rebc STATUS:               ID:20161009031901 L   I
 OLDACT:UP  16-10-09 15:09 OP:dani STATUS:               ID:20161009031739     3
 OLDACT:REG 16-10-09 12:32 OP:dani STATUS:               ID:20161009031739     3
 2016-10-09-0318-00M.COL___351                                                 6
 STAT SP IPHASW D HRMM SECON CODA AMPLIT PERI AZIMU VELO AIN AR TRES W  DIS CAZ7
 PAM  EE ES        319 41.99                             151   -0.1010 79.1  36 
 RUS  HZ EP        319 25.47                             146   -0.1210 96.4 177 
 RUS  HN ES        319 44.36                             146    0.2710 96.4 177 
 RUS  HZ I         319 45.62         2.4 0.20            148           96.4 177 
 PTB  HZ EP        319 29.31                             132    0.09 9  150 261 
 PTB  HE ES        319 50.42                             132   -0.12 9  150 261 
 PTB  HZ I         319 54.57         2.1 0.15            133            150 261 
 SPBC HZ EP        319 30.46                             130    0.02 9  162 221 
 SPBC HE ES        319 52.49                             130   -0.22 9  162 221 
 SPBC HZ I         319 57.39         4.7 0.20            131            162 221 
 ZAR  HZ EP        319 34.92                             122    0.02 8  208 293 
 ZAR  HN ES        320  0.84                             122    0.19 8  208 293 
 ZAR  HZ I         320  5.77         3.1 0.16            124            208 293 
                                                                                
