 2015  3 9 0917 18.2 L   6.778 -73.216148.5  RSN  4 0.3 1.4LRSN                1
 GAP=226        0.86       5.6     6.7  7.2  0.6712E+01  0.5127E+01  0.1729E+02E
 Epicentro: ZAPATOCA - SANTANDER                                               3
 ACTION:UPD 15-04-30 16:24 OP:nd   STATUS:               ID:20150309091718 L   I
 OLDACT:REG 15-03-09 14:39 OP:cam  STATUS:               ID:20150309090750     3
 2015-03-09-0907-50M.COL___278                                                 6
 STAT SP IPHASW D HRMM SECON CODA AMPLIT PERI AZIMU VELO AIN AR TRES W  DIS CAZ7
 BAR2 EZ EP        917 37.82                             172   -0.3210 20.9 170 
 BAR2 EZ ES        917 53.43                             172   -0.2410 20.9 170 
 BAR2 EZ I         917 53.86         5.9 0.38            172           20.9 170 
 BRR  HZ EP        917 39.40                             155    0.0210 65.8 304 
 BRR  HN I         917 56.49        15.1 0.32            144           65.8 304 
 BRR  HN ES        917 56.51                             155    0.6310 65.8 304 
 PTB  HZ EP        917 44.65                             134   -0.06 9  140 259 
 PTB  HN ES        918  4.93                             134   -0.43 9  140 259 
 PTB  HZ I         918  7.11         1.9 0.40            127            140 259 
 CHI  HZ EP        917 55.91                             118    0.29 8  244 194 
 CHI  HN ES        918 25.06                             118    0.27 8  244 194 
 CHI  HZ I         918 28.49         1.3 0.58            112            244 194 
                                                                                
