 2010  2 9 0457 56.0 L   6.514 -73.701 98.2  RSN  8 0.3 2.1LRSN                1
 GAP=122        0.66       4.2     5.0  8.1 -0.1148E+02  0.2643E+02 -0.9926E+01E
 Epicentro: SANTA HELENA DEL OPON - SANTANDER                                  3
 ACTION:UP  10-08-24 09:48 OP:vdl  STATUS:               ID:20100209045756 L   I
 2010-02-09-0454-53S.COL___094                                                 6
 STAT SP IPHASW D HRMM SECON CODA AMPLIT PERI AZIMU VELO SNR AR TRES W  DIS CAZ7
 BAR2 SZ IP        458 11.63                             148     0.010   58  81 
 BAR2 SZ ES   1    458 23.56                             148    -0.3 7   58  81 
 GIR2 SZ EP        458 13.62                             137     0.210   84  42 
 OCA  SZ EP        458 24.93                             112    -0.1 9  195  12 
 OCA  SZ ES   1    458 48.11                             112     0.4 6  195  12 
 HEL  HZ EP   1    458 26.08                             111    -0.4 6  205 260 
 HEL  HN ES   2    458 49.78                             111    -0.4 4  205 260 
 HEL  HZ I         458 53.84        10.3 0.39                           205 260 
 RREF BZ EP        458 33.06                             107     0.5 8  255 226 
 RREF BZ I         459  6.30         9.6 0.36                           255 226 
 DBB  SZ EP   1    458 35.06                             105    -0.1 6  283 281 
 PRA  HZ EP   2    458 41.42                             102    -0.1 3  336 203 
 PRA  HN ES   2    459 17.45                             102     0.3 3  336 203 
 PRA  HZ I         459 25.55         8.8 0.34                           336 203 
 SDV  BZ EP        458 52.17                              99    -0.7 5  428  52 
                                                                                
