 2012  3 9 0522  9.7 L   6.943 -73.086130.7  RSN  5 0.4 1.3LRSN                1
 GAP=252        0.92      12.2    12.0 11.3  0.1151E+03  0.2139E+01  0.1678E+02E
 ACTION:UP  12-03-31 23:18 OP:EP   STATUS:               ID:20120309052209 L   I
 2012-03-09-0520-00M.COL___194                                                 6
 STAT SP IPHASW D HRMM SECON CODA AMPLIT PERI AZIMU VELO SNR AR TRES W  DIS CAZ7
 BRR  HN ES   1    522 44.49                             149    -0.1 7   72 285 
 RUS  HZ EP   1    522 33.85                             136     0.6 7  116 180 
 RUS  HN ES   1    522 51.34                             136    -0.3 7  116 180 
 RUS  HZ I         522 55.31         2.8 0.32                           116 180 
 PTB  HZ EP   1    522 36.68                             126     0.2 7  158 254 
 PTB  HN ES   1    522 57.78                             126     0.4 7  158 254 
 PTB  HZ I         523  2.19         2.3 0.14                           158 254 
 ZAR  HN ES   1    523  5.54                             119    -0.4 6  205 287 
 ZAR  HZ I         523 12.09         2.0 0.08                           205 287 
 CHI  HZ EP   1    522 47.92                             112    -0.6 6  266 196 
 CHI  HZ I         522 50.67         1.6 0.39                           266 196 
                                                                                
