 2017  8 9 0500 33.6 L   6.759 -73.199146.8  RSN  8 0.5 1.5LRSN                1
 GAP=205        1.08       5.2     4.6  7.1  0.1037E+02  0.3093E+01  0.5191E+01E
 Epicentro: ZAPATOCA - SANTANDER                                               3
 ACTION:UPD 17-09-04 20:18 OP:rebc STATUS:               ID:20170809050033 L   I
 OLDACT:UP  17-08-09 16:26 OP:dhb  STATUS:               ID:20170809045643     3
 OLDACT:REG 17-08-09 12:28 OP:dhb  STATUS:               ID:20170809045643     3
 2017-08-09-0457-00M.COL___399                                                 6
 STAT SP IPHASW D HRMM SECON CODA AMPLIT PERI AZIMU VELO AIN AR TRES W  DIS CAZ7
 BAR2 EZ EP        5 0 52.76                             172   -0.5510 18.6 174 
 BAR2 EZ ES        5 1  8.14                             172   -0.5110 18.6 174 
 BAR2 EZ I         5 1  9.37         7.3 0.19            171           18.6 174 
 BRR  HZ EP        5 0 54.73                             154   -0.0310 68.5 304 
 BRR  HN ES        5 1 11.70                             154    0.4810 68.5 304 
 BRR  HZ I         5 1 12.04         5.1 0.30            152           68.5 304 
 RUS  HZ EP        5 0 57.79                             145    0.5710 96.7 172 
 RUS  HN ES        5 1 15.48                             145   -0.1310 96.7 172 
 RUS  HZ I         5 1 16.67         8.0 0.28            145           96.7 172 
 PTB  HZ EP        5 0 59.79                             134   -0.32 9  141 260 
 PTB  HN ES        5 1 20.58                             134   -0.17 9  141 260 
 PTB  HZ I         5 1 25.67         1.9 0.10            132            141 260 
 SPBC HZ EP        5 1  1.65                             131    0.10 9  156 218 
 SPBC HE ES        5 1 23.57                             131    0.25 9  156 218 
 SPBC HZ I         5 1 26.21         5.5 0.28            130            156 218 
 YPLC HZ EP        5 1  2.97                             127   -0.45 9  176 149 
 YPLC HN ES        5 1 27.42                             127    0.78 9  176 149 
 YPLC HZ I         5 1 28.10         4.4 0.32            128            176 149 
 ZAR  HZ EP   3    5 1  7.61                             123    1.83 2  200 294 
 ZAR  HN ES        5 1 31.12                             123    0.27 9  200 294 
 ZAR  HZ I         5 1 36.46         3.2 0.26            123            200 294 
 NOR  HZ EP   2    5 1  7.22                             120   -1.43 4  227 235 
 NOR  HN ES        5 1 35.94                             120   -0.01 8  227 235 
 NOR  HZ I         5 1 38.00         1.7 0.17            119            227 235 
                                                                                
