 2010  9 9 0547 33.5 L   6.803 -73.084142.3  RSN  7 0.4 1.6LRSN                1
 GAP=165        1.03       6.9     9.5 10.6 -0.1681E+01 -0.1815E+02 -0.2969E+02E
 Epicentro: LOS SANTOS - SANTANDER                                             3
 ACTION:UP  11-02-18 11:01 OP:tino STATUS:               ID:20100909054733 L   I
 2010-09-09-0545-58S.COL___120                                                 6
 STAT SP IPHASW D HRMM SECON CODA AMPLIT PERI AZIMU VELO SNR AR TRES W  DIS CAZ7
 BAR2 SZ EP   2    547 52.60                             169    -0.2 5   26 205 
 BAR2 SZ ES   1    548  7.44                             169    -0.4 8   26 205 
 BAR2 SZ I         548 10.36        13.1 0.32                            26 205 
 GIR2 SZ EP   2    547 52.50                             166    -0.3 5   33 338 
 BRR  HZ EP   1    547 54.30                             150    -0.4 8   77 296 
 BRR  HN ES   1    548 11.44                             150     0.3 8   77 296 
 BRR  HZ I         548 12.49         6.9 0.10                            77 296 
 RUS  HZ EP   1    547 56.86                             143    -0.1 8  101 180 
 RUS  HN ES   1    548 15.57                             143     0.4 8  101 180 
 RUS  HZ I         548 18.69         4.2 0.37                           101 180 
 GUE  SZ EP        547 57.34                             139    -0.510  115   9 
 GUE  SZ I         547 58.26         2.4 0.09                           115   9 
 GRA  SZ EP        547 59.02                             137     0.710  124  14 
 GRA  SZ I         548  0.27         5.8 0.29                           124  14 
 HEL  HZ EP   2    548 14.18                             113    -0.1 4  279 256 
 HEL  HN ES   2    548 46.38                             113     0.2 4  279 256 
 HEL  HZ I         548 52.69         3.6 0.36                           279 256 
                                                                                
