 2011 10 9 0828  0.9 L   6.821 -73.017142.6  RSN  4 0.2 1.3LRSN                1
 GAP=219        0.41       4.1     8.0  4.4  0.2045E+02 -0.8836E+01 -0.1646E+01E
 Epicentro: CEPITA - SANTANDER                                                 3
 ACTION:UPD 12-07-13 16:02 OP:ep   STATUS:               ID:20111009082800 L   I
 2011-10-09-0820-00M.COL___171                                                 6
 STAT SP IPHASW D HRMM SECON CODA AMPLIT PERI AZIMU VELO AIN AR TRES W  DIS CAZ7
 BAR2 SZ EP   1    828 20.39                             167    0.06 7 31.2 216 
 BAR2 SZ ES   1    828 35.48                             167   -0.01 7 31.2 216 
 BAR2 SZ I         828 38.43         6.2 0.29                          31.2 216 
 GIR2 SZ EP   1    828 19.98                             166   -0.30 7 34.5 326 
 GIR2 SZ ES   1    828 35.56                             166    0.16 7 34.5 326 
 BRR  HZ EP   1    828 22.41                             148   -0.01 7 83.1 292 
 BRR  HE ES   1    828 39.22                             148    0.01 7 83.1 292 
 BRR  HZ I         828 41.76         4.3 0.13                          83.1 292 
 RUS  HZ EP   1    828 24.77                             142    0.26 7  103 184 
 RUS  HE ES   1    828 42.77                             142   -0.16 7  103 184 
 RUS  HZ I         828 44.47         2.7 0.27                           103 184 
                                                                                
