 2016  4 9 0349 23.6 L   6.791 -73.161146.0  RSN  6 0.2 1.5LRSN                1
 GAP=141        0.56       2.7     3.2  4.1 -0.3511E+01  0.3278E+01  0.8292E+00E
 Epicentro: LOS SANTOS - SANTANDER                                             3
 ACTION:UPD 16-05-05 14:19 OP:rebc STATUS:               ID:20160409034923 L   I
 OLDACT:UP  16-04-09 14:10 OP:mh   STATUS:               ID:20160409034746     3
 OLDACT:UP  16-04-09 14:10 OP:mh   STATUS:               ID:20160409034746     3
 OLDACT:REG 16-04-09 12:05 OP:mh   STATUS:               ID:20160409034746     3
 2016-04-09-0347-46M.COL___301                                                 6
 STAT SP IPHASW D HRMM SECON CODA AMPLIT PERI AZIMU VELO AIN AR TRES W  DIS CAZ7
 BAR2 EZ EP        349 43.47                             171    0.2610 22.1 186 
 BAR2 EZ ES        349 58.34                             171   -0.1910 22.1 186 
 BAR2 EZ I         350  0.90         6.6 0.30            168           22.1 186 
 PAM  EZ EP        349 46.02                             150    0.0910 79.2  40 
 PAM  EN ES        350  3.24                             150   -0.1210 79.2  40 
 PAM  EZ I         350  5.03         4.9 0.18            156           79.2  40 
 RUS  HZ EP   1    349 47.19                             144   -0.10 7 99.8 175 
 RUS  HE ES        350  5.92                             144    0.1310 99.8 175 
 RUS  HZ I         350  6.62         3.0 0.34            145           99.8 175 
 PTB  HZ EP        349 50.30                             132   -0.09 9  146 259 
 PTB  HN ES        350 11.25                             132   -0.06 9  146 259 
 PTB  HZ I         350 18.48         3.4 0.30            132            146 259 
 SPBC HZ EP        349 52.27                             129    0.35 9  161 219 
 SPBC HN ES        350 14.10                             129    0.07 9  161 219 
 SPBC HZ I         350 20.47         6.9 0.14            130            161 219 
 CHI  HZ EP   1    350  0.41                             117   -0.73 6  247 195 
 CHI  HN ES        350 30.30                             117   -0.14 8  247 195 
 CHI  HZ I         350 37.22         1.5 0.42            119            247 195 
                                                                                
