 2013  2 9 0754  3.7 L   6.750 -73.156144.0  RSN  8 0.4 1.9LRSN                1
 GAP=137        0.92       3.6     4.6  6.1  0.1796E+01  0.7063E+01  0.2056E+01E
 Epicentro: LOS SANTOS - SANTANDER                                             3
 ACTION:UPD 13-03-12 09:31 OP:ep   STATUS:               ID:20130209075403 L   I
 2013-02-09-0750-00M.COL___240                                                 6
 STAT SP IPHASW D HRMM SECON CODA AMPLIT PERI AZIMU VELO AIN AR TRES W  DIS CAZ7
 BAR2 SZ EP        754 23.09                             173    0.0410 17.7 190 
 BAR2 SZ ES        754 38.05                             173   -0.0710 17.7 190 
 BAR2 SZ I         754 40.67        32.1 0.20            170           17.7 190 
 BRR  HZ EP        754 25.01                             152    0.2110 73.1 303 
 BRR  HZ I         754 25.34        28.6 0.07            150           73.1 303 
 BRR  HN ES        754 42.00                             152    0.7710 73.1 303 
 PAM  SZ EP        754 25.99                             149   -0.0810 82.4  38 
 PAM  SZ I         754 26.41        18.3 0.21            153           82.4  38 
 PAM  SN ES        754 43.15                             149   -0.3510 82.4  38 
 RUS  HZ EP        754 27.01                             145    0.0910 95.1 175 
 RUS  HN ES   1    754 45.13                             145    0.12 7 95.1 175 
 RUS  HZ I         754 46.59         7.7 0.15            145           95.1 175 
 PTB  HZ EP        754 29.73                             132   -0.64 9  146 261 
 PTB  HN ES   1    754 50.25                             132   -0.90 7  146 261 
 PTB  HZ I         754 53.90         8.5 0.20            131            146 261 
 ZAR  HZ EP   1    754 36.68                             122    0.49 6  205 294 
 ZAR  HN ES   1    755  1.33                             122   -0.17 6  205 294 
 ZAR  HZ I         755  7.59         9.3 0.21            122            205 294 
 CHI  HZ EP   1    754 40.84                             117    0.12 6  243 195 
 CHI  HN ES   1    755  9.95                             117    0.38 6  243 195 
 CHI  HZ I         755 13.78         1.8 0.40            118            243 195 
 SML  HZ EP   4    754 39.30                             117   -1.47 0  248 336 
 SML  HN ES        755  9.70                             117    0.05 8  248 336 
                                                                                
