 2010  5 9 0558  5.5 L   6.840 -73.041140.6  RSN  6 0.1 1.5LRSN                1
 GAP=194        0.31       4.2     5.0  5.7 -0.1472E+02 -0.1855E+02  0.1222E+02E
 Epicentro: LOS SANTOS - SANTANDER                                             3
 ACTION:UP  10-08-24 10:03 OP:vdl  STATUS:               ID:20100509055805 L   I
 2010-05-09-0555-22S.COL___105                                                 6
 STAT SP IPHASW D HRMM SECON CODA AMPLIT PERI AZIMU VELO SNR AR TRES W  DIS CAZ7
 GIR2 SZ EP   1    558 24.43                             167    -0.1 7   31 328 
 BAR2 SZ EP   1    558 24.69                             167     0.0 7   32 210 
 BRR  HZ EP        558 26.63                             149     0.110   80 292 
 BRR  HN ES   1    558 43.02                             149     0.0 7   80 292 
 BRR  HZ I         558 44.33         5.5 0.15                            80 292 
 BRI  SZ EP   1    558 28.43                             142     0.2 7  101  16 
 GUE  SZ EP   1    558 29.13                             140    -0.1 7  110   7 
 GRA  SZ IP        558 29.57                             138    -0.110  118  13 
 GRA  SZ ES   1    558 48.53                             138     0.0 7  118  13 
                                                                                
