 2014 10 9 0857 24.1 L   6.786 -73.163142.6  RSN  9 0.5 1.6LRSN                1
 GAP=135        1.21       4.0     5.6  8.3 -0.1696E+01  0.1119E+02 -0.5649E+01E
 Epicentro: LOS SANTOS - SANTANDER                                             3
 ACTION:UPD 14-11-29 23:48 OP:nd   STATUS:               ID:20141009085724 L   I
 OLDACT:REG 14-10-09 13:40 OP:fm   STATUS:               ID:20141009084741     3
 2014-10-09-0847-41M.COL___250                                                 6
 STAT SP IPHASW D HRMM SECON CODA AMPLIT PERI AZIMU VELO AIN AR TRES W  DIS CAZ7
 BAR2 SZ EP        857 43.69                             171    0.3710 21.5 186 
 BAR2 SZ ES   1    857 58.41                             171    0.10 7 21.5 186 
 BAR2 SZ I         857 59.89        17.2 0.18            170           21.5 186 
 BRR  HZ EP        857 45.64                             152    0.7810 70.3 300 
 BRR  HN ES        858  1.78                             152    0.7310 70.3 300 
 BRR  HZ I         858  5.18         6.9 0.40            150           70.3 300 
 PAM  SZ EP   1    857 46.16                             149    0.02 7 79.8  40 
 PAM  SN ES        858  3.03                             149   -0.2910 79.8  40 
 PAM  SZ I         858  5.43         7.4 0.46            154           79.8  40 
 RUS  HZ EP   1    857 47.73                             143    0.29 7 99.1 175 
 RUS  HE ES        858  5.07                             143   -0.5810 99.1 175 
 RUS  HZ I         858  8.41         2.4 0.34            147           99.1 175 
 PTB  HZ EP   1    857 50.16                             132   -0.46 7  146 259 
 PTB  HN ES        858 10.51                             132   -0.79 9  146 259 
 PTB  HZ I         858 14.59         6.9 0.18            132            146 259 
 SPBC HZ EP   1    857 51.86                             129   -0.27 7  161 219 
 SPBC HN ES   1    858 14.47                             129    0.48 7  161 219 
 SPBC HZ I         858 21.45         3.6 0.30            130            161 219 
 OCA  HZ EP   1    857 53.21                             129    0.91 7  162 354 
 OCA  HN ES        858 13.63                             129   -0.66 9  162 354 
 OCA  HZ I         858 19.76         3.3 0.14            131            162 354 
 ZAR  HZ EP   1    857 55.89                             122   -0.34 6  203 293 
 ZAR  HN ES   1    858 21.75                             122    0.47 6  203 293 
 ZAR  HZ I         858 27.94         8.3 0.32            123            203 293 
 SML  HZ EP   1    858  0.10                             117   -0.53 6  244 336 
 SML  HE ES        858 28.87                             117   -0.25 8  244 336 
 SML  HZ I         858 32.46         4.9 0.10            118            244 336 
 MON  HZ EP   4    858 11.02                             108   -1.91 0  353 309 
 MON  HN ES   4    858 48.74                             108   -2.27 0  353 309 
                                                                                
