 2015  6 9 0940 14.1 L   6.978 -73.048130.2  RSN  4 0.4 1.2LRSN                1
 GAP=256        0.92       6.5     7.4  8.3  0.2318E+02  0.1291E+02 -0.1049E+02E
 Epicentro: PIEDECUESTA - SANTANDER                                            3
 ACTION:UPD 15-09-10 22:11 OP:cam  STATUS:               ID:20150609094014 L   I
 OLDACT:DUP 15-06-09 19:01 OP:drio STATUS:               ID:20150609093750d    3
 2015-06-09-0937-49M.COL___300                                                 6
 STAT SP IPHASW D HRMM SECON CODA AMPLIT PERI AZIMU VELO AIN AR TRES W  DIS CAZ7
 BAR2 EZ EP        940 31.87                             160   -0.6810 45.1 199 
 BAR2 EZ ES        940 47.28                             160    0.3210 45.1 199 
 BAR2 EZ I         940 51.77         3.3 0.32            164           45.1 199 
 RUS  HZ EP        940 38.49                             135    0.5510  120 182 
 RUS  HE ES        940 56.35                             135   -0.2010  120 182 
 SPBC HZ EP        940 43.86                             121    0.17 9  185 218 
 SPBC HE ES        941  6.60                             121   -0.18 9  185 218 
 ZAR  HZ EP        940 45.94                             118   -0.03 8  208 286 
 ZAR  HE ES        941 10.92                             118    0.08 8  208 286 
 ZAR  HZ I         941 19.92         1.6 0.30            121            208 286 
                                                                                
