 2017  5 9 0949 41.0 L   6.792 -73.162144.5  RSN 15 0.4 1.8LRSN                1
 GAP=111        1.13       3.4     3.5  6.2  0.6232E+00  0.4084E+01  0.2628E+01E
 Epicentro: LOS SANTOS - SANTANDER                                             3
 ACTION:UPD 17-06-16 13:34 OP:jn   STATUS:               ID:20170509094941 L   I
 OLDACT:REG 17-05-09 13:15 OP:lv   STATUS:               ID:20170509094741     3
 2017-05-09-0948-00M.COL___343                                                 6
 STAT SP IPHASW D HRMM SECON CODA AMPLIT PERI AZIMU VELO AIN AR TRES W  DIS CAZ7
 BRR  HZ EP        950  1.99                             153    0.0810 70.1 300 
 BRR  HE ES        950 18.94                             153    0.6910 70.1 300 
 BRR  HZ I         950 19.87        11.6 0.07            151           70.1 300 
 PAM  EZ EP        950  3.15                             150   -0.0010 79.2  40 
 PAM  EN ES        950 20.44                             150   -0.0210 79.2  40 
 PAM  EZ I         950 22.67        21.7 0.47            155           79.2  40 
 RUS  HZ EP        950  4.37                             144   -0.1710 99.8 175 
 RUS  HN ES        950 23.15                             144    0.2310 99.8 175 
 RUS  HZ I         950 23.97         6.7 0.10            144           99.8 175 
 PTB  HZ EP        950  7.17                             132   -0.48 9  146 259 
 PTB  HN ES        950 27.96                             132   -0.51 9  146 259 
 PTB  HZ I         950 34.50         3.9 0.22            131            146 259 
 SPBC HZ EP        950  9.48                             129    0.29 9  161 219 
 SPBC HN ES        950 31.52                             129    0.31 9  161 219 
 SPBC HZ I         950 35.96        11.4 0.13            129            161 219 
 YPLC HZ IP     D  950 10.60                             126   -0.08 9  177 151 
 YPLC HN ES        950 33.60                             126   -0.25 9  177 151 
 YPLC HZ I         950 37.34         5.2 0.11            128            177 151 
 ZAR  HZ EP        950 12.76                             122   -0.43 9  203 293 
 ZAR  HN ES        950 37.89                             122   -0.44 9  203 293 
 ZAR  HZ I         950 45.01         9.8 0.29            123            203 293 
 NOR  HZ EP        950 16.35                             118   -0.06 8  233 234 
 NOR  HN ES        950 43.08                             118   -0.98 8  233 234 
 NOR  HZ I         950 51.92         5.0 0.17            119            233 234 
 CHI  HZ EP        950 18.52                             117    0.07 8  247 195 
 CHI  HN ES        950 47.83                             117    0.14 8  247 195 
 CHI  HZ I         950 51.39         6.8 0.37            118            247 195 
 ROSC BZ EP   9    950 20.91                             117    2.08 0  251 211 
 ROSC BE ES        950 49.02                                   -1.43 8  251 211 
 ROSC BZ I         950 54.26         7.0 0.52            117            251 211 
 HEL  HZ EP   4    950 22.09                             115    1.19 0  270 256 
 HEL  HN ES        950 52.31                             115    0.27 8  270 256 
 HEL  HZ I         950 58.37         2.6 0.15            115            270 256 
 PTGC HZ EP   4    950 23.48                             111   -1.27 0  309 158 
 PTGC HN ES   4    950 56.40                             111   -2.49 0  309 158 
 CBOC HZ EP        950 28.31                             110    0.71 7  332 252 
 CBOC HN ES        951  4.95                             110    0.97 7  332 252 
 CBOC HZ I         951 10.59         1.6 0.48            110            332 252 
 ARGC HZ EP        950 30.90                             108    0.30 6  359 341 
 ARGC HN ES   4    951 11.66                             108    2.35 0  359 341 
 ORTC HZ EP        950 34.60                             106   -0.03 6  394 216 
 ORTC HN ES   4    951 18.02                             106    1.52 0  394 216 
 ORTC HZ I         951 21.59         2.8 0.17            107            394 216 
 SJC  HZ EP   4    950 34.56                             105   -1.90 0  409 327 
 SJC  HN ES   4    951 16.80                             105   -2.94 0  409 327 
 SJC  HZ I         951 23.48         2.5 0.12            107            409 327 
                                                                                
