 2014  6 9 0842 26.9 L   6.263 -73.660122.2  RSN  7 0.5 1.4LRSN                1
 GAP=150        1.12       6.1     5.6  8.0 -0.1490E+02  0.9808E+01  0.2363E+01E
 Epicentro: SANTA HELENA DEL OPON - SANTANDER                                  3
 ACTION:UPD 14-07-01 22:52 OP:nd   STATUS:               ID:20140609084226 L   I
 OLDACT:REG 14-06-09 13:33 OP:fm   STATUS:               ID:20140609083820     3
 2014-06-09-0838-20M.COL___256                                                 6
 STAT SP IPHASW D HRMM SECON CODA AMPLIT PERI AZIMU VELO AIN AR TRES W  DIS CAZ7
 BAR2 SZ EP        842 45.78                             150    0.3710 64.1  55 
 BAR2 SZ ES        843  0.13                             150    0.2510 64.1  55 
 BAR2 SZ I         843  1.87         4.1 0.32            137           64.1  55 
 SPBC HZ EP   1    842 45.04                             144   -1.31 7 81.6 214 
 SPBC HN ES        843  1.24                             144   -0.3110 81.6 214 
 SPBC HZ I         843  4.81         4.2 0.24            137           81.6 214 
 PTB  HZ EP        842 47.26                             140    0.1410 93.3 289 
 PTB  HN ES        843  2.66                             140   -0.2710 93.3 289 
 PTB  HZ I         843  7.83         4.0 0.40            123           93.3 289 
 NOR  HN ES   1    843 13.56                             124    0.61 7  155 240 
 NOR  HZ I         843 17.40         5.2 0.20            114            155 240 
 ZAR  HZ EP        842 56.00                             118   -0.34 9  190 316 
 ZAR  HZ I         843 27.41         2.4 0.20            107            190 316 
 GUY2CHZ EP        843  0.84                             115    0.49 8  221 239 
 GUY2CHN ES        843 26.89                             115    0.41 8  221 239 
 GUY2CHZ I         843 33.02         2.0 0.40                           221 239 
 PRA  HZ EP        843 10.15                             106   -0.17 7  313 206 
 PRA  HN ES   4    843 42.53                             106   -1.69 0  313 206 
 PRA  HZ I         843 49.95         1.4 0.34            102            313 206 
                                                                                
