 2013 10 9 0605 33.9 L   6.908 -73.387135.5  RSN  4 0.3 1.3LRSN                1
 GAP=144        0.66       6.5     9.2  9.0 -0.2949E+02 -0.2814E+02  0.2321E+02E
 Epicentro: SAN VICENTE DE CHUCURI - SANTANDER                                 3
 ACTION:UPD 13-11-25 09:20 OP:ep   STATUS:               ID:20131009060533 L   I
 OLDACT:DUP 13-10-09 11:54 OP:mh   STATUS:               ID:20131009055960d    3
 2013-10-09-0559-59M.COL___273                                                 6
 STAT SP IPHASW D HRMM SECON CODA AMPLIT PERI AZIMU VELO AIN AR TRES W  DIS CAZ7
 BAR2 SZ EP   1    6 5 52.75                             162   -0.05 7 41.6 147 
 BRR  HZ EP   1    6 5 53.03                             162    0.57 7 42.1 302 
 BRR  HN ES        6 6  6.83                             162   -0.1510 42.1 302 
 BRR  HZ I         6 6  7.52         4.5 0.12            153           42.1 302 
 PTB  HZ EP   1    6 5 57.54                             134   -0.41 7  125 251 
 PTB  HN ES   2    6 6 17.16                             134    0.42 5  125 251 
 PTB  HZ I         6 6 21.36         2.7 0.46            128            125 251 
 OCA  HN ES   1    6 6 20.62                             130   -0.05 7  147   3 
                                                                                
