 2011  7 9 0727 36.8 L   6.771 -73.074148.3  RSN  5 0.2 1.5LRSN                1
 GAP=164        0.47       2.8     5.5  5.0 -0.8655E+00 -0.6743E+01 -0.2875E+01E
 Epicentro: LOS SANTOS - SANTANDER                                             3
 ACTION:UPD 12-07-25 13:59 OP:epov STATUS:               ID:20110709072736 L   I
 2011-07-09-0725-39S.COL___140                                                 6
 STAT SP IPHASW D HRMM SECON CODA AMPLIT PERI AZIMU VELO AIN AR TRES W  DIS CAZ7
 BAR2 SZ EP   1    727 56.66                             171   -0.11 7 23.1 211 
 BAR2 SZ ES   1    728 12.01                             171   -0.31 7 23.1 211 
 BAR2 SZ I         728 13.51         6.0 0.27                          23.1 211 
 BRR  HZ EP        727 58.53                             150   -0.2310 79.7 298 
 BRR  HZ I         727 58.86        15.8 0.15                          79.7 298 
 BRR  HN ES   1    728 16.18                             150    0.32 7 79.7 298 
 RUS  HZ EP   1    728  0.80                             145    0.20 7 97.1 181 
 RUS  HN ES   1    728 19.26                             145    0.13 7 97.1 181 
 RUS  HZ I         728 20.56         3.1 0.29                          97.1 181 
 BRI  SZ EP   1    728  1.16                             142    0.15 7  109  16 
 GRA  SZ EP   1    728  2.39                             137    0.00 7  127  14 
 GRA  SZ ES   1    728 22.37                             137    0.05 7  127  14 
 GRA  SZ I         728 23.14         4.0 0.25                           127  14 
                                                                                
