 2017  7 9 0659  7.6 L   6.815 -73.091143.0  RSN 15 0.6 2.2LRSN                1
 GAP=187        1.19       5.2     4.5  6.4  0.7507E+01  0.5486E+01  0.9671E+01E
 Epicentro: LOS SANTOS - SANTANDER                                             3
 ACTION:UPD 17-08-30 15:31 OP:rebc STATUS:               ID:20170709065907 L   I
 OLDACT:UP  17-07-09 18:04 OP:ar   STATUS:               ID:20170709065744     3
 OLDACT:UP  17-07-09 18:00 OP:ar   STATUS:               ID:20170709065744     3
 OLDACT:REG 17-07-09 14:10 OP:ar   STATUS:               ID:20170709065744     3
 2017-07-09-0658-00M.COL___371                                                 6
 STAT SP IPHASW D HRMM SECON CODA AMPLIT PERI AZIMU VELO AIN AR TRES W  DIS CAZ7
 BAR2 EZ EP        659 27.07                             169    0.0610 26.6 202 
 BAR2 EZ ES        659 42.32                             169    0.2010 26.6 202 
 BAR2 EZ I         659 42.73        32.6 0.28            164           26.6 202 
 BRR  HZ IP        659 28.91                             151    0.1510 75.8 295 
 BRR  HN ES        659 45.91                             151    0.6710 75.8 295 
 BRR  HZ I         659 49.49        19.4 0.18            150           75.8 295 
 PTB  HZ EP        659 33.97                             130   -0.99 9  154 259 
 PTB  HN ES        659 55.74                             130   -0.53 9  154 259 
 PTB  HZ I         659 57.53        17.7 0.12            129            154 259 
 SPBC HZ EP        659 35.98                             128   -0.44 9  168 220 
 SPBC HE ES        659 58.47                             128   -0.40 9  168 220 
 SPBC HZ I         7 0  2.92        23.3 0.30            127            168 220 
 YPLC HZ IP     D  659 37.67                             126    0.56 9  175 153 
 YPLC HN ES        659 59.95                             126   -0.14 9  175 153 
 YPLC HZ I         7 0  4.30        17.6 0.28            127            175 153 
 ZAR  HZ EP        659 40.52                             121    0.09 8  209 291 
 ZAR  HN ES        7 0  5.46                             121   -0.54 8  209 291 
 ZAR  HZ I         7 0 10.82        25.7 0.34            122            209 291 
 NOR  HZ EP        659 43.45                             117   -0.39 8  241 235 
 NOR  HE ES        7 0 11.53                             117   -0.55 8  241 235 
 NOR  HZ I         7 0 13.33        17.0 0.22            117            241 235 
 ROSC BZ EP   4    659 47.63                             116    1.52 0  257 212 
 ROSC BN ES   4    7 0 20.05                             116    3.94 0  257 212 
 ROSC BZ I         7 0 23.10        12.5 0.40            116            257 212 
 HEL  HZ EP        659 49.07                             114    0.66 7  278 256 
 HEL  HN ES   4    7 0 22.38                             114    2.17 0  278 256 
 HEL  HZ I         7 0 27.65         7.4 0.36            114            278 256 
 GUY2CHZ EP        659 52.65                             111    0.86 7  307 235 
 GUY2CHN ES     D  7 0 27.34                             111    1.12 7  307 235 
 GUY2CHZ I         7 0 33.74         8.0 0.50                           307 235 
 PTGC HZ EP        659 50.50                             111   -0.81 7  308 160 
 PTGC HN ES   4    7 0 23.89                             111   -1.48 0  308 160 
 PTGC HZ I         7 0 25.96         4.3 0.36            112            308 160 
 CBOC HZ EP        659 55.66                             109    0.50 7  340 252 
 CBOC HN ES        7 0 32.18                             109   -0.04 7  340 252 
 CBOC HZ I         7 0 40.75         3.0 0.38            109            340 252 
 ORTC HZ EP        7 0  2.65                             106    0.61 6  400 217 
 ORTC HE ES        7 0 45.03                             106    0.56 6  400 217 
 ORTC HZ I         7 0 51.08         5.1 0.46            106            400 217 
 SJC  HZ EP   9    7 0  1.51                             105   -1.83 0  411 326 
 SJC  HN ES        7 0 44.83                             106   -0.13 6  411 326 
 SJC  HZ I         7 0 46.49         2.9 0.30            106            411 326 
 PAL  HZ EP        7 0  3.26                             105   -0.15 6  412 239 
 PAL  HE ES   4    7 0 45.24                             105   -1.68 0  412 239 
 PAL  HZ I         7 0 50.66         2.3 0.38            106            412 239 
                                                                                
