 2013  7 9 0216 25.0 L   6.800 -73.131152.2  RSN  9 0.4 2.1LRSN                1
 GAP=206        0.94       3.4     5.1  5.3 -0.2721E+01  0.5875E+01  0.3778E+01E
 Epicentro: LOS SANTOS - SANTANDER                                             3
 ACTION:UPD 13-08-12 10:36 OP:ep   STATUS:               ID:20130709021625 L   I
 OLDACT:REG 13-07-09 07:33 OP:nd   STATUS:               ID:20130709020959     3
 2013-07-09-0209-59M.COL___265                                                 6
 STAT SP IPHASW D HRMM SECON CODA AMPLIT PERI AZIMU VELO AIN AR TRES W  DIS CAZ7
 BAR2 SZ IP     C  216 45.31                             171   -0.0810 23.7 194 
 BAR2 SZ ES        217  0.78                             171   -0.5310 23.7 194 
 BAR2 SZ I         217  3.29        12.9 0.24            166           23.7 194 
 GIR2 SZ EP        216 45.72                             168    0.2910 31.6 347 
 GIR2 SZ ES        217  1.47                             168    0.1010 31.6 347 
 GIR2 SZ I         217  2.70        16.4 0.10            166           31.6 347 
 BRR  HZ IP     C  216 47.26                             153    0.3610 72.6 298 
 BRR  HN ES        217  4.82                             153    0.8210 72.6 298 
 BRR  HZ I         217  7.17        17.6 0.16            149           72.6 298 
 PTB  HZ EP        216 52.21                             133   -0.41 9  149 259 
 PTB  HN ES        217 13.73                             133   -0.45 9  149 259 
 PTB  HZ I         217 20.60        21.3 0.30            130            149 259 
 NOR  HZ EP        217  1.56                             120    0.33 8  236 235 
 NOR  HN ES        217 29.25                             120   -0.26 8  236 235 
 NOR  HZ I         217 37.06        10.4 0.18            119            236 235 
 SML  HZ EP        217  1.79                             119   -0.26 8  244 335 
 SML  HN ES        217 30.38                             119   -0.57 8  244 335 
 SML  HZ I         217 38.33        14.1 0.26            119            244 335 
 CHI  HZ EP        217  3.40                             118    0.31 8  249 196 
 CHI  HN ES        217 32.50                             118   -0.32 8  249 196 
 CHI  HZ I         217 42.37         4.5 0.44            118            249 196 
 HEL  HZ EP   2    217  5.81                             116    0.11 4  274 256 
 HEL  HN ES        217 37.93                             116    0.47 8  274 256 
 HEL  HZ I         217 44.97         5.8 0.28            115            274 256 
 PRA  HZ EP   2    217 19.04                             107    0.22 3  393 210 
 PRA  HN ES        218  0.73                             107   -0.09 6  393 210 
 PRA  HZ I         218  4.63         4.7 0.56            108            393 210 
                                                                                
