 2016  9 9 0524  2.4 L   6.805 -73.151145.6  RSN 16 0.4 2.1LRSN                1
 GAP=136        0.96       3.2     3.6  5.0 -0.1637E+01  0.5031E+01  0.1551E+01E
 Epicentro: LOS SANTOS - SANTANDER                                             3
 ACTION:UPD 17-08-17 21:08 OP:lp   STATUS:               ID:20160909052402 L   I
 OLDACT:UP  16-09-09 16:16 OP:dani STATUS:               ID:20160909051739     3
 OLDACT:UP  16-09-09 16:16 OP:dani STATUS:               ID:20160909051739     3
 OLDACT:REG 16-09-09 12:37 OP:dani STATUS:               ID:20160909051739     3
 2016-09-09-0518-00M.COL___359                                                 6
 STAT SP IPHASW D HRMM SECON CODA AMPLIT PERI AZIMU VELO AIN AR TRES W  DIS CAZ7
 BAR2 EZ EP        524 21.78                             170   -0.2010 23.8 189 
 BAR2 EZ ES        524 37.03                             170   -0.2510 23.8 189 
 BAR2 EZ I         524 38.03        37.4 0.22            168           23.8 189 
 BRR  HZ EP     C  524 23.57                             153    0.1210 70.5 298 
 BRR  HN ES        524 40.33                             153    0.4310 70.5 298 
 BRR  HZ I         524 44.46        18.1 0.30            146           70.5 298 
 PAM  EZ EP        524 24.74                             151    0.1810 77.3  40 
 PAM  EN ES        524 41.93                             151    0.0610 77.3  40 
 PAM  EZ I         524 43.97        22.9 0.48            150           77.3  40 
 RUS  HZ EP        524 26.06                             144   -0.0810  101 176 
 RUS  HN ES        524 44.90                             144    0.2210  101 176 
 RUS  HZ I         524 45.55        20.0 0.26            141            101 176 
 PTB  HZ EP        524 28.28                             132   -1.00 9  147 259 
 PTB  HN ES        524 50.19                             132   -0.08 9  147 259 
 PTB  HZ I         524 52.17        17.4 0.76            127            147 259 
 OCA  HZ EP        524 30.91                             130    0.30 9  160 353 
 OCA  HE ES   4    524 54.10                             130    1.47 0  160 353 
 OCA  HZ I         524 55.20        22.6 0.27            126            160 353 
 SPBC HZ EP        524 30.66                             129   -0.20 9  163 219 
 SPBC HN ES        524 53.05                             129   -0.03 9  163 219 
 SPBC HZ I         524 55.21        26.2 0.26            125            163 219 
 ZAR  HZ EP        524 34.24                             122   -0.49 9  203 292 
 ZAR  HE ES        524 59.81                             122   -0.16 9  203 292 
 ZAR  HZ I         525  7.65        11.8 0.32            118            203 292 
 NOR  HZ EP        524 38.03                             118   -0.04 8  235 234 
 NOR  HE ES        525  5.85                             118   -0.07 8  235 234 
 NOR  HZ I         525  8.34        10.6 0.16            115            235 234 
 CHI  HZ EP        524 39.93                             117   -0.17 8  249 195 
 CHI  HN ES        525  9.63                             117    0.11 8  249 195 
 CHI  HZ I         525 12.57         8.3 0.36            114            249 195 
 ROSC BZ EP   4    524 42.03                             117    1.53 0  253 211 
 ROSC BN ES   4    525 13.04                             117    2.80 0  253 211 
 ROSC BZ I         525 16.24        10.3 0.47            113            253 211 
 HEL  HZ EP   4    524 43.96                             115    1.43 0  272 256 
 HEL  HN ES   4    525 13.04                             115   -0.81 0  272 256 
 HEL  HZ I         525 19.40         6.3 0.38            111            272 256 
 URE  HZ EP   4    524 42.28                             114   -1.07 0  283 292 
 URE  HN ES   4    525 12.91                             114   -2.40 0  283 292 
 URE  HZ I         525 17.56         6.8 0.32            110            283 292 
 GUY2CHZ EP        524 47.17                             112    1.22 7  301 235 
 GUY2CHN ES   4    525 24.13                             112    4.18 0  301 235 
 GUY2CHZ I         525 27.01         5.6 0.64                           301 235 
 PTGC HZ EP   4    524 44.91                             112   -1.39 0  309 159 
 CBOC HZ EP   4    524 51.02                             110    1.79 0  333 252 
 CBOC HE ES        525 26.66                             110    0.87 7  333 252 
 CBOC HZ I         525 37.11         2.7 0.46            107            333 252 
 PAL  HZ EP        524 57.44                             106   -0.06 6  405 239 
 PAL  HZ I         525 44.19         2.4 0.23            103            405 239 
                                                                                
