 2014  7 9 0531 35.3 L   6.779 -73.096146.6  RSN  5 0.3 1.6LRSN                1
 GAP=188        0.86       3.5     7.7  6.9  0.1548E+01  0.1141E+01  0.1327E+01E
 Epicentro: LOS SANTOS - SANTANDER                                             3
 ACTION:UPD 15-03-16 20:42 OP:nd   STATUS:               ID:20140709053135 L   I
 OLDACT:DUP 14-07-09 18:23 OP:stll STATUS:               ID:20140709052820d    3
 2014-07-09-0528-19M.COL___265                                                 6
 STAT SP IPHASW D HRMM SECON CODA AMPLIT PERI AZIMU VELO AIN AR TRES W  DIS CAZ7
 BAR2 SZ EP        531 55.01                             171    0.0210 22.8 205 
 BAR2 SZ ES        532  9.87                             171   -0.5010 22.8 205 
 BAR2 SZ I         532 12.70        10.0 0.18            173           22.8 205 
 BRR  HZ EP        531 56.89                             151    0.0410 77.1 298 
 BRR  HN ES        532 14.26                             151    0.5810 77.1 298 
 BRR  HZ I         532 15.03         5.6 0.14            153           77.1 298 
 RUS  HZ EP        531 59.21                             145    0.2810 98.1 179 
 RUS  HN ES        532 17.63                             145    0.2510 98.1 179 
 RUS  HZ I         532 19.21         3.9 0.20            147           98.1 179 
 OCA  HN ES        532 26.00                             129   -0.28 9  163 351 
 OCA  HZ I         532 29.74         4.8 0.34            130            163 351 
 SPBC HZ EP        532  3.83                             129   -0.17 9  165 221 
 SPBC HZ I         532  4.34         5.6 0.10            132            165 221 
 SPBC HN ES        532 26.07                             129   -0.34 9  165 221 
                                                                                
