 2015  6 9 0025 31.8 L   6.868 -73.323122.2  RSN 11 0.5 1.7LRSN                1
 GAP=100        1.23       3.2     4.7  7.0 -0.9044E+00  0.1166E+02 -0.1569E+01E
 Epicentro: BETULIA - SANTANDER                                                3
 ACTION:UPD 15-09-10 22:10 OP:cam  STATUS:               ID:20150609002531 L   I
 OLDACT:REG 15-06-09 12:52 OP:stll STATUS:               ID:20150609001747     3
 2015-06-09-0017-47M.COL___300                                                 6
 STAT SP IPHASW D HRMM SECON CODA AMPLIT PERI AZIMU VELO AIN AR TRES W  DIS CAZ7
 BAR2 EZ EP        025 49.24                             163    0.3210 34.3 153 
 BAR2 EZ ES        026  2.16                             163   -0.1210 34.3 153 
 BRR  HZ IP     C  025 49.65                             156    0.4010 50.4 302 
 BRR  HN ES        026  3.34                             156    0.4710 50.4 302 
 BRR  HZ I         026  4.67        14.4 0.10            152           50.4 302 
 PAM  SZ EP        025 51.66                             143   -0.5510 86.4  53 
 PAM  SN ES        026  8.40                             143    0.2810 86.4  53 
 PAM  SZ I         026  9.87         4.4 0.18            148           86.4  53 
 RUS  HZ EP        025 54.52                             135    0.3310  111 166 
 RUS  HN ES        026 11.02                             135   -0.6410  111 166 
 RUS  HZ I         026 13.92         3.3 0.34            131            111 166 
 OCA  HZ EP        025 57.51                             125   -0.01 9  152   0 
 OCA  HN ES        026 17.09                             125   -0.48 9  152   0 
 OCA  HZ I         026 25.93        14.7 0.22            126            152   0 
 SPBC HZ EP        025 58.19                             124    0.12 9  158 212 
 SPBC HN ES        026 18.57                             124    0.01 9  158 212 
 SPBC HZ I         026 23.69         9.9 0.44            120            158 212 
 ZAR  HZ EP        026  0.95                             120    0.39 9  183 292 
 ZAR  HN ES        026 23.01                             120    0.01 9  183 292 
 ZAR  HZ I         026 25.70         8.1 0.50            117            183 292 
 SML  HZ EP        026  5.23                             114   -0.35 8  229 339 
 SML  HN ES        026 31.70                             114   -0.22 8  229 339 
 SML  HZ I         026 40.02        13.9 0.10            113            229 339 
 HEL  HZ I         026 46.27         3.6 0.56            108            255 253 
 GUY2CHZ EP        026 14.31                             108    1.18 7  290 231 
 GUY2CHN ES        026 43.97                             108   -1.40 7  290 231 
 GUY2CHZ I         026 52.94         2.4 0.50                           290 231 
 MON  HZ EP   9    026 16.47                             105   -1.16 0  334 309 
 MON  HZ I         026 26.28         1.1 0.30            104            334 309 
 MON  HN ES        026 51.40                                   -0.82 7  334 309 
                                                                                
