 2017  4 9 0659 32.1 L   6.792 -73.116154.8  RSN  6 0.3 0.6LRSN                1
 GAP=141        0.48       2.8     2.4  5.2 -0.4932E+00  0.3905E+01 -0.2659E+01E
 Epicentro: LOS SANTOS - SANTANDER                                             3
 ACTION:UPD 17-05-30 21:10 OP:jn   STATUS:               ID:20170409065932 L   I
 OLDACT:UP  17-04-09 16:34 OP:and  STATUS:               ID:20170409065739     3
 OLDACT:REG 17-04-09 13:00 OP:and  STATUS:               ID:20170409065739     3
 2017-04-09-0658-00M.COL___371                                                 6
 STAT SP IPHASW D HRMM SECON CODA AMPLIT PERI AZIMU VELO AIN AR TRES W  DIS CAZ7
 BAR2 EZ EP   2    659 52.83                             171   -0.01 5 23.2 198 
 BAR2 EZ ES   2    7 0  8.88                             171   -0.11 5 23.2 198 
 BRR  HN ES   2    7 0 12.17                             153    0.33 5 74.5 298 
 PAM  EZ EP        659 55.30                             153    0.0710 76.1  37 
 PAM  EN ES        7 0 13.13                             153   -0.1310 76.1  37 
 PAM  EZ I         7 0 14.69         0.6 0.22            141           76.1  37 
 RUS  HZ EP   2    659 57.20                             146    0.50 5 99.5 178 
 RUS  HZ I         7 0 15.79         0.5 0.22            124           99.5 178 
 RUS  HN ES        7 0 15.85                             146   -0.0110 99.5 178 
 PTB  HZ EP   2    659 59.89                             133   -0.22 5  151 259 
 PTB  HE ES        7 0 21.79                             133   -0.14 9  151 259 
 PTB  HZ I         7 0 27.44         0.8 0.24            119            151 259 
 ZAR  HZ EP   2    7 0  4.81                             124   -0.70 4  207 292 
 ZAR  HN ES        7 0 31.82                             124    0.26 8  207 292 
                                                                                
