 2017  2 9 0621 27.0 L   6.727 -73.173142.4  RSN  7 0.6 1.4LRSN                1
 GAP=229        1.41       8.0     8.8  9.8  0.3605E+02  0.2545E+02  0.2841E+02E
 Epicentro: VILLANUEVA - SANTANDER                                             3
 ACTION:UPD 17-05-24 15:34 OP:jn   STATUS:               ID:20170209062127 L   I
 OLDACT:UP  17-02-09 18:43 OP:edw  STATUS:               ID:20170209061326     3
 OLDACT:REG 17-02-09 13:31 OP:edw  STATUS:               ID:20170209061326     3
 2017-02-09-0618-00M.COL___349                                                 6
 STAT SP IPHASW D HRMM SECON CODA AMPLIT PERI AZIMU VELO AIN AR TRES W  DIS CAZ7
 BAR2 EZ IP     D  621 45.63                             174   -0.4710 14.9 184 
 BAR2 EZ ES        622  1.36                             174    0.3710 14.9 184 
 BAR2 EZ I         622  2.19         9.0 0.42            168           14.9 184 
 BRR  HZ IP     D  621 47.49                             151   -0.4210 72.9 305 
 BRR  HN ES        622  4.34                             151    0.1410 72.9 305 
 BRR  HZ I         622  8.48         2.8 0.03            150           72.9 305 
 RUS  HZ EP        621 49.95                             145    0.0710 92.8 174 
 RUS  HN ES        622  7.89                             145    0.1710 92.8 174 
 RUS  HZ I         622  8.98         6.0 0.48            144           92.8 174 
 PTB  HZ EP   4    621 52.57                             132   -0.75 0  143 262 
 PTB  HN ES        622 12.56                             132   -1.27 9  143 262 
 PTB  HZ I         622 14.76         2.2 0.10            130            143 262 
 ZAR  HZ EP   2    621 58.84                             122   -0.45 4  204 295 
 ZAR  HN ES        622 25.71                             122    1.24 9  204 295 
 ZAR  HZ I         622 30.07         3.9 0.38            121            204 295 
 CHI  HZ EP        622  3.83                             117    0.24 8  240 195 
 CHI  HN ES   4    622 30.32                             117   -1.80 0  240 195 
 CHI  HZ I         622 41.31         1.0 0.34            117            240 195 
 URE  HZ EP   4    622  9.66                             113    1.69 0  284 294 
 URE  HN ES   4    622 47.22                             113    7.31 0  284 294 
 PRA  HZ EP        622 19.78                             106    0.36 6  383 210 
 PRA  HE ES        623  0.78                             106    0.48 6  383 210 
 PRA  HZ I         623  4.02         1.0 0.11            106            383 210 
                                                                                
