 2016  7 9 0600 39.3 L   6.803 -73.169148.5  RSN  7 0.2 1.4LRSN                1
 GAP=133        0.62       2.6     2.6  3.9 -0.1591E+00  0.2557E+01  0.1192E+00E
 Epicentro: LOS SANTOS - SANTANDER                                             3
 ACTION:UPD 17-03-29 16:48 OP:lp   STATUS:               ID:20160709060039 L   I
 OLDACT:REG 16-07-09 14:30 OP:edw  STATUS:               ID:20160709055746     3
 2016-07-09-0557-46M.COL___328                                                 6
 STAT SP IPHASW D HRMM SECON CODA AMPLIT PERI AZIMU VELO AIN AR TRES W  DIS CAZ7
 BAR2 EZ EP        6 0 59.23                             171   -0.0410 23.4 184 
 BAR2 EZ ES        6 1 14.55                             171   -0.2910 23.4 184 
 BAR2 EZ I         6 1 16.99         7.5 0.24            171           23.4 184 
 BRR  HZ EP        6 1  0.71                             154    0.0910 68.7 299 
 BRR  HN ES        6 1 17.48                             154    0.2410 68.7 299 
 PAM  EZ EP        6 1  1.84                             151   -0.0610 78.8  41 
 PAM  EN ES        6 1 19.48                             151   -0.0410 78.8  41 
 PAM  EZ I         6 1 21.60         5.2 0.68            153           78.8  41 
 RUS  HZ EP        6 1  3.65                             144    0.2810  101 175 
 RUS  HN ES        6 1 22.26                             144    0.1210  101 175 
 RUS  HZ I         6 1 23.08         4.1 0.32            146            101 175 
 PTB  HZ EP        6 1  5.92                             133   -0.36 9  145 258 
 PTB  HN ES        6 1 27.04                             133   -0.27 9  145 258 
 PTB  HZ I         6 1 30.18         1.7 0.09            135            145 258 
 SPBC HZ EP        6 1  8.08                             130    0.19 9  162 218 
 SPBC HN ES        6 1 30.16                             130   -0.02 9  162 218 
 SPBC HZ I         6 1 31.87         4.4 0.28            131            162 218 
 ZAR  HZ EP        6 1 11.35                             123   -0.32 9  202 292 
 ZAR  HN ES        6 1 37.35                             123    0.44 9  202 292 
                                                                                
