 2014 10 9 0825  7.0 L   6.296 -73.647104.5  RSN  5 0.3 1.2LRSN                1
 GAP=161        0.80       5.2     4.3  8.1  0.1273E+02  0.1244E+02  0.1898E+01E
 Epicentro: SANTA HELENA DEL OPON - SANTANDER                                  3
 ACTION:UPD 14-11-29 23:48 OP:nd   STATUS:               ID:20141009082507 L   I
 OLDACT:REG 14-10-09 13:40 OP:fm   STATUS:               ID:20141009081742     3
 2014-10-09-0817-42M.COL___250                                                 6
 STAT SP IPHASW D HRMM SECON CODA AMPLIT PERI AZIMU VELO AIN AR TRES W  DIS CAZ7
 BAR2 SZ ES   1    825 36.73                             147    0.31 7 61.0  58 
 RUS  HZ EP        825 25.12                             141    0.0910 76.8 126 
 RUS  HN ES        825 39.15                             141    0.0910 76.8 126 
 RUS  HZ I         825 40.55         2.0 0.36            146           76.8 126 
 BRR  HZ EP   1    825 25.04                             136   -0.37 7 90.0 355 
 BRR  HN ES   1    825 39.22                             136   -0.52 7 90.0 355 
 BRR  HZ I         825 43.00         3.5 0.18            138           90.0 355 
 PTB  HZ EP        825 25.50                             135   -0.2310 93.4 287 
 PTB  HN ES        825 40.16                             135   -0.1510 93.4 287 
 PTB  HZ I         825 42.62         5.8 0.12            137           93.4 287 
 ZAR  HZ EP   1    825 35.34                             113   -0.05 7  188 315 
 ZAR  HN ES        825 58.23                             113    0.72 9  188 315 
 ZAR  HZ I         826  0.11         3.3 0.26            117            188 315 
                                                                                
