 2017  3 9 0437 11.5 L   6.748 -73.169140.0  RSN  6 0.3 1.0LRSN                1
 GAP=231        0.43       5.3     3.3  6.3  0.1390E+01  0.4264E+00 -0.4456E+01E
 Epicentro: LOS SANTOS - SANTANDER                                             3
 ACTION:UPD 17-05-25 18:38 OP:jn   STATUS:               ID:20170309043711 L   I
 OLDACT:UP  17-03-09 15:48 OP:and  STATUS:               ID:20170309042745d    3
 OLDACT:UP  17-03-09 15:45 OP:and  STATUS:               ID:20170309042745d    3
 OLDACT:DUP 17-03-09 15:43 OP:and  STATUS:               ID:20170309042745d    3
 OLDACT:UP  17-03-09 15:43 OP:and  STATUS:               ID:20170309042744     3
 OLDACT:UP  17-03-09 15:42 OP:and  STATUS:               ID:20170309042744     3
 OLDACT:UP  17-03-09 15:41 OP:and  STATUS:               ID:20170309042744     3
 OLDACT:UP  17-03-09 15:41 OP:and  STATUS:               ID:20170309042744     3
 OLDACT:UP  17-03-09 15:41 OP:and  STATUS:               ID:20170309042744     3
 OLDACT:UP  17-03-09 15:39 OP:and  STATUS:               ID:20170309042744     3
 OLDACT:UP  17-03-09 15:39 OP:and  STATUS:               ID:20170309042744     3
 OLDACT:REG 17-03-09 12:37 OP:and  STATUS:               ID:20170309042744     3
 2017-03-09-0428-00M.COL___397                                                 6
 STAT SP IPHASW D HRMM SECON CODA AMPLIT PERI AZIMU VELO AIN AR TRES W  DIS CAZ7
 BAR2 EZ EP        437 30.22                             172   -0.1510 17.3 185 
 BAR2 EZ ES   2    437 44.75                             172   -0.31 5 17.3 185 
 BRR  HZ EP   2    437 32.38                             151    0.27 5 71.9 304 
 BRR  HN ES   3    437 49.33                             151    1.17 2 71.9 304 
 BRR  HZ I         437 53.69         2.1 0.26            153           71.9 304 
 RUS  HZ EP   2    437 34.51                             144    0.18 5 95.1 174 
 RUS  HN ES   2    437 52.41                             144    0.30 5 95.1 174 
 RUS  HZ I         437 53.57         1.1 0.20            149           95.1 174 
 PTB  HZ EP   2    437 37.73                             131    0.01 5  144 261 
 PTB  HN ES        437 58.08                             131   -0.05 9  144 261 
 PTB  HZ I         438  0.41         0.9 0.16            135            144 261 
 SPBC HE ES   2    438  0.55                             129    0.09 5  157 220 
 SPBC HZ I         438  6.77         1.8 0.09            133            157 220 
 NOR  HZ EP   2    437 46.31                             118   -0.05 4  229 235 
                                                                                
