 2011  1 9 0841 13.5 L   6.813 -73.143139.5  RSN 16 0.4 2.3LRSN                1
 GAP=136        0.69       2.3     4.3  5.2 -0.2752E+01  0.7648E+01  0.1335E+01E
 Epicentro: LOS SANTOS - SANTANDER                                             3
 ACTION:UP  11-02-08 08:39 OP:pat  STATUS:               ID:20110109084113 L   I
 2011-01-09-0839-34S.COL___135                                                 6
 STAT SP IPHASW D HRMM SECON CODA AMPLIT PERI AZIMU VELO SNR AR TRES W  DIS CAZ7
 BTL  SZ IP        841 32.72                             172     0.410   18 310 
 BAR2 SZ IP        841 32.48                             169     0.110   25 191 
 BAR2 SZ ES   1    841 47.41                             169     0.2 7   25 191 
 BAR2 SZ I         841 48.50        50.0 0.40                            25 191 
 RUS  HZ EP   1    841 36.51                             142    -0.2 7  102 176 
 RUS  HN ES   1    841 54.36                             142    -0.5 7  102 176 
 RUS  HZ I         841 56.74        14.7 0.26                           102 176 
 GRA  SZ IP        841 38.25                             136     0.210  124  17 
 GRA  SZ ES   1    841 56.76                             136    -0.5 7  124  17 
 GRA  SZ I         842  2.13        17.2 0.30                           124  17 
 OCA  SZ EP   1    841 41.04                             128    -0.2 7  159 353 
 OCA  SZ ES   1    842  2.75                             128    -0.1 7  159 353 
 OCA  SZ I         842  7.44        25.6 0.30                           159 353 
 YOP  SZ IP        841 43.30                             125     0.1 9  180 154 
 YOP  SZ I         841 43.89        10.2 0.18                           180 154 
 YOP  SN ES   2    842  6.74                             125     0.3 4  180 154 
 NOR  SZ EP   2    841 48.92                             117    -0.1 4  236 234 
 NOR  SE ES   2    842 16.21                             117    -0.5 4  236 234 
 CHI  HZ EP   1    841 50.77                             116    -0.3 6  250 195 
 CHI  HN ES   1    842 19.92                             116    -0.4 6  250 195 
 CHI  HZ I         842 26.34        12.7 0.18                           250 195 
 ROSC BZ EP   1    841 51.93                             115     0.5 6  254 211 
 ROSC BN ES   1    842 21.52                             115     0.5 6  254 211 
 ROSC BZ I         842 26.62        26.1 0.36                           254 211 
 HEL  HZ EP   1    841 53.21                             113    -0.3 6  273 256 
 HEL  HN ES   2    842 24.91                             113     0.2 4  273 256 
 HEL  HZ I         842 30.98        10.4 0.32                           273 256 
 VIL  SZ EP   2    841 57.03                             111     0.4 4  303 190 
 VIL  SZ I         842 33.33         8.5 0.20                           303 190 
 RREF HZ EP   2    841 59.68                             110     0.2 3  323 229 
 RREF HN ES   1    842 35.75                             110     0.3 5  323 229 
 RREF HZ I         842 42.10        13.5 0.25                           323 229 
 DBB  SZ EP   1    842  0.32                             108    -0.4 5  340 274 
 TOL  SZ EP   2    842  2.32                             108     0.7 3  345 225 
 PRA  HZ EP   1    842  6.63                             105    -0.3 4  393 210 
 PRA  HN ES   1    842 48.09                             105    -0.6 4  393 210 
 SJA  SZ EP   2    842  7.34                             105    -0.7 3  402 193 
 SJA  SZ I         842 53.03        15.9 0.62                           402 193 
                                                                                
