 2016 12 9 0857 49.3 L   6.323 -73.619100.2  RSN  5 0.4 1.1LRSN                1
 GAP=109        1.07       5.6     4.4 10.5  0.7857E+01  0.2768E+02  0.1850E+02E
 Epicentro: SANTA HELENA DEL OPON - SANTANDER                                  3
 ACTION:UPD 17-01-11 20:13 OP:rebc STATUS:               ID:20161209085749 L   I
 OLDACT:REG 16-12-09 12:41 OP:dnl  STATUS:               ID:20161209084732     3
 2016-12-09-0848-00M.COL___355                                                 6
 STAT SP IPHASW D HRMM SECON CODA AMPLIT PERI AZIMU VELO AIN AR TRES W  DIS CAZ7
 BAR2 EZ EP        858  5.08                             148    0.0210 56.7  58 
 BAR2 EZ ES        858 17.36                             148   -0.0110 56.7  58 
 BAR2 EZ I         858 19.16         9.8 0.38            152           56.7  58 
 RUS  HZ EP        858  6.80                             140   -0.0110 76.1 129 
 RUS  HN ES        858 20.72                             140    0.2410 76.1 129 
 RUS  HZ I         858 23.25         1.8 0.24            145           76.1 129 
 PTB  HZ EP        858  6.92                             132   -0.8810 95.6 285 
 PTB  HN ES        858 22.01                             132   -0.2410 95.6 285 
 PTB  HZ I         858 24.91         2.6 0.16            135           95.6 285 
 ZAR  HN ES        858 40.17                             112    0.76 9  188 313 
 ZAR  HZ I         858 42.88         1.2 0.52            115            188 313 
 GUY2CHZ EP        858 22.66                             108    0.03 8  228 238 
 GUY2CHN ES        858 49.04                             108    0.40 8  228 238 
 GUY2CHZ I         858 54.27         0.9 0.32                           228 238 
                                                                                
