 2012  1 9 0440 52.8 L   7.376 -73.310121.3  RSN  9 0.3 1.9LRSN                1
 GAP= 94        0.64       4.1     3.8  5.1 -0.1689E+01  0.5262E+01  0.7160E+00E
 Epicentro: EL PLAYON - SANTANDER                                              3
 ACTION:UP  12-02-03 08:15 OP:REBC STATUS:               ID:20120109044052 L   I
 2012-01-09-0440-00M.COL___186                                                 6
 STAT SP IPHASW D HRMM SECON CODA AMPLIT PERI AZIMU VELO SNR AR TRES W  DIS CAZ7
 GIR2 SZ EP   1    441  9.62                             163    -0.1 7   35 159 
 GIR2 SZ ES   1    441 22.46                             163    -0.5 7   35 159 
 BRR  HZ IP     C  441 10.33                             155     0.010   53 236 
 BRR  HZ I         441 10.60        49.1 0.17                            53 236 
 BRR  HE ES   1    441 24.39                             155     0.4 7   53 236 
 PAM  SZ EP   1    441 12.35                             149     0.5 7   68  93 
 PAM  SE ES   1    441 26.94                             149     0.2 7   68  93 
 BAR2 SZ EP        441 12.87                             142     0.010   88 171 
 BAR2 SZ ES   2    441 28.30                             142    -0.3 5   88 171 
 BAR2 SZ I         441 29.52        34.7 0.34                            88 171 
 OCA  SZ EP   1    441 13.00                             139    -0.4 7   95 359 
 OCA  SZ ES   2    441 29.42                             139     0.0 5   95 359 
 OCA  SZ I         441 29.61         5.5 0.18                            95 359 
 PTB  HZ EP   1    441 18.51                             124    -0.3 7  157 234 
 PTB  HN ES   2    441 39.11                             124     0.0 5  157 234 
 RUS  HZ EP   1    441 20.53                             123     0.1 7  166 171 
 ZAR  HN ES   2    441 42.10                             121     0.3 4  171 274 
 ZAR  HZ I         441 45.33        12.7 0.35                           171 274 
 HEL  HZ EP   1    441 32.84                             109     0.2 6  278 242 
 HEL  HZ I         442 13.72         1.8 0.47                           278 242 
                                                                                
