 2013  8 9 0517  6.1 L   6.746 -73.136144.7  RSN  9 0.4 1.3LRSN                1
 GAP=140        0.82       4.0     4.8  6.7  0.6278E+00  0.7199E-02 -0.4694E+00E
 Epicentro: JORDAN - SANTANDER                                                 3
 ACTION:UPD 14-01-14 09:00 OP:ep   STATUS:               ID:20130809051706 L   I
 OLDACT:UP  13-08-09 08:35 OP:jn   STATUS:               ID:20130809050960d    3
 OLDACT:REG 13-08-09 06:27 OP:jn   STATUS:               ID:20130809050960d    3
 2013-08-09-0509-59M.COL___266                                                 6
 STAT SP IPHASW D HRMM SECON CODA AMPLIT PERI AZIMU VELO AIN AR TRES W  DIS CAZ7
 BAR2 SZ EP        517 25.60                             173    0.0810 17.8 197 
 BAR2 SZ ES   1    517 40.80                             173    0.15 7 17.8 197 
 BAR2 SZ I         517 43.07         4.3 0.24            168           17.8 197 
 GIR2 SZ EP        517 25.62                             165   -0.2210 37.3 350 
 GIR2 SZ ES   1    517 40.74                             165   -0.48 7 37.3 350 
 GIR2 SZ I         517 42.78         3.0 0.26            163           37.3 350 
 BRR  HZ EP        517 27.29                             151   -0.0910 75.1 302 
 BRR  HN ES        517 44.16                             151    0.2010 75.1 302 
 BRR  HZ I         517 48.05         3.8 0.30            148           75.1 302 
 PAM  SZ EP   1    517 28.51                             149    0.05 7 81.4  36 
 RUS  HZ EP   1    517 29.73                             145    0.39 7 94.6 176 
 RUS  HN ES   1    517 47.74                             145    0.29 7 94.6 176 
 RUS  HZ I         517 49.14         2.0 0.28            147           94.6 176 
 PTB  HZ EP   1    517 32.36                             132   -0.64 7  148 261 
 PTB  HN ES   1    517 53.32                             132   -0.65 7  148 261 
 PTB  HZ I         517 59.71         2.5 0.38            130            148 261 
 SPBC HN ES   1    517 55.97                             130   -0.08 7  159 221 
 OCA  HE ES   1    517 57.43                             128    0.06 7  166 353 
 ZAR  HE ES   1    518  5.41                             122    1.06 6  207 294 
 ZAR  HZ I         518 11.45         2.7 0.36            122            207 294 
                                                                                
