 2013  3 9 0626  2.0 L   6.769 -73.177151.4  RSN  5 0.2 1.5LRSN                1
 GAP= 97        0.46       8.1     4.8  8.3  0.3631E+01 -0.2463E+02  0.2737E+02E
 Epicentro: LOS SANTOS - SANTANDER                                             3
 ACTION:UPD 13-04-09 14:01 OP:ep   STATUS:               ID:20130309062602 L   I
 2013-03-09-0618-47M.COL___198                                                 6
 STAT SP IPHASW D HRMM SECON CODA AMPLIT PERI AZIMU VELO AIN AR TRES W  DIS CAZ7
 BAR2 SZ EP        626 22.22                             172   -0.0610 19.5 182 
 BRR  HZ EP        626 24.00                             153    0.2610 70.0 302 
 BRR  HN ES        626 40.59                             153   -0.0710 70.0 302 
 PAM  SZ EP        626 25.02                             150   -0.1310 82.2  40 
 PTB  HZ EP   2    626 28.81                             134   -0.31 5  144 260 
 TAM  HZ EP        626 30.47                             131    0.07 9  158 103 
 TAM  HZ I         626 30.89         3.5 0.40            131            158 103 
                                                                                
