 2015  4 9 0449 51.7 L   6.364 -73.623105.3  RSN 12 0.4 1.7LRSN                1
 GAP= 81        0.95       3.1     3.1  6.6 -0.8413E+00  0.8859E+01 -0.8500E+00E
 Epicentro: SANTA HELENA DEL OPON - SANTANDER                                  3
 ACTION:UPD 15-06-03 16:53 OP:cam  STATUS:               ID:20150409044951 L   I
 OLDACT:UP  15-04-09 14:23 OP:mh   STATUS:               ID:20150409044748     3
 OLDACT:UP  15-04-09 14:22 OP:mh   STATUS:               ID:20150409044748     3
 OLDACT:REG 15-04-09 13:06 OP:akv  STATUS:               ID:20150409044748     3
 2015-04-09-0447-48M.COL___266                                                 6
 STAT SP IPHASW D HRMM SECON CODA AMPLIT PERI AZIMU VELO AIN AR TRES W  DIS CAZ7
 BAR2 EZ EP        450  8.16                             150    0.2610 54.9  63 
 BAR2 EZ ES        450 20.92                             150    0.3810 54.9  63 
 RUS  HZ EP   1    450  9.86                             140   -0.09 7 79.3 131 
 RUS  HN ES        450 24.23                             140    0.0410 79.3 131 
 RUS  HZ I         450 25.76         7.1 0.42            130           79.3 131 
 BRR  HZ EP        450  9.32                             139   -0.2310 82.8 353 
 BRR  HN ES        450 23.56                             139    0.0910 82.8 353 
 BRR  HZ I         450 24.37         8.8 0.46            128           82.8 353 
 SPBC HZ EP   1    450 10.34                             135   -0.19 7 93.1 212 
 SPBC HN ES        450 24.39                             135   -0.8310 93.1 212 
 SPBC HZ I         450 29.46        10.0 0.24            125           93.1 212 
 PTB  HZ EP   1    450 10.43                             135   -0.09 7 94.2 282 
 PTB  HN ES        450 25.61                             135    0.4010 94.2 282 
 PTB  HZ I         450 26.19         8.6 0.16            125           94.2 282 
 PAM  SN ES   1    450 35.61                             121   -0.08 7  149  43 
 PAM  SZ I         450 37.01         7.3 0.16            112            149  43 
 NOR  HZ EP   2    450 17.19                             118   -0.30 5  164 237 
 NOR  HN ES   1    450 37.71                             118    0.11 7  164 237 
 NOR  HZ I         450 39.52         9.4 0.18            109            164 237 
 ZAR  HZ EP        450 19.27                             114   -0.46 9  185 313 
 ZAR  HN ES        450 41.09                             114   -0.51 9  185 313 
 ZAR  HZ I         450 45.16        10.9 0.28            107            185 313 
 HEL  HZ EP   1    450 23.54                             111    0.33 6  212 265 
 HEL  HN ES   1    450 48.25                             111    0.47 6  212 265 
 HEL  HZ I         450 50.90         7.0 0.05            105            212 265 
 GUY2CHZ EP        450 26.36                             109    0.88 8  230 237 
 GUY2CHN ES   4    450 53.60                             109    1.77 0  230 237 
 URE  HZ EP   4    450 29.02                             106    0.57 0  261 306 
 URE  HN ES   4    450 53.96                             106   -3.16 0  261 306 
 URE  HZ I         450 56.46         6.5 0.10            101            261 306 
 MON  HZ EP   4    450 36.70                             100   -2.25 0  349 320 
 MON  HZ I         451 12.25         1.2 0.60             98            349 320 
 MON  HN ES   4    451 12.56                             100   -3.24 0  349 320 
                                                                                
