 2014  2 9 0839 56.8 L   6.774 -73.133145.2  RSN  7 0.4 1.4LRSN                1
 GAP=139        0.77       3.5     3.9  6.5 -0.3750E+00  0.6795E+01 -0.4400E+01E
 Epicentro: LOS SANTOS - SANTANDER                                             3
 ACTION:UPD 14-03-10 08:08 OP:ep   STATUS:               ID:20140209083956 L   I
 OLDACT:UP  14-02-09 12:49 OP:mh   STATUS:               ID:20140209083741d    3
 OLDACT:UP  14-02-09 12:47 OP:mh   STATUS:               ID:20140209083741d    3
 OLDACT:UP  14-02-09 12:47 OP:mh   STATUS:               ID:20140209083741d    3
 OLDACT:DUP 14-02-09 12:47 OP:mh   STATUS:               ID:20140209083741d    3
 2014-02-09-0837-40M.COL___230                                                 6
 STAT SP IPHASW D HRMM SECON CODA AMPLIT PERI AZIMU VELO AIN AR TRES W  DIS CAZ7
 BAR2 SZ EP        840 16.50                             171    0.1510 20.8 195 
 BAR2 SZ ES   1    840 32.07                             171    0.50 7 20.8 195 
 BAR2 SZ I         840 32.73         9.0 0.17            173           20.8 195 
 PAM  SZ EP        840 18.94                             150   -0.1310 78.7  37 
 PAM  SE ES   1    840 36.25                             150   -0.17 7 78.7  37 
 PAM  SZ I         840 39.09         4.1 0.50            151           78.7  37 
 RUS  HZ EP        840 19.98                             144   -0.3410 97.6 177 
 RUS  HN ES        840 38.59                             144   -0.0410 97.6 177 
 RUS  HZ I         840 40.28         3.2 0.27            147           97.6 177 
 PTB  HZ EP   1    840 24.50                             132    0.67 7  149 260 
 PTB  HN ES   1    840 44.21                             132   -0.69 7  149 260 
 PTB  HZ I         840 45.26         3.0 0.09            134            149 260 
 SPBC HZ EP        840 25.56                             129    0.40 9  162 220 
 SPBC HN ES   1    840 47.13                             129   -0.13 7  162 220 
 ZAR  HN ES        840 54.93                             122   -0.03 8  206 293 
 SML  HZ EP   1    840 33.37                             117   -0.41 6  247 335 
 SML  HN ES   2    841  3.12                             117    0.53 4  247 335 
                                                                                
