 2011  9 9 0415 56.8 L   6.737 -73.160154.5  RSN  5 0.2 1.4LRSN                1
 GAP=180        0.40       7.4     8.8  6.0  0.5107E+02  0.3337E+00  0.5989E-02E
 Epicentro: VILLANUEVA - SANTANDER                                             3
 ACTION:UPD 12-07-13 15:56 OP:ep   STATUS:               ID:20110909041556 L   I
 2011-09-09-0414-49S.COL___170                                                 6
 STAT SP IPHASW D HRMM SECON CODA AMPLIT PERI AZIMU VELO AIN AR TRES W  DIS CAZ7
 BAR2 SZ EP   1    416 17.11                             174   -0.22 7 16.2 189 
 BAR2 SZ ES   2    416 33.38                             174    0.00 5 16.2 189 
 BAR2 SZ I         416 33.83         4.9 0.32                          16.2 189 
 GIR2 SZ ES   3    416 33.44                             165   -0.53 2 37.9 354 
 BRR  HZ EP   1    416 19.19                             153    0.20 7 73.4 304 
 BRR  HN ES   2    416 36.62                             153    0.30 5 73.4 304 
 BRR  HZ I         416 39.51         6.3 0.46                          73.4 304 
 RUS  HZ EP   1    416 21.01                             147    0.08 7 93.8 175 
 RUS  HN ES   2    416 39.74                             147   -0.04 5 93.8 175 
 RUS  HZ I         416 40.62         1.9 0.08                          93.8 175 
 ZAR  HE ES   2    416 55.43                             124   -0.36 4  205 294 
 ZAR  HZ I         417  2.18         4.2 0.30                           205 294 
                                                                                
