 2013 11 9 0654  7.4 L   6.505 -73.714 96.7  RSN 14 0.5 2.6LRSN                1
 GAP= 69        1.25       2.7     2.7  6.4 -0.1888E+01  0.4116E+01 -0.9609E+00E
 Epicentro: SANTA HELENA DEL OPON - SANTANDER                                  3
 ACTION:UPD 14-01-09 16:26 OP:ep   STATUS:               ID:20131109065407 L   I
 OLDACT:REG 13-11-09 08:20 OP:stll STATUS:               ID:20131109064837     3
 2013-11-09-0648-37M.COL___210                                                 6
 STAT SP IPHASW D HRMM SECON CODA AMPLIT PERI AZIMU VELO AIN AR TRES W  DIS CAZ7
 BAR2 SZ IP     C  654 23.41                             146    0.4010 59.6  81 
 BAR2 SZ I         654 23.93       145.3 0.10            146           59.6  81 
 BAR2 SZ ES        654 35.75                             146    0.5610 59.6  81 
 BRR  HZ EP        654 23.39                             143    0.2210 66.5   0 
 BRR  HN ES        654 35.83                             143    0.3610 66.5   0 
 PTB  HZ IP     D  654 23.90                             137   -0.5410 82.1 273 
 PTB  HN ES        654 36.69                             137   -1.0410 82.1 273 
 RUS  HZ EP        654 26.29                             132   -0.1410 97.3 134 
 RUS  HN ES        654 41.06                             132   -0.2210 97.3 134 
 SPBC HZ EP        654 26.45                             130    0.0910  102 203 
 SPBC HN ES        654 41.43                             130    0.2810  102 203 
 PAM  SZ EP        654 31.25                             120    0.01 9  145  51 
 PAM  SN ES        654 49.65                             120   -0.18 9  145  51 
 NOR  HZ EP        654 32.64                             116   -0.19 9  165 231 
 NOR  HE ES        654 52.39                             116   -0.27 9  165 231 
 ZAR  HZ EP        654 33.57                             116    0.57 9  167 311 
 ZAR  HN ES        654 53.88                             116    0.92 9  167 311 
 OCA  HZ EP        654 36.30                             112   -0.23 9  197  13 
 OCA  HE ES        654 59.22                             112   -0.03 9  197  13 
 HEL  HZ EP        654 37.64                             111    0.02 9  204 260 
 HEL  HE ES        655  1.09                             111   -0.10 9  204 260 
 TAM  HN ES        655  1.79                             110   -0.55 8  213  92 
 GUY2CHZ EP        654 42.24                             109    1.29 8  231 232 
 GUY2CHE ES        655  6.46                             109   -0.66 8  231 232 
 SML  HZ EP        654 42.66                             106   -0.72 8  257 351 
 SML  HN ES        655 10.86                             106   -0.57 8  257 351 
 ORTC HZ EP        654 53.17                             102    0.56 7  334 211 
 ORTC HE ES        655 28.07                             102    0.21 7  334 211 
                                                                                
