 2013 10 9 0925 21.9 L   6.802 -73.244153.1  RSN  5 0.3 1.3LRSN                1
 GAP=221        0.65       5.2     6.1  8.0  0.1840E+01 -0.1218E+02  0.2390E+01E
 Epicentro: ZAPATOCA - SANTANDER                                               3
 ACTION:UPD 13-11-25 09:20 OP:ep   STATUS:               ID:20131009092521 L   I
 OLDACT:DUP 13-10-09 13:33 OP:mh   STATUS:               ID:20131009091960d    3
 OLDACT:UP  13-10-09 13:23 OP:mh   STATUS:               ID:20131009091959     3
 OLDACT:UP  13-10-09 13:22 OP:mh   STATUS:               ID:20131009091959     3
 OLDACT:UP  13-10-09 13:22 OP:mh   STATUS:               ID:20131009091959     3
 OLDACT:UP  13-10-09 13:21 OP:mh   STATUS:               ID:20131009091959     3
 OLDACT:UP  13-10-09 13:19 OP:mh   STATUS:               ID:20131009091959     3
 OLDACT:REG 13-10-09 08:19 OP:mh   STATUS:               ID:20131009091959     3
 2013-10-09-0919-59M.COL___273                                                 6
 STAT SP IPHASW D HRMM SECON CODA AMPLIT PERI AZIMU VELO AIN AR TRES W  DIS CAZ7
 BAR2 SZ EP   1    925 42.32                             171   -0.07 8 24.1 164 
 BAR2 SZ I         925 58.08         5.6 0.38            165           24.1 164 
 BRR  HZ EP   1    925 43.14                             157   -0.19 8 61.8 303 
 BRR  HN ES   1    926  0.29                             157    0.22 8 61.8 303 
 BRR  HZ I         926  2.82         5.2 0.24            164           61.8 303 
 PTB  HZ EP   1    925 48.16                             136   -0.36 7  137 258 
 PTB  HN ES        926  8.88                             136   -0.4310  137 258 
 PTB  HZ I         926 11.75         2.6 0.12            141            137 258 
 SPBC HZ EP   1    925 50.70                             132    0.36 7  157 216 
 SPBC HN ES   1    926 12.90                             132    0.34 7  157 216 
 SPBC HZ I         926 19.81         1.6 0.60            134            157 216 
 ZAR  HZ EP   1    925 53.98                             125    0.19 7  194 293 
 ZAR  HN ES   1    926 19.11                             125    0.42 7  194 293 
 ZAR  HZ I         926 26.06         1.3 0.16            129            194 293 
                                                                                
