 2014  3 9 0940  3.1 L   6.806 -73.158146.6  RSN  8 0.3 2.1LRSN                1
 GAP=135        0.81       2.9     3.7  5.6 -0.2762E+00  0.6798E+01 -0.4701E+01E
 Epicentro: LOS SANTOS - SANTANDER                                             3
 ACTION:UPD 14-04-09 23:15 OP:nd   STATUS:               ID:20140309094003 L   I
 OLDACT:REG 14-03-09 12:12 OP:nd   STATUS:               ID:20140309093746     3
 2014-03-09-0937-46M.COL___223                                                 6
 STAT SP IPHASW D HRMM SECON CODA AMPLIT PERI AZIMU VELO AIN AR TRES W  DIS CAZ7
 BAR2 SZ EP        940 22.93                             170    0.0610 23.7 187 
 BAR2 SZ ES        940 38.16                             170   -0.1110 23.7 187 
 BAR2 SZ I         940 39.73        19.1 0.30            170           23.7 187 
 PAM  SZ EP        940 25.86                             151    0.4010 77.8  41 
 PAM  SN ES        940 42.78                             151   -0.1010 77.8  41 
 PAM  SZ I         940 45.13       449.6 0.52            154           77.8  41 
 RUS  HZ EP        940 27.21                             144    0.1910  101 175 
 RUS  HN ES        940 45.59                             144   -0.0610  101 175 
 RUS  HZ I         940 46.63         5.6 0.26            148            101 175 
 PTB  HZ EP        940 29.66                             132   -0.40 9  147 258 
 PTB  HN ES        940 50.81                             132   -0.25 9  147 258 
 PTB  HZ I         940 55.36         8.3 0.36            132            147 258 
 OCA  HZ EP        940 31.57                             130    0.13 9  160 354 
 OCA  HN ES        940 53.58                             130    0.06 9  160 354 
 OCA  HZ I         940 57.80        10.9 0.38            131            160 354 
 ZAR  HZ EP        940 35.46                             123   -0.02 9  203 292 
 ZAR  HN ES        941  1.56                             123    0.85 9  203 292 
 ZAR  HZ I         941  6.44         7.1 0.12            123            203 292 
 SML  HZ EP        940 39.29                             118   -0.39 8  243 336 
 SML  HN ES        941  7.69                             118   -0.50 8  243 336 
 SML  HZ I         941 11.47        15.8 0.10            119            243 336 
 URE  HZ EP   4    940 43.31                             114   -0.77 0  282 292 
 URE  HN ES   4    941 14.63                             114   -1.38 0  282 292 
 URE  HZ I         941 27.28         3.1 0.16            115            282 292 
                                                                                
