 2012 11 9 0036 41.1 L   5.905 -73.690117.4  RSN  5 0.2 1.8LRSN                1
 GAP=128        0.62       2.1     3.2  5.8  0.1051E+01  0.6200E+01  0.2293E+01E
 Epicentro: PUENTE NACIONAL - SANTANDER                                        3
 ACTION:UPD 12-12-05 15:32 OP:}ep  STATUS:               ID:20121109003641 L   I
 OLDACT:DUP 12-11-09 09:21 OP:stll STATUS:               ID:20121109002001d    3
 2012-11-09-0020-00M.COL___228                                                 6
 STAT SP IPHASW D HRMM SECON CODA AMPLIT PERI AZIMU VELO AIN AR TRES W  DIS CAZ7
 RUS  HZ EP        036 59.60                             148   -0.1410 67.2  91 
 RUS  HN ES        037 14.14                             148   -0.1210 67.2  91 
 RUS  HN I         037 15.16         5.3 0.34                          67.2  91 
 BAR2 SZ EP        037  1.56                             139    0.1910 94.5  36 
 BAR2 SZ ES        037 17.08                             139   -0.0710 94.5  36 
 BAR2 SZ I         037 18.37        29.7 0.14                          94.5  36 
 PTB  HZ EP        037  1.82                             134   -0.5510  110 310 
 PTB  HN ES        037 19.08                             134    0.1410  110 310 
 PTB  HN I         037 21.80         7.3 0.32                           110 310 
 BRR  HZ EP        037  4.59                             128    0.1210  133 359 
 BRR  HN ES        037 22.89                             128    0.2110  133 359 
 BRR  HN I         037 23.97        24.3 0.16                           133 359 
 CHI  HZ EP        037  6.00                             126    0.19 9  141 182 
 CHI  HN ES        037 25.16                             126    0.09 9  141 182 
 CHI  HN I         037 28.95         6.2 0.50                           141 182 
                                                                                
