 2012  1 9 0317 53.4 L   6.817 -73.058155.0  RSN  8 0.3 1.5LRSN                1
 GAP=209        0.60       4.1     5.5  5.7  0.4682E+01  0.2092E+01  0.6789E+01E
 Epicentro: LOS SANTOS - SANTANDER                                             3
 ACTION:UP  12-02-03 08:15 OP:REBC STATUS:               ID:20120109031753 L   I
 2012-01-09-0310-00M.COL___186                                                 6
 STAT SP IPHASW D HRMM SECON CODA AMPLIT PERI AZIMU VELO SNR AR TRES W  DIS CAZ7
 BAR2 SZ EP        318 14.14                             169    -0.110   28 209 
 BAR2 SZ ES   1    318 30.28                             169    -0.2 7   28 209 
 BAR2 SZ I         318 30.82         6.8 0.22                            28 209 
 GIR2 SZ EP   1    318 14.32                             168     0.1 7   33 333 
 GIR2 SZ ES   2    318 30.51                             168     0.1 5   33 333 
 BRR  HZ EP        318 16.03                             152     0.110   79 294 
 BRR  HZ I         318 16.22         8.3 0.14                            79 294 
 BRR  HN ES   1    318 34.01                             152     0.4 7   79 294 
 RUS  HZ EP   1    318 18.07                             145    -0.1 7  102 182 
 RUS  HN ES   2    318 37.04                             145    -0.4 5  102 182 
 RUS  HZ I         318 37.89         2.6 0.25                           102 182 
 PTB  HZ EP   2    318 21.37                             132    -0.6 5  158 259 
 PTB  HE ES   2    318 43.68                             132    -0.6 5  158 259 
 ZAR  HN ES   2    318 53.47                             123    -0.3 4  212 291 
 CHI  HZ EP   1    318 32.10                             118     0.0 6  253 197 
 CHI  HN ES   1    319  2.81                             118     0.5 6  253 197 
 CHI  HZ I         319  9.90         1.6 0.37                           253 197 
 RREF HE ES   2    319 18.27                             112     0.3 3  330 230 
                                                                                
