 2013  3 9 0915 42.0 L   7.193 -73.915 12.0  RSN  4 0.1 1.6LRSN                1
 GAP=185        0.31       1.6     1.8 12.6  0.9354E+00  0.1962E+02  0.3315E+01E
 Epicentro: BARRANCABERMEJA - SANTANDER                                        3
 ACTION:UPD 13-04-09 14:01 OP:ep   STATUS:               ID:20130309091542 L   I
 2013-03-09-0908-50M.COL___195                                                 6
 STAT SP IPHASW D HRMM SECON CODA AMPLIT PERI AZIMU VELO AIN AR TRES W  DIS CAZ7
 BRR  HZ EP        915 46.56                             106    0.0310 24.3 113 
 BRR  HE ES        915 50.01                             106   -0.0310 24.3 113 
 BRR  HE I         915 51.14       186.4 0.20             90           24.3 113 
 PTB  HZ EP        915 56.94                              94    0.0510 93.8 220 
 PTB  HN ES   1    916  8.46                              94   -0.04 7 93.8 220 
 PTB  HN I         916  9.57        11.6 0.64             90           93.8 220 
 BAR2 SZ EP   3    915 58.34                              93   -0.43 2  105 129 
 BAR2 SZ I         916 10.66         7.6 0.20             90            105 129 
 ZAR  HZ EP        915 59.28                              93    0.0710  109 288 
 ZAR  HN ES        916 12.56                              93   -0.0710  109 288 
 ZAR  HN I         916 15.10        14.2 0.26             90            109 288 
                                                                                
