 2016  9 9 0246 54.7 L   6.769 -73.125152.4  RSN  6 0.4 1.4LRSN                1
 GAP=141        0.93       4.5     4.5  8.8 -0.3748E+01  0.1054E+02 -0.3717E+01E
 Epicentro: LOS SANTOS - SANTANDER                                             3
 ACTION:UPD 17-08-17 21:08 OP:lp   STATUS:               ID:20160909024654 L   I
 OLDACT:UP  16-09-09 14:31 OP:dani STATUS:               ID:20160909023735     3
 OLDACT:REG 16-09-09 12:26 OP:dani STATUS:               ID:20160909023735     3
 2016-09-09-0238-00M.COL___359                                                 6
 STAT SP IPHASW D HRMM SECON CODA AMPLIT PERI AZIMU VELO AIN AR TRES W  DIS CAZ7
 BRR  HZ EP        247 16.74                             152    0.0010 74.9 300 
 BRR  HN ES        247 34.17                             152    0.2210 74.9 300 
 BRR  HZ I         247 35.73         4.9 0.22            151           74.9 300 
 PAM  EZ EP        247 17.79                             152    0.1310 78.7  37 
 PAM  EE ES        247 35.55                             152   -0.0510 78.7  37 
 PAM  EZ I         247 37.30         2.3 0.41            153           78.7  37 
 RUS  HE ES        247 37.44                             146   -0.2310 97.0 177 
 PTB  HZ EP        247 22.05                             133   -0.28 9  149 260 
 PTB  HE ES        247 43.19                             133   -0.71 9  149 260 
 PTB  HZ I         247 45.08         2.3 0.14            133            149 260 
 SPBC HN ES        247 46.81                             131    0.69 9  162 220 
 SPBC HZ I         247 49.36         3.4 0.09            131            162 220 
 ZAR  HE ES        247 54.12                             123    0.30 8  208 293 
 ZAR  HN I         247 59.65         4.9 0.23            123            208 293 
                                                                                
