 2014 12 9 0416  9.4 L   6.795 -73.143147.1  RSN 16 0.5 1.8LRSN                1
 GAP=137        1.11       2.7     4.0  5.3 -0.2150E+01  0.7848E+01  0.1010E+01E
 Epicentro: LOS SANTOS - SANTANDER                                             3
 ACTION:UPD 15-02-10 17:01 OP:nd   STATUS:               ID:20141209041609 L   I
 OLDACT:DUP 14-12-09 15:05 OP:fm   STATUS:               ID:20141209040738d    3
 2014-12-09-0407-37M.COL___309                                                 6
 STAT SP IPHASW D HRMM SECON CODA AMPLIT PERI AZIMU VELO AIN AR TRES W  DIS CAZ7
 BAR2 SZ EP        416 29.78                             171    0.6110 22.9 191 
 BAR2 SZ ES        416 44.17                             171   -0.4310 22.9 191 
 BAR2 SZ I         416 46.42        12.3 0.22            168           22.9 191 
 BRR  HZ EP        416 31.56                             153    0.8510 71.8 299 
 BRR  HE ES        416 47.51                             153    0.1610 71.8 299 
 BRR  HZ I         416 51.30        11.6 0.18            150           71.8 299 
 PAM  SN ES        416 49.51                             151    0.3010 77.6  39 
 PAM  SZ I         416 51.94         6.4 0.46            156           77.6  39 
 RUS  HZ EP        416 32.65                             144   -0.5810  100 176 
 RUS  HE ES        416 51.49                             144   -0.3410  100 176 
 RUS  HZ I         416 53.33         4.4 0.32            146            100 176 
 PTB  HZ EP        416 35.96                             132   -0.53 9  148 259 
 PTB  HN ES        416 57.55                             132   -0.07 9  148 259 
 PTB  HZ I         417  3.67         7.2 0.34            132            148 259 
 OCA  HZ EP        416 37.62                             130   -0.24 9  161 353 
 OCA  HN ES        417  0.64                             130    0.58 9  161 353 
 OCA  HZ I         417  5.76         8.3 0.30            132            161 353 
 SPBC HZ EP        416 38.27                             129    0.30 9  163 219 
 SPBC HN ES        417  0.08                             129   -0.18 9  163 219 
 SPBC HZ I         417  3.18        10.6 0.24            130            163 219 
 ZAR  HZ EP        416 41.93                             123   -0.04 9  205 292 
 ZAR  HN ES        417  6.73                             123   -0.66 9  205 292 
 ZAR  HZ I         417 13.30         9.3 0.34            123            205 292 
 NOR  HZ EP        416 45.57                             119    0.38 8  235 235 
 NOR  HE ES        417 13.85                             119    0.73 8  235 235 
 NOR  HZ I         417 20.83         5.1 0.28            120            235 235 
 SML  HZ EP        416 45.73                             118   -0.43 8  244 335 
 SML  HN ES        417 14.18                             118   -0.66 8  244 335 
 SML  HZ I         417 18.81        10.4 0.22            119            244 335 
 CHI  HZ EP        416 47.59                             117    0.48 8  248 195 
 CHI  HE ES        417 15.94                             117   -0.60 8  248 195 
 CHI  HZ I         417 25.84         2.0 0.42            119            248 195 
 HEL  HZ EP        416 49.77                             115    0.08 8  272 256 
 HEL  HE ES        417 20.88                             115   -0.25 8  272 256 
 HEL  HZ I         417 30.32         3.4 0.38            116            272 256 
 GUY2CHZ EP        416 52.79                             113   -0.26 7  301 235 
 GUY2CHN ES        417 27.24                             113    0.13 7  301 235 
 GUY2CHZ I         417 36.55         4.4 0.78                           301 235 
 RREF HZ EP        416 54.87                             111   -0.71 7  322 229 
 RREF HN ES        417 32.57                             111    0.97 7  322 229 
 RREF HZ I         417 38.37         3.7 0.24            112            322 229 
 CBOC HZ EP        416 56.30                             110   -0.08 7  334 252 
 CBOC HN ES        417 33.13                             110    0.10 7  334 252 
 CBOC HZ I         417 45.26         1.3 0.60            111            334 252 
 TOL  SN ES        417 35.65                             109    0.30 7  343 225 
 TOL  SZ I         417 43.74         6.3 0.46            111            343 225 
                                                                                
