 2011 10 9 0822 50.1 L   6.809 -73.009137.8  RSN  4 0.2 1.4LRSN                1
 GAP=219        0.53       7.2    13.3  7.8  0.7514E+02 -0.5375E+02 -0.2685E+02E
 Epicentro: CEPITA - SANTANDER                                                 3
 ACTION:UPD 12-07-13 16:02 OP:ep   STATUS:               ID:20111009082250 L   I
 2011-10-09-0820-00M.COL___171                                                 6
 STAT SP IPHASW D HRMM SECON CODA AMPLIT PERI AZIMU VELO AIN AR TRES W  DIS CAZ7
 BAR2 SZ ES   1    823 23.55                             167   -0.14 7 30.7 219 
 BAR2 SZ I         823 25.53         7.5 0.18                          30.7 219 
 GIR2 SZ EP   1    823  9.15                             164    0.14 7 36.2 326 
 BRR  HZ EP   1    823 10.85                             147   -0.42 7 84.4 293 
 BRR  HZ I         823 11.14         6.3 0.16                          84.4 293 
 BRR  HN ES   1    823 27.99                             147    0.25 7 84.4 293 
 RUS  HZ EP   1    823 13.44                             142    0.25 7  102 185 
 RUS  HZ I         823 29.82         2.3 0.78                           102 185 
 RUS  HN ES   1    823 31.11                             142   -0.06 7  102 185 
                                                                                
