 2011 10 9 0402  1.4 L   6.838 -72.959140.0  RSN  4 0.4 1.4LRSN                1
 GAP=232        0.69       8.3    14.9  9.9  0.8060E+02 -0.5726E+02 -0.3420E+02E
 Epicentro: CEPITA - SANTANDER                                                 3
 ACTION:UPD 12-07-13 16:02 OP:ep   STATUS:               ID:20111009040201 L   I
 2011-10-09-0400-00M.COL___171                                                 6
 STAT SP IPHASW D HRMM SECON CODA AMPLIT PERI AZIMU VELO AIN AR TRES W  DIS CAZ7
 BAR2 SZ EP   1    4 2 21.01                             165    0.32 7 36.7 222 
 BAR2 SZ ES   1    4 2 36.26                             165    0.52 7 36.7 222 
 BAR2 SZ I         4 2 37.31         4.4 0.20                          36.7 222 
 GIR2 SZ EP   1    4 2 20.55                             165   -0.01 7 37.2 316 
 GIR2 SZ ES   2    4 2 34.86                             165   -0.65 5 37.2 316 
 BRR  HZ EP   1    4 2 22.72                             146   -0.29 7 88.4 290 
 BRR  HZ I         4 2 23.00         8.9 0.13                          88.4 290 
 BRR  HN ES   1    4 2 39.96                             146    0.08 7 88.4 290 
 RUS  HE ES   1    4 2 42.97                             142   -0.34 7  105 188 
 RUS  HZ I         4 2 45.33         2.3 0.37                           105 188 
                                                                                
