 2010 12 9 0536 13.9 L   7.229 -74.096  9.6  RSN  7 0.3 1.4LRSN                1
 GAP=163        0.62       4.2     4.2  6.1 -0.8543E+01  0.1236E+02 -0.1057E+02E
 Epicentro: PUERTO WILCHES - SANTANDER                                         3
 ACTION:UP  11-01-14 15:23 OP:pat  STATUS:               ID:20101209053613 L   I
 2010-12-09-0534-45S.COL___135                                                 6
 STAT SP IPHASW D HRMM SECON CODA AMPLIT PERI AZIMU VELO SNR AR TRES W  DIS CAZ7
 BTL  SZ EP        536 29.28                              93    -0.210   98 111 
 GIR2 SZ EP   2    536 30.56                              93     0.6 5  101  99 
 BAR2 SZ EP   2    536 33.17                              93    -0.2 5  123 125 
 BAR2 SZ I         536 48.13         4.5 0.38                           123 125 
 BAR2 SZ ES   2    536 48.72                              93     0.2 5  123 125 
 OCA  SZ ES   2    536 52.77                              92    -0.4 5  141  37 
 OCA  SZ I         537  1.97         3.9 0.33                           141  37 
 GUE  SZ EP   2    536 37.42                              92     0.6 5  145  63 
 GRA  SZ EP   2    536 39.26                              56     0.4 5  160  63 
 GRA  SZ ES   1    536 58.20                              56    -0.1 7  160  63 
 GRA  SZ I         537  0.82        16.1 0.36                           160  63 
 HEL  HZ EP   2    536 43.71                              56     0.2 4  196 234 
 HEL  HE ES   2    537  6.52                              56    -0.2 4  196 234 
 HEL  HZ I         537 10.82         1.9 0.19                           196 234 
                                                                                
