 2013  6 9 0627 40.5 L   6.797 -73.129145.5  RSN 13 0.5 2.6LRSN                1
 GAP=113        0.94       3.2     4.3  5.8 -0.1045E+01  0.6978E-01  0.3919E+01E
 Epicentro: LOS SANTOS - SANTANDER                                             3
 ACTION:UPD 14-01-08 09:53 OP:ep   STATUS:               ID:20130609062740 L   I
 OLDACT:UP  13-06-09 09:30 OP:mh   STATUS:               ID:20130609062001d    3
 OLDACT:UP  13-06-09 09:28 OP:mh   STATUS:               ID:20130609062001d    3
 OLDACT:UP  13-06-09 09:28 OP:mh   STATUS:               ID:20130609062001d    3
 OLDACT:UP  13-06-09 09:26 OP:mh   STATUS:               ID:20130609062001d    3
 OLDACT:UP  13-06-09 09:23 OP:mh   STATUS:               ID:20130609062001d    3
 OLDACT:UP  13-06-09 09:22 OP:mh   STATUS:               ID:20130609062001d    3
 OLDACT:DUP 13-06-09 09:07 OP:mh   STATUS:               ID:20130609062001d    3
 OLDACT:UP  13-06-09 09:04 OP:mh   STATUS:               ID:20130609062000     3
 OLDACT:REG 13-06-09 07:41 OP:mh   STATUS:               ID:20130609062000     3
 2013-06-09-0620-00M.COL___257                                                 6
 STAT SP IPHASW D HRMM SECON CODA AMPLIT PERI AZIMU VELO AIN AR TRES W  DIS CAZ7
 BAR2 SZ EP        628  0.20                             170    0.1110 23.4 195 
 BAR2 SZ ES   1    628 15.12                             170   -0.26 7 23.4 195 
 BRR  HZ IP     C  628  2.06                             152    0.3510 73.0 298 
 BRR  HN ES        628 18.79                             152    0.5210 73.0 298 
 BRR  HN I         628 20.60        75.0 0.24            150           73.0 298 
 RUS  HZ EP        628  4.11                             144   -0.0710  100 177 
 RUS  HN ES   1    628 22.47                             144   -0.19 7  100 177 
 RUS  HN I         628 24.26        34.6 0.18            147            100 177 
 PTB  HZ EP        628  6.84                             132   -0.75 9  150 259 
 PTB  HN ES        628 28.25                             132   -0.49 9  150 259 
 PTB  HN I         628 33.75       119.6 0.32            131            150 259 
 TAM  HZ EP   1    628  8.19                             131    0.23 7  153 105 
 OCA  HZ EP   1    628  8.31                             129   -0.52 7  161 352 
 OCA  HN ES   1    628 31.15                             129    0.21 7  161 352 
 OCA  HN I         628 40.00        88.0 0.24            129            161 352 
 NOR  HZ EP        628 15.80                             118   -0.54 8  236 235 
 NOR  HN ES        628 44.52                             118    0.21 8  236 235 
 NOR  HZ I         628 47.84        16.7 0.22            119            236 235 
 SML  HZ EP   1    628 17.12                             117   -0.10 6  245 335 
 SML  HN ES   2    628 45.01                             117   -0.86 4  245 335 
 SML  HN I         628 51.92        59.8 0.10            117            245 335 
 CHI  HZ EP        628 18.30                             117    0.12 8  249 196 
 CHI  HN ES        628 47.29                             117   -0.30 8  249 196 
 CHI  HN I         628 50.18        22.4 0.38            119            249 196 
 ROSC BZ EP   1    628 19.64                             117    0.98 6  253 211 
 ROSC BN ES   4    628 51.40                             117    2.96 0  253 211 
 HEL  HZ EP   1    628 22.00                             115    1.12 6  274 256 
 HEL  HN ES   1    628 52.65                             115    0.27 6  274 256 
 GUY2CHZ EP   4    628 25.44                             112    1.21 0  303 235 
 GUY2CHN ES   4    629  0.15                             112    1.79 0  303 235 
 GUY2CHN I         629  5.99        12.9 0.46                           303 235 
 RREF HN ES   4    629  4.38                             111    1.54 0  323 230 
 PRA  HZ EP   1    628 34.26                             106    0.19 4  393 210 
 PRA  HN ES        629 16.28                             106    0.42 6  393 210 
 PRA  HN I         629 21.29         7.6 0.58            107            393 210 
                                                                                
