 2015  6 9 0622 34.3 L   6.774 -73.138145.8  RSN  6 0.3 1.4LRSN                1
 GAP=139        0.78       3.3     3.9  5.3 -0.6464E-03  0.5600E+01  0.2720E+00E
 Epicentro: LOS SANTOS - SANTANDER                                             3
 ACTION:UPD 15-09-10 22:10 OP:cam  STATUS:               ID:20150609062234 L   I
 OLDACT:REG 15-06-09 13:24 OP:stll STATUS:               ID:20150609061749     3
 2015-06-09-0617-49M.COL___300                                                 6
 STAT SP IPHASW D HRMM SECON CODA AMPLIT PERI AZIMU VELO AIN AR TRES W  DIS CAZ7
 BAR2 EZ EP        622 53.71                             172   -0.1310 20.7 194 
 BAR2 EZ I         622 54.00         4.4 0.38            168           20.7 194 
 BAR2 EZ ES        623  9.46                             172    0.3410 20.7 194 
 BRR  HZ EP        622 55.43                             152   -0.1010 73.4 300 
 BRR  HN ES        623 12.07                             152   -0.0610 73.4 300 
 PAM  SZ EP        622 56.65                             150    0.0810 79.0  38 
 PAM  SZ I         622 56.76         6.3 0.16            153           79.0  38 
 PAM  SN ES        623 13.74                             150   -0.2410 79.0  38 
 RUS  HZ EP        622 57.58                             145   -0.2210 97.7 176 
 RUS  HZ I         622 59.45         1.6 0.44            144           97.7 176 
 RUS  HN ES        623 16.42                             145    0.2510 97.7 176 
 SPBC HZ EP        623  2.44                             129   -0.16 9  162 220 
 SPBC HN ES        623 24.47                             129   -0.24 9  162 220 
 SPBC HZ I         623 30.43         4.3 0.12            127            162 220 
 ZAR  HZ EP        623  7.75                             122    0.85 8  206 293 
 ZAR  HN ES        623 32.09                             122   -0.27 8  206 293 
 ZAR  HZ I         623 38.31         2.6 0.34            121            206 293 
                                                                                
