 2015  1 9 0508 35.6 L   6.807 -73.170140.5  RSN 12 0.4 1.8LRSN                1
 GAP=133        1.02       3.1     4.2  5.5 -0.1354E+01  0.3851E+01 -0.1272E+01E
 Epicentro: LOS SANTOS - SANTANDER                                             3
 ACTION:UPD 15-03-02 15:38 OP:nd   STATUS:               ID:20150109050835 L   I
 OLDACT:UP  15-01-09 16:22 OP:cam  STATUS:               ID:20150109050814     3
 OLDACT:UP  15-01-09 16:22 OP:cam  STATUS:               ID:20150109050814     3
 OLDACT:REG 15-01-09 13:57 OP:cam  STATUS:               ID:20150109050814     3
 2015-01-09-0508-14M.COL___262                                                 6
 STAT SP IPHASW D HRMM SECON CODA AMPLIT PERI AZIMU VELO AIN AR TRES W  DIS CAZ7
 BAR2 EZ EP        5 8 54.73                             170    0.1310 23.8 183 
 BAR2 EZ ES        5 9  8.77                             170   -0.6610 23.8 183 
 BAR2 EZ I         5 9 10.51         9.9 0.20            172           23.8 183 
 BRR  HZ EP        5 8 56.63                             152    0.6210 68.4 299 
 BRR  HN ES        5 9 11.96                             152    0.0110 68.4 299 
 BRR  HZ I         5 9 17.67        13.1 0.44            144           68.4 299 
 PAM  SZ EP        5 8 57.67                             149    0.3510 78.5  41 
 PAM  SN ES        5 9 14.59                             149    0.3210 78.5  41 
 PAM  SZ I         5 9 16.70         5.7 0.42            143           78.5  41 
 RUS  HZ EP        5 8 58.83                             142   -0.0710  102 175 
 RUS  HN ES        5 9 17.08                             142   -0.0110  102 175 
 RUS  HN I         5 9 18.80        19.4 0.44            140            102 175 
 PTB  HZ EP        5 9  1.63                             131   -0.27 9  145 258 
 PTB  HN ES        5 9 22.02                             131   -0.41 9  145 258 
 OCA  HZ EP        5 9  3.20                             128   -0.19 9  159 354 
 OCA  HN ES        5 9 24.81                             128   -0.27 9  159 354 
 OCA  HZ I         5 9 28.16         8.6 0.32            121            159 354 
 SPBC HZ EP        5 9  3.59                             128    0.01 9  162 218 
 SPBC HN ES        5 9 25.48                             128    0.06 9  162 218 
 SPBC HZ I         5 9 27.80         7.7 0.24            123            162 218 
 ZAR  HN ES        5 9 33.09                             121    0.87 9  201 292 
 ZAR  HZ I         5 9 38.54        10.1 0.40            115            201 292 
 SML  HZ EP        5 9 11.28                             116   -0.44 8  242 336 
 SML  HZ I         5 9 46.93        12.5 0.28            110            242 336 
 CHI  HZ EP        5 9 13.38                             116    0.37 8  249 195 
 CHI  HN ES   4    5 9 41.44                             116   -0.75 0  249 195 
 CHI  HZ I         5 9 46.15         3.0 0.32            112            249 195 
 HEL  HZ EP   4    5 9 16.91                             114    1.64 0  270 255 
 HEL  HN ES   4    5 9 47.88                             114    1.66 0  270 255 
 HEL  HZ I         5 9 53.98         4.0 0.36            109            270 255 
 MON  HZ EP   4    5 9 22.48                             108   -1.61 0  351 309 
 MON  HN ES   4    510  0.26                             108   -1.66 0  351 309 
 SJC  HZ EP        5 9 29.62                             105   -1.11 6  407 327 
 SJC  HN ES   4    510 11.85                             105   -1.89 0  407 327 
                                                                                
