 2011  2 9 0635 13.6 L   6.808 -73.161135.7  RSN  7 0.4 2.0LRSN                1
 GAP=157        0.74       4.0     8.2  7.6 -0.9223E+01  0.1970E+02 -0.1137E+01E
 Epicentro: LOS SANTOS - SANTANDER                                             3
 ACTION:UP  11-03-28 15:07 OP:jfem STATUS:               ID:20110209063513 L   I
 2011-02-09-0633-50S.COL___136                                                 6
 STAT SP IPHASW D HRMM SECON CODA AMPLIT PERI AZIMU VELO SNR AR TRES W  DIS CAZ7
 BTL  SZ EP   1    635 32.06                             172     0.2 7   17 316 
 BTL  SZ ES   2    635 46.88                             172     0.7 5   17 316 
 BAR2 SZ EP   1    635 31.95                             169    -0.1 7   24 186 
 BAR2 SZ ES   2    635 46.11                             169    -0.3 5   24 186 
 BAR2 SZ I         635 47.67        48.1 0.32                            24 186 
 RUS  HZ EP   1    635 36.04                             141    -0.4 7  102 175 
 RUS  HN ES   2    635 54.02                             141    -0.2 5  102 175 
 RUS  HZ I         635 56.04        10.0 0.30                           102 175 
 GRA  SZ EP   1    635 38.02                             135     0.1 7  125  18 
 GRA  SZ ES   2    635 56.97                             135     0.1 5  125  18 
 GRA  SZ I         635 59.68        28.6 0.33                           125  18 
 OCA  SZ EP   1    635 40.88                             127    -0.1 7  159 354 
 OCA  SZ ES   2    636  1.79                             127    -0.6 5  159 354 
 OCA  SZ I         636  5.89        29.6 0.42                           159 354 
 CHI  HZ EP   1    635 50.74                             115     0.0 6  249 195 
 CHI  HN ES   2    636 20.00                             115     0.2 4  249 195 
 CHI  HZ I         636 26.91         2.0 0.45                           249 195 
 HEL  HZ EP   1    635 53.97                             113     0.8 6  271 256 
 HEL  HN ES   2    636 23.20                             113    -0.8 4  271 256 
 HEL  HZ I         636 31.05         5.3 0.28                           271 256 
                                                                                
