 2016  7 9 0223 23.2 L   6.799 -73.155143.4  RSN  8 0.4 1.9LRSN                1
 GAP=236        0.96       4.3     5.5  5.8  0.1008E+02  0.7830E+01  0.6854E+01E
 Epicentro: LOS SANTOS - SANTANDER                                             3
 ACTION:UPD 17-03-29 16:48 OP:lp   STATUS:               ID:20160709022323 L   I
 OLDACT:UP  16-07-09 15:52 OP:edw  STATUS:               ID:20160709021746     3
 OLDACT:REG 16-07-09 12:50 OP:edw  STATUS:               ID:20160709021746     3
 2016-07-09-0217-46M.COL___337                                                 6
 STAT SP IPHASW D HRMM SECON CODA AMPLIT PERI AZIMU VELO AIN AR TRES W  DIS CAZ7
 BAR2 EZ EP        223 42.43                             171   -0.1410 23.0 188 
 BAR2 EZ ES        223 57.36                             171   -0.3010 23.0 188 
 BAR2 EZ I         223 58.80        14.2 0.28            163           23.0 188 
 BRR  HE ES        224  1.05                             152    0.7110 70.4 299 
 RUS  HZ EP        223 46.50                             143   -0.2510  101 175 
 RUS  HE ES        224  5.19                             143    0.1010  101 175 
 PTB  HZ EP        223 49.55                             132   -0.37 9  147 259 
 PTB  HN ES        224 10.03                             132   -0.70 9  147 259 
 PTB  HZ I         224 15.74        10.5 0.24            129            147 259 
 SPBC HZ EP        223 51.60                             129    0.12 9  162 219 
 SPBC HN ES        224 13.43                             129   -0.08 9  162 219 
 SPBC HZ I         224 20.75         8.4 0.28            126            162 219 
 ZAR  HZ EP        223 55.94                             122    0.50 9  203 292 
 ZAR  HN ES        224 20.55                             122   -0.00 9  203 292 
 CHI  HZ EP        224  0.47                             117   -0.29 8  248 195 
 CHI  HN ES        224 30.76                             117    0.73 8  248 195 
 CHI  HZ I         224 32.86         2.4 0.31            116            248 195 
 PRA  HZ EP        224 16.77                             106    0.17 6  391 209 
 PRA  HE ES        224 58.44                             106    0.21 6  391 209 
 PRA  HZ I         225  6.45         4.2 0.34            106            391 209 
 SJC  HZ EP   4    224 16.90                             105   -1.77 0  409 327 
 SJC  HN ES   4    224 56.26                             105   -5.65 0  409 327 
                                                                                
