 2010  4 9 0823 10.3 L   6.749 -72.971143.2  RSN  5 0.4 2.1LRSN                1
 GAP=245        1.01       7.4    12.6 11.1 -0.3780E+02 -0.5042E+01  0.6741E+01E
 Epicentro: CEPITA - SANTANDER                                                 3
 ACTION:UPD 10-08-24 09:58 OP:vdl  STATUS:               ID:20100409082310 L   I
 2010-04-09-0821-10S.COL___097                                                 6
 STAT SP IPHASW D HRMM SECON CODA AMPLIT PERI AZIMU VELO AIN AR TRES W  DIS CAZ7
 BAR2 SZ EP        823 30.08                             168     0.410   29 234 
 BAR2 SZ ES   2    823 44.09                             168    -0.8 5   29 234 
 BRR  HZ EP        823 32.21                             146    -0.210   91 296 
 BRR  HZ I         823 32.63        18.5 0.14                            91 296 
 BRR  HE ES   1    823 50.29                             146     0.7 7   91 296 
 OCA  SZ EP        823 39.17                             128     0.0 9  169 347 
 OCA  SZ ES   1    824  1.37                             128    -0.4 7  169 347 
 OCA  SZ I         824  5.41        23.3 0.25                           169 347 
 HEL  HZ EP   1    823 52.41                             113     0.1 5  290 258 
 HEL  HZ I         824 29.47         4.7 0.26                           290 258 
 RREF BE ES   1    824 33.88                             110    -0.6 5  333 232 
 RREF BZ I         824 42.17         4.4 0.25                           333 232 
                                                                                
