 2010  8 9 0429 36.8 L   6.885 -73.398109.2  RSN  4 0.2 1.2LRSN                1
 GAP=230        0.51       8.1     9.2 11.0 -0.5138E+02 -0.4671E+02  0.2949E+02E
 Epicentro: SAN VICENTE DE CHUCURI - SANTANDER                                 3
 ACTION:UP  10-09-07 10:53 OP:vdl  STATUS:               ID:20100809042936 L   I
 2010-08-09-0427-20S.COL___124                                                 6
 STAT SP IPHASW D HRMM SECON CODA AMPLIT PERI AZIMU VELO SNR AR TRES W  DIS CAZ7
 BTL  SZ EP        429 51.89                             171     0.110   15  75 
 BRR  HZ EP        429 52.18                             158    -0.210   43 305 
 BRR  HZ I         429 52.40        12.4 0.11                            43 305 
 BRR  HE ES   2    430  4.96                             158     0.4 5   43 305 
 GUE  SZ EP   2    429 58.67                             130     0.3 5  117  27 
 GUE  SZ ES   2    430 14.94                             130    -0.3 5  117  27 
 GUE  SZ I         430 15.80         1.4 0.14                           117  27 
 GRA  SZ EP   2    429 59.56                             127     0.3 5  129  31 
 GRA  SZ ES   2    430 16.78                             127    -0.1 5  129  31 
 GRA  SZ I         430 19.22         2.0 0.46                           129  31 
                                                                                
