 2013  4 9 0048 52.3 L   6.753 -73.207144.8  RSN  4 0.2 1.6LRSN                1
 GAP=226        0.51       4.1     4.1  4.5  0.9186E+01  0.2241E+01  0.1294E+01E
 Epicentro: VILLANUEVA - SANTANDER                                             3
 ACTION:UPD 13-05-22 14:36 OP:EP   STATUS:               ID:20130409004852 L   I
 2013-04-09-0038-48M.COL___224                                                 6
 STAT SP IPHASW D HRMM SECON CODA AMPLIT PERI AZIMU VELO AIN AR TRES W  DIS CAZ7
 BAR2 SZ ES   1    049 26.56                             173   -0.28 7 18.0 171 
 BRR  HZ EP        049 13.09                             153   -0.0710 68.2 305 
 BRR  HN ES        049 29.62                             153    0.1810 68.2 305 
 RUS  HZ EP        049 15.87                             145    0.2510 96.1 172 
 RUS  HN ES        049 33.79                             145   -0.0310 96.1 172 
 RUS  HE I         049 35.23         7.5 0.48            142           96.1 172 
 PTB  HZ EP        049 18.25                             133   -0.24 9  140 260 
 PTB  HN ES        049 38.97                             133    0.05 9  140 260 
 PTB  HE I         049 44.36         5.6 0.24            130            140 260 
                                                                                
