 2015  6 9 0725  9.1 L   7.214 -73.052146.0  RSN  6 0.6 1.6LRSN                1
 GAP=206        1.28       4.7     9.7  9.3 -0.2950E+01  0.1102E+02 -0.6715E+01E
 Epicentro: TONA - SANTANDER                                                   3
 ACTION:UPD 15-09-10 22:10 OP:cam  STATUS:               ID:20150609072509 L   I
 OLDACT:REG 15-06-09 13:32 OP:stll STATUS:               ID:20150609071749     3
 2015-06-09-0717-49M.COL___300                                                 6
 STAT SP IPHASW D HRMM SECON CODA AMPLIT PERI AZIMU VELO AIN AR TRES W  DIS CAZ7
 BAR2 EZ ES        725 47.12                             153   -0.1910 70.2 192 
 BAR2 EZ I         725 47.88         4.0 0.28            153           70.2 192 
 BRR  HZ EP   2    725 30.26                             152   -0.17 5 73.9 261 
 BRR  HZ I         725 30.82         7.8 0.32            148           73.9 261 
 BRR  HN ES        725 47.38                             152    0.3210 73.9 261 
 OCA  HZ EP        725 33.29                             139   -0.3710  117 345 
 OCA  HN ES        725 52.98                             139    0.1610  117 345 
 OCA  HZ I         725 54.59         6.4 0.16            138            117 345 
 ZAR  HZ EP        725 41.82                             123    0.49 9  202 279 
 ZAR  HN ES        726  5.87                             123   -0.60 9  202 279 
 ZAR  HZ I         726 12.60         4.0 0.32            122            202 279 
 SPBC HZ EP        725 42.89                             122    0.99 8  206 213 
 SPBC HN ES        726  7.06                             122   -0.43 8  206 213 
 SML  HZ EP        725 41.05                             122   -0.95 8  208 327 
 SML  HE ES        726  8.32                             122    0.66 8  208 327 
 SML  HZ I         726 10.64         5.7 0.10            121            208 327 
                                                                                
