 2017  6 9 0536 22.4 L   6.706 -73.175148.2  RSN  5 0.3 1.0LRSN                1
 GAP=227        0.89       5.0     6.1  7.3  0.1427E+02 -0.4827E+00 -0.4606E+01E
 Epicentro: VILLANUEVA - SANTANDER                                             3
 ACTION:UPD 17-09-14 16:50 OP:jn   STATUS:               ID:20170609053622 L   I
 OLDACT:DUP 17-06-09 17:52 OP:edw  STATUS:               ID:20170609052743d    3
 OLDACT:UP  17-06-09 17:50 OP:edw  STATUS:               ID:20170609052742d    3
 OLDACT:UP  17-06-09 17:49 OP:edw  STATUS:               ID:20170609052742d    3
 OLDACT:DUP 17-06-09 17:42 OP:edw  STATUS:               ID:20170609052742d    3
 2017-06-09-0528-00M.COL___362                                                 6
 STAT SP IPHASW D HRMM SECON CODA AMPLIT PERI AZIMU VELO AIN AR TRES W  DIS CAZ7
 BRR  HZ EP        536 44.13                             152    0.1310 74.1 307 
 BRR  HN ES        537  1.25                             152    0.4210 74.1 307 
 RUS  HZ EP        536 45.86                             147    0.1410 90.5 174 
 RUS  HN ES        537  3.36                             147   -0.5410 90.5 174 
 RUS  HZ I         537  5.25         1.2 0.32            149           90.5 174 
 PTB  HZ EP        536 49.45                             134    0.29 9  143 263 
 PTB  HE ES        537  9.70                             134   -0.31 9  143 263 
 PTB  HZ I         537 12.26         0.7 0.16            133            143 263 
 SPBC HZ EP        536 50.09                             132   -0.09 9  153 221 
 SPBC HN ES        537 12.35                             132    0.52 9  153 221 
 ZAR  HZ EP        536 54.88                             123   -0.27 8  205 295 
 ZAR  HN ES        537 20.26                             123   -0.43 8  205 295 
 ZAR  HZ I         537 27.13         1.8 0.32            123            205 295 
                                                                                
