 2014  7 9 0207 12.0 L   6.810 -73.153143.8  RSN 22 0.6 2.2LRSN                1
 GAP= 53        1.30       3.0     3.4  5.3 -0.1930E+01  0.3282E+01  0.2324E+01E
 Epicentro: LOS SANTOS - SANTANDER                                             3
 ACTION:UPD 15-03-16 20:42 OP:nd   STATUS:               ID:20140709020712 L   I
 OLDACT:REG 14-07-09 12:05 OP:stll STATUS:               ID:20140709015805     3
 2014-07-09-0158-05M.COL___265                                                 6
 STAT SP IPHASW D HRMM SECON CODA AMPLIT PERI AZIMU VELO AIN AR TRES W  DIS CAZ7
 BAR2 SZ IP     C  2 7 31.58                             170    0.1610 24.3 188 
 BAR2 SZ ES        2 7 46.36                             170   -0.2010 24.3 188 
 BRR  HZ EP        2 7 33.55                             153    0.6810 70.0 298 
 BRR  HN ES        2 7 50.25                             153    1.1010 70.0 298 
 BRR  HZ I         2 7 52.86        19.4 0.32            150           70.0 298 
 PAM  SZ EP     C  2 7 34.26                             151    0.2710 77.0  40 
 PAM  SZ I         2 7 34.60        44.3 0.22            153           77.0  40 
 PAM  SN ES        2 7 51.19                             151    0.0510 77.0  40 
 RUS  HZ IP     D  2 7 35.58                             143   -0.0710  102 176 
 RUS  HN ES        2 7 53.81                             143   -0.2810  102 176 
 RUS  HZ I         2 7 56.08        11.5 0.22            141            102 176 
 PTB  HZ EP        2 7 38.17                             132   -0.59 9  147 258 
 PTB  HE ES        2 7 59.48                             132   -0.16 9  147 258 
 PTB  HZ I         2 8  2.71        18.3 0.42            129            147 258 
 TAM  HZ EP        2 7 39.95                             130    0.33 9  156 105 
 OCA  HZ EP        2 7 40.68                             129    0.63 9  159 353 
 OCA  HE ES        2 8  1.79                             129   -0.14 9  159 353 
 OCA  HZ I         2 8  7.06        16.6 0.32            129            159 353 
 SPBC HZ EP        2 7 40.53                             129    0.14 9  164 219 
 SPBC HN ES        2 8  2.27                             129   -0.26 9  164 219 
 SPBC HZ I         2 8  8.52        23.1 0.18            126            164 219 
 ZAR  HZ EP        2 7 44.09                             122   -0.12 9  203 292 
 ZAR  HN ES        2 8  9.11                             122   -0.21 9  203 292 
 ZAR  HZ I         2 8 14.53        12.6 0.22            120            203 292 
 NOR  HZ IP     D  2 7 48.09                             118    0.47 8  235 234 
 NOR  HN ES        2 8 14.78                             118   -0.62 8  235 234 
 NOR  HZ I         2 8 21.00        16.7 0.16            116            235 234 
 SML  HZ EP        2 7 47.85                             117   -0.53 8  242 335 
 SML  HN ES        2 8 15.58                             117   -1.17 8  242 335 
 CHI  HZ EP        2 7 49.59                             117   -0.10 8  249 195 
 CHI  HN ES        2 8 18.74                             117   -0.34 8  249 195 
 CHI  HZ I         2 8 26.30        10.0 0.40            115            249 195 
 HEL  HZ EP        2 7 52.33                             114    0.26 8  272 256 
 HEL  HN ES        2 8 22.92                             114   -0.39 8  272 256 
 HEL  HZ I         2 8 31.54         7.7 0.48            113            272 256 
 GUY2CHZ EP        2 7 56.81                             112    1.28 7  301 235 
 GUY2CHN ES        2 8 28.81                             112   -0.66 7  301 235 
 GUY2CHZ I         2 8 38.22         8.9 0.26                           301 235 
 SOCV BZ EP        2 7 53.65                             112   -1.32 7  301  57 
 SOCV BN ES   4    2 8 24.25                             112   -4.23 0  301  57 
 PTGC HZ EP        2 7 54.81                             111   -1.11 7  310 159 
 RREF HZ EP        2 7 58.75                             110    0.67 7  322 229 
 RREF HN ES        2 8 34.22                             110    0.21 7  322 229 
 RREF HZ I         2 8 44.07        11.2 0.26            109            322 229 
 CBOC HZ EP        2 7 59.37                             110    0.58 7  333 252 
 CBOC HZ I         2 8  0.60         3.3 0.22            108            333 252 
 CBOC HE ES        2 8 34.17                             110   -1.12 7  333 252 
 DBB  SZ EP        2 8  0.13                             109    0.82 7  339 274 
 DBB  SZ ES        2 8 35.91                             109   -0.29 7  339 274 
 TOL  SZ EP        2 8  1.11                             109    0.90 7  344 224 
 TOL  SE ES        2 8 38.16                             109    0.35 7  344 224 
 PRA  HZ EP        2 8  5.23                             106   -0.30 6  393 209 
 PRA  HE ES        2 8 47.93                             106    0.66 6  393 209 
 PRA  HZ I         2 8 54.43         8.6 0.36            105            393 209 
 ORTC HZ EP        2 8  5.82                             106   -0.09 6  396 216 
 ORTC HZ I         2 8 55.82         7.1 0.40            105            396 216 
                                                                                
