 2015 11 9 0137  6.2 L   6.841 -73.110152.9  RSN  7 0.4 1.9LRSN                1
 GAP=212        1.01       4.3     7.2  6.4  0.1377E+02  0.4827E+01 -0.1543E+00E
 Epicentro: LOS SANTOS - SANTANDER                                             3
 ACTION:UPD 15-12-28 16:09 OP:cam  STATUS:               ID:20151109013706 L   I
 OLDACT:REG 15-11-09 12:47 OP:dnl  STATUS:               ID:20151109012743     3
 2015-11-09-0127-43M.COL___316                                                 6
 STAT SP IPHASW D HRMM SECON CODA AMPLIT PERI AZIMU VELO AIN AR TRES W  DIS CAZ7
 BAR2 EZ EP     D  137 26.95                             169    0.1610 28.7 196 
 BAR2 EZ ES        137 42.50                             169   -0.3610 28.7 196 
 BAR2 EZ I         137 43.62        21.6 0.13            166           28.7 196 
 BRR  HZ EP     C  137 28.74                             153    0.5410 72.8 294 
 BRR  HN ES        137 45.79                             153    0.4310 72.8 294 
 BRR  HZ I         137 49.00        15.2 0.12            149           72.8 294 
 RUS  HZ EP        137 30.94                             144   -0.0110  105 178 
 RUS  HN ES        137 49.92                             144   -0.3510  105 178 
 RUS  HZ I         137 50.64         4.6 0.35            144            105 178 
 SPBC HZ EP        137 35.91                             129    0.10 9  169 219 
 SPBC HN ES        137 58.91                             129    0.00 9  169 219 
 SPBC HZ I         138  1.24         9.2 0.11            128            169 219 
 ZAR  HZ EP   4    137 42.17                             123    2.86 0  206 291 
 ZAR  HE ES        138  4.97                             123   -0.18 8  206 291 
 ZAR  HZ I         138 11.02        10.1 0.29            122            206 291 
 CHI  HZ EP        137 45.61                             118    0.74 8  254 196 
 CHI  HN ES        138 14.43                             118   -0.62 8  254 196 
 CHI  HZ I         138 17.96         5.4 0.41            118            254 196 
 MON  HZ EP   4    137 54.62                             110   -0.89 0  354 307 
 MON  HN ES   4    138 32.16                             110   -1.83 0  354 307 
 SJC  HZ EP        138  1.57                             107   -0.23 6  408 326 
 SJC  HN ES        138 44.04                             107   -1.14 6  408 326 
                                                                                
