 2017  6 9 0953 15.3 L   6.801 -73.199149.4  RSN  7 0.4 1.7LRSN                1
 GAP=232        1.03       5.0     5.9  7.6  0.1235E+02  0.4836E+01 -0.8437E+00E
 Epicentro: ZAPATOCA - SANTANDER                                               3
 ACTION:UPD 17-09-14 16:50 OP:jn   STATUS:               ID:20170609095315 L   I
 OLDACT:DUP 17-06-09 17:42 OP:dhb  STATUS:               ID:20170609094743d    3
 2017-06-09-0948-00M.COL___347                                                 6
 STAT SP IPHASW D HRMM SECON CODA AMPLIT PERI AZIMU VELO AIN AR TRES W  DIS CAZ7
 BRR  HZ EP        953 36.88                             155    0.3310 66.1 301 
 BRR  HN ES        953 53.53                             155    0.3810 66.1 301 
 BRR  HZ I         953 54.75         8.3 0.10            151           66.1 301 
 RUS  HZ EP        953 39.00                             144   -0.4410  101 173 
 RUS  HE ES        953 57.99                             144   -0.3010  101 173 
 RUS  HZ I         953 58.96         7.2 0.31            146            101 173 
 PTB  HZ EP        953 41.83                             134   -0.21 9  142 258 
 PTB  HN ES        954  2.73                             134   -0.19 9  142 258 
 PTB  HZ I         954  5.82         3.8 0.13            132            142 258 
 SPBC HZ EP        953 44.29                             131    0.56 9  160 217 
 SPBC HN ES        954  6.23                             131    0.31 9  160 217 
 SPBC HZ I         954 10.86         9.7 0.29            130            160 217 
 ZAR  HZ EP   4    953 49.19                             124    1.78 0  199 293 
 ZAR  HN ES        954 11.84                             124   -0.64 9  199 293 
 ZAR  HZ I         954 18.26         5.5 0.32            123            199 293 
 NOR  HZ EP        953 51.32                             120    0.59 8  230 234 
 NOR  HN ES        954 18.02                             120   -0.36 8  230 234 
 NOR  HZ I         954 20.65         2.9 0.32            119            230 234 
 URE  HZ EP        953 55.36                             115   -0.56 7  278 292 
 URE  HN ES        954 28.14                             115    0.51 7  278 292 
 URE  HZ I         954 38.80         4.0 0.32            114            278 292 
                                                                                
