 2016 10 9 0128 28.2 L   6.568 -73.531106.3  RSN 12 0.6 1.7LRSN                1
 GAP= 52        1.55       4.7     4.5 10.8 -0.6855E+01  0.9735E+01 -0.9663E+01E
 Epicentro: EL CARMEN - SANTANDER                                              3
 ACTION:UPD 16-11-09 19:17 OP:rebc STATUS:               ID:20161009012828 L   I
 OLDACT:UP  16-10-09 13:56 OP:dani STATUS:               ID:20161009011743d    3
 OLDACT:DUP 16-10-09 13:50 OP:dani STATUS:               ID:20161009011743d    3
 OLDACT:REG 16-10-09 12:20 OP:dani STATUS:               ID:20161009011742     3
 2016-10-09-0118-00M.COL___363                                                 6
 STAT SP IPHASW D HRMM SECON CODA AMPLIT PERI AZIMU VELO AIN AR TRES W  DIS CAZ7
 RUS  HZ EP        128 47.22                             137   -0.2010 89.6 146 
 RUS  HE ES        129  2.84                             137    0.4710 89.6 146 
 RUS  HZ I         129  4.36        10.9 0.39             96           89.6 146 
 PTB  HZ EP        128 46.98                             132   -0.8910  102 268 
 PTB  HE ES        129  1.99                             132   -1.1810  102 268 
 PTB  HZ I         129  3.42        14.0 0.08             96            102 268 
 SPBC HZ EP        128 48.96                             128   -0.4310  118 211 
 SPBC HN ES        129  5.91                             128    0.0310  118 211 
 SPBC HZ I         129 12.02        16.6 0.09             95            118 211 
 PAM  EZ EP        128 50.75                             126    0.0710  125  47 
 PAM  EN ES        129  8.30                             126    0.1210  125  47 
 PAM  EZ I         129 10.11         5.3 0.22             95            125  47 
 ZAR  HZ EP        128 56.07                             115    0.43 9  179 305 
 ZAR  HE ES   4    129 19.23                             115    2.23 0  179 305 
 ZAR  HZ I         129 23.61         7.1 0.18             56            179 305 
 NOR  HZ EP        128 56.00                             114   -0.40 9  185 233 
 NOR  HE ES        129 19.40                             114    1.04 9  185 233 
 NOR  HZ I         129 21.17         9.8 0.16             56            185 233 
 OCA  HN ES        129 19.70                             114    0.87 9  186   7 
 OCA  HZ I         129 27.69         9.9 0.28             56            186   7 
 TAM  HZ EP        128 56.78                             113   -0.49 9  193  94 
 CHI  HZ EP        129  0.39                             111    0.12 8  215 186 
 CHI  HZ I         129 30.47         1.1 0.19             56            215 186 
 HEL  HZ EP        129  1.15                             110   -0.14 8  225 259 
 HEL  HE ES        129 28.17                             110    1.10 8  225 259 
 HEL  HZ I         129 32.58         3.9 0.43             56            225 259 
 GUY2CHZ EP        129  5.17                             107    0.66 8  252 234 
 GUY2CHN ES   4    129 34.55                             107    1.75 0  252 234 
 GUY2CHZ I         129 42.72         3.0 0.34                           252 234 
 SJC  HZ EP        129 22.01                              97   -0.94 6  411 334 
 SJC  HN ES   4    130  4.04                              97   -1.59 0  411 334 
 SJC  HZ I         130  5.02         0.9 0.18             55            411 334 
                                                                                
