 2013  3 9 0902 14.0 L   7.229 -73.905  7.8  RSN  9 0.5 2.5LRSN                1
 GAP=102        1.21       3.4     2.6  7.0  0.1436E+01  0.6316E+01 -0.2546E+01E
 Epicentro: PUERTO WILCHES - SANTANDER                                         3
 ACTION:UPD 13-04-09 14:01 OP:ep   STATUS:               ID:20130309090214 L   I
 2013-03-09-0858-48M.COL___195                                                 6
 STAT SP IPHASW D HRMM SECON CODA AMPLIT PERI AZIMU VELO AIN AR TRES W  DIS CAZ7
 BRR  HZ IP        9 2 18.84                             101    0.4210 25.2 122 
 BRR  HN ES        9 2 22.26                             101    0.3610 25.2 122 
 BRR  HE I         9 2 23.44      1366.0 0.20            106           25.2 122 
 PTB  HZ EP        9 2 29.04                              92   -0.3210 97.6 219 
 BAR2 SZ EP        9 2 30.39                              92   -0.5510  106 131 
 BAR2 SZ I         9 2 43.80        57.6 0.44             94            106 131 
 ZAR  HZ EP        9 2 31.40                              92    0.2910  109 286 
 ZAR  HN ES        9 2 44.64                              92    0.1410  109 286 
 ZAR  HN I         9 2 47.36       112.5 0.26             94            109 286 
 OCA  HZ EP        9 2 34.35                              92    0.0810  129  30 
 OCA  HN ES        9 2 49.56                              92   -0.5610  129  30 
 PAM  SZ EP        9 2 34.97                              92   -0.3510  134  85 
 RUS  HZ EP        9 2 40.58                              56   -0.58 9  173 148 
 URE  HZ EP        9 2 42.97                              56    0.47 9  189 288 
 URE  HN ES        9 3  4.39                              56   -0.37 9  189 288 
 CAPV BZ EP        9 2 43.87                              56    1.07 9  189  68 
                                                                                
