 2012  8 9 0156 31.8 L   6.138 -73.000  4.0  RSN  5 0.3 1.4LRSN                1
 GAP=185        0.70       1.8     3.9  5.8 -0.1489E+01  0.7000E+01 -0.3033E+01E
 Epicentro: ENCINO - SANTANDER                                                 3
 ACTION:UPD 12-09-10 11:55 OP:ep   STATUS:               ID:20120809015631 L   I
 2012-08-09-0150-00M.COL___215                                                 6
 STAT SP IPHASW D HRMM SECON CODA AMPLIT PERI AZIMU VELO AIN AR TRES W  DIS CAZ7
 RUS  HZ IP     D  156 37.30                              47    0.0510 28.7 199 
 RUS  HE ES   1    156 40.91                              47   -0.59 7 28.7 199 
 RUS  HZ I         156 42.37        25.9 0.20                          28.7 199 
 BAR2 SZ EP        156 41.08                              47    0.2510 54.1 338 
 BAR2 SZ ES        156 47.66                              47   -0.2210 54.1 338 
 BAR2 SZ I         156 49.35        29.7 0.23                          54.1 338 
 PAM  SZ EP   1    156 53.90                              47    0.26 7  137  14 
 PAM  SZ I         157  5.86         3.1 0.16                           137  14 
 PAM  SE ES   1    157 10.28                              47   -0.40 7  137  14 
 PTB  HZ EP   1    156 57.88                              47    0.15 7  167 285 
 PTB  HE ES   1    157 17.96                              47    0.00 7  167 285 
 PTB  HZ I         157 22.70         5.6 0.08                           167 285 
 CHI  HZ EP   1    157  1.33                              37    0.59 7  186 206 
 CHI  HZ I         157  3.93         4.6 0.16                           186 206 
                                                                                
