 2012  9 9 0439  4.9 L   6.759 -73.117142.6  RSN  5 0.2 1.9LRSN                1
 GAP=142        0.41       6.1     5.5  5.7  0.1074E+02 -0.1452E+02 -0.1600E+02E
 Epicentro: LOS SANTOS - SANTANDER                                             3
 ACTION:UPD 12-10-22 14:17 OP:ep   STATUS:               ID:20120909043904 L   I
 2012-09-09-0430-00M.COL___227                                                 6
 STAT SP IPHASW D HRMM SECON CODA AMPLIT PERI AZIMU VELO AIN AR TRES W  DIS CAZ7
 BAR2 SZ EP        439 24.14                             172    0.0910 19.8 201 
 BAR2 SZ ES   1    439 38.86                             172   -0.16 7 19.8 201 
 GIR2 SZ EP        439 24.13                             165   -0.1910 36.4 347 
 BRR  HZ IP     C  439 25.91                             150   -0.0610 76.2 300 
 BRR  HZ I         439 26.06        14.5 0.12                          76.2 300 
 BRR  HN ES   1    439 42.56                             150    0.13 7 76.2 300 
 PAM  SZ EP        439 27.01                             149    0.1610 79.0  36 
 RUS  HN ES   3    439 46.37                             145    0.38 2 95.9 178 
                                                                                
