 2013  6 9 0714  2.0 L   6.856 -73.159162.7  RSN  5 0.3 1.5LRSN                1
 GAP=210        0.53       6.4     6.4  8.7  0.6124E+00 -0.1558E+02  0.7123E+01E
 Epicentro: LOS SANTOS - SANTANDER                                             3
 ACTION:UPD 14-01-08 09:53 OP:ep   STATUS:               ID:20130609071402 L   I
 OLDACT:DUP 13-06-09 09:47 OP:mh   STATUS:               ID:20130609071001d    3
 OLDACT:UP  13-06-09 09:46 OP:mh   STATUS:               ID:20130609071000     3
 OLDACT:REG 13-06-09 07:42 OP:mh   STATUS:               ID:20130609071000     3
 2013-06-09-0710-00M.COL___257                                                 6
 STAT SP IPHASW D HRMM SECON CODA AMPLIT PERI AZIMU VELO AIN AR TRES W  DIS CAZ7
 BAR2 SZ EP   1    714 23.64                             170   -0.20 7 29.3 185 
 BRR  HZ EP   1    714 25.20                             157    0.35 7 67.2 294 
 BRR  HN ES   1    714 42.78                             157    0.15 7 67.2 294 
 BRR  HN I         714 45.65         5.0 0.18            149           67.2 294 
 PTB  HZ EP   1    714 30.44                             136    0.00 7  148 256 
 PTB  HE ES   1    714 52.25                             136   -0.33 7  148 256 
 PTB  HE I         714 56.25         2.5 0.40            132            148 256 
 ZAR  HN ES   2    715  1.62                             126    0.39 4  200 291 
 ZAR  HN I         715  7.70         4.4 0.22            123            200 291 
 SML  HN ES   2    715  7.36                             121   -0.51 4  237 335 
                                                                                
