 2013  6 9 0500  6.0 L   6.815 -73.182140.7  RSN  7 0.4 1.9LRSN                1
 GAP=176        0.88       4.3     6.2  7.6 -0.3231E+01  0.4120E+01 -0.7239E+01E
 Epicentro: ZAPATOCA - SANTANDER                                               3
 ACTION:UPD 14-01-08 09:53 OP:ep   STATUS:               ID:20130609050006 L   I
 OLDACT:REG 13-06-09 08:10 OP:mh   STATUS:               ID:20130609045835     3
 2013-06-09-0458-35M.COL___231                                                 6
 STAT SP IPHASW D HRMM SECON CODA AMPLIT PERI AZIMU VELO AIN AR TRES W  DIS CAZ7
 BAR2 SZ EP   1    5 0 25.19                             170    0.12 7 24.7 180 
 BAR2 SZ ES   2    5 0 39.72                             170   -0.22 5 24.7 180 
 BAR2 SZ I         5 0 42.81        10.3 0.26            171           24.7 180 
 GIR2 SZ EP        5 0 25.17                             168    0.1310 29.1 357 
 GIR2 SZ ES   1    5 0 39.29                             168   -0.58 7 29.1 357 
 BRR  HZ EP   1    5 0 27.10                             153    0.72 7 66.9 299 
 BRR  HE ES        5 0 42.80                             153    0.5410 66.9 299 
 BRR  HE I         5 0 49.27        25.4 0.22            151           66.9 299 
 RUS  HN ES   2    5 0 47.22                             142   -0.47 5  103 174 
 RUS  HN I         5 0 49.55         7.9 0.34            148            103 174 
 PTB  HZ EP   1    5 0 32.19                             132   -0.07 7  144 258 
 PTB  HN ES        5 0 52.41                             132   -0.31 9  144 258 
 PTB  HN I         5 0 57.83         5.5 0.28            133            144 258 
 OCA  HN ES        5 0 55.58                             129    0.22 9  158 354 
 OCA  HN I         5 0 58.52        17.1 0.20            132            158 354 
 SML  HZ EP   1    5 0 41.55                             117   -0.47 6  241 336 
 SML  HN ES        5 1  9.55                             117   -0.55 8  241 336 
 SML  HN I         5 1 17.43        15.9 0.10            119            241 336 
                                                                                
