 2014  8 9 0350 48.1 L   6.803 -73.116150.7  RSN 20 0.4 2.1LRSN                1
 GAP=140        0.92       2.4     3.4  4.5 -0.1476E+01  0.3949E+01  0.1009E+01E
 Epicentro: LOS SANTOS - SANTANDER                                             3
 ACTION:UPD 14-09-15 21:48 OP:nd   STATUS:               ID:20140809035048 L   I
 OLDACT:REG 14-08-09 12:52 OP:spq  STATUS:               ID:20140809034819     3
 2014-08-09-0348-19M.COL___263                                                 6
 STAT SP IPHASW D HRMM SECON CODA AMPLIT PERI AZIMU VELO AIN AR TRES W  DIS CAZ7
 BAR2 SZ EP     C  351  8.25                             170   -0.1210 24.4 197 
 BAR2 SZ ES   1    351 24.27                             170    0.11 7 24.4 197 
 BAR2 SZ I         351 26.34        21.4 0.34            167           24.4 197 
 BRR  HZ EP     C  351 10.17                             152    0.2110 74.0 297 
 BRR  HE ES        351 27.51                             152    0.5110 74.0 297 
 BRR  HZ I         351 32.00        16.5 0.30            150           74.0 297 
 PAM  SZ EP        351 11.25                             152    0.5110 75.1  38 
 PAM  SN ES   1    351 28.41                             152    0.03 7 75.1  38 
 RUS  HZ EP        351 12.12                             145   -0.2510  101 178 
 RUS  HN ES        351 31.06                             145   -0.2210  101 178 
 RUS  HZ I         351 33.45         7.7 0.52            146            101 178 
 PTB  HZ EP        351 15.37                             132   -0.42 9  151 259 
 PTB  HN ES        351 36.62                             132   -0.75 9  151 259 
 PTB  HZ I         351 43.68        24.1 0.44            132            151 259 
 OCA  HZ EP        351 17.05                             131    0.21 9  160 352 
 OCA  HN ES        351 39.37                             131    0.14 9  160 352 
 OCA  HZ I         351 43.24        16.2 0.28            134            160 352 
 SPBC HZ EP        351 16.90                             130   -0.32 9  165 220 
 SPBC HE ES        351 39.64                             130   -0.28 9  165 220 
 SPBC HZ I         351 46.36        26.3 0.30            130            165 220 
 ZAR  HZ EP        351 20.39                             123   -0.81 8  207 292 
 ZAR  HN ES        351 47.20                             123    0.21 8  207 292 
 ZAR  HZ I         351 53.34        11.0 0.35            124            207 292 
 NOR  HZ EP        351 24.46                             119    0.01 8  238 235 
 NOR  HE ES        351 53.17                             119    0.39 8  238 235 
 NOR  HZ I         351 55.94        15.2 0.18            120            238 235 
 SML  HZ EP        351 24.91                             118   -0.24 8  245 335 
 SML  HN ES        351 53.40                             118   -0.64 8  245 335 
 SML  HZ I         351 58.52        21.4 0.07            121            245 335 
 CHI  HN ES   1    351 56.23                             118    0.29 6  250 196 
 CHI  HZ I         352  3.38         5.7 0.24            120            250 196 
 ROSC BE ES   4    352  0.23                             117    3.39 0  255 212 
 ROSC BZ I         352  5.92        13.7 0.50            119            255 212 
 HEL  HZ EP        351 29.40                             115    0.45 7  275 256 
 HEL  HN ES        352  0.86                             115    0.07 7  275 256 
 HEL  HZ I         352  7.93         7.3 0.24            116            275 256 
 GUY2CHZ EP        351 33.00                             113    0.72 7  304 235 
 GUY2CHN ES   4    352 10.44                             113    3.71 0  304 235 
 GUY2CHZ I         352 13.20         8.7 0.32                           304 235 
 CBOC HZ EP        351 36.00                             111    0.39 7  337 252 
 CBOC HN ES        352 13.11                             111    0.46 7  337 252 
 CBOC HZ I         352 17.65         2.8 0.26            112            337 252 
 TOL  SZ EP        351 37.56                             110    0.69 6  346 225 
 TOL  SN ES   4    352 16.06                             110    1.17 0  346 225 
 TOL  SZ I         352 21.41        13.0 0.52            111            346 225 
 MON  HZ EP   4    351 35.12                             109   -2.48 0  356 308 
 MON  HN ES   4    352 14.38                             109   -1.81 0  356 308 
 MON  HZ I         352 19.51         2.8 0.20            111            356 308 
 PRA  HZ EP        351 41.80                             107   -0.24 6  394 210 
 PRA  HE ES        352 24.44                             107    0.35 6  394 210 
 PRA  HZ I         352 28.86         4.6 0.29            109            394 210 
 ORTC HZ EP        351 41.83                             107   -0.64 6  398 217 
 ORTC HN ES        352 24.78                             107   -0.08 6  398 217 
 ORTC HZ I         352 30.92         3.4 0.47            109            398 217 
 SJC  HZ EP   4    351 42.25                             106   -1.78 0  411 327 
 SJC  HN ES   4    352 23.74                             106   -3.90 0  411 327 
 SJC  HZ I         352 28.93         2.8 0.26            108            411 327 
                                                                                
