 2013 10 9 0116 25.8 L   6.796 -73.165146.9  RSN 10 0.4 1.9LRSN                1
 GAP=134        0.81       2.6     3.6  5.1  0.2499E+00  0.5793E+01  0.1533E+01E
 Epicentro: LOS SANTOS - SANTANDER                                             3
 ACTION:UPD 13-11-25 09:20 OP:ep   STATUS:               ID:20131009011625 L   I
 OLDACT:REG 13-10-09 07:30 OP:mh   STATUS:               ID:20131009010959     3
 2013-10-09-0109-59M.COL___273                                                 6
 STAT SP IPHASW D HRMM SECON CODA AMPLIT PERI AZIMU VELO AIN AR TRES W  DIS CAZ7
 BAR2 SZ EP   1    116 45.88                             171    0.32 7 22.6 185 
 BAR2 SZ ES   1    117  0.42                             171   -0.55 7 22.6 185 
 BAR2 SZ I         117  1.53        33.0 0.30            168           22.6 185 
 BRR  HZ EP   1    116 47.25                             153    0.26 7 69.5 300 
 BRR  HN ES        117  4.19                             153    0.6810 69.5 300 
 BRR  HZ I         117  7.65        17.4 0.38            154           69.5 300 
 PAM  SZ EP   1    116 48.69                             150    0.44 7 79.1  41 
 PAM  SN ES        117  5.51                             150   -0.2410 79.1  41 
 PAM  SZ I         117  7.62         9.3 0.56            155           79.1  41 
 RUS  HZ EP   1    116 50.16                             144    0.51 7  100 175 
 RUS  HN ES        117  8.13                             144   -0.1210  100 175 
 RUS  HZ I         117 10.23         7.6 0.18            144            100 175 
 PTB  HZ EP   1    116 52.57                             133   -0.10 7  146 259 
 PTB  HN ES        117 13.39                             133   -0.24 9  146 259 
 PTB  HZ I         117 15.86        10.3 0.18            133            146 259 
 SPBC HZ EP   1    116 53.53                             130   -0.71 7  161 218 
 SPBC HN ES   2    117 16.33                             130   -0.08 5  161 218 
 SPBC HZ I         117 25.09        10.5 0.32            130            161 218 
 ZAR  HZ EP   1    116 58.08                             123   -0.06 6  202 292 
 ZAR  HN ES        117 23.57                             123    0.21 9  202 292 
 ZAR  HZ I         117 25.73        10.5 0.10            124            202 292 
 SML  HZ EP   1    117  2.64                             118    0.19 6  243 336 
 SML  HN ES        117 30.32                             118   -0.70 8  243 336 
 SML  HZ I         117 33.06        14.3 0.10            120            243 336 
 CHI  HZ EP   1    117  3.48                             117    0.01 6  248 195 
 CHI  HN ES        117 32.87                             117    0.03 8  248 195 
 CHI  HZ I         117 41.12         3.4 0.34            118            248 195 
 GUY2CHZ EP        117  9.22                             113   -0.02 7  299 235 
 GUY2CHN ES        117 43.08                             113   -0.04 7  299 235 
 SJC  HZ EP   4    117 18.80                             106   -2.52 0  408 327 
                                                                                
