 2016  3 9 0530 38.1 L   6.814 -73.167146.2  RSN  7 0.2 1.5LRSN                1
 GAP=133        0.64       2.5     2.8  4.3 -0.4070E+00  0.3811E+01  0.7094E+00E
 Epicentro: LOS SANTOS - SANTANDER                                             3
 ACTION:UPD 16-05-13 21:22 OP:cam  STATUS:               ID:20160309053038 L   I
 OLDACT:DUP 16-03-09 16:34 OP:cara STATUS:               ID:20160309052750d    3
 2016-03-09-0527-49M.COL___289                                                 6
 STAT SP IPHASW D HRMM SECON CODA AMPLIT PERI AZIMU VELO AIN AR TRES W  DIS CAZ7
 BAR2 EZ IP        530 57.73                             170   -0.1210 24.6 184 
 BAR2 EZ ES        531 13.03                             170   -0.1910 24.6 184 
 BAR2 EZ I         531 15.43         7.5 0.28            171           24.6 184 
 PAM  EZ IP        531  0.71                             151    0.2810 77.8  42 
 PAM  EE ES        531 17.77                             151   -0.0410 77.8  42 
 PAM  EZ I         531 20.38         4.5 0.40            154           77.8  42 
 RUS  HZ EP        531  1.77                             143   -0.2910  102 175 
 RUS  HE ES        531 21.02                             143    0.3110  102 175 
 RUS  HZ I         531 22.40         2.8 0.30            147            102 175 
 PTB  HZ EP        531  4.44                             132   -0.52 9  146 258 
 PTB  HN ES        531 25.70                             132   -0.18 9  146 258 
 PTB  HZ I         531 27.44         3.7 0.16            133            146 258 
 SPBC HZ EP        531  6.65                             129    0.00 9  163 218 
 SPBC HN ES        531 29.01                             129    0.13 9  163 218 
 SPBC HZ I         531 34.88         6.6 0.24            131            163 218 
 ZAR  HZ EP        531 10.48                             123    0.15 9  201 292 
 ZAR  HN ES        531 35.82                             123    0.39 9  201 292 
 ZAR  HZ I         531 45.76         3.5 0.30            124            201 292 
 CHI  HZ EP        531 16.08                             117    0.12 8  249 195 
 CHI  HN ES        531 45.59                             117    0.14 8  249 195 
                                                                                
