 2017  2 9 0458 41.9 L   6.777 -73.158145.5  RSN 17 0.5 2.2LRSN                1
 GAP= 65        1.10       3.8     3.1  5.6  0.9271E+00  0.4773E+01  0.8635E+00E
 Epicentro: LOS SANTOS - SANTANDER                                             3
 ACTION:UPD 17-05-24 15:34 OP:jn   STATUS:               ID:20170209045841 L   I
 OLDACT:UP  17-02-09 18:07 OP:edw  STATUS:               ID:20170209045642     3
 OLDACT:REG 17-02-09 13:22 OP:edw  STATUS:               ID:20170209045642     3
 2017-02-09-0457-00M.COL___364                                                 6
 STAT SP IPHASW D HRMM SECON CODA AMPLIT PERI AZIMU VELO AIN AR TRES W  DIS CAZ7
 BAR2 EZ IP     C  459  1.58                             172    0.1310 20.6 187 
 BAR2 EZ ES        459 16.37                             172   -0.3310 20.6 187 
 BAR2 EZ I         459 17.65        42.4 0.26            169           20.6 187 
 BRR  HZ IP     C  459  3.46                             152    0.4410 71.2 301 
 BRR  HN ES        459 20.36                             152    0.8610 71.2 301 
 BRR  HZ I         459 24.85        41.9 0.12            150           71.2 301 
 PAM  EZ EP     C  459  4.47                             150    0.2110 80.2  39 
 PAM  EN ES        459 21.22                             150   -0.4810 80.2  39 
 PAM  EZ I         459 23.46        27.6 0.60            154           80.2  39 
 RUS  HZ EP        459  5.97                             144    0.5210 98.2 175 
 RUS  HN ES        459 23.38                             144   -0.4410 98.2 175 
 RUS  HZ I         459 24.85        26.2 0.24            144           98.2 175 
 PTB  HZ EP        459  8.52                             132   -0.16 9  146 260 
 PTB  HN ES        459 29.03                             132   -0.54 9  146 260 
 PTB  HZ I         459 31.71        22.3 0.18            131            146 260 
 TAM  HZ EP        459 10.03                             130    0.41 9  156 104 
 TAM  HN ES        459 31.09                             130   -0.16 9  156 104 
 TAM  HZ I         459 32.09        17.5 0.52            133            156 104 
 ZAR  HZ EP        459 14.66                             122    0.37 9  204 293 
 ZAR  HN ES   4    459 40.69                             122    1.13 0  204 293 
 ZAR  HZ I         459 46.18        18.5 0.40            122            204 293 
 NOR  HZ EP   4    459 18.76                             119    1.43 0  232 235 
 NOR  HN ES        459 45.31                             119    0.34 8  232 235 
 NOR  HZ I         459 50.14         5.6 0.18            118            232 235 
 CHI  HZ EP   4    459 20.47                             117    1.19 0  246 195 
 CHI  HN ES        459 48.68                             117    0.25 8  246 195 
 CHI  HZ I         459 55.18         3.3 0.32            117            246 195 
 URE  HZ EP        459 22.29                             113   -0.63 7  283 292 
 URE  HN ES        459 54.36                             113   -0.55 7  283 292 
 URE  HZ I         5 0  6.12        11.6 0.16            113            283 292 
 PTGC HZ IP     C  459 24.89                             112   -0.64 7  307 158 
 PTGC HN ES   4    459 57.89                             112   -1.68 0  307 158 
 PTGC HZ I         459 59.88         8.4 0.58            112            307 158 
 ELA  HN ES   4    5 0  2.91                             110   -1.81 0  326 230 
 ELA  HZ I         5 0 14.58         4.3 0.74            110            326 230 
 LL6C HN EP   9    459  8.07                             110   -19.8 0  327 358 
 LL6C HE ES        459 44.24                                    0.31 7  327 358 
 CBOC HZ EP   4    459 29.80                             110    1.24 0  332 252 
 CBOC HN ES        5 0  4.81                             110   -0.15 7  332 252 
 CBOC HZ I         5 0  9.63         2.7 0.62            110            332 252 
 DBB  EZ EP        459 29.98                             109    0.76 7  338 275 
 DBB  EN ES        5 0  5.80                             109   -0.34 7  338 275 
 DBB  EZ I         5 0 10.43         4.6 0.18            109            338 275 
 PRA  HZ EP   4    459 36.32                             107    1.25 0  389 210 
 PRA  HN ES   4    5 0 18.72                             107    2.18 0  389 210 
 PRA  HZ I         5 0 23.43         5.9 0.42            107            389 210 
 SJC  HZ EP     C  459 36.56                             105   -1.05 6  411 327 
 SJC  HN ES   4    5 0 16.72                             105   -4.35 0  411 327 
 SJC  HZ I         5 0 21.43         6.6 0.48            106            411 327 
                                                                                
