 2016  8 9 0150  8.5 L   6.790 -73.121140.9  RSN 13 0.5 2.0LRSN                1
 GAP=140        1.09       3.9     4.1  6.4 -0.8515E+00  0.8121E+01  0.3597E+01E
 Epicentro: LOS SANTOS - SANTANDER                                             3
 ACTION:UPD 16-10-29 15:34 OP:rebc STATUS:               ID:20160809015008 L   I
 OLDACT:REG 16-08-09 12:52 OP:dnl  STATUS:               ID:20160809014759     3
 2016-08-09-0147-59S.COL___343                                                 6
 STAT SP IPHASW D HRMM SECON CODA AMPLIT PERI AZIMU VELO AIN AR TRES W  DIS CAZ7
 BAR2 EZ EP        150 27.56                             170    0.0410 22.9 197 
 BAR2 EZ ES        150 42.27                             170   -0.0910 22.9 197 
 BAR2 EZ I         150 43.59        29.2 0.26                          22.9 197 
 BRR  HZ EP        150 29.45                             151    0.1710 74.2 298 
 BRR  HN ES        150 46.24                             151    0.7410 74.2 298 
 BRR  HZ I         150 50.62        25.8 0.10                          74.2 298 
 PAM  EZ EP        150 30.50                             150    0.3710 76.6  37 
 PAM  EN ES        150 46.57                             150   -0.4410 76.6  37 
 PAM  EZ I         150 49.45        18.8 0.52                          76.6  37 
 RUS  HZ EP        150 31.89                             143    0.2310 99.3 178 
 RUS  HE ES        150 49.72                             143   -0.0210 99.3 178 
 RUS  HZ I         150 51.64         5.5 0.22                          99.3 178 
 PTB  HZ EP        150 34.68                             130   -0.61 9  150 259 
 PTB  HN ES        150 55.36                             130   -0.83 9  150 259 
 PTB  HZ I         150 58.52        19.0 0.36                           150 259 
 SPBC HZ EP        150 36.66                             128   -0.04 9  164 220 
 SPBC HN ES        150 59.32                             128    0.62 9  164 220 
 SPBC HZ I         151  4.83        13.3 0.20                           164 220 
 ZAR  HZ EP        150 40.60                             121   -0.33 8  207 292 
 ZAR  HN ES        151  6.42                             121    0.19 8  207 292 
 ZAR  HZ I         151 12.57        15.6 0.20                           207 292 
 CHI  HZ EP   3    150 45.89                             116    0.01 2  248 196 
 CHI  HN ES        151 14.26                             116   -0.78 8  248 196 
 CHI  HZ I         151 22.45         2.6 0.38                           248 196 
 HEL  HZ EP   2    150 48.20                             114   -0.52 4  274 256 
 HEL  HE ES        151 19.92                             114   -0.19 8  274 256 
 HEL  HZ I         151 28.36         5.6 0.36                           274 256 
 URE  HZ EP   9    150 48.12                             112   -1.54 0  287 292 
 URE  HN ES        151 19.47                                   -0.76 7  287 292 
 GUY2CHZ EP   2    150 53.09                             111    1.04 4  303 235 
 GUY2CHN ES        151 26.81                             111    0.77 7  303 235 
 GUY2CHZ I         151 32.23         2.5 0.22                           303 235 
 CBOC HZ EP   2    150 55.51                             109    0.05 3  336 252 
 CBOC HN ES   4    151 30.66                             109   -1.45 0  336 252 
 CBOC HZ I         151 36.70         2.3 0.70                           336 252 
 SJC  HZ EP   4    151  2.06                             105   -2.12 0  412 327 
 SJC  HN ES   4    151 42.92                             105   -4.71 0  412 327 
 SJC  HZ I         151 47.89         5.8 0.68                           412 327 
                                                                                
