 2011  6 9 0703  4.2 L   6.797 -73.122147.7  RSN 11 0.3 2.3LRSN                1
 GAP=158        0.54       2.0     4.3  3.9 -0.3514E+01  0.1140E+01  0.2028E+01E
 Epicentro: LOS SANTOS - SANTANDER                                             3
 ACTION:UP  11-07-14 19:04 OP:ep   STATUS:               ID:20110609070304 L   I
 2011-06-09-0700-00M.COL___122                                                 6
 STAT SP IPHASW D HRMM SECON CODA AMPLIT PERI AZIMU VELO SNR AR TRES W  DIS CAZ7
 BAR2 SZ EP   1    7 3 24.11                             170     0.1 7   24 196 
 BAR2 SZ ES   1    7 3 39.06                             170    -0.5 7   24 196 
 BAR2 SZ I         7 3 40.01        42.8 0.20                            24 196 
 BRR  HZ EP   1    7 3 25.67                             152     0.0 7   74 298 
 BRR  HE ES   1    7 3 42.79                             152     0.4 7   74 298 
 BRR  HZ I         7 3 46.32        31.5 0.12                            74 298 
 RUS  HZ EP   1    7 3 28.24                             144     0.2 7  100 178 
 RUS  HN ES   1    7 3 46.89                             144     0.2 7  100 178 
 RUS  HZ I         7 3 47.70        17.9 0.24                           100 178 
 BRI  SZ EP   1    7 3 28.46                             142     0.3 7  108  19 
 BRI  SZ ES   1    7 3 46.56                             142    -0.4 7  108  19 
 BRI  SZ I         7 3 49.04        15.0 0.46                           108  19 
 GRA  SZ EP   1    7 3 29.70                             137     0.1 7  125  16 
 GRA  SZ ES   1    7 3 49.50                             137     0.2 7  125  16 
 GRA  SZ I         7 3 50.75        25.4 0.27                           125  16 
 OCA  SZ EP   1    7 3 32.55                             130    -0.1 7  161 352 
 OCA  SZ ES   1    7 3 54.75                             130    -0.2 7  161 352 
 OCA  SZ I         7 3 58.90        22.4 0.37                           161 352 
 NOR  SZ EP   1    7 3 40.07                             119    -0.2 6  237 235 
 NOR  SN ES   1    7 4  8.35                             119     0.0 6  237 235 
 CHI  HZ EP   1    7 3 42.11                             117     0.1 6  249 196 
 CHI  HN ES   1    7 4 11.57                             117     0.0 6  249 196 
 CHI  HZ I         7 4 15.10        16.3 0.57                           249 196 
 VIL  SZ EP   1    7 3 47.85                             112     0.1 5  304 192 
 VIL  SN ES   1    7 4 21.83                             112     0.2 5  304 192 
 VIL  SZ I         7 4 24.53         9.7 0.59                           304 192 
 PRA  HZ EP   1    7 3 57.92                             107     0.0 4  393 210 
 PRA  HN ES   2    7 4 39.15                             107    -0.6 3  393 210 
 SJA  SZ EP   1    7 3 58.19                             106    -0.6 4  400 193 
 SJA  SZ I         7 4 51.70        17.8 0.46                           400 193 
                                                                                
