 2014  6 9 0327 58.2 L   6.339 -73.587104.4  RSN 13 0.5 1.9LRSN                1
 GAP= 84        1.27       3.9     4.0  7.9 -0.2471E+01  0.1265E+02 -0.5770E+01E
 Epicentro: SANTA HELENA DEL OPON - SANTANDER                                  3
 ACTION:UPD 14-07-01 22:52 OP:nd   STATUS:               ID:20140609032758 L   I
 OLDACT:DUP 14-06-09 16:00 OP:fm   STATUS:               ID:20140609031813d    3
 2014-06-09-0318-12M.COL___250                                                 6
 STAT SP IPHASW D HRMM SECON CODA AMPLIT PERI AZIMU VELO AIN AR TRES W  DIS CAZ7
 BAR2 SZ IP     C  328 14.51                             151    0.3410 52.7  58 
 BAR2 SZ ES   1    328 27.13                             151    0.49 7 52.7  58 
 BAR2 SZ I         328 28.62        22.0 0.12            152           52.7  58 
 RUS  HZ EP        328 15.83                             142   -0.1610 74.5 132 
 RUS  HN ES        328 29.65                             142   -0.2310 74.5 132 
 RUS  HZ I         328 32.67        12.0 0.20            146           74.5 132 
 SPBC HZ EP        328 16.60                             135   -0.3510 93.1 215 
 SPBC HE ES        328 32.31                             135    0.7310 93.1 215 
 SPBC HZ I         328 33.98        15.2 0.14            137           93.1 215 
 PTB  HZ IP     C  328 16.24                             133   -1.1010 98.7 283 
 PTB  HN ES        328 31.40                             133   -0.8810 98.7 283 
 PTB  HZ I         328 34.13        22.4 0.12            133           98.7 283 
 NOR  HZ EP        328 23.79                             117   -0.35 9  166 239 
 NOR  HN ES        328 44.49                             117    0.10 9  166 239 
 NOR  HZ I         328 46.74        14.3 0.38            118            166 239 
 ZAR  HZ EP        328 26.26                             113   -0.46 9  190 312 
 ZAR  HN ES        328 49.89                             113    0.92 9  190 312 
 ZAR  HZ I         328 53.67        10.3 0.26            114            190 312 
 OCA  HZ EP   1    328 29.63                             111    0.19 6  212   8 
 OCA  HN ES        328 54.12                             111    0.31 8  212   8 
 OCA  HZ I         328 59.78        11.4 0.44            111            212   8 
 HEL  HZ EP        328 30.22                             110    0.12 8  216 266 
 HEL  HN ES        328 55.62                             110    0.64 8  216 266 
 HEL  HZ I         328 58.52         6.0 0.36            111            216 266 
 GUY2CHZ EP        328 32.26                             109    0.10 8  232 238 
 GUY2CHN ES   4    329  1.03                             109    2.37 0  232 238 
 GUY2CHZ I         329  3.35         5.2 0.54                           232 238 
 RREF HZ EP        328 34.72                             107    0.11 8  252 231 
 RREF HN ES   4    329  5.09                             107    2.08 0  252 231 
 RREF HZ I         329  7.15         6.8 0.28            108            252 231 
 TOL  SZ EP        328 37.38                             105    0.65 8  273 225 
 TOL  SN ES   4    329  8.22                             105    1.42 0  273 225 
 TOL  SZ I         329 10.63         9.0 0.32            106            273 225 
 CBOC HZ EP   4    328 35.39                             105   -1.21 0  274 259 
 CBOC HN ES   1    329  6.52                             105   -0.05 6  274 259 
 CBOC HZ I         329  8.53         1.8 0.20            106            274 259 
 SML  HE ES   2    329  6.45                             104   -0.54 4  277 349 
 SML  HZ I         329 14.55         8.2 0.26            105            277 349 
 PRA  HZ EP   4    328 41.12                             101   -1.32 0  324 206 
                                                                                
