 2014  3 9 0425 47.5 L   6.447 -73.649109.1  RSN  4 0.4 1.1LRSN                1
 GAP=144        0.95       7.3     5.8 12.5  0.2709E+02 -0.2455E+02 -0.6080E+02E
 Epicentro: SANTA HELENA DEL OPON - SANTANDER                                  3
 ACTION:UPD 14-04-09 23:15 OP:nd   STATUS:               ID:20140309042547 L   I
 OLDACT:REG 14-03-09 09:33 OP:nd   STATUS:               ID:20140309042038     3
 2014-03-09-0420-38M.COL___220                                                 6
 STAT SP IPHASW D HRMM SECON CODA AMPLIT PERI AZIMU VELO AIN AR TRES W  DIS CAZ7
 RUS  HZ EP        426  6.28                             139   -0.4610 87.6 134 
 RUS  HN ES        426 22.14                             139    0.3710 87.6 134 
 RUS  HZ I         426 23.40         0.6 0.48            145           87.6 134 
 PTB  HZ EP        426  6.04                             138   -0.2210 89.9 277 
 PTB  HN ES        426 20.72                             138   -0.2010 89.9 277 
 PTB  HZ I         426 21.75         2.6 0.10            143           89.9 277 
 ZAR  HZ EP        426 15.56                             117    0.77 9  177 311 
 ZAR  HN ES   2    426 36.53                             117    0.42 4  177 311 
 ZAR  HZ I         426 40.28         2.8 0.28            120            177 311 
 SML  HZ EP   2    426 24.18                             107   -0.56 4  264 350 
 SML  HN ES        426 53.64                             107   -0.19 8  264 350 
 SML  HZ I         426 58.39         2.0 0.24            109            264 350 
                                                                                
