 2017  3 9 0702  8.6 L   6.757 -73.109141.5  RSN  4 0.5 1.1LRSN                1
 GAP=264        0.77       8.4     8.6  6.8  0.2289E+02  0.1864E+02  0.2275E+02E
 Epicentro: LOS SANTOS - SANTANDER                                             3
 *BAR2-BRR-PTB-SPBC                                                            3
 ACTION:UPD 17-05-25 18:38 OP:jn   STATUS:               ID:20170309070208 L   I
 OLDACT:UP  17-03-09 16:41 OP:and  STATUS:               ID:20170309065743     3
 OLDACT:REG 17-03-09 12:46 OP:and  STATUS:               ID:20170309065743     3
 2017-03-09-0658-00M.COL___397                                                 6
 STAT SP IPHASW D HRMM SECON CODA AMPLIT PERI AZIMU VELO AIN AR TRES W  DIS CAZ7
 BAR2 EZ EP        7 2 27.86                             172    0.1710 19.9 204 
 BAR2 EZ ES        7 2 42.16                             172   -0.3810 19.9 204 
 BRR  HZ EP        7 2 29.61                             149   -0.0710 77.1 300 
 BRR  HN ES        7 2 46.42                             149    0.3310 77.1 300 
 BRR  HZ I         7 2 49.46         2.2 0.22            147           77.1 300 
 PTB  HZ EP        7 2 35.53                             130   -0.02 9  151 261 
 PTB  HN ES   2    7 2 55.69                             130   -0.85 5  151 261 
 PTB  HZ I         7 2 58.83         1.2 0.17            127            151 261 
 SPBC HZ EP        7 2 36.77                             128    0.06 9  162 221 
 SPBC HN ES   3    7 3  0.51                             128    1.90 2  162 221 
 SPBC HZ I         7 3  7.77         1.8 0.18            124            162 221 
                                                                                
