 2012 10 9 0046 49.3 L   6.815 -73.132142.3  RSN 12 0.4 2.9LRSN                1
 GAP= 66        0.82       3.5     2.9  5.2  0.2310E+01  0.3534E+01  0.5758E+01E
 Epicentro: LOS SANTOS - SANTANDER                                             3
 ACTION:UPD 12-11-22 17:02 OP:ep   STATUS:               ID:20121009004649 L   I
 2012-10-09-0040-00M.COL___223                                                 6
 STAT SP IPHASW D HRMM SECON CODA AMPLIT PERI AZIMU VELO AIN AR TRES W  DIS CAZ7
 BAR2 SZ IP        047  8.45                             169   -0.1310 25.2 193 
 BAR2 SZ I         047  8.87       154.6 0.11                          25.2 193 
 BAR2 SZ ES   1    047 23.27                             169   -0.33 7 25.2 193 
 GIR2 SZ EP        047  8.42                             168   -0.1310 30.0 347 
 GIR2 SZ ES   1    047 23.18                             168   -0.37 7 30.0 347 
 BRR  HZ EP        047 10.22                             152    0.0810 71.8 297 
 BRR  HZ I         047 10.48       172.5 0.17                          71.8 297 
 BRR  HN ES   1    047 26.87                             152    0.50 7 71.8 297 
 PAM  SZ EP   1    047 11.36                             151    0.32 7 75.2  39 
 PAM  SZ I         047 11.60        91.8 0.18                          75.2  39 
 PAM  SN ES   1    047 28.18                             151    0.20 7 75.2  39 
 PAM  SN I         047 29.17       302.4 0.46                          75.2  39 
 RUS  HZ EP   1    047 12.55                             143   -0.30 7  102 177 
 RUS  HN ES   1    047 30.75                             143   -0.45 7  102 177 
 TAM  HZ EP        047 16.13                             130   -0.51 9  154 106 
 TAM  HN ES        047 38.25                             130    0.31 9  154 106 
 TAM  HN I         047 39.30        58.7 0.34                           154 106 
 YOP  SZ EP   1    047 19.40                             125    0.20 7  180 154 
 YOP  SN ES   1    047 43.55                             125    1.05 7  180 154 
 YOP  SN I         047 46.30        93.2 0.56                           180 154 
 ZAR  HZ EP   1    047 21.10                             121   -0.53 6  205 292 
 ZAR  HZ I         047 23.24        39.1 0.30                           205 292 
 ZAR  HN ES        047 46.85                             121    0.02 9  205 292 
 ZAR  HN I         047 52.42       155.8 0.16                           205 292 
 NOR  SZ EP   1    047 25.11                             117    0.02 6  237 234 
 NOR  SN ES   1    047 53.64                             117    0.65 6  237 234 
 NOR  SN I         047 56.58       171.1 0.16                           237 234 
 CHI  HZ EP   1    047 26.80                             116   -0.25 6  251 195 
 CHI  HN ES   1    047 56.13                             116   -0.34 6  251 195 
 CHI  HN I         047 58.88        52.5 0.28                           251 195 
 HEL  HZ EP   1    047 30.47                             114    0.90 6  274 256 
 HEL  HN I         048  8.44        48.8 0.24                           274 256 
 PRA  HZ EP   1    047 42.81                             106   -0.17 4  394 210 
 PRA  HZ I         047 44.54        13.0 0.14                           394 210 
 PRA  HN ES   2    048 24.22                             106   -0.61 3  394 210 
 PRA  HN I         048 28.98        32.9 0.60                           394 210 
                                                                                
