 2016  2 9 0601 14.5 L   6.841 -73.127140.3  RSN  9 0.4 1.7LRSN                1
 GAP=120        0.95       2.9     4.0  6.2 -0.1183E+01  0.2594E+01 -0.5900E+01E
 Epicentro: LOS SANTOS - SANTANDER                                             3
 ACTION:UPD 16-03-04 21:24 OP:rebc STATUS:               ID:20160209060114 L   I
 OLDACT:REG 16-02-09 13:00 OP:ak   STATUS:               ID:20160209055748     3
 2016-02-09-0557-48M.COL___325                                                 6
 STAT SP IPHASW D HRMM SECON CODA AMPLIT PERI AZIMU VELO AIN AR TRES W  DIS CAZ7
 BAR2 EZ EP        6 1 34.04                             168    0.4710 28.1 193 
 BAR2 EZ ES        6 1 48.19                             168   -0.2710 28.1 193 
 BAR2 EZ I         6 1 49.88         6.1 0.22            170           28.1 193 
 RUS  HZ EP        6 1 38.12                             141    0.0910  105 177 
 RUS  HN ES        6 1 56.88                             141    0.4910  105 177 
 RUS  HZ I         6 1 58.45         4.5 0.32            146            105 177 
 PTB  HZ EP        6 1 40.67                             130   -0.61 9  151 257 
 PTB  HN ES        6 2  1.67                             130   -0.52 9  151 257 
 PTB  HZ I         6 2  5.68         5.2 0.16            132            151 257 
 OCA  HZ EP        6 1 41.94                             129   -0.03 9  156 352 
 OCA  HE ES        6 2  3.22                             129   -0.20 9  156 352 
 OCA  HZ I         6 2  8.82         8.4 0.28            131            156 352 
 SPBC HZ EP   2    6 1 43.40                             127    0.37 5  168 219 
 SPBC HN ES        6 2  4.99                             127   -0.31 9  168 219 
 SPBC HZ I         6 2  8.56         5.6 0.20            130            168 219 
 ZAR  HZ EP        6 1 47.15                             121    0.54 9  204 291 
 ZAR  HN ES        6 2 11.67                             121    0.00 9  204 291 
 ZAR  HZ I         6 2 17.75         5.9 0.38            123            204 291 
 NOR  HZ EP        6 1 50.34                             117   -0.03 8  239 234 
 NOR  HE ES        6 2 18.54                             117    0.18 8  239 234 
 SML  HZ EP        6 1 50.49                             117    0.03 8  241 334 
 SML  HN ES        6 2 19.20                             117    0.68 8  241 334 
 SML  HZ I         6 2 22.37         4.4 0.36            118            241 334 
 SOCV BZ EP        6 1 56.07                             111   -0.73 7  297  57 
 SOCV BN ES   4    6 2 27.59                             111   -2.23 0  297  57 
                                                                                
