 2010  1 9 0328 24.6 L   6.832 -73.037142.4  RSN  9 0.4 2.1LRSN                1
 GAP=133        0.68       3.6     6.1  5.5 -0.1116E+02  0.1409E+01  0.1748E+01E
 Epicentro: LOS SANTOS - SANTANDER                                             3
 ACTION:UP  10-08-24 09:43 OP:vdl  STATUS:               ID:20100109032824 L   I
 2010-01-09-0326-54S.COL___097                                                 6
 STAT SP IPHASW D HRMM SECON CODA AMPLIT PERI AZIMU VELO SNR AR TRES W  DIS CAZ7
 BAR2 SZ IP        328 44.15                             167     0.210   31 211 
 BAR2 SZ ES   2    328 59.21                             167     0.1 5   31 211 
 GIR2 SZ IP        328 44.09                             167     0.210   32 328 
 GIR2 SZ ES   2    328 58.84                             167    -0.1 5   32 328 
 RUS  BZ EP        328 48.30                             142     0.010  104 183 
 RUS  BZ I         328 49.51        11.2 0.19                           104 183 
 RUS  BE ES   2    329  6.77                             142     0.1 5  104 183 
 OCA  SZ EP        328 52.50                             129     0.0 9  159 349 
 OCA  SZ ES   2    329 13.33                             129    -0.9 5  159 349 
 OCA  SZ I         329 17.43        19.1 0.26                           159 349 
 CHI  HZ EP        329  2.50                             116    -0.3 8  255 198 
 CHI  HN ES   2    329 31.96                             116    -0.7 4  255 198 
 CHI  HZ I         329 37.19         5.1 0.28                           255 198 
 RREF BZ EP        329 12.51                             109     0.6 7  333 230 
 RREF BN ES   2    329 49.13                             109     0.3 3  333 230 
 RREF BZ I         329 56.54         6.1 0.37                           333 230 
 SDV  BZ EP        329 13.45                             108     0.3 6  349  49 
 SDV  BE ES   2    329 50.13                             108    -0.9 3  349  49 
 TOL  SZ EP        329 13.45                             108    -0.5 6  354 226 
 TOL  SZ ES   2    329 52.21                             108    -0.3 3  354 226 
 PRA  HZ EP   2    329 18.90                             106    -0.1 3  401 211 
 PRA  HN ES   2    330  1.29                             106    -0.2 3  401 211 
 PRA  HZ I         330  7.01         7.3 0.46                           401 211 
                                                                                
