 2011 12 9 0612 21.3 L   6.758 -73.081146.1  RSN  7 0.3 1.7LRSN                1
 GAP=147        0.57       3.4     4.5  4.8 -0.6152E+01  0.6855E+01  0.2401E+01E
 Epicentro: LOS SANTOS - SANTANDER                                             3
 ACTION:UPD 12-07-13 16:15 OP:ep   STATUS:               ID:20111209061221 L   I
 2011-12-09-0610-42S.COL___156                                                 6
 STAT SP IPHASW D HRMM SECON CODA AMPLIT PERI AZIMU VELO AIN AR TRES W  DIS CAZ7
 BAR2 SZ EP        612 40.95                             171    0.0110 21.5 211 
 BAR2 SZ ES   1    612 56.62                             171    0.37 7 21.5 211 
 BAR2 SZ I         612 57.22        10.4 0.37                          21.5 211 
 GIR2 SZ EP   1    612 41.02                             165   -0.18 7 37.6 341 
 GIR2 SZ ES   1    612 56.32                             165   -0.40 7 37.6 341 
 PAM  SZ EP        612 43.70                             151    0.1810 76.9  33 
 PAM  SE ES   1    613  0.71                             151   -0.14 7 76.9  33 
 RUS  HZ EP   1    612 44.50                             145   -0.24 7 95.7 180 
 RUS  HN ES   1    613  3.38                             145    0.36 7 95.7 180 
 RUS  HZ I         613  5.32         6.0 0.43                          95.7 180 
 CHI  HZ EP   1    612 58.85                             117    0.10 6  246 197 
 CHI  HN ES   1    613 27.37                             117   -0.59 6  246 197 
 CHI  HZ I         613 34.23         3.1 0.29                           246 197 
 HEL  HZ EP   1    613  2.62                             114    0.44 6  278 257 
 HEL  HE ES   1    613 34.08                             114    0.01 6  278 257 
 HEL  HZ I         613 39.88         3.3 0.31                           278 257 
 RREF HN ES   1    613 43.88                             111   -0.09 5  324 231 
 RREF HZ I         613 50.60         4.4 0.30                           324 231 
                                                                                
