 2017  2 9 0438 47.5 L   6.816 -73.141143.1  RSN  7 0.3 1.5LRSN                1
 GAP=136        1.04       4.2     5.2  6.7  0.1504E+01  0.1274E+01  0.6077E+01E
 Epicentro: LOS SANTOS - SANTANDER                                             3
 ACTION:UPD 17-05-24 15:34 OP:jn   STATUS:               ID:20170209043847 L   I
 OLDACT:UP  17-02-09 17:59 OP:edw  STATUS:               ID:20170209043739     3
 OLDACT:UP  17-02-09 17:56 OP:edw  STATUS:               ID:20170209043739     3
 OLDACT:UP  17-02-09 17:43 OP:edw  STATUS:               ID:20170209043739     3
 OLDACT:REG 17-02-09 13:21 OP:edw  STATUS:               ID:20170209043739     3
 2017-02-09-0438-00M.COL___364                                                 6
 STAT SP IPHASW D HRMM SECON CODA AMPLIT PERI AZIMU VELO AIN AR TRES W  DIS CAZ7
 BAR2 EZ EP        439  6.13                             170   -0.6710 25.2 190 
 BAR2 EZ ES        439 21.66                             170   -0.2310 25.2 190 
 BAR2 EZ I         439 24.09         6.9 0.42            169           25.2 190 
 BRR  HZ EP        439  8.32                             152    0.0310 70.8 297 
 BRR  HN ES        439 25.14                             152    0.6010 70.8 297 
 BRR  HZ I         439 29.84         4.7 0.32            150           70.8 297 
 PAM  EZ EP     C  439  9.40                             150    0.1210 75.7  40 
 PAM  EN ES        439 26.19                             150   -0.1210 75.7  40 
 PAM  EZ I         439 28.33         5.9 0.22            153           75.7  40 
 RUS  HZ EP        439 11.28                             142    0.2110  102 176 
 RUS  HN ES        439 29.46                             142   -0.0310  102 176 
 RUS  HZ I         439 31.07         9.1 0.28            145            102 176 
 PTB  HZ EP   9    439 13.52                             131   -0.76 0  149 258 
 PTB  HN ES        439 33.46                             130   -0.98 9  149 258 
 PTB  HZ I         439 36.91         4.6 0.36            131            149 258 
 ZAR  HZ EP   4    439 22.23                             121    2.53 0  204 292 
 ZAR  HN ES        439 44.80                             121   -0.05 9  204 292 
 ZAR  HZ I         439 50.45         4.0 0.30            122            204 292 
 CHI  HZ EP        439 25.33                             116    0.12 8  250 195 
 CHI  HE ES        439 54.72                             116    0.07 8  250 195 
 CHI  HZ I         439 57.91         1.4 0.62            117            250 195 
                                                                                
