 2017  6 9 0249 21.0 L   6.808 -73.155148.3  RSN 20 0.4 2.4LRSN                1
 GAP=102        1.02       3.5     2.9  5.9  0.2427E+01  0.1434E+01  0.1179E+01E
 Epicentro: LOS SANTOS - SANTANDER                                             3
 ACTION:UPD 17-09-14 16:50 OP:jn   STATUS:               ID:20170609024921 L   I
 OLDACT:UP  17-06-09 16:13 OP:edw  STATUS:               ID:20170609024728     3
 OLDACT:UP  17-06-09 16:12 OP:edw  STATUS:               ID:20170609024728     3
 OLDACT:UP  17-06-09 16:11 OP:edw  STATUS:               ID:20170609024728     3
 OLDACT:UP  17-06-09 16:10 OP:edw  STATUS:               ID:20170609024728     3
 OLDACT:UP  17-06-09 16:08 OP:edw  STATUS:               ID:20170609024728     3
 OLDACT:REG 17-06-09 12:44 OP:edw  STATUS:               ID:20170609024728     3
 2017-06-09-0248-00M.COL___368                                                 6
 STAT SP IPHASW D HRMM SECON CODA AMPLIT PERI AZIMU VELO AIN AR TRES W  DIS CAZ7
 BRR  HZ EP     C  249 42.59                             153    0.2310 69.9 298 
 BRR  HE ES        249 59.88                             153    0.8610 69.9 298 
 BRR  HZ I         250  0.31        51.0 0.12            151           69.9 298 
 RUS  HZ EP     D  249 44.74                             144   -0.3410  102 176 
 RUS  HN ES        250  4.07                             144    0.2210  102 176 
 RUS  HZ I         250  4.66        39.6 0.28            143            102 176 
 PTB  HZ EP        249 47.70                             133   -0.41 9  147 258 
 PTB  HN ES        250  8.84                             133   -0.41 9  147 258 
 PTB  HZ I         250 13.71        13.5 0.10            131            147 258 
 TAM  HZ IP     D  249 49.13                             131    0.13 9  156 105 
 TAM  HN ES        250  9.94                             131   -0.89 9  156 105 
 TAM  HZ I         250 10.82        30.9 0.44            132            156 105 
 SPBC HZ EP        249 49.82                             130    0.11 9  163 219 
 SPBC HN ES        250 11.66                             130   -0.43 9  163 219 
 SPBC HZ I         250 16.61        61.2 0.24            128            163 219 
 YPLC HZ IP     D  249 51.17                             127    0.06 9  178 151 
 YPLC HN ES        250 15.21                             127    0.62 9  178 151 
 YPLC HZ I         250 16.10        26.0 0.32            127            178 151 
 ZAR  HZ EP        249 53.36                             123   -0.13 9  203 292 
 ZAR  HN ES        250 18.90                             123    0.07 9  203 292 
 ZAR  HZ I         250 25.57        30.0 0.38            122            203 292 
 NOR  HZ EP        249 56.86                             119    0.01 8  234 234 
 NOR  HN ES        250 24.37                             119   -0.44 8  234 234 
 NOR  HZ I         250 27.33        14.4 0.16            118            234 234 
 CHI  HZ EP     D  249 59.04                             118    0.13 8  249 195 
 CHI  HN ES        250 28.41                             118   -0.06 8  249 195 
 CHI  HZ I         250 32.04        14.9 0.52            117            249 195 
 ROSC BZ EP   4 C  250  1.38                             117    2.09 0  253 211 
 ROSC BN ES   4    250 28.06                             117   -1.09 0  253 211 
 ROSC BZ I         250 34.61        29.7 0.45            116            253 211 
 HEL  HZ EP   4    250  4.50                             115    3.23 0  271 256 
 HEL  HN ES        250 32.62                             115   -0.05 8  271 256 
 HEL  HZ I         250 38.89         8.8 0.26            114            271 256 
 URE  HN ES   4    250 31.79                             114   -2.30 0  283 292 
 VIL  EZ EP   2    250  4.61                             112   -0.01 4  304 191 
 VIL  EN ES        250 38.94                             112    0.31 7  304 191 
 VIL  EZ I         250 41.45        31.6 0.38            112            304 191 
 PTGC HZ IP   9 C  250  3.95                             112   -1.16 0  310 159 
 PTGC HN ES        250 37.58                             111   -0.77 7  310 159 
 PTGC HZ I         250 42.20        15.2 0.30            112            310 159 
 ELA  HZ EP   4    250 10.78                             111    2.84 0  329 229 
 ELA  HN ES   4    250 47.60                             111    3.05 0  329 229 
 ELA  HZ I         250 53.83         7.9 0.36            110            329 229 
 CBOC HZ EP   4    250  9.24                             110    1.29 0  333 252 
 CBOC HN ES        250 44.38                             110   -0.19 7  333 252 
 CBOC HZ I         250 48.92         3.1 0.18            110            333 252 
 ANIL HN ES   4    250 51.83                             109    2.01 0  357 224 
 ORTC HZ EP        250 15.85                             107    0.82 6  396 216 
 ORTC HN ES   4    250 58.55                             107    1.39 0  396 216 
 ORTC HZ I         251  1.98         7.5 0.44            106            396 216 
 PAL  HZ EP        250 16.58                             106    0.38 6  405 239 
 PAL  HN ES   4    250 58.35                             106   -0.91 0  405 239 
 PAL  HZ I         251  2.37         4.1 0.24            106            405 239 
 SJC  HZ EP   9    250 14.85                             106   -1.66 0  408 327 
 SJC  HN ES   1    250 56.32                             106   -1.82 4  408 327 
 SJC  HZ I         251  2.82         4.5 0.62            106            408 327 
 CRJC HZ EP   9    250 21.09                             104   -2.40 0  467   4 
 CRJC HN ES        251  9.33                             104   -0.49 5  467   4 
 CRJC HZ I         251 15.90         9.9 0.38            104            467   4 
 SMAR HZ EP        250 26.71                             103   -0.11 4  496 346 
 SMAR HN ES   4    251 13.69                             103   -4.46 0  496 346 
                                                                                
