 2015  4 9 0414 54.0 L   7.226 -73.058157.0  RSN 12 0.5 2.0LRSN                1
 GAP=196        1.11       3.5     5.6  6.4  0.1834E+01  0.6000E+01 -0.5106E+00E
 Epicentro: TONA - SANTANDER                                                   3
 ACTION:UPD 15-06-03 16:53 OP:cam  STATUS:               ID:20150409041454 L   I
 OLDACT:UP  15-04-09 14:16 OP:mh   STATUS:               ID:20150409040750d    3
 OLDACT:UP  15-04-09 14:13 OP:mh   STATUS:               ID:20150409040750d    3
 OLDACT:UP  15-04-09 14:13 OP:mh   STATUS:               ID:20150409040750d    3
 OLDACT:UP  15-04-09 14:12 OP:mh   STATUS:               ID:20150409040750d    3
 OLDACT:DUP 15-04-09 14:12 OP:mh   STATUS:               ID:20150409040750d    3
 2015-04-09-0407-49M.COL___266                                                 6
 STAT SP IPHASW D HRMM SECON CODA AMPLIT PERI AZIMU VELO AIN AR TRES W  DIS CAZ7
 BAR2 EZ EP        415 17.01                             154    0.2810 71.4 191 
 BAR2 EZ ES        415 34.10                             154   -0.3510 71.4 191 
 BAR2 EZ I         415 38.11        12.1 0.16            155           71.4 191 
 BRR  HZ EP        415 16.92                             154    0.4310 73.4 260 
 BRR  HN ES        415 34.47                             154    0.4410 73.4 260 
 BRR  HZ I         415 38.93         8.9 0.38            153           73.4 260 
 OCA  HZ EP   1    415 20.04                             142    0.56 7  116 346 
 OCA  HN ES        415 39.54                             142    0.1910  116 346 
 OCA  HZ I         415 41.29        33.9 0.16            144            116 346 
 RUS  HZ EP        415 21.76                             135   -0.76 9  147 181 
 RUS  HN ES        415 44.40                             135   -0.37 9  147 181 
 PTB  HZ EP        415 24.18                             130    0.07 9  172 244 
 PTB  HN ES        415 46.94                             130   -0.66 9  172 244 
 PTB  HZ I         415 49.59        11.7 0.44            131            172 244 
 ZAR  HZ EP   1    415 27.18                             125    0.29 6  201 279 
 ZAR  HN ES        415 52.72                             125    0.18 9  201 279 
 ZAR  HZ I         415 53.37         7.6 0.26            127            201 279 
 SML  HZ EP   1    415 27.21                             124   -0.26 6  207 327 
 SML  HN ES        415 52.92                             124   -0.67 8  207 327 
 SML  HZ I         416  1.19        10.5 0.26            127            207 327 
 SPBC HZ EP        415 28.52                             124    0.91 8  207 213 
 SPBC HN ES   1    415 54.65                             124    0.83 6  207 213 
 SPBC HZ I         416  3.58         5.8 0.20            126            207 213 
 NOR  HZ EP   1    415 33.75                             117   -0.63 6  272 228 
 NOR  HN ES   1    416  6.38                             117    0.50 6  272 228 
 NOR  HZ I         416 10.75         4.1 0.36            119            272 228 
 URE  HZ EP        415 34.62                             116   -0.52 7  279 282 
 URE  HN ES   4    416  5.16                             116   -2.07 0  279 282 
 CBOC HZ EP        415 44.73                             110    0.35 6  360 245 
 CBOC HN ES        416 23.13                             110   -0.54 6  360 245 
 SJC  HZ EP        415 45.98                             109   -0.19 6  377 322 
 SJC  HE ES   4    416 22.80                             109   -4.06 0  377 322 
                                                                                
