 2015  2 9 0106 11.7 L   5.967 -74.061 84.7  RSN  9 0.3 1.3LRSN                1
 GAP= 72        0.82       2.3     1.9  5.5 -0.9595E+00  0.1274E+01 -0.5684E+00E
 Epicentro: LA BELLEZA - SANTANDER                                             3
 ACTION:UPD 15-04-30 21:24 OP:nd   STATUS:               ID:20150209010611 L   I
 OLDACT:DUP 15-02-09 15:17 OP:fm   STATUS:               ID:20150209005747d    3
 2015-02-09-0057-46M.COL___296                                                 6
 STAT SP IPHASW D HRMM SECON CODA AMPLIT PERI AZIMU VELO AIN AR TRES W  DIS CAZ7
 SPBC HZ EP        1 6 24.67                             156    0.3610 34.8 182 
 SPBC HN ES        1 6 34.53                             156    0.3910 34.8 182 
 SPBC HZ I         1 6 35.33        16.3 0.36            156           34.8 182 
 PTB  HZ EP        1 6 26.92                             134   -0.3110 76.9 325 
 PTB  HE ES        1 6 39.16                             134   -0.1810 76.9 325 
 PTB  HZ I         1 6 40.17         4.5 0.34            134           76.9 325 
 NOR  HZ EP        1 6 29.48                             126    0.0210100.0 244 
 NOR  HE ES        1 6 43.24                             126   -0.0810100.0 244 
 NOR  HZ I         1 6 46.38        13.9 0.12            126          100.0 244 
 RUS  HZ EP        1 6 31.02                             124    0.1110  109  94 
 RUS  HE ES        1 6 45.31                             124   -0.5910  109  94 
 BAR2 EZ EP        1 6 32.17                             121    0.4710  119  55 
 BAR2 EZ ES        1 6 46.94                             121   -0.3610  119  55 
 BAR2 EZ I         1 6 50.78         3.8 0.28            121            119  55 
 BRR  HE ES        1 6 49.54                             118    0.3910  132  17 
 BRR  HZ I         1 6 55.76         5.5 0.32            118            132  17 
 CHI  HN ES        1 6 54.20                             114    0.06 9  152 166 
 CHI  HZ I         1 7  0.53         1.4 0.18            114            152 166 
 HEL  HZ EP        1 6 37.15                             112    0.30 9  164 279 
 HEL  HN ES        1 6 56.40                             112   -0.06 9  164 279 
 HEL  HZ I         1 7  1.24         2.7 0.28            112            164 279 
 GUY2CHZ EP        1 6 36.94                             112   -0.25 9  166 240 
 GUY2CHE ES        1 6 56.79                             112   -0.28 9  166 240 
 GUY2CHZ I         1 7  2.78         2.6 0.72                           166 240 
                                                                                
