 2013  6 9 0910 22.5 L   6.806 -73.188145.6  RSN 11 0.4 2.0LRSN                1
 GAP=131        0.90       2.9     4.2  5.7 -0.2667E+01  0.6980E+01  0.4704E+00E
 Epicentro: ZAPATOCA - SANTANDER                                               3
 ACTION:UPD 14-01-08 09:53 OP:ep   STATUS:               ID:20130609091022 L   I
 OLDACT:UP  13-06-09 11:38 OP:mh   STATUS:               ID:20130609091000     3
 OLDACT:UP  13-06-09 11:36 OP:mh   STATUS:               ID:20130609091000     3
 OLDACT:REG 13-06-09 07:45 OP:mh   STATUS:               ID:20130609091000     3
 2013-06-09-0910-00M.COL___257                                                 6
 STAT SP IPHASW D HRMM SECON CODA AMPLIT PERI AZIMU VELO AIN AR TRES W  DIS CAZ7
 BAR2 SZ EP        910 41.96                             170   -0.2010 23.7 178 
 BAR2 SZ ES   1    910 57.37                             170   -0.09 7 23.7 178 
 BAR2 SZ I         910 59.60        15.9 0.38            162           23.7 178 
 BRR  HZ IP     C  910 43.88                             154    0.4510 66.8 300 
 BRR  HN ES   1    911  0.72                             154    0.99 7 66.8 300 
 BRR  HN I         911  2.37        23.4 0.16            150           66.8 300 
 PAM  SZ EP        910 44.85                             150   -0.0510 79.9  42 
 PAM  SN ES        911  2.14                             150   -0.1910 79.9  42 
 PAM  SN I         911  3.31        19.9 0.46            147           79.9  42 
 RUS  HZ EP   1    910 47.11                             143    0.75 7  102 173 
 RUS  HN ES        911  4.66                             143   -0.2810  102 173 
 RUS  HZ I         911  5.61         9.5 0.36            133            102 173 
 PTB  HZ EP        910 48.64                             133   -0.46 9  143 258 
 PTB  HN ES        911  9.53                             133   -0.28 9  143 258 
 PTB  HZ I         911 15.70        12.9 0.38            124            143 258 
 OCA  HZ EP   1    910 50.92                             130    0.19 7  159 355 
 OCA  HN ES   1    911 12.86                             130    0.14 7  159 355 
 NOR  HZ EP   1    910 58.26                             119    0.36 6  231 234 
 NOR  HN ES        911 25.69                             119    0.21 8  231 234 
 NOR  HZ I         911 31.15         8.6 0.28            111            231 234 
 SML  HZ EP   1    910 58.69                             118   -0.20 6  241 336 
 SML  HN ES        911 26.72                             118   -0.51 8  241 336 
 SML  HZ I         911 30.32        23.3 0.24            112            241 336 
 CHI  HZ EP   1    911  0.25                             117    0.07 6  248 194 
 CHI  HZ I         911 39.24         3.7 0.40            109            248 194 
 HEL  HN ES   4    911 36.27                             115    3.02 0  268 255 
 HEL  HN I         911 41.51         5.2 0.30            108            268 255 
 GUY2CHN ES   4    911 41.41                             112    1.94 0  298 234 
 PRA  HZ EP        911 16.38                             107    0.52 6  390 209 
 PRA  HN ES        911 56.79                             107   -0.66 6  390 209 
 PRA  HN I         912  2.08         2.9 0.36            100            390 209 
                                                                                
