 2014  2 9 0705 40.0 L   6.793 -73.145145.7  RSN 18 0.4 2.4LRSN                1
 GAP= 66        0.85       2.8     3.0  6.6  0.8719E+00  0.6469E+01  0.4159E+01E
 Epicentro: LOS SANTOS - SANTANDER                                             3
 ACTION:UPD 14-03-10 08:08 OP:ep   STATUS:               ID:20140209070540 L   I
 OLDACT:UP  14-02-09 13:42 OP:mh   STATUS:               ID:20140209070000     3
 OLDACT:UP  14-02-09 12:18 OP:mh   STATUS:               ID:20140209070000     3
 OLDACT:UP  14-02-09 12:18 OP:mh   STATUS:               ID:20140209070000     3
 OLDACT:UP  14-02-09 12:16 OP:mh   STATUS:               ID:20140209070000     3
 OLDACT:UP  14-02-09 12:15 OP:mh   STATUS:               ID:20140209070000     3
 OLDACT:UP  14-02-09 12:13 OP:mh   STATUS:               ID:20140209070000     3
 OLDACT:UP  14-02-09 12:13 OP:mh   STATUS:               ID:20140209070000     3
 OLDACT:REG 14-02-09 08:07 OP:mh   STATUS:               ID:20140209070000     3
 2014-02-09-0700-00M.COL___291                                                 6
 STAT SP IPHASW D HRMM SECON CODA AMPLIT PERI AZIMU VELO AIN AR TRES W  DIS CAZ7
 BAR2 SZ EP     C  7 5 59.95                             171    0.3210 22.6 190 
 BAR2 SZ ES   1    7 6 14.78                             171   -0.14 7 22.6 190 
 BAR2 SZ I         7 6 16.51        48.9 0.12            159           22.6 190 
 PAM  SZ EP     D  7 6  2.67                             151    0.4110 77.9  39 
 PAM  SZ I         7 6 22.72        43.8 0.67            148           77.9  39 
 RUS  HZ EP   1    7 6  3.85                             144    0.14 7 99.8 176 
 RUS  HZ I         7 6 25.40        26.9 0.44            129           99.8 176 
 PTB  HZ EP   1    7 6  6.69                             132   -0.28 7  148 259 
 PTB  HZ I         7 6 30.25        29.5 0.10            118            148 259 
 TAM  HZ IP     D  7 6  8.08                             130    0.41 9  155 105 
 TAM  HN ES        7 6 29.29                             130    0.06 9  155 105 
 OCA  HZ EP   1    7 6  8.83                             129    0.43 7  161 353 
 OCA  HN ES        7 6 30.08                             129   -0.45 9  161 353 
 OCA  HZ I         7 6 35.08        26.1 0.38            120            161 353 
 SPBC HZ EP   1    7 6  8.67                             129    0.21 7  163 219 
 SPBC HZ I         7 6 36.04        43.7 0.08            115            163 219 
 ZAR  HZ EP   1    7 6 12.36                             122   -0.14 6  204 292 
 ZAR  HN ES   1    7 6 38.06                             122    0.23 6  204 292 
 ZAR  HZ I         7 6 45.57        16.4 0.13            111            204 292 
 NOR  HZ EP   1    7 6 15.66                             118   -0.04 6  234 235 
 NOR  HZ I         7 6 48.24        23.0 0.20            107            234 235 
 SML  HZ EP        7 6 16.36                             117   -0.36 8  244 335 
 SML  HN ES   1    7 6 44.76                             117   -0.59 6  244 335 
 SML  HZ I         7 6 47.88        45.0 0.09            108            244 335 
 CHI  HZ EP   1    7 6 18.00                             117    0.36 6  248 195 
 CHI  HN ES        7 6 46.26                             117   -0.71 8  248 195 
 CHI  HZ I         7 6 52.64       124.5 0.08            106            248 195 
 ROSC BZ EP   4    7 6 19.48                             117    1.41 0  252 211 
 ROSC BN ES   4    7 6 51.50                             117    3.76 0  252 211 
 HEL  HZ EP   1    7 6 20.31                             115    0.10 6  272 256 
 HEL  HN ES   1    7 6 51.43                             115   -0.13 6  272 256 
 HEL  HZ I         7 6 58.40        12.2 0.32            104            272 256 
 URE  HZ EP   4    7 6 19.78                             113   -1.35 0  284 292 
 URE  HN ES   4    7 6 50.45                             113   -2.73 0  284 292 
 URE  HZ I         7 7  6.21        13.1 0.12            104            284 292 
 GUY2CHZ EP   1    7 6 23.10                             112   -0.48 5  301 235 
 GUY2CHN ES   4    7 7  1.10                             112    3.54 0  301 235 
 GUY2CHZ I         7 7  5.31        13.3 0.29                           301 235 
 PTGC HZ EP        7 6 22.79                             112   -1.00 7  308 159 
 PTGC HN ES   4    7 6 55.40                             112   -2.53 0  308 159 
 PTGC HZ I         7 7  3.16         6.2 0.14            102            308 159 
 CBOC HZ EP   4    7 6 28.63                             110    1.72 0  333 252 
 CBOC HN ES        7 7  4.28                             110    0.80 7  333 252 
 CBOC HZ I         7 7 10.46         4.8 0.31            100            333 252 
 PRA  HZ EP   1    7 6 33.89                             106    0.43 4  391 210 
 PRA  HZ I         7 7 21.23         9.5 0.20             97            391 210 
 ORTC HZ EP   1    7 6 34.01                             106    0.14 4  395 216 
 ORTC HN ES   4    7 7 17.24                             106    1.37 0  395 216 
 ORTC HZ I         7 7 23.91                              97            395 216 
 SJC  HZ EP   4    7 6 33.94                             106   -1.72 0  410 327 
 SJC  HN ES   4    7 7 14.71                             106   -4.35 0  410 327 
                                                                                
