 2011 12 9 0624 42.0 L   6.268 -73.647105.8  RSN 15 0.4 2.4LRSN                1
 GAP=102        0.81       2.4     3.0  6.6 -0.2332E+01  0.7995E+01  0.8568E+00E
 Epicentro: SANTA HELENA DEL OPON - SANTANDER                                  3
 ACTION:UPD 12-07-13 16:15 OP:ep   STATUS:               ID:20111209062441 L   I
 2011-12-09-0622-44S.COL___155                                                 6
 STAT SP IPHASW D HRMM SECON CODA AMPLIT PERI AZIMU VELO AIN AR TRES W  DIS CAZ7
 BAR2 SZ IP        624 58.94                             147    0.2210 62.7  55 
 BAR2 SZ ES   1    625 12.13                             147    0.35 7 62.7  55 
 BAR2 SZ I         625 13.22       292.8 0.19                          62.7  55 
 RUS  HZ EP   1    624 59.73                             142   -0.22 7 75.0 124 
 RUS  HE ES   1    625 13.65                             142   -0.32 7 75.0 124 
 RUS  HZ I         625 15.04        35.8 0.24                          75.0 124 
 GIR2 SZ EP        625  1.90                             132    0.1310  103  29 
 GIR2 SZ ES   1    625 17.61                             132    0.40 7  103  29 
 NOR  SZ EP        625  6.53                             119   -0.43 9  156 240 
 NOR  SN ES   1    625 25.90                             119   -0.54 7  156 240 
 PAM  SZ EP   1    625  7.42                             119   -0.31 7  158  41 
 PAM  SE ES   1    625 26.85                             119   -0.98 7  158  41 
 YOP  SZ EP   1    625  8.22                             117   -0.22 7  169 127 
 YOP  SN ES   1    625 29.67                             117    0.58 7  169 127 
 YOP  SZ I         625 30.70        28.8 0.05                           169 127 
 CHI  HZ EP   1    625  9.57                             115   -0.59 7  181 183 
 CHI  HN ES   1    625 32.05                             115   -0.10 7  181 183 
 BRI  SZ EP   1    625 10.21                             114   -0.12 7  186  30 
 CVER SZ EP   2    625 12.75                             113    0.57 4  199 194 
 HEL  HZ EP   1    625 13.52                             112    0.40 6  208 268 
 HEL  HE ES   1    625 37.06                             112   -0.36 6  208 268 
 HEL  HZ I         625 41.41        19.1 0.25                           208 268 
 OCA  SZ EP   1    625 14.30                             110    0.02 6  221   9 
 OCA  SZ ES   1    625 40.07                             110    0.59 6  221   9 
 OCA  SZ I         625 45.20        27.1 0.61                           221   9 
 VIL  SZ EP   1    625 16.35                             108    0.08 6  238 181 
 VIL  SN ES   1    625 42.94                             108   -0.09 6  238 181 
 RREF HN ES   1    625 45.39                             108    0.61 6  242 231 
 RREF HZ I         625 50.75        17.5 0.26                           242 231 
 TOL  SZ EP   1    625 19.95                             106    0.60 6  263 225 
 PRA  HE ES   1    625 59.34                             102    0.66 5  314 206 
                                                                                
