 2014 11 9 0820 22.8 L   6.783 -73.153144.0  RSN  6 0.5 1.4LRSN                1
 GAP=136        1.34       6.8     6.4  8.9 -0.9662E+01  0.1433E+02  0.8913E+01E
 Epicentro: LOS SANTOS - SANTANDER                                             3
 ACTION:UPD 14-12-19 15:40 OP:nd   STATUS:               ID:20141109082022 L   I
 OLDACT:REG 14-11-09 14:40 OP:carl STATUS:               ID:20141109081735     3
 2014-11-09-0817-35M.COL___289                                                 6
 STAT SP IPHASW D HRMM SECON CODA AMPLIT PERI AZIMU VELO AIN AR TRES W  DIS CAZ7
 BAR2 SZ EP        820 41.93                             171   -0.2010 21.3 189 
 BAR2 SZ ES        820 57.08                             171   -0.1710 21.3 189 
 BRR  HZ EP        820 43.75                             152    0.0210 71.5 300 
 BRR  HN ES        821  1.13                             152    1.0410 71.5 300 
 BRR  HZ I         821  4.04         9.5 0.32            151           71.5 300 
 PAM  SZ IP     C  820 44.94                             150    0.0410 79.4  39 
 PAM  SN ES        821  1.99                             150   -0.1910 79.4  39 
 PAM  SZ I         821  4.01         4.0 0.50            154           79.4  39 
 RUS  HZ EP        820 46.36                             144    0.1610 98.7 176 
 RUS  HN ES        821  4.57                             144    0.0910 98.7 176 
 RUS  HZ I         821  6.57         1.9 0.46            147           98.7 176 
 PTB  HZ EP        820 48.67                             132   -0.81 9  147 260 
 PTB  HN ES        821  9.41                             132   -0.91 9  147 260 
 PTB  HZ I         821 16.88         4.5 0.24            133            147 260 
 GUY2CHZ EP        821  6.79                             112    0.70 7  299 235 
 GUY2CHN ES        821 40.53                             112    0.65 7  299 235 
 GUY2CHZ I         821 49.84         1.6 0.66                           299 235 
                                                                                
