 2014  2 9 0731 40.7 L   6.812 -73.142146.9  RSN 18 0.4 2.6LRSN                1
 GAP= 66        0.81       2.3     3.3  4.9 -0.1179E+00  0.4311E+01  0.2695E+01E
 Epicentro: LOS SANTOS - SANTANDER                                             3
 ACTION:UPD 14-03-10 08:08 OP:ep   STATUS:               ID:20140209073140 L   I
 OLDACT:UP  14-02-09 12:31 OP:mh   STATUS:               ID:20140209073000     3
 OLDACT:UP  14-02-09 12:31 OP:mh   STATUS:               ID:20140209073000     3
 OLDACT:UP  14-02-09 12:30 OP:mh   STATUS:               ID:20140209073000     3
 OLDACT:REG 14-02-09 08:08 OP:mh   STATUS:               ID:20140209073000     3
 2014-02-09-0730-00M.COL___291                                                 6
 STAT SP IPHASW D HRMM SECON CODA AMPLIT PERI AZIMU VELO AIN AR TRES W  DIS CAZ7
 BAR2 SZ EP     C  732  0.77                             170    0.2510 24.7 190 
 BAR2 SZ ES   1    732 15.74                             170   -0.23 7 24.7 190 
 BAR2 SZ I         732 17.49        88.1 0.22            160           24.7 190 
 PAM  SZ EP     D  732  3.55                             151    0.5610 76.1  40 
 PAM  SN ES        732 20.65                             151    0.3010 76.1  40 
 PAM  SZ I         732 22.97       114.9 0.52            151           76.1  40 
 RUS  HZ IP     D  732  4.62                             144   -0.0610  102 176 
 RUS  HN ES   1    732 23.20                             144   -0.18 7  102 176 
 RUS  HZ I         732 25.12        43.7 0.19            135            102 176 
 PTB  HZ EP   1    732  7.33                             132   -0.51 7  148 258 
 PTB  HN ES   1    732 28.70                             132   -0.30 7  148 258 
 PTB  HZ I         732 34.66        34.4 0.18            120            148 258 
 TAM  HZ IP     D  732  8.94                             131    0.45 9  155 106 
 OCA  HZ EP        732  8.92                             130   -0.08 9  159 353 
 OCA  HN ES        732 30.66                             130   -0.40 9  159 353 
 OCA  HZ I         732 35.83        53.7 0.27            122            159 353 
 SPBC HZ EP        732  9.49                             129    0.06 9  164 219 
 SPBC HZ I         732 36.96        82.0 0.23            118            164 219 
 ZAR  HZ EP   1    732 13.31                             123    0.08 6  204 292 
 ZAR  HN ES   1    732 38.98                             123    0.40 6  204 292 
 ZAR  HZ I         732 46.36        29.4 0.18            112            204 292 
 NOR  HZ EP   1    732 16.79                             119    0.15 6  236 234 
 NOR  HZ I         732 49.46        31.8 0.26            109            236 234 
 SML  HZ EP   1    732 17.08                             118   -0.22 6  243 335 
 SML  HN ES   1    732 44.94                             118   -0.89 6  243 335 
 CHI  HZ EP   1    732 18.78                             117    0.14 6  250 195 
 CHI  HN ES        732 48.11                             117   -0.10 8  250 195 
 CHI  HZ I         732 53.82        16.8 0.20            109            250 195 
 ROSC BZ EP   4    732 21.05                             117    2.00 0  254 211 
 ROSC BN ES   4    732 50.94                             117    1.99 0  254 211 
 HEL  HZ EP   4    732 22.44                             115    1.37 0  273 256 
 HEL  HN ES   2    732 53.03                             115    0.48 4  273 256 
 HEL  HZ I         732 59.20        20.7 0.28            106            273 256 
 URE  HZ EP   4    732 20.67                             114   -1.16 0  284 292 
 URE  HN ES   4    732 51.60                             114   -2.30 0  284 292 
 GUY2CHZ EP   1    732 24.95                             112    0.44 5  302 235 
 GUY2CHN ES   4    733  1.43                             112    2.77 0  302 235 
 GUY2CHZ I         733  9.00        24.1 0.47                           302 235 
 VIL  SZ EP   1    732 24.06                             112   -0.29 5  305 192 
 VIL  SN ES   1    732 58.11                             112   -0.27 5  305 192 
 VIL  SZ I         733  4.33        27.1 0.50            105            305 192 
 PTGC HZ EP     D  732 23.59                             112   -1.17 7  310 159 
 PTGC HN ES   4    732 56.29                             112   -2.82 0  310 159 
 PTGC HZ I         732 59.45        19.1 0.45            106            310 159 
 CBOC HZ EP   1    732 28.55                             110    0.77 5  334 252 
 CBOC HZ I         733 11.29        10.5 0.28            103            334 252 
 DBB  SZ EP   1    732 28.49                             110    0.21 5  340 274 
 PRA  HZ EP   1    732 34.33                             107   -0.11 4  393 210 
 PRA  HN ES   1    733 16.48                             107    0.13 4  393 210 
 PRA  HZ I         733 22.08        16.5 0.23            100            393 210 
 PAL  HZ EP   4    732 34.95                             106   -1.09 0  407 239 
 SJC  HZ EP   4    732 34.92                             106   -1.29 0  408 327 
 SJC  HN ES   4    733 16.11                             106   -3.38 0  408 327 
 MACC HZ EP   4    732 47.22                             102   -2.41 0  522 189 
 MACC HN ES   4    733 38.79                             102   -4.59 0  522 189 
                                                                                
