 2016  3 9 0549  3.7 L   6.798 -73.188141.0  RSN  7 0.3 1.2LRSN                1
 GAP=143        0.67       3.1     3.6  4.6 -0.4302E+01  0.3586E+01  0.1856E+01E
 Epicentro: ZAPATOCA - SANTANDER                                               3
 ACTION:UPD 16-05-13 21:22 OP:cam  STATUS:               ID:20160309054903 L   I
 OLDACT:REG 16-03-09 13:26 OP:cara STATUS:               ID:20160309054748     3
 2016-03-09-0547-48M.COL___289                                                 6
 STAT SP IPHASW D HRMM SECON CODA AMPLIT PERI AZIMU VELO AIN AR TRES W  DIS CAZ7
 BAR2 EZ EP        549 22.56                             170   -0.1910 22.7 178 
 BAR2 EZ ES        549 37.16                             170   -0.4410 22.7 178 
 BAR2 EZ I         549 39.06         3.7 0.31            167           22.7 178 
 PAM  EZ IP        549 25.74                             149    0.1210 80.7  42 
 PAM  EZ I         549 25.84         3.5 0.18            154           80.7  42 
 PAM  EN ES        549 42.82                             149    0.1110 80.7  42 
 RUS  HZ EP        549 27.11                             143    0.1110  101 173 
 RUS  HN ES        549 45.54                             143    0.3710  101 173 
 RUS  HZ I         549 46.99         1.3 0.46            142            101 173 
 PTB  HZ EP        549 29.52                             132   -0.33 9  143 259 
 PTB  HN ES        549 50.66                             132    0.40 9  143 259 
 PTB  HZ I         549 53.46         2.1 0.28            131            143 259 
 SPBC HZ EP        549 31.54                             128    0.00 9  160 218 
 SPBC HN ES        549 53.18                             128   -0.07 9  160 218 
 SPBC HZ I         550  0.69         3.3 0.32            128            160 218 
 CHI  HZ EP        549 41.05                             116    0.07 8  247 194 
 CHI  HN ES        550  9.85                             116   -0.21 8  247 194 
 CHI  HZ I         550 15.39         1.3 0.60            117            247 194 
 GUY2CHZ EP   4    549 48.36                             112    1.72 0  297 234 
 GUY2CHZ I         550 33.23         0.9 0.62                           297 234 
                                                                                
