 2016  5 9 0941  6.7 L   6.777 -73.137152.9  RSN 12 0.5 1.8LRSN                1
 GAP= 72        1.15       3.6     4.1  6.5  0.1836E+01  0.3673E+01 -0.2073E+01E
 Epicentro: LOS SANTOS - SANTANDER                                             3
 ACTION:UPD 16-08-18 17:43 OP:cam  STATUS:               ID:20160509094106 L   I
 OLDACT:UP  16-05-09 15:30 OP:drio STATUS:               ID:20160509093750     3
 OLDACT:UP  16-05-09 15:30 OP:drio STATUS:               ID:20160509093750     3
 OLDACT:REG 16-05-09 12:31 OP:drio STATUS:               ID:20160509093750     3
 2016-05-09-0937-50M.COL___279                                                 6
 STAT SP IPHASW D HRMM SECON CODA AMPLIT PERI AZIMU VELO AIN AR TRES W  DIS CAZ7
 BAR2 EZ EP        941 26.99                             172   -0.1410 21.0 194 
 BAR2 EZ ES        941 42.53                             172   -0.5410 21.0 194 
 BAR2 EZ I         941 43.89        10.6 0.22            172           21.0 194 
 BRR  HZ EP        941 29.37                             153    0.6510 73.2 300 
 BRR  HE ES        941 46.57                             153    0.6710 73.2 300 
 BRR  HZ I         941 50.95        10.7 0.20            153           73.2 300 
 PAM  EZ EP        941 30.34                             152    0.6010 78.8  38 
 PAM  EE ES        941 47.71                             152   -0.0110 78.8  38 
 PAM  EZ I         941 49.67        10.9 0.44            153           78.8  38 
 RUS  HZ EP        941 30.79                             146   -0.1710 98.0 176 
 RUS  HN ES        941 49.36                             146   -0.5410 98.0 176 
 RUS  HZ I         941 50.77         4.9 0.32            148           98.0 176 
 PTB  HZ EP        941 34.11                             133   -0.17 9  148 260 
 PTB  HN ES   4    941 54.27                             133   -1.53 0  148 260 
 PTB  HZ I         941 58.86         5.7 0.22            135            148 260 
 TAM  HZ EP        941 34.89                             132    0.09 9  154 104 
 TAM  HE ES        941 57.19                             132    0.47 9  154 104 
 TAM  HZ I         942  0.17        11.6 0.32            135            154 104 
 SPBC HZ EP        941 35.71                             131    0.10 9  162 220 
 SPBC HE ES        941 58.20                             131    0.03 9  162 220 
 SPBC HZ I         942  0.14         6.1 0.20            133            162 220 
 OCA  HN ES        941 57.65                             131   -0.85 9  163 353 
 ZAR  HZ EP   4    941 41.47                             124    1.68 0  206 293 
 ZAR  HE ES        942  6.02                             124    0.41 8  206 293 
 ZAR  HZ I         942 10.38         7.2 0.26            125            206 293 
 SML  HZ EP        941 43.55                             118   -0.46 8  246 335 
 SML  HN ES        942 13.11                             118   -0.01 8  246 335 
 SML  HZ I         942 15.40         7.8 0.24            120            246 335 
 URE  HZ EP   4    941 51.42                             115    3.11 0  286 292 
 URE  HE ES   4    942 19.48                             115   -1.30 0  286 292 
 URE  HZ I         942 20.97         4.2 0.18            116            286 292 
 SJC  HZ EP        942  1.95                             107   -0.84 6  412 327 
 SJC  HN ES   4    942 42.61                             107   -3.95 0  412 327 
                                                                                
