 2017  4 9 0250 27.3 L   6.804 -73.160135.9  RSN  6 0.3 1.2LRSN                1
 GAP=134        0.78       4.1     5.2  6.7 -0.3685E+01  0.1610E+02 -0.4691E+01E
 Epicentro: LOS SANTOS - SANTANDER                                             3
 ACTION:UPD 17-05-30 21:09 OP:jn   STATUS:               ID:20170409025027 L   I
 OLDACT:UP  17-04-09 14:11 OP:and  STATUS:               ID:20170409024747     3
 OLDACT:UP  17-04-09 14:09 OP:and  STATUS:               ID:20170409024747     3
 OLDACT:UP  17-04-09 14:09 OP:and  STATUS:               ID:20170409024747     3
 OLDACT:REG 17-04-09 12:41 OP:and  STATUS:               ID:20170409024747     3
 2017-04-09-0248-00M.COL___368                                                 6
 STAT SP IPHASW D HRMM SECON CODA AMPLIT PERI AZIMU VELO AIN AR TRES W  DIS CAZ7
 BAR2 EZ EP        250 45.86                             170    0.0710 23.5 186 
 BAR2 EZ ES        250 59.74                             170   -0.4410 23.5 186 
 BAR2 EZ I         251  2.94         5.5 0.30            172           23.5 186 
 BRR  HZ EP        250 47.71                             151    0.3810 69.6 299 
 PAM  EZ IP     C  250 48.67                             148    0.1110 78.1  41 
 PAM  EN ES        251  5.06                             148   -0.0510 78.1  41 
 PAM  EZ I         251  8.22         2.7 0.61            152           78.1  41 
 RUS  HZ EP        250 50.22                             141    0.0510  101 175 
 RUS  HN ES        251  8.23                             141    0.2410  101 175 
 RUS  HZ I         251  9.36         1.5 0.29            147            101 175 
 PTB  HZ EP        250 52.77                             130   -0.61 9  146 259 
 PTB  HE ES   2    251 14.31                             130    0.62 5  146 259 
 PTB  HZ I         251 16.06         1.7 0.16            132            146 259 
 ZAR  HZ EP   2    250 58.69                             120   -0.29 4  202 292 
 ZAR  HN ES   2    251 24.17                             120    0.50 4  202 292 
 ZAR  HZ I         251 29.72         1.7 0.11            122            202 292 
 CHI  HZ EP   4    251  7.82                             115    3.31 0  249 195 
                                                                                
