 2012  7 9 0536 27.4 L   6.807 -73.159141.0  RSN 15 0.5 2.4LRSN                1
 GAP=112        0.97       2.7     3.9  5.9 -0.6227E+00  0.7565E+01  0.3004E+01E
 Epicentro: LOS SANTOS - SANTANDER                                             3
 ACTION:UPD 12-08-14 11:43 OP:ep   STATUS:               ID:20120709053627 L   I
 2012-07-09-0530-00M.COL___201                                                 6
 STAT SP IPHASW D HRMM SECON CODA AMPLIT PERI AZIMU VELO AIN AR TRES W  DIS CAZ7
 BAR2 SZ EP   1    536 46.54                             170     0.1 7   24 186 
 BAR2 SZ ES   1    537  1.08                             170    -0.2 7   24 186 
 BAR2 SZ I         537  3.07        90.2 0.24                            24 186 
 BRR  HZ EP   1    536 48.47                             152     0.6 7   70 299 
 BRR  HN ES   1    537  4.73                             152     0.8 7   70 299 
 BRR  HZ I         537  8.09        51.7 0.17                            70 299 
 PAM  SZ EP   1    536 49.27                             150     0.2 7   78  41 
 PAM  SN ES        537  5.84                             150    -0.210   78  41 
 RUS  HZ EP   1    536 50.54                             142    -0.2 7  101 175 
 RUS  HE ES        537  8.81                             142    -0.110  101 175 
 RUS  HZ I         537 10.68        27.8 0.25                           101 175 
 PTB  HZ EP   1    536 53.21                             131    -0.6 7  146 258 
 PTB  HN ES   1    537 13.68                             131    -0.8 7  146 258 
 PTB  HZ I         537 16.42        27.2 0.15                           146 258 
 OCA  HZ EP   1    536 54.59                             129    -0.6 7  159 354 
 OCA  HN ES        537 17.11                             129     0.2 9  159 354 
 YOP  SZ EP   1    536 57.24                             125     0.0 7  180 153 
 YOP  SN ES   1    537 20.68                             125     0.2 7  180 153 
 YOP  SZ I         537 22.04        20.1 0.33                           180 153 
 ZAR  HZ EP   1    536 59.13                             121    -0.2 6  202 292 
 ZAR  HN ES   1    537 24.56                             121     0.3 6  202 292 
 ZAR  HZ I         537 30.02        20.6 0.12                           202 292 
 NOR  SZ EP   1    537  2.57                             117    -0.2 6  234 234 
 NOR  SN ES        537 29.55                             117    -0.8 8  234 234 
 CHI  HZ EP   1    537  4.76                             116    -0.1 6  249 195 
 CHI  HN ES   1    537 34.15                             116     0.1 6  249 195 
 CHI  HZ I         537 43.01        15.1 0.35                           249 195 
 ROSC BZ EP   1    537  6.10                             116     0.9 6  253 211 
 ROSC BN ES   1    537 35.20                             116     0.5 6  253 211 
 ROSC BZ I         537 42.79        45.0 0.42                           253 211 
 HEL  HZ EP   1    537  7.73                             114     0.5 6  271 256 
 HEL  HN ES   1    537 38.84                             114     0.6 6  271 256 
 HEL  HZ I         537 46.55        26.9 0.25                           271 256 
 TOL  SZ EP   1    537 16.00                             108     0.6 5  343 224 
 COD  HN ES   1    537 52.35                             108    -0.6 5  347 355 
 PRA  HZ EP   1    537 20.32                             106    -0.4 4  392 209 
 PRA  HN ES        538  2.24                             106    -0.1 6  392 209 
