 2011  7 9 0052  6.2 L   6.745 -73.124150.2  RSN 10 0.4 2.2LRSN                1
 GAP=159        0.71       3.5     4.8  5.5 -0.7160E+01  0.3448E+01 -0.8436E+00E
 Epicentro: JORDAN - SANTANDER                                                 3
 ACTION:UPD 12-07-25 13:59 OP:epov STATUS:               ID:20110709005206 L   I
 2011-07-09-0051-25S.COL___140                                                 6
 STAT SP IPHASW D HRMM SECON CODA AMPLIT PERI AZIMU VELO AIN AR TRES W  DIS CAZ7
 BAR2 SZ EP   1    052 26.07                             173   -0.16 7 18.1 201 
 BAR2 SZ ES   1    052 41.67                             173   -0.21 7 18.1 201 
 BAR2 SZ I         052 43.15        47.7 0.20                          18.1 201 
 GIR2 SZ EP   1    052 26.54                             165    0.00 7 37.7 348 
 BRR  HZ EP        052 28.27                             152    0.1910 76.3 302 
 BRR  HZ I         052 28.63        55.7 0.08                          76.3 302 
 BRR  HE ES   1    052 45.44                             152    0.26 7 76.3 302 
 RUS  HZ EP   1    052 30.10                             146    0.18 7 94.4 177 
 RUS  HN ES   1    052 48.31                             146   -0.14 7 94.4 177 
 RUS  HZ I         052 50.28        23.4 0.26                          94.4 177 
 BRI  SZ EP   1    052 31.09                             141    0.24 7  113  19 
 BRI  SZ ES   2    052 50.68                             141    0.58 5  113  19 
 BRI  SZ I         052 55.37        17.1 0.49                           113  19 
 GRA  SZ EP        052 32.32                             137    0.0910  131  16 
 GRA  SZ ES   1    052 52.26                             137   -0.30 7  131  16 
 GRA  SZ I         052 54.55        13.0 0.50                           131  16 
 OCA  SZ EP   1    052 34.75                             129   -0.66 7  167 353 
 OCA  SZ I         053  6.78        13.1 0.37                           167 353 
 NOR  SZ EP   1    052 42.60                             120    0.61 6  233 236 
 NOR  SN ES   1    053 10.40                             120    0.46 6  233 236 
 CHI  HZ EP   1    052 43.11                             119   -0.44 6  243 196 
 CHI  HZ I         053 16.25         5.5 0.50                           243 196 
 HEL  HN ES   1    053 17.47                             115   -0.86 6  273 257 
 HEL  HZ I         053 25.64        14.8 0.29                           273 257 
                                                                                
