 2011  7 9 0540 55.5 L   6.493 -73.491113.3  RSN  8 0.5 1.7LRSN                1
 GAP= 90        0.85       4.1     5.3  7.7 -0.1019E+02  0.1942E+02 -0.9541E+01E
 Epicentro: SIMACOTA - SANTANDER                                               3
 ACTION:UPD 12-07-25 13:59 OP:epov STATUS:               ID:20110709054055 L   I
 2011-07-09-0540-00M.COL___130                                                 6
 STAT SP IPHASW D HRMM SECON CODA AMPLIT PERI AZIMU VELO AIN AR TRES W  DIS CAZ7
 BAR2 SZ EP   1    541 11.89                             161    0.27 7 35.8  72 
 BAR2 SZ ES   1    541 24.49                             161    0.27 7 35.8  72 
 BAR2 SZ I         541 25.79        47.8 0.33                          35.8  72 
 BRR  HZ EP   1    541 12.89                             145   -0.40 7 72.2 340 
 BRR  HN ES   1    541 26.76                             145   -0.43 7 72.2 340 
 BRR  HZ I         541 28.16         6.8 0.11                          72.2 340 
 GIR2 SZ EP   1    541 13.48                             145   -0.05 7 72.6  27 
 RUS  HN ES   1    541 29.22                             142   -0.24 7 80.3 146 
 GRA  SZ EP   1    541 22.98                             119    0.30 7  172  26 
 GRA  SZ ES   1    541 44.16                             119    0.25 7  172  26 
 GRA  SZ I         541 46.23         3.7 0.24                           172  26 
 NOR  SZ EP   1    541 23.42                             117   -0.47 7  184 236 
 NOR  SN ES   1    541 46.59                             117    0.54 7  184 236 
 OCA  SZ EP   1    541 24.13                             116   -0.98 6  194   6 
 OCA  SZ ES   1    541 48.87                             116    0.64 6  194   6 
 OCA  SZ I         541 53.16        10.1 0.42                           194   6 
 HEL  HZ EP   1    541 29.83                             112    0.65 6  228 262 
 HEL  HZ I         541 51.21         3.2 0.34                           228 262 
 HEL  HN ES   2    541 55.17                             112   -0.31 4  228 262 
                                                                                
