 2013  6 9 0420 27.0 L   6.811 -73.228157.2  RSN  4 0.3 1.7LRSN                1
 GAP=256        0.49       5.6    10.1  5.4 -0.3851E+02 -0.2131E+02  0.1104E+02E
 Epicentro: ZAPATOCA - SANTANDER                                               3
 ACTION:UPD 14-01-08 09:53 OP:ep   STATUS:               ID:20130609042027 L   I
 OLDACT:REG 13-06-09 07:36 OP:mh   STATUS:               ID:20130609042000     3
 2013-06-09-0420-00M.COL___257                                                 6
 STAT SP IPHASW D HRMM SECON CODA AMPLIT PERI AZIMU VELO AIN AR TRES W  DIS CAZ7
 BRR  HZ EP   1    420 49.07                             157    0.14 7 62.7 302 
 BRR  HN ES        421  6.04                             157   -0.0310 62.7 302 
 BRR  HN I         421  6.55         9.5 0.16            145           62.7 302 
 PTB  HZ EP   1    420 54.13                             136   -0.01 7  139 258 
 PTB  HN ES   1    421 15.22                             136   -0.12 7  139 258 
 PTB  HN I         421 20.24         6.3 0.36            126            139 258 
 NOR  HZ EP   1    421  2.26                             122   -0.43 6  228 233 
 NOR  HN ES   2    421 31.31                             122    0.76 4  228 233 
 NOR  HN I         421 38.85         4.4 0.16            115            228 233 
 SML  HZ EP   1    421  3.97                             120    0.21 6  239 337 
 SML  HN ES   2    421 32.27                             120   -0.18 4  239 337 
                                                                                
