 2017  2 9 0153 43.1 L   6.721 -73.202148.7  RSN  5 0.2 1.3LRSN                1
 GAP=224        0.58       4.3     4.3  4.9  0.8034E+01  0.5122E+01  0.2759E+01E
 Epicentro: VILLANUEVA - SANTANDER                                             3
 ACTION:UPD 17-05-24 15:34 OP:jn   STATUS:               ID:20170209015343 L   I
 OLDACT:DUP 17-02-09 16:21 OP:edw  STATUS:               ID:20170209014745d    3
 OLDACT:REG 17-02-09 12:54 OP:edw  STATUS:               ID:20170209014744     3
 2017-02-09-0148-00M.COL___364                                                 6
 STAT SP IPHASW D HRMM SECON CODA AMPLIT PERI AZIMU VELO AIN AR TRES W  DIS CAZ7
 BAR2 EZ ES        154 18.39                             175   -0.0510 14.4 171 
 BRR  HZ EP        154  4.53                             153   -0.0310 70.7 307 
 BRR  HN ES        154 21.57                             153    0.2910 70.7 307 
 RUS  HZ EP        154  6.84                             147    0.2410 92.6 172 
 RUS  HN ES        154 24.78                             147   -0.1510 92.6 172 
 RUS  HZ I         154 26.50         4.1 0.34            145           92.6 172 
 PTB  HZ EP        154  9.47                             134   -0.18 9  140 262 
 PTB  HN ES        154 30.07                             134   -0.28 9  140 262 
 PTB  HZ I         154 37.25         1.9 0.46            131            140 262 
 NOR  HN ES   2    154 45.76                             120    0.64 4  225 235 
                                                                                
