 2013 10 9 0704  9.8 L   6.582 -73.244146.8  RSN  4 0.3 1.3LRSN                1
 GAP=187        0.69      10.0     6.6  8.8  0.8593E+01 -0.2366E+01  0.3082E+02E
 Epicentro: CABRERA - SANTANDER                                                3
 ACTION:UPD 13-11-25 09:20 OP:ep   STATUS:               ID:20131009070409 L   I
 OLDACT:DUP 13-10-09 13:04 OP:mh   STATUS:               ID:20131009065960d    3
 OLDACT:REG 13-10-09 08:16 OP:mh   STATUS:               ID:20131009065959     3
 2013-10-09-0659-59M.COL___273                                                 6
 STAT SP IPHASW D HRMM SECON CODA AMPLIT PERI AZIMU VELO AIN AR TRES W  DIS CAZ7
 BAR2 SZ EP   1    7 4 29.62                             177    0.28 7 6.92  81 
 BRR  HZ EP        7 4 31.51                             151    0.0710 77.7 318 
 BRR  HN ES        7 4 48.13                             151   -0.1910 77.7 318 
 BRR  HZ I         7 4 52.46         4.1 0.44            145           77.7 318 
 PTB  HZ EP   1    7 4 34.95                             135   -0.70 7  134 268 
 PTB  HN ES   1    7 4 56.14                             135    0.32 7  134 268 
 PTB  HZ I         7 4 59.00         2.2 0.16            133            134 268 
 ZAR  HZ EP   1    7 4 42.70                             122    0.31 6  205 300 
 ZAR  HN ES   1    7 5  7.88                             122    0.08 6  205 300 
 ZAR  HZ I         7 5 13.81         1.8 0.54            121            205 300 
                                                                                
