 2010 10 9 0542 43.2 L   6.757 -73.058140.4  RSN 11 0.4 2.2LRSN                1
 GAP=185        0.76       3.9     6.6  5.8 -0.1632E+02 -0.1898E+01  0.6436E+01E
 Epicentro: LOS SANTOS - SANTANDER                                             3
 ACTION:UP  11-02-18 11:08 OP:tino STATUS:               ID:20101009054243 L   I
 2010-10-09-0539-18S.COL___119                                                 6
 STAT SP IPHASW D HRMM SECON CODA AMPLIT PERI AZIMU VELO SNR AR TRES W  DIS CAZ7
 BAR2 SZ EP   1    543  2.34                             170     0.1 7   23 217 
 BAR2 SZ ES   1    543 16.95                             170    -0.1 7   23 217 
 BAR2 SZ I         543 18.57        23.6 0.31                            23 217 
 BRR  HZ EP        543  4.50                             148     0.010   82 298 
 BRR  HE ES   1    543 21.40                             148     0.4 7   82 298 
 BRR  HZ I         543 25.54        44.0 0.07                            82 298 
 GUE  SZ EP   1    543  7.72                             138     0.0 7  120   7 
 GRA  SZ IP        543  8.50                             135     0.310  128  13 
 GRA  SZ ES   1    543 27.40                             135    -0.2 7  128  13 
 GRA  SZ I         543 29.08        20.4 0.37                           128  13 
 OCA  SZ EP        543 11.30                             127    -0.4 9  166 350 
 OCA  SZ ES   1    543 33.80                             127    -0.1 7  166 350 
 OCA  SZ I         543 37.58        27.1 0.26                           166 350 
 NOR  SZ IP        543 19.28                             117     0.0 8  240 237 
 NOR  SN ES   1    543 46.95                             117    -0.4 6  240 237 
 CHI  HZ EP   1    543 20.98                             116     0.5 6  247 198 
 CHI  HE ES   2    543 48.96                             116    -0.5 4  247 198 
 CHI  HZ I         543 56.21         5.6 0.23                           247 198 
 ROSC BZ EP   2    543 21.60                             115     0.4 4  254 213 
 ROSC BZ I         543 58.41         9.8 0.39                           254 213 
 HEL  HZ EP   2    543 24.62                             113     0.5 4  280 257 
 HEL  HZ I         544  1.31        13.4 0.47                           280 257 
 RREF HZ EP   1    543 28.94                             110    -0.7 5  326 231 
 RREF HE ES   1    544  6.41                             110     0.5 5  326 231 
 RREF HZ I         544 14.91         6.1 0.18                           326 231 
 PRA  HZ EP   1    543 37.23                             106     0.5 4  393 211 
 PRA  HE ES   1    544 17.57                             106    -0.8 4  393 211 
                                                                                
