 2013 12 9 0850 31.4 L   6.801 -73.133149.3  RSN 10 0.5 2.0LRSN                1
 GAP=138        1.27       4.0     5.2  7.1 -0.3264E+01  0.9556E+01 -0.4075E+01E
 Epicentro: LOS SANTOS - SANTANDER                                             3
 ACTION:UPD 14-01-13 10:16 OP:ep   STATUS:               ID:20131209085031 L   I
 OLDACT:REG 13-12-09 06:25 OP:jn   STATUS:               ID:20131209085000     3
 2013-12-09-0850-00M.COL___285                                                 6
 STAT SP IPHASW D HRMM SECON CODA AMPLIT PERI AZIMU VELO AIN AR TRES W  DIS CAZ7
 BAR2 SZ EP        850 51.60                             171    0.1110 23.7 193 
 BAR2 SZ ES        851  6.95                             171   -0.1910 23.7 193 
 BAR2 SZ I         851  9.49        30.3 0.32            169           23.7 193 
 BRR  HZ EP        850 53.48                             153    0.4610 72.4 298 
 BRR  HN ES        851 10.87                             153    1.0010 72.4 298 
 BRR  HZ I         851 14.92        13.7 0.16            151           72.4 298 
 PAM  SZ EP        850 54.47                             152    0.5110 76.5  39 
 PAM  SN ES        851 10.94                             152   -0.6010 76.5  39 
 PAM  SZ I         851 13.73        13.3 0.56            157           76.5  39 
 RUS  HZ EP        850 55.78                             144    0.2610  101 177 
 RUS  HN ES        851 14.36                             144    0.0410  101 177 
 RUS  HZ I         851 17.05         5.1 0.42            148            101 177 
 PTB  HZ EP        850 58.32                             132   -0.48 9  149 259 
 PTB  HN ES        851 19.28                             132   -0.88 9  149 259 
 PTB  HZ I         851 26.79        14.6 0.56            133            149 259 
 OCA  HZ EP        850 59.69                             130   -0.33 9  160 353 
 OCA  HN ES   2    851 22.84                             130    0.52 5  160 353 
 OCA  HZ I         851 25.76        15.5 0.20            133            160 353 
 SPBC HZ EP        851  0.58                             130    0.30 9  164 219 
 SPBC HN ES        851 21.99                             130   -0.80 9  164 219 
 SPBC HZ I         851 29.80         9.7 0.12            132            164 219 
 ZAR  HZ EP        851  4.24                             123    0.01 8  205 292 
 ZAR  HE ES        851 30.38                             123    0.57 8  205 292 
 ZAR  HZ I         851 36.13        11.1 0.24            124            205 292 
 NOR  HZ EP        851  7.79                             119    0.31 8  236 235 
 NOR  HN ES        851 35.99                             119    0.38 8  236 235 
 NOR  HZ I         851 40.88         7.1 0.20            121            236 235 
 SML  HZ EP        851  7.70                             118   -0.60 8  244 335 
 SML  HN ES        851 36.56                             118   -0.51 8  244 335 
 SML  HZ I         851 42.05        20.9 0.10            120            244 335 
 SJC  HZ EP   4    851 25.69                             106   -1.49 0  410 327 
                                                                                
