 2017  5 9 0052 37.5 L   6.798 -73.172147.1  RSN 11 0.4 2.2LRSN                1
 GAP=109        0.93       3.1     3.2  5.7  0.5093E+00  0.1569E+01  0.4947E+01E
 Epicentro: LOS SANTOS - SANTANDER                                             3
 ACTION:UPD 17-06-16 13:34 OP:jn   STATUS:               ID:20170509005237 L   I
 OLDACT:UP  17-05-09 13:30 OP:lv   STATUS:               ID:20170509004741     3
 OLDACT:REG 17-05-09 12:33 OP:lv   STATUS:               ID:20170509004741     3
 2017-05-09-0048-00M.COL___356                                                 6
 STAT SP IPHASW D HRMM SECON CODA AMPLIT PERI AZIMU VELO AIN AR TRES W  DIS CAZ7
 BRR  HZ IP     D  052 58.90                             154    0.1910 68.8 300 
 BRR  HE ES        053 16.02                             154    0.8110 68.8 300 
 PAM  EE EP        053  0.01                             150   -0.0110 79.4  41 
 PAM  EZ ES        053 17.28                             150   -0.2810 79.4  41 
 RUS  HZ EP        053  1.07                             144   -0.3610  101 174 
 RUS  HN ES        053 19.80                             144   -0.2710  101 174 
 RUS  HZ I         053 21.14        99.4 0.04            142            101 174 
 PTB  HZ EP        053  3.86                             133   -0.51 9  145 259 
 PTB  HN ES        053 24.53                             133   -0.76 9  145 259 
 SPBC HZ EP        053  6.30                             130    0.33 9  161 218 
 SPBC HN ES        053 28.45                             130    0.32 9  161 218 
 YPLC HZ EP        053  7.48                             127   -0.08 9  178 150 
 YPLC HN ES        053 31.20                             127    0.23 9  178 150 
 YPLC HZ I         053 32.43         8.5 0.26            126            178 150 
 ZAR  HZ EP   4    053 11.78                             123    1.97 0  201 292 
 ZAR  HN ES        053 35.02                             123    0.04 9  201 292 
 NOR  HZ EP        053 13.24                             119    0.15 8  232 234 
 NOR  HN ES        053 40.59                             119   -0.23 8  232 234 
 CHI  HZ EP        053 15.39                             117    0.17 8  248 195 
 CHI  HE ES        053 44.86                             117    0.25 8  248 195 
 ROSC BZ EP   9    053 17.31                             117    1.75 0  251 210 
 ROSC BN ES        053 46.58                                   -0.38 8  251 210 
 ROSC BZ I         053 51.70         7.7 0.14            116            251 210 
 ORTC HZ EP        053 31.67                             107    0.37 6  394 216 
 ORTC HN ES   4    054 14.84                             107    1.62 0  394 216 
 ORTC HZ I         054 20.78         2.2 0.61            106            394 216 
                                                                                
