 2010  7 9 0725 20.8 L   6.772 -73.113151.3  RSN  4 0.2 1.5LRSN                1
 GAP=163        0.51       4.2     6.7  5.7  0.8694E+01 -0.1308E+02 -0.1355E+01E
 Epicentro: LOS SANTOS - SANTANDER                                             3
 ACTION:UPD 10-12-01 15:16 OP:pat  STATUS:               ID:20100709072520 L   I
 2010-07-09-0722-40S.COL___117                                                 6
 STAT SP IPHASW D HRMM SECON CODA AMPLIT PERI AZIMU VELO AIN AR TRES W  DIS CAZ7
 BAR2 SZ EP        725 41.00                             171    -0.110   21 201 
 BAR2 SZ ES   1    725 56.53                             171    -0.3 7   21 201 
 BAR2 SZ I         725 57.49        10.1 0.09                            21 201 
 BRR  HZ EP        725 42.77                             152     0.010   76 299 
 BRR  HZ I         725 42.93        10.9 0.14                            76 299 
 BRR  HE ES        726  0.07                             152     0.110   76 299 
 RUS  HZ EP   1    725 45.00                             146     0.1 7   97 178 
 RUS  HE ES   2    726  4.07                             146     0.4 5   97 178 
 RUS  HZ I         726  4.59         2.6 0.32                            97 178 
 GRA  SZ EP   2    725 46.57                             138    -0.1 5  128  16 
 GRA  SZ ES   2    726  7.20                             138     0.3 5  128  16 
 GRA  SZ I         726  9.00         1.8 0.25                           128  16 
                                                                                
