 2013  6 9 0651 19.6 L   6.808 -73.149140.6  RSN 11 0.5 2.3LRSN                1
 GAP=136        0.87       3.6     5.2  6.5  0.3526E+01  0.8867E+01 -0.4246E+01E
 Epicentro: LOS SANTOS - SANTANDER                                             3
 ACTION:UPD 14-01-08 09:53 OP:ep   STATUS:               ID:20130609065119 L   I
 OLDACT:REG 13-06-09 07:41 OP:mh   STATUS:               ID:20130609065000     3
 2013-06-09-0650-00M.COL___257                                                 6
 STAT SP IPHASW D HRMM SECON CODA AMPLIT PERI AZIMU VELO AIN AR TRES W  DIS CAZ7
 BAR2 SZ IP     D  651 38.74                             170    0.0910 24.2 189 
 BAR2 SZ ES        651 53.99                             170    0.5010 24.2 189 
 BAR2 SZ I         651 56.21        20.2 0.32            166           24.2 189 
 BRR  HZ IP     C  651 40.62                             152    0.4510 70.4 298 
 BRR  HN ES   4    651 58.16                             152    1.96 0 70.4 298 
 BRR  HN I         651 59.27        36.9 0.24            148           70.4 298 
 PAM  SZ EP   1    651 41.42                             150    0.16 7 76.9  40 
 RUS  HZ EP   1    651 43.12                             143    0.18 7  102 176 
 RUS  HN ES        652  0.51                             143   -0.6210  102 176 
 RUS  HN I         652  2.98        27.2 0.26            144            102 176 
 PTB  HZ EP   1    651 45.63                             131   -0.53 7  148 258 
 PTB  HN ES   2    652  6.12                             131   -0.74 5  148 258 
 PTB  HN I         652 11.44        25.4 0.30            129            148 258 
 OCA  HZ EP   1    651 46.73                             129   -0.71 7  159 353 
 OCA  HN ES   2    652  8.94                             129   -0.21 5  159 353 
 OCA  HN I         652 13.01        79.0 0.28            131            159 353 
 ZAR  HZ EP   1    651 52.63                             121    0.97 6  203 292 
 ZAR  HN ES        652 16.71                             121    0.05 9  203 292 
 ZAR  HN I         652 25.72        27.8 0.14            121            203 292 
 SML  HZ EP   1    651 55.44                             117   -0.41 6  243 335 
 SML  HN ES   2    652 23.59                             117   -0.53 4  243 335 
 CHI  HZ EP   1    651 56.90                             116   -0.23 6  249 195 
 CHI  HN ES   1    652 26.48                             116    0.10 6  249 195 
 CHI  HN I         652 31.43        11.2 0.26            118            249 195 
 HEL  HN ES   2    652 30.53                             114   -0.19 4  272 256 
 HEL  HN I         652 38.16         6.9 0.30            114            272 256 
 PRA  HZ EP   1    652 13.36                             106    0.32 4  393 209 
 PRA  HN ES   2    652 54.68                             106   -0.03 3  393 209 
 PRA  HN I         652 59.18         2.9 0.22            107            393 209 
                                                                                
