 2012  5 9 0352 45.2 L   6.773 -73.152145.3  RSN  7 0.5 1.8LRSN                1
 GAP=137        1.09       6.4     7.6 11.2 -0.1298E+01  0.1611E+02  0.8737E+01E
 Epicentro: LOS SANTOS - SANTANDER                                             3
 ACTION:UP  12-07-05 12:03 OP:pat  STATUS:               ID:20120509035245 L   I
 2012-05-09-0350-00M.COL___192                                                 6
 STAT SP IPHASW D HRMM SECON CODA AMPLIT PERI AZIMU VELO SNR AR TRES W  DIS CAZ7
 BAR2 SZ EP        353  4.69                             172    -0.110   20 189 
 BAR2 SZ I         353 21.01         9.8 0.52                            20 189 
 BRR  HZ EP        353  6.71                             152     0.310   72 301 
 BRR  HZ I         353  7.04        14.4 0.10                            72 301 
 BRR  HN ES   1    353 23.68                             152     0.8 7   72 301 
 PAM  SZ EP        353  7.66                             150     0.110   80  39 
 PAM  SN ES   1    353 24.83                             150    -0.2 7   80  39 
 RUS  HZ EP        353  9.12                             145     0.410   98 175 
 RUS  HN ES   1    353 26.59                             145    -0.5 7   98 175 
 PTB  HZ EP        353 11.61                             132    -0.5 9  146 260 
 PTB  HN ES   2    353 32.38                             132    -0.6 5  146 260 
 OCA  HN ES   2    353 34.67                             129    -1.4 5  163 354 
 ZAR  HZ EP   2    353 18.03                             122     0.3 4  204 293 
 ZAR  HZ I         353 48.97         4.8 0.58                           204 293 
                                                                                
