 2012 11 9 0826 16.9 L   6.724 -73.212148.3  RSN  6 0.3 1.8LRSN                1
 GAP=220        0.65       5.4     5.9  5.8  0.1444E+02  0.4751E+01  0.1074E+02E
 Epicentro: VILLANUEVA - SANTANDER                                             3
 ACTION:UPD 12-12-05 15:32 OP:}ep  STATUS:               ID:20121109082616 L   I
 2012-11-09-0820-00M.COL___228                                                 6
 STAT SP IPHASW D HRMM SECON CODA AMPLIT PERI AZIMU VELO AIN AR TRES W  DIS CAZ7
 BAR2 SZ EP        826 36.45                             174   -0.2210 14.9 167 
 BAR2 SZ ES   2    826 52.56                             174    0.45 5 14.9 167 
 BAR2 SZ I         826 55.32        10.0 0.14                          14.9 167 
 BRR  HZ IP     C  826 38.32                             153    0.1110 69.7 308 
 BRR  HN ES        826 55.08                             153    0.2310 69.7 308 
 BRR  HN I         826 56.74        14.6 0.22                          69.7 308 
 RUS  HZ EP   1    826 40.02                             147   -0.32 7 93.0 171 
 RUS  HN ES   1    826 58.49                             147   -0.17 7 93.0 171 
 RUS  HN I         827  0.93        10.5 0.39                          93.0 171 
 PTB  HZ EP        826 43.11                             134   -0.17 9  139 262 
 PTB  HE ES   1    827  3.55                             134   -0.33 7  139 262 
 PTB  HZ I         827 10.41         7.8 0.53                           139 262 
 CHI  HZ EP   1    826 54.25                             119    0.62 6  239 194 
 PRA  HZ EP   1    827  9.84                             107    0.64 4  381 209 
 PRA  HZ I         828  1.26         1.7 0.30                           381 209 
                                                                                
