 2016  4 9 0600 48.0 L   6.814 -73.194138.3  RSN  7 0.4 1.6LRSN                1
 GAP=130        0.92       3.3     4.1  7.3 -0.2465E+01  0.1077E+02 -0.1389E+01E
 Epicentro: ZAPATOCA - SANTANDER                                               3
 ACTION:UPD 16-05-05 14:19 OP:rebc STATUS:               ID:20160409060048 L   I
 OLDACT:UP  16-04-09 14:52 OP:mh   STATUS:               ID:20160409055750     3
 OLDACT:UP  16-04-09 14:52 OP:mh   STATUS:               ID:20160409055750     3
 OLDACT:REG 16-04-09 12:09 OP:mh   STATUS:               ID:20160409055750     3
 2016-04-09-0557-50M.COL___299                                                 6
 STAT SP IPHASW D HRMM SECON CODA AMPLIT PERI AZIMU VELO AIN AR TRES W  DIS CAZ7
 BAR2 EZ EP        6 1  6.83                             169    0.0510 24.6 177 
 BAR2 EZ ES        6 1 21.34                             169   -0.0810 24.6 177 
 BAR2 EZ I         6 1 22.69        11.5 0.15            171           24.6 177 
 PAM  EZ EP        6 1  9.93                             148    0.3310 79.7  43 
 PAM  EE ES        6 1 26.60                             148    0.1810 79.7  43 
 PAM  EZ I         6 1 28.82         9.6 0.81            151           79.7  43 
 RUS  HZ EP   1    6 1 10.66                             141   -0.54 7  103 173 
 RUS  HN ES        6 1 29.29                             141    0.0110  103 173 
 RUS  HZ I         6 1 30.60         5.2 0.42            145            103 173 
 PTB  HE EP        6 1 13.56                             131   -0.38 9  143 258 
 PTB  HZ ES        6 1 33.60                             131   -0.55 9  143 258 
 PTB  HE I         6 1 37.09         7.0 0.24            132            143 258 
 OCA  HN ES        6 1 36.61                             128   -0.43 9  158 355 
 OCA  HZ I         6 1 41.35         5.7 0.10            130            158 355 
 SPBC HZ EP        6 1 15.99                             128    0.23 9  161 217 
 SPBC HN ES        6 1 37.75                             128    0.36 9  161 217 
 SPBC HZ I         6 1 42.98         4.6 0.32            129            161 217 
 ZAR  HN ES        6 1 44.58                             121    0.68 9  199 292 
 ZAR  HZ I         6 1 48.52         3.1 0.25            122            199 292 
                                                                                
