 2016  3 9 0417 52.9 L   6.694 -73.117135.3  RSN  4 0.3 1.1LRSN                1
 GAP=145        0.74       3.9     4.2  7.3 -0.7385E+01  0.9676E+01 -0.2217E+01E
 Epicentro: JORDAN - SANTANDER                                                 3
 ACTION:UPD 16-05-13 21:22 OP:cam  STATUS:               ID:20160309041753dL   I
 OLDACT:DUP 16-03-09 16:03 OP:cara STATUS:               ID:20160309040750d    3
 2016-03-09-0407-49M.COL___289                                                 6
 STAT SP IPHASW D HRMM SECON CODA AMPLIT PERI AZIMU VELO AIN AR TRES W  DIS CAZ7
 PAM  EZ EP        418 14.42                             146   -0.1010 85.0  33 
 PAM  EN ES        418 31.53                             146    0.1610 85.0  33 
 PAM  EZ I         418 33.61         2.6 0.18            155           85.0  33 
 RUS  HZ EP        418 15.10                             145    0.3310 88.7 178 
 RUS  HN ES        418 31.43                             145   -0.4010 88.7 178 
 RUS  HZ I         418 37.33         0.9 0.28            148           88.7 178 
 PTB  HZ EP        418 18.71                             129   -0.46 9  149 264 
 PTB  HN ES        418 39.70                             129    0.04 9  149 264 
 PTB  HZ I         418 45.27         1.9 0.32            133            149 264 
 SPBC HZ EP        418 20.08                             128    0.12 9  156 223 
 SPBC HE ES        418 41.38                             128    0.31 9  156 223 
 SPBC HZ I         418 49.61         2.6 0.38            132            156 223 
                                                                                
