 2017  3 9 0500 23.2 L   7.227 -73.298112.4  RSN  8 0.4 1.4LRSN                1
 GAP=159        0.97       4.2     3.7  6.6  0.4528E+00  0.3120E+01  0.3174E+01E
 Epicentro: LEBRIJA - SANTANDER                                                3
 ACTION:UPD 17-05-25 18:38 OP:jn   STATUS:               ID:20170309050023 L   I
 OLDACT:UP  17-03-09 15:52 OP:and  STATUS:               ID:20170309045643     3
 OLDACT:UP  17-03-09 15:52 OP:and  STATUS:               ID:20170309045643     3
 OLDACT:REG 17-03-09 12:39 OP:and  STATUS:               ID:20170309045643     3
 2017-03-09-0457-00M.COL___397                                                 6
 STAT SP IPHASW D HRMM SECON CODA AMPLIT PERI AZIMU VELO AIN AR TRES W  DIS CAZ7
 BRR  HZ EP        5 0 38.99                             155   -0.4410 47.6 254 
 BRR  HN ES        5 0 52.07                             155   -0.0210 47.6 254 
 PAM  EZ EP        5 0 41.21                             147   -0.0910 67.3  79 
 PAM  EN ES        5 0 55.97                             147    0.5610 67.3  79 
 PAM  EZ I         5 0 58.17         5.0 0.22            149           67.3  79 
 BAR2 EZ IP     D  5 0 40.88                             145   -0.3310 71.3 170 
 BAR2 EZ ES        5 0 54.92                             145   -0.3410 71.3 170 
 RUS  HZ EP        5 0 48.10                             123   -0.38 9  149 171 
 RUS  HN ES        5 1  8.24                             123    0.05 9  149 171 
 RUS  HZ I         5 1  9.51         1.8 0.36            123            149 171 
 PTB  HZ EP   9    5 0 46.65                             123   -1.15 0  149 239 
 PTB  HN ES        5 1  5.29                             122   -0.54 9  149 239 
 PTB  HZ I         5 1  8.47         6.3 0.16            122            149 239 
 ZAR  HZ EP   2    5 0 51.01                             118    0.51 4  175 280 
 ZAR  HN ES        5 1 11.91                             118    0.11 9  175 280 
 ZAR  HZ I         5 1 17.49         3.6 0.07            117            175 280 
 SPBC HZ EP   2    5 0 53.04                             115    0.33 4  194 206 
 SPBC HN ES        5 1 16.57                             115    0.84 9  194 206 
 SPBC HZ I         5 1 19.36         3.6 0.18            115            194 206 
 NOR  HZ EP   2    5 0 59.86                             108    0.51 4  253 223 
 NOR  HN ES   4    5 1 29.92                             108    2.38 0  253 223 
 NOR  HZ I         5 1 31.48         2.3 0.26            108            253 223 
                                                                                
