 2015  8 9 0701 54.1 L   6.793 -73.095150.4  RSN  7 0.3 2.1LRSN                1
 GAP=242        0.82       4.1     5.0  5.3  0.5666E+01  0.8463E+01  0.1520E+01E
 Epicentro: LOS SANTOS - SANTANDER                                             3
 OLDACT:UP  15-08-09 17:32 OP:mh   STATUS:               ID:20150809065745     3
 OLDACT:UP  15-08-09 17:31 OP:mh   STATUS:               ID:20150809065745     3
 OLDACT:UP  15-08-09 17:31 OP:mh   STATUS:               ID:20150809065745     3
 OLDACT:UP  15-08-09 17:30 OP:mh   STATUS:               ID:20150809065745     3
 OLDACT:UP  15-08-09 17:27 OP:mh   STATUS:               ID:20150809065745     3
 OLDACT:UP  15-08-09 17:26 OP:mh   STATUS:               ID:20150809065745     3
 OLDACT:UP  15-08-09 17:25 OP:mh   STATUS:               ID:20150809065745     3
 OLDACT:UP  15-08-09 17:13 OP:mh   STATUS:               ID:20150809065745     3
 OLDACT:UP  15-08-09 13:43 OP:mh   STATUS:               ID:20150809065745     3
 OLDACT:REG 15-08-09 12:36 OP:mh   STATUS:               ID:20150809065745     3
 ACTION:UPD 15-09-15 23:01 OP:cam  STATUS:               ID:20150809070154 L   I
 OLDACT:UP  15-08-09 17:52 OP:mh   STATUS:               ID:20150809065747d    3
 OLDACT:UP  15-08-09 17:52 OP:mh   STATUS:               ID:20150809065747d    3
 OLDACT:UP  15-08-09 17:52 OP:mh   STATUS:               ID:20150809065747d    3
 OLDACT:DUP 15-08-09 17:47 OP:mh   STATUS:               ID:20150809065747d    3
 OLDACT:UP  15-08-09 17:46 OP:mh   STATUS:               ID:20150809065746d    3
 OLDACT:DUP 15-08-09 17:36 OP:mh   STATUS:               ID:20150809065746d    3
 OLDACT:UP  15-08-09 17:34 OP:mh   STATUS:               ID:20150809065745     3
 2015-08-09-0657-45M.COL___346                                                 6
 STAT SP IPHASW D HRMM SECON CODA AMPLIT PERI AZIMU VELO AIN AR TRES W  DIS CAZ7
 BAR2 EZ EP        7 2 14.33                             170    0.0410 24.3 204 
 BAR2 EZ ES        7 2 29.75                             170   -0.3010 24.3 204 
 BAR2 EZ I         7 2 32.68        18.2 0.13            168           24.3 204 
 BRR  HZ EP        7 2 16.34                             152    0.3010 76.5 297 
 BRR  HN ES        7 2 33.55                             152    0.3910 76.5 297 
 BRR  HZ I         7 2 36.44        17.9 0.23            150           76.5 297 
 RUS  HZ EP        7 2 18.68                             145    0.4510 99.6 179 
 RUS  HN ES        7 2 36.61                             145   -0.4510 99.6 179 
 RUS  HZ I         7 2 38.11         8.5 0.23            147           99.6 179 
 SPBC HZ EP        7 2 23.36                             129    0.13 9  166 221 
 SPBC HN ES        7 2 46.05                             129    0.09 9  166 221 
 SPBC HZ I         7 2 51.33        17.4 0.31            130            166 221 
 ZAR  HZ EP        7 2 27.06                             123   -0.34 8  210 292 
 ZAR  HE ES        7 2 52.98                             123   -0.40 8  210 292 
 ZAR  HZ I         7 2 58.23        25.0 0.32            124            210 292 
 NOR  HZ EP        7 2 30.35                             119   -0.18 8  239 235 
 NOR  HN ES        7 2 59.31                             119    0.35 8  239 235 
 CBOC HZ EP        7 2 41.33                             110   -0.45 7  339 253 
                                                                                
