 2010  8 9 0918 29.0 L   6.765 -73.094142.0  RSN  5 0.2 1.2LRSN                1
 GAP=170        0.44       5.7     8.2  7.2  0.2004E+02 -0.3299E+02 -0.1464E+02E
 Epicentro: LOS SANTOS - SANTANDER                                             3
 ACTION:UP  10-09-07 10:53 OP:vdl  STATUS:               ID:20100809091829 L   I
 2010-08-09-0916-30S.COL___125                                                 6
 STAT SP IPHASW D HRMM SECON CODA AMPLIT PERI AZIMU VELO SNR AR TRES W  DIS CAZ7
 BAR2 SZ EP   1    918 48.21                             171     0.0 7   22 208 
 BAR2 SZ I         918 48.61         4.6 0.07                            22 208 
 BAR2 SZ ES   2    919  2.85                             171    -0.3 5   22 208 
 BTL  SZ EP   1    918 48.37                             169     0.1 7   26 312 
 BRR  HZ EP        918 50.01                             150    -0.210   78 299 
 BRR  HZ I         918 50.48         6.8 0.12                            78 299 
 BRR  HE ES   1    919  6.92                             150     0.2 7   78 299 
 RUS  HZ EP   2    918 52.34                             145     0.2 5   96 179 
 RUS  HN ES   3    919 10.28                             145     0.1 2   96 179 
 RUS  HZ I         919 13.17         1.7 0.24                            96 179 
 GUE  SZ EP   1    918 53.69                             138     0.0 7  119   9 
 GUE  SZ I         919 13.05         0.9 0.19                           119   9 
                                                                                
