 2014  6 9 0311 30.5 L   6.344 -73.648114.1  RSN  5 0.4 1.2LRSN                1
 GAP=138        0.83       5.1     3.9  7.8 -0.3275E+01  0.8736E+01  0.4149E+00E
 Epicentro: SANTA HELENA DEL OPON - SANTANDER                                  3
 ACTION:UPD 14-07-01 22:52 OP:nd   STATUS:               ID:20140609031130 L   I
 OLDACT:REG 14-06-09 13:03 OP:fm   STATUS:               ID:20140609030815     3
 2014-06-09-0308-15M.COL___256                                                 6
 STAT SP IPHASW D HRMM SECON CODA AMPLIT PERI AZIMU VELO AIN AR TRES W  DIS CAZ7
 BAR2 SZ EP        311 48.14                             151    0.3110 58.3  62 
 BAR2 SZ ES   1    312  1.17                             151   -0.20 7 58.3  62 
 BAR2 SZ I         312  2.91         6.3 0.52            157           58.3  62 
 RUS  HE ES   1    312  4.07                             143   -0.50 7 79.9 129 
 RUS  HZ I         312  5.47         2.4 0.28            147           79.9 129 
 SPBC HZ EP        311 49.78                             139   -0.0510 89.7 212 
 SPBC HN ES        312  5.40                             139    0.4810 89.7 212 
 SPBC HZ I         312  9.83         4.2 0.10            141           89.7 212 
 PTB  HZ EP        311 49.86                             138   -0.0510 92.0 284 
 PTB  HN ES        312  5.00                             138   -0.0610 92.0 284 
 PTB  HZ I         312  7.36         6.0 0.10            142           92.0 284 
 GUY2CHZ EP   1    312  4.52                             112    0.28 6  227 237 
 GUY2CHN ES   1    312 29.68                             112   -0.90 6  227 237 
 GUY2CHZ I         312 42.21         1.3 0.66                           227 237 
                                                                                
