 2011  3 9 0625 59.4 L   6.728 -73.176129.9  RSN  8 0.4 1.9LRSN                1
 GAP=133        0.65       3.3     6.2  7.1 -0.5859E+01  0.1895E+02  0.1787E+01E
 Epicentro: VILLANUEVA - SANTANDER                                             3
 ACTION:UP  11-06-16 14:32 OP:jfem STATUS:               ID:20110309062559 L   I
 2011-03-09-0623-45S.COL___135                                                 6
 STAT SP IPHASW D HRMM SECON CODA AMPLIT PERI AZIMU VELO SNR AR TRES W  DIS CAZ7
 BAR2 SZ EP   1    626 16.99                             173     0.0 8   15 183 
 BAR2 SZ ES   2    626 30.49                             173    -0.2 5   15 183 
 RUS  HZ EP   1    626 20.83                             143    -0.2 8   93 174 
 RUS  HE ES   2    626 38.08                             143     0.1 5   93 174 
 RUS  HZ I         626 41.38        10.1 0.41                            93 174 
 GRA  SZ IP        626 23.80                             131    -0.310  134  18 
 GRA  SZ I         626 25.10        20.7 0.35                           134  18 
 GRA  SZ ES   1    626 43.70                             131     0.4 7  134  18 
 YOP  SZ EP   1    626 27.61                             124    -0.2 7  173 151 
 YOP  SE ES   2    626 50.74                             124     0.8 5  173 151 
 YOP  SZ I         626 59.09         6.4 0.26                           173 151 
 CHI  HZ EP   1    626 35.14                             115    -0.2 6  240 195 
 CHI  HZ I         627 13.67         6.3 0.63                           240 195 
 HEL  HZ EP   1    626 38.64                             112     0.3 6  267 257 
 RREF HZ EP   1    626 44.64                             108     0.6 5  314 230 
 RREF HN ES   2    627 18.20                             108    -0.6 4  314 230 
 RREF HZ I         627 26.47         7.0 0.33                           314 230 
 PRA  HZ EP   1    626 51.54                             104     0.1 5  383 210 
 PRA  HE ES   2    627 32.47                             104     0.5 3  383 210 
                                                                                
