 2016  8 9 0324 11.9 L   6.757 -73.197138.0  RSN  5 0.4 1.4LRSN                1
 GAP=228        0.74       7.7     5.7  6.6  0.1996E+02  0.1137E+02  0.9267E+01E
 Epicentro: VILLANUEVA - SANTANDER                                             3
 ACTION:UPD 16-10-29 15:34 OP:rebc STATUS:               ID:20160809032411 L   I
 OLDACT:DUP 16-08-09 14:16 OP:ndl  STATUS:               ID:20160809031660d    3
 OLDACT:REG 16-08-09 12:57 OP:dnl  STATUS:               ID:20160809031659     3
 2016-08-09-0316-59S.COL___343                                                 6
 STAT SP IPHASW D HRMM SECON CODA AMPLIT PERI AZIMU VELO AIN AR TRES W  DIS CAZ7
 BAR2 EZ EP        324 30.63                             172    0.1310 18.2 175 
 BAR2 EZ ES        324 45.16                             172    0.1510 18.2 175 
 BAR2 EZ I         324 46.53         7.8 0.32                          18.2 175 
 BRR  HZ EP   3    324 32.44                             152    0.36 2 68.9 304 
 BRR  HE ES        324 47.70                             152   -0.1210 68.9 304 
 BRR  HZ I         324 52.53         7.9 0.46                          68.9 304 
 RUS  HZ EP   2    324 34.58                             143   -0.00 5 96.4 173 
 RUS  HE ES   2    324 51.33                             143   -0.94 5 96.4 173 
 RUS  HZ I         324 55.01         1.8 0.36                          96.4 173 
 PTB  HZ EP        324 37.52                             131   -0.13 9  141 260 
 PTB  HN ES        324 58.13                             131    0.39 9  141 260 
 PTB  HZ I         324 59.76         3.1 0.18                           141 260 
 ZAR  HZ EP   2    324 43.71                             121    0.21 4  201 294 
 ZAR  HN ES   2    325  6.94                             121   -1.21 4  201 294 
 ZAR  HZ I         325 10.11         3.0 0.40                           201 294 
                                                                                
