 2016  3 9 0041 38.2 L   6.840 -73.208140.0  RSN  6 0.1 1.6LRSN                1
 GAP=149        0.52       3.1     2.7  3.9 -0.3970E+01  0.3721E+01 -0.1012E+01E
 Epicentro: ZAPATOCA - SANTANDER                                               3
 ACTION:UPD 16-05-13 21:22 OP:cam  STATUS:               ID:20160309004138 L   I
 OLDACT:REG 16-03-09 12:45 OP:cara STATUS:               ID:20160309003749     3
 2016-03-09-0037-49M.COL___289                                                 6
 STAT SP IPHASW D HRMM SECON CODA AMPLIT PERI AZIMU VELO AIN AR TRES W  DIS CAZ7
 BAR2 EZ EP        041 57.15                             168   -0.0410 27.6 174 
 BAR2 EZ ES        042 12.16                             168    0.1210 27.6 174 
 BAR2 EZ I         042 13.46        11.3 0.18            171           27.6 174 
 PAM  EZ EP        041 59.89                             150    0.0510 78.7  45 
 PAM  EN ES        042 16.86                             150    0.1010 78.7  45 
 PAM  EZ I         042 19.09         8.5 0.52            153           78.7  45 
 RUS  HZ EP        042  1.47                             141   -0.2610  106 173 
 RUS  HN ES        042 20.17                             141    0.0510  106 173 
 RUS  HZ I         042 20.87         6.6 0.22            147            106 173 
 PTB  HZ EP        042  4.20                             132    0.07 9  142 257 
 PTB  HN ES        042 24.16                             132   -0.23 9  142 257 
 PTB  HZ I         042 32.45         3.2 0.20            132            142 257 
 NOR  HZ EP        042 13.29                             118    0.04 8  232 233 
 NOR  HN ES        042 40.76                             118    0.14 8  232 233 
 NOR  HZ I         042 42.30         4.9 0.14            120            232 233 
 GUY2CHZ EP   9    042 22.73                             112    1.56 0  298 233 
 GUY2CHE ES        042 56.89                                    0.61 7  298 233 
 GUY2CHZ I         043  3.41         2.4 0.30                           298 233 
                                                                                
