 2015  3 9 0238 43.3 L   6.951 -73.794 14.3  RSN  9 0.5 1.7LRSN                1
 GAP= 83        1.17       2.2     2.2  3.8  0.1109E+00  0.2007E+01  0.1690E+01E
 Epicentro: BARRANCABERMEJA - SANTANDER                                        3
 ACTION:UPD 15-04-30 16:24 OP:nd   STATUS:               ID:20150309023843 L   I
 OLDACT:UP  15-03-09 15:21 OP:cam  STATUS:               ID:20150309022748     3
 OLDACT:REG 15-03-09 13:56 OP:cam  STATUS:               ID:20150309022748     3
 2015-03-09-0227-48M.COL___278                                                 6
 STAT SP IPHASW D HRMM SECON CODA AMPLIT PERI AZIMU VELO AIN AR TRES W  DIS CAZ7
 BRR  HZ IP     C  238 47.45                             122    0.1210 19.5  28 
 BRR  HN ES        238 51.07                             122    0.6110 19.5  28 
 BRR  HZ I         238 51.19       187.6 0.10             95           19.5  28 
 BAR2 EZ EP        238 56.15                              98   -0.0110 78.4 120 
 BAR2 EZ ES        239  5.58                              98   -0.5910 78.4 120 
 BAR2 EZ I         239  6.70        17.8 0.26             91           78.4 120 
 PTB  HZ IP     D  238 57.08                              97   -0.0110 86.2 238 
 PTB  HN ES        239  7.71                              97   -0.1210 86.2 238 
 PTB  HZ I         239  9.50        37.8 0.16             91           86.2 238 
 PAM  SZ EP        239  4.24                              95    0.3110  128  70 
 PAM  SZ I         239 23.76         7.9 0.18             91            128  70 
 ZAR  HZ EP     D  239  3.60                              95   -0.3610  132 297 
 ZAR  HN ES        239 19.40                              95   -0.6610  132 297 
 ZAR  HN I         239 19.53        26.0 0.44             91            132 297 
 RUS  HZ EP        239  6.39                              94    0.53 9  141 146 
 RUS  HE ES        239 22.81                              94   -0.62 9  141 146 
 RUS  HZ I         239 24.28         4.9 0.12             91            141 146 
 SPBC HZ EP        239  6.20                              56    0.04 9  147 192 
 SPBC HN ES        239 24.35                              56    0.37 9  147 192 
 SPBC HZ I         239 26.45         7.6 0.10             91            147 192 
 OCA  HZ EP        239  7.16                              56    0.32 9  152  20 
 OCA  HN ES        239 24.45                              56   -0.74 9  152  20 
 OCA  HZ I         239 29.04        17.9 0.26             91            152  20 
 HEL  HZ EP        239 15.12                              56    0.80 8  209 246 
 HEL  HN ES        239 38.71                              56    0.22 8  209 246 
 HEL  HZ I         239 40.54         3.3 0.20             56            209 246 
                                                                                
