 2011 12 9 0558 34.9 L   6.755 -73.092150.7  RSN  8 0.3 2.0LRSN                1
 GAP=146        0.58       3.8     5.1  6.0 -0.8986E+01  0.1130E+02  0.2566E+01E
 Epicentro: LOS SANTOS - SANTANDER                                             3
 ACTION:UPD 12-07-13 16:15 OP:ep   STATUS:               ID:20111209055834 L   I
 2011-12-09-0555-36S.COL___144                                                 6
 STAT SP IPHASW D HRMM SECON CODA AMPLIT PERI AZIMU VELO AIN AR TRES W  DIS CAZ7
 BAR2 SZ EP   1    558 55.26                             172    0.18 7 20.6 209 
 BAR2 SZ ES   1    559 10.93                             172    0.11 7 20.6 209 
 BAR2 SZ I         559 13.24        21.0 0.35                          20.6 209 
 GIR2 SZ EP   1    558 55.28                             165   -0.06 7 37.5 343 
 PAM  SZ EP   1    558 57.87                             152    0.20 7 77.8  34 
 PAM  SN ES   1    559 15.18                             152   -0.25 7 77.8  34 
 RUS  HZ EP   1    558 58.46                             146   -0.32 7 95.4 179 
 RUS  HN ES   1    559 17.64                             146    0.23 7 95.4 179 
 RUS  HZ I         559 19.06        10.5 0.19                          95.4 179 
 CHI  HZ EP   1    559 12.92                             118    0.38 6  245 197 
 CHI  HN ES   1    559 41.37                             118   -0.53 6  245 197 
 CHI  HZ I         559 50.89         5.4 0.53                           245 197 
 HEL  HN ES   1    559 47.50                             115   -0.34 6  277 257 
 HEL  HZ I         559 53.90         8.8 0.36                           277 257 
 RREF HN ES   1    559 58.37                             112    0.67 5  323 231 
 RREF HZ I         6 0  7.41         7.6 0.24                           323 231 
 PRA  HE ES   1    6 0  9.87                             107   -0.34 4  391 211 
                                                                                
