 2010  7 9 0007 53.0 L   6.822 -73.029144.8  RSN  7 0.4 1.8LRSN                1
 GAP=195        0.77       4.4     8.6  6.1  0.8766E+01  0.1194E+01  0.8393E+01E
 Epicentro: CEPITA - SANTANDER                                                 3
 ACTION:UPD 10-12-01 15:16 OP:pat  STATUS:               ID:20100709000753 L   I
 2010-07-09-0000-00S.COL___113                                                 6
 STAT SP IPHASW D HRMM SECON CODA AMPLIT PERI AZIMU VELO AIN AR TRES W  DIS CAZ7
 BAR2 SZ EP   1    0 8 12.84                             168     0.2 7   31 214 
 BAR2 SZ ES   1    0 8 27.45                             168    -0.6 7   31 214 
 BAR2 SZ I         0 8 30.50        16.2 0.34                            31 214 
 BRR  HZ EP   1    0 8 14.57                             149    -0.1 7   82 293 
 BRR  HZ I         0 8 16.95        13.0 0.44                            82 293 
 BRR  HE ES        0 8 31.58                             149     0.010   82 293 
 RUS  HZ EP   1    0 8 16.88                             143     0.1 7  103 183 
 RUS  HN ES   1    0 8 36.10                             143     0.7 7  103 183 
 RUS  HZ I         0 8 36.65         6.9 0.26                           103 183 
 OCA  SZ EP   2    0 8 21.37                             129     0.2 5  160 348 
 OCA  SZ ES   2    0 8 43.35                             129     0.1 5  160 348 
 OCA  SZ I         0 8 47.62         7.4 0.40                           160 348 
 CHI  HZ EP        0 8 31.16                             116    -0.1 8  255 198 
 CHI  HZ I         0 8 31.91         3.2 0.10                           255 198 
 CHI  HE ES   2    0 9  0.52                             116    -0.6 4  255 198 
 RREF HZ EP   1    0 8 40.79                             110     0.4 5  333 231 
 RREF HN ES   2    0 9 17.83                             110     0.4 3  333 231 
 RREF HZ I         0 9 24.77         2.9 0.36                           333 231 
 PRA  HZ EP   1    0 8 46.79                             106    -0.7 4  401 211 
 PRA  HN ES   2    0 9 30.09                             106     0.1 3  401 211 
 PRA  HZ I         0 9 35.23         3.1 0.32                           401 211 
                                                                                
