 2015  2 9 0226  4.9 L   6.826 -73.152140.4  RSN  7 0.5 1.1LRSN                1
 GAP=134        1.23       5.4     5.2  9.7 -0.1470E+01  0.1008E+02  0.2617E+01E
 Epicentro: LOS SANTOS - SANTANDER                                             3
 ACTION:UPD 15-04-30 21:24 OP:nd   STATUS:               ID:20150209022604 L   I
 OLDACT:DUP 15-02-09 16:15 OP:fm   STATUS:               ID:20150209021743d    3
 2015-02-09-0217-42M.COL___296                                                 6
 STAT SP IPHASW D HRMM SECON CODA AMPLIT PERI AZIMU VELO AIN AR TRES W  DIS CAZ7
 BAR2 EZ EP   1    226 23.38                             169   -0.58 7 26.0 187 
 BAR2 EZ ES   1    226 38.97                             169    0.15 7 26.0 187 
 BAR2 EZ I         226 40.92         3.2 0.18            169           26.0 187 
 BRR  HZ EP        226 25.88                             152    0.5010 69.2 297 
 BRR  HN ES        226 41.79                             152    0.4610 69.2 297 
 BRR  HZ I         226 48.92         2.3 0.50            153           69.2 297 
 PAM  SZ EP        226 26.82                             150    0.3610 75.7  41 
 PAM  SN ES        226 42.89                             150   -0.3810 75.7  41 
 PAM  SZ I         226 44.56         2.6 0.26            156           75.7  41 
 RUS  HZ EP        226 28.87                             142    0.5110  103 176 
 RUS  HE ES        226 46.08                             142   -0.5610  103 176 
 RUS  HZ I         226 48.33         1.0 0.22            145            103 176 
 PTB  HZ EP        226 30.58                             131   -0.86 9  148 258 
 PTB  HN ES        226 51.94                             131   -0.19 9  148 258 
 PTB  HZ I         226 54.44         2.3 0.38            133            148 258 
 SPBC HN ES        226 55.81                             127    0.58 9  165 218 
 SPBC HZ I         227  0.71         3.2 0.30            131            165 218 
 ZAR  HN ES        227  1.44                             121   -0.30 9  202 291 
                                                                                
