 2016  1 9 0517 21.1 L   6.495 -73.639112.1  RSN  5 0.4 0.8LRSN                1
 GAP= 85        1.02       5.0     4.8  9.0 -0.3751E+01 -0.6634E-01  0.1395E+02E
 Epicentro: SANTA HELENA DEL OPON - SANTANDER                                  3
 ACTION:UPD 16-03-09 23:23 OP:cam  STATUS:               ID:20160109051721 L   I
 OLDACT:DUP 16-01-09 15:13 OP:drio STATUS:               ID:20160109050740d    3
 2016-01-09-0507-39M.COL___268                                                 6
 STAT SP IPHASW D HRMM SECON CODA AMPLIT PERI AZIMU VELO AIN AR TRES W  DIS CAZ7
 BAR2 EZ EP        517 37.80                             154   -0.0210 51.7  78 
 BAR2 EZ ES        517 50.47                             154   -0.4210 51.7  78 
 BRR  HZ EP        517 38.64                             146    0.1510 68.2 353 
 BRR  HE ES        517 52.56                             146    0.4810 68.2 353 
 PTB  HZ EP        517 40.30                             138    0.1210 90.5 273 
 PTB  HN ES        517 54.52                             138   -0.5710 90.5 273 
 PTB  HZ I         517 56.67         2.2 0.20            138           90.5 273 
 RUS  HZ EP        517 40.90                             139    0.0510 90.6 137 
 RUS  HZ I         517 57.47         0.8 0.70            128           90.6 137 
 SPBC HZ EP        517 41.08                             134   -0.4110  105 207 
 SPBC HE ES        517 58.04                             134    0.6110  105 207 
 SPBC HZ I         518  5.78         1.6 0.38            126            105 207 
                                                                                
