 2012  6 9 0422 31.9 L   6.834 -73.146140.9  RSN  8 0.4 1.7LRSN                1
 GAP=245        0.81       5.9     5.8  7.3  0.1403E+02  0.1406E+02  0.4130E+01E
 Epicentro: LOS SANTOS - SANTANDER                                             3
 ACTION:UPD 12-08-06 17:48 OP:ep   STATUS:               ID:20120609042240 L   I
 2012-06-09-0420-00M.COL___201                                                 6
 STAT SP IPHASW D HRMM SECON CODA AMPLIT PERI AZIMU VELO AIN AR TRES W  DIS CAZ7
 BAR2 SZ EP        422 51.07                             169    0.0310 27.0 189 
 BAR2 SZ ES   1    423  6.45                             169    0.48 7 27.0 189 
 BAR2 SZ I         423  8.81        13.5 0.24            169           27.0 189 
 RUS  HZ EP   1    422 55.14                             142   -0.33 7  104 176 
 RUS  HN ES        423 13.71                             142   -0.1410  104 176 
 RUS  HZ I         423 15.96         3.5 0.31            135            104 176 
 PTB  HZ EP   1    422 57.77                             131   -0.79 7  148 257 
 PTB  HN ES   1    423 18.70                             131   -0.64 7  148 257 
 PTB  HZ I         423 23.04         5.2 0.18            118            148 257 
 ZAR  HN ES   1    423 29.27                             121    0.43 6  203 291 
 ZAR  HZ I         423 36.36         6.5 0.12            109            203 291 
 NOR  SN ES   1    423 35.92                             117    0.49 6  237 234 
 CHI  HZ EP   1    423 10.27                             116    0.53 6  252 195 
 CHI  HN ES   1    423 39.25                             116    0.00 6  252 195 
 CHI  HZ I         423 43.41         2.8 0.26            107            252 195 
 HEL  HZ EP   1    423 12.43                             114    0.45 6  273 255 
 HEL  HZ I         423 51.22         4.5 0.19            104            273 255 
 PRA  HZ EP   1    423 25.84                             106    0.19 4  395 209 
                                                                                
