 2016 11 9 0343 58.4 L   7.525 -73.018151.8  RSN  5 0.5 1.0LRSN                1
 GAP=211        1.31      11.8     6.8 10.7 -0.7406E+01  0.2548E+02 -0.3810E+02E
 Epicentro: SURATA - SANTANDER                                                 3
 ACTION:UPD 17-10-26 21:06 OP:lp   STATUS:               ID:20161109034358 L   I
 OLDACT:DUP 16-11-09 16:15 OP:lv   STATUS:               ID:20161109033746d    3
 2016-11-09-0338-00M.COL___349                                                 6
 STAT SP IPHASW D HRMM SECON CODA AMPLIT PERI AZIMU VELO AIN AR TRES W  DIS CAZ7
 PAM  EZ EP        344 19.73                             164    0.1110 40.7 120 
 PAM  EE ES        344 35.64                             164   -0.5110 40.7 120 
 BRR  HZ EP        344 22.18                             148    0.8410 89.5 239 
 BRR  HE ES        344 40.11                             148    0.9110 89.5 239 
 BAR2 EZ EP        344 22.50                             144   -0.2310  105 190 
 BAR2 EZ ES        344 41.45                             144   -0.2210  105 190 
 BAR2 EZ I         344 43.63         1.9 0.13            141            105 190 
 PTB  HZ EP        344 30.23                             125    0.07 9  193 236 
 PTB  HE ES        344 54.52                             125   -0.38 9  193 236 
 PTB  HZ I         344 57.99         0.8 0.15            124            193 236 
 ZAR  HZ EP        344 30.97                             124   -0.22 9  203 269 
 ZAR  HN ES        344 56.03                             124   -0.71 9  203 269 
 ZAR  HZ I         344 57.74         0.8 0.10            123            203 269 
                                                                                
