 2016  2 9 0000 30.4 L   6.799 -73.180146.3  RSN 10 0.5 1.8LRSN                1
 GAP=132        1.04       3.1     4.5  6.9  0.3544E+00  0.1201E+02 -0.1715E+01E
 Epicentro: LOS SANTOS - SANTANDER                                             3
 ACTION:UPD 16-03-04 21:24 OP:rebc STATUS:               ID:20160209000030 L   I
 OLDACT:UP  16-02-09 13:21 OP:ak   STATUS:               ID:20160209000005     3
 OLDACT:REG 16-02-09 12:37 OP:ak   STATUS:               ID:20160209000005     3
 2016-02-09-0000-05M.COL___325                                                 6
 STAT SP IPHASW D HRMM SECON CODA AMPLIT PERI AZIMU VELO AIN AR TRES W  DIS CAZ7
 BAR2 EZ EP        0 0 50.24                             171    0.1210 22.8 181 
 BAR2 EZ ES        0 1  4.96                             171   -0.5110 22.8 181 
 PAM  EZ EP   3    0 0 53.20                             150    0.33 2 80.0  42 
 PAM  EN ES        0 1 10.87                             150    0.5110 80.0  42 
 PAM  EZ I         0 1 12.17        15.8 0.46            152           80.0  42 
 RUS  HZ EP        0 0 54.19                             144   -0.0710  101 174 
 RUS  HN ES        0 1 12.98                             144    0.1510  101 174 
 RUS  HZ I         0 1 13.80         5.3 0.22            146            101 174 
 PTB  HZ EP        0 0 57.19                             133    0.08 9  144 259 
 PTB  HN ES        0 1 17.75                             133   -0.16 9  144 259 
 PTB  HZ I         0 1 20.22        10.1 0.22            133            144 259 
 SPBC HZ EP   2    0 0 58.94                             130    0.19 5  161 218 
 SPBC HN ES        0 1 20.63                             130   -0.19 9  161 218 
 SPBC HZ I         0 1 23.47         7.8 0.17            130            161 218 
 ZAR  HZ EP   2    0 1  3.36                             123    0.80 4  201 293 
 ZAR  HN ES        0 1 28.61                             123    0.99 9  201 293 
 ZAR  HZ I         0 1 34.86        12.6 0.26            123            201 293 
 NOR  HN ES        0 1 33.88                             119    0.39 8  232 234 
 NOR  HZ I         0 1 36.29         4.0 0.22            120            232 234 
 SML  HZ EP        0 1  6.41                             118   -0.53 8  242 336 
 SML  HN ES        0 1 34.86                             118   -0.55 8  242 336 
 SML  HZ I         0 1 39.84        10.3 0.08            118            242 336 
 CHI  HZ EP        0 1  8.48                             117    0.43 8  248 194 
 CHI  HN ES        0 1 36.73                             117   -0.65 8  248 194 
 CHI  HZ I         0 1 41.10         2.0 0.46            119            248 194 
 MON  HE ES        0 1 56.30                             109   -0.80 6  351 309 
                                                                                
