 2010  6 9 0225 16.6 L   7.277 -73.881  8.9  RSN  7 0.4 1.7LRSN                1
 GAP=153        0.88       3.8     6.0  9.9  0.3875E+01  0.3208E+02  0.2389E+02E
 Epicentro: PUERTO WILCHES - SANTANDER                                         3
 ACTION:UP  10-08-24 10:09 OP:vdl  STATUS:               ID:20100609022516 L   I
 2010-06-09-0223-06S.COL___111                                                 6
 STAT SP IPHASW D HRMM SECON CODA AMPLIT PERI AZIMU VELO SNR AR TRES W  DIS CAZ7
 GIR2 SZ EP        225 29.76                              95     0.410   79 106 
 GIR2 SZ ES   2    225 38.39                              95    -0.9 5   79 106 
 BAR2 SZ EP   1    225 33.61                              94    -0.2 7  108 134 
 GUE  SZ EP   1    225 36.11                              93     0.1 7  122  60 
 OCA  SZ EP        225 35.93                              93    -0.110  123  30 
 OCA  SZ ES   1    225 50.51                              93    -0.7 7  123  30 
 OCA  SZ I         225 53.42        11.4 0.27                           123  30 
 GRA  SZ EP        225 38.47                              93     0.4 9  137  60 
 GRA  SZ ES   1    225 55.19                              93     0.4 7  137  60 
 RUS  HZ IP     C  225 43.90                              56    -0.2 9  177 150 
 RUS  HZ I         225 44.21        15.8 0.32                           177 150 
 RUS  HN ES   1    226  5.51                              56    -0.1 7  177 150 
 HEL  HE ES   2    226 14.63                              56     0.1 4  218 237 
 HEL  HZ I         226 18.50         2.9 0.19                           218 237 
                                                                                
