 2017  4 9 0107 52.4 L   6.828 -73.085146.5  RSN  9 0.4 1.5LRSN                1
 GAP=123        0.87       3.4     3.8  5.3  0.1101E+01  0.4925E+01  0.3909E+01E
 Epicentro: LOS SANTOS - SANTANDER                                             3
 ACTION:UPD 17-05-30 21:09 OP:jn   STATUS:               ID:20170409010752 L   I
 OLDACT:UP  17-04-09 13:24 OP:and  STATUS:               ID:20170409005745     3
 OLDACT:UP  17-04-09 13:24 OP:and  STATUS:               ID:20170409005745     3
 OLDACT:UP  17-04-09 13:24 OP:and  STATUS:               ID:20170409005745     3
 OLDACT:UP  17-04-09 13:23 OP:and  STATUS:               ID:20170409005745     3
 OLDACT:UP  17-04-09 13:22 OP:and  STATUS:               ID:20170409005745     3
 OLDACT:UP  17-04-09 13:22 OP:and  STATUS:               ID:20170409005745     3
 OLDACT:UP  17-04-09 13:22 OP:and  STATUS:               ID:20170409005745     3
 OLDACT:REG 17-04-09 12:33 OP:and  STATUS:               ID:20170409005745     3
 2017-04-09-0058-00M.COL___371                                                 6
 STAT SP IPHASW D HRMM SECON CODA AMPLIT PERI AZIMU VELO AIN AR TRES W  DIS CAZ7
 BAR2 EZ EP        1 8 11.86                             169   -0.3610 28.3 202 
 BAR2 EZ ES        1 8 27.70                             169    0.0210 28.3 202 
 BAR2 EZ I         1 8 29.79         5.8 0.21            168           28.3 202 
 PAM  EZ IP     C  1 8 14.60                             153    0.3010 70.7  37 
 PAM  EN ES        1 8 31.29                             153   -0.1110 70.7  37 
 PAM  EZ I         1 8 33.70         5.2 0.52            155           70.7  37 
 BRR  HZ EP        1 8 13.81                             151   -0.0710 75.9 294 
 BRR  HN ES        1 8 30.92                             151    0.2710 75.9 294 
 RUS  HZ EP        1 8 16.39                             143   -0.0310  103 180 
 RUS  HN ES        1 8 35.27                             143    0.1010  103 180 
 RUS  HZ I         1 8 36.55         4.8 0.40            144            103 180 
 PTB  HZ EP   3    1 8 18.83                             131   -1.25 2  155 258 
 PTB  HE ES     C  1 8 41.74                             131    0.07 9  155 258 
 PTB  HZ I         1 8 42.53         4.4 0.10            131            155 258 
 ZAR  HZ EP        1 8 26.29                             122    0.88 8  209 291 
 ZAR  HN ES        1 8 50.27                             122   -0.90 8  209 291 
 ZAR  HZ I         1 8 55.78         5.6 0.30            122            209 291 
 NOR  HZ EP        1 8 28.89                             118   -0.05 8  242 235 
 NOR  HE ES   2    1 8 58.15                             118    0.69 4  242 235 
 NOR  HZ I         1 9  3.41         2.4 0.12            118            242 235 
 CHI  HZ EP        1 8 30.45                             117   -0.20 8  253 196 
 CHI  HN ES        1 9  0.50                             117   -0.00 8  253 196 
 PTGC HZ EP   3    1 8 35.05                             112   -1.29 2  309 160 
                                                                                
