 2016 12 9 0521 23.5 L   6.708 -73.232146.0  RSN  4 0.4 1.2LRSN                1
 GAP=207        1.12       8.7     8.1  9.0  0.3413E+02  0.1007E+02  0.4807E+01E
 Epicentro: VILLANUEVA - SANTANDER                                             3
 ACTION:UPD 17-01-11 20:13 OP:rebc STATUS:               ID:20161209052123 L   I
 OLDACT:REG 16-12-09 12:29 OP:dnl  STATUS:               ID:20161209051739     3
 2016-12-09-0518-00M.COL___373                                                 6
 STAT SP IPHASW D HRMM SECON CODA AMPLIT PERI AZIMU VELO AIN AR TRES W  DIS CAZ7
 BAR2 EZ EP        521 42.74                             174   -0.3010 13.9 157 
 BAR2 EZ ES        521 57.61                             174   -0.6410 13.9 157 
 BAR2 EZ I         521 59.30         5.3 0.28            172           13.9 157 
 BRR  HZ EP        521 44.42                             153   -0.1610 69.0 310 
 BRR  HE ES        522  1.73                             153    0.7310 69.0 310 
 BRR  HZ I         522  5.71         3.0 0.16            151           69.0 310 
 RUS  HZ EP        521 46.84                             146    0.1610 91.6 170 
 RUS  HN ES        522  5.17                             146    0.4310 91.6 170 
 RUS  HZ I         522  6.64         2.3 0.32            148           91.6 170 
 PTB  HZ EP        521 49.69                             134    0.16 9  137 262 
 PTB  HE ES        522  9.40                             134   -0.40 9  137 262 
 PTB  HZ I         522 16.11         1.3 0.16            133            137 262 
                                                                                
