 2017  7 9 0014 25.8 L   6.818 -73.165146.8  RSN  8 0.4 2.0LRSN                1
 GAP=109        0.95       4.0     3.4  6.2  0.2303E+00  0.2874E+01  0.8136E+01E
 Epicentro: LOS SANTOS - SANTANDER                                             3
 ACTION:UPD 17-08-30 15:31 OP:rebc STATUS:               ID:20170709001425 L   I
 OLDACT:REG 17-07-09 12:45 OP:ar   STATUS:               ID:20170709000737     3
 2017-07-09-0008-00M.COL___380                                                 6
 STAT SP IPHASW D HRMM SECON CODA AMPLIT PERI AZIMU VELO AIN AR TRES W  DIS CAZ7
 BAR2 EZ EP        014 45.18                             170   -0.3810 25.1 184 
 BAR2 EZ ES        015  0.52                             170   -0.4810 25.1 184 
 BAR2 EZ I         015  1.28        27.2 0.36            168           25.1 184 
 BRR  HZ EP        014 47.10                             154    0.2210 68.4 298 
 BRR  HN ES        015  4.07                             154    0.7310 68.4 298 
 BRR  HZ I         015  4.70        15.5 0.32            152           68.4 298 
 PAM  EZ EP        014 48.24                             151    0.1510 77.2  42 
 PAM  EE ES        015  5.42                             151   -0.0810 77.2  42 
 PAM  EZ I         015  7.34        19.2 0.50            154           77.2  42 
 PTB  HZ EP        014 52.13                             133   -0.54 9  146 258 
 PTB  HN ES        015 13.03                             133   -0.62 9  146 258 
 PTB  HZ I         015 14.59         7.0 0.40            131            146 258 
 SPBC HZ EP        014 54.50                             129    0.13 9  163 218 
 SPBC HN ES        015 16.93                             129    0.25 9  163 218 
 SPBC HZ I         015 20.37        19.1 0.20            128            163 218 
 YPLC HZ EP        014 56.04                             126    0.13 9  180 151 
 YPLC HE ES        015 19.64                             126    0.21 9  180 151 
 ZAR  HZ EP   4    015  0.85                             123    2.85 0  201 292 
 ZAR  HN ES        015 23.23                             123    0.09 9  201 292 
 ZAR  HZ I         015 28.37        12.5 0.28            122            201 292 
 NOR  HZ EP        015  1.40                             119   -0.10 8  234 234 
 NOR  HN ES        015 29.79                             119    0.42 8  234 234 
 NOR  HZ I         015 38.52         6.7 0.44            118            234 234 
                                                                                
