 2017  7 9 0753  8.4 L   6.749 -73.172144.8  RSN  5 0.4 1.5LRSN                1
 GAP=240        0.97       5.8     6.3  7.1  0.5649E+01  0.9626E+01  0.1644E+01E
 Epicentro: LOS SANTOS - SANTANDER                                             3
 ACTION:UPD 17-08-30 15:31 OP:rebc STATUS:               ID:20170709075308 L   I
 OLDACT:UP  17-07-09 18:52 OP:ar   STATUS:               ID:20170709074739     3
 OLDACT:REG 17-07-09 14:19 OP:ar   STATUS:               ID:20170709074739     3
 2017-07-09-0748-00M.COL___365                                                 6
 STAT SP IPHASW D HRMM SECON CODA AMPLIT PERI AZIMU VELO AIN AR TRES W  DIS CAZ7
 BAR2 EZ EP        753 27.67                             173   -0.1810 17.4 184 
 BAR2 EZ ES        753 42.58                             173   -0.4110 17.4 184 
 BAR2 EZ I         753 45.84         8.1 0.66            170           17.4 184 
 BRR  HZ EP        753 29.63                             152    0.1210 71.6 304 
 BRR  HN ES        753 46.61                             152    0.6710 71.6 304 
 BRR  HZ I         753 49.94         4.2 0.30            154           71.6 304 
 PTB  HZ EP        753 34.65                             133   -0.33 9  144 261 
 PTB  HN ES        753 55.37                             133   -0.31 9  144 261 
 PTB  HZ I         753 58.09         3.6 0.74            134            144 261 
 SPBC HZ EP        753 36.39                             130    0.11 9  157 219 
 SPBC HN ES        753 58.39                             130    0.39 9  157 219 
 SPBC HZ I         754  4.01         5.2 0.38            131            157 219 
 ZAR  HZ EP        753 41.19                             122    0.41 9  204 294 
 ZAR  HN ES        754  5.50                             122   -0.50 9  204 294 
 ZAR  HZ I         754  7.62         2.8 0.10            125            204 294 
                                                                                
