 2010  6 9 0620 57.9 L   6.777 -72.865127.6  RSN  6 0.5 1.4LRSN                1
 GAP=191        0.86       7.2    17.4 11.9 -0.5306E+02 -0.5688E+02 -0.2132E+01E
 Epicentro: SAN ANDRES - SANTANDER                                             3
 ACTION:UP  10-08-24 10:09 OP:vdl  STATUS:               ID:20100609062057 L   I
 2010-06-09-0619-17S.COL___111                                                 6
 STAT SP IPHASW D HRMM SECON CODA AMPLIT PERI AZIMU VELO SNR AR TRES W  DIS CAZ7
 BAR2 SZ IP        621 15.64                             162    -0.210   41 240 
 BAR2 SZ ES   2    621 29.24                             162    -0.7 5   41 240 
 GIR2 SZ EP   1    621 15.69                             158    -0.4 7   49 313 
 GIR2 SZ ES   2    621 30.71                             158     0.4 5   49 313 
 RUS  HZ EP   1    621 19.76                             140    -0.1 7  101 194 
 RUS  HE ES   2    621 37.90                             140     0.8 5  101 194 
 RUS  HZ I         621 39.00         2.4 0.29                           101 194 
 GUE  SZ EP   2    621 20.93                             135     0.0 5  117 357 
 GRA  SZ EP   1    621 21.96                             133     0.7 7  123   3 
 RREF BZ I         622 22.92         1.8 0.25                           344 233 
 RREF BN ES   2    622 23.92                             106     0.5 3  344 233 
                                                                                
