 2012  4 9 0503 28.1 L   6.769 -73.170145.4  RSN  6 0.4 1.5LRSN                1
 GAP=135        1.01       6.6     5.7  9.5  0.9912E+00  0.6561E+01 -0.3014E+01E
 Epicentro: LOS SANTOS - SANTANDER                                             3
 ACTION:UPD 12-07-05 11:52 OP:tino STATUS:               ID:20120409050328 L   I
 2012-04-09-0500-00M.COL___196                                                 6
 STAT SP IPHASW D HRMM SECON CODA AMPLIT PERI AZIMU VELO AIN AR TRES W  DIS CAZ7
 BAR2 SZ EP   1    5 3 47.69                             172     0.1 7   20 184 
 BAR2 SZ ES   1    5 4  2.28                             172    -0.6 7   20 184 
 BAR2 SZ I         5 4  5.51        12.5 0.25                            20 184 
 BRR  HZ EP   1    5 3 49.50                             153     0.3 7   71 302 
 BRR  HE ES   1    5 4  6.53                             153     0.9 7   71 302 
 BRR  HZ I         5 4  8.97         7.2 0.24                            71 302 
 PAM  SZ EP        5 3 50.65                             149     0.110   82  39 
 PAM  SZ I         5 3 50.99         5.3 0.20                            82  39 
 PAM  SE ES   1    5 4  7.64                             149    -0.4 7   82  39 
 RUS  HZ EP   1    5 3 51.67                             145     0.1 7   97 174 
 RUS  HN ES   1    5 4 10.16                             145     0.3 7   97 174 
 RUS  HZ I         5 4 12.06         2.9 0.42                            97 174 
 PTB  HZ EP   1    5 3 54.39                             133    -0.4 7  144 260 
 PTB  HN ES   1    5 4 15.23                             133    -0.3 7  144 260 
 PTB  HZ I         5 4 18.07         3.1 0.15                           144 260 
 ZAR  HN ES   1    5 4 25.25                             122    -0.4 6  203 293 
 ZAR  HZ I         5 4 30.92         4.4 0.23                           203 293 
                                                                                
