 2013 12 9 0603 11.5 L   6.058 -74.122 89.4  RSN  6 0.3 1.2LRSN                1
 GAP= 89        0.87       3.2     3.8  7.1 -0.3974E+01 -0.5941E+01 -0.2075E+01E
 Epicentro: LA BELLEZA - SANTANDER                                             3
 ACTION:UPD 14-01-13 10:16 OP:ep   STATUS:               ID:20131209060311 L   I
 OLDACT:REG 13-12-09 06:20 OP:jn   STATUS:               ID:20131209060000     3
 2013-12-09-0600-00M.COL___285                                                 6
 STAT SP IPHASW D HRMM SECON CODA AMPLIT PERI AZIMU VELO AIN AR TRES W  DIS CAZ7
 SPBC HZ EP        6 3 25.34                             151    0.1310 45.2 173 
 SPBC HN ES        6 3 36.08                             151    0.1810 45.2 173 
 SPBC HZ I         6 3 37.17         3.4 0.16            152           45.2 173 
 PTB  HZ EP        6 3 25.89                             141   -0.5610 64.8 325 
 PTB  HN ES        6 3 38.02                             141   -0.1010 64.8 325 
 NOR  HZ EP        6 3 29.97                             128    0.4210 99.2 237 
 NOR  HN ES        6 3 43.41                             128   -0.2110 99.2 237 
 NOR  HZ I         6 3 46.49         4.9 0.22            130           99.2 237 
 RUS  HZ EP        6 3 31.60                             124   -0.2410  116  99 
 BAR2 SZ ES   1    6 3 47.23                             123   -0.46 7  120  60 
 BAR2 SZ I         6 3 48.96         8.0 0.16            125            120  60 
 BRR  HZ EP        6 3 32.22                             121    0.1810  125  21 
 BRR  HN ES        6 3 48.55                             121    0.4910  125  21 
 BRR  HZ I         6 3 49.02         3.0 0.18            123            125  21 
                                                                                
