 2013 11 9 0602 39.8 L   6.761 -73.174150.6  RSN  8 0.3 1.2LRSN                1
 GAP=135        0.87       4.3     4.5  8.0  0.4282E+01 -0.7981E+01 -0.1285E+02E
 Epicentro: LOS SANTOS - SANTANDER                                             3
 ACTION:UPD 14-01-09 16:26 OP:ep   STATUS:               ID:20131109060239 L   I
 OLDACT:REG 13-11-09 08:19 OP:stll STATUS:               ID:20131109055850     3
 2013-11-09-0558-50M.COL___210                                                 6
 STAT SP IPHASW D HRMM SECON CODA AMPLIT PERI AZIMU VELO AIN AR TRES W  DIS CAZ7
 BAR2 SZ EP        6 2 59.76                             173   -0.1410 18.6 183 
 BAR2 SZ I         6 3  0.26         5.9 0.26            173           18.6 183 
 BRR  HZ EP        6 3  1.75                             153    0.3310 70.7 303 
 BRR  HN ES        6 3 18.47                             153    0.1710 70.7 303 
 BRR  HZ I         6 3 22.48         3.5 0.12            138           70.7 303 
 PAM  SZ EP        6 3  2.78                             150   -0.0410 82.8  39 
 RUS  HZ EP        6 3  4.34                             146    0.6210 96.5 174 
 RUS  HN ES        6 3 21.98                             146   -0.4110 96.5 174 
 RUS  HZ I         6 3 22.91         1.8 0.24            142           96.5 174 
 PTB  HZ EP        6 3  6.90                             134    0.11 9  144 260 
 PTB  HZ I         6 3  8.33         1.3 0.16            123            144 260 
 PTB  HN ES        6 3 28.01                             134    0.14 9  144 260 
 SPBC HN ES        6 3 30.00                             131   -0.28 9  158 219 
 ZAR  HN ES        6 3 37.75                             123   -0.12 9  203 294 
 SML  HZ EP        6 3 16.26                             118   -0.70 8  246 336 
 SML  HZ I         6 4  0.18         1.7 0.10            104            246 336 
                                                                                
