 2016  6 9 0428 18.2 L   6.344 -73.530112.0  RSN  8 0.4 1.6LRSN                1
 GAP= 81        0.87       3.4     5.0  6.4 -0.1143E+01  0.9879E+00 -0.4236E+00E
 Epicentro: CONTRATACION - SANTANDER                                           3
 ACTION:UPD 16-07-21 22:16 OP:rebc STATUS:               ID:20160609042818 L   I
 OLDACT:UP  16-06-09 15:44 OP:dani STATUS:               ID:20160609041743     3
 OLDACT:REG 16-06-09 13:04 OP:dani STATUS:               ID:20160609041743     3
 2016-06-09-0417-43M.COL___337                                                 6
 STAT SP IPHASW D HRMM SECON CODA AMPLIT PERI AZIMU VELO AIN AR TRES W  DIS CAZ7
 BAR2 EZ EP     D  428 34.65                             155   -0.0310 47.2  54 
 BAR2 EZ I         428 49.14        24.0 0.25                          47.2  54 
 RUS  HZ EP        428 36.14                             146   -0.2810 70.3 135 
 RUS  HE ES        428 50.99                             146    0.3410 70.3 135 
 RUS  HZ I         428 52.20         4.7 0.16                          70.3 135 
 BRR  HZ EP        428 36.46                             139   -0.4910 86.8 347 
 BRR  HN ES        428 51.99                             139    0.3910 86.8 347 
 BRR  HZ I         428 58.21         7.8 0.32                          86.8 347 
 SPBC HZ EP     C  428 37.61                             136   -0.3210 97.2 218 
 SPBC HN ES   4    428 53.72                             136    0.37 0 97.2 218 
 SPBC HZ I         428 57.24        11.7 0.09                          97.2 218 
 PTB  HZ IP   9 D  428 37.21                             134   -1.27 0  105 282 
 PTB  HN ES        428 52.60                             135   -0.4610  105 282 
 PTB  HZ I         428 53.23         7.6 0.16                           105 282 
 PAM  EZ IP        428 42.68                             124   -0.11 9  143  40 
 PAM  EE ES        429  1.92                             124   -0.08 9  143  40 
 PAM  EZ I         429  4.06         3.2 0.25                           143  40 
 OCA  HZ EP        428 50.24                             113    0.63 8  211   6 
 OCA  HN ES   4    429 16.30                             113    2.17 0  211   6 
 OCA  HZ I         429 19.58        16.0 0.34                           211   6 
 PRA  HZ EP   2    429  3.49                             103    0.48 3  327 207 
 PRA  HN ES   2    429 38.30                             103    0.32 3  327 207 
 PRA  HZ I         429 42.78         2.1 0.22                           327 207 
                                                                                
