 2013  6 9 0632 49.8 L   6.793 -73.185152.0  RSN  6 0.4 1.8LRSN                1
 GAP=184        0.95       5.8     8.0 10.5 -0.5407E+01 -0.7795E+01  0.7250E-01E
 Epicentro: LOS SANTOS - SANTANDER                                             3
 ACTION:UPD 14-01-08 09:53 OP:ep   STATUS:               ID:20130609063249 L   I
 OLDACT:UP  13-06-09 12:52 OP:mh   STATUS:               ID:20130609063000     3
 OLDACT:REG 13-06-09 07:41 OP:mh   STATUS:               ID:20130609063000     3
 2013-06-09-0630-00M.COL___257                                                 6
 STAT SP IPHASW D HRMM SECON CODA AMPLIT PERI AZIMU VELO AIN AR TRES W  DIS CAZ7
 BAR2 SZ EP   1    633  9.36                             171   -0.82 7 22.2 179 
 BAR2 SZ I         633 25.98         3.8 0.26            161           22.2 179 
 BRR  HZ EP        633 11.81                             155    0.3510 67.8 301 
 BRR  HN ES        633 28.79                             155    0.4510 67.8 301 
 BRR  HN I         633 29.07        14.9 0.46            156           67.8 301 
 PTB  HZ EP   1    633 17.35                             135    0.44 7  143 259 
 PTB  HN ES   2    633 37.44                             135   -0.60 5  143 259 
 PTB  HN I         633 40.21         3.0 0.34            128            143 259 
 OCA  HE ES        633 40.85                             131   -0.29 9  161 355 
 OCA  HE I         633 43.76        18.5 0.18            126            161 355 
 ZAR  HN ES        633 47.16                             124   -0.47 9  200 293 
 ZAR  HN I         633 58.55         6.2 0.22            119            200 293 
 SML  HZ EP   1    633 26.82                             119    0.14 6  243 336 
 SML  HE ES        633 55.61                             119    0.17 8  243 336 
 SML  HN I         634  2.74         6.4 0.10            114            243 336 
                                                                                
