 2012  7 9 0839 48.0 L   6.820 -73.145143.8  RSN 11 0.4 1.6LRSN                1
 GAP=136        0.79       3.3     4.5  5.8 -0.5585E+00  0.7923E+01  0.2868E+01E
 Epicentro: LOS SANTOS - SANTANDER                                             3
 ACTION:UPD 12-08-14 11:43 OP:ep   STATUS:               ID:20120709083948 L   I
 2012-07-09-0837-42M.COL___208                                                 6
 STAT SP IPHASW D HRMM SECON CODA AMPLIT PERI AZIMU VELO AIN AR TRES W  DIS CAZ7
 BAR2 SZ EP        840  7.34                             169    -0.110   25 189 
 BAR2 SZ ES        840 22.49                             169    -0.110   25 189 
 BAR2 SZ I         840 23.82         8.8 0.33                            25 189 
 BRR  HZ EP   1    840  9.31                             152     0.4 7   70 297 
 BRR  HE ES   1    840 25.83                             152     0.7 7   70 297 
 BRR  HZ I         840 30.22        13.4 0.17                            70 297 
 PAM  SN ES   1    840 26.97                             151     0.0 7   76  41 
 RUS  HZ EP   2    840 11.07                             143    -0.6 5  103 176 
 RUS  HZ I         840 11.59         3.5 0.34                           103 176 
 RUS  HE ES   1    840 30.28                             143     0.1 7  103 176 
 PTB  HZ EP   2    840 14.41                             131    -0.4 5  148 258 
 PTB  HN ES   1    840 35.23                             131    -0.6 7  148 258 
 PTB  HZ I         840 41.01         5.3 0.31                           148 258 
 OCA  HZ EP   1    840 15.74                             130    -0.2 7  158 353 
 OCA  HN ES   1    840 37.31                             130    -0.4 7  158 353 
 ZAR  HE ES   1    840 45.43                             122     0.1 6  203 292 
 NOR  SE ES   2    840 51.09                             118    -0.5 4  236 234 
 CHI  HZ EP   1    840 26.74                             116     0.9 6  251 195 
 CHI  HN ES   2    840 55.05                             116    -0.2 4  251 195 
 HEL  HZ EP   2    840 28.81                             114     0.6 4  273 255 
 HEL  HN ES   2    841  0.01                             114     0.5 4  273 255 
 PRA  HZ EP   1    840 41.53                             106    -0.1 4  394 209 
 PRA  HE ES   1    841 23.20                             106    -0.3 4  394 209 
