 2016  3 9 0612 57.0 L   6.811 -73.128141.5  RSN 10 0.3 1.9LRSN                1
 GAP=138        0.82       2.4     3.3  5.0 -0.1603E+01  0.6460E+01 -0.3654E-02E
 Epicentro: LOS SANTOS - SANTANDER                                             3
 ACTION:UPD 16-05-13 21:22 OP:cam  STATUS:               ID:20160309061257 L   I
 OLDACT:DUP 16-03-09 17:25 OP:cara STATUS:               ID:20160309060751d    3
 2016-03-09-0607-50M.COL___289                                                 6
 STAT SP IPHASW D HRMM SECON CODA AMPLIT PERI AZIMU VELO AIN AR TRES W  DIS CAZ7
 BAR2 EZ EP        613 16.27                             170    0.1110 25.0 194 
 BAR2 EZ ES        613 30.93                             170   -0.1710 25.0 194 
 BAR2 EZ I         613 32.34        15.7 0.18            168           25.0 194 
 PAM  EZ IP        613 19.05                             151    0.4110 75.2  39 
 PAM  EE ES        613 36.04                             151    0.5310 75.2  39 
 PAM  EZ I         613 37.96        18.4 0.48            154           75.2  39 
 RUS  HZ EP        613 20.23                             142   -0.2010  102 177 
 RUS  HN ES        613 38.56                             142   -0.1310  102 177 
 RUS  HZ I         613 40.33        11.8 0.24            145            102 177 
 PTB  HZ EP        613 23.40                             131   -0.43 9  150 259 
 PTB  HN ES        613 44.28                             131   -0.47 9  150 259 
 PTB  HZ I         613 46.97        14.6 0.22            130            150 259 
 OCA  HZ EP        613 24.74                             129   -0.16 9  159 352 
 OCA  HN ES        613 45.99                             129   -0.66 9  159 352 
 OCA  HZ I         613 51.34        16.7 0.28            130            159 352 
 SPBC HZ EP        613 25.30                             128   -0.09 9  165 219 
 SPBC HN ES        613 47.81                             128    0.28 9  165 219 
 SPBC HZ I         613 54.07        12.5 0.32            128            165 219 
 ZAR  HZ EP        613 29.45                             121    0.13 8  205 292 
 ZAR  HN ES        613 54.97                             121    0.45 8  205 292 
 ZAR  HZ I         614  3.65         7.7 0.30            121            205 292 
 CHI  HZ EP        613 34.73                             116    0.07 8  250 196 
 CHI  HN ES        614  3.78                             116   -0.25 8  250 196 
 CHI  HZ I         614  7.31         2.1 0.48            118            250 196 
 GUY2CHZ EP   4    613 41.73                             111    1.05 0  303 235 
 GUY2CHN ES        614 15.17                             111    0.42 7  303 235 
 GUY2CHZ I         614 23.75         3.0 0.36                           303 235 
 CBOC HZ EP        613 44.17                             109    0.16 7  336 252 
 CBOC HN ES        614 20.97                             109    0.31 7  336 252 
 CBOC HZ I         614 32.63         1.7 0.36            110            336 252 
                                                                                
