 2013  6 9 0625 59.4 L   6.799 -73.139146.0  RSN 20 0.5 3.0LRSN                1
 GAP= 55        0.99       2.4     2.7  4.4 -0.1108E+01  0.1720E+01  0.1818E+01E
 Epicentro: LOS SANTOS - SANTANDER                                             3
 ACTION:UPD 14-01-08 09:53 OP:ep   STATUS:               ID:20130609062559 L   I
 OLDACT:UP  13-06-09 09:04 OP:mh   STATUS:               ID:20130609062000     3
 OLDACT:REG 13-06-09 07:41 OP:mh   STATUS:               ID:20130609062000     3
 2013-06-09-0620-00M.COL___257                                                 6
 STAT SP IPHASW D HRMM SECON CODA AMPLIT PERI AZIMU VELO AIN AR TRES W  DIS CAZ7
 BAR2 SZ IP     D  626 19.03                             170   -0.0010 23.4 192 
 BAR2 SZ ES        626 33.94                             170   -0.4210 23.4 192 
 BAR2 SZ I         626 35.47       129.3 0.32            169           23.4 192 
 BRR  HZ EP     C  626 20.88                             152    0.2910 71.9 298 
 BRR  HN ES        626 37.71                             152    0.5810 71.9 298 
 BRR  HZ I         626 41.02        92.7 0.38            152           71.9 298 
 PAM  SZ EP        626 22.00                             151    0.4110 77.0  39 
 PAM  SN ES        626 38.97                             151    0.0510 77.0  39 
 PAM  SN I         626 40.22       162.1 0.56            151           77.0  39 
 RUS  HZ EP     C  626 22.92                             144   -0.2110  100 176 
 RUS  HN ES   1    626 41.52                             144   -0.15 7  100 176 
 RUS  HZ I         626 43.30        72.6 0.44            142            100 176 
 PTB  HZ EP   1    626 25.61                             132   -0.81 7  148 259 
 PTB  HN ES        626 46.86                             132   -0.66 9  148 259 
 PTB  HN I         626 51.95       291.8 0.50            131            148 259 
 CAPV BZ EP        626 27.05                             132    0.30 9  149  38 
 CAPV BZ ES        626 47.98                             132   -0.13 9  149  38 
 TAM  HZ EP     D  626 27.35                             131    0.35 9  154 105 
 TAM  HZ I         626 48.23        37.8 0.34            130            154 105 
 TAM  HN ES   1    626 48.68                             131    0.14 7  154 105 
 OCA  HZ EP        626 27.45                             130   -0.27 9  160 353 
 OCA  HN ES   1    626 49.39                             130   -0.44 7  160 353 
 OCA  HN I         626 54.20       257.1 0.28            130            160 353 
 YOP  SZ EP        626 29.66                             126    0.27 9  178 154 
 YOP  SN ES   2    626 52.70                             126   -0.10 4  178 154 
 YOP  SZ I         626 54.19        85.7 0.30            125            178 154 
 ZAR  HZ EP   1    626 31.53                             122   -0.38 6  205 292 
 ZAR  HN ES   2    626 57.20                             122   -0.09 4  205 292 
 ZAR  HN I         627  3.78       139.8 0.42            122            205 292 
 NOR  HZ EP        626 34.67                             118   -0.50 8  235 235 
 NOR  HE ES   2    627  2.84                             118   -0.26 4  235 235 
 NOR  HE I         627  7.71       151.1 0.54            118            235 235 
 SML  HZ EP     C  626 35.37                             117   -0.69 8  244 335 
 SML  HN ES        627  5.07                             117    0.40 8  244 335 
 CHI  HZ EP   1    626 37.18                             117    0.09 6  249 195 
 CHI  HN ES        627  6.04                             117   -0.48 8  249 195 
 CHI  HZ I         627 11.98        33.7 0.30            116            249 195 
 ROSC BZ EP     C  626 38.55                             117    1.01 8  253 211 
 ROSC BN ES   4    627  8.76                             117    1.46 0  253 211 
 HEL  HZ EP        626 40.57                             115    0.89 8  273 256 
 HEL  HN ES        627 12.01                             115    0.90 8  273 256 
 HEL  HZ I         627 17.71        56.3 0.36            114            273 256 
 GUY2CHZ EP   1    626 43.17                             112    0.12 5  302 235 
 GUY2CHN ES        627 17.31                             112    0.18 7  302 235 
 GUY2CHN I         627 24.43        56.8 0.48                           302 235 
 VIL  SZ EP        626 42.69                             112   -0.12 7  303 192 
 VIL  SE ES        627 16.75                             112    0.07 7  303 192 
 VIL  SZ I         627 25.88        40.9 0.48            111            303 192 
 RREF HZ EP   4    626 47.45                             111    1.87 0  322 229 
 DBB  SZ EP        626 46.49                             109   -0.46 7  340 274 
 SDV  BZ EP        626 48.53                             108   -0.83 6  360  50 
 PRA  HZ EP        626 52.63                             106   -0.30 6  392 210 
 PRA  HN ES   2    627 34.34                             106   -0.37 3  392 210 
 PRA  HN I         627 40.69        23.8 0.40            106            392 210 
                                                                                
