 2011  8 9 0310 50.0 L   6.811 -73.065137.7  RSN  6 0.2 1.8LRSN                1
 GAP=191        0.46       2.3     5.0  4.0  0.1872E+01 -0.5588E+00  0.5062E+00E
 Epicentro: LOS SANTOS - SANTANDER                                             3
 ACTION:UPD 12-07-25 14:07 OP:epov STATUS:               ID:20110809031050 L   I
 2011-08-09-0309-16S.COL___144                                                 6
 STAT SP IPHASW D HRMM SECON CODA AMPLIT PERI AZIMU VELO AIN AR TRES W  DIS CAZ7
 BAR2 SZ EP        311  8.90                             168    0.1010 27.5 208 
 BAR2 SZ ES   1    311 23.44                             168    0.02 7 27.5 208 
 BAR2 SZ I         311 25.24        26.4 0.13                          27.5 208 
 BRR  HZ EP        311 10.83                             148    0.0510 78.6 295 
 BRR  HN ES   1    311 26.71                             148   -0.24 7 78.6 295 
 BRR  HZ I         311 31.82        13.3 0.13                          78.6 295 
 RUS  HZ EP        311 13.03                             142   -0.0610  102 181 
 RUS  HZ I         311 14.25         8.1 0.14                           102 181 
 RUS  HN ES   1    311 30.89                             142   -0.17 7  102 181 
 OCA  SZ EP   1    311 17.77                             128    0.03 7  160 350 
 OCA  SZ ES   2    311 39.72                             128    0.37 5  160 350 
 OCA  SZ I         311 44.19         8.2 0.33                           160 350 
 NOR  SZ EP   2    311 25.80                             116   -0.39 4  243 235 
 NOR  SE ES   2    311 54.59                             116    0.20 4  243 235 
 CHI  HZ EP   1    311 27.33                             115   -0.38 6  252 197 
 CHI  HN ES   1    311 57.65                             115    0.56 6  252 197 
 CHI  HZ I         312  3.46         2.9 0.36                           252 197 
                                                                                
