 2016  2 9 0552 33.3 L   6.856 -73.119141.6  RSN 11 0.4 1.8LRSN                1
 GAP=186        0.91       2.4     4.1  6.9 -0.7314E+00  0.3240E+01 -0.1051E+01E
 Epicentro: LOS SANTOS - SANTANDER                                             3
 ACTION:UPD 16-03-04 21:24 OP:rebc STATUS:               ID:20160209055233 L   I
 OLDACT:REG 16-02-09 12:59 OP:ak   STATUS:               ID:20160209054748     3
 2016-02-09-0547-48M.COL___325                                                 6
 STAT SP IPHASW D HRMM SECON CODA AMPLIT PERI AZIMU VELO AIN AR TRES W  DIS CAZ7
 RUS  HZ EP        552 57.24                             141    0.1910  107 178 
 RUS  HN ES        553 15.52                             141   -0.0910  107 178 
 RUS  HZ I         553 17.36         3.1 0.42            146            107 178 
 PTB  HZ EP        553  0.03                             130   -0.24 9  152 257 
 PTB  HN ES        553 20.45                             130   -0.89 9  152 257 
 PTB  HZ I         553 23.37         7.5 0.26            132            152 257 
 OCA  HZ EP        553  0.46                             130   -0.25 9  155 352 
 OCA  HN ES        553 22.84                             130    0.72 9  155 352 
 OCA  HZ I         553 31.98        12.7 0.14            133            155 352 
 SPBC HZ EP        553  2.61                             127    0.53 9  170 218 
 SPBC HN ES        553 24.40                             127   -0.17 9  170 218 
 SPBC HZ I         553 30.57         5.8 0.09            130            170 218 
 ZAR  HZ EP        553  5.25                             121   -0.24 9  205 290 
 ZAR  HN ES        553 30.95                             121    0.33 9  205 290 
 ZAR  HZ I         553 36.72        15.4 0.30            124            205 290 
 SML  HZ EP        553  8.69                             117   -0.49 8  239 334 
 SML  HN ES        553 37.07                             117   -0.13 8  239 334 
 SML  HZ I         553 40.65         6.5 0.12            120            239 334 
 NOR  HZ EP        553  9.49                             117    0.09 8  241 234 
 NOR  HN ES        553 38.16                             117    0.58 8  241 234 
 NOR  HZ I         553 46.41         4.1 0.22            120            241 234 
 CHI  HZ EP        553 11.42                             116   -0.05 8  255 195 
 CHI  HN ES        553 41.13                             116   -0.14 8  255 195 
 CHI  HZ I         553 48.16         3.2 0.52            120            255 195 
 URE  HZ EP   4    553 16.91                             113    2.73 0  284 291 
 URE  HN ES   4    553 42.60                             113   -3.50 0  284 291 
 URE  HZ I         553 53.81         5.0 0.30            115            284 291 
 GUY2CHZ EP        553 17.11                             111   -0.24 7  307 234 
 GUY2CHN ES        553 52.08                             111    0.33 7  307 234 
 GUY2CHZ I         554  0.81         2.6 0.44                           307 234 
 CBOC HZ EP        553 20.56                             109    0.02 7  338 251 
 CBOC HN ES        553 57.78                             109    0.35 7  338 251 
 CBOC HZ I         554  8.50         1.1 0.44            111            338 251 
                                                                                
