 2016  9 9 0454 54.5 L   6.743 -73.160156.8  RSN  5 0.1 1.2LRSN                1
 GAP=137        0.34       3.6     2.5  4.1 -0.1878E+01 -0.3546E+01  0.1412E+01E
 Epicentro: LOS SANTOS - SANTANDER                                             3
 ACTION:UPD 17-08-17 21:08 OP:lp   STATUS:               ID:20160909045454 L   I
 OLDACT:DUP 16-09-09 15:58 OP:dani STATUS:               ID:20160909044738d    3
 OLDACT:UP  16-09-09 15:57 OP:dani STATUS:               ID:20160909044737     3
 OLDACT:UP  16-09-09 15:57 OP:dani STATUS:               ID:20160909044737     3
 OLDACT:UP  16-09-09 15:56 OP:dani STATUS:               ID:20160909044737     3
 OLDACT:UP  16-09-09 15:56 OP:dani STATUS:               ID:20160909044737     3
 OLDACT:UP  16-09-09 15:55 OP:dani STATUS:               ID:20160909044737     3
 OLDACT:REG 16-09-09 12:36 OP:dani STATUS:               ID:20160909044737     3
 2016-09-09-0448-00M.COL___359                                                 6
 STAT SP IPHASW D HRMM SECON CODA AMPLIT PERI AZIMU VELO AIN AR TRES W  DIS CAZ7
 BAR2 HZ EP        455 15.29                             174   -0.1010 16.9 188 
 BRR  HZ EP        455 17.16                             154    0.1810 73.1 303 
 BRR  HE ES        455 34.47                             154   -0.0310 73.1 303 
 BRR  HZ I         455 39.53         2.8 0.20            154           73.1 303 
 PAM  HZ EP        455 18.23                             151   -0.0410 83.3  38 
 RUS  HN ES   2    455 38.16                             148    0.12 5 94.5 175 
 PTB  HZ EP        455 22.16                             135   -0.03 9  145 261 
 PTB  HN ES        455 43.74                             135   -0.02 9  145 261 
 PTB  HZ I         455 45.03         1.6 0.15            138            145 261 
                                                                                
