 2012 10 9 0931 23.4 L   6.773 -73.151145.4  RSN  4 0.2 1.4LRSN                1
 GAP=137        0.42       4.5     4.4  6.1  0.8954E+01 -0.2978E+01 -0.1135E+02E
 Epicentro: LOS SANTOS - SANTANDER                                             3
 ACTION:UPD 12-11-22 17:02 OP:ep   STATUS:               ID:20121009093123 L   I
 2012-10-09-0930-00M.COL___223                                                 6
 STAT SP IPHASW D HRMM SECON CODA AMPLIT PERI AZIMU VELO AIN AR TRES W  DIS CAZ7
 BAR2 SZ EP   1    931 42.94                             172    0.07 7 20.3 190 
 BAR2 SZ ES   1    931 58.27                             172    0.17 7 20.3 190 
 BAR2 SZ I         931 59.45         7.3 0.35                          20.3 190 
 PAM  SZ EP   1    931 45.54                             150   -0.15 7 80.1  39 
 RUS  HZ EP   1    931 47.06                             145    0.21 7 97.7 176 
 RUS  HN ES   1    932  4.93                             145   -0.25 7 97.7 176 
 RUS  HN I         932  5.71         3.1 0.28                          97.7 176 
 ZAR  HN ES   1    932 21.09                             122   -0.06 6  205 293 
                                                                                
