 2013  7 9 0039 58.6 L   6.937 -73.599111.5  RSN 12 0.4 2.2LRSN                1
 GAP=118        0.91       2.5     3.3  6.0  0.3767E+00  0.6378E+01 -0.1773E+01E
 Epicentro: SAN VICENTE DE CHUCURI - SANTANDER                                 3
 ACTION:UPD 13-08-12 10:36 OP:ep   STATUS:               ID:20130709003958 L   I
 OLDACT:REG 13-07-09 07:25 OP:nd   STATUS:               ID:20130709003959     3
 2013-07-09-0039-59M.COL___266                                                 6
 STAT SP IPHASW D HRMM SECON CODA AMPLIT PERI AZIMU VELO AIN AR TRES W  DIS CAZ7
 BRR  HZ IP     D  040 13.75                             168    0.0410 22.6 326 
 BRR  HN ES        040 25.43                             168   -0.1010 22.6 326 
 BRR  HZ I         040 26.38        45.7 0.22            164           22.6 326 
 BAR2 SZ IP     C  040 16.19                             150    0.4710 59.8 130 
 BAR2 SZ ES        040 28.89                             150   -0.2110 59.8 130 
 BAR2 SZ I         040 31.09        57.0 0.32            144           59.8 130 
 PTB  HZ IP     C  040 18.00                             133   -0.8210  105 245 
 PTB  HN ES   4    040 32.54                             133   -2.08 0  105 245 
 PTB  HZ I         040 34.10        40.1 0.10            129            105 245 
 RUS  HZ EP        040 21.92                             127    0.2010  129 154 
 RUS  HE ES        040 39.80                             127    0.0210  129 154 
 RUS  HZ I         040 41.89        14.4 0.50            122            129 154 
 OCA  HZ EP        040 23.40                             123    0.30 9  147  12 
 OCA  HN ES        040 42.32                             123    0.07 9  147  12 
 OCA  HZ I         040 46.75        35.9 0.28            117            147  12 
 ZAR  HZ EP        040 23.47                             122    0.06 9  152 294 
 ZAR  HE ES        040 43.10                             122    0.31 9  152 294 
 ZAR  HZ I         040 45.39        59.9 0.28            117            152 294 
 NOR  HZ EP   4    040 31.21                             113    1.79 0  207 223 
 NOR  HN ES        040 53.31                             113   -0.18 8  207 223 
 NOR  HZ I         040 57.67        11.1 0.56            110            207 223 
 SML  HZ EP        040 29.29                             113   -0.68 8  213 346 
 SML  HN ES        040 54.51                             113    0.03 8  213 346 
 SML  HZ I         040 55.17        40.9 0.32            108            213 346 
 HEL  HZ EP   4    040 33.82                             111    1.53 0  229 249 
 HEL  HN ES        040 59.10                             111    0.50 8  229 249 
 HEL  HZ I         041  4.22         9.0 0.30            108            229 249 
 GUY2CHZ EP   4    040 39.73                             107    2.30 0  272 226 
 GUY2CHN ES   4    041 10.43                             107    2.69 0  272 226 
 GUY2CHZ I         041 18.19         6.7 0.62                           272 226 
 COD  HZ EP   4    040 47.62                             103    3.75 0  332   3 
 COD  HN ES   4    041 21.14                             103    1.92 0  332   3 
 COD  HZ I         041 44.10         4.1 0.52            101            332   3 
 PRA  HZ EP   4    040 54.17                             100    4.03 0  384 202 
 PRA  HN ES   4    041 34.71                             100    4.33 0  384 202 
 PRA  HZ I         041 40.59         2.6 0.24            100            384 202 
                                                                                
