 2012  6 9 0546 34.9 L   6.375 -73.649103.4  RSN  7 0.5 1.9LRSN                1
 GAP= 75        1.10       5.1     4.3 10.0  0.2089E+01  0.1089E+02  0.8010E+00E
 Epicentro: SANTA HELENA DEL OPON - SANTANDER                                  3
 ACTION:UPD 12-08-06 17:48 OP:ep   STATUS:               ID:20120609054635 L   I
 2012-06-09-0540-00M.COL___201                                                 6
 STAT SP IPHASW D HRMM SECON CODA AMPLIT PERI AZIMU VELO AIN AR TRES W  DIS CAZ7
 BAR2 SZ EP        546 51.23                             149    0.2210 56.9  65 
 BAR2 SZ ES   1    547  4.02                             149    0.43 7 56.9  65 
 BAR2 SZ I         547  5.04        49.4 0.18            148           56.9  65 
 RUS  HZ EP        546 52.96                             138   -0.2410 82.3 130 
 RUS  HN ES   1    547  7.54                             138    0.05 7 82.3 130 
 RUS  HZ I         547  8.98         5.5 0.21            142           82.3 130 
 PTB  HZ EP        546 52.52                             135   -0.7610 91.1 282 
 PTB  HN ES        547  7.16                             135   -0.4610 91.1 282 
 PTB  HZ I         547  9.41        11.5 0.09            136           91.1 282 
 NOR  SZ EP   1    547  0.16                             117   -0.22 7  162 236 
 NOR  SE ES   1    547 21.19                             117    0.93 7  162 236 
 ZAR  HZ EP   1    547  2.70                             114    0.21 7  182 313 
 ZAR  HE ES   1    547 25.05                             114    1.03 7  182 313 
 ZAR  HZ I         547 28.07        14.7 0.20            115            182 313 
 OCA  HN ES   1    547 29.69                             110   -0.15 6  209  10 
 OCA  HZ I         547 33.89        12.6 0.30            111            209  10 
 PRA  HZ EP   1    547 19.79                             101    0.60 5  325 205 
                                                                                
