 2013  2 9 0401  6.5 L   6.764 -73.146142.5  RSN 10 0.3 2.5LRSN                1
 GAP=138        0.76       2.8     3.4  4.4  0.3262E+00  0.3763E+01  0.1113E+01E
 Epicentro: LOS SANTOS - SANTANDER                                             3
 ACTION:UPD 13-03-12 09:31 OP:ep   STATUS:               ID:20130209040106 L   I
 2013-02-09-0400-00M.COL___240                                                 6
 STAT SP IPHASW D HRMM SECON CODA AMPLIT PERI AZIMU VELO AIN AR TRES W  DIS CAZ7
 BAR2 SZ IP        4 1 25.67                             172    0.0510 19.4 192 
 BAR2 SZ ES        4 1 40.63                             172    0.0610 19.4 192 
 BAR2 SZ I         4 1 41.70       111.2 0.17            169           19.4 192 
 BRR  HZ EP        4 1 27.65                             151    0.2810 73.2 301 
 BRR  HE ES        4 1 44.18                             151    0.5010 73.2 301 
 BRR  HE I         4 1 44.99       116.5 0.29            148           73.2 301 
 PAM  SZ EP        4 1 28.72                             149    0.2010 80.5  38 
 PAM  SE ES        4 1 45.25                             149   -0.4810 80.5  38 
 RUS  HZ EP        4 1 29.66                             144    0.0610 96.6 176 
 RUS  HZ IP   1 C  4 1 29.67                             144    0.07 7 96.6 176 
 RUS  HE ES   1    4 1 47.44                             144   -0.22 7 96.6 176 
 RUS  HE I         4 1 49.14        43.1 0.11            145           96.6 176 
 PTB  HZ EP        4 1 32.41                             131   -0.68 9  147 260 
 PTB  HE ES   1    4 1 53.25                             131   -0.62 7  147 260 
 PTB  HZ I         4 1 56.54        38.8 0.12            130            147 260 
 OCA  HZ EP   1    4 1 35.37                             128    0.48 7  164 353 
 ZAR  HZ EP   1    4 1 38.67                             121   -0.18 6  206 293 
 ZAR  HE ES   1    4 2  4.24                             121    0.13 6  206 293 
 ZAR  HZ I         4 2 10.00        19.9 0.29            121            206 293 
 CHI  HZ EP        4 1 43.68                             117    0.12 8  245 195 
 CHI  HE ES   1    4 2 12.79                             117    0.29 6  245 195 
 SML  HZ EP   1    4 1 42.85                             116   -0.45 6  247 336 
 SML  HN ES   1    4 2 11.99                             116   -0.04 6  247 336 
 SML  HZ I         4 2 12.94        20.8 0.33            117            247 336 
 HEL  HZ EP   1    4 1 46.65                             114    0.25 6  271 257 
 HEL  HN ES   1    4 2 17.63                             114    0.08 6  271 257 
 HEL  HZ I         4 2 24.70        11.3 0.38            114            271 257 
                                                                                
