 2017  5 9 0956 43.2 L   6.798 -73.144139.3  RSN 13 0.4 1.9LRSN                1
 GAP=112        0.86       2.8     2.8  4.9  0.1102E+01  0.3565E+01  0.3527E+01E
 Epicentro: LOS SANTOS - SANTANDER                                             3
 ACTION:UPD 17-06-16 13:34 OP:jn   STATUS:               ID:20170509095643 L   I
 OLDACT:DUP 17-05-09 18:28 OP:lv   STATUS:               ID:20170509094743d    3
 2017-05-09-0948-00M.COL___343                                                 6
 STAT SP IPHASW D HRMM SECON CODA AMPLIT PERI AZIMU VELO AIN AR TRES W  DIS CAZ7
 BRR  HZ EP        957  3.76                             151    0.1010 71.5 299 
 BRR  HN ES        957 19.88                             151    0.2510 71.5 299 
 BRR  HZ I         957 23.99        14.9 0.17            150           71.5 299 
 PAM  EZ EP        957  4.98                             150    0.2610 77.4  39 
 PAM  EN ES        957 21.54                             150    0.0210 77.4  39 
 RUS  HZ EP        957  6.01                             142   -0.2910  100 176 
 RUS  HN ES        957 24.53                             142    0.2110  100 176 
 PTB  HZ EP        957  9.03                             130   -0.63 9  148 259 
 PTB  HN ES        957 29.60                             130   -0.70 9  148 259 
 PTB  HZ I         957 35.88         7.8 0.53            131            148 259 
 SPBC HZ EP        957 10.87                             127   -0.33 9  163 219 
 SPBC HN ES        957 32.99                             127   -0.06 9  163 219 
 YPLC HZ IP     C  957 12.48                             125   -0.02 9  177 151 
 YPLC HN ES        957 35.34                             125   -0.02 9  177 151 
 YPLC HZ I         957 38.92         6.5 0.37            128            177 151 
 ZAR  HZ EP        957 14.93                             121   -0.32 9  204 292 
 ZAR  HN ES        957 40.20                             121   -0.06 9  204 292 
 ZAR  HZ I         957 46.98        13.2 0.12            122            204 292 
 NOR  HZ EP        957 18.72                             117    0.16 8  235 235 
 NOR  HN ES        957 46.08                             117   -0.07 8  235 235 
 NOR  HZ I         957 50.18         8.8 0.45            118            235 235 
 CHI  HZ EP        957 20.25                             116   -0.28 8  249 195 
 CHI  HN ES        957 49.84                             116    0.19 8  249 195 
 HEL  HZ EP        957 23.51                             113    0.41 8  272 256 
 HEL  HN ES        957 55.19                             113    0.96 8  272 256 
 HEL  HZ I         958  0.32         6.8 0.16            115            272 256 
 CBOC HZ EP        957 30.51                             109    0.65 7  334 252 
 CBOC HN ES   4    958  7.89                             109    1.63 0  334 252 
 ORTC HZ EP        957 37.48                             105    0.59 6  395 216 
 ORTC HN ES   4    958 20.91                             105    2.13 0  395 216 
 ORTC HZ I         958 24.69         2.3 0.36            107            395 216 
 PAL  HZ EP        957 37.99                             105   -0.16 6  406 239 
 PAL  HN ES   4    958 23.02                             105    2.00 0  406 239 
 PAL  HZ I         958 25.81                             106            406 239 
 SJC  HZ EP   4    957 36.67                             105   -1.91 0  409 327 
 SJC  HN ES   4    958 18.10                             105   -3.68 0  409 327 
                                                                                
