 2016  1 9 0321 53.0 L   6.795 -73.184152.7  RSN  4 0.4 1.2LRSN                1
 GAP=233        1.01       6.4     7.6  9.1  0.1445E+02 -0.5209E+01  0.1920E+01E
 Epicentro: ZAPATOCA - SANTANDER                                               3
 ACTION:UPD 16-03-09 23:23 OP:cam  STATUS:               ID:20160109032153 L   I
 OLDACT:REG 16-01-09 12:53 OP:drio STATUS:               ID:20160109031750     3
 2016-01-09-0317-50M.COL___285                                                 6
 STAT SP IPHASW D HRMM SECON CODA AMPLIT PERI AZIMU VELO AIN AR TRES W  DIS CAZ7
 BRR  HZ EP        322 14.86                             155    0.1210 67.8 301 
 BRR  HE ES        322 32.03                             155    0.3410 67.8 301 
 BRR  HZ I         322 32.14         3.7 0.54            150           67.8 301 
 RUS  HZ EP        322 17.48                             145    0.0310  100 174 
 RUS  HN ES        322 36.09                             145   -0.4110  100 174 
 RUS  HZ I         322 37.52         1.7 0.54            142            100 174 
 PTB  HZ EP        322 19.85                             134   -0.34 9  144 259 
 PTB  HN ES        322 40.78                             134   -0.61 9  144 259 
 PTB  HZ I         322 47.64         1.8 0.32            130            144 259 
 SPBC HZ EP        322 22.01                             131    0.23 9  160 218 
 SPBC HN ES        322 44.89                             131    0.68 9  160 218 
 SPBC HZ I         322 51.08         2.4 0.24            127            160 218 
                                                                                
