 2010  9 9 0819 36.4 L   6.789 -73.058144.2  RSN  9 0.4 2.0LRSN                1
 GAP=169        0.60       3.9     7.9  5.9 -0.1266E+02 -0.3268E+01  0.2288E+01E
 Epicentro: LOS SANTOS - SANTANDER                                             3
 ACTION:UP  11-02-18 11:01 OP:tino STATUS:               ID:20100909081936 L   I
 2010-09-09-0817-23S.COL___120                                                 6
 STAT SP IPHASW D HRMM SECON CODA AMPLIT PERI AZIMU VELO SNR AR TRES W  DIS CAZ7
 BAR2 SZ EP   1    819 55.80                             169    -0.1 8   26 213 
 BAR2 SZ ES   2    820 10.98                             169    -0.1 5   26 213 
 BAR2 SZ I         820 12.39        20.7 0.13                            26 213 
 GIR2 SZ EP   1    819 55.91                             166     0.0 8   35 335 
 GIR2 SZ ES   2    820 11.57                             166     0.3 5   35 335 
 BRR  HZ EP   1    819 57.60                             149    -0.3 8   80 296 
 BRR  HZ I         819 57.82        34.4 0.11                            80 296 
 BRR  HN ES   2    820 14.75                             149     0.1 5   80 296 
 RUS  HZ EP   1    819 59.83                             144     0.0 8   99 182 
 RUS  HZ I         820  0.63         6.6 0.27                            99 182 
 RUS  HN ES   2    820 18.44                             144     0.3 5   99 182 
 GUE  SZ EP   1    820  0.76                             139    -0.1 8  116   7 
 GRA  SZ IP     D  820  1.66                             137     0.310  124  13 
 GRA  SZ ES   2    820 20.15                             137    -0.7 5  124  13 
 OCA  SZ ES   3    820 27.05                             129     0.1 2  163 350 
 OCA  SZ I         820 30.76        12.2 0.19                           163 350 
 RREF HZ EP   2    820 24.33                             110     1.1 3  328 231 
 RREF HE ES   3    821  0.28                             110     0.6 2  328 231 
 RREF HZ I         821  5.70         4.3 0.52                           328 231 
 PRA  HZ EP   1    820 29.83                             106    -0.4 4  396 211 
 PRA  HN ES   2    821 11.68                             106    -0.6 3  396 211 
 PRA  HZ I         821 17.26         3.2 0.30                           396 211 
                                                                                
