 2016  7 9 0117 18.2 L   6.812 -73.125140.1  RSN  8 0.4 1.7LRSN                1
 GAP=241        0.89       4.0     4.9  5.4  0.7567E+01  0.8738E+01  0.5560E+01E
 Epicentro: LOS SANTOS - SANTANDER                                             3
 ACTION:UPD 17-03-29 16:48 OP:lp   STATUS:               ID:20160709011718 L   I
 OLDACT:DUP 16-07-09 15:13 OP:edw  STATUS:               ID:20160709010747d    3
 2016-07-09-0107-46M.COL___343                                                 6
 STAT SP IPHASW D HRMM SECON CODA AMPLIT PERI AZIMU VELO AIN AR TRES W  DIS CAZ7
 BAR2 EZ ES        117 51.97                             169    0.0210 25.1 195 
 BAR2 EZ I         117 53.46        16.2 0.28            168           25.1 195 
 BRR  HZ EP        117 39.02                             151    0.2410 72.7 297 
 BRR  HE ES        117 55.06                             151    0.1910 72.7 297 
 BRR  HZ I         117 59.30         7.2 0.14            149           72.7 297 
 RUS  HZ EP        117 41.36                             142   -0.0810  102 177 
 RUS  HE ES        117 59.76                             142    0.1610  102 177 
 RUS  HZ I         118  0.91         5.1 0.20            144            102 177 
 PTB  HZ EP        117 44.01                             130   -0.89 9  150 259 
 PTB  HN ES        118  5.14                             130   -0.63 9  150 259 
 PTB  HZ I         118  6.93         6.4 0.10            130            150 259 
 ZAR  HZ EP        117 50.48                             121    0.07 8  206 292 
 ZAR  HN ES        118 15.94                             121    0.37 8  206 292 
 ZAR  HZ I         118 22.47         5.8 0.18            122            206 292 
 NOR  HZ EP        117 53.89                             117    0.04 8  237 235 
 NOR  HN ES        118 21.62                             117   -0.07 8  237 235 
 NOR  HZ I         118 26.23         4.8 0.16            118            237 235 
 CHI  HZ EP        117 55.72                             116   -0.03 8  251 196 
 CHI  HN ES        118 25.02                             116   -0.06 8  251 196 
 CHI  HZ I         118 27.19         5.0 0.38            117            251 196 
 GUY2CHZ EP        118  2.20                             111    0.39 7  304 235 
 GUY2CHN ES        118 36.57                             111    0.71 7  304 235 
 GUY2CHZ I         118 43.69         2.7 0.60                           304 235 
                                                                                
