 2015  1 9 0722 53.1 L   6.715 -73.192146.7  RSN  4 0.1 1.2LRSN                1
 GAP=228        0.31       3.6     2.7  3.1  0.2527E+01  0.3414E+01  0.1547E+00E
 Epicentro: VILLANUEVA - SANTANDER                                             3
 ACTION:UPD 15-03-02 15:38 OP:nd   STATUS:               ID:20150109072253 L   I
 OLDACT:REG 15-01-09 15:12 OP:cam  STATUS:               ID:20150109071819     3
 2015-01-09-0718-19M.COL___259                                                 6
 STAT SP IPHASW D HRMM SECON CODA AMPLIT PERI AZIMU VELO AIN AR TRES W  DIS CAZ7
 BAR2 EZ ES        723 27.89                             174   -0.0410 13.6 175 
 BRR  HZ EP        723 14.34                             152   -0.0210 72.0 307 
 BRR  HN ES        723 31.05                             152    0.0810 72.0 307 
 BRR  HN I         723 35.57         4.8 0.18            151           72.0 307 
 PTB  HZ EP        723 19.57                             134    0.05 9  141 262 
 PTB  HN ES        723 40.15                             134   -0.00 9  141 262 
 PTB  HZ I         723 43.30         1.4 0.20            135            141 262 
 ZAR  HN ES        723 50.68                             123   -0.08 9  203 295 
                                                                                
