 2010 10 9 0337 57.2 L   7.032 -73.102141.9  RSN 10 0.3 2.6LRSN                1
 GAP=171        0.68       3.2     5.6  5.3 -0.9159E+01  0.1567E+01  0.4004E+01E
 Epicentro: FLORIDABLANCA - SANTANDER                                          3
 ACTION:UP  11-02-18 11:08 OP:tino STATUS:               ID:20101009033757 L   I
 2010-10-09-0334-15S.COL___119                                                 6
 STAT SP IPHASW D HRMM SECON CODA AMPLIT PERI AZIMU VELO SNR AR TRES W  DIS CAZ7
 BAR2 SZ IP        338 17.26                             160     0.110   50 191 
 BAR2 SZ ES   1    338 32.60                             160    -0.2 7   50 191 
 BAR2 SZ I         338 34.24       150.9 0.34                            50 191 
 BRR  HZ IP     C  338 17.63                             153    -0.110   68 277 
 BRR  HN ES   1    338 33.90                             153     0.2 7   68 277 
 GUE  SZ EP   1    338 19.66                             146     0.1 7   90  12 
 GRA  SZ IP        338 20.34                             143     0.310  100  19 
 GRA  SZ ES   1    338 37.99                             143     0.2 7  100  19 
 GRA  SZ I         338 40.15        52.0 0.30                           100  19 
 OCA  SZ EP        338 22.61                             134    -0.3 9  136 350 
 OCA  SZ ES   1    338 42.55                             134    -0.4 7  136 350 
 OCA  SZ I         338 44.56        51.0 0.14                           136 350 
 NOR  SZ EP   2    338 33.88                             116    -0.9 4  254 230 
 CHI  HZ EP   1    338 37.54                             114     0.0 6  275 195 
 CHI  HE ES   1    339  9.01                             114     0.0 6  275 195 
 CHI  HZ I         339 14.84        11.4 0.58                           275 195 
 HEL  HZ EP   2    338 38.44                             113    -0.1 4  284 251 
 HEL  HE ES   2    339 11.18                             113     0.4 4  284 251 
 HEL  HZ I         339 17.39        20.2 0.44                           284 251 
 RREF HZ EP   1    338 46.32                             109     0.8 5  343 227 
 RREF HE ES   1    339 23.66                             109     0.4 5  343 227 
 RREF HZ I         339 31.58        12.5 0.30                           343 227 
 PRA  HZ EP   1    338 53.10                             105    -0.4 4  417 208 
 PRA  HZ I         338 55.86        35.5 0.18                           417 208 
 PRA  HE ES   1    339 36.84                             105    -0.5 4  417 208 
                                                                                
