 2017  6 9 0351 25.5 L   6.781 -73.194140.4  RSN  5 0.2 1.3LRSN                1
 GAP=161        0.51       2.8     2.3  5.7  0.2420E+01 -0.1122E+00 -0.1317E+01E
 Epicentro: ZAPATOCA - SANTANDER                                               3
 ACTION:UPD 17-09-14 16:50 OP:jn   STATUS:               ID:20170609035125 L   I
 OLDACT:REG 17-06-09 12:54 OP:edw  STATUS:               ID:20170609034733     3
 2017-06-09-0348-00M.COL___368                                                 6
 STAT SP IPHASW D HRMM SECON CODA AMPLIT PERI AZIMU VELO AIN AR TRES W  DIS CAZ7
 BRR  HZ EP     C  351 45.92                             153    0.0610 67.6 302 
 BRR  HN ES        352  1.84                             153    0.1010 67.6 302 
 BRR  HZ I         352  6.88         4.8 0.44            152           67.6 302 
 RUS  HZ EP        351 48.45                             143   -0.1510 99.0 173 
 RUS  HN ES        352  6.36                             143   -0.2710 99.0 173 
 RUS  HZ I         352  7.51         1.9 0.28            149           99.0 173 
 SPBC HE ES        352 14.95                             129    0.31 9  158 218 
 TAM  HN ES        352 14.95                             128    0.15 9  160 104 
 ZAR  HZ EP   2    351 57.28                             122    0.12 4  200 293 
 ZAR  HE ES        352 21.67                             122   -0.20 9  200 293 
 ZAR  HZ I         352 28.33         2.9 0.26            124            200 293 
                                                                                
