 2014  3 9 0313 56.3 L   6.762 -73.157140.6  RSN 13 0.4 2.3LRSN                1
 GAP= 72        1.01       2.6     2.9  5.4 -0.8590E+00  0.4838E+01 -0.7644E+00E
 Epicentro: LOS SANTOS - SANTANDER                                             3
 ACTION:UPD 14-04-09 23:15 OP:nd   STATUS:               ID:20140309031356 L   I
 OLDACT:REG 14-03-09 09:31 OP:nd   STATUS:               ID:20140309031045     3
 2014-03-09-0310-45M.COL___219                                                 6
 STAT SP IPHASW D HRMM SECON CODA AMPLIT PERI AZIMU VELO AIN AR TRES W  DIS CAZ7
 BAR2 SZ EP        314 15.45                             172    0.1910 19.0 189 
 BAR2 SZ ES        314 29.84                             172   -0.1910 19.0 189 
 BAR2 SZ I         314 31.59        67.5 0.42            172           19.0 189 
 PAM  SZ EP     C  314 18.64                             149    0.3910 81.4  38 
 PAM  SN ES        314 35.53                             149    0.1810 81.4  38 
 PAM  SZ I         314 38.17       719.1 0.38            152           81.4  38 
 RUS  HZ EP        314 19.20                             144   -0.0910 96.5 175 
 RUS  HN ES        314 37.12                             144   -0.0710 96.5 175 
 RUS  HZ I         314 41.08         8.2 0.40            146           96.5 175 
 PTB  HZ EP        314 22.42                             131   -0.29 9  146 260 
 PTB  HN ES        314 42.88                             131   -0.40 9  146 260 
 PTB  HZ I         314 43.77        20.0 0.56            132            146 260 
 TAM  HZ EP     D  314 23.77                             129    0.15 9  155 103 
 TAM  HN ES        314 44.49                             129   -0.42 9  155 103 
 TAM  HZ I         314 46.46         6.8 0.36            133            155 103 
 SPBC HZ EP        314 24.30                             129    0.24 9  159 220 
 SPBC HN ES        314 46.06                             129    0.38 9  159 220 
 SPBC HZ I         314 52.84        16.9 0.30            130            159 220 
 OCA  HZ EP        314 24.15                             128   -0.48 9  164 354 
 OCA  HN ES        314 47.09                             128    0.38 9  164 354 
 OCA  HZ I         314 52.94        16.1 0.16            130            164 354 
 ZAR  HZ EP        314 28.49                             121   -0.01 9  205 293 
 ZAR  HN ES        314 54.30                             121    0.71 9  205 293 
 ZAR  HZ I         314 57.42       720.5 0.10            122            205 293 
 NOR  HZ EP        314 31.76                             118    0.36 8  231 235 
 NOR  HN ES        314 58.44                             118   -0.31 8  231 235 
 NOR  HZ I         315  6.09        12.4 0.16            119            231 235 
 CHI  HZ EP        314 33.14                             116   -0.13 8  244 195 
 CHI  HN ES        315  2.26                             116    0.17 8  244 195 
 CHI  HZ I         315 10.22         5.7 0.54            118            244 195 
 SML  HZ EP        314 32.18                             116   -0.86 8  247 336 
 SML  HN ES        315  1.45                             116   -0.21 8  247 336 
 SML  HZ I         315  8.15        27.6 0.10            118            247 336 
 CBOC HZ EP        314 43.96                             109    1.20 7  331 253 
 CBOC HN ES        315 17.98                             109   -0.99 7  331 253 
 CBOC HZ I         315 22.41         2.3 0.34            110            331 253 
 SJC  HZ EP   4    314 50.29                             105   -1.77 0  412 327 
 SJC  HN ES   4    315 31.55                             105   -3.99 0  412 327 
 SJC  HZ I         315 37.54         3.7 0.32            106            412 327 
                                                                                
