 2014  8 9 0056 56.4 L   6.807 -73.152145.5  RSN 21 0.4 2.2LRSN                1
 GAP=135        0.81       2.1     3.0  4.0 -0.7343E+00  0.2913E+01  0.1170E+01E
 Epicentro: LOS SANTOS - SANTANDER                                             3
 ACTION:UPD 14-09-15 21:48 OP:nd   STATUS:               ID:20140809005656 L   I
 OLDACT:REG 14-08-09 12:23 OP:spq  STATUS:               ID:20140809004820     3
 2014-08-09-0048-20M.COL___266                                                 6
 STAT SP IPHASW D HRMM SECON CODA AMPLIT PERI AZIMU VELO AIN AR TRES W  DIS CAZ7
 BAR2 SZ EP        057 15.85                             170   -0.1910 23.9 188 
 BAR2 SZ ES   1    057 31.19                             170   -0.15 7 23.9 188 
 BAR2 SZ I         057 33.85        27.9 0.50            168           23.9 188 
 BRR  HZ IP     D  057 17.90                             153    0.4010 70.2 298 
 BRR  HN ES        057 34.57                             153    0.6410 70.2 298 
 BRR  HZ I         057 37.50        15.7 0.16            151           70.2 298 
 PAM  SZ EP     C  057 18.82                             151    0.2010 77.3  40 
 PAM  SN ES   1    057 35.78                             151   -0.14 7 77.3  40 
 PAM  SZ I         057 38.24        22.7 0.48            157           77.3  40 
 RUS  HZ EP        057 19.83                             144   -0.3810  101 176 
 RUS  HE ES        057 38.51                             144   -0.2510  101 176 
 RUS  HZ I         057 39.84        11.5 0.38            145            101 176 
 PTB  HZ EP        057 22.94                             132   -0.39 9  147 259 
 PTB  HN ES        057 43.78                             132   -0.52 9  147 259 
 PTB  HZ I         057 49.87        21.6 0.20            132            147 259 
 OCA  HZ EP        057 24.79                             130    0.14 9  159 353 
 OCA  HN ES        057 46.67                             130    0.02 9  159 353 
 OCA  HZ I         057 51.68        17.3 0.42            133            159 353 
 SPBC HZ EP        057 24.67                             129   -0.25 9  163 219 
 SPBC HE ES        057 47.40                             129    0.26 9  163 219 
 SPBC HZ I         057 52.83        32.3 0.18            130            163 219 
 ZAR  HZ EP        057 28.37                             122   -0.39 9  203 292 
 ZAR  HE ES        057 54.14                             122    0.16 9  203 292 
 ZAR  HZ I         058  0.42        12.2 0.22            123            203 292 
 NOR  HZ EP        057 31.72                             118   -0.41 8  235 234 
 NOR  HN ES        058  0.24                             118    0.27 8  235 234 
 NOR  HZ I         058  3.71        14.8 0.24            119            235 234 
 SML  HZ EP   1    057 32.43                             117   -0.51 6  243 335 
 SML  HN ES   1    058  1.45                             117    0.04 6  243 335 
 SML  HZ I         058  5.86        16.4 0.22            120            243 335 
 CHI  HZ EP        057 34.27                             117    0.10 8  249 195 
 CHI  HE ES   1    058  3.66                             117    0.05 6  249 195 
 CHI  HZ I         058 11.85         6.4 0.25            119            249 195 
 ROSC BZ EP   4    057 35.94                             117    1.38 0  253 211 
 ROSC BN ES   4    058  5.99                             117    1.68 0  253 211 
 ROSC BZ I         058 13.77        16.5 0.35            118            253 211 
 HEL  HN ES   4    058  9.98                             115    2.10 0  272 256 
 HEL  HZ I         058 15.36         6.9 0.26            116            272 256 
 GUY2CHZ EP        057 40.73                             112    0.72 7  301 235 
 GUY2CHE ES   4    058 16.27                             112    2.27 0  301 235 
 GUY2CHZ I         058 22.70        11.3 0.32                           301 235 
 CBOC HZ EP        057 43.24                             110   -0.04 7  333 252 
 CBOC HE ES        058 19.36                             110   -0.46 7  333 252 
 CBOC HZ I         058 24.19         4.4 0.24            111            333 252 
 DBB  SZ EP   1    057 43.58                             109   -0.23 5  339 274 
 DBB  SZ ES   1    058 20.26                             109   -0.50 5  339 274 
 DBB  SZ I         058 23.98        20.5 0.54            111            339 274 
 TOL  SZ EP        057 45.34                             109    0.66 7  344 224 
 TOL  SE ES   4    058 23.70                             109    1.39 0  344 224 
 TOL  SZ I         058 27.46        18.7 0.46            111            344 224 
 MON  HZ EP   4    057 47.46                             109    2.15 0  353 308 
 MON  HE ES   4    058 21.91                             109   -1.51 0  353 308 
 MON  HZ I         058 24.13         3.3 0.46            110            353 308 
 PRA  HZ EP        057 50.50                             106    0.52 6  392 209 
 PRA  HE ES        058 32.26                             106    0.52 6  392 209 
 PRA  HZ I         058 36.34         7.3 0.24            108            392 209 
 ORTC HZ EP        057 50.77                             106    0.41 6  396 216 
 ORTC HE ES   4    058 33.45                             106    1.03 0  396 216 
 ORTC HZ I         058 39.80         5.4 0.36            108            396 216 
 SJC  HZ EP   4    057 50.03                             106   -1.84 0  408 327 
 SJC  HE ES   4    058 30.64                             106   -4.47 0  408 327 
 SJC  HZ I         058 35.94         2.7 0.30            107            408 327 
                                                                                
