 2010  9 9 0103 55.4 L   6.731 -73.145144.0  RSN  4 0.3 1.6LRSN                1
 GAP=164        0.72       7.5    14.9 11.1  0.7184E+02 -0.9561E+02 -0.4402E+02E
 Epicentro: JORDAN - SANTANDER                                                 3
 ACTION:UP  11-02-18 11:01 OP:tino STATUS:               ID:20100909010355 L   I
 2010-09-09-0100-48S.COL___120                                                 6
 STAT SP IPHASW D HRMM SECON CODA AMPLIT PERI AZIMU VELO SNR AR TRES W  DIS CAZ7
 BAR2 SZ EP   1    1 4 14.54                             174    -0.1 7   16 195 
 BAR2 SZ ES   2    1 4 29.11                             174    -0.6 5   16 195 
 BAR2 SZ I         1 4 30.43        13.4 0.46                            16 195 
 BRR  HZ EP   1    1 4 16.20                             151    -0.4 7   75 304 
 BRR  HE ES   1    1 4 33.44                             151     0.3 7   75 304 
 BRR  HZ I         1 4 34.55         9.1 0.03                            75 304 
 RUS  HZ EP   1    1 4 18.40                             146     0.0 7   93 176 
 RUS  HN ES   1    1 4 36.70                             146     0.3 7   93 176 
 RUS  HZ I         1 4 38.22         4.4 0.22                            93 176 
 GUE  SZ EP   1    1 4 20.81                             137     0.3 7  124  11 
                                                                                
