 2012  5 9 0913 37.0 L   6.762 -73.137146.0  RSN  4 0.3 1.7LRSN                1
 GAP=158        0.88      16.2     7.9 13.4 -0.7436E+02 -0.2706E+02  0.1333E+03E
 Epicentro: LOS SANTOS - SANTANDER                                             3
 ACTION:UP  12-07-05 12:03 OP:pat  STATUS:               ID:20120509091337 L   I
 2012-05-09-0910-00M.COL___192                                                 6
 STAT SP IPHASW D HRMM SECON CODA AMPLIT PERI AZIMU VELO SNR AR TRES W  DIS CAZ7
 BAR2 SZ EP        913 56.80                             172     0.210   19 195 
 BAR2 SZ I         913 57.05        11.6 0.32                            19 195 
 BRR  HZ EP        913 58.61                             152     0.310   74 301 
 BRR  HZ I         913 58.62         9.6 0.20                            74 301 
 BRR  HN ES   1    914 15.20                             152     0.2 7   74 301 
 PAM  SZ EP        913 59.55                             150     0.210   80  37 
 PAM  SN ES   1    914 16.32                             150    -0.5 7   80  37 
 PTB  HZ EP        914  3.47                             132    -0.5 9  148 260 
 PTB  HN ES   2    914 24.92                             132    -0.1 5  148 260 
                                                                                
