 2010  5 9 0228  0.8 L   6.782 -73.000143.0  RSN  5 0.1 1.3LRSN                1
 GAP=175        0.30       2.2     3.8  4.1 -0.1128E+01 -0.2783E+01  0.2470E+00E
 Epicentro: CEPITA - SANTANDER                                                 3
 ACTION:UP  10-08-24 10:03 OP:vdl  STATUS:               ID:20100509022800 L   I
 2010-05-09-0225-59S.COL___105                                                 6
 STAT SP IPHASW D HRMM SECON CODA AMPLIT PERI AZIMU VELO SNR AR TRES W  DIS CAZ7
 BAR2 SZ EP   1    228 20.13                             168    -0.1 7   29 224 
 BAR2 SZ ES   2    228 35.34                             168    -0.1 5   29 224 
 GIR2 SZ EP   2    228 20.48                             164     0.1 5   39 327 
 BRR  HZ EP        228 22.59                             147     0.010   87 295 
 BRR  HN ES   1    228 39.69                             147     0.1 7   87 295 
 BRR  HZ I         228 44.42         5.8 0.14                            87 295 
 RUS  HZ EP   2    228 24.44                             144     0.3 5   99 185 
 RUS  HN ES   2    228 42.37                             144     0.0 5   99 185 
 RUS  HZ I         228 43.89         2.5 0.45                            99 185 
 GRA  SZ EP   2    228 25.64                             137     0.0 5  124  10 
 GRA  SZ ES   1    228 45.07                             137     0.0 7  124  10 
                                                                                
