 2014  7 9 0156 44.0 L   6.786 -73.149144.5  RSN  6 0.2 1.5LRSN                1
 GAP=137        0.66       3.1     3.3  4.7 -0.2496E+01  0.1969E+01  0.8755E+00E
 Epicentro: LOS SANTOS - SANTANDER                                             3
 ACTION:UPD 15-03-16 20:42 OP:nd   STATUS:               ID:20140709015644 L   I
 OLDACT:REG 14-07-09 12:04 OP:stll STATUS:               ID:20140709014816     3
 2014-07-09-0148-16M.COL___265                                                 6
 STAT SP IPHASW D HRMM SECON CODA AMPLIT PERI AZIMU VELO AIN AR TRES W  DIS CAZ7
 BAR2 SZ EP        157  3.18                             171   -0.2910 21.7 190 
 BAR2 SZ ES        157 18.57                             171   -0.0710 21.7 190 
 BAR2 SZ I         157 19.93         9.3 0.18            169           21.7 190 
 BRR  HZ EP        157  5.50                             152    0.4410 71.7 300 
 BRR  HN ES        157 21.68                             152    0.2110 71.7 300 
 BRR  HZ I         157 24.01         7.1 0.32            151           71.7 300 
 PAM  SZ EP        157  6.42                             150    0.2310 78.8  39 
 PAM  SZ I         157  6.58         9.4 0.20            153           78.8  39 
 PAM  SN ES        157 23.25                             150   -0.2310 78.8  39 
 RUS  HZ EP        157  7.50                             144   -0.0410 99.0 176 
 RUS  HN ES        157 25.98                             144    0.1010 99.0 176 
 RUS  HZ I         157 26.66         2.6 0.28            144           99.0 176 
 PTB  HZ EP        157 10.42                             132   -0.41 9  147 259 
 PTB  HN ES        157 31.52                             132   -0.22 9  147 259 
 PTB  HZ I         157 34.63         4.5 0.42            131            147 259 
 SPBC HZ EP   2    157 12.49                             129    0.20 5  162 219 
 SPBC HN ES        157 34.52                             129    0.18 9  162 219 
 SPBC HZ I         157 39.39         4.7 0.34            129            162 219 
                                                                                
