 2015  2 9 0205 50.7 L   6.819 -73.280152.3  RSN  6 0.4 1.3LRSN                1
 GAP=109        1.00       4.9     4.9  6.8 -0.6238E+01  0.3592E+01  0.3271E+01E
 Epicentro: ZAPATOCA - SANTANDER                                               3
 ACTION:UPD 15-04-30 21:24 OP:nd   STATUS:               ID:20150209020550 L   I
 OLDACT:DUP 15-02-09 16:00 OP:fm   STATUS:               ID:20150209015747d    3
 2015-02-09-0157-46M.COL___296                                                 6
 STAT SP IPHASW D HRMM SECON CODA AMPLIT PERI AZIMU VELO AIN AR TRES W  DIS CAZ7
 BAR2 EZ EP        2 6 11.44                             169    0.2610 27.3 157 
 BAR2 EZ ES        2 6 27.40                             169    0.2210 27.3 157 
 BAR2 EZ I         2 6 28.99         9.3 0.28            172           27.3 157 
 BRR  HZ EP        2 6 11.71                             158   -0.1510 57.4 304 
 BRR  HN ES        2 6 28.88                             158    0.5110 57.4 304 
 BRR  HZ I         2 6 35.41         3.6 0.28            157           57.4 304 
 PAM  SZ EP        2 6 14.41                             149    0.2810 86.2  48 
 PAM  SE ES        2 6 32.05                             149   -0.3710 86.2  48 
 PAM  SZ I         2 6 36.29         2.3 0.40            155           86.2  48 
 RUS  HZ EP        2 6 15.07                             144   -0.3010  105 168 
 RUS  HN ES        2 6 34.28                             144   -0.3610  105 168 
 RUS  HZ I         2 6 36.23         2.5 0.20            149            105 168 
 PTB  HZ EP        2 6 16.71                             136   -0.2610  134 257 
 PTB  HN ES        2 6 36.81                             136   -0.6710  134 257 
 PTB  HZ I         2 6 43.12         2.4 0.38            138            134 257 
 SPBC HZ EP        2 6 19.47                             132    0.44 9  156 214 
 SPBC HN ES        2 6 41.57                             132    0.43 9  156 214 
 SPBC HZ I         2 6 47.97         4.0 0.42            135            156 214 
                                                                                
