 2016  9 9 1012 17.5 L   6.795 -73.127142.8  RSN 18 0.5 2.2LRSN                1
 GAP=139        1.05       2.9     3.6  5.2 -0.2450E+01  0.6242E+01  0.7312E+00E
 Epicentro: LOS SANTOS - SANTANDER                                             3
 ACTION:UPD 17-08-17 21:08 OP:lp   STATUS:               ID:20160909101217 L   I
 OLDACT:REG 16-09-09 20:02 OP:lv   STATUS:               ID:20160909100729     3
 2016-09-09-1008-00M.COL___359                                                 6
 STAT SP IPHASW D HRMM SECON CODA AMPLIT PERI AZIMU VELO AIN AR TRES W  DIS CAZ7
 BAR2 EZ IP     C 1012 36.75                             170    0.0110 23.2 195 
 BAR2 EZ ES       1012 51.52                             170   -0.2610 23.2 195 
 BAR2 EZ I        1012 52.81        60.8 0.20            169           23.2 195 
 BRR  HZ EP       1012 38.80                             151    0.3810 73.3 298 
 BRR  HN ES       1012 55.60                             151    0.8410 73.3 298 
 BRR  HZ I        1012 60.00        36.7 0.12            151           73.3 298 
 PAM  EZ IP     C 1012 39.61                             150    0.2910 76.5  38 
 PAM  EE ES       1012 56.60                             150    0.2410 76.5  38 
 PAM  EZ I        1012 59.23        25.0 0.36            154           76.5  38 
 RUS  HZ EP       1012 41.03                             143    0.1510 99.9 177 
 RUS  HE ES       1012 58.93                             143   -0.2210 99.9 177 
 RUS  HZ I        1013  0.01        20.5 0.22            145           99.9 177 
 PTB  HZ EP       1012 43.71                             131   -0.66 9  150 259 
 PTB  HN ES       1013  4.98                             131   -0.38 9  150 259 
 PTB  HZ I        1013  7.78        18.4 0.15            131            150 259 
 OCA  HZ EP       1012 45.29                             129   -0.34 9  161 352 
 OCA  HN ES       1013  6.84                             129   -0.75 9  161 352 
 OCA  HZ I        1013 10.53        49.9 0.27            131            161 352 
 SPBC HZ EP       1012 45.86                             128    0.03 9  164 220 
 SPBC HE ES       1013  7.78                             128   -0.17 9  164 220 
 SPBC HZ I        1013 10.87        22.1 0.10            129            164 220 
 ZAR  HZ EP       1012 50.11                             121    0.17 8  206 292 
 ZAR  HN ES       1013 15.66                             121    0.39 8  206 292 
 ZAR  HZ I        1013 21.66        21.1 0.24            122            206 292 
 NOR  HZ EP       1012 53.49                             118    0.31 8  236 235 
 NOR  HN ES       1013 20.90                             118   -0.13 8  236 235 
 NOR  HZ I        1013 22.74        11.1 0.13            119            236 235 
 CHI  HZ EP       1012 55.14                             116    0.13 8  249 196 
 CHI  HN ES       1013 24.02                             116   -0.27 8  249 196 
 CHI  HZ I        1013 27.51         4.0 0.22            118            249 196 
 ROSC BZ EP   9   1012 57.61                             116    2.11 0  253 211 
 ROSC BE ES       1013 26.76                                   -0.51 8  253 211 
 ROSC BZ I        1013 31.75        14.4 0.55            117            253 211 
 HEL  HZ EP   4   1012 58.84                             114    1.10 0  274 256 
 HEL  HN ES       1013 28.77                             114   -0.38 8  274 256 
 HEL  HZ I        1013 35.95         7.1 0.48            115            274 256 
 URE  HZ EP       1012 57.76                             113   -0.88 7  286 292 
 URE  HE ES   4   1013 28.91                             113   -1.83 0  286 292 
 URE  HZ I        1013 30.41        13.6 0.14            114            286 292 
 GUY2CHZ EP   4   1013  2.53                             112    1.43 0  303 235 
 GUY2CHN ES       1013 36.13                             112    1.00 7  303 235 
 GUY2CHZ I        1013 43.56         5.8 0.28                           303 235 
 PTGC HZ IP   4 C 1013  0.07                             111   -0.98 0  307 159 
 PTGC HN ES   4   1013 33.68                             111   -1.37 0  307 159 
 PTGC HZ I        1013 37.73        10.6 0.34            113            307 159 
 CBOC HZ EP       1013  5.21                             109    0.74 7  335 252 
 CBOC HN ES       1013 41.20                             109    0.07 7  335 252 
 CBOC HZ I        1013 45.94         3.0 0.30            110            335 252 
 PAL  HZ EP       1013 13.11                             105    0.40 6  407 239 
 PAL  HE ES       1013 55.07                             105   -0.72 6  407 239 
 PAL  HZ I        1014  0.94         2.9 0.32            106            407 239 
 SJC  HZ EP   4   1013 11.79                             105   -1.33 0  411 327 
 SJC  HN ES   4   1013 54.18                             105   -2.35 0  411 327 
 SJC  HZ I        1013 57.10         3.9 0.34            106            411 327 
                                                                                
