 2010  9 9 1252 26.6 L   6.878 -72.910143.7  RSN  4 0.1 1.5LRSN                1
 GAP=191        0.40       4.2     9.2 11.2  0.1516E+02 -0.6555E+02 -0.2036E+02E
 Epicentro: GUACA - SANTANDER                                                  3
 ACTION:UP  11-02-18 11:01 OP:tino STATUS:               ID:20100909125226 L   I
 2010-09-09-1251-21S.COL___120                                                 6
 STAT SP IPHASW D HRMM SECON CODA AMPLIT PERI AZIMU VELO SNR AR TRES W  DIS CAZ7
 BAR2 SZ EP   1   1252 46.85                             162     0.2 7   44 224 
 BRR  HZ EP   1   1252 48.79                             145    -0.1 7   92 286 
 BRR  HZ I        1252 49.02        12.6 0.29                            92 286 
 BRR  HE ES   2   1253  6.30                             145     0.0 5   92 286 
 GUE  SZ EP   1   1252 50.21                             142    -0.1 7  105 359 
 RUS  HZ EP   1   1252 50.92                             141     0.0 7  111 190 
 RUS  HN ES   2   1253  9.69                             141    -0.2 5  111 190 
 RUS  HZ I        1253 10.70         2.1 0.33                           111 190 
                                                                                
