 2013 11 9 1254 47.5 L   6.746 -73.157140.2  RSN  6 0.3 1.5LRSN                1
 GAP=137        0.87       4.4     4.2  6.4 -0.6639E+00  0.4154E+01  0.6977E+00E
 Epicentro: JORDAN - SANTANDER                                                 3
 ACTION:UPD 14-01-09 16:26 OP:ep   STATUS:               ID:20131109125447 L   I
 OLDACT:REG 13-11-09 14:40 OP:jn   STATUS:               ID:20131109125000     3
 2013-11-09-1250-00M.COL___273                                                 6
 STAT SP IPHASW D HRMM SECON CODA AMPLIT PERI AZIMU VELO AIN AR TRES W  DIS CAZ7
 BAR2 SZ EP       1255  6.42                             173    0.0310 17.2 189 
 BAR2 SZ ES       1255 20.66                             173   -0.4310 17.2 189 
 BAR2 SZ I        1255 22.77        10.8 0.16            173           17.2 189 
 BRR  HZ EP       1255  8.49                             151    0.2810 73.2 303 
 BRR  HN ES       1255 24.90                             151    0.5710 73.2 303 
 PAM  SZ EP       1255  9.49                             148   -0.0210 82.8  38 
 PAM  SN ES       1255 26.39                             148   -0.2610 82.8  38 
 PAM  SZ I        1255 28.66         5.4 0.60            150           82.8  38 
 RUS  HZ EP       1255 10.57                             144    0.2510 94.7 175 
 RUS  HN ES       1255 28.36                             144    0.2710 94.7 175 
 RUS  HZ I        1255 29.75         2.9 0.20            147           94.7 175 
 PTB  HZ EP       1255 13.33                             131   -0.52 9  145 261 
 PTB  HN ES       1255 34.05                             131   -0.32 9  145 261 
 PTB  HZ I        1255 37.69         3.7 0.46            131            145 261 
 ZAR  HE ES   2   1255 45.13                             121    0.25 4  205 294 
 ZAR  HZ I        1255 51.38         3.0 0.30            121            205 294 
                                                                                
