 2013  8 9 1314  4.1 L   6.782 -73.136141.2  RSN  8 0.3 2.2LRSN                1
 GAP=139        0.69       3.4     3.3  5.6 -0.9700E-01  0.6739E+01 -0.4617E+00E
 Epicentro: LOS SANTOS - SANTANDER                                             3
 ACTION:UPD 14-01-14 09:00 OP:ep   STATUS:               ID:20130809131404 L   I
 OLDACT:REG 13-08-09 15:19 OP:mh   STATUS:               ID:20130809130959     3
 2013-08-09-1309-59M.COL___267                                                 6
 STAT SP IPHASW D HRMM SECON CODA AMPLIT PERI AZIMU VELO AIN AR TRES W  DIS CAZ7
 BAR2 SZ EP       1314 23.27                             171    0.1110 21.6 194 
 BAR2 SZ ES   1   1314 37.74                             171   -0.27 7 21.6 194 
 BAR2 SZ I        1314 39.15        25.6 0.24            173           21.6 194 
 GIR2 SZ EP   1   1314 23.35                             166    0.05 7 33.4 349 
 GIR2 SZ I        1314 40.38        14.1 0.34            163           33.4 349 
 BRR  HZ EP   1   1314 25.11                             151    0.23 7 73.1 300 
 BRR  HN ES   1   1314 41.58                             151    0.50 7 73.1 300 
 BRR  HN I        1314 46.11        40.0 0.18            148           73.1 300 
 PAM  SZ EP   1   1314 26.06                             150    0.16 7 78.3  38 
 PAM  SN ES   1   1314 42.85                             150   -0.04 7 78.3  38 
 PAM  SN I        1314 44.31        39.6 0.46            147           78.3  38 
 RUS  HZ EP   1   1314 27.37                             143    0.11 7 98.5 177 
 RUS  HN ES       1314 45.14                             143   -0.1810 98.5 177 
 RUS  HN I        1314 46.44        18.4 0.24            144           98.5 177 
 PTB  HZ EP   1   1314 30.08                             131   -0.69 7  148 260 
 PTB  HN ES   1   1314 51.10                             131   -0.47 7  148 260 
 PTB  HN I        1314 56.72        18.4 0.24            129            148 260 
 ZAR  HZ EP   1   1314 36.12                             121   -0.33 6  206 293 
 ZAR  HN ES       1315  1.61                             121   -0.06 8  206 293 
 ZAR  HN I        1315  2.83        21.0 0.56            119            206 293 
 NOR  HZ EP   1   1314 39.57                             117    0.02 6  234 235 
 NOR  HN ES       1315  7.79                             117    0.60 8  234 235 
 NOR  HN I        1315 14.70        19.9 0.20            116            234 235 
                                                                                
