 2016  8 9 1141 26.4 L   6.736 -73.143145.7  RSN  4 0.2 1.5LRSN                1
 GAP=242        0.54       5.5     4.2  5.1  0.1494E+02  0.2824E+01 -0.4198E+01E
 Epicentro: LOS SANTOS - SANTANDER                                             3
 ACTION:UPD 16-10-29 15:34 OP:rebc STATUS:               ID:20160809114126 L   I
 OLDACT:REG 16-08-09 19:49 OP:lv   STATUS:               ID:20160809113759     3
 2016-08-09-1137-59S.COL___343                                                 6
 STAT SP IPHASW D HRMM SECON CODA AMPLIT PERI AZIMU VELO AIN AR TRES W  DIS CAZ7
 BAR2 EZ EP       1141 45.84                             173   -0.0310 16.5 196 
 BAR2 EZ ES       1142  1.12                             173    0.0410 16.5 196 
 BAR2 EZ I        1142  2.48        17.2 0.18                          16.5 196 
 RUS  HZ EP       1141 49.91                             146    0.3010 93.5 176 
 RUS  HE ES       1142  7.53                             146   -0.2110 93.5 176 
 RUS  HZ I        1142  9.73         3.3 0.22                          93.5 176 
 PTB  HZ EP       1141 52.98                             132   -0.27 9  147 262 
 PTB  HN ES       1142 14.41                             132    0.19 9  147 262 
 PTB  HZ I        1142 18.16         2.9 0.18                           147 262 
 ZAR  HZ EP   4   1141 57.73                             122   -1.40 0  207 294 
 ZAR  HN ES       1142 24.63                             122   -0.05 8  207 294 
 ZAR  HZ I        1142 27.94         2.2 0.10                           207 294 
                                                                                
