 2016  8 9 1843 48.3 L   6.795 -73.142145.4  RSN 13 0.4 2.4LRSN                1
 GAP=137        1.05       3.6     4.0  5.6 -0.2036E+01  0.5839E+01  0.3111E+01E
 Epicentro: LOS SANTOS - SANTANDER                                             3
 ACTION:UPD 16-10-29 15:34 OP:rebc STATUS:               ID:20160809184348 L   I
 OLDACT:REG 16-08-09 21:11 OP:lv   STATUS:               ID:20160809183759     3
 2016-08-09-1837-59S.COL___346                                                 6
 STAT SP IPHASW D HRMM SECON CODA AMPLIT PERI AZIMU VELO AIN AR TRES W  DIS CAZ7
 BAR2 EZ IP     D 1844  7.79                             171   -0.0810 22.9 191 
 BAR2 EZ ES       1844 22.61                             171   -0.5310 22.9 191 
 BAR2 EZ I        1844 25.64        66.5 0.26                          22.9 191 
 BRR  HZ EP       1844  9.66                             152    0.2210 71.8 299 
 BRR  HN ES       1844 26.68                             152    0.7510 71.8 299 
 BRR  HZ I        1844 30.74        56.8 0.26                          71.8 299 
 PAM  EZ EP       1844 10.57                             151    0.0910 77.5  39 
 PAM  EN ES       1844 27.87                             151    0.0910 77.5  39 
 PAM  EZ I        1844 30.90        35.9 0.32                          77.5  39 
 RUS  HZ EP       1844 11.80                             144   -0.1710  100 176 
 RUS  HN ES       1844 30.19                             144   -0.2410  100 176 
 RUS  HZ I        1844 31.89        21.9 0.38                           100 176 
 PTB  HZ EP       1844 14.31                             132   -0.95 9  148 259 
 PTB  HE ES       1844 35.91                             132   -0.38 9  148 259 
 PTB  HZ I        1844 39.63        24.8 0.20                           148 259 
 SPBC HZ EP       1844 17.06                             129    0.31 9  163 219 
 SPBC HN ES       1844 39.63                             129    0.69 9  163 219 
 SPBC HZ I        1844 45.81        44.6 0.13                           163 219 
 ZAR  HZ EP       1844 20.40                             122   -0.38 9  205 292 
 ZAR  HN ES       1844 46.31                             122    0.20 9  205 292 
 ZAR  HZ I        1844 54.74        28.1 0.24                           205 292 
 NOR  HZ EP       1844 23.92                             118   -0.09 8  235 235 
 NOR  HE ES       1844 51.73                             118   -0.13 8  235 235 
 NOR  HZ I        1844 54.62        16.8 0.21                           235 235 
 CHI  HZ EP       1844 26.29                             117    0.36 8  248 195 
 CHI  HN ES       1844 55.57                             117    0.29 8  248 195 
 CHI  HZ I        1845  0.75        10.5 0.23                           248 195 
 ROSC BZ EP   9   1844 28.40                             117    2.03 0  253 211 
 ROSC BN ES       1844 58.62                                    0.53 8  253 211 
 ROSC BZ I        1845  2.50        39.8 0.40                           253 211 
 HEL  HZ EP   4   1844 29.69                             115    1.17 0  272 256 
 HEL  HN ES   4   1845  2.48                             115    2.59 0  272 256 
 HEL  HZ I        1845  8.07        14.7 0.38                           272 256 
 GUY2CHZ EP       1844 32.44                             112    0.55 7  301 235 
 GUY2CHE ES       1845  5.48                             112   -0.41 7  301 235 
 GUY2CHZ I        1845 14.16        13.2 0.36                           301 235 
 ELA  HZ EP   4   1844 37.68                             110    2.55 0  329 230 
 ELA  HN ES   4   1845 13.26                             110    1.61 0  329 230 
 ELA  HZ I        1845 27.05        12.8 0.44                           329 230 
                                                                                
