 2015  4 9 1516 52.2 L   6.483 -73.159168.9  RSN  6 0.5 2.3LRSN                1
 GAP=185        1.30       7.5     7.3  8.8  0.1344E+02  0.1875E+02  0.3356E+01E
 Epicentro: VALLE DE SAN JOSE - SANTANDER                                      3
 ACTION:UPD 15-06-03 16:53 OP:cam  STATUS:               ID:20150409151652 L   I
 OLDACT:REG 15-04-09 21:45 OP:carl STATUS:               ID:20150409150750     3
 2015-04-09-1507-50M.COL___269                                                 6
 STAT SP IPHASW D HRMM SECON CODA AMPLIT PERI AZIMU VELO AIN AR TRES W  DIS CAZ7
 BAR2 EZ EP       1517 14.32                             176   -0.1810 12.3 348 
 BAR2 EZ ES       1517 31.22                             176   -0.6510 12.3 348 
 BAR2 EZ I        1517 32.13        43.7 0.20            172           12.3 348 
 RUS  HZ EP       1517 16.63                             158    0.2410 65.9 173 
 RUS  HN ES       1517 35.17                             158   -0.0610 65.9 173 
 RUS  HZ I        1517 36.44        22.6 0.22            160           65.9 173 
 BRR  HZ EP       1517 17.53                             150    0.4510 92.2 318 
 BRR  HN IS       1517 37.56                             150    1.0910 92.2 318 
 BRR  HZ I        1517 41.61        26.5 0.16            148           92.2 318 
 PTB  HZ EP       1517 20.34                             138   -0.49 9  144 273 
 PTB  HN ES       1517 42.71                             138   -0.43 9  144 273 
 PTB  HZ I        1517 45.67        19.2 0.26            136            144 273 
 NOR  HZ EP       1517 27.75                             126    0.34 8  215 242 
 NOR  HN ES       1517 55.31                             126    0.46 8  215 242 
 NOR  HZ I        1518  0.39        12.9 0.18            126            215 242 
 ZAR  HZ EP       1517 27.28                             125   -0.42 8  218 301 
 ZAR  HN ES       1517 54.86                             125   -0.50 8  218 301 
 ZAR  HZ I        1518  2.37        14.1 0.30            125            218 301 
                                                                                
