 2011  5 9 1624 37.3 L   7.150 -72.956151.0  RSN  5 0.1 1.7LRSN                1
 GAP=170        0.37       6.8    19.2  5.2 -0.1160E+03 -0.7883E+01  0.1014E+02E
 Epicentro: TONA - SANTANDER                                                   3
 ACTION:UP  11-06-29 08:51 OP:tino STATUS:               ID:20110509162437 L   I
 2011-05-09-1620-57S.COL___133                                                 6
 STAT SP IPHASW D HRMM SECON CODA AMPLIT PERI AZIMU VELO SNR AR TRES W  DIS CAZ7
 BTL  SZ IP       1624 58.06                             163     0.010   43 233 
 BRI  SZ EP   1   1624 59.12                             155     0.2 7   65  16 
 BRI  SZ ES   1   1625 15.75                             155    -0.1 7   65  16 
 BRI  SZ I        1625 20.26         8.8 0.64                            65  16 
 BAR2 SZ EP   1   1624 58.95                             155    -0.1 7   67 202 
 BAR2 SZ ES   2   1625 16.32                             155     0.2 5   67 202 
 BAR2 SZ I        1625 18.50         8.6 0.33                            67 202 
 GRA  SZ EP   1   1624 59.94                             150     0.1 7   83  12 
 GRA  SZ ES   1   1625 17.41                             150    -0.1 7   83  12 
 GRA  SZ I        1625 18.82        19.7 0.28                            83  12 
 RUS  HZ EP   2   1625  4.51                             135    -0.1 5  140 186 
 RUS  HZ I        1625 28.01         2.0 0.29                           140 186 
                                                                                
