 2017  1 9 1157  7.2 L   6.723 -73.187153.1  RSN  4 0.1 1.4LRSN                1
 GAP=227        0.45       3.6     3.4  3.6  0.6001E+01  0.1157E+01  0.2630E+00E
 Epicentro: VILLANUEVA - SANTANDER                                             3
 ACTION:UPD 17-05-22 15:57 OP:jn   STATUS:               ID:20170109115707 L   I
 OLDACT:REG 17-01-09 17:41 OP:ar   STATUS:               ID:20170109114749     3
 2017-01-09-1148-00M.COL___348                                                 6
 STAT SP IPHASW D HRMM SECON CODA AMPLIT PERI AZIMU VELO AIN AR TRES W  DIS CAZ7
 BAR2 EZ EP       1157 27.38                             174   -0.2110 14.5 178 
 BAR2 EZ ES       1157 43.40                             174   -0.0810 14.5 178 
 BAR2 EZ I        1157 43.75         8.5 0.20            173           14.5 178 
 BRR  HZ EP       1157 29.18                             154   -0.0210 71.9 306 
 BRR  HN ES       1157 46.52                             154    0.1710 71.9 306 
 RUS  HZ EP       1157 31.18                             148    0.0210 92.5 173 
 RUS  HE ES       1157 49.94                             148    0.1210 92.5 173 
 RUS  HZ I        1157 51.38         2.1 0.24            147           92.5 173 
 PTB  HZ EP       1157 34.47                             135    0.20 9  142 262 
 PTB  HN ES       1157 55.18                             135   -0.19 9  142 262 
                                                                                
