 2011 11 9 1744 32.1 L   6.742 -73.111142.9  RSN  4 0.4 1.6LRSN                1
 GAP=144        0.83       6.4     8.1  9.1 -0.3315E+01 -0.1106E+01 -0.1433E+02E
 Epicentro: JORDAN - SANTANDER                                                 3
 ACTION:UPD 12-07-13 16:09 OP:ep   STATUS:               ID:20111109174432 L   I
 2011-11-09-1741-50S.COL___178                                                 6
 STAT SP IPHASW D HRMM SECON CODA AMPLIT PERI AZIMU VELO AIN AR TRES W  DIS CAZ7
 BAR2 SZ EP   1   1744 50.79                             172   -0.53 7 18.4 206 
 BAR2 SZ ES   1   1745  5.64                             172   -0.66 7 18.4 206 
 BAR2 SZ I        1745  7.93         9.8 0.22                          18.4 206 
 BRR  HZ EP       1744 53.30                             150   -0.0510 77.7 301 
 BRR  HZ I        1744 55.91        13.1 0.39                          77.7 301 
 BRR  HE ES   1   1745 10.29                             150    0.38 7 77.7 301 
 PAM  SZ EP       1744 54.36                             149    0.1510 80.1  34 
 PAM  SN ES   1   1745 11.54                             149    0.11 7 80.1  34 
 RUS  HE ES   1   1745 13.60                             145    0.53 7 94.0 178 
 RUS  HZ I        1745 14.84         3.0 0.23                          94.0 178 
                                                                                
