 2017  5 9 1536 43.7 L   6.753 -73.192140.7  RSN  5 0.2 1.1LRSN                1
 GAP=133        0.62       3.4     3.1  6.5  0.2721E+01  0.7669E+01  0.6568E+01E
 Epicentro: VILLANUEVA - SANTANDER                                             3
 ACTION:UPD 17-06-16 13:34 OP:jn   STATUS:               ID:20170509153643 L   I
 OLDACT:UP  17-05-09 23:21 OP:edw  STATUS:               ID:20170509152729d    3
 OLDACT:DUP 17-05-09 23:19 OP:edw  STATUS:               ID:20170509152729d    3
 OLDACT:UP  17-05-09 23:18 OP:edw  STATUS:               ID:20170509152728d    3
 OLDACT:UP  17-05-09 23:18 OP:edw  STATUS:               ID:20170509152728d    3
 OLDACT:DUP 17-05-09 23:15 OP:edw  STATUS:               ID:20170509152728d    3
 2017-05-09-1528-00M.COL___362                                                 6
 STAT SP IPHASW D HRMM SECON CODA AMPLIT PERI AZIMU VELO AIN AR TRES W  DIS CAZ7
 BRR  HN ES       1537 20.24                             152    0.0710 69.5 304 
 PAM  HE ES       1537 23.01                             148   -0.0610 84.6  40 
 RUS  HZ EP       1537  6.29                             144   -0.2910 95.9 173 
 RUS  HN ES       1537 24.66                             144    0.2010 95.9 173 
 RUS  HZ I        1537 25.51         2.4 0.22            144           95.9 173 
 PTB  HZ EP       1537 10.03                             132    0.35 9  142 260 
 PTB  HN ES       1537 29.66                             132   -0.31 9  142 260 
 ZAR  HN ES       1537 40.40                             122    0.05 9  201 294 
                                                                                
