 2010 11 9 1247 39.4 L   6.799 -73.090138.0  RSN  6 0.3 1.7LRSN                1
 GAP=165        0.56       3.6     9.9  6.6  0.4027E+01 -0.1658E+02 -0.6374E+01E
 Epicentro: LOS SANTOS - SANTANDER                                             3
 ACTION:UP  10-12-17 16:51 OP:REBC STATUS:               ID:20101109124739 L   I
 2010-11-09-1244-38S.COL___128                                                 6
 STAT SP IPHASW D HRMM SECON CODA AMPLIT PERI AZIMU VELO SNR AR TRES W  DIS CAZ7
 BTL  SZ EP   2   1247 58.44                             170     0.4 5   24 304 
 BAR2 SZ EP   1   1247 58.01                             169    -0.1 7   25 204 
 BAR2 SZ ES   1   1248 12.91                             169     0.2 7   25 204 
 BAR2 SZ I        1248 20.38        13.4 0.64                            25 204 
 BRR  HZ EP   2   1248  0.06                             149     0.0 5   77 296 
 BRR  HZ I        1248  1.31        13.4 0.24                            77 296 
 BRR  HE ES   2   1248 16.20                             149     0.1 5   77 296 
 RUS  HZ EP   1   1248  2.53                             142     0.2 7  100 180 
 RUS  HN ES   2   1248 19.52                             142    -0.7 5  100 180 
 RUS  HZ I        1248 22.24         5.7 0.36                           100 180 
 GRA  SZ EP   2   1248  3.93                             136     0.1 5  124  15 
 GRA  SZ ES   2   1248 22.98                             136     0.1 5  124  15 
 GRA  SZ I        1248 24.57         7.5 0.38                           124  15 
 OCA  SZ EP   1   1248  6.98                             128    -0.2 7  161 351 
 OCA  SZ ES   2   1248 28.44                             128    -0.4 5  161 351 
 OCA  SZ I        1248 29.33         8.6 0.18                           161 351 
                                                                                
