 2014  8 9 1430  6.0 L   6.539 -73.551112.3  RSN 14 0.5 2.4LRSN                1
 GAP= 74        1.21       3.1     3.1  6.1 -0.1863E+01  0.3951E+01  0.8121E+00E
 Epicentro: EL CARMEN - SANTANDER                                              3
 ACTION:UPD 14-09-15 21:48 OP:nd   STATUS:               ID:20140809143006 L   I
 OLDACT:REG 14-08-09 21:09 OP:y    STATUS:               ID:20140809142817     3
 2014-08-09-1428-17M.COL___263                                                 6
 STAT SP IPHASW D HRMM SECON CODA AMPLIT PERI AZIMU VELO AIN AR TRES W  DIS CAZ7
 BAR2 SZ IP     C 1430 22.47                             158    0.2610 41.2  82 
 BAR2 SZ ES       1430 35.45                             158    0.5510 41.2  82 
 BAR2 SZ I        1430 35.94       122.2 0.20            161           41.2  82 
 BRR  HZ EP       1430 23.34                             148    0.1310 65.3 344 
 BRR  HN ES       1430 37.19                             148    0.5310 65.3 344 
 BRR  HZ I        1430 37.97        46.8 0.10            146           65.3 344 
 RUS  HZ EP       1430 25.39                             139   -0.1810 88.2 144 
 RUS  HN ES       1430 41.19                             139    0.3210 88.2 144 
 RUS  HZ I        1430 43.51        24.7 0.24            141           88.2 144 
 PTB  HZ EP       1430 25.24                             135   -0.6610  100 270 
 PTB  HN ES       1430 40.05                             135   -1.4010  100 270 
 PTB  HZ I        1430 41.32        92.5 0.30            133            100 270 
 SPBC HZ EP       1430 27.27                             131    0.0610  114 211 
 SPBC HN ES       1430 43.54                             131   -0.2510  114 211 
 SPBC HZ I        1430 51.11        45.7 0.30            131            114 211 
 ZAR  HZ EP   4   1430 34.39                             118    0.70 0  179 306 
 ZAR  HN ES   4   1430 56.67                             118    1.34 0  179 306 
 ZAR  HZ I        1431  0.70        34.2 0.42            116            179 306 
 NOR  HZ EP       1430 33.63                             117   -0.40 9  181 234 
 NOR  HN ES       1430 56.00                             117    0.06 9  181 234 
 NOR  HZ I        1430 57.66        28.4 0.24            116            181 234 
 OCA  HN ES       1430 57.65                             116   -0.13 9  190   8 
 OCA  HZ I        1431  3.83        31.4 0.20            115            190   8 
 TAM  HZ EP       1430 35.35                             115   -0.15 9  195  93 
 TAM  HN ES       1430 57.98                             115   -0.57 9  195  93 
 TAM  HZ I        1431  0.21        24.5 0.26            116            195  93 
 HEL  HZ EP       1430 39.52                             112    0.56 8  222 260 
 HEL  HN ES       1431  5.40                             112    0.69 8  222 260 
 HEL  HZ I        1431  9.29        17.3 0.22            111            222 260 
 GUY2CHZ EP       1430 42.51                             109    0.47 8  248 234 
 GUY2CHN ES       1431 10.40                             109    0.22 8  248 234 
 GUY2CHZ I        1431 15.75        16.6 0.30                           248 234 
 SML  HZ EP       1430 42.49                             108    0.05 8  257 347 
 SML  HN ES       1431 11.02                             108    0.11 8  257 347 
 SML  HZ I        1431 14.56        34.2 0.10            108            257 347 
 URE  HZ EP   4   1430 41.82                             108   -0.65 0  257 302 
 URE  HN ES   4   1431  9.90                             108   -1.06 0  257 302 
 URE  HZ I        1431 21.70        18.6 0.20            107            257 302 
 PRA  HZ EP       1430 52.94                             102   -0.04 6  346 205 
 PRA  HN ES       1431 30.05                             102    0.39 6  346 205 
 PRA  HZ I        1431 38.03         8.9 0.42            102            346 205 
                                                                                
