 2012  1 9 1401  6.1 L   7.360 -73.025163.5  RSN  6 0.4 2.0LRSN                1
 GAP=179        0.94       8.0     6.0  9.2 -0.1895E+00  0.7336E+01 -0.6419E+01E
 Epicentro: MATANZA - SANTANDER                                                3
 ACTION:UP  12-02-03 08:15 OP:REBC STATUS:               ID:20120109140106 L   I
 2012-01-09-1400-00M.COL___186                                                 6
 STAT SP IPHASW D HRMM SECON CODA AMPLIT PERI AZIMU VELO SNR AR TRES W  DIS CAZ7
 PAM  SZ EP       14 1 28.31                             167    -0.210   36  94 
 PAM  SN ES   1   14 1 45.65                             167    -0.3 7   36  94 
 BRR  HZ EP       14 1 29.92                             152     0.210   81 250 
 BRR  HN ES   1   14 1 48.87                             152     0.8 7   81 250 
 BRR  HZ I        14 1 52.40        17.6 0.14                            81 250 
 BAR2 SZ EP       14 1 30.46                             151     0.110   87 192 
 BAR2 SZ ES   1   14 1 49.33                             151     0.0 7   87 192 
 BAR2 SZ I        14 1 50.68        14.6 0.32                            87 192 
 RUS  HZ EP   2   14 1 36.97                             133     0.5 5  162 182 
 RUS  HN ES   1   14 2  0.13                             133     0.0 7  162 182 
 RUS  HZ I        14 2  2.50         5.6 0.34                           162 182 
 PTB  HZ EP   1   14 1 37.49                             129    -0.2 7  182 240 
 PTB  HN ES   1   14 2  1.39                             129    -0.9 7  182 240 
 PTB  HZ I        14 2  5.88         0.0 0.17                           182 240 
 ZAR  HN ES   1   14 2  5.73                             126     0.0 6  203 274 
 ZAR  HZ I        14 2 12.17        11.8 0.28                           203 274 
                                                                                
