 2010  5 9 1011 32.9 L   6.763 -73.067156.9  RSN  8 0.4 1.4LRSN                1
 GAP=165        0.76       4.7    11.3  7.7 -0.1196E+02 -0.1539E+02 -0.9918E+00E
 Epicentro: LOS SANTOS - SANTANDER                                             3
 ACTION:UP  10-08-24 10:03 OP:vdl  STATUS:               ID:20100509101132 L   I
 2010-05-09-1008-13S.COL___105                                                 6
 STAT SP IPHASW D HRMM SECON CODA AMPLIT PERI AZIMU VELO SNR AR TRES W  DIS CAZ7
 BAR2 SZ EP   1   1011 53.51                             171    -0.3 7   23 214 
 BAR2 SZ ES   2   1012  9.74                             171    -0.5 5   23 214 
 GIR2 SZ EP   1   1011 54.68                             166     0.6 7   38 338 
 GIR2 SZ ES   2   1012 11.10                             166     0.5 5   38 338 
 BRR  HZ EP   1   1011 56.11                             152     0.3 7   81 298 
 BRR  HN ES   2   1012 13.57                             152    -0.1 5   81 298 
 BRR  HZ I        1012 17.06         7.7 0.27                            81 298 
 RUS  HZ EP   1   1011 57.78                             147     0.3 7   96 181 
 RUS  HZ I        1011 58.18         1.7 0.25                            96 181 
 RUS  HN ES   2   1012 16.04                             147    -0.6 5   96 181 
 BRI  SZ EP   1   1011 57.94                             143     0.0 7  110  16 
 BRI  SZ ES   2   1012 17.31                             143    -0.2 5  110  16 
 GUE  SZ EP   1   1011 58.90                             141     0.1 7  119   8 
 GUE  SZ ES   2   1012 19.24                             141     0.2 5  119   8 
 GRA  SZ EP   1   1011 59.32                             139     0.1 7  127  13 
 GRA  SZ ES   2   1012 19.99                             139     0.1 5  127  13 
 OCA  SZ EP   1   1012  1.71                             131    -0.9 7  166 350 
 OCA  SZ ES   2   1012 25.26                             131    -0.4 5  166 350 
 OCA  SZ I        1012 33.31         2.9 0.45                           166 350 
                                                                                
