 2015  4 9 1352 16.8 L   6.814 -73.136149.9  RSN  9 0.5 2.4LRSN                1
 GAP=202        1.31       4.5     6.4  7.6  0.2206E+01  0.1075E+02 -0.2997E+01E
 Epicentro: LOS SANTOS - SANTANDER                                             3
 ACTION:UPD 15-06-03 16:53 OP:cam  STATUS:               ID:20150409135216 L   I
 OLDACT:REG 15-04-09 21:44 OP:carl STATUS:               ID:20150409134748     3
 2015-04-09-1347-48M.COL___269                                                 6
 STAT SP IPHASW D HRMM SECON CODA AMPLIT PERI AZIMU VELO AIN AR TRES W  DIS CAZ7
 BAR2 EZ EP       1352 37.03                             170    0.0210 25.1 192 
 BAR2 EZ ES       1352 52.72                             170   -0.0310 25.1 192 
 BAR2 EZ I        1352 54.53        32.2 0.40            169           25.1 192 
 BRR  HZ EP       1352 38.96                             153    0.5010 71.4 297 
 BRR  HN ES       1352 56.58                             153    1.2610 71.4 297 
 BRR  HZ I        1353  1.23        28.1 0.12            150           71.4 297 
 RUS  HZ EP       1352 41.35                             144    0.2310  102 177 
 RUS  HN ES       1352 59.42                             144   -0.6310  102 177 
 RUS  HZ I        1353  0.94        13.0 0.24            148            102 177 
 PTB  HZ EP       1352 43.68                             133   -0.60 9  149 258 
 PTB  HN ES       1353  5.30                             133   -0.38 9  149 258 
 PTB  HZ I        1353 12.60        27.4 0.42            133            149 258 
 SPBC HZ EP       1352 45.89                             130    0.04 9  165 219 
 SPBC HN ES       1353  7.93                             130   -0.53 9  165 219 
 SPBC HZ I        1353 15.10        49.4 0.26            131            165 219 
 ZAR  HZ EP       1352 49.51                             123   -0.10 9  204 292 
 ZAR  HN ES       1353 14.39                             123   -0.77 9  204 292 
 ZAR  HZ I        1353 21.44        25.7 0.22            124            204 292 
 NOR  HZ EP       1352 53.20                             119    0.19 8  236 234 
 NOR  HN ES       1353 21.28                             119    0.06 8  236 234 
 NOR  HZ I        1353 24.61        17.1 0.18            121            236 234 
 SML  HZ EP       1352 53.40                             118   -0.21 8  243 335 
 SML  HN ES       1353 21.81                             118   -0.47 8  243 335 
 SML  HZ I        1353 26.77        44.6 0.10            121            243 335 
 GUY2CHZ EP       1353  1.63                             113    0.78 7  303 235 
 GUY2CHE ES       1353 35.94                             113    0.77 7  303 235 
 GUY2CHZ I        1353 44.19        11.6 0.30                           303 235 
                                                                                
