 2016 10 9 1555 34.4 L   6.629 -73.602100.1  RSN  5 0.2 1.1LRSN                1
 GAP=148        0.64       3.6     2.5  6.7 -0.8340E+00  0.3199E+01 -0.5048E+00E
 Epicentro: EL CARMEN - SANTANDER                                              3
 ACTION:UPD 16-11-09 19:17 OP:rebc STATUS:               ID:20161009155534 L   I
 OLDACT:REG 16-10-09 20:28 OP:lv   STATUS:               ID:20161009154739     3
 2016-10-09-1548-00M.COL___357                                                 6
 STAT SP IPHASW D HRMM SECON CODA AMPLIT PERI AZIMU VELO AIN AR TRES W  DIS CAZ7
 BAR2 EZ EP       1555 49.96                             153    0.3810 46.6  95 
 BAR2 EZ ES       1556  1.64                             153    0.2210 46.6  95 
 PTB  HZ EP       1555 52.85                             133   -0.0210 95.0 264 
 PTB  HN ES       1556  7.17                             133   -0.1010 95.0 264 
 PTB  HZ I        1556 11.14         2.4 0.08            132           95.0 264 
 RUS  HZ EP       1555 54.01                             132    0.0710 99.7 145 
 RUS  HE ES       1556  8.89                             132   -0.2810 99.7 145 
 RUS  HZ I        1556 10.62         3.1 0.22            136           99.7 145 
 PAM  EE ES       1556 13.56                             124   -0.2910  127  52 
 ZAR  HN ES   4   1556 24.00                             115    3.41 0  168 305 
 ZAR  HZ I        1556 25.75         2.6 0.14            115            168 305 
                                                                                
