 2014  1 9 1608 14.9 L   6.468 -73.607 99.9  RSN  6 0.7 1.7LRSN                1
 GAP= 97        1.68       7.4     7.3 11.9 -0.7195E+01  0.1040E+02  0.1088E+02E
 Epicentro: SANTA HELENA DEL OPON - SANTANDER                                  3
 ACTION:UPD 14-03-13 09:53 OP:ep   STATUS:               ID:20140109160814 L   I
 OLDACT:REG 14-01-09 14:17 OP:stll STATUS:               ID:20140109155817     3
 2014-01-09-1558-17M.COL___246                                                 6
 STAT SP IPHASW D HRMM SECON CODA AMPLIT PERI AZIMU VELO AIN AR TRES W  DIS CAZ7
 BAR2 SZ IP     C 16 8 29.72                             152   -0.4910 48.9  74 
 BAR2 SZ ES       16 8 42.23                             152    0.1110 48.9  74 
 BAR2 SZ I        16 8 43.30        32.3 0.46            150           48.9  74 
 BRR  HZ EP       16 8 30.49                             142   -0.9110 71.7 351 
 BRR  HZ I        16 8 40.85        13.8 0.30            138           71.7 351 
 BRR  HE ES       16 8 44.59                             142    0.3410 71.7 351 
 RUS  HZ EP       16 8 33.65                             137    0.4010 86.0 138 
 PTB  HZ EP       16 8 32.51                             134   -0.8110 94.3 275 
 PTB  HN ES       16 8 47.79                             134    0.1410 94.3 275 
 OCA  HZ EP       16 8 43.93                             113   -0.49 9  198   9 
 OCA  HE ES       16 9  8.45                             113    1.03 9  198   9 
 GUY2CHZ EP       16 8 50.71                             109    1.27 8  238 235 
 GUY2CHZ I        16 9 27.92         1.7 0.30                           238 235 
                                                                                
