 2012  7 9 1436 10.7 L   6.684 -73.192145.4  RSN  5 0.2 1.7LRSN                1
 GAP=223        0.46       4.9     3.4  4.2  0.7261E+01  0.2210E+01  0.4658E+01E
 Epicentro: VILLANUEVA - SANTANDER                                             3
 ACTION:UPD 12-08-14 11:43 OP:ep   STATUS:               ID:20120709143610 L   I
 2012-07-09-1430-00M.COL___201                                                 6
 STAT SP IPHASW D HRMM SECON CODA AMPLIT PERI AZIMU VELO AIN AR TRES W  DIS CAZ7
 BAR2 SZ EP       1436 30.02                             176    -0.110   10 174 
 BAR2 SZ ES   1   1436 45.24                             176     0.0 7   10 174 
 BAR2 SZ I        1436 46.27        16.3 0.20                            10 174 
 BRR  HZ EP   1   1436 31.94                             151    -0.1 7   74 309 
 BRR  HZ I        1436 32.99        15.8 0.45                            74 309 
 BRR  HN ES       1436 48.62                             151     0.010   74 309 
 RUS  HZ EP   1   1436 33.88                             147     0.3 7   88 172 
 RUS  HZ I        1437 20.04         5.3 0.35                            88 172 
 PTB  HZ EP       1436 36.80                             133    -0.2 9  141 264 
 PTB  HN ES       1436 57.58                             133     0.0 9  141 264 
 PTB  HZ I        1437  3.36         3.7 0.28                           141 264 
 ZAR  HZ EP   1   1436 43.47                             122     0.3 6  205 296 
 ZAR  HN ES   1   1437  8.62                             122     0.1 6  205 296 
