 2013  3 9 1852 52.7 L   6.882 -72.992141.8  RSN  4 0.1 1.5LRSN                1
 GAP=153        0.34       4.0     7.0  6.9  0.1959E+02 -0.2989E+02 -0.1395E+02E
 Epicentro: CEPITA - SANTANDER                                                 3
 ACTION:UPD 13-04-09 14:01 OP:ep   STATUS:               ID:20130309185252 L   I
 2013-03-09-1850-00M.COL___231                                                 6
 STAT SP IPHASW D HRMM SECON CODA AMPLIT PERI AZIMU VELO AIN AR TRES W  DIS CAZ7
 BAR2 SZ EP   2   1853 12.13                             164   -0.17 5 38.3 213 
 PAM  SZ EP   2   1853 13.60                             156    0.03 5 60.0  33 
 BRR  HZ EP       1853 14.30                             148    0.0910 83.4 287 
 BRR  HN ES   1   1853 30.88                             148   -0.07 7 83.4 287 
 BRR  HN I        1853 32.73         9.5 0.20            149           83.4 287 
 RUS  HZ EP   1   1853 16.70                             140   -0.10 7  110 185 
 RUS  HE ES   1   1853 35.65                             140    0.07 7  110 185 
 RUS  HE I        1853 36.45         3.9 0.25            143            110 185 
                                                                                
