 2013  3 9 1557  9.0 L   6.780 -73.092142.8  RSN  5 0.3 1.7LRSN                1
 GAP=144        0.60       3.7     3.6  5.1 -0.2190E+01  0.1264E+01  0.2334E+01E
 Epicentro: LOS SANTOS - SANTANDER                                             3
 ACTION:UPD 13-04-09 14:01 OP:ep   STATUS:               ID:20130309155709 L   I
 2013-03-09-1550-00M.COL___231                                                 6
 STAT SP IPHASW D HRMM SECON CODA AMPLIT PERI AZIMU VELO AIN AR TRES W  DIS CAZ7
 BAR2 SZ EP       1557 28.30                             170    0.0110 23.1 206 
 BAR2 SZ ES   1   1557 43.08                             170   -0.24 7 23.1 206 
 BAR2 SZ I        1557 44.73        12.7 0.20            169           23.1 206 
 PAM  SZ EP       1557 31.10                             151    0.3010 75.5  35 
 PAM  SZ I        1557 31.45        15.4 0.22            153           75.5  35 
 PAM  SE ES       1557 47.71                             151   -0.0910 75.5  35 
 BRR  HZ EP       1557 30.20                             150   -0.0210 77.5 298 
 BRR  HE ES       1557 46.71                             150   -0.0510 77.5 298 
 BRR  HE I        1557 47.68        13.3 0.23            151           77.5 298 
 RUS  HZ EP   1   1557 32.28                             144   -0.02 7 98.2 179 
 RUS  HN ES   1   1557 50.56                             144    0.09 7 98.2 179 
 RUS  HE I        1557 52.11         6.9 0.18            144           98.2 179 
 PTB  HZ EP   1   1557 35.62                             130   -0.63 7  153 260 
 PTB  HN ES   1   1557 57.98                             130    0.49 7  153 260 
 PTB  HZ I        1557 58.78         4.9 0.20            131            153 260 
                                                                                
