 2014  1 9 1500 14.8 L   6.712 -73.188144.6  RSN  7 0.5 1.7LRSN                1
 GAP=135        1.34       7.0     7.4 11.6  0.2142E+02 -0.1060E+02 -0.3118E+02E
 Epicentro: VILLANUEVA - SANTANDER                                             3
 OLDACT:REG 14-01-09 10:42 OP:jn   STATUS:               ID:20140109150000     3
 ACTION:UPD 14-03-13 09:53 OP:ep   STATUS:               ID:20140109150014 L   I
 OLDACT:UP  14-01-09 14:39 OP:jn   STATUS:               ID:20140109150000     3
 2014-01-09-1500-00M.COL___285                                                 6
 STAT SP IPHASW D HRMM SECON CODA AMPLIT PERI AZIMU VELO AIN AR TRES W  DIS CAZ7
 BAR2 SZ ES       15 0 49.16                             175   -0.0510 13.3 177 
 BAR2 SZ I        15 1 17.03       111.4 1.34            142           13.3 177 
 BRR  HZ EP       15 0 36.09                             152    0.1810 72.5 307 
 BRR  HN ES       15 0 53.15                             152    0.7910 72.5 307 
 BRR  SZ I        15 1  7.22         9.6 0.42            138           72.5 307 
 PAM  SZ EP       15 0 37.32                             147   -0.2410 87.8  38 
 PAM  SZ I        15 1 23.93         5.9 1.20            123           87.8  38 
 RUS  HZ EP       15 0 38.62                             146    0.8210 91.4 173 
 RUS  HN ES       15 0 55.03                             146   -0.7010 91.4 173 
 RUS  HZ I        15 0 57.95         3.3 0.28            143           91.4 173 
 RUS  SZ I        15 1  9.32         4.3 4.02                          91.4 173 
 PTB  HN ES       15 1  1.22                             133   -0.43 9  142 262 
 ZAR  HN ES       15 1 12.37                             122    0.01 9  204 295 
 SML  HN ES       15 1 20.56                             116   -0.68 8  251 337 
                                                                                
