 2011 10 9 1811  5.4 L   7.362 -73.181130.4  RSN  5 0.2 1.9LRSN                1
 GAP=102        0.47       4.4     3.0  5.5 -0.4667E+00  0.4831E+01 -0.1049E+02E
 Epicentro: RIONEGRO - SANTANDER                                               3
 ACTION:UPD 12-07-13 16:02 OP:ep   STATUS:               ID:20111009181105 L   I
 2011-10-09-1809-10S.COL___168                                                 6
 STAT SP IPHASW D HRMM SECON CODA AMPLIT PERI AZIMU VELO AIN AR TRES W  DIS CAZ7
 PAM  SZ EP   1   1811 24.96                             157    0.37 7 53.2  93 
 PAM  SZ I        1811 25.20         8.2 0.27                          53.2  93 
 PAM  SN ES   1   1811 39.60                             157    0.01 7 53.2  93 
 BRR  HZ EP   1   1811 24.72                             152    0.21 7 65.1 244 
 BRR  HN ES   1   1811 39.52                             152    0.08 7 65.1 244 
 BRR  HZ I        1811 41.31        19.4 0.13                          65.1 244 
 BAR2 SZ EP   1   1811 25.99                             145   -0.14 7 85.1 180 
 BAR2 SZ ES   1   1811 42.12                             145   -0.21 7 85.1 180 
 BAR2 SZ I        1811 44.21        26.8 0.15                          85.1 180 
 OCA  SZ EP   1   1811 26.63                             141   -0.35 7 98.2 351 
 ZAR  HZ EP   1   1811 34.95                             121    0.03 7  186 275 
 ZAR  HN ES   1   1811 57.99                             121    0.02 7  186 275 
                                                                                
