 2010 11 9 1239 28.3 L   6.771 -73.051145.0  RSN  8 0.2 2.0LRSN                1
 GAP=170        0.55       3.6     7.5  5.3  0.4800E+01 -0.1519E+02 -0.5804E+01E
 Epicentro: LOS SANTOS - SANTANDER                                             3
 ACTION:UP  10-12-17 16:51 OP:REBC STATUS:               ID:20101109123928 L   I
 2010-11-09-1237-23S.COL___128                                                 6
 STAT SP IPHASW D HRMM SECON CODA AMPLIT PERI AZIMU VELO SNR AR TRES W  DIS CAZ7
 BAR2 SZ EP       1239 47.81                             171    -0.110   25 216 
 BAR2 SZ ES   1   1240  3.31                             171     0.1 7   25 216 
 BAR2 SZ I        1240  4.97        17.8 0.18                            25 216 
 BTL  SZ EP   1   1239 48.12                             169     0.1 7   29 304 
 GIR2 SZ EP   1   1239 48.01                             165    -0.1 7   37 335 
 GIR2 SZ ES   2   1240  3.60                             165     0.1 5   37 335 
 BRR  HZ EP       1239 49.83                             150    -0.210   82 297 
 BRR  HZ I        1239 50.29        28.6 0.14                            82 297 
 BRR  HN ES   1   1240  7.20                             150     0.2 7   82 297 
 RUS  HZ EP   1   1239 51.84                             145     0.1 7   97 182 
 RUS  HN ES   2   1240  9.77                             145    -0.3 5   97 182 
 RUS  HZ I        1240 11.42         9.4 0.31                            97 182 
 GRA  SZ IP       1239 53.90                             137     0.410  126  12 
 GRA  SZ I        1239 55.31        15.3 0.19                           126  12 
 OCA  SZ EP       1239 56.72                             129    -0.3 9  165 350 
 OCA  SZ ES   2   1240 19.55                             129     0.1 5  165 350 
 OCA  SZ I        1240 23.92        16.1 0.47                           165 350 
 PRA  HZ EP   2   1240 22.59                             107     0.5 3  395 211 
                                                                                
