 2017  2 9 1408 31.0 L   7.346 -73.126  9.5  RSN  4 0.3 1.1LRSN                1
 GAP=212        0.75       3.5     3.4  5.8 -0.5051E+01  0.1398E+02 -0.1759E+01E
 Epicentro: RIONEGRO - SANTANDER                                               3
 ACTION:UPD 17-05-24 15:34 OP:jn   STATUS:               ID:20170209140831 L   I
 OLDACT:DUP 17-02-09 22:18 OP:lv   STATUS:               ID:20170209140745d    3
 2017-02-09-1408-00M.COL___358                                                 6
 STAT SP IPHASW D HRMM SECON CODA AMPLIT PERI AZIMU VELO AIN AR TRES W  DIS CAZ7
 PAM  EZ EP       14 8 39.40                              98    0.0810 47.1  91 
 PAM  EN ES       14 8 45.56                              98   -0.2310 47.1  91 
 BAR2 EZ ES       14 8 55.03                              94   -0.0710 83.6 184 
 RUS  HZ EP       14 8 57.16                              56    0.67 9  161 178 
 RUS  HN ES       14 9 16.25                              56   -0.12 9  161 178 
 RUS  HZ I        14 9 17.72         1.9 0.19             92            161 178 
 PTB  HZ EP       14 8 57.32                              56    0.01 9  172 239 
 PTB  HN ES       14 9 17.51                              56   -0.31 9  172 239 
 PTB  HZ I        14 9 19.05         2.8 0.22             56            172 239 
                                                                                
