 2017  2 9 1116 25.4 L   6.491 -73.711 98.8  RSN  7 0.4 1.6LRSN                1
 GAP= 93        0.94       3.2     3.3  7.0  0.1244E+01  0.5132E+01  0.6896E+01E
 Epicentro: SANTA HELENA DEL OPON - SANTANDER                                  3
 ACTION:UPD 17-05-24 15:34 OP:jn   STATUS:               ID:20170209111625 L   I
 OLDACT:REG 17-02-09 20:37 OP:lv   STATUS:               ID:20170209110745     3
 2017-02-09-1108-00M.COL___358                                                 6
 STAT SP IPHASW D HRMM SECON CODA AMPLIT PERI AZIMU VELO AIN AR TRES W  DIS CAZ7
 BAR2 EZ IP     D 1116 41.34                             147    0.0710 59.5  79 
 BAR2 EZ ES       1116 53.94                             147    0.3310 59.5  79 
 BAR2 EZ I        1116 55.21        22.2 0.20            149           59.5  79 
 BRR  HZ EP       1116 41.56                             143    0.0210 68.2 360 
 BRR  HN ES       1116 54.48                             143    0.3810 68.2 360 
 PTB  HZ EP       1116 42.30                             137   -0.4210 82.6 274 
 PTB  HN ES       1116 55.83                             137   -0.3610 82.6 274 
 PTB  HZ I        1116 57.62        12.3 0.13            136           82.6 274 
 RUS  HZ EP       1116 44.30                             133   -0.2210 95.9 134 
 RUS  HN ES       1116 59.06                             133   -0.3510 95.9 134 
 RUS  HZ I        1117  0.93         8.1 0.27            134           95.9 134 
 PAM  EN ES       1117  7.95                             120   -0.29 9  146  50 
 ZAR  HZ EP       1116 51.79                             116    0.49 9  168 311 
 ZAR  HE ES   4   1117 13.49                             116    2.01 0  168 311 
 ZAR  HZ I        1117 16.38         8.8 0.08            115            168 311 
 CHI  HZ EP       1116 55.85                             112   -0.20 8  206 181 
 CHI  HN ES       1117 20.68                             112    0.75 8  206 181 
 CHI  HZ I        1117 23.89         1.6 0.34            110            206 181 
 PRA  HZ EP   4   1117  7.83                             103   -2.88 0  334 203 
 PRA  HN ES   4   1117 47.56                             103    1.55 0  334 203 
                                                                                
