 2017  1 9 1248 23.2 L   6.339 -73.719107.1  RSN  5 0.4 1.4LRSN                1
 GAP=111        0.91       4.6     3.2  8.5  0.3052E+01  0.9037E+01 -0.4108E+01E
 Epicentro: SANTA HELENA DEL OPON - SANTANDER                                  3
 ACTION:UPD 17-05-22 15:57 OP:jn   STATUS:               ID:20170109124823 L   I
 OLDACT:DUP 17-01-09 22:00 OP:ar   STATUS:               ID:20170109123747d    3
 OLDACT:REG 17-01-09 17:44 OP:ar   STATUS:               ID:20170109123745     3
 2017-01-09-1238-00M.COL___350                                                 6
 STAT SP IPHASW D HRMM SECON CODA AMPLIT PERI AZIMU VELO AIN AR TRES W  DIS CAZ7
 BAR2 HZ EP       1248 40.41                             146    0.1410 65.6  65 
 BAR2 HZ ES       1248 53.93                             146    0.3410 65.6  65 
 BAR2 HZ I        1248 54.74        17.3 0.36            146           65.6  65 
 PTB  HZ EP       1248 40.97                             139   -0.3910 84.5 285 
 PTB  HN ES       1248 55.63                             139    0.0910 84.5 285 
 PTB  HZ I        1248 55.83         4.3 0.18            139           84.5 285 
 RUS  HZ EP       1248 41.98                             139   -0.1610 86.0 125 
 RUS  HN ES       1248 56.62                             139   -0.3110 86.0 125 
 RUS  HZ I        1248 57.90         2.0 0.30            140           86.0 125 
 NOR  HN ES       1249  7.62                             120    0.30 9  154 236 
 ZAR  HZ EP       1248 51.29                             116    0.61 9  179 315 
 ZAR  HN ES       1249 11.57                             116   -0.55 9  179 315 
 ZAR  HZ I        1249 16.04         4.8 0.40            116            179 315 
                                                                                
