 2017  4 9 1322 16.1 L   6.772 -73.135137.7  RSN  6 0.4 1.7LRSN                1
 GAP=139        1.07       5.2     4.7  8.5  0.2280E+01  0.5326E+01 -0.1142E+01E
 Epicentro: LOS SANTOS - SANTANDER                                             3
 ACTION:UPD 17-05-30 21:10 OP:jn   STATUS:               ID:20170409132216 L   I
 OLDACT:UP  17-04-09 23:44 OP:edw  STATUS:               ID:20170409131745     3
 OLDACT:UP  17-04-09 23:43 OP:edw  STATUS:               ID:20170409131745     3
 OLDACT:REG 17-04-09 20:41 OP:edw  STATUS:               ID:20170409131745     3
 2017-04-09-1318-00M.COL___377                                                 6
 STAT SP IPHASW D HRMM SECON CODA AMPLIT PERI AZIMU VELO AIN AR TRES W  DIS CAZ7
 BAR2 EZ EP       1322 34.69                             171   -0.0410 20.5 195 
 BAR2 EZ ES       1322 48.98                             171   -0.2610 20.5 195 
 BAR2 EZ I        1322 50.54        13.7 0.34            172           20.5 195 
 BRR  HZ EP       1322 36.57                             150    0.0110 73.7 300 
 BRR  HN ES       1322 53.22                             150    0.7210 73.7 300 
 BRR  HZ I        1322 54.55         8.2 0.46            149           73.7 300 
 PAM  EZ EP     C 1322 37.81                             149    0.2210 79.1  37 
 PAM  EN ES       1322 53.88                             149   -0.4610 79.1  37 
 PAM  EZ I        1322 56.88        10.0 0.70            150           79.1  37 
 RUS  HZ EP       1322 38.78                             143   -0.0710 97.4 177 
 RUS  HN ES       1322 56.99                             143    0.4110 97.4 177 
 RUS  HZ I        1322 59.05         4.7 0.30            145           97.4 177 
 PTB  HN ES       1323  2.29                             130   -0.78 9  148 260 
 ZAR  HZ EP   4   1322 49.66                             120    1.37 0  206 293 
 ZAR  HN ES       1323 13.58                             120    0.20 8  206 293 
 ZAR  HZ I        1323 20.74         5.8 0.38            120            206 293 
 NOR  HN ES   4   1323 16.96                             117   -1.78 0  234 235 
                                                                                
