 2013  7 9 1500 55.5 L   6.807 -73.151142.7  RSN 16 0.5 2.7LRSN                1
 GAP= 71        1.24       3.1     3.1  5.3 -0.1795E+01  0.2942E+01  0.1077E+01E
 Epicentro: LOS SANTOS - SANTANDER                                             3
 ACTION:UPD 13-08-12 10:36 OP:ep   STATUS:               ID:20130709150055 L   I
 OLDACT:REG 13-07-09 16:05 OP:stll STATUS:               ID:20130709145849     3
 2013-07-09-1458-49M.COL___223                                                 6
 STAT SP IPHASW D HRMM SECON CODA AMPLIT PERI AZIMU VELO AIN AR TRES W  DIS CAZ7
 BAR2 SZ EP       15 1 14.75                             170   -0.0310 24.0 188 
 BAR2 SZ ES       15 1 29.05                             170   -0.7610 24.0 188 
 BAR2 SZ I        15 1 30.90        30.8 0.20            170           24.0 188 
 GIR2 SZ EP       15 1 14.82                             167    0.0310 30.4 351 
 GIR2 SZ ES       15 1 30.06                             167    0.2310 30.4 351 
 BRR  HZ EP       15 1 16.58                             152    0.3110 70.3 298 
 BRR  HN ES       15 1 33.19                             152    0.7210 70.3 298 
 BRR  HN I        15 1 37.35       155.9 0.18            151           70.3 298 
 PAM  SZ EP       15 1 17.63                             150    0.2510 77.2  40 
 PAM  SZ I        15 1 17.90        99.1 0.18            152           77.2  40 
 PAM  SN ES       15 1 34.42                             150   -0.0210 77.2  40 
 RUS  HZ EP       15 1 19.15                             143    0.1410  101 176 
 RUS  HE ES       15 1 37.12                             143   -0.2210  101 176 
 RUS  HE I        15 1 38.35        31.7 0.18            144            101 176 
 PTB  HZ EP       15 1 21.75                             131   -0.43 9  147 259 
 PTB  HE ES       15 1 43.27                             131    0.28 9  147 259 
 PTB  HE I        15 1 45.05        48.1 0.12            131            147 259 
 CAPV BZ EP       15 1 22.80                             131    0.17 9  149  38 
 CAPV BZ ES       15 1 44.62                             131    0.84 9  149  38 
 TAM  HZ EP       15 1 23.17                             130    0.16 9  156 105 
 TAM  HE ES       15 1 44.35                             130   -0.11 9  156 105 
 TAM  HE I        15 1 45.52        32.5 0.64            132            156 105 
 OCA  HZ EP       15 1 23.75                             129    0.25 9  159 353 
 OCA  HE ES       15 1 44.23                             129   -1.10 9  159 353 
 OCA  HE I        15 1 47.99       165.9 0.26            130            159 353 
 ZAR  HZ EP       15 1 27.55                             122   -0.12 9  203 292 
 ZAR  HE ES       15 1 53.13                             122    0.38 9  203 292 
 ZAR  HE I        15 1 59.60       103.3 0.32            122            203 292 
 NOR  HZ EP       15 1 31.43                             118    0.38 8  235 234 
 NOR  HE ES       15 1 58.64                             118   -0.14 8  235 234 
 NOR  HE I        15 2  4.59        35.5 0.18            118            235 234 
 SML  HZ EP       15 1 31.41                             117   -0.45 8  243 335 
 SML  HN ES       15 1 59.66                             117   -0.55 8  243 335 
 SML  HN I        15 2  5.58        64.4 0.10            117            243 335 
 CHI  HZ EP       15 1 32.77                             116   -0.33 8  249 195 
 CHI  HN ES       15 2  2.56                             116    0.14 8  249 195 
 CHI  HN I        15 2  6.78        21.5 0.28            117            249 195 
 HEL  HZ EP       15 1 36.71                             114    1.19 8  272 256 
 HEL  HN ES       15 2  6.13                             114   -0.60 8  272 256 
 HEL  HN I        15 2 12.17        16.2 0.28            114            272 256 
 GUY2CHZ EP       15 1 39.71                             112    0.74 7  301 235 
 GUY2CHN ES       15 2 11.91                             112   -0.96 7  301 235 
 SOCV BZ EP       15 1 37.33                             111   -1.09 7  301  57 
                                                                                
