 2011  4 9 1255 39.9 L   6.793 -73.124146.4  RSN 12 0.4 2.3LRSN                1
 GAP=158        0.97       4.7     7.7  6.5 -0.1942E+02 -0.1641E+00  0.1008E+02E
 Epicentro: LOS SANTOS - SANTANDER                                             3
 ACTION:UP  11-06-22 15:29 OP:REBC STATUS:               ID:20110409125539 L   I
 2011-04-09-1252-33S.COL___138                                                 6
 STAT SP IPHASW D HRMM SECON CODA AMPLIT PERI AZIMU VELO SNR AR TRES W  DIS CAZ7
 BTL  SZ EP       1255 58.61                             171    -1.010   21 311 
 BAR2 SZ EP       1255 59.57                             171    -0.110   23 196 
 BAR2 SZ ES   1   1256 14.61                             171    -0.4 7   23 196 
 BAR2 SZ I        1256 15.58        54.2 0.24                            23 196 
 GIR2 SZ EP       1255 59.61                             167    -0.110   33 346 
 GIR2 SZ ES   1   1256 15.53                             167     0.4 7   33 346 
 BRR  HZ IP     C 1256  1.27                             152     0.010   74 298 
 BRR  HZ I        1256  1.53        66.1 0.16                            74 298 
 BRR  HN ES   1   1256 18.44                             152     0.5 7   74 298 
 PAM  SZ IP       1256  2.50                             151     0.310   76  38 
 PAM  SZ I        1256  2.78        20.2 0.19                            76  38 
 PAM  SN ES   1   1256 19.54                             151     0.0 7   76  38 
 GUE  SZ EP       1256  4.66                             139    -0.110  117  11 
 GRA  SZ IP       1256  5.28                             137     0.010  126  16 
 GRA  SZ ES   1   1256 24.99                             137     0.0 7  126  16 
 OCA  SZ ES   1   1256 30.90                             130     0.3 7  161 352 
 NOR  SZ EP       1256 15.82                             118     0.0 8  236 235 
 NOR  SN ES   2   1256 43.11                             118    -0.8 4  236 235 
 CHI  HZ EP       1256 17.88                             117     0.2 8  249 196 
 CHI  HN ES   1   1256 47.95                             117     0.9 6  249 196 
 CHI  HZ I        1256 50.83         9.2 0.70                           249 196 
 RREF HN ES   3   1257  2.87                             111     0.5 2  323 230 
 RREF HZ I        1257  9.39         5.7 0.33                           323 230 
 PRA  HZ EP       1256 33.95                             107     0.4 6  393 210 
 PRA  HN ES   2   1257 14.46                             107    -0.9 3  393 210 
                                                                                
