 2011  8 9 1208 55.1 L   6.768 -73.071144.5  RSN  6 0.4 2.2LRSN                1
 GAP=207        0.84       4.1     8.8  6.8 -0.1084E+02 -0.1526E+01  0.8069E+01E
 Epicentro: LOS SANTOS - SANTANDER                                             3
 ACTION:UPD 12-07-13 15:50 OP:ep   STATUS:               ID:20110809120855 L   I
 2011-08-09-1207-57S.COL___150                                                 6
 STAT SP IPHASW D HRMM SECON CODA AMPLIT PERI AZIMU VELO AIN AR TRES W  DIS CAZ7
 BAR2 SZ EP       12 9 14.76                             171    0.2310 23.0 212 
 BAR2 SZ ES   1   12 9 29.37                             171   -0.34 7 23.0 212 
 BAR2 SZ I        12 9 33.07        31.9 0.48                          23.0 212 
 BRR  HZ EP       12 9 16.71                             149    0.1110 80.1 298 
 BRR  HZ I        12 9 18.57        48.7 0.12                          80.1 298 
 BRR  HE ES   1   12 9 34.12                             149    0.72 7 80.1 298 
 OCA  SZ EP       12 9 23.95                             128    0.24 9  165 350 
 OCA  SZ ES   1   12 9 45.08                             128   -0.98 7  165 350 
 OCA  SZ I        12 9 50.98        25.7 0.20                           165 350 
 NOR  SZ EP       12 9 30.94                             118   -0.28 8  239 236 
 NOR  SN ES   1   12 9 59.12                             118   -0.32 6  239 236 
 CHI  HZ EP       12 9 32.56                             117   -0.01 8  248 197 
 CHI  HE ES   1   1210  1.59                             117   -0.23 6  248 197 
 CHI  HZ I        1210  7.86         7.2 0.74                           248 197 
 PRA  HZ EP       12 9 48.88                             106    0.22 6  393 211 
                                                                                
