 2014  3 9 1232 58.6 L   6.532 -73.528108.0  RSN 20 0.6 2.6LRSN 3.2WRSN        1
 SPEC AVERAGE  MO 13.9 ST0.536 OM  2.1 f0 1.87 R1.3828 AL 0.00 WI 20.0 MW  3.2 3
 SPEC SD       MO  0.3 ST0.764 OM  0.5 f0 1.17 R0.6266 AL      WI      MW  0.2 3
 GAP= 52        1.45       2.8     2.9  6.6 -0.1229E+01  0.3633E+01 -0.1212E+01E
 Epicentro: EL CARMEN DE CHUCURI - SANTANDER                                   3
 SPEC BAR2SH Z MO 14.6 ST  1.5 OM  2.8 f0 1.86 R1.0344 AL-0.00 WI 20.0 MW  3.7 3
 SPEC BAR2SH Z T123325 K 0.000 GD  114 VS 5.20 DE 3.50 Q0750.0 QA 1.50 VS 5.20 3
 SPEC RUS HH Z MO 13.9 ST0.154 OM  2.0 f0 1.52 R1.2658 AL-0.00 WI 20.0 MW  3.2 3
 SPEC RUS HH Z T123331 K 0.000 GD  138 VS 5.20 DE 3.50 Q0750.0 QA 1.50 VS 5.20 3
 SPEC ZAR HH Z MO 13.7 ST  1.0 OM  1.7 f0 3.10 R0.6206 AL-0.00 WI 20.0 MW  3.1 3
 SPEC ZAR HH Z T123347 K 0.000 GD  210 VS 5.20 DE 3.50 Q0750.0 QA 1.50 VS 5.20 3
 SPEC OCA HH Z MO 13.7 ST0.551 OM  1.6 f0 2.71 R0.7100 AL-0.00 WI 20.0 MW  3.0 3
 SPEC OCA HH Z T123348 K 0.000 GD  218 VS 5.20 DE 3.50 Q0750.0 QA 1.50 VS 5.20 3
 SPEC TAM HH Z MO 14.5 ST0.097 OM  2.4 f00.821 R2.3435 AL-0.00 WI 20.0 MW  3.6 3
 SPEC TAM HH Z T123348 K 0.000 GD  220 VS 5.20 DE 3.50 Q0750.0 QA 1.50 VS 5.20 3
 SPEC ROSCBH Z MO 13.7 ST0.045 OM  1.6 f0 1.15 R1.6730 AL-0.00 WI 20.0 MW  3.1 3
 SPEC ROSCBH Z T123353 K 0.000 GD  233 VS 5.20 DE 3.50 Q0750.0 QA 1.50 VS 5.20 3
 SPEC HEL HH Z MO 13.8 ST0.107 OM  1.7 f0 1.39 R1.3842 AL-0.00 WI 20.0 MW  3.2 3
 SPEC HEL HH Z T123355 K 0.000 GD  249 VS 5.20 DE 3.50 Q0750.0 QA 1.50 VS 5.20 3
 SPEC SML HH Z MO 13.6 ST  2.7 OM  1.4 f0 4.95 R0.3887 AL-0.00 WI 20.0 MW  3.0 3
 SPEC SML HH Z T1234 2 K 0.000 GD  279 VS 5.20 DE 3.50 Q0750.0 QA 1.50 VS 5.20 3
 SPEC URE HH Z MO 13.7 ST0.634 OM  1.5 f0 2.82 R0.6823 AL-0.00 WI 20.0 MW  3.1 3
 SPEC URE HH Z T1234 0 K 0.000 GD  280 VS 5.20 DE 3.50 Q0750.0 QA 1.50 VS 5.20 3
 SPEC CBOCHH Z MO 13.9 ST0.049 OM  1.7 f0 1.00 R1.9240 AL-0.00 WI 20.0 MW  3.2 3
 SPEC CBOCHH Z T1234 8 K 0.000 GD  304 VS 5.20 DE 3.50 Q0750.0 QA 1.50 VS 5.20 3
 SPEC DBB SH Z MO 14.1 ST0.067 OM  1.9 f00.940 R2.0468 AL-0.00 WI 20.0 MW  3.4 3
 SPEC DBB SH Z T123411 K 0.000 GD  319 VS 5.20 DE 3.50 Q0750.0 QA 1.50 VS 5.20 3
 SPEC ORTCHH Z MO 13.8 ST0.027 OM  1.5 f00.900 R2.1378 AL-0.00 WI 20.0 MW  3.1 3
 SPEC ORTCHH Z T123420 K 0.000 GD  363 VS 5.20 DE 3.50 Q0750.0 QA 1.50 VS 5.20 3
 SPEC SDV BH Z MO 13.7 ST0.044 OM  1.4 f0 1.09 R1.7651 AL-0.00 WI 20.0 MW  3.1 3
 SPEC SDV BH Z T123431 K 0.000 GD  425 VS 5.20 DE 3.50 Q0750.0 QA 1.50 VS 5.20 3
 OLDACT:DUP 14-03-09 20:16 OP:stll STATUS:               ID:20140309122807d    3
 ACTION:UPD 14-04-09 23:15 OP:nd   STATUS:               ID:20140309123258 L   I
 OLDACT:UP  14-03-09 20:47 OP:stll STATUS:               ID:20140309122807d    3
 2014-03-09-1228-06M.COL___220                                                 6
 STAT SP IPHASW D HRMM SECON CODA AMPLIT PERI AZIMU VELO AIN AR TRES W  DIS CAZ7
 BAR2 SZ IP     C 1233 15.07                             159    0.8510 38.8  80 
 BAR2 SZ ES       1233 26.94                             159    0.5110 38.8  80 
 BAR2 SZ I        1233 28.52      1368.1 0.38            155           38.8  80 
 RUS  HZ EP       1233 18.00                             139    0.4010 86.2 145 
 RUS  HE ES       1233 32.62                             139    0.1610 86.2 145 
 RUS  SZ I        1233 35.36        67.3 0.64            131           86.2 145 
 PTB  HZ IP     D 1233 17.79                             133   -0.5610  103 271 
 PTB  HN ES       1233 32.45                             133   -1.3410  103 271 
 PTB  SZ I        1233 33.70        79.6 0.12            124            103 271 
 SPBC HZ EP       1233 19.77                             130    0.2410  114 212 
 SPBC HN ES       1233 36.02                             130    0.1310  114 212 
 SPBC SZ I        1233 43.57        64.9 0.16            121            114 212 
 PAM  SZ EP       1233 21.44                             126    0.0810  128  46 
 PAM  SN ES       1233 38.88                             126   -0.2710  128  46 
 ZAR  HZ EP       1233 26.87                             116    0.54 9  181 306 
 ZAR  HN ES       1233 48.88                             116    0.89 9  181 306 
 ZAR  SZ I        1233 53.70       104.9 0.38            109            181 306 
 NOR  HZ EP       1233 26.49                             116   -0.09 9  183 234 
 NOR  HN ES       1233 47.80                             116   -0.63 9  183 234 
 NOR  SZ I        1233 52.27        36.2 0.44            109            183 234 
 OCA  HZ EP       1233 27.21                             115   -0.29 9  190   7 
 OCA  HE ES       1233 49.67                             115   -0.40 9  190   7 
 OCA  SZ I        1233 57.36        46.2 0.18            109            190   7 
 TAM  HZ IP     C 1233 27.79                             114    0.19 9  192  93 
 TAM  HN ES       1233 50.08                             114   -0.18 9  192  93 
 TAM  SZ I        1233 53.81        17.1 0.22            109            192  93 
 ROSC BZ EP       1233 30.97                             113    1.34 8  207 205 
 ROSC BN ES       1233 54.53                             113    0.66 8  207 205 
 ROSC SZ I        1234  5.21        16.6 0.40            107            207 205 
 CHI  HZ EP       1233 30.89                             112    0.67 8  212 186 
 CHI  HN ES       1233 54.23                             112   -0.69 8  212 186 
 CHI  SZ I        1233 59.69        11.7 0.28            106            212 186 
 HEL  HZ EP       1233 31.88                             110    0.24 8  225 260 
 HEL  HN ES       1233 56.71                             110   -0.73 8  225 260 
 HEL  SZ I        1234  1.99        27.3 0.48            105            225 260 
 SML  HZ EP       1233 35.06                             107    0.02 8  258 347 
 SML  HE ES       1234  3.82                             107    0.32 8  258 347 
 SML  SZ I        1234  7.10        52.3 0.10            103            258 347 
 URE  HZ EP       1233 34.47                             107   -0.74 8  259 301 
 URE  SZ I        1234 12.50        34.2 0.62            103            259 301 
 CBOC HZ EP       1233 38.46                             105    0.08 7  285 255 
 CBOC HE ES       1234  9.63                             105    0.18 7  285 255 
 CBOC SZ I        1234 12.87        19.6 0.42            101            285 255 
 PTGC HZ EP       1233 39.37                             104   -0.70 7  301 149 
 PTGC HN ES       1234 11.16                             104   -1.29 7  301 149 
 PTGC SZ I        1234 38.17        17.6 0.40            101            301 149 
 DBB  SZ EP       1233 40.24                             104    0.00 7  301 280 
 DBB  SZ I        1234 17.28        25.5 0.44            101            301 280 
 ORTC HZ EP       1233 46.78                             101    1.15 6  347 213 
 ORTC HN ES       1234 21.84                             101   -0.50 6  347 213 
 ORTC SZ I        1234 29.01        10.7 0.50             99            347 213 
 SOCV BZ EP       1233 45.58                             101   -0.75 6  353  57 
 SOCV BZ ES   4   1234 19.81                             101   -3.78 0  353  57 
 SDV  BZ EP       1233 53.02                              98   -0.62 6  412  51 
 SDV  BN ES   4   1234 33.04                              98   -3.57 0  412  51 
                                                                                
