 2011  5 9 1234 22.0 L   6.786 -73.100142.0  RSN  4 0.1 1.7LRSN                1
 GAP=164        0.31       2.6     4.6  4.5 -0.3707E+00 -0.2816E+01 -0.2936E+01E
 Epicentro: LOS SANTOS - SANTANDER                                             3
 ACTION:UP  11-06-29 08:51 OP:tino STATUS:               ID:20110509123422 L   I
 2011-05-09-1230-43S.COL___131                                                 6
 STAT SP IPHASW D HRMM SECON CODA AMPLIT PERI AZIMU VELO SNR AR TRES W  DIS CAZ7
 BAR2 SZ EP   1   1234 41.16                             170     0.0 7   23 203 
 BAR2 SZ ES   2   1234 55.99                             170    -0.1 5   23 203 
 BAR2 SZ I        1234 57.74         8.5 0.24                            23 203 
 BRR  HZ IP     D 1234 43.00                             150     0.010   76 298 
 BRR  HZ I        1234 43.16        16.5 0.18                            76 298 
 BRR  HN ES   2   1234 59.56                             150     0.1 5   76 298 
 RUS  HZ EP   2   1234 45.44                             143     0.2 5   99 179 
 RUS  HN ES   2   1235  3.34                             143     0.0 5   99 179 
 RUS  HZ I        1235  5.29         6.3 0.32                            99 179 
 GRA  SZ EP   1   1234 46.83                             136    -0.1 7  126  15 
 GRA  SZ ES   2   1235  6.45                             136     0.1 5  126  15 
 GRA  SZ I        1235  9.09         5.6 0.34                           126  15 
                                                                                
