 2013 10 9 1254 40.8 L   6.571 -73.241142.0  RSN  4 0.5 1.5LRSN                1
 GAP=111        0.98       7.5     7.2  8.5  0.2177E+02  0.1580E+02 -0.3999E+00E
 Epicentro: CABRERA - SANTANDER                                                3
 ACTION:UPD 13-11-25 09:20 OP:ep   STATUS:               ID:20131009125440 L   I
 OLDACT:REG 13-10-09 18:12 OP:nd   STATUS:               ID:20131009124959     3
 2013-10-09-1249-59M.COL___273                                                 6
 STAT SP IPHASW D HRMM SECON CODA AMPLIT PERI AZIMU VELO AIN AR TRES W  DIS CAZ7
 BAR2 SZ EP       1254 59.40                             177   -0.3310 6.90  70 
 BAR2 SZ ES       1255 14.87                             177    0.3510 6.90  70 
 BAR2 SZ I        1255 15.51        11.8 0.46            176           6.90  70 
 RUS  HZ EP   2   1255  4.02                             151    1.45 5 77.0 167 
 RUS  HN ES       1255 19.35                             151   -0.2310 77.0 167 
 RUS  HZ I        1255 22.95         4.7 0.26            153           77.0 167 
 BRR  HZ EP       1255  1.53                             150   -0.4510 78.9 319 
 BRR  HN ES       1255 18.74                             150    0.2210 78.9 319 
 BRR  HZ I        1255 23.98         9.1 0.34            150           78.9 319 
 PTB  HZ EP       1255  6.38                             134    0.1410  134 269 
 PTB  HN ES       1255 26.06                             134   -0.0510  134 269 
 PTB  HZ I        1255 31.32         3.3 0.10            135            134 269 
                                                                                
