 2015  5 9 1023 38.7 L   6.826 -73.135142.2  RSN 18 0.6 2.3LRSN                1
 GAP= 53        1.53       3.7     4.1  6.9 -0.2429E+01  0.7469E+01  0.4178E+00E
 Epicentro: LOS SANTOS - SANTANDER                                             3
 ACTION:UPD 15-09-10 22:02 OP:cam  STATUS:               ID:20150509102338 L   I
 OLDACT:REG 15-05-09 20:12 OP:stll STATUS:               ID:20150509101748     3
 2015-05-09-1017-48M.COL___282                                                 6
 STAT SP IPHASW D HRMM SECON CODA AMPLIT PERI AZIMU VELO AIN AR TRES W  DIS CAZ7
 BAR2 EZ IP     D 1023 58.10                             169    0.1010 26.4 191 
 BAR2 EZ ES       1024 12.81                             169   -0.2110 26.4 191 
 BAR2 EZ I        1024 14.28        46.7 0.22            169           26.4 191 
 BRR  HZ IP     D 1023 59.97                             152    0.5010 70.9 296 
 BRR  HN ES       1024 16.79                             152    1.1410 70.9 296 
 BRR  HZ I        1024 20.79        25.9 0.16            148           70.9 296 
 PAM  SZ EP     D 1024  0.93                             151    0.5410 74.4  40 
 PAM  SZ I        1024  1.21        76.1 0.22            153           74.4  40 
 PAM  SN ES       1024 17.56                             151    0.2810 74.4  40 
 RUS  HZ EP       1024  2.39                             142    0.0510  103 177 
 RUS  HN ES       1024 19.98                             142   -0.7810  103 177 
 RUS  HZ I        1024 21.73        25.7 0.34            144            103 177 
 TAM  HZ EP       1024  6.18                             130    0.08 9  155 106 
 TAM  HZ I        1024  6.50        14.6 0.18            133            155 106 
 TAM  HN ES       1024 27.29                             130   -0.15 9  155 106 
 OCA  HZ EP       1024  6.41                             129   -0.09 9  158 353 
 OCA  HN ES       1024 27.65                             129   -0.51 9  158 353 
 OCA  HZ I        1024 32.78        42.2 0.40            129            158 353 
 SPBC HZ EP       1024  7.14                             127   -0.10 9  166 219 
 SPBC HE ES       1024 29.05                             127   -0.43 9  166 219 
 SPBC HZ I        1024 30.10        33.4 0.28            128            166 219 
 ZAR  HZ EP       1024 11.09                             121    0.15 9  204 291 
 ZAR  HE ES       1024 36.16                             121    0.10 9  204 291 
 NOR  HZ EP       1024 14.78                             117    0.24 8  237 234 
 NOR  HN ES       1024 41.43                             117   -1.03 8  237 234 
 NOR  HZ I        1024 48.09        13.6 0.16            117            237 234 
 SML  HZ EP       1024 14.61                             117   -0.31 8  242 335 
 SML  HE ES       1024 42.07                             117   -1.08 8  242 335 
 SML  HZ I        1024 49.17        19.6 0.10            117            242 335 
 HEL  HZ EP       1024 19.33                             114    0.37 8  274 255 
 HEL  HN ES       1024 50.27                             114   -0.08 8  274 255 
 HEL  HZ I        1024 58.50         7.2 0.36            114            274 255 
 SOCV BZ EP       1024 20.87                             111   -0.46 7  299  57 
 SOCV BN ES   4   1024 52.40                             111   -2.15 0  299  57 
 SOCV BN E        1024 52.40                                            299  57 
 GUY2CHZ EP       1024 22.89                             111    0.42 7  304 234 
 GUY2CHN ES       1024 57.22                             111    0.63 7  304 234 
 GUY2CHZ I        1025  3.39         8.1 0.32                           304 234 
 PTGC HZ IP   9 D 1024 21.34                             111   -1.35 0  311 159 
 PTGC HN ES       1024 53.62                                   -2.01 7  311 159 
 RREF HZ EP       1024 26.69                             110    1.66 7  325 229 
 RREF HN ES       1025  0.45                             110   -0.70 7  325 229 
 RREF HZ I        1025  7.10         3.4 0.22            110            325 229 
 MON  HZ EP   9   1024 25.79                             108   -1.70 0  353 308 
 MON  HN ES       1025  2.70                                   -1.12 6  353 308 
 MON  HZ I        1025 19.27         4.7 0.52            108            353 308 
 ORTC HZ EP       1024 33.01                             105    0.13 6  398 216 
 ORTC HN ES       1025 15.58                             105    0.46 6  398 216 
 ORTC HZ I        1025 21.28         4.6 0.24            106            398 216 
 SJC  HZ EP       1024 32.30                             105   -1.66 6  407 327 
 SJC  HZ I        1024 32.80         5.5 0.22            105            407 327 
 SJC  HN E        1025 13.20                                            407 327 
 SJC  HN ES   4   1025 13.20                             105   -3.84 0  407 327 
                                                                                
