 2010  9 9 1406 24.3 L   6.799 -73.054139.7  RSN  8 0.2 2.2LRSN                1
 GAP=169        0.43       2.8     5.7  4.7 -0.5952E+01 -0.3068E+00  0.1100E+01E
 Epicentro: LOS SANTOS - SANTANDER                                             3
 ACTION:UP  11-02-18 11:01 OP:tino STATUS:               ID:20100909140624 L   I
 2010-09-09-1403-24S.COL___120                                                 6
 STAT SP IPHASW D HRMM SECON CODA AMPLIT PERI AZIMU VELO SNR AR TRES W  DIS CAZ7
 BAR2 SZ IP     D 14 6 43.29                             169     0.010   27 212 
 BAR2 SZ ES   2   14 6 58.08                             169     0.0 5   27 212 
 BAR2 SZ I        14 6 59.33        46.7 0.36                            27 212 
 GIR2 SZ EP   2   14 6 43.37                             165     0.0 5   35 333 
 GIR2 SZ ES   3   14 6 58.40                             165     0.2 2   35 333 
 BRR  HZ EP   1   14 6 45.06                             148    -0.3 7   80 295 
 BRR  HE ES   2   14 7  2.05                             148     0.3 5   80 295 
 BRR  HZ I        14 7  4.40        21.2 0.34                            80 295 
 RUS  HZ EP   1   14 6 47.30                             143    -0.2 7  100 182 
 RUS  HN ES   2   14 7  5.61                             143     0.1 5  100 182 
 RUS  HZ I        14 7  7.96        18.7 0.22                           100 182 
 GUE  SZ EP   1   14 6 48.42                             138     0.1 7  115   7 
 GRA  SZ EP   1   14 6 49.19                             136     0.4 7  123  13 
 GRA  SZ ES   2   14 7  7.55                             136    -0.4 5  123  13 
 GRA  SZ I        14 7  9.87        10.9 0.38                           123  13 
 RREF HZ EP   2   14 7 11.21                             109     0.1 3  329 231 
 RREF HE ES   3   14 7 48.23                             109     0.7 2  329 231 
 RREF HZ I        14 7 52.16         7.1 0.63                           329 231 
 PRA  HZ EP   1   14 7 18.08                             105    -0.1 4  397 211 
 PRA  HN ES   2   14 8  0.55                             105     0.3 3  397 211 
 PRA  HZ I        14 8  5.55         7.6 0.21                           397 211 
                                                                                
