 2013 10 9 1021 39.5 L   6.335 -73.627108.6  RSN  8 0.4 1.7LRSN                1
 GAP= 84        0.99       3.6     3.8  6.8  0.2107E+01  0.6748E+01 -0.4557E+01E
 Epicentro: SANTA HELENA DEL OPON - SANTANDER                                  3
 ACTION:UPD 13-11-25 09:20 OP:ep   STATUS:               ID:20131009102139 L   I
 OLDACT:REG 13-10-09 18:02 OP:nd   STATUS:               ID:20131009101959     3
 2013-10-09-1019-59M.COL___273                                                 6
 STAT SP IPHASW D HRMM SECON CODA AMPLIT PERI AZIMU VELO AIN AR TRES W  DIS CAZ7
 BAR2 SZ EP       1021 56.47                             150    0.3110 56.8  60 
 BAR2 SZ ES       1022  9.55                             150    0.3810 56.8  60 
 BAR2 SZ I        1022 11.04        56.5 0.34            152           56.8  60 
 RUS  HZ EP       1021 57.61                             142   -0.3210 77.6 129 
 RUS  HN ES       1022 11.72                             142   -0.6010 77.6 129 
 RUS  HZ I        1022 14.62         3.2 0.30            150           77.6 129 
 BRR  HZ EP       1021 58.10                             139    0.2210 85.8 354 
 BRR  HN ES       1022 12.20                             139   -0.0310 85.8 354 
 BRR  HZ I        1022 20.96         9.2 0.16            139           85.8 354 
 SPBC HZ EP       1021 58.67                             137    0.3110 90.2 213 
 SPBC HN ES       1022 13.69                             137    0.6010 90.2 213 
 SPBC HZ I        1022 15.89         9.0 0.14            145           90.2 213 
 PTB  HZ EP       1021 58.14                             136   -0.4810 94.4 284 
 PTB  HN ES       1022 13.02                             136   -0.5210 94.4 284 
 PTB  HZ I        1022 15.83        10.1 0.10            139           94.4 284 
 ZAR  HZ EP       1022  7.98                             115    0.10 9  187 313 
 ZAR  HN ES       1022 30.19                             115    0.15 9  187 313 
 ZAR  HZ I        1022 35.32         7.9 0.28            118            187 313 
 URE  HZ EP   4   1022 15.47                             107   -1.05 0  262 307 
 URE  HN ES   4   1022 40.50                             107   -4.91 0  262 307 
 URE  HZ I        1022 46.38         7.1 0.14            110            262 307 
 SML  HZ EP       1022 18.11                             106   -0.10 7  277 350 
 SML  HN ES   4   1022 45.21                             106   -3.22 0  277 350 
 SML  HZ I        1022 55.26         4.8 0.22            109            277 350 
                                                                                
