 2010  3 9 1730 10.4 L   6.840 -72.987146.7  RSN  6 0.4 1.9LRSN                1
 GAP=256        0.70       4.6     7.5  5.9  0.9829E+01  0.2622E+01  0.1044E+02E
 Epicentro: CEPITA - SANTANDER                                                 3
 ACTION:UP  10-08-24 09:53 OP:vdl  STATUS:               ID:20100309173010 L   I
 2010-03-09-1726-30S.COL___101                                                 6
 STAT SP IPHASW D HRMM SECON CODA AMPLIT PERI AZIMU VELO SNR AR TRES W  DIS CAZ7
 BAR2 SZ EP       1730 30.62                             166     0.210   35 218 
 BAR2 SZ ES   1   1730 46.20                             166     0.1 7   35 218 
 BRR  HZ EP       1730 32.38                             148    -0.110   85 290 
 BRR  HZ I        1730 34.16        23.1 0.28                            85 290 
 BRR  HN ES       1730 49.58                             148    -0.210   85 290 
 RUS  BZ EP       1730 34.63                             143     0.010  105 186 
 RUS  BZ I        1730 35.35         6.4 0.46                           105 186 
 RUS  BE ES   1   1730 53.54                             143     0.1 7  105 186 
 CHI  HZ EP   1   1730 49.00                             116    -0.2 6  258 199 
 CHI  HE ES   1   1731 18.85                             116    -0.6 6  258 199 
 CHI  HZ I        1731 24.46         3.9 0.32                           258 199 
 RREF BZ EP   1   1730 58.98                             110     0.5 5  338 231 
 RREF BN ES   2   1731 37.42                             110     1.5 3  338 231 
 RREF BZ I        1731 44.82         5.0 0.32                           338 231 
 PRA  HZ EP   1   1731  5.03                             106    -0.4 4  405 211 
 PRA  HE ES   1   1731 48.08                             106    -0.3 4  405 211 
                                                                                
