 2015  3 9 1738 53.9 L   6.824 -73.150147.7  RSN 24 0.4 2.6LRSN                1
 GAP= 70        0.95       2.4     2.7  4.5 -0.7078E+00  0.3027E+01  0.1577E+01E
 Epicentro: LOS SANTOS - SANTANDER                                             3
 ACTION:UPD 15-04-30 16:24 OP:nd   STATUS:               ID:20150309173853 L   I
 OLDACT:REG 15-03-09 23:01 OP:spq  STATUS:               ID:20150309173749     3
 2015-03-09-1737-49M.COL___281                                                 6
 STAT SP IPHASW D HRMM SECON CODA AMPLIT PERI AZIMU VELO AIN AR TRES W  DIS CAZ7
 BAR2 EZ EP       1739 13.77                             170   -0.0110 25.9 188 
 BAR2 EZ ES   1   1739 28.89                             170   -0.43 7 25.9 188 
 BAR2 EZ I        1739 29.97        83.8 0.22            167           25.9 188 
 BRR  HZ EP       1739 15.58                             153    0.4410 69.6 297 
 BRR  HE ES       1739 32.48                             153    0.7510 69.6 297 
 BRR  HZ I        1739 36.75        46.3 0.03            152           69.6 297 
 PAM  SZ EP       1739 16.57                             152    0.3810 75.6  41 
 PAM  SN ES       1739 33.60                             152    0.0010 75.6  41 
 PAM  SZ I        1739 35.92       111.0 0.44            157           75.6  41 
 RUS  HZ EP       1739 17.92                             143   -0.0810  103 176 
 RUS  HE ES       1739 37.11                             143    0.2810  103 176 
 RUS  HZ I        1739 37.63        62.1 0.30            144            103 176 
 PTB  HZ EP       1739 20.04                             132   -0.96 9  148 258 
 PTB  HN ES       1739 41.53                             132   -0.64 9  148 258 
 PTB  HZ I        1739 43.27        39.7 0.14            132            148 258 
 TAM  HZ EP     D 1739 22.17                             131    0.37 9  156 106 
 TAM  HE ES   1   1739 43.43                             131   -0.16 7  156 106 
 OCA  HZ EP       1739 21.88                             131   -0.20 9  158 353 
 OCA  HE ES       1739 43.73                             131   -0.35 9  158 353 
 OCA  HZ I        1739 48.34        47.8 0.38            133            158 353 
 SPBC HZ EP       1739 22.46                             129   -0.22 9  165 218 
 SPBC HE ES       1739 44.99                             129   -0.17 9  165 218 
 SPBC HZ I        1739 51.81        88.2 0.20            129            165 218 
 ZAR  HZ EP       1739 26.17                             123   -0.12 9  203 291 
 ZAR  HE ES       1739 51.40                             123   -0.19 9  203 291 
 ZAR  HZ I        1739 57.28        37.0 0.40            123            203 291 
 NOR  HZ EP       1739 29.47                             119   -0.37 8  236 234 
 NOR  HE ES       1739 58.06                             119    0.17 8  236 234 
 NOR  HZ I        1740  5.69        44.0 0.14            119            236 234 
 SML  HZ EP       1739 30.15                             118   -0.17 8  241 335 
 SML  HN ES   1   1739 58.64                             118   -0.12 6  241 335 
 SML  HZ I        1740  2.24        63.1 0.05            120            241 335 
 CHI  HZ EP       1739 31.78                             117   -0.16 8  251 195 
 CHI  HN ES       1740  1.24                             117   -0.39 8  251 195 
 CHI  HZ I        1740  4.74        27.4 0.46            118            251 195 
 ROSC BZ EP   4   1739 33.59                             117    1.28 0  255 211 
 ROSC BN ES   4   1740  4.88                             117    2.57 0  255 211 
 ROSC BZ I        1740 11.87        38.3 0.40            118            255 211 
 HEL  HZ EP   1   1739 35.13                             115    0.93 6  272 255 
 HEL  HN ES       1740  6.24                             115    0.57 8  272 255 
 HEL  HZ I        1740 11.36        21.9 0.36            116            272 255 
 GUY2CHZ EP   4   1739 39.07                             113    1.37 0  302 234 
 GUY2CHN ES   4   1740 13.59                             113    1.70 0  302 234 
 GUY2CHZ I        1740 19.91        22.6 0.26                           302 234 
 PTGC HZ EP   4   1739 37.03                             112   -1.08 0  311 159 
 PTGC HN ES   4   1740 10.56                             112   -2.06 0  311 159 
 PTGC HZ I        1740 14.08        27.4 0.45            113            311 159 
 CBOC HZ EP   4   1739 42.23                             110    1.32 0  334 252 
 CBOC HN ES       1740 18.36                             110    0.76 7  334 252 
 CBOC HZ I        1740 24.01         6.4 0.38            111            334 252 
 DBB  SZ EP       1739 41.27                             110   -0.08 7  339 274 
 DBB  SZ ES   1   1740 17.95                             110   -0.43 5  339 274 
 DBB  SZ I        1740 21.73        50.9 0.32            111            339 274 
 TOL  SZ EP       1739 43.15                             110    0.77 7  345 224 
 TOL  SE ES   4   1740 22.68                             110    2.46 0  345 224 
 TOL  SZ I        1740 27.34        21.9 0.54            110            345 224 
 MON  HZ EP   4   1739 40.80                             109   -1.91 0  352 308 
 MON  HN ES   4   1740 19.43                             109   -1.38 0  352 308 
 MON  HZ I        1740 21.18         6.4 0.22            110            352 308 
 ANIL HZ EP   4   1739 44.91                             109    0.98 0  359 224 
 ANIL HN ES   4   1740 24.06                             109    1.08 0  359 224 
 ANIL HZ I        1740 30.65         6.2 0.34            109            359 224 
 PRA  HZ EP       1739 47.62                             107   -0.08 6  394 209 
 PRA  HN ES       1740 29.31                             107   -0.38 6  394 209 
 PRA  HZ I        1740 35.64        14.4 0.04            108            394 209 
 ORTC HZ EP       1739 48.12                             107    0.05 6  397 216 
 ORTC HN ES   4   1740 31.35                             107    1.00 0  397 216 
 ORTC HZ I        1740 35.12        14.3 0.32            107            397 216 
 PAL  HZ EP       1739 49.23                             106    0.02 6  407 239 
 PAL  HE ES       1740 33.19                             106    0.82 6  407 239 
 PAL  HZ I        1740 37.58         9.0 0.32            107            407 239 
                                                                                
