 2010 11 9 1751  1.0 L   6.790 -73.102144.0  RSN 12 0.3 2.1LRSN                1
 GAP=139        0.54       2.7     4.4  5.1 -0.2676E+01 -0.7220E+00  0.2329E+01E
 Epicentro: LOS SANTOS - SANTANDER                                             3
 ACTION:UP  10-12-17 16:51 OP:REBC STATUS:               ID:20101109175101 L   I
 2010-11-09-1747-42S.COL___129                                                 6
 STAT SP IPHASW D HRMM SECON CODA AMPLIT PERI AZIMU VELO SNR AR TRES W  DIS CAZ7
 BAR2 SZ EP       1751 20.44                             170     0.010   24 202 
 BAR2 SZ ES   2   1751 35.70                             170     0.1 5   24 202 
 BAR2 SZ I        1751 36.58        25.9 0.38                            24 202 
 GIR2 SZ EP   2   1751 20.54                             166     0.0 5   33 342 
 BRR  HZ EP       1751 22.17                             151    -0.110   76 297 
 BRR  HN ES   1   1751 38.90                             151     0.1 7   76 297 
 BRR  HZ I        1751 42.49        36.1 0.21                            76 297 
 RUS  HZ EP       1751 24.53                             144     0.010   99 179 
 RUS  HN ES   2   1751 42.87                             144     0.1 5   99 179 
 RUS  HZ I        1751 45.12        15.1 0.27                            99 179 
 GUE  SZ EP   2   1751 25.30                             139    -0.3 5  117  10 
 GRA  SZ EP   1   1751 25.74                             137    -0.3 7  125  15 
 GRA  SZ ES   2   1751 45.02                             137    -0.6 5  125  15 
 GRA  SZ I        1751 46.83        15.5 0.13                           125  15 
 OCA  SZ EP   1   1751 29.60                             129     0.3 7  162 351 
 OCA  SZ ES   2   1751 52.33                             129     0.9 5  162 351 
 OCA  SZ I        1751 55.47        15.9 0.18                           162 351 
 YOP  SZ EP   2   1751 31.06                             126     0.4 4  176 155 
 NOR  SZ EP   2   1751 36.91                             118    -0.1 4  238 235 
 NOR  SE ES   2   1752  4.37                             118    -0.7 4  238 235 
 HEL  HZ EP   2   1751 42.04                             114     0.4 4  277 256 
 HEL  HZ I        1752 18.40         8.2 0.33                           277 256 
 RREF HZ EP   2   1751 47.13                             110    -0.3 3  325 230 
 RREF HE ES   2   1752 23.65                             110     0.0 3  325 230 
 RREF HZ I        1752 33.59         8.2 0.55                           325 230 
 PRA  HZ EP   2   1751 54.78                             106     0.1 3  393 210 
 PRA  HE ES   2   1752 36.73                             106     0.3 3  393 210 
                                                                                
