 2016  1 9 1400  3.8 L   6.782 -73.188146.0  RSN  5 0.5 1.5LRSN                1
 GAP=132        1.33       7.1     6.8  9.8 -0.4468E+01  0.7783E+01  0.2969E+01E
 Epicentro: ZAPATOCA - SANTANDER                                               3
 ACTION:UPD 16-03-09 23:24 OP:cam  STATUS:               ID:20160109140003 L   I
 OLDACT:DUP 16-01-09 23:50 OP:ar   STATUS:               ID:20160109135750d    3
 OLDACT:REG 16-01-09 22:33 OP:ar   STATUS:               ID:20160109135749     3
 2016-01-09-1357-49M.COL___273                                                 6
 STAT SP IPHASW D HRMM SECON CODA AMPLIT PERI AZIMU VELO AIN AR TRES W  DIS CAZ7
 BAR2 EZ EP       14 0 23.44                             171    0.0510 21.0 178 
 BAR2 EZ ES       14 0 38.36                             171   -0.3210 21.0 178 
 BAR2 EZ I        14 0 40.17         4.4 0.20            173           21.0 178 
 BRR  HZ EP       14 0 25.37                             153    0.5910 68.2 302 
 BRR  HN ES       14 0 42.03                             153    0.8610 68.2 302 
 BRR  HZ I        14 0 50.04         8.1 0.34            151           68.2 302 
 PAM  EZ EP       14 0 26.30                             149    0.0110 81.9  41 
 PAM  EN ES       14 0 43.24                             149   -0.6110 81.9  41 
 PAM  EZ I        14 0 44.75         5.9 0.18            153           81.9  41 
 RUS  HZ EP       14 0 27.24                             144   -0.2010 99.0 173 
 RUS  HN ES       14 0 46.35                             144    0.4610 99.0 173 
 RUS  HZ I        14 0 47.08         5.0 0.28            150           99.0 173 
 PTB  HZ EP       14 0 30.25                             133   -0.07 9  143 259 
 PTB  HN ES       14 0 50.13                             133   -0.89 9  143 259 
 PTB  HZ I        14 0 54.84         3.8 0.10            134            143 259 
                                                                                
