 2017  8 9 1930  8.4 L   6.669 -73.086122.1  RSN  4 0.6 1.4LRSN                1
 GAP=150        1.37       9.3    11.2 12.1 -0.2376E+02 -0.8038E+01  0.2160E+02E
 Epicentro: JORDAN - SANTANDER                                                 3
 ACTION:UPD 17-09-04 20:18 OP:rebc STATUS:               ID:20170809193004 L   I
 OLDACT:UP  17-08-10 02:01 OP:nlst STATUS:               ID:20170809193004 L   3
 OLDACT:DUP 17-08-10 00:45 OP:mg   STATUS:               ID:20170809192741d    3
 OLDACT:REG 17-08-09 22:29 OP:dnl  STATUS:               ID:20170809192740     3
 2017-08-09-1928-00M.COL___402                                                 6
 STAT SP IPHASW D HRMM SECON CODA AMPLIT PERI AZIMU VELO AIN AR TRES W  DIS CAZ7
 BAR2 EZ EP     C 1930 24.82                             173   -0.1410 13.6 231 
 BAR2 EZ ES       1930 37.35                             173   -0.5610 13.6 231 
 BAR2 EZ I        1930 41.65         4.6 0.21            170           13.6 231 
 BRR  HZ EP       1930 27.22                             143   -0.7010 84.4 305 
 BRR  HN ES   1   1930 44.12                             143    0.94 7 84.4 305 
 BRR  HZ I        1930 47.16        15.7 0.32            149           84.4 305 
 PAM  EZ EP       1930 28.54                             143   -0.1510 85.5  30 
 PAM  EN ES       1930 44.82                             143    0.2710 85.5  30 
 PAM  EZ I        1930 46.77         3.1 0.16            152           85.5  30 
 RUS  HZ EP       1930 29.46                             143    0.7410 85.9 180 
 RUS  HN ES   4   1930 48.04                             143    3.44 0 85.9 180 
 RUS  HZ I        1930 50.24         4.7 0.40            145           85.9 180 
                                                                                
