 2010  9 9 1129 59.6 L   6.799 -73.058144.9  RSN 12 0.4 2.3LRSN                1
 GAP=168        0.77       3.7     7.3  6.7 -0.9498E+01  0.6298E+01  0.4315E+01E
 Epicentro: LOS SANTOS - SANTANDER                                             3
 ACTION:UP  11-02-18 11:01 OP:tino STATUS:               ID:20100909112959 L   I
 2010-09-09-1127-48S.COL___120                                                 6
 STAT SP IPHASW D HRMM SECON CODA AMPLIT PERI AZIMU VELO SNR AR TRES W  DIS CAZ7
 BTL  SZ EP   1   1130 19.36                             169     0.1 7   27 300 
 BAR2 SZ EP   1   1130 19.18                             169     0.0 7   27 211 
 BAR2 SZ ES   2   1130 33.93                             169    -0.6 5   27 211 
 BAR2 SZ I        1130 35.23        96.1 0.29                            27 211 
 GIR2 SZ EP   1   1130 19.22                             166     0.0 7   34 334 
 GIR2 SZ ES   2   1130 34.88                             166     0.3 5   34 334 
 BRR  HZ IP     C 1130 20.94                             149    -0.210   80 295 
 BRR  HE ES   2   1130 38.16                             149     0.1 5   80 295 
 RUS  HZ EP   1   1130 23.16                             144    -0.1 7  100 182 
 RUS  HN ES   2   1130 41.66                             144     0.0 5  100 182 
 RUS  HZ I        1130 42.97        20.1 0.33                           100 182 
 GUE  SZ EP   1   1130 23.58                             140    -0.5 7  115   7 
 GRA  SZ EP   1   1130 24.97                             137     0.4 7  123  13 
 GRA  SZ ES   2   1130 44.64                             137     0.6 5  123  13 
 GRA  SZ I        1130 51.83        16.0 0.48                           123  13 
 OCA  SZ EP   1   1130 27.60                             129    -0.4 7  162 350 
 OCA  SZ ES   2   1130 50.58                             129     0.4 5  162 350 
 OCA  SZ I        1130 57.76        29.5 0.34                           162 350 
 CHI  HZ EP   1   1130 37.61                             117     0.1 6  251 197 
 CHI  HN ES   2   1131  7.04                             117    -0.1 4  251 197 
 CHI  HZ I        1131  9.17        12.6 0.42                           251 197 
 ROSC BZ EP   1   1130 39.38                             116     1.1 6  258 213 
 ROSC BE ES   2   1131  8.80                             116     0.4 4  258 213 
 ROSC BZ I        1131 13.89        14.1 0.26                           258 213 
 HEL  HZ EP   1   1130 41.16                             114     0.3 6  281 256 
 HEL  HE ES   2   1131 12.65                             114    -0.3 4  281 256 
 HEL  HZ I        1131 17.64        10.3 0.32                           281 256 
 PRA  HZ EP   1   1130 53.15                             106    -0.5 4  397 211 
 PRA  HN ES   2   1131 35.00                             106    -0.8 3  397 211 
 PRA  HZ I        1131 39.38         8.7 0.46                           397 211 
                                                                                
