 2015  9 9 1238 43.1 L   6.809 -73.168145.6  RSN 11 0.4 2.1LRSN                1
 GAP=199        1.00       3.2     4.7  5.3  0.1213E+01  0.6053E+01  0.6025E+00E
 Epicentro: LOS SANTOS - SANTANDER                                             3
 ACTION:UPD 15-10-28 16:25 OP:cam  STATUS:               ID:20150909123843 L   I
 OLDACT:DUP 15-09-09 21:41 OP:drio STATUS:               ID:20150909122750d    3
 2015-09-09-1227-48M.COL___355                                                 6
 STAT SP IPHASW D HRMM SECON CODA AMPLIT PERI AZIMU VELO AIN AR TRES W  DIS CAZ7
 BAR2 EZ EP       1239  2.55                             170   -0.1810 24.0 184 
 BAR2 EZ ES       1239 17.93                             170   -0.1110 24.0 184 
 BAR2 EZ I        1239 19.42        16.1 0.28            168           24.0 184 
 BRR  HZ EP       1239  4.63                             153    0.5310 68.6 299 
 BRR  HE ES       1239 20.80                             153    0.3310 68.6 299 
 RUS  HZ EP       1239  6.53                             143   -0.4010  102 175 
 RUS  HE ES       1239 25.99                             143    0.4810  102 175 
 RUS  HZ I        1239 27.80        11.8 0.52            145            102 175 
 PTB  HZ EP       1239  9.26                             132   -0.61 9  146 258 
 PTB  HN ES       1239 30.65                             132   -0.09 9  146 258 
 PTB  HZ I        1239 37.99        16.5 0.42            131            146 258 
 SPBC HZ EP       1239 11.69                             129    0.16 9  162 218 
 SPBC HN ES       1239 32.97                             129   -0.72 9  162 218 
 SPBC HZ I        1239 38.60        22.0 0.22            129            162 218 
 ZAR  HZ EP       1239 16.03                             123    0.75 9  201 292 
 ZAR  HN ES       1239 40.33                             123   -0.03 9  201 292 
 ZAR  HZ I        1239 46.14        12.8 0.48            122            201 292 
 NOR  HZ EP       1239 18.73                             119    0.05 8  233 234 
 NOR  HN ES       1239 46.36                             119   -0.07 8  233 234 
 NOR  HZ I        1239 48.91         8.6 0.22            118            233 234 
 SML  HZ EP       1239 18.84                             118   -0.68 8  242 336 
 SML  HN ES       1239 47.71                             118   -0.21 8  242 336 
 SML  HZ I        1239 55.08        18.1 0.10            118            242 336 
 GUY2CHZ EP       1239 27.19                             112    0.64 7  300 234 
 GUY2CHE ES       1240  0.20                             112   -0.24 7  300 234 
 GUY2CHZ I        1240  9.22         7.2 0.74                           300 234 
 TOL  SZ EP       1239 31.81                             109    0.56 7  343 224 
 TOL  SE ES   4   1240 11.23                             109    2.44 0  343 224 
 TOL  SZ I        1240 16.04         3.8 0.48            110            343 224 
 PRA  HZ EP       1239 36.33                             106   -0.26 6  392 209 
 PRA  HN ES       1240 18.64                             106    0.34 6  392 209 
 PRA  HZ I        1240 26.91         5.0 0.54            107            392 209 
                                                                                
