 2013  8 9 1743 24.7 L   6.790 -73.109147.0  RSN  5 0.2 1.8LRSN                1
 GAP=142        0.48       2.9     3.9  4.9  0.2540E+01 -0.1072E+01 -0.4567E+00E
 Epicentro: LOS SANTOS - SANTANDER                                             3
 ACTION:UPD 14-01-14 09:00 OP:ep   STATUS:               ID:20130809174324 L   I
 OLDACT:REG 13-08-09 16:45 OP:mh   STATUS:               ID:20130809173959     3
 2013-08-09-1739-59M.COL___266                                                 6
 STAT SP IPHASW D HRMM SECON CODA AMPLIT PERI AZIMU VELO AIN AR TRES W  DIS CAZ7
 BAR2 SZ EP   1   1743 44.14                             171   -0.30 7 23.3 200 
 BAR2 SZ ES   1   1743 59.51                             171   -0.35 7 23.3 200 
 BAR2 SZ I        1744  0.98         5.3 0.18            169           23.3 200 
 BRR  HZ EP   1   1743 46.14                             151   -0.03 7 75.3 298 
 BRR  HN ES       1744  3.11                             151    0.1610 75.3 298 
 BRR  HN I        1744  4.29        24.2 0.26            148           75.3 298 
 PAM  SZ EP   1   1743 47.18                             152    0.27 7 75.8  37 
 PAM  SN ES   1   1744  4.21                             152   -0.05 7 75.8  37 
 PAM  SN I        1744  5.58        11.0 0.68            153           75.8  37 
 RUS  HZ EP   1   1743 48.36                             144   -0.08 7 99.3 178 
 RUS  HN ES       1744  7.16                             144    0.1810 99.3 178 
 RUS  HN I        1744  8.41         5.5 0.18            145           99.3 178 
 ZAR  HN ES   2   1744 23.11                             122   -0.20 4  208 292 
 ZAR  HN I        1744 29.09        10.8 0.22            120            208 292 
                                                                                
