 2011  9 9 1852 16.4 L   6.558 -73.504106.6  RSN  4 0.3 1.3LRSN                1
 GAP=192        0.56       8.8    19.8 12.8  0.1311E+03  0.1980E+03  0.6245E+02E
 Epicentro: EL CARMEN DE CHUCURI - SANTANDER                                   3
 ACTION:UPD 12-07-13 15:56 OP:ep   STATUS:               ID:20110909185216 L   I
 2011-09-09-1840-00M.COL___171                                                 6
 STAT SP IPHASW D HRMM SECON CODA AMPLIT PERI AZIMU VELO AIN AR TRES W  DIS CAZ7
 BAR2 SZ EP   1   1852 32.27                             159    0.52 7 35.7  84 
 BAR2 SZ ES   1   1852 43.69                             159   -0.05 7 35.7  84 
 BAR2 SZ I        1852 45.44         7.0 0.24                          35.7  84 
 BRR  HZ EP   1   1852 32.94                             146   -0.08 7 65.0 339 
 BRR  HZ I        1852 35.62        15.2 0.46                          65.0 339 
 GIR2 SZ EP   2   1852 32.91                             144   -0.46 5 67.1  31 
 RUS  HZ EP   1   1852 35.25                             138   -0.12 7 87.0 148 
 RUS  HZ I        1852 35.37         1.3 0.20                          87.0 148 
 RUS  HN ES   2   1852 50.04                             138   -0.14 5 87.0 148 
                                                                                
