 2011  5 9 1954 57.1 L   6.732 -73.048148.8  RSN  7 0.4 1.6LRSN                1
 GAP=153        0.68       5.2     8.2  7.2 -0.2044E+02  0.6056E+01 -0.3847E+01E
 Epicentro: ARATOCA - SANTANDER                                                3
 ACTION:UP  11-06-29 08:51 OP:tino STATUS:               ID:20110509195457 L   I
 2011-05-09-1950-07S.COL___133                                                 6
 STAT SP IPHASW D HRMM SECON CODA AMPLIT PERI AZIMU VELO SNR AR TRES W  DIS CAZ7
 BAR2 SZ EP   2   1955 16.81                             171    -0.2 5   21 224 
 BAR2 SZ ES   1   1955 32.35                             171    -0.2 7   21 224 
 BAR2 SZ I        1955 33.90        11.9 0.20                            21 224 
 BTL  SZ EP   1   1955 17.47                             167     0.2 7   32 310 
 BTL  SZ ES   2   1955 33.63                             167     0.6 5   32 310 
 PAM  SN ES   2   1955 36.72                             151    -0.5 5   77  30 
 BRR  HZ EP   1   1955 19.00                             149    -0.3 7   84 300 
 BRR  HN ES   2   1955 37.20                             149     0.5 5   84 300 
 BRR  HZ I        1955 43.79        11.6 0.40                            84 300 
 RUS  HZ EP   2   1955 21.10                             146     0.5 5   93 182 
 RUS  HN ES   2   1955 38.93                             146     0.0 5   93 182 
 RUS  HZ I        1955 41.74         5.4 0.39                            93 182 
 GRA  SZ EP   1   1955 23.20                             137     0.3 7  130  12 
 GRA  SZ ES   1   1955 42.87                             137    -0.3 7  130  12 
 GRA  SZ I        1955 44.02         4.2 0.33                           130  12 
 NOR  SN ES   2   1956  1.31                             118    -0.6 4  239 237 
                                                                                
