 2013  3 9 1936 43.8 L   6.771 -73.149142.2  RSN  4 0.4 1.5LRSN                1
 GAP=137        0.83       5.9     5.7  9.6 -0.3288E+01  0.6404E+01  0.5536E+01E
 Epicentro: LOS SANTOS - SANTANDER                                             3
 ACTION:UPD 13-04-09 14:01 OP:ep   STATUS:               ID:20130309193643 L   I
 2013-03-09-1930-00M.COL___231                                                 6
 STAT SP IPHASW D HRMM SECON CODA AMPLIT PERI AZIMU VELO AIN AR TRES W  DIS CAZ7
 BRR  HZ EP       1937  4.99                             151    0.3110 72.5 301 
 BRR  HN ES   1   1937 21.54                             151    0.61 7 72.5 301 
 BRR  HN I        1937 24.18        11.2 0.14            153           72.5 301 
 PAM  SZ EP   1   1937  5.72                             149   -0.12 7 80.0  38 
 PAM  SE ES   1   1937 22.53                             149   -0.47 7 80.0  38 
 PAM  SZ I        1937 24.99         6.1 0.52            153           80.0  38 
 RUS  HZ EP   1   1937  6.94                             144   -0.07 7 97.4 176 
 RUS  HN ES   1   1937 25.24                             144    0.15 7 97.4 176 
 RUS  HN I        1937 26.67         3.8 0.18            148           97.4 176 
 PTB  HZ EP   1   1937 10.47                             131    0.04 7  147 260 
 PTB  HN ES   1   1937 30.39                             131   -0.79 7  147 260 
 PTB  HZ I        1937 32.96         3.4 0.22            134            147 260 
                                                                                
