 2014  1 9 1531 42.4 L   6.797 -73.188143.5  RSN 10 0.5 1.7LRSN                1
 GAP=131        1.16       4.3     4.9  6.6  0.8819E+00  0.5428E+01  0.2341E+01E
 Epicentro: ZAPATOCA - SANTANDER                                               3
 ACTION:UPD 14-03-13 09:53 OP:ep   STATUS:               ID:20140109153142 L   I
 OLDACT:DUP 14-01-09 15:32 OP:stll STATUS:               ID:20140109152820d    3
 2014-01-09-1528-19M.COL___246                                                 6
 STAT SP IPHASW D HRMM SECON CODA AMPLIT PERI AZIMU VELO AIN AR TRES W  DIS CAZ7
 BAR2 SZ EP       1532  1.57                             171   -0.2010 22.7 178 
 BAR2 SZ ES       1532 16.57                             171   -0.2910 22.7 178 
 BAR2 SZ I        1532 20.87        16.0 0.22            169           22.7 178 
 BRR  HZ EP       1532  3.36                             153    0.2510 67.3 301 
 BRR  HN ES       1532 19.85                             153    0.6110 67.3 301 
 BRR  HZ I        1532 23.04        10.0 0.28            154           67.3 301 
 PAM  SZ EP       1532  4.70                             149    0.1010 80.7  42 
 RUS  HZ EP       1532  5.92                             143   -0.0410  101 173 
 RUS  HN ES       1532 24.33                             143    0.0110  101 173 
 RUS  HZ I        1532 25.30         7.0 0.26            145            101 173 
 PTB  HZ EP       1532  8.32                             132   -0.47 9  143 259 
 PTB  HN ES       1532 29.37                             132    0.02 9  143 259 
 PTB  HZ I        1532 31.12         7.0 0.12            133            143 259 
 ZAR  HN ES       1532 39.16                             122    0.02 9  200 293 
 NOR  HZ EP       1532 17.29                             118   -0.31 8  231 234 
 NOR  HE ES       1532 43.91                             118   -1.12 8  231 234 
 NOR  HZ I        1532 52.90         3.4 0.40            120            231 234 
 SML  HZ EP       1532 18.22                             117   -0.53 8  242 336 
 CHI  HZ EP       1532 20.04                             117    0.20 8  247 194 
 CHI  HN ES       1532 49.30                             117    0.28 8  247 194 
 CHI  HZ I        1532 52.47         2.8 0.34            119            247 194 
 GUY2CHZ EP       1532 26.97                             112    1.49 7  297 234 
 GUY2CHN ES       1532 59.37                             112    0.31 7  297 234 
 GUY2CHZ I        1533  6.11         1.8 0.28                           297 234 
                                                                                
