 2013  1 9 1358 16.3 L   6.779 -73.131145.4  RSN  4 0.4 1.9LRSN                1
 GAP=256        1.08      10.3     8.1  9.8 -0.2083E+02  0.1660E+02  0.1686E+02E
 Epicentro: LOS SANTOS - SANTANDER                                             3
 ACTION:UPD 13-02-15 09:13 OP:ep   STATUS:               ID:20130109135816 L   I
 2013-01-09-1348-48M.COL___199                                                 6
 STAT SP IPHASW D HRMM SECON CODA AMPLIT PERI AZIMU VELO AIN AR TRES W  DIS CAZ7
 BAR2 SZ EP       1358 35.92                             172    0.1110 21.4 195 
 BAR2 SZ I        1358 36.22        15.8 0.32            163           21.4 195 
 BAR2 SZ ES       1358 50.79                             172   -0.2710 21.4 195 
 BRR  HZ EP       1358 37.78                             151    0.2610 73.7 300 
 BRR  HN ES       1358 54.52                             151    0.4310 73.7 300 
 BRR  HN I        1358 55.76        18.4 0.48            149           73.7 300 
 PTB  HZ EP       1358 42.79                             132   -0.52 9  149 260 
 PTB  HN ES       1359  3.79                             132   -0.60 9  149 260 
 PTB  HN I        1359  8.56         7.2 0.26            128            149 260 
 NOR  HN ES       1359 20.50                             118    0.68 8  235 235 
 NOR  HN I        1359 28.51         5.6 0.18            116            235 235 
                                                                                
