 2013  6 9 1407  7.4 L   6.798 -73.160146.5  RSN  9 0.4 2.0LRSN                1
 GAP=182        0.93       3.5     5.1  5.3  0.9159E+00  0.6339E+01 -0.5359E-01E
 Epicentro: LOS SANTOS - SANTANDER                                             3
 ACTION:UPD 14-01-08 09:53 OP:ep   STATUS:               ID:20130609140707 L   I
 OLDACT:REG 13-06-09 14:12 OP:nd   STATUS:               ID:20130609135959     3
 2013-06-09-1359-59M.COL___261                                                 6
 STAT SP IPHASW D HRMM SECON CODA AMPLIT PERI AZIMU VELO AIN AR TRES W  DIS CAZ7
 BAR2 SZ EP       14 7 27.00                             171   -0.0710 22.9 186 
 BAR2 SZ ES       14 7 42.56                             171    0.1110 22.9 186 
 BAR2 SZ I        14 7 44.73        18.0 0.28            168           22.9 186 
 GIR2 SZ EP       14 7 27.25                             167    0.1310 31.3 353 
 GIR2 SZ ES   1   14 7 41.95                             167   -0.59 7 31.3 353 
 GIR2 SZ I        14 7 44.02        10.3 0.30            166           31.3 353 
 BRR  HZ EP       14 7 28.95                             153    0.4310 69.9 299 
 BRR  HN ES       14 7 45.79                             153    0.7710 69.9 299 
 BRR  HZ I        14 7 50.11        10.3 0.56            149           69.9 299 
 RUS  HZ EP       14 7 31.37                             144    0.1910  100 175 
 RUS  HN ES       14 7 49.35                             144   -0.4010  100 175 
 RUS  HZ I        14 7 50.40         6.1 0.32            146            100 175 
 PTB  HZ EP       14 7 33.85                             133   -0.40 9  146 259 
 PTB  HN ES       14 7 54.88                             133   -0.33 9  146 259 
 PTB  HZ I        14 8  2.41        14.7 0.48            131            146 259 
 NOR  HZ EP       14 7 42.85                             119   -0.13 8  233 234 
 NOR  HN ES       14 8 10.98                             119    0.22 8  233 234 
 NOR  HZ I        14 8 14.74         8.9 0.20            119            233 234 
 SML  HZ EP       14 7 43.95                             118   -0.03 8  243 336 
 SML  HN ES       14 8 11.97                             118   -0.57 8  243 336 
 SML  HZ I        14 8 15.59        24.0 0.24            119            243 336 
 GUY2CHZ EP   4   14 7 53.36                             113    2.52 0  300 235 
 GUY2CHN ES   4   14 8 26.15                             113    1.39 0  300 235 
 GUY2CHZ I        14 8 33.73         6.5 0.30                           300 235 
 PRA  HZ EP       14 8  1.36                             107    0.57 6  391 209 
 PRA  HN ES   2   14 8 41.89                             107   -0.58 3  391 209 
 PRA  HZ I        14 8 48.80         4.2 0.36            108            391 209 
                                                                                
