 2013  8 9 1255 31.6 L   6.710 -73.121138.4  RSN  5 0.1 1.9LRSN                1
 GAP=144        0.37       2.5     2.5  3.6  0.1704E+01  0.2400E+01 -0.6052E+00E
 Epicentro: JORDAN - SANTANDER                                                 3
 ACTION:UPD 14-01-14 09:00 OP:ep   STATUS:               ID:20130809125531 L   I
 OLDACT:REG 13-08-09 15:18 OP:mh   STATUS:               ID:20130809124959     3
 2013-08-09-1249-59M.COL___266                                                 6
 STAT SP IPHASW D HRMM SECON CODA AMPLIT PERI AZIMU VELO AIN AR TRES W  DIS CAZ7
 BAR2 SZ EP   1   1255 50.09                             174   -0.06 9 14.7 208 
 BAR2 SZ ES   1   1256  4.72                             174    0.06 9 14.7 208 
 BAR2 SZ I        1256  5.64        10.6 0.18            173           14.7 208 
 BRR  HZ EP   1   1255 52.08                             149   -0.29 9 78.7 304 
 BRR  HN ES   1   1256  8.81                             149    0.20 9 78.7 304 
 BRR  HN I        1256  9.63        21.4 0.18            149           78.7 304 
 PAM  SZ EP   1   1255 53.60                             147    0.20 9 83.8  34 
 PAM  SN ES   1   1256 10.31                             147   -0.13 9 83.8  34 
 PAM  SN I        1256 12.03         7.1 0.50            149           83.8  34 
 RUS  HZ EP   1   1255 53.93                             145    0.07 9 90.5 177 
 RUS  HN ES   1   1256 11.20                             145   -0.06 9 90.5 177 
 RUS  HN I        1256 13.20        16.9 0.28            146           90.5 177 
 ZAR  HZ EP   1   1256  4.36                             120    0.15 7  211 294 
 ZAR  HE ES       1256 29.61                             120   -0.0710  211 294 
 ZAR  HE I        1256 31.89        13.3 0.22            121            211 294 
                                                                                
