 2011 12 9 1038 20.4 L   6.751 -73.132144.4  RSN  4 0.1 1.5LRSN                1
 GAP=140        0.29       2.9     3.6  4.0  0.1062E+01 -0.3364E+01 -0.1346E+00E
 Epicentro: LOS SANTOS - SANTANDER                                             3
 ACTION:UPD 12-07-13 16:15 OP:ep   STATUS:               ID:20111209103820 L   I
 2011-12-09-1035-00S.MAN___170                                                 6
 STAT SP IPHASW D HRMM SECON CODA AMPLIT PERI AZIMU VELO AIN AR TRES W  DIS CAZ7
 BAR2 SZ EP   1   1038 39.84                             172    0.07 7 18.5 198 
 BAR2 SZ ES   2   1038 55.00                             172    0.12 5 18.5 198 
 BAR2 SZ I        1038 56.68        10.0 0.20                          18.5 198 
 BRR  HZ EP   1   1038 41.63                             151    0.00 7 75.2 302 
 BRR  HZ I        1038 43.47         8.8 0.29                          75.2 302 
 BRR  HN ES   1   1038 58.16                             151   -0.03 7 75.2 302 
 PAM  SZ EP   1   1038 42.58                             149   -0.09 7 80.7  36 
 PAM  SZ I        1038 43.01         3.0 0.16                          80.7  36 
 PAM  SN ES   2   1039  0.09                             149    0.05 5 80.7  36 
 RUS  HZ EP   2   1038 43.75                             145    0.13 5 95.1 177 
 RUS  HN ES   2   1039  1.55                             145   -0.19 5 95.1 177 
                                                                                
