 2010  1 9 1537 22.7 L   6.743 -72.968147.1  RSN 11 0.6 2.5LRSN                1
 GAP=140        1.16       5.3    10.9  7.9 -0.3778E+02 -0.5195E+01  0.4935E+01E
 Epicentro: CEPITA - SANTANDER                                                 3
 ACTION:UP  10-08-24 09:43 OP:vdl  STATUS:               ID:20100109153722 L   I
 2010-01-09-1535-42S.COL___096                                                 6
 STAT SP IPHASW D HRMM SECON CODA AMPLIT PERI AZIMU VELO SNR AR TRES W  DIS CAZ7
 BAR2 SZ EP   1   1537 42.52                             168    -0.1 7   29 235 
 BAR2 SZ ES   1   1537 57.83                             168    -0.3 7   29 235 
 GIR2 SZ IP       1537 42.59                             162    -0.310   45 326 
 GIR2 SZ ES   1   1537 57.78                             162    -1.0 7   45 326 
 RUS  BZ EP   1   1537 46.42                             145     0.3 7   95 188 
 RUS  BN ES   1   1538  4.72                             145     0.2 7   95 188 
 RUS  BZ I        1538  6.35        31.0 0.19                            95 188 
 GUE  SZ IP       1537 48.51                             139     0.710  120   2 
 GUE  SZ ES   1   1538  8.47                             139     1.0 7  120   2 
 GRA  SZ IP       1537 48.29                             137     0.110  128   8 
 GRA  SZ ES   1   1538  8.05                             137     0.0 7  128   8 
 OCA  SZ EP   1   1537 51.01                             128    -1.0 7  170 347 
 CHI  HZ EP   1   1538  0.35                             117    -0.1 6  249 200 
 CHI  HZ I        1538  3.17        11.2 0.45                           249 200 
 CHI  HN ES   1   1538 30.41                             117     0.5 6  249 200 
 HEL  HZ EP   2   1538  4.78                             113    -0.1 4  290 258 
 HEL  HZ I        1538 41.20        19.8 0.33                           290 258 
 RREF BN ES   1   1538 47.87                             110     0.7 5  333 232 
 RREF BZ I        1538 50.92        17.6 0.27                           333 232 
 SDV  BZ EP   2   1538 11.85                             109     0.3 3  350  47 
 SDV  BN ES   1   1538 49.13                             109    -0.5 5  350  47 
 PRA  HZ EP   1   1538 15.93                             106    -0.9 4  397 213 
 PRA  HE ES   1   1538 58.73                             106    -0.3 4  397 213 
 PRA  HZ I        1539  4.26        10.9 0.33                           397 213 
                                                                                
