 2016 11 9 1800 42.7 L   6.801 -73.156146.4  RSN 16 0.4 2.6LRSN                1
 GAP=147        0.95       3.8     3.8  5.3 -0.2142E+01  0.5998E+01  0.6953E+01E
 Epicentro: LOS SANTOS - SANTANDER                                             3
 ACTION:UPD 17-10-26 21:06 OP:lp   STATUS:               ID:20161109180042 L   I
 OLDACT:UP  16-11-09 23:28 OP:dnl  STATUS:               ID:20161109175750     3
 OLDACT:UP  16-11-09 23:27 OP:dnl  STATUS:               ID:20161109175750     3
 OLDACT:REG 16-11-09 21:00 OP:dnl  STATUS:               ID:20161109175750     3
 2016-11-09-1758-00M.COL___349                                                 6
 STAT SP IPHASW D HRMM SECON CODA AMPLIT PERI AZIMU VELO AIN AR TRES W  DIS CAZ7
 BAR2 EZ IP     D 18 1  2.41                             171   -0.0210 23.2 187 
 BAR2 EZ ES       18 1 17.17                             171   -0.6310 23.2 187 
 BAR2 EZ I        18 1 20.19       110.3 0.34            165           23.2 187 
 BRR  HZ IP     C 18 1  4.19                             153    0.3110 70.1 299 
 BRR  HN ES       18 1 21.27                             153    0.8910 70.1 299 
 BRR  HZ I        18 1 23.71        55.6 0.30            150           70.1 299 
 PAM  EZ EP     C 18 1  5.13                             151    0.0810 78.1  40 
 PAM  EE ES       18 1 22.47                             151    0.0110 78.1  40 
 PAM  EZ I        18 1 25.47        55.6 0.34            160           78.1  40 
 PTB  HZ EP       18 1  8.94                             132   -0.70 9  147 259 
 PTB  HN ES       18 1 30.12                             132   -0.51 9  147 259 
 PTB  HZ I        18 1 35.34        45.0 0.44            131            147 259 
 ZAR  HZ EP       18 1 14.87                             123   -0.22 9  203 292 
 ZAR  HN ES       18 1 40.44                             123    0.10 9  203 292 
 ZAR  HZ I        18 1 46.08        44.0 0.20            123            203 292 
 NOR  HZ EP       18 1 18.46                             119    0.07 8  234 234 
 NOR  HE ES       18 1 46.53                             119    0.32 8  234 234 
 NOR  HZ I        18 1 51.97        31.1 0.16            119            234 234 
 CHI  HZ EP       18 1 20.65                             117    0.22 8  248 195 
 CHI  HN ES       18 1 49.99                             117    0.15 8  248 195 
 CHI  HZ I        18 1 56.14        19.9 0.32            118            248 195 
 ROSC BZ EP   4   18 1 22.14                             117    1.32 0  252 211 
 ROSC BE ES   4   18 1 53.36                             117    2.83 0  252 211 
 ROSC BZ I        18 1 57.08        67.0 0.40            117            252 211 
 URE  HZ EP       18 1 22.92                             114   -0.78 7  283 292 
 URE  HN ES   4   18 1 52.97                             114   -2.69 0  283 292 
 URE  HZ I        18 2  4.54        34.6 0.20            115            283 292 
 PTGC HZ EP   4   18 1 25.54                             112   -1.12 0  309 158 
 PTGC HN ES   4   18 1 58.72                             112   -2.22 0  309 158 
 PTGC HZ I        18 2  3.84        24.4 0.30            113            309 158 
 ELA  HZ EP   4   18 1 31.01                             110    1.51 0  328 229 
 ELA  HN ES   4   18 2  5.17                             110   -0.82 0  328 229 
 ELA  HZ I        18 2 21.66        20.2 0.44            111            328 229 
 CBOC HZ EP       18 1 30.15                             110    0.61 7  333 252 
 CBOC HE ES       18 2  6.12                             110    0.07 7  333 252 
 CBOC HZ I        18 2 23.51         6.4 0.68            111            333 252 
 ANIL HZ EP   4   18 1 34.14                             109    1.68 0  357 224 
 ANIL HE ES   4   18 2 13.78                             109    2.52 0  357 224 
 PRA  HZ EP       18 1 36.26                             107    0.05 6  392 209 
 PRA  HE ES       18 2 18.07                             107    0.15 6  392 209 
 PRA  HZ I        18 2 24.60        22.9 0.46            108            392 209 
 ORTC HZ EP       18 1 36.75                             106    0.16 6  395 216 
 ORTC HN ES   4   18 2 18.30                             106   -0.31 0  395 216 
 ORTC HZ I        18 2 26.19        14.5 0.48            107            395 216 
 PAL  HZ EP       18 1 38.05                             106    0.26 6  405 239 
 PAL  HN ES       18 2 20.55                             106   -0.19 6  405 239 
 PAL  HZ I        18 2 27.77         6.6 0.28            107            405 239 
 SJC  HZ EP   4   18 1 36.51                             106   -1.71 0  409 327 
 SJC  HE ES   4   18 2 17.15                             106   -4.36 0  409 327 
 SJC  HZ I        18 2 21.75         8.2 0.34            108            409 327 
 CRJC HZ EP   4   18 1 43.05                             103   -2.19 0  468   4 
 CRJC HE ES   4   18 2 28.27                             103   -5.73 0  468   4 
                                                                                
