 2010 10 9 1750 42.3 L   6.906 -73.241158.0  RSN  6 0.5 2.1LRSN                1
 GAP=207        1.15      11.8    16.3 13.9 -0.1614E+03 -0.1339E+03  0.8741E+02E
 Epicentro: BETULIA - SANTANDER                                                3
 ACTION:UP  11-02-18 11:08 OP:tino STATUS:               ID:20101009175042 L   I
 2010-10-09-1748-00S.COL___121                                                 6
 STAT SP IPHASW D HRMM SECON CODA AMPLIT PERI AZIMU VELO SNR AR TRES W  DIS CAZ7
 BTL  SZ EP       1751  3.19                             178     0.010    3 296 
 BRR  HZ EP       1751  4.49                             159     0.410   57 293 
 BRR  HN ES       1751 21.10                             159     0.010   57 293 
 BRR  HZ I        1751 25.36        41.7 0.44                            57 293 
 GUE  SZ EP       1751  7.54                             144     0.010  108  19 
 GRA  SZ EP       1751  7.85                             141    -0.310  119  24 
 GRA  SZ I        1751 28.45         9.5 0.27                           119  24 
 OCA  SZ EP       1751 11.15                             134     0.7 9  148 357 
 OCA  SZ ES   1   1751 31.69                             134    -0.8 7  148 357 
 OCA  SZ I        1751 35.81        13.1 0.43                           148 357 
 NOR  SZ EP   1   1751 17.65                             121    -1.0 6  234 231 
 NOR  SN ES       1751 47.08                             121     0.1 8  234 231 
                                                                                
