 2013 10 9 1939 31.6 L   7.464 -73.170139.3  RSN  7 0.4 2.2LRSN                1
 GAP=139        1.00       4.9     5.1  7.1 -0.4215E+01  0.1146E+02 -0.5589E+01E
 Epicentro: EL PLAYON - SANTANDER                                              3
 ACTION:UPD 13-11-25 09:20 OP:ep   STATUS:               ID:20131009193931 L   I
 OLDACT:REG 13-10-09 19:25 OP:nd   STATUS:               ID:20131009193746     3
 2013-10-09-1937-46M.COL___236                                                 6
 STAT SP IPHASW D HRMM SECON CODA AMPLIT PERI AZIMU VELO AIN AR TRES W  DIS CAZ7
 PAM  SZ IP     D 1939 52.32                             158    0.5010 53.7 105 
 PAM  SN ES       1940  7.81                             158    0.1910 53.7 105 
 PAM  SZ I        1940 11.92        12.8 0.48            163           53.7 105 
 BRR  HZ IP     D 1939 52.48                             151    0.4310 71.7 237 
 BRR  HN ES       1940  8.35                             151    0.3210 71.7 237 
 BRR  HZ I        1940 12.02        22.1 0.14            154           71.7 237 
 BAR2 SZ EP       1939 54.04                             144    0.0110 96.4 181 
 BAR2 SZ ES       1940 10.66                             144   -0.8810 96.4 181 
 BAR2 SZ I        1940 12.12        59.1 0.26            149           96.4 181 
 RUS  HZ EP       1940  0.98                             126   -0.20 9  174 177 
 RUS  HN ES   2   1940 24.31                             126    0.04 4  174 177 
 RUS  HZ I        1940 24.75         5.5 0.36            131            174 177 
 PTB  HZ EP       1940  0.62                             125   -0.03 9  175 234 
 PTB  HN ES       1940 23.19                             125   -0.15 9  175 234 
 PTB  HZ I        1940 26.53        33.1 0.14            129            175 234 
 SML  HZ EP       1940  0.36                             125   -0.56 9  178 326 
 SML  HN ES   2   1940 23.64                             125   -0.18 4  178 326 
 SML  HZ I        1940 27.34        32.5 0.28            127            178 326 
 ZAR  HZ EP   4   1940  3.09                             124    1.32 0  186 271 
 ZAR  HN ES   4   1940 25.80                             124    0.47 0  186 271 
 URE  HZ EP   4   1940 13.47                             114    3.51 0  263 277 
 URE  HN ES   4   1940 37.91                             114   -1.99 0  263 277 
 GUY2CHZ EP   4   1940 22.90                             108    2.76 0  347 225 
 GUY2CHN ES       1940 58.50                             108    0.47 6  347 225 
 GUY2CHZ I        1941  9.25        16.2 0.60                           347 225 
 SJC  HZ EP   4   1940 19.46                             108   -0.32 0  348 321 
 SJC  HN ES   4   1940 54.71                             108   -2.67 0  348 321 
                                                                                
