 2016  5 9 1620  8.0 L   6.814 -73.151147.7  RSN 19 0.5 2.4LRSN                1
 GAP= 70        1.03       2.7     2.8  4.9 -0.6208E+00  0.3217E+01  0.2337E+01E
 Epicentro: LOS SANTOS - SANTANDER                                             3
 ACTION:UPD 16-08-18 17:44 OP:cam  STATUS:               ID:20160509162008 L   I
 OLDACT:REG 16-05-09 20:58 OP:ak   STATUS:               ID:20160509161750     3
 2016-05-09-1617-50M.COL___296                                                 6
 STAT SP IPHASW D HRMM SECON CODA AMPLIT PERI AZIMU VELO AIN AR TRES W  DIS CAZ7
 BAR2 EZ IP     C 1620 27.96                             170    0.0410 24.8 188 
 BAR2 EZ ES       1620 43.04                             170   -0.3910 24.8 188 
 BAR2 EZ I        1620 44.46        68.6 0.28            169           24.8 188 
 BRR  HZ IP     C 1620 29.68                             153    0.3610 70.0 298 
 BRR  HN ES       1620 46.71                             153    0.7910 70.0 298 
 BRR  HZ I        1620 50.89        37.7 0.18            151           70.0 298 
 PAM  EZ EP       1620 30.71                             151    0.3110 76.5  41 
 PAM  EN ES       1620 47.84                             151   -0.0010 76.5  41 
 PAM  EZ I        1620 50.65        15.5 0.20            155           76.5  41 
 RUS  HZ EP       1620 31.84                             144   -0.2410  102 176 
 RUS  HN ES       1620 50.96                             144    0.1110  102 176 
 RUS  HZ I        1620 51.91        18.0 0.30            145            102 176 
 PTB  HZ EP       1620 34.53                             132   -0.60 9  148 258 
 PTB  HN ES       1620 55.62                             132   -0.65 9  148 258 
 PTB  HZ I        1620 58.09        16.1 0.18            131            148 258 
 TAM  HZ EP       1620 35.71                             131   -0.23 9  156 105 
 TAM  HE ES       1620 58.05                             131    0.33 9  156 105 
 SPBC HZ EP       1620 36.86                             129    0.10 9  164 218 
 SPBC HN ES       1620 58.99                             129   -0.18 9  164 218 
 SPBC HZ I        1621  3.74        41.9 0.22            129            164 218 
 ZAR  HZ EP       1620 41.20                             123    0.71 9  203 292 
 ZAR  HN ES       1621  5.68                             123   -0.12 9  203 292 
 ZAR  HZ I        1621 11.22        26.6 0.17            123            203 292 
 NOR  HZ IP     D 1620 44.04                             119    0.12 8  235 234 
 NOR  HN ES       1621 11.17                             119   -0.75 8  235 234 
 SML  HZ EP       1620 44.07                             118   -0.51 8  242 335 
 SML  HN ES       1621 12.54                             118   -0.55 8  242 335 
 SML  HZ I        1621 15.09        25.8 0.09            119            242 335 
 CHI  HZ EP       1620 46.14                             117    0.16 8  250 195 
 CHI  HN ES       1621 14.70                             117   -0.89 8  250 195 
 CHI  HZ I        1621 18.86        13.3 0.64            118            250 195 
 ROSC BZ EP   1   1620 46.51                             117    0.14 6  254 211 
 ROSC BN ES       1621 16.91                             117    0.63 8  254 211 
 ROSC BZ I        1621 22.50        39.1 0.45            117            254 211 
 HEL  HZ EP   2   1620 48.12                             115   -0.20 4  272 255 
 HEL  HN ES       1621 20.50                             115    0.74 8  272 255 
 HEL  HZ I        1621 26.35         8.3 0.42            115            272 255 
 URE  HZ EP   4   1620 52.36                             114    3.29 0  283 292 
 URE  HE ES   4   1621 19.09                             114   -1.99 0  283 292 
 URE  HZ I        1621 29.28        11.7 0.18            114            283 292 
 ELA  HZ EP   4   1620 56.62                             111    1.59 0  330 229 
 ELA  HN ES       1621 32.58                             111    0.89 7  330 229 
 ELA  HZ I        1621 40.58         9.6 0.52            111            330 229 
 ANIL HE ES   4   1621 40.42                             109    3.45 0  358 224 
 PRA  HZ EP       1621  1.58                             107   -0.17 6  393 209 
 PRA  HN ES       1621 43.39                             107   -0.26 6  393 209 
 PRA  HZ I        1621 50.12        15.9 0.36            107            393 209 
 ORTC HZ EP       1621  2.22                             107    0.09 6  396 216 
 ORTC HN ES       1621 44.57                             107    0.25 6  396 216 
 ORTC HZ I        1621 49.40         5.6 0.34            107            396 216 
 SJC  HZ EP   9   1621  1.74                             106   -1.72 0  408 327 
 SJC  HN ES       1621 44.69                                   -0.29 6  408 327 
 SJC  HZ I        1621 51.92         2.9 0.19            107            408 327 
 CRJC HZ EP   9   1621  8.25                             104   -2.15 0  466   4 
 CRJC HE ES       1621 56.53                                   -0.37 5  466   4 
 CRJC HZ I        1621 57.88         6.9 0.07            105            466   4 
                                                                                
