 2015  5 9 1205  1.5 L   6.814 -73.148140.5  RSN 19 0.5 2.4LRSN                1
 GAP= 70        1.21       2.9     3.2  5.6 -0.1191E+01  0.3674E+01  0.1491E+01E
 Epicentro: LOS SANTOS - SANTANDER                                             3
 ACTION:UPD 15-09-10 22:02 OP:cam  STATUS:               ID:20150509120501 L   I
 OLDACT:UP  15-05-11 07:45 OP:AK   STATUS:               ID:20150509120501 L   3
 OLDACT:REG 15-05-09 20:16 OP:stll STATUS:               ID:20150509115747     3
 2015-05-09-1157-47M.COL___282                                                 6
 STAT SP IPHASW D HRMM SECON CODA AMPLIT PERI AZIMU VELO AIN AR TRES W  DIS CAZ7
 BAR2 EZ IP     C 12 5 20.55                             169    0.0510 24.8 189 
 BAR2 EZ ES       12 5 35.05                             169   -0.2810 24.8 189 
 BAR2 EZ I        12 5 36.31        47.2 0.20            170           24.8 189 
 BRR  HZ IP     C 12 5 22.59                             152    0.6010 70.2 298 
 BRR  HE ES       12 5 38.41                             152    0.4110 70.2 298 
 BRR  HZ I        12 5 43.55        39.7 0.40            151           70.2 298 
 PAM  SZ IP     D 12 5 23.60                             150    0.5410 76.4  40 
 PAM  SN ES       12 5 40.10                             150    0.1910 76.4  40 
 PAM  SZ I        12 5 42.46        86.1 0.46            152           76.4  40 
 RUS  HZ EP       12 5 25.10                             142    0.2810  102 176 
 RUS  HN ES       12 5 42.89                             142   -0.1410  102 176 
 RUS  HZ I        12 5 43.99        28.7 0.38            145            102 176 
 TAM  HZ IP     C 12 5 28.94                             129    0.14 9  156 105 
 TAM  HZ I        12 5 29.03        73.2 0.20            132            156 105 
 TAM  HN ES       12 5 49.94                             129   -0.17 9  156 105 
 OCA  HN ES       12 5 50.57                             129   -0.31 9  159 353 
 OCA  HZ I        12 5 54.65        75.5 0.20            130            159 353 
 SPBC HZ EP       12 5 29.53                             128   -0.14 9  164 219 
 SPBC HN ES       12 5 51.39                             128   -0.27 9  164 219 
 SPBC HZ I        12 5 53.85        30.7 0.28            129            164 219 
 ZAR  HZ EP       12 5 34.07                             121    0.58 9  203 292 
 ZAR  HN ES       12 5 58.86                             121    0.40 9  203 292 
 ZAR  HZ I        12 6  2.68        29.5 0.28            122            203 292 
 NOR  HE ES       12 6  4.42                             117   -0.24 8  235 234 
 NOR  HZ I        12 6  6.44        11.2 0.16            118            235 234 
 SML  HZ EP       12 5 37.06                             116   -0.58 8  242 335 
 SML  HE ES       12 6  5.12                             116   -0.73 8  242 335 
 SML  HZ I        12 6 12.51        37.7 0.28            117            242 335 
 CHI  HZ EP       12 5 38.58                             116   -0.45 8  250 195 
 CHI  HE ES       12 6  7.67                             116   -0.66 8  250 195 
 CHI  HZ I        12 6 12.36         8.2 0.46            118            250 195 
 HEL  HE ES       12 6 12.45                             114   -0.15 8  272 255 
 HEL  HZ I        12 6 17.56         8.3 0.26            115            272 255 
 URE  HZ EP   9   12 5 41.77                             113   -0.43 0  283 292 
 URE  HN ES       12 6 12.15                                   -1.38 7  283 292 
 URE  HZ I        12 6 14.55        24.6 0.14            113            283 292 
 SOCV BZ EP       12 5 43.44                             111   -0.77 7  301  57 
 SOCV BN ES   4   12 6 14.58                             111   -2.97 0  301  57 
 SOCV BN E        12 6 14.58                                            301  57 
 GUY2CHZ EP   1   12 5 46.56                             111    1.65 5  302 235 
 GUY2CHE ES       12 6 18.90                             111    0.10 7  302 235 
 GUY2CHZ I        12 6 25.45         8.6 0.30                           302 235 
 PTGC HZ EP   4   12 5 43.93                             110   -1.34 0  310 159 
 PTGC HN ES   4   12 6 15.59                             110   -3.84 0  310 159 
 RREF HZ EP       12 5 48.39                             110    0.91 7  323 229 
 RREF HN ES       12 6 22.90                             110   -0.46 7  323 229 
 ORTC HZ EP       12 5 55.46                             105    0.12 6  396 216 
 ORTC HN ES       12 6 37.49                             105    0.14 6  396 216 
 ORTC HZ I        12 6 43.56         6.3 0.42            107            396 216 
 SJC  HZ EP       12 5 55.38                             105   -1.32 6  408 327 
 SJC  HN E        12 6 35.81                                            408 327 
 SJC  HN ES   4   12 6 35.81                             105   -3.96 0  408 327 
 SJC  HZ I        12 6 40.13         8.5 0.52            106            408 327 
 CRJC HZ EP   4   12 6  1.37                             103   -2.28 0  466   4 
 CRJC HZ I        12 6  1.49         9.2 0.10            104            466   4 
                                                                                
