 2013  4 9 1143 22.3 L   6.732 -73.191144.0  RSN  5 0.4 1.5LRSN                1
 GAP=177        0.77       9.9     6.4  8.0  0.1411E+02  0.1997E+02  0.1678E+02E
 Epicentro: VILLANUEVA - SANTANDER                                             3
 ACTION:UPD 13-05-22 14:36 OP:EP   STATUS:               ID:20130409114322 L   I
 2013-04-09-1140-00M.COL___245                                                 6
 STAT SP IPHASW D HRMM SECON CODA AMPLIT PERI AZIMU VELO AIN AR TRES W  DIS CAZ7
 BAR2 SZ EP       1143 41.44                             174   -0.1010 15.4 176 
 BAR2 SZ ES   1   1143 56.85                             174    0.27 7 15.4 176 
 BAR2 SZ I        1143 59.34         7.5 0.36            170           15.4 176 
 GIR2 SZ ES   1   1143 57.45                             165    0.17 7 38.4 360 
 GIR2 SZ I        1144  0.73         3.4 0.43            164           38.4 360 
 BRR  HZ EP       1143 43.40                             152    0.1910 71.0 306 
 BRR  HE ES   2   1143 58.34                             152   -1.20 5 71.0 306 
 BRR  HZ I        1144  2.53        14.5 0.35            150           71.0 306 
 PTB  HZ EP       1143 48.19                             133   -0.33 9  141 261 
 PTB  HN ES   1   1144  9.31                             133    0.31 7  141 261 
 PTB  HZ I        1144 15.17         2.8 0.44            133            141 261 
 ZAR  HN ES   1   1144 19.76                             122    0.25 6  202 295 
 ZAR  HZ I        1144 25.61         3.6 0.30            124            202 295 
                                                                                
