 2015  5 9 1146 32.8 L   7.409 -73.316117.3  RSN  7 0.3 2.1LRSN                1
 GAP= 99        0.69       2.5     3.4  4.5  0.2747E+01 -0.3086E+01 -0.2847E+01E
 Epicentro: EL PLAYON - SANTANDER                                              3
 ACTION:UPD 15-09-10 22:02 OP:cam  STATUS:               ID:20150509114632 L   I
 OLDACT:REG 15-05-09 20:15 OP:stll STATUS:               ID:20150509113748     3
 2015-05-09-1137-48M.COL___282                                                 6
 STAT SP IPHASW D HRMM SECON CODA AMPLIT PERI AZIMU VELO AIN AR TRES W  DIS CAZ7
 BRR  HZ EP     C 1146 50.20                             153    0.2210 55.0 233 
 BRR  HE ES       1147  3.69                             153    0.3310 55.0 233 
 BRR  HZ I        1147  4.75        25.1 0.16            157           55.0 233 
 PAM  SZ EP       1146 51.91                             148    0.4110 68.5  96 
 PAM  SE ES       1147  6.02                             148   -0.0410 68.5  96 
 PAM  SZ I        1147  8.50        12.0 0.28            150           68.5  96 
 BAR2 EZ EP     C 1146 52.74                             139   -0.0610 91.5 171 
 BAR2 EZ I        1146 52.79        46.2 0.10            144           91.5 171 
 BAR2 EZ ES       1147  7.87                             139   -0.5210 91.5 171 
 OCA  HZ EP       1146 52.84                             139    0.1310 91.8 360 
 OCA  HN ES       1147  8.20                             139   -0.0310 91.8 360 
 OCA  HZ I        1147 12.42        29.1 0.30            140           91.8 360 
 SML  HZ EP       1147  0.27                             120   -0.16 9  175 332 
 SML  HE ES       1147 21.63                             120   -0.33 9  175 332 
 SML  HZ I        1147 24.71        26.3 0.24            122            175 332 
 TAM  HZ EP     D 1147  3.11                             116   -0.07 9  200 122 
 SOCV BZ EP       1147 13.18                             107    0.00 7  288  70 
                                                                                
