 2013  3 9 1436 12.4 L   6.788 -73.138146.7  RSN  7 0.3 2.1LRSN                1
 GAP=138        0.73       2.9     4.5  5.0  0.1806E+01  0.4048E+01 -0.1061E+00E
 Epicentro: LOS SANTOS - SANTANDER                                             3
 ACTION:UPD 13-04-09 14:01 OP:ep   STATUS:               ID:20130309143612 L   I
 2013-03-09-1430-00M.COL___231                                                 6
 STAT SP IPHASW D HRMM SECON CODA AMPLIT PERI AZIMU VELO AIN AR TRES W  DIS CAZ7
 BAR2 SZ EP       1436 32.03                             171   -0.0510 22.2 193 
 BAR2 SZ ES       1436 47.06                             171   -0.4010 22.2 193 
 BAR2 SZ I        1436 48.71        48.2 0.13            168           22.2 193 
 BRR  HZ EP       1436 34.02                             152    0.3410 72.5 299 
 BRR  HE ES       1436 50.80                             152    0.4810 72.5 299 
 BRR  HZ I        1436 54.94        31.2 0.34            149           72.5 299 
 PAM  SZ EP       1436 34.98                             151    0.2810 77.9  38 
 PAM  SZ I        1436 35.26        25.2 0.20            155           77.9  38 
 PAM  SE ES       1436 52.08                             151   -0.0610 77.9  38 
 RUS  HZ EP   1   1436 35.76                             144   -0.34 7 99.2 176 
 RUS  HN ES       1436 54.62                             144   -0.0110 99.2 176 
 RUS  HN I        1436 56.51         9.1 0.20            144           99.2 176 
 ZAR  HN ES   1   1437  9.96                             122   -0.49 6  205 292 
 ZAR  HZ I        1437 15.30         7.7 0.22            122            205 292 
 SML  HZ EP   1   1436 48.76                             117   -0.44 6  245 335 
 SML  HN ES   1   1437 17.52                             117   -0.42 6  245 335 
 CHI  HZ EP   1   1436 50.26                             117    0.27 6  248 195 
 CHI  HN ES   1   1437 19.42                             117    0.07 6  248 195 
 CHI  HZ I        1437 23.19         6.5 0.60            118            248 195 
                                                                                
