 2010  8 9 1618 34.9 L   6.962 -73.193144.1  RSN  4 0.4 1.8LRSN                1
 GAP=217        0.81      14.5    16.0 12.2 -0.1538E+03 -0.5280E+02  0.1153E+02E
 Epicentro: BETULIA - SANTANDER                                                3
 ACTION:UP  10-09-07 10:53 OP:vdl  STATUS:               ID:20100809161835 L   I
 2010-08-09-1616-32S.COL___125                                                 6
 STAT SP IPHASW D HRMM SECON CODA AMPLIT PERI AZIMU VELO SNR AR TRES W  DIS CAZ7
 BTL  SZ EP       1618 53.64                             175    -0.510   10 240 
 BTL  SZ ES   2   1619  9.56                             175     0.4 5   10 240 
 BRR  HZ EP       1618 55.36                             154     0.110   60 286 
 BRR  HZ I        1618 55.84        12.4 0.13                            60 286 
 BRR  HN ES   2   1619 11.19                             154     0.1 5   60 286 
 GUE  SZ EP   1   1618 58.51                             142     0.3 7  100  17 
 GRA  SZ EP   1   1618 59.25                             139     0.5 7  111  23 
 GRA  SZ ES   2   1619 16.78                             139    -0.6 5  111  23 
                                                                                
