 2015  4 9 1140 11.8 L   6.767 -73.160144.0  RSN  5 0.5 1.8LRSN                1
 GAP=149        1.15       9.4     5.4  8.4 -0.1054E+02  0.1312E+02 -0.4459E+01E
 Epicentro: LOS SANTOS - SANTANDER                                             3
 ACTION:UPD 15-06-03 16:53 OP:cam  STATUS:               ID:20150409114011 L   I
 OLDACT:REG 15-04-09 21:40 OP:carl STATUS:               ID:20150409113749     3
 2015-04-09-1137-49M.COL___269                                                 6
 STAT SP IPHASW D HRMM SECON CODA AMPLIT PERI AZIMU VELO AIN AR TRES W  DIS CAZ7
 BAR2 EZ EP       1140 31.16                             172    0.0310 19.5 187 
 BAR2 EZ ES       1140 46.44                             172    0.2210 19.5 187 
 BAR2 EZ I        1140 48.18        12.2 0.18            172           19.5 187 
 BRR  HZ EP       1140 33.03                             152    0.2610 71.7 302 
 BRR  HN ES       1140 49.85                             152    0.7110 71.7 302 
 PAM  SZ EP       1140 33.96                             149   -0.0910 81.2  39 
 PAM  SN ES       1140 50.89                             149   -0.5310 81.2  39 
 PAM  SZ I        1140 52.87        16.1 0.52            152           81.2  39 
 PTB  HZ EP       1140 38.14                             132   -0.27 9  146 260 
 PTB  HN ES       1140 58.60                             132   -0.57 9  146 260 
 PTB  HZ I        1141  4.42         3.8 0.14            132            146 260 
 ZAR  HZ EP       1140 44.85                             122    0.74 9  204 293 
 ZAR  HN ES       1141  8.80                             122   -0.53 9  204 293 
 ZAR  HZ I        1141 15.40         9.2 0.28            122            204 293 
                                                                                
