 2013  2 9 1721  1.9 L   6.600 -72.788  4.0  RSN  5 0.5 1.4LRSN                1
 GAP=196        0.98       3.1     5.9  8.4 -0.5822E+01  0.2286E+02 -0.2448E+01E
 Epicentro: SAN JOSE DE MIRANDA - SANTANDER                                    3
 ACTION:UPD 13-03-12 09:31 OP:ep   STATUS:               ID:20130209172101 L   I
 2013-02-09-1720-00M.COL___240                                                 6
 STAT SP IPHASW D HRMM SECON CODA AMPLIT PERI AZIMU VELO AIN AR TRES W  DIS CAZ7
 BAR2 SZ EP   4   1721  8.18                              47   -1.19 0 43.6 269 
 PAM  SZ EP   1   1721 15.67                              47    0.18 7 82.3   7 
 PAM  SE ES   1   1721 25.66                              47   -0.41 7 82.3   7 
 PAM  SZ I        1721 26.87         7.4 0.16             47           82.3   7 
 RUS  HZ EP   1   1721 16.14                              47    0.27 7 84.8 203 
 RUS  HN ES   1   1721 25.96                              47   -0.79 7 84.8 203 
 RUS  HZ I        1721 27.58        11.5 0.18             47           84.8 203 
 BRR  HZ EP   1   1721 20.63                              47    0.47 7  116 299 
 BRR  HN ES   1   1721 33.69                              47   -0.70 7  116 299 
 PTB  HZ EP   1   1721 31.02                              37    0.75 7  185 268 
 PTB  HN ES   1   1721 52.64                              37    0.25 7  185 268 
 NOR  HE ES   1   1722  8.98                              37    0.33 6  257 244 
 NOR  HZ I        1722 12.88         3.7 0.40             37            257 244 
                                                                                
