 2012  5 9 1654 25.1 L   6.723 -73.185161.2  RSN  4 0.2 1.3LRSN                1
 GAP=227        0.58       6.6     6.5  7.7  0.2145E+02 -0.7561E+01 -0.5550E+01E
 Epicentro: VILLANUEVA - SANTANDER                                             3
 ACTION:UP  12-07-05 12:03 OP:pat  STATUS:               ID:20120509165425 L   I
 2012-05-09-1650-00M.COL___192                                                 6
 STAT SP IPHASW D HRMM SECON CODA AMPLIT PERI AZIMU VELO SNR AR TRES W  DIS CAZ7
 BAR2 SZ EP   1   1654 46.20                             175    -0.2 7   14 179 
 BRR  HZ EP   1   1654 47.72                             155    -0.2 7   72 306 
 BRR  HN ES   1   1655  6.06                             155     0.2 7   72 306 
 RUS  HZ EP   1   1654 50.29                             149     0.4 7   93 173 
 RUS  HE ES   1   1655  9.03                             149    -0.2 7   93 173 
 RUS  HZ I        1655  9.58         2.4 0.33                            93 173 
 PTB  HZ EP   1   1654 52.91                             136     0.0 7  142 262 
 PTB  HN ES   1   1655 14.46                             136    -0.1 7  142 262 
 PTB  HZ I        1655 21.66         2.5 0.23                           142 262 
                                                                                
