 2012  5 9 1420 58.1 L   5.792 -73.901103.5  RSN  9 0.4 1.9LRSN                1
 GAP= 89        0.99       3.1     4.6 10.8 -0.8092E+00  0.2072E+02  0.5261E+01E
 Epicentro: ALBANIA - SANTANDER                                                3
 ACTION:UP  12-07-05 12:03 OP:pat  STATUS:               ID:20120509142058 L   I
 2012-05-09-1420-00M.COL___192                                                 6
 STAT SP IPHASW D HRMM SECON CODA AMPLIT PERI AZIMU VELO SNR AR TRES W  DIS CAZ7
 RUS  HZ EP       1421 16.94                             135    -0.310   91  83 
 RUS  HZ I        1421 17.88         6.0 0.16                            91  83 
 RUS  HN ES   1   1421 32.05                             135     0.0 7   91  83 
 PTB  HZ EP   1   1421 16.92                             131    -0.7 7  103 323 
 PTB  HN ES   1   1421 32.17                             131    -0.6 7  103 323 
 PTB  HZ I        1421 36.25         9.6 0.22                           103 323 
 BAR2 SZ EP   1   1421 19.59                             127     0.2 7  119  42 
 BAR2 SZ ES   1   1421 36.35                             127     0.4 7  119  42 
 BAR2 SZ I        1421 38.35        39.9 0.38                           119  42 
 CHI  HZ EP   1   1421 20.73                             124     0.0 7  130 172 
 CHI  HE ES   1   1421 38.30                             124    -0.1 7  130 172 
 CHI  HZ I        1421 43.25        13.6 0.44                           130 172 
 BRR  HZ EP       1421 21.79                             120    -0.1 9  147   8 
 BRR  HZ I        1421 23.17        60.8 0.12                           147   8 
 BRR  HN ES   1   1421 41.29                             120     0.8 7  147   8 
 RREF HZ EP       1421 27.56                             114     0.3 9  188 238 
 RREF HN ES   2   1421 50.62                             114     0.7 4  188 238 
 RREF HZ I        1421 55.23        10.5 0.70                           188 238 
 ZAR  HZ EP   1   1421 29.03                             110    -0.5 6  216 331 
 ZAR  HZ I        1421 31.38         7.9 0.10                           216 331 
 ZAR  HE ES   1   1421 54.73                             110     0.6 6  216 331 
 PAM  SZ EP   2   1421 30.64                             110     0.4 4  217  38 
 PRA  HZ EP   1   1421 33.69                             106    -0.4 6  255 205 
 PRA  HN ES   1   1422  2.76                             106     0.6 6  255 205 
                                                                                
