 2017  9 9 1203 33.0 L   6.785 -73.171139.4  RSN 10 0.3 1.9LRSN                1
 GAP=209        0.71       2.9     2.8  4.0  0.2782E+01  0.3718E+01  0.2709E+01E
 Epicentro: LOS SANTOS - SANTANDER                                             3
 ACTION:UPD 17-10-05 19:10 OP:rebc STATUS:               ID:20170909120333 L   I
 OLDACT:REG 17-09-09 19:30 OP:lv   STATUS:               ID:20170909115742     3
 2017-09-09-1158-00M.COL___403                                                 6
 STAT SP IPHASW D HRMM SECON CODA AMPLIT PERI AZIMU VELO AIN AR TRES W  DIS CAZ7
 BAR2 EZ EP       12 3 51.52                             171   -0.2810 21.4 183 
 BAR2 EZ ES       12 4  6.57                             171    0.0910 21.4 183 
 BAR2 EZ I        12 4  7.87        29.4 0.28            168           21.4 183 
 BRR  HZ IP     D 12 3 53.37                             152    0.0310 69.6 301 
 BRR  HE ES       12 4  9.45                             152    0.2210 69.6 301 
 BRR  HZ I        12 4 13.78        13.6 0.30            151           69.6 301 
 RUS  HZ EP       12 3 55.62                             143   -0.3810 99.2 174 
 RUS  HN ES       12 4 13.73                             143   -0.2310 99.2 174 
 RUS  HZ I        12 4 15.27         6.1 0.26            144           99.2 174 
 SPBC HZ EP       12 4  0.66                             128   -0.04 9  160 219 
 SPBC HN ES       12 4 22.47                             128    0.14 9  160 219 
 SPBC HZ I        12 4 25.43        14.2 0.12            128            160 219 
 YPLC HZ EP       12 4  2.20                             125   -0.10 9  177 150 
 YPLC HN ES       12 4 25.69                             125    0.51 9  177 150 
 YPLC HZ I        12 4 30.58         4.0 0.44            127            177 150 
 ZAR  HZ EP       12 4  4.48                             121   -0.33 9  202 293 
 ZAR  HE ES       12 4 29.70                             121    0.06 9  202 293 
 ZAR  HZ I        12 4 35.34         6.9 0.12            122            202 293 
 NOR  HZ EP       12 4  8.20                             117    0.21 8  231 234 
 NOR  HN ES       12 4 35.29                             117   -0.02 8  231 234 
 NOR  HZ I        12 4 41.01         5.4 0.16            118            231 234 
 HEL  HZ EP       12 4 13.12                             114    0.60 8  269 256 
 HEL  HN ES       12 4 43.47                             114    0.10 8  269 256 
 HEL  HZ I        12 4 51.81         4.2 0.24            115            269 256 
 GUY2CHZ EP       12 4 16.10                             111    0.17 7  298 235 
 GUY2CHE ES       12 4 48.58                             111   -0.85 7  298 235 
 GUY2CHZ I        12 5  0.23         4.1 0.38                           298 235 
 PRA  HZ EP       12 4 26.22                             106    0.27 6  389 209 
 PRA  HE ES       12 5  7.47                             106    0.19 6  389 209 
 PRA  HZ I        12 5 11.95         3.4 0.30            107            389 209 
                                                                                
