 2010 11 9 1023 59.5 L   6.780 -73.144147.3  RSN 11 0.4 2.3LRSN                1
 GAP=136        0.76       3.7     6.2  7.3 -0.9550E+01  0.6580E+01  0.1434E+01E
 Epicentro: LOS SANTOS - SANTANDER                                             3
 ACTION:UP  10-12-17 16:51 OP:REBC STATUS:               ID:20101109102359 L   I
 2010-11-09-1022-50S.COL___128                                                 6
 STAT SP IPHASW D HRMM SECON CODA AMPLIT PERI AZIMU VELO SNR AR TRES W  DIS CAZ7
 BTL  SZ EP   1   1024 19.70                             172     0.4 7   21 318 
 BAR2 SZ IP       1024 19.25                             171    -0.110   21 192 
 BAR2 SZ ES   2   1024 34.50                             171    -0.2 5   21 192 
 BAR2 SZ I        1024 35.53        58.3 0.42                            21 192 
 BRR  HZ IP     C 1024 21.17                             152     0.310   72 300 
 BRR  HN ES   2   1024 37.88                             152     0.3 5   72 300 
 BRR  HZ I        1024 40.92        45.0 0.16                            72 300 
 RUS  HZ EP   1   1024 22.96                             145    -0.3 7   98 176 
 RUS  HN ES   2   1024 41.80                             145     0.0 5   98 176 
 RUS  HZ I        1024 43.04        15.8 0.72                            98 176 
 GUE  SZ EP   1   1024 25.39                             139     0.8 7  119  12 
 GRA  SZ IP       1024 25.06                             137     0.010  128  17 
 GRA  SZ I        1024 26.21        29.6 0.31                           128  17 
 GRA  SZ ES       1024 44.92                             137    -0.110  128  17 
 OCA  SZ EP       1024 27.64                             130    -0.5 9  162 353 
 OCA  SZ ES   2   1024 49.81                             130    -0.7 5  162 353 
 OCA  SZ I        1024 54.49        30.7 0.30                           162 353 
 YOP  SZ EP   2   1024 29.66                             127     0.2 4  177 153 
 NOR  SZ EP   2   1024 34.99                             119    -0.2 4  234 235 
 NOR  SN ES   2   1025  2.65                             119    -0.4 4  234 235 
 HEL  HZ EP   2   1024 40.42                             115     0.6 4  272 256 
 HEL  HE ES   2   1025 11.19                             115     0.0 4  272 256 
 HEL  HZ I        1025 17.66        10.0 0.32                           272 256 
 PRA  HZ EP   2   1024 52.30                             107    -0.6 3  390 210 
 PRA  HN ES   2   1025 34.46                             107     0.0 3  390 210 
                                                                                
