 2013  4 9 1813 54.3 L   6.595 -73.466159.9  RSN  4 0.4 1.4LRSN                1
 GAP=116        0.93       9.2     8.2 10.6  0.3339E+02 -0.7104E+01  0.6626E+00E
 Epicentro: EL CARMEN DE CHUCURI - SANTANDER                                   3
 ACTION:UPD 13-05-22 14:37 OP:EP   STATUS:               ID:20130409181354 L   I
 2013-04-09-1810-00M.COL___245                                                 6
 STAT SP IPHASW D HRMM SECON CODA AMPLIT PERI AZIMU VELO AIN AR TRES W  DIS CAZ7
 BAR2 SZ EP       1814 15.19                             168   -0.6610 31.4  91 
 BAR2 SZ I        1814 32.65         8.2 0.40            151           31.4  91 
 BRR  HZ EP       1814 16.97                             157    0.3510 62.8 334 
 BRR  HN ES   1   1814 34.11                             157    0.12 7 62.8 334 
 RUS  HZ EP       1814 19.22                             150    0.4910 88.5 151 
 RUS  HN ES   1   1814 37.68                             150   -0.07 7 88.5 151 
 RUS  HZ I        1814 38.59         1.8 0.56            144           88.5 151 
 PTB  HZ EP       1814 19.24                             144   -0.2310  110 267 
 PTB  HN ES   1   1814 39.09                             144    0.03 7  110 267 
 SML  HE ES   4   1815  3.89                             119    1.14 0  253 345 
                                                                                
