 2011  8 9 1006 33.2 L   6.731 -73.098140.0  RSN  5 0.5 1.9LRSN                1
 GAP=255        0.77       6.7     9.3 10.6 -0.9961E+01 -0.6062E+01  0.4528E+02E
 Epicentro: JORDAN - SANTANDER                                                 3
 ACTION:UPD 12-07-13 15:50 OP:ep   STATUS:               ID:20110809100633 L   I
 2011-08-09-1000-00M.COL___145                                                 6
 STAT SP IPHASW D HRMM SECON CODA AMPLIT PERI AZIMU VELO AIN AR TRES W  DIS CAZ7
 BAR2 SZ EP       10 6 52.03                             172    0.0210 18.0 211 
 BAR2 SZ ES   2   10 7  6.24                             172   -0.47 5 18.0 211 
 BAR2 SZ I        10 7 10.38        16.7 0.26                          18.0 211 
 BRR  HZ EP       10 6 53.96                             149   -0.2610 79.6 302 
 BRR  HE ES   1   10 7 11.20                             149    0.58 7 79.6 302 
 BRR  HZ I        10 7 14.52        18.5 0.14                          79.6 302 
 CHI  HZ EP       10 7 10.02                             117    0.10 8  243 197 
 CHI  HE ES   2   10 7 38.92                             117    0.34 4  243 197 
 RREF HN ES   1   10 7 53.84                             110   -0.87 5  321 231 
 PRA  HE ES   1   10 8  8.04                             106    0.76 4  388 211 
                                                                                
