 2012  9 9 1431 57.9 L   6.745 -73.157145.8  RSN  5 0.2 2.1LRSN                1
 GAP=181        0.50       4.4     4.7  5.7  0.7754E+01 -0.5544E+01 -0.6347E+01E
 Epicentro: JORDAN - SANTANDER                                                 3
 ACTION:UPD 12-10-22 14:17 OP:ep   STATUS:               ID:20120909143157 L   I
 2012-09-09-1430-00M.COL___227                                                 6
 STAT SP IPHASW D HRMM SECON CODA AMPLIT PERI AZIMU VELO AIN AR TRES W  DIS CAZ7
 BAR2 SZ EP       1432 17.51                             173    0.0510 17.2 190 
 BAR2 SZ ES   1   1432 32.45                             173   -0.24 7 17.2 190 
 BAR2 SZ I        1432 33.69        20.6 0.35                          17.2 190 
 GIR2 SZ EP       1432 17.55                             165   -0.2310 37.1 354 
 BRR  HZ EP       1432 19.33                             152    0.1210 73.3 303 
 BRR  HZ I        1432 19.63        26.0 0.16                          73.3 303 
 BRR  HE ES   1   1432 36.14                             152    0.34 7 73.3 303 
 RUS  HZ EP   1   1432 21.38                             145    0.11 7 94.6 175 
 RUS  HE ES   1   1432 39.61                             145    0.14 7 94.6 175 
 PTB  HN ES   1   1432 45.33                             132   -0.25 7  146 261 
                                                                                
