 2017  2 9 1016 37.1 L   6.762 -73.161141.1  RSN  5 0.3 1.3LRSN                1
 GAP=233        0.89       6.6     6.2  6.5  0.2594E+02  0.5748E+01 -0.3454E+01E
 Epicentro: LOS SANTOS - SANTANDER                                             3
 ACTION:UPD 17-05-24 15:34 OP:jn   STATUS:               ID:20170209101637 L   I
 OLDACT:REG 17-02-09 20:20 OP:lv   STATUS:               ID:20170209100742     3
 2017-02-09-1008-00M.COL___358                                                 6
 STAT SP IPHASW D HRMM SECON CODA AMPLIT PERI AZIMU VELO AIN AR TRES W  DIS CAZ7
 BAR2 EZ EP       1016 55.88                             172   -0.1910 18.9 187 
 BAR2 EZ ES       1017 10.43                             172   -0.4510 18.9 187 
 BAR2 EZ I        1017 12.17         3.7 0.30            168           18.9 187 
 BRR  HZ EP       1016 57.74                             151   -0.0310 71.8 302 
 BRR  HN ES       1017 14.25                             151    0.3510 71.8 302 
 RUS  HZ EP       1017  0.06                             144   -0.0210 96.5 175 
 RUS  HN ES       1017 18.50                             144    0.4810 96.5 175 
 RUS  HZ I        1017 19.91         2.1 0.25            144           96.5 175 
 PTB  HZ EP       1017  3.71                             131    0.26 9  145 260 
 PTB  HN ES       1017 23.47                             131   -0.54 9  145 260 
 PTB  HZ I        1017 27.44         2.2 0.10            130            145 260 
 ZAR  HZ EP       1017  8.95                             121   -0.28 9  204 293 
 ZAR  HN ES       1017 34.72                             121    0.41 9  204 293 
 ZAR  HZ I        1017 40.52         3.7 0.28            121            204 293 
                                                                                
