 2015  7 9 1406 36.3 L   6.796 -73.136139.0  RSN 12 0.4 2.5LRSN                1
 GAP=138        0.84       3.6     4.0  5.5 -0.3762E+01  0.1360E+02 -0.5966E+00E
 Epicentro: LOS SANTOS - SANTANDER                                             3
 ACTION:UPD 15-09-08 21:47 OP:cam  STATUS:               ID:20150709140636 L   I
 OLDACT:REG 15-07-09 21:12 OP:ar   STATUS:               ID:20150709135748     3
 2015-07-09-1357-48M.COL___343                                                 6
 STAT SP IPHASW D HRMM SECON CODA AMPLIT PERI AZIMU VELO AIN AR TRES W  DIS CAZ7
 BAR2 EZ IP     C 14 6 54.99                             170   -0.1510 23.1 193 
 BAR2 EZ ES       14 7  9.95                             170    0.1310 23.1 193 
 BAR2 EZ I        14 7 11.07        57.3 0.10            167           23.1 193 
 PAM  EZ EP       14 6 57.79                             150   -0.0210 77.0  39 
 PAM  EN ES       14 7 14.80                             150    0.2410 77.0  39 
 PAM  EZ I        14 7 15.50        46.2 0.28            155           77.0  39 
 RUS  HZ EP       14 6 58.89                             142   -0.5010  100 177 
 RUS  HE ES       14 7 17.29                             142   -0.0810  100 177 
 RUS  HZ I        14 7 18.37        24.1 0.22            145            100 177 
 ZAR  HZ EP       14 7  9.05                             121    0.59 9  205 292 
 ZAR  HN ES       14 7 33.07                             121   -0.46 9  205 292 
 ZAR  HZ I        14 7 39.09        46.7 0.32            121            205 292 
 NOR  HZ EP       14 7 11.48                             117   -0.26 8  235 235 
 NOR  HN ES       14 7 39.21                             117   -0.16 8  235 235 
 NOR  HZ I        14 7 43.25        31.6 0.18            118            235 235 
 SML  HE ES   4   14 7 39.31                             116   -1.72 0  245 335 
 HEL  HZ EP       14 7 16.93                             113    0.62 8  273 256 
 HEL  HN ES   4   14 7 49.49                             113    1.99 0  273 256 
 HEL  HZ I        14 7 53.41        14.0 0.28            114            273 256 
 URE  HN ES   4   14 7 46.19                             112   -2.91 0  285 292 
 GUY2CHZ EP       14 7 20.03                             111    0.32 7  302 235 
 GUY2CHE ES       14 7 54.04                             111    0.50 7  302 235 
 GUY2CHZ I        14 8  1.70        26.3 0.34                           302 235 
 CBOC HZ EP       14 7 23.35                             109    0.27 7  335 252 
 CBOC HN ES       14 7 59.14                             109   -0.40 7  335 252 
 CBOC HZ I        14 8 11.72         8.3 0.52            110            335 252 
 DBB  SZ EP       14 7 22.77                             108   -0.90 7  341 274 
 DBB  SZ ES   4   14 7 58.83                             108   -1.76 0  341 274 
 DBB  SZ I        14 8  3.33        33.1 0.36            109            341 274 
 TOL  SZ EP       14 7 24.82                             108    0.44 7  344 225 
 TOL  SN ES       14 8  2.01                             108    0.16 7  344 225 
 TOL  SZ I        14 8  7.45        10.5 0.38            109            344 225 
 ANIL HE ES   4   14 8  6.39                             107    1.76 0  358 225 
 ANIL HZ I        14 8 11.79        31.4 0.36            109            358 225 
 PAL  HZ EP       14 7 30.91                             105   -0.45 6  406 239 
 PAL  HN ES       14 8 14.63                             105    0.35 6  406 239 
 PAL  HZ I        14 8 17.89         4.4 0.46            106            406 239 
                                                                                
