 2017  4 9 1011 45.0 L   6.786 -73.069148.9  RSN  5 0.4 1.2LRSN                1
 GAP=147        1.15       6.1     6.5  8.3  0.8628E+01  0.1219E+02 -0.2438E+01E
 Epicentro: LOS SANTOS - SANTANDER                                             3
 ACTION:UPD 17-05-30 21:10 OP:jn   STATUS:               ID:20170409101145 L   I
 OLDACT:UP  17-04-09 21:21 OP:edw  STATUS:               ID:20170409100739     3
 OLDACT:UP  17-04-09 21:19 OP:edw  STATUS:               ID:20170409100739     3
 OLDACT:REG 17-04-09 20:25 OP:edw  STATUS:               ID:20170409100739     3
 2017-04-09-1008-00M.COL___371                                                 6
 STAT SP IPHASW D HRMM SECON CODA AMPLIT PERI AZIMU VELO AIN AR TRES W  DIS CAZ7
 BAR2 EZ IP     D 1012  5.42                             170    0.3410 24.8 210 
 BAR2 EZ ES       1012 20.07                             170   -0.6410 24.8 210 
 BAR2 EZ I        1012 21.78         6.4 0.48            173           24.8 210 
 PAM  EZ EP       1012  6.52                             153   -0.8510 73.6  34 
 PAM  EN ES       1012 25.25                             153    0.4610 73.6  34 
 PAM  EZ I        1012 29.96         1.9 0.50            152           73.6  34 
 BRR  HZ EP       1012  7.34                             150    0.3410 79.4 297 
 BRR  HN ES       1012 24.42                             150    0.2910 79.4 297 
 RUS  HZ EP       1012  9.35                             145    0.3710 98.8 181 
 RUS  HN ES       1012 27.61                             145   -0.0410 98.8 181 
 RUS  HZ I        1012 28.78         1.8 0.26            149           98.8 181 
 ZAR  HZ EP       1012 18.31                             122   -0.24 8  212 292 
 ZAR  HN ES       1012 44.55                             122   -0.15 8  212 292 
 ZAR  HZ I        1012 49.54         2.2 0.32            123            212 292 
                                                                                
