 2011  6 9 1738 15.6 L   6.781 -73.133149.4  RSN  5 0.3 1.7LRSN                1
 GAP=160        0.68       3.9     5.9  6.2 -0.8731E+01  0.3374E+01 -0.1272E+01E
 Epicentro: LOS SANTOS - SANTANDER                                             3
 ACTION:UP  11-07-14 19:04 OP:ep   STATUS:               ID:20110609173815 L   I
 2011-06-09-1735-48S.COL___121                                                 6
 STAT SP IPHASW D HRMM SECON CODA AMPLIT PERI AZIMU VELO SNR AR TRES W  DIS CAZ7
 BAR2 SZ EP   1   1738 35.63                             171     0.0 8   22 195 
 BAR2 SZ ES   1   1738 51.27                             171     0.0 8   22 195 
 BAR2 SZ I        1738 52.48         7.2 0.13                            22 195 
 BRR  HZ EP   1   1738 37.50                             152     0.2 8   73 299 
 BRR  HE ES   1   1738 54.30                             152     0.1 8   73 299 
 BRR  HZ I        1738 55.25        21.7 0.28                            73 299 
 RUS  HZ EP   1   1738 39.11                             145    -0.5 8   98 177 
 RUS  HE ES   1   1738 58.59                             145     0.3 8   98 177 
 RUS  HZ I        1739  1.07         6.5 0.35                            98 177 
 GRA  SZ EP       1738 41.49                             137     0.210  127  17 
 GRA  SZ ES   1   1739  1.04                             137    -0.3 7  127  17 
 GRA  SZ I        1739  2.09         6.6 0.25                           127  17 
 NOR  SZ EP   1   1738 51.94                             119     0.4 6  235 235 
 NOR  SN ES   1   1739 19.13                             119    -0.5 6  235 235 
                                                                                
