 2015  2 9 1120 50.5 L   6.774 -73.157144.5  RSN  5 0.4 1.5LRSN                1
 GAP=136        1.14       6.0     5.8  8.3 -0.3246E+01  0.5986E+01  0.2073E+01E
 Epicentro: LOS SANTOS - SANTANDER                                             3
 ACTION:UPD 15-04-30 21:24 OP:nd   STATUS:               ID:20150209112050 L   I
 OLDACT:ARG 15-02-09 20:42 OP:stll STATUS:               ID:20150209111744     3
 2015-02-09-1117-44M.COL___286                                                 6
 STAT SP IPHASW D HRMM SECON CODA AMPLIT PERI AZIMU VELO AIN AR TRES W  DIS CAZ7
 BAR2 EZ EP       1121 10.01                             172    0.0910 20.3 188 
 BAR2 EZ ES       1121 24.80                             172   -0.2610 20.3 188 
 BAR2 EZ I        1121 26.44         9.8 0.26            170           20.3 188 
 BRR  HZ EP       1121 11.81                             152    0.2810 71.6 301 
 BRR  HE ES       1121 28.80                             152    0.8710 71.6 301 
 PAM  SZ EP       1121 12.67                             150   -0.0910 80.4  39 
 PAM  SZ I        1121 12.99        11.0 0.22            152           80.4  39 
 PAM  SE ES       1121 29.65                             150   -0.4810 80.4  39 
 RUS  HZ EP       1121 14.38                             144    0.4610 97.8 175 
 RUS  HN ES       1121 32.21                             144    0.0110 97.8 175 
 RUS  HZ I        1121 34.49         2.5 0.30            144           97.8 175 
 PTB  HZ EP       1121 16.75                             132   -0.45 9  146 260 
 PTB  HN ES       1121 37.47                             132   -0.56 9  146 260 
 PTB  HZ I        1121 40.81         5.0 0.18            132            146 260 
                                                                                
