 2014  5 9 1639 30.1 L   6.809 -73.150147.0  RSN  9 0.4 1.9LRSN                1
 GAP=136        0.97       3.2     4.0  7.8 -0.7989E+00  0.1151E+02  0.1016E+01E
 Epicentro: LOS SANTOS - SANTANDER                                             3
 OLDACT:REG 14-05-09 20:48 OP:stll STATUS:               ID:20140509163810     3
 ACTION:UPD 15-03-16 16:56 OP:nd   STATUS:               ID:20140509163930 L   I
 OLDACT:UP  14-05-10 01:27 OP:mh   STATUS:               ID:20140509163810     3
 OLDACT:UP  14-05-10 01:27 OP:mh   STATUS:               ID:20140509163810     3
 2014-05-09-1638-10M.COL___239                                                 6
 STAT SP IPHASW D HRMM SECON CODA AMPLIT PERI AZIMU VELO AIN AR TRES W  DIS CAZ7
 PAM  SZ EP       1639 52.87                             151    0.4610 76.9  40 
 PAM  SN ES       1640 10.29                             151    0.4710 76.9  40 
 PAM  SZ I        1640 12.13         7.4 0.30            157           76.9  40 
 RUS  HZ EP       1639 54.01                             144   -0.0210  102 176 
 RUS  HN ES       1640 12.14                             144   -0.5710  102 176 
 RUS  SZ I        1640 13.92         6.5 0.46            147            102 176 
 PTB  HZ EP       1639 56.85                             132   -0.28 9  147 258 
 PTB  HN ES       1640 17.74                             132   -0.48 9  147 258 
 PTB  SZ I        1640 23.96        11.1 0.24            133            147 258 
 SPBC HZ EP   1   1639 58.31                             129   -0.42 7  164 219 
 SPBC HN ES   1   1640 21.32                             129    0.26 7  164 219 
 SPBC SZ I        1640 23.97        20.7 0.12            131            164 219 
 ZAR  HZ EP       1640  2.10                             123   -0.43 9  203 292 
 ZAR  HN ES       1640 27.71                             123   -0.13 9  203 292 
 ZAR  SZ I        1640 34.44        11.8 0.36            124            203 292 
 NOR  HZ EP       1640  6.19                             119    0.28 8  235 234 
 NOR  HN ES       1640 34.35                             119    0.50 8  235 234 
 NOR  SZ I        1640 39.75         5.8 0.32            121            235 234 
 SML  HN ES       1640 34.87                             118   -0.33 8  243 335 
 CHI  HZ EP   1   1640  7.78                             117   -0.16 6  249 195 
 CHI  HE ES       1640 37.58                             117    0.11 8  249 195 
 CHI  SZ I        1640 41.18         5.2 0.38            120            249 195 
 HEL  HZ EP   4   1640 12.37                             115    2.03 0  272 256 
 HEL  HN ES       1640 42.60                             115    0.87 8  272 256 
 HEL  SZ I        1640 49.00         4.6 0.36            117            272 256 
                                                                                
