 2013  3 9 1043 55.2 L   6.711 -73.602104.4  RSN  5 0.1 1.7LRSN                1
 GAP=149        0.29       1.9     1.8  3.7 -0.8657E+00  0.4483E+01 -0.2907E+01E
 Epicentro: EL CARMEN DE CHUCURI - SANTANDER                                   3
 ACTION:UPD 13-04-09 14:01 OP:ep   STATUS:               ID:20130309104355 L   I
 2013-03-09-1040-00M.COL___231                                                 6
 STAT SP IPHASW D HRMM SECON CODA AMPLIT PERI AZIMU VELO AIN AR TRES W  DIS CAZ7
 BRR  HZ EP       1044 10.43                             155   -0.0410 45.5 345 
 BRR  HN ES   1   1044 22.40                             155    0.05 7 45.5 345 
 BRR  HE I        1044 22.93        33.8 0.25            158           45.5 345 
 BAR2 SZ ES       1044 23.22                             153   -0.0110 48.2 106 
 BAR2 SZ I        1044 25.81        12.6 0.24            155           48.2 106 
 ZAR  HZ EP   1   1044 20.89                             117    0.01 7  163 302 
 ZAR  HN ES       1044 40.80                             117   -0.07 9  163 302 
 ZAR  HZ I        1044 43.85         4.0 0.25            118            163 302 
 OCA  HE ES       1044 42.87                             116    0.04 9  172  10 
 HEL  HE ES   1   1044 53.20                             110    0.11 6  221 255 
 HEL  HE I        1044 57.79         5.1 0.38            109            221 255 
                                                                                
