 2010  2 9 1404 53.1 L   6.714 -72.902144.1  RSN  8 0.3 2.1LRSN                1
 GAP=197        0.59       6.1    12.8  6.5 -0.6208E+02 -0.9208E+01  0.1397E+02E
 Epicentro: MOLAGAVITA - SANTANDER                                             3
 ACTION:UP  10-08-24 09:48 OP:vdl  STATUS:               ID:20100209140453 L   I
 2010-02-09-1359-50S.COL___092                                                 6
 STAT SP IPHASW D HRMM SECON CODA AMPLIT PERI AZIMU VELO SNR AR TRES W  DIS CAZ7
 BAR2 SZ EP   1   14 5 12.42                             167    -0.4 7   34 247 
 BAR2 SZ ES   2   14 5 28.02                             167    -0.1 5   34 247 
 GIR2 SZ EP   1   14 5 13.15                             159    -0.1 7   52 321 
 GIR2 SZ ES   2   14 5 29.23                             159     0.2 5   52 321 
 GUE  SZ EP   1   14 5 18.78                             137     0.6 7  124 359 
 GRA  SZ EP   1   14 5 18.77                             135     0.2 7  130   5 
 GRA  SZ ES   2   14 5 38.38                             135     0.0 5  130   5 
 CHI  HZ EP   1   14 5 30.59                             117     0.0 6  248 202 
 CHI  HN ES   2   14 6  0.27                             117     0.3 4  248 202 
 CHI  HZ I        14 6  8.17         4.6 0.46                           248 202 
 RREF HZ EP   1   14 5 40.30                             110    -0.6 5  337 234 
 RREF HN ES   2   14 6 18.38                             110     0.2 3  337 234 
 RREF HZ I        14 6 23.47         5.8 0.16                           337 234 
 TOL  SZ EP   1   14 5 42.29                             108    -0.5 5  357 229 
 PRA  HZ EP   1   14 5 47.12                             106    -0.1 4  398 214 
 PRA  HN ES   2   14 6 30.18                             106     0.7 3  398 214 
 PRA  HZ I        14 6 33.59         3.8 0.13                           398 214 
                                                                                
