 2016 10 9 1329 45.9 L   6.825 -73.172143.3  RSN 12 0.4 2.0LRSN                1
 GAP=132        0.96       3.3     3.6  5.5 -0.1695E+01  0.7315E+01  0.2684E+01E
 Epicentro: ZAPATOCA - SANTANDER                                               3
 ACTION:UPD 16-11-09 19:17 OP:rebc STATUS:               ID:20161009132945 L   I
 OLDACT:UP  16-10-09 22:32 OP:lv   STATUS:               ID:20161009132746     3
 OLDACT:REG 16-10-09 20:22 OP:lv   STATUS:               ID:20161009132746     3
 2016-10-09-1328-00M.COL___360                                                 6
 STAT SP IPHASW D HRMM SECON CODA AMPLIT PERI AZIMU VELO AIN AR TRES W  DIS CAZ7
 BAR2 EZ EP       1330  5.10                             169   -0.2010 25.8 183 
 BAR2 EZ ES       1330 20.04                             169   -0.3810 25.8 183 
 BAR2 EZ I        1330 21.47        34.6 0.25            168           25.8 183 
 PAM  EZ EP       1330  8.15                             150    0.3010 77.2  43 
 PAM  EN ES       1330 25.40                             150    0.4410 77.2  43 
 PAM  EZ I        1330 27.51        12.5 0.41            155           77.2  43 
 RUS  HZ EP       1330  9.13                             142   -0.5110  104 175 
 RUS  HN ES       1330 28.12                             142   -0.0310  104 175 
 RUS  HZ I        1330 29.01        15.0 0.28            144            104 175 
 PTB  HZ EP       1330 11.88                             132   -0.59 9  146 258 
 PTB  HN ES       1330 32.88                             132   -0.31 9  146 258 
 PTB  HZ I        1330 34.73         9.9 0.12            131            146 258 
 SPBC HZ EP       1330 14.07                             128   -0.19 9  164 218 
 SPBC HE ES       1330 37.19                             128    0.82 9  164 218 
 SPBC HZ I        1330 41.78        17.8 0.21            129            164 218 
 ZAR  HZ EP       1330 17.70                             122   -0.11 9  200 292 
 ZAR  HE ES       1330 43.06                             122    0.37 9  200 292 
 ZAR  HZ I        1330 48.61         8.9 0.15            123            200 292 
 NOR  HZ EP       1330 21.51                             118    0.09 8  234 233 
 NOR  HE ES       1330 49.20                             118    0.08 8  234 233 
 NOR  HZ I        1330 53.95         8.3 0.34            119            234 233 
 CHI  HZ EP       1330 23.43                             116   -0.26 8  251 194 
 CHI  HN ES       1330 53.11                             116   -0.04 8  251 194 
 CHI  HZ I        1330 54.96         6.4 0.38            118            251 194 
 ROSC BZ EP       1330 24.31                             116    0.31 8  254 210 
 ROSC BE ES       1330 53.80                             116    0.09 8  254 210 
 ROSC BZ I        1331  1.39        10.5 0.45            117            254 210 
 HEL  HZ EP       1330 26.41                             114    0.64 8  270 255 
 HEL  HN ES       1330 56.10                             114   -0.75 8  270 255 
 HEL  HZ I        1331  5.25         5.7 0.26            115            270 255 
 GUY2CHZ EP   4   1330 30.83                             112    1.51 0  300 234 
 GUY2CHE ES       1331  3.55                             112    0.36 7  300 234 
 GUY2CHZ I        1331 11.30         5.0 0.29                           300 234 
 PRA  HZ EP       1330 39.16                             106   -0.31 6  393 209 
 PRA  HN ES       1331 22.03                             106    0.79 6  393 209 
 PRA  HZ I        1331 28.85         4.4 0.35            107            393 209 
                                                                                
