 2013  1 9 1309 35.6 L   6.717 -73.167146.3  RSN  6 0.5 2.0LRSN                1
 GAP=229        1.17       8.4     8.4  8.4  0.4085E+02  0.1437E+02  0.1484E+02E
 Epicentro: VILLANUEVA - SANTANDER                                             3
 ACTION:UPD 13-02-15 09:13 OP:ep   STATUS:               ID:20130109130935 L   I
 2013-01-09-1308-48M.COL___202                                                 6
 STAT SP IPHASW D HRMM SECON CODA AMPLIT PERI AZIMU VELO AIN AR TRES W  DIS CAZ7
 BAR2 SZ EP       13 9 54.66                             174   -0.5110 13.9 187 
 BAR2 SZ ES       1310 10.26                             174   -0.1610 13.9 187 
 BAR2 SZ I        1310 11.73        21.0 0.38            156           13.9 187 
 BRR  HZ EP       13 9 56.92                             152   -0.0810 74.1 306 
 BRR  HZ I        13 9 57.21        22.0 0.24            148           74.1 306 
 BRR  HN ES       1310 14.50                             152    0.8310 74.1 306 
 RUS  HZ EP       13 9 59.00                             147    0.1910 91.7 174 
 RUS  HN ES       1310 16.69                             147   -0.2110 91.7 174 
 PTB  HZ EP       1310  1.86                             133   -0.44 9  144 262 
 PTB  HN ES       1310 22.87                             133   -0.23 9  144 262 
 PTB  HN I        1310 24.02        11.8 0.38            120            144 262 
 ZAR  HE ES   1   1310 33.47                             122   -0.24 6  206 295 
 CHI  HZ EP       1310 13.31                             118    0.97 8  239 195 
 CHI  HN I        1310 44.87         5.2 0.26            105            239 195 
                                                                                
