 2012 10 9 1019 18.7 L   6.780 -73.111141.7  RSN  4 0.2 1.8LRSN                1
 GAP=142        0.49       3.4     4.7  5.5 -0.5509E+00 -0.1217E+01 -0.2265E+00E
 Epicentro: LOS SANTOS - SANTANDER                                             3
 ACTION:UPD 12-11-22 17:02 OP:ep   STATUS:               ID:20121009101918 L   I
 2012-10-09-1018-20M.COL___198                                                 6
 STAT SP IPHASW D HRMM SECON CODA AMPLIT PERI AZIMU VELO AIN AR TRES W  DIS CAZ7
 BAR2 SZ EP   2   1019 37.14                             171   -0.69 5 22.2 201 
 BAR2 SZ ES   2   1019 52.58                             171   -0.17 5 22.2 201 
 BAR2 SZ I        1019 55.04        14.5 0.20                          22.2 201 
 BRR  HZ EP       1019 39.55                             150   -0.1310 75.6 299 
 BRR  HN ES   1   1019 56.22                             150    0.18 7 75.6 299 
 BRR  HN I        1019 59.73        28.9 0.16                          75.6 299 
 PAM  SZ EP       1019 40.64                             150    0.1810 76.7  36 
 PAM  SZ I        1019 40.85         8.2 0.18                          76.7  36 
 PAM  SN ES   1   1019 57.33                             150   -0.09 7 76.7  36 
 RUS  HZ EP   1   1019 42.01                             144    0.12 7 98.2 178 
 RUS  HN ES   1   1020  0.07                             144    0.09 7 98.2 178 
 RUS  HN I        1020  1.98         9.5 0.30                          98.2 178 
                                                                                
