 2014 10 9 1010 15.4 L   6.788 -73.166144.5  RSN  6 0.3 1.5LRSN                1
 GAP=134        0.79       3.9     3.5  5.3  0.1460E+01  0.4663E+01 -0.8908E+00E
 Epicentro: LOS SANTOS - SANTANDER                                             3
 ACTION:UPD 14-11-29 23:48 OP:nd   STATUS:               ID:20141009101015 L   I
 OLDACT:REG 14-10-09 20:18 OP:stll STATUS:               ID:20141009100737     3
 2014-10-09-1007-37M.COL___286                                                 6
 STAT SP IPHASW D HRMM SECON CODA AMPLIT PERI AZIMU VELO AIN AR TRES W  DIS CAZ7
 BAR2 SZ EP       1010 34.94                             171    0.0710 21.7 185 
 BAR2 SZ I        1010 35.23        14.6 0.32            172           21.7 185 
 BAR2 SZ ES       1010 50.28                             171    0.2410 21.7 185 
 BRR  HZ EP       1010 36.57                             153    0.2110 69.9 300 
 BRR  HN ES       1010 53.07                             153    0.3810 69.9 300 
 BRR  HZ I        1010 54.42         6.6 0.32            150           69.9 300 
 PAM  SZ EP       1010 37.77                             150    0.1110 79.9  40 
 PAM  SZ I        1010 37.96         7.0 0.24            150           79.9  40 
 PAM  SN ES       1010 54.46                             150   -0.5410 79.9  40 
 RUS  HZ EP       1010 38.98                             144    0.0110 99.4 175 
 RUS  HZ I        1010 39.66         2.5 0.10            145           99.4 175 
 RUS  HN ES       1010 57.40                             144    0.0610 99.4 175 
 PTB  HZ EP       1010 41.80                             132   -0.26 9  145 259 
 PTB  HN ES       1011  2.22                             132   -0.62 9  145 259 
 PTB  HZ I        1011  4.05         4.0 0.34            131            145 259 
 ZAR  HZ EP       1010 47.78                             122    0.16 9  202 293 
 ZAR  HN ES       1011 12.89                             122    0.16 9  202 293 
 ZAR  HZ I        1011 18.49         2.5 0.16            121            202 293 
                                                                                
