 2017  4 9 1222 26.8 L   6.823 -73.159147.2  RSN 26 0.6 2.9LRSN                1
 GAP=110        1.21       3.3     3.8  5.0 -0.2205E+00  0.5307E+01  0.1195E+01E
 Epicentro: LOS SANTOS - SANTANDER                                             3
 ACTION:UPD 17-05-30 21:10 OP:jn   STATUS:               ID:20170409122226 L   I
 OLDACT:UP  17-04-09 23:23 OP:edw  STATUS:               ID:20170409121740     3
 OLDACT:REG 17-04-09 20:35 OP:edw  STATUS:               ID:20170409121740     3
 2017-04-09-1218-00M.COL___371                                                 6
 STAT SP IPHASW D HRMM SECON CODA AMPLIT PERI AZIMU VELO AIN AR TRES W  DIS CAZ7
 BAR2 EZ IP     D 1222 46.66                             170   -0.0210 25.6 186 
 BAR2 EZ ES       1223  1.47                             170   -0.6910 25.6 186 
 BAR2 EZ I        1223  2.88       274.0 0.26            166           25.6 186 
 BRR  HZ IP     C 1222 48.45                             153    0.4510 68.7 297 
 BRR  HN ES       1223  5.63                             153    1.1210 68.7 297 
 BRR  HZ I        1223  8.78       147.5 0.26            151           68.7 297 
 PAM  EZ EP       1222 49.67                             151    0.5310 76.4  42 
 PAM  EN ES       1223  6.58                             151    0.0410 76.4  42 
 PAM  EZ I        1223  9.32        71.8 0.30            158           76.4  42 
 RUS  HZ IP     D 1222 50.60                             143   -0.3210  103 175 
 RUS  HN ES       1223  9.24                             143   -0.4610  103 175 
 RUS  HZ I        1223 11.86       109.6 0.70            143            103 175 
 PTB  HZ EP   9   1222 53.08                             132   -0.76 0  147 258 
 PTB  HN ES       1223 14.78                             133    0.64 9  147 258 
 PTB  HZ I        1223 19.59       100.6 0.50            131            147 258 
 SPBC HZ EP       1222 55.69                             129    0.15 9  164 218 
 SPBC HN ES       1223 17.41                             129   -0.53 9  164 218 
 SPBC HZ I        1223 22.70       193.9 0.18            128            164 218 
 YPLC HZ IP     D 1222 57.14                             126    0.12 9  180 151 
 YPLC HN ES       1223 20.65                             126    0.09 9  180 151 
 YPLC HZ I        1223 24.81        44.2 0.34            128            180 151 
 ZAR  HZ EP       1222 59.03                             123   -0.11 9  202 292 
 ZAR  HN ES       1223 24.23                             123   -0.10 9  202 292 
 ZAR  HZ I        1223 30.93        84.5 0.30            123            202 292 
 TABC EZ EP   4   1223  4.33                             119    1.51 0  231 210 
 TABC EZ ES   4   1223 32.47                             119    1.58 0  231 210 
 TABC EZ I        1223 38.24        88.3 0.58            120            231 210 
 NOR  HZ EP       1223  2.78                             119    0.10 8  235 234 
 NOR  HN ES       1223 30.07                             119   -0.57 8  235 234 
 NOR  HZ I        1223 35.67        56.0 0.18            119            235 234 
 CHI  HZ EP       1223  4.85                             117    0.01 8  251 195 
 CHI  HN ES       1223 34.50                             117    0.02 8  251 195 
 CHI  HZ I        1223 36.61        66.2 0.36            118            251 195 
 ROSC BZ EP   4   1223  6.78                             117    1.59 0  254 210 
 ROSC BN ES   4   1223 37.13                             117    2.03 0  254 210 
 ROSC BZ I        1223 41.42       119.4 0.35            117            254 210 
 HEL  HZ EP   4   1223  8.00                             115    0.97 0  271 255 
 HEL  HN ES   4   1223 40.56                             115    2.17 0  271 255 
 HEL  HZ I        1223 45.43        47.8 0.38            115            271 255 
 URE  HZ EP   9   1223  6.50                             114   -1.22 0  282 292 
 URE  HN ES       1223 37.62                             115   -0.77 7  282 292 
 URE  HZ I        1223 48.90        93.7 0.16            115            282 292 
 VIL  EZ EP   9   1223 10.30                             112   -0.27 0  306 191 
 VIL  EN ES       1223 43.87                             112   -0.54 7  306 191 
 VIL  EZ I        1223 54.97        57.5 0.46            113            306 191 
 PTGC HZ IP   4 D 1223  9.87                             112   -1.21 0  312 159 
 PTGC HN ES   4   1223 43.37                             112   -2.22 0  312 159 
 ELA  HZ EP       1223 15.25                             110    1.44 7  330 229 
 ELA  HN ES       1223 51.21                             110    0.76 7  330 229 
 ELA  HZ I        1223 58.56        27.8 0.28            111            330 229 
 CBOC HZ EP       1223 14.39                             110    0.65 7  333 252 
 CBOC HN ES       1223 49.55                             110   -0.78 7  333 252 
 CBOC HZ I        1223 58.39        10.5 0.24            111            333 252 
 DBB  EZ EP       1223 14.17                             110   -0.01 7  338 274 
 DBB  EN ES   4   1223 48.77                             110   -2.34 0  338 274 
 DBB  EZ I        1223 52.31        18.2 0.22            110            338 274 
 ARGC HZ EP       1223 15.67                             109   -0.54 6  356 340 
 ARGC HN ES   4   1223 57.02                             109    2.30 0  356 340 
 ANIL HZ EP       1223 17.20                             109    0.41 6  358 224 
 ANIL HN ES   4   1223 57.22                             109    1.47 0  358 224 
 PRA  HZ EP       1223 20.45                             107   -0.13 6  394 209 
 PRA  HN ES       1224  1.95                             107   -0.55 6  394 209 
 PRA  HZ I        1224  9.24        39.9 0.24            107            394 209 
 APAC HZ EP       1223 20.53                             106   -0.29 6  396 288 
 APAC HN ES   4   1224  0.94                             106   -1.99 0  396 288 
 APAC HZ I        1224  6.67        17.9 0.72            107            396 288 
 ORTC HZ EP       1223 21.18                             106    0.24 6  397 216 
 ORTC HN ES   4   1224  1.31                             106   -1.84 0  397 216 
 ORTC HZ I        1224  9.83        13.2 0.42            107            397 216 
 SJC  HZ EP       1223 20.43                             106   -1.67 6  406 327 
 SJC  HN ES   4   1224  1.14                             106   -4.07 0  406 327 
 SJC  HZ I        1224  5.90        12.7 0.28            107            406 327 
 PAL  HZ EP       1223 22.27                             106    0.22 6  406 239 
 PAL  HN ES       1224  4.84                             106   -0.28 6  406 239 
 PAL  HZ I        1224 10.68         9.9 0.36            107            406 239 
 SMAR HZ EP       1223 31.60                             103   -0.81 4  494 346 
 SMAR HN ES   4   1224 17.44                             103   -6.12 0  494 346 
 SMAR HZ I        1224 22.65         8.9 0.32            104            494 346 
 GARC HZ EP   4   1223 40.81                             100   -1.50 0  574 207 
 GARC HN ES   4   1224 34.80                             100   -6.38 0  574 207 
                                                                                
