 2014  5 9 1324 33.9 L   6.827 -73.188142.5  RSN  7 0.5 1.8LRSN                1
 GAP=130        1.07       3.8     4.6  9.8 -0.2651E+01  0.1639E+02 -0.1200E+01E
 Epicentro: ZAPATOCA - SANTANDER                                               3
 ACTION:UPD 15-03-16 16:56 OP:nd   STATUS:               ID:20140509132433 L   I
 OLDACT:UP  14-05-09 23:37 OP:mh   STATUS:               ID:20140509131813     3
 OLDACT:REG 14-05-09 20:38 OP:stll STATUS:               ID:20140509131813     3
 2014-05-09-1318-13M.COL___245                                                 6
 STAT SP IPHASW D HRMM SECON CODA AMPLIT PERI AZIMU VELO AIN AR TRES W  DIS CAZ7
 PAM  SZ EP       1324 56.09                             150    0.2310 78.2  44 
 PAM  SN ES       1325 13.35                             150    0.3910 78.2  44 
 PAM  SZ I        1325 15.63        13.3 0.52            156           78.2  44 
 RUS  HZ EP       1324 57.81                             142    0.1910  104 174 
 RUS  HN ES       1325 15.62                             142   -0.4810  104 174 
 RUS  HZ I        1325 17.80         6.1 0.22            146            104 174 
 PTB  HZ EP       1324 59.76                             132   -0.53 9  144 257 
 PTB  HN ES       1325 20.42                             132   -0.42 9  144 257 
 PTB  HZ I        1325 23.75         7.4 0.07            134            144 257 
 SPBC HZ EP   1   1325  1.64                             128   -0.50 7  163 217 
 SPBC HN ES       1325 24.22                             128    0.08 9  163 217 
 SPBC HZ I        1325 30.12        12.0 0.31            131            163 217 
 ZAR  HN ES       1325 30.88                             122    0.56 9  199 292 
 ZAR  HZ I        1325 38.59         4.8 0.32            125            199 292 
 NOR  HZ EP       1325  9.64                             118    0.37 8  233 233 
 NOR  HN ES       1325 37.50                             118    0.68 8  233 233 
 NOR  HZ I        1325 41.73         5.2 0.12            121            233 233 
 SML  HN ES       1325 37.24                             117   -0.68 8  239 336 
                                                                                
