 2011  1 9 1930 48.8 L   6.811 -73.135138.0  RSN  7 0.5 1.8LRSN                1
 GAP=160        1.01       7.5    12.4 14.3 -0.5388E+02  0.9013E+02 -0.4531E+02E
 Epicentro: LOS SANTOS - SANTANDER                                             3
 ACTION:UP  11-02-08 08:39 OP:pat  STATUS:               ID:20110109193048 L   I
 2011-01-09-1927-26S.COL___135                                                 6
 STAT SP IPHASW D HRMM SECON CODA AMPLIT PERI AZIMU VELO SNR AR TRES W  DIS CAZ7
 BTL  SZ EP       1931  7.99                             172     0.510   19 309 
 BAR2 SZ EP   1   1931  7.75                             169     0.2 7   25 192 
 BAR2 SZ ES   2   1931 22.26                             169     0.1 5   25 192 
 BAR2 SZ I        1931 24.05        22.3 0.17                            25 192 
 GIR2 SZ EP   2   1931  7.92                             167     0.4 5   30 348 
 RUS  HZ EP   1   1931 11.69                             142    -0.2 7  102 177 
 RUS  HN ES   1   1931 29.87                             142    -0.1 7  102 177 
 RUS  HZ I        1931 32.70         8.7 0.28                           102 177 
 GRA  SZ EP   1   1931 12.42                             136    -0.8 7  124  17 
 GRA  SZ ES   2   1931 31.66                             136    -0.7 5  124  17 
 GRA  SZ I        1931 33.72         7.7 0.33                           124  17 
 OCA  SZ EP   2   1931 17.34                             128     0.9 5  159 353 
 OCA  SZ I        1931 41.10         8.9 0.20                           159 353 
 NOR  SZ EP   1   1931 24.40                             117     0.1 6  237 234 
 NOR  SE ES   1   1931 51.46                             117    -0.6 6  237 234 
                                                                                
