 2013  3 9 1616 30.1 L   6.766 -73.153141.0  RSN 10 0.2 2.3LRSN                1
 GAP= 97        0.58       2.6     2.4  3.4  0.2832E+00  0.1038E+01  0.1656E+01E
 Epicentro: LOS SANTOS - SANTANDER                                             3
 ACTION:UPD 13-04-09 14:01 OP:ep   STATUS:               ID:20130309161630 L   I
 2013-03-09-1610-00M.COL___231                                                 6
 STAT SP IPHASW D HRMM SECON CODA AMPLIT PERI AZIMU VELO AIN AR TRES W  DIS CAZ7
 BAR2 SZ EP       1616 49.19                             172    0.0710 19.5 189 
 BAR2 SZ ES       1617  3.81                             172   -0.1210 19.5 189 
 BAR2 SZ I        1617  5.14        77.7 0.15            163           19.5 189 
 BRR  HZ EP       1616 51.20                             151    0.3610 72.3 301 
 BRR  HN ES       1617  7.36                             151    0.3710 72.3 301 
 BRR  HN I        1617  8.51       109.2 0.22            140           72.3 301 
 PAM  SZ EP       1616 51.89                             149   -0.1710 80.8  38 
 PAM  SZ I        1616 53.18        18.3 0.30            147           80.8  38 
 PAM  SN ES       1617  8.93                             149   -0.2310 80.8  38 
 RUS  HZ EP       1616 53.19                             144    0.0310 96.9 175 
 RUS  HN ES       1617 11.22                             144    0.1110 96.9 175 
 RUS  HZ I        1617 13.00        20.4 0.41            135           96.9 175 
 PTB  HZ EP       1616 56.14                             131   -0.44 9  146 260 
 PTB  HN ES   1   1617 16.80                             131   -0.41 7  146 260 
 PTB  HZ I        1617 19.68        31.3 0.24            120            146 260 
 TAM  HZ IP     C 1616 57.52                             129    0.09 9  155 104 
 TAM  HZ I        1616 57.76        42.9 0.18            124            155 104 
 ZAR  HZ EP   1   1617  2.19                             121   -0.16 6  205 293 
 ZAR  HE ES   1   1617 27.58                             121    0.11 6  205 293 
 ZAR  HZ I        1617 30.90        12.0 0.12            112            205 293 
 CHI  HZ EP   1   1617  7.37                             116    0.21 6  245 195 
 HEL  HZ EP   2   1617 10.09                             114    0.17 4  270 257 
 HEL  HZ I        1617 48.16         9.4 0.33            106            270 257 
 PRA  HZ EP   1   1617 23.36                             106    0.29 4  388 210 
 PRA  HN ES   1   1618  4.11                             106   -0.24 4  388 210 
 PRA  HZ I        1618 10.60         4.5 0.32             99            388 210 
                                                                                
