 2016  8 9 1104 48.9 L   6.856 -73.001148.5  RSN  5 0.5 1.7LRSN                1
 GAP=255        1.24       8.1     9.3  8.9  0.3762E+02  0.2390E+02  0.5587E+01E
 Epicentro: CEPITA - SANTANDER                                                 3
 ACTION:UPD 16-10-29 15:34 OP:rebc STATUS:               ID:20160809110448 L   I
 OLDACT:DUP 16-08-09 21:19 OP:lv   STATUS:               ID:20160809103936d    3
 2016-08-09-1040-00M.COL___380                                                 6
 STAT SP IPHASW D HRMM SECON CODA AMPLIT PERI AZIMU VELO AIN AR TRES W  DIS CAZ7
 BAR2 HZ EP       11 5  9.65                             166    0.5210 35.4 215 
 BAR2 HZ ES       11 5 24.86                             166   -0.0710 35.4 215 
 BAR2 HZ I        11 5 26.19         7.8 0.23                          35.4 215 
 BRR  HZ EP       11 5 11.60                             149    0.5610 83.3 289 
 BRR  HN ES       11 5 28.48                             149    0.1610 83.3 289 
 BRR  HZ I        11 5 32.10         8.7 0.24                          83.3 289 
 RUS  HZ EP       11 5 12.45                             143   -0.9110  107 185 
 RUS  HN ES       11 5 32.45                             143    0.0010  107 185 
 RUS  HZ I        11 5 34.17         9.0 0.34                           107 185 
 ZAR  HZ EP       11 5 22.32                             121   -0.50 8  217 289 
 ZAR  HE ES       11 5 48.74                             121   -0.56 8  217 289 
 ZAR  HZ I        11 5 52.78         3.6 0.13                           217 289 
 GUY2CHZ EP       11 5 35.36                             112    0.86 7  318 236 
 GUY2CHE ES       11 6 10.17                             112    0.09 7  318 236 
 GUY2CHZ I        11 6 16.14         2.7 0.54                           318 236 
                                                                                
