 2011  3 9 1603  9.5 L   6.829 -73.155129.0  RSN  6 0.4 2.0LRSN                1
 GAP=157        0.89       5.6    13.1 10.1 -0.2878E+02  0.6433E+02 -0.1537E+02E
 Epicentro: LOS SANTOS - SANTANDER                                             3
 ACTION:UP  11-06-16 14:32 OP:jfem STATUS:               ID:20110309160309 L   I
 2011-03-09-1602-23S.COL___135                                                 6
 STAT SP IPHASW D HRMM SECON CODA AMPLIT PERI AZIMU VELO SNR AR TRES W  DIS CAZ7
 BAR2 SZ EP       16 3 27.64                             168     0.410   26 187 
 BAR2 SZ I        16 3 27.95        34.7 0.09                            26 187 
 BAR2 SZ ES   1   16 3 41.07                             168     0.1 7   26 187 
 RUS  HZ EP       16 3 31.56                             139    -0.410  104 176 
 RUS  HZ I        16 3 32.67        10.7 0.10                           104 176 
 RUS  HN ES   2   16 3 49.42                             139     0.0 5  104 176 
 GRA  SZ EP   1   16 3 33.50                             134     0.4 7  123  18 
 GRA  SZ ES   1   16 3 50.87                             134    -0.6 7  123  18 
 GRA  SZ I        16 3 54.39        12.5 0.36                           123  18 
 OCA  SZ EP   2   16 3 36.42                             126     0.2 5  157 353 
 OCA  SZ I        16 4  5.11        16.8 0.31                           157 353 
 HEL  HZ EP   2   16 3 48.41                             111    -0.5 4  272 255 
 HEL  HZ I        16 4 29.21         6.5 0.29                           272 255 
 DBB  SZ EP   1   16 3 56.29                             106     0.1 5  338 274 
                                                                                
