 2017  4 9 1125  0.8 L   7.063 -73.282117.4  RSN 11 0.5 1.6LRSN                1
 GAP=139        1.22       4.8     3.9  6.9  0.3441E+01  0.5861E+01  0.7064E+01E
 Epicentro: LEBRIJA - SANTANDER                                                3
 ACTION:UPD 17-05-30 21:10 OP:jn   STATUS:               ID:20170409112500 L   I
 OLDACT:UP  17-04-09 22:20 OP:edw  STATUS:               ID:20170409111743     3
 OLDACT:UP  17-04-09 22:18 OP:edw  STATUS:               ID:20170409111743     3
 OLDACT:REG 17-04-09 20:32 OP:edw  STATUS:               ID:20170409111743     3
 2017-04-09-1118-00M.COL___371                                                 6
 STAT SP IPHASW D HRMM SECON CODA AMPLIT PERI AZIMU VELO AIN AR TRES W  DIS CAZ7
 BRR  HZ IP     C 1125 17.14                             156   -0.4510 47.7 276 
 BRR  HN ES       1125 30.62                             156   -0.0610 47.7 276 
 BRR  HZ I        1125 31.54        16.4 0.18            155           47.7 276 
 BAR2 EZ IP     D 1125 18.28                             154    0.0610 53.2 168 
 BAR2 EZ ES       1125 32.11                             154    0.3010 53.2 168 
 PAM  EZ EP       1125 19.69                             148    0.0210 71.3  65 
 PAM  EN ES       1125 34.67                             148    0.2810 71.3  65 
 PAM  EZ I        1125 37.74         5.4 0.44            150           71.3  65 
 RUS  HZ EP       1125 24.11                             129   -0.5310  131 170 
 RUS  HN ES       1125 42.13                             129   -1.1010  131 170 
 RUS  HZ I        1125 43.78         3.5 0.26            128            131 170 
 PTB  HZ EP   9   1125 23.70                             126   -1.36 0  142 246 
 PTB  HN ES       1125 43.38                             126    0.76 9  142 246 
 PTB  HZ I        1125 46.87         7.1 0.24            125            142 246 
 SPBC HZ EP   4   1125 30.45                             119    1.51 0  179 209 
 SPBC HN ES   4   1125 53.59                             119    2.71 0  179 209 
 SPBC HZ I        1125 56.40         8.7 0.30            118            179 209 
 ZAR  HZ EP       1125 28.62                             119   -0.38 9  180 285 
 ZAR  HN ES       1125 51.11                             119    0.12 9  180 285 
 ZAR  HZ I        1125 56.52         6.0 0.28            119            180 285 
 YPLC HZ EP       1125 32.67                             115    0.40 8  210 152 
 YPLC HN ES       1125 57.59                             115    0.78 8  210 152 
 YPLC HZ I        1126  1.24         5.9 0.40            115            210 152 
 NOR  HZ EP       1125 36.05                             111    0.22 8  241 227 
 NOR  HN ES       1126  3.73                             111    0.58 8  241 227 
 NOR  HZ I        1126  7.98         4.1 0.16            111            241 227 
 HEL  HE ES       1126  9.29                             109    0.34 8  266 249 
 CHI  HZ EP   4   1125 35.64                             109   -4.34 0  274 191 
 CHI  HE ES   4   1126 12.42                             109    1.89 0  274 191 
 CHI  HZ I        1126 16.94         1.3 0.32            108            274 191 
                                                                                
