 2013  3 9 1111 44.8 L   6.586 -73.408118.3  RSN  6 0.3 1.8LRSN                1
 GAP=113        0.76       3.9     3.9  6.0  0.3272E+01  0.9028E+01  0.2844E+01E
 Epicentro: HATO - SANTANDER                                                   3
 ACTION:UPD 13-04-09 14:01 OP:ep   STATUS:               ID:20130309111144 L   I
 2013-03-09-1110-00M.COL___231                                                 6
 STAT SP IPHASW D HRMM SECON CODA AMPLIT PERI AZIMU VELO AIN AR TRES W  DIS CAZ7
 BAR2 SZ IP       1112  1.41                             167    0.2810 25.0  88 
 BAR2 SZ ES       1112 13.92                             167    0.0110 25.0  88 
 BAR2 SZ I        1112 15.16        40.0 0.16            171           25.0  88 
 BRR  HZ IP     C 1112  3.04                             148    0.3310 66.7 330 
 BRR  HE ES       1112 16.64                             148   -0.0810 66.7 330 
 BRR  HN I        1112 18.37        39.6 0.24            145           66.7 330 
 RUS  HZ EP       1112  4.72                             142    0.0610 84.7 155 
 RUS  HN ES   1   1112 20.24                             142    0.05 7 84.7 155 
 RUS  HN I        1112 23.33         7.6 0.24            137           84.7 155 
 PAM  SZ EP   1   1112  6.76                             133   -0.34 7  114  43 
 PAM  SN ES       1112 24.45                             133   -0.0710  114  43 
 PAM  SZ I        1112 25.72         5.6 0.39            133            114  43 
 PTB  HZ EP       1112  5.93                             132   -0.6710  116 268 
 PTB  HZ I        1112 23.59        10.7 0.10            125            116 268 
 ZAR  HZ EP   1   1112 14.48                             118    0.56 7  189 302 
 ZAR  HN ES   1   1112 36.77                             118    0.09 7  189 302 
 ZAR  HZ I        1112 39.55         6.0 0.46            113            189 302 
                                                                                
