 2011 11 9 1015 59.7 L   6.790 -73.076150.9  RSN  5 0.2 1.7LRSN                1
 GAP=146        0.41       2.2     3.9  3.7  0.1036E+01 -0.1892E+01 -0.8926E+00E
 Epicentro: LOS SANTOS - SANTANDER                                             3
 ACTION:UPD 12-07-13 16:09 OP:ep   STATUS:               ID:20111109101559 L   I
 2011-11-09-1014-32S.COL___178                                                 6
 STAT SP IPHASW D HRMM SECON CODA AMPLIT PERI AZIMU VELO AIN AR TRES W  DIS CAZ7
 BAR2 SZ EP       1016 19.90                             170   -0.1010 24.8 208 
 BAR2 SZ ES   1   1016 36.19                             170    0.37 7 24.8 208 
 BAR2 SZ I        1016 46.17        11.2 0.65                          24.8 208 
 PAM  SZ EP   1   1016 22.42                             153    0.15 7 73.6  34 
 PAM  SE ES   1   1016 39.63                             153   -0.24 7 73.6  34 
 BRR  HZ EP       1016 21.80                             151   -0.0510 78.5 297 
 BRR  HZ I        1016 22.10         9.5 0.18                          78.5 297 
 BRR  HN ES       1016 39.01                             151   -0.1010 78.5 297 
 RUS  HZ EP   1   1016 23.82                             145   -0.07 7 99.2 180 
 RUS  HE ES   1   1016 42.73                             145   -0.01 7 99.2 180 
 OCA  SZ EP   1   1016 28.84                             130    0.20 7  162 351 
 OCA  SZ ES   1   1016 51.27                             130    0.07 7  162 351 
 OCA  SZ I        1016 56.42         5.3 0.36                           162 351 
                                                                                
