 2012 10 9 1001 59.8 L   6.783 -73.165145.9  RSN  7 0.3 2.0LRSN 2.8WRSN        1
 SPEC AVERAGE  MO 13.3 ST  2.0 OM  2.9 f0 3.36 R0.4466 AL 2.59 WI 14.7 MW  2.8 3
 SPEC SD       MO  0.3 ST  1.7 OM  1.2 f00.480 R0.0638 AL      WI      MW  0.2 3
 GAP=135        0.68       3.4     4.5  5.2  0.2121E+01  0.5460E+01  0.4007E+01E
 Epicentro: LOS SANTOS - SANTANDER                                             3
 SPEC RUS HH N MO 13.0 ST0.341 OM  1.4 f0 2.88 R0.5104 AL 2.11 WI  8.6 MW  2.6 3
 SPEC RUS HH N T10 241 K 0.000 GD  176 VS 4.20 DE 3.00 Q0230.0 QA 0.60 VS 4.20 3
 SPEC BRR HH N MO 13.7 ST  3.7 OM  2.1 f0 3.84 R0.3828 AL 3.06 WI 20.7 MW  3.1 3
 SPEC BRR HH N T10 235 K 0.000 GD  161 VS 4.20 DE 3.00 Q0230.0 QA 0.60 VS 4.20 3
 ACTION:UPD 12-11-22 17:02 OP:ep   STATUS:               ID:20121009100159 L   I
 2012-10-09-1000-00M.COL___223                                                 6
 STAT SP IPHASW D HRMM SECON CODA AMPLIT PERI AZIMU VELO AIN AR TRES W  DIS CAZ7
 BAR2 SZ ES   1   10 2 34.34                             171   -0.35 7 21.2 185 
 BAR2 SZ I        10 2 36.22        15.7 0.28                          21.2 185 
 GIR2 SZ EP   3   10 2 18.86                             167   -0.67 2 32.9 355 
 GIR2 SZ ES   1   10 2 34.76                             167   -0.16 7 32.9 355 
 BRR  HZ EP       10 2 21.10                             153    0.1910 70.3 301 
 BRR  HN ES   1   10 2 38.02                             153    0.64 7 70.3 301 
 BRR  HN I        10 2 38.81        57.5 0.18                          70.3 301 
 PAM  SZ EP       10 2 22.29                             150    0.1010 80.2  40 
 PAM  SE ES   1   10 2 39.35                             150   -0.32 7 80.2  40 
 PAM  SN I        10 2 41.62        17.9 0.54                          80.2  40 
 RUS  HZ EP       10 2 23.54                             144    0.1010 98.9 175 
 RUS  HN ES   1   10 2 42.10                             144    0.22 7 98.9 175 
 RUS  HN I        10 2 43.79        15.9 0.46                          98.9 175 
 ZAR  HZ EP   1   10 2 31.71                             122   -0.41 6  203 293 
 ZAR  HN ES   1   10 2 57.01                             122   -0.32 6  203 293 
 ZAR  HN I        10 3  3.36         9.9 0.32                           203 293 
 CHI  HZ EP   1   10 2 37.62                             117    0.38 6  246 195 
 CHI  HN ES   1   10 3  5.89                             117   -0.56 6  246 195 
 CHI  HZ I        10 3 10.40         4.3 0.62                           246 195 
                                                                                
