 2016  9 9 1644 21.1 L   6.809 -73.130151.7  RSN  9 0.3 1.9LRSN                1
 GAP=138        0.77       2.9     3.4  4.8 -0.1456E+00  0.3933E+01  0.1188E+01E
 Epicentro: LOS SANTOS - SANTANDER                                             3
 ACTION:UPD 17-08-17 21:08 OP:lp   STATUS:               ID:20160909164421 L   I
 OLDACT:REG 16-09-09 20:19 OP:lv   STATUS:               ID:20160909163735     3
 2016-09-09-1638-00M.COL___351                                                 6
 STAT SP IPHASW D HRMM SECON CODA AMPLIT PERI AZIMU VELO AIN AR TRES W  DIS CAZ7
 BAR2 EZ IP     D 1644 41.27                             170   -0.1910 24.7 194 
 BAR2 EZ ES       1644 57.02                             170   -0.3310 24.7 194 
 BAR2 EZ I        1644 59.09        14.7 0.23            169           24.7 194 
 BRR  HZ EP       1644 43.04                             153    0.1010 72.3 297 
 BRR  HN ES       1645  0.35                             153    0.3610 72.3 297 
 BRR  HZ I        1645  5.24        14.3 0.30            153           72.3 297 
 PAM  EZ EP       1644 44.06                             152    0.2310 75.5  39 
 PAM  EN ES       1645  1.59                             152    0.0210 75.5  39 
 PAM  EZ I        1645  4.34        13.8 0.32            157           75.5  39 
 RUS  HZ EP       1644 45.48                             145   -0.0110  101 177 
 RUS  HN ES       1645  4.44                             145   -0.0810  101 177 
 RUS  HZ I        1645  6.61         4.7 0.22            146            101 177 
 PTB  HZ EP       1644 49.28                             133    0.56 9  150 259 
 PTB  HN ES       1645  9.93                             133   -0.34 9  150 259 
 PTB  HZ I        1645 11.64         8.4 0.12            134            150 259 
 SPBC HZ EP       1644 50.09                             130   -0.14 9  165 219 
 SPBC HN ES       1645 13.30                             130    0.35 9  165 219 
 SPBC HZ I        1645 19.26        14.0 0.24            131            165 219 
 ZAR  HZ EP       1644 53.39                             123   -0.67 8  205 292 
 ZAR  HN ES       1645 19.76                             123   -0.01 8  205 292 
 ZAR  HZ I        1645 24.17         8.0 0.17            125            205 292 
 CHI  HZ EP   4   1645  0.81                             118    1.53 0  250 196 
 CHI  HN ES       1645 29.12                             118    0.06 8  250 196 
 CHI  HZ I        1645 34.21         3.4 0.19            120            250 196 
 GUY2CHZ EP   4   1645  7.86                             113    2.65 0  303 235 
 GUY2CHN ES   4   1645 43.50                             113    3.89 0  303 235 
 GUY2CHZ I        1645 47.63         3.8 0.37                           303 235 
                                                                                
