 2017  3 9 1054 14.5 L   6.763 -73.344120.4  RSN  9 0.3 1.9LRSN                1
 GAP= 95        0.85       3.4     2.9  5.0  0.5700E+00  0.5846E+01  0.2556E+01E
 Epicentro: ZAPATOCA - SANTANDER                                               3
 ACTION:UPD 17-05-25 18:38 OP:jn   STATUS:               ID:20170309105414 L   I
 OLDACT:REG 17-03-09 19:22 OP:cara STATUS:               ID:20170309104742     3
 2017-03-09-1048-00M.COL___397                                                 6
 STAT SP IPHASW D HRMM SECON CODA AMPLIT PERI AZIMU VELO AIN AR TRES W  DIS CAZ7
 BAR2 EZ IP       1054 31.35                             167    0.1710 26.0 136 
 BAR2 EZ ES       1054 44.43                             167    0.2610 26.0 136 
 BAR2 EZ I        1054 45.44        31.2 0.40            170           26.0 136 
 BRR  HZ EP       1054 32.02                             153   -0.0310 55.7 313 
 BRR  HE ES       1054 45.61                             153   -0.1210 55.7 313 
 BRR  HZ I        1054 49.29        17.2 0.17            153           55.7 313 
 PAM  EZ EP       1054 35.40                             139   -0.0610 95.6  48 
 PAM  HE ES       1054 51.82                             139    0.0210 95.6  48 
 PAM  EZ I        1054 55.44        11.1 0.56            145           95.6  48 
 RUS  HZ EP       1054 35.77                             138   -0.0910  100 163 
 RUS  HN ES       1054 52.13                             138   -0.3810  100 163 
 PTB  HZ EP       1054 37.67                             130    0.2710  125 259 
 PTB  HN ES       1054 55.26                             130    0.0210  125 259 
 PTB  HZ I        1054 59.15        17.3 0.54            132            125 259 
 SPBC HZ EP       1054 39.76                             126    0.20 9  147 213 
 SPBC HN ES   4   1054 59.72                             126    0.63 0  147 213 
 SPBC HZ I        1055  5.40        10.8 0.42            128            147 213 
 ZAR  HZ EP       1054 42.63                             119   -0.83 9  186 296 
 ZAR  HN ES       1055  6.44                             119    0.41 9  186 296 
 ZAR  HZ I        1055 10.13        10.4 0.30            121            186 296 
 CHI  HE ES   4   1055 20.01                             112    2.44 0  240 190 
 HEL  HZ EP       1054 51.04                             111    0.02 8  250 255 
 HEL  HN ES       1055 18.95                             111   -0.54 8  250 255 
 HEL  HZ I        1055 27.00         5.8 0.32            113            250 255 
 GUY2CHZ EP       1054 55.50                             108    0.76 7  281 233 
 GUY2CHN ES   4   1055 29.38                             108    3.26 0  281 233 
 GUY2CHZ  IAML    1055 33.11         2.4 0.34                           281 233 
                                                                                
