 2011  6 9 1852 12.0 L   6.769 -73.118140.4  RSN 13 0.5 2.5LRSN                1
 GAP=141        0.90       3.4     5.8  6.2 -0.8559E+01  0.1034E+02  0.2211E+01E
 Epicentro: LOS SANTOS - SANTANDER                                             3
 ACTION:UP  11-07-14 19:04 OP:ep   STATUS:               ID:20110609185212 L   I
 2011-06-09-1849-41S.COL___121                                                 6
 STAT SP IPHASW D HRMM SECON CODA AMPLIT PERI AZIMU VELO SNR AR TRES W  DIS CAZ7
 BAR2 SZ EP       1852 30.96                             171     0.010   21 200 
 BAR2 SZ ES   1   1852 45.47                             171    -0.3 7   21 200 
 BAR2 SZ I        1852 46.80       144.0 0.30                            21 200 
 BRR  HZ IP     D 1852 32.89                             150     0.010   75 300 
 BRR  HE ES   1   1852 49.64                             150     0.5 7   75 300 
 BRR  HZ I        1852 51.32        84.5 0.17                            75 300 
 PAM  SZ EP   1   1852 33.95                             150     0.2 7   78  36 
 PAM  SN ES   1   1852 50.70                             150     0.0 7   78  36 
 RUS  HZ EP   1   1852 34.96                             144    -0.1 7   97 178 
 RUS  HN ES   1   1852 52.98                             144     0.0 7   97 178 
 RUS  HZ I        1852 54.19        58.5 0.15                            97 178 
 BRI  SZ EP   1   1852 35.85                             140     0.2 7  111  19 
 BRI  SZ ES   1   1852 54.20                             140     0.2 7  111  19 
 BRI  SZ I        1852 56.11        34.5 0.31                           111  19 
 GRA  SZ EP   1   1852 36.99                             135     0.0 7  128  16 
 GRA  SZ I        1852 58.87        40.8 0.35                           128  16 
 OCA  SZ EP   1   1852 40.18                             128    -0.1 7  164 352 
 OCA  SZ ES   1   1853  1.50                             128    -0.8 7  164 352 
 OCA  SZ I        1853  7.56        48.3 0.23                           164 352 
 NOR  SZ EP   1   1852 46.97                             117    -0.6 6  235 236 
 NOR  SE ES   1   1853 14.72                             117    -0.5 6  235 236 
 CHI  HZ EP   1   1852 49.26                             116     0.1 6  246 196 
 CHI  HE ES   1   1853 18.06                             116    -0.1 6  246 196 
 CHI  HZ I        1853 21.62        14.2 0.44                           246 196 
 RREF HN ES   1   1853 34.89                             110     1.1 5  322 230 
 RREF HZ I        1853 43.99        13.5 0.19                           322 230 
 DBB  SZ EP   1   1852 59.81                             108     0.1 5  343 275 
 TOL  SZ EP   1   1853  1.15                             108     1.1 5  343 225 
 PRA  HZ EP   1   1853  5.21                             106     0.0 4  391 210 
 PRA  HN ES   1   1853 45.51                             106    -1.2 4  391 210 
                                                                                
