 2012  9 9 1157 24.6 L   6.508 -73.582104.9  RSN 10 0.3 2.4LRSN                1
 GAP= 49        0.74       3.0     2.6  5.2  0.1119E+01  0.3510E+01  0.3856E+01E
 Epicentro: SANTA HELENA DEL OPON - SANTANDER                                  3
 ACTION:UPD 12-10-22 14:17 OP:ep   STATUS:               ID:20120909115724 L   I
 2012-09-09-1150-00M.COL___227                                                 6
 STAT SP IPHASW D HRMM SECON CODA AMPLIT PERI AZIMU VELO AIN AR TRES W  DIS CAZ7
 BAR2 SZ IP       1157 40.59                             155    0.3410 45.1  78 
 BAR2 SZ ES       1157 52.33                             155   -0.1010 45.1  78 
 BRR  HZ EP       1157 41.44                             144    0.1410 67.7 348 
 BRR  HE ES   1   1157 54.52                             144    0.22 7 67.7 348 
 BRR  HZ I        1157 57.93        99.0 0.11                          67.7 348 
 GIR2 SZ EP       1157 42.15                             141    0.0210 76.3  34 
 RUS  HZ EP       1157 43.50                             137   -0.0210 87.7 141 
 RUS  HE ES   1   1157 58.68                             137    0.42 7 87.7 141 
 RUS  HZ I        1158  1.65        30.4 0.24                          87.7 141 
 PTB  HZ EP       1157 43.36                             134   -0.2910 96.8 272 
 PTB  HN ES       1157 57.90                             134   -0.5810 96.8 272 
 PTB  HZ I        1157 59.55        94.9 0.11                          96.8 272 
 NOR  SZ EP   1   1157 51.96                             115    0.17 7  177 234 
 NOR  SN ES   1   1158 13.02                             115    0.04 7  177 234 
 ZAR  HZ EP   1   1157 52.09                             115    0.20 7  178 308 
 ZAR  HN ES   1   1158 13.41                             115    0.26 7  178 308 
 ZAR  HZ I        1158 17.45        86.7 0.33                           178 308 
 TAM  HZ EP   1   1157 53.24                             112   -0.93 6  198  92 
 CHI  HZ EP   1   1157 55.76                             111   -0.04 6  208 185 
 CHI  HE ES   1   1158 20.18                             111    0.07 6  208 185 
 CHI  HZ I        1158 28.03        12.8 0.46                           208 185 
 HEL  HZ EP   1   1157 57.35                             110    0.49 6  218 261 
 HEL  HZ I        1158 27.58        23.0 0.17                           218 261 
                                                                                
