 2013  2 9 1341 17.9 L   6.670 -73.051178.0  RSN 12 0.4 2.4LRSN                1
 GAP=192        0.72       3.2     4.7  5.6  0.1848E+01  0.6137E+01  0.1207E+01E
 Epicentro: ARATOCA - SANTANDER                                                3
 ACTION:UPD 13-03-12 09:31 OP:ep   STATUS:               ID:20130209134117 L   I
 2013-02-09-1340-00M.COL___240                                                 6
 STAT SP IPHASW D HRMM SECON CODA AMPLIT PERI AZIMU VELO AIN AR TRES W  DIS CAZ7
 BAR2 SZ EP       1341 41.13                             174   -0.2010 16.9 239 
 BAR2 SZ ES   1   1341 59.65                             174    0.05 7 16.9 239 
 BAR2 SZ I        1342  1.62        76.4 0.44            168           16.9 239 
 RUS  HZ EP   1   1341 44.24                             153    0.14 7 86.1 182 
 RUS  HN ES   1   1342  4.41                             153   -0.11 7 86.1 182 
 RUS  HZ I        1342  5.94        35.7 0.80            140           86.1 182 
 BRR  HZ EP   1   1341 43.88                             153    0.41 7 87.6 303 
 BRR  HN ES   1   1342  4.04                             153    0.64 7 87.6 303 
 BRR  HZ I        1342  8.64        25.3 0.14            138           87.6 303 
 PTB  HZ EP   1   1341 48.15                             137   -0.21 7  156 265 
 PTB  HN ES   1   1342 11.51                             137   -0.60 7  156 265 
 PTB  HZ I        1342 14.11        20.5 0.40            120            156 265 
 OCA  HN ES   1   1342 15.42                             133   -0.07 7  176 350 
 OCA  HZ I        1342 18.47        12.2 0.18            118            176 350 
 ZAR  HZ EP   1   1341 54.34                             127    0.21 6  219 295 
 ZAR  HN ES   1   1342 21.99                             127   -0.38 6  219 295 
 ZAR  HZ I        1342 30.32        23.6 0.36            112            219 295 
 NOR  HZ EP   1   1341 56.30                             125    0.51 6  236 239 
 NOR  HN ES   1   1342 25.22                             125   -0.12 6  236 239 
 NOR  HZ I        1342 33.27        19.1 0.16            110            236 239 
 CHI  HZ EP   1   1341 56.17                             124   -0.33 6  238 199 
 CHI  HN ES   1   1342 26.43                             124   -0.18 6  238 199 
 SML  HN ES   1   1342 29.51                             122   -0.34 6  261 335 
 HEL  HZ EP   1   1342  1.54                             120    0.83 6  279 259 
 HEL  HN ES   1   1342 34.57                             120    0.48 6  279 259 
 HEL  HZ I        1342 38.04         9.5 0.48            106            279 259 
 URE  HZ EP   1   1342  1.63                             118   -0.73 5  299 294 
 URE  HZ I        1342 46.97        11.9 0.22            105            299 294 
 ANIL HZ I        1342 57.77         5.5 0.38            102            355 227 
                                                                                
