 2012  7 9 1308 16.3 L   6.770 -73.164144.0  RSN 12 0.4 2.9LRSN                1
 GAP=136        0.96       3.7     4.6  5.3 -0.7060E+00  0.7306E+01  0.2003E+01E
 Epicentro: LOS SANTOS - SANTANDER                                             3
 ACTION:UPD 12-08-14 11:43 OP:ep   STATUS:               ID:20120709130816 L   I
 2012-07-09-1300-00M.COL___201                                                 6
 STAT SP IPHASW D HRMM SECON CODA AMPLIT PERI AZIMU VELO AIN AR TRES W  DIS CAZ7
 BAR2 SZ EP       13 8 35.83                             172     0.210   20 186 
 BAR2 SZ ES       13 8 50.65                             172    -0.110   20 186 
 BAR2 SZ I        13 8 52.94       106.8 0.41                            20 186 
 BRR  HZ EP       13 8 37.58                             152     0.310   71 302 
 BRR  HN ES       13 8 54.26                             152     0.610   71 302 
 BRR  HZ I        13 8 55.39       145.4 0.14                            71 302 
 PAM  SZ EP   1   13 8 38.71                             149     0.1 7   81  39 
 PAM  SE ES   1   13 8 55.76                             149    -0.2 7   81  39 
 RUS  HN ES       13 8 57.33                             144    -0.510   97 175 
 PTB  HZ EP   1   13 8 42.33                             132    -0.6 7  145 260 
 PTB  HN ES   1   13 9  3.57                             132    -0.1 7  145 260 
 OCA  HZ EP       13 8 44.63                             129    -0.2 9  163 354 
 OCA  HZ I        13 9  9.49       164.7 0.19                           163 354 
 ZAR  HZ EP       13 8 48.20                             122    -0.4 9  203 293 
 ZAR  HE ES   1   13 9 13.39                             122    -0.4 6  203 293 
 ZAR  HZ I        13 9 19.57        62.6 0.32                           203 293 
 NOR  SZ EP       13 8 51.80                             118     0.2 8  231 235 
 NOR  SE ES   1   13 9 19.51                             118     0.5 6  231 235 
 CHI  HZ EP       13 8 53.93                             117     0.4 8  245 195 
 CHI  HN ES   1   13 9 22.97                             117     0.5 6  245 195 
 CHI  HZ I        13 9 26.88        51.4 0.47                           245 195 
 HEL  HN ES   1   13 9 26.35                             115    -0.8 6  269 256 
 HEL  HZ I        13 9 34.82        34.7 0.45                           269 256 
 TOL  SZ EP       13 9  4.04                             109     0.0 7  340 225 
 PRA  HZ EP       13 9  9.31                             106     0.0 6  388 210 
