 2012  8 9 1914 48.0 L   6.678 -73.205143.3  RSN  5 0.3 1.7LRSN                1
 GAP=215        0.71       6.9     6.2  7.5  0.2547E+02  0.6925E+01  0.3194E+00E
 Epicentro: VILLANUEVA - SANTANDER                                             3
 ACTION:UPD 12-09-10 11:55 OP:ep   STATUS:               ID:20120809191448 L   I
 2012-08-09-1910-00M.COL___218                                                 6
 STAT SP IPHASW D HRMM SECON CODA AMPLIT PERI AZIMU VELO AIN AR TRES W  DIS CAZ7
 BAR2 SZ EP       1915  7.01                             176   -0.0910 9.83 165 
 BAR2 SZ ES   1   1915 21.69                             176   -0.34 7 9.83 165 
 BAR2 SZ I        1915 23.14        16.3 0.37                          9.83 165 
 BRR  HZ EP   1   1915  8.84                             151   -0.14 7 73.4 310 
 BRR  HN ES   1   1915 25.81                             151    0.45 7 73.4 310 
 RUS  HZ EP   1   1915 11.27                             147    0.68 7 87.9 171 
 RUS  HN ES   1   1915 28.09                             147   -0.15 7 87.9 171 
 RUS  HZ I        1915 30.61         5.3 0.26                          87.9 171 
 PTB  HZ EP   1   1915 13.49                             133   -0.47 7  139 264 
 PTB  HN ES   1   1915 34.39                             133    0.15 7  139 264 
 ZAR  HN ES   1   1915 45.26                             122   -0.09 6  204 296 
 ZAR  HZ I        1915 50.91         5.5 0.23                           204 296 
                                                                                
