 2017  2 9 1436 53.0 L   6.764 -73.192137.2  RSN  5 0.3 1.4LRSN                1
 GAP=132        0.80       4.1     3.9  5.9 -0.1372E+01  0.2974E+01  0.9984E+00E
 Epicentro: LOS SANTOS - SANTANDER                                             3
 ACTION:UPD 17-05-24 15:34 OP:jn   STATUS:               ID:20170209143653 L   I
 OLDACT:REG 17-02-09 20:45 OP:lv   STATUS:               ID:20170209142742     3
 2017-02-09-1428-00M.COL___358                                                 6
 STAT SP IPHASW D HRMM SECON CODA AMPLIT PERI AZIMU VELO AIN AR TRES W  DIS CAZ7
 BAR2 EZ EP       1437 11.46                             172   -0.0410 19.1 177 
 BAR2 EZ ES       1437 26.15                             172    0.2010 19.1 177 
 BAR2 EZ I        1437 30.04         8.2 0.22            171           19.1 177 
 BRR  HZ EP       1437 13.42                             152    0.3510 68.8 303 
 BRR  HN ES       1437 29.10                             152    0.3610 68.8 303 
 PAM  EZ EP       1437 14.49                             147   -0.2110 83.7  41 
 PAM  EN ES       1437 31.34                             147   -0.3010 83.7  41 
 RUS  HZ EP       1437 16.06                             143    0.4110 97.2 173 
 RUS  HN ES       1437 33.11                             143   -0.2210 97.2 173 
 RUS  HZ I        1437 34.67         3.3 0.20            144           97.2 173 
 PTB  HZ EP       1437 18.58                             131   -0.15 9  142 260 
 PTB  HN ES       1437 38.35                             131   -0.47 9  142 260 
 PTB  HZ I        1437 41.37         3.4 0.28            133            142 260 
                                                                                
