 2014 12 9 1527 42.6 L   6.846 -73.165142.4  RSN  8 0.6 1.8LRSN                1
 GAP=132        1.50       4.9     7.0  9.7 -0.2812E+01  0.1570E+02  0.8001E+01E
 Epicentro: ZAPATOCA - SANTANDER                                               3
 ACTION:UPD 15-02-10 17:02 OP:nd   STATUS:               ID:20141209152742 L   I
 OLDACT:ARG 14-12-09 20:21 OP:stll STATUS:               ID:20141209151745     3
 2014-12-09-1517-45M.COL___309                                                 6
 STAT SP IPHASW D HRMM SECON CODA AMPLIT PERI AZIMU VELO AIN AR TRES W  DIS CAZ7
 BRR  HZ EP       1528  3.71                             153    0.5510 67.0 296 
 BRR  HN ES       1528 19.85                             153    0.6710 67.0 296 
 PAM  SZ EP       1528  4.84                             151    0.5110 75.0  43 
 PAM  SZ I        1528  5.03        19.4 0.20            146           75.0  43 
 PAM  SN ES       1528 21.51                             151    0.2510 75.0  43 
 RUS  HZ EP       1528  6.74                             142    0.3210  106 175 
 RUS  HN ES       1528 24.15                             142   -0.8410  106 175 
 RUS  HZ I        1528 26.43         4.6 0.36            133            106 175 
 PTB  HZ EP       1528  8.60                             132   -0.61 9  147 257 
 PTB  HN ES       1528 29.40                             132   -0.56 9  147 257 
 PTB  HZ I        1528 32.35        14.8 0.10            122            147 257 
 SPBC HZ EP       1528 11.26                             128    0.15 9  166 217 
 SPBC HZ I        1528 39.93         7.8 0.30            119            166 217 
 SML  HZ EP       1528 17.61                             117   -0.85 8  238 335 
 SML  HN ES       1528 45.60                             117   -0.81 8  238 335 
 SML  HZ I        1528 55.64         8.0 0.26            110            238 335 
 CHI  HZ EP       1528 20.19                             116   -0.41 8  253 194 
 CHI  HE ES       1528 49.80                             116   -0.43 8  253 194 
 CHI  HZ I        1528 57.05         2.4 0.68            108            253 194 
 GUY2CHZ EP       1528 27.42                             112    1.21 7  302 234 
 GUY2CHN ES       1529  1.02                             112    0.82 7  302 234 
 GUY2CHZ I        1529  8.41         2.7 0.52                           302 234 
                                                                                
