 2014  6 9 1008 18.2 L   7.427 -73.197129.5  RSN 17 0.4 2.5LRSN                1
 GAP=108        0.87       2.3     2.7  5.3  0.6889E+00  0.5544E+01  0.3703E+01E
 Epicentro: EL PLAYON - SANTANDER                                              3
 ACTION:UPD 14-07-01 22:52 OP:nd   STATUS:               ID:20140609100818 L   I
 OLDACT:REG 14-06-09 20:09 OP:spq  STATUS:               ID:20140609095819     3
 2014-06-09-0958-19M.COL___257                                                 6
 STAT SP IPHASW D HRMM SECON CODA AMPLIT PERI AZIMU VELO AIN AR TRES W  DIS CAZ7
 PAM  SZ IP     D 10 8 37.93                             156    0.4710 55.8 100 
 PAM  SN ES       10 8 52.78                             156    0.3110 55.8 100 
 PAM  SZ I        10 8 54.81        41.6 0.22            160           55.8 100 
 OCA  HZ EP       10 8 39.27                             143    0.0910 90.8 351 
 OCA  HN ES       10 8 55.55                             143    0.0210 90.8 351 
 OCA  HZ I        10 8 58.94        58.8 0.16            144           90.8 351 
 BAR2 SZ EP       10 8 39.54                             142    0.1310 92.3 179 
 BAR2 SZ ES   1   10 8 55.66                             142   -0.29 7 92.3 179 
 BAR2 SZ I        10 8 57.16       119.0 0.14            140           92.3 179 
 PTB  HZ EP       10 8 45.68                             124   -0.45 9  170 235 
 PTB  HE ES       10 9  7.80                             124   -0.10 9  170 235 
 PTB  HZ I        10 9  9.40        52.9 0.18            121            170 235 
 RUS  HZ EP   1   10 8 46.57                             124   -0.17 7  170 176 
 RUS  HE ES   1   10 9  8.45                             124   -0.54 7  170 176 
 SML  HZ EP       10 8 46.70                             122   -0.39 9  180 328 
 SML  HE ES       10 9  8.91                             122   -0.71 9  180 328 
 ZAR  HZ EP       10 8 47.51                             122    0.03 9  183 272 
 ZAR  HN ES       10 9 11.02                             122    0.72 9  183 272 
 ZAR  HZ I        10 9 15.69        49.7 0.14            120            183 272 
 TAM  HZ EP       10 8 48.53                             121    0.32 9  190 125 
 TAM  HE ES       10 9 11.04                             121   -0.58 9  190 125 
 TAM  HZ I        10 9 11.15        26.3 0.20            121            190 125 
 SPBC HZ EP       10 8 51.81                             117    0.46 8  219 206 
 SPBC HN ES       10 9 17.27                             117    0.07 8  219 206 
 SPBC HZ I        10 9 25.50        31.0 0.22            115            219 206 
 NOR  HZ IP     D 10 8 58.10                             111    0.31 7  277 222 
 NOR  HE ES       10 9 28.29                             111   -0.38 7  277 222 
 NOR  HZ I        10 9 35.91        17.0 0.25            110            277 222 
 HEL  HZ EP       10 9  0.44                             110    0.55 7  292 242 
 HEL  HE ES   4   10 9 30.43                             110   -1.98 0  292 242 
 HEL  HZ I        10 9 40.45        12.8 0.22            109            292 242 
 CHI  HN ES   4   10 9 37.90                             108    0.63 0  315 191 
 CHI  HZ I        10 9 45.75         5.6 0.37            107            315 191 
 DBB  SZ EP       10 9  4.48                             107   -0.16 7  336 262 
 GUY2CHZ EP   4   10 9  7.05                             106    1.21 0  342 225 
 GUY2CHN ES   1   10 9 42.65                             106   -0.34 5  342 225 
 GUY2CHZ I        10 9 52.19        15.5 0.36                           342 225 
 TOL  SZ EP   4   10 9 12.98                             104    1.36 0  392 217 
 TOL  SE ES   1   10 9 53.21                             104   -0.08 4  392 217 
 TOL  SZ I        1010  1.53        20.2 0.38            103            392 217 
 ORTC HZ EP   4   10 9 16.53                             101   -1.63 0  450 210 
 ORTC HN ES       1010  4.27                             101   -0.65 5  450 210 
 ORTC HZ I        1010 14.36         5.5 0.58            101            450 210 
 PRA  HZ EP       10 9 18.13                             101   -0.14 5  451 205 
 PRA  HN ES       1010  5.73                             101    0.62 5  451 205 
 PRA  HZ I        1010 15.74         6.2 0.41            101            451 205 
                                                                                
