 2016  5 9 1023 38.7 L   6.807 -73.145149.1  RSN 11 0.4 1.8LRSN                1
 GAP=136        0.99       3.2     5.1  5.8  0.2751E+01  0.7373E+01 -0.9326E+00E
 Epicentro: LOS SANTOS - SANTANDER                                             3
 ACTION:UPD 16-08-18 17:43 OP:cam  STATUS:               ID:20160509102338 L   I
 OLDACT:REG 16-05-09 20:36 OP:ak   STATUS:               ID:20160509101749     3
 2016-05-09-1017-49M.COL___282                                                 6
 STAT SP IPHASW D HRMM SECON CODA AMPLIT PERI AZIMU VELO AIN AR TRES W  DIS CAZ7
 BAR2 EZ EP       1023 59.01                             170    0.2410 24.1 190 
 BAR2 EZ ES       1024 14.33                             170   -0.0810 24.1 190 
 BAR2 EZ I        1024 15.43         6.5 0.16            169           24.1 190 
 BRR  HZ EP       1024  0.77                             153    0.5510 70.9 298 
 BRR  HN ES       1024 17.75                             153    0.7710 70.9 298 
 PAM  EZ EP   2   1024  1.51                             152    0.25 5 76.7  40 
 PAM  EN ES   2   1024 18.84                             152    0.01 5 76.7  40 
 PAM  EZ I        1024 20.96        12.9 0.60            155           76.7  40 
 RUS  HZ EP       1024  3.03                             144    0.1710  101 176 
 RUS  HN ES       1024 21.07                             144   -0.6110  101 176 
 RUS  HZ I        1024 23.39         6.3 0.46            145            101 176 
 PTB  HZ EP       1024  5.75                             133   -0.24 9  148 259 
 PTB  HN ES       1024 26.57                             133   -0.68 9  148 259 
 PTB  HZ I        1024 30.31         6.1 0.14            132            148 259 
 OCA  HN ES       1024 29.13                             131   -0.32 9  160 353 
 ZAR  HZ EP       1024 10.85                             123   -0.52 9  204 292 
 ZAR  HN ES       1024 37.33                             123    0.50 9  204 292 
 ZAR  HZ I        1024 46.36         3.6 0.07            123            204 292 
 SML  HZ EP       1024 15.27                             118   -0.20 8  243 335 
 SML  HE ES       1024 43.89                             118   -0.24 8  243 335 
 SML  HZ I        1024 47.46        11.6 0.08            119            243 335 
 CHI  HZ EP   2   1024 16.82                             118    0.12 4  249 195 
 CHI  HN ES   2   1024 46.77                             118    0.46 4  249 195 
 URE  HZ EP       1024 19.72                             114   -0.22 7  284 292 
 URE  HE ES   4   1024 50.01                             114   -2.07 0  284 292 
 URE  HZ I        1024 53.24         3.0 0.23            114            284 292 
 PRA  HZ EP   2   1024 33.17                             107    0.72 3  393 210 
 PRA  HN ES       1025 15.03                             107    0.68 6  393 210 
 PRA  HZ I        1025 21.52         2.4 0.38            108            393 210 
                                                                                
