 2012  7 9 1112  0.1 L   6.642 -73.212141.6  RSN  4 0.1 1.5LRSN                1
 GAP=196        0.37       5.1     3.3  3.8  0.6457E+01  0.3620E+01  0.1948E+01E
 Epicentro: BARICHARA - SANTANDER                                              3
 ACTION:UPD 12-08-14 11:43 OP:ep   STATUS:               ID:20120709111200 L   I
 2012-07-09-1110-00M.COL___201                                                 6
 STAT SP IPHASW D HRMM SECON CODA AMPLIT PERI AZIMU VELO AIN AR TRES W  DIS CAZ7
 BAR2 SZ EP       1112 18.88                             177    -0.110    6 149 
 BAR2 SZ ES   1   1112 33.78                             177     0.0 7    6 149 
 BAR2 SZ I        1112 34.96         4.1 0.14                             6 149 
 BRR  HZ EP   1   1112 21.15                             150     0.1 7   76 313 
 BRR  HZ I        1112 24.77        11.0 0.34                            76 313 
 BRR  HE ES   1   1112 37.46                             150     0.1 7   76 313 
 PTB  HZ EP       1112 26.03                             133     0.2 9  138 265 
 PTB  HN ES   1   1112 45.83                             133    -0.1 7  138 265 
 ZAR  HZ EP   1   1112 32.23                             121    -0.1 6  205 297 
 ZAR  HN ES   1   1112 57.44                             121    -0.1 6  205 297 
 ZAR  HZ I        1113  2.80         2.2 0.33                           205 297 
