 2013  3 9 1627 10.5 L   6.758 -73.129142.6  RSN  6 0.3 1.8LRSN                1
 GAP= 95        0.72       4.4     4.2  5.0 -0.4930E+00 -0.1448E+01  0.2996E+01E
 Epicentro: LOS SANTOS - SANTANDER                                             3
 ACTION:UPD 13-04-09 14:01 OP:ep   STATUS:               ID:20130309162710 L   I
 2013-03-09-1620-00M.COL___231                                                 6
 STAT SP IPHASW D HRMM SECON CODA AMPLIT PERI AZIMU VELO AIN AR TRES W  DIS CAZ7
 BAR2 SZ EP       1627 29.72                             172    0.0510 19.3 198 
 BAR2 SZ ES       1627 44.25                             172   -0.3710 19.3 198 
 BAR2 SZ I        1627 46.05        33.8 0.20            157           19.3 198 
 BRR  HZ IP     C 1627 31.59                             151    0.0610 75.1 301 
 BRR  HE ES       1627 48.36                             151    0.4310 75.1 301 
 BRR  HE I        1627 52.14        21.2 0.16            133           75.1 301 
 PAM  SZ EP       1627 32.58                             149    0.0510 79.9  36 
 PAM  SZ I        1627 32.91        15.0 0.26            148           79.9  36 
 PAM  SN ES       1627 49.54                             149   -0.1710 79.9  36 
 RUS  HZ EP   1   1627 33.97                             144    0.38 7 95.8 177 
 RUS  HN ES   1   1627 51.78                             144    0.17 7 95.8 177 
 RUS  HN I        1627 52.92         9.6 0.25            134           95.8 177 
 RUS  HZ I        1627 53.16         4.8 0.19                          95.8 177 
 PTB  HZ EP       1627 36.79                             131   -0.51 9  149 261 
 PTB  HZ I        1627 59.19         5.7 0.19            116            149 261 
 TAM  HZ EP       1627 37.73                             130    0.08 9  152 103 
 TAM  HZ I        1627 38.14        10.1 0.20            128            152 103 
                                                                                
