 2013 11 9 1624 10.9 L   6.749 -73.170143.9  RSN  6 0.4 1.4LRSN                1
 GAP=136        1.04       5.2     4.6  7.6  0.2090E+01  0.6742E+01  0.2232E+00E
 Epicentro: VILLANUEVA - SANTANDER                                             3
 ACTION:UPD 14-01-09 16:26 OP:ep   STATUS:               ID:20131109162410 L   I
 OLDACT:REG 13-11-09 14:45 OP:jn   STATUS:               ID:20131109162000     3
 2013-11-09-1620-00M.COL___273                                                 6
 STAT SP IPHASW D HRMM SECON CODA AMPLIT PERI AZIMU VELO AIN AR TRES W  DIS CAZ7
 BAR2 SZ EP       1624 30.19                             173    0.0310 17.4 184 
 BAR2 SZ ES       1624 45.58                             173    0.3610 17.4 184 
 BAR2 SZ I        1624 46.79        11.7 0.20            173           17.4 184 
 BRR  HZ EP       1624 32.21                             152    0.3710 71.8 304 
 BRR  HN ES       1624 48.75                             152    0.5410 71.8 304 
 PAM  SZ EP       1624 33.15                             149   -0.1010 83.5  38 
 PAM  SN ES       1624 50.13                             149   -0.5910 83.5  38 
 PAM  SZ I        1624 53.22         3.0 0.42            150           83.5  38 
 RUS  HZ EP       1624 34.23                             145    0.1910 95.2 174 
 RUS  HN ES       1624 52.00                             145   -0.1310 95.2 174 
 RUS  HZ I        1624 54.29         2.8 0.28            146           95.2 174 
 PTB  HZ EP       1624 37.40                             132    0.06 9  144 261 
 PTB  HN ES       1624 57.14                             132   -0.86 9  144 261 
 PTB  HZ I        1625  0.64         3.3 0.10            134            144 261 
 ZAR  HN ES       1625  8.41                             122    0.06 9  204 294 
                                                                                
