 2012  1 9 1053 32.8 L   6.733 -73.202143.3  RSN  6 0.3 1.7LRSN                1
 GAP=176        0.69       6.4     5.2  6.9  0.1057E+02 -0.2634E+01 -0.5623E+01E
 Epicentro: VILLANUEVA - SANTANDER                                             3
 ACTION:UP  12-02-03 08:15 OP:REBC STATUS:               ID:20120109105332 L   I
 2012-01-09-1050-00M.COL___186                                                 6
 STAT SP IPHASW D HRMM SECON CODA AMPLIT PERI AZIMU VELO SNR AR TRES W  DIS CAZ7
 BAR2 SZ EP       1053 51.87                             173    -0.110   16 172 
 BAR2 SZ ES   1   1054  6.62                             173    -0.4 7   16 172 
 BAR2 SZ I        1054  7.79        12.9 0.29                            16 172 
 BRR  HZ EP       1053 53.73                             152     0.110   70 306 
 BRR  HN ES   1   1054 10.31                             152     0.5 7   70 306 
 BRR  HZ I        1054 11.42        10.2 0.11                            70 306 
 RUS  HZ EP   1   1053 56.02                             145     0.2 7   94 172 
 RUS  HZ I        1054 15.61         6.6 0.22                            94 172 
 PTB  HZ EP   1   1053 58.91                             133     0.0 7  140 261 
 PTB  HN ES   1   1054 19.44                             133     0.2 7  140 261 
 OCA  SZ EP   1   1054  1.64                             128     0.1 7  167 356 
 ZAR  HN ES   1   1054 29.17                             122    -0.6 6  201 295 
                                                                                
