 2011  1 9 1606 49.2 L   6.764 -73.128145.6  RSN  5 0.2 1.5LRSN                1
 GAP=184        0.44       3.9     7.9  8.2 -0.7063E+01  0.1750E+02 -0.1007E+02E
 Epicentro: LOS SANTOS - SANTANDER                                             3
 ACTION:UP  11-02-08 08:39 OP:pat  STATUS:               ID:20110109160649 L   I
 2011-01-09-1606-45S.COL___136                                                 6
 STAT SP IPHASW D HRMM SECON CODA AMPLIT PERI AZIMU VELO SNR AR TRES W  DIS CAZ7
 BAR2 SZ EP   1   16 7  8.56                             172    -0.1 7   20 198 
 BAR2 SZ ES   2   16 7 24.32                             172     0.4 5   20 198 
 BAR2 SZ I        16 7 24.79         7.2 0.46                            20 198 
 BTL  SZ EP   1   16 7  8.85                             171     0.1 7   23 318 
 RUS  HZ EP   2   16 7 12.80                             145     0.2 5   96 177 
 RUS  HZ I        16 7 13.99         2.4 0.06                            96 177 
 RUS  HE ES   2   16 7 30.56                             145    -0.3 5   96 177 
 OCA  SZ EP   2   16 7 18.08                             129     0.2 5  164 353 
 OCA  SZ ES   2   16 7 39.94                             129    -0.3 5  164 353 
 OCA  SZ I        16 7 43.12         5.6 0.25                           164 353 
 NOR  SN ES   2   16 7 52.62                             118     0.0 4  234 236 
                                                                                
