 2012 12 9 1147 55.3 L   6.818 -73.160136.6  RSN  8 0.6 2.1LRSN                1
 GAP=200        1.38       4.8     6.9  9.0  0.9919E+01  0.1593E+02 -0.2219E+01E
 Epicentro: LOS SANTOS - SANTANDER                                             3
 ACTION:UPD 13-01-04 14:26 OP:ep   STATUS:               ID:20121209114755 L   I
 2012-12-09-1140-00M.COL___238                                                 6
 STAT SP IPHASW D HRMM SECON CODA AMPLIT PERI AZIMU VELO AIN AR TRES W  DIS CAZ7
 BAR2 SZ EP       1148 14.21                             169    0.3410 25.1 186 
 BAR2 SZ ES       1148 28.16                             169   -0.2010 25.1 186 
 BAR2 SZ I        1148 29.78        22.4 0.28                          25.1 186 
 RUS  HZ EP       1148 18.46                             141    0.1310  103 175 
 RUS  HN ES       1148 36.60                             141    0.3110  103 175 
 RUS  HN I        1148 38.34         4.6 0.12                           103 175 
 PTB  HZ EP       1148 21.08                             130   -0.35 9  147 258 
 PTB  HN ES       1148 41.60                             130   -0.21 9  147 258 
 PTB  HN I        1148 47.06        22.7 0.52                           147 258 
 ZAR  HZ EP       1148 28.17                             121    1.24 9  202 292 
 ZAR  HN ES       1148 52.67                             121    1.07 9  202 292 
 ZAR  HN I        1149  0.67        18.4 0.46                           202 292 
 SML  HZ EP       1148 30.77                             116   -0.39 8  241 335 
 SML  HN ES       1148 57.96                             116   -1.16 8  241 335 
 SML  HN I        1149  3.08        25.5 0.10                           241 335 
 CHI  HZ EP       1148 32.67                             115   -0.01 8  250 195 
 CHI  HN ES       1149  1.08                             115   -0.75 8  250 195 
 CHI  HN I        1149  9.25         6.8 0.30                           250 195 
 HEL  HN ES       1149  5.27                             113   -0.60 8  271 255 
 HEL  HN I        1149 12.53         8.0 0.42                           271 255 
 PRA  HZ EP       1148 48.92                             105    0.29 6  393 209 
 PRA  HN ES       1149 30.05                             105   -0.18 6  393 209 
 PRA  HN I        1149 36.85         3.0 0.36                           393 209 
                                                                                
