 2013  6 9 1251 51.3 L   5.788 -74.064105.0  RSN  4 0.3 1.4LRSN                1
 GAP=207        0.88       6.2     5.7 11.2 -0.2476E+02 -0.3389E+02  0.2427E+02E
 Epicentro: FLORIAN - SANTANDER                                                3
 ACTION:UPD 14-01-08 09:53 OP:ep   STATUS:               ID:20130609125151 L   I
 OLDACT:REG 13-06-09 14:09 OP:nd   STATUS:               ID:20130609124959     3
 2013-06-09-1249-59M.COL___260                                                 6
 STAT SP IPHASW D HRMM SECON CODA AMPLIT PERI AZIMU VELO AIN AR TRES W  DIS CAZ7
 NOR  HZ EP       1252 10.11                             135    0.1110 92.6 254 
 NOR  HN ES       1252 24.80                             135    0.2110 92.6 254 
 NOR  HZ I        1252 26.12        12.9 0.16            139           92.6 254 
 PTB  HZ EP       1252  9.54                             135   -0.5110 93.8 332 
 PTB  HN ES       1252 24.42                             135   -0.2610 93.8 332 
 PTB  HZ I        1252 26.33         2.7 0.26            137           93.8 332 
 BAR2 SZ EP       1252 14.06                             124    0.1010  132  48 
 BAR2 SZ ES       1252 31.38                             124   -0.2610  132  48 
 BAR2 SZ I        1252 33.19         3.9 0.16            127            132  48 
 BRR  HZ EP       1252 15.61                             120    0.00 9  151  15 
 BRR  HN ES       1252 35.26                             120    0.68 9  151  15 
 BRR  HZ I        1252 38.28         5.6 0.50            123            151  15 
                                                                                
