 2012 10 9 1023 10.5 L   6.778 -73.108140.3  RSN  5 0.1 1.7LRSN                1
 GAP=142        0.35       3.0     3.3  3.6 -0.1211E+01 -0.1528E+01  0.3214E+01E
 Epicentro: LOS SANTOS - SANTANDER                                             3
 ACTION:UPD 12-11-22 17:02 OP:ep   STATUS:               ID:20121009102310 L   I
 2012-10-09-1018-20M.COL___198                                                 6
 STAT SP IPHASW D HRMM SECON CODA AMPLIT PERI AZIMU VELO AIN AR TRES W  DIS CAZ7
 BAR2 SZ EP       1023 29.35                             171   -0.1410 22.2 202 
 BAR2 SZ ES   1   1023 44.23                             171   -0.04 7 22.2 202 
 BAR2 SZ I        1023 45.16        12.7 0.20                          22.2 202 
 GIR2 SZ ES   3   1023 44.56                             166   -0.01 2 34.5 344 
 BRR  HZ EP       1023 31.29                             150   -0.1010 76.0 299 
 BRR  HN ES   1   1023 47.80                             150    0.15 7 76.0 299 
 BRR  HN I        1023 48.64        27.5 0.22                          76.0 299 
 PAM  SZ EP       1023 32.21                             150    0.0710 76.7  36 
 PAM  SZ I        1023 32.57         6.4 0.30                          76.7  36 
 PAM  SN ES   1   1023 48.96                             150   -0.02 7 76.7  36 
 RUS  HZ EP       1023 33.70                             143    0.1310 98.0 178 
 RUS  HE I        1023 53.46         6.0 0.32                          98.0 178 
                                                                                
