 2016 10 9 1523 28.3 L   6.810 -73.159145.1  RSN 22 0.3 2.5LRSN                1
 GAP= 64        0.78       2.0     2.2  3.8 -0.7323E+00  0.2578E+01  0.8620E+00E
 Epicentro: LOS SANTOS - SANTANDER                                             3
 ACTION:UPD 16-11-09 19:17 OP:rebc STATUS:               ID:20161009152328 L   I
 OLDACT:DUP 16-10-10 00:18 OP:lv   STATUS:               ID:20161009151747d    3
 2016-10-09-1518-00M.COL___360                                                 6
 STAT SP IPHASW D HRMM SECON CODA AMPLIT PERI AZIMU VELO AIN AR TRES W  DIS CAZ7
 BAR2 EZ EP       1523 47.74                             170   -0.1210 24.2 186 
 BAR2 EZ ES       1524  2.95                             170   -0.1710 24.2 186 
 BAR2 EZ I        1524  4.38        84.7 0.18            167           24.2 186 
 PAM  EZ EP       1523 50.73                             151    0.2910 77.5  41 
 PAM  EN ES       1524  7.86                             151    0.1510 77.5  41 
 PAM  EZ I        1524 11.01        37.4 0.53            156           77.5  41 
 RUS  HZ EP       1523 51.75                             143   -0.3110  102 175 
 RUS  HN ES       1524 10.66                             143    0.0510  102 175 
 RUS  HZ I        1524 11.87        22.1 0.22            143            102 175 
 PTB  HZ EP       1523 54.50                             132   -0.59 9  147 258 
 PTB  HN ES       1524 15.69                             132   -0.31 9  147 258 
 PTB  HZ I        1524 20.72        32.1 0.15            131            147 258 
 TAM  HZ IP     C 1523 56.18                             130    0.11 9  157 105 
 TAM  HN ES       1524 17.81                             130    0.07 9  157 105 
 TAM  HZ I        1524 18.52        24.3 0.28            134            157 105 
 OCA  HZ EP       1523 56.18                             130   -0.25 9  159 354 
 OCA  HN ES       1524 18.57                             130    0.20 9  159 354 
 OCA  HZ I        1524 21.05        56.2 0.21            132            159 354 
 SPBC HZ EP       1523 56.83                             129    0.10 9  163 218 
 SPBC HN ES       1524 19.10                             129    0.18 9  163 218 
 SPBC HZ I        1524 23.65        52.6 0.12            128            163 218 
 ZAR  HZ EP       1524  0.42                             122   -0.09 9  202 292 
 ZAR  HN ES       1524 25.72                             122    0.08 9  202 292 
 ZAR  HZ I        1524 31.11        33.1 0.33            122            202 292 
 NOR  HZ EP       1524  3.93                             118    0.01 8  234 234 
 NOR  HN ES       1524 32.24                             118    0.52 8  234 234 
 NOR  HZ I        1524 37.31        26.4 0.22            118            234 234 
 CHI  HZ EP       1524  6.09                             117    0.06 8  249 195 
 CHI  HN ES       1524 35.40                             117   -0.06 8  249 195 
 CHI  HZ I        1524 40.45        14.8 0.30            117            249 195 
 ROSC BZ EP   9   1524  7.98                             117    1.58 0  253 211 
 ROSC BN ES       1524 38.63                                    0.93 8  253 211 
 ROSC BZ I        1524 42.46        51.4 0.40            117            253 211 
 HEL  HZ EP       1524  8.64                             115    0.30 8  271 255 
 HEL  HN ES   4   1524 43.34                             115    3.76 0  271 255 
 HEL  HZ I        1524 46.55        16.1 0.46            115            271 255 
 URE  HN ES   4   1524 38.55                             114   -2.43 0  282 292 
 GUY2CHZ EP   4   1524 12.69                             112    0.88 0  301 234 
 GUY2CHN ES       1524 45.24                             112   -0.51 7  301 234 
 GUY2CHZ I        1524 54.16        22.5 0.33                           301 234 
 VIL  EZ EP       1524 11.33                             112   -0.44 7  304 191 
 VIL  EN ES       1524 46.01                             112    0.33 7  304 191 
 VIL  EZ I        1524 55.67        19.4 0.54            113            304 191 
 PTGC HZ EP   9   1524 10.91                             111   -1.39 0  310 158 
 PTGC HE ES       1524 44.50                                   -0.73 7  310 158 
 ELA  HZ EP   4   1524 17.21                             110    2.14 0  329 229 
 ELA  HE ES   4   1524 54.87                             110    3.31 0  329 229 
 ELA  HZ I        1525  7.04        16.4 0.46            111            329 229 
 CBOC HZ EP       1524 15.59                             110    0.53 7  333 252 
 CBOC HE ES   4   1524 53.26                             110    1.72 0  333 252 
 CBOC HZ I        1525  5.38         5.9 0.24            110            333 252 
 ANIL HZ EP       1524 18.44                             108    0.39 6  357 224 
 ANIL HN ES   4   1524 58.85                             108    2.00 0  357 224 
 ANIL HZ I        1525  4.02        37.2 0.28            109            357 224 
 PRA  HZ EP       1524 21.49                             106   -0.33 6  392 209 
 PRA  HN ES       1525  3.18                             106   -0.39 6  392 209 
 PRA  HZ I        1525  9.99        17.8 0.46            107            392 209 
 PAL  HZ EP       1524 23.34                             106   -0.01 6  405 239 
 PAL  HN ES       1525  6.94                             106    0.64 6  405 239 
 PAL  HZ I        1525 11.43         4.4 0.50            106            405 239 
 SJC  HZ EP   4   1524 21.96                             106   -1.67 0  407 327 
 SJC  HN ES   4   1525  2.50                             106   -4.29 0  407 327 
 SJC  HZ I        1525  7.15         4.1 0.34            107            407 327 
 CRJC HZ EP   9   1524 28.10                             103   -2.55 0  467   4 
 CRJC HN ES       1525 16.10                                   -0.64 5  467   4 
                                                                                
