 2017  7 9 1124 58.8 L   6.814 -73.134144.7  RSN 11 0.4 2.0LRSN                1
 GAP=112        0.98       4.1     3.5  5.9  0.1981E+01  0.5964E+01  0.7314E+01E
 Epicentro: LOS SANTOS - SANTANDER                                             3
 ACTION:UPD 17-08-30 15:31 OP:rebc STATUS:               ID:20170709112458 L   I
 OLDACT:REG 17-07-09 20:21 OP:dhb  STATUS:               ID:20170709111738     3
 2017-07-09-1118-00M.COL___377                                                 6
 STAT SP IPHASW D HRMM SECON CODA AMPLIT PERI AZIMU VELO AIN AR TRES W  DIS CAZ7
 BAR2 EZ IP       1125 18.26                             170   -0.1010 25.1 192 
 BAR2 EZ ES       1125 33.13                             170   -0.4710 25.1 192 
 BAR2 EZ I        1125 35.21        23.1 0.24            169           25.1 192 
 BRR  HZ IP     C 1125 20.21                             152    0.3310 71.7 297 
 BRR  HE ES       1125 36.80                             152    0.5010 71.7 297 
 BRR  HZ I        1125 39.07        11.9 0.12            152           71.7 297 
 PAM  EZ EP   2   1125 21.13                             151    0.33 5 75.3  40 
 PAM  EN ES       1125 37.91                             151   -0.0310 75.3  40 
 PAM  EZ I        1125 40.97        15.7 0.31            152           75.3  40 
 PTB  HZ EP       1125 24.96                             131   -0.89 9  149 258 
 PTB  HN ES       1125 46.59                             131   -0.34 9  149 258 
 PTB  HZ I        1125 47.66         7.8 0.14            131            149 258 
 SPBC HZ EP       1125 27.25                             128   -0.18 9  165 219 
 SPBC HE ES       1125 49.72                             128   -0.03 9  165 219 
 SPBC HZ I        1125 51.85        23.3 0.09            128            165 219 
 YPLC HZ IP     D 1125 28.42                             126   -0.19 9  178 152 
 YPLC HN ES       1125 52.48                             126    0.63 9  178 152 
 YPLC HZ I        1125 59.84         5.7 0.30            126            178 152 
 ZAR  HZ EP       1125 31.16                             122   -0.10 9  205 292 
 ZAR  HN ES       1125 56.55                             122   -0.02 9  205 292 
 ZAR  HZ I        1126  2.97        10.8 0.12            122            205 292 
 NOR  HZ EP       1125 34.39                             118   -0.31 8  237 234 
 NOR  HE ES       1126  2.63                             118   -0.06 8  237 234 
 NOR  HZ I        1126  9.57         9.3 0.18            118            237 234 
 HEL  HZ EP       1125 39.87                             114    0.70 8  274 256 
 HEL  HN ES       1126 11.46                             114    0.83 8  274 256 
 HEL  HZ I        1126 17.06         6.4 0.28            114            274 256 
 GUY2CHZ EP   4   1125 45.49                             112    2.88 0  303 235 
 GUY2CHN ES   3   1126 18.08                             112    1.32 2  303 235 
 GUY2CHZ I        1126 25.27         4.6 0.36                           303 235 
 SJC  HZ EP   9   1125 52.19                             105   -2.09 0  409 327 
 SJC  HN ES       1126 35.42                                   -0.03 6  409 327 
 SJC  HZ I        1126 46.64         2.2 0.40            105            409 327 
                                                                                
