 2016  8 9 1151 12.3 L   6.802 -73.182129.6  RSN  4 0.4 1.5LRSN                1
 GAP=234        0.94       7.0     6.7  7.5  0.2431E+02  0.6980E+01  0.3694E+01E
 Epicentro: ZAPATOCA - SANTANDER                                               3
 ACTION:UPD 16-10-29 15:34 OP:rebc STATUS:               ID:20160809115112 L   I
 OLDACT:REG 16-08-09 19:50 OP:lv   STATUS:               ID:20160809114759     3
 2016-08-09-1147-59S.COL___343                                                 6
 STAT SP IPHASW D HRMM SECON CODA AMPLIT PERI AZIMU VELO AIN AR TRES W  DIS CAZ7
 BAR2 EZ EP     C 1151 30.17                             169    0.1710 23.2 180 
 BAR2 EZ ES       1151 43.20                             169   -0.6010 23.2 180 
 BAR2 EZ I        1151 46.61         7.7 0.20                          23.2 180 
 BRR  HZ EP       1151 31.75                             151    0.2310 67.6 300 
 BRR  HE ES       1151 46.76                             151    0.2610 67.6 300 
 BRR  HZ I        1151 49.54        11.9 0.40                          67.6 300 
 RUS  HZ EP       1151 34.63                             140    0.0710  101 174 
 RUS  HN ES       1151 52.22                             140    0.3110  101 174 
 RUS  HZ I        1151 54.35         3.0 0.16                           101 174 
 PTB  HZ EP     C 1151 37.01                             129   -0.64 9  144 258 
 PTB  HN ES       1151 57.55                             129    0.15 9  144 258 
 PTB  HZ I        1152  0.76         4.1 0.10                           144 258 
                                                                                
