 2017  1 9 1504 33.9 L   6.754 -73.162143.0  RSN  5 0.4 1.3LRSN                1
 GAP=137        1.06       5.6     5.4  7.8 -0.2718E+01  0.5254E+01  0.1579E+01E
 Epicentro: LOS SANTOS - SANTANDER                                             3
 ACTION:UPD 17-05-22 15:57 OP:jn   STATUS:               ID:20170109150433 L   I
 OLDACT:REG 17-01-09 18:21 OP:ar   STATUS:               ID:20170109145751     3
 2017-01-09-1458-00M.COL___347                                                 6
 STAT SP IPHASW D HRMM SECON CODA AMPLIT PERI AZIMU VELO AIN AR TRES W  DIS CAZ7
 BAR2 EZ EP       15 4 52.98                             172   -0.1510 18.0 187 
 BAR2 EZ ES       15 5  8.17                             172    0.0610 18.0 187 
 BAR2 EZ I        15 5 10.45         8.4 0.38            172           18.0 187 
 BRR  HZ EP       15 4 55.21                             152    0.3710 72.3 303 
 BRR  HN ES       15 5 11.87                             152    0.7110 72.3 303 
 PAM  EZ EP       15 4 56.11                             149   -0.0610 82.5  38 
 PAM  EN ES       15 5 13.01                             149   -0.5010 82.5  38 
 PAM  EZ I        15 5 15.35         2.5 0.54            151           82.5  38 
 RUS  HZ EP     D 15 4 57.26                             145    0.2110 95.6 175 
 RUS  HN ES       15 5 15.16                             145    0.0710 95.6 175 
 RUS  HZ I        15 5 16.56         1.8 0.38            146           95.6 175 
 PTB  HZ EP       15 5  0.45                             132    0.02 9  145 261 
 PTB  HN ES       15 5 20.28                             132   -0.82 9  145 261 
 PTB  HZ I        15 5 23.94         3.5 0.12            133            145 261 
                                                                                
