 2011  4 9 1755  3.5 L   6.842 -73.061141.8  RSN  4 0.4 1.5LRSN                1
 GAP=170        0.91      10.7     9.7 12.3 -0.3204E+02 -0.2690E+02  0.2726E+02E
 Epicentro: LOS SANTOS - SANTANDER                                             3
 ACTION:UP  11-06-22 15:30 OP:REBC STATUS:               ID:20110409175503 L   I
 2011-04-09-1754-39S.COL___135                                                 6
 STAT SP IPHASW D HRMM SECON CODA AMPLIT PERI AZIMU VELO SNR AR TRES W  DIS CAZ7
 BAR2 SZ EP       1755 22.60                             167    -0.210   31 206 
 BAR2 SZ ES   2   1755 37.59                             167    -0.3 5   31 206 
 BAR2 SZ I        1755 39.85        10.9 0.36                            31 206 
 PAM  SZ EP       1755 25.03                             153     0.310   68  36 
 PAM  SN ES   2   1755 41.97                             153     0.6 5   68  36 
 PAM  SZ I        1755 44.43         2.2 0.54                            68  36 
 BRR  HZ EP       1755 24.62                             149     0.010   78 292 
 BRR  HZ I        1755 24.96        11.7 0.14                            78 292 
 BRR  HN ES   1   1755 41.31                             149     0.2 7   78 292 
 GRA  SZ ES   2   1755 45.69                             138    -1.1 5  119  14 
                                                                                
