 2012  7 9 1039 58.6 L   7.569 -73.190156.1  RSN  4 0.1 1.6LRSN                1
 GAP=272        0.35       5.5     3.4  4.0  0.9567E+01 -0.4099E+01 -0.1136E+02E
 Epicentro: EL PLAYON - SANTANDER                                              3
 ACTION:UPD 12-08-14 11:43 OP:ep   STATUS:               ID:20120709103958 L   I
 2012-07-09-1040-00M.COL___201                                                 6
 STAT SP IPHASW D HRMM SECON CODA AMPLIT PERI AZIMU VELO AIN AR TRES W  DIS CAZ7
 BRR  HZ EP       1040 21.20                             152     0.110   77 228 
 BRR  HN ES       1040 38.64                             152    -0.110   77 228 
 BRR  HZ I        1040 41.65         8.9 0.27                            77 228 
 BAR2 SZ EP       1040 23.51                             144     0.010  108 180 
 BAR2 SZ ES   1   1040 43.07                             144     0.1 7  108 180 
 BAR2 SZ I        1040 44.13         5.3 0.13                           108 180 
 PTB  HZ EP       1040 29.29                             128    -0.1 9  180 231 
 PTB  HN ES   1   1040 53.42                             128     0.0 7  180 231 
 PTB  HZ I        1040 58.57         2.5 0.36                           180 231 
 ZAR  HZ EP   1   1040 29.70                             128     0.0 7  184 267 
 ZAR  HE ES   1   1040 54.22                             128     0.2 7  184 267 
 ZAR  HZ I        1040 55.92         3.4 0.22                           184 267 
