 2012  6 9 1647 43.6 L   6.789 -73.167145.4  RSN  7 0.4 2.0LRSN                1
 GAP=134        0.77       4.8     4.8  7.7  0.2090E+01  0.9774E+01 -0.5174E+01E
 Epicentro: LOS SANTOS - SANTANDER                                             3
 ACTION:UPD 12-08-06 17:48 OP:ep   STATUS:               ID:20120609164750 L   I
 2012-06-09-1640-00M.COL___201                                                 6
 STAT SP IPHASW D HRMM SECON CODA AMPLIT PERI AZIMU VELO AIN AR TRES W  DIS CAZ7
 BAR2 SZ EP   1   1648  3.33                             171    0.17 7 21.9 184 
 BAR2 SZ ES   1   1648 18.52                             171    0.10 7 21.9 184 
 BAR2 SZ I        1648 20.13        27.5 0.28            167           21.9 184 
 PAM  SZ EP   1   1648  5.61                             150   -0.32 7 79.8  40 
 PAM  SZ I        1648 25.89        12.7 0.50            133           79.8  40 
 RUS  HZ EP   1   1648  7.33                             144    0.08 7 99.6 175 
 RUS  HN ES   1   1648 25.52                             144   -0.17 7 99.6 175 
 RUS  HZ I        1648 27.73        16.2 0.27            145           99.6 175 
 PTB  HZ EP   1   1648 10.20                             132   -0.11 7  145 259 
 PTB  HN ES   1   1648 31.16                             132    0.02 7  145 259 
 PTB  HZ I        1648 34.75        15.4 0.15            133            145 259 
 ZAR  HZ EP   1   1648 16.84                             122    0.99 6  202 293 
 ZAR  HN ES   1   1648 40.81                             122   -0.19 6  202 293 
 NOR  SZ EP   1   1648 18.13                             119   -0.90 6  232 234 
 NOR  SN ES   1   1648 46.51                             119   -0.16 6  232 234 
 CHI  HN ES   1   1648 50.87                             117    0.54 6  247 195 
                                                                                
