 2016  4 9 1808 47.0 L   6.807 -73.164145.5  RSN  7 0.4 1.9LRSN                1
 GAP=134        0.89       3.8     3.8  6.1 -0.3039E+01  0.9312E+01 -0.1609E+01E
 Epicentro: LOS SANTOS - SANTANDER                                             3
 ACTION:UPD 16-05-05 14:19 OP:rebc STATUS:               ID:20160409180847 L   I
 OLDACT:REG 16-04-09 20:11 OP:drio STATUS:               ID:20160409175745     3
 2016-04-09-1757-45M.COL___298                                                 6
 STAT SP IPHASW D HRMM SECON CODA AMPLIT PERI AZIMU VELO AIN AR TRES W  DIS CAZ7
 BAR2 EZ EP       18 9  6.54                             170   -0.0710 23.8 185 
 BAR2 EZ ES       18 9 21.77                             170   -0.1310 23.8 185 
 BAR2 EZ I        18 9 23.14        28.6 0.28            169           23.8 185 
 PAM  EZ EP       18 9  9.47                             151    0.2410 78.1  41 
 PAM  EE ES       18 9 26.55                             151   -0.0210 78.1  41 
 PAM  EZ I        18 9 28.73        15.9 0.52            155           78.1  41 
 RUS  HZ EP       18 9 10.57                             143   -0.2210  101 175 
 RUS  HN ES       18 9 29.34                             143   -0.0010  101 175 
 RUS  HZ I        18 9 30.14         5.3 0.38            147            101 175 
 PTB  HZ EP       18 9 13.03                             132   -0.75 9  146 258 
 PTB  HE ES       18 9 35.02                             132    0.36 9  146 258 
 PTB  HZ I        18 9 40.49         9.6 0.24            132            146 258 
 SPBC HZ EP       18 9 15.51                             129    0.10 9  162 218 
 SPBC HN ES       18 9 38.07                             129    0.50 9  162 218 
 SPBC HZ I        18 9 42.41        18.3 0.20            130            162 218 
 ZAR  HZ EP       18 9 19.89                             123    0.69 9  202 292 
 ZAR  HN ES       18 9 43.99                             123   -0.33 9  202 292 
 ZAR  HZ I        18 9 50.60         8.0 0.42            123            202 292 
 NOR  HZ EP       18 9 22.63                             119    0.05 8  233 234 
 NOR  HN ES       18 9 49.95                             119   -0.38 8  233 234 
 NOR  HZ I        18 9 58.40         6.1 0.12            120            233 234 
                                                                                
