 2010 10 9 1046 14.9 L   6.772 -73.060150.6  RSN 10 0.4 2.4LRSN                1
 GAP=185        0.98       5.3     8.5  6.9 -0.2563E+02 -0.9470E+01  0.5431E+01E
 Epicentro: LOS SANTOS - SANTANDER                                             3
 ACTION:UP  11-02-18 11:08 OP:tino STATUS:               ID:20101009104614 L   I
 2010-10-09-1042-49S.COL___121                                                 6
 STAT SP IPHASW D HRMM SECON CODA AMPLIT PERI AZIMU VELO SNR AR TRES W  DIS CAZ7
 BAR2 SZ EP       1046 35.26                             170     0.210   24 214 
 BAR2 SZ I        1046 35.67        35.1 0.45                            24 214 
 BAR2 SZ ES   1   1046 50.53                             170    -0.4 7   24 214 
 BTL  SZ EP       1046 35.77                             169     0.610   28 305 
 BTL  SZ ES   1   1046 50.87                             169    -0.2 7   28 305 
 BRR  HZ EP       1046 37.19                             150     0.110   81 297 
 BRR  HN ES       1046 54.59                             150     0.110   81 297 
 BRR  HZ I        1046 55.91        36.6 0.05                            81 297 
 GUE  SZ EP       1046 40.44                             140     0.310  118   7 
 GRA  SZ EP       1046 40.04                             138    -0.610  126  13 
 GRA  SZ I        1047  0.95        23.3 0.30                           126  13 
 OCA  SZ EP       1046 43.84                             130    -0.1 9  165 350 
 OCA  SZ ES   1   1047  6.58                             130    -0.1 7  165 350 
 OCA  SZ I        1047 10.39        25.3 0.22                           165 350 
 NOR  SZ EP       1046 51.36                             119    -0.2 8  241 236 
 NOR  SN ES   1   1047 19.59                             119    -0.6 6  241 236 
 CHI  HZ I        1046 54.97         6.8 0.52                           248 197 
 CHI  HN ES   2   1047 22.69                             118     0.3 4  248 197 
 RREF HN ES   2   1047 39.90                             111     1.4 3  327 231 
 RREF HZ I        1047 47.09        12.3 1.09                           327 231 
 PRA  HZ I        1047 11.02        35.9 0.22                           394 211 
 PRA  HN ES   1   1047 50.21                             107    -0.7 4  394 211 
                                                                                
