 2017  9 9 1822 37.9 L   6.840 -73.300120.3  RSN  7 0.3 1.6LRSN                1
 GAP=107        0.73       2.7     2.9  5.2 -0.4513E+00  0.5213E+01  0.2746E+00E
 Epicentro: ZAPATOCA - SANTANDER                                               3
 ACTION:UPD 17-10-05 19:10 OP:rebc STATUS:               ID:20170909182237 L   I
 OLDACT:REG 17-09-09 19:52 OP:lv   STATUS:               ID:20170909181737     3
 2017-09-09-1818-00M.COL___416                                                 6
 STAT SP IPHASW D HRMM SECON CODA AMPLIT PERI AZIMU VELO AIN AR TRES W  DIS CAZ7
 BAR2 EZ EP       1822 54.63                             165   -0.0310 30.3 155 
 BAR2 EZ ES       1823  7.28                             165   -0.4710 30.3 155 
 BRR  HZ EP       1822 55.02                             154   -0.3210 54.3 303 
 BRR  HE ES       1823  9.36                             154    0.4110 54.3 303 
 BRR  HZ I        1823 10.47        11.3 0.24            152           54.3 303 
 PAM  EZ EP       1822 58.01                             142   -0.1010 86.4  50 
 PAM  EN ES       1823 13.95                             142    0.0610 86.4  50 
 PAM  EZ I        1823 16.44        11.9 0.26            146           86.4  50 
 RUS  HZ EP       1822 59.82                             136    0.0210  107 167 
 RUS  HN ES       1823 17.37                             136    0.4710  107 167 
 RUS  HZ I        1823 18.14         3.0 0.26            136            107 167 
 SPBC HZ EP   4   1823  6.31                             124    2.41 0  157 213 
 SPBC HN ES       1823 24.01                             124   -0.18 9  157 213 
 SPBC HZ I        1823 30.05         6.8 0.10            123            157 213 
 ZAR  HZ EP       1823  7.24                             119    0.32 9  187 293 
 ZAR  HN ES       1823 29.44                             119   -0.13 9  187 293 
 ZAR  HZ I        1823 35.03         7.5 0.28            118            187 293 
 NOR  HE ES       1823 36.88                             114   -0.03 8  224 231 
 NOR  HZ I        1823 42.53         2.6 0.29            114            224 231 
                                                                                
