 2017  4 9 1100 33.6 L   6.811 -73.125131.5  RSN  6 0.4 1.3LRSN                1
 GAP=139        1.03       4.6     4.9  7.6 -0.5187E+01  0.5829E+01  0.2438E+01E
 Epicentro: LOS SANTOS - SANTANDER                                             3
 ACTION:UPD 17-05-30 21:10 OP:jn   STATUS:               ID:20170409110033 L   I
 OLDACT:UP  17-04-09 21:59 OP:edw  STATUS:               ID:20170409105746     3
 OLDACT:UP  17-04-09 21:58 OP:edw  STATUS:               ID:20170409105746     3
 OLDACT:UP  17-04-09 21:57 OP:edw  STATUS:               ID:20170409105746     3
 OLDACT:REG 17-04-09 20:30 OP:edw  STATUS:               ID:20170409105746     3
 2017-04-09-1058-00M.COL___371                                                 6
 STAT SP IPHASW D HRMM SECON CODA AMPLIT PERI AZIMU VELO AIN AR TRES W  DIS CAZ7
 BAR2 EZ EP     C 11 0 51.63                             169    0.1210 25.0 195 
 BAR2 EZ ES       11 1  5.77                             169    0.2510 25.0 195 
 BAR2 EZ I        11 1  9.14         4.7 0.48            170           25.0 195 
 BRR  HZ EP       11 0 53.45                             149    0.1810 72.7 297 
 BRR  HN ES       11 1  8.99                             149    0.3410 72.7 297 
 PAM  EZ IP     C 11 0 54.50                             149    0.3810 75.0  39 
 PAM  EE ES       11 1  9.71                             149   -0.4610 75.0  39 
 PAM  EZ I        11 1 13.44         2.5 0.42            150           75.0  39 
 RUS  HZ EP       11 0 56.09                             140    0.0710  102 177 
 RUS  HN ES       11 1 13.05                             140   -0.4910  102 177 
 RUS  HZ I        11 1 15.63         5.9 0.24            143            102 177 
 PTB  HZ EP       11 0 59.15                             128   -0.49 9  150 259 
 PTB  HN ES       11 1 19.42                             128   -0.56 9  150 259 
 SPBC HZ EP   4   11 1  3.40                             125    2.16 0  166 219 
 SPBC HN ES       11 1 23.46                             125    0.63 9  166 219 
 ZAR  HN ES   4   11 1 28.40                             119   -1.65 0  206 292 
                                                                                
