 2015 11 9 1409 49.6 L   6.780 -73.135146.0  RSN 11 0.3 2.0LRSN                1
 GAP=139        0.73       2.6     3.3  4.3 -0.6291E+00  0.4800E+01  0.2260E+01E
 Epicentro: LOS SANTOS - SANTANDER                                             3
 ACTION:UPD 15-12-28 16:09 OP:cam  STATUS:               ID:20151109140949 L   I
 OLDACT:REG 15-11-09 21:00 OP:cara STATUS:               ID:20151109140750     3
 2015-11-09-1407-50M.COL___316                                                 6
 STAT SP IPHASW D HRMM SECON CODA AMPLIT PERI AZIMU VELO AIN AR TRES W  DIS CAZ7
 BAR2 EZ IP       1410  9.04                             171   -0.2110 21.5 194 
 BAR2 EZ ES       1410 24.11                             171   -0.4410 21.5 194 
 BAR2 EZ I        1410 25.29        27.1 0.14            169           21.5 194 
 BRR  HZ IP     C 1410 10.98                             152    0.0610 73.3 300 
 BRR  HN ES       1410 28.12                             152    0.5910 73.3 300 
 BRR  HZ I        1410 31.05        18.7 0.37            148           73.3 300 
 PAM  EZ IP     C 1410 11.97                             151    0.0510 78.3  38 
 PAM  EN ES       1410 29.13                             151   -0.1810 78.3  38 
 PAM  EZ I        1410 31.11        16.3 0.20            153           78.3  38 
 RUS  HZ EP       1410 12.90                             144   -0.3410 98.3 177 
 RUS  HN ES       1410 32.03                             144    0.3710 98.3 177 
 RUS  HZ I        1410 34.94         8.5 0.28            146           98.3 177 
 SPBC HZ EP       1410 18.19                             129    0.13 9  162 220 
 SPBC HN ES       1410 40.08                             129   -0.15 9  162 220 
 SPBC HZ I        1410 42.01        21.9 0.38            128            162 220 
 ZAR  HZ EP       1410 22.52                             122    0.23 8  206 293 
 ZAR  HE ES       1410 47.52                             122   -0.24 8  206 293 
 ZAR  HZ I        1410 52.98        16.3 0.30            121            206 293 
 NOR  HZ EP       1410 25.28                             118   -0.06 8  234 235 
 NOR  HN ES   2   1410 52.55                             118   -0.65 4  234 235 
 NOR  HZ I        1411  1.53         9.8 0.20            118            234 235 
 SML  HZ EP   4   1410 25.57                             117   -0.96 0  246 335 
 SML  HE ES   4   1410 52.82                             117   -2.50 0  246 335 
 SML  HZ I        1411  5.25        10.0 0.30            117            246 335 
 CHI  HZ EP       1410 27.34                             117    0.19 8  247 196 
 CHI  HN ES       1410 56.77                             117    0.36 8  247 196 
 CHI  HZ I        1411  6.33         4.0 0.26            118            247 196 
 GUY2CHZ EP       1410 33.39                             112    0.17 7  301 235 
 GUY2CHN ES       1411  6.88                             112   -0.34 7  301 235 
 GUY2CHZ I        1411 15.52         8.2 0.50                           301 235 
 MON  HZ EP   4   1410 36.08                             108   -2.82 0  356 309 
 MON  HE ES   4   1411 15.55                             108   -1.79 0  356 309 
 MON  HZ I        1411 22.83         2.2 0.36            108            356 309 
                                                                                
