 2010  9 9 1743 30.8 L   6.823 -73.064144.2  RSN  6 0.4 1.8LRSN                1
 GAP=173        0.72       5.1    12.0  9.1  0.6058E+01 -0.2110E+02  0.5866E+00E
 Epicentro: LOS SANTOS - SANTANDER                                             3
 ACTION:UP  11-02-18 11:01 OP:tino STATUS:               ID:20100909174330 L   I
 2010-09-09-1740-40S.COL___120                                                 6
 STAT SP IPHASW D HRMM SECON CODA AMPLIT PERI AZIMU VELO SNR AR TRES W  DIS CAZ7
 BAR2 SZ EP   1   1743 50.31                             168    -0.1 7   29 207 
 BAR2 SZ I        1743 50.80        14.3 0.31                            29 207 
 BAR2 SZ ES   2   1744  5.92                             168     0.2 5   29 207 
 GIR2 SZ EP   2   1743 50.26                             167    -0.1 5   32 333 
 BRR  HZ IP     D 1743 52.11                             150    -0.110   78 294 
 BRR  HZ I        1743 53.58        24.2 0.10                            78 294 
 BRR  HN ES   2   1744  8.85                             150    -0.1 5   78 294 
 RUS  HZ EP   1   1743 54.39                             143    -0.2 7  103 181 
 RUS  HN ES   2   1744 12.81                             143    -0.4 5  103 181 
 RUS  HZ I        1744 15.44         6.2 0.38                           103 181 
 GUE  SZ EP   1   1743 55.59                             140     0.5 7  112   8 
 CHI  HZ EP   1   1744  8.82                             116    -0.2 6  254 197 
 CHI  HN ES   2   1744 40.00                             116     1.2 4  254 197 
 CHI  HZ I        1744 44.17         2.4 0.39                           254 197 
                                                                                
