 2010  5 9 1038 34.4 L   6.864 -73.310117.7  RSN  6 0.5 1.6LRSN                1
 GAP=134        1.04       6.8    17.1 11.5  0.2800E+02 -0.4678E+02 -0.5917E+01E
 Epicentro: ZAPATOCA - SANTANDER                                               3
 ACTION:UP  10-08-24 10:03 OP:vdl  STATUS:               ID:20100509103834 L   I
 2010-05-09-1036-28S.COL___105                                                 6
 STAT SP IPHASW D HRMM SECON CODA AMPLIT PERI AZIMU VELO SNR AR TRES W  DIS CAZ7
 GIR2 SZ EP   1   1038 51.23                             166     0.6 8   27  28 
 GIR2 SZ ES   2   1039  4.20                             166     0.9 5   27  28 
 BAR2 SZ EP   1   1038 50.53                             163    -0.5 8   33 155 
 BAR2 SZ ES   2   1039  3.23                             163    -0.7 5   33 155 
 BRR  HZ EP   1   1038 51.21                             155    -0.3 8   52 301 
 BRR  HZ I        1038 51.99        11.1 0.10                            52 301 
 BRR  HE ES   2   1039  4.53                             155    -0.2 5   52 301 
 RUS  HZ EP       1038 56.76                             134     0.410  110 167 
 GUE  SZ EP   1   1038 55.72                             133    -0.8 7  115  22 
 OCA  SZ EP   1   1039  0.11                             124     0.2 7  152 360 
 OCA  SZ ES   2   1039 20.06                             124     0.3 5  152 360 
 OCA  SZ I        1039 27.67         4.9 0.55                           152 360 
                                                                                
