 2012  9 9 1836  7.5 L   6.497 -73.509 12.0  RSN  6 0.4 1.7LRSN                1
 GAP=128        0.79       3.0     2.5  6.8  0.1183E+01  0.8373E+01 -0.1156E+00E
 Epicentro: SIMACOTA - SANTANDER                                               3
 ACTION:UPD 12-10-22 14:18 OP:ep   STATUS:               ID:20120909183607 L   I
 2012-09-09-1830-00M.COL___227                                                 6
 STAT SP IPHASW D HRMM SECON CODA AMPLIT PERI AZIMU VELO AIN AR TRES W  DIS CAZ7
 BAR2 SZ EP       1836 14.32                             104    0.1010 37.6  74 
 BAR2 SZ ES   1   1836 19.05                             104   -0.38 7 37.6  74 
 BAR2 SZ I        1836 21.44        40.3 0.48                          37.6  74 
 BRR  HZ EP       1836 19.01                              97    0.0410 71.1 342 
 BRR  HZ I        1836 19.54        34.1 0.19                          71.1 342 
 BRR  HE ES   1   1836 27.38                              97   -0.51 7 71.1 342 
 GIR2 SZ EP       1836 19.97                              97    0.5410 73.1  28 
 RUS  HZ EP       1836 20.89                              96   -0.2010 81.8 145 
 RUS  HZ I        1836 34.02        10.8 0.16                          81.8 145 
 PTB  HZ EP   1   1836 23.80                              94   -0.29 7  105 273 
 PTB  HN ES   1   1836 37.26                              94    0.26 7  105 273 
 PTB  HZ I        1836 39.35        23.4 0.20                           105 273 
 ZAR  HZ EP   1   1836 35.78                              56    0.50 7  185 307 
 ZAR  HN ES   1   1836 56.51                              56   -0.41 7  185 307 
 ZAR  HZ I        1836 57.95        14.5 0.23                           185 307 
                                                                                
