 2017  3 9 1627 42.7 L   6.689 -73.251137.3  RSN  6 0.4 1.8LRSN                1
 GAP=193        1.00       6.6     6.4  6.8  0.2444E+02  0.1486E+02  0.6335E+01E
 Epicentro: BARICHARA - SANTANDER                                              3
 ACTION:UPD 17-05-25 18:38 OP:jn   STATUS:               ID:20170309162742 L   I
 OLDACT:DUP 17-03-09 23:32 OP:cara STATUS:               ID:20170309161746d    3
 2017-03-09-1618-00M.COL___403                                                 6
 STAT SP IPHASW D HRMM SECON CODA AMPLIT PERI AZIMU VELO AIN AR TRES W  DIS CAZ7
 BAR2 EZ IP       1628  0.66                             174   -0.5110 13.1 145 
 BAR2 EZ ES       1628 15.32                             174   -0.2210 13.1 145 
 BAR2 EZ I        1628 16.40        25.0 0.44            172           13.1 145 
 BRR  HZ EP       1628  2.67                             152   -0.1610 68.8 312 
 BRR  HN ES       1628 18.85                             152    0.3510 68.8 312 
 RUS  HZ EP       1628  5.24                             145    0.3510 90.0 168 
 RUS  HN ES       1628 22.54                             145    0.3710 90.0 168 
 RUS  HZ I        1628 24.75        11.5 0.30            146           90.0 168 
 PTB  HZ EP       1628  7.31                             133   -0.4810  134 263 
 PTB  HN ES       1628 26.84                             133   -0.5010  134 263 
 PTB  HZ I        1628 31.68         7.3 0.24            131            134 263 
 ZAR  HZ EP       1628 14.12                             121    0.06 9  199 297 
 ZAR  HN ES       1628 39.12                             121    0.63 9  199 297 
 ZAR  HZ I        1628 46.74         6.7 0.16            121            199 297 
 GUY2CHZ EP       1628 24.43                             112    0.35 7  285 235 
 GUY2CHN ES   4   1628 59.04                             112    2.71 0  285 235 
 GUY2CHZ  IAML    1629  5.96         2.7 0.28                           285 235 
                                                                                
