 2017  9 9 1003 38.6 L   6.799 -73.166145.1  RSN 13 0.4 2.0LRSN                1
 GAP=110        0.89       2.8     3.2  5.7  0.4890E+00  0.4873E+01  0.4519E+01E
 Epicentro: LOS SANTOS - SANTANDER                                             3
 ACTION:UPD 17-10-05 19:10 OP:rebc STATUS:               ID:20170909100338 L   I
 OLDACT:REG 17-09-09 19:23 OP:lv   STATUS:               ID:20170909095738     3
 2017-09-09-0958-00M.COL___401                                                 6
 STAT SP IPHASW D HRMM SECON CODA AMPLIT PERI AZIMU VELO AIN AR TRES W  DIS CAZ7
 BAR2 EZ IP     D 10 3 57.92                             171   -0.2610 22.9 184 
 BAR2 EZ I        10 4 15.83        24.6 0.26            171           22.9 184 
 BRR  HZ IP     C 10 3 59.67                             153    0.0610 69.3 300 
 BRR  HE ES       10 4 16.65                             153    0.6910 69.3 300 
 BRR  HZ I        10 4 18.73        12.4 0.12            150           69.3 300 
 PAM  EZ EP       10 4  0.91                             150    0.0310 79.0  41 
 PAM  EN ES       10 4 18.17                             150   -0.0510 79.0  41 
 PAM  EZ I        10 4 20.10        13.3 0.48            151           79.0  41 
 RUS  HZ EP       10 4  2.14                             144   -0.1910  101 175 
 RUS  HN ES       10 4 20.63                             144   -0.1710  101 175 
 RUS  HZ I        10 4 21.75        12.0 0.30            145            101 175 
 SPBC HZ EP       10 4  6.82                             129   -0.12 9  162 218 
 SPBC HN ES       10 4 28.27                             129   -0.74 9  162 218 
 SPBC HZ I        10 4 31.32        16.6 0.22            129            162 218 
 YPLC HZ EP       10 4  8.27                             126   -0.21 9  178 151 
 YPLC HN ES       10 4 32.23                             126    0.48 9  178 151 
 YPLC HZ I        10 4 33.22        13.6 0.26            127            178 151 
 ZAR  HZ EP       10 4 10.77                             122   -0.06 9  202 292 
 ZAR  HN ES       10 4 35.62                             122   -0.32 9  202 292 
 ZAR  HZ I        10 4 44.84         7.0 0.16            121            202 292 
 NOR  HZ EP       10 4 14.25                             118    0.13 8  233 234 
 NOR  HN ES       10 4 41.36                             118   -0.44 8  233 234 
 NOR  HZ I        10 4 47.04         7.3 0.36            118            233 234 
 CHI  HZ EP       10 4 16.28                             117    0.06 8  248 195 
 CHI  HN ES       10 4 45.83                             117    0.30 8  248 195 
 CHI  HZ I        10 4 48.60         3.4 0.40            117            248 195 
 ROSC BZ EP   4   10 4 18.43                             117    1.85 0  251 211 
 HEL  HZ EP   4   10 4 19.79                             115    1.22 0  270 256 
 HEL  HN ES   4   10 4 48.63                             115   -1.08 0  270 256 
 HEL  HZ I        10 4 57.99         5.8 0.30            114            270 256 
 GUY2CHZ EP   4   10 4 23.30                             112    1.30 0  299 235 
 GUY2CHN ES       10 4 56.22                             112    0.40 7  299 235 
 GUY2CHZ I        10 5  3.11         4.2 0.30                           299 235 
 PTGC HZ EP   9   10 4 21.10                             111   -1.44 0  309 158 
 PTGC HN ES       10 4 54.60                                   -0.74 7  309 158 
 PTGC HZ I        10 4 59.32         5.3 0.26            112            309 158 
 ORTC HZ EP       10 4 32.98                             106    0.62 6  394 216 
 ORTC HN ES       10 5 14.96                             106    0.69 6  394 216 
 ORTC HZ I        10 5 21.74         3.3 0.36            106            394 216 
 SJC  HZ EP   4   10 4 32.21                             105   -1.84 0  408 327 
 SJC  HN ES   4   10 5 12.93                             105   -4.34 0  408 327 
                                                                                
