 2010 11 9 1342  0.0 L   7.426 -73.235129.5  RSN  4 0.1 1.7LRSN                1
 GAP=167        0.31       4.5     6.0  6.6 -0.1578E+02  0.1358E+01 -0.2828E+01E
 Epicentro: EL PLAYON - SANTANDER                                              3
 ACTION:UP  10-12-17 16:51 OP:REBC STATUS:               ID:20101109134200 L   I
 2010-11-09-1338-07S.COL___128                                                 6
 STAT SP IPHASW D HRMM SECON CODA AMPLIT PERI AZIMU VELO SNR AR TRES W  DIS CAZ7
 BTL  SZ EP   2   1342 19.00                             155     0.1 5   56 184 
 BRR  HZ EP   2   1342 18.82                             152    -0.1 5   63 236 
 BRR  HZ I        1342 32.57        11.5 0.43                            63 236 
 BRR  HE ES   2   1342 33.79                             152     0.1 5   63 236 
 GRA  SZ EP   2   1342 19.60                             150     0.1 5   70  43 
 GRA  SZ I        1342 20.72         9.3 0.30                            70  43 
 GRA  SZ ES   2   1342 34.75                             150     0.0 5   70  43 
 BAR2 SZ ES   2   1342 37.72                             142     0.0 5   92 176 
 BAR2 SZ I        1342 38.53        10.7 0.42                            92 176 
                                                                                
