 2011  1 9 1243  7.7 L   6.732 -73.167141.0  RSN  6 0.3 1.5LRSN                1
 GAP=180        0.57       4.3     8.9  8.5 -0.7471E+01  0.2611E+02 -0.2934E+01E
 Epicentro: VILLANUEVA - SANTANDER                                             3
 ACTION:UP  11-02-08 08:39 OP:pat  STATUS:               ID:20110109124307 L   I
 2011-01-09-1240-00M.COL___136                                                 6
 STAT SP IPHASW D HRMM SECON CODA AMPLIT PERI AZIMU VELO SNR AR TRES W  DIS CAZ7
 BAR2 SZ EP   2   1243 25.87                             173    -0.7 5   16 187 
 BAR2 SZ ES   2   1243 41.32                             173     0.0 5   16 187 
 BAR2 SZ I        1243 44.30         8.7 0.39                            16 187 
 BTL  SZ EP       1243 26.66                             170    -0.110   23 332 
 RUS  HZ EP   1   1243 30.38                             145    -0.1 7   93 174 
 RUS  HE ES   2   1243 48.72                             145     0.5 5   93 174 
 RUS  HZ I        1243 50.04         2.7 0.22                            93 174 
 OCA  SZ EP   2   1243 36.48                             127     0.2 5  168 354 
 OCA  SZ ES   2   1243 59.06                             127     0.4 5  168 354 
 OCA  SZ I        1244  5.00         7.1 0.12                           168 354 
 NOR  SZ EP   2   1243 42.82                             118     0.3 4  229 236 
 NOR  SN ES   2   1244  9.42                             118    -0.2 4  229 236 
 CHI  HZ EP   2   1243 44.49                             117     0.2 4  241 195 
 CHI  HZ I        1244 22.79         1.8 0.48                           241 195 
                                                                                
