 2014  5 9 1215  6.8 L   6.962 -73.191147.8  RSN  7 0.4 1.6LRSN                1
 GAP=122        0.79       3.1     4.1  7.3 -0.7940E+00  0.1284E+02 -0.5022E+01E
 Epicentro: BETULIA - SANTANDER                                                3
 OLDACT:UP  14-05-09 22:58 OP:mh   STATUS:               ID:20140509120818     3
 OLDACT:UP  14-05-09 22:57 OP:mh   STATUS:               ID:20140509120818     3
 OLDACT:UP  14-05-09 22:57 OP:mh   STATUS:               ID:20140509120818     3
 OLDACT:UP  14-05-09 22:54 OP:mh   STATUS:               ID:20140509120818     3
 OLDACT:UP  14-05-09 22:49 OP:mh   STATUS:               ID:20140509120818     3
 OLDACT:REG 14-05-09 20:35 OP:stll STATUS:               ID:20140509120818     3
 ACTION:UPD 15-03-16 16:56 OP:nd   STATUS:               ID:20140509121506 L   I
 OLDACT:UP  14-05-09 23:20 OP:mh   STATUS:               ID:20140509120818     3
 2014-05-09-1208-18M.COL___242                                                 6
 STAT SP IPHASW D HRMM SECON CODA AMPLIT PERI AZIMU VELO AIN AR TRES W  DIS CAZ7
 PAM  SZ EP       1215 29.29                             154    0.5210 68.5  52 
 PAM  SN ES       1215 45.88                             154   -0.0010 68.5  52 
 PAM  SZ I        1215 47.65         7.9 0.38            159           68.5  52 
 RUS  HZ EP       1215 32.16                             139   -0.0110  119 174 
 RUS  HN ES       1215 51.42                             139   -0.5110  119 174 
 PTB  HZ EP       1215 34.20                             132    0.25 9  147 252 
 PTB  HN ES   1   1215 55.27                             132    0.17 7  147 252 
 PTB  SZ I        1215 57.83         4.2 0.22            134            147 252 
 PTB  HZ I        1215 59.01         4.5 0.08                           147 252 
 ZAR  HN ES   1   1216  2.49                             124   -0.38 7  193 288 
 ZAR  HZ I        1216 11.99         6.2 0.28            126            193 288 
 SML  HZ EP       1215 41.53                             120   -0.09 8  225 335 
 SML  HN ES       1216  8.79                             120    0.04 8  225 335 
 NOR  HN ES   1   1216 12.34                             118    0.36 6  242 230 
 SJC  HZ EP       1215 59.60                             107   -0.79 6  392 326 
 SJC  HN ES   4   1216 39.00                             107   -3.17 0  392 326 
                                                                                
