 2012 10 9 1428 34.1 L   6.780 -73.122144.0  RSN  7 0.3 2.2LRSN 2.7WRSN        1
 SPEC AVERAGE  MO 13.2 ST  2.2 OM  2.7 f0 3.91 R0.4046 AL 1.94 WI 16.3 MW  2.7 3
 SPEC SD       MO  0.2 ST  2.1 OM  1.2 f0 1.09 R0.1044 AL      WI      MW  0.1 3
 GAP= 95        0.55       3.5     3.8  4.9  0.1252E+01 -0.2873E+01  0.5412E-01E
 Epicentro: LOS SANTOS - SANTANDER                                             3
 SPEC RUS HH N MO 12.9 ST0.241 OM  1.3 f0 2.78 R0.5288 AL 1.52 WI 13.4 MW  2.5 3
 SPEC RUS HH N T142915 K 0.000 GD  174 VS 4.20 DE 3.00 Q0230.0 QA 0.60 VS 4.20 3
 SPEC PAM SH N MO 13.3 ST  1.2 OM  1.7 f0 3.57 R0.4118 AL 2.63 WI 10.6 MW  2.8 3
 SPEC PAM SH N T142913 K 0.000 GD  163 VS 4.20 DE 3.00 Q0230.0 QA 0.60 VS 4.20 3
 SPEC BRR HH N MO 13.4 ST  5.1 OM  1.8 f0 5.38 R0.2732 AL 1.66 WI 25.0 MW  2.9 3
 SPEC BRR HH N T142912 K 0.000 GD  162 VS 4.20 DE 3.00 Q0230.0 QA 0.60 VS 4.20 3
 ACTION:UPD 12-11-22 17:02 OP:ep   STATUS:               ID:20121009142834 L   I
 2012-10-09-1420-00M.COL___223                                                 6
 STAT SP IPHASW D HRMM SECON CODA AMPLIT PERI AZIMU VELO AIN AR TRES W  DIS CAZ7
 BAR2 SZ EP       1428 53.30                             171   -0.1410 21.8 198 
 BAR2 SZ ES   1   1429  8.37                             171   -0.20 7 21.8 198 
 BAR2 SZ I        1429 11.00        37.9 0.18                          21.8 198 
 GIR2 SZ EP   3   1428 52.80                             166   -0.80 2 34.0 347 
 GIR2 SZ ES   3   1429  8.08                             166   -0.76 2 34.0 347 
 BRR  HZ EP       1428 55.48                             151    0.2710 74.6 299 
 BRR  HN ES   2   1429 12.45                             151    0.74 5 74.6 299 
 BRR  HN I        1429 13.07        73.4 0.22                          74.6 299 
 PAM  SZ EP       1428 55.98                             150   -0.1110 77.5  37 
 PAM  SZ I        1428 56.50        26.3 0.44                          77.5  37 
 PAM  SN ES   1   1429 13.21                             150   -0.07 7 77.5  37 
 RUS  HZ EP       1428 57.28                             144   -0.1810 98.2 177 
 RUS  HZ I        1428 58.41         7.4 0.48                          98.2 177 
 RUS  HN ES   1   1429 15.89                             144    0.17 7 98.2 177 
 TAM  HZ EP       1429  1.53                             131    0.22 9  152 104 
 TAM  HE ES   3   1429 22.89                             131    0.33 2  152 104 
 TAM  HE I        1429 24.55        23.3 0.64                           152 104 
 ZAR  HN ES   2   1429 31.75                             121   -0.45 4  207 292 
 ZAR  HN I        1429 38.40        19.4 0.16                           207 292 
                                                                                
