 2013  5 9 1221 55.2 L   6.868 -73.146151.3  RSN 12 0.4 2.1LRSN                1
 GAP=133        0.83       3.4     4.4  5.9 -0.6167E+00  0.6323E+01  0.1780E+01E
 Epicentro: LOS SANTOS - SANTANDER                                             3
 ACTION:UPD 13-06-20 09:49 OP:ep   STATUS:               ID:20130509122155 L   I
 2013-05-09-1220-00M.COL___256                                                 6
 STAT SP IPHASW D HRMM SECON CODA AMPLIT PERI AZIMU VELO AIN AR TRES W  DIS CAZ7
 GIR2 SZ EP   1   1222 15.37                             171   -0.01 7 23.9 347 
 GIR2 SZ ES   2   1222 31.51                             171    0.40 5 23.9 347 
 BAR2 SZ EP       1222 15.51                             168   -0.1810 30.8 188 
 BAR2 SZ I        1222 16.15        14.7 0.18            164           30.8 188 
 BAR2 SZ ES   1   1222 32.00                             168    0.35 7 30.8 188 
 BRR  HZ EP       1222 17.05                             155    0.2510 67.9 293 
 BRR  HN ES       1222 33.82                             155    0.1910 67.9 293 
 BRR  HZ I        1222 35.79        30.1 0.24            151           67.9 293 
 PAM  SZ EP   1   1222 18.34                             153    0.63 7 71.7  43 
 PAM  SE ES   1   1222 34.90                             153   -0.35 7 71.7  43 
 PAM  SZ I        1222 37.01        27.5 0.34            158           71.7  43 
 RUS  HZ EP   2   1222 20.12                             143    0.06 5  108 176 
 RUS  HN ES   1   1222 38.71                             143   -0.73 7  108 176 
 RUS  HZ I        1222 42.35         5.2 0.62            141            108 176 
 PTB  HZ EP     C 1222 22.06                             133   -0.73 9  149 256 
 PTB  HN ES   1   1222 43.93                             133   -0.37 7  149 256 
 PTB  HZ I        1222 46.60        15.2 0.62            130            149 256 
 ZAR  HZ EP   4   1222 29.88                             124    2.12 0  201 290 
 ZAR  HN ES   1   1222 53.49                             124    0.35 6  201 290 
 ZAR  HZ I        1222 58.39        19.5 0.38            122            201 290 
 SML  HZ EP   1   1222 31.54                             119    0.11 6  237 335 
 SML  HN ES   1   1222 59.42                             119   -0.26 6  237 335 
 SML  HZ I        1223  2.93        20.4 0.28            119            237 335 
 NOR  HZ EP   2   1222 32.03                             119    0.28 4  239 233 
 NOR  HN ES   1   1223  0.07                             119   -0.18 6  239 233 
 NOR  HZ I        1223  5.93         8.7 0.16            118            239 233 
 CHI  HE ES   1   1223  5.21                             117    0.93 6  256 195 
 CHI  HZ I        1223  9.36         6.3 0.28            117            256 195 
 HEL  HZ EP   4   1222 38.34                             116    2.40 0  274 254 
 HEL  HN ES   4   1223  9.34                             116    1.65 0  274 254 
 HEL  HZ I        1223 14.87         9.0 0.50            114            274 254 
 PRA  HZ EP   2   1222 50.06                             107    0.36 3  399 209 
 PRA  HN ES   1   1223 32.59                             107    0.39 4  399 209 
 PRA  HZ I        1223 41.32         6.8 0.34            107            399 209 
                                                                                
