 2012  8 9 1357 23.0 L   6.787 -73.147140.5  RSN 11 0.4 2.4LRSN 3.1WRSN        1
 SPEC AVERAGE  MO 13.8 ST  8.5 OM  6.7 f0 4.59 R0.3203 AL 1.58 WI  7.6 MW  3.1 3
 SPEC SD       MO  0.0 ST0.000 OM  4.5 f00.000 R0.0000 AL      WI      MW  0.0 3
 GAP=114        0.80       3.8     3.7  5.6  0.2917E+01  0.5771E+01  0.8156E+01E
 Epicentro: LOS SANTOS - SANTANDER                                             3
 SPEC RUS HH N MO 13.8 ST  8.5 OM  2.2 f0 4.59 R0.3203 AL 1.58 WI  7.6 MW  3.1 3
 SPEC RUS HH N T1358 3 K 0.000 GD  171 VS 4.20 DE 3.00 Q0230.0 QA 0.60 VS 4.20 3
 ACTION:UPD 12-09-10 11:55 OP:ep   STATUS:               ID:20120809135723 L   I
 2012-08-09-1350-00M.COL___219                                                 6
 STAT SP IPHASW D HRMM SECON CODA AMPLIT PERI AZIMU VELO AIN AR TRES W  DIS CAZ7
 BAR2 SZ EP   1   1357 41.91                             171   -0.03 7 21.9 190 
 BAR2 SZ ES   1   1357 56.70                             171   -0.04 7 21.9 190 
 BAR2 SZ I        1357 58.12       167.8 0.16                          21.9 190 
 GIR2 SZ EP       1357 42.02                             166   -0.0410 32.7 351 
 GIR2 SZ ES   1   1357 57.05                             166    0.10 7 32.7 351 
 BRR  HZ EP       1357 43.79                             151    0.2010 71.8 300 
 BRR  HN ES   1   1358  0.36                             151    0.69 7 71.8 300 
 BRR  HZ I        1358  5.18        60.0 0.21                          71.8 300 
 PAM  SZ EP   1   1357 44.94                             149    0.24 7 78.6  39 
 PAM  SN ES   1   1358  1.01                             149   -0.64 7 78.6  39 
 RUS  HZ EP   1   1357 45.86                             143   -0.25 7 99.2 176 
 RUS  HN ES   1   1358  3.80                             143   -0.35 7 99.2 176 
 RUS  HZ I        1358  5.69        39.7 0.32                          99.2 176 
 PTB  HZ EP   1   1357 48.63                             131   -0.85 7  147 259 
 PTB  HN ES   1   1358  9.69                             131   -0.47 7  147 259 
 PTB  HZ I        1358 12.46        18.2 0.15                           147 259 
 YOP  SZ EP   1   1357 52.69                             125    0.17 7  178 153 
 YOP  SN ES   1   1358 16.38                             125    0.82 7  178 153 
 YOP  SZ I        1358 19.56        35.4 0.37                           178 153 
 ZAR  HN ES   1   1358 20.43                             121    0.22 6  205 293 
 CHI  HZ EP   1   1358  0.10                             116   -0.13 6  247 195 
 CHI  HZ I        1358  2.65         9.4 0.23                           247 195 
 HEL  HZ EP   1   1358  3.53                             114    0.66 6  272 256 
 HEL  HN ES   1   1358 34.09                             114    0.09 6  272 256 
 PRA  HZ EP   1   1358 15.66                             106   -0.51 4  391 210 
 PRA  HN ES   1   1358 57.74                             106    0.09 4  391 210 
                                                                                
