 2012  4 9 1125 50.9 L   6.756 -73.141142.4  RSN 13 0.3 2.4LRSN                1
 GAP=139        0.75       2.6     3.3  4.4 -0.1879E+01  0.4907E+01  0.1644E+01E
 Epicentro: LOS SANTOS - SANTANDER                                             3
 ACTION:UPD 12-07-05 11:52 OP:tino STATUS:               ID:20120409112550 L   I
 2012-04-09-1120-00M.COL___196                                                 6
 STAT SP IPHASW D HRMM SECON CODA AMPLIT PERI AZIMU VELO AIN AR TRES W  DIS CAZ7
 BAR2 SZ EP       1126 10.11                             172     0.110   19 194 
 BAR2 SZ ES       1126 24.98                             172     0.110   19 194 
 BAR2 SZ I        1126 29.26        68.4 0.36                            19 194 
 BRR  HZ EP       1126 12.06                             151     0.310   74 302 
 BRR  HE ES   1   1126 29.04                             151     0.9 7   74 302 
 BRR  HZ I        1126 30.02        47.4 0.12                            74 302 
 PAM  SZ EP       1126 13.01                             149     0.110   81  37 
 PAM  SN ES       1126 29.79                             149    -0.310   81  37 
 RUS  HZ EP       1126 13.98                             144     0.110   96 176 
 RUS  HN ES   1   1126 31.54                             144    -0.4 7   96 176 
 RUS  HZ I        1126 33.92        27.5 0.29                            96 176 
 PTB  HZ EP       1126 17.21                             131    -0.3 9  147 261 
 PTB  HN ES   1   1126 37.93                             131    -0.4 7  147 261 
 OCA  SZ EP       1126 19.35                             128     0.0 9  165 353 
 OCA  SZ ES   1   1126 41.50                             128    -0.1 7  165 353 
 ZAR  HZ EP   1   1126 22.88                             121    -0.4 6  206 293 
 ZAR  HE ES   1   1126 48.28                             121    -0.4 6  206 293 
 ZAR  HZ I        1126 53.68        35.6 0.30                           206 293 
 NOR  SZ EP   1   1126 26.19                             118     0.1 6  232 236 
 NOR  SE ES   1   1126 53.40                             118    -0.3 6  232 236 
 CHI  HZ EP   1   1126 28.09                             117     0.2 6  244 196 
 CHI  HN ES   1   1126 57.10                             117     0.4 6  244 196 
 CHI  HZ I        1127  3.34        13.6 0.60                           244 196 
 HEL  HZ EP   1   1126 31.22                             114     0.4 6  271 257 
 HEL  HE ES   1   1127  2.45                             114     0.4 6  271 257 
 HEL  HZ I        1127  7.59        12.7 0.41                           271 257 
 RREF HZ EP   1   1126 36.54                             110     0.0 5  319 230 
 RREF HE ES   1   1127 11.84                             110    -0.3 5  319 230 
 RREF HZ I        1127 18.80        20.9 0.45                           319 230 
 TOL  SZ EP   1   1126 39.23                             109     0.6 5  340 225 
 PRA  HZ EP   1   1126 43.55                             106    -0.2 4  388 210 
 PRA  HN ES   1   1127 24.67                             106    -0.4 4  388 210 
                                                                                
