 2016  6 9 1734 21.1 L   6.787 -73.142142.7  RSN  9 0.4 2.0LRSN                1
 GAP=138        0.91       3.0     4.2  5.4 -0.2763E+01  0.9036E+01 -0.1155E+01E
 Epicentro: LOS SANTOS - SANTANDER                                             3
 ACTION:UPD 16-07-21 22:17 OP:rebc STATUS:               ID:20160609173421 L   I
 OLDACT:UP  16-06-10 00:23 OP:edw  STATUS:               ID:20160609172747d    3
 OLDACT:DUP 16-06-10 00:18 OP:edw  STATUS:               ID:20160609172747d    3
 2016-06-09-1727-46M.COL___343                                                 6
 STAT SP IPHASW D HRMM SECON CODA AMPLIT PERI AZIMU VELO AIN AR TRES W  DIS CAZ7
 BAR2 EZ EP       1734 40.42                             171    0.1110 22.0 192 
 BAR2 EZ ES       1734 54.81                             171   -0.5010 22.0 192 
 BRR  HZ EP       1734 42.04                             152    0.0910 72.3 299 
 BRR  HE ES       1734 58.72                             152    0.4810 72.3 299 
 BRR  HZ I        1735  0.82        28.2 0.16                          72.3 299 
 PAM  EZ EP       1734 43.25                             150    0.2410 78.2  39 
 PAM  EE ES       1735  0.13                             150   -0.0010 78.2  39 
 PAM  EZ I        1735  2.58        14.1 0.66                          78.2  39 
 RUS  HZ EP       1734 44.61                             144    0.2010 99.1 176 
 RUS  HE ES       1735  2.92                             144    0.3010 99.1 176 
 RUS  HZ I        1735  3.64         6.4 0.18                          99.1 176 
 PTB  HZ EP       1734 47.50                             131   -0.30 9  148 259 
 PTB  HN ES   4   1735  8.15                             131   -0.51 0  148 259 
 PTB  HZ I        1735  9.86        13.3 0.46                           148 259 
 OCA  HZ EP       1734 48.82                             129   -0.47 9  162 353 
 SPBC HZ EP       1734 48.53                             128   -0.72 9  162 219 
 SPBC HN ES       1735 10.98                             128   -0.26 9  162 219 
 SPBC HZ I        1735 14.67        15.5 0.16                           162 219 
 OCA  HN ES       1735 11.22                             129   -0.08 9  162 353 
 NOR  HZ EP       1734 57.06                             118    0.49 8  234 235 
 NOR  HE ES       1735 24.43                             118    0.17 8  234 235 
 NOR  HZ I        1735 29.21         7.9 0.26                           234 235 
 URE  HZ EP       1735  2.75                             113    0.65 7  285 292 
 URE  HN ES       1735 33.83                             113   -0.28 7  285 292 
 GUY2CHZ EP   4   1735  5.62                             112    1.14 0  301 235 
 GUY2CHE ES   4   1735 38.59                             112    0.24 0  301 235 
                                                                                
