 2013  3 9 1106 59.3 L   6.748 -73.117149.3  RSN  5 0.3 1.9LRSN                1
 GAP=168        0.82       7.4     4.4  6.2 -0.9840E+01  0.6035E+01  0.7089E-01E
 Epicentro: LOS SANTOS - SANTANDER                                             3
 ACTION:UPD 13-04-09 14:01 OP:ep   STATUS:               ID:20130309110659 L   I
 2013-03-09-1100-00M.COL___231                                                 6
 STAT SP IPHASW D HRMM SECON CODA AMPLIT PERI AZIMU VELO AIN AR TRES W  DIS CAZ7
 BAR2 SZ EP       11 7 19.42                             173    0.1910 18.7 203 
 BAR2 SZ ES       11 7 34.52                             173   -0.2910 18.7 203 
 BAR2 SZ I        11 7 36.17        19.1 0.25            170           18.7 203 
 BRR  HZ EP       11 7 21.29                             151    0.1810 76.8 301 
 BRR  HE ES       11 7 38.60                             151    0.4510 76.8 301 
 BRR  HZ I        11 7 43.69        14.4 0.34            146           76.8 301 
 PAM  SZ EP       11 7 22.31                             150    0.3110 80.0  35 
 PAM  SN ES       11 7 39.38                             150   -0.3710 80.0  35 
 PAM  SZ I        11 7 40.63         6.2 0.17            151           80.0  35 
 PTB  HZ EP       11 7 26.29                             132   -0.41 9  150 261 
 PTB  HE ES       11 7 48.28                             132    0.17 9  150 261 
 PTB  HZ I        11 7 52.88         8.4 0.21            132            150 261 
 ZAR  HZ EP   1   11 7 32.43                             122   -0.03 6  209 293 
 ZAR  HE ES   1   11 7 57.74                             122   -0.62 6  209 293 
 ZAR  HZ I        11 8  4.51         9.2 0.42            122            209 293 
                                                                                
