 2010  7 9 1526 19.6 L   6.818 -73.075146.0  RSN  4 0.2 1.2LRSN                1
 GAP=172        0.42       4.5     9.2  7.4  0.1732E+02 -0.3318E+02 -0.1415E+02E
 Epicentro: LOS SANTOS - SANTANDER                                             3
 ACTION:UPD 10-12-01 15:16 OP:pat  STATUS:               ID:20100709152619 L   I
 2010-07-09-1521-47S.COL___120                                                 6
 STAT SP IPHASW D HRMM SECON CODA AMPLIT PERI AZIMU VELO AIN AR TRES W  DIS CAZ7
 BAR2 SZ EP   1   1526 39.25                             169    -0.1 7   28 206 
 BAR2 SZ ES   2   1526 54.45                             169    -0.3 5   28 206 
 BRR  HZ EP   1   1526 41.03                             151    -0.1 7   77 294 
 BRR  HE ES   2   1526 58.16                             151     0.2 5   77 294 
 RUS  HZ EP   1   1526 43.51                             143     0.0 7  102 181 
 RUS  HN ES   2   1527  2.51                             143     0.3 5  102 181 
 RUS  HZ I        1527  3.14         2.6 0.35                           102 181 
 GUE  SZ EP   1   1526 44.24                             140     0.2 7  113   8 
                                                                                
