 2014  7 9 1921 54.3 L   6.790 -73.241142.0  RSN  4 0.3 1.6LRSN                1
 GAP=192        0.68       3.6     5.5  6.6  0.8317E+01 -0.3795E+01 -0.7394E+01E
 Epicentro: ZAPATOCA - SANTANDER                                               3
 ACTION:UPD 15-03-16 20:42 OP:nd   STATUS:               ID:20140709192154 L   I
 OLDACT:UP  14-07-10 00:11 OP:cam  STATUS:               ID:20140709192000     3
 OLDACT:REG 14-07-09 20:48 OP:cam  STATUS:               ID:20140709192000     3
 2014-07-09-1920-00M.COL___282                                                 6
 STAT SP IPHASW D HRMM SECON CODA AMPLIT PERI AZIMU VELO AIN AR TRES W  DIS CAZ7
 BRR  HN ES       1922 30.73                             155    0.3710 62.8 304 
 RUS  HZ EP   1   1922 17.86                             143    0.21 7  101 170 
 RUS  HN ES       1922 35.67                             143   -0.2210  101 170 
 RUS  HZ I        1922 36.56         5.5 0.18            143            101 170 
 PTB  HZ EP       1922 19.97                             134    0.00 9  137 258 
 PTB  HN ES       1922 39.91                             134   -0.11 9  137 258 
 PTB  HZ I        1922 42.96         6.3 0.20            132            137 258 
 SML  HZ EP   1   1922 30.70                             117    0.37 6  241 338 
 SML  HN ES       1922 57.98                             117   -0.49 8  241 338 
                                                                                
