 2013  7 9 1256 21.2 L   6.753 -73.181147.6  RSN  6 0.3 1.8LRSN                1
 GAP=105        0.72       5.0     4.0  5.3  0.6813E+01 -0.4933E+01 -0.3890E+01E
 Epicentro: VILLANUEVA - SANTANDER                                             3
 ACTION:UPD 13-08-12 10:36 OP:ep   STATUS:               ID:20130709125621 L   I
 OLDACT:DUP 13-07-09 16:58 OP:stll STATUS:               ID:20130709124850d    3
 2013-07-09-1248-49M.COL___228                                                 6
 STAT SP IPHASW D HRMM SECON CODA AMPLIT PERI AZIMU VELO AIN AR TRES W  DIS CAZ7
 BAR2 SZ EP       1256 40.84                             173   -0.1510 17.8 180 
 BAR2 SZ I        1256 41.32         8.5 0.18            172           17.8 180 
 BAR2 SZ ES       1256 56.30                             173   -0.1010 17.8 180 
 GIR2 SZ EP       1256 40.93                             166   -0.3310 36.0 358 
 BRR  HZ IP     D 1256 42.79                             153    0.2410 70.5 304 
 BRR  HN ES       1256 59.50                             153    0.3310 70.5 304 
 BRR  HN I        1257  2.73        18.1 0.22            151           70.5 304 
 RUS  HZ EP       1256 45.33                             146    0.5010 95.8 173 
 RUS  HN ES       1257  3.22                             146   -0.0210 95.8 173 
 RUS  HN I        1257  3.88         7.2 0.28            147           95.8 173 
 PTB  HZ EP       1256 47.89                             133   -0.04 9  143 261 
 PTB  HN ES       1257  8.42                             133   -0.32 9  143 261 
 PTB  HN I        1257 14.00         9.9 0.32            132            143 261 
 TAM  HZ EP       1256 49.13                             130   -0.17 9  158 103 
                                                                                
