 2017  7 9 1907 46.2 L   6.782 -73.111140.0  RSN  5 0.3 1.8LRSN                1
 GAP=282        0.73       4.1     6.7  7.0 -0.3012E+01 -0.8756E+01  0.6920E+01E
 Epicentro: LOS SANTOS - SANTANDER                                             3
 ACTION:UPD 17-08-30 15:31 OP:rebc STATUS:               ID:20170709190746 L   I
 OLDACT:REG 17-07-09 21:17 OP:dhb  STATUS:               ID:20170709184445     3
 2017-07-09-1858-00M.COL___383                                                 6
 STAT SP IPHASW D HRMM SECON CODA AMPLIT PERI AZIMU VELO AIN AR TRES W  DIS CAZ7
 BRR  HZ IP     C 19 8  6.91                             150   -0.0510 75.5 298 
 BRR  HE ES       19 8 23.34                             150    0.1710 75.5 298 
 BRR  HZ I        19 8 24.10        13.0 0.13            147           75.5 298 
 PTB  HZ EP       19 8 12.31                             130   -0.68 9  151 260 
 PTB  HN ES       19 8 33.74                             130   -0.17 9  151 260 
 PTB  HZ I        19 8 36.15         4.4 0.15            128            151 260 
 SPBC HZ EP       19 8 14.37                             128    0.05 9  164 220 
 SPBC HN ES       19 8 36.36                             128    0.08 9  164 220 
 SPBC HZ I        19 8 41.33         7.2 0.09            126            164 220 
 ZAR  HZ EP       19 8 19.18                             120    0.48 8  208 292 
 ZAR  HE ES       19 8 43.99                             120   -0.07 8  208 292 
 ZAR  HZ I        19 8 49.10         9.4 0.52            120            208 292 
 GUY2CHZ EP   2   19 8 30.27                             111    0.52 4  303 235 
 GUY2CHN ES       19 9  4.01                             111    0.27 7  303 235 
 GUY2CHZ I        19 9 10.61         3.3 0.26                           303 235 
                                                                                
