 2011  9 9 1026 44.3 L   6.786 -73.114140.7  RSN  5 0.3 1.6LRSN                1
 GAP=193        0.69       8.4     9.8  6.1  0.6573E+02  0.1970E+01 -0.5586E+01E
 Epicentro: LOS SANTOS - SANTANDER                                             3
 ACTION:UPD 12-07-13 15:56 OP:ep   STATUS:               ID:20110909102644 L   I
 2011-09-09-1020-00M.COL___171                                                 6
 STAT SP IPHASW D HRMM SECON CODA AMPLIT PERI AZIMU VELO AIN AR TRES W  DIS CAZ7
 BAR2 SZ EP   1   1027  3.15                             170   -0.12 7 22.7 199 
 BAR2 SZ ES       1027 17.97                             170   -0.1310 22.7 199 
 BAR2 SZ I        1027 19.32         8.3 0.27                          22.7 199 
 GIR2 SZ EP   2   1027  3.18                             166   -0.22 5 33.6 345 
 BRR  HZ EP       1027  4.93                             150   -0.1610 75.0 298 
 BRR  HZ I        1027  5.21         9.0 0.33                          75.0 298 
 BRR  HE ES   1   1027 21.90                             150    0.56 7 75.0 298 
 RUS  HZ EP       1027  7.45                             143    0.0610 98.8 178 
 RUS  HE ES   1   1027 25.48                             143    0.05 7 98.8 178 
 ZAR  HZ EP   1   1027 17.42                             121    0.64 6  208 292 
 ZAR  HE ES   1   1027 41.54                             121   -0.61 6  208 292 
 ZAR  HZ I        1027 46.99         2.9 0.04                           208 292 
                                                                                
