 2012  2 9 1412 39.4 L   6.842 -73.092144.4  RSN  4 0.3 1.5LRSN                1
 GAP=249        0.67       9.0     7.0  8.2  0.4117E+02 -0.1010E+00 -0.2669E+02E
 ACTION:UP  12-03-07 16:28 OP:epov STATUS:               ID:20120209141239 L   I
 2012-02-09-1410-00M.COL___188                                                 6
 STAT SP IPHASW D HRMM SECON CODA AMPLIT PERI AZIMU VELO AIN AR TRES W  DIS CAZ7
 BAR2 SZ EP   1   1412 59.35                             168    0.37 7 29.3 200 
 BAR2 SZ ES   1   1413 13.96                             168   -0.31 7 29.3 200 
 BAR2 SZ I        1413 17.30         7.4 0.15                          29.3 200 
 RUS  HZ EP   1   1413  2.93                             142   -0.38 7  105 179 
 RUS  HN ES   1   1413 22.34                             142    0.35 7  105 179 
 RUS  HZ I        1413 24.87         3.5 0.26                           105 179 
 PTB  HZ EP   1   1413  7.09                             130    0.24 7  154 258 
 PTB  HN ES   1   1413 27.98                             130   -0.30 7  154 258 
 PTB  HZ I        1413 34.33         0.0 0.23                           154 258 
 ZAR  HZ EP   1   1413 11.75                             121   -0.38 6  208 290 
 ZAR  HN ES   1   1413 38.06                             121    0.39 6  208 290 
 ZAR  HZ I        1413 44.27         3.2 0.15                           208 290 
                                                                                
