 2013  8 9 1520 42.4 L   6.777 -73.195136.0  RSN  4 0.3 1.7LRSN                1
 GAP=142        0.64       3.9     3.9  7.1 -0.5384E+01  0.3854E+01 -0.2991E+01E
 Epicentro: VILLANUEVA - SANTANDER                                             3
 ACTION:UPD 14-01-14 09:00 OP:ep   STATUS:               ID:20130809152042 L   I
 OLDACT:REG 13-08-09 16:37 OP:mh   STATUS:               ID:20130809151959     3
 2013-08-09-1519-59M.COL___268                                                 6
 STAT SP IPHASW D HRMM SECON CODA AMPLIT PERI AZIMU VELO AIN AR TRES W  DIS CAZ7
 BAR2 SZ EP   1   1521  0.96                             171    0.17 7 20.5 176 
 BAR2 SZ ES   1   1521 15.71                             171    0.57 7 20.5 176 
 BAR2 SZ I        1521 16.96         5.7 0.20            171           20.5 176 
 PAM  SZ EP       1521  4.03                             147    0.1010 82.8  41 
 PAM  SN ES       1521 20.50                             147   -0.2310 82.8  41 
 PAM  SN I        1521 21.61        10.2 0.24            151           82.8  41 
 RUS  HZ EP   1   1521  5.19                             142    0.15 7 98.6 173 
 RUS  HN ES       1521 22.43                             142   -0.2810 98.6 173 
 RUS  HN I        1521 24.97         8.0 0.34            144           98.6 173 
 PTB  HN ES       1521 27.94                             131   -0.11 9  142 259 
 PTB  HN I        1521 31.21        11.9 0.18            132            142 259 
                                                                                
