 2016  8 9 1026 25.6 L   6.763 -73.140138.3  RSN 19 0.4 2.3LRSN                1
 GAP= 66        0.94       2.6     2.5  4.4 -0.8913E+00  0.2919E+01  0.1082E+01E
 Epicentro: LOS SANTOS - SANTANDER                                             3
 ACTION:UPD 16-10-29 15:34 OP:rebc STATUS:               ID:20160809102625 L   I
 OLDACT:DUP 16-08-09 20:08 OP:lv   STATUS:               ID:20160809101760d    3
 OLDACT:REG 16-08-09 19:40 OP:lv   STATUS:               ID:20160809101759     3
 2016-08-09-1017-59S.COL___343                                                 6
 STAT SP IPHASW D HRMM SECON CODA AMPLIT PERI AZIMU VELO AIN AR TRES W  DIS CAZ7
 BAR2 EZ IP     C 1026 44.03                             172   -0.2310 19.5 194 
 BAR2 EZ ES       1026 58.79                             172   -0.0310 19.5 194 
 BAR2 EZ I        1027  0.07        40.5 0.16                          19.5 194 
 BRR  HZ EP       1026 45.93                             150   -0.1810 73.8 301 
 BRR  HE ES       1027  2.97                             150    0.8810 73.8 301 
 BRR  HZ I        1027  7.20        37.9 0.10                          73.8 301 
 PAM  EZ EP       1026 47.06                             148   -0.1510 80.2  37 
 PAM  EN ES       1027  3.85                             148   -0.2110 80.2  37 
 PAM  EZ I        1027  6.20        72.8 0.54                          80.2  37 
 RUS  HZ EP       1026 48.41                             143    0.0810 96.5 176 
 RUS  HE ES       1027  5.95                             143   -0.1010 96.5 176 
 RUS  HZ I        1027  7.72        28.0 0.24                          96.5 176 
 PTB  HZ EP       1026 52.11                             130    0.15 9  148 260 
 PTB  HE ES       1027 11.86                             130   -0.66 9  148 260 
 PTB  HZ I        1027 13.97        33.0 0.12                           148 260 
 TAM  HZ IP     C 1026 52.40                             129   -0.15 9  153 104 
 TAM  HN ES       1027 13.88                             129    0.31 9  153 104 
 TAM  HZ I        1027 23.43        13.3 0.45                           153 104 
 SPBC HZ IP     C 1026 53.21                             128   -0.07 9  160 220 
 SPBC HE ES       1027 15.07                             128    0.21 9  160 220 
 SPBC HZ I        1027 18.79        28.9 0.22                           160 220 
 ZAR  HZ EP       1026 57.13                             120   -0.67 8  206 293 
 ZAR  HN ES       1027 22.87                             120   -0.04 8  206 293 
 ZAR  HZ I        1027 28.12        25.2 0.21                           206 293 
 NOR  HZ EP       1027  0.71                             117   -0.00 8  233 235 
 NOR  HN ES       1027 27.70                             117   -0.40 8  233 235 
 NOR  HZ I        1027 33.20        15.3 0.32                           233 235 
 CHI  HZ EP       1027  2.28                             116   -0.21 8  245 196 
 CHI  HN ES       1027 31.40                             116    0.14 8  245 196 
 CHI  HZ I        1027 35.72         6.0 0.20                           245 196 
 ROSC BZ EP   9   1027  4.27                             115    1.29 0  250 212 
 ROSC BN ES       1027 33.22                                   -0.20 8  250 212 
 ROSC BZ I        1027 41.82        17.2 0.30                           250 212 
 HEL  HZ EP       1027  6.27                             113    0.86 8  272 257 
 HEL  HE ES       1027 35.78                             113   -0.67 8  272 257 
 HEL  HZ I        1027 43.76         8.7 0.26                           272 257 
 GUY2CHZ EP       1027  9.60                             111    0.93 7  299 235 
 GUY2CHN ES       1027 42.86                             111    0.60 7  299 235 
 GUY2CHZ I        1027 51.61        10.8 0.62                           299 235 
 PTGC HZ EP   9 C 1027  7.34                             110   -1.34 0  305 158 
 PTGC HE ES       1027 40.59                                   -0.35 7  305 158 
 PTGC HZ I        1027 44.51        18.2 0.42                           305 158 
 LL6C HZ EP   4   1027  8.99                             109   -2.48 0  329 358 
 LL6C HE ES       1027 47.35                             109    0.10 7  329 358 
 LL6C HZ I        1027 52.14         8.0 0.58                           329 358 
 CBOC HZ EP       1027 12.09                             108   -0.06 7  333 253 
 CBOC HN ES       1027 48.98                             108    0.53 7  333 253 
 CBOC HZ I        1027 57.52         3.1 0.20                           333 253 
 PRA  HZ EP       1027 18.58                             105    0.08 6  389 210 
 PRA  HE ES       1027 59.13                             105   -0.62 6  389 210 
 PRA  HZ I        1028  6.99         9.1 0.30                           389 210 
 SJC  HZ EP   4   1027 18.93                             104   -2.45 0  413 327 
 SJC  HN ES   4   1028  1.35                             104   -3.53 0  413 327 
 SJC  HZ I        1028  4.04         3.2 0.32                           413 327 
 CRJC HZ EP   4   1027 24.80                             102   -3.59 0  472   3 
 CRJC HN ES   4   1028 11.70                             102   -5.65 0  472   3 
 CRJC HZ I        1028 27.74         4.8 0.20                           472   3 
                                                                                
