 2013  4 9 1058 56.7 L   6.585 -73.161144.0  RSN  4 0.3 1.1LRSN                1
 GAP=272        0.56       9.3     6.3  6.7 -0.5184E+01  0.1360E+02  0.1901E+02E
 Epicentro: SAN GIL - SANTANDER                                                3
 ACTION:UPD 13-05-22 14:36 OP:EP   STATUS:               ID:20130409105856 L   I
 2013-04-09-1057-48M.COL___220                                                 6
 STAT SP IPHASW D HRMM SECON CODA AMPLIT PERI AZIMU VELO AIN AR TRES W  DIS CAZ7
 BAR2 SZ EP   2   1059 16.30                             179    0.42 5 2.55 289 
 BAR2 SZ ES   1   1059 30.89                             179    0.05 8 2.55 289 
 BAR2 SZ I        1059 32.54         5.8 0.46            171           2.55 289 
 GIR2 SZ ES   2   1059 32.24                             158   -0.63 5 54.8 356 
 BRR  HZ EP   1   1059 18.24                             148   -0.20 8 84.0 314 
 BRR  HN ES   1   1059 35.78                             148    0.39 8 84.0 314 
 PTB  HZ EP       1059 23.13                             133    0.0010  143 268 
 PTB  HN ES   1   1059 43.59                             133   -0.16 7  143 268 
 PTB  HZ I        1059 47.83         1.0 0.18            132            143 268 
                                                                                
