 2014  3 9 1548 22.8 L   6.811 -73.154144.2  RSN 16 0.5 2.3LRSN                1
 GAP= 70        1.20       2.9     3.1  5.5 -0.7758E+00  0.2880E+01  0.1968E+01E
 Epicentro: LOS SANTOS - SANTANDER                                             3
 OLDACT:DUP 14-03-09 21:21 OP:stll STATUS:               ID:20140309153817d    3
 ACTION:UPD 14-04-09 23:15 OP:nd   STATUS:               ID:20140309154822 L   I
 OLDACT:UP  14-03-09 21:30 OP:stll STATUS:               ID:20140309153817d    3
 OLDACT:UP  14-03-09 21:29 OP:stll STATUS:               ID:20140309153817d    3
 2014-03-09-1538-16M.COL___229                                                 6
 STAT SP IPHASW D HRMM SECON CODA AMPLIT PERI AZIMU VELO AIN AR TRES W  DIS CAZ7
 BAR2 SZ IP     C 1548 42.53                             170    0.2710 24.4 187 
 BAR2 SZ ES       1548 57.21                             170   -0.2310 24.4 187 
 BAR2 SZ I        1549  0.15        86.6 0.24            170           24.4 187 
 BRR  HZ IP     D 1548 44.86                             153    1.1610 69.8 298 
 BRR  HN ES       1549  0.66                             153    0.6610 69.8 298 
 BRR  SZ I        1549  5.03        35.4 0.22            154           69.8 298 
 PAM  SZ EP       1548 45.46                             151    0.6410 77.0  41 
 PAM  SN ES       1549  2.33                             151    0.3310 77.0  41 
 RUS  HZ IP     D 1548 46.52                             143    0.0310  102 176 
 RUS  HN ES       1549  4.63                             143   -0.3410  102 176 
 PTB  HZ EP       1548 49.22                             132   -0.36 9  147 258 
 PTB  HN ES       1549  9.80                             132   -0.67 9  147 258 
 PTB  SZ I        1549 17.66        18.7 0.24            133            147 258 
 TAM  HZ EP       1548 50.94                             130    0.48 9  156 105 
 TAM  HN ES       1549 11.63                             130   -0.41 9  156 105 
 TAM  SZ I        1549 21.88        12.7 0.44            133            156 105 
 OCA  HN ES       1549 12.08                             129   -0.67 9  159 353 
 SPBC HZ EP       1548 51.44                             129    0.22 9  164 218 
 SPBC HN ES       1549 12.91                             129   -0.47 9  164 218 
 SPBC SZ I        1549 18.05        27.1 0.20            130            164 218 
 ZAR  HZ EP       1548 54.34                             122   -0.67 9  203 292 
 ZAR  HN ES       1549 19.81                             122   -0.32 9  203 292 
 ZAR  SZ I        1549 25.54        17.2 0.16            124            203 292 
 NOR  HZ IP     D 1548 58.69                             118    0.25 8  235 234 
 NOR  HN ES       1549 26.07                             118   -0.17 8  235 234 
 NOR  SZ I        1549 31.91        15.5 0.18            120            235 234 
 SML  HZ EP       1548 59.06                             117   -0.12 8  242 335 
 SML  HN ES       1549 27.07                             117   -0.48 8  242 335 
 SML  SZ I        1549 35.75        24.3 0.08            120            242 335 
 CHI  HZ EP       1549  0.72                             117    0.20 8  250 195 
 CHI  HN ES       1549 29.68                             117   -0.26 8  250 195 
 CHI  SZ I        1549 33.22        10.9 0.36            118            250 195 
 HEL  HZ EP       1549  2.53                             114   -0.34 8  272 255 
 HEL  HN ES       1549 34.96                             114    0.83 8  272 255 
 HEL  SZ I        1549 40.76        12.0 0.34            116            272 255 
 SOCV BZ EP       1549  4.97                             112   -0.82 7  301  57 
 GUY2CHZ EP       1549  6.70                             112    0.36 7  301 234 
 GUY2CHE ES       1549 40.85                             112    0.56 7  301 234 
 GUY2CSZ I        1549 48.53        13.8 0.38                           301 234 
 VIL  SZ EP       1549  6.03                             112   -0.24 7  304 191 
 VIL  SN ES       1549 40.11                             112   -0.06 7  304 191 
 VIL  SZ I        1549 50.01        15.1 0.48            113            304 191 
                                                                                
