 2017  3 9 1220  6.0 L   6.780 -73.158141.2  RSN  4 0.1 1.4LRSN                1
 GAP=136        0.37       2.0     3.2  3.3 -0.7629E+00 -0.2674E+01  0.9326E+00E
 Epicentro: LOS SANTOS - SANTANDER                                             3
 ACTION:UPD 17-05-25 18:38 OP:jn   STATUS:               ID:20170309122006 L   I
 OLDACT:REG 17-03-09 19:30 OP:cara STATUS:               ID:20170309121745     3
 2017-03-09-1218-00M.COL___400                                                 6
 STAT SP IPHASW D HRMM SECON CODA AMPLIT PERI AZIMU VELO AIN AR TRES W  DIS CAZ7
 BAR2 EZ EP       1220 24.78                             171   -0.2210 20.9 187 
 BAR2 EZ ES       1220 39.82                             171   -0.0210 20.9 187 
 BAR2 EZ I        1220 43.37         8.1 0.52            171           20.9 187 
 BRR  HN ES       1220 42.77                             152    0.0510 71.1 301 
 PAM  EZ EP       1220 27.94                             149    0.0810 80.0  39 
 PAM  EE ES       1220 44.92                             149   -0.0110 80.0  39 
 PAM  EZ I        1220 46.96         4.7 0.56            151           80.0  39 
 RUS  HZ EP       1220 29.19                             143    0.0810 98.5 175 
 RUS  HN ES       1220 47.21                             143    0.0410 98.5 175 
 RUS  HZ I        1220 48.66         2.8 0.36            145           98.5 175 
                                                                                
