 2011 10 9 1607 15.0 L   6.774 -73.144137.3  RSN  5 0.4 1.4LRSN                1
 GAP=138        0.74       4.9     5.4  7.9  0.5535E+01  0.5479E+01 -0.6116E+00E
 Epicentro: LOS SANTOS - SANTANDER                                             3
 ACTION:UPD 12-07-13 16:02 OP:ep   STATUS:               ID:20111009160715 L   I
 2011-10-09-1604-48S.COL___168                                                 6
 STAT SP IPHASW D HRMM SECON CODA AMPLIT PERI AZIMU VELO AIN AR TRES W  DIS CAZ7
 BAR2 SZ EP   1   16 7 33.48                             171   -0.12 7 20.5 192 
 BAR2 SZ ES   1   16 7 47.63                             171   -0.44 7 20.5 192 
 BAR2 SZ I        16 7 49.60         6.2 0.23                          20.5 192 
 BRR  HZ EP   1   16 7 35.48                             150    0.11 7 72.8 300 
 BRR  HZ I        16 7 39.68        18.0 0.40                          72.8 300 
 BRR  HN ES   1   16 7 51.98                             150    0.75 7 72.8 300 
 PAM  SZ EP   1   16 7 36.43                             148   -0.07 7 79.5  38 
 PAM  SN ES   1   16 7 53.16                             148   -0.07 7 79.5  38 
 PAM  SZ I        16 7 55.78         2.9 0.42                          79.5  38 
 RUS  HZ EP   1   16 7 38.08                             143    0.33 7 97.7 176 
 RUS  HZ I        16 7 38.98         2.8 0.14                          97.7 176 
 RUS  HN ES   1   16 7 55.42                             143   -0.05 7 97.7 176 
 ZAR  HN ES   1   16 8 11.46                             120   -0.61 6  205 293 
                                                                                
