 2013  2 9 1057 12.5 L   6.776 -73.136152.2  RSN  9 0.4 2.4LRSN                1
 GAP=139        0.99       3.5     5.2  6.0  0.6551E+00  0.4198E+01  0.6838E+00E
 Epicentro: LOS SANTOS - SANTANDER                                             3
 ACTION:UPD 13-03-12 09:31 OP:ep   STATUS:               ID:20130209105712 L   I
 2013-02-09-1050-00M.COL___240                                                 6
 STAT SP IPHASW D HRMM SECON CODA AMPLIT PERI AZIMU VELO AIN AR TRES W  DIS CAZ7
 BAR2 SZ IP       1057 33.13                             172    0.2510 20.9 194 
 BAR2 SZ ES       1057 48.34                             172   -0.4210 20.9 194 
 BAR2 SZ I        1057 51.00        71.8 0.34            170           20.9 194 
 BRR  HZ IP     C 1057 34.98                             153    0.5010 73.4 300 
 BRR  HN ES       1057 52.41                             153    0.7910 73.4 300 
 BRR  HN I        1057 52.85        73.6 0.30            150           73.4 300 
 PAM  SZ EP       1057 35.94                             151    0.4410 78.8  38 
 PAM  SZ I        1057 36.36        66.6 0.28            154           78.8  38 
 PAM  SN ES       1057 53.17                             151   -0.2610 78.8  38 
 RUS  HZ EP       1057 36.97                             146    0.2510 97.9 177 
 RUS  HN ES   1   1057 55.09                             146   -0.51 7 97.9 177 
 RUS  HN I        1057 57.64        35.7 0.16            146           97.9 177 
 PTB  HZ EP   1   1057 40.02                             133   -0.04 7  148 260 
 PTB  HE ES   1   1058  0.89                             133   -0.66 7  148 260 
 PTB  HZ I        1058  7.03        30.8 0.41            131            148 260 
 OCA  HZ EP   1   1057 40.94                             130   -0.65 7  163 353 
 OCA  HN ES   1   1058  4.14                             130   -0.12 7  163 353 
 OCA  HZ I        1058  8.35        21.8 0.35            131            163 353 
 ZAR  HE ES   1   1058 11.18                             123   -0.20 6  206 293 
 ZAR  HZ I        1058 18.21        21.4 0.33            122            206 293 
 CHI  HZ EP       1057 50.14                             119   -0.19 8  246 196 
 CHI  HZ I        1057 53.29         7.4 0.14            119            246 196 
 CHI  HN ES   1   1058 19.94                             119    0.11 6  246 196 
 SML  HZ EP       1057 49.31                             118   -0.50 8  247 335 
 SML  HN ES   1   1058 18.63                             118   -0.27 6  247 335 
                                                                                
