 2010  9 9 1211 41.1 L   6.806 -73.047143.8  RSN  4 0.2 1.7LRSN                1
 GAP=211        0.47       6.2    12.1  6.4  0.4675E+02 -0.1718E+02 -0.2956E+01E
 Epicentro: LOS SANTOS - SANTANDER                                             3
 ACTION:UP  11-02-18 11:01 OP:tino STATUS:               ID:20100909121141 L   I
 2010-09-09-1210-08S.COL___120                                                 6
 STAT SP IPHASW D HRMM SECON CODA AMPLIT PERI AZIMU VELO SNR AR TRES W  DIS CAZ7
 BAR2 SZ EP   1   1212  0.51                             169    -0.1 7   28 213 
 BAR2 SZ ES   2   1212 15.47                             169    -0.4 5   28 213 
 BAR2 SZ I        1212 19.00         9.8 0.82                            28 213 
 GIR2 SZ EP   1   1212  0.90                             166     0.2 7   34 332 
 GIR2 SZ ES   2   1212 15.93                             166     0.0 5   34 332 
 BRR  HZ EP   1   1212  2.43                             149    -0.2 7   81 294 
 BRR  HZ I        1212  2.56        19.3 0.15                            81 294 
 BRR  HE ES   2   1212 19.68                             149     0.3 5   81 294 
 RUS  HZ EP   1   1212  4.80                             143     0.1 7  101 182 
 RUS  HN ES   2   1212 23.33                             143     0.2 5  101 182 
 RUS  HZ I        1212 24.91         4.9 0.32                           101 182 
                                                                                
