 2013  3 9 1104 31.8 L   7.088 -73.278  4.0  RSN 13 0.4 3.0LRSN 3.1WRSN        1
 SPEC AVERAGE  MO 13.8 ST0.876 OM  2.8 f0 1.87 R0.9612 AL 1.60 WI 15.6 MW  3.1 3
 SPEC SD       MO  0.2 ST  1.3 OM  0.5 f00.921 R0.3670 AL      WI      MW  0.2 3
 GAP=103        0.84       1.6     1.7  4.3 -0.4617E+00  0.2934E+01 -0.1479E+01E
 Epicentro: LEBRIJA - SANTANDER                                                3
 SPEC ZAR HH Z MO 13.8 ST  3.8 OM  2.3 f0 3.45 R0.4261 AL 1.12 WI 15.1 MW  3.2 3
 SPEC ZAR HH Z T11 517 K 0.000 GD  134 VS 4.20 DE 3.20 Q0300.0 QA 0.60 VS 4.20 3
 SPEC SML HH Z MO 14.1 ST0.353 OM  2.5 f0 1.31 R1.1221 AL 1.12 WI 17.5 MW  3.3 3
 SPEC SML HH Z T11 527 K 0.000 GD  144 VS 4.20 DE 3.20 Q0300.0 QA 0.60 VS 4.20 3
 SPEC PTB HH Z MO 13.8 ST0.262 OM  2.3 f0 1.47 R1.0000 AL 1.19 WI  9.3 MW  3.1 3
 SPEC PTB HH Z T11 510 K 0.000 GD  119 VS 4.20 DE 3.20 Q0300.0 QA 0.60 VS 4.20 3
 SPEC HEL HH Z MO 13.8 ST0.112 OM  2.2 f0 1.08 R1.3611 AL 2.53 WI 26.6 MW  3.2 3
 SPEC HEL HH Z T11 539 K 0.000 GD  163 VS 4.20 DE 3.20 Q0300.0 QA 0.60 VS 4.20 3
 SPEC PAM SH Z MO 13.9 ST0.160 OM  2.7 f0 1.10 R1.3364 AL 2.61 WI 20.9 MW  3.2 3
 SPEC PAM SH Z T11 449 K 0.000 GD 69.8 VS 4.20 DE 3.20 Q0300.0 QA 0.60 VS 4.20 3
 SPEC BRR HH Z MO 13.3 ST0.589 OM  2.2 f0 2.82 R0.5213 AL 1.04 WI  4.0 MW  2.8 3
 SPEC BRR HH Z T11 445 K 0.000 GD 48.2 VS 4.20 DE 3.20 Q0300.0 QA 0.60 VS 4.20 3
 ACTION:UPD 13-04-09 14:01 OP:ep   STATUS:               ID:20130309110431 L   I
 2013-03-09-1100-00M.COL___231                                                 6
 STAT SP IPHASW D HRMM SECON CODA AMPLIT PERI AZIMU VELO AIN AR TRES W  DIS CAZ7
 BRR  HZ IP     D 11 4 39.65                              90   -0.0510 48.0 273 
 BRR  HN ES       11 4 45.77                              90   -0.0610 48.0 273 
 BRR  HN I        11 4 46.20      2714.9 0.32             47           48.0 273 
 BAR2 SZ IP       11 4 41.32                              90    0.1810 55.8 169 
 BAR2 SZ I        11 4 43.11       517.3 0.34             47           55.8 169 
 BAR2 SZ ES   1   11 4 48.38                              90   -0.01 7 55.8 169 
 PAM  SZ IP     D 11 4 43.63                              90    0.1310 69.7  66 
 PAM  SN ES       11 4 52.06                              90   -0.5410 69.7  66 
 PAM  SZ I        11 4 53.09       370.3 0.21             47           69.7  66 
 OCA  HZ IP     C 11 4 52.17                              90    0.2810  127 358 
 OCA  HE ES       11 5  7.33                              90   -0.2010  127 358 
 OCA  HZ I        11 5 11.40       187.7 0.26             47            127 358 
 RUS  HZ EP       11 4 53.65                              90    0.4110  134 171 
 RUS  HN ES   1   11 5  9.35                              90   -0.57 7  134 171 
 RUS  HN I        11 5 13.77       251.1 0.35             47            134 171 
 PTB  HZ IP     D 11 4 54.58                              90    0.36 9  144 245 
 PTB  HZ I        11 4 54.87       554.1 0.30             47            144 245 
 PTB  HN ES       11 5 11.07                              90   -0.60 9  144 245 
 ZAR  HZ IP     D 11 4 59.63                              56    0.01 9  180 284 
 ZAR  HE ES   1   11 5 20.46                              56   -0.82 7  180 284 
 ZAR  HZ I        11 5 21.59       351.6 0.40             37            180 284 
 SML  HZ EP   1   11 5  3.39                              56    0.22 6  209 335 
 SML  HN ES   1   11 5 27.92                              56    0.31 6  209 335 
 SML  HZ I        11 5 30.08       398.1 0.09             37            209 335 
 URE  HZ EP   1   11 5  9.95                              56    0.40 6  259 287 
 URE  HE ES   1   11 5 39.02                              56    0.06 6  259 287 
 URE  HZ I        11 5 44.49        65.1 0.23             37            259 287 
 HEL  HZ EP       11 5 11.78                              56    0.75 8  268 248 
 HEL  HN ES   1   11 5 41.10                              56   -0.50 6  268 248 
 HEL  HZ I        11 5 45.78        38.7 0.48             37            268 248 
 CHI  HZ EP   4   11 5 15.15                              56    3.00 0  276 190 
 CHI  HZ I        11 5 59.71        33.0 0.34             37            276 190 
 RREF HZ EP   1   11 5 19.10                              55   -0.34 5  333 224 
 RREF HN ES   1   11 5 56.96                              55    0.39 5  333 224 
 RREF HZ I        11 6  2.56        37.4 0.27             36            333 224 
 SJC  HN ES   1   11 6  4.95                              55    0.51 5  375 326 
 SJC  HN I        11 6 11.49        23.2 0.34             36            375 326 
                                                                                
