 2010  8 9 1804 45.8 L   7.194 -73.258128.5  RSN  4 0.3 1.6LRSN                1
 GAP=139        0.79      14.3    15.3 13.3 -0.1815E+03 -0.9829E+02  0.1129E+03E
 Epicentro: LEBRIJA - SANTANDER                                                3
 ACTION:UP  10-09-07 10:53 OP:vdl  STATUS:               ID:20100809180445 L   I
 2010-08-09-1801-37S.COL___125                                                 6
 STAT SP IPHASW D HRMM SECON CODA AMPLIT PERI AZIMU VELO SNR AR TRES W  DIS CAZ7
 BRR  HZ EP       18 5  3.90                             157    -0.110   51 259 
 BRR  HZ I        18 5  4.14        20.9 0.13                            51 259 
 BRR  HN ES   2   18 5 18.40                             157     0.3 5   51 259 
 GUE  SZ EP       18 5  5.73                             146    -0.310   79  28 
 GUE  SZ ES   1   18 5 21.67                             146    -0.2 7   79  28 
 GRA  SZ EP   1   18 5  7.35                             142     0.7 7   91  33 
 GRA  SZ ES   2   18 5 23.21                             142     0.2 5   91  33 
 GRA  SZ I        18 5 25.57        11.7 0.48                            91  33 
 RUS  HZ EP   2   18 5 11.74                             128     0.0 5  145 172 
 RUS  HZ I        18 5 34.43         1.5 0.15                           145 172 
                                                                                
