 2010  9 9 1204  5.6 L   6.785 -73.080149.3  RSN  5 0.2 1.6LRSN                1
 GAP=166        0.47       4.8     9.6  7.6  0.1490E+02 -0.3328E+02 -0.1316E+02E
 Epicentro: LOS SANTOS - SANTANDER                                             3
 ACTION:UP  11-02-18 11:01 OP:tino STATUS:               ID:20100909120405 L   I
 2010-09-09-1200-08S.COL___120                                                 6
 STAT SP IPHASW D HRMM SECON CODA AMPLIT PERI AZIMU VELO SNR AR TRES W  DIS CAZ7
 BAR2 SZ EP   1   12 4 25.53                             170    -0.1 7   24 208 
 BAR2 SZ ES   2   12 4 41.04                             170    -0.3 5   24 208 
 BAR2 SZ I        12 4 42.29         8.9 0.22                            24 208 
 GIR2 SZ EP   2   12 4 25.45                             166    -0.3 5   35 339 
 GIR2 SZ ES   3   12 4 42.11                             166     0.6 2   35 339 
 BRR  HZ EP   1   12 4 27.43                             151    -0.1 7   78 297 
 BRR  HZ I        12 4 27.64        13.9 0.16                            78 297 
 BRR  HN ES   2   12 4 44.90                             151     0.2 5   78 297 
 RUS  HZ EP   1   12 4 29.87                             145     0.3 7   99 180 
 RUS  HN ES   2   12 4 48.18                             145    -0.1 5   99 180 
 RUS  HZ I        12 4 49.47         2.5 0.45                            99 180 
 GRA  SZ EP   1   12 4 31.26                             138     0.1 7  125  14 
                                                                                
