 2012  3 9 1155 30.6 L   6.824 -73.125137.4  RSN  4 0.1 1.3LRSN                1
 GAP=138        0.33       2.9     3.2  4.6 -0.3226E+00 -0.1681E+00  0.4585E+01E
 ACTION:UP  12-03-31 23:18 OP:EP   STATUS:               ID:20120309115530 L   I
 2012-03-09-1150-00M.COL___193                                                 6
 STAT SP IPHASW D HRMM SECON CODA AMPLIT PERI AZIMU VELO SNR AR TRES W  DIS CAZ7
 BAR2 SZ EP   1   1155 49.30                             169     0.0 7   26 194 
 BAR2 SZ I        1155 49.82         4.9 0.03                            26 194 
 BRR  HZ EP       1155 50.94                             151     0.010   72 296 
 BRR  HZ I        1155 58.91         7.1 0.33                            72 296 
 BRR  HE ES   1   1156  6.71                             151     0.0 7   72 296 
 PAM  SZ EP   1   1155 51.83                             150     0.1 7   74  39 
 PAM  SE ES   1   1156  8.14                             150     0.0 7   74  39 
 RUS  HZ EP   1   1155 53.59                             141    -0.1 7  103 177 
 RUS  HN ES   2   1156 11.92                             141     0.1 5  103 177 
 RUS  HZ I        1156 13.88         2.3 0.31                           103 177 
                                                                                
