 2012  2 9 1738 20.9 L   6.754 -73.167141.6  RSN  8 0.4 2.0LRSN                1
 GAP=136        0.71       4.4     4.1  5.9  0.1520E+01  0.6036E+01  0.1049E+01E
 ACTION:UP  12-03-07 16:29 OP:epov STATUS:               ID:20120209173820 L   I
 2012-02-09-1736-40S.COL___159                                                 6
 STAT SP IPHASW D HRMM SECON CODA AMPLIT PERI AZIMU VELO AIN AR TRES W  DIS CAZ7
 BAR2 SZ EP   1   1738 40.22                             172    0.28 7 18.0 185 
 BAR2 SZ I        1738 40.46        19.0 0.15                          18.0 185 
 BAR2 SZ ES   1   1738 54.39                             172   -0.39 7 18.0 185 
 GIR2 SZ EP   1   1738 40.36                             165    0.14 7 36.0 355 
 BRR  HZ EP   1   1738 42.20                             152    0.57 7 71.7 303 
 BRR  HZ I        1738 42.54        51.1 0.11                          71.7 303 
 BRR  HN ES   1   1738 58.29                             152    0.48 7 71.7 303 
 PAM  SZ EP   1   1738 43.05                             148    0.03 7 82.8  39 
 PAM  SZ I        1738 43.34        14.7 0.20                          82.8  39 
 PAM  SN ES   1   1738 59.76                             148   -0.51 7 82.8  39 
 RUS  HZ EP   1   1738 44.14                             144    0.24 7 95.8 174 
 RUS  HN ES   1   1739  1.97                             144    0.13 7 95.8 174 
 RUS  HZ I        1739  4.15        10.3 0.34                          95.8 174 
 PTB  HZ EP   1   1738 46.88                             132   -0.36 7  144 261 
 PTB  HN ES   1   1739  7.46                             132   -0.32 7  144 261 
 ZAR  HZ EP   1   1738 52.50                             121   -0.55 6  204 294 
 ZAR  HN ES   1   1739 18.30                             121    0.17 6  204 294 
 ZAR  HZ I        1739 25.38        14.5 0.20                           204 294 
 PRA  HZ EP   1   1739 13.32                             106   -0.31 4  386 210 
                                                                                
