 2013 12 9 1931 26.1 L   6.833 -73.177147.9  RSN 11 0.5 2.6LRSN                1
 GAP=131        1.16       3.0     4.5  6.1 -0.1541E+01  0.6310E+01  0.2960E-01E
 Epicentro: ZAPATOCA - SANTANDER                                               3
 ACTION:UPD 14-01-13 10:17 OP:ep   STATUS:               ID:20131209193126 L   I
 OLDACT:UP  13-12-09 16:29 OP:cam  STATUS:               ID:20131209193000     3
 OLDACT:REG 13-12-09 15:10 OP:cam  STATUS:               ID:20131209193000     3
 2013-12-09-1930-00M.COL___285                                                 6
 STAT SP IPHASW D HRMM SECON CODA AMPLIT PERI AZIMU VELO AIN AR TRES W  DIS CAZ7
 BAR2 SZ EP       1931 45.86                             169   -0.2210 26.6 181 
 BAR2 SZ ES       1932  1.78                             169    0.1310 26.6 181 
 BAR2 SZ I        1932  2.94       195.1 0.32            170           26.6 181 
 BRR  HZ IP       1931 47.40                             154    0.1510 66.5 297 
 BRR  HN ES       1932  4.61                             154    0.8910 66.5 297 
 BRR  HZ I        1932  7.61        83.7 0.30            153           66.5 297 
 PAM  SZ EP       1931 48.83                             151    0.2910 77.0  43 
 PAM  SN ES       1932  6.04                             151    0.0110 77.0  43 
 PAM  SZ I        1932  8.23        85.0 0.50            154           77.0  43 
 RUS  HZ EP       1931 50.11                             143   -0.2510  104 174 
 RUS  HN ES       1932  8.87                             143   -0.4110  104 174 
 RUS  HZ I        1932 10.54        42.6 0.28            146            104 174 
 PTB  HZ EP       1931 52.75                             133   -0.28 9  145 257 
 PTB  HN ES       1932 13.35                             133   -0.67 9  145 257 
 PTB  HZ I        1932 14.92        52.9 0.32            134            145 257 
 OCA  HZ EP       1931 54.12                             131   -0.11 9  156 354 
 OCA  HN ES       1932 15.23                             131   -0.93 9  156 354 
 OCA  HZ I        1932 20.89        34.6 0.30            133            156 354 
 SPBC HZ EP       1931 55.06                             129    0.21 9  164 217 
 SPBC HE ES       1932 17.27                             129    0.01 9  164 217 
 SPBC HZ I        1932 24.36        45.3 0.28            131            164 217 
 ZAR  HZ EP       1931 58.17                             123   -0.07 9  200 292 
 ZAR  HE ES       1932 23.86                             123    0.56 9  200 292 
 ZAR  HZ I        1932 29.68        40.9 0.30            124            200 292 
 NOR  HZ EP       1932  1.69                             119   -0.21 8  234 233 
 NOR  HE ES       1932 29.17                             119   -0.64 8  234 233 
 NOR  HZ I        1932 32.47        24.3 0.34            120            234 233 
 SML  HZ EP       1932  2.18                             118   -0.18 8  239 336 
 SML  HN ES       1932 31.09                             118    0.46 8  239 336 
 SML  HZ I        1932 34.03        71.6 0.26            120            239 336 
 CHI  HZ EP       1932  5.33                             117    1.11 8  251 194 
 CHI  HN ES       1932 34.35                             117    0.41 8  251 194 
 CHI  HZ I        1932 35.99        17.8 0.32            119            251 194 
 HEL  HZ EP   4   1932  6.67                             115    0.50 0  270 255 
 GUY2CHZ EP   4   1932 12.20                             113    2.45 0  300 234 
 RREF HZ EP   4   1932 14.06                             111    1.73 0  322 228 
 PRA  HZ EP   4   1932 20.76                             107    0.88 0  393 209 
 SJC  HZ EP   4   1932 19.90                             106   -1.28 0  404 327 
                                                                                
