 2011  8 9 1514 16.2 L   6.806 -73.116151.5  RSN  9 0.5 3.2LRSN                1
 GAP=140        0.90       3.7     6.5  6.0 -0.8169E+01  0.9828E+01  0.1063E+01E
 Epicentro: LOS SANTOS - SANTANDER                                             3
 ACTION:UPD 12-07-13 15:50 OP:ep   STATUS:               ID:20110809151416 L   I
 2011-08-09-1500-00M.COL___145                                                 6
 STAT SP IPHASW D HRMM SECON CODA AMPLIT PERI AZIMU VELO AIN AR TRES W  DIS CAZ7
 BAR2 SZ IP       1514 36.62                             171    0.0610 24.7 197 
 BAR2 SZ ES   1   1514 51.93                             171   -0.49 7 24.7 197 
 BAR2 SZ I        1514 54.12       220.7 0.42                          24.7 197 
 BRR  HZ IP     D 1514 38.48                             153    0.3610 73.8 297 
 BRR  HZ I        1514 38.73       342.5 0.20                          73.8 297 
 BRR  HN ES   1   1514 56.04                             153    0.83 7 73.8 297 
 PAM  SZ EP       1514 39.36                             153    0.4710 74.9  38 
 PAM  SN ES   1   1514 56.53                             153   -0.06 7 74.9  38 
 RUS  HZ IP     D 1514 40.40                             145   -0.1610  101 178 
 RUS  HZ I        1514 41.88        85.9 0.52                           101 178 
 RUS  HN ES   1   1514 59.23                             145   -0.32 7  101 178 
 NOR  SZ EP       1514 52.30                             119   -0.30 8  238 235 
 NOR  SN ES   1   1515 20.18                             119   -0.80 6  238 235 
 CHI  HZ EP       1514 54.65                             118    0.26 8  250 196 
 CHI  HN ES   1   1515 23.87                             118   -0.30 6  250 196 
 CHI  HZ I        1515 31.67        67.0 0.42                           250 196 
 GUY  SZ EP   2   1515  0.97                             113    0.28 4  307 235 
 GUY  SN ES   3   1515 35.16                             113   -0.22 2  307 235 
 GUY  SZ I        1515 44.12       147.0 0.34                           307 235 
 COD  HZ EP       1515  4.33                             110   -0.46 6  348 354 
 COD  HE ES   1   1515 41.68                             110   -0.99 5  348 354 
 COD  HZ I        1515 51.40       109.2 0.50                           348 354 
 PRA  HZ EP       1515  9.87                             107   -0.31 6  394 210 
 PRA  HE ES   1   1515 53.42                             107    1.14 4  394 210 
                                                                                
