 2014  4 9 1717 44.9 L   6.804 -73.188138.8  RSN  7 0.3 1.9LRSN                1
 GAP=131        0.68       2.7     3.8  7.0 -0.3066E+01  0.1452E+02 -0.2683E+01E
 Epicentro: ZAPATOCA - SANTANDER                                               3
 ACTION:UPD 14-05-13 23:07 OP:nd   STATUS:               ID:20140409171744 L   I
 OLDACT:REG 14-04-09 23:51 OP:cam  STATUS:               ID:20140409171400     3
 2014-04-09-1714-00S.MAN___264                                                 6
 STAT SP IPHASW D HRMM SECON CODA AMPLIT PERI AZIMU VELO AIN AR TRES W  DIS CAZ7
 BRR  HZ EP       1718  5.51                             153    0.4810 66.9 300 
 BRR  HE ES   4   1718 22.48                             153    1.73 0 66.9 300 
 BRR  HZ I        1718 22.73        15.5 0.32            153           66.9 300 
 PAM  SZ IP     D 1718  6.66                             148    0.1310 80.1  42 
 PAM  SN ES       1718 23.33                             148   -0.0810 80.1  42 
 PAM  SZ I        1718 26.44        10.1 0.48            153           80.1  42 
 RUS  HZ EP     D 1718  7.64                             142   -0.3710  101 173 
 RUS  HN ES       1718 26.11                             142    0.0610  101 173 
 RUS  HZ I        1718 27.03         7.2 0.32            145            101 173 
 PTB  HZ EP       1718 10.53                             131   -0.34 9  143 258 
 PTB  HN ES   1   1718 31.07                             131   -0.07 7  143 258 
 PTB  HZ I        1718 33.49        15.0 0.16            133            143 258 
 NOR  HZ EP     C 1718 20.33                             117    0.51 8  231 234 
 NOR  HN ES       1718 47.02                             117   -0.06 8  231 234 
 NOR  HZ I        1718 53.15         7.5 0.42            120            231 234 
 SML  HZ EP   2   1718 20.47                             116   -0.40 4  241 336 
 SML  HN ES       1718 48.79                             116   -0.15 8  241 336 
 GUY2CHZ EP   4   1718 29.58                             111    1.82 0  298 234 
 GUY2CHN ES   1   1719  1.13                             111   -0.09 5  298 234 
 GUY2CHZ I        1719 10.73         4.6 0.56                           298 234 
                                                                                
