 2017  9 9 1338 49.4 L   6.788 -73.161148.0  RSN  5 0.3 1.2LRSN                1
 GAP=135        0.77       4.1     4.3  6.4  0.3693E+01  0.1797E+01  0.7817E+00E
 Epicentro: LOS SANTOS - SANTANDER                                             3
 ACTION:UPD 17-10-05 19:10 OP:rebc STATUS:               ID:20170909133849 L   I
 OLDACT:REG 17-09-09 19:34 OP:lv   STATUS:               ID:20170909133736     3
 2017-09-09-1338-00M.COL___415                                                 6
 STAT SP IPHASW D HRMM SECON CODA AMPLIT PERI AZIMU VELO AIN AR TRES W  DIS CAZ7
 BAR2 EZ EP       1339  9.07                             171   -0.2310 21.8 186 
 BAR2 EZ ES       1339 24.30                             171   -0.5010 21.8 186 
 BRR  HE ES       1339 27.88                             153    0.4510 70.3 300 
 PAM  EZ EP       1339 12.09                             151    0.0810 79.4  40 
 PAM  EE ES       1339 29.65                             151    0.0310 79.4  40 
 PAM  EZ I        1339 31.60         2.6 0.43            149           79.4  40 
 RUS  HZ EP       1339 13.41                             145    0.0910 99.4 175 
 RUS  HE ES       1339 32.21                             145    0.2510 99.4 175 
 ZAR  HN ES       1339 47.02                             123   -0.23 9  203 293 
                                                                                
