 2013  5 9 1115 22.5 L   7.003 -73.391119.5  RSN  5 0.2 1.5LRSN                1
 GAP=141        0.37       4.1     2.8  3.5  0.1398E+01  0.7473E+00  0.4467E+01E
 Epicentro: SAN VICENTE DE CHUCURI - SANTANDER                                 3
 ACTION:UPD 13-06-20 09:49 OP:ep   STATUS:               ID:20130509111522 L   I
 2013-05-09-1110-00M.COL___256                                                 6
 STAT SP IPHASW D HRMM SECON CODA AMPLIT PERI AZIMU VELO AIN AR TRES W  DIS CAZ7
 GIR2 SZ EP   1   1115 38.75                             168   -0.07 7 23.4  69 
 GIR2 SZ I        1115 39.00         7.2 0.19            173           23.4  69 
 GIR2 SZ ES   2   1115 51.20                             168   -0.37 5 23.4  69 
 BRR  HZ IP     D 1115 39.06                             161    0.0110 37.3 288 
 BRR  HZ I        1115 39.22        19.3 0.14            159           37.3 288 
 BRR  HN ES       1115 52.07                             161    0.0910 37.3 288 
 BAR2 SZ EP   2   1115 40.49                             155    0.47 5 50.9 153 
 BAR2 SZ ES   1   1115 53.70                             155    0.01 7 50.9 153 
 RUS  HZ EP   1   1115 46.08                             130   -0.04 7  127 164 
 PTB  HZ EP   1   1115 45.52                             129   -0.05 7  128 247 
 PTB  HN ES   1   1116  3.50                             129   -0.08 7  128 247 
 PTB  HZ I        1116  6.59         4.5 0.16            127            128 247 
                                                                                
