 2017  4 9 1555  3.4 L   6.811 -73.153146.7  RSN 18 0.4 2.7LRSN                1
 GAP=111        0.93       2.7     2.8  4.4  0.3689E+00  0.3091E+01  0.3699E+01E
 Epicentro: LOS SANTOS - SANTANDER                                             3
 ACTION:UPD 17-05-30 21:10 OP:jn   STATUS:               ID:20170409155503 L   I
 OLDACT:UP  17-04-09 23:54 OP:ar   STATUS:               ID:20170409154747     3
 OLDACT:REG 17-04-09 20:52 OP:edw  STATUS:               ID:20170409154747     3
 2017-04-09-1548-00M.COL___377                                                 6
 STAT SP IPHASW D HRMM SECON CODA AMPLIT PERI AZIMU VELO AIN AR TRES W  DIS CAZ7
 BAR2 EZ EP       1555 22.93                             170   -0.2310 24.4 188 
 BAR2 EZ ES       1555 38.59                             170    0.0110 24.4 188 
 BAR2 EZ I        1555 38.97       152.3 0.26            166           24.4 188 
 BRR  HZ IP     C 1555 24.62                             153    0.0410 69.9 298 
 BRR  HN ES       1555 41.70                             153    0.6010 69.9 298 
 BRR  HZ I        1555 45.60        75.6 0.28            151           69.9 298 
 PAM  EZ IP     C 1555 25.65                             151   -0.0410 77.0  41 
 PAM  EE ES       1555 43.05                             151   -0.0310 77.0  41 
 PAM  EZ I        1555 45.03       100.6 0.52            158           77.0  41 
 RUS  HZ EP       1555 27.18                             144   -0.1510  102 176 
 RUS  HE ES       1555 45.59                             144   -0.4110  102 176 
 RUS  HZ I        1555 46.35        37.3 0.28            143            102 176 
 PTB  HZ EP       1555 29.89                             132   -0.51 9  147 258 
 PTB  HE ES       1555 51.41                             132   -0.04 9  147 258 
 PTB  HZ I        1555 56.92        39.5 0.44            131            147 258 
 SPBC HZ EP       1555 31.75                             129   -0.26 9  164 219 
 SPBC HE ES       1555 54.63                             129    0.30 9  164 219 
 SPBC HZ I        1555 58.63        89.0 0.22            128            164 219 
 YPLC HZ IP     D 1555 33.28                             127   -0.12 9  178 151 
 YPLC HE ES       1555 57.48                             127    0.68 9  178 151 
 YPLC HZ I        1555 59.96        33.3 0.32            128            178 151 
 ZAR  HZ EP       1555 35.61                             123   -0.18 9  203 292 
 ZAR  HE ES       1556  0.86                             123   -0.18 9  203 292 
 ZAR  HZ I        1556  6.12        61.2 0.38            123            203 292 
 NOR  HZ EP       1555 39.08                             119   -0.11 8  235 234 
 NOR  HE ES       1556  6.68                             119   -0.42 8  235 234 
 NOR  HZ I        1556 15.75        24.4 0.38            119            235 234 
 CHI  HZ EP       1555 41.01                             117   -0.25 8  250 195 
 CHI  HN ES       1556 10.44                             117   -0.34 8  250 195 
 CHI  HZ I        1556 13.63        37.2 0.62            118            250 195 
 ROSC BZ EP       1555 42.97                             117    1.33 8  253 211 
 ROSC BE ES       1556 11.71                             117    0.25 8  253 211 
 ROSC BZ I        1556 17.50        77.4 0.45            117            253 211 
 HEL  HZ EP   4   1555 45.44                             115    1.83 0  272 256 
 HEL  HE ES       1556 14.49                             115   -0.48 8  272 256 
 HEL  HZ I        1556 21.72        19.6 0.40            115            272 256 
 VIL  EZ EP       1555 47.15                             112    0.17 7  304 191 
 VIL  EE ES       1556 20.53                             112   -0.43 7  304 191 
 VIL  EZ I        1556 30.46        55.8 0.42            113            304 191 
 ELA  HZ EP   9   1555 52.31                             110    2.00 0  329 229 
 ELA  HE ES       1556 28.87                             110   -0.03 7  329 229 
 ELA  HZ I        1556 39.29        20.3 0.46            111            329 229 
 CBOC HZ EP       1555 51.22                             110    0.91 7  333 252 
 CBOC HE ES       1556 27.40                             110    0.50 7  333 252 
 CBOC HZ I        1556 32.24         9.5 0.76            111            333 252 
 PRA  HZ EP       1555 56.81                             107   -0.22 6  393 209 
 PRA  HN ES       1556 38.47                             107   -0.39 6  393 209 
 PRA  HZ I        1556 44.81        34.9 0.74            107            393 209 
 ORTC HZ EP       1555 57.38                             106   -0.03 6  396 216 
 ORTC HE ES       1556 40.33                             106    0.79 6  396 216 
 ORTC HZ I        1556 43.91         9.2 0.26            107            396 216 
 PAL  HZ EP       1555 58.43                             106   -0.16 6  406 239 
 PAL  HE ES   4   1556 40.14                             106   -1.49 0  406 239 
 PAL  HZ I        1556 46.62         5.0 0.28            107            406 239 
                                                                                
