 2017  1 9 1852 35.2 L   6.746 -73.146145.2  RSN  5 0.4 1.6LRSN                1
 GAP=139        0.93       5.0     5.9  7.1 -0.1008E+02  0.1266E+02  0.1062E+01E
 Epicentro: LOS SANTOS - SANTANDER                                             3
 ACTION:UPD 17-05-22 15:57 OP:jn   STATUS:               ID:20170109185235 L   I
 OLDACT:REG 17-01-09 23:34 OP:ar   STATUS:               ID:20170109184744     3
 2017-01-09-1848-00M.COL___364                                                 6
 STAT SP IPHASW D HRMM SECON CODA AMPLIT PERI AZIMU VELO AIN AR TRES W  DIS CAZ7
 BAR2 EZ EP   2   1852 54.61                             173   -0.04 5 17.4 193 
 BAR2 EZ ES       1853  9.75                             173   -0.0710 17.4 193 
 BAR2 EZ I        1853 10.46        14.2 0.42            172           17.4 193 
 BRR  HZ EP       1852 56.65                             151    0.2010 74.3 303 
 BRR  HE ES       1853 13.56                             151    0.5210 74.3 303 
 BRR  HZ I        1853 17.31         5.9 0.12            150           74.3 303 
 PAM  EZ EP       1852 57.65                             149    0.0210 82.1  37 
 PAM  EN ES       1853 14.55                             149   -0.5910 82.1  37 
 PAM  EZ I        1853 16.63         9.8 0.50            152           82.1  37 
 RUS  HZ EP   2   1852 58.96                             146    0.50 5 94.6 176 
 RUS  HN ES       1853 16.84                             146    0.2310 94.6 176 
 RUS  HZ I        1853 18.85         7.4 0.40            148           94.6 176 
 NOR  HZ EP       1853 10.66                             119    0.14 8  231 236 
 NOR  HN ES       1853 37.29                             119   -0.78 8  231 236 
 NOR  HZ I        1853 41.08         2.6 0.16            120            231 236 
                                                                                
