 2011  4 9 1735 46.1 L   6.753 -73.101137.1  RSN  9 0.4 2.5LRSN                1
 GAP=162        1.13       9.3     8.0 11.8 -0.4145E+02 -0.1053E+02  0.6433E+02E
 Epicentro: LOS SANTOS - SANTANDER                                             3
 ACTION:UP  11-06-22 15:30 OP:REBC STATUS:               ID:20110409173546 L   I
 2011-04-09-1720-00M.COL___140                                                 6
 STAT SP IPHASW D HRMM SECON CODA AMPLIT PERI AZIMU VELO SNR AR TRES W  DIS CAZ7
 BAR2 SZ EP       1736  4.83                             171     0.210   20 207 
 BAR2 SZ I        1736 22.07        83.1 0.29                            20 207 
 BTL  SZ EP       1736  3.87                             169    -0.910   26 315 
 BRR  HZ EP       1736  6.73                             149     0.010   78 300 
 BRR  HN ES   1   1736 23.13                             149     0.3 7   78 300 
 BRR  HZ I        1736 27.58        94.3 0.07                            78 300 
 PAM  SZ IP       1736  7.75                             149     0.310   79  34 
 PAM  SN ES   1   1736 24.30                             149     0.2 7   79  34 
 PAM  SZ I        1736 26.47        35.1 0.38                            79  34 
 GRA  SZ EP       1736 10.66                             134    -0.210  129  15 
 GRA  SZ I        1736 31.42        69.1 0.34                           129  15 
 NOR  SZ EP       1736 21.26                             116    -0.2 8  236 236 
 NOR  SN ES   1   1736 48.83                             116    -0.2 6  236 236 
 CHI  HZ EP       1736 23.19                             116     0.3 8  245 197 
 CHI  HZ I        1736 56.80         9.6 0.39                           245 197 
 HEL  HZ EP       1736 26.98                             113     0.7 7  276 257 
 HEL  HN ES   2   1736 57.14                             113    -0.5 4  276 257 
 HEL  HZ I        1737  4.84        17.6 0.63                           276 257 
 MON  HZ EP   4   1736 32.57                             107    -3.0 0  361 309 
 MON  HN ES   4   1737  9.32                             107    -4.9 0  361 309 
 PRA  HZ EP       1736 38.95                             105    -0.1 6  390 211 
                                                                                
