 2014  1 9 1047 17.4 L   6.810 -73.148146.0  RSN 12 0.4 2.3LRSN                1
 GAP=136        0.83       2.3     3.2  4.6 -0.1346E+01  0.5259E+01 -0.1454E+01E
 Epicentro: LOS SANTOS - SANTANDER                                             3
 ACTION:UPD 14-03-13 09:53 OP:ep   STATUS:               ID:20140109104717 L   I
 OLDACT:REG 14-01-09 10:38 OP:nd   STATUS:               ID:20140109104000     3
 2014-01-09-1040-00M.COL___285                                                 6
 STAT SP IPHASW D HRMM SECON CODA AMPLIT PERI AZIMU VELO AIN AR TRES W  DIS CAZ7
 BAR2 SZ EP       1047 37.00                             170   -0.1110 24.3 189 
 BAR2 SZ ES       1047 52.31                             170   -0.1410 24.3 189 
 BAR2 SZ I        1047 53.58        69.9 0.24            169           24.3 189 
 PAM  SZ EP       1047 39.95                             151    0.3210 76.7  40 
 PAM  SN ES       1047 57.06                             151    0.1210 76.7  40 
 PAM  SZ I        1047 59.15        26.8 0.52            155           76.7  40 
 RUS  HZ EP       1047 40.99                             143   -0.2910  102 176 
 RUS  HN ES       1048  0.09                             143    0.2110  102 176 
 RUS  HZ I        1048  0.68        13.8 0.18            145            102 176 
 PTB  HZ EP       1047 43.77                             132   -0.64 9  148 258 
 PTB  HN ES       1048  5.04                             132   -0.42 9  148 258 
 PTB  HZ I        1048  7.45        22.0 0.10            132            148 258 
 SPBC HZ EP       1047 46.24                             129    0.23 9  164 219 
 SPBC HN ES       1048  8.48                             129    0.18 9  164 219 
 SPBC HZ I        1048 12.40        32.3 0.20            129            164 219 
 ZAR  HZ EP   1   1047 49.67                             122   -0.16 6  203 292 
 ZAR  HN ES       1048 15.04                             122   -0.06 9  203 292 
 ZAR  HZ I        1048 20.15        18.6 0.26            123            203 292 
 NOR  HZ EP       1047 53.20                             118   -0.02 8  235 234 
 NOR  HE ES       1048 21.07                             118   -0.06 8  235 234 
 NOR  HZ I        1048 30.27        11.1 0.14            119            235 234 
 SML  HZ EP       1047 53.49                             117   -0.46 8  243 335 
 SML  HE ES       1048 22.67                             117    0.23 8  243 335 
 SML  HZ I        1048 27.03        18.1 0.24            119            243 335 
 CHI  HZ EP       1047 55.24                             117   -0.01 8  250 195 
 CHI  HN ES       1048 24.61                             117   -0.13 8  250 195 
 CHI  HZ I        1048 28.04        14.4 0.64            118            250 195 
 HEL  HZ EP       1047 58.69                             115    1.03 8  272 256 
 HEL  HN ES       1048 29.38                             115    0.34 8  272 256 
 HEL  HZ I        1048 35.10        12.3 0.28            115            272 256 
 GUY2CHZ EP       1048  1.33                             112    0.23 7  302 235 
 GUY2CHZ I        1048 43.28        11.7 0.34                           302 235 
 RREF HZ EP   4   1048  5.16                             111    1.52 0  322 229 
 COD  HZ EP   1   1048  4.76                             109   -0.93 5  347 355 
 COD  HN ES       1048 43.79                             109    0.46 6  347 355 
 SJC  HZ EP   4   1048 11.31                             106   -1.57 0  408 327 
                                                                                
