 2016 12 9 1919 14.4 L   6.828 -73.091143.2  RSN 10 0.4 2.4LRSN                1
 GAP=142        0.85       3.2     3.8  5.1 -0.1418E+00  0.4422E+01  0.5360E+01E
 Epicentro: LOS SANTOS - SANTANDER                                             3
 ACTION:UPD 17-01-11 20:13 OP:rebc STATUS:               ID:20161209191914 L   I
 OLDACT:UP  16-12-09 23:14 OP:and  STATUS:               ID:20161209191644     3
 OLDACT:UP  16-12-09 23:08 OP:and  STATUS:               ID:20161209191644     3
 OLDACT:REG 16-12-09 21:13 OP:ar   STATUS:               ID:20161209191644     3
 2016-12-09-1917-00M.COL___355                                                 6
 STAT SP IPHASW D HRMM SECON CODA AMPLIT PERI AZIMU VELO AIN AR TRES W  DIS CAZ7
 BAR2 EZ IP     D 1919 33.60                             168   -0.1910 27.9 201 
 BAR2 EZ ES   2   1919 49.70                             168    0.76 5 27.9 201 
 BAR2 EZ I        1919 57.45        29.2 0.23            165           27.9 201 
 PAM  EZ EP       1919 36.20                             152    0.2610 71.2  37 
 PAM  EN ES       1919 52.81                             152    0.0310 71.2  37 
 PAM  EZ I        1919 53.84        45.9 0.24            160           71.2  37 
 BRR  HZ EP       1919 35.25                             151   -0.2210 75.2 294 
 BRR  HE ES       1919 52.24                             151    0.3110 75.2 294 
 BRR  HZ I        1919 56.11        42.3 0.12            153           75.2 294 
 RUS  HZ EP       1919 37.81                             142   -0.2610  103 180 
 RUS  HN ES       1919 56.19                             142   -0.3710  103 180 
 PTB  HZ EP   9   1919 40.19                             130   -1.53 0  154 258 
 PTB  HN ES       1920  1.61                                    0.08 9  154 258 
 PTB  HZ I        1920  3.96        31.2 0.18            132            154 258 
 ZAR  HZ EP       1919 47.69                             121    0.58 8  209 291 
 ZAR  HN ES       1920 11.77                             121   -0.88 8  209 291 
 ZAR  HZ I        1920 17.12        41.5 0.30            125            209 291 
 CHI  HZ EP       1919 52.33                             116   -0.09 8  253 196 
 CHI  HN ES       1920 22.47                             116    0.36 8  253 196 
 CHI  HZ I        1920 30.75         8.4 0.34            119            253 196 
 GUY2CHZ EP       1919 58.77                             111    0.16 7  308 235 
 GUY2CHE ES       1920 33.67                             111    0.54 7  308 235 
 GUY2CHZ I        1920 42.07        21.1 0.50                           308 235 
 PRA  HZ EP       1920  8.59                             106    0.13 6  398 210 
 PRA  HN ES       1920 50.24                             106   -0.42 6  398 210 
 PRA  HZ I        1920 57.04        12.0 0.32            108            398 210 
 ORTC HZ EP       1920  9.05                             106    0.15 6  401 217 
 ORTC HE ES   4   1920 53.14                             106    1.69 0  401 217 
 ORTC HZ I        1920 58.52         7.6 0.58            108            401 217 
                                                                                
