 2014  5 9 1021 48.5 L   6.774 -73.138141.0  RSN  7 0.4 1.7LRSN                1
 GAP=139        0.96       3.8     4.3  8.4 -0.2562E+01  0.1507E+02 -0.2334E+01E
 Epicentro: LOS SANTOS - SANTANDER                                             3
 ACTION:UPD 15-03-16 16:56 OP:nd   STATUS:               ID:20140509102148 L   I
 OLDACT:REG 14-05-09 20:30 OP:stll STATUS:               ID:20140509101818     3
 2014-05-09-1018-18M.COL___242                                                 6
 STAT SP IPHASW D HRMM SECON CODA AMPLIT PERI AZIMU VELO AIN AR TRES W  DIS CAZ7
 PAM  SZ EP       1022 10.52                             149    0.2010 79.1  38 
 PAM  SN ES       1022 27.42                             149    0.0810 79.1  38 
 PAM  SZ I        1022 30.30         9.1 0.41            156           79.1  38 
 RUS  HZ EP       1022 11.56                             144   -0.0110 97.6 176 
 RUS  HN ES       1022 29.46                             144   -0.1110 97.6 176 
 PTB  HZ EP       1022 14.69                             131   -0.42 9  148 260 
 PTB  HN ES       1022 35.03                             131   -0.84 9  148 260 
 SPBC HZ EP   1   1022 16.57                             128    0.09 7  161 220 
 SPBC HN ES   1   1022 38.71                             128    0.41 7  161 220 
 SPBC HZ I        1022 45.64         6.3 0.61            131            161 220 
 ZAR  HZ EP       1022 20.70                             121   -0.14 8  206 293 
 ZAR  HN ES       1022 46.46                             121    0.40 8  206 293 
 ZAR  HZ I        1022 52.09                             124            206 293 
 NOR  HZ EP       1022 23.62                             117   -0.23 8  234 235 
 NOR  HN ES       1022 52.34                             117    0.91 8  234 235 
 NOR  HZ I        1022 59.30         3.9 0.11            120            234 235 
 SML  HZ EP   4   1022 21.78                             116   -3.41 0  247 335 
 SML  HN ES   1   1022 54.00                             116    0.19 6  247 335 
                                                                                
