 2017  3 9 1115 53.1 L   6.752 -73.112144.1  RSN  7 0.2 1.6LRSN                1
 GAP=143        0.67       2.9     2.9  4.9 -0.5602E+00  0.2876E+01 -0.1214E+00E
 Epicentro: LOS SANTOS - SANTANDER                                             3
 ACTION:UPD 17-05-25 18:38 OP:jn   STATUS:               ID:20170309111553 L   I
 OLDACT:REG 17-03-09 19:23 OP:cara STATUS:               ID:20170309110744     3
 2017-03-09-1108-00M.COL___397                                                 6
 STAT SP IPHASW D HRMM SECON CODA AMPLIT PERI AZIMU VELO AIN AR TRES W  DIS CAZ7
 BAR2 EZ IP       1116 12.76                             172    0.3110 19.2 204 
 BAR2 EZ ES       1116 27.44                             172   -0.1110 19.2 204 
 BAR2 EZ I        1116 28.82         6.9 0.34            171           19.2 204 
 BRR  HZ EP       1116 14.46                             150    0.0510 77.0 301 
 BRR  HE ES       1116 31.35                             150    0.3210 77.0 301 
 BRR  HZ I        1116 34.96         8.8 0.18            149           77.0 301 
 PAM  EZ IP     D 1116 15.55                             150    0.2910 79.4  35 
 PAM  EE ES       1116 32.20                             150   -0.3510 79.4  35 
 PAM  EZ I        1116 34.10         5.9 0.16            152           79.4  35 
 RUS  HZ EP       1116 16.20                             145   -0.0910 95.1 178 
 RUS  HN ES       1116 34.38                             145   -0.0010 95.1 178 
 RUS  HZ I        1116 36.55         3.6 0.32            148           95.1 178 
 PTB  HZ EP       1116 19.70                             131   -0.48 9  150 261 
 PTB  HE ES       1116 41.09                             131   -0.21 9  150 261 
 PTB  HZ I        1116 45.70         3.9 0.10            132            150 261 
 SPBC HN ES       1116 43.49                             129    0.18 9  161 221 
 ZAR  HZ EP   4   1116 27.38                             121    1.38 0  209 293 
 ZAR  HE ES       1116 51.70                             121    0.04 8  209 293 
 ZAR  HZ I        1116 56.40         7.2 0.60            122            209 293 
                                                                                
