 2011  3 9 1004  1.8 L   6.784 -73.149137.0  RSN 14 0.5 3.2LRSN                1
 GAP=103        1.18       4.4     7.5  8.8 -0.4070E+01  0.2854E+02 -0.8715E+00E
 Epicentro: LOS SANTOS - SANTANDER                                             3
 ACTION:UP  11-06-16 14:32 OP:jfem STATUS:               ID:20110309100401 L   I
 2011-03-09-1002-26S.COL___135                                                 6
 STAT SP IPHASW D HRMM SECON CODA AMPLIT PERI AZIMU VELO SNR AR TRES W  DIS CAZ7
 BAR2 SZ IP       10 4 20.72                             171     0.410   22 190 
 BAR2 SZ ES   1   10 4 34.73                             171    -0.1 7   22 190 
 BAR2 SZ I        10 4 37.17       397.8 0.25                            22 190 
 RUS  HZ EP   1   10 4 24.63                             142     0.1 7   99 176 
 RUS  HN ES   1   10 4 41.74                             142    -0.6 7   99 176 
 RUS  HZ I        10 4 45.18       145.2 0.28                            99 176 
 GUE  SZ EP   1   10 4 25.59                             137    -0.3 7  118  12 
 GRA  SZ IP       10 4 27.40                             134     1.010  128  17 
 GRA  SZ ES   1   10 4 45.44                             134    -0.2 7  128  17 
 GRA  SZ I        10 4 48.05       171.1 0.37                           128  17 
 OCA  SZ EP       10 4 28.80                             127    -0.8 9  162 353 
 OCA  SZ I        10 4 56.35       342.4 0.35                           162 353 
 YOP  SZ EP   1   10 4 31.41                             124     0.3 7  178 153 
 YOP  SE ES   1   10 4 53.94                             124     0.0 7  178 153 
 YOP  SZ I        10 4 58.80        93.8 0.40                           178 153 
 CHI  HZ EP   1   10 4 38.93                             115     0.1 6  247 195 
 CHI  HZ I        10 5 14.46        75.3 0.30                           247 195 
 HEL  HZ EP   1   10 4 41.36                             113    -0.1 6  271 256 
 HEL  HN ES   1   10 5 13.20                             113     0.7 6  271 256 
 HEL  HZ I        10 5 21.47       106.2 0.56                           271 256 
 VIL  SZ EP       10 4 44.46                             110    -0.2 7  302 192 
 RREF HZ EP   1   10 4 47.33                             109    -0.1 5  320 230 
 RREF HZ I        10 5 34.89        97.0 0.41                           320 230 
 DBB  SZ EP       10 4 48.41                             108    -0.5 7  339 275 
 TOL  SZ EP   1   10 4 50.28                             108     0.7 5  342 225 
 SDV  BZ EP   3   10 4 49.97                             106    -1.7 2  362  50 
 PRA  HZ EP       10 4 54.25                             105    -0.6 6  390 210 
                                                                                
