 2015  4 9 1728 57.7 L   6.816 -73.148148.7  RSN 12 0.6 3.2LRSN 3.3WRSN        1
 SPEC AVERAGE  MO 14.0 ST  8.5 OM  2.3 f0 4.61 R0.5568 AL 0.00 WI 30.0 MW  3.3 3
 SPEC SD       MO  0.2 ST  9.6 OM  0.4 f0 2.42 R0.3112 AL      WI      MW  0.1 3
 GAP=135        1.45       4.1     5.4  7.5 -0.5351E+01  0.1355E+02 -0.1849E+01E
 Epicentro: LOS SANTOS - SANTANDER                                             3
 SPEC BAR2EH Z MO 13.8 ST  4.4 OM  1.9 f0 4.86 R0.3959 AL-0.00 WI 30.0 MW  3.1 3
 SPEC BAR2EH Z T172931 K 0.000 GD  150 VS 5.20 DE 3.50 Q0750.0 QA 1.50 VS 5.20 3
 SPEC BRR HH Z MO 14.0 ST  3.7 OM  2.1 f0 3.82 R0.5037 AL-0.00 WI 30.0 MW  3.3 3
 SPEC BRR HH Z T172935 K 0.000 GD  164 VS 5.20 DE 3.50 Q0750.0 QA 1.50 VS 5.20 3
 SPEC PAM SH Z MO 14.3 ST0.478 OM  2.4 f0 1.53 R1.2575 AL-0.00 WI 30.0 MW  3.5 3
 SPEC PAM SH Z T172936 K 0.000 GD  167 VS 5.20 DE 3.50 Q0750.0 QA 1.50 VS 5.20 3
 SPEC RUS HH Z MO 14.1 ST0.614 OM  2.1 f0 2.04 R0.9431 AL-0.00 WI 30.0 MW  3.3 3
 SPEC RUS HH Z T172939 K 0.000 GD  180 VS 5.20 DE 3.50 Q0750.0 QA 1.50 VS 5.20 3
 SPEC PTB HH Z MO 13.7 ST 15.2 OM  1.7 f0 7.69 R0.2502 AL-0.00 WI 30.0 MW  3.1 3
 SPEC PTB HH Z T172944 K 0.000 GD  209 VS 5.20 DE 3.50 Q0750.0 QA 1.50 VS 5.20 3
 SPEC OCA HH Z MO 14.3 ST  3.5 OM  2.3 f0 2.95 R0.6522 AL-0.00 WI 30.0 MW  3.5 3
 SPEC OCA HH Z T172946 K 0.000 GD  216 VS 5.20 DE 3.50 Q0750.0 QA 1.50 VS 5.20 3
 SPEC SPBCHH Z MO 14.1 ST 20.4 OM  2.0 f0 6.61 R0.2911 AL-0.00 WI 30.0 MW  3.3 3
 SPEC SPBCHH Z T172947 K 0.000 GD  221 VS 5.20 DE 3.50 Q0750.0 QA 1.50 VS 5.20 3
 SPEC ZAR HH Z MO 14.1 ST  3.9 OM  2.0 f0 3.64 R0.5286 AL-0.00 WI 30.0 MW  3.4 3
 SPEC ZAR HH Z T172954 K 0.000 GD  251 VS 5.20 DE 3.50 Q0750.0 QA 1.50 VS 5.20 3
 SPEC NOR HH Z MO 14.0 ST  2.5 OM  1.8 f0 3.55 R0.5420 AL-0.00 WI 30.0 MW  3.2 3
 SPEC NOR HH Z T172960 K 0.000 GD  278 VS 5.20 DE 3.50 Q0750.0 QA 1.50 VS 5.20 3
 SPEC SML HH Z MO 13.8 ST 30.4 OM  1.6 f0 9.45 R0.2036 AL-0.00 WI 30.0 MW  3.1 3
 SPEC SML HH Z T172959 K 0.000 GD  284 VS 5.20 DE 3.50 Q0750.0 QA 1.50 VS 5.20 3
 SPECGUY2CHH Z MO 14.4 ST  0.2 OM  2.1 f0 1.17 R  1.64 AL-0.00 WI 30.0 MW  3.5 3
 SPECGUY2CHH Z T173014 K       GD336.6 VS 5.20 DE 3.50 Q0750.0 QA 1.50 VS 5.20 3
 OLDACT:REG 15-04-09 21:53 OP:carl STATUS:               ID:20150409172750     3
 ACTION:UPD 15-06-03 16:53 OP:cam  STATUS:               ID:20150409172857 L   I
 OLDACT:UP  15-04-09 22:57 OP:carl STATUS:               ID:20150409172750     3
 2015-04-09-1727-50M.COL___270                                                 6
 STAT SP IPHASW D HRMM SECON CODA AMPLIT PERI AZIMU VELO AIN AR TRES W  DIS CAZ7
 BAR2 EZ EP     C 1729 17.81                             170    0.0610 25.1 189 
 BAR2 EZ ES       1729 32.50                             170   -0.8610 25.1 189 
 BAR2 EZ I        1729 34.35       244.4 0.22            171           25.1 189 
 BRR  HZ EP     C 1729 19.67                             153    0.5310 70.2 297 
 BRR  HN ES       1729 37.12                             153    1.2810 70.2 297 
 BRR  HZ I        1729 40.20       196.9 0.30            152           70.2 297 
 PAM  SZ IP     C 1729 20.56                             152    0.3810 76.1  41 
 PAM  SN ES       1729 38.18                             152    0.4810 76.1  41 
 PAM  SZ I        1729 40.34       251.2 0.44            154           76.1  41 
 RUS  HZ EP       1729 21.66                             144   -0.2410  102 176 
 RUS  HN ES       1729 40.60                             144   -0.1510  102 176 
 RUS  HZ I        1729 41.44       107.2 0.46            148            102 176 
 PTB  HZ EP       1729 24.48                             133   -0.47 9  148 258 
 PTB  HN ES       1729 45.55                             133   -0.63 9  148 258 
 PTB  HZ I        1729 50.85       116.9 0.28            134            148 258 
 OCA  HZ EP       1729 26.07                             131   -0.03 9  158 353 
 OCA  HN ES       1729 48.09                             131   -0.14 9  158 353 
 OCA  HZ I        1729 52.54       385.7 0.20            132            158 353 
 SPBC HZ EP       1729 26.71                             129    0.14 9  164 219 
 SPBC HN ES       1729 48.80                             129   -0.27 9  164 219 
 SPBC HZ I        1729 51.47       343.7 0.30            132            164 219 
 ZAR  HZ EP       1729 29.94                             123   -0.34 9  203 292 
 ZAR  HN ES       1729 55.99                             123    0.33 9  203 292 
 ZAR  HZ I        1730  2.64       148.4 0.32            124            203 292 
 NOR  HZ EP       1729 33.73                             119    0.00 8  236 234 
 NOR  HN ES       1730  1.53                             119   -0.27 8  236 234 
 NOR  HZ I        1730  4.09       115.5 0.16            121            236 234 
 SML  HZ EP       1729 34.24                             118   -0.09 8  242 335 
 SML  HE ES       1730  1.17                             118   -1.71 8  242 335 
 HEL  HZ EP       1729 38.95                             115    0.83 8  272 255 
 HEL  HN ES       1730 10.43                             115    0.81 8  272 255 
 GUY2CHZ EP       1729 42.03                             113    0.46 7  302 234 
 GUY2CHN ES       1730 15.55                             113   -0.22 7  302 234 
 GUY2CHZ I        1730 25.61        76.3 0.50                           302 234 
                                                                                
