 2011  9 9 1002 35.5 L   6.736 -73.129153.6  RSN  4 0.2 1.2LRSN                1
 GAP=187        0.43       6.3    10.8  5.6  0.5561E+02 -0.3131E+02 -0.1494E+02E
 Epicentro: JORDAN - SANTANDER                                                 3
 ACTION:UPD 12-07-13 15:56 OP:ep   STATUS:               ID:20110909100235 L   I
 2011-09-09-1000-00M.COL___171                                                 6
 STAT SP IPHASW D HRMM SECON CODA AMPLIT PERI AZIMU VELO AIN AR TRES W  DIS CAZ7
 BAR2 SZ EP   1   10 2 55.64                             173   -0.37 7 16.9 200 
 BAR2 SZ ES   1   10 3 12.03                             173    0.06 7 16.9 200 
 BAR2 SZ I        10 3 13.93         5.5 0.58                          16.9 200 
 GIR2 SZ EP   1   10 2 56.50                             165    0.14 7 38.6 349 
 BRR  HZ EP   1   10 2 57.81                             152   -0.02 7 76.4 303 
 BRR  HZ I        10 3  4.47         4.1 0.39                          76.4 303 
 BRR  HN ES       10 3 15.23                             152    0.0110 76.4 303 
 RUS  HZ EP   1   10 2 59.80                             147    0.21 7 93.4 177 
 RUS  HE ES   1   10 3 18.29                             147   -0.05 7 93.4 177 
 RUS  HZ I        10 3 19.04         1.4 0.31                          93.4 177 
                                                                                
