 2017  7 9 1948 46.2 L   6.851 -73.123145.0  RSN 10 0.5 1.9LRSN                1
 GAP=187        1.02       4.2     4.3  6.0  0.6263E+01  0.1992E+01 -0.8332E+00E
 Epicentro: LOS SANTOS - SANTANDER                                             3
 ACTION:UPD 17-08-30 15:31 OP:rebc STATUS:               ID:20170709194846 L   I
 OLDACT:REG 17-07-09 21:23 OP:dhb  STATUS:               ID:20170709194746     3
 2017-07-09-1948-00M.COL___380                                                 6
 STAT SP IPHASW D HRMM SECON CODA AMPLIT PERI AZIMU VELO AIN AR TRES W  DIS CAZ7
 BAR2 HZ EP       1949  5.76                             169   -0.1010 29.4 193 
 BAR2 HZ ES       1949 21.18                             169   -0.0310 29.4 193 
 BAR2 HZ I        1949 22.69        26.8 0.16            168           29.4 193 
 BRR  HZ EP       1949  8.05                             153    0.8110 71.0 294 
 BRR  HN ES       1949 24.32                             153    0.6610 71.0 294 
 BRR  HZ I        1949 26.72        10.3 0.18            151           71.0 294 
 PTB  HZ EP       1949 13.12                             132   -0.30 9  151 257 
 PTB  HN ES       1949 34.07                             132   -0.60 9  151 257 
 PTB  HZ I        1949 36.18         8.3 0.15            131            151 257 
 SPBC HZ EP       1949 15.25                             128    0.06 9  169 218 
 SPBC HN ES       1949 37.37                             128   -0.45 9  169 218 
 SPBC HZ I        1949 40.68        17.8 0.10            128            169 218 
 YPLC HZ IP       1949 16.86                             126    0.57 9  181 153 
 YPLC HE ES       1949 39.31                             126   -0.47 9  181 153 
 YPLC HZ I        1949 43.51         6.5 0.30            127            181 153 
 ZAR  HZ EP       1949 18.31                             122   -0.30 9  204 290 
 ZAR  HN ES       1949 43.84                             122   -0.06 9  204 290 
 ZAR  HZ I        1949 49.58         9.0 0.15            122            204 290 
 NOR  HZ EP       1949 22.53                             118    0.09 8  240 234 
 NOR  HE ES       1949 50.58                             118   -0.15 8  240 234 
 NOR  HZ I        1949 55.21         5.3 0.25            118            240 234 
 HEL  HZ EP   2   1949 27.63                             115    0.85 4  276 255 
 HEL  HN ES   1   1949 58.76                             115    0.31 6  276 255 
 HEL  HZ I        1950  4.47         6.6 0.30            114            276 255 
 GUY2CHZ EP   3   1949 31.67                             112    1.31 2  307 234 
 GUY2CHN ES   3   1950  7.19                             112    2.38 2  307 234 
 GUY2CHZ I        1950 12.64         4.9 0.30                           307 234 
 SJC  HZ EP       1949 40.59                             106   -0.74 6  406 326 
 SJC  HN ES       1950 23.91                             106   -0.43 6  406 326 
 SJC  HZ I        1950 34.06         1.5 0.31            106            406 326 
                                                                                
