 2015  1 9 1752 57.4 L   6.520 -73.521112.0  RSN 17 0.5 2.3LRSN                1
 GAP= 67        1.16       2.7     4.5  6.2 -0.3711E+01  0.7749E+01 -0.1682E+01E
 Epicentro: EL CARMEN - SANTANDER                                              3
 ACTION:UPD 15-03-02 15:38 OP:nd   STATUS:               ID:20150109175258dL   I
 OLDACT:DUP 15-01-10 01:04 OP:mh   STATUS:               ID:20150109174748d    3
 OLDACT:UP  15-01-10 00:50 OP:mh   STATUS:               ID:20150109174747     3
 OLDACT:REG 15-01-09 22:21 OP:mh   STATUS:               ID:20150109174747     3
 2015-01-09-1747-47M.COL___268                                                 6
 STAT SP IPHASW D HRMM SECON CODA AMPLIT PERI AZIMU VELO AIN AR TRES W  DIS CAZ7
 BAR2 EZ EP       1753 14.17                             160    0.7210 38.3  78 
 BAR2 EZ ES       1753 26.16                             160    0.1510 38.3  78 
 BRR  HZ EP       1753 15.01                             146    0.2410 68.3 342 
 BRR  HN ES       1753 28.69                             146    0.3410 68.3 342 
 BRR  HZ I        1753 29.88        34.1 0.09            144           68.3 342 
 RUS  HZ EP       1753 16.43                             141   -0.2210 84.6 145 
 RUS  HN ES       1753 31.04                             141   -0.6710 84.6 145 
 RUS  HZ I        1753 34.70        19.2 0.40            140           84.6 145 
 PTB  HZ IP     D 1753 16.94                             134   -0.6210  103 271 
 PTB  HN ES   4   1753 31.97                             134   -1.35 0  103 271 
 PTB  HZ I        1753 34.00        41.6 0.12            129            103 271 
 SPBC HZ EP       1753 18.59                             131    0.0110  114 212 
 SPBC HN ES       1753 35.02                             131   -0.1310  114 212 
 SPBC HZ I        1753 41.23        46.3 0.00            127            114 212 
 PAM  SZ EP       1753 20.67                             128    0.1810  128  45 
 PAM  SN ES       1753 38.53                             128   -0.0010  128  45 
 PAM  SZ I        1753 40.18        46.8 0.20            128            128  45 
 ZAR  HZ EP   9   1753 26.39                             117    0.89 0  183 306 
 ZAR  HN ES   1   1753 49.00                             117    0.66 7  183 306 
 ZAR  HZ I        1753 51.39        34.3 0.40            114            183 306 
 NOR  HZ EP       1753 25.45                             117   -0.13 9  183 235 
 NOR  HN ES   1   1753 47.23                             117   -0.37 7  183 235 
 NOR  HZ I        1753 51.52        29.1 0.40            114            183 235 
 OCA  HZ EP       1753 26.01                             116   -0.62 9  191   7 
 OCA  HN ES       1753 49.27                             116   -0.20 9  191   7 
 OCA  HZ I        1753 54.99        38.4 0.32            114            191   7 
 CHI  HZ EP       1753 28.81                             113   -0.26 8  210 186 
 CHI  HN ES       1753 54.68                             113    0.87 8  210 186 
 CHI  HZ I        1753 59.69        10.2 0.36            111            210 186 
 SML  HZ EP       1753 34.17                             108    0.02 8  259 346 
 SML  HN ES       1754  2.86                             108    0.01 8  259 346 
 SML  HZ I        1754  8.11        30.5 0.10            106            259 346 
 RREF HZ EP   9   1753 38.17                             107    1.97 0  270 229 
 RREF HN ES       1754  9.23                                    0.76 8  270 229 
 RREF HZ I        1754 13.06        16.0 0.24            105            270 229 
 TOL  SZ EP   9   1753 40.30                             106    1.87 0  292 223 
 TOL  SN ES       1754 11.26                             106   -1.08 7  292 223 
 TOL  SZ I        1754 13.85        36.6 0.46            103            292 223 
 ANIL HZ EP   4   1753 41.61                             105    1.60 0  306 223 
 ANIL HN ES   4   1754 13.74                             105    0.45 0  306 223 
 ANIL HZ I        1754 22.95         2.9 0.32            103            306 223 
 ORTC HZ EP       1753 45.58                             102    1.13 6  346 214 
 ORTC HN ES   4   1754 22.79                             102    1.61 0  346 214 
 ORTC HZ I        1754 30.44         9.3 0.34            100            346 214 
 SDV  BZ EP   2   1753 51.97                              99   -0.56 3  412  51 
 SDV  BN ES   4   1754 33.36                              99   -2.21 0  412  51 
 SJC  HZ EP   4   1753 52.31                              99   -0.49 0  416 334 
 SJC  HN ES   4   1754 32.38                              99   -3.67 0  416 334 
 SJC  HZ I        1754 42.79         3.8 0.34             97            416 334 
                                                                                
