 2012  9 9 1932 26.3 L   6.752 -73.138141.8  RSN  6 0.4 1.6LRSN                1
 GAP=140        0.79       5.2     4.5  9.7  0.2262E+00 -0.8780E-01 -0.1641E+01E
 Epicentro: LOS SANTOS - SANTANDER                                             3
 ACTION:UPD 12-10-22 14:18 OP:ep   STATUS:               ID:20120909193226 L   I
 2012-09-09-1930-00M.COL___227                                                 6
 STAT SP IPHASW D HRMM SECON CODA AMPLIT PERI AZIMU VELO AIN AR TRES W  DIS CAZ7
 GIR2 SZ EP   1   1932 45.07                             165   -0.59 7 36.7 350 
 BRR  HZ EP   1   1932 47.51                             151    0.29 7 74.6 302 
 BRR  HZ I        1932 49.79        10.5 0.11                          74.6 302 
 BRR  HN ES   1   1933  4.13                             151    0.59 7 74.6 302 
 PAM  SZ EP       1932 48.48                             149    0.1610 81.0  37 
 PAM  SE ES   1   1933  5.15                             149   -0.35 7 81.0  37 
 PAM  SZ I        1933  7.45         9.2 0.53                          81.0  37 
 RUS  HZ EP   1   1932 49.46                             144    0.18 7 95.2 176 
 RUS  HN ES   1   1933  7.29                             144    0.09 7 95.2 176 
 RUS  HZ I        1933  9.09         3.6 0.32                          95.2 176 
 PTB  HE ES   1   1933 13.09                             131   -0.63 7  148 261 
 ZAR  HN ES   1   1933 24.21                             121    0.08 6  207 293 
 ZAR  HZ I        1933 29.82         3.8 0.09                           207 293 
                                                                                
