 2014 12 9 1002  4.0 L   7.403 -73.192137.1  RSN  5 0.3 1.3LRSN                1
 GAP=111        0.74       3.4     4.2  5.7 -0.3767E+01  0.5533E+01 -0.5756E+00E
 Epicentro: EL PLAYON - SANTANDER                                              3
 ACTION:UPD 15-02-10 17:01 OP:nd   STATUS:               ID:20141209100204 L   I
 OLDACT:DUP 14-12-09 20:24 OP:stll STATUS:               ID:20141209095746d    3
 2014-12-09-0957-45M.COL___306                                                 6
 STAT SP IPHASW D HRMM SECON CODA AMPLIT PERI AZIMU VELO AIN AR TRES W  DIS CAZ7
 PAM  SZ EP       10 2 24.39                             157    0.2910 54.8  97 
 PAM  SZ I        10 2 24.63         4.9 0.16            159           54.8  97 
 PAM  SN ES       10 2 39.74                             157   -0.0110 54.8  97 
 BRR  HZ EP       10 2 24.25                             153    0.2810 66.1 240 
 BRR  HN ES       10 2 39.33                             153   -0.1910 66.1 240 
 BRR  HZ I        10 2 39.78         4.6 0.28            152           66.1 240 
 BAR2 SZ EP       10 2 25.13                             145   -0.6810 89.7 179 
 BAR2 SZ ES       10 2 43.01                             145    0.2310 89.7 179 
 BAR2 SZ I        10 2 43.39         4.2 0.34            146           89.7 179 
 OCA  HZ EP       10 2 26.01                             144    0.0610 93.4 351 
 OCA  HN ES       10 2 42.95                             144   -0.1010 93.4 351 
 OCA  HZ I        10 2 44.39         4.3 0.18            144           93.4 351 
 PTB  HZ EP       10 2 32.43                             126    0.04 9  169 236 
 PTB  HN ES       10 2 54.62                             126    0.11 9  169 236 
 PTB  HZ I        10 2 56.47         2.1 0.14            126            169 236 
                                                                                
