 2013  3 9 1805 58.7 L   6.770 -73.131140.9  RSN  6 0.3 1.9LRSN                1
 GAP=140        0.75       4.3     4.8  5.4  0.5191E+01  0.3009E+01  0.2193E+01E
 Epicentro: LOS SANTOS - SANTANDER                                             3
 ACTION:UPD 13-04-09 14:01 OP:ep   STATUS:               ID:20130309180558 L   I
 2013-03-09-1800-00M.COL___231                                                 6
 STAT SP IPHASW D HRMM SECON CODA AMPLIT PERI AZIMU VELO AIN AR TRES W  DIS CAZ7
 BAR2 SZ EP       18 6 17.69                             171    0.0410 20.5 196 
 BAR2 SZ ES       18 6 32.16                             171   -0.3010 20.5 196 
 BAR2 SZ I        18 6 34.13        11.9 0.10            171           20.5 196 
 BRR  HZ IP     C 18 6 19.49                             151    0.0210 74.2 300 
 BRR  HN ES       18 6 36.28                             151    0.5910 74.2 300 
 BRR  HN I        18 6 37.06        35.8 0.16            150           74.2 300 
 PAM  SZ EP       18 6 20.58                             149    0.1210 78.9  37 
 PAM  SE ES   1   18 6 37.11                             149   -0.35 7 78.9  37 
 PAM  SZ I        18 6 39.87        12.9 0.46            152           78.9  37 
 RUS  HZ EP       18 6 21.90                             144    0.2110 97.2 177 
 RUS  HN ES   1   18 6 39.52                             144   -0.13 7 97.2 177 
 RUS  HE I        18 6 42.59        10.7 0.16            145           97.2 177 
 ZAR  HZ EP   1   18 6 30.79                             121   -0.29 6  207 293 
 ZAR  HE ES   1   18 6 55.67                             121   -0.70 6  207 293 
 ZAR  HZ I        18 7  2.19         5.5 0.36            122            207 293 
 CHI  HZ EP   1   18 6 35.76                             116   -0.04 6  246 196 
                                                                                
