 2011  7 9 1150 30.2 L   6.755 -73.149146.9  RSN 15 0.3 2.5LRSN                1
 GAP=156        0.60       2.5     4.3  4.5 -0.4813E+01  0.2245E+01  0.9855E+00E
 Epicentro: LOS SANTOS - SANTANDER                                             3
 ACTION:UPD 12-07-25 13:59 OP:epov STATUS:               ID:20110709115030 L   I
 2011-07-09-1149-28S.COL___140                                                 6
 STAT SP IPHASW D HRMM SECON CODA AMPLIT PERI AZIMU VELO AIN AR TRES W  DIS CAZ7
 BAR2 SZ EP       1150 49.86                             173   -0.0310 18.4 191 
 BAR2 SZ ES   1   1151  5.04                             173   -0.20 7 18.4 191 
 BAR2 SZ I        1151  6.71        83.4 0.31                          18.4 191 
 BTL  SZ IP       1150 50.13                             171    0.1710 22.3 324 
 GIR2 SZ EP       1150 49.95                             165   -0.2110 36.1 352 
 BRR  HZ IP     C 1150 51.72                             152    0.1110 73.4 302 
 BRR  HE ES   1   1151  8.80                             152    0.51 7 73.4 302 
 BRR  HZ I        1151 11.54        67.9 0.26                          73.4 302 
 RUS  HZ EP   1   1150 53.60                             145   -0.13 7 95.6 176 
 RUS  HN ES   2   1151 12.17                             145    0.10 5 95.6 176 
 RUS  HZ I        1151 13.76        27.9 0.24                          95.6 176 
 BRI  SZ EP       1150 54.39                             140   -0.1910  113  20 
 GRA  SZ IP       1150 56.61                             136    0.6410  131  17 
 GRA  SZ I        1150 57.85        45.6 0.27                           131  17 
 GRA  SZ ES   2   1151 15.53                             136   -0.52 5  131  17 
 OCA  SZ EP   1   1150 58.63                             129   -0.45 7  165 353 
 OCA  SZ ES   1   1151 21.26                             129   -0.33 7  165 353 
 OCA  SZ I        1151 25.26        44.7 0.25                           165 353 
 NOR  SZ EP   1   1151  5.60                             119   -0.07 6  231 235 
 NOR  SE ES   1   1151 32.83                             119   -0.49 6  231 235 
 CHI  HZ EP   1   1151  7.59                             118    0.14 6  244 195 
 CHI  HE ES   1   1151 36.54                             118    0.06 6  244 195 
 CHI  HZ I        1151 40.84        13.6 0.38                           244 195 
 HEL  HZ EP   1   1151 10.51                             115    0.20 6  270 257 
 RREF HZ EP   2   1151 16.50                             111    0.49 3  318 230 
 RREF HN ES   2   1151 51.55                             111   -0.17 3  318 230 
 RREF HZ I        1151 59.47        19.2 0.38                           318 230 
 DBB  SZ EP   2   1151 17.78                             110    0.04 3  339 275 
 TOL  SZ EP   2   1151 17.46                             110   -0.62 3  340 225 
 PRA  HZ EP   2   1151 23.00                             107   -0.25 3  387 210 
 PRA  HN ES   2   1152  5.10                             107    0.49 3  387 210 
                                                                                
