 2012  6 9 1312 39.8 L   7.216 -73.161137.5  RSN  5 0.3 1.7LRSN                1
 GAP=107        0.73       4.7     4.5  8.3 -0.4263E+01  0.2076E+02 -0.1058E+01E
 Epicentro: RIONEGRO - SANTANDER                                               3
 ACTION:UPD 12-08-06 17:48 OP:ep   STATUS:               ID:20120609131238 L   I
 2012-06-09-1310-00M.COL___201                                                 6
 STAT SP IPHASW D HRMM SECON CODA AMPLIT PERI AZIMU VELO AIN AR TRES W  DIS CAZ7
 PAM  SZ EP   1   1312 59.14                             158   -0.63 7 52.7  75 
 PAM  SN ES       1313 15.57                             158    0.2010 52.7  75 
 PAM  SZ I        1313 17.29         5.8 0.34            164           52.7  75 
 BAR2 SZ EP   1   1313  0.83                             152    0.59 7 69.0 182 
 BAR2 SZ ES   1   1313 16.03                             152   -0.18 7 69.0 182 
 BAR2 SZ I        1313 18.78        15.2 0.15            154           69.0 182 
 OCA  HN ES   1   1313 21.61                             138   -0.10 7  114 351 
 PTB  HZ EP   1   1313  7.08                             127   -0.31 7  162 242 
 PTB  HN ES       1313 28.83                             127   -0.10 9  162 242 
 PTB  HZ I        1313 31.43         6.5 0.14            130            162 242 
 ZAR  HZ EP   1   1313 10.67                             122    0.46 7  190 279 
 ZAR  HN ES   1   1313 33.98                             122    0.02 7  190 279 
 ZAR  HZ I        1313 38.13         6.1 0.09            125            190 279 
                                                                                
