 2017  4 9 1919 55.7 L   6.800 -73.091154.7  RSN  7 0.5 1.5LRSN                1
 GAP=144        1.16       4.9     5.6  7.4 -0.3355E+01  0.1281E+02  0.2294E+01E
 Epicentro: LOS SANTOS - SANTANDER                                             3
 ACTION:UPD 17-05-30 21:10 OP:jn   STATUS:               ID:20170409191955 L   I
 OLDACT:DUP 17-04-09 21:41 OP:ar   STATUS:               ID:20170409191743d    3
 2017-04-09-1918-00M.COL___376                                                 6
 STAT SP IPHASW D HRMM SECON CODA AMPLIT PERI AZIMU VELO AIN AR TRES W  DIS CAZ7
 BAR2 EZ EP       1920 15.98                             170   -0.4210 25.0 204 
 BAR2 EZ ES       1920 33.37                             170    0.7910 25.0 204 
 BAR2 EZ I        1920 33.78         7.0 0.28            167           25.0 204 
 PAM  EZ EP       1920 19.11                             153    0.4810 73.7  36 
 PAM  EN ES       1920 36.12                             153   -0.4310 73.7  36 
 PAM  EZ I        1920 36.49         3.2 0.34            158           73.7  36 
 BRR  HZ EP       1920 17.97                             152   -0.1110 76.6 296 
 BRR  HE ES       1920 35.19                             152   -0.3710 76.6 296 
 BRR  HZ I        1920 38.11         5.1 0.14            150           76.6 296 
 RUS  HZ EP       1920 19.96                             146   -0.3210  100 179 
 RUS  HN ES       1920 39.49                             146    0.0010  100 179 
 RUS  HZ I        1920 40.82         1.7 0.28            146            100 179 
 SPBC HZ EP       1920 24.85                             130   -0.36 9  167 221 
 SPBC HE ES       1920 48.65                             130    0.39 9  167 221 
 SPBC HZ I        1920 53.75         7.1 0.32            130            167 221 
 ZAR  HZ EP       1920 30.25                             123    0.98 8  210 292 
 ZAR  HE ES       1920 55.33                             123   -0.16 8  210 292 
 ZAR  HZ I        1921  0.44         6.4 0.32            124            210 292 
 NOR  HZ EP       1920 32.56                             120    0.12 8  240 235 
 NOR  HE ES       1921  0.65                             120   -0.48 8  240 235 
 NOR  HZ I        1921  6.19         3.8 0.20            120            240 235 
                                                                                
