 2010  5 9 1251 12.1 L   6.780 -72.955145.4  RSN 12 0.5 2.3LRSN                1
 GAP=179        0.86       4.2     8.9  7.2 -0.1870E+02  0.3938E+01  0.7551E+01E
 Epicentro: CEPITA - SANTANDER                                                 3
 ACTION:UP  10-08-24 10:03 OP:vdl  STATUS:               ID:20100509125112 L   I
 2010-05-09-1249-38S.COL___105                                                 6
 STAT SP IPHASW D HRMM SECON CODA AMPLIT PERI AZIMU VELO SNR AR TRES W  DIS CAZ7
 BAR2 SZ IP     D 1251 31.66                             166    -0.210   33 231 
 BAR2 SZ ES   2   1251 46.94                             166    -0.4 5   33 231 
 GIR2 SZ EP   1   1251 31.75                             163    -0.3 7   42 321 
 GIR2 SZ ES   2   1251 47.47                             163    -0.2 5   42 321 
 BRR  HZ IP     D 1251 34.30                             146    -0.110   91 293 
 BRR  HN ES   2   1251 51.95                             146     0.1 5   91 293 
 BRR  HZ I        1251 56.45        40.5 0.11                            91 293 
 RUS  HZ EP   1   1251 35.75                             144     0.1 7   99 188 
 RUS  HN ES   2   1251 53.90                             144    -0.2 5   99 188 
 RUS  HZ I        1251 55.08        13.5 0.28                            99 188 
 BRI  SZ EP   1   1251 36.23                             142     0.5 7  105  10 
 BRI  SZ ES   2   1251 54.73                             142     0.6 5  105  10 
 GUE  SZ EP   1   1251 36.72                             139     0.0 7  116   2 
 GUE  SZ ES   2   1251 56.34                             139     0.4 5  116   2 
 GRA  SZ EP   1   1251 37.44                             137     0.3 7  123   8 
 GRA  SZ ES   2   1251 56.72                             137     0.1 5  123   8 
 OCA  SZ EP   1   1251 40.20                             128    -0.7 7  166 346 
 OCA  SZ ES   2   1252  3.35                             128    -0.1 5  166 346 
 CHI  HZ EP   1   1251 49.67                             116    -0.5 6  253 200 
 CHI  HN ES   2   1252 21.52                             116     1.6 4  253 200 
 CHI  HZ I        1252 24.97         9.5 0.36                           253 200 
 RREF BZ EP   1   1252  1.19                             110     1.3 5  337 232 
 RREF BN ES   2   1252 36.72                             110    -0.5 3  337 232 
 RREF BZ I        1252 43.24        12.3 0.30                           337 232 
 TOL  SZ EP   1   1252  2.06                             108     0.2 5  357 227 
 TOL  SZ ES   2   1252 41.76                             108     1.0 3  357 227 
 PRA  HZ EP   1   1252  5.96                             106    -0.7 4  401 212 
 PRA  HE ES   2   1252 48.87                             106    -0.3 3  401 212 
 PRA  HZ I        1252 52.17        11.2 0.44                           401 212 
                                                                                
