 2015  9 9 1137 50.9 L   6.892 -73.119158.9  RSN  6 0.4 1.9LRSN                1
 GAP=200        1.10       5.8     8.8  8.3  0.8672E+01  0.1608E+02 -0.7301E+01E
 Epicentro: PIEDECUESTA - SANTANDER                                            3
 ACTION:UPD 15-10-28 16:25 OP:cam  STATUS:               ID:20150909113750 L   I
 OLDACT:UP  15-09-09 21:15 OP:drio STATUS:               ID:20150909112748     3
 OLDACT:REG 15-09-09 20:10 OP:drio STATUS:               ID:20150909112748     3
 2015-09-09-1127-48M.COL___358                                                 6
 STAT SP IPHASW D HRMM SECON CODA AMPLIT PERI AZIMU VELO AIN AR TRES W  DIS CAZ7
 BAR2 EZ EP       1138 12.98                             167    0.6210 33.9 192 
 BAR2 EZ ES       1138 28.58                             167   -0.5110 33.9 192 
 BAR2 EZ I        1138 29.28         6.2 0.34            168           33.9 192 
 BRR  HZ EP       1138 13.51                             155    0.1010 69.7 290 
 BRR  HN ES       1138 31.58                             155    0.6110 69.7 290 
 OCA  HZ EP   4   1138 17.60                             134   -1.81 0  151 352 
 OCA  HN ES       1138 41.16                             134   -0.49 9  151 352 
 PTB  HZ EP       1138 18.90                             134   -0.53 9  153 255 
 PTB  HN ES   4   1138 41.36                             134   -0.31 0  153 255 
 PTB  HZ I        1138 44.09         5.6 0.26            132            153 255 
 ZAR  HZ EP       1138 24.35                             125    0.19 9  203 289 
 ZAR  HN ES       1138 49.79                             125   -0.30 9  203 289 
 ZAR  HZ I        1138 55.65         8.3 0.26            124            203 289 
 SML  HZ EP       1138 27.26                             121   -0.21 8  236 334 
 SML  HN ES       1138 56.41                             121    0.42 8  236 334 
 SML  HZ I        1139  4.88        14.7 0.10            120            236 334 
                                                                                
