 2015  2 9 1526 10.8 L   6.057 -73.775103.7  RSN  4 0.1 1.2LRSN                1
 GAP=184        0.46       3.9     3.6  4.8 -0.7193E+01  0.1393E+01 -0.9377E+01E
 Epicentro: EL PENON - SANTANDER                                               3
 ACTION:UPD 15-04-30 21:24 OP:nd   STATUS:               ID:20150209152610 L   I
 OLDACT:ARG 15-02-09 20:42 OP:stll STATUS:               ID:20150209151749     3
 2015-02-09-1517-49M.COL___281                                                 6
 STAT SP IPHASW D HRMM SECON CODA AMPLIT PERI AZIMU VELO AIN AR TRES W  DIS CAZ7
 SPBC HN ES       1526 39.06                             150    0.0210 55.6 216 
 RUS  HZ EP       1526 28.61                             140   -0.2510 78.7 103 
 RUS  HN ES       1526 43.10                             140    0.1510 78.7 103 
 RUS  HZ I        1526 43.86         2.5 0.26            142           78.7 103 
 BAR2 EZ EP       1526 29.40                             136    0.1110 88.3  48 
 BAR2 EZ ES       1526 43.59                             136   -0.1210 88.3  48 
 BAR2 EZ I        1526 46.59         7.5 0.18            136           88.3  48 
 PAM  SZ EP       1526 39.50                             114    0.12 9  185  40 
 PAM  SZ I        1526 40.92         2.3 0.18            115            185  40 
                                                                                
