 2016 11 9 1040 49.8 L   6.796 -73.157150.7  RSN 13 0.4 2.3LRSN                1
 GAP=147        0.96       5.1     4.3  5.9 -0.8009E+01  0.7481E+01  0.3379E+01E
 Epicentro: LOS SANTOS - SANTANDER                                             3
 ACTION:UPD 17-10-26 21:06 OP:lp   STATUS:               ID:20161109104049 L   I
 OLDACT:UP  16-11-09 21:24 OP:dnl  STATUS:               ID:20161109103741     3
 OLDACT:UP  16-11-09 21:24 OP:dnl  STATUS:               ID:20161109103741     3
 OLDACT:UP  16-11-09 21:23 OP:dnl  STATUS:               ID:20161109103741     3
 OLDACT:UP  16-11-09 21:22 OP:dnl  STATUS:               ID:20161109103741     3
 OLDACT:REG 16-11-09 20:51 OP:dnl  STATUS:               ID:20161109103741     3
 2016-11-09-1038-00M.COL___346                                                 6
 STAT SP IPHASW D HRMM SECON CODA AMPLIT PERI AZIMU VELO AIN AR TRES W  DIS CAZ7
 BAR2 EZ EP       1041  9.99                             171   -0.0510 22.7 187 
 BAR2 EZ ES       1041 25.56                             171   -0.2410 22.7 187 
 BAR2 EZ I        1041 26.73        34.0 0.18            167           22.7 187 
 BRR  HZ EP     D 1041 11.94                             154    0.4810 70.3 299 
 BRR  HN ES       1041 28.96                             154    0.6210 70.3 299 
 BRR  HZ I        1041 32.49        23.1 0.50            153           70.3 299 
 PAM  EZ IP     D 1041 12.82                             151    0.1910 78.5  40 
 PAM  EN ES       1041 30.07                             151   -0.3610 78.5  40 
 PAM  EZ I        1041 32.59        30.4 0.64            155           78.5  40 
 PTB  HZ EP       1041 16.64                             133   -0.44 9  146 259 
 PTB  HN ES       1041 37.75                             133   -0.59 9  146 259 
 PTB  HZ I        1041 43.90        22.3 0.30            131            146 259 
 ZAR  HZ EP       1041 22.59                             124    0.09 9  203 292 
 ZAR  HE ES       1041 48.15                             124    0.17 9  203 292 
 ZAR  HZ I        1041 54.60        21.3 0.26            123            203 292 
 NOR  HZ EP       1041 26.22                             120    0.51 8  233 234 
 NOR  HE ES       1041 54.31                             120    0.61 8  233 234 
 NOR  HZ I        1041 59.38        16.4 0.26            118            233 234 
 URE  HZ EP       1041 30.41                             115   -0.62 7  283 292 
 URE  HN ES   4   1042  0.04                             115   -3.13 0  283 292 
 URE  HZ I        1042  7.69        12.2 0.12            114            283 292 
 PTGC HZ EP   4   1041 32.80                             112   -1.11 0  309 158 
 PTGC HN ES   4   1042  5.97                             112   -2.32 0  309 158 
 PTGC HZ I        1042 18.42        16.3 0.40            112            309 158 
 ELA  HZ EP   9   1041 39.81                             111    3.07 0  328 229 
 ELA  HN ES       1042 16.50                             111    0.09 7  328 229 
 ELA  HZ I        1042 22.54         8.7 0.32            110            328 229 
 CBOC HZ EP   4   1041 38.75                             111    1.96 0  332 252 
 CBOC HN ES       1042 12.75                             111   -0.68 7  332 252 
 CBOC HZ I        1042 21.18         3.8 0.48            110            332 252 
 ORTC HZ EP   2   1041 43.52                             107   -0.26 3  394 216 
 ORTC HN ES       1042 25.89                             107    0.01 6  394 216 
 ORTC HZ I        1042 32.22         4.8 0.20            106            394 216 
 SJC  HZ EP   4   1041 44.31                             106   -1.21 0  409 327 
 SJC  HN ES   4   1042 25.43                             106   -3.53 0  409 327 
 SJC  HZ I        1042 30.15         3.5 0.36            107            409 327 
 URI  HZ EP   9   1042  0.51                             101   -2.52 0  557  13 
 URI  HN ES       1042 57.21                             101   -0.40 3  557  13 
 URI  HZ I        1043  3.94         1.4 0.66            101            557  13 
                                                                                
