 2014 12 9 1003 15.7 L   6.817 -73.140140.4  RSN 11 0.5 1.8LRSN                1
 GAP=136        1.17       3.4     4.5  6.3 -0.1505E+01  0.7865E+01  0.2063E+01E
 Epicentro: LOS SANTOS - SANTANDER                                             3
 ACTION:UPD 15-02-10 17:01 OP:nd   STATUS:               ID:20141209100315 L   I
 OLDACT:DUP 14-12-09 20:28 OP:stll STATUS:               ID:20141209095747d    3
 OLDACT:DUP 14-12-09 20:24 OP:stll STATUS:               ID:20141209095746d    3
 2014-12-09-0957-45M.COL___306                                                 6
 STAT SP IPHASW D HRMM SECON CODA AMPLIT PERI AZIMU VELO AIN AR TRES W  DIS CAZ7
 BAR2 SZ EP       10 3 35.03                             169    0.3510 25.3 191 
 BAR2 SZ ES       10 3 49.37                             169   -0.1410 25.3 191 
 BAR2 SZ I        10 3 52.72        17.5 0.24            168           25.3 191 
 BRR  HZ EP       10 3 36.93                             152    0.7310 70.9 297 
 BRR  HN ES       10 3 53.11                             152    0.8810 70.9 297 
 PAM  SZ EP       10 3 37.71                             150    0.5310 75.5  40 
 PAM  SN ES       10 3 53.48                             150   -0.5010 75.5  40 
 RUS  HZ EP       10 3 38.96                             142   -0.0510  102 176 
 RUS  HN ES       10 3 57.17                             142   -0.0610  102 176 
 RUS  HZ I        10 3 58.80         5.1 0.32            143            102 176 
 PTB  HZ EP       10 3 42.11                             131   -0.17 9  149 258 
 PTB  HN ES       10 4  2.76                             131   -0.28 9  149 258 
 PTB  HZ I        10 4  5.89         4.5 0.26            130            149 258 
 SPBC HZ EP       10 3 43.90                             127   -0.02 9  165 219 
 SPBC HN ES       10 4  5.51                             127   -0.46 9  165 219 
 SPBC HZ I        10 4 12.08        10.9 0.22            128            165 219 
 ZAR  HN ES       10 4 12.65                             121   -0.11 9  204 292 
 ZAR  HZ I        10 4 18.44         6.3 0.36            122            204 292 
 NOR  HZ EP       10 3 50.91                             117   -0.34 8  236 234 
 NOR  HN ES       10 4 18.84                             117   -0.17 8  236 234 
 NOR  HZ I        10 4 23.05         4.5 0.18            118            236 234 
 SML  HZ EP       10 3 51.49                             116   -0.33 8  242 335 
 SML  HN ES       10 4 19.00                             116   -1.03 8  242 335 
 SML  HZ I        10 4 23.82         7.1 0.10            118            242 335 
 CHI  HZ EP       10 3 53.10                             116   -0.18 8  251 195 
 CHI  HN ES       10 4 22.12                             116   -0.50 8  251 195 
 CHI  HZ I        10 4 28.13         2.6 0.54            117            251 195 
 GUY2CHZ EP       10 4  0.05                             111    0.85 7  303 235 
 GUY2CHN ES       10 4 33.80                             111    0.64 7  303 235 
 GUY2CHZ I        10 4 44.02         2.5 0.34                           303 235 
                                                                                
