 2017  9 9 1025 40.0 L   6.750 -73.155151.7  RSN  5 0.2 1.1LRSN                1
 GAP=138        0.62       4.6     4.9  5.4  0.1342E+02 -0.6034E+01 -0.7817E+01E
 Epicentro: LOS SANTOS - SANTANDER                                             3
 ACTION:UPD 17-10-05 19:10 OP:rebc STATUS:               ID:20170909102540 L   I
 OLDACT:DUP 17-09-09 20:29 OP:lv   STATUS:               ID:20170909101749d    3
 2017-09-09-1018-00M.COL___401                                                 6
 STAT SP IPHASW D HRMM SECON CODA AMPLIT PERI AZIMU VELO AIN AR TRES W  DIS CAZ7
 BAR2 EZ EP       1026  0.19                             173   -0.1010 17.7 190 
 BAR2 EZ ES       1026 16.32                             173    0.2310 17.7 190 
 BAR2 EZ I        1026 17.19         2.1 0.22            169           17.7 190 
 BRR  HZ EP       1026  1.94                             153   -0.0110 73.2 303 
 BRR  HE ES       1026 19.09                             153    0.0610 73.2 303 
 PAM  EZ EP       1026  3.02                             150   -0.1610 82.3  38 
 RUS  HZ EP       1026  4.41                             147    0.4010 95.1 175 
 RUS  HN ES       1026 22.36                             147   -0.3510 95.1 175 
 RUS  HZ I        1026 24.29         1.6 0.26            145           95.1 175 
 ZAR  HZ EP   4   1026 15.23                             123    2.22 0  205 294 
 ZAR  HN ES       1026 38.62                             123   -0.10 8  205 294 
 ZAR  HZ I        1026 44.12         2.2 0.16            122            205 294 
                                                                                
