 2011  7 9 1220  5.3 L   6.754 -73.158142.0  RSN 10 0.3 2.3LRSN                1
 GAP=155        0.51       2.6     4.5  3.9 -0.3764E+01  0.2260E+01 -0.7551E+00E
 Epicentro: LOS SANTOS - SANTANDER                                             3
 ACTION:UPD 12-07-25 13:59 OP:epov STATUS:               ID:20110709122005 L   I
 2011-07-09-1218-23S.COL___140                                                 6
 STAT SP IPHASW D HRMM SECON CODA AMPLIT PERI AZIMU VELO AIN AR TRES W  DIS CAZ7
 BAR2 SZ IP       1220 24.38                             172   -0.0110 18.0 189 
 BAR2 SZ ES       1220 38.88                             172   -0.3910 18.0 189 
 BAR2 SZ I        1220 40.90        37.4 0.15                          18.0 189 
 BTL  SZ EP       1220 24.71                             171    0.2510 21.9 326 
 BRR  HZ EP       1220 26.16                             151    0.0210 72.7 303 
 BRR  HN ES   1   1220 42.70                             151    0.32 7 72.7 303 
 BRR  HZ I        1220 43.81        64.3 0.07                          72.7 303 
 RUS  HZ EP   1   1220 28.44                             144    0.11 7 95.6 175 
 RUS  HZ I        1220 29.65        18.8 0.11                          95.6 175 
 RUS  HE ES   2   1220 46.68                             144    0.40 5 95.6 175 
 BRI  SZ EP   2   1220 28.75                             139   -0.51 5  114  20 
 GRA  SZ EP   1   1220 30.97                             135    0.30 7  131  17 
 GRA  SZ ES   1   1220 50.38                             135   -0.07 7  131  17 
 GRA  SZ I        1220 51.79        18.0 0.27                           131  17 
 OCA  SZ EP   1   1220 33.49                             128   -0.31 7  165 354 
 OCA  SZ ES   2   1220 56.07                             128    0.04 5  165 354 
 OCA  SZ I        1221  0.21        29.7 0.32                           165 354 
 NOR  SZ EP   2   1220 40.03                             118   -0.36 4  231 235 
 NOR  SE ES   2   1221  7.53                             118   -0.22 4  231 235 
 HEL  HZ EP   2   1220 45.10                             114    0.05 4  270 257 
 PRA  HZ EP   2   1220 58.54                             106    0.44 3  387 210 
 PRA  HE ES   2   1221 38.90                             106   -0.38 3  387 210 
                                                                                
