 2011  1 9 1851  7.6 L   6.865 -73.178125.9  RSN 11 0.4 2.4LRSN                1
 GAP=133        0.66       2.7     5.6  4.9 -0.2999E+01  0.9782E+01 -0.9518E+00E
 Epicentro: ZAPATOCA - SANTANDER                                               3
 ACTION:UP  11-02-08 08:39 OP:pat  STATUS:               ID:20110109185107 L   I
 2011-01-09-1849-05S.COL___136                                                 6
 STAT SP IPHASW D HRMM SECON CODA AMPLIT PERI AZIMU VELO SNR AR TRES W  DIS CAZ7
 BTL  SZ IP       1851 24.87                             174     0.310   12 301 
 GIR2 SZ EP   1   1851 24.93                             169     0.2 7   24 356 
 GIR2 SZ ES   2   1851 37.39                             169    -0.6 5   24 356 
 BAR2 SZ IP       1851 25.29                             166     0.310   30 181 
 BAR2 SZ I        1851 25.55       185.5 0.05                            30 181 
 BAR2 SZ ES       1851 38.75                             166     0.110   30 181 
 RUS  HZ EP   1   1851 29.95                             137    -0.1 7  108 174 
 RUS  HE ES   2   1851 46.79                             137    -0.8 5  108 174 
 RUS  HZ I        1851 48.87        24.4 0.05                           108 174 
 GRA  SZ EP   1   1851 30.44                             134    -0.2 7  120  20 
 GRA  SZ ES   1   1851 48.48                             134    -0.1 7  120  20 
 GRA  SZ I        1851 51.50        31.8 0.26                           120  20 
 OCA  SZ EP       1851 33.63                             126     0.0 9  153 354 
 OCA  SZ ES   2   1851 53.75                             126    -0.3 5  153 354 
 OCA  SZ I        1852  0.78        43.1 0.14                           153 354 
 YOP  SZ EP   2   1851 37.58                             120     0.5 4  187 153 
 YOP  SE ES   2   1851 59.33                             120    -0.8 4  187 153 
 YOP  SZ I        1852  4.17        26.6 0.33                           187 153 
 CHI  HZ EP   2   1851 44.67                             112    -0.3 4  255 194 
 CHI  HE ES   2   1852 14.79                             112     0.7 4  255 194 
 CHI  HZ I        1852 19.32        17.9 0.37                           255 194 
 HEL  HZ EP   1   1851 46.40                             111    -0.3 6  271 254 
 HEL  HN ES   2   1852 17.03                             111    -0.1 4  271 254 
 HEL  HZ I        1852 19.73         9.2 0.31                           271 254 
 DBB  SZ EP   2   1851 53.87                             106     0.0 3  335 273 
 PRA  HZ EP   2   1852  0.51                             103    -0.5 3  397 209 
 PRA  HN ES   2   1852 42.28                             103    -0.4 3  397 209 
                                                                                
