 2010  5 9 1952  8.8 L   6.772 -73.069154.2  RSN  7 0.4 1.8LRSN                1
 GAP=165        0.80       5.1    11.9  9.4 -0.1028E+02 -0.2164E+02 -0.6487E+01E
 Epicentro: LOS SANTOS - SANTANDER                                             3
 ACTION:UP  10-08-24 10:03 OP:vdl  STATUS:               ID:20100509195208 L   I
 2010-05-09-1948-49S.COL___105                                                 6
 STAT SP IPHASW D HRMM SECON CODA AMPLIT PERI AZIMU VELO SNR AR TRES W  DIS CAZ7
 BAR2 SZ EP   1   1952 29.26                             171    -0.2 7   24 213 
 BAR2 SZ ES   2   1952 44.56                             171    -1.0 5   24 213 
 BRR  HZ EP   1   1952 31.83                             151     0.4 7   80 298 
 BRR  HZ I        1952 32.06        20.7 0.16                            80 298 
 BRR  HN ES   2   1952 49.38                             151     0.4 5   80 298 
 RUS  HZ EP   1   1952 33.13                             146    -0.1 7   97 181 
 RUS  HZ I        1952 34.30         4.9 0.16                            97 181 
 RUS  HN ES   2   1952 52.64                             146     0.5 5   97 181 
 BRI  SZ EP   1   1952 33.79                             143     0.2 7  109  16 
 BRI  SZ ES   2   1952 53.71                             143     0.9 5  109  16 
 GUE  SZ EP   1   1952 34.24                             141    -0.2 7  118   8 
 GRA  SZ EP   1   1952 35.04                             139     0.2 7  127  13 
 GRA  SZ ES   2   1952 55.01                             139    -0.2 5  127  13 
 OCA  SZ EP   1   1952 37.75                             131    -0.4 7  165 350 
 OCA  SZ ES   2   1953  0.60                             131    -0.5 5  165 350 
 OCA  SZ I        1953  5.94         7.3 0.24                           165 350 
                                                                                
