 2011 10 9 1433 21.3 L   6.700 -73.119137.3  RSN  4 0.2 1.5LRSN                1
 GAP=144        0.51       4.8     7.9  6.5  0.1985E+02 -0.2267E+02 -0.1148E+02E
 Epicentro: BARICHARA - SANTANDER                                              3
 ACTION:UPD 12-07-13 16:02 OP:ep   STATUS:               ID:20111009143321 L   I
 2011-10-09-1431-18S.COL___168                                                 6
 STAT SP IPHASW D HRMM SECON CODA AMPLIT PERI AZIMU VELO AIN AR TRES W  DIS CAZ7
 BAR2 SZ EP   1   1433 39.85                             174    0.10 7 13.8 211 
 BAR2 SZ ES   1   1433 54.42                             174    0.28 7 13.8 211 
 BAR2 SZ I        1433 56.15         9.6 0.17                          13.8 211 
 BRR  HZ EP   1   1433 41.97                             148   -0.09 7 79.6 305 
 BRR  HN ES   1   1433 58.18                             148   -0.07 7 79.6 305 
 BRR  HZ I        1433 59.87        15.8 0.35                          79.6 305 
 PAM  SZ EP   1   1433 42.92                             147   -0.17 7 84.6  33 
 RUS  HZ EP   1   1433 43.72                             145    0.30 7 89.3 177 
 RUS  HZ I        1433 45.01         1.9 0.15                          89.3 177 
 RUS  HN ES   1   1434  0.30                             145   -0.36 7 89.3 177 
                                                                                
