 2012  6 9 1545 48.6 L   6.796 -73.134141.2  RSN 15 0.5 3.5LRSN 3.5WRSN        1
 SPEC AVERAGE  MO 14.3 ST 21.5 OM  4.4 f0 4.22 R0.3710 AL 2.54 WI 23.3 MW  3.5 3
 SPEC SD       MO  0.1 ST 10.0 OM  1.9 f00.335 R0.0295 AL      WI      MW  0.1 3
 GAP=138        0.95       3.1     4.4  6.7 -0.9152E+00  0.1039E+02  0.3950E+01E
 Epicentro: LOS SANTOS - SANTANDER                                             3
 SPEC HEL HH Z MO 14.5 ST 31.5 OM  2.6 f0 4.55 R0.3415 AL 2.67 WI 28.5 MW  3.6 3
 SPEC HEL HH Z T154655 K 0.000 GD  307 VS 4.20 DE 3.00 Q0230.0 QA 0.60 VS 4.20 3
 SPEC CHI HH Z MO 14.2 ST 11.5 OM  2.4 f0 3.88 R0.4005 AL 2.41 WI 18.0 MW  3.4 3
 SPEC CHI HH Z T154653 K 0.000 GD  286 VS 4.20 DE 3.00 Q0230.0 QA 0.60 VS 4.20 3
 ACTION:UPD 12-08-06 17:48 OP:ep   STATUS:               ID:20120609154548 L   I
 2012-06-09-1540-00M.COL___201                                                 6
 STAT SP IPHASW D HRMM SECON CODA AMPLIT PERI AZIMU VELO AIN AR TRES W  DIS CAZ7
 BAR2 SZ IP       1546  7.99                             170    0.3410 23.2 193 
 BAR2 SZ I        1546  8.62       904.4 0.16            168           23.2 193 
 BAR2 SZ ES   1   1546 22.63                             170    0.09 7 23.2 193 
 PAM  SZ EP   1   1546 10.95                             150    0.68 7 76.9  39 
 PAM  SN ES   1   1546 27.26                             150    0.06 7 76.9  39 
 PAM  SZ I        1546 30.02       643.8 0.43            155           76.9  39 
 RUS  HZ EP   1   1546 11.96                             143    0.12 7  100 177 
 RUS  HN ES   1   1546 30.12                             143    0.13 7  100 177 
 RUS  HZ I        1546 32.19       558.7 0.32            144            100 177 
 PTB  HZ EP   1   1546 14.70                             131   -0.58 7  149 259 
 PTB  HN ES   1   1546 35.28                             131   -0.84 7  149 259 
 PTB  HZ I        1546 40.25       258.9 0.19            131            149 259 
 OCA  HZ EP   1   1546 16.07                             128   -0.51 7  161 353 
 OCA  HN ES   1   1546 37.53                             128   -0.90 7  161 353 
 OCA  HZ I        1546 41.23       911.0 0.22            131            161 353 
 ZAR  HZ EP   1   1546 20.90                             121    0.04 6  205 292 
 ZAR  HN ES       1546 46.39                             121    0.34 8  205 292 
 ZAR  HZ I        1546 52.29       548.0 0.39            122            205 292 
 NOR  SZ EP   1   1546 24.32                             117    0.19 6  236 235 
 NOR  SN ES       1546 52.84                             117    0.97 8  236 235 
 CHI  HZ EP   1   1546 26.33                             116    0.31 6  249 195 
 CHI  HN ES       1546 54.68                             116   -0.54 8  249 195 
 CHI  HZ I        1546 59.16       150.5 0.24            118            249 195 
 ROSC BE ES   1   1546 55.11                             116   -0.94 6  253 211 
 ROSC BZ I        1547  2.75       297.8 0.37            117            253 211 
 HEL  HZ EP   1   1546 28.52                             114   -0.17 6  273 256 
 HEL  HN ES   1   1547  0.42                             114    0.45 6  273 256 
 HEL  HZ I        1547  6.53       184.1 0.37            115            273 256 
 VIL  SZ EP   1   1546 32.06                             111    0.29 5  303 192 
 VIL  SN ES   1   1547  4.63                             111   -0.83 5  303 192 
 VIL  SZ I        1547 15.58       149.7 0.36            113            303 192 
 DBB  SZ EP   1   1546 36.06                             109    0.04 5  341 274 
 TOL  SZ EP   1   1546 37.39                             108    0.67 5  344 225 
 PRA  HZ EP   1   1546 41.75                             106   -0.22 4  392 210 
 PRA  HN ES   1   1547 23.73                             106    0.10 4  392 210 
 YOT  HZ EP   1   1546 50.96                             102   -0.62 4  473 229 
 YOT  HZ I        1546 55.49        36.5 0.28            104            473 229 
                                                                                
