 2017  2 9 1410  7.4 L   6.770 -73.193144.8  RSN  8 0.5 1.9LRSN                1
 GAP=230        1.10       5.5     6.6  7.2  0.1709E+02  0.1491E+02  0.1626E+02E
 Epicentro: ZAPATOCA - SANTANDER                                               3
 ACTION:UPD 17-05-24 15:34 OP:jn   STATUS:               ID:20170209141007 L   I
 OLDACT:REG 17-02-09 20:44 OP:lv   STATUS:               ID:20170209140744     3
 2017-02-09-1408-00M.COL___358                                                 6
 STAT SP IPHASW D HRMM SECON CODA AMPLIT PERI AZIMU VELO AIN AR TRES W  DIS CAZ7
 BAR2 EZ EP       1410 26.39                             172   -0.4010 19.7 176 
 BAR2 EZ ES       1410 41.67                             172   -0.2910 19.7 176 
 BAR2 EZ I        1410 44.15        21.1 0.32            167           19.7 176 
 BRR  HZ EP       1410 28.29                             153    0.0610 68.3 303 
 BRR  HN ES       1410 45.37                             153    0.8510 68.3 303 
 BRR  HZ I        1410 45.97        14.2 0.22            151           68.3 303 
 RUS  HZ EP       1410 30.53                             144   -0.2810 97.8 173 
 RUS  HN ES       1410 49.26                             144    0.1610 97.8 173 
 RUS  HZ I        1410 50.47         6.9 0.24            143           97.8 173 
 PTB  HZ EP       1410 33.48                             133   -0.24 9  142 260 
 PTB  HN ES       1410 53.36                             133   -0.92 9  142 260 
 PTB  HZ I        1410 57.11         8.9 0.15            131            142 260 
 ZAR  HZ EP   4   1410 40.82                             123    1.46 0  200 294 
 ZAR  HN ES       1411  4.63                             123    0.30 9  200 294 
 ZAR  HZ I        1411  9.69         8.4 0.16            122            200 294 
 CHI  HZ EP       1410 44.62                             117    0.11 8  244 194 
 CHI  HE ES       1411 14.16                             117    0.68 8  244 194 
 CHI  HZ I        1411 17.32         5.2 0.66            117            244 194 
 PRA  HZ EP       1411  0.46                             107    0.26 6  387 209 
 PRA  HN ES       1411 41.43                             107    0.01 6  387 209 
 PRA  HZ I        1411 48.61         5.2 0.35            107            387 209 
 ORTC HZ EP       1411  0.88                             106    0.32 6  390 216 
 ORTC HN ES   4   1411 44.17                             106    2.10 0  390 216 
 ORTC HZ I        1411 47.73         2.9 0.24            107            390 216 
                                                                                
