 2016 12 9 1347 51.1 L   6.800 -73.158143.3  RSN  6 0.7 1.8LRSN                1
 GAP=135        1.61       6.9     8.1 10.7 -0.5707E+01  0.9400E+01  0.1988E+02E
 Epicentro: LOS SANTOS - SANTANDER                                             3
 ACTION:UPD 17-01-11 20:13 OP:rebc STATUS:               ID:20161209134751 L   I
 OLDACT:REG 16-12-09 20:36 OP:ar   STATUS:               ID:20161209133645     3
 2016-12-09-1337-00M.COL___352                                                 6
 STAT SP IPHASW D HRMM SECON CODA AMPLIT PERI AZIMU VELO AIN AR TRES W  DIS CAZ7
 BAR2 EZ EP       1348 10.36                             170   -0.0810 23.1 187 
 BAR2 EZ ES       1348 25.20                             170   -0.3110 23.1 187 
 BAR2 EZ I        1348 27.74        34.2 0.30            169           23.1 187 
 BRR  HZ EP       1348 12.34                             152    0.4210 70.0 299 
 BRR  HN ES       1348 29.18                             152    1.0210 70.0 299 
 BRR  HZ I        1348 30.36        15.7 0.18            153           70.0 299 
 PAM  EZ EP       1348 13.33                             150    0.2210 78.3  40 
 PAM  EN ES       1348 30.11                             150   -0.1710 78.3  40 
 PAM  EZ I        1348 32.18         6.6 0.18            153           78.3  40 
 RUS  HZ EP       1348 14.28                             143   -0.3410  101 175 
 RUS  HN ES       1348 32.60                             143   -0.3710  101 175 
 RUS  HZ I        1348 33.94         8.9 0.30            143            101 175 
 PTB  HZ EP       1348 17.44                             132   -0.31 9  146 259 
 PTB  HN ES       1348 37.51                             132   -1.03 9  146 259 
 PTB  HZ I        1348 40.93         9.3 0.14            132            146 259 
 CHI  HZ EP       1348 28.28                             117   -0.35 8  248 195 
 CHI  HN ES       1348 59.51                             117    1.61 8  248 195 
 CHI  HZ I        1349  4.35         3.6 0.24            117            248 195 
                                                                                
