 2017  4 9 1652 52.3 L   6.779 -73.148143.5  RSN  9 0.5 1.9LRSN                1
 GAP=112        1.23       4.4     4.5  7.4  0.1548E+01  0.9797E+01  0.3625E+01E
 Epicentro: LOS SANTOS - SANTANDER                                             3
 ACTION:UPD 17-05-30 21:10 OP:jn   STATUS:               ID:20170409165252 L   I
 OLDACT:REG 17-04-09 21:00 OP:edw  STATUS:               ID:20170409164743     3
 2017-04-09-1648-00M.COL___377                                                 6
 STAT SP IPHASW D HRMM SECON CODA AMPLIT PERI AZIMU VELO AIN AR TRES W  DIS CAZ7
 BAR2 EZ EP       1653 11.35                             171   -0.2310 21.0 190 
 BAR2 EZ ES       1653 26.14                             171   -0.5010 21.0 190 
 BAR2 EZ I        1653 29.45        19.6 0.66            171           21.0 190 
 BRR  HZ EP       1653 13.38                             152    0.1610 72.1 300 
 BRR  HE ES       1653 30.50                             152    0.9310 72.1 300 
 BRR  HZ I        1653 33.26        14.1 0.46            152           72.1 300 
 PAM  EZ EP       1653 14.18                             150   -0.1810 79.4  39 
 PAM  EE ES       1653 31.47                             150   -0.1310 79.4  39 
 PAM  EZ I        1653 33.51        13.5 0.76            153           79.4  39 
 RUS  HZ EP       1653 15.27                             144   -0.3610 98.3 176 
 RUS  HE ES       1653 33.70                             144   -0.1510 98.3 176 
 RUS  HZ I        1653 35.24         8.4 0.48            146           98.3 176 
 PTB  HZ EP       1653 18.21                             132   -0.78 9  147 260 
 PTB  HN ES       1653 39.41                             132   -0.42 9  147 260 
 PTB  HZ I        1653 41.61         7.2 0.22            133            147 260 
 SPBC HZ EP       1653 20.60                             129    0.20 9  161 219 
 SPBC HN ES       1653 42.91                             129    0.56 9  161 219 
 SPBC HZ I        1653 44.71        15.5 0.34            131            161 219 
 YPLC HE ES       1653 45.35                             126    0.68 9  175 151 
 ZAR  HZ EP       1653 25.61                             122    0.98 9  205 293 
 ZAR  HE ES       1653 49.62                             122   -0.26 9  205 293 
 ZAR  HZ I        1653 52.09         7.9 0.30            124            205 293 
 NOR  HZ EP       1653 27.60                             118   -0.10 8  233 235 
 NOR  HN ES       1653 55.14                             118   -0.19 8  233 235 
 NOR  HZ I        1654  0.45         5.1 0.24            120            233 235 
                                                                                
