 2013  3 9 1456 58.8 L   6.666 -73.154143.9  RSN  4 0.2 1.5LRSN                1
 GAP=167        0.59       9.7     5.1  6.0 -0.2352E+02 -0.3995E+00 -0.3791E+01E
 Epicentro: VILLANUEVA - SANTANDER                                             3
 ACTION:UPD 13-04-09 14:01 OP:ep   STATUS:               ID:20130309145658 L   I
 2013-03-09-1450-00M.COL___231                                                 6
 STAT SP IPHASW D HRMM SECON CODA AMPLIT PERI AZIMU VELO AIN AR TRES W  DIS CAZ7
 BAR2 SZ ES   1   1457 33.05                             176    0.11 7 8.71 201 
 BAR2 SZ I        1457 34.87         8.1 0.22            172           8.71 201 
 BRR  HZ EP       1457 20.35                             150    0.1910 78.6 308 
 BRR  HZ I        1457 27.03         8.1 0.36            146           78.6 308 
 BRR  HE ES   1   1457 36.95                             150    0.11 7 78.6 308 
 PAM  SZ EP       1457 21.35                             147   -0.2410 89.9  34 
 PTB  HZ EP       1457 25.49                             132    0.18 9  145 265 
 PTB  HE ES   1   1457 45.52                             132   -0.48 7  145 265 
 PTB  HZ I        1457 51.88         3.6 0.37            129            145 265 
                                                                                
