 2014  3 9 1631  9.4 L   6.716 -73.373106.6  RSN  4 0.4 1.4LRSN                1
 GAP=159        0.98       4.3     6.3  8.0  0.2746E+01 -0.5566E+01  0.5246E+00E
 Epicentro: GALAN - SANTANDER                                                  3
 ACTION:UPD 14-04-09 23:15 OP:nd   STATUS:               ID:20140309163109 L   I
 OLDACT:REG 14-03-09 18:21 OP:stll STATUS:               ID:20140309162819     3
 2014-03-09-1628-19M.COL___229                                                 6
 STAT SP IPHASW D HRMM SECON CODA AMPLIT PERI AZIMU VELO AIN AR TRES W  DIS CAZ7
 BAR2 SZ EP       1631 24.32                             166   -0.1110 25.2 123 
 BAR2 SZ ES       1631 36.49                             166    0.3610 25.2 123 
 BAR2 SZ I        1631 38.45        17.6 0.30            166           25.2 123 
 BRR  HZ EP       1631 25.37                             150   -0.2010 57.1 319 
 BRR  HN ES       1631 38.16                             150    0.0010 57.1 319 
 BRR  HZ I        1631 38.90         3.9 0.20            152           57.1 319 
 RUS  HZ EP       1631 28.99                             135   -0.2410 96.6 161 
 RUS  HN ES       1631 44.61                             135   -0.0610 96.6 161 
 PAM  SZ EP       1631 30.40                             133    0.7510  101  47 
 PAM  SE ES       1631 44.90                             133   -0.5210  101  47 
                                                                                
