 2017  6 9 1346  5.8 L   6.768 -73.173148.3  RSN  5 0.3 1.7LRSN                1
 GAP=232        0.70       4.1     4.4  6.0  0.7491E+01  0.2744E+01 -0.9015E+00E
 Epicentro: LOS SANTOS - SANTANDER                                             3
 ACTION:UPD 17-09-14 16:51 OP:jn   STATUS:               ID:20170609134605 L   I
 OLDACT:REG 17-06-09 21:01 OP:osc  STATUS:               ID:20170609133726     3
 2017-06-09-1338-00M.COL___368                                                 6
 STAT SP IPHASW D HRMM SECON CODA AMPLIT PERI AZIMU VELO AIN AR TRES W  DIS CAZ7
 BRR  HZ EP       1346 27.29                             153    0.1610 70.4 302 
 BRR  HN ES       1346 43.89                             153    0.0910 70.4 302 
 BRR  HZ I        1346 48.92        15.4 0.28            154           70.4 302 
 RUS  HZ EP       1346 29.60                             145    0.0810 97.3 174 
 RUS  HN ES       1346 48.05                             145   -0.0110 97.3 174 
 RUS  HZ I        1346 49.32         5.7 0.36            149           97.3 174 
 PTB  HZ EP       1346 32.19                             133   -0.41 9  144 260 
 PTB  HE ES       1346 53.10                             133   -0.44 9  144 260 
 PTB  HZ I        1346 55.58         5.2 0.12            136            144 260 
 ZAR  HZ EP       1346 38.01                             123   -0.21 9  203 293 
 ZAR  HE ES       1347  3.90                             123    0.36 9  203 293 
 NOR  HZ EP   2   1346 41.95                             120    0.81 4  230 235 
 NOR  HN ES       1347  9.03                             120    0.28 8  230 235 
 NOR  HZ I        1347 11.95         3.7 0.22            122            230 235 
                                                                                
