 2011  8 9 1613 41.8 L   6.759 -73.105147.1  RSN  4 0.1 1.9LRSN                1
 GAP=239        0.40       3.8     5.4  4.3  0.1007E+02 -0.1633E+01 -0.4735E+00E
 Epicentro: LOS SANTOS - SANTANDER                                             3
 ACTION:UPD 12-07-25 14:07 OP:epov STATUS:               ID:20110809161341 L   I
 2011-08-09-1610-14S.COL___150                                                 6
 STAT SP IPHASW D HRMM SECON CODA AMPLIT PERI AZIMU VELO AIN AR TRES W  DIS CAZ7
 BAR2 SZ EP       1614  1.48                             172   -0.0910 20.4 205 
 BAR2 SZ ES   1   1614 16.85                             172   -0.11 7 20.4 205 
 BAR2 SZ I        1614 18.08        23.1 0.26                          20.4 205 
 BRR  HZ EP       1614  3.35                             151   -0.1310 77.4 300 
 BRR  HZ I        1614  3.59        40.9 0.30                          77.4 300 
 BRR  HE ES   1   1614 20.61                             151    0.24 7 77.4 300 
 RUS  HZ EP       1614  5.55                             145    0.1710 95.9 179 
 RUS  HN ES   1   1614 23.73                             145   -0.02 7 95.9 179 
 RUS  HZ I        1614 25.69         4.4 0.19                          95.9 179 
 NOR  SN ES   2   1614 45.67                             119   -0.12 4  236 236 
                                                                                
