 2013  5 9 1333  7.0 L   6.748 -73.193150.6  RSN  4 0.2 1.5LRSN                1
 GAP=228        0.39       4.5     4.0  4.2  0.7267E+01  0.1433E+01  0.1159E+01E
 Epicentro: VILLANUEVA - SANTANDER                                             3
 ACTION:UPD 13-06-20 09:49 OP:ep   STATUS:               ID:20130509133307 L   I
 2013-05-09-1330-00M.COL___256                                                 6
 STAT SP IPHASW D HRMM SECON CODA AMPLIT PERI AZIMU VELO AIN AR TRES W  DIS CAZ7
 BAR2 SZ EP   2   1333 26.87                             173   -0.22 5 17.2 176 
 BAR2 SZ ES   1   1333 42.55                             173   -0.23 7 17.2 176 
 BAR2 SZ I        1333 43.28         6.2 0.16            176           17.2 176 
 BRR  HZ EP       1333 28.58                             154   -0.0010 69.7 305 
 BRR  HZ I        1333 31.67        10.3 0.30            152           69.7 305 
 BRR  HE ES   1   1333 45.67                             154    0.25 7 69.7 305 
 RUS  HZ EP   1   1333 31.01                             146    0.16 7 95.3 173 
 RUS  HZ I        1333 31.59         3.2 0.10            147           95.3 173 
 RUS  HN ES   2   1333 49.64                             146    0.17 5 95.3 173 
 PTB  HZ EP   1   1333 33.72                             134   -0.08 7  142 261 
 PTB  HZ I        1333 34.64         4.2 0.12            134            142 261 
 PTB  HN ES   1   1333 54.64                             134   -0.08 7  142 261 
                                                                                
