 2012  9 9 1536 54.7 L   6.748 -73.151139.1  RSN 12 0.3 2.8LRSN                1
 GAP= 73        0.60       2.7     2.1  3.7  0.9030E-01  0.1857E+01  0.1033E+01E
 Epicentro: LOS SANTOS - SANTANDER                                             3
 ACTION:UPD 12-10-22 14:17 OP:ep   STATUS:               ID:20120909153654 L   I
 2012-09-09-1530-00M.COL___227                                                 6
 STAT SP IPHASW D HRMM SECON CODA AMPLIT PERI AZIMU VELO AIN AR TRES W  DIS CAZ7
 BAR2 SZ IP       1537 13.59                             172    0.1410 17.6 191 
 BAR2 SZ ES       1537 27.97                             172   -0.0910 17.6 191 
 BAR2 SZ I        1537 29.51       251.7 0.22                          17.6 191 
 GIR2 SZ EP       1537 13.71                             164   -0.0710 36.9 353 
 BRR  HZ EP       1537 15.52                             150    0.2210 73.6 303 
 BRR  HN ES   1   1537 31.75                             150    0.39 7 73.6 303 
 BRR  HZ I        1537 33.71       206.0 0.21                          73.6 303 
 PAM  SZ EP   1   1537 16.36                             148   -0.19 7 82.3  37 
 PAM  SZ I        1537 16.85       318.3 0.31                          82.3  37 
 PAM  SN ES   1   1537 33.27                             148   -0.30 7 82.3  37 
 RUS  HZ EP   1   1537 17.44                             144    0.03 7 94.9 175 
 RUS  HE ES   1   1537 35.29                             144    0.18 7 94.9 175 
 RUS  HZ I        1537 37.26        48.7 0.26                          94.9 175 
 PTB  HZ EP   1   1537 20.53                             131   -0.48 7  146 261 
 PTB  HE ES   1   1537 41.00                             131   -0.52 7  146 261 
 PTB  HZ I        1537 44.59        73.8 0.18                           146 261 
 TAM  HZ EP       1537 21.91                             129    0.11 9  154 103 
 TAM  HZ I        1537 22.12       119.0 0.17                           154 103 
 TAM  HN ES   1   1537 42.94                             129    0.01 7  154 103 
 ZAR  HZ EP       1537 26.58                             121   -0.34 8  206 294 
 ZAR  HN ES   1   1537 52.63                             121    0.59 6  206 294 
 NOR  SZ EP   1   1537 30.08                             117    0.42 6  231 236 
 NOR  SN ES   1   1537 57.17                             117    0.25 6  231 236 
 NOR  SZ I        1538  2.01        31.9 0.30                           231 236 
 CHI  HZ EP   1   1537 31.60                             116    0.17 6  243 195 
 CHI  HE ES   1   1537 59.67                             116   -0.40 6  243 195 
 HEL  HZ EP   1   1537 34.79                             114    0.40 6  270 257 
 HEL  HE ES   1   1538  5.00                             114   -0.33 6  270 257 
 HEL  HZ I        1538 16.45        23.8 0.39                           270 257 
 DBB  SZ EP   1   1537 41.69                             108   -0.24 5  339 275 
                                                                                
