 2016  5 9 1407 50.6 L   6.813 -73.141144.0  RSN 20 0.6 2.6LRSN                1
 GAP= 71        1.19       2.9     3.2  5.4 -0.1087E+01  0.4368E+01  0.2687E+01E
 Epicentro: LOS SANTOS - SANTANDER                                             3
 ACTION:UPD 16-08-18 17:44 OP:cam  STATUS:               ID:20160509140750 L   I
 OLDACT:REG 16-05-09 20:50 OP:ak   STATUS:               ID:20160509135749     3
 2016-05-09-1357-49M.COL___297                                                 6
 STAT SP IPHASW D HRMM SECON CODA AMPLIT PERI AZIMU VELO AIN AR TRES W  DIS CAZ7
 BAR2 EZ IP     C 14 8 10.07                             170    0.0510 24.8 191 
 BAR2 EZ ES       14 8 24.88                             170   -0.3110 24.8 191 
 BAR2 EZ I        14 8 26.60       110.6 0.32            168           24.8 191 
 BRR  HZ IP     C 14 8 11.98                             152    0.4610 71.0 297 
 BRR  HN ES       14 8 28.67                             152    0.8110 71.0 297 
 BRR  HZ I        14 8 29.71        82.0 0.14            150           71.0 297 
 PAM  EZ IP     C 14 8 13.07                             151    0.5510 76.0  40 
 PAM  EN ES       14 8 30.04                             151    0.4010 76.0  40 
 PAM  EZ I        14 8 32.44        73.2 0.62            153           76.0  40 
 RUS  HZ EP       14 8 14.00                             143   -0.2510  102 176 
 RUS  HN ES       14 8 32.43                             143   -0.2910  102 176 
 RUS  HZ I        14 8 33.46        53.6 0.22            142            102 176 
 PTB  HZ EP       14 8 16.62                             131   -0.85 9  149 258 
 PTB  HN ES       14 8 37.85                             131   -0.59 9  149 258 
 PTB  HZ I        14 8 41.06        51.7 0.18            130            149 258 
 TAM  HZ IP     D 14 8 18.33                             130    0.23 9  155 106 
 TAM  HE ES       14 8 39.62                             130    0.04 9  155 106 
 TAM  HZ I        14 8 44.40        17.2 0.24            131            155 106 
 OCA  HZ EP   2   14 8 16.57                             130   -2.05 5  159 353 
 OCA  HN ES       14 8 40.31                             130   -0.19 9  159 353 
 OCA  HZ I        14 8 43.61       126.4 0.22            129            159 353 
 SPBC HZ EP       14 8 19.03                             128   -0.04 9  165 219 
 SPBC HN ES       14 8 40.94                             128   -0.36 9  165 219 
 ZAR  HZ EP   2   14 8 23.75                             122    0.85 4  204 292 
 ZAR  HN ES       14 8 48.67                             122    0.56 9  204 292 
 ZAR  HZ I        14 8 51.08        47.6 0.12            121            204 292 
 NOR  HZ EP       14 8 25.99                             118   -0.34 8  236 234 
 NOR  HE ES       14 8 53.97                             118   -0.25 8  236 234 
 NOR  HZ I        14 8 58.32        38.9 0.24            117            236 234 
 SML  HZ EP       14 8 26.43                             117   -0.55 8  243 335 
 SML  HN ES       14 8 54.55                             117   -0.83 8  243 335 
 SML  HZ I        14 9  3.66        33.6 0.19            117            243 335 
 CHI  HZ EP       14 8 28.31                             117   -0.03 8  250 195 
 CHI  HN ES       14 8 57.22                             117   -0.57 8  250 195 
 CHI  HZ I        14 9  4.58        12.1 0.32            116            250 195 
 ROSC BZ EP   9   14 8 30.31                             116    1.55 0  254 211 
 ROSC BN ES       14 9  0.90                                    0.81 8  254 211 
 ROSC BZ I        14 9  5.84        30.6 0.40            115            254 211 
 HEL  HZ EP   2   14 8 31.45                             114    0.66 4  273 256 
 HEL  HE ES       14 9  2.49                             114    0.34 8  273 256 
 HEL  HZ I        14 9  9.82        21.5 0.52            113            273 256 
 ELA  HZ EP   2   14 8 38.48                             110    0.98 3  330 229 
 ELA  HE ES       14 9 14.38                             110    0.28 7  330 229 
 ELA  HZ I        14 9 23.23        19.5 0.44            109            330 229 
 CBOC HZ EP       14 8 38.68                             110    1.16 7  335 252 
 CBOC HN ES       14 9 13.83                             110   -0.30 7  335 252 
 CBOC HZ I        14 9 25.82        11.9 0.76            109            335 252 
 ANIL HZ EP   1   14 8 39.78                             108   -0.69 5  359 224 
 ANIL HE ES   4   14 9 22.52                             108    3.14 0  359 224 
 ANIL HZ I        14 9 24.84        32.5 0.28            107            359 224 
 PRA  HZ EP       14 8 44.06                             106   -0.15 6  393 210 
 PRA  HN ES       14 9 26.73                             106    0.69 6  393 210 
 PRA  HZ I        14 9 33.53        11.3 0.30            106            393 210 
 ORTC HZ EP       14 8 45.23                             106    0.63 6  397 216 
 ORTC HN ES       14 9 27.48                             106    0.74 6  397 216 
 ORTC HZ I        14 9 34.76         7.7 0.44            105            397 216 
 PAL  HZ EP       14 8 46.45                             106    0.64 6  407 239 
 PAL  HN ES   4   14 9 27.45                             106   -1.44 0  407 239 
 PAL  HZ I        14 9 34.73         7.3 0.48            105            407 239 
 SJC  HZ EP   4   14 8 44.17                             105   -1.80 0  408 327 
 SJC  HN ES   4   14 9 25.53                             105   -3.65 0  408 327 
                                                                                
