 2016 11 9 1248 30.0 L   6.714 -73.116144.1  RSN  5 0.4 1.6LRSN                1
 GAP=175        0.87       7.5     4.2  7.2 -0.6897E+01  0.6486E+01 -0.4086E+01E
 Epicentro: JORDAN - SANTANDER                                                 3
 ACTION:UPD 17-10-26 21:06 OP:lp   STATUS:               ID:20161109124830 L   I
 OLDACT:REG 16-11-09 20:54 OP:dnl  STATUS:               ID:20161109124748     3
 2016-11-09-1248-00M.COL___349                                                 6
 STAT SP IPHASW D HRMM SECON CODA AMPLIT PERI AZIMU VELO AIN AR TRES W  DIS CAZ7
 BAR2 EZ EP       1248 49.33                             174   -0.0010 15.4 209 
 BAR2 EZ ES       1249  4.54                             174    0.1610 15.4 209 
 BAR2 EZ I        1249  5.50         9.6 0.26            172           15.4 209 
 BRR  HZ EP       1248 51.57                             150    0.1110 78.9 303 
 BRR  HE ES       1249  8.70                             150    0.5210 78.9 303 
 BRR  HZ I        1249 14.34        13.6 0.38            146           78.9 303 
 PAM  EZ EP       1248 52.61                             149    0.1910 83.0  34 
 PAM  EN ES       1249  9.41                             149   -0.4710 83.0  34 
 PAM  EZ I        1249 12.01         6.7 0.44            148           83.0  34 
 PTB  HZ EP   2   1248 56.44                             131   -0.59 5  150 263 
 PTB  HE ES       1249 17.71                             131   -0.37 9  150 263 
 PTB  HZ I        1249 21.19         3.2 0.22            132            150 263 
 ZAR  HZ EP   2   1249  4.10                             121    1.02 4  211 294 
 ZAR  HE ES       1249 28.52                             121   -0.33 8  211 294 
 ZAR  HZ I        1249 34.84         3.9 0.32            121            211 294 
                                                                                
