 2016 12 9 1712 42.1 L   6.805 -73.144148.4  RSN  5 0.4 1.8LRSN                1
 GAP=136        1.07       5.8     5.6  7.8 -0.3172E+01  0.5197E+01  0.2153E+01E
 Epicentro: LOS SANTOS - SANTANDER                                             3
 ACTION:UPD 17-01-11 20:13 OP:rebc STATUS:               ID:20161209171242 L   I
 OLDACT:REG 16-12-09 20:49 OP:ar   STATUS:               ID:20161209170645     3
 2016-12-09-1707-00M.COL___355                                                 6
 STAT SP IPHASW D HRMM SECON CODA AMPLIT PERI AZIMU VELO AIN AR TRES W  DIS CAZ7
 BAR2 EZ EP       1713  2.07                             170    0.0410 23.9 190 
 BAR2 EZ ES       1713 17.11                             170   -0.4910 23.9 190 
 BAR2 EZ I        1713 19.01        16.2 0.30            171           23.9 190 
 BRR  HZ EP       1713  3.64                             153    0.1410 71.1 298 
 BRR  HN ES       1713 20.89                             153    0.6810 71.1 298 
 PAM  EZ EP       1713  4.93                             151    0.3910 76.8  40 
 PAM  EN ES       1713 21.59                             151   -0.4710 76.8  40 
 PAM  EZ I        1713 24.07        16.5 0.50            153           76.8  40 
 RUS  HZ EP       1713  6.20                             144    0.0810  101 176 
 RUS  HN ES       1713 25.20                             144    0.3210  101 176 
 RUS  HZ I        1713 25.75        10.4 0.24            146            101 176 
 PTB  HZ EP       1713  8.63                             133   -0.65 9  148 259 
 PTB  HE ES       1713 30.34                             133   -0.16 9  148 259 
 PTB  HZ I        1713 33.41         6.7 0.16            133            148 259 
                                                                                
