 2013 11 9 1542 56.5 L   6.822 -73.154147.5  RSN 12 0.5 2.4LRSN                1
 GAP=134        1.24       4.1     5.0  7.0 -0.2296E+01  0.1059E+02 -0.1107E+01E
 Epicentro: LOS SANTOS - SANTANDER                                             3
 ACTION:UPD 14-01-09 16:26 OP:ep   STATUS:               ID:20131109154256 L   I
 OLDACT:REG 13-11-09 14:44 OP:jn   STATUS:               ID:20131109154000     3
 2013-11-09-1540-00M.COL___273                                                 6
 STAT SP IPHASW D HRMM SECON CODA AMPLIT PERI AZIMU VELO AIN AR TRES W  DIS CAZ7
 BAR2 SZ EP       1543 16.42                             170    0.0510 25.6 187 
 BAR2 SZ ES       1543 31.57                             170   -0.3110 25.6 187 
 BAR2 SZ I        1543 32.87       106.4 0.20            165           25.6 187 
 BRR  HZ EP       1543 18.21                             153    0.5010 69.2 297 
 BRR  HN ES       1543 34.99                             153    0.7210 69.2 297 
 BRR  HZ I        1543 36.01        36.8 0.14            146           69.2 297 
 PAM  SZ EP       1543 19.30                             151    0.4910 76.1  41 
 PAM  SN ES       1543 36.09                             151   -0.1410 76.1  41 
 PAM  SZ I        1543 36.96        32.7 0.20            150           76.1  41 
 RUS  HZ EP       1543 20.44                             143   -0.1510  103 176 
 RUS  HN ES       1543 39.13                             143   -0.2610  103 176 
 RUS  HZ I        1543 40.17        17.9 0.16            137            103 176 
 PTB  HZ EP       1543 23.27                             132   -0.29 9  147 258 
 PTB  HN ES       1543 43.41                             132   -1.26 9  147 258 
 PTB  HZ I        1543 47.41        35.9 0.22            124            147 258 
 SPBC HZ EP       1543 25.44                             129    0.19 9  165 218 
 SPBC HN ES       1543 48.02                             129    0.34 9  165 218 
 SPBC HZ I        1543 54.60        45.4 0.40            122            165 218 
 ZAR  HN ES       1543 54.85                             123    0.73 9  202 292 
 ZAR  HZ I        1544  0.32        39.7 0.48            116            202 292 
 NOR  HZ EP       1543 32.57                             119    0.18 8  235 234 
 NOR  HE ES       1544  0.47                             119    0.08 8  235 234 
 NOR  HZ I        1544  5.53        26.9 0.16            112            235 234 
 SML  HZ EP       1543 32.21                             118   -0.72 8  241 335 
 SML  HN ES       1544  0.76                             118   -0.59 8  241 335 
 HEL  HZ EP   2   1543 36.17                             115   -0.59 4  272 255 
 HEL  HZ I        1544 16.30        13.5 0.52            109            272 255 
 GUY2CHZ EP   4   1543 39.87                             112   -0.38 0  302 234 
 GUY2CHZ I        1544 23.04        12.2 0.56                           302 234 
 CBOC HZ EP       1543 43.98                             110    0.52 7  333 252 
                                                                                
