 2015 10 9 1751  0.1 L   6.805 -73.128149.1  RSN 10 0.2 1.9LRSN                1
 GAP=138        0.55       1.8     2.5  3.4 -0.3707E+00  0.2049E+01  0.6347E+00E
 Epicentro: LOS SANTOS - SANTANDER                                             3
 ACTION:UPD 15-12-22 20:38 OP:cam  STATUS:               ID:20151009175100 L   I
 OLDACT:REG 15-10-09 22:31 OP:spq  STATUS:               ID:20151009174749     3
 2015-10-09-1747-49M.COL___340                                                 6
 STAT SP IPHASW D HRMM SECON CODA AMPLIT PERI AZIMU VELO AIN AR TRES W  DIS CAZ7
 BAR2 EZ EP     C 1751 19.83                             170   -0.3110 24.3 194 
 BAR2 EZ ES   1   1751 35.73                             170   -0.05 7 24.3 194 
 BAR2 EZ I        1751 36.45        15.3 0.16            168           24.3 194 
 BRR  HZ EP     C 1751 21.67                             153   -0.0110 72.6 297 
 BRR  HN ES       1751 38.79                             153    0.2710 72.6 297 
 BRR  HZ I        1751 42.61        27.7 0.44            149           72.6 297 
 PAM  EZ EP       1751 22.89                             152    0.3210 75.8  39 
 PAM  EN ES       1751 39.93                             152   -0.1710 75.8  39 
 PAM  EZ I        1751 42.00        13.0 0.48            155           75.8  39 
 RUS  HZ EP       1751 23.87                             144   -0.3310  101 177 
 RUS  HE ES       1751 43.15                             144    0.1410  101 177 
 RUS  HZ I        1751 44.37         4.3 0.32            147            101 177 
 SPBC HZ EP       1751 28.87                             129   -0.13 9  165 219 
 SPBC HN ES       1751 51.77                             129    0.22 9  165 219 
 SPBC HZ I        1751 57.84        11.4 0.28            130            165 219 
 ZAR  HE ES       1751 58.27                             123   -0.25 8  206 292 
 ZAR  HZ I        1752  3.77         9.6 0.54            122            206 292 
 NOR  HZ EP       1751 36.51                             119    0.29 8  237 235 
 NOR  HN ES       1752  4.19                             119   -0.20 8  237 235 
 NOR  HZ I        1752 10.72         4.8 0.18            119            237 235 
 SML  HZ EP       1751 37.06                             118    0.12 8  244 335 
 SML  HN ES   1   1752  5.63                             118   -0.05 6  244 335 
 SML  HZ I        1752 12.59        10.8 0.14            119            244 335 
 CHI  HZ EP       1751 38.25                             118    0.16 8  250 196 
 CHI  HN ES       1752  7.75                             118    0.02 8  250 196 
 CHI  HZ I        1752  9.83         4.8 0.36            119            250 196 
 GUY2CHZ EP   4   1751 45.67                             113    1.60 0  303 235 
 GUY2CHE ES   4   1752 20.00                             113    1.63 0  303 235 
 GUY2CHZ I        1752 27.74         3.8 0.26                           303 235 
                                                                                
