 2010  8 9 1437 54.9 L   6.788 -73.035143.4  RSN 16 0.4 2.7LRSN                1
 GAP=169        0.98       3.0     6.1  5.3 -0.6948E+01 -0.4385E+00  0.4064E+01E
 Epicentro: CEPITA - SANTANDER                                                 3
 ACTION:UP  10-09-07 10:53 OP:vdl  STATUS:               ID:20100809143754 L   I
 2010-08-09-1435-32S.COL___124                                                 6
 STAT SP IPHASW D HRMM SECON CODA AMPLIT PERI AZIMU VELO SNR AR TRES W  DIS CAZ7
 BAR2 SZ IP       1438 14.38                             169     0.110   27 217 
 BAR2 SZ I        1438 22.14        95.2 0.25                            27 217 
 BTL  SZ IP       1438 14.47                             168     0.110   29 299 
 BTL  SZ ES   1   1438 28.69                             168    -0.9 7   29 299 
 GIR2 SZ IP       1438 14.39                             165    -0.110   37 331 
 GIR2 SZ ES   1   1438 29.90                             165     0.2 7   37 331 
 URB  SZ EP       1438 15.86                                     0.510   60 326 
 URB  SZ ES   2   1438 30.91                                    -0.3 5   60 326 
 BRR  HZ EP       1438 16.20                             149    -0.310   83 295 
 BRR  HN ES       1438 33.63                             149     0.310   83 295 
 BRR  HZ I        1438 37.42       110.5 0.16                            83 295 
 RUS  HZ EP       1438 18.33                             144     0.010   99 183 
 RUS  HN ES       1438 36.99                             144     0.410   99 183 
 RUS  HZ I        1438 38.41        35.2 0.17                            99 183 
 BRI  SZ EP       1438 18.76                             142     0.410  106  14 
 GUE  SZ EP       1438 19.19                             139    -0.110  116   6 
 GUE  SZ ES       1438 38.32                             139    -0.110  116   6 
 GUE  SZ I        1438 39.59        32.7 0.22                           116   6 
 GRA  SZ IP       1438 19.95                             137     0.210  124  12 
 GRA  SZ ES   1   1438 39.24                             137     0.1 7  124  12 
 OCA  SZ EP       1438 22.68                             129    -0.6 9  164 349 
 OCA  SZ ES       1438 45.24                             129    -0.3 9  164 349 
 OCA  SZ I        1438 50.65        80.8 0.22                           164 349 
 CHI  HZ EP       1438 32.55                             117    -0.1 8  251 198 
 CHI  HE ES   1   1439  1.25                             117    -0.9 6  251 198 
 CHI  HZ I        1439 10.74        16.7 0.43                           251 198 
 ROSC BN ES   2   1439  3.47                             116    -0.1 4  258 214 
 HEL  HZ EP   2   1438 36.56                             113     0.3 4  284 257 
 HEL  HN ES   2   1439  8.68                             113     0.1 4  284 257 
 HEL  HZ I        1439 14.13        16.1 0.20                           284 257 
 GUY  SZ EP   1   1438 40.16                             111     0.7 5  311 236 
 GUY  SN ES   2   1439 14.45                             111     0.2 3  311 236 
 GUY  SZ I        1439 22.29        86.3 0.58                           311 236 
 RREF HZ EP       1438 42.55                             110     0.6 7  330 231 
 RREF HN ES   2   1439 18.63                             110     0.1 3  330 231 
 RREF HZ I        1439 24.72        21.9 0.33                           330 231 
 PRA  HZ EP       1438 48.18                             106    -0.7 6  397 211 
 PRA  HN ES   2   1439 29.83                             106    -1.2 3  397 211 
 PRA  HZ I        1439 34.71        18.7 0.42                           397 211 
                                                                                
