 2014  5 9 1517 36.0 L   6.771 -73.140144.8  RSN  5 0.5 1.7LRSN                1
 GAP=139        1.05       5.6     4.9 10.2 -0.4769E+01  0.1750E+02  0.7691E+01E
 Epicentro: LOS SANTOS - SANTANDER                                             3
 ACTION:UPD 15-03-16 16:56 OP:nd   STATUS:               ID:20140509151736 L   I
 OLDACT:UP  14-05-10 00:13 OP:mh   STATUS:               ID:20140509150820d    3
 OLDACT:UP  14-05-10 00:12 OP:mh   STATUS:               ID:20140509150820d    3
 OLDACT:DUP 14-05-10 00:07 OP:mh   STATUS:               ID:20140509150820d    3
 2014-05-09-1508-19M.COL___245                                                 6
 STAT SP IPHASW D HRMM SECON CODA AMPLIT PERI AZIMU VELO AIN AR TRES W  DIS CAZ7
 PAM  SZ EP       1517 58.53                             150    0.2710 79.5  38 
 PAM  SN ES       1518 15.57                             150   -0.0410 79.5  38 
 PAM  HZ I        1518 17.09         6.9 0.36            156           79.5  38 
 RUS  HZ EP       1517 58.92                             144   -0.5210 97.4 176 
 RUS  HN ES   1   1518 18.25                             144    0.53 7 97.4 176 
 RUS  HZ I        1518 19.12         6.4 0.24            149           97.4 176 
 PTB  HZ EP       1518  2.44                             132   -0.47 9  148 260 
 PTB  HN ES       1518 23.40                             132   -0.48 9  148 260 
 PTB  HZ I        1518 31.14         6.5 0.16            133            148 260 
 ZAR  HZ EP   1   1518  8.23                             122   -0.35 6  206 293 
 ZAR  HN ES       1518 34.45                             122    0.47 8  206 293 
 ZAR  HZ I        1518 40.18         6.2 0.14            124            206 293 
 NOR  HZ EP       1518 12.34                             118    0.80 8  233 235 
 NOR  HN ES       1518 39.41                             118    0.15 8  233 235 
 NOR  HZ I        1518 43.99         5.4 0.20            121            233 235 
 SML  HN ES   4   1518 41.15                             117   -0.57 0  247 335 
                                                                                
