 2013  3 9 1936  0.2 L   6.785 -73.146140.2  RSN  4 0.3 1.4LRSN                1
 GAP=137        0.62       5.9     7.5  9.0  0.1304E+02 -0.7208E+01 -0.1589E+02E
 Epicentro: LOS SANTOS - SANTANDER                                             3
 ACTION:UPD 13-04-09 14:01 OP:ep   STATUS:               ID:20130309193600 L   I
 2013-03-09-1930-00M.COL___231                                                 6
 STAT SP IPHASW D HRMM SECON CODA AMPLIT PERI AZIMU VELO AIN AR TRES W  DIS CAZ7
 BRR  HZ EP       1936 21.17                             151    0.3810 72.0 300 
 BRR  HN ES   1   1936 36.67                             151   -0.18 7 72.0 300 
 BRR  HN I        1936 40.06         8.4 0.16            153           72.0 300 
 PAM  SZ EP   1   1936 21.67                             149   -0.23 7 78.7  39 
 RUS  HE ES   1   1936 41.31                             143    0.02 7 99.0 176 
 RUS  HE I        1936 42.57         2.5 0.18            148           99.0 176 
 PTB  HZ EP   1   1936 26.36                             131   -0.32 7  147 259 
                                                                                
