 2016  3 9 1531 38.4 L   6.846 -73.187142.0  RSN  5 0.3 1.5LRSN                1
 GAP=148        0.82       4.6     4.6  6.4 -0.9381E+01  0.8853E+01 -0.1541E+01E
 Epicentro: ZAPATOCA - SANTANDER                                               3
 ACTION:UPD 16-05-13 21:22 OP:cam  STATUS:               ID:20160309153138 L   I
 OLDACT:REG 16-03-09 20:46 OP:ar   STATUS:               ID:20160309152751     3
 2016-03-09-1527-51M.COL___283                                                 6
 STAT SP IPHASW D HRMM SECON CODA AMPLIT PERI AZIMU VELO AIN AR TRES W  DIS CAZ7
 BAR2 EZ EP       1531 57.62                             168   -0.0810 28.0 179 
 BAR2 EZ ES       1532 12.35                             168   -0.3910 28.0 179 
 BAR2 EZ I        1532 13.66         6.0 0.30            167           28.0 179 
 PAM  EZ IP     D 1532  0.54                             150    0.3510 76.7  45 
 PAM  EN ES       1532 17.35                             150    0.1810 76.7  45 
 PAM  EZ I        1532 18.46         6.3 0.20            154           76.7  45 
 RUS  HZ EP       1532  1.95                             141   -0.2510  106 174 
 RUS  HN ES       1532 20.73                             141   -0.0310  106 174 
 RUS  HZ I        1532 23.78         3.3 0.59            142            106 174 
 PTB  HZ EP       1532  4.34                             132   -0.42 9  144 257 
 PTB  HN ES       1532 25.32                             132    0.01 9  144 257 
 PTB  HZ I        1532 28.09         6.2 0.18            133            144 257 
 SPBC HZ EP       1532  6.76                             128    0.02 9  164 217 
 SPBC HN ES       1532 29.49                             128    0.66 9  164 217 
 SPBC HZ I        1532 32.51         6.3 0.12            129            164 217 
                                                                                
