 2012  1 9 1047 20.9 L   6.270 -73.945 28.9  RSN  6 0.2 1.6LRSN                1
 GAP=154        0.51       2.5     1.9  4.0  0.4708E+00 -0.4340E+01  0.1089E+01E
 Epicentro: CIMITARRA - SANTANDER                                              3
 ACTION:UP  12-02-03 08:15 OP:REBC STATUS:               ID:20120109104720 L   I
 2012-01-09-1040-00M.COL___186                                                 6
 STAT SP IPHASW D HRMM SECON CODA AMPLIT PERI AZIMU VELO SNR AR TRES W  DIS CAZ7
 PTB  HZ EP       1047 31.76                             105    -0.110   64 298 
 PTB  HN ES   1   1047 40.52                             105     0.1 7   64 298 
 BAR2 SZ EP   1   1047 35.81                              61    -0.1 7   92  67 
 BRR  HZ EP       1047 35.96                              61    -0.210   96  16 
 BRR  HN ES   1   1047 48.11                              61     0.1 7   96  16 
 BRR  HZ I        1047 49.55        24.3 0.14                            96  16 
 RUS  HZ EP   1   1047 38.02                              61     0.3 7  104 114 
 RUS  HN ES   1   1047 50.65                              61    -0.2 7  104 114 
 RUS  HZ I        1047 52.14         8.1 0.19                           104 114 
 GIR2 SZ EP   2   1047 40.00                              61     0.4 5  122  43 
 HEL  HZ EP   1   1047 46.84                              61     0.3 7  175 267 
 HEL  HN ES   1   1048  6.34                              61    -0.1 7  175 267 
 HEL  HZ I        1048  6.84         5.3 0.18                           175 267 
                                                                                
