 2012  7 9 1005 54.1 L   7.269 -73.080 17.7  RSN  5 0.4 1.0LRSN                1
 GAP=162        1.02       5.9     4.2  7.2 -0.1167E+02  0.2259E+02 -0.1543E+02E
 Epicentro: RIONEGRO - SANTANDER                                               3
 ACTION:UPD 12-08-14 11:43 OP:ep   STATUS:               ID:20120709100554 L   I
 2012-07-09-1000-00M.COL___201                                                 6
 STAT SP IPHASW D HRMM SECON CODA AMPLIT PERI AZIMU VELO AIN AR TRES W  DIS CAZ7
 PAM  SZ EP       10 6  2.51                             111     0.510   43  80 
 PAM  SE ES   1   10 6  7.84                             111    -0.4 7   43  80 
 BRR  HN ES   1   10 6 15.06                             101     0.1 7   72 256 
 BAR2 SZ EP       10 6  6.07                             101    -0.510   76 189 
 BAR2 SZ ES   2   10 6 17.16                             101     0.8 5   76 189 
 BAR2 SZ I        10 6 18.77         2.8 0.16                            76 189 
 PTB  HZ EP       10 6 19.65                              56    -0.1 9  172 242 
 PTB  HE ES   1   10 6 40.10                              56     0.4 7  172 242 
 PTB  HZ I        10 6 42.84         1.7 0.58                           172 242 
 ZAR  HN ES       10 6 45.21                              56    -0.2 9  198 277 
 ZAR  HZ I        10 7 18.92         2.8 0.66                           198 277 
