 2013  3 9 1549 21.6 L   6.760 -73.125146.0  RSN  8 0.3 2.3LRSN                1
 GAP=141        0.67       3.7     3.5  4.5 -0.3779E+01  0.2024E+01  0.5251E+01E
 Epicentro: LOS SANTOS - SANTANDER                                             3
 ACTION:UPD 13-04-09 14:01 OP:ep   STATUS:               ID:20130309154921 L   I
 2013-03-09-1544-50M.COL___207                                                 6
 STAT SP IPHASW D HRMM SECON CODA AMPLIT PERI AZIMU VELO AIN AR TRES W  DIS CAZ7
 BAR2 SZ IP       1549 41.19                             172   -0.0110 19.7 199 
 BAR2 SZ ES       1549 56.33                             172   -0.1510 19.7 199 
 BRR  HZ IP     C 1549 43.06                             151    0.0310 75.4 301 
 BRR  HN ES       1550  0.24                             151    0.5110 75.4 301 
 BRR  HZ I        1550  4.35        41.5 0.25            150           75.4 301 
 PAM  SZ EP       1549 44.02                             150    0.0510 79.4  36 
 PAM  SZ I        1549 44.36        51.2 0.22            149           79.4  36 
 PAM  SN ES       1550  1.28                             150   -0.1410 79.4  36 
 RUS  HZ EP       1549 45.07                             145    0.0010 96.1 177 
 RUS  HN ES   1   1550  3.52                             145    0.16 7 96.1 177 
 RUS  HN I        1550  6.18        26.1 0.16            134           96.1 177 
 PTB  HZ EP   1   1549 47.97                             132   -0.76 7  149 261 
 PTB  HE ES   1   1550  9.43                             132   -0.46 7  149 261 
 PTB  HZ I        1550 11.76        25.1 0.16            125            149 261 
 NOR  HZ EP       1549 57.24                             119   -0.05 8  234 236 
 NOR  HE ES       1550 25.22                             119    0.10 8  234 236 
 NOR  HZ I        1550 29.67        15.7 0.19            112            234 236 
 CHI  HZ EP   1   1549 59.08                             118    0.15 6  245 196 
 CHI  HZ I        1550 32.06        10.1 0.55            110            245 196 
 PRA  HZ EP   1   1550 15.46                             107    0.63 4  389 210 
                                                                                
