 2012  7 9 1011 44.3 L   7.391 -73.108 10.0  RSN  5 0.5 1.1LRSN                1
 GAP=141        1.16       4.9     3.7  8.9 -0.4932E+00  0.1873E+02  0.5834E+01E
 Epicentro: MATANZA - SANTANDER                                                3
 ACTION:UPD 12-08-14 11:43 OP:ep   STATUS:               ID:20120709101144 L   I
 2012-07-09-1010-00M.COL___201                                                 6
 STAT SP IPHASW D HRMM SECON CODA AMPLIT PERI AZIMU VELO AIN AR TRES W  DIS CAZ7
 PAM  SZ EP       1011 52.07                              98    -0.310   45  97 
 PAM  SN ES   1   1011 58.62                              98     0.0 7   45  97 
 BRR  HZ EP   1   1011 56.65                              94     0.6 7   74 245 
 BRR  HN ES   1   1012  4.81                              94    -0.5 7   74 245 
 BRR  HZ I        1012  7.80         4.4 0.19                            74 245 
 OCA  HN ES   1   1012 11.50                              93    -0.3 7   97 346 
 PTB  HZ EP   1   1012 11.45                              56     0.4 7  176 238 
 PTB  HE ES   1   1012 31.44                              56    -0.5 7  176 238 
 PTB  HZ I        1012 33.22         2.1 0.45                           176 238 
 ZAR  HZ EP       1012 14.11                              56     0.9 9  194 273 
 ZAR  HN ES   1   1012 35.35                              56    -0.5 6  194 273 
 ZAR  HZ I        1012 37.76         3.5 0.22                           194 273 
