 2016  7 9 1954 39.2 L   6.917 -73.121141.3  RSN  9 0.2 1.8LRSN                1
 GAP=212        0.57       3.0     3.9  5.5  0.3454E+01 -0.3864E+01 -0.7196E+01E
 Epicentro: PIEDECUESTA - SANTANDER                                            3
 ACTION:UPD 17-03-29 16:48 OP:lp   STATUS:               ID:20160709195439 L   I
 OLDACT:UP  16-07-10 00:59 OP:dani STATUS:               ID:20160709194744     3
 OLDACT:UP  16-07-10 00:57 OP:dani STATUS:               ID:20160709194744     3
 OLDACT:UP  16-07-10 00:57 OP:dani STATUS:               ID:20160709194744     3
 OLDACT:REG 16-07-09 21:12 OP:dani STATUS:               ID:20160709194744     3
 2016-07-09-1947-44M.COL___327                                                 6
 STAT SP IPHASW D HRMM SECON CODA AMPLIT PERI AZIMU VELO AIN AR TRES W  DIS CAZ7
 RUS  HZ EP       1955  3.72                             139    0.2610  113 178 
 RUS  HE ES       1955 22.37                             139   -0.0410  113 178 
 RUS  HZ I        1955 23.47         4.6 0.40            138            113 178 
 PTB  HZ EP       1955  6.36                             130    0.06 9  153 254 
 PTB  HN ES       1955 27.25                             130   -0.21 9  153 254 
 PTB  HZ I        1955 31.80         6.3 0.42            126            153 254 
 SPBC HZ EP       1955  8.27                             126   -0.21 9  175 217 
 SPBC HN ES       1955 31.29                             126   -0.06 9  175 217 
 SPBC HZ I        1955 36.30        14.4 0.34            123            175 217 
 ZAR  HE ES   4   1955 38.21                             122    2.17 0  202 288 
 ZAR  HZ I        1955 43.32         8.7 0.28            119            202 288 
 NOR  HN ES   4   1955 42.78                             116   -1.45 0  245 232 
 NOR  HZ I        1955 47.35         5.0 0.26            115            245 232 
 CHI  HZ EP       1955 18.07                             115   -0.01 8  262 195 
 CHI  HN ES   2   1955 48.87                             115    0.44 4  262 195 
 CHI  HZ I        1955 59.52         1.8 0.30            114            262 195 
 GUY2CHZ EP   9   1955 25.82                             111    2.13 0  311 233 
 GUY2CHE ES       1956  1.32                             111    0.77 7  311 233 
 GUY2CHZ I        1956  6.27         3.6 0.52                           311 233 
 SJC  HZ EP       1955 33.68                             105    0.19 6  400 326 
 SJC  HN ES       1956 16.04                             105    0.18 6  400 326 
 SJC  HZ I        1956 20.36         2.0 0.32            105            400 326 
 PRA  HZ EP       1955 33.79                             105   -0.23 6  405 209 
 PRA  HN ES       1956 16.90                             105    0.09 6  405 209 
 PRA  HZ I        1956 20.38         2.8 0.28            105            405 209 
                                                                                
