 2016 10 9 1520 51.4 L   6.800 -73.156141.4  RSN 10 0.4 1.9LRSN                1
 GAP=135        1.06       3.1     4.4  6.4 -0.2299E+01  0.6985E+01 -0.7733E+00E
 Epicentro: LOS SANTOS - SANTANDER                                             3
 ACTION:UPD 16-11-09 19:17 OP:rebc STATUS:               ID:20161009152051 L   I
 OLDACT:REG 16-10-09 20:26 OP:lv   STATUS:               ID:20161009151746     3
 2016-10-09-1518-00M.COL___360                                                 6
 STAT SP IPHASW D HRMM SECON CODA AMPLIT PERI AZIMU VELO AIN AR TRES W  DIS CAZ7
 BAR2 EZ IP     C 1521 10.45                             170   -0.0110 23.2 187 
 BAR2 EZ ES       1521 25.06                             170   -0.3110 23.2 187 
 BAR2 EZ I        1521 26.53        21.0 0.23            170           23.2 187 
 PAM  EZ EP       1521 13.49                             149    0.3310 78.1  40 
 PAM  EN ES       1521 30.18                             149    0.0210 78.1  40 
 PAM  EZ I        1521 32.42        12.7 0.41            152           78.1  40 
 RUS  HZ EP       1521 14.46                             142   -0.2310  101 175 
 RUS  HN ES       1521 33.05                             142    0.1610  101 175 
 PTB  HZ EP       1521 17.13                             131   -0.75 9  147 259 
 PTB  HN ES       1521 38.05                             131   -0.51 9  147 259 
 PTB  HZ I        1521 40.76         6.9 0.17            130            147 259 
 OCA  HZ EP       1521 18.93                             128   -0.39 9  160 354 
 OCA  HN ES       1521 41.10                             128   -0.03 9  160 354 
 OCA  HZ I        1521 49.21        11.6 0.18            129            160 354 
 SPBC HZ EP       1521 19.55                             128    0.09 9  162 219 
 SPBC HN ES       1521 42.20                             128    0.82 9  162 219 
 SPBC HZ I        1521 46.22        20.6 0.12            128            162 219 
 ZAR  HZ EP       1521 23.99                             121    0.57 9  203 292 
 ZAR  HN ES       1521 48.85                             121    0.42 9  203 292 
 ZAR  HZ I        1521 54.90         8.9 0.38            121            203 292 
 NOR  HZ EP   9   1521 25.14                             117   -1.60 0  234 234 
 NOR  HN ES       1521 52.02                                   -0.72 8  234 234 
 NOR  HZ I        1522  0.09         4.0 0.18            117            234 234 
 CHI  HZ EP       1521 29.17                             116    0.38 8  248 195 
 CHI  HN ES       1521 57.63                             116   -0.35 8  248 195 
 CHI  HZ I        1522  8.13         2.2 0.31            116            248 195 
 GUY2CHZ EP   4   1521 36.27                             111    1.60 0  300 235 
 GUY2CHN ES   4   1522 11.92                             111    3.47 0  300 235 
 GUY2CHZ I        1522 15.69         3.3 0.35                           300 235 
                                                                                
