 2016 12 9 1347 51.4 L   6.751 -73.149141.1  RSN  6 0.5 1.8LRSN                1
 GAP=138        1.18       5.8     6.0  7.9 -0.2441E+01  0.5176E+01  0.8938E+01E
 Epicentro: LOS SANTOS - SANTANDER                                             3
 ACTION:UPD 17-01-11 20:13 OP:rebc STATUS:               ID:20161209134752dL   I
 OLDACT:UP  16-12-10 01:31 OP:and  STATUS:               ID:20161209134645     3
 OLDACT:REG 16-12-09 20:38 OP:ar   STATUS:               ID:20161209134645     3
 2016-12-09-1347-00M.COL___355                                                 6
 STAT SP IPHASW D HRMM SECON CODA AMPLIT PERI AZIMU VELO AIN AR TRES W  DIS CAZ7
 BAR2 EZ EP       1348 10.34                             172   -0.0410 18.0 192 
 BAR2 EZ ES       1348 25.29                             172    0.1210 18.0 192 
 BAR2 EZ I        1348 27.62        34.2 0.30            169           18.0 192 
 BRR  HZ EP       1348 12.38                             151    0.1810 73.6 302 
 BRR  HN ES       1348 29.25                             151    0.8410 73.6 302 
 BRR  HZ I        1348 30.36        15.7 0.18            153           73.6 302 
 PAM  EZ EP       1348 13.36                             148   -0.0510 81.8  37 
 PAM  EN ES       1348 30.01                             148   -0.5510 81.8  37 
 PAM  EZ I        1348 32.61         8.7 0.70            152           81.8  37 
 RUS  HZ EP       1348 14.31                             144   -0.0110 95.2 176 
 RUS  HN ES       1348 32.28                             144    0.1010 95.2 176 
 RUS  HZ I        1348 33.86         8.9 0.30            144           95.2 176 
 PTB  HZ EP       1348 18.18                             131    0.30 9  146 261 
 PTB  HN ES       1348 37.47                             131   -1.06 9  146 261 
 PTB  HZ I        1348 40.85         9.3 0.14            132            146 261 
 CHI  HZ EP       1348 28.39                             117    0.11 8  243 195 
 CHI  HN ES   4   1348 59.56                             117    2.53 0  243 195 
 CHI  HZ I        1349  4.23         3.6 0.24            117            243 195 
                                                                                
