 2011  6 9 1138 17.7 L   6.766 -73.125146.0  RSN 14 0.6 2.9LRSN                1
 GAP=141        1.26       4.6     8.5  8.3 -0.2100E+02  0.1669E+02  0.3867E+01E
 Epicentro: LOS SANTOS - SANTANDER                                             3
 ACTION:UP  11-07-14 19:04 OP:ep   STATUS:               ID:20110609113817 L   I
 2011-06-09-1136-44S.COL___121                                                 6
 STAT SP IPHASW D HRMM SECON CODA AMPLIT PERI AZIMU VELO SNR AR TRES W  DIS CAZ7
 BAR2 SZ IP       1138 37.36                             172     0.010   20 198 
 BAR2 SZ ES   1   1138 53.35                             172     0.7 7   20 198 
 BAR2 SZ I        1138 54.16       231.8 0.33                            20 198 
 GIR2 SZ EP       1138 37.42                             166    -0.110   35 348 
 BRR  HZ IP     C 1138 39.23                             151     0.110   75 300 
 BRR  HZ I        1138 39.55       466.5 0.16                            75 300 
 BRR  HN ES   1   1138 56.58                             151     0.8 7   75 300 
 PAM  SZ EP   1   1138 40.11                             151     0.0 7   79  37 
 PAM  SN ES   1   1138 57.60                             151     0.1 7   79  37 
 PAM  SZ I        1138 59.32        26.9 0.24                            79  37 
 RUS  HZ EP   1   1138 41.26                             145     0.0 7   97 177 
 RUS  HE ES   1   1138 59.25                             145    -0.3 7   97 177 
 RUS  HZ I        1139  1.26       109.1 0.35                            97 177 
 BRI  SZ EP       1138 41.89                             141     0.010  111  19 
 BRI  SZ ES   1   1139  0.58                             141    -0.1 7  111  19 
 BRI  SZ I        1139  5.42       106.9 0.34                           111  19 
 GRA  SZ IP       1138 43.12                             136    -0.110  129  16 
 GRA  SZ ES   1   1139  2.69                             136    -0.4 7  129  16 
 GRA  SZ I        1139  3.84       120.9 0.26                           129  16 
 OCA  SZ EP   1   1138 45.97                             129    -0.5 7  164 353 
 OCA  SZ ES   1   1139  8.31                             129    -0.5 7  164 353 
 OCA  SZ I        1139 14.40       101.5 0.10                           164 353 
 NOR  SZ EP   1   1138 53.06                             119    -0.4 6  234 236 
 NOR  SN ES   1   1139 20.82                             119    -0.5 6  234 236 
 CHI  HZ EP   1   1138 55.34                             118     0.2 6  246 196 
 CHI  HE ES   1   1139 24.84                             118     0.6 6  246 196 
 CHI  HZ I        1139 34.52        26.8 0.34                           246 196 
 ROSC BZ EP   1   1138 57.35                             117     1.7 6  251 212 
 ROSC BE ES       1139 24.02                             117    -1.2 8  251 212 
 ROSC BZ I        1139 32.32        70.9 0.57                           251 212 
 DBB  SZ EP   1   1139  6.30                             109     0.8 5  342 275 
 TOL  SZ EP   1   1139  6.99                             109     1.1 5  342 225 
 PRA  HZ EP   1   1139 10.95                             107    -0.1 4  390 210 
 PRA  HE ES   1   1139 51.49                             107    -1.1 4  390 210 
                                                                                
