 2010  3 9 1248 39.9 L   6.776 -73.081147.1  RSN  5 0.4 1.7LRSN                1
 GAP=242        0.72       6.0    12.5  7.7  0.3579E+02  0.1551E+02  0.1727E+02E
 Epicentro: LOS SANTOS - SANTANDER                                             3
 ACTION:UP  10-08-24 09:53 OP:vdl  STATUS:               ID:20100309124840 L   I
 2010-03-09-1245-33S.COL___101                                                 6
 STAT SP IPHASW D HRMM SECON CODA AMPLIT PERI AZIMU VELO SNR AR TRES W  DIS CAZ7
 BAR2 SZ ES   1   1249 14.73                             170    -0.4 7   23 209 
 BRR  HZ EP   1   1249  1.33                             150    -0.3 7   79 298 
 BRR  HZ I        1249 12.87        14.1 0.19                            79 298 
 BRR  HN ES   1   1249 18.88                             150     0.3 7   79 298 
 RUS  BZ EP   1   1249  3.74                             145     0.2 7   98 180 
 RUS  BN ES   1   1249 22.03                             145     0.0 7   98 180 
 RUS  BZ I        1249 23.37         5.4 0.50                            98 180 
 CHI  HZ EP   1   1249 17.56                             117     0.0 6  248 197 
 CHI  HZ I        1249 18.46         3.4 0.45                           248 197 
 CHI  HN ES   1   1249 47.57                             117     0.6 6  248 197 
 PRA  HN ES   2   1250 14.49                             106    -1.0 3  393 211 
                                                                                
