 2012  5 9 1121 25.1 L   6.747 -73.195148.0  RSN  5 0.4 1.6LRSN                1
 GAP=228        0.86       8.8     8.0  8.4  0.4367E+02  0.9157E+01 -0.5479E+01E
 Epicentro: VILLANUEVA - SANTANDER                                             3
 ACTION:UP  12-07-05 12:03 OP:pat  STATUS:               ID:20120509112125 L   I
 2012-05-09-1120-00M.COL___192                                                 6
 STAT SP IPHASW D HRMM SECON CODA AMPLIT PERI AZIMU VELO SNR AR TRES W  DIS CAZ7
 BAR2 SZ EP   1   1121 44.32                             173    -0.5 7   17 175 
 BAR2 SZ ES   1   1122  0.33                             173     0.0 7   17 175 
 BAR2 SZ I        1122  1.56         9.4 0.35                            17 175 
 BRR  HZ EP   1   1121 46.27                             153    -0.1 7   70 305 
 BRR  HE ES   1   1122  3.20                             153     0.2 7   70 305 
 RUS  HZ EP   1   1121 48.70                             146     0.0 7   95 173 
 RUS  HE ES   1   1122  7.36                             146     0.3 7   95 173 
 RUS  HZ I        1122  7.95         4.6 0.41                            95 173 
 PTB  HZ EP   1   1121 51.23                             134    -0.4 7  141 261 
 PTB  HN ES   1   1122 12.32                             134    -0.1 7  141 261 
 PTB  HZ I        1122 14.73         4.6 0.21                           141 261 
 ZAR  HZ EP   1   1121 58.32                             123     0.9 6  201 294 
 ZAR  HE ES   1   1122 22.34                             123    -0.3 6  201 294 
 ZAR  HZ I        1122 29.57         6.8 0.26                           201 294 
                                                                                
