 2013  6 9 1127  0.3 L   6.795 -73.071142.4  RSN  8 0.5 1.6LRSN                1
 GAP=191        0.91       3.2     7.0  5.9  0.6483E+01  0.9937E+01  0.8663E-01E
 Epicentro: LOS SANTOS - SANTANDER                                             3
 ACTION:UPD 14-01-08 09:53 OP:ep   STATUS:               ID:20130609112700 L   I
 OLDACT:REG 13-06-09 14:06 OP:nd   STATUS:               ID:20130609111959     3
 2013-06-09-1119-59M.COL___261                                                 6
 STAT SP IPHASW D HRMM SECON CODA AMPLIT PERI AZIMU VELO AIN AR TRES W  DIS CAZ7
 BAR2 SZ EP     C 1127 19.65                             169    0.0610 25.6 209 
 BAR2 SZ ES       1127 34.54                             169   -0.0910 25.6 209 
 BAR2 SZ I        1127 35.53        11.5 0.38            167           25.6 209 
 BRR  HZ EP       1127 21.67                             149    0.1110 78.8 296 
 BRR  HN ES       1127 38.56                             149    0.4310 78.8 296 
 BRR  HZ I        1127 45.66         5.1 0.34            147           78.8 296 
 RUS  HZ EP       1127 23.67                             143   -0.0110 99.8 181 
 RUS  HN ES       1127 41.76                             143   -0.1410 99.8 181 
 RUS  HZ I        1127 43.89         3.9 0.42            147           99.8 181 
 PTB  HZ EP   1   1127 26.67                             129   -1.09 7  156 260 
 PTB  HN ES   2   1127 48.37                             129   -0.80 5  156 260 
 PTB  HZ I        1127 53.59         3.1 0.10            130            156 260 
 OCA  HZ EP   2   1127 28.76                             128    0.22 5  162 350 
 OCA  HN ES       1127 50.16                             128   -0.39 9  162 350 
 OCA  HZ I        1127 54.42         5.4 0.26            130            162 350 
 ZAR  HZ EP       1127 33.88                             120    0.51 8  212 291 
 ZAR  HN ES   2   1127 58.39                             120   -0.77 4  212 291 
 ZAR  HZ I        1128  4.03         3.6 0.40            121            212 291 
 SML  HZ EP   2   1127 36.15                             116   -1.06 4  248 334 
 SML  HN ES       1128  6.40                             116    0.42 8  248 334 
 SML  HZ I        1128  8.66         4.8 0.26            118            248 334 
 PRA  HZ EP       1127 54.61                             106    0.46 6  396 211 
 PRA  HN ES       1128 36.59                             106    0.45 6  396 211 
                                                                                
