 2015  6 9 1029 19.3 L   6.768 -73.369111.4  RSN  4 0.2 1.3LRSN                1
 GAP=179        0.54       5.3     6.0  4.5  0.2811E+02  0.1283E+02  0.8403E+01E
 Epicentro: ZAPATOCA - SANTANDER                                               3
 ACTION:UPD 15-09-10 22:11 OP:cam  STATUS:               ID:20150609102919 L   I
 OLDACT:REG 15-06-09 20:55 OP:ak   STATUS:               ID:20150609101750     3
 2015-06-09-1017-50M.COL___300                                                 6
 STAT SP IPHASW D HRMM SECON CODA AMPLIT PERI AZIMU VELO AIN AR TRES W  DIS CAZ7
 BAR2 EZ EP       1029 35.17                             165    0.2310 28.3 133 
 BAR2 EZ ES       1029 47.17                             165    0.0110 28.3 133 
 BAR2 EZ I        1029 48.69         7.0 0.34            167           28.3 133 
 BRR  HZ EP       1029 35.39                             152   -0.3210 53.4 315 
 BRR  HN ES       1029 48.56                             152    0.0410 53.4 315 
 BRR  HZ I        1029 49.51         4.9 0.16            152           53.4 315 
 RUS  HZ EP       1029 40.15                             135    0.2110  102 162 
 RUS  HN ES       1029 55.88                             135   -0.1810  102 162 
 ZAR  HZ EP       1029 47.26                             117   -0.16 9  183 296 
 ZAR  HN ES       1030  9.55                             117    0.18 9  183 296 
 ZAR  HZ I        1030 12.51         1.8 0.14            117            183 296 
                                                                                
