 2011  2 9 1510 12.6 L   6.818 -73.175139.6  RSN  7 0.4 1.9LRSN                1
 GAP=134        0.99       5.7     8.2  7.4 -0.2376E+02  0.1448E+02  0.2604E+01E
 Epicentro: LOS SANTOS - SANTANDER                                             3
 ACTION:UP  11-03-28 15:07 OP:jfem STATUS:               ID:20110209151012 L   I
 2011-02-09-1507-22S.COL___136                                                 6
 STAT SP IPHASW D HRMM SECON CODA AMPLIT PERI AZIMU VELO SNR AR TRES W  DIS CAZ7
 BTL  SZ EP       1510 31.80                             173     0.410   15 317 
 BTL  SZ ES   1   1510 46.50                             173     0.5 7   15 317 
 BAR2 SZ IP       1510 31.68                             169     0.110   25 182 
 BAR2 SZ ES   1   1510 45.95                             169    -0.4 7   25 182 
 BAR2 SZ I        1510 48.77        24.9 0.24                            25 182 
 GIR2 SZ EP       1510 31.69                             168     0.210   29 356 
 GIR2 SZ ES   1   1510 45.59                             168    -0.6 7   29 356 
 RUS  HZ EP   1   1510 35.77                             142    -0.2 7  103 174 
 RUS  HN ES   1   1510 54.19                             142     0.1 7  103 174 
 RUS  HZ I        1510 56.18        18.9 0.30                           103 174 
 GRA  SZ EP   1   1510 37.41                             136     0.2 7  125  19 
 GRA  SZ ES   1   1510 56.20                             136    -0.3 7  125  19 
 GRA  SZ I        1510 58.05        24.7 0.26                           125  19 
 YOP  SZ EP   2   1510 42.62                                     0.1 4  182 153 
 YOP  SZ I        1511  7.12         6.0 0.28                           182 153 
 NOR  SZ EP       1510 47.06                             117    -0.8 8  233 234 
 NOR  SN ES       1511 15.67                             117     0.3 8  233 234 
 NOR  SZ I        1511 21.70         1.2 0.14                           233 234 
                                                                                
