 2017  5 9 1200 41.2 L   6.809 -73.153144.9  RSN  7 0.3 1.4LRSN                1
 GAP=135        0.78       3.2     3.3  5.7 -0.1466E+01  0.4888E+01  0.1283E+01E
 Epicentro: LOS SANTOS - SANTANDER                                             3
 ACTION:UPD 17-06-16 13:34 OP:jn   STATUS:               ID:20170509120041 L   I
 OLDACT:UP  17-05-09 20:53 OP:edw  STATUS:               ID:20170509115742     3
 OLDACT:UP  17-05-09 20:52 OP:edw  STATUS:               ID:20170509115742     3
 OLDACT:REG 17-05-09 20:11 OP:edw  STATUS:               ID:20170509115742     3
 2017-05-09-1158-00M.COL___368                                                 6
 STAT SP IPHASW D HRMM SECON CODA AMPLIT PERI AZIMU VELO AIN AR TRES W  DIS CAZ7
 BRR  HZ EP       12 1  2.28                             153    0.1210 70.0 298 
 BRR  HN ES       12 1 18.91                             153    0.3810 70.0 298 
 PAM  EZ IP     D 12 1  3.40                             151    0.1210 77.1  40 
 PAM  EE ES       12 1 20.43                             151   -0.0910 77.1  40 
 PAM  EZ I        12 1 22.55         6.6 0.50            151           77.1  40 
 RUS  HZ EP       12 1  4.60                             143   -0.3110  102 176 
 RUS  HN ES       12 1 23.29                             143   -0.1410  102 176 
 RUS  HZ I        12 1 24.02         2.3 0.28            146            102 176 
 PTB  HZ EP       12 1  8.47                             132    0.45 9  147 258 
 PTB  HN ES       12 1 28.31                             132   -0.64 9  147 258 
 SPBC HN ES       12 1 32.13                             129    0.30 9  163 219 
 ZAR  HZ EP       12 1 13.32                             122   -0.13 9  203 292 
 ZAR  HN ES       12 1 38.34                             122   -0.28 9  203 292 
 ZAR  HZ I        12 1 45.03         3.8 0.24            123            203 292 
 NOR  HZ EP       12 1 16.74                             118   -0.11 8  235 234 
 NOR  HN ES       12 1 44.98                             118    0.31 8  235 234 
 NOR  HZ I        12 1 45.81         1.7 0.28            119            235 234 
                                                                                
