 2015  4 9 2016 36.9 L   6.818 -73.169137.5  RSN 14 0.5 2.4LRSN                1
 GAP=133        1.18       3.0     4.2  5.8 -0.2389E+01  0.1011E+02 -0.2281E-02E
 Epicentro: LOS SANTOS - SANTANDER                                             3
 ACTION:UPD 15-06-03 16:53 OP:cam  STATUS:               ID:20150409201636 L   I
 OLDACT:REG 15-04-10 03:31 OP:fm   STATUS:               ID:20150409200749     3
 2015-04-09-2007-49M.COL___275                                                 6
 STAT SP IPHASW D HRMM SECON CODA AMPLIT PERI AZIMU VELO AIN AR TRES W  DIS CAZ7
 BAR2 EZ EP       2016 55.66                             169    0.1110 25.1 183 
 BAR2 EZ ES       2017 10.09                             169   -0.0310 25.1 183 
 BAR2 EZ I        2017 11.68        50.6 0.18            169           25.1 183 
 BRR  HZ EP       2016 57.62                             152    0.6710 68.0 298 
 BRR  HE ES       2017 13.10                             152    0.4910 68.0 298 
 BRR  HZ I        2017 18.80        41.2 0.14            150           68.0 298 
 PAM  SZ IP     D 2016 58.52                             149    0.3010 77.5  42 
 PAM  SN ES       2017 14.96                             149    0.0810 77.5  42 
 PAM  SZ I        2017 17.78        58.8 0.62            154           77.5  42 
 RUS  HZ EP       2016 59.78                             141   -0.2110  103 175 
 RUS  HE ES       2017 17.08                             141   -0.9410  103 175 
 RUS  HZ I        2017 18.92        23.6 0.50            145            103 175 
 PTB  HZ EP       2017  3.00                             130    0.02 9  146 258 
 PTB  HE ES       2017 22.96                             130   -0.39 9  146 258 
 PTB  HZ I        2017 26.53        25.8 0.26            131            146 258 
 OCA  HZ EP       2017  5.13                             128    0.80 9  158 354 
 OCA  HE ES       2017 25.32                             128   -0.43 9  158 354 
 OCA  HZ I        2017 30.35        80.6 0.22            130            158 354 
 ZAR  HZ EP       2017  8.82                             121    0.36 9  201 292 
 ZAR  HN ES       2017 33.35                             121    0.25 9  201 292 
 ZAR  HZ I        2017 39.87        35.9 0.66            122            201 292 
 NOR  HZ EP       2017 12.37                             117    0.33 8  234 234 
 NOR  HE ES       2017 39.06                             117   -0.41 8  234 234 
 NOR  HZ I        2017 45.03        19.1 0.16            118            234 234 
 SML  HZ EP       2017 12.12                             116   -0.61 8  241 336 
 SML  HE ES       2017 40.27                             116   -0.43 8  241 336 
 SML  HZ I        2017 45.46        25.1 0.26            118            241 336 
 GUY2CHZ EP       2017 20.18                             111    0.17 7  300 234 
 GUY2CHE ES       2017 54.22                             111    0.57 7  300 234 
 GUY2CHZ I        2018  1.03         8.4 0.32                           300 234 
 RREF HN EP       2017 23.41                             109    0.81 7  321 229 
 RREF HE ES       2017 58.49                             109    0.22 7  321 229 
 RREF HN I        2018  7.32        12.0 0.32            111            321 229 
 CBOC HZ EP       2017 22.80                             108   -0.45 7  332 252 
 CBOC HE ES       2017 59.69                             108    0.27 7  332 252 
 CBOC HZ I        2018  4.77         4.0 0.50            110            332 252 
 MON  HZ EP       2017 23.55                             107   -1.64 6  350 308 
 MON  HN ES       2018  2.24                             107   -0.63 6  350 308 
 MON  HZ I        2018  2.82         7.0 0.18            109            350 308 
 ORTC HZ EP       2017 30.34                             105   -0.20 6  396 216 
 ORTC HE ES       2018 12.49                             105    0.09 6  396 216 
 ORTC HZ I        2018 18.69         6.3 0.34            107            396 216 
                                                                                
