 2016  6 9 2321 12.6 L   6.628 -73.222139.4  RSN  4 0.3 1.2LRSN                1
 GAP=177        0.57       5.3     4.8  7.1  0.1182E+02  0.1374E+02  0.9465E+01E
 Epicentro: BARICHARA - SANTANDER                                              3
 ACTION:UPD 16-07-21 22:17 OP:rebc STATUS:               ID:20160609232112 L   I
 OLDACT:UP  16-06-10 05:25 OP:ak   STATUS:               ID:20160609231745d    3
 OLDACT:DUP 16-06-10 05:20 OP:ak   STATUS:               ID:20160609231745d    3
 OLDACT:REG 16-06-10 03:13 OP:ak   STATUS:               ID:20160609231744     3
 2016-06-09-2317-44M.COL___343                                                 6
 STAT SP IPHASW D HRMM SECON CODA AMPLIT PERI AZIMU VELO AIN AR TRES W  DIS CAZ7
 BAR2 EZ EP   2   2321 31.47                             178    0.28 5 5.90 132 
 BAR2 EZ ES       2321 45.33                             178   -0.3910 5.90 132 
 BAR2 EZ I        2321 46.84         5.5 0.26                          5.90 132 
 BRR  HZ EP   2   2321 33.46                             149    0.17 5 75.8 314 
 BRR  HN ES       2321 49.65                             149    0.1810 75.8 314 
 RUS  HZ EP   2   2321 34.35                             148   -0.09 5 82.7 169 
 RUS  HN ES   1   2321 51.83                             148    0.32 7 82.7 169 
 RUS  HZ I        2321 54.85         1.9 0.46                          82.7 169 
 PTB  HZ EP   2   2321 37.63                             132   -0.38 5  137 266 
 PTB  HN ES       2321 57.90                             132    0.03 9  137 266 
 GUY2CHN ES   4   2322 29.47                             112    3.38 0  283 237 
                                                                                
