 2016  1 9 2205 36.3 L   6.822 -73.181139.4  RSN  5 0.2 1.7LRSN                1
 GAP=138        0.63       5.2     3.9  6.7 -0.1015E+01  0.1072E+02 -0.1922E+02E
 Epicentro: ZAPATOCA - SANTANDER                                               3
 ACTION:UPD 16-03-09 23:24 OP:cam  STATUS:               ID:20160109220537 L   I
 OLDACT:UP  16-02-01 09:17 OP:mHER STATUS:               ID:20160109220537 L   3
 OLDACT:DUP 16-01-10 08:16 OP:dnl  STATUS:               ID:20160109215752d    3
 OLDACT:REG 16-01-10 02:38 OP:dnl  STATUS:               ID:20160109215750     3
 2016-01-09-2157-50M.COL___238                                                 6
 STAT SP IPHASW D HRMM SECON CODA AMPLIT PERI AZIMU VELO AIN AR TRES W  DIS CAZ7
 BAR2 EZ ES       22 6  9.65                             169   -0.2810 25.4 180 
 BAR2 EZ I        22 6 11.14        10.6 0.51            173           25.4 180 
 BRR  HZ EP       22 5 56.83                             153    0.3610 66.6 298 
 BRR  HE ES   4   22 6  9.97                             153   -2.26 0 66.6 298 
 PAM  EZ EP     D 22 5 57.92                             149    0.0710 78.1  43 
 PAM  EE ES       22 6 14.81                             149    0.1210 78.1  43 
 PAM  EZ I        22 6 17.50         4.8 0.28            152           78.1  43 
 ZAR  HE ES       22 6 32.54                             121    0.08 9  200 292 
 ZAR  HZ I        22 6 39.57         5.2 0.23            123            200 292 
 SML  HZ EP       22 6 11.69                             116   -0.43 8  240 336 
 SML  HE ES       22 6 40.01                             116   -0.08 8  240 336 
 SML  HZ I        22 6 43.39         6.6 0.06            118            240 336 
                                                                                
