 2013  6 9 2213 19.3 L   6.180 -73.453121.9  RSN  9 0.6 1.9LRSN                1
 GAP=162        1.41       6.2     4.9  8.3  0.9027E+01 -0.1455E+01 -0.8166E+01E
 Epicentro: GUADALUPE - SANTANDER                                              3
 ACTION:UPD 14-01-08 09:53 OP:ep   STATUS:               ID:20130609221319 L   I
 OLDACT:REG 13-06-09 23:18 OP:stll STATUS:               ID:20130609220849     3
 2013-06-09-2208-49M.COL___232                                                 6
 STAT SP IPHASW D HRMM SECON CODA AMPLIT PERI AZIMU VELO AIN AR TRES W  DIS CAZ7
 RUS  HZ EP       2213 38.08                             156    0.5810 51.8 128 
 RUS  HE ES       2213 51.89                             156    0.1810 51.8 128 
 RUS  HE I        2213 55.27        11.7 0.28            161           51.8 128 
 BAR2 SZ EP       2213 37.65                             155    0.3810 54.6  33 
 BAR2 SZ ES       2213 51.72                             155    0.4210 54.6  33 
 BAR2 SZ I        2213 53.83        11.6 0.18            155           54.6  33 
 GIR2 SZ IP     C 2213 40.80                             137    0.2810  103  16 
 GIR2 SZ ES       2213 56.13                             137   -0.9610  103  16 
 BRR  HZ EP       2213 40.69                             136    0.1110  106 344 
 BRR  HE ES       2213 57.69                             136    0.5010  106 344 
 BRR  HE I        2214  6.00        12.8 0.16            138            106 344 
 PTB  HZ EP       2213 41.25                             133   -0.3510  118 290 
 PTB  HE ES       2213 58.69                             133   -0.3210  118 290 
 PTB  HE I        2214  0.80        13.3 0.30            136            118 290 
 TAM  HZ EP       2213 48.28                             119   -0.12 9  186  81 
 TAM  HN ES       2214  9.93                             119   -1.18 9  186  81 
 ZAR  HN ES       2214 15.20                             116   -0.94 8  213 313 
 CAPV BZ EP       2213 52.96                             114    0.09 8  225  34 
 OCA  HZ EP       2213 53.48                             114    0.33 8  228   4 
 OCA  HN ES       2214 20.35                             114    0.79 8  228   4 
 OCA  HN I        2214 23.43        28.2 0.32            117            228   4 
                                                                                
