 2013  7 9 2109 44.5 L   6.783 -73.146143.4  RSN 15 0.5 2.5LRSN 3.1WRSN        1
 SPEC AVERAGE  MO 13.7 ST  2.2 OM  2.2 f0 3.10 R0.5157 AL 1.92 WI 19.1 MW  3.1 3
 SPEC SD       MO  0.1 ST  2.0 OM  0.4 f00.542 R0.0820 AL      WI      MW  0.1 3
 GAP= 72        1.07       3.5     3.8  6.3 -0.4430E+00  0.7133E+01  0.2735E+01E
 Epicentro: LOS SANTOS - SANTANDER                                             3
 SPEC PRA HH N MO 13.7 ST  1.9 OM  1.7 f0 3.13 R0.4965 AL 1.98 WI 18.4 MW  3.1 3
 SPEC PRA HH N T211119 K 0.000 GD  415 VS 4.20 DE 3.20 Q0300.0 QA 0.60 VS 4.20 3
 SPEC TAM HH N MO 13.7 ST0.960 OM  2.0 f0 2.50 R0.6216 AL 2.00 WI 10.6 MW  3.1 3
 SPEC TAM HH N T211032 K 0.000 GD  211 VS 4.20 DE 3.20 Q0300.0 QA 0.60 VS 4.20 3
 SPEC OCA HH Z MO 13.5 ST0.765 OM  1.8 f0 2.68 R0.5799 AL 1.10 WI 24.0 MW  3.0 3
 SPEC OCA HH Z T211032 K 0.000 GD  216 VS 4.20 DE 3.20 Q0300.0 QA 0.60 VS 4.20 3
 SPEC PAM SH N MO 13.5 ST  1.2 OM  1.9 f0 3.13 R0.4965 AL 2.58 WI 13.5 MW  3.0 3
 SPEC PAM SH N T211022 K 0.000 GD  163 VS 4.20 DE 3.20 Q0300.0 QA 0.60 VS 4.20 3
 SPEC HEL HH N MO 13.7 ST  1.0 OM  1.8 f0 2.62 R0.5931 AL 1.66 WI 25.6 MW  3.1 3
 SPEC HEL HH N T211054 K 0.000 GD  307 VS 4.20 DE 3.20 Q0300.0 QA 0.60 VS 4.20 3
 SPEC CHI HH N MO 13.8 ST  2.7 OM  1.9 f0 3.45 R0.4504 AL 1.90 WI 16.3 MW  3.1 3
 SPEC CHI HH N T211050 K 0.000 GD  285 VS 4.20 DE 3.20 Q0300.0 QA 0.60 VS 4.20 3
 SPEC BRR HH N MO 13.9 ST  6.8 OM  2.3 f0 4.18 R0.3718 AL 2.22 WI 25.5 MW  3.2 3
 SPEC BRR HH N T211021 K 0.000 GD  160 VS 4.20 DE 3.20 Q0300.0 QA 0.60 VS 4.20 3
 ACTION:UPD 13-08-12 10:36 OP:ep   STATUS:               ID:20130709210944 L   I
 OLDACT:UP  13-07-09 22:18 OP:jn   STATUS:               ID:20130709210749     3
 OLDACT:UP  13-07-09 22:16 OP:jn   STATUS:               ID:20130709210749     3
 OLDACT:REG 13-07-09 21:30 OP:jn   STATUS:               ID:20130709210749     3
 2013-07-09-2107-49M.COL___224                                                 6
 STAT SP IPHASW D HRMM SECON CODA AMPLIT PERI AZIMU VELO AIN AR TRES W  DIS CAZ7
 BAR2 SZ IP     D 2110  3.97                             171    0.1510 21.5 191 
 BAR2 SZ ES       2110 19.11                             171    0.2310 21.5 191 
 BAR2 SZ I        2110 19.85        73.7 0.20            165           21.5 191 
 GIR2 SZ EP       2110  4.12                             166    0.1610 33.1 351 
 BRR  HZ EP     C 2110  5.84                             152    0.3810 72.1 300 
 BRR  HN ES       2110 22.64                             152    0.8410 72.1 300 
 BRR  HZ I        2110 23.86        70.7 0.14            147           72.1 300 
 PAM  SZ EP     C 2110  6.76                             150    0.1910 78.9  39 
 PAM  SN ES       2110 23.31                             150   -0.4610 78.9  39 
 PAM  SZ I        2110 25.78        40.7 0.70            147           78.9  39 
 RUS  HZ EP       2110  8.02                             144    0.1210 98.7 176 
 RUS  HN ES       2110 25.82                             144   -0.3210 98.7 176 
 RUS  HZ I        2110 27.30        22.4 0.30            135           98.7 176 
 PTB  HZ EP       2110 10.71                             132   -0.54 9  147 260 
 PTB  HN ES       2110 31.71                             132   -0.40 9  147 260 
 PTB  HZ I        2110 34.14        57.6 0.68            124            147 260 
 TAM  HN ES   1   2110 33.36                             130   -0.02 7  155 104 
 OCA  HN ES   1   2110 33.53                             129   -1.37 7  162 353 
 ZAR  HZ EP       2110 16.45                             122   -0.43 9  205 293 
 ZAR  HE ES   1   2110 41.87                             122   -0.25 6  205 293 
 ZAR  HZ I        2110 47.91        52.7 0.32            116            205 293 
 NOR  HZ EP       2110 20.51                             118    0.52 8  234 235 
 NOR  HN ES       2110 47.51                             118   -0.14 8  234 235 
 NOR  HZ I        2110 51.91        32.1 0.54            111            234 235 
 SML  HN ES   1   2110 50.80                             117    1.00 6  245 335 
 CHI  HZ EP   1   2110 22.07                             117    0.19 6  247 195 
 CHI  HN ES   1   2110 50.74                             117   -0.29 6  247 195 
 CHI  HZ I        2110 57.53        12.9 0.40            110            247 195 
 HEL  HN ES   1   2110 55.63                             114   -0.15 6  272 256 
 HEL  HZ I        2111  3.21        21.2 0.46            108            272 256 
 RREF HZ EP   4   2110 32.02                             110    1.61 0  321 230 
 RREF HE ES   4   2111  6.42                             110    0.21 0  321 230 
 PRA  HZ EP   1   2110 38.12                             106    0.36 4  390 210 
 PRA  HZ I        2111 26.02        22.3 0.28            101            390 210 
 SJC  HZ EP   4   2110 38.21                             105   -1.97 0  411 327 
 SJC  HN ES   4   2111 19.73                             105   -3.87 0  411 327 
 SJC  HZ I        2111 24.10        12.9 0.48            101            411 327 
                                                                                
