 2012  3 9 2216 14.4 L   6.786 -73.147144.0  RSN  8 0.4 2.1LRSN                1
 GAP=137        0.87       5.3     5.1  7.1  0.3843E+01  0.9680E+01  0.3913E+01E
 ACTION:UP  12-03-31 23:18 OP:EP   STATUS:               ID:20120309221614 L   I
 2012-03-09-2210-00M.COL___193                                                 6
 STAT SP IPHASW D HRMM SECON CODA AMPLIT PERI AZIMU VELO SNR AR TRES W  DIS CAZ7
 BAR2 SZ EP   1   2216 33.79                             171     0.0 7   22 190 
 BAR2 SZ ES   1   2216 48.78                             171    -0.1 7   22 190 
 BAR2 SZ I        2216 51.32        29.7 0.48                            22 190 
 BRR  HZ EP       2216 35.49                             152     0.110   72 300 
 BRR  HZ I        2216 35.68        26.1 0.16                            72 300 
 BRR  HE ES   1   2216 52.55                             152     0.8 7   72 300 
 PAM  SZ EP   1   2216 36.66                             150     0.2 7   79  39 
 PAM  SZ I        2216 36.90        33.2 0.16                            79  39 
 PAM  SN ES   1   2216 53.28                             150    -0.5 7   79  39 
 RUS  HZ EP   1   2216 37.88                             144     0.0 7   99 176 
 RUS  HN ES   1   2216 56.29                             144     0.1 7   99 176 
 RUS  HZ I        2216 57.88        19.2 0.39                            99 176 
 PTB  HZ EP   1   2216 40.68                             132    -0.5 7  147 259 
 PTB  HN ES   1   2217  1.50                             132    -0.6 7  147 259 
 PTB  HZ I        2217  3.70         8.1 0.12                           147 259 
 ZAR  HZ EP   1   2216 46.63                             122    -0.1 6  204 293 
 ZAR  HN ES   1   2217 11.99                             122     0.0 6  204 293 
 ZAR  HZ I        2217 17.64        18.4 0.33                           204 293 
 CHI  HZ EP   1   2216 52.01                             117     0.2 6  247 195 
 CHI  HZ I        2217 27.75         7.4 0.32                           247 195 
 HEL  HZ EP   2   2216 55.28                             114     0.8 4  272 256 
 HEL  HZ I        2217 34.20         6.6 0.54                           272 256 
                                                                                
