 2014 12 9 2305  2.9 L   6.867 -73.144146.1  RSN 12 0.5 2.3LRSN                1
 GAP=133        1.13       3.2     4.4  6.3 -0.1789E+01  0.6735E+01  0.3588E+01E
 Epicentro: LOS SANTOS - SANTANDER                                             3
 ACTION:UPD 15-02-10 17:02 OP:nd   STATUS:               ID:20141209230502 L   I
 OLDACT:REG 14-12-10 07:56 OP:carl STATUS:               ID:20141209225744     3
 2014-12-09-2257-44M.COL___309                                                 6
 STAT SP IPHASW D HRMM SECON CODA AMPLIT PERI AZIMU VELO AIN AR TRES W  DIS CAZ7
 BRR  HZ EP       23 5 24.64                             154    0.7110 68.2 293 
 BRR  HN ES       23 5 41.21                             154    0.8910 68.2 293 
 BRR  HZ I        23 5 44.55        38.4 0.14            152           68.2 293 
 PAM  SZ EP       23 5 24.92                             153    0.0910 71.6  43 
 PAM  SN ES       23 5 41.87                             153   -0.0510 71.6  43 
 PAM  SZ I        23 5 44.00        50.1 0.44            158           71.6  43 
 RUS  HZ EP       23 5 26.73                             142   -0.5110  108 176 
 RUS  HN ES       23 5 46.04                             142   -0.1810  108 176 
 RUS  HZ I        23 5 47.47        24.6 0.28            142            108 176 
 PTB  HZ EP       23 5 29.46                             132   -0.61 9  150 256 
 PTB  HN ES       23 5 50.60                             132   -0.66 9  150 256 
 PTB  HZ I        23 5 52.53        31.4 0.20            131            150 256 
 SPBC HZ EP       23 5 31.89                             128   -0.12 9  169 217 
 SPBC HN ES       23 5 54.78                             128    0.08 9  169 217 
 SPBC HZ I        23 6  2.99        21.7 0.28            128            169 217 
 ZAR  HZ EP       23 5 35.39                             123    0.27 9  202 290 
 ZAR  HN ES       23 5 59.51                             123   -0.74 9  202 290 
 ZAR  HZ I        23 6  6.17        51.6 0.36            123            202 290 
 SML  HZ EP       23 5 39.14                             118    0.30 8  237 334 
 SML  HN ES       23 6  6.36                             118   -0.50 8  237 334 
 SML  HZ I        23 6 12.69        16.9 0.28            120            237 334 
 NOR  HZ EP       23 5 39.05                             118   -0.10 8  239 233 
 NOR  HE ES       23 6  7.03                             118   -0.39 8  239 233 
 NOR  HZ I        23 6 16.27        17.3 0.18            118            239 233 
 CHI  HZ EP       23 5 41.43                             116    0.01 8  256 195 
 CHI  HE ES       23 6 11.22                             116   -0.23 8  256 195 
 CHI  HZ I        23 6 17.40         6.0 0.28            117            256 195 
 GUY2CHZ EP       23 5 47.73                             112    0.68 7  306 234 
 GUY2CHE ES       23 6 22.03                             112    0.56 7  306 234 
 GUY2CHZ I        23 6 34.01         9.3 0.50                           306 234 
 RREF HZ EP       23 5 49.37                             111   -0.27 7  327 228 
 RREF HN ES       23 6 27.07                             111    0.97 7  327 228 
 RREF HZ I        23 6 32.37         7.6 0.32            111            327 228 
 ORTC HZ EP       23 5 58.09                             106    0.53 6  402 216 
 ORTC HN ES       23 6 40.04                             106   -0.15 6  402 216 
 ORTC HZ I        23 7  2.10         5.1 0.10            107            402 216 
                                                                                
