 2011  6 9 2001 13.2 L   6.777 -73.121146.9  RSN  8 0.3 1.8LRSN                1
 GAP=141        0.67       3.2     5.2  5.4 -0.7536E+01  0.2071E+01  0.2131E+01E
 Epicentro: LOS SANTOS - SANTANDER                                             3
 ACTION:UP  11-07-14 19:04 OP:ep   STATUS:               ID:20110609200113 L   I
 2011-06-09-2000-04S.COL___121                                                 6
 STAT SP IPHASW D HRMM SECON CODA AMPLIT PERI AZIMU VELO SNR AR TRES W  DIS CAZ7
 BAR2 SZ EP       20 1 32.64                             171    -0.310   22 198 
 BAR2 SZ ES   1   20 1 47.88                             171    -0.4 7   22 198 
 BAR2 SZ I        20 1 50.78        21.1 0.23                            22 198 
 BTL  SZ EP       20 1 33.10                             171     0.210   23 314 
 BRR  HZ EP       20 1 34.74                             152     0.110   75 299 
 BRR  HE ES   1   20 1 51.80                             152     0.4 7   75 299 
 BRR  HZ I        20 1 53.80        13.9 0.15                            75 299 
 PAM  SZ EP   1   20 1 35.65                             151     0.1 7   78  37 
 RUS  HZ EP       20 1 36.80                             145     0.010   98 178 
 RUS  HE ES   1   20 1 55.62                             145     0.3 7   98 178 
 RUS  HZ I        20 1 56.78         6.9 0.34                            98 178 
 GRA  SZ EP       20 1 38.64                             137     0.010  127  16 
 GRA  SZ ES       20 1 58.44                             137    -0.110  127  16 
 GRA  SZ I        20 2  0.93         7.7 0.31                           127  16 
 NOR  SZ EP   1   20 1 48.81                             119    -0.2 6  235 235 
 NOR  SN ES   1   20 2 16.46                             119    -0.6 6  235 235 
 PRA  HZ EP   1   20 2  6.64                             107     0.0 4  391 210 
 PRA  HE ES   1   20 2 49.09                             107     0.8 4  391 210 
                                                                                
