 2013  7 9 2105 41.4 L   6.796 -73.161143.3  RSN 18 0.5 2.7LRSN 3.2WRSN        1
 SPEC AVERAGE  MO 13.9 ST  3.9 OM  2.3 f0 3.31 R0.4841 AL 2.32 WI 21.8 MW  3.2 3
 SPEC SD       MO  0.2 ST  2.9 OM  0.3 f00.596 R0.0829 AL      WI      MW  0.1 3
 GAP= 64        0.93       2.9     2.9  5.0  0.1047E+01  0.3010E+01  0.3928E+01E
 Epicentro: LOS SANTOS - SANTANDER                                             3
 SPEC ZAR HH Z MO 13.7 ST  1.1 OM  1.9 f0 2.65 R0.5864 AL 2.01 WI 17.7 MW  3.1 3
 SPEC ZAR HH Z T21 637 K 0.000 GD  248 VS 4.20 DE 3.20 Q0300.0 QA 0.60 VS 4.20 3
 SPEC TAM HH N MO 14.0 ST  3.1 OM  2.3 f0 2.92 R0.5322 AL 2.57 WI 17.7 MW  3.3 3
 SPEC TAM HH N T21 629 K 0.000 GD  212 VS 4.20 DE 3.20 Q0300.0 QA 0.60 VS 4.20 3
 SPEC PRA HH N MO 14.1 ST  9.3 OM  2.1 f0 3.93 R0.3954 AL 2.79 WI 20.0 MW  3.4 3
 SPEC PRA HH N T21 713 K 0.000 GD  416 VS 4.20 DE 3.20 Q0300.0 QA 0.60 VS 4.20 3
 SPEC PRA HH Z MO 14.0 ST  4.5 OM  2.0 f0 3.33 R0.4667 AL 2.15 WI 28.6 MW  3.3 3
 SPEC PRA HH Z T21 711 K 0.000 GD  416 VS 4.20 DE 3.20 Q0300.0 QA 0.60 VS 4.20 3
 SPEC ROSCBH Z MO 14.2 ST  3.6 OM  2.3 f0 2.78 R0.5590 AL 2.81 WI 21.8 MW  3.4 3
 SPEC ROSCBH Z T21 647 K 0.000 GD  289 VS 4.20 DE 3.20 Q0300.0 QA 0.60 VS 4.20 3
 SPEC PTB HH N MO 13.9 ST  3.0 OM  2.2 f0 3.17 R0.4902 AL 1.75 WI 28.3 MW  3.2 3
 SPEC PTB HH N T21 626 K 0.000 GD  204 VS 4.20 DE 3.20 Q0300.0 QA 0.60 VS 4.20 3
 SPEC RUS HH N MO 13.5 ST  2.6 OM  1.9 f0 4.03 R0.3856 AL 2.28 WI 12.8 MW  3.0 3
 SPEC RUS HH N T21 622 K 0.000 GD  174 VS 4.20 DE 3.20 Q0300.0 QA 0.60 VS 4.20 3
 SPEC HEL HH N MO 13.9 ST  2.2 OM  2.0 f0 2.92 R0.5322 AL 1.98 WI 35.7 MW  3.2 3
 SPEC HEL HH N T21 649 K 0.000 GD  305 VS 4.20 DE 3.20 Q0300.0 QA 0.60 VS 4.20 3
 SPEC PAM SH N MO 13.9 ST  1.6 OM  2.3 f0 2.56 R0.6070 AL 2.50 WI 21.7 MW  3.2 3
 SPEC PAM SH N T21 616 K 0.000 GD  163 VS 4.20 DE 3.20 Q0300.0 QA 0.60 VS 4.20 3
 SPEC BRR HH N MO 14.0 ST 10.1 OM  2.4 f0 4.43 R0.3508 AL 2.68 WI 17.3 MW  3.3 3
 SPEC BRR HH N T21 617 K 0.000 GD  159 VS 4.20 DE 3.20 Q0300.0 QA 0.60 VS 4.20 3
 SPEC BAR2SH Z MO 13.6 ST  2.1 OM  2.0 f0 3.70 R0.4200 AL 1.97 WI 18.7 MW  3.0 3
 SPEC BAR2SH Z T21 614 K 0.000 GD  145 VS 4.20 DE 3.20 Q0300.0 QA 0.60 VS 4.20 3
 ACTION:UPD 13-08-12 10:36 OP:ep   STATUS:               ID:20130709210541 L   I
 OLDACT:UP  13-07-09 22:08 OP:jn   STATUS:               ID:20130709205959     3
 OLDACT:REG 13-07-09 21:17 OP:jn   STATUS:               ID:20130709205959     3
 2013-07-09-2059-59M.COL___266                                                 6
 STAT SP IPHASW D HRMM SECON CODA AMPLIT PERI AZIMU VELO AIN AR TRES W  DIS CAZ7
 BAR2 SZ EP     C 21 6  0.62                             171   -0.0810 22.6 186 
 BAR2 SZ ES       21 6 15.53                             171   -0.2310 22.6 186 
 BAR2 SZ I        21 6 17.24       151.5 0.24            167           22.6 186 
 GIR2 SZ EP       21 6  0.76                             167   -0.0010 31.5 353 
 BRR  HZ EP     C 21 6  2.50                             152    0.3110 69.9 300 
 BRR  HN ES       21 6 19.06                             152    0.6410 69.9 300 
 BRR  HZ I        21 6 21.99       103.8 0.32            151           69.9 300 
 PAM  SZ EP       21 6  3.62                             150    0.2010 78.8  40 
 PAM  SE ES   1   21 6 20.56                             150   -0.05 7 78.8  40 
 PAM  SZ I        21 6 21.43        61.1 0.22            156           78.8  40 
 RUS  HZ EP       21 6  4.61                             143   -0.2510  100 175 
 RUS  HN ES   1   21 6 22.96                             143   -0.22 7  100 175 
 RUS  HZ I        21 6 24.88        36.9 0.25            144            100 175 
 PTB  HZ EP       21 6  7.23                             132   -0.75 9  146 259 
 PTB  HN ES   1   21 6 28.09                             132   -0.64 7  146 259 
 PTB  HZ I        21 6 35.27        61.1 0.18            131            146 259 
 TAM  HZ EP     C 21 6  9.04                             130    0.04 9  157 105 
 TAM  HN ES   1   21 6 30.63                             130    0.08 7  157 105 
 TAM  HZ I        21 6 32.42        33.6 0.54            134            157 105 
 OCA  HN ES   1   21 6 30.64                             129   -0.84 7  161 354 
 OCA  HZ I        21 6 34.22        53.1 0.24            132            161 354 
 YOP  SZ EP       21 6 11.39                             126    0.11 9  179 153 
 YOP  SE ES   1   21 6 34.76                             126    0.16 7  179 153 
 YOP  SZ I        21 6 37.03        35.6 0.22            128            179 153 
 ZAR  HZ EP       21 6 13.05                             122   -0.47 9  203 292 
 ZAR  HE ES       21 6 38.52                             122   -0.07 9  203 292 
 ZAR  HZ I        21 6 43.90        83.0 0.30            123            203 292 
 NOR  HZ EP     D 21 6 16.82                             118    0.04 8  233 234 
 NOR  HE ES   1   21 6 44.44                             118    0.04 6  233 234 
 NOR  HZ I        21 6 54.47        51.4 0.40            119            233 234 
 SML  HN ES   1   21 6 47.05                             117    0.78 6  243 336 
 CHI  HZ E        21 6 18.99                                            248 195 
 CHI  HZ EP   1   21 6 18.99                             117    0.15 6  248 195 
 CHI  HN ES   1   21 6 48.14                             117    0.08 6  248 195 
 CHI  HZ I        21 6 51.66        41.2 0.70            118            248 195 
 ROSC BZ EP   1   21 6 20.38                             116    1.16 6  251 211 
 ROSC BE ES   1   21 6 49.33                             116    0.59 6  251 211 
 HEL  HZ EP       21 6 21.83                             114    0.56 8  270 256 
 HEL  HE ES   1   21 6 53.03                             114    0.65 6  270 256 
 HEL  HZ I        21 6 58.73        32.6 0.30            115            270 256 
 GUY2CHZ EP   4   21 6 24.73                             112    0.05 0  300 235 
 GUY2CHE ES   4   21 7  2.88                             112    4.42 0  300 235 
 GUY2CHZ I        21 7  6.91        40.6 0.36                           300 235 
 RREF HZ EP   1   21 6 26.16                             110   -1.07 5  320 229 
 RREF HN ES   4   21 7  5.13                             110    2.14 0  320 229 
 RREF HZ I        21 7 12.50        42.7 0.42            111            320 229 
 PRA  HZ EP       21 6 34.50                             106   -0.17 6  391 209 
 PRA  HN ES   1   21 7 15.70                             106   -0.53 4  391 209 
 PRA  HZ I        21 7 22.78        45.1 0.74            107            391 209 
                                                                                
