 2012  6 9 2227 17.5 L   6.805 -73.224139.7  RSN  6 0.2 1.7LRSN                1
 GAP=173        0.43       2.4     2.8  4.5  0.6160E+00  0.4986E+01 -0.7132E+00E
 Epicentro: ZAPATOCA - SANTANDER                                               3
 ACTION:UPD 12-08-06 17:48 OP:ep   STATUS:               ID:20120609222715 L   I
 2012-06-09-2220-00M.COL___201                                                 6
 STAT SP IPHASW D HRMM SECON CODA AMPLIT PERI AZIMU VELO AIN AR TRES W  DIS CAZ7
 BAR2 SZ EP       2227 36.36                             170   -0.0510 24.0 169 
 BAR2 SZ ES       2227 51.23                             170    0.0710 24.0 169 
 BAR2 SZ I        2227 52.72        16.9 0.28            169           24.0 169 
 RUS  HZ EP   1   2227 41.11                             142    0.34 7  102 171 
 RUS  HE ES   1   2227 58.73                             142   -0.19 7  102 171 
 RUS  HZ I        2227 59.90         3.9 0.20            146            102 171 
 PTB  HZ EP       2227 42.95                             132   -0.26 9  139 258 
 PTB  HN ES   1   2228  3.30                             132    0.04 7  139 258 
 PTB  HZ I        2228  9.82         4.1 0.21            132            139 258 
 OCA  HN ES   1   2228  6.86                             129    0.03 7  159 356 
 ZAR  HN ES   1   2228 13.08                             122    0.05 6  196 293 
 ZAR  HZ I        2228 18.20         8.3 0.09            123            196 293 
 NOR  SN ES   1   2228 19.38                             118    0.19 6  228 233 
                                                                                
