 2011  4 9 2221 42.2 L   7.327 -73.068154.4  RSN  6 0.4 1.8LRSN                1
 GAP=101        0.93       8.8    12.5 10.5 -0.4499E+02  0.4891E+02 -0.9842E+01E
 Epicentro: MATANZA - SANTANDER                                                3
 ACTION:UP  11-06-22 15:30 OP:REBC STATUS:               ID:20110409222142 L   I
 2011-04-09-2220-26S.COL___138                                                 6
 STAT SP IPHASW D HRMM SECON CODA AMPLIT PERI AZIMU VELO SNR AR TRES W  DIS CAZ7
 PAM  SZ EP   1   2222  3.81                             165     0.1 7   41  88 
 PAM  SE ES   1   2222 19.91                             165    -0.6 7   41  88 
 BTL  SZ EP   1   2222  3.83                             161     0.2 7   50 206 
 GRA  SZ EP   1   2222  4.48                             155     0.1 7   68  25 
 GRA  SZ ES   1   2222 22.31                             155     0.7 7   68  25 
 GRA  SZ I        2222 23.50        17.9 0.31                            68  25 
 BRR  HZ EP   1   2222  4.88                             153     0.4 7   75 251 
 BRR  HZ I        2222 12.76        11.3 0.26                            75 251 
 BRR  HE ES   2   2222 21.80                             153    -0.1 5   75 251 
 BAR2 SZ EP   1   2222  5.30                             151     0.0 7   82 189 
 BAR2 SZ ES   2   2222 23.09                             151    -0.2 5   82 189 
 BAR2 SZ I        2222 24.99         6.7 0.24                            82 189 
 OCA  SZ EP   1   2222  5.86                             144    -0.8 7  105 345 
 OCA  SZ I        2222 28.18         7.1 0.50                           105 345 
                                                                                
