 2013  4 9 2216 42.0 L   6.751 -73.176150.2  RSN  5 0.5 1.8LRSN                1
 GAP=197        1.00       6.9     9.5  9.7  0.2683E+02 -0.3288E+01 -0.2214E+02E
 Epicentro: VILLANUEVA - SANTANDER                                             3
 ACTION:UPD 13-05-22 14:37 OP:EP   STATUS:               ID:20130409221642 L   I
 2013-04-09-2210-00M.COL___245                                                 6
 STAT SP IPHASW D HRMM SECON CODA AMPLIT PERI AZIMU VELO AIN AR TRES W  DIS CAZ7
 BAR2 SZ EP   1   2217  1.91                             173   -0.14 7 17.5 182 
 BAR2 SZ ES   1   2217 17.12                             173   -0.57 7 17.5 182 
 BAR2 SZ I        2217 18.15        16.8 0.28            175           17.5 182 
 BRR  HZ EP     C 2217  4.12                             153    0.5110 71.1 304 
 BRR  HN ES   1   2217 21.38                             153    0.91 7 71.1 304 
 BRR  HZ I        2217 30.54        14.5 0.32            152           71.1 304 
 RUS  HZ EP   1   2217  6.15                             146    0.33 7 95.4 174 
 RUS  HN ES   1   2217 24.00                             146   -0.40 7 95.4 174 
 RUS  HZ I        2217 25.66         6.3 0.34            154           95.4 174 
 PTB  HZ EP   1   2217  8.92                             134   -0.02 7  143 261 
 PTB  HN ES   1   2217 29.53                             134   -0.43 7  143 261 
 PTB  HZ I        2217 32.23         7.2 0.16            137            143 261 
 SML  HZ EP   1   2217 18.89                             118   -0.36 6  247 337 
 SML  HN ES   1   2217 47.64                             118   -0.67 6  247 337 
                                                                                
