 2013  2 9 2036 21.4 L   6.797 -73.124140.7  RSN  6 0.3 1.8LRSN                1
 GAP=139        0.63       3.6     4.3  5.6 -0.1515E+01  0.2713E+01  0.5464E+01E
 Epicentro: LOS SANTOS - SANTANDER                                             3
 ACTION:UPD 13-03-12 09:31 OP:ep   STATUS:               ID:20130209203621 L   I
 2013-02-09-2032-41M.COL___192                                                 6
 STAT SP IPHASW D HRMM SECON CODA AMPLIT PERI AZIMU VELO AIN AR TRES W  DIS CAZ7
 BAR2 SZ EP   1   2036 40.37                             170   -0.07 7 23.5 196 
 BAR2 SZ ES   1   2036 55.46                             170    0.18 7 23.5 196 
 BAR2 SZ I        2036 57.29        24.4 0.22            169           23.5 196 
 BRR  HZ EP   1   2036 42.21                             151    0.05 7 73.5 298 
 BRR  HN ES   1   2036 58.75                             151    0.42 7 73.5 298 
 BRR  HZ I        2037  3.30        12.2 0.12            150           73.5 298 
 PAM  SZ EP   1   2036 43.21                             150    0.19 7 76.2  38 
 PAM  SN ES   1   2036 59.62                             150   -0.25 7 76.2  38 
 PAM  SZ I        2037  2.02         8.9 0.46            155           76.2  38 
 RUS  HZ EP   1   2036 44.55                             143   -0.08 7  100 177 
 RUS  HN ES   1   2037  2.45                             143   -0.29 7  100 177 
 RUS  HZ I        2037  4.53         9.6 0.36            146            100 177 
 PTB  HZ EP   1   2036 48.31                             130    0.12 7  150 259 
 PTB  HE ES   1   2037  8.48                             130   -0.59 7  150 259 
 PTB  HZ I        2037 13.22         8.2 0.30            131            150 259 
 CHI  HZ EP   1   2036 58.58                             116   -0.29 6  249 196 
 CHI  HN ES   1   2037 28.78                             116    0.70 6  249 196 
 CHI  HZ I        2037 31.35         2.4 0.58            119            249 196 
                                                                                
