 2013  8 9 2226 36.7 L   6.798 -73.130149.7  RSN  9 0.4 2.2LRSN                1
 GAP=139        0.97       3.1     4.3  5.9  0.2808E+00  0.4995E+01  0.3156E+00E
 Epicentro: LOS SANTOS - SANTANDER                                             3
 ACTION:UPD 14-01-14 09:00 OP:ep   STATUS:               ID:20130809222636 L   I
 OLDACT:UP  13-08-09 22:22 OP:cam  STATUS:               ID:20130809221959     3
 OLDACT:REG 13-08-09 21:55 OP:cam  STATUS:               ID:20130809221959     3
 2013-08-09-2219-59M.COL___267                                                 6
 STAT SP IPHASW D HRMM SECON CODA AMPLIT PERI AZIMU VELO AIN AR TRES W  DIS CAZ7
 BAR2 SZ ES       2227 12.36                             171   -0.1510 23.5 194 
 BRR  HZ EP       2226 58.58                             153    0.1910 72.9 298 
 BRR  HZ I        2226 58.87        20.5 0.26            148           72.9 298 
 BRR  HN ES       2227 16.08                             153    0.7910 72.9 298 
 PAM  SZ EP       2226 59.49                             152    0.1810 76.4  38 
 PAM  SZ I        2226 59.71        36.0 0.24            156           76.4  38 
 PAM  SN ES       2227 16.87                             152   -0.0510 76.4  38 
 RUS  HZ EP       2227  0.62                             145   -0.2210  100 177 
 RUS  HN ES       2227 19.47                             145   -0.1810  100 177 
 RUS  HZ I        2227 20.42        10.2 0.38            143            100 177 
 PTB  HN ES       2227 24.82                             133   -0.75 9  149 259 
 PTB  HZ I        2227 32.11        21.4 0.48            129            149 259 
 SPBC HZ EP       2227  5.76                             130    0.14 9  164 220 
 SPBC HN ES       2227 28.04                             130   -0.11 9  164 220 
 SPBC HZ I        2227 33.42        17.1 0.16            127            164 220 
 ZAR  HZ EP   1   2227  9.40                             123   -0.21 6  206 292 
 ZAR  HN ES       2227 35.75                             123    0.50 8  206 292 
 ZAR  HZ I        2227 42.02        12.4 0.34            121            206 292 
 SML  HZ EP   1   2227 13.69                             118    0.01 6  245 335 
 SML  HN ES       2227 41.70                             118   -0.80 8  245 335 
 SML  HZ I        2227 45.17        33.3 0.24            117            245 335 
 CHI  HZ EP   1   2227 15.17                             118    0.50 6  249 196 
 CHI  HN ES       2227 44.46                             118    0.19 8  249 196 
 CHI  HZ I        2227 53.87         4.5 0.72            116            249 196 
                                                                                
