 2017  2 9 2254 53.6 L   6.799 -73.173147.2  RSN  5 0.4 1.4LRSN                1
 GAP=133        1.02       5.7     5.5  8.6 -0.3942E+01 -0.7545E+00  0.4808E+01E
 Epicentro: LOS SANTOS - SANTANDER                                             3
 ACTION:UPD 17-05-24 15:34 OP:jn   STATUS:               ID:20170209225453 L   I
 OLDACT:REG 17-02-10 04:30 OP:dnl  STATUS:               ID:20170209224744     3
 2017-02-09-2248-00M.COL___364                                                 6
 STAT SP IPHASW D HRMM SECON CODA AMPLIT PERI AZIMU VELO AIN AR TRES W  DIS CAZ7
 BAR2 EZ EP   2   2255 13.20                             171   -0.21 5 22.9 183 
 BAR2 EZ ES       2255 28.27                             171   -0.5810 22.9 183 
 BAR2 EZ I        2255 31.07         9.4 0.20            172           22.9 183 
 BRR  HZ EP   2   2255 15.15                             154    0.37 5 68.7 300 
 BRR  HN ES       2255 32.02                             154    0.7310 68.7 300 
 BRR  HZ I        2255 33.59        11.0 0.30            155           68.7 300 
 PAM  EZ EP       2255 16.24                             150    0.1410 79.4  41 
 PAM  EE ES       2255 33.37                             150   -0.2710 79.4  41 
 PAM  EZ I        2255 35.39         5.6 0.50            152           79.4  41 
 RUS  HZ EP       2255 17.53                             144    0.0210  101 174 
 RUS  HN ES       2255 36.60                             144    0.4410  101 174 
 RUS  HZ I        2255 37.55         1.8 0.18            146            101 174 
 PTB  HZ EP   2   2255 19.90                             133   -0.53 5  145 259 
 PTB  HN ES       2255 40.90                             133   -0.45 9  145 259 
 PTB  HZ I        2255 42.31         2.2 0.16            135            145 259 
                                                                                
