 2013  9 9 2106 24.7 L   6.795 -73.135147.9  RSN 11 0.5 2.2LRSN                1
 GAP=138        1.03       3.7     4.7  6.9 -0.2175E+01  0.7076E+01 -0.3744E+01E
 Epicentro: LOS SANTOS - SANTANDER                                             3
 ACTION:UPD 13-10-22 09:21 OP:ep   STATUS:               ID:20130909210624 L   I
 OLDACT:UP  13-09-09 23:48 OP:mh   STATUS:               ID:20130909205959     3
 OLDACT:REG 13-09-09 23:24 OP:mh   STATUS:               ID:20130909205959     3
 2013-09-09-2059-59M.COL___269                                                 6
 STAT SP IPHASW D HRMM SECON CODA AMPLIT PERI AZIMU VELO AIN AR TRES W  DIS CAZ7
 BAR2 SZ EP   1   21 6 44.67                             171    0.13 7 23.1 193 
 BAR2 SZ ES   1   21 7  0.06                             171    0.02 7 23.1 193 
 BAR2 SZ I        21 7  0.76        30.3 0.40            170           23.1 193 
 BRR  HZ IP     C 21 6 46.63                             152    0.5210 72.5 298 
 BRR  HN ES       21 7  3.55                             152    0.7110 72.5 298 
 BRR  HZ I        21 7  7.90        15.6 0.22            149           72.5 298 
 PAM  SZ EP   1   21 6 47.53                             151    0.45 7 77.0  39 
 PAM  SN ES   1   21 7  4.71                             151    0.15 7 77.0  39 
 PAM  SZ I        21 7  6.92        14.8 0.50            154           77.0  39 
 RUS  HZ EP   1   21 6 48.57                             145   -0.01 7100.0 177 
 RUS  HN ES       21 7  6.45                             145   -0.7810100.0 177 
 RUS  HZ I        21 7  8.42        14.6 0.24            149          100.0 177 
 PTB  HZ EP   1   21 6 51.54                             132   -0.36 7  149 259 
 PTB  HN ES       21 7 12.45                             132   -0.69 9  149 259 
 PTB  HZ I        21 7 19.74        25.5 0.32            132            149 259 
 OCA  HZ EP   1   21 6 52.43                             130   -0.77 7  161 353 
 OCA  HN ES   2   21 7 15.14                             130   -0.31 5  161 353 
 OCA  HZ I        21 7 19.39        24.1 0.32            131            161 353 
 SPBC HZ EP   1   21 6 53.43                             129    0.08 7  164 219 
 SPBC HN ES       21 7 15.90                             129    0.16 9  164 219 
 SPBC HZ I        21 7 18.21        24.1 0.46            131            164 219 
 ZAR  HZ EP   1   21 6 57.21                             123   -0.17 6  205 292 
 ZAR  HN ES       21 7 22.78                             123   -0.12 8  205 292 
 ZAR  HZ I        21 7 29.71        20.7 0.34            123            205 292 
 NOR  HZ EP   1   21 7  1.27                             119    0.68 6  235 235 
 NOR  HN ES       21 7 28.74                             119    0.13 8  235 235 
 NOR  HZ I        21 7 33.93        11.5 0.28            121            235 235 
 SML  HZ EP   1   21 7  2.13                             118    0.62 6  245 335 
 SML  HN ES   1   21 7 29.55                             118   -0.70 6  245 335 
 SML  HZ I        21 7 33.81        37.0 0.22            119            245 335 
 GUY2CHZ EP   4   21 7  9.50                             113    1.06 0  302 235 
 GUY2CHE ES   4   21 7 44.47                             113    1.87 0  302 235 
 GUY2CHZ I        21 7 51.86         7.1 0.28                           302 235 
 SJC  HZ EP   4   21 7 18.33                             106   -2.09 0  410 327 
 SJC  HN ES   4   21 7 59.47                             106   -4.44 0  410 327 
                                                                                
