 2011  6 9 2107 19.4 L   6.775 -73.076146.8  RSN  5 0.3 1.6LRSN                1
 GAP=167        0.75       4.0     6.6  8.8 -0.8892E+01 -0.1517E+01  0.9014E+01E
 Epicentro: LOS SANTOS - SANTANDER                                             3
 ACTION:UP  11-07-14 19:04 OP:ep   STATUS:               ID:20110609210719 L   I
 2011-06-09-2100-00M.COL___122                                                 6
 STAT SP IPHASW D HRMM SECON CODA AMPLIT PERI AZIMU VELO SNR AR TRES W  DIS CAZ7
 BRR  HN ES   1   21 7 58.48                             150     0.4 7   79 298 
 RUS  HZ EP       21 7 43.33                             145     0.310   98 180 
 RUS  HE ES   1   21 8  1.32                             145    -0.2 7   98 180 
 RUS  HZ I        21 8  3.75         2.7 0.55                            98 180 
 GRA  SZ EP   1   21 7 44.99                             137     0.2 7  126  14 
 GRA  SZ ES   1   21 8  3.99                             137    -0.6 7  126  14 
 GRA  SZ I        21 8  5.77        13.0 0.32                           126  14 
 NOR  SZ EP   1   21 7 55.58                             118    -0.1 6  239 236 
 NOR  SN ES   1   21 8 23.68                             118    -0.3 6  239 236 
 CHI  HN ES   1   21 8 26.42                             117    -0.1 6  248 197 
 CHI  HZ I        21 8 29.26         2.2 0.41                           248 197 
                                                                                
