 2011  2 9 2100 21.4 L   6.773 -73.186139.4  RSN  7 0.3 1.9LRSN                1
 GAP=175        0.51       4.0     7.0  6.9 -0.4039E+01  0.2506E+02 -0.5960E+01E
 Epicentro: LOS SANTOS - SANTANDER                                             3
 ACTION:UP  11-03-28 15:07 OP:jfem STATUS:               ID:20110209210021 L   I
 2011-02-09-2058-14S.COL___136                                                 6
 STAT SP IPHASW D HRMM SECON CODA AMPLIT PERI AZIMU VELO SNR AR TRES W  DIS CAZ7
 BTL  SZ EP       21 0 40.42                             172     0.210   18 331 
 BAR2 SZ EP   1   21 0 40.10                             172    -0.1 7   20 179 
 BAR2 SZ ES   2   21 0 54.89                             172     0.0 5   20 179 
 BAR2 SZ I        21 0 56.92        26.5 0.15                            20 179 
 GIR2 SZ EP   2   21 0 40.29                             165    -0.1 5   34 359 
 RUS  HZ EP       21 0 44.42                             143     0.010   98 173 
 RUS  HN ES       21 1  2.13                             143    -0.110   98 173 
 RUS  HZ I        21 1  4.10        14.3 0.36                            98 173 
 NOR  SZ EP   2   21 0 55.88                             118    -0.4 4  229 235 
 NOR  SE ES   2   21 1 23.15                             118    -0.2 4  229 235 
 CHI  HZ EP   2   21 0 57.80                             116    -0.5 4  245 194 
 CHI  HN ES   2   21 1 27.78                             116     0.6 4  245 194 
 CHI  HZ I        21 1 35.31         4.3 0.54                           245 194 
 HEL  HZ EP   2   21 1  1.17                             114     0.4 4  267 256 
 HEL  HZ I        21 1 38.59         5.1 0.30                           267 256 
                                                                                
