 2012  5 9 2346 33.7 L   6.809 -73.129143.5  RSN  5 0.4 1.5LRSN                1
 GAP=138        0.85       6.0     6.3 10.9  0.8292E+01  0.9317E+01  0.8152E+01E
 Epicentro: LOS SANTOS - SANTANDER                                             3
 ACTION:UP  12-07-05 12:03 OP:pat  STATUS:               ID:20120509234633 L   I
 2012-05-09-2340-00M.COL___195                                                 6
 STAT SP IPHASW D HRMM SECON CODA AMPLIT PERI AZIMU VELO SNR AR TRES W  DIS CAZ7
 BAR2 SZ EP   1   2346 53.12                             170     0.0 7   25 194 
 BAR2 SZ I        2347 11.56         5.1 0.52                            25 194 
 BRR  HZ EP   1   2346 54.90                             152     0.2 7   72 297 
 BRR  HN ES   1   2347 11.63                             152     0.6 7   72 297 
 BRR  HZ I        2347 13.73        10.1 0.21                            72 297 
 PAM  SZ EP   1   2346 55.91                             151     0.3 7   75  39 
 PAM  SN ES   1   2347 12.22                             151    -0.4 7   75  39 
 RUS  HZ EP   1   2346 57.24                             143    -0.1 7  101 177 
 RUS  HZ I        2346 57.85         2.6 0.36                           101 177 
 RUS  HN ES   1   2347 15.59                             143    -0.1 7  101 177 
 ZAR  HN ES   1   2347 30.86                             122    -0.6 6  205 292 
 ZAR  HZ I        2347 37.55         4.5 0.42                           205 292 
                                                                                
