 2010  8 9 2121 45.1 L   7.389 -73.183128.9  RSN  6 0.4 1.8LRSN                1
 GAP=148        0.93       7.3     9.8  9.1 -0.4945E+02 -0.1502E+02  0.2028E+02E
 Epicentro: EL PLAYON - SANTANDER                                              3
 ACTION:UP  10-09-07 10:53 OP:vdl  STATUS:               ID:20100809212144 L   I
 2010-08-09-2117-12S.COL___125                                                 6
 STAT SP IPHASW D HRMM SECON CODA AMPLIT PERI AZIMU VELO SNR AR TRES W  DIS CAZ7
 GIR2 SZ EP   1   2122  3.46                             164     0.6 7   34 182 
 GIR2 SZ ES   3   2122 17.54                             164     0.8 2   34 182 
 BTL  SZ EP   1   2122  3.48                             157    -0.3 7   53 190 
 GUE  SZ EP   1   2122  3.72                             156    -0.4 7   57  30 
 GUE  SZ ES       2122 18.83                             156    -0.110   57  30 
 GUE  SZ I        2122 19.36         9.3 0.14                            57  30 
 BRR  HZ EP   1   2122  3.81                             152    -0.4 7   66 242 
 BRR  HZ I        2122  4.04        17.1 0.28                            66 242 
 BRR  HE ES       2122 19.16                             152     0.110   66 242 
 GRA  SZ EP   1   2122  5.45                             151     0.9 7   69  37 
 GRA  SZ ES       2122 19.56                             151    -0.210   69  37 
 GRA  SZ I        2122 21.89        14.0 0.27                            69  37 
 BAR2 SZ EP   1   2122  5.75                             144    -0.2 7   88 180 
 BAR2 SZ ES   1   2122 22.13                             144    -0.1 7   88 180 
 BAR2 SZ I        2122 23.20        13.2 0.10                            88 180 
                                                                                
