 2012  2 9 2240 40.4 L   6.791 -73.588  3.1  RSN  4 0.2 1.0LRSN                1
 GAP=103        0.42       1.7     2.8  5.8 -0.1204E+01  0.1122E+02 -0.3980E+01E
 ACTION:UP  12-03-07 16:29 OP:epov STATUS:               ID:20120209224040 L   I
 2012-02-09-2240-00M.COL___188                                                 6
 STAT SP IPHASW D HRMM SECON CODA AMPLIT PERI AZIMU VELO AIN AR TRES W  DIS CAZ7
 BRR  HZ EP       2240 46.89                              47    0.0610 37.5 339 
 BRR  HZ I        2240 49.15        13.4 0.31                          37.5 339 
 BRR  HE ES       2240 51.73                              47   -0.1010 37.5 339 
 PTB  HZ EP   2   2240 56.17                              47   -0.14 5100.0 254 
 PTB  HN ES   1   2241  8.84                              47    0.13 7100.0 254 
 RUS  HZ EP   1   2240 58.75                              47   -0.18 7  114 151 
 RUS  HZ I        2240 59.30         3.1 0.11                           114 151 
 PAM  SZ EP   2   2240 59.55                              47    0.42 5  115  58 
                                                                                
