 2011 10 9 2044 38.3 L   6.781 -73.082142.7  RSN  4 0.2 1.6LRSN                1
 GAP=146        0.40       4.2     4.6  7.6  0.3950E+01  0.6880E+01  0.1908E+01E
 Epicentro: LOS SANTOS - SANTANDER                                             3
 ACTION:UPD 12-07-13 16:02 OP:ep   STATUS:               ID:20111009204438 L   I
 2011-10-09-2043-33S.COL___168                                                 6
 STAT SP IPHASW D HRMM SECON CODA AMPLIT PERI AZIMU VELO AIN AR TRES W  DIS CAZ7
 PAM  SZ EP   2   2044 59.92                             151   -0.14 5 74.8  34 
 PAM  SE ES   2   2045 16.89                             151   -0.13 5 74.8  34 
 BRR  HZ EP   1   2044 59.71                             149    0.14 7 78.3 297 
 BRR  HZ I        2045  0.09         9.2 0.13                          78.3 297 
 BRR  HN ES   2   2045 16.46                             149    0.32 5 78.3 297 
 RUS  HZ EP   2   2045  1.77                             144    0.16 5 98.3 180 
 RUS  HE ES   2   2045 19.55                             144   -0.22 5 98.3 180 
 ZAR  HZ I        2045 31.72         3.3 0.38                           211 292 
 ZAR  HN ES   2   2045 36.64                             121   -0.43 4  211 292 
                                                                                
