 2015  6 9 2223 47.6 L   6.800 -73.116147.8  RSN  9 0.5 2.3LRSN                1
 GAP=140        1.12       3.3     5.2  6.4 -0.2130E+01  0.1097E+02 -0.2153E+01E
 Epicentro: LOS SANTOS - SANTANDER                                             3
 ACTION:UPD 15-09-10 22:11 OP:cam  STATUS:               ID:20150609222347 L   I
 OLDACT:REG 15-06-10 02:40 OP:ar   STATUS:               ID:20150609221749     3
 2015-06-09-2217-49M.COL___309                                                 6
 STAT SP IPHASW D HRMM SECON CODA AMPLIT PERI AZIMU VELO AIN AR TRES W  DIS CAZ7
 BAR2 EZ EP       2224  7.37                             170   -0.1510 24.1 198 
 BAR2 EZ ES       2224 23.09                             170    0.0510 24.1 198 
 BAR2 EZ I        2224 24.87        27.8 0.14            171           24.1 198 
 BRR  HZ EP       2224  9.39                             152    0.2310 74.1 297 
 BRR  HN ES       2224 26.80                             152    0.8410 74.1 297 
 BRR  HZ I        2224 29.68        35.3 0.46            151           74.1 297 
 PAM  SZ EP       2224 10.28                             152    0.3410 75.3  38 
 PAM  SN ES       2224 27.73                             152    0.3810 75.3  38 
 PAM  SZ I        2224 29.90        51.5 0.64            155           75.3  38 
 RUS  HZ EP       2224 11.84                             144    0.2710  100 178 
 RUS  HN ES       2224 29.49                             144   -0.7610  100 178 
 RUS  HZ I        2224 32.37        17.8 0.56            148            100 178 
 OCA  HZ EP       2224 16.28                             130    0.14 9  161 352 
 OCA  HN ES       2224 37.74                             130   -0.63 9  161 352 
 OCA  HZ I        2224 43.16        43.1 0.24            132            161 352 
 SPBC HZ EP       2224 16.46                             129   -0.02 9  165 220 
 SPBC HN ES       2224 38.39                             129   -0.60 9  165 220 
 SPBC HZ I        2224 43.71        28.5 0.26            131            165 220 
 ZAR  HZ EP       2224 20.57                             122    0.05 8  207 292 
 ZAR  HN ES       2224 46.09                             122   -0.08 8  207 292 
 ZAR  HZ I        2224 51.11        22.7 0.38            124            207 292 
 SML  HZ EP       2224 24.26                             118   -0.26 8  245 335 
 SML  HN ES       2224 52.44                             118   -0.85 8  245 335 
 SML  HZ I        2224 56.28        22.3 0.10            120            245 335 
 GUY2CHZ EP       2224 31.93                             113    0.30 7  304 235 
 GUY2CHN ES       2225  6.53                             113    0.57 7  304 235 
 GUY2CHZ I        2225 14.00         7.5 0.30                           304 235 
                                                                                
