 2017  3 9 2053 14.4 L   6.802 -73.143146.8  RSN  4 0.1 1.4LRSN                1
 GAP=141        0.39       2.2     2.3  3.8 -0.2224E+01  0.2431E+01 -0.1977E+00E
 Epicentro: LOS SANTOS - SANTANDER                                             3
 ACTION:UPD 17-05-25 18:38 OP:jn   STATUS:               ID:20170309205314 L   I
 OLDACT:REG 17-03-10 04:20 OP:dani STATUS:               ID:20170309204744     3
 2017-03-09-2048-00M.COL___403                                                 6
 STAT SP IPHASW D HRMM SECON CODA AMPLIT PERI AZIMU VELO AIN AR TRES W  DIS CAZ7
 PAM  EZ EP       2053 36.61                             151   -0.1010 77.1  39 
 PAM  EN ES       2053 54.23                             151    0.1210 77.1  39 
 RUS  HZ EP       2053 38.26                             144   -0.0110  101 176 
 RUS  HN ES       2053 56.76                             144   -0.1210  101 176 
 RUS  HZ I        2053 58.00         2.7 0.40            145            101 176 
 PTB  HZ EP       2053 41.35                             132   -0.13 9  148 259 
 PTB  HN ES       2054  2.56                             132   -0.04 9  148 259 
 PTB  HZ I        2054  4.60         2.4 0.17            133            148 259 
 SPBC HZ EP       2053 43.23                             129    0.22 9  163 219 
 SPBC HN ES       2054  5.42                             129    0.10 9  163 219 
 SPBC HZ I        2054  8.87         4.3 0.17            130            163 219 
                                                                                
