 2015  6 9 2327 41.2 L   6.373 -73.765 92.7  RSN  7 0.3 1.7LRSN                1
 GAP=139        0.77       3.8     3.6  9.1  0.6789E+01  0.2202E+02  0.1141E+02E
 Epicentro: SANTA HELENA DEL OPON - SANTANDER                                  3
 ACTION:UPD 15-09-10 22:11 OP:cam  STATUS:               ID:20150609232741 L   I
 OLDACT:UP  15-06-10 06:55 OP:ar   STATUS:               ID:20150609231746     3
 OLDACT:REG 15-06-10 02:45 OP:ar   STATUS:               ID:20150609231746     3
 2015-06-09-2317-46M.COL___303                                                 6
 STAT SP IPHASW D HRMM SECON CODA AMPLIT PERI AZIMU VELO AIN AR TRES W  DIS CAZ7
 BAR2 EZ EP       2327 57.12                             141   -0.0010 68.8  69 
 BAR2 EZ ES       2328  9.31                             141   -0.2110 68.8  69 
 BAR2 EZ I        2328 11.29        10.9 0.48            148           68.8  69 
 BRR  HZ EP       2327 57.43                             136   -0.4010 81.4   4 
 BRR  HN ES       2328 10.73                             136   -0.0410 81.4   4 
 BRR  HZ I        2328 11.88         8.5 0.44            140           81.4   4 
 RUS  HZ EP       2327 59.46                             132   -0.0110 92.3 125 
 RUS  HN ES       2328 14.04                             132    0.3510 92.3 125 
 RUS  HZ I        2328 16.86         5.1 0.79            141           92.3 125 
 ZAR  HZ EP       2328  7.40                             114    0.11 9  173 316 
 ZAR  HE ES       2328 28.22                             114    0.60 9  173 316 
 ZAR  HZ I        2328 30.18         5.9 0.36            118            173 316 
 HEL  HN ES       2328 32.81                             111   -0.35 9  196 264 
 HEL  HZ I        2328 36.97         6.0 0.62            115            196 264 
 URE  HE ES   4   2328 44.91                             106    1.78 0  248 308 
 URE  HZ I        2328 48.88        10.6 0.46            109            248 308 
 CBOC HZ EP   4   2328 12.28                             106   -4.79 0  255 257 
 CBOC HN ES   4   2328 23.62                             106   -21.4 0  255 257 
 PAL  HZ EP   4   2328 21.57                             102   -3.49 0  323 240 
 PAL  HN ES   4   2328 39.33                             102   -19.9 0  323 240 
 YOT  HZ EP   4   2328 34.09                             100    0.87 0  389 227 
 YOT  HN ES   4   2329  1.52                             100   -12.2 0  389 227 
 YOT  HZ I        2329  3.64         3.5 0.46            101            389 227 
                                                                                
