 2012  5 9 2222 59.9 L   6.006 -73.721109.6  RSN  8 0.5 1.5LRSN                1
 GAP= 80        1.12       5.5     4.5 12.0  0.4377E+00  0.1936E+02  0.1438E+02E
 Epicentro: BOLIVAR - SANTANDER                                                3
 ACTION:UP  12-07-05 12:03 OP:pat  STATUS:               ID:20120509222259 L   I
 2012-05-09-2220-00M.COL___195                                                 6
 STAT SP IPHASW D HRMM SECON CODA AMPLIT PERI AZIMU VELO SNR AR TRES W  DIS CAZ7
 RUS  HZ EP   1   2223 18.09                             145     0.0 7   72 100 
 RUS  HN ES   1   2223 31.86                             145    -0.3 7   72 100 
 RUS  HZ I        2223 34.05         4.0 0.24                            72 100 
 BAR2 SZ EP       2223 19.01                             138     0.110   88  43 
 BAR2 SZ ES   1   2223 34.50                             138     0.7 7   88  43 
 BAR2 SZ I        2223 35.62        21.2 0.39                            88  43 
 PTB  HZ EP   1   2223 18.92                             134    -0.8 7  101 306 
 PTB  HN ES   1   2223 34.76                             134    -0.3 7  101 306 
 PTB  HZ I        2223 36.63         3.9 0.11                           101 306 
 BRR  HZ EP   1   2223 21.53                             128    -0.1 7  122   0 
 BRR  HN ES   1   2223 38.62                             128     0.1 7  122   0 
 BRR  HZ I        2223 38.89        11.9 0.31                           122   0 
 NOR  SZ EP   1   2223 23.27                             125     0.2 7  136 249 
 NOR  SN ES   1   2223 41.10                             125    -0.1 7  136 249 
 CHI  HZ EP   1   2223 24.88                             122    -0.3 7  152 180 
 CHI  HZ I        2223 48.72         2.2 0.20                           152 180 
 HEL  HZ EP   1   2223 31.18                             114     0.7 6  201 276 
 HEL  HZ I        2223 34.30         3.2 0.27                           201 276 
 HEL  HN ES   1   2223 55.16                             114     0.9 6  201 276 
 ZAR  HN ES   1   2223 53.90                             113    -0.7 6  207 323 
 ZAR  HZ I        2223 55.54         4.7 0.16                           207 323 
                                                                                
