 2011  5 9 2047 51.5 L   6.765 -73.112145.0  RSN 14 0.4 2.6LRSN                1
 GAP=143        0.81       3.2     4.5  4.8 -0.6410E+01  0.5842E+01  0.5234E+00E
 Epicentro: LOS SANTOS - SANTANDER                                             3
 ACTION:UP  11-06-29 08:51 OP:tino STATUS:               ID:20110509204751 L   I
 2011-05-09-2043-40S.COL___133                                                 6
 STAT SP IPHASW D HRMM SECON CODA AMPLIT PERI AZIMU VELO SNR AR TRES W  DIS CAZ7
 BAR2 SZ EP       2048 11.02                             171     0.110   21 202 
 BAR2 SZ ES   1   2048 25.52                             171    -0.6 7   21 202 
 BAR2 SZ I        2048 28.81       104.5 0.43                            21 202 
 BTL  SZ EP       2048 11.12                             170     0.110   24 315 
 GIR2 SZ EP   1   2048 11.05                             165    -0.1 7   36 345 
 GIR2 SZ ES   1   2048 26.76                             165     0.2 7   36 345 
 BRR  HZ EP       2048 12.85                             151     0.010   76 300 
 BRR  HZ I        2048 13.07        97.1 0.17                            76 300 
 BRR  HN ES   1   2048 30.18                             151     0.7 7   76 300 
 PAM  SZ EP       2048 13.74                             150     0.110   78  36 
 PAM  SZ I        2048 14.12        64.0 0.25                            78  36 
 PAM  SN ES   1   2048 30.95                             150     0.0 7   78  36 
 RUS  HZ EP       2048 14.84                             145     0.010   97 178 
 RUS  HN ES   1   2048 33.23                             145     0.2 7   97 178 
 RUS  HZ I        2048 34.78        35.2 0.18                            97 178 
 BRI  SZ EP       2048 15.50                             141     0.010  111  18 
 BRI  SZ I        2048 39.30        43.1 0.42                           111  18 
 GRA  SZ IP       2048 16.79                             136    -0.110  128  15 
 GRA  SZ ES   1   2048 36.30                             136    -0.4 7  128  15 
 GRA  SZ I        2048 37.67        47.8 0.29                           128  15 
 OCA  SZ EP       2048 19.94                             129    -0.2 9  165 352 
 OCA  SZ ES   1   2048 42.55                             129     0.1 7  165 352 
 OCA  SZ I        2048 47.84        59.6 0.30                           165 352 
 NOR  SZ EP       2048 26.88                             118    -0.4 8  236 236 
 NOR  SN ES   1   2048 54.24                             118    -0.9 6  236 236 
 HEL  HZ EP   1   2048 32.05                             114     0.1 6  275 257 
 HEL  HE ES   1   2049  3.16                             114    -0.3 6  275 257 
 HEL  HZ I        2049  9.51        20.0 0.29                           275 257 
 GUY  SZ EP   1   2048 36.06                             112     0.7 5  304 236 
 DBB  SZ EP   1   2048 39.74                             109     0.4 5  344 275 
 PRA  HZ EP   1   2048 44.44                             106    -0.3 4  391 210 
 PRA  HE ES   1   2049 27.53                             106     1.2 4  391 210 
                                                                                
