 2012  4 9 2357 24.9 L   6.704 -73.210140.0  RSN  4 0.4 1.3LRSN                1
 GAP=217        0.69      10.9    11.7 10.8  0.8461E+02  0.2995E+02  0.5681E+02E
 Epicentro: VILLANUEVA - SANTANDER                                             3
 ACTION:UPD 12-07-05 11:52 OP:tino STATUS:               ID:20120409235724 L   I
 2012-04-09-2350-00M.COL___199                                                 6
 STAT SP IPHASW D HRMM SECON CODA AMPLIT PERI AZIMU VELO AIN AR TRES W  DIS CAZ7
 BAR2 SZ ES   3   2357 56.80                             174    -1.5 2   13 166 
 BRR  HZ EP       2357 45.23                             152    -0.210   71 309 
 BRR  HE ES   1   2358  1.82                             152     0.4 7   71 309 
 BRR  HZ I        2358  2.81         7.6 0.14                            71 309 
 RUS  HZ EP       2357 47.50                             146     0.110   91 171 
 RUS  HZ I        2357 48.59         2.1 0.14                            91 171 
 RUS  HN ES   3   2358  5.20                             146     0.3 2   91 171 
 PTB  HZ EP       2357 50.43                             133    -0.1 9  139 263 
 PTB  HE ES   3   2358 10.92                             133     0.3 2  139 263 
 PTB  HZ I        2358 12.85         2.0 0.42                           139 263 
                                                                                
