 2017  4 9 2347 17.6 L   6.804 -73.130140.0  RSN  6 0.4 1.5LRSN                1
 GAP=138        0.80       3.8     4.0  6.4 -0.1294E+01  0.9458E+01 -0.9168E+00E
 Epicentro: LOS SANTOS - SANTANDER                                             3
 ACTION:UPD 17-05-30 21:10 OP:jn   STATUS:               ID:20170409234717 L   I
 OLDACT:DUP 17-04-10 05:01 OP:dnl  STATUS:               ID:20170409233743d    3
 OLDACT:UP  17-04-10 05:01 OP:dnl  STATUS:               ID:20170409233742     3
 OLDACT:REG 17-04-10 04:09 OP:dnl  STATUS:               ID:20170409233742     3
 2017-04-09-2338-00M.COL___368                                                 6
 STAT SP IPHASW D HRMM SECON CODA AMPLIT PERI AZIMU VELO AIN AR TRES W  DIS CAZ7
 BAR2 EZ EP   2   2347 36.34                             170   -0.25 5 24.1 194 
 BAR2 EZ ES       2347 51.30                             170   -0.0710 24.1 194 
 BAR2 EZ I        2347 52.66        10.6 0.58            170           24.1 194 
 BRR  HZ EP       2347 38.07                             151   -0.1710 72.5 298 
 BRR  HE ES       2347 54.98                             151    0.6710 72.5 298 
 BRR  HZ I        2347 59.07         8.7 0.32            150           72.5 298 
 PAM  HZ IP     D 2347 39.17                             151    0.0210 75.9  39 
 PAM  EN ES       2347 55.74                             151   -0.1910 75.9  39 
 PAM  EE ES       2347 56.13                             150           75.9  39 
 PAM  HZ I        2347 57.75         4.4 0.18            154           75.9  39 
 RUS  HZ EP   2   2347 40.72                             143   -0.12 5  101 177 
 RUS  HN ES       2347 59.04                             143    0.0910  101 177 
 RUS  HZ I        2348  0.87         4.1 0.28            146            101 177 
 ZAR  HZ EP   2   2347 50.75                             121    0.89 4  206 292 
 ZAR  HN ES       2348 14.49                             121   -0.51 8  206 292 
 ZAR  HZ I        2348 19.97         4.4 0.28            122            206 292 
 NOR  HZ EP   2   2347 53.96                             117    0.75 4  236 235 
 NOR  HN ES       2348 20.70                             117   -0.27 8  236 235 
 NOR  HZ I        2348 23.56         2.5 0.14            119            236 235 
                                                                                
