 2017  9 9 2238  2.5 L   6.789 -73.317127.7  RSN  5 0.2 1.3LRSN                1
 GAP= 99        0.62       3.0     4.3  5.0  0.5931E-01 -0.1180E+01  0.9284E+00E
 Epicentro: ZAPATOCA - SANTANDER                                               3
 ACTION:UPD 17-10-05 19:10 OP:rebc STATUS:               ID:20170909223802 L   I
 OLDACT:DUP 17-09-10 06:41 OP:edw  STATUS:               ID:20170909222742d    3
 2017-09-09-2228-00M.COL___413                                                 6
 STAT SP IPHASW D HRMM SECON CODA AMPLIT PERI AZIMU VELO AIN AR TRES W  DIS CAZ7
 BAR2 EZ EP       2238 20.19                             168    0.1510 26.3 146 
 BAR2 EZ ES       2238 33.91                             168    0.1910 26.3 146 
 BAR2 EZ I        2238 34.56         6.7 0.16            167           26.3 146 
 BRR  HZ EP       2238 20.77                             155   -0.0910 56.1 309 
 BRR  HN ES       2238 35.15                             155   -0.0310 56.1 309 
 BRR  HZ I        2238 35.92         7.3 0.14            157           56.1 309 
 PAM  EZ EP       2238 23.53                             142   -0.2910 91.4  48 
 PAM  EN ES       2238 40.53                             142    0.0810 91.4  48 
 PAM  EZ I        2238 41.81         3.5 0.26            143           91.4  48 
 RUS  HZ EP       2238 25.04                             139    0.3710  102 165 
 RUS  HN ES       2238 41.59                             139   -0.3710  102 165 
 RUS  HZ I        2238 43.63         3.1 0.36            140            102 165 
 NOR  HN ES   3   2239  1.22                             116   -0.02 2  219 232 
                                                                                
