 2011  2 9 2314 33.6 L   6.744 -73.170139.4  RSN 12 0.3 2.3LRSN                1
 GAP=134        0.55       2.5     4.7  5.7 -0.2791E+01  0.1100E+02 -0.3232E-01E
 Epicentro: VILLANUEVA - SANTANDER                                             3
 ACTION:UP  11-03-28 15:07 OP:jfem STATUS:               ID:20110209231433 L   I
 2011-02-09-2311-22S.COL___136                                                 6
 STAT SP IPHASW D HRMM SECON CODA AMPLIT PERI AZIMU VELO SNR AR TRES W  DIS CAZ7
 BAR2 SZ EP       2314 52.30                             173     0.010   17 185 
 BAR2 SZ ES   2   2315  6.76                             173    -0.2 5   17 185 
 BAR2 SZ I        2315  8.37        82.4 0.28                            17 185 
 BTL  SZ EP       2314 52.36                             171    -0.110   22 331 
 GIR2 SZ EP   1   2314 52.35                             164    -0.3 7   37 356 
 RUS  HZ EP   1   2314 56.27                             144     0.0 7   95 174 
 RUS  HE ES   2   2315 14.16                             144     0.2 5   95 174 
 RUS  HZ I        2315 15.79        26.7 0.28                            95 174 
 GRA  SZ EP       2314 59.03                             134     0.210  133  18 
 GRA  SZ ES   1   2315 18.81                             134     0.3 7  133  18 
 GRA  SZ I        2315 22.97        19.9 0.22                           133  18 
 OCA  SZ EP   1   2315  1.58                             127    -0.4 7  166 354 
 OCA  SZ I        2315 31.02        42.0 0.20                           166 354 
 YOP  SZ EP   1   2315  2.98                             125     0.2 7  175 152 
 YOP  SZ I        2315  3.64        10.6 0.24                           175 152 
 YOP  SE ES   2   2315 25.51                             125     0.0 4  175 152 
 NOR  SZ EP   1   2315  8.42                             118     0.1 6  229 235 
 NOR  SN ES   2   2315 36.13                             118     0.7 4  229 235 
 CHI  HZ EP   1   2315 10.19                             116     0.0 6  242 195 
 CHI  HN ES   2   2315 37.94                             116    -0.8 4  242 195 
 CHI  HZ I        2315 42.28        24.4 0.45                           242 195 
 HEL  HZ EP   2   2315 13.00                             114     0.0 4  268 257 
 HEL  HZ I        2315 50.37        11.6 0.27                           268 257 
 DBB  SZ EP   1   2315 20.47                             108    -0.1 5  337 275 
 TOL  SZ EP   2   2315 21.54                             108     0.7 3  337 225 
                                                                                
