 2010 11 9 2045 51.9 L   6.794 -73.067143.4  RSN  5 0.1 1.5LRSN                1
 GAP=205        0.32       5.3     9.6  6.9  0.4122E+02 -0.4360E+02 -0.1603E+02E
 Epicentro: LOS SANTOS - SANTANDER                                             3
 ACTION:UP  10-12-17 16:51 OP:REBC STATUS:               ID:20101109204551 L   I
 2010-11-09-2042-50S.COL___129                                                 6
 STAT SP IPHASW D HRMM SECON CODA AMPLIT PERI AZIMU VELO SNR AR TRES W  DIS CAZ7
 BAR2 SZ EP       2046 11.41                             169     0.110   26 210 
 BTL  SZ EP       2046 11.28                             169    -0.110   26 302 
 GIR2 SZ EP   3   2046 11.41                             166     0.0 2   34 336 
 BRR  HZ EP       2046 13.25                             149    -0.110   79 296 
 BRR  HE ES   1   2046 30.04                             149     0.1 7   79 296 
 BRR  HZ I        2046 34.29         8.9 0.19                            79 296 
 RUS  HZ EP       2046 15.43                             144     0.010  100 181 
 RUS  HN ES   2   2046 33.51                             144    -0.2 5  100 181 
 RUS  HZ I        2046 35.78         3.6 0.29                           100 181 
                                                                                
