 2012  1 9 2137 20.4 L   6.773 -73.133150.0  RSN  4 0.4 1.1LRSN                1
 GAP=188        0.82      10.3    13.2 10.4  0.8365E+02  0.3883E+02  0.4471E+02E
 Epicentro: LOS SANTOS - SANTANDER                                             3
 ACTION:UP  12-02-03 08:15 OP:REBC STATUS:               ID:20120109213720 L   I
 2012-01-09-2130-00M.COL___186                                                 6
 STAT SP IPHASW D HRMM SECON CODA AMPLIT PERI AZIMU VELO SNR AR TRES W  DIS CAZ7
 GIR2 SZ EP   2   2137 40.53                             167    -0.2 5   34 349 
 GIR2 SZ ES   2   2137 55.68                             167    -0.8 5   34 349 
 BRR  HZ EP       2137 42.28                             152     0.110   74 300 
 BRR  HN ES   1   2137 59.63                             152     0.5 7   74 300 
 BRR  HZ I        2138  3.09         5.4 0.56                            74 300 
 RUS  HZ EP       2137 44.60                             146     0.210   98 177 
 RUS  HN ES   2   2138  2.89                             146    -0.2 5   98 177 
 RUS  HZ I        2138  3.94         1.4 0.40                            98 177 
 PTB  HZ EP       2137 47.49                             133    -0.3 9  149 260 
 PTB  HZ I        2138 10.05         1.1 0.22                           149 260 
                                                                                
