 2017  3 9 2305 19.1 L   6.805 -73.159144.0  RSN  4 0.4 1.4LRSN                1
 GAP=135        0.93       5.1     4.8  8.3 -0.2839E+01  0.3493E+01  0.6335E+01E
 Epicentro: LOS SANTOS - SANTANDER                                             3
 ACTION:UPD 17-05-25 18:38 OP:jn   STATUS:               ID:20170309230519 L   I
 OLDACT:REG 17-03-10 04:29 OP:dani STATUS:               ID:20170309225746     3
 2017-03-09-2258-00M.COL___403                                                 6
 STAT SP IPHASW D HRMM SECON CODA AMPLIT PERI AZIMU VELO AIN AR TRES W  DIS CAZ7
 BRR  HZ EP       23 5 40.31                             153    0.3810 69.6 299 
 BRR  HE ES       23 5 55.69                             153   -0.5210 69.6 299 
 BRR  HZ I        23 6  0.49        12.2 0.50            154           69.6 299 
 PAM  EZ EP       23 5 41.15                             150    0.0310 77.9  41 
 PAM  EN ES       23 5 58.49                             150    0.1610 77.9  41 
 PAM  EZ I        23 6  0.61         6.9 0.58            153           77.9  41 
 RUS  HZ EP       23 5 42.66                             143   -0.0310  101 175 
 RUS  HN ES       23 6  1.08                             143   -0.0410  101 175 
 RUS  HZ I        23 6  2.22         2.3 0.24            147            101 175 
 PTB  HZ EP       23 5 45.23                             132   -0.54 9  146 258 
 PTB  HN ES       23 6  7.16                             132    0.57 9  146 258 
 PTB  HZ I        23 6  8.06         2.3 0.56            135            146 258 
                                                                                
