 2013  8 9 2001 39.0 L   6.681 -73.404120.0  RSN 18 0.5 3.0LRSN 3.3WRSN        1
 SPEC AVERAGE  MO 14.0 ST 78.2 OM  2.5 f0 7.29 R0.2692 AL 0.00 WI 37.2 MW  3.3 3
 SPEC SD       MO  0.1 ST 64.9 OM  0.2 f0 3.06 R0.1390 AL      WI      MW  0.1 3
 GAP= 52        1.13       2.5     3.3  6.2 -0.2166E+01  0.9201E+01 -0.2386E+01E
 Epicentro: EL CARMEN DE CHUCURI - SANTANDER                                   3
 SPEC SML HH E MO 14.0 ST126.3 OM  2.2 f0 10.0 R0.1554 AL 0.00 WI 34.1 MW  3.3 3
 SPEC SML HH E T20 241 K 0.000 GD  273 VS 4.20 DE 3.20 Q0300.0 QA 0.60 VS 4.20 3
 SPEC HEL HH N MO 14.1 ST 11.2 OM  2.3 f0 4.15 R0.3745 AL 0.00 WI 36.5 MW  3.4 3
 SPEC HEL HH N T20 240 K 0.000 GD  269 VS 4.20 DE 3.20 Q0300.0 QA 0.60 VS 4.20 3
 SPEC CHI HH N MO 14.1 ST  3.3 OM  2.3 f0 2.80 R0.5550 AL 0.00 WI 40.6 MW  3.4 3
 SPEC CHI HH N T20 239 K 0.000 GD  259 VS 4.20 DE 3.20 Q0300.0 QA 0.60 VS 4.20 3
 SPEC NOR HH N MO 14.1 ST137.5 OM  2.3 f0 10.0 R0.1554 AL 0.00 WI 42.3 MW  3.3 3
 SPEC NOR HH N T20 233 K 0.000 GD  236 VS 4.20 DE 3.20 Q0300.0 QA 0.60 VS 4.20 3
 SPEC SPBCHH N MO 14.2 ST167.0 OM  2.5 f0 10.0 R0.1554 AL 0.00 WI 28.8 MW  3.4 3
 SPEC SPBCHH N T20 220 K 0.000 GD  181 VS 4.20 DE 3.20 Q0300.0 QA 0.60 VS 4.20 3
 SPEC PTB HH N MO 14.0 ST122.5 OM  2.4 f0 10.0 R0.1554 AL 0.00 WI 51.7 MW  3.3 3
 SPEC PTB HH N T20 214 K 0.000 GD  167 VS 4.20 DE 3.20 Q0300.0 QA 0.60 VS 4.20 3
 SPEC PAM SH N MO 13.9 ST  8.7 OM  2.3 f0 4.53 R0.3430 AL 0.00 WI 48.8 MW  3.2 3
 SPEC PAM SH N T20 218 K 0.000 GD  160 VS 4.20 DE 3.20 Q0300.0 QA 0.60 VS 4.20 3
 SPEC RUS HH N MO 13.8 ST  5.1 OM  2.2 f0 4.16 R0.3736 AL 0.00 WI 36.3 MW  3.1 3
 SPEC RUS HH N T20 214 K 0.000 GD  152 VS 4.20 DE 3.20 Q0300.0 QA 0.60 VS 4.20 3
 SPEC BRR HH N MO 14.0 ST122.7 OM  2.5 f0 10.0 R0.1554 AL 0.00 WI 16.1 MW  3.3 3
 SPEC BRR HH N T20 211 K 0.000 GD  133 VS 4.20 DE 3.20 Q0300.0 QA 0.60 VS 4.20 3
 ACTION:UPD 14-01-14 09:00 OP:ep   STATUS:               ID:20130809200139 L   I
 OLDACT:UP  13-08-09 22:54 OP:cam  STATUS:               ID:20130809195948     3
 OLDACT:UP  13-08-09 22:53 OP:cam  STATUS:               ID:20130809195948     3
 OLDACT:REG 13-08-09 22:46 OP:cam  STATUS:               ID:20130809195948     3
 2013-08-09-1959-48M.COL___237                                                 6
 STAT SP IPHASW D HRMM SECON CODA AMPLIT PERI AZIMU VELO AIN AR TRES W  DIS CAZ7
 BAR2 SZ IP     C 20 1 55.58                             167   -0.0710 26.4 112 
 BAR2 SZ ES       20 2  8.61                             167    0.0010 26.4 112 
 BAR2 SZ I        20 2  9.75       632.7 0.21            175           26.4 112 
 BRR  HZ IP     C 20 1 56.82                             152    0.1710 58.1 324 
 BRR  HN ES   4   20 2 11.71                             152    1.31 0 58.1 324 
 BRR  HZ I        20 2 18.31       192.2 0.22            151           58.1 324 
 RUS  HZ IP     D 20 1 59.26                             140   -0.5610 94.1 158 
 RUS  HN ES       20 2 16.09                             140    0.0510 94.1 158 
 RUS  HZ I        20 2 17.16        87.9 0.28            147           94.1 158 
 PAM  SZ EP       20 2  0.49                             136   -0.3510  107  47 
 PAM  SN ES       20 2 18.63                             136    0.7710  107  47 
 PAM  SZ I        20 2 20.36       146.7 0.28            142            107  47 
 PTB  HZ IP     C 20 2  0.03                             133   -1.1110  117 262 
 PTB  HN ES   4   20 2 16.93                             133   -1.45 0  117 262 
 PTB  HZ I        20 2 27.83       134.5 0.12            134            117 262 
 SPBC HZ EP       20 2  2.47                             128   -0.47 9  136 213 
 SPBC HN ES       20 2 21.52                             128   -0.07 9  136 213 
 OCA  HZ EP       20 2  6.71                             121   -0.03 9  173   3 
 OCA  HN ES       20 2 27.94                             121   -0.42 9  173   3 
 OCA  HZ I        20 2 31.91       184.8 0.18            125            173   3 
 TAM  HZ EP       20 2  6.93                             120   -0.50 9  180  99 
 TAM  HZ I        20 2  7.42        97.4 0.34            127            180  99 
 TAM  HN ES       20 2 29.92                             120    0.34 9  180  99 
 NOR  HZ EP       20 2  9.42                             116   -0.55 9  204 233 
 NOR  HN ES       20 2 34.38                             116    0.27 9  204 233 
 NOR  HZ I        20 2 38.27       170.0 0.20            120            204 233 
 CHI  HZ EP       20 2 13.27                             113   -0.03 8  230 189 
 CHI  HN ES       20 2 40.47                             113    0.44 8  230 189 
 CHI  HZ I        20 2 42.66        34.8 0.36            118            230 189 
 HEL  HZ EP   1   20 2 15.02                             112    0.49 6  241 257 
 HEL  HN ES   1   20 2 42.63                             112    0.40 6  241 257 
 HEL  HZ I        20 2 47.32        89.9 0.54            115            241 257 
 SML  HZ EP   1   20 2 13.95                             111   -0.63 6  246 343 
 SML  HE ES       20 2 42.99                             111    0.68 8  246 343 
 SML  HZ I        20 2 49.69       179.0 0.10            115            246 343 
 GUY2CHZ EP   1   20 2 18.57                             109    0.58 6  270 234 
 VIL  SN ES   4   20 2 51.34                             108    0.52 0  286 186 
 RREF HZ EP   4   20 2 21.40                             108    0.74 0  292 228 
 CBOC HZ EP   1   20 2 22.02                             107    0.69 5  302 253 
 DBB  SZ EP       20 2 22.27                             106   -0.12 7  312 277 
 DBB  SZ ES       20 2 56.20                             106   -0.01 7  312 277 
 DBB  SZ I        20 2 59.32       113.4 0.29            109            312 277 
 COD  HZ EP   1   20 2 28.22                             103    0.33 5  360 359 
 COD  HE ES       20 3  6.66                             103    0.65 6  360 359 
 COD  HZ I        20 3 12.04        15.5 0.54            107            360 359 
 PRA  HZ EP   1   20 2 29.37                             103    0.59 5  367 207 
 PRA  HN ES       20 3  9.05                             103    1.46 6  367 207 
 PRA  HZ I        20 3 16.48        30.0 0.34            106            367 207 
 ORTC HZ EP   1   20 2 29.30                             103    0.36 5  368 214 
                                                                                
