 2011  2 9 2227 52.2 L   6.302 -73.615 97.3  RSN  5 0.1 1.5LRSN                1
 GAP=150        0.35       3.2     3.7  6.3 -0.4179E+01  0.1165E+02  0.2079E+01E
 Epicentro: SANTA HELENA DEL OPON - SANTANDER                                  3
 ACTION:UP  11-03-28 15:07 OP:jfem STATUS:               ID:20110209222752 L   I
 2011-02-09-2224-34S.COL___136                                                 6
 STAT SP IPHASW D HRMM SECON CODA AMPLIT PERI AZIMU VELO SNR AR TRES W  DIS CAZ7
 BAR2 SZ EP   1   2228  7.65                             147    -0.1 7   57  56 
 BAR2 SZ I        2228  8.17        16.0 0.47                            57  56 
 BAR2 SZ ES   2   2228 19.63                             147    -0.2 5   57  56 
 RUS  HZ EP   2   2228  9.23                             140    -0.1 5   74 128 
 RUS  HE ES   2   2228 22.89                             140     0.2 5   74 128 
 RUS  HZ I        2228 26.06         7.0 0.26                            74 128 
 BTL  SZ EP   1   2228  9.41                             139     0.1 7   78  29 
 NOR  SZ EP   2   2228 17.37                             117     0.1 5  161 240 
 NOR  SN ES   2   2228 36.77                             117     0.0 5  161 240 
 CHI  HZ EP   1   2228 20.30                             114    -0.1 7  185 184 
 CHI  HZ I        2228 21.92         2.8 0.42                           185 184 
                                                                                
