 2012  9 9 2037  5.3 L   6.652 -74.116 24.7  RSN  7 0.3 1.6LRSN                1
 GAP=150        0.58       3.5     2.2  3.3 -0.5184E+01 -0.5063E+01  0.7627E+01E
 Epicentro: PUERTO PARRA - SANTANDER                                           3
 ACTION:UPD 12-10-22 14:18 OP:ep   STATUS:               ID:20120909203705 L   I
 2012-09-09-2030-00M.COL___227                                                 6
 STAT SP IPHASW D HRMM SECON CODA AMPLIT PERI AZIMU VELO AIN AR TRES W  DIS CAZ7
 PTB  HZ EP       2037 12.74                             120   -0.0610 39.6 252 
 PTB  HN ES   1   2037 18.59                             120   -0.03 7 39.6 252 
 PTB  HZ I        2037 19.35        39.6 0.17                          39.6 252 
 BRR  HZ EP       2037 16.49                             108   -0.1310 67.2  42 
 BRR  HN ES   1   2037 25.55                             108    0.12 7 67.2  42 
 BAR2 SZ EP       2037 21.77                              56   -0.2710  103  94 
 BAR2 SZ ES   1   2037 34.77                              56   -0.30 7  103  94 
 BAR2 SZ I        2037 35.33        29.5 0.19                           103  94 
 GIR2 SZ EP   2   2037 23.00                              56   -0.04 5  112  65 
 RUS  HZ EP       2037 27.59                              56    0.44 9  142 126 
 RUS  HZ I        2037 28.08         9.2 0.25                           142 126 
 RUS  HN ES   1   2037 44.13                              56   -0.03 7  142 126 
 HEL  HZ EP       2037 30.01                              56    0.19 9  164 252 
 HEL  HE ES   2   2037 48.49                              56   -0.42 5  164 252 
 HEL  HZ I        2037 49.51         5.6 0.38                           164 252 
 PAM  SN ES   2   2037 52.00                              56    0.70 4  174  64 
                                                                                
