 2017  9 9 2023 25.9 L   6.806 -73.143145.4  RSN 14 0.4 2.1LRSN                1
 GAP=112        0.95       2.9     3.3  5.0  0.3080E+00  0.4798E+01  0.4446E+01E
 Epicentro: LOS SANTOS - SANTANDER                                             3
 ACTION:UPD 17-10-05 19:10 OP:rebc STATUS:               ID:20170909202325 L   I
 OLDACT:UP  17-09-10 04:26 OP:edw  STATUS:               ID:20170909201738     3
 OLDACT:UP  17-09-10 04:21 OP:edw  STATUS:               ID:20170909201738     3
 OLDACT:UP  17-09-10 04:20 OP:edw  STATUS:               ID:20170909201738     3
 OLDACT:REG 17-09-10 03:28 OP:edw  STATUS:               ID:20170909201738     3
 2017-09-09-2018-00M.COL___416                                                 6
 STAT SP IPHASW D HRMM SECON CODA AMPLIT PERI AZIMU VELO AIN AR TRES W  DIS CAZ7
 BAR2 EZ EP       2023 45.27                             170   -0.2710 24.0 190 
 BAR2 EZ ES       2024  0.61                             170   -0.2210 24.0 190 
 BAR2 EZ I        2024  1.93        41.7 0.16            167           24.0 190 
 BRR  HZ EP       2023 47.17                             152    0.1310 71.1 298 
 BRR  HN ES       2024  4.22                             152    0.7110 71.1 298 
 BRR  HZ I        2024  8.15        23.6 0.34            152           71.1 298 
 PAM  EZ EP       2023 48.22                             151    0.1510 76.7  40 
 PAM  EN ES       2024  5.33                             151   -0.0110 76.7  40 
 PAM  EZ I        2024  7.45        25.2 0.52            157           76.7  40 
 RUS  HZ EP       2023 49.26                             144   -0.4410  101 176 
 RUS  HE ES       2024  8.33                             144    0.1010  101 176 
 RUS  HZ I        2024  8.96         8.3 0.20            144            101 176 
 SPBC HZ EP       2023 54.17                             129   -0.30 9  164 219 
 SPBC HN ES       2024 16.34                             129   -0.39 9  164 219 
 SPBC HZ I        2024 21.14        20.3 0.22            129            164 219 
 YPLC HZ EP       2023 55.75                             126    0.00 9  177 152 
 YPLC HN ES       2024 19.12                             126    0.12 9  177 152 
 YPLC HZ I        2024 24.98         6.0 0.36            129            177 152 
 ZAR  HZ EP       2023 58.11                             122   -0.25 9  204 292 
 ZAR  HN ES       2024 23.17                             122   -0.48 9  204 292 
 ZAR  HZ I        2024 28.47        12.5 0.26            123            204 292 
 TABC EZ EP       2024  2.21                             119    0.47 8  231 211 
 TABC EZ ES       2024 30.26                             119    0.60 8  231 211 
 TABC EZ I        2024 35.68        14.6 0.68            120            231 211 
 NOR  HZ EP       2024  1.31                             118   -0.40 8  235 234 
 NOR  HN ES       2024 29.02                             118   -0.59 8  235 234 
 NOR  HZ I        2024 38.65         7.2 0.44            119            235 234 
 CHI  HZ EP       2024  3.85                             117    0.16 8  249 195 
 CHI  HN ES       2024 32.98                             117   -0.16 8  249 195 
 CHI  HZ I        2024 36.64         8.5 0.46            118            249 195 
 ROSC BN ES   4   2024 35.95                             117    2.06 0  253 211 
 HEL  HZ EP   4   2024  7.67                             115    1.49 0  273 256 
 HEL  HN ES       2024 37.81                             115    0.24 8  273 256 
 HEL  HZ I        2024 44.25         3.9 0.50            116            273 256 
 GUY2CHZ EP       2024 10.70                             112    1.10 7  302 235 
 GUY2CHN ES   4   2024 41.63                             112   -2.02 0  302 235 
 GUY2CHZ I        2024 51.58         5.8 0.32                           302 235 
 PRA  HZ EP       2024 19.15                             106   -0.38 6  393 210 
 PRA  HE ES       2025  1.26                             106   -0.07 6  393 210 
 PRA  HZ I        2025  7.58         7.5 0.34            108            393 210 
 ORTC HN ES       2025  2.80                             106    0.77 6  396 216 
 ORTC HZ I        2025  6.70         4.0 0.18            107            396 216 
                                                                                
