 2016 11 9 2316 46.3 L   6.686 -73.357122.9  RSN  4 0.3 1.4LRSN                1
 GAP=159        0.82       7.5     5.0  6.6  0.1236E+02  0.1268E+02  0.4954E+00E
 Epicentro: GALAN - SANTANDER                                                  3
 ACTION:UPD 17-10-26 21:06 OP:lp   STATUS:               ID:20161109231646 L   I
 OLDACT:REG 16-11-10 05:26 OP:dani STATUS:               ID:20161109230745     3
 2016-11-09-2308-00M.COL___352                                                 6
 STAT SP IPHASW D HRMM SECON CODA AMPLIT PERI AZIMU VELO AIN AR TRES W  DIS CAZ7
 BAR2 EZ EP       2317  3.46                             169    0.3510 21.9 118 
 BAR2 EZ ES       2317 16.43                             169    0.1810 21.9 118 
 BAR2 EZ I        2317 17.91        16.9 0.34            172           21.9 118 
 BRR  HZ EP       2317  3.90                             152   -0.4510 60.9 320 
 BRR  HN ES       2317 18.19                             152   -0.2710 60.9 320 
 BRR  HZ I        2317 19.59         7.8 0.24            152           60.9 320 
 PTB  HZ EP       2317  8.83                             132   -0.2510  123 262 
 PTB  HN ES       2317 26.80                             132   -0.0810  123 262 
 PTB  HZ I        2317 31.11         3.3 0.38            131            123 262 
 ZAR  HZ EP       2317 15.72                             119    0.10 9  188 298 
 ZAR  HN ES       2317 39.07                             119    0.55 9  188 298 
 ZAR  HZ I        2317 42.76         1.8 0.20            120            188 298 
                                                                                
