 2016 10 9 2302 32.7 L   6.792 -73.166140.0  RSN  5 0.2 1.4LRSN                1
 GAP=134        0.46       2.2     2.2  4.8  0.1185E-01  0.3429E+01  0.9119E+00E
 Epicentro: LOS SANTOS - SANTANDER                                             3
 ACTION:UPD 16-11-09 19:18 OP:rebc STATUS:               ID:20161009230232 L   I
 OLDACT:UP  16-10-10 05:04 OP:edw  STATUS:               ID:20161009225747d    3
 OLDACT:UP  16-10-10 05:03 OP:edw  STATUS:               ID:20161009225747d    3
 OLDACT:UP  16-10-10 05:03 OP:edw  STATUS:               ID:20161009225747d    3
 OLDACT:DUP 16-10-10 05:01 OP:edw  STATUS:               ID:20161009225747d    3
 2016-10-09-2258-00M.COL___360                                                 6
 STAT SP IPHASW D HRMM SECON CODA AMPLIT PERI AZIMU VELO AIN AR TRES W  DIS CAZ7
 PAM  EZ EP       23 2 54.34                             149   -0.1010 79.5  40 
 PAM  EN ES       23 3 11.37                             149   -0.0210 79.5  40 
 PAM  EZ I        23 3 13.49        11.4 0.52            154           79.5  40 
 RUS  HZ EP       23 2 55.85                             143    0.0110 99.9 175 
 RUS  HN ES       23 3 14.00                             143    0.1110 99.9 175 
 RUS  HZ I        23 3 15.84         3.4 0.30            145           99.9 175 
 PTB  HZ EP       23 2 59.29                             131    0.31 9  145 259 
 PTB  HN ES       23 3 19.21                             131   -0.27 9  145 259 
 PTB  HZ I        23 3 24.84         1.9 0.20            132            145 259 
 ZAR  HZ EP   4   23 3  7.43                             121    2.84 0  202 293 
 ZAR  HN ES       23 3 29.55                             121    0.09 9  202 293 
 ZAR  HZ I        23 3 35.45         2.6 0.16            123            202 293 
 CHI  HZ EP   2   23 3  9.55                             116   -0.38 4  247 195 
 CHI  HN ES   2   23 3 38.79                             116   -0.18 4  247 195 
 CHI  HZ I        23 3 42.59         2.0 0.48            118            247 195 
                                                                                
