 2010  2 9 2245 22.7 L   6.810 -73.083147.5  RSN  5 0.3 2.1LRSN                1
 GAP=147        0.56       6.4    13.2  5.8 -0.6138E+02 -0.3990E+02  0.1476E+02E
 Epicentro: LOS SANTOS - SANTANDER                                             3
 ACTION:UP  10-08-24 09:48 OP:vdl  STATUS:               ID:20100209224522 L   I
 2010-02-09-2244-08S.COL___103                                                 6
 STAT SP IPHASW D HRMM SECON CODA AMPLIT PERI AZIMU VELO SNR AR TRES W  DIS CAZ7
 BAR2 SZ EP   1   2245 42.76                             169     0.210   27 205 
 BAR2 SZ ES   1   2245 57.70                             169    -0.410   27 205 
 GIR2 SZ EP   2   2245 42.76                             167     0.2 6   32 338 
 GIR2 SZ ES   2   2245 58.65                             167     0.5 6   32 338 
 OCA  SZ EP   2   2245 50.80                             130    -0.3 6  160 351 
 OCA  SZ I        2246 16.59        21.0 0.38                           160 351 
 CHI  HZ IP       2246  0.76                             117     0.010  252 197 
 CHI  HZ I        2246  1.76         4.9 0.16                           252 197 
 CHI  HN ES   2   2246 30.86                             117     0.3 5  252 197 
 SDV  BZ IP       2246 12.17                             109     0.1 8  354  50 
                                                                                
