 2011 10 9 2135 10.4 L   6.859 -73.271117.7  RSN  9 0.2 2.2LRSN                1
 GAP=112        0.53       1.8     2.8  3.4  0.1438E-01  0.1415E+01  0.3169E+00E
 Epicentro: ZAPATOCA - SANTANDER                                               3
 ACTION:UPD 12-07-13 16:02 OP:ep   STATUS:               ID:20111009213510 L   I
 2011-10-09-2132-46S.COL___168                                                 6
 STAT SP IPHASW D HRMM SECON CODA AMPLIT PERI AZIMU VELO AIN AR TRES W  DIS CAZ7
 BAR2 SZ EP       2135 27.32                             164    0.4010 31.1 162 
 BAR2 SZ ES       2135 39.54                             164   -0.2410 31.1 162 
 BAR2 SZ I        2135 41.86       134.1 0.37                          31.1 162 
 BRR  HZ EP       2135 27.67                             153   -0.0110 55.9 299 
 BRR  HZ I        2135 35.12        35.3 0.05                          55.9 299 
 BRR  HN ES       2135 41.46                             153    0.3310 55.9 299 
 PAM  SZ EP       2135 30.13                             143    0.0210 82.5  50 
 PAM  SN ES   1   2135 45.43                             143   -0.04 7 82.5  50 
 RUS  HZ EP       2135 32.10                             135   -0.1510  109 169 
 RUS  HN ES   1   2135 49.20                             135   -0.06 7  109 169 
 RUS  HZ I        2135 51.07        14.9 0.27                           109 169 
 OCA  SZ EP       2135 35.89                             124   -0.06 9  153 358 
 OCA  SZ ES       2135 55.68                             124   -0.17 9  153 358 
 OCA  SZ I        2135 56.96        47.8 0.25                           153 358 
 ZAR  HN ES   2   2136  1.59                             118   -0.66 4  189 292 
 ZAR  HZ I        2136  6.85        25.5 0.21                           189 292 
 NOR  SZ EP   1   2135 43.67                             113   -0.23 6  228 231 
 CHI  HZ EP   1   2135 47.24                             110    0.14 6  252 192 
 CHI  HN ES   2   2136 15.67                             110   -0.03 4  252 192 
 CHI  HZ I        2136 22.14         5.4 0.29                           252 192 
 HEL  HZ EP   2   2135 48.62                             110    0.59 4  260 254 
 HEL  HE ES   2   2136 17.23                             110   -0.13 4  260 254 
 HEL  HZ I        2136 21.80         4.9 0.26                           260 254 
                                                                                
