 2012  2 9 2329  0.9 L   6.869 -73.159142.1  RSN 11 0.3 2.1LRSN                1
 GAP=131        0.70       3.0     3.3  4.8 -0.4429E+00  0.3082E+01  0.4530E+01E
 ACTION:UP  12-03-07 16:29 OP:epov STATUS:               ID:20120209232900 L   I
 2012-02-09-2324-44S.COL___161                                                 6
 STAT SP IPHASW D HRMM SECON CODA AMPLIT PERI AZIMU VELO AIN AR TRES W  DIS CAZ7
 GIR2 SZ EP       2329 20.03                             170    0.0710 23.6 351 
 BAR2 SZ EP       2329 20.40                             167    0.1210 30.7 185 
 BAR2 SZ ES   2   2329 35.44                             167    0.06 5 30.7 185 
 BAR2 SZ I        2329 39.25        35.4 0.31                          30.7 185 
 BRR  HZ IP     C 2329 21.68                             153    0.2710 66.6 293 
 BRR  HZ I        2329 23.28        50.2 0.12                          66.6 293 
 BRR  HN ES       2329 37.86                             153    0.4610 66.6 293 
 PAM  SZ EP       2329 22.63                             152    0.1710 72.7  44 
 PAM  SE ES       2329 38.70                             152   -0.5710 72.7  44 
 RUS  HZ EP       2329 25.04                             141    0.1510  108 176 
 RUS  HN ES   1   2329 43.68                             141    0.10 7  108 176 
 RUS  HZ I        2329 45.39        11.7 0.28                           108 176 
 PTB  HZ EP       2329 27.03                             131   -0.58 9  148 256 
 PTB  HE ES   1   2329 47.82                             131   -0.61 7  148 256 
 OCA  SZ EP   1   2329 27.91                             130   -0.31 7  153 353 
 OCA  SZ ES   2   2329 49.76                             130    0.25 5  153 353 
 ZAR  HZ EP   1   2329 32.72                             122    0.02 6  200 290 
 ZAR  HE ES   1   2329 57.59                             122    0.10 6  200 290 
 NOR  SZ EP   1   2329 36.88                             117    0.08 6  238 233 
 CHI  HZ EP       2329 39.36                             116    0.18 8  256 194 
 CHI  HN ES   2   2330  8.96                             116   -0.06 4  256 194 
 CHI  HZ I        2330 19.88         7.1 0.62                           256 194 
 PRA  HZ EP   1   2329 55.03                             106    0.02 4  398 209 
 PRA  HN ES   1   2330 37.11                             106   -0.09 4  398 209 
                                                                                
