 2012  8 9 2154 13.7 L   6.737 -73.230140.8  RSN  5 0.1 1.5LRSN                1
 GAP=156        0.37       3.3     3.2  4.3  0.5064E+01 -0.2395E+00  0.5722E+00E
 Epicentro: VILLANUEVA - SANTANDER                                             3
 ACTION:UPD 12-09-10 11:55 OP:ep   STATUS:               ID:20120809215413 L   I
 2012-08-09-2150-00M.COL___218                                                 6
 STAT SP IPHASW D HRMM SECON CODA AMPLIT PERI AZIMU VELO AIN AR TRES W  DIS CAZ7
 BAR2 SZ EP       2154 32.48                             173   -0.1710 16.9 162 
 BAR2 SZ I        2154 51.11         9.4 0.20                          16.9 162 
 GIR2 SZ ES   3   2154 48.17                             164    0.11 2 38.0   6 
 BRR  HZ EP       2154 34.18                             153    0.0710 67.1 308 
 BRR  HN ES   1   2154 50.01                             153    0.00 7 67.1 308 
 RUS  HZ EP       2154 36.77                             144    0.1910 94.8 170 
 RUS  HN ES   1   2154 54.31                             144   -0.09 7 94.8 170 
 RUS  HZ I        2154 57.27         3.7 0.34                          94.8 170 
 PTB  HZ EP       2154 39.27                             133   -0.08 9  137 261 
 PTB  HN ES   1   2154 59.40                             133    0.06 7  137 261 
 PTB  HZ I        2155  2.44         4.9 0.36                           137 261 
                                                                                
