 2012 11 9 2235 53.5 L   6.792 -73.147148.9  RSN  6 0.4 1.9LRSN                1
 GAP=137        0.97       5.1     4.4  8.3  0.1846E+01  0.5242E+01  0.4869E+01E
 Epicentro: LOS SANTOS - SANTANDER                                             3
 ACTION:UPD 12-12-05 15:32 OP:}ep  STATUS:               ID:20121109223553 L   I
 2012-11-09-2230-00M.COL___229                                                 6
 STAT SP IPHASW D HRMM SECON CODA AMPLIT PERI AZIMU VELO AIN AR TRES W  DIS CAZ7
 BAR2 SZ EP       2236 12.87                             171   -0.6310 22.4 190 
 BAR2 SZ I        2236 13.65        29.5 0.38                          22.4 190 
 BRR  HZ EP       2236 15.46                             153    0.4410 71.5 299 
 BRR  HN ES       2236 31.98                             153    0.1910 71.5 299 
 BRR  HN I        2236 36.50        21.4 0.26                          71.5 299 
 PAM  SZ EP       2236 16.52                             151    0.4110 78.2  39 
 PAM  SN ES       2236 33.36                             151   -0.3710 78.2  39 
 PAM  SN I        2236 35.55         9.1 0.46                          78.2  39 
 RUS  HZ EP       2236 17.58                             145    0.0710 99.7 176 
 RUS  HN ES       2236 36.56                             145    0.3310 99.7 176 
 RUS  HN I        2236 37.86         8.4 0.28                          99.7 176 
 PTB  HZ EP       2236 20.32                             133   -0.39 9  147 259 
 PTB  HN ES       2236 41.64                             133   -0.28 9  147 259 
 PTB  HN I        2236 46.68        12.3 0.16                           147 259 
 ZAR  HE ES       2236 51.88                             123    0.22 9  204 292 
                                                                                
