 2012  9 9 2245 12.5 L   6.093 -73.721110.0  RSN  5 0.4 1.8LRSN                1
 GAP=121        0.67       3.2     6.1 10.1  0.8220E+01  0.7448E+01  0.5026E+01E
 Epicentro: BOLIVAR - SANTANDER                                                3
 ACTION:UPD 12-10-22 14:18 OP:ep   STATUS:               ID:20120909224512 L   I
 2012-09-09-2240-00M.COL___227                                                 6
 STAT SP IPHASW D HRMM SECON CODA AMPLIT PERI AZIMU VELO AIN AR TRES W  DIS CAZ7
 RUS  HZ EP   1   2245 30.60                             144   -0.25 8 74.0 107 
 RUS  HZ I        2245 31.21        12.1 0.24                          74.0 107 
 PTB  HN ES   2   2245 46.15                             136   -0.76 5 95.1 301 
 BRR  HZ EP       2245 33.26                             131   -0.0710  112   1 
 BRR  HZ I        2245 33.58        12.3 0.16                           112   1 
 BRR  HE ES   1   2245 49.89                             131    0.34 7  112   1 
 CHI  HZ EP   1   2245 38.80                             120   -0.04 7  162 180 
 CHI  HN ES   1   2245 59.75                             120    0.38 7  162 180 
 CHI  HN I        2246  2.83        18.0 0.31                           162 180 
 ZAR  HZ EP       2245 42.17                             114   -0.23 9  199 321 
 ZAR  HN ES   1   2246  6.21                             114    0.52 7  199 321 
 ZAR  HZ I        2246  7.59         7.0 0.27                           199 321 
                                                                                
