 2013  6 9 2056 41.3 L   6.716 -73.187145.3  RSN  4 0.3 1.5LRSN                1
 GAP=226        0.69       5.4     5.1  5.6  0.1356E+02  0.3507E+01  0.1205E+01E
 Epicentro: VILLANUEVA - SANTANDER                                             3
 ACTION:UPD 14-01-08 09:53 OP:ep   STATUS:               ID:20130609205641 L   I
 OLDACT:REG 13-06-09 23:00 OP:stll STATUS:               ID:20130609204848     3
 2013-06-09-2048-48M.COL___232                                                 6
 STAT SP IPHASW D HRMM SECON CODA AMPLIT PERI AZIMU VELO AIN AR TRES W  DIS CAZ7
 BAR2 SZ EP       2057  0.68                             174   -0.0510 13.7 178 
 BAR2 SZ ES       2057 15.74                             174   -0.1310 13.7 178 
 BAR2 SZ I        2057 18.19         5.2 0.38            169           13.7 178 
 BRR  HZ EP       2057  2.38                             152   -0.0910 72.3 307 
 BRR  HN ES       2057 19.15                             152    0.1710 72.3 307 
 BRR  HN I        2057 20.57         7.1 0.24            151           72.3 307 
 RUS  HZ EP       2057  4.88                             146    0.4810 91.8 173 
 RUS  HN ES       2057 22.23                             146   -0.1710 91.8 173 
 RUS  HN I        2057 24.79         3.1 0.36            145           91.8 173 
 PTB  HZ EP       2057  7.28                             133   -0.41 9  142 262 
 PTB  HN ES       2057 28.44                             133    0.17 9  142 262 
 PTB  HN I        2057 34.10        11.4 0.44            132            142 262 
                                                                                
