 2010  2 9 2358 47.2 L   6.893 -73.108155.0  RSN  4 0.4 1.6LRSN                1
 GAP=220        0.65       6.4    10.5  8.6  0.2766E+02  0.5634E+02  0.1960E+02E
 Epicentro: PIEDECUESTA - SANTANDER                                            3
 ACTION:UP  10-08-24 09:48 OP:vdl  STATUS:               ID:20100209235847 L   I
 2010-02-09-2353-40S.COL___094                                                 6
 STAT SP IPHASW D HRMM SECON CODA AMPLIT PERI AZIMU VELO SNR AR TRES W  DIS CAZ7
 GIR2 SZ EP   1   2359  8.23                             171     0.512   23 335 
 GIR2 SZ ES   1   2359 23.55                             171    -0.312   23 335 
 CHI  HZ EP   1   2359 26.70                             118     0.1 9  260 195 
 CHI  HE ES   2   2359 57.11                             118    -0.2 6  260 195 
 CHI  HZ I        24 0  2.99         2.9 0.53                           260 195 
 DBB  SZ EP   2   2359 34.97                             111    -0.5 5  343 272 
 DBB  SZ ES   2   24 0 13.43                             111     0.3 5  343 272 
 MON  HZ IP       2359 35.79                             110    -0.410  350 307 
 MON  HZ I        2359 40.12         1.3 0.59                           350 307 
 MON  HN ES   2   24 0 15.26                             110     0.8 5  350 307 
                                                                                
