 2016 10 9 2113 34.5 L   6.851 -73.122157.6  RSN  8 0.3 1.6LRSN                1
 GAP=281        0.63       4.6     4.3  5.1 -0.1520E+01  0.3380E+01  0.4225E+01E
 Epicentro: LOS SANTOS - SANTANDER                                             3
 ACTION:UPD 16-11-09 19:18 OP:rebc STATUS:               ID:20161009211334 L   I
 OLDACT:UP  16-10-10 04:23 OP:edw  STATUS:               ID:20161009210750d    3
 OLDACT:UP  16-10-10 04:20 OP:edw  STATUS:               ID:20161009210750d    3
 OLDACT:DUP 16-10-10 04:17 OP:edw  STATUS:               ID:20161009210750d    3
 OLDACT:UP  16-10-10 04:16 OP:edw  STATUS:               ID:20161009210749d    3
 OLDACT:UP  16-10-10 04:14 OP:edw  STATUS:               ID:20161009210749d    3
 OLDACT:UP  16-10-10 04:14 OP:edw  STATUS:               ID:20161009210749d    3
 OLDACT:DUP 16-10-10 04:09 OP:edw  STATUS:               ID:20161009210749d    3
 2016-10-09-2108-00M.COL___360                                                 6
 STAT SP IPHASW D HRMM SECON CODA AMPLIT PERI AZIMU VELO AIN AR TRES W  DIS CAZ7
 BAR2 EZ EP       2113 55.88                             169    0.2210 29.4 193 
 BAR2 EZ ES       2114 11.86                             169   -0.3110 29.4 193 
 BAR2 EZ I        2114 12.70        12.3 0.14            164           29.4 193 
 RUS  HZ EP   2   2114  0.35                             144    0.56 5  106 178 
 RUS  HN ES   2   2114 19.55                             144    0.02 5  106 178 
 RUS  HZ I        2114 20.15         2.8 0.20            145            106 178 
 PTB  HZ EP       2114  3.01                             134    0.25 9  152 257 
 PTB  HN ES       2114 24.88                             134    0.06 9  152 257 
 PTB  HZ I        2114 30.96         3.5 0.20            130            152 257 
 SPBC HZ EP       2114  4.09                             130   -0.37 9  169 218 
 SPBC HE ES       2114 27.95                             130    0.10 9  169 218 
 SPBC HZ I        2114 30.34         6.5 0.42            129            169 218 
 ZAR  HZ EP   4   2114 11.04                             125    3.28 0  204 290 
 ZAR  HN ES   4   2114 36.00                             125    2.28 0  204 290 
 ZAR  HZ I        2114 39.40         3.1 0.18            123            204 290 
 NOR  HZ EP   4   2114  4.84                             120   -6.65 0  240 234 
 NOR  HN ES   4   2114 39.28                             120   -1.08 0  240 234 
 NOR  HZ I        2114 48.29         2.5 0.10            119            240 234 
 CHI  HZ EP       2114 13.15                             119   -0.36 8  255 195 
 CHI  HN ES       2114 44.33                             119    0.37 8  255 195 
 CHI  HZ I        2114 47.06         1.9 0.58            119            255 195 
 GUY2CHZ EP   3   2114 18.64                             114   -0.62 2  307 234 
 GUY2CHN ES       2114 54.04                             114   -0.15 7  307 234 
 GUY2CHZ I        2115  2.30         1.5 0.34                           307 234 
                                                                                
