 2016  7 9 2124 39.8 L   6.434 -73.582112.0  RSN  5 0.4 1.6LRSN                1
 GAP=140        0.96       7.3     5.0  8.7  0.2158E+02  0.1381E+02 -0.4165E+01E
 Epicentro: SANTA HELENA DEL OPON - SANTANDER                                  3
 ACTION:UPD 17-03-29 16:48 OP:lp   STATUS:               ID:20160709212440 L   I
 OLDACT:UP  16-07-10 06:06 OP:ar   STATUS:               ID:20160709211741     3
 OLDACT:REG 16-07-10 03:43 OP:ar   STATUS:               ID:20160709211741     3
 2016-07-09-2117-41M.COL___337                                                 6
 STAT SP IPHASW D HRMM SECON CODA AMPLIT PERI AZIMU VELO AIN AR TRES W  DIS CAZ7
 BAR2 EZ EP       2124 56.20                             155   -0.0910 47.5  68 
 BAR2 EZ ES       2125  8.86                             155   -0.3110 47.5  68 
 BAR2 EZ I        2125  9.70        37.5 0.34            162           47.5  68 
 RUS  HZ EP       2124 58.90                             142    0.0810 81.4 137 
 RUS  HE ES       2125 14.16                             142    0.4810 81.4 137 
 RUS  HZ I        2125 15.07         2.8 0.16            144           81.4 137 
 PTB  HZ EP       2124 58.96                             136   -0.4910 97.4 277 
 PTB  HE ES       2125 14.61                             136   -0.1910 97.4 277 
 PTB  HZ I        2125 17.37         6.3 0.14            136           97.4 277 
 SPBC HZ EP   4   2125  1.86                             134    1.91 0  102 212 
 SPBC HN ES   4   2125 17.16                             134    1.46 0  102 212 
 SPBC HZ I        2125 18.80        15.2 0.12            134            102 212 
 ZAR  HZ EP       2125  7.89                             117   -0.07 9  183 310 
 ZAR  HE ES       2125 30.70                             117    0.74 9  183 310 
 ZAR  HZ I        2125 32.47         6.1 0.40            119            183 310 
                                                                                
