 2012  1 9 2124 34.5 L   6.766 -73.071140.2  RSN  5 0.5 1.2LRSN                1
 GAP=148        0.77       8.5     8.7 12.5 -0.9874E+01  0.3126E+02  0.9427E+01E
 Epicentro: LOS SANTOS - SANTANDER                                             3
 ACTION:UP  12-02-03 08:15 OP:REBC STATUS:               ID:20120109212434 L   I
 2012-01-09-2120-00M.COL___186                                                 6
 STAT SP IPHASW D HRMM SECON CODA AMPLIT PERI AZIMU VELO SNR AR TRES W  DIS CAZ7
 GIR2 SZ EP   3   2124 53.58                             165    -0.1 2   37 339 
 PAM  SZ EP   3   2124 56.71                             152     0.7 2   76  33 
 PAM  SN ES   1   2125 12.43                             152    -0.4 7   76  33 
 BRR  HZ EP       2124 55.46                             149    -0.110   80 298 
 BRR  HN ES   1   2125 12.60                             149     0.5 7   80 298 
 BRR  HZ I        2125 13.95         8.1 0.28                            80 298 
 RUS  HN ES   2   2125 15.64                             144     0.4 5   97 181 
 RUS  HZ I        2125 17.54         1.1 0.38                            97 181 
 PTB  HE ES   3   2125 21.49                             130    -1.5 2  155 261 
                                                                                
