 2017  7 9 2111 35.1 L   6.815 -73.160138.4  RSN  7 0.4 1.1LRSN                1
 GAP=144        0.94       5.2     4.6  7.4 -0.9360E+01  0.1086E+02  0.1572E+01E
 Epicentro: LOS SANTOS - SANTANDER                                             3
 ACTION:UPD 17-08-30 15:31 OP:rebc STATUS:               ID:20170709211135 L   I
 OLDACT:REG 17-07-10 03:11 OP:osc  STATUS:               ID:20170709210744     3
 2017-07-09-2108-00M.COL___380                                                 6
 STAT SP IPHASW D HRMM SECON CODA AMPLIT PERI AZIMU VELO AIN AR TRES W  DIS CAZ7
 BAR2 EZ EP   2   2111 55.17                             169    1.27 5 24.8 186 
 BAR2 EZ ES       2112  8.46                             169   -0.0910 24.8 186 
 BRR  HZ EP       2111 55.35                             152   -0.0010 69.0 298 
 BRR  HE ES       2112 11.48                             152    0.3510 69.0 298 
 PAM  EZ EP       2111 56.20                             150   -0.3510 77.1  41 
 PAM  EN ES       2112 13.32                             150    0.0710 77.1  41 
 PTB  HZ EP       2112  1.04                             131   -0.35 9  147 258 
 PTB  HE ES       2112 21.47                             131   -0.40 9  147 258 
 PTB  HZ I        2112 25.35         1.8 0.22            130            147 258 
 SPBC HN ES       2112 24.72                             127   -0.20 9  164 218 
 ZAR  HN ES       2112 31.80                             121    0.15 9  202 292 
 GUY2CHE ES       2112 52.93                             111    0.83 7  301 234 
                                                                                
