 2016  4 9 2045 42.4 L   6.816 -73.173139.5  RSN 10 0.3 2.3LRSN                1
 GAP=132        0.70       2.2     2.7  4.3 -0.1897E+01  0.5167E+01 -0.8821E+00E
 Epicentro: LOS SANTOS - SANTANDER                                             3
 ACTION:UPD 16-05-05 14:19 OP:rebc STATUS:               ID:20160409204542 L   I
 OLDACT:REG 16-04-10 03:24 OP:cara STATUS:               ID:20160409203746     3
 2016-04-09-2037-46M.COL___300                                                 6
 STAT SP IPHASW D HRMM SECON CODA AMPLIT PERI AZIMU VELO AIN AR TRES W  DIS CAZ7
 BAR2 EZ IP       2046  1.33                             169    0.0210 24.8 182 
 BAR2 EZ ES       2046 15.93                             169   -0.1310 24.8 182 
 BAR2 EZ I        2046 17.81        55.1 0.26            169           24.8 182 
 PAM  EZ IP     D 2046  4.23                             149    0.2410 78.0  42 
 PAM  EZ I        2046  4.26        78.3 0.22            155           78.0  42 
 PAM  EN ES       2046 21.08                             149    0.2410 78.0  42 
 RUS  HZ EP       2046  5.20                             142   -0.4910  103 174 
 RUS  HN ES       2046 23.97                             142    0.1110  103 174 
 RUS  HZ I        2046 24.93        15.2 0.20            145            103 174 
 PTB  HZ EP       2046  8.29                             131   -0.33 9  145 258 
 PTB  HN ES       2046 28.92                             131   -0.15 9  145 258 
 PTB  HZ I        2046 35.56        20.9 0.34            131            145 258 
 OCA  HZ EP       2046  9.61                             129   -0.42 9  158 354 
 OCA  HN ES       2046 31.67                             129    0.09 9  158 354 
 OCA  HZ I        2046 34.69        41.3 0.36            131            158 354 
 SPBC HZ EP       2046 10.31                             128   -0.07 9  163 218 
 SPBC HN ES       2046 32.46                             128    0.26 9  163 218 
 SPBC HZ I        2046 36.64        39.9 0.20            129            163 218 
 ZAR  HZ EP       2046 14.22                             121    0.14 9  201 292 
 ZAR  HN ES       2046 38.70                             121   -0.09 9  201 292 
 ZAR  HZ I        2046 44.43        26.0 0.22            122            201 292 
 NOR  HZ EP       2046 17.52                             117   -0.10 8  233 234 
 NOR  HN ES       2046 44.66                             117   -0.43 8  233 234 
 NOR  HZ I        2046 54.66        10.3 0.34            119            233 234 
 HEL  HZ EP       2046 22.50                             114    0.48 8  270 255 
 HEL  HE ES       2046 53.03                             114    0.11 8  270 255 
 HEL  HZ I        2046 59.37        10.2 0.30            115            270 255 
 GUY2CHZ EP       2046 26.03                             111    0.47 7  300 234 
 GUY2CHE ES       2046 59.75                             111    0.53 7  300 234 
 GUY2CHZ I        2047  7.49        13.5 0.34                           300 234 
                                                                                
