 2015  8 9 2210 41.2 L   6.832 -73.154142.1  RSN 19 0.5 2.4LRSN                1
 GAP=134        1.07       2.4     3.7  5.0 -0.2099E+01  0.5673E+01  0.1592E+01E
 Epicentro: LOS SANTOS - SANTANDER                                             3
 ACTION:UPD 15-09-15 23:01 OP:cam  STATUS:               ID:20150809221041 L   I
 OLDACT:UP  15-08-31 07:26 OP:ar   STATUS:               ID:20150809221041 L   3
 OLDACT:REG 15-08-10 04:17 OP:stll STATUS:               ID:20150809220748     3
 2015-08-09-2207-48M.COL___334                                                 6
 STAT SP IPHASW D HRMM SECON CODA AMPLIT PERI AZIMU VELO AIN AR TRES W  DIS CAZ7
 BAR2 EZ IP     D 2211  0.55                             169    0.0910 26.7 187 
 BAR2 EZ ES       2211 15.35                             169   -0.1310 26.7 187 
 BAR2 EZ I        2211 18.17        35.8 0.38            168           26.7 187 
 BRR  HZ IP     C 2211  2.46                             153    0.6510 68.8 296 
 BRR  HE ES       2211 18.74                             153    0.8510 68.8 296 
 BRR  HZ I        2211 23.98        29.5 0.34            150           68.8 296 
 PAM  EZ EP       2211  3.25                             151    0.3510 75.3  42 
 PAM  EN ES       2211 19.87                             151    0.0510 75.3  42 
 PAM  EZ I        2211 22.56        32.7 0.52            156           75.3  42 
 RUS  HZ IP     D 2211  4.44                             142   -0.4110  104 176 
 RUS  HN ES       2211 23.04                             142   -0.2610  104 176 
 RUS  HZ I        2211 26.16        15.0 0.24            144            104 176 
 CPBEREZ EP       2211  7.14                             131   -0.72 9  148 257 
 CPBEREN ES       2211 28.17                             131   -0.48 9  148 257 
 OCA  HZ EP       2211  8.52                             129   -0.36 9  157 353 
 OCA  HE ES       2211 30.50                             129    0.02 9  157 353 
 OCA  HZ I        2211 36.25        39.2 0.18            132            157 353 
 SPBC HZ EP       2211  9.28                             128   -0.35 9  165 218 
 SPBC HZ I        2211 11.63        41.5 0.22            129            165 218 
 SPBC HN ES       2211 31.49                             128   -0.31 9  165 218 
 ZAR  HZ EP       2211 13.00                             122   -0.18 9  202 291 
 ZAR  HN ES       2211 38.24                             122    0.11 9  202 291 
 ZAR  HZ I        2211 44.50        38.2 0.28            122            202 291 
 NOR  HZ EP       2211 16.47                             118   -0.39 8  236 234 
 NOR  HN ES       2211 44.50                             118   -0.18 8  236 234 
 NOR  HZ I        2211 50.04        19.8 0.32            119            236 234 
 SML  HZ EP       2211 16.79                             117   -0.44 8  240 335 
 SML  HN ES       2211 44.94                             117   -0.40 8  240 335 
 SML  HZ I        2211 56.04        24.8 0.24            119            240 335 
 CHI  HZ EP       2211 18.79                             116   -0.25 8  252 195 
 CHI  HE ES       2211 48.56                             116    0.00 8  252 195 
 CHI  HZ I        2211 57.69         8.2 0.40            118            252 195 
 ROSC BZ EP       2211 20.16                             116    0.76 8  255 210 
 ROSC BN ES       2211 49.31                             116    0.11 8  255 210 
 ROSC BZ I        2211 58.00        20.9 0.40            117            255 210 
 HEL  HZ EP       2211 22.22                             114    0.99 8  272 255 
 HEL  HE ES       2211 51.72                             114   -0.73 8  272 255 
 HEL  HZ I        2211 59.50        16.5 0.34            115            272 255 
 GUY2CHZ EP       2211 25.36                             111    0.57 7  303 234 
 GUY2CHN ES       2211 59.35                             111    0.56 7  303 234 
 GUY2CHZ I        2212  5.97        10.5 0.26                           303 234 
 ELA  HZ EP   4   2211 29.71                             109    1.63 0  331 229 
 ELA  HE ES       2212  4.34                             109   -0.31 7  331 229 
 ELA  HZ I        2212 20.51         9.0 0.62            111            331 229 
 TOL  SZ EP       2211 30.26                             108    0.73 6  345 224 
 TOL  SN ES       2212  7.20                             108   -0.02 6  345 224 
 TOL  SZ I        2212 12.62         7.1 0.40            110            345 224 
 ANIL HZ EP   4   2211 32.79                             108    1.71 0  359 224 
 ANIL HN ES       2212 10.93                             108    0.94 6  359 224 
 ANIL HZ I        2212 17.28        17.7 0.42            109            359 224 
 ORTC HZ EP       2211 35.34                             106    0.07 6  398 216 
 ORTC HE ES       2212 17.42                             106   -0.02 6  398 216 
 ORTC HZ I        2212 23.45         5.2 0.46            107            398 216 
 SJC  HZ EP   4   2211 34.45                             105   -1.79 0  406 327 
 SJC  HZ I        2211 34.86         5.1 0.10            107            406 327 
 SJC  HN ES   4   2212 14.32                             105   -4.85 0  406 327 
                                                                                
