 2012  5 9 2308 43.8 L   6.779 -73.180159.2  RSN  4 0.2 1.3LRSN                1
 GAP=133        0.52       4.8     4.7  6.9  0.5156E+01 -0.8182E+01 -0.6076E+01E
 Epicentro: LOS SANTOS - SANTANDER                                             3
 ACTION:UP  12-07-05 12:03 OP:pat  STATUS:               ID:20120509230843 L   I
 2012-05-09-2300-00M.COL___195                                                 6
 STAT SP IPHASW D HRMM SECON CODA AMPLIT PERI AZIMU VELO SNR AR TRES W  DIS CAZ7
 BRR  HZ EP   1   23 9  6.42                             155     0.1 7   69 302 
 BRR  HZ I        23 9 23.77        17.0 0.29                            69 302 
 BRR  HN ES   1   23 9 24.06                             155     0.2 7   69 302 
 PAM  SZ EP   1   23 9  7.42                             152    -0.3 7   82  41 
 RUS  HZ EP   1   23 9  8.89                             147     0.1 7   99 174 
 RUS  HN ES   1   23 9 28.21                             147     0.0 7   99 174 
 RUS  HZ I        23 9 30.18         1.0 0.34                            99 174 
 PTB  HZ EP   1   23 9 11.70                             136     0.2 7  144 259 
 PTB  HZ I        23 9 12.17         1.2 0.15                           144 259 
 PTB  HN ES   1   23 9 32.84                             136    -0.3 7  144 259 
                                                                                
