 2013  8 9 2326 21.9 L   6.799 -73.164144.7  RSN  7 0.3 1.9LRSN                1
 GAP=134        0.75       2.8     3.4  6.0 -0.8224E+00  0.7352E+01 -0.1563E+01E
 Epicentro: LOS SANTOS - SANTANDER                                             3
 ACTION:UPD 14-01-14 09:00 OP:ep   STATUS:               ID:20130809232621 L   I
 OLDACT:UP  13-08-09 22:41 OP:cam  STATUS:               ID:20130809231960d    3
 OLDACT:DUP 13-08-09 22:33 OP:cam  STATUS:               ID:20130809231960d    3
 OLDACT:REG 13-08-09 21:58 OP:cam  STATUS:               ID:20130809231959     3
 2013-08-09-2319-59M.COL___267                                                 6
 STAT SP IPHASW D HRMM SECON CODA AMPLIT PERI AZIMU VELO AIN AR TRES W  DIS CAZ7
 GIR2 SZ EP       2326 41.39                             167   -0.0910 31.1 354 
 GIR2 SZ ES   1   2326 56.88                             167    0.16 7 31.1 354 
 GIR2 SZ I        2326 57.41        13.2 0.32            166           31.1 354 
 PAM  SZ EP       2326 44.26                             150    0.1410 78.8  41 
 PAM  SE ES       2327  1.34                             150   -0.0810 78.8  41 
 PAM  SZ I        2327  3.18        12.1 0.50            155           78.8  41 
 RUS  HZ EP       2326 45.26                             144   -0.3210  101 175 
 RUS  HN ES       2327  4.27                             144    0.2410  101 175 
 RUS  HZ I        2327  4.79         8.8 0.26            147            101 175 
 PTB  HZ EP       2326 48.29                             132   -0.35 9  146 259 
 PTB  HN ES       2327  8.94                             132   -0.52 9  146 259 
 PTB  HZ I        2327 16.23         9.8 0.28            132            146 259 
 SPBC HZ EP   1   2326 50.52                             129    0.29 7  162 218 
 SPBC HN ES       2327 12.41                             129    0.12 9  162 218 
 SPBC HZ I        2327 14.87        15.1 0.20            131            162 218 
 ZAR  HZ EP       2326 54.58                             122    0.45 9  202 292 
 ZAR  HN ES       2327 19.72                             122    0.48 9  202 292 
 ZAR  HZ I        2327 26.21        12.1 0.44            123            202 292 
 SML  HN ES       2327 26.66                             117   -0.23 8  243 336 
                                                                                
