 2011  1 9 2346 28.0 L   6.808 -73.093147.3  RSN  5 0.4 1.5LRSN                1
 GAP=164        0.97       6.1    16.3  8.9 -0.4669E+02  0.1223E+02 -0.1671E+01E
 Epicentro: LOS SANTOS - SANTANDER                                             3
 ACTION:UP  11-02-08 08:39 OP:pat  STATUS:               ID:20110109234628 L   I
 2011-01-09-2343-09S.COL___136                                                 6
 STAT SP IPHASW D HRMM SECON CODA AMPLIT PERI AZIMU VELO SNR AR TRES W  DIS CAZ7
 BTL  SZ EP       2346 48.15                             170     0.410   23 302 
 BTL  SZ ES   1   2347  3.70                             170     0.5 7   23 302 
 BAR2 SZ EP       2346 47.90                             169     0.110   26 203 
 BAR2 SZ ES   2   2347  2.01                             169    -1.3 5   26 203 
 BAR2 SZ I        2347  6.03         7.7 0.59                            26 203 
 RUS  HZ EP       2346 52.10                             144     0.210  101 179 
 RUS  HN ES   1   2347 10.50                             144    -0.1 7  101 179 
 RUS  HZ I        2347 11.54         4.1 0.13                           101 179 
 GRA  SZ EP       2346 52.87                             138    -0.310  123  15 
 GRA  SZ ES   1   2347 12.69                             138    -0.1 7  123  15 
 GRA  SZ I        2347 16.08         6.9 0.40                           123  15 
 NOR  SZ EP   1   2347  3.98                             118    -0.4 6  240 235 
                                                                                
