 2011  6 9 2125  7.8 L   6.810 -73.122142.7  RSN 12 0.5 2.2LRSN                1
 GAP=139        1.08       4.3     7.8  7.1 -0.1594E+02  0.7562E+01  0.5788E+01E
 Epicentro: LOS SANTOS - SANTANDER                                             3
 ACTION:UP  11-07-14 19:04 OP:ep   STATUS:               ID:20110609212507 L   I
 2011-06-09-2123-05S.COL___121                                                 6
 STAT SP IPHASW D HRMM SECON CODA AMPLIT PERI AZIMU VELO SNR AR TRES W  DIS CAZ7
 BAR2 SZ EP   1   2125 26.85                             170    -0.2 7   25 195 
 BAR2 SZ I        2125 27.47        35.6 0.12                            25 195 
 BAR2 SZ ES   1   2125 41.30                             170    -0.8 7   25 195 
 GIR2 SZ EP   1   2125 27.05                             167     0.0 7   31 345 
 BRR  HZ EP       2125 28.90                             151     0.210   73 297 
 BRR  HE ES   1   2125 45.70                             151     0.7 7   73 297 
 BRR  HZ I        2125 46.58        64.4 0.14                            73 297 
 PAM  SE ES   1   2125 46.82                             151     0.3 7   75  39 
 PAM  SZ I        2125 49.16        23.2 0.49                            75  39 
 RUS  HZ EP       2125 31.11                             143    -0.210  102 178 
 RUS  HZ I        2125 32.41        20.5 0.14                           102 178 
 RUS  HN ES   1   2125 49.69                             143     0.0 7  102 178 
 BRI  SZ EP       2125 31.54                             141     0.310  106  20 
 BRI  SZ ES   1   2125 48.95                             141    -0.6 7  106  20 
 BRI  SZ I        2125 51.84        30.6 0.30                           106  20 
 GRA  SZ EP       2125 32.80                             137     0.210  124  16 
 GRA  SZ ES   1   2125 52.21                             137     0.3 7  124  16 
 GRA  SZ I        2125 53.56        47.5 0.29                           124  16 
 OCA  SZ EP   1   2125 34.86                             129    -0.9 7  159 352 
 NOR  SZ EP   1   2125 43.32                             117    -0.3 6  237 235 
 NOR  SE ES   1   2126 11.05                             117    -0.5 6  237 235 
 NOR  SZ I        2126 13.14         2.5 0.27                           237 235 
 CHI  HZ EP       2125 45.70                             116     0.2 8  250 196 
 CHI  HN ES   1   2126 15.84                             116     0.9 6  250 196 
 CHI  HZ I        2126 18.86        14.3 0.39                           250 196 
 PRA  HZ EP       2126  1.65                             106     0.2 6  394 210 
 SJA  SZ EP   1   2126  1.97                             105    -0.5 4  402 193 
                                                                                
