 2013  1 9 2204  7.8 L   6.744 -73.210145.9  RSN  5 0.2 1.7LRSN                1
 GAP=226        0.41       3.2     3.4  3.9  0.6826E+01 -0.1637E+00  0.9404E+00E
 Epicentro: VILLANUEVA - SANTANDER                                             3
 ACTION:UPD 13-02-15 09:13 OP:ep   STATUS:               ID:20130109220407 L   I
 2013-01-09-2200-00M.COL___242                                                 6
 STAT SP IPHASW D HRMM SECON CODA AMPLIT PERI AZIMU VELO AIN AR TRES W  DIS CAZ7
 BRR  HZ EP       22 4 28.84                             153    0.0310 68.5 306 
 BRR  HZ I        22 4 39.49        15.8 0.32            147           68.5 306 
 BRR  HN ES       22 4 45.28                             153    0.0710 68.5 306 
 RUS  HZ EP       22 4 31.21                             145    0.0310 95.2 172 
 RUS  HE ES       22 4 49.30                             145   -0.1210 95.2 172 
 RUS  HE I        22 4 50.61         9.4 0.24            147           95.2 172 
 PTB  HZ EP   1   22 4 33.74                             134   -0.31 7  140 261 
 PTB  HN ES       22 4 54.62                             134    0.08 9  140 261 
 PTB  HZ I        22 4 58.89         6.0 0.20            131            140 261 
 ZAR  HE ES   1   22 5  4.72                             123   -0.11 6  200 295 
 ZAR  HZ I        22 5 10.60         6.8 0.39            119            200 295 
 CHI  HZ EP   1   22 4 44.99                             118    0.33 6  241 194 
 CHI  HZ I        22 4 47.23         1.3 0.42            116            241 194 
                                                                                
