 2015  7 9 2236 13.2 L   6.826 -73.135142.5  RSN  6 0.4 1.9LRSN                1
 GAP=151        0.90       5.1     5.4  8.1 -0.9011E+01  0.2324E+02 -0.1236E+02E
 Epicentro: LOS SANTOS - SANTANDER                                             3
 ACTION:UPD 15-09-08 21:47 OP:cam  STATUS:               ID:20150709223613 L   I
 OLDACT:UP  15-07-10 06:36 OP:mher STATUS:               ID:20150709222749     3
 OLDACT:REG 15-07-10 06:23 OP:mh   STATUS:               ID:20150709222749     3
 2015-07-09-2227-49M.COL___343                                                 6
 STAT SP IPHASW D HRMM SECON CODA AMPLIT PERI AZIMU VELO AIN AR TRES W  DIS CAZ7
 BAR2 EZ EP       2236 32.13                             169   -0.3310 26.4 191 
 BAR2 EZ ES       2236 47.45                             169   -0.0710 26.4 191 
 BAR2 EZ I        2236 49.34        13.5 0.10            170           26.4 191 
 PAM  EZ EP       2236 35.44                             151    0.5910 74.4  40 
 PAM  EN ES       2236 51.82                             151    0.0510 74.4  40 
 PAM  EZ I        2236 53.91        18.3 0.52            154           74.4  40 
 OCA  HZ EP       2236 40.90                             129   -0.06 9  158 353 
 OCA  HN ES       2237  2.39                             129   -0.25 9  158 353 
 OCA  HZ I        2237  7.90        15.7 0.24            130            158 353 
 ZAR  HZ EP       2236 45.15                             122   -0.24 9  204 291 
 ZAR  HN ES   1   2237 11.52                             122    0.98 6  204 291 
 ZAR  HZ I        2237 17.00         6.4 0.28            122            204 291 
 SML  HN ES   2   2237 16.68                             117   -0.93 4  242 335 
 HEL  HE ES       2237 24.69                             114   -0.12 8  274 255 
 HEL  HZ I        2237 28.96         3.7 0.36            116            274 255 
                                                                                
