 2017  6 9 2208 56.9 L   6.783 -73.194149.3  RSN  5 0.1 1.5LRSN                1
 GAP=231        0.39       2.8     2.8  3.7  0.4730E+01  0.6445E+00  0.4116E+00E
 Epicentro: ZAPATOCA - SANTANDER                                               3
 ACTION:UPD 17-09-14 16:51 OP:jn   STATUS:               ID:20170609220856 L   I
 OLDACT:UP  17-06-10 03:39 OP:and  STATUS:               ID:20170609220739     3
 OLDACT:REG 17-06-10 02:42 OP:and  STATUS:               ID:20170609220739     3
 2017-06-09-2208-00M.COL___362                                                 6
 STAT SP IPHASW D HRMM SECON CODA AMPLIT PERI AZIMU VELO AIN AR TRES W  DIS CAZ7
 BRR  HZ EP       22 9 18.19                             154   -0.0810 67.5 302 
 BRR  HN ES       22 9 35.00                             154    0.0910 67.5 302 
 RUS  HZ EP       22 9 21.02                             145    0.0810 99.2 173 
 RUS  HN ES       22 9 39.69                             145    0.0210 99.2 173 
 RUS  HZ I        22 9 40.80         5.1 0.50            143           99.2 173 
 PTB  HZ EP       22 9 23.62                             134   -0.08 9  142 259 
 PTB  HN ES       22 9 44.31                             134   -0.26 9  142 259 
 PTB  HZ I        22 9 47.50         2.3 0.09            132            142 259 
 ZAR  HN ES       22 9 54.47                             124    0.13 9  200 293 
 ZAR  HZ I        22 9 55.06         5.7 0.08            124            200 293 
 NOR  HZ EP   2   22 9 32.49                             120    0.20 4  229 234 
 NOR  HN ES   2   2210  0.18                             120    0.31 4  229 234 
 NOR  HZ I        2210  2.31         2.4 0.30            119            229 234 
                                                                                
