 2011  6 9 2201 26.1 L   6.818 -73.160144.1  RSN  6 0.3 1.9LRSN                1
 GAP=134        0.62       4.5     6.3  6.9 -0.8053E+01  0.2086E+01  0.1351E+02E
 Epicentro: LOS SANTOS - SANTANDER                                             3
 ACTION:UP  11-07-14 19:04 OP:ep   STATUS:               ID:20110609220126 L   I
 2011-06-09-2158-01S.COL___118                                                 6
 STAT SP IPHASW D HRMM SECON CODA AMPLIT PERI AZIMU VELO SNR AR TRES W  DIS CAZ7
 BTL  SZ EP   1   22 1 45.86                             173     0.4 7   16 313 
 BAR2 SZ EP       22 1 45.54                             170    -0.110   25 186 
 BRR  HZ I        22 1 46.86        21.6 0.36                            69 298 
 BRR  HN ES   1   22 2  3.05                             153    -0.2 7   69 298 
 PAM  SZ EP   1   22 1 48.23                             151     0.1 7   77  41 
 PAM  SZ I        22 1 48.53         9.2 0.16                            77  41 
 PAM  SN ES   1   22 2  5.37                             151     0.1 7   77  41 
 RUS  HZ EP   1   22 1 49.45                             143    -0.4 7  103 175 
 RUS  HE ES   1   22 2  8.45                             143     0.0 7  103 175 
 RUS  HZ I        22 2  9.63        11.2 0.26                           103 175 
 PRA  HZ EP       22 2 19.52                             106    -0.2 6  393 209 
 PRA  HE ES   1   22 3  2.16                             106     0.7 4  393 209 
                                                                                
