 2017  4 9 2339 39.7 L   6.763 -73.111141.9  RSN  5 0.1 1.5LRSN                1
 GAP=143        0.39       2.2     2.2  3.5  0.6118E+00  0.1308E+01 -0.1673E+01E
 Epicentro: LOS SANTOS - SANTANDER                                             3
 ACTION:UPD 17-05-30 21:10 OP:jn   STATUS:               ID:20170409233939 L   I
 OLDACT:UP  17-04-10 05:01 OP:dnl  STATUS:               ID:20170409233742     3
 OLDACT:REG 17-04-10 04:09 OP:dnl  STATUS:               ID:20170409233742     3
 2017-04-09-2338-00M.COL___368                                                 6
 STAT SP IPHASW D HRMM SECON CODA AMPLIT PERI AZIMU VELO AIN AR TRES W  DIS CAZ7
 BAR2 EZ EP       2339 58.69                             171   -0.0810 20.4 203 
 BAR2 EZ ES       2340 13.54                             171   -0.1410 20.4 203 
 BAR2 EZ I        2340 14.33         8.2 0.22            170           20.4 203 
 BRR  HZ EP       2340  0.56                             150   -0.1610 76.6 300 
 BRR  HN ES       2340 17.27                             150    0.1310 76.6 300 
 BRR  HZ I        2340 20.55         5.5 0.48            147           76.6 300 
 PAM  EZ EP       2340  1.68                             150    0.1510 78.3  35 
 PAM  EN ES       2340 18.55                             150   -0.0310 78.3  35 
 PAM  EZ I        2340 20.79         7.8 0.60            151           78.3  35 
 RUS  HZ EP   4   2340  1.27                             144   -1.45 0 96.3 178 
 RUS  HN ES       2340 20.82                             144    0.1110 96.3 178 
 RUS  HZ I        2340 21.92         2.1 0.24            147           96.3 178 
 ZAR  HZ EP   4   2340 14.55                             121    2.15 0  209 293 
 ZAR  HN ES       2340 37.95                             121    0.02 8  209 293 
 ZAR  HZ I        2340 45.68         3.9 0.23            120            209 293 
                                                                                
