 2013  1 9 2022 46.8 L   6.172 -73.301  3.2  RSN 14 0.4 3.3LRSN 3.5WRSN        1
 SPEC AVERAGE  MO 14.3 ST  7.5 OM  3.7 f0 2.70 R0.5979 AL 2.86 WI 13.9 MW  3.5 3
 SPEC SD       MO  0.0 ST  6.8 OM  1.0 f00.883 R0.1677 AL      WI      MW  0.0 3
 GAP=126        0.90       1.5     2.6  4.0 -0.3080E+00  0.2294E+01  0.1620E+00E
 Epicentro: OIBA - SANTANDER                                                   3
 SPEC RREFHH Z MO 14.3 ST 17.1 OM  2.7 f0 3.93 R0.3740 AL 4.23 WI 10.5 MW  3.5 3
 SPEC RREFHH Z T202356 K 0.000 GD  163 VS 4.20 DE 3.20 Q0300.0 QA 0.60 VS 4.20 3
 SPEC ROSCBH Z MO 14.3 ST  3.6 OM  2.8 f0 2.29 R0.6419 AL 2.74 WI 17.3 MW  3.5 3
 SPEC ROSCBH Z T202338 K 0.000 GD  136 VS 4.20 DE 3.20 Q0300.0 QA 0.60 VS 4.20 3
 SPEC OCA HH Z MO 14.3 ST  1.8 OM  2.7 f0 1.89 R0.7778 AL 1.62 WI 13.9 MW  3.5 3
 SPEC OCA HH Z T202350 K 0.000 GD  151 VS 4.20 DE 3.20 Q0300.0 QA 0.60 VS 4.20 3
 ACTION:UPD 13-02-15 09:13 OP:ep   STATUS:               ID:20130109202246 L   I
 2013-01-09-2020-00M.COL___242                                                 6
 STAT SP IPHASW D HRMM SECON CODA AMPLIT PERI AZIMU VELO AIN AR TRES W  DIS CAZ7
 RUS  HZ IP     D 2022 53.73                              47   -0.1810 39.2 142 
 RUS  HN ES   1   2022 58.99                              47   -0.51 7 39.2 142 
 RUS  HN I        2023  1.78      1449.2 0.20             47           39.2 142 
 BAR2 SZ EP       2022 55.23                              47    0.2210 48.2  16 
 BAR2 SZ ES       2023  1.56                              47    0.1010 48.2  16 
 BAR2 SZ I        2023  7.53       932.7 0.28             47           48.2  16 
 BRR  HZ IP     C 2023  5.14                              47    0.5710  113 336 
 BRR  HE ES       2023 18.07                              47   -0.3910  113 336 
 PTB  HZ EP     D 2023  7.15                              47   -0.6510  134 288 
 PTB  HN ES   4   2023 22.38                              47   -1.83 0  134 288 
 CTAB SZ EP       2023 12.13                              47   -0.47 9  163 218 
 CHI  HZ EP     C 2023 14.84                              47    0.11 9  177 196 
 CHI  HZ I        2023 15.67       430.1 0.20             47            177 196 
 CHI  HN ES       2023 36.90                              47    0.35 9  177 196 
 ROSC BZ EP       2023 15.73                              37   -0.09 9  186 218 
 ROSC BN ES   1   2023 39.12                              37    0.63 7  186 218 
 ROSC BZ I        2023 46.17       312.4 0.40             37            186 218 
 ZAR  HZ EP       2023 20.53                              37    0.17 8  226 310 
 ZAR  HN ES   1   2023 46.50                              37   -0.07 6  226 310 
 ZAR  HZ I        2023 47.77       123.1 0.31             37            226 310 
 OCA  HZ EP   4   2023 23.12                              37    2.23 0  229 359 
 OCA  HN ES   4   2023 51.16                              37    3.64 0  229 359 
 OCA  HZ I        2023 57.58       265.0 0.37             37            229 359 
 VIL  SZ EP   4   2023 23.36                              37    2.07 0  232 191 
 VIL  SZ I        2023 57.87       210.7 0.39             37            232 191 
 HEL  HZ EP       2023 23.06                              37   -0.35 8  247 271 
 HEL  HN ES   4   2023 49.77                              37   -2.23 0  247 271 
 HEL  HZ I        2023 51.85       173.3 0.32             37            247 271 
 RREF HZ EP       2023 26.92                              37    0.67 8  267 238 
 RREF HN ES       2023 57.34                              37    0.28 8  267 238 
 RREF HZ I        2023 59.62       336.6 0.27             37            267 238 
 TOL  SZ EP       2023 28.24                              37    0.14 7  284 232 
 TOL  SZ ES       2023 59.73                              37   -0.61 7  284 232 
 TOL  SZ I        2024  3.92       114.6 0.22             37            284 232 
 ANIL HZ EP   1   2023 30.25                              36    0.51 5  298 232 
 ANIL HE ES   1   2024  3.48                              36    0.20 5  298 232 
                                                                                
