 2014  6 9 2026 52.5 L   6.774 -73.121145.2  RSN  6 0.5 1.9LRSN                1
 GAP=162        1.31       7.0     6.2  8.9 -0.1159E+02  0.1360E+02  0.3746E+01E
 Epicentro: LOS SANTOS - SANTANDER                                             3
 ACTION:UPD 14-07-01 22:52 OP:nd   STATUS:               ID:20140609202652 L   I
 OLDACT:REG 14-06-10 04:41 OP:stll STATUS:               ID:20140609201820     3
 2014-06-09-2018-20M.COL___259                                                 6
 STAT SP IPHASW D HRMM SECON CODA AMPLIT PERI AZIMU VELO AIN AR TRES W  DIS CAZ7
 BAR2 SZ EP       2027 12.12                             171    0.1510 21.2 199 
 BAR2 SZ ES       2027 27.55                             171    0.3610 21.2 199 
 BAR2 SZ I        2027 28.73        17.9 0.20            170           21.2 199 
 BRR  HZ EP       2027 14.02                             151    0.2710 75.0 299 
 BRR  HZ I        2027 14.20        19.0 0.26            149           75.0 299 
 BRR  HE ES       2027 31.17                             151    0.8010 75.0 299 
 PAM  SZ EP       2027 15.06                             150    0.4210 78.0  37 
 PAM  SZ I        2027 15.25        19.9 0.22            153           78.0  37 
 PAM  SN ES       2027 30.91                             150   -1.0310 78.0  37 
 PTB  HZ EP       2027 19.03                             131   -0.54 9  150 260 
 PTB  HN ES       2027 40.07                             131   -0.64 9  150 260 
 PTB  HZ I        2027 45.17         5.6 0.30            131            150 260 
 SPBC HZ EP       2027 21.19                             129    0.33 9  163 220 
 SPBC HN ES       2027 42.74                             129   -0.28 9  163 220 
 SPBC HZ I        2027 45.93        13.0 0.24            129            163 220 
 ZAR  HZ EP       2027 25.25                             122    0.02 8  208 293 
 ZAR  HN ES       2027 50.78                             122   -0.02 8  208 293 
 ZAR  HZ I        2027 55.36         5.7 0.50            122            208 293 
                                                                                
