 2014  7 9 2249 14.9 L   7.379 -73.421114.6  RSN  7 0.3 1.5LRSN                1
 GAP= 86        0.85       3.2     3.3  7.1 -0.1178E+01  0.9485E+01 -0.2276E+01E
 Epicentro: SABANA DE TORRES - SANTANDER                                       3
 ACTION:UPD 15-03-16 20:42 OP:nd   STATUS:               ID:20140709224914 L   I
 OLDACT:UP  14-07-10 08:05 OP:spq  STATUS:               ID:20140709224821d    3
 OLDACT:DUP 14-07-10 07:36 OP:spq  STATUS:               ID:20140709224821d    3
 2014-07-09-2248-20M.COL___262                                                 6
 STAT SP IPHASW D HRMM SECON CODA AMPLIT PERI AZIMU VELO AIN AR TRES W  DIS CAZ7
 BRR  HN ES       2249 43.86                             157   -0.0010 44.0 227 
 BRR  HZ I        2249 46.25        11.0 0.32            158           44.0 227 
 PAM  SZ EP       2249 34.04                             143    0.0110 79.8  93 
 PAM  SN ES       2249 48.36                             143   -0.6310 79.8  93 
 PAM  SZ I        2249 49.97         4.8 0.16            148           79.8  93 
 BAR2 SZ EP   4   2249 35.94                             139    1.40 0 90.9 163 
 BAR2 SZ ES   1   2249 50.55                             139    0.65 7 90.9 163 
 BAR2 SZ I        2249 53.73        13.6 0.17            142           90.9 163 
 OCA  HE ES       2249 50.84                             137    0.4510 95.7   7 
 OCA  HZ I        2249 54.65         6.5 0.16            140           95.7   7 
 PTB  HZ EP       2249 39.53                             124    0.09 9  147 231 
 PTB  HN ES       2249 58.62                             124    0.00 9  147 231 
 PTB  HZ I        2250  6.00         2.8 0.16            126            147 231 
 ZAR  HZ EP       2249 40.66                             121    0.02 9  159 275 
 ZAR  HN ES       2250  0.36                             121   -0.39 9  159 275 
 ZAR  HZ I        2250  2.51         2.5 0.19            124            159 275 
 SML  HN ES       2250  3.33                             119    0.05 9  173 336 
 SML  HZ I        2250  7.75        11.3 0.10            122            173 336 
                                                                                
