 2011 12 9 2122  4.1 L   6.754 -73.092143.9  RSN  8 0.4 1.9LRSN                1
 GAP=146        0.74       5.0     7.2  5.8 -0.7138E+01 -0.1801E+01 -0.2518E-01E
 Epicentro: LOS SANTOS - SANTANDER                                             3
 ACTION:UPD 12-07-13 16:15 OP:ep   STATUS:               ID:20111209212204 L   I
 2011-12-09-2120-00M.COL___183                                                 6
 STAT SP IPHASW D HRMM SECON CODA AMPLIT PERI AZIMU VELO AIN AR TRES W  DIS CAZ7
 BAR2 SZ IP       2122 23.53                             172    0.1210 20.4 209 
 BAR2 SZ ES   1   2122 37.77                             172   -0.73 7 20.4 209 
 BAR2 SZ I        2122 40.16        32.4 0.22                          20.4 209 
 GIR2 SZ EP       2122 23.67                             164   -0.0310 37.6 343 
 GIR2 SZ ES   1   2122 38.74                             164   -0.27 7 37.6 343 
 PAM  SZ EP       2122 26.43                             150    0.3210 78.0  34 
 PAM  SE ES   1   2122 43.63                             150    0.32 7 78.0  34 
 BRR  HZ IP     C 2122 25.38                             150   -0.0810 78.8 300 
 BRR  HZ I        2122 25.57        30.6 0.14                          78.8 300 
 BRR  HN ES   1   2122 42.77                             150    0.62 7 78.8 300 
 RUS  HZ EP   2   2122 26.75                             145   -0.49 5 95.2 179 
 RUS  HZ I        2122 28.46         4.8 0.14                          95.2 179 
 RUS  HN ES   3   2122 46.08                             145    0.76 2 95.2 179 
 BRI  SZ EP   3   2122 28.21                             140    0.21 2  111  17 
 OCA  SZ EP       2122 32.39                             128   -0.39 9  166 351 
 OCA  SZ I        2123  0.57        10.2 0.20                           166 351 
 CHI  HZ EP   3   2122 41.55                             117    0.26 2  245 197 
 CHI  HN ES   2   2123 10.69                             117    0.36 4  245 197 
 CHI  HZ I        2123 20.38         4.4 0.48                           245 197 
                                                                                
