 2014 11 9 2027  4.3 L   6.759 -73.140140.5  RSN  5 0.3 1.1LRSN                1
 GAP=139        0.70       4.1     3.6  5.7 -0.2437E+01  0.1626E+01  0.4024E+01E
 Epicentro: LOS SANTOS - SANTANDER                                             3
 ACTION:UPD 14-12-19 15:40 OP:nd   STATUS:               ID:20141109202704 L   I
 OLDACT:REG 14-11-10 02:21 OP:spq  STATUS:               ID:20141109201748     3
 2014-11-09-2017-48M.COL___298                                                 6
 STAT SP IPHASW D HRMM SECON CODA AMPLIT PERI AZIMU VELO AIN AR TRES W  DIS CAZ7
 BAR2 SZ EP   1   2027 22.82                             172   -0.43 7 19.0 194 
 BAR2 SZ ES   1   2027 37.95                             172   -0.05 7 19.0 194 
 BRR  HZ EP       2027 25.01                             151   -0.0710 74.0 301 
 BRR  HN ES       2027 41.65                             151    0.3810 74.0 301 
 BRR  HZ I        2027 44.59         4.8 0.70            151           74.0 301 
 PAM  SZ EP       2027 26.22                             149    0.0310 80.6  37 
 PAM  SN ES       2027 43.10                             149   -0.1410 80.6  37 
 PAM  SZ I        2027 44.71         1.9 0.40            153           80.6  37 
 RUS  HZ EP       2027 27.26                             144    0.0210 96.0 176 
 RUS  HE ES   1   2027 45.34                             144    0.24 7 96.0 176 
 RUS  HZ I        2027 46.93         0.9 0.18            146           96.0 176 
 PTB  HZ EP       2027 31.24                             131    0.38 9  148 261 
 PTB  HN ES       2027 51.07                             131   -0.48 9  148 261 
 PTB  HZ I        2027 55.99         1.9 0.29            132            148 261 
                                                                                
