 2012  6 9 2252 14.6 L   7.570 -73.545106.6  RSN  7 0.2 2.0LRSN                1
 GAP=108        0.38       1.4     1.5  3.5 -0.5675E+00  0.2429E+01 -0.5050E+00E
 Epicentro: SABANA DE TORRES - SANTANDER                                       3
 ACTION:UPD 12-08-06 17:48 OP:ep   STATUS:               ID:20120609225214 L   I
 2012-06-09-2250-00M.COL___201                                                 6
 STAT SP IPHASW D HRMM SECON CODA AMPLIT PERI AZIMU VELO AIN AR TRES W  DIS CAZ7
 OCA  HZ EP       2252 32.53                             141    0.0810 78.0  19 
 OCA  HN ES       2252 46.25                             141   -0.0910 78.0  19 
 OCA  HZ I        2252 47.38        65.4 0.27            142           78.0  19 
 PAM  SZ EP       2252 34.41                             135   -0.0410 96.8 105 
 PAM  SN ES       2252 49.93                             135    0.0310 96.8 105 
 ZAR  HE ES   1   2252 57.08                             122    0.05 7  145 267 
 ZAR  HZ I        2253  3.38        13.0 0.11            122            145 267 
 PTB  HZ EP       2252 39.34                             120    0.15 9  152 221 
 PTB  HE ES       2252 58.24                             120   -0.10 9  152 221 
 PTB  HZ I        2253  1.54        11.6 0.24            122            152 221 
 COD  HZ EP       2252 51.37                             106   -0.14 8  262   2 
 COD  HE ES   1   2253 20.55                             106    0.28 6  262   2 
 COD  HZ I        2253 26.06         4.6 0.41            108            262   2 
 NOR  SE ES   1   2253 21.36                             106    0.10 6  266 213 
 MON  HZ EP   1   2252 51.89                             106   -0.48 6  269 300 
 MON  HN ES   1   2253 21.99                             106    0.19 6  269 300 
                                                                                
