 2014  1 9 2042 40.6 L   6.809 -73.157144.9  RSN  9 0.3 1.9LRSN                1
 GAP=135        0.78       3.3     3.8  5.7 -0.2795E-01  0.2559E+01 -0.1270E+01E
 Epicentro: LOS SANTOS - SANTANDER                                             3
 ACTION:UPD 14-03-13 09:53 OP:ep   STATUS:               ID:20140109204240 L   I
 OLDACT:UP  14-01-10 01:41 OP:mher STATUS:               ID:20140109204000     3
 OLDACT:REG 14-01-09 23:08 OP:mh   STATUS:               ID:20140109204000     3
 2014-01-09-2040-00M.COL___285                                                 6
 STAT SP IPHASW D HRMM SECON CODA AMPLIT PERI AZIMU VELO AIN AR TRES W  DIS CAZ7
 BAR2 SZ EP       2042 59.88                             170   -0.2510 24.1 187 
 BAR2 SZ ES   1   2043 15.17                             170   -0.20 7 24.1 187 
 BAR2 SZ I        2043 18.00        30.1 0.22            173           24.1 187 
 BRR  HZ EP       2043  1.76                             153    0.2110 69.7 298 
 BRR  HN ES   1   2043 18.35                             153    0.44 7 69.7 298 
 BRR  HZ I        2043 23.00        17.1 0.23            153           69.7 298 
 PAM  SZ EP       2043  3.08                             151    0.3710 77.4  41 
 PAM  SZ I        2043 23.24         8.4 0.64            144           77.4  41 
 RUS  HZ EP       2043  3.96                             143   -0.3710  102 175 
 RUS  HN ES   1   2043 22.98                             143    0.13 7  102 175 
 RUS  HZ I        2043 24.09         5.6 0.33            145            102 175 
 PTB  HZ EP       2043  7.59                             132    0.20 9  147 258 
 PTB  HE ES       2043 28.37                             132    0.07 9  147 258 
 PTB  HZ I        2043 30.54         8.3 0.23            134            147 258 
 ZAR  HN ES   1   2043 38.25                             122    0.29 6  203 292 
 NOR  HZ EP       2043 16.43                             118    0.22 8  234 234 
 NOR  HN ES       2043 43.47                             118   -0.54 8  234 234 
 NOR  HZ I        2043 52.09         5.3 0.14            119            234 234 
 SML  HZ EP   1   2043 17.02                             117    0.01 6  242 335 
 SML  HN ES       2043 44.69                             117   -0.74 8  242 335 
 SML  HZ I        2043 52.20         8.5 0.09            116            242 335 
 GUY2CHZ EP       2043 24.40                             112    0.30 7  301 234 
 GUY2CHN ES   4   2044  2.14                             112    4.09 0  301 234 
                                                                                
