 2016 10 9 2319  8.5 L   6.812 -73.077149.5  RSN 15 0.3 2.2LRSN                1
 GAP=125        0.81       2.7     3.9  4.3  0.3504E+00  0.1698E+01  0.1096E+01E
 Epicentro: LOS SANTOS - SANTANDER                                             3
 ACTION:UPD 16-11-09 19:18 OP:rebc STATUS:               ID:20161009231908 L   I
 OLDACT:UP  16-10-10 05:13 OP:edw  STATUS:               ID:20161009231743     3
 OLDACT:REG 16-10-10 03:31 OP:edw  STATUS:               ID:20161009231743     3
 2016-10-09-2318-00M.COL___360                                                 6
 STAT SP IPHASW D HRMM SECON CODA AMPLIT PERI AZIMU VELO AIN AR TRES W  DIS CAZ7
 BAR2 EZ IP     D 2319 28.85                             169    0.1910 26.9 206 
 BAR2 EZ ES       2319 44.49                             169    0.1110 26.9 206 
 BAR2 EZ I        2319 46.65        16.5 0.13            168           26.9 206 
 PAM  EZ EP   9 C 2319 31.61                             153    0.81 0 71.7  36 
 PAM  EN ES       2319 49.13                             154    0.1310 71.7  36 
 PAM  EZ I        2319 51.04        24.7 0.18            156           71.7  36 
 RUS  HZ EP       2319 32.73                             144    0.0310  102 180 
 RUS  HN ES       2319 51.77                             144    0.2010  102 180 
 RUS  HZ I        2319 54.88         7.7 0.17            146            102 180 
 PTB  HZ EP   9   2319 36.02                             131   -0.46 0  155 259 
 PTB  HN ES       2319 57.26                             131   -0.58 9  155 259 
 PTB  HZ I        2320  2.75        21.9 0.22            130            155 259 
 OCA  HZ EP       2319 37.07                             130   -0.02 9  160 350 
 OCA  HN ES       2319 59.19                             130   -0.20 9  160 350 
 OCA  HZ I        2320  7.31        23.0 0.34            131            160 350 
 SPBC HZ EP       2319 37.83                             129   -0.02 9  169 221 
 SPBC HN ES       2320  0.68                             129   -0.05 9  169 221 
 SPBC HZ I        2320  5.70        28.9 0.12            129            169 221 
 ZAR  HZ EP   4   2319 43.27                             122    1.39 0  211 291 
 ZAR  HN ES       2320  7.54                             122   -0.36 8  211 291 
 ZAR  HZ I        2320 13.32        17.2 0.14            122            211 291 
 NOR  HZ EP       2319 45.11                             118   -0.09 8  242 235 
 NOR  HN ES   4   2320 13.07                             118   -0.75 0  242 235 
 NOR  HZ I        2320 16.71        11.4 0.22            119            242 235 
 CHI  HZ EP       2319 46.94                             117    0.16 8  252 197 
 CHI  HN ES       2320 16.14                             117   -0.48 8  252 197 
 CHI  HZ I        2320 20.33         6.0 0.40            119            252 197 
 ROSC BZ EP   4   2319 49.23                             117    1.84 0  258 212 
 ROSC BN ES   4   2320 21.97                             117    4.26 0  258 212 
 ROSC BZ I        2320 25.13        14.9 0.50            118            258 212 
 HEL  HZ EP   4   2319 51.16                             115    1.40 0  280 256 
 HEL  HN ES       2320 21.99                             115    0.05 7  280 256 
 HEL  HZ I        2320 27.59         7.3 0.38            115            280 256 
 PTGC HZ EP       2319 51.72                             112   -0.65 7  307 160 
 PTGC HN ES   4   2320 24.60                             112   -1.98 0  307 160 
 GUY2CHZ EP       2319 54.17                             112    1.09 7  308 235 
 GUY2CHN ES   4   2320 32.31                             112    4.47 0  308 235 
 GUY2CHZ I        2320 35.76        10.1 0.72                           308 235 
 ELA  HZ EP   4   2319 59.01                             110    2.73 0  336 230 
 ELA  HN ES   4   2320 37.25                             110    3.71 0  336 230 
 ELA  HZ I        2320 40.70         8.3 0.38            111            336 230 
 SJC  HZ EP   4   2320  3.17                             106   -1.39 0  412 326 
 SJC  HN ES   4   2320 44.02                             106   -4.26 0  412 326 
 SJC  HZ I        2320 54.62         2.1 0.46            107            412 326 
 CRJC HN ES   4   2320 58.21                             104   -1.38 0  466   3 
 URI  HZ EP   4   2320 19.29                             101   -1.96 0  554  12 
 URI  HN ES   4   2321 14.63                             101   -3.35 0  554  12 
                                                                                
