 2014  7 9 2126 13.8 L   6.810 -73.072147.6  RSN  9 0.4 1.8LRSN                1
 GAP=207        0.99       3.8     5.2  6.4  0.3688E+01  0.7250E+01  0.7289E+00E
 Epicentro: LOS SANTOS - SANTANDER                                             3
 ACTION:UPD 15-03-16 20:42 OP:nd   STATUS:               ID:20140709212613 L   I
 OLDACT:REG 14-07-10 03:21 OP:spq  STATUS:               ID:20140709211814     3
 2014-07-09-2118-14M.COL___262                                                 6
 STAT SP IPHASW D HRMM SECON CODA AMPLIT PERI AZIMU VELO AIN AR TRES W  DIS CAZ7
 BAR2 SZ EP       2126 33.97                             169    0.2010 27.0 207 
 BAR2 SZ ES   1   2126 49.35                             169    0.03 7 27.0 207 
 BAR2 SZ I        2126 50.71        11.9 0.13            170           27.0 207 
 BRR  HE ES       2126 53.25                             151    0.7110 78.0 295 
 BRR  HZ I        2127  0.39        10.9 0.28            149           78.0 295 
 RUS  HZ EP       2126 38.05                             144    0.2110  101 181 
 RUS  HN ES       2126 55.88                             144   -0.6710  101 181 
 PTB  HZ EP       2126 41.31                             131   -0.40 9  156 259 
 PTB  HN ES       2127  3.33                             131   -0.11 9  156 259 
 PTB  HZ I        2127  4.63         5.0 0.25            132            156 259 
 SPBC HZ EP       2126 42.95                             128   -0.11 9  169 221 
 SPBC HN ES       2127  6.05                             128    0.21 9  169 221 
 SPBC HZ I        2127  9.50         8.8 0.22            131            169 221 
 ZAR  HZ EP       2126 46.68                             122   -0.47 8  211 291 
 ZAR  HN ES       2127 12.52                             122   -0.60 8  211 291 
 ZAR  HZ I        2127 18.37         4.5 0.36            123            211 291 
 NOR  HZ EP       2126 50.74                             118    0.28 8  242 235 
 NOR  HN ES       2127 19.09                             118    0.07 8  242 235 
 NOR  HZ I        2127 23.72         3.5 0.34            120            242 235 
 SML  HN ES       2127 19.72                             118    0.01 8  246 333 
 SML  HZ I        2127 25.69         8.9 0.07            119            246 333 
 GUY2CHZ EP       2126 59.25                             112    0.89 7  308 235 
 GUY2CHN ES       2127 33.01                             112   -0.07 7  308 235 
 GUY2CHZ I        2127 44.92         2.3 0.56                           308 235 
                                                                                
