 2011  9 9 2302 48.7 L   6.755 -73.105146.8  RSN  7 0.4 2.8LRSN                1
 GAP=144        0.77       4.8     5.9  6.6 -0.1098E+02  0.6887E+01  0.4252E+01E
 Epicentro: LOS SANTOS - SANTANDER                                             3
 ACTION:UPD 12-07-13 15:56 OP:ep   STATUS:               ID:20110909230248 L   I
 2011-09-09-2259-21S.COL___170                                                 6
 STAT SP IPHASW D HRMM SECON CODA AMPLIT PERI AZIMU VELO AIN AR TRES W  DIS CAZ7
 BAR2 SZ EP   1   23 3  8.42                             172    0.04 7 19.9 205 
 BAR2 SZ ES   1   23 3 23.61                             172   -0.13 7 19.9 205 
 BAR2 SZ I        23 3 25.10       155.8 0.35                          19.9 205 
 BRR  HZ EP       23 3 10.34                             151    0.0210 77.6 300 
 BRR  HE ES   1   23 3 27.82                             151    0.63 7 77.6 300 
 BRR  HZ I        23 3 29.95       164.6 0.16                          77.6 300 
 PAM  SZ EP       23 3 11.20                             151    0.1210 78.6  35 
 PAM  SE ES   1   23 3 28.48                             151   -0.08 7 78.6  35 
 RUS  HZ EP   1   23 3 12.21                             145    0.04 7 95.4 179 
 RUS  HZ I        23 3 32.31        46.3 0.36                          95.4 179 
 OCA  SZ EP   1   23 3 17.15                             129   -0.45 7  166 352 
 OCA  SZ ES   1   23 3 39.74                             129   -0.41 7  166 352 
 OCA  SZ I        23 3 43.76        97.1 0.40                           166 352 
 NOR  SZ EP   1   23 3 24.86                             119    0.29 6  236 236 
 NOR  SN ES   1   23 3 51.60                             119   -0.96 6  236 236 
 HEL  HZ EP   1   23 3 29.99                             115    0.68 6  275 257 
                                                                                
