 2014 11 9 2333 58.2 L   6.780 -73.126149.0  RSN 13 0.3 1.9LRSN                1
 GAP=140        0.77       2.9     3.6  4.7 -0.3003E+01  0.2125E+01  0.3970E+01E
 Epicentro: LOS SANTOS - SANTANDER                                             3
 ACTION:UPD 14-12-19 15:41 OP:nd   STATUS:               ID:20141109233358 L   I
 OLDACT:UP  14-11-10 06:18 OP:spq  STATUS:               ID:20141109232748     3
 OLDACT:REG 14-11-10 02:33 OP:spq  STATUS:               ID:20141109232748     3
 2014-11-09-2327-48M.COL___295                                                 6
 STAT SP IPHASW D HRMM SECON CODA AMPLIT PERI AZIMU VELO AIN AR TRES W  DIS CAZ7
 BAR2 SZ EP       2334 18.10                             171   -0.1110 21.7 197 
 BAR2 SZ ES   1   2334 33.31                             171   -0.49 7 21.7 197 
 BAR2 SZ I        2334 34.28        18.1 0.34            169           21.7 197 
 BRR  HZ EP       2334 20.03                             152    0.1410 74.1 299 
 BRR  HN ES       2334 37.45                             152    0.6610 74.1 299 
 BRR  HZ I        2334 41.27         8.6 0.16            151           74.1 299 
 PAM  SZ EP       2334 20.87                             151    0.0610 77.8  37 
 PAM  SE ES       2334 38.19                             151   -0.2310 77.8  37 
 PAM  SZ I        2334 40.27        14.0 0.56            154           77.8  37 
 RUS  HZ EP       2334 22.05                             145   -0.0810 98.2 177 
 RUS  HE ES       2334 40.86                             145    0.0810 98.2 177 
 RUS  HZ I        2334 43.55         6.8 0.43            146           98.2 177 
 PTB  HZ EP       2334 24.83                             132   -0.78 9  149 260 
 PTB  HE ES       2334 46.63                             132   -0.34 9  149 260 
 PTB  HZ I        2334 48.46         8.5 0.14            132            149 260 
 OCA  HN ES   1   2334 49.77                             130    0.30 7  163 352 
 OCA  HZ I        2334 53.03        16.3 0.20            131            163 352 
 SPBC HZ EP       2334 27.12                             130    0.18 9  163 220 
 SPBC HN ES       2334 49.42                             130    0.08 9  163 220 
 SPBC HZ I        2334 54.13        12.6 0.22            130            163 220 
 NOR  HZ EP   1   2334 34.02                             119   -0.17 6  235 235 
 NOR  HE ES       2335  2.23                             119   -0.02 8  235 235 
 NOR  HZ I        2335  6.48         5.1 0.17            119            235 235 
 CHI  HZ EP       2334 36.31                             118    0.38 8  247 196 
 CHI  HN ES   1   2335  5.55                             118    0.20 6  247 196 
 CHI  HZ I        2335 10.97         3.0 0.34            119            247 196 
 GUY2CHZ EP   1   2334 41.87                             113   -0.16 5  302 235 
 GUY2CHE ES   4   2335 18.52                             113    2.31 0  302 235 
 GUY2CHZ I        2335 23.48         3.7 0.28                           302 235 
 TOL  SZ EP   4   2334 47.81                             110    1.21 0  343 225 
 TOL  SE ES   4   2335 25.91                             110    1.57 0  343 225 
 TOL  SZ I        2335 32.74         6.6 0.36            110            343 225 
 MON  HN ES   4   2335 24.23                             109   -2.06 0  357 308 
 MON  HZ I        2335 29.81         1.2 0.30            109            357 308 
 PRA  HZ EP       2334 52.15                             107    0.40 6  391 210 
 PRA  HN ES   1   2335 33.71                             107    0.20 4  391 210 
 PRA  HZ I        2335 38.31         2.4 0.62            108            391 210 
 SJC  HZ EP   4   2334 52.30                             106   -1.94 0  412 327 
                                                                                
