 2010 12 9 2356 16.4 L   6.807 -73.170137.0  RSN  8 0.3 2.1LRSN                1
 GAP=156        0.71       4.1     8.5  6.8 -0.1909E+02  0.2928E+02 -0.9041E+01E
 Epicentro: LOS SANTOS - SANTANDER                                             3
 ACTION:UP  11-01-14 15:23 OP:pat  STATUS:               ID:20101209235616 L   I
 2010-12-09-2354-37S.COL___135                                                 6
 STAT SP IPHASW D HRMM SECON CODA AMPLIT PERI AZIMU VELO SNR AR TRES W  DIS CAZ7
 BAR2 SZ EP       2356 34.96                             170     0.010   24 184 
 BAR2 SZ I        2356 35.36        27.5 0.18                            24 184 
 BAR2 SZ ES   1   2356 49.32                             170    -0.2 7   24 184 
 GIR2 SZ EP   1   2356 34.88                             167    -0.1 7   30 355 
 RUS  HZ EP       2356 39.08                             142    -0.310  102 175 
 RUS  HE ES   1   2356 57.37                             142     0.1 7  102 175 
 RUS  HZ I        2356 59.22        17.1 0.25                           102 175 
 GRA  SZ EP       2356 41.47                             135     0.610  126  19 
 GRA  SZ I        2357  2.26        19.6 0.35                           126  19 
 OCA  SZ EP   1   2356 43.53                             127    -0.4 7  159 354 
 OCA  SZ I        2357  7.93        21.9 0.16                           159 354 
 NOR  SZ EP       2356 51.41                             117    -0.1 8  233 234 
 NOR  SE ES   2   2357 19.28                             117     0.5 4  233 234 
 CHI  HZ EP   1   2356 53.66                             115     0.0 6  249 195 
 CHI  HE ES   2   2357 23.16                             115     0.5 4  249 195 
 CHI  HZ I        2357 29.75         7.8 0.44                           249 195 
 PRA  HZ EP   1   2357  9.34                             105    -0.2 4  391 209 
 PRA  HE ES   1   2357 51.28                             105     0.3 4  391 209 
                                                                                
