 2014  8 9 2205 39.5 L   6.359 -73.614110.2  RSN 12 0.4 2.1LRSN                1
 GAP= 82        1.03       3.1     3.2  5.9 -0.1225E+01  0.6423E+01 -0.1600E+01E
 Epicentro: SANTA HELENA DEL OPON - SANTANDER                                  3
 ACTION:UPD 14-09-15 21:48 OP:nd   STATUS:               ID:20140809220539 L   I
 OLDACT:UP  14-08-10 04:13 OP:mh   STATUS:               ID:20140809215812     3
 OLDACT:REG 14-08-10 03:22 OP:mh   STATUS:               ID:20140809215812     3
 2014-08-09-2158-12M.COL___266                                                 6
 STAT SP IPHASW D HRMM SECON CODA AMPLIT PERI AZIMU VELO AIN AR TRES W  DIS CAZ7
 BAR2 SZ EP       22 5 56.51                             152    0.2710 54.3  62 
 BAR2 SZ ES       22 6  9.67                             152    0.4110 54.3  62 
 RUS  HZ EP       22 5 57.88                             142   -0.3110 78.2 131 
 RUS  HN ES       22 6 12.80                             142    0.0710 78.2 131 
 BRR  HZ EP       22 5 57.46                             140   -0.4410 83.4 353 
 BRR  HN ES       22 6 12.70                             140    0.4910 83.4 353 
 BRR  HZ I        22 6 20.70        23.6 0.22            136           83.4 353 
 SPBC HZ EP       22 5 58.73                             137   -0.0910 93.2 213 
 SPBC HN ES       22 6 14.08                             137    0.2310 93.2 213 
 SPBC HZ I        22 6 16.16        26.5 0.09            138           93.2 213 
 PTB  HZ EP       22 5 58.38                             136   -0.5110 95.3 282 
 PTB  HN ES       22 6 12.99                             136   -0.9910 95.3 282 
 PTB  HZ I        22 6 13.79        27.1 0.32            133           95.3 282 
 PAM  SZ EP   1   22 6  4.55                             122    0.00 7  148  43 
 PAM  SN ES   1   22 6 23.56                             122   -0.49 7  148  43 
 PAM  SZ I        22 6 29.49         9.7 0.17            122            148  43 
 NOR  HZ EP   1   22 6  5.77                             119    0.09 7  164 238 
 NOR  HN ES   1   22 6 25.62                             119   -0.45 7  164 238 
 NOR  HZ I        22 6 31.32        23.7 0.18            119            164 238 
 ZAR  HZ EP       22 6  7.82                             116   -0.14 9  186 312 
 ZAR  HN ES       22 6 30.60                             116    0.49 9  186 312 
 ZAR  HZ I        22 6 35.44        15.7 0.35            114            186 312 
 HEL  HZ EP   1   22 6 12.18                             112    0.79 6  213 265 
 HEL  HN ES   1   22 6 36.78                             112    0.56 6  213 265 
 HEL  HZ I        22 6 42.81         7.3 0.40            112            213 265 
 GUY2CHZ EP       22 6 14.13                             110    0.53 8  231 237 
 GUY2CHN ES   4   22 6 42.02                             110    1.86 0  231 237 
 GUY2CHZ I        22 6 46.58         9.2 0.32                           231 237 
 TOL  SZ EP   1   22 6 18.44                             106    0.22 6  272 224 
 TOL  SN ES   4   22 6 48.42                             106    0.04 0  272 224 
 TOL  SZ I        22 6 55.33        13.6 0.34            107            272 224 
 SML  HZ EP       22 6 18.03                             106   -0.03 8  275 349 
 SML  HN ES   2   22 6 48.41                             106    0.31 4  275 349 
 SML  HZ I        22 7  0.46        10.2 0.06            105            275 349 
                                                                                
