 2017  9 9 2144 17.1 L   7.350 -73.534111.0  RSN  5 0.4 1.4LRSN                1
 GAP=174        0.95       5.6     3.9  8.8  0.5729E+01 -0.9042E+00 -0.1848E+01E
 Epicentro: SABANA DE TORRES - SANTANDER                                       3
 ACTION:UPD 17-10-05 19:10 OP:rebc STATUS:               ID:20170909214417 L   I
 OLDACT:UP  17-09-10 05:23 OP:edw  STATUS:               ID:20170909213744     3
 OLDACT:REG 17-09-10 03:38 OP:edw  STATUS:               ID:20170909213744     3
 2017-09-09-2138-00M.COL___413                                                 6
 STAT SP IPHASW D HRMM SECON CODA AMPLIT PERI AZIMU VELO AIN AR TRES W  DIS CAZ7
 BRR  HZ EP       2144 33.18                             162    0.7010 33.3 216 
 BRR  HN ES       2144 44.51                             162   -0.0110 33.3 216 
 PAM  EZ EP       2144 36.56                             138   -0.3010 92.2  91 
 PAM  EN ES       2144 52.18                             138   -0.1310 92.2  91 
 PAM  EZ I        2144 54.28         2.8 0.18            143           92.2  91 
 BAR2 EZ EP       2144 36.88                             137    0.3510 92.4 155 
 BAR2 EZ ES       2144 51.81                             137    0.0910 92.4 155 
 BAR2 EZ I        2144 59.88        12.2 0.62            141           92.4 155 
 ZAR  HN ES       2144 59.91                             123   -0.39 9  147 276 
 ZAR  HZ I        2145  3.47         7.4 0.16            128            147 276 
 RUS  HZ EP   4   2144 45.83                             119    1.58 0  169 163 
 RUS  HN ES       2145  5.03                             119   -0.44 9  169 163 
 RUS  HZ I        2145  5.41         1.9 0.38            123            169 163 
                                                                                
