 2017  6 9 2145 28.5 L   6.811 -73.124147.6  RSN  7 0.4 1.7LRSN                1
 GAP=241        0.79       3.7     5.0  6.6  0.5870E+01  0.7768E+00  0.3584E+01E
 Epicentro: LOS SANTOS - SANTANDER                                             3
 ACTION:UPD 17-09-14 16:51 OP:jn   STATUS:               ID:20170609214528 L   I
 OLDACT:UP  17-06-10 03:30 OP:and  STATUS:               ID:20170609213725     3
 OLDACT:UP  17-06-10 03:30 OP:and  STATUS:               ID:20170609213725     3
 OLDACT:UP  17-06-10 03:29 OP:and  STATUS:               ID:20170609213725     3
 OLDACT:UP  17-06-10 03:28 OP:and  STATUS:               ID:20170609213725     3
 OLDACT:REG 17-06-10 02:39 OP:and  STATUS:               ID:20170609213725     3
 2017-06-09-2138-00M.COL___362                                                 6
 STAT SP IPHASW D HRMM SECON CODA AMPLIT PERI AZIMU VELO AIN AR TRES W  DIS CAZ7
 BRR  HZ EP       2145 50.15                             152    0.2010 72.8 297 
 BRR  HN ES       2146  6.92                             152    0.2410 72.8 297 
 RUS  HZ EP       2145 52.25                             144   -0.2810  102 177 
 RUS  HN ES       2146 11.34                             144    0.0810  102 177 
 RUS  HZ I        2146 12.47         8.6 0.44            143            102 177 
 PTB  HZ EP   9   2145 54.97                             132   -0.90 0  150 259 
 PTB  HN ES   1   2146 16.23                             132   -0.08 7  150 259 
 PTB  HZ I        2146 17.99         3.4 0.16            130            150 259 
 SPBC HN ES       2146 19.59                             129   -0.33 9  166 219 
 SPBC HZ I        2146 20.68         7.4 0.07            128            166 219 
 ZAR  HN ES       2146 26.23                             123   -0.58 8  206 292 
 ZAR  HZ I        2146 31.45         5.2 0.14            121            206 292 
 NOR  HZ EP       2146  4.98                             119    0.34 8  237 235 
 NOR  HN ES       2146 33.39                             119    0.57 8  237 235 
 NOR  HZ I        2146 34.72         2.7 0.18            118            237 235 
 CHI  HZ EP   2   2146  6.93                             117    0.42 4  250 196 
 CHI  HN ES       2146 35.80                             117   -0.35 8  250 196 
 CHI  HZ I        2146 39.18         3.6 0.58            117            250 196 
                                                                                
