 2010 10 9 2013  4.7 L   6.601 -73.513108.6  RSN  5 0.3 1.8LRSN                1
 GAP=141        0.69       5.4     6.0  6.8 -0.1000E+02  0.6222E+01 -0.2149E+01E
 Epicentro: EL CARMEN DE CHUCURI - SANTANDER                                   3
 ACTION:UP  11-02-18 11:08 OP:tino STATUS:               ID:20101009201304 L   I
 2010-10-09-2009-56S.COL___121                                                 6
 STAT SP IPHASW D HRMM SECON CODA AMPLIT PERI AZIMU VELO SNR AR TRES W  DIS CAZ7
 BAR2 SZ EP       2013 20.37                             160     0.010   36  92 
 BAR2 SZ ES   1   2013 32.44                             160    -0.1 7   36  92 
 BAR2 SZ I        2013 33.81        21.1 0.49                            36  92 
 BTL  SZ EP       2013 20.91                             156     0.210   44  38 
 BRR  HZ EP       2013 20.98                             149    -0.310   60 339 
 BRR  HE ES   1   2013 34.22                             149     0.0 7   60 339 
 BRR  HZ I        2013 35.78        15.0 0.20                            60 339 
 GUE  SZ EP       2013 29.92                             121     0.3 9  151  26 
 GUE  SZ ES   2   2013 49.01                             121    -0.1 5  151  26 
 NOR  SZ EP   2   2013 32.64                             115    -0.8 4  189 233 
 NOR  SN ES   2   2013 56.73                             115     0.9 4  189 233 
                                                                                
