 2012  8 9 2150 19.7 L   6.802 -73.159146.6  RSN 14 0.5 2.7LRSN                1
 GAP= 70        0.93       3.5     4.0  5.9 -0.3394E+01  0.2284E+01  0.4538E+01E
 Epicentro: LOS SANTOS - SANTANDER                                             3
 ACTION:UPD 12-09-10 11:55 OP:ep   STATUS:               ID:20120809215019 L   I
 2012-08-09-2150-00M.COL___218                                                 6
 STAT SP IPHASW D HRMM SECON CODA AMPLIT PERI AZIMU VELO AIN AR TRES W  DIS CAZ7
 BAR2 SZ IP       2150 39.46                             171    0.0710 23.3 186 
 BAR2 SZ ES   1   2150 54.18                             171   -0.60 7 23.3 186 
 BAR2 SZ I        2150 56.03       194.0 0.14                          23.3 186 
 GIR2 SZ EP       2150 39.50                             168    0.0810 30.9 353 
 BRR  HZ IP     D 2150 41.39                             153    0.5710 69.8 299 
 BRR  HN ES   1   2150 58.47                             153    1.14 7 69.8 299 
 BRR  HZ I        2151  2.45        83.4 0.32                          69.8 299 
 PAM  SZ IP       2150 42.44                             151    0.4310 78.1  40 
 PAM  SE ES   1   2150 59.42                             151   -0.02 7 78.1  40 
 PAM  SZ I        2151  1.80        90.7 0.52                          78.1  40 
 RUS  HZ IP     D 2150 43.37                             144   -0.1510  101 175 
 RUS  HN ES   1   2151  2.10                             144   -0.02 7  101 175 
 RUS  HZ I        2151  4.69        44.9 0.46                           101 175 
 PTB  HZ EP       2150 46.09                             133   -0.48 9  146 259 
 PTB  HN ES   1   2151  7.19                             133   -0.37 7  146 259 
 PTB  HZ I        2151 10.53        23.9 0.20                           146 259 
 TAM  HZ EP       2150 47.62                             130    0.08 9  157 105 
 TAM  HZ I        2150 47.84        80.7 0.34                           157 105 
 OCA  HZ EP       2150 47.67                             130   -0.33 9  160 354 
 OCA  HN ES   1   2151  9.09                             130   -1.02 7  160 354 
 OCA  HZ I        2151 14.39       119.5 0.50                           160 354 
 ZAR  HZ EP   2   2150 52.23                             123    0.21 4  203 292 
 ZAR  HZ I        2151 19.95        28.5 0.18                           203 292 
 NOR  SZ EP       2150 55.27                             119   -0.06 8  234 234 
 NOR  SN ES   1   2151 22.66                             119   -0.49 6  234 234 
 NOR  SZ I        2151 30.74        33.7 0.18                           234 234 
 CHI  HZ EP       2150 57.47                             117    0.08 8  248 195 
 CHI  HN ES   1   2151 26.55                             117   -0.26 6  248 195 
 CHI  HZ I        2151 35.12        19.4 0.40                           248 195 
 HEL  HZ EP   2   2151  0.75                             115    0.98 4  271 256 
 HEL  HN ES   1   2151 31.02                             115   -0.03 6  271 256 
 HEL  HZ I        2151 38.56        17.7 0.26                           271 256 
 GUY  SE ES   2   2151 38.34                             112    0.73 4  302 235 
 GUY  SZ I        2151 45.66        75.4 0.40                           302 235 
 PRA  HZ EP       2151 12.86                             107   -0.29 6  391 209 
 PRA  HN ES   1   2151 55.46                             107    0.59 4  391 209 
 PRA  HZ I        2152  1.12        29.7 0.28                           391 209 
                                                                                
