 2016  9 9 2239 39.5 L   6.787 -73.107143.0  RSN  9 0.3 2.1LRSN                1
 GAP=142        0.83       3.4     3.8  5.5  0.1088E+01  0.7034E+01  0.2059E+01E
 Epicentro: LOS SANTOS - SANTANDER                                             3
 ACTION:UPD 17-08-17 21:08 OP:lp   STATUS:               ID:20160909223939 L   I
 OLDACT:UP  16-09-10 03:34 OP:drio STATUS:               ID:20160909223735     3
 OLDACT:UP  16-09-10 03:34 OP:drio STATUS:               ID:20160909223735     3
 OLDACT:UP  16-09-10 03:33 OP:drio STATUS:               ID:20160909223735     3
 OLDACT:REG 16-09-10 02:59 OP:drio STATUS:               ID:20160909223735     3
 2016-09-09-2238-00M.COL___348                                                 6
 STAT SP IPHASW D HRMM SECON CODA AMPLIT PERI AZIMU VELO AIN AR TRES W  DIS CAZ7
 BAR2 EZ EP       2239 58.59                             170   -0.2410 23.1 201 
 BAR2 EZ ES       2240 13.89                             170    0.0110 23.1 201 
 BAR2 EZ I        2240 14.57        22.7 0.28            168           23.1 201 
 BRR  HZ EP     C 2240  0.43                             151   -0.2110 75.6 298 
 BRR  HE ES       2240 17.51                             151    0.4010 75.6 298 
 BRR  HZ I        2240 21.44        22.7 0.12            149           75.6 298 
 PAM  EZ EP       2240  1.51                             151    0.1410 75.9  36 
 PAM  EE ES       2240 18.23                             151   -0.1610 75.9  36 
 PAM  EZ I        2240 19.00        19.4 0.22            155           75.9  36 
 RUS  HZ EP       2240  2.80                             144   -0.1010 99.0 178 
 RUS  HE ES       2240 21.50                             144    0.3810 99.0 178 
 RUS  HZ I        2240 22.82        11.1 0.28            146           99.0 178 
 PTB  HZ EP   4   2240  5.33                             131   -1.31 0  152 260 
 PTB  HE ES   4   2240 26.45                             131   -1.33 0  152 260 
 PTB  HZ I        2240 32.97        14.0 0.30            130            152 260 
 SPBC HZ EP       2240  7.75                             128   -0.23 9  165 220 
 SPBC HE ES       2240 29.76                             128   -0.41 9  165 220 
 SPBC HZ I        2240 33.56        17.1 0.16            129            165 220 
 ZAR  HZ EP   4   2240 11.17                             121   -1.10 0  209 292 
 ZAR  HE ES       2240 37.41                             121   -0.39 8  209 292 
 ZAR  HZ I        2240 42.26        30.0 0.36            122            209 292 
 URE  HZ EP   4   2240 22.69                             113    1.72 0  288 292 
 URE  HN ES       2240 53.56                             113    0.26 7  288 292 
 GUY2CHZ EP       2240 24.20                             112    0.88 7  304 235 
 GUY2CHE ES   4   2240 58.99                             112    1.52 0  304 235 
 GUY2CHZ I        2241  6.34         6.7 0.32                           304 235 
                                                                                
