 2012 12 9 2202 43.4 L   6.779 -73.158141.9  RSN 10 0.3 2.5LRSN                1
 GAP= 71        0.66       2.6     2.5  3.7 -0.1063E+00  0.2074E+01  0.2326E+01E
 Epicentro: LOS SANTOS - SANTANDER                                             3
 ACTION:UPD 13-01-04 14:26 OP:ep   STATUS:               ID:20121209220243 L   I
 2012-12-09-2200-00M.COL___243                                                 6
 STAT SP IPHASW D HRMM SECON CODA AMPLIT PERI AZIMU VELO AIN AR TRES W  DIS CAZ7
 BAR2 SZ IP       22 3  2.56                             171    0.0210 20.8 187 
 BAR2 SZ ES       22 3 17.18                             171   -0.2710 20.8 187 
 BAR2 SZ I        22 3 18.69       105.3 0.23                          20.8 187 
 GIR2 SZ IP       22 3  2.68                             166   -0.0210 33.4 353 
 GIR2 SZ ES       22 3 18.15                             166    0.4210 33.4 353 
 PAM  SZ EP       22 3  5.46                             149    0.0610 80.1  39 
 PAM  SZ I        22 3  5.82        71.7 0.25                          80.1  39 
 PAM  SN ES       22 3 22.36                             149   -0.1710 80.1  39 
 RUS  HZ EP       22 3  6.59                             144   -0.0510 98.3 175 
 RUS  HE ES       22 3 24.88                             144    0.1410 98.3 175 
 RUS  HE I        22 3 26.62        47.2 0.26                          98.3 175 
 PTB  HZ EP       22 3  9.42                             131   -0.50 9  146 260 
 PTB  HN ES       22 3 30.10                             131   -0.48 9  146 260 
 PTB  HZ I        22 3 33.21        30.1 0.09                           146 260 
 TAM  HZ EP       22 3 10.85                             129   -0.02 9  156 104 
 ZAR  HZ EP   1   22 3 15.46                             121   -0.12 6  204 293 
 ZAR  HE ES       22 3 41.19                             121    0.52 9  204 293 
 ZAR  HZ I        22 3 47.34        32.1 0.38                           204 293 
 CHI  HZ EP       22 3 20.87                             117    0.24 8  246 195 
 CHI  HN ES       22 3 49.85                             117    0.21 8  246 195 
 HEL  HZ EP   1   22 3 23.27                             114    0.04 6  270 256 
 HEL  HN ES   1   22 3 54.46                             114    0.18 6  270 256 
 HEL  HZ I        22 4  1.75        16.4 0.29                           270 256 
 PRA  HZ EP       22 3 36.64                             106    0.14 6  389 210 
 PRA  HZ I        22 4 24.57        11.1 0.40                           389 210 
                                                                                
