 2011  8 9 2104  4.0 L   6.839 -73.101143.5  RSN  8 0.3 2.4LRSN                1
 GAP=140        0.46       2.6     5.1  5.4 -0.1882E+01  0.4152E+01 -0.1338E+01E
 Epicentro: LOS SANTOS - SANTANDER                                             3
 ACTION:UPD 12-07-25 14:07 OP:epov STATUS:               ID:20110809210404 L   I
 2011-08-09-2101-12S.COL___150                                                 6
 STAT SP IPHASW D HRMM SECON CODA AMPLIT PERI AZIMU VELO AIN AR TRES W  DIS CAZ7
 BAR2 SZ EP   1   21 4 23.50                             168   -0.03 7 28.8 198 
 BAR2 SZ ES   2   21 4 38.31                             168   -0.42 5 28.8 198 
 BAR2 SZ I        21 4 39.41        64.8 0.24                          28.8 198 
 PAM  SZ EP   2   21 4 26.12                             152    0.48 5 70.9  39 
 PAM  SN ES   2   21 4 42.95                             152    0.46 5 70.9  39 
 BRR  HZ IP     C 21 4 25.24                             151    0.1410 73.7 294 
 BRR  HZ I        21 4 25.51       102.7 0.17                          73.7 294 
 BRR  HE ES   2   21 4 41.64                             151    0.12 5 73.7 294 
 RUS  HZ EP   1   21 4 27.60                             142   -0.28 7  105 179 
 RUS  HN ES   2   21 4 46.27                             142   -0.20 5  105 179 
 RUS  HZ I        21 4 47.76        23.0 0.25                           105 179 
 OCA  SZ EP   2   21 4 31.97                             130    0.13 5  157 351 
 OCA  SZ ES   2   21 4 53.08                             130   -0.44 5  157 351 
 OCA  SZ I        21 4 57.60        41.0 0.35                           157 351 
 NOR  SE ES   2   21 5  8.67                             117    0.00 4  241 234 
 CHI  HE ES   2   21 5 12.41                             116    0.41 4  254 196 
 CHI  HZ I        21 5 22.66         9.5 0.65                           254 196 
 COD  HZ EP   2   21 4 51.42                             109   -0.47 3  344 354 
 COD  HN ES   2   21 5 28.97                             109   -0.24 3  344 354 
 COD  HZ I        21 5 40.56        13.8 0.31                           344 354 
                                                                                
