 2016 11 9 2154 13.5 L   6.766 -73.151134.0  RSN  5 0.4 1.7LRSN                1
 GAP=152        0.72       6.4     3.5  9.7 -0.3004E+01  0.4953E+01  0.3726E+02E
 Epicentro: LOS SANTOS - SANTANDER                                             3
 ACTION:UPD 17-10-26 21:06 OP:lp   STATUS:               ID:20161109215413 L   I
 OLDACT:UP  16-11-10 06:48 OP:dani STATUS:               ID:20161109214747d    3
 OLDACT:UP  16-11-10 06:47 OP:dani STATUS:               ID:20161109214747d    3
 OLDACT:DUP 16-11-10 06:45 OP:dani STATUS:               ID:20161109214747d    3
 OLDACT:UP  16-11-10 06:45 OP:dani STATUS:               ID:20161109214746     3
 OLDACT:UP  16-11-10 06:45 OP:dani STATUS:               ID:20161109214746     3
 OLDACT:UP  16-11-10 06:43 OP:dani STATUS:               ID:20161109214746     3
 OLDACT:UP  16-11-10 06:43 OP:dani STATUS:               ID:20161109214746     3
 OLDACT:UP  16-11-10 06:43 OP:dani STATUS:               ID:20161109214746     3
 OLDACT:UP  16-11-10 06:42 OP:dani STATUS:               ID:20161109214746     3
 OLDACT:REG 16-11-10 05:19 OP:dani STATUS:               ID:20161109214746     3
 2016-11-09-2148-00M.COL___349                                                 6
 STAT SP IPHASW D HRMM SECON CODA AMPLIT PERI AZIMU VELO AIN AR TRES W  DIS CAZ7
 BAR2 EZ EP       2154 31.76                             171    0.1410 19.5 190 
 BAR2 EZ I        2154 50.18        13.9 0.44            167           19.5 190 
 PAM  EZ EP       2154 34.58                             149   -0.0910 80.7  38 
 PAM  EE ES       2154 51.29                             149    0.0910 80.7  38 
 PAM  EZ I        2154 54.43        14.8 0.63            150           80.7  38 
 PTB  HZ EP       2154 38.87                             130   -0.52 9  146 260 
 PTB  HN ES       2154 59.88                             130    0.28 9  146 260 
 PTB  HZ I        2155  1.18         3.8 0.18            132            146 260 
 ZAR  HZ EP   3   2154 47.36                             121    2.08 2  205 293 
 ZAR  HN ES       2155 10.04                             121   -0.04 9  205 293 
 ZAR  HZ I        2155 16.45         4.0 0.37            123            205 293 
 CHI  HZ EP       2154 50.17                             116    0.04 8  245 195 
                                                                                
