 2017  1 9 2121 54.8 L   6.773 -73.157141.9  RSN  7 0.4 1.4LRSN                1
 GAP=136        0.97       4.7     4.1  6.9  0.7529E+00  0.4330E+01 -0.9645E+00E
 Epicentro: LOS SANTOS - SANTANDER                                             3
 ACTION:UPD 17-05-22 15:57 OP:jn   STATUS:               ID:20170109212154 L   I
 OLDACT:REG 17-01-10 03:54 OP:lv   STATUS:               ID:20170109211745     3
 2017-01-09-2118-00M.COL___369                                                 6
 STAT SP IPHASW D HRMM SECON CODA AMPLIT PERI AZIMU VELO AIN AR TRES W  DIS CAZ7
 BAR2 EZ EP       2122 13.68                             172   -0.2410 20.2 188 
 BAR2 EZ ES       2122 28.74                             172   -0.0810 20.2 188 
 BAR2 EZ I        2122 29.85         8.5 0.30            172           20.2 188 
 BRR  HZ EP       2122 15.63                             152    0.0610 71.6 301 
 BRR  HN ES       2122 32.02                             152    0.2510 71.6 301 
 BRR  HZ I        2122 34.24         7.2 0.32            150           71.6 301 
 PAM  EZ EP       2122 16.72                             149   -0.0910 80.5  39 
 PAM  EN ES       2122 33.77                             149   -0.2010 80.5  39 
 PAM  EZ I        2122 36.24         4.9 0.58            150           80.5  39 
 RUS  HZ EP       2122 18.41                             144    0.4310 97.7 175 
 RUS  HE ES       2122 36.36                             144    0.3110 97.7 175 
 RUS  HZ I        2122 37.16         2.2 0.24            147           97.7 175 
 PTB  HZ EP       2122 20.91                             131   -0.40 9  146 260 
 PTB  HN ES       2122 41.25                             131   -0.73 9  146 260 
 PTB  HZ I        2122 45.56         2.5 0.14            131            146 260 
 ZAR  HZ EP   4   2122 28.71                             121    1.70 0  204 293 
 ZAR  HE ES       2122 52.88                             121    0.75 9  204 293 
 ZAR  HZ I        2122 58.61         4.3 0.17            122            204 293 
 GUY2CHZ EP   9   2122 39.97                             112    2.03 0  298 235 
 GUY2CHN ES       2123 13.32                                   -0.29 7  298 235 
 GUY2CHZ  IAML    2123 20.95         1.1 0.32                           298 235 
                                                                                
