 2014 10 9 2117 28.5 L   6.803 -73.173142.7  RSN  6 0.3 1.6LRSN                1
 GAP=133        0.87       4.8     4.4  6.6 -0.2577E+01  0.2448E+01  0.3588E+01E
 Epicentro: LOS SANTOS - SANTANDER                                             3
 ACTION:UPD 14-11-29 23:48 OP:nd   STATUS:               ID:20141009211728 L   I
 OLDACT:REG 14-10-10 03:56 OP:cam  STATUS:               ID:20141009210815     3
 2014-10-09-2108-15M.COL___296                                                 6
 STAT SP IPHASW D HRMM SECON CODA AMPLIT PERI AZIMU VELO AIN AR TRES W  DIS CAZ7
 BAR2 SZ EP       2117 47.79                             170   -0.0110 23.3 183 
 BAR2 SZ ES       2118  2.14                             170   -0.6810 23.3 183 
 BAR2 SZ I        2118  4.36        24.2 0.22            171           23.3 183 
 BRR  HE ES       2118  5.75                             153    0.4310 68.5 300 
 PAM  SZ EP       2117 50.60                             150    0.0710 79.1  41 
 PAM  SN ES       2118  7.70                             150    0.0110 79.1  41 
 PAM  SN I        2118  9.97         7.2 0.52            151           79.1  41 
 RUS  HZ EP       2117 52.14                             143    0.1110  101 174 
 RUS  HN ES       2118 10.72                             143    0.3710  101 174 
 RUS  HZ I        2118 11.59         4.8 0.20            145            101 174 
 PTB  HZ EP       2117 54.61                             132   -0.38 9  145 258 
 PTB  HN ES       2118 15.66                             132    0.03 9  145 258 
 PTB  HZ I        2118 18.80         1.9 0.40            133            145 258 
 OCA  HN E      C 2114  0.26                                            160 354 
                                                                                
