 2015  8 9 2011 41.2 L   6.051 -74.020  1.2  RSN  4 0.2 1.1LRSN                1
 GAP=230        0.55       2.7     2.1  3.8  0.3389E+01 -0.2219E+01 -0.4465E+01E
 Epicentro: LA BELLEZA - SANTANDER                                             3
 ACTION:UPD 15-09-15 23:01 OP:cam  STATUS:               ID:20150809201141 L   I
 OLDACT:REG 15-08-10 04:13 OP:stll STATUS:               ID:20150809200748     3
 2015-08-09-2007-48M.COL___334                                                 6
 STAT SP IPHASW D HRMM SECON CODA AMPLIT PERI AZIMU VELO AIN AR TRES W  DIS CAZ7
 RUS  HZ EP       2011 58.68                              47    0.0410  105 100 
 RUS  HZ I        2011 58.90         2.1 0.24             47            105 100 
 RUS  HN ES       2012 12.39                              47    0.1510  105 100 
 BAR2 EZ EP       2011 58.82                              47   -0.3410  110  57 
 BAR2 EZ I        2011 59.09         6.9 0.34             47            110  57 
 BAR2 EZ ES       2012 13.00                              47   -0.1610  110  57 
 BRR  HZ EP       2012  0.94                              47    0.3010  122  16 
 BRR  HE ES       2012 15.93                              47    0.1410  122  16 
 ZAR  HZ EP       2012  9.95                              37   -0.03 9  184 330 
 ZAR  HN ES       2012 32.32                              37   -0.11 9  184 330 
 ZAR  HZ I        2012 34.98         2.6 0.42             37            184 330 
                                                                                
