 2014  2 9 2002 34.3 L   6.765 -73.182142.0  RSN  5 0.3 1.5LRSN                1
 GAP=134        0.83       4.4     4.2  6.1 -0.1617E+01  0.3161E+01  0.1057E+01E
 Epicentro: VILLANUEVA - SANTANDER                                             3
 ACTION:UPD 14-03-10 08:09 OP:ep   STATUS:               ID:20140209200234 L   I
 OLDACT:REG 14-02-09 23:27 OP:stll STATUS:               ID:20140209195819     3
 2014-02-09-1958-19M.COL___223                                                 6
 STAT SP IPHASW D HRMM SECON CODA AMPLIT PERI AZIMU VELO AIN AR TRES W  DIS CAZ7
 BAR2 SZ EP       20 2 53.54                             172    0.1610 19.1 180 
 BAR2 SZ I        20 2 54.02        11.1 0.14            172           19.1 180 
 BAR2 SZ ES       20 3  8.13                             172   -0.1410 19.1 180 
 BRR  HZ EP       20 2 55.28                             152    0.3410 69.7 303 
 BRR  HN ES       20 3 11.60                             152    0.5510 69.7 303 
 BRR  HZ I        20 3 17.09         6.4 0.52            149           69.7 303 
 PAM  SZ EP       20 2 56.40                             148   -0.0410 83.0  40 
 PAM  SN ES       20 3 13.32                             148   -0.4110 83.0  40 
 PAM  SZ I        20 3 13.90         4.4 0.26            151           83.0  40 
 RUS  HZ EP       20 2 57.46                             144    0.0510 97.0 174 
 RUS  HZ I        20 2 58.74         3.3 0.14            147           97.0 174 
 RUS  HN ES       20 3 15.56                             144    0.1210 97.0 174 
 PTB  HZ EP       20 3  0.32                             132   -0.20 9  143 260 
 PTB  HN ES       20 3 20.45                             132   -0.53 9  143 260 
 PTB  HZ I        20 3 26.17         5.5 0.14            131            143 260 
                                                                                
