 2014 12 9 2123 11.9 L   6.352 -73.588111.8  RSN 14 0.5 2.4LRSN                1
 GAP= 90        1.23       2.7     3.4  6.5 -0.2017E+01  0.5126E+01  0.1038E+01E
 Epicentro: SANTA HELENA DEL OPON - SANTANDER                                  3
 ACTION:UPD 15-02-10 17:02 OP:nd   STATUS:               ID:20141209212311 L   I
 OLDACT:REG 14-12-10 07:53 OP:carl STATUS:               ID:20141209211747     3
 2014-12-09-2117-47M.COL___312                                                 6
 STAT SP IPHASW D HRMM SECON CODA AMPLIT PERI AZIMU VELO AIN AR TRES W  DIS CAZ7
 RUS  HZ EP       2123 30.25                             144   -0.2010 75.5 132 
 RUS  HN ES       2123 44.43                             144   -0.5210 75.5 132 
 RUS  HZ I        2123 47.14        40.7 0.28            145           75.5 132 
 BRR  HN ES       2123 46.02                             140    1.0710 84.7 351 
 SPBC HZ EP       2123 31.25                             137   -0.0910 94.1 215 
 SPBC HE ES       2123 46.11                             137   -0.4310 94.1 215 
 SPBC HZ I        2123 49.09        67.2 0.10            137           94.1 215 
 PTB  HZ EP       2123 30.78                             135   -0.8110 98.3 282 
 PTB  HN ES       2123 47.29                             135    0.3110 98.3 282 
 PTB  HZ I        2123 48.27        69.9 0.16            135           98.3 282 
 PAM  SZ EP       2123 37.01                             123    0.19 9  147  42 
 PAM  SN ES       2123 56.90                             123    0.60 9  147  42 
 PAM  SZ I        2123 58.32        15.2 0.22            124            147  42 
 NOR  HZ EP       2123 38.37                             119    0.08 9  166 239 
 NOR  HE ES       2123 58.81                             119   -0.10 9  166 239 
 NOR  HZ I        2124  0.69        43.9 0.20            119            166 239 
 ZAR  HZ EP       2123 40.70                             116    0.06 9  189 312 
 ZAR  HN ES       2124  2.48                             116   -0.61 9  189 312 
 ZAR  HZ I        2124  8.78        42.4 0.34            116            189 312 
 CHI  HZ EP       2123 41.22                             116   -0.20 9  191 185 
 CHI  HN ES       2124  4.31                             116   -0.17 9  191 185 
 CHI  HZ I        2124  8.54         9.7 0.32            116            191 185 
 HEL  HZ EP       2123 44.64                             112    0.56 8  215 265 
 HEL  HN ES       2124  8.89                             112   -0.33 8  215 265 
 HEL  HZ I        2124 14.27        13.8 0.30            113            215 265 
 GUY2CHZ EP       2123 46.13                             111   -0.06 8  233 238 
 GUY2CHN ES       2124 13.39                             111    0.41 8  233 238 
 RREF HZ EP       2123 48.33                             109   -0.30 8  252 231 
 RREF HN ES       2124 17.13                             109   -0.18 8  252 231 
 RREF HZ I        2124 23.08        18.5 0.24            109            252 231 
 TOL  SZ EP       2123 51.84                             107    1.10 8  274 225 
 TOL  SN ES       2124 21.33                             107    0.25 8  274 225 
 TOL  SZ I        2124 24.81        34.9 0.64            107            274 225 
 SML  HZ EP       2123 50.40                             106   -0.18 7  276 349 
 SML  HN ES       2124 19.66                             106   -1.13 7  276 349 
 SML  HZ I        2124 26.46        24.9 0.10            107            276 349 
 ORTC HZ EP       2123 56.90                             103    0.30 7  327 214 
 ORTC HN ES       2124 32.41                             103    0.90 7  327 214 
 ORTC HZ I        2124 39.25        10.1 0.30            103            327 214 
                                                                                
