 2014  910 0020 60.0 L   6.110 -73.875 95.2  RSN 11 0.5 1.9LRSN                1
 GAP= 69        1.17       2.7     3.1  6.8 -0.1537E+01  0.5111E+01  0.2599E+01E
 Epicentro: EL PENON - SANTANDER                                               3
 ACTION:UPD 14-10-03 23:03 OP:nd   STATUS:               ID:20140910002060 L   I
 OLDACT:REG 14-09-10 13:05 OP:carl STATUS:               ID:20140910001809     3
 2014-09-10-0018-09M.COL___278                                                 6
 STAT SP IPHASW D HRMM SECON CODA AMPLIT PERI AZIMU VELO AIN AR TRES W  DIS CAZ7
 SPBC HZ EP        021 14.88                             148   -0.0610 55.1 203 
 SPBC HN ES        021 26.93                             148    0.3310 55.1 203 
 SPBC HZ I         021 29.53        30.2 0.20            148           55.1 203 
 PTB  HZ EP        021 16.12                             137   -0.5910 80.0 306 
 PTB  HN ES        021 29.23                             137   -0.5310 80.0 306 
 PTB  HZ I         021 32.82        21.7 0.12            139           80.0 306 
 RUS  HZ EP     C  021 17.87                             134   -0.4510 90.9 105 
 RUS  HN ES        021 32.91                             134    0.3010 90.9 105 
 RUS  HZ I         021 33.93        10.0 0.20            136           90.9 105 
 BAR2 SZ IP     C  021 18.17                             132   -0.0210 93.4  55 
 BAR2 SZ ES        021 32.39                             132   -0.0010 93.4  55 
 BAR2 SZ I         021 34.15        34.0 0.42            135           93.4  55 
 BRR  HZ EP        021 19.23                             127   -0.4010  112   9 
 BRR  HN ES        021 35.69                             127    0.7510  112   9 
 BRR  HZ I         021 41.04        21.4 0.12            129            112   9 
 NOR  HZ EP        021 20.96                             123   -0.1410  126 241 
 NOR  HN ES        021 36.81                             123   -0.7610  126 241 
 NOR  HZ I         021 40.21        34.5 0.16            125            126 241 
 CHI  HZ EP        021 25.44                             116   -0.30 9  164 174 
 CHI  HN ES        021 45.80                             116   -0.03 9  164 174 
 CHI  HZ I         021 57.12         3.7 0.44            117            164 174 
 ZAR  HZ EP        021 27.78                             112   -0.05 9  188 325 
 ZAR  HN ES        021 50.40                             112    0.85 9  188 325 
 ZAR  HZ I         021 54.29        18.1 0.40            114            188 325 
 GUY2CHZ EP        021 28.87                             112   -0.05 9  192 239 
 GUY2CHN ES        021 51.49                             112    0.00 9  192 239 
 GUY2CHZ I         021 58.18         8.3 0.54                           192 239 
 TOL  SZ EP        021 33.41                             108   -0.05 8  233 224 
 TOL  SN ES        022  0.69                             108    1.13 8  233 224 
 TOL  SZ I         022  2.53        19.7 0.60            108            233 224 
 ORTC HZ EP        021 39.99                             104    0.44 7  287 212 
 ORTC HN ES        022 10.91                             104    0.50 7  287 212 
 ORTC HZ I         022 16.58         3.7 0.42            103            287 212 
                                                                                
