 2010  510 0928 18.2 L   7.423 -73.067129.7  RSN  5 0.4 1.5LRSN                1
 GAP=158        0.65       6.1     9.9  9.7 -0.2688E+02 -0.6459E+01  0.1589E+01E
 Epicentro: SURATA - SANTANDER                                                 3
 ACTION:UP  10-08-24 10:04 OP:vdl  STATUS:               ID:20100510092818 L   I
 2010-05-10-0926-09S.COL___104                                                 6
 STAT SP IPHASW D HRMM SECON CODA AMPLIT PERI AZIMU VELO SNR AR TRES W  DIS CAZ7
 GUE  SZ EP   1    928 36.58                             159    -0.2 7   48  19 
 GUE  SZ ES   2    928 51.73                             159     0.4 5   48  19 
 GRA  SZ EP   1    928 37.26                             154     0.1 7   59  30 
 GRA  SZ ES   2    928 51.30                             154    -0.6 5   59  30 
 BRR  HZ EP   2    928 38.49                             146     0.3 5   79 244 
 BRR  HE ES   2    928 53.13                             146    -0.6 5   79 244 
 BRR  HZ I         928 54.37         8.6 0.09                            79 244 
 BAR2 SZ EP   3    928 39.67                             142     0.2 2   93 188 
 BAR2 SZ ES   2    928 56.35                             142     0.3 5   93 188 
 OCA  SZ EP   2    928 39.11                             142    -0.3 5   94 343 
 OCA  SZ I         928 40.12         5.8 0.22                            94 343 
 OCA  SZ ES   2    928 56.67                             142     0.6 5   94 343 
                                                                                
