 2015 1010 0747 16.5 L   6.719 -73.152146.0  RSN  5 0.4 1.2LRSN                1
 GAP=230        0.80       5.4     6.5  6.9  0.1948E+02  0.5897E+01  0.2261E+01E
 Epicentro: VILLANUEVA - SANTANDER                                             3
 ACTION:UPD 15-12-22 20:38 OP:cam  STATUS:               ID:20151010074716 L   I
 OLDACT:DUP 15-10-10 17:05 OP:spq  STATUS:               ID:20151010073751d    3
 2015-10-10-0737-50M.COL___337                                                 6
 STAT SP IPHASW D HRMM SECON CODA AMPLIT PERI AZIMU VELO AIN AR TRES W  DIS CAZ7
 BAR2 EZ EP        747 35.54                             174   -0.4410 14.4 193 
 BAR2 EZ ES   1    747 51.05                             174   -0.15 7 14.4 193 
 BAR2 EZ I         747 52.35         2.8 0.18            170           14.4 193 
 BRR  HZ EP        747 37.74                             151   -0.1410 75.3 305 
 BRR  HN ES        747 54.94                             151    0.3610 75.3 305 
 BRR  HZ I         747 55.61         7.0 0.46            150           75.3 305 
 RUS  HZ EP        747 39.65                             147    0.0210 91.7 175 
 RUS  HN ES   1    747 58.13                             147    0.44 7 91.7 175 
 RUS  HZ I         747 59.26         1.1 0.34            146           91.7 175 
 SPBC HZ EP   1    747 44.60                             131    0.30 7  156 221 
 SPBC HN ES   1    748  5.65                             131   -0.36 7  156 221 
 SPBC HZ I         748  8.64         2.6 0.16            129            156 221 
 ZAR  HZ EP   1    747 49.94                             122    0.71 6  207 295 
 ZAR  HE ES        748 14.47                             122   -0.31 8  207 295 
 ZAR  HZ I         748 18.98         1.8 0.25            122            207 295 
                                                                                
