 2010 1110 0409 16.9 L   6.781 -73.110145.9  RSN  4 0.1 1.8LRSN                1
 GAP=186        0.42       5.2     8.4  8.8  0.8639E+01 -0.6077E+02 -0.1499E+02E
 Epicentro: LOS SANTOS - SANTANDER                                             3
 ACTION:UP  10-12-17 16:51 OP:REBC STATUS:               ID:20101110040916 L   I
 2010-11-10-0404-55S.COL___128                                                 6
 STAT SP IPHASW D HRMM SECON CODA AMPLIT PERI AZIMU VELO SNR AR TRES W  DIS CAZ7
 BAR2 SZ EP        4 9 36.51                             171    -0.110   22 201 
 BAR2 SZ I         4 9 49.03        13.4 0.23                            22 201 
 BRR  HZ EP        4 9 38.47                             151     0.110   76 299 
 BRR  HN ES        4 9 55.07                             151     0.010   76 299 
 BRR  HZ I         4 9 59.71        17.7 0.23                            76 299 
 GRA  SZ EP        4 9 42.37                             137     0.110  127  15 
 GRA  SZ I         410  4.07         8.3 0.33                           127  15 
 OCA  SZ EP        4 9 45.38                             129    -0.1 9  163 352 
 OCA  SZ I         410  9.95         8.3 0.23                           163 352 
                                                                                
