 2010 1210 0819 42.8 L   6.803 -73.125138.0  RSN  4 0.3 1.6LRSN                1
 GAP=161        0.58       4.6    18.4  9.6 -0.3146E+02  0.1789E+02 -0.1544E+02E
 Epicentro: LOS SANTOS - SANTANDER                                             3
 ACTION:UP  11-01-14 15:23 OP:pat  STATUS:               ID:20101210081942 L   I
 2010-12-10-0817-34S.COL___134                                                 6
 STAT SP IPHASW D HRMM SECON CODA AMPLIT PERI AZIMU VELO SNR AR TRES W  DIS CAZ7
 BAR2 SZ EP   2    820  1.91                             170     0.4 5   24 196 
 BAR2 SZ ES   2    820 15.95                             170    -0.2 5   24 196 
 RUS  HZ EP   3    820  5.57                             142    -0.2 2  101 177 
 RUS  HE ES   2    820 23.81                             142     0.1 5  101 177 
 RUS  HZ I         820 26.38         5.4 0.10                           101 177 
 GRA  SZ EP   1    820  6.80                             136    -0.5 7  125  16 
 GRA  SZ ES   1    820 26.62                             136     0.3 7  125  16 
 GRA  SZ I         820 27.30         7.0 0.44                           125  16 
 OCA  SZ EP   2    820 10.88                             128     0.4 5  160 352 
 OCA  SZ ES   2    820 31.92                             128    -0.2 5  160 352 
 OCA  SZ I         820 39.92         6.6 0.51                           160 352 
                                                                                
