 2014  510 0313 32.3 L   6.891 -73.399117.3  RSN  8 0.5 1.8LRSN                1
 GAP=105        1.18       3.1     5.1 10.4 -0.3505E+01  0.1186E+02  0.1241E+01E
 Epicentro: SAN VICENTE DE CHUCURI - SANTANDER                                 3
 ACTION:UPD 15-03-16 16:56 OP:nd   STATUS:               ID:20140510031332 L   I
 OLDACT:REG 14-05-10 13:42 OP:carl STATUS:               ID:20140510030807     3
 2014-05-10-0308-07M.COL___227                                                 6
 STAT SP IPHASW D HRMM SECON CODA AMPLIT PERI AZIMU VELO AIN AR TRES W  DIS CAZ7
 PAM  SZ EP        313 52.54                             140   -0.1510 91.8  57 
 PAM  SE ES        314  8.86                             140    0.2910 91.8  57 
 PAM  SZ I         314 10.72         8.8 0.22            149           91.8  57 
 RUS  HZ EP        313 54.24                             133   -0.4910  116 162 
 RUS  HN ES        314 11.55                             133   -0.6410  116 162 
 RUS  HZ I         314 14.78         6.4 0.20            139            116 162 
 PTB  HZ EP        313 54.80                             130    0.0410  123 252 
 PTB  HN ES        314 11.70                             130   -0.5610  123 252 
 PTB  HZ I         314 16.91        17.7 0.32            133            123 252 
 OCA  HZ EP        313 57.60                             124    0.11 9  149   3 
 OCA  HN ES        314 17.56                             124    0.45 9  149   3 
 OCA  HZ I         314 20.61        21.2 0.16            130            149   3 
 SPBC HZ EP        313 58.05                             123   -0.02 9  156 209 
 SPBC HN ES        314 19.30                             123    1.15 9  156 209 
 SPBC HZ I         314 24.15         7.4 0.18            128            156 209 
 ZAR  HZ EP   4    314  1.26                             120    1.37 0  174 293 
 ZAR  HN ES   4    314 24.44                             120    3.06 0  174 293 
 ZAR  HZ I         314 28.62        10.4 0.22            123            174 293 
 SML  HE ES        314 30.60                             113   -0.40 8  224 341 
 CHI  HZ EP        314  9.18                             110    0.08 8  253 188 
 CHI  HN ES        314 38.09                             110    0.32 8  253 188 
 CHI  HZ I         314 42.31         2.9 0.32            115            253 188 
                                                                                
