 2014  810 0803 12.4 L   6.702 -73.188154.5  RSN  5 0.5 1.2LRSN                1
 GAP=225        1.21       7.7     9.0 12.2  0.2048E+02 -0.8644E+01 -0.7979E+01E
 Epicentro: VILLANUEVA - SANTANDER                                             3
 ACTION:UPD 14-09-15 21:48 OP:nd   STATUS:               ID:20140810080312 L   I
 OLDACT:REG 14-08-10 13:53 OP:spq  STATUS:               ID:20140810075807     3
 2014-08-10-0758-07M.COL___260                                                 6
 STAT SP IPHASW D HRMM SECON CODA AMPLIT PERI AZIMU VELO AIN AR TRES W  DIS CAZ7
 BAR2 SZ I         8 3 49.10         3.6 0.27            172           12.1 177 
 BRR  HZ EP        8 3 34.63                             153    0.0010 73.2 308 
 BRR  HN ES        8 3 52.39                             153    0.4410 73.2 308 
 BRR  HZ I         8 3 56.19         2.4 0.44            151           73.2 308 
 RUS  HZ EP        8 3 36.43                             148    0.0810 90.2 173 
 RUS  HN ES        8 3 54.56                             148   -0.4510 90.2 173 
 RUS  HZ I         8 3 56.64         1.4 0.30            151           90.2 173 
 PTB  HZ EP        8 3 39.49                             135   -0.07 9  141 263 
 PTB  HN ES        8 3 59.93                             135   -0.79 9  141 263 
 PTB  HZ I         8 4  8.28         2.0 0.30            134            141 263 
 SPBC HN ES        8 4  3.33                             133    0.80 9  152 220 
 SPBC HZ I         8 4  5.00         2.3 0.20            133            152 220 
                                                                                
