 2014 1110 0615 11.8 L   6.780 -73.185139.7  RSN 10 0.5 1.8LRSN                1
 GAP= 70        1.16       3.5     5.3  6.4 -0.4846E+01  0.2973E+01  0.4157E+01E
 Epicentro: LOS SANTOS - SANTANDER                                             3
 ACTION:UPD 14-12-19 15:41 OP:nd   STATUS:               ID:20141110061511 L   I
 OLDACT:DUP 14-11-10 18:46 OP:stll STATUS:               ID:20141110060747d    3
 2014-11-10-0607-46M.COL___289                                                 6
 STAT SP IPHASW D HRMM SECON CODA AMPLIT PERI AZIMU VELO AIN AR TRES W  DIS CAZ7
 BAR2 SZ EP        615 30.92                             171    0.3010 20.7 179 
 BAR2 SZ I         615 31.00        26.8 0.42            170           20.7 179 
 BAR2 SZ ES        615 45.74                             171    0.4210 20.7 179 
 BRR  HZ EP        615 32.77                             152    0.6510 68.6 302 
 BRR  HN ES        615 48.60                             152    0.6110 68.6 302 
 BRR  HZ I         615 54.37        12.1 0.28            150           68.6 302 
 PAM  SZ EP        615 33.72                             148    0.0910 81.9  41 
 PAM  SN ES        615 50.51                             148   -0.1710 81.9  41 
 PAM  SZ I         615 52.83        11.7 0.50            153           81.9  41 
 RUS  HZ EP        615 34.85                             143    0.0610 98.7 173 
 RUS  HN ES        615 52.39                             143   -0.3610 98.7 173 
 RUS  HZ I         615 54.72         9.1 0.32            146           98.7 173 
 PTB  HZ EP        615 37.51                             132   -0.31 9  143 259 
 PTB  HN ES        615 58.03                             132   -0.11 9  143 259 
 PTB  HZ I         616  5.50         5.5 0.16            131            143 259 
 SPBC HZ EP        615 40.07                             128    0.69 9  159 218 
 SPBC HN ES        616  0.14                             128   -0.78 9  159 218 
 SPBC HZ I         616  4.38        12.6 0.20            129            159 218 
 TAM  HZ EP   2    615 39.03                             128   -0.28 5  159 104 
 OCA  HZ EP        615 39.73                             128   -0.06 9  162 355 
 OCA  HN ES        616  0.55                             128   -1.09 9  162 355 
 OCA  HZ I         616  5.67         6.5 0.42            130            162 355 
 CHI  HZ EP        615 48.86                             116    0.08 8  245 194 
 CHI  HN ES        616 17.27                             116   -0.38 8  245 194 
 CHI  HZ I         616 26.00         2.6 0.44            118            245 194 
 PRA  HZ EP        616  5.02                             106    0.41 6  388 209 
 PRA  HZ I         616  6.56         4.6 0.82            107            388 209 
 PRA  HN ES        616 45.54                             106   -0.28 6  388 209 
                                                                                
