 2016 1210 0101 33.8 L   6.791 -73.142147.1  RSN  5 0.3 1.1LRSN                1
 GAP=137        0.88       4.9     4.6  6.7 -0.2760E+01  0.2461E+01  0.3594E+01E
 Epicentro: LOS SANTOS - SANTANDER                                             3
 ACTION:UPD 17-01-11 20:13 OP:rebc STATUS:               ID:20161210010133 L   I
 OLDACT:REG 16-12-10 12:41 OP:lv   STATUS:               ID:20161210005740     3
 2016-12-10-0058-00M.COL___367                                                 6
 STAT SP IPHASW D HRMM SECON CODA AMPLIT PERI AZIMU VELO AIN AR TRES W  DIS CAZ7
 BAR2 EZ EP        1 1 53.87                             171    0.3010 22.4 191 
 BAR2 EZ ES        1 2  9.13                             171    0.1410 22.4 191 
 BAR2 EZ I         1 2 10.18         5.6 0.21            170           22.4 191 
 BRR  HE ES        1 2 12.26                             152    0.4810 72.0 299 
 PAM  EZ EP        1 1 55.86                             151   -0.3310 77.9  39 
 PAM  EN ES        1 2 13.42                             151   -0.2310 77.9  39 
 RUS  HZ EP        1 1 57.84                             144    0.2310 99.5 176 
 RUS  HN ES        1 2 15.99                             144   -0.1910 99.5 176 
 RUS  HZ I         1 2 17.50         1.0 0.28            144           99.5 176 
 PTB  HZ EP        1 2  1.07                             132    0.18 9  148 259 
 PTB  HN ES        1 2 21.40                             132   -0.62 9  148 259 
 PTB  HZ I         1 2 24.63         1.7 0.10            132            148 259 
                                                                                
