 2014 1210 0627 29.4 L   6.796 -73.148127.2  RSN  8 0.5 1.5LRSN                1
 GAP=136        1.15       4.2     4.7  8.2 -0.2728E+01  0.1606E+02  0.5589E+01E
 Epicentro: LOS SANTOS - SANTANDER                                             3
 ACTION:UPD 15-02-10 17:02 OP:nd   STATUS:               ID:20141210062729 L   I
 OLDACT:REG 14-12-10 13:17 OP:fm   STATUS:               ID:20141210061742     3
 2014-12-10-0617-42M.COL___300                                                 6
 STAT SP IPHASW D HRMM SECON CODA AMPLIT PERI AZIMU VELO AIN AR TRES W  DIS CAZ7
 BRR  HZ EP     D  627 48.85                             149    0.3210 71.2 299 
 BRR  HN ES        628  3.77                             149    0.2910 71.2 299 
 BRR  HZ I         628  9.77         5.1 0.16            149           71.2 299 
 PAM  SZ EP        627 49.73                             147    0.0610 77.8  40 
 PAM  SE ES        628  5.08                             147   -0.4210 77.8  40 
 PAM  SZ I         628  8.89         5.3 0.50            154           77.8  40 
 RUS  HZ EP        627 51.05                             140   -0.2510  100 176 
 RUS  HE ES        628  9.16                             140    0.7410  100 176 
 RUS  HZ I         628 11.21         3.8 0.28            145            100 176 
 SPBC HZ EP        627 55.89                             125   -0.57 9  163 219 
 SPBC HN ES        628 16.88                             125   -0.71 9  163 219 
 SPBC HZ I         628 21.14         5.4 0.28            129            163 219 
 ZAR  HZ EP        628  0.99                             118    0.33 9  204 292 
 ZAR  HN ES        628 24.67                             118   -0.40 9  204 292 
 ZAR  HZ I         628 30.70         6.7 0.40            121            204 292 
 NOR  HN ES        628 30.33                             114   -0.75 8  234 235 
 NOR  HZ I         628 38.00         3.1 0.20            118            234 235 
 HEL  HZ EP        628  8.96                             111    0.30 8  272 256 
 HEL  HN ES        628 39.56                             111    0.25 8  272 256 
 HEL  HZ I         628 46.73         2.0 0.40            114            272 256 
 GUY2CHZ EP        628 12.45                             109    0.32 7  301 235 
 GUY2CHE ES        628 46.25                             109    0.76 7  301 235 
 GUY2CHZ I         628 53.43         2.7 0.88                           301 235 
 SJC  HN ES   4    629  0.65                             102   -6.67 0  409 327 
                                                                                
