 2013  410 0655 11.3 L   6.753 -73.179142.0  RSN  5 0.3 1.5LRSN                1
 GAP=176        0.87       5.7     6.1  7.3  0.1267E+02  0.6320E+01  0.1033E+02E
 Epicentro: VILLANUEVA - SANTANDER                                             3
 ACTION:UPD 13-05-22 14:37 OP:EP   STATUS:               ID:20130410065511 L   I
 2013-04-10-0648-42M.COL___215                                                 6
 STAT SP IPHASW D HRMM SECON CODA AMPLIT PERI AZIMU VELO AIN AR TRES W  DIS CAZ7
 BAR2 SZ EP        655 30.07                             172   -0.2810 17.7 181 
 BAR2 SZ I         655 30.43         7.8 0.10            173           17.7 181 
 BAR2 SZ ES        655 44.87                             172   -0.3610 17.7 181 
 GIR2 SZ ES        655 45.63                             165   -0.1210 36.1 357 
 BRR  HZ EP        655 31.89                             152   -0.1110 70.8 304 
 BRR  HN ES        655 48.78                             152    0.6210 70.8 304 
 RUS  HZ EP        655 34.60                             144    0.3010 95.7 174 
 RUS  HN ES        655 52.48                             144    0.2110 95.7 174 
 PTB  HN ES        655 57.72                             132   -0.28 9  143 261 
                                                                                
