 2011  410 0459  4.3 L   6.820 -73.122141.4  RSN 10 0.3 1.7LRSN                1
 GAP=115        0.59       3.2     4.9  4.9 -0.2862E+01 -0.3198E+01  0.4504E+01E
 Epicentro: LOS SANTOS - SANTANDER                                             3
 ACTION:UP  11-06-22 15:30 OP:REBC STATUS:               ID:20110410045904 L   I
 2011-04-10-0456-34S.COL___138                                                 6
 STAT SP IPHASW D HRMM SECON CODA AMPLIT PERI AZIMU VELO SNR AR TRES W  DIS CAZ7
 BTL  SZ EP        459 23.51                             171     0.210   19 304 
 BAR2 SZ EP        459 23.27                             169    -0.210   26 195 
 BAR2 SZ I         459 23.94        11.1 0.17                            26 195 
 BAR2 SZ ES   1    459 38.14                             169    -0.3 7   26 195 
 GIR2 SZ EP        459 23.43                                     0.010   30 345 
 GIR2 SZ ES   3    459 38.15                                    -0.2 2   30 345 
 BRR  HZ EP        459 25.12                             151     0.110   73 296 
 BRR  HN ES   1    459 41.50                             151     0.3 7   73 296 
 PAM  SZ EP   1    459 26.03                             151     0.2 7   74  39 
 PAM  SN ES   1    459 42.85                             151     0.2 7   74  39 
 GRA  SZ EP   1    459 28.96                             137     0.0 7  123  17 
 GRA  SZ ES   1    459 47.66                             137    -0.5 7  123  17 
 GRA  SZ I         459 50.79         5.9 0.41                           123  17 
 OCA  SZ EP   1    459 31.71                             129    -0.4 7  158 352 
 OCA  SZ I         459 57.77         6.2 0.16                           158 352 
 YOP  SZ EP        459 34.40                                     0.3 9  180 154 
 CHI  HZ EP   2    459 41.26                                    -0.8 4  251 196 
 CHI  HE ES   2    5 0 11.30                                    -0.2 4  251 196 
 HEL  HZ EP   3    459 45.02                                     0.4 2  275 255 
 HEL  HZ I         5 0 23.06         3.2 0.58                           275 255 
                                                                                
