 2012  810 0633 19.7 L   6.663 -74.160 23.7  RSN  5 0.3 1.2LRSN                1
 GAP=122        0.68       3.8     2.8  4.0  0.3586E+01 -0.7437E+01 -0.5168E+01E
 Epicentro: PUERTO PARRA - SANTANDER                                           3
 ACTION:UPD 12-09-10 11:55 OP:ep   STATUS:               ID:20120810063319 L   I
 2012-08-10-0630-00M.COL___218                                                 6
 STAT SP IPHASW D HRMM SECON CODA AMPLIT PERI AZIMU VELO AIN AR TRES W  DIS CAZ7
 PTB  HZ EP   1    633 26.44                             122   -0.08 7 35.5 247 
 PTB  HN ES   1    633 31.69                             122   -0.18 7 35.5 247 
 PTB  HZ I         633 31.99        12.6 0.15                          35.5 247 
 BRR  HZ EP   1    633 31.43                             107    0.16 7 69.7  45 
 BAR2 SZ EP   1    633 37.08                              56    0.01 7  108  94 
 BAR2 SZ ES   1    633 50.03                              56   -0.61 7  108  94 
 BAR2 SZ I         633 50.47        10.0 0.26                           108  94 
 ZAR  HN ES   1    633 52.74                              56    0.03 7  120 320 
 RUS  HZ EP   1    633 42.82                              56    0.68 7  146 126 
 RUS  HZ I         633 43.42         3.5 0.16                           146 126 
 RUS  HN ES   1    633 59.73                              56    0.07 7  146 126 
                                                                                
