 2011  810 0732 10.3 L   6.796 -73.067144.0  RSN  4 0.3 1.5LRSN                1
 GAP=245        0.59       5.8     9.6  6.7  0.1882E+02  0.1327E+02  0.1527E+02E
 Epicentro: LOS SANTOS - SANTANDER                                             3
 ACTION:UPD 12-07-13 15:51 OP:ep   STATUS:               ID:20110810073210 L   I
 2011-08-10-0730-38S.COL___150                                                 6
 STAT SP IPHASW D HRMM SECON CODA AMPLIT PERI AZIMU VELO AIN AR TRES W  DIS CAZ7
 BAR2 SZ EP   1    732 29.59                             169   -0.18 7 25.9 210 
 BAR2 SZ ES   1    732 45.48                             169    0.53 7 25.9 210 
 BAR2 SZ I         732 45.63         5.7 0.66                          25.9 210 
 BRR  HZ EP   1    732 31.72                             150    0.00 7 79.2 296 
 BRR  HN ES   1    732 48.27                             150   -0.17 7 79.2 296 
 BRR  HZ I         732 53.76         9.3 0.07                          79.2 296 
 RUS  HZ EP   2    732 33.95                             144    0.13 5 99.9 181 
 RUS  HZ I         732 34.65         3.6 0.10                          99.9 181 
 RUS  HN ES   2    732 51.42                             144   -0.75 5 99.9 181 
 PRA  HZ EP   1    733  4.31                             106    0.09 4  396 211 
 PRA  HN ES   1    733 46.49                             106    0.21 4  396 211 
                                                                                
