 2012  410 0118 47.9 L   6.762 -73.083146.5  RSN  4 0.1 1.6LRSN                1
 GAP=146        0.39       2.5     3.7  4.0 -0.1770E+01 -0.4809E+00  0.2136E+01E
 Epicentro: LOS SANTOS - SANTANDER                                             3
 ACTION:UPD 12-07-05 11:52 OP:tino STATUS:               ID:20120410011847 L   I
 2012-04-10-0110-00M.COL___199                                                 6
 STAT SP IPHASW D HRMM SECON CODA AMPLIT PERI AZIMU VELO AIN AR TRES W  DIS CAZ7
 BAR2 SZ EP   1    119  7.71                             171     0.1 7   22 210 
 BAR2 SZ ES   2    119 23.02                             171     0.0 5   22 210 
 BAR2 SZ I         119 25.52        14.9 0.41                            22 210 
 PAM  SZ EP        119 10.35                             151     0.210   77  34 
 PAM  SN ES        119 27.43                             151    -0.110   77  34 
 BRR  HZ EP   1    119  9.45                             150    -0.2 7   79 299 
 BRR  HZ I         119  9.82         8.2 0.15                            79 299 
 BRR  HN ES   1    119 26.65                             150     0.1 7   79 299 
 RUS  HZ EP        119 11.37                             145    -0.110   96 180 
 RUS  HE ES   1    119 29.78                             145     0.0 7   96 180 
 RUS  HZ I         119 31.59         4.0 0.42                            96 180 
                                                                                
