 2012  510 0835 39.7 L   6.768 -73.107150.0  RSN 13 0.4 2.8LRSN                1
 GAP=143        0.90       3.2     4.4  5.2 -0.2017E+01  0.6442E+01  0.3510E+01E
 Epicentro: LOS SANTOS - SANTANDER                                             3
 ACTION:UP  12-07-05 12:04 OP:pat  STATUS:               ID:20120510083539 L   I
 2012-05-10-0830-00M.COL___195                                                 6
 STAT SP IPHASW D HRMM SECON CODA AMPLIT PERI AZIMU VELO SNR AR TRES W  DIS CAZ7
 BAR2 SZ EP        835 59.93                             172     0.110   21 203 
 BAR2 SZ ES        836 15.34                             172    -0.110   21 203 
 BAR2 SZ I         836 16.61       106.4 0.22                            21 203 
 BRR  HZ IP     D  836  1.83                             151     0.210   77 299 
 BRR  HZ I         836  2.03       145.8 0.14                            77 299 
 BRR  HE ES        836 19.20                             151     0.510   77 299 
 PAM  SZ EP        836  2.62                             152     0.310   78  35 
 PAM  SN ES   1    836 20.05                             152     0.0 7   78  35 
 RUS  HZ EP        836  3.70                             146     0.110   97 178 
 RUS  HN ES   1    836 21.97                             146    -0.3 7   97 178 
 RUS  HZ I         836 23.69        47.9 0.28                            97 178 
 PTB  HZ EP        836  6.61                             132    -0.7 9  151 260 
 OCA  HZ EP        836  8.42                             130    -0.3 9  164 352 
 OCA  HN ES   1    836 31.06                             130    -0.3 7  164 352 
 OCA  HZ I         836 35.96       134.4 0.17                           164 352 
 ZAR  HZ EP   1    836 12.41                             123    -0.6 6  209 293 
 ZAR  HN ES   1    836 38.59                             123    -0.3 6  209 293 
 ZAR  HZ I         836 44.15        82.8 0.31                           209 293 
 NOR  SZ EP        836 15.76                             119    -0.1 8  236 236 
 NOR  SE ES   1    836 43.70                             119    -0.3 6  236 236 
 CHI  HZ EP        836 17.71                             118     0.3 8  246 196 
 CHI  HE ES   1    836 46.23                             118    -0.6 6  246 196 
 CHI  HZ I         836 53.00        25.3 0.35                           246 196 
 HEL  HZ EP   1    836 20.62                             115     0.1 6  275 257 
 HEL  HN ES   1    836 53.24                             115     0.9 6  275 257 
 HEL  HZ I         836 59.44        27.4 0.22                           275 257 
 GUY  SZ EP   1    836 24.40                             113     0.5 5  305 236 
 GUY  SZ I         837  9.98        48.3 0.40                           305 236 
 RREF HZ EP   1    836 26.74                             112     0.6 5  323 230 
 RREF HN ES   1    837  2.24                             112    -0.1 5  323 230 
 RREF HZ I         837  9.06        31.9 0.37                           323 230 
 PRA  HZ EP        836 33.06                             107    -0.2 6  391 210 
 PRA  HN ES   1    837 15.46                             107     0.4 4  391 210 
                                                                                
