 2015 1010 0545 21.9 L   6.786 -73.128154.9  RSN  5 0.4 1.2LRSN                1
 GAP=238        0.80       4.9     6.2  6.7  0.1248E+02  0.4664E+01  0.1139E+01E
 Epicentro: LOS SANTOS - SANTANDER                                             3
 ACTION:UPD 15-12-22 20:38 OP:cam  STATUS:               ID:20151010054521 L   I
 OLDACT:DUP 15-10-10 16:08 OP:spq  STATUS:               ID:20151010053738d    3
 2015-10-10-0537-37M.COL___337                                                 6
 STAT SP IPHASW D HRMM SECON CODA AMPLIT PERI AZIMU VELO AIN AR TRES W  DIS CAZ7
 BAR2 EZ EP        545 42.50                             171   -0.1310 22.3 196 
 BAR2 EZ ES   1    545 58.66                             171   -0.12 7 22.3 196 
 BAR2 EZ I         545 59.10         2.3 0.22            163           22.3 196 
 BRR  HZ EP        545 44.44                             153    0.2410 73.6 299 
 BRR  HN ES        546  1.88                             153    0.3110 73.6 299 
 BRR  HZ I         546  4.73         5.7 0.90            148           73.6 299 
 RUS  HZ EP   1    545 46.85                             146    0.38 7 98.9 177 
 RUS  HE ES   1    546  4.97                             146   -0.64 7 98.9 177 
 RUS  HZ I         546  6.43         1.1 0.40            144           98.9 177 
 SPBC HZ EP        545 51.36                             131    0.22 9  163 220 
 SPBC HN ES        546 14.08                             131    0.15 9  163 220 
 SPBC HZ I         546 21.27         2.1 0.16            128            163 220 
 ZAR  HZ EP   1    545 54.44                             124   -0.78 6  206 292 
 ZAR  HE ES        546 20.92                             124   -0.27 8  206 292 
 ZAR  HZ I         546 26.94         2.0 0.31            122            206 292 
                                                                                
