 2014  110 0843 11.3 L   6.786 -73.152142.0  RSN 15 0.5 1.9LRSN                1
 GAP=136        1.06       2.9     3.8  5.8 -0.2928E+01  0.9084E+01 -0.1036E+01E
 Epicentro: LOS SANTOS - SANTANDER                                             3
 ACTION:UPD 14-03-13 09:54 OP:ep   STATUS:               ID:20140110084311 L   I
 OLDACT:REG 14-01-10 08:06 OP:carl STATUS:               ID:20140110084000     3
 2014-01-10-0840-00M.COL___285                                                 6
 STAT SP IPHASW D HRMM SECON CODA AMPLIT PERI AZIMU VELO AIN AR TRES W  DIS CAZ7
 BAR2 SZ EP        843 30.48                             171    0.0110 21.7 189 
 BAR2 SZ ES        843 45.36                             171   -0.0510 21.7 189 
 BAR2 SZ I         843 46.69        18.0 0.28            172           21.7 189 
 PAM  SZ EP        843 33.42                             150    0.1710 79.0  39 
 PAM  SN ES        843 50.61                             150    0.2710 79.0  39 
 PAM  SZ I         843 52.96         7.3 0.42            148           79.0  39 
 RUS  HZ EP        843 34.38                             143   -0.2210 99.1 176 
 RUS  HN ES        843 52.97                             143    0.2210 99.1 176 
 RUS  HZ I         843 54.94         4.5 0.16            144           99.1 176 
 PTB  HZ EP        843 37.41                             131   -0.50 9  147 259 
 PTB  HN ES        843 58.31                             131   -0.32 9  147 259 
 PTB  HZ I         844  4.45        10.8 0.32            129            147 259 
 SPBC HZ EP        843 39.08                             129   -0.31 9  162 219 
 SPBC HN ES        844  1.47                             129    0.20 9  162 219 
 SPBC HZ I         844  8.61        13.4 0.24            127            162 219 
 OCA  HZ EP        843 39.58                             129    0.09 9  162 353 
 OCA  HN ES        844  1.55                             129    0.10 9  162 353 
 OCA  HZ I         844  6.49         6.4 0.48            126            162 353 
 ZAR  HZ EP        843 43.17                             122   -0.36 9  204 293 
 ZAR  HN ES        844  8.78                             122    0.14 9  204 293 
 ZAR  HZ I         844 15.83         8.7 0.42            119            204 293 
 NOR  HZ EP        843 46.36                             118   -0.33 8  233 235 
 NOR  HN ES        844 13.60                             118   -0.66 8  233 235 
 NOR  HZ I         844 19.45         7.0 0.22            116            233 235 
 SML  HZ EP        843 47.01                             117   -0.86 8  245 336 
 SML  HN ES   2    844 15.94                             117   -0.43 4  245 336 
 SML  HZ I         844 17.67        12.6 0.10            114            245 336 
 CHI  HZ EP        843 48.48                             117   -0.16 8  247 195 
 CHI  HN ES        844 17.38                             117   -0.36 8  247 195 
 CHI  HZ I         844 25.60         2.6 0.30            115            247 195 
 HEL  HZ EP        843 52.32                             114    1.08 8  271 256 
 HEL  HN ES        844 23.30                             114    0.93 8  271 256 
 HEL  HZ I         844 29.77         3.8 0.38            112            271 256 
 GUY2CHZ EP        843 55.55                             112    0.95 7  300 235 
 GUY2CHN ES        844 28.83                             112    0.48 7  300 235 
 GUY2CHZ I         844 37.66         4.3 0.30                           300 235 
 PTGC HZ EP   4    843 53.17                             111   -1.71 0  307 158 
 PTGC HN ES   4    844 26.10                             111   -2.75 0  307 158 
 PTGC HZ I         844 28.78        11.4 0.40            110            307 158 
 RREF HZ EP   4    843 59.66                             110    2.52 0  320 230 
 RREF HN ES   4    844 35.14                             110    2.27 0  320 230 
 RREF HZ I         844 40.21         4.8 0.30            109            320 230 
 CBOC HZ EP        843 58.77                             109    0.81 7  332 252 
 CBOC HN ES        844 33.77                             109   -0.56 7  332 252 
 CBOC HZ I         844 41.76         1.6 0.48            108            332 252 
 SJC  HZ EP   4    844  0.53                             105   -6.35 0  410 327 
 SJC  HN ES   4    844 45.05                             105   -5.16 0  410 327 
                                                                                
