 2016  610 0426 56.1 L   6.799 -73.089147.3  RSN 19 0.5 2.2LRSN                1
 GAP= 70        1.07       3.4     4.8  6.1 -0.5597E+01  0.5722E+01  0.3996E+01E
 Epicentro: LOS SANTOS - SANTANDER                                             3
 ACTION:UPD 16-07-21 22:17 OP:rebc STATUS:               ID:20160610042656 L   I
 OLDACT:UP  16-06-10 17:22 OP:dani STATUS:               ID:20160610041744d    3
 OLDACT:UP  16-06-10 17:22 OP:dani STATUS:               ID:20160610041744d    3
 OLDACT:UP  16-06-10 17:04 OP:dani STATUS:               ID:20160610041744d    3
 OLDACT:UP  16-06-10 16:55 OP:dani STATUS:               ID:20160610041744d    3
 OLDACT:UP  16-06-10 16:53 OP:dani STATUS:               ID:20160610041744d    3
 OLDACT:UP  16-06-10 16:52 OP:dani STATUS:               ID:20160610041744d    3
 OLDACT:DUP 16-06-10 16:42 OP:dani STATUS:               ID:20160610041744d    3
 OLDACT:UP  16-06-10 16:41 OP:dani STATUS:               ID:20160610041743     3
 OLDACT:REG 16-06-10 13:02 OP:dani STATUS:               ID:20160610041743     3
 2016-06-10-0417-43M.COL___337                                                 6
 STAT SP IPHASW D HRMM SECON CODA AMPLIT PERI AZIMU VELO AIN AR TRES W  DIS CAZ7
 BAR2 EZ EP     C  427 15.49                             170   -0.4510 25.1 204 
 BAR2 EZ I         427 33.28        32.6 0.32                          25.1 204 
 PAM  EZ EP        427 18.50                             152    0.2510 73.6  36 
 PAM  EN ES        427 35.53                             152   -0.0110 73.6  36 
 PAM  EZ I         427 36.19        20.9 0.22                          73.6  36 
 BRR  HZ IP     C  427 17.33                             151   -0.4010 76.8 296 
 BRR  HE ES        427 34.51                             151   -0.1010 76.8 296 
 BRR  HZ I         427 37.29        20.0 0.38                          76.8 296 
 RUS  HZ EP     C  427 19.42                             144   -0.5410  100 180 
 RUS  HE ES        427 38.69                             144    0.1010  100 180 
 RUS  HZ I         427 41.52        10.5 0.20                           100 180 
 TAM  HZ EP     C  427 23.73                             132    0.40 9  149 106 
 TAM  HE ES   4    427 45.69                             132    1.11 0  149 106 
 TAM  HZ I         427 46.83         7.5 0.50                           149 106 
 PTB  HZ EP   4    427 22.55                             131   -1.19 0  154 259 
 PTB  HN ES   4    427 42.79                             131   -2.52 0  154 259 
 PTB  HZ I         427 48.01        24.0 0.16                           154 259 
 OCA  HZ EP        427 24.40                             130   -0.21 9  161 351 
 OCA  HE ES        427 47.54                             130    0.68 9  161 351 
 OCA  HZ I         427 54.06        24.9 0.32                           161 351 
 SPBC HZ EP     C  427 24.46                             129   -0.61 9  167 221 
 SPBC HN ES        427 47.45                             129   -0.24 9  167 221 
 SPBC HZ I         427 50.92        24.8 0.23                           167 221 
 NOR  HZ EP        427 31.76                             118   -0.69 8  240 235 
 NOR  HN ES        428  0.75                             118   -0.06 8  240 235 
 NOR  HZ I         428  4.98        16.6 0.30                           240 235 
 CHI  HZ EP   2    427 33.20                             117   -0.84 4  250 197 
 CHI  HN ES   2    428  4.79                             117    1.14 4  250 197 
 CHI  HZ I         428  8.56         7.3 0.36                           250 197 
 ROSC BZ EP        427 35.65                             117    1.01 8  256 212 
 ROSC BE ES        428  5.53                             117    0.82 8  256 212 
 ROSC BN I         428 12.95        31.4 0.40                           256 212 
 HEL  HZ EP   2    427 37.00                             114   -0.05 4  278 256 
 HEL  HE ES   4    428 13.34                             114    4.34 0  278 256 
 HEL  HZ I         428 14.10         9.3 0.34                           278 256 
 GUY2CHZ EP        427 40.69                             112    0.35 7  306 235 
 GUY2CHE ES   4    428 17.38                             112    2.53 0  306 235 
 GUY2CHZ I         428 22.09        14.1 0.48                           306 235 
 PTGC HZ EP   9 C  427 38.39                             112   -1.35 0  306 160 
 PTGC HN ES     D  428 12.09                             113   -0.35 7  306 160 
 PTGC HZ I         428 20.10         7.8 0.46                           306 160 
 CBOC HZ EP        427 44.11                             110    0.37 7  340 252 
 CBOC HN ES   4    428 23.13                             110    2.21 0  340 252 
 CBOC HZ I         428 27.78         3.1 0.42                           340 252 
 ANIL HN ES   4    428 27.05                             108    1.31 0  362 225 
 PRA  HZ EP   4    427 49.20                             106   -0.81 0  395 210 
 PRA  HN ES   4    428 33.90                             106    1.82 0  395 210 
 PRA  HZ I         428 37.97         9.1 0.26                           395 210 
 ORTC HZ EP        427 49.93                             106   -0.55 6  399 217 
 ORTC HN ES        428 33.71                             106    0.80 6  399 217 
 ORTC HZ I         428 38.57         5.9 0.34                           399 217 
 PAL  HZ EP        427 51.96                             106    0.04 6  411 240 
 SJC  HZ EP   4    427 49.71                             106   -2.41 0  413 326 
 SJC  HE ES   4    428 31.24                             106   -4.58 0  413 326 
 SJC  HZ I         428 35.63         1.9 0.42                           413 326 
                                                                                
