 2010 1110 0530  9.2 L   6.712 -73.147148.0  RSN  4 0.3 1.8LRSN                1
 GAP=159        0.65       7.0    12.0  9.3  0.4777E+02 -0.6730E+02 -0.2424E+02E
 Epicentro: VILLANUEVA - SANTANDER                                             3
 ACTION:UP  10-12-17 16:51 OP:REBC STATUS:               ID:20101110053009 L   I
 2010-11-10-0525-57S.COL___128                                                 6
 STAT SP IPHASW D HRMM SECON CODA AMPLIT PERI AZIMU VELO SNR AR TRES W  DIS CAZ7
 BAR2 SZ ES   2    530 43.87                             175    -0.5 5   14 197 
 BAR2 SZ I         530 46.35        16.0 0.44                            14 197 
 BRR  HZ EP        530 30.73                             152    -0.110   76 305 
 BRR  HN ES        530 47.87                             152     0.110   76 305 
 BRR  HZ I         530 51.34        14.5 0.23                            76 305 
 RUS  HZ EP   1    530 32.30                             147    -0.2 7   91 176 
 RUS  HN ES   2    530 51.25                             147     0.6 5   91 176 
 RUS  HZ I         530 52.38         6.1 0.03                            91 176 
 GRA  SZ EP   1    530 35.56                             135     0.2 7  135  16 
 GRA  SZ I         530 57.99         7.9 0.09                           135  16 
                                                                                
