 2011  510 0031 26.6 L   6.801 -73.125139.9  RSN 12 0.3 2.1LRSN                1
 GAP=139        0.73       2.9     5.2  4.8 -0.4854E+01  0.3940E+01  0.1057E+00E
 Epicentro: LOS SANTOS - SANTANDER                                             3
 ACTION:UP  11-06-29 08:52 OP:tino STATUS:               ID:20110510003126 L   I
 2011-05-10-0030-24S.COL___133                                                 6
 STAT SP IPHASW D HRMM SECON CODA AMPLIT PERI AZIMU VELO SNR AR TRES W  DIS CAZ7
 BTL  SZ EP        031 45.74                             171     0.310   20 309 
 BTL  SZ ES   3    031 59.93                             171    -0.3 2   20 309 
 BAR2 SZ EP        031 45.55                             170     0.010   24 195 
 BAR2 SZ ES   1    032  0.10                             170    -0.2 7   24 195 
 BAR2 SZ I         032  1.63        37.7 0.31                            24 195 
 GIR2 SZ EP        031 45.57                             167     0.010   32 346 
 GIR2 SZ ES   3    032  0.48                             167     0.1 2   32 346 
 BRR  HZ IP     D  031 47.30                             151     0.110   73 298 
 BRR  HN ES   1    032  3.55                             151     0.2 7   73 298 
 BRR  HZ I         032  4.95        40.8 0.09                            73 298 
 PAM  SZ EP        031 48.48                             150     0.410   76  38 
 PAM  SN ES   1    032  5.36                             150     0.5 7   76  38 
 RUS  HZ EP        031 49.61                             142    -0.210  101 177 
 RUS  HZ I         031 50.79         9.6 0.10                           101 177 
 RUS  HN ES   1    032  7.62                             142    -0.2 7  101 177 
 BRI  SZ EP        031 50.02                             140     0.110  108  20 
 BRI  SZ ES   2    032  7.70                             140    -0.3 5  108  20 
 GRA  SZ IP        031 51.29                             136     0.010  125  16 
 GRA  SZ ES   1    032 10.34                             136    -0.2 7  125  16 
 GRA  SZ I         032 14.98        11.7 0.38                           125  16 
 OCA  SZ EP        031 53.86                             128    -0.6 9  160 352 
 OCA  SZ ES   1    032 15.65                             128    -0.6 7  160 352 
 OCA  SZ I         032 18.95        24.0 0.19                           160 352 
 NOR  SN ES   3    032 29.28                             117    -0.7 2  237 235 
 HEL  HZ EP   1    032  7.51                             113     0.7 6  274 256 
 HEL  HN ES   3    032 38.63                             113     0.5 2  274 256 
 HEL  HZ I         032 44.66         5.9 0.38                           274 256 
 PRA  HZ EP        032 19.78                             105    -0.3 6  393 210 
 PRA  HN ES   2    033  1.93                             105     0.1 3  393 210 
                                                                                
