 2014  910 0753  1.2 L   6.810 -73.127148.0  RSN  9 0.5 1.6LRSN                1
 GAP=138        1.13       4.0     5.3  7.3 -0.2672E+01  0.1308E+02  0.3971E+01E
 Epicentro: LOS SANTOS - SANTANDER                                             3
 ACTION:UPD 14-10-03 23:03 OP:nd   STATUS:               ID:20140910074819 L   I
 OLDACT:UPD 14-09-10 15:53 OP:FJMB STATUS:               ID:20140910074819 L   3
 2014-09-10-0748-19M.COL___278                                                 6
 STAT SP IPHASW D HRMM SECON CODA AMPLIT PERI AZIMU VELO AIN AR TRES W  DIS CAZ7
 BAR2 SZ EP        753 21.11                             170    0.0010 24.8 194 
 BAR2 SZ ES        753 36.13                             170   -0.5210 24.8 194 
 BAR2 SZ I         753 37.44         5.8 0.36            170           24.8 194 
 BRR  HZ EP        753 23.12                             152    0.4810 72.5 297 
 BRR  HN ES        753 40.09                             152    0.7110 72.5 297 
 BRR  HZ I         753 45.36         6.1 0.18            153           72.5 297 
 PAM  SZ EP        753 23.92                             152    0.4110 75.2  39 
 PAM  SN ES        753 40.68                             152   -0.2410 75.2  39 
 PAM  SZ I         753 43.27         9.9 0.54            156           75.2  39 
 RUS  HZ EP        753 25.53                             144    0.3110  102 177 
 RUS  HN ES        753 44.08                             144    0.1110  102 177 
 RUS  HZ I         753 46.33         3.6 0.54            146            102 177 
 PTB  HZ EP        753 28.68                             132    0.15 9  150 259 
 PTB  HN ES   4    753 49.20                             132   -0.66 0  150 259 
 PTB  HZ I         753 51.21         4.9 0.38            134            150 259 
 OCA  HN ES        753 51.29                             130   -0.45 9  159 352 
 SPBC HZ EP        753 29.75                             129   -0.30 9  165 219 
 SPBC HN ES        753 52.19                             129   -0.38 9  165 219 
 SPBC HZ I         753 57.14         6.9 0.20            131            165 219 
 ZAR  HN ES        753 59.13                             123   -0.34 8  206 292 
 GUY2CHZ EP        753 44.09                             112   -1.06 7  304 235 
 GUY2CHN ES        754 20.11                             112    0.66 7  304 235 
 GUY2CHZ I         754 27.49         2.9 0.80                           304 235 
                                                                                
