 2012  310 0744 58.1 L   6.793 -73.120146.8  RSN 12 0.5 2.4LRSN                1
 GAP=140        0.99       4.5     4.8  6.4 -0.6438E+00  0.1089E+02  0.7550E+01E
 ACTION:UP  12-03-31 23:18 OP:EP   STATUS:               ID:20120310074458 L   I
 2012-03-10-0740-00M.COL___193                                                 6
 STAT SP IPHASW D HRMM SECON CODA AMPLIT PERI AZIMU VELO SNR AR TRES W  DIS CAZ7
 BAR2 SZ EP        745 18.01                             171     0.110   23 197 
 BAR2 SZ I         745 18.29        46.0 0.22                            23 197 
 BAR2 SZ ES        745 33.51                             171     0.210   23 197 
 BRR  HZ EP        745 19.90                             152     0.310   74 298 
 BRR  HN ES   1    745 36.82                             152     0.5 7   74 298 
 BRR  HZ I         745 39.62        49.2 0.14                            74 298 
 PAM  SZ EP   1    745 20.71                             151     0.3 7   76  38 
 PAM  SN ES   1    745 37.33                             151    -0.4 7   76  38 
 PAM  SZ I         745 40.14        24.5 0.24                            76  38 
 RUS  HZ EP        745 21.84                             144    -0.110  100 178 
 RUS  HN ES   1    745 40.23                             144    -0.3 7  100 178 
 RUS  HZ I         745 43.57        15.9 0.25                           100 178 
 PTB  HZ EP   1    745 24.59                             132    -0.8 7  150 259 
 PTB  HE ES   1    745 46.07                             132    -0.6 7  150 259 
 PTB  HZ I         745 51.91        30.5 0.44                           150 259 
 ZAR  HZ EP   1    745 30.14                             122    -0.8 6  207 292 
 ZAR  HN ES   1    745 56.36                             122    -0.2 6  207 292 
 ZAR  HZ I         746  2.48        42.2 0.33                           207 292 
 NOR  SZ EP   1    745 33.79                             118    -0.3 6  237 235 
 NOR  SN ES   1    746  1.98                             118    -0.2 6  237 235 
 CHI  HZ EP   1    745 35.88                             117     0.0 6  249 196 
 CHI  HN ES   1    746  4.94                             117    -0.4 6  249 196 
 CHI  HZ I         746  9.55        12.1 0.47                           249 196 
 HEL  HZ EP   1    745 39.33                             115     0.6 6  275 256 
 HEL  HN ES   1    746 10.62                             115     0.3 6  275 256 
 HEL  HZ I         746 16.95        13.6 0.25                           275 256 
 GUY  SZ EP   1    745 42.62                             112     0.3 5  305 235 
 GUY  SZ I         746 25.48        27.9 0.44                           305 235 
 RREF HZ EP   1    745 45.40                             111     0.9 5  323 230 
 RREF HN ES   1    746 21.11                             111     0.4 5  323 230 
 RREF HZ I         746 27.69        19.6 0.27                           323 230 
 PRA  HZ EP   1    745 51.43                             107    -0.4 4  393 210 
 PRA  HN ES   1    746 34.41                             107     0.8 4  393 210 
                                                                                
