 2016  610 0004 44.5 L   7.034 -73.341124.0  RSN  4 0.2 0.9LRSN                1
 GAP=239        0.52       4.9     3.7  4.8  0.9368E+01  0.4082E+01  0.5657E+01E
 Epicentro: BETULIA - SANTANDER                                                3
 ACTION:UPD 16-07-21 22:17 OP:rebc STATUS:               ID:20160610000444 L   I
 OLDACT:UP  16-06-10 13:56 OP:dani STATUS:               ID:20160610000001d    3
 OLDACT:DUP 16-06-10 13:52 OP:dani STATUS:               ID:20160610000001d    3
 2016-06-10-0000-00M.COL___343                                                 6
 STAT SP IPHASW D HRMM SECON CODA AMPLIT PERI AZIMU VELO AIN AR TRES W  DIS CAZ7
 BRR  HE ES        0 5 15.31                             160    0.0510 41.8 281 
 BAR2 EZ EP     C  0 5  2.66                             156    0.0610 51.9 160 
 BAR2 EZ ES        0 5 16.66                             156   -0.0410 51.9 160 
 RUS  HZ EP   2    0 5  9.31                             131    0.61 5  129 167 
 RUS  HE ES        0 5 27.49                             131   -0.0610  129 167 
 RUS  HZ I         0 5 33.50         1.0 0.24                           129 167 
 PTB  HZ EP        0 5  8.25                             129   -0.3210  135 246 
 PTB  HE ES        0 5 27.48                             129    0.1510  135 246 
 PTB  HZ I         0 5 32.61         1.6 0.12                           135 246 
                                                                                
