 2014  910 0943 32.6 L   6.828 -73.145141.2  RSN 10 0.5 1.8LRSN                1
 GAP=135        1.18       4.0     4.9  8.0 -0.4087E+01  0.1863E+02 -0.1885E+01E
 Epicentro: LOS SANTOS - SANTANDER                                             3
 ACTION:UPD 14-10-03 23:03 OP:nd   STATUS:               ID:20140910093817 L   I
 OLDACT:UPD 14-09-10 15:53 OP:FJMB STATUS:               ID:20140910093817 L   3
 2014-09-10-0938-17M.COL___278                                                 6
 STAT SP IPHASW D HRMM SECON CODA AMPLIT PERI AZIMU VELO AIN AR TRES W  DIS CAZ7
 BAR2 SZ EP     C  943 51.62                             169   -0.1310 26.4 189 
 BAR2 SZ ES        944  7.46                             169    0.7710 26.4 189 
 BAR2 SZ I         944 13.00         7.1 0.28            169           26.4 189 
 PAM  SZ EP        943 54.30                             151    0.1110 75.0  41 
 PAM  SN ES        944 11.07                             151    0.0410 75.0  41 
 PAM  SZ I         944 12.04        12.1 0.24            156           75.0  41 
 RUS  HZ EP        943 55.91                             142   -0.2210  104 176 
 RUS  HN ES        944 14.15                             142   -0.3410  104 176 
 RUS  HZ I         944 15.08         2.4 0.26            147            104 176 
 PTB  HZ EP        943 58.95                             131   -0.31 9  148 258 
 PTB  HN ES        944 19.50                             131   -0.56 9  148 258 
 PTB  HZ I         944 23.17         8.0 0.44            133            148 258 
 SPBC HZ EP        944  0.67                             128   -0.32 9  166 218 
 SPBC HN ES        944 22.99                             128   -0.14 9  166 218 
 SPBC HZ I         944 30.02         9.8 0.24            131            166 218 
 ZAR  HZ EP        944  5.76                             121    1.12 9  203 291 
 ZAR  HN ES        944 29.99                             121    0.36 9  203 291 
 ZAR  HZ I         944 36.91         8.0 0.28            124            203 291 
 NOR  HE ES        944 35.87                             117   -0.22 8  237 234 
 NOR  HZ I         944 39.14         7.2 0.18            121            237 234 
 SML  HN ES        944 35.89                             117   -0.91 8  241 335 
 SML  HZ I         944 40.04         4.9 0.10            120            241 335 
 GUY2CHZ EP        944 16.79                             111    0.58 7  303 234 
 GUY2CHN ES        944 50.13                             111   -0.09 7  303 234 
 GUY2CHZ I         945  1.04         3.2 0.52                           303 234 
 TOL  SN ES        944 59.33                             108    0.69 6  346 224 
                                                                                
