 2013 1210 0249 43.2 L   6.806 -73.164145.7  RSN 12 0.4 1.9LRSN                1
 GAP=134        1.03       2.9     4.3  6.1 -0.1857E+01  0.5807E+01  0.2731E+01E
 Epicentro: LOS SANTOS - SANTANDER                                             3
 ACTION:UPD 14-01-13 10:17 OP:ep   STATUS:               ID:20131210024943 L   I
 OLDACT:REG 13-12-10 07:59 OP:jn   STATUS:               ID:20131210024736     3
 2013-12-10-0247-36M.COL___250                                                 6
 STAT SP IPHASW D HRMM SECON CODA AMPLIT PERI AZIMU VELO AIN AR TRES W  DIS CAZ7
 BAR2 SZ EP        250  2.97                             170    0.1210 23.8 185 
 BAR2 SZ ES        250 18.22                             170    0.0610 23.8 185 
 BAR2 SZ I         250 19.48        30.6 0.28            170           23.8 185 
 BRR  HZ EP        250  4.78                             153    0.5410 69.1 299 
 BRR  HN ES        250 21.45                             153    0.8110 69.1 299 
 BRR  HZ I         250 24.42        13.6 0.30            149           69.1 299 
 PAM  SZ EP        250  5.91                             150    0.4410 78.2  41 
 PAM  SN ES        250 22.79                             150   -0.0410 78.2  41 
 PAM  SZ I         250 25.97        10.0 0.42            153           78.2  41 
 RUS  HZ EP        250  6.91                             143   -0.1110  101 175 
 RUS  HN ES        250 25.14                             143   -0.4510  101 175 
 RUS  HZ I         250 27.02         7.4 0.28            145            101 175 
 PTB  HZ EP        250  9.80                             132   -0.21 9  146 258 
 PTB  HN ES        250 30.12                             132   -0.79 9  146 258 
 PTB  HZ I         250 33.31         9.9 0.16            131            146 258 
 OCA  HN ES        250 32.86                             130   -0.58 9  159 354 
 OCA  HZ I         250 41.40         8.4 0.26            130            159 354 
 SPBC HZ EP        250 11.90                             129    0.26 9  162 218 
 SPBC HE ES        250 33.77                             129   -0.04 9  162 218 
 ZAR  HN ES   2    250 40.88                             123    0.32 4  202 292 
 ZAR  HZ I         250 46.74         7.7 0.28            122            202 292 
 NOR  HZ EP   1    250 19.07                             119    0.27 6  233 234 
 NOR  HN ES        250 46.49                             119   -0.08 8  233 234 
 NOR  HZ I         250 54.82         5.9 0.20            118            233 234 
 SML  HN ES        250 47.50                             118   -0.62 8  242 336 
 CHI  HZ EP        250 20.73                             117   -0.19 8  249 195 
 CHI  HN ES        250 50.41                             117    0.07 8  249 195 
 CHI  HZ I         250 56.70         3.9 0.36            118            249 195 
 HEL  HN ES   2    250 55.53                             115    1.10 4  270 256 
 HEL  HZ I         251  3.26         4.6 0.38            115            270 256 
                                                                                
