 2014 1110 0613 19.0 L   6.788 -73.211138.3  RSN  5 0.3 1.0LRSN                1
 GAP=129        0.73       4.7     4.4  7.1 -0.8280E+01  0.1391E+02 -0.1199E+02E
 Epicentro: ZAPATOCA - SANTANDER                                               3
 ACTION:UPD 14-12-19 15:41 OP:nd   STATUS:               ID:20141110061319 L   I
 OLDACT:ARG 14-11-10 13:00 OP:stll STATUS:               ID:20141110060746     3
 2014-11-10-0607-46M.COL___289                                                 6
 STAT SP IPHASW D HRMM SECON CODA AMPLIT PERI AZIMU VELO AIN AR TRES W  DIS CAZ7
 BAR2 SZ EP        613 37.37                             171   -0.3210 21.9 172 
 BAR2 SZ ES        613 52.22                             171   -0.0510 21.9 172 
 BRR  HZ EP        613 39.57                             153    0.5610 65.7 303 
 PAM  SZ EP        613 40.86                             147    0.0910 83.1  43 
 PAM  SN ES        613 57.64                             147   -0.1310 83.1  43 
 PAM  SZ I         614  0.15         1.9 0.50            147           83.1  43 
 RUS  HN ES        614  0.07                             142    0.1810  100 172 
 RUS  HZ I         614  2.23         1.5 0.40            141            100 172 
 PTB  HZ EP        613 44.34                             132   -0.34 9  140 259 
 PTB  HZ I         613 47.71         1.4 0.32            131            140 259 
 PTB  HN ES        614  4.70                             132   -0.02 9  140 259 
                                                                                
