 2012  310 0533 28.5 L   6.728 -73.158137.5  RSN  5 0.4 0.9LRSN                1
 GAP=138        0.80       5.8     5.5 11.4  0.7988E+01  0.2508E+02  0.1853E+02E
 ACTION:UP  12-03-31 23:18 OP:EP   STATUS:               ID:20120310053328 L   I
 2012-03-10-0530-00M.COL___193                                                 6
 STAT SP IPHASW D HRMM SECON CODA AMPLIT PERI AZIMU VELO SNR AR TRES W  DIS CAZ7
 BRR  HN ES   1    534  5.52                             150     0.7 7   74 304 
 PAM  SN ES   1    534  6.94                             147    -0.3 7   85  37 
 RUS  HZ EP   1    533 51.09                             144     0.2 7   93 175 
 RUS  HZ I         533 52.71         1.2 0.16                            93 175 
 RUS  HE ES   1    534  8.18                             144    -0.1 7   93 175 
 PTB  HZ EP   1    533 54.67                             131     0.1 7  145 262 
 PTB  HN ES   1    534 14.40                             131    -0.5 7  145 262 
 PTB  HZ I         534 22.91         1.3 0.20                           145 262 
 ZAR  HN ES   1    534 25.42                             120    -0.2 6  206 294 
                                                                                
