 2017  110 0454 24.8 L   6.122 -73.481135.8  RSN  6 0.3 1.1LRSN                1
 GAP=128        0.66       3.6     2.9  5.9  0.2207E+00  0.4023E+01 -0.4311E+01E
 Epicentro: SAN BENITO - SANTANDER                                             3
 ACTION:UPD 17-05-22 15:57 OP:jn   STATUS:               ID:20170110045424 L   I
 OLDACT:UP  17-01-10 14:41 OP:and  STATUS:               ID:20170110044746     3
 OLDACT:UP  17-01-10 14:41 OP:and  STATUS:               ID:20170110044746     3
 OLDACT:UP  17-01-10 14:41 OP:and  STATUS:               ID:20170110044746     3
 OLDACT:REG 17-01-10 12:36 OP:and  STATUS:               ID:20170110044746     3
 2017-01-10-0448-00M.COL___354                                                 6
 STAT SP IPHASW D HRMM SECON CODA AMPLIT PERI AZIMU VELO AIN AR TRES W  DIS CAZ7
 RUS  HZ EP        454 44.84                             158    0.2710 50.8 120 
 RUS  HN ES        454 59.80                             158   -0.1610 50.8 120 
 RUS  HZ I         455  2.48         2.1 0.34            161           50.8 120 
 BRR  HZ EP        454 47.91                             138    0.0910  112 347 
 BRR  HE ES   3    455  7.05                             138    1.30 2  112 347 
 PTB  HZ EP        454 48.10                             136   -0.2010  117 293 
 PTB  HN ES        455  6.79                             136    0.1810  117 293 
 PTB  HZ I         455  9.22         1.3 0.10            139            117 293 
 PAM  EZ EP        454 53.16                             127    0.36 9  160  33 
 PAM  EN ES        455 14.21                             127   -0.41 9  160  33 
 NOR  HZ EP        454 52.66                             126   -0.13 9  166 248 
 NOR  HN ES   4    455 15.89                             126    1.30 0  166 248 
 ZAR  HN ES        455 23.35                             118   -0.15 8  215 315 
 ZAR  HZ I         455 24.98         2.6 0.26            121            215 315 
                                                                                
