 2011  210 0407 38.6 L   6.800 -73.118143.4  RSN  9 0.4 2.4LRSN                1
 GAP=162        0.76       4.2     8.9  7.6 -0.1662E+02  0.2384E+02 -0.1974E+01E
 Epicentro: LOS SANTOS - SANTANDER                                             3
 ACTION:UP  11-03-28 15:07 OP:jfem STATUS:               ID:20110210040738 L   I
 2011-02-10-0403-49S.COL___136                                                 6
 STAT SP IPHASW D HRMM SECON CODA AMPLIT PERI AZIMU VELO SNR AR TRES W  DIS CAZ7
 BTL  SZ EP        4 7 58.22                             171     0.310   21 309 
 BAR2 SZ IP     D  4 7 58.27                             170     0.310   24 197 
 BAR2 SZ ES   2    4 8 12.91                             170    -0.2 5   24 197 
 BAR2 SZ I         4 8 16.50        97.2 0.43                            24 197 
 GIR2 SZ EP   1    4 7 58.37                             167     0.3 7   32 345 
 GIR2 SZ ES   2    4 8 13.64                             167     0.5 5   32 345 
 RUS  HZ EP   1    4 8  2.19                             144     0.1 7  100 178 
 RUS  HN ES   2    4 8 20.28                             144    -0.2 5  100 178 
 RUS  HZ I         4 8 22.40        31.5 0.43                           100 178 
 GRA  SZ IP        4 8  3.14                             137    -0.510  125  16 
 GRA  SZ ES   2    4 8 22.47                             137    -0.6 5  125  16 
 GRA  SZ I         4 8 23.88        48.4 0.36                           125  16 
 OCA  SZ EP   1    4 8  7.02                             129     0.2 7  161 352 
 OCA  SZ ES   2    4 8 28.40                             129    -0.4 5  161 352 
 OCA  SZ I         4 8 32.14        39.5 0.26                           161 352 
 NOR  SZ EP   1    4 8 14.06                             118    -0.4 6  237 235 
 NOR  SE ES   2    4 8 42.05                             118    -0.4 4  237 235 
 CHI  HZ EP   1    4 8 16.42                             117     0.1 6  249 196 
 CHI  HN ES   2    4 8 44.72                             117    -0.9 4  249 196 
 CHI  HZ I         4 8 52.91         9.5 0.33                           249 196 
 HEL  HZ EP   1    4 8 19.31                             114     0.3 6  275 256 
 HEL  HZ I         4 8 58.14        21.0 0.37                           275 256 
                                                                                
