 2011  110 0547 17.3 L   6.797 -73.136144.2  RSN  6 0.2 1.6LRSN                1
 GAP=160        0.59       3.0     6.1  6.0 -0.8854E+01  0.1341E+02 -0.4990E+01E
 Epicentro: LOS SANTOS - SANTANDER                                             3
 ACTION:UP  11-02-08 08:39 OP:pat  STATUS:               ID:20110110054717 L   I
 2011-01-10-0545-07S.COL___136                                                 6
 STAT SP IPHASW D HRMM SECON CODA AMPLIT PERI AZIMU VELO SNR AR TRES W  DIS CAZ7
 BTL  SZ EP   1    547 36.79                             172     0.1 7   20 313 
 BAR2 SZ EP        547 36.66                             170    -0.110   23 193 
 BAR2 SZ ES   1    547 51.57                             170    -0.3 7   23 193 
 BAR2 SZ I         547 53.41        19.5 0.21                            23 193 
 RUS  HZ EP   1    547 40.49                             144    -0.4 7  100 177 
 RUS  HN ES   1    547 59.58                             144     0.3 7  100 177 
 RUS  HZ I         548  0.27         3.6 0.28                           100 177 
 GRA  SZ EP        547 42.48                             137     0.110  126  17 
 GRA  SZ ES   1    548  2.34                             137     0.4 7  126  17 
 GRA  SZ I         548  3.67         3.8 0.39                           126  17 
 OCA  SZ EP   1    547 45.47                             129    -0.1 7  161 353 
 OCA  SZ ES   1    548  7.29                             129    -0.3 7  161 353 
 OCA  SZ I         548 12.86         4.2 0.20                           161 353 
 NOR  SZ EP   1    547 53.04                             118     0.0 6  235 235 
 NOR  SN ES   1    548 21.11                             118     0.2 6  235 235 
                                                                                
