 2012 1210 0714 49.4 L   6.744 -73.186148.9  RSN  4 0.2 1.2LRSN                1
 GAP=272        0.52       7.5     5.7  6.0  0.1794E+02  0.1056E+02  0.4659E+01E
 Epicentro: VILLANUEVA - SANTANDER                                             3
 ACTION:UPD 13-01-04 14:26 OP:ep   STATUS:               ID:20121210071449 L   I
 2012-12-10-0710-00M.COL___242                                                 6
 STAT SP IPHASW D HRMM SECON CODA AMPLIT PERI AZIMU VELO AIN AR TRES W  DIS CAZ7
 BAR2 SZ EP   1    715  9.07                             173   -0.20 7 16.8 179 
 BAR2 SZ ES   1    715 25.12                             173    0.33 7 16.8 179 
 BAR2 SZ I         715 27.30         4.2 0.17                          16.8 179 
 RUS  HE ES   1    715 31.23                             146   -0.27 7 94.8 173 
 PTB  HZ EP   1    715 16.00                             134   -0.12 7  142 261 
 PTB  HN ES   1    715 36.99                             134    0.01 7  142 261 
 PTB  HZ I         715 38.68         2.0 0.26                           142 261 
 CHI  HZ EP   1    715 26.85                             119    0.37 6  242 195 
 MON  HN ES   4    716 14.81                             109   -2.10 0  354 310 
                                                                                
