 2016  410 0837  9.3 L   6.818 -73.166147.8  RSN 13 0.5 2.1LRSN                1
 GAP= 69        1.07       3.5     3.1  6.4 -0.5379E+00  0.6002E+01 -0.1831E+01E
 Epicentro: LOS SANTOS - SANTANDER                                             3
 ACTION:UPD 16-05-05 14:20 OP:rebc STATUS:               ID:20160410083709 L   I
 OLDACT:UP  16-04-10 18:31 OP:mh   STATUS:               ID:20160410082748d    3
 OLDACT:UP  16-04-10 18:28 OP:mh   STATUS:               ID:20160410082748d    3
 OLDACT:DUP 16-04-10 18:16 OP:mh   STATUS:               ID:20160410082748d    3
 OLDACT:UP  16-04-10 18:03 OP:mh   STATUS:               ID:20160410082747     3
 OLDACT:REG 16-04-10 12:52 OP:mh   STATUS:               ID:20160410082747     3
 2016-04-10-0827-47M.COL___273                                                 6
 STAT SP IPHASW D HRMM SECON CODA AMPLIT PERI AZIMU VELO AIN AR TRES W  DIS CAZ7
 BAR2 EZ EP   1    837 28.78                             170   -0.40 7 25.0 184 
 BAR2 EZ ES        837 44.59                             170   -0.1210 25.0 184 
 BAR2 EZ I         837 45.96        44.0 0.20            170           25.0 184 
 PAM  EZ EP        837 32.22                             151    0.5210 77.3  42 
 PAM  EN ES        837 49.37                             151    0.1810 77.3  42 
 PAM  EZ I         837 51.71        13.5 0.58            153           77.3  42 
 RUS  HZ EP        837 33.37                             144   -0.0010  103 175 
 RUS  HN ES        837 52.15                             144   -0.0310  103 175 
 RUS  HZ I         837 53.18        13.8 0.24            146            103 175 
 PTB  HZ EP        837 35.96                             133   -0.28 9  146 258 
 PTB  HN ES        837 56.88                             133   -0.40 9  146 258 
 PTB  HZ I         838  1.80        11.8 0.35            131            146 258 
 TAM  HZ EP        837 37.36                             130    0.01 9  158 105 
 TAM  HZ I         837 37.68        13.3 0.20            134            158 105 
 TAM  HN ES        837 58.52                             130   -0.74 9  158 105 
 OCA  HZ EP        837 38.26                             130    0.73 9  158 354 
 OCA  HN ES        837 59.52                             130   -0.05 9  158 354 
 OCA  HZ I         838  4.70        35.0 0.12            130            158 354 
 SPBC HZ EP        837 38.37                             129    0.43 9  163 218 
 SPBC HN ES   1    838  0.99                             129    0.69 7  163 218 
 SPBC HZ I         838  3.00        23.3 0.20            129            163 218 
 ZAR  HZ EP   1    837 41.20                             123   -0.36 6  201 292 
 ZAR  HN ES        838  7.32                             123    0.57 9  201 292 
 ZAR  HZ I         838 13.40        11.0 0.32            122            201 292 
 NOR  HZ EP   1    837 45.28                             119    0.23 6  234 234 
 NOR  HN ES        838 13.30                             119    0.34 8  234 234 
 NOR  HZ I         838 14.73         9.3 0.06            119            234 234 
 ROSC BZ EP   4    837 49.61                             117    2.05 0  253 210 
 ROSC BN ES   4    838 21.58                             117    4.15 0  253 210 
 ROSC BZ I         838 25.17        10.9 0.35            117            253 210 
 HEL  HN ES   1    838 20.85                             115    0.14 6  270 255 
 HEL  HZ I         838 29.45         5.6 0.23            115            270 255 
 URE  HZ EP        837 49.26                             114   -0.87 7  281 292 
 URE  HN ES        838 21.06                             114   -0.94 7  281 292 
 URE  HZ I         838 37.97         5.7 0.16            114            281 292 
 GUY2CHZ EP   4    837 55.26                             113    2.36 0  301 234 
 GUY2CHN ES   4    838 22.52                             113   -4.41 0  301 234 
 GUY2CHZ I         838 34.09         6.2 0.52                           301 234 
                                                                                
