 2013 1010 0118 55.3 L   6.712 -73.159140.8  RSN  7 0.4 1.7LRSN                1
 GAP=139        1.08       5.8     5.0  9.2 -0.5618E+01  0.1196E+02 -0.3962E+01E
 Epicentro: VILLANUEVA - SANTANDER                                             3
 ACTION:UPD 13-11-25 09:20 OP:ep   STATUS:               ID:20131010011855 L   I
 OLDACT:UP  13-10-10 12:29 OP:mh   STATUS:               ID:20131010011748     3
 OLDACT:REG 13-10-10 12:25 OP:mh   STATUS:               ID:20131010011748     3
 2013-10-10-0117-48M.COL___233                                                 6
 STAT SP IPHASW D HRMM SECON CODA AMPLIT PERI AZIMU VELO AIN AR TRES W  DIS CAZ7
 BAR2 SZ EP   1    119 14.52                             174    0.37 7 13.5 191 
 BAR2 SZ ES   1    119 28.89                             174    0.01 7 13.5 191 
 BAR2 SZ I         119 30.18        20.9 0.16            173           13.5 191 
 BRR  HZ EP        119 16.46                             150    0.3310 75.1 306 
 BRR  HN ES        119 33.21                             150    0.8210 75.1 306 
 BRR  HZ I         119 37.45         8.8 0.12            151           75.1 306 
 PAM  SZ EP        119 17.60                             147    0.0810 86.0  36 
 PAM  SN ES        119 34.20                             147   -0.6710 86.0  36 
 RUS  HN ES   1    119 35.53                             146    0.05 7 91.0 175 
 RUS  HZ I         119 37.64         6.6 0.24            149           91.0 175 
 PTB  HZ EP        119 21.53                             131   -0.04 9  145 263 
 PTB  HN ES        119 41.37                             131   -0.71 9  145 263 
 PTB  HZ I         119 46.44         5.4 0.16            133            145 263 
 SPBC HN ES   1    119 43.92                             129    0.00 7  155 221 
 ZAR  HN ES        119 52.73                             121   -0.21 8  207 295 
                                                                                
