 2016  810 0747 57.0 L   6.827 -73.223149.8  RSN  4 0.3 1.3LRSN                1
 GAP=230        0.75       6.1     7.5  9.0 -0.1717E+02 -0.2883E+02  0.2404E+02E
 Epicentro: ZAPATOCA - SANTANDER                                               3
 ACTION:UPD 16-10-29 15:34 OP:rebc STATUS:               ID:20160810074757 L   I
 OLDACT:REG 16-08-10 12:35 OP:dnl  STATUS:               ID:20160810073759     3
 2016-08-10-0737-59S.COL___346                                                 6
 STAT SP IPHASW D HRMM SECON CODA AMPLIT PERI AZIMU VELO AIN AR TRES W  DIS CAZ7
 BAR2 EZ EP        748 16.70                             170   -0.4410 26.3 170 
 BAR2 EZ I         748 37.02         3.3 0.26                          26.3 170 
 BRR  HZ EP        748 18.42                             156    0.3410 62.3 300 
 BRR  HN ES        748 34.73                             156    0.1710 62.3 300 
 BRR  HZ I         748 38.55         4.1 0.36                          62.3 300 
 PTB  HZ EP        748 23.52                             134   -0.06 9  140 257 
 PTB  HE ES        748 43.97                             134   -0.37 9  140 257 
 PTB  HZ I         748 48.14         2.3 0.14                           140 257 
 SPBC HZ EP        748 25.68                             130    0.17 9  160 216 
 SPBC HE ES        748 47.99                             130    0.21 9  160 216 
 SPBC HZ I         748 51.40         3.5 0.26                           160 216 
                                                                                
