 2010  210 0723 32.8 L   6.794 -73.212139.8  RSN  8 0.6 2.1LRSN                1
 GAP=152        1.18       7.5    22.0 12.0 -0.9725E+02  0.1152E+03 -0.1238E+02E
 Epicentro: ZAPATOCA - SANTANDER                                               3
 ACTION:UP  10-08-24 09:48 OP:vdl  STATUS:               ID:20100210072332 L   I
 2010-02-10-0719-50S.COL___089                                                 6
 STAT SP IPHASW D HRMM SECON CODA AMPLIT PERI AZIMU VELO SNR AR TRES W  DIS CAZ7
 BAR2 SZ IP        723 51.49                             170    -0.310   23 172 
 BAR2 SZ ES   1    724  6.41                             170    -0.1 7   23 172 
 GIR2 SZ EP   1    723 52.56                             167     0.7 7   32   4 
 GUE  SZ EP   1    723 57.38                             137     0.2 7  119  15 
 GRA  SZ IP        723 58.27                             135     0.410  129  20 
 GRA  SZ ES   1    724 17.35                             135     0.0 7  129  20 
 OCA  SZ EP   1    723 59.52                             128    -1.2 7  160 356 
 OCA  SZ ES   1    724 22.24                             128    -0.2 7  160 356 
 OCA  SZ I         724 27.82        23.6 0.36                           160 356 
 CHI  HZ EP   1    724  9.46                             116    -0.5 6  246 194 
 CHI  HZ I         724 12.15         5.2 0.34                           246 194 
 RREF HZ EP   1    724 19.12                             110     1.1 5  316 229 
 PRA  HZ EP   1    724 25.19                             106    -0.5 4  388 209 
 PRA  HZ I         725 12.67         4.5 0.26                           388 209 
                                                                                
