 2010 1210 0113 58.3 L   6.777 -73.191138.0  RSN 11 0.4 2.3LRSN                1
 GAP=132        0.75       4.0     9.5  8.5 -0.1718E+02  0.3917E+02 -0.3839E+01E
 Epicentro: LOS SANTOS - SANTANDER                                             3
 ACTION:UP  11-01-14 15:23 OP:pat  STATUS:               ID:20101210011358 L   I
 2010-12-10-0113-00S.COL___135                                                 6
 STAT SP IPHASW D HRMM SECON CODA AMPLIT PERI AZIMU VELO SNR AR TRES W  DIS CAZ7
 BTL  SZ IP        114 17.19                             172     0.310   18 331 
 BAR2 SZ IP        114 17.01                             171     0.010   20 178 
 BAR2 SZ ES   2    114 31.38                             171    -0.1 5   20 178 
 GIR2 SZ EP   2    114 17.09                             166     0.0 5   33 359 
 RUS  HZ EP        114 21.01                             143    -0.210   99 173 
 RUS  HE ES   2    114 39.16                             143     0.2 5   99 173 
 RUS  HZ I         114 41.50        35.8 0.27                            99 173 
 GRA  SZ EP   1    114 23.77                             135     0.5 7  130  19 
 GRA  SZ ES   2    114 43.00                             135     0.3 5  130  19 
 OCA  SZ EP        114 25.52                             128    -0.7 9  162 355 
 OCA  SZ I         114 50.44        32.2 0.14                           162 355 
 YOP  SZ EP   2    114 27.52                             125    -0.3 4  179 152 
 YOP  SZ I         114 28.29        15.5 0.19                           179 152 
 NOR  SZ EP   1    114 33.42                             118     0.4 6  229 234 
 CHI  HZ EP   1    114 35.28                             116     0.1 6  245 194 
 CHI  HE ES   2    115  3.35                             116    -0.6 4  245 194 
 CHI  HZ I         115  8.55        13.4 0.38                           245 194 
 RREF HZ EP   1    114 43.91                             110     0.4 5  316 229 
 RREF HN ES   2    115 18.67                             110    -0.1 3  316 229 
 RREF HZ I         115 25.44        13.9 0.26                           316 229 
 PRA  HZ EP   1    114 51.26                             106     0.2 4  387 209 
 PRA  HE ES   2    115 31.28                             106    -0.9 3  387 209 
                                                                                
