 2014  910 0721 28.5 L   6.832 -73.092148.5  RSN 17 0.5 2.2LRSN                1
 GAP=142        1.17       2.9     4.7  5.7 -0.2651E+01  0.9555E+01  0.2127E+01E
 Epicentro: LOS SANTOS - SANTANDER                                             3
 ACTION:UPD 14-10-03 23:03 OP:nd   STATUS:               ID:20140910071819 L   I
 OLDACT:UPD 14-09-10 14:12 OP:FJMB STATUS:               ID:20140910071819 L   3
 2014-09-10-0718-19M.COL___278                                                 6
 STAT SP IPHASW D HRMM SECON CODA AMPLIT PERI AZIMU VELO AIN AR TRES W  DIS CAZ7
 BAR2 SZ EP        721 48.66                             169    0.1010 28.3 201 
 BAR2 SZ ES        722  3.75                             169   -0.4610 28.3 201 
 BAR2 SZ I         722  6.35        17.8 0.24            168           28.3 201 
 PAM  SZ IP     D  721 51.27                             153    0.6410 71.0  38 
 PAM  SN ES        722  8.55                             153    0.6410 71.0  38 
 PAM  SZ I         722 10.76        39.8 0.56            156           71.0  38 
 BRR  HZ EP        721 50.50                             152    0.3510 75.0 294 
 BRR  HN ES        722  7.84                             152    0.8010 75.0 294 
 BRR  HZ I         722 11.46        28.7 0.42            150           75.0 294 
 RUS  HZ EP        721 52.33                             143   -0.4110  104 179 
 RUS  HN ES        722 11.43                             143   -0.2310  104 179 
 RUS  HZ I         722 12.59        12.7 0.32            145            104 179 
 PTB  HZ EP   4    721 55.09                             131   -1.18 0  154 258 
 PTB  HN ES   4    722 16.41                             131   -1.53 0  154 258 
 PTB  HZ I         722 18.52        17.4 0.42            131            154 258 
 OCA  HZ EP        721 56.53                             131   -0.24 9  158 351 
 OCA  HN ES        722 18.31                             131   -0.52 9  158 351 
 OCA  HZ I         722 23.10        18.7 0.16            132            158 351 
 SPBC HZ EP        721 57.58                             128   -0.23 9  170 220 
 SPBC HE ES        722 19.98                             128   -0.70 9  170 220 
 ZAR  HZ EP        722  1.39                             122   -0.16 8  208 291 
 ZAR  HN ES        722 26.62                             122   -0.72 8  208 291 
 ZAR  HZ I         722 32.33        27.5 0.32            123            208 291 
 NOR  HZ EP        722  5.17                             118    0.06 8  242 235 
 NOR  HN ES        722 33.12                             118   -0.56 8  242 235 
 NOR  HZ I         722 38.49        11.2 0.28            119            242 235 
 SML  HZ EP        722  4.64                             118   -0.56 8  243 334 
 SML  HN ES        722 33.50                             118   -0.34 8  243 334 
 SML  HZ I         722 40.38        29.9 0.10            119            243 334 
 CHI  HZ EP        722  6.72                             117   -0.16 8  254 196 
 CHI  HE ES        722 36.89                             117    0.07 8  254 196 
 CHI  HZ I         722 42.03         6.3 0.28            119            254 196 
 ROSC BZ EP   4    722  8.53                             117    1.11 0  259 212 
 ROSC BN ES   4    722 40.44                             117    2.66 0  259 212 
 GUY2CHZ EP        722 13.80                             112    0.80 7  308 235 
 GUY2CHN ES        722 48.97                             112    1.26 7  308 235 
 GUY2CHZ I         722 55.45         9.2 0.30                           308 235 
 CBOC HZ EP        722 16.78                             110    0.50 7  340 252 
 CBOC HN ES        722 54.03                             110    0.46 7  340 252 
 CBOC HZ I         722 59.53         2.7 0.62            111            340 252 
 TOL  SZ EP        722 18.39                             109    0.77 6  350 225 
 TOL  SN ES        722 56.38                             109    0.44 6  350 225 
 TOL  SZ I         723  6.09        18.3 0.70            110            350 225 
 MON  HZ EP   4    722 15.94                             109   -1.95 0  356 307 
 MON  HN ES   4    722 53.88                             109   -2.54 0  356 307 
 MON  HZ I         722 55.05         5.0 0.12            110            356 307 
 PRA  HZ EP        722 22.26                             107   -0.54 6  398 210 
 PRA  HN ES        723  5.21                             107    0.05 6  398 210 
 ORTC HZ EP        722 23.06                             106   -0.18 6  402 217 
 ORTC HN ES        723  5.39                             106   -0.56 6  402 217 
 ORTC HZ I         723 12.09         4.9 0.62            108            402 217 
                                                                                
