 2017  910 0110 51.4 L   6.831 -72.961154.9  RSN  5 0.4 1.2LRSN                1
 GAP=160        1.13       5.9     8.2  8.3 -0.1590E+02  0.1670E+01  0.8127E+01E
 Epicentro: CEPITA - SANTANDER                                                 3
 ACTION:UPD 17-10-05 19:10 OP:rebc STATUS:               ID:20170910011051 L   I
 OLDACT:DUP 17-09-10 14:40 OP:dhb  STATUS:               ID:20170910010746d    3
 2017-09-10-0108-00M.COL___410                                                 6
 STAT SP IPHASW D HRMM SECON CODA AMPLIT PERI AZIMU VELO AIN AR TRES W  DIS CAZ7
 BAR2 EZ EP        111 12.63                             166    0.1610 36.0 223 
 BAR2 EZ ES        111 28.26                             166   -0.6110 36.0 223 
 BAR2 EZ I         111 29.32         3.3 0.30            166           36.0 223 
 PAM  EZ EP        111 13.29                             157   -0.6010 63.2  27 
 PAM  EE ES        111 31.90                             157    0.4910 63.2  27 
 PAM  EZ I         111 34.51         1.5 0.12            159           63.2  27 
 BRR  HZ EP        111 14.53                             149   -0.0610 88.4 290 
 BRR  HN ES        111 32.82                             149    0.1710 88.4 290 
 BRR  HZ I         111 35.46         3.4 0.16            148           88.4 290 
 RUS  HZ EP        111 17.08                             144    0.7110  105 187 
 RUS  HN ES        111 35.69                             144   -0.1410  105 187 
 RUS  HZ I         111 37.33                             146            105 187 
 SPBC HZ EP        111 21.69                             128   -0.46 9  179 223 
 SPBC HE ES        111 46.43                             128    0.31 9  179 223 
 SPBC HZ I         111 50.27         2.4 0.19            129            179 223 
                                                                                
