 2012  610 0629 55.9 L   6.820 -73.147147.3  RSN  5 0.3 1.6LRSN                1
 GAP=183        0.60       3.6     4.4  7.0  0.2714E+01  0.2911E+01 -0.7090E+01E
 Epicentro: LOS SANTOS - SANTANDER                                             3
 ACTION:UPD 12-08-06 17:48 OP:ep   STATUS:               ID:20120610062954 L   I
 2012-06-10-0630-00M.COL___201                                                 6
 STAT SP IPHASW D HRMM SECON CODA AMPLIT PERI AZIMU VELO AIN AR TRES W  DIS CAZ7
 BAR2 SZ EP        630 15.86                             170    0.1010 25.4 189 
 BAR2 SZ ES   1    630 31.45                             170    0.20 7 25.4 189 
 BAR2 SZ I         630 32.77         6.7 0.29            172           25.4 189 
 RUS  HZ EP   1    630 19.73                             143   -0.23 7  103 176 
 RUS  HN ES   1    630 38.71                             143   -0.01 7  103 176 
 RUS  HZ I         630 41.53         5.1 0.32            149            103 176 
 PTB  HZ EP   1    630 22.77                             132   -0.25 7  148 258 
 PTB  HN ES   1    630 43.97                             132   -0.20 7  148 258 
 PTB  HZ I         630 46.00         4.4 0.17            134            148 258 
 OCA  HZ EP   1    630 24.62                             130    0.50 7  158 353 
 OCA  HN ES   1    630 45.62                             130   -0.52 7  158 353 
 OCA  HZ I         630 50.90         7.4 0.27            132            158 353 
 ZAR  HE ES   1    630 54.01                             123    0.35 6  203 292 
 ZAR  HZ I         631  0.38         4.6 0.22            124            203 292 
                                                                                
