 2010 1110 0429 10.0 L   6.681 -73.219150.0  RSN  4 0.4 1.4LRSN                1
 GAP=207        1.01      10.3    14.1 15.0  0.5018E+02 -0.4772E+02  0.3784E+02E
 Epicentro: BARICHARA - SANTANDER                                              3
 ACTION:UP  10-12-17 16:51 OP:REBC STATUS:               ID:20101110042910 L   I
 2010-11-10-0426-55S.COL___128                                                 6
 STAT SP IPHASW D HRMM SECON CODA AMPLIT PERI AZIMU VELO SNR AR TRES W  DIS CAZ7
 BAR2 SZ EP   1    429 29.54                             176    -0.4 7   11 158 
 BAR2 SZ I         429 29.98        11.3 0.00                            11 158 
 BRR  HZ EP        429 31.43                             153    -0.210   72 311 
 BRR  HZ I         429 31.76        13.0 0.47                            72 311 
 BRR  HN ES        429 48.81                             153     0.210   72 311 
 RUS  HZ EP   1    429 34.05                             148     0.7 7   88 170 
 RUS  HN ES   2    429 51.18                             148    -0.4 5   88 170 
 RUS  HZ I         429 53.27         2.7 0.41                            88 170 
 NOR  SN ES   2    430 11.18                             121    -0.2 4  221 236 
 NOR  SZ I         430 15.64         0.4 0.73                           221 236 
                                                                                
