 2017  210 0424  7.5 L   6.789 -73.194131.9  RSN  4 0.5 1.1LRSN                1
 GAP=143        1.15       6.6     6.4  9.9 -0.1315E+02  0.1964E+02 -0.6982E+01E
 Epicentro: ZAPATOCA - SANTANDER                                               3
 ACTION:UPD 17-05-24 15:34 OP:jn   STATUS:               ID:20170210042407 L   I
 OLDACT:DUP 17-02-10 16:23 OP:edw  STATUS:               ID:20170210041746d    3
 2017-02-10-0418-00M.COL___364                                                 6
 STAT SP IPHASW D HRMM SECON CODA AMPLIT PERI AZIMU VELO AIN AR TRES W  DIS CAZ7
 BAR2 EZ ES        424 39.52                             170    0.0810 21.8 177 
 BAR2 EZ I         424 41.42         4.6 0.18            176           21.8 177 
 PAM  EZ EP     D  424 28.16                             147   -0.4110 81.8  42 
 PAM  EN ES        424 45.18                             147    0.1910 81.8  42 
 PAM  EZ I         424 50.36         3.7 0.44            147           81.8  42 
 RUS  HZ EP        424 29.54                             141   -0.3510 99.9 173 
 RUS  HN ES        424 47.47                             141    0.1510 99.9 173 
 PTB  HZ EP        424 33.80                             130    0.91 9  142 259 
 PTB  HN ES        424 52.13                             130   -0.53 9  142 259 
 PTB  HZ I         424 56.02         1.0 0.26            132            142 259 
                                                                                
