 2017  210 0646 26.6 L   6.750 -73.161144.9  RSN  4 0.2 1.0LRSN                1
 GAP=232        0.47       3.8     3.8  3.9  0.7889E+01  0.2759E+01  0.1240E+01E
 Epicentro: LOS SANTOS - SANTANDER                                             3
 ACTION:UPD 17-05-24 15:34 OP:jn   STATUS:               ID:20170210064626 L   I
 OLDACT:DUP 17-02-10 17:59 OP:edw  STATUS:               ID:20170210063745d    3
 2017-02-10-0638-00M.COL___358                                                 6
 STAT SP IPHASW D HRMM SECON CODA AMPLIT PERI AZIMU VELO AIN AR TRES W  DIS CAZ7
 BAR2 EZ ES        647  0.90                             173   -0.2210 17.7 188 
 BRR  HZ EP        646 47.73                             152    0.0510 72.6 303 
 BRR  HN ES        647  4.31                             152    0.1410 72.6 303 
 BRR  HZ I         647  9.63         3.2 0.52            152           72.6 303 
 RUS  HZ EP        646 49.98                             145    0.1410 95.2 175 
 RUS  HN ES        647  8.06                             145    0.0610 95.2 175 
 RUS  HZ I         647 10.05         1.7 0.36            149           95.2 175 
 PTB  HZ EP        646 52.96                             132   -0.25 9  145 261 
 PTB  HN ES        647 14.06                             132    0.05 9  145 261 
 PTB  HZ I         647 16.52         0.9 0.42            134            145 261 
                                                                                
