 2013  710 0924 17.1 L   6.754 -73.189144.8  RSN  5 0.6 1.3LRSN                1
 GAP=196        1.40       7.1     9.8 10.2  0.2845E+02 -0.1752E+01 -0.2279E+02E
 Epicentro: VILLANUEVA - SANTANDER                                             3
 ACTION:UPD 13-08-12 10:36 OP:ep   STATUS:               ID:20130710092417 L   I
 OLDACT:REG 13-07-10 08:11 OP:nd   STATUS:               ID:20130710091959     3
 2013-07-10-0919-59M.COL___266                                                 6
 STAT SP IPHASW D HRMM SECON CODA AMPLIT PERI AZIMU VELO AIN AR TRES W  DIS CAZ7
 BAR2 SZ EP        924 36.12                             173   -0.4110 17.9 178 
 BAR2 SZ ES        924 51.54                             173   -0.1310 17.9 178 
 BAR2 SZ I         924 52.86         3.6 0.16            178           17.9 178 
 BRR  HZ EP        924 38.51                             153    0.4410 69.7 304 
 BRR  HN ES        924 55.21                             153    0.7910 69.7 304 
 BRR  HZ I         925  5.33         3.9 0.66            151           69.7 304 
 RUS  HZ EP        924 41.31                             145    0.8710 96.0 173 
 RUS  HN ES        924 58.01                             145   -0.6210 96.0 173 
 RUS  HZ I         924 59.29         2.6 0.68            155           96.0 173 
 PTB  HZ EP        924 43.05                             133   -0.44 9  142 260 
 PTB  HN ES        925  3.93                             133   -0.13 9  142 260 
 PTB  HZ I         925  6.42         2.3 0.18            137            142 260 
 SML  HZ EP        924 54.11                             117    0.13 8  246 337 
 SML  HN ES        925 21.90                             117   -0.83 8  246 337 
 SML  HZ I         925 30.77         2.4 0.10            119            246 337 
                                                                                
