 2014  410 0453 24.0 L   6.803 -73.139149.1  RSN  5 0.5 1.5LRSN                1
 GAP=184        1.16       4.8     7.2 13.5  0.7722E+01  0.1755E+01 -0.2201E+02E
 Epicentro: LOS SANTOS - SANTANDER                                             3
 ACTION:UPD 14-05-13 23:07 OP:nd   STATUS:               ID:20140410045324 L   I
 OLDACT:UP  14-04-10 15:02 OP:mh   STATUS:               ID:20140410044815     3
 OLDACT:REG 14-04-10 13:21 OP:l    STATUS:               ID:20140410044815     3
 2014-04-10-0448-15M.COL___256                                                 6
 STAT SP IPHASW D HRMM SECON CODA AMPLIT PERI AZIMU VELO AIN AR TRES W  DIS CAZ7
 RUS  HZ EP        453 48.71                             144    0.5810  101 176 
 RUS  HE ES        454  6.84                             144   -0.0910  101 176 
 RUS  HZ I         454  8.59         2.5 0.22            147            101 176 
 PTB  HZ EP        453 50.52                             132   -0.83 9  149 259 
 PTB  HN ES        454 12.40                             132   -0.25 9  149 259 
 PTB  HZ I         454 19.94         4.0 0.32            132            149 259 
 OCA  HN ES        454 14.69                             130   -0.17 9  160 353 
 ZAR  HN ES        454 23.12                             123    0.84 9  205 292 
 ZAR  HZ I         454 30.05         2.6 0.08            123            205 292 
 SML  HZ EP        454  0.97                             118    0.11 8  244 335 
 SML  HN ES        454 29.42                             118   -0.15 8  244 335 
 SML  HZ I         454 34.24         5.8 0.07            120            244 335 
                                                                                
