 2012  910 0738 53.2 L   6.740 -73.123143.8  RSN  5 0.3 1.6LRSN                1
 GAP=142        0.75       5.1     4.8  7.8 -0.2210E+01 -0.2383E+01  0.5453E+01E
 Epicentro: JORDAN - SANTANDER                                                 3
 ACTION:UPD 12-10-22 14:18 OP:ep   STATUS:               ID:20120910073853 L   I
 2012-09-10-0730-00M.COL___227                                                 6
 STAT SP IPHASW D HRMM SECON CODA AMPLIT PERI AZIMU VELO AIN AR TRES W  DIS CAZ7
 BAR2 SZ EP   1    739 12.38                             173   -0.13 7 17.6 202 
 BAR2 SZ I         739 29.21        14.1 0.16                          17.6 202 
 BRR  HZ EP        739 14.53                             150    0.0510 76.7 302 
 BRR  HN ES        739 31.48                             150    0.4110 76.7 302 
 BRR  HZ I         739 34.13         7.5 0.22                          76.7 302 
 PAM  SZ EP        739 15.67                             149    0.2110 81.1  35 
 PAM  SZ I         739 16.00         7.9 0.17                          81.1  35 
 PAM  SN ES   1    739 32.18                             149   -0.62 7 81.1  35 
 RUS  HZ EP   1    739 16.62                             145    0.32 7 93.8 177 
 RUS  HE ES   1    739 34.28                             145   -0.02 7 93.8 177 
 RUS  HZ I         739 36.91         3.5 0.23                          93.8 177 
 PTB  HZ EP   1    739 19.73                             131   -0.42 7  149 262 
 PTB  HN ES   1    739 40.73                             131   -0.43 7  149 262 
                                                                                
