 2011  810 0115 56.1 L   6.705 -73.276139.7  RSN  4 0.2 1.7LRSN                1
 GAP=146        0.37       3.4     9.1  4.9  0.2068E+02 -0.8017E+01 -0.4146E+01E
 Epicentro: GALAN - SANTANDER                                                  3
 ACTION:UPD 12-07-25 14:07 OP:epov STATUS:               ID:20110810011556 L   I
 2011-08-10-0112-45S.COL___149                                                 6
 STAT SP IPHASW D HRMM SECON CODA AMPLIT PERI AZIMU VELO AIN AR TRES W  DIS CAZ7
 BAR2 SZ EP   1    116 14.64                             173   -0.21 7 16.3 140 
 BAR2 SZ I         116 15.14        13.3 0.08                          16.3 140 
 BAR2 SZ ES   2    116 29.41                             173   -0.08 5 16.3 140 
 BRR  HZ EP   1    116 16.36                             153    0.11 7 65.5 313 
 BRR  HZ I         116 18.06        11.1 0.04                          65.5 313 
 BRR  HE ES   2    116 31.89                             153   -0.09 5 65.5 313 
 RUS  HZ EP        116 18.74                             145    0.0910 92.4 167 
 RUS  HZ I         116 19.67         4.4 0.03                          92.4 167 
 RUS  HN ES   1    116 36.27                             145    0.02 7 92.4 167 
 OCA  SZ EP   2    116 24.52                             126   -0.31 5  170 358 
 OCA  SZ ES   2    116 47.55                             126    0.29 5  170 358 
 OCA  SZ I         117  5.04        10.6 0.34                           170 358 
                                                                                
