 2015  510 0826 44.2 L   6.545 -73.207140.9  RSN  4 0.3 1.3LRSN                1
 GAP=142        0.67       7.3     8.8  6.5  0.5423E+02  0.3667E+01 -0.4875E+01E
 Epicentro: PINCHOTE - SANTANDER                                               3
 ACTION:UPD 15-09-10 22:03 OP:cam  STATUS:               ID:20150510082644 L   I
 OLDACT:UP  15-05-10 17:24 OP:drio STATUS:               ID:20150510081750     3
 OLDACT:REG 15-05-10 13:39 OP:y    STATUS:               ID:20150510081750     3
 2015-05-10-0817-50M.COL___261                                                 6
 STAT SP IPHASW D HRMM SECON CODA AMPLIT PERI AZIMU VELO AIN AR TRES W  DIS CAZ7
 BAR2 EZ EP        827  3.26                             177    0.2510 5.92  27 
 BAR2 EZ I         827 18.90         4.9 0.36             47           5.92  27 
 RUS  HZ EP        827  5.41                             151   -0.2510 73.4 169 
 RUS  HE ES        827 22.48                             151    0.0810 73.4 169 
 RUS  HZ I         827 26.40         1.9 0.20             47           73.4 169 
 BRR  HZ EP        827  5.25                             147   -0.3310 83.6 318 
 BRR  HE ES        827 22.30                             147    0.0310 83.6 318 
 BRR  HZ I         827 26.01         4.1 0.10             47           83.6 318 
 OCA  HN ES   4    827 31.75                             124   -7.00 0  188 356 
 ZAR  HZ EP        827 17.44                             120    0.45 8  210 300 
 ZAR  HN ES        827 42.42                             120   -0.15 8  210 300 
 ZAR  HZ I         827 44.27         2.6 0.24             47            210 300 
 MON  HN ES   4    828 10.32                             107   -3.50 0  367 312 
                                                                                
