 2010  110 0053 31.0 L   6.735 -72.864138.2  RSN  5 0.3 1.5LRSN                1
 GAP=238        0.68       5.6    16.8  7.8  0.3294E+02  0.3670E+02  0.1451E+02E
 Epicentro: MOLAGAVITA - SANTANDER                                             3
 ACTION:UP  10-08-24 09:43 OP:vdl  STATUS:               ID:20100110005331 L   I
 2010-01-10-0040-00S.COL___096                                                 6
 STAT SP IPHASW D HRMM SECON CODA AMPLIT PERI AZIMU VELO SNR AR TRES W  DIS CAZ7
 BAR2 SZ EP   2    053 50.71                             165     0.6 5   39 246 
 BAR2 SZ ES   2    054  4.73                             165    -0.3 5   39 246 
 GIR2 SZ EP        053 50.41                             159    -0.110   53 316 
 GIR2 SZ ES   2    054  5.77                             159     0.0 5   53 316 
 RUS  BZ EP        053 53.94                             144     0.310   96 195 
 RUS  BZ I         054 14.94         5.3 0.26                            96 195 
 CHI  HZ EP        054  8.14                             115    -0.5 8  252 202 
 CHI  HN ES   2    054 38.38                             115     0.4 4  252 202 
 CHI  HZ I         054 41.92         2.5 0.47                           252 202 
 MON  HZ EP        054 23.26                             106     0.2 6  382 306 
                                                                                
