 2012  410 0746 10.5 L   6.756 -73.122139.7  RSN  6 0.3 1.6LRSN                1
 GAP=142        0.66       4.2     4.1  6.6 -0.3925E+01  0.3462E+01  0.1835E+01E
 Epicentro: LOS SANTOS - SANTANDER                                             3
 ACTION:UPD 12-07-05 11:52 OP:tino STATUS:               ID:20120410074610 L   I
 2012-04-10-0740-00M.COL___199                                                 6
 STAT SP IPHASW D HRMM SECON CODA AMPLIT PERI AZIMU VELO AIN AR TRES W  DIS CAZ7
 BAR2 SZ EP        746 29.36                             172     0.010   19 200 
 BAR2 SZ ES   1    746 43.78                             172    -0.3 7   19 200 
 BAR2 SZ I         746 46.99         7.0 0.22                            19 200 
 BRR  HZ EP        746 31.54                             150     0.210   76 301 
 BRR  HN ES   1    746 48.00                             150     0.5 7   76 301 
 BRR  HZ I         746 52.50        10.6 0.13                            76 301 
 PAM  SZ EP   1    746 32.11                             149    -0.1 7   80  36 
 PAM  SN ES   1    746 48.92                             149    -0.3 7   80  36 
 RUS  HZ EP   1    746 33.39                             144     0.1 7   96 177 
 RUS  HE ES   1    746 51.43                             144     0.3 7   96 177 
 RUS  HZ I         746 53.56         5.9 0.44                            96 177 
 PTB  HE ES   1    746 57.60                             130    -0.4 7  149 261 
 NOR  SE ES   1    747 13.11                             117    -0.3 6  234 236 
                                                                                
