 2012  510 0608  6.6 L   6.775 -73.097140.5  RSN  4 0.3 1.2LRSN                1
 GAP=144        0.68       5.5     7.0  7.8 -0.2944E+01 -0.4741E+01  0.4704E+01E
 Epicentro: LOS SANTOS - SANTANDER                                             3
 ACTION:UP  12-07-05 12:04 OP:pat  STATUS:               ID:20120510060806 L   I
 2012-05-10-0600-00M.COL___195                                                 6
 STAT SP IPHASW D HRMM SECON CODA AMPLIT PERI AZIMU VELO SNR AR TRES W  DIS CAZ7
 BAR2 SZ ES   1    6 8 39.96                             171    -0.4 7   22 205 
 BAR2 SZ I         6 8 41.34         5.1 0.18                            22 205 
 PAM  SZ EP   1    6 8 28.29                             150     0.1 7   76  35 
 PAM  SE ES   1    6 8 45.00                             150     0.0 7   76  35 
 BRR  HZ EP   1    6 8 27.08                             149    -0.4 7   77 298 
 BRR  HZ I         6 8 29.31         3.4 0.15                            77 298 
 BRR  HE ES   1    6 8 44.20                             149     0.4 7   77 298 
 RUS  HZ EP   1    6 8 29.73                             143     0.2 7   98 179 
 RUS  HE ES   2    6 8 47.79                             143     0.3 5   98 179 
 RUS  HZ I         6 8 49.61         1.5 0.41                            98 179 
                                                                                
