 2010  810 0825 23.4 L   6.783 -73.091147.8  RSN 14 0.5 2.7LRSN                1
 GAP=165        1.16       4.6     8.0  7.7 -0.1143E+02  0.2903E+01  0.8488E+01E
 Epicentro: LOS SANTOS - SANTANDER                                             3
 ACTION:UP  10-09-07 10:53 OP:vdl  STATUS:               ID:20100810082523 L   I
 2010-08-10-0822-24S.COL___125                                                 6
 STAT SP IPHASW D HRMM SECON CODA AMPLIT PERI AZIMU VELO SNR AR TRES W  DIS CAZ7
 BAR2 SZ IP        825 43.07                             171    -0.210   24 206 
 BAR2 SZ ES   2    825 58.13                             171    -0.6 5   24 206 
 GIR2 SZ EP        825 43.18                             166    -0.210   35 341 
 BRR  HZ EP        825 44.91                             151    -0.210   77 298 
 BRR  HN ES        826  2.41                             151     0.410   77 298 
 BRR  HZ I         826  6.30       147.8 0.13                            77 298 
 RUS  HZ EP        825 46.97                             145    -0.210   98 179 
 RUS  HN ES   1    826  5.52                             145    -0.2 7   98 179 
 RUS  HZ I         826  7.56        39.0 0.28                            98 179 
 GUE  SZ EP        825 47.86                             140    -0.510  117   9 
 GRA  SZ IP        825 49.70                             137     0.910  126  15 
 GRA  SZ ES   1    826  9.16                             137     0.5 7  126  15 
 GRA  SZ I         826 11.81        70.5 0.34                           126  15 
 OCA  SZ EP        825 51.34                             129    -0.7 9  163 351 
 CHI  HZ EP        826  1.13                             117     0.0 8  248 197 
 CHI  HE ES   2    826 30.44                             117    -0.2 4  248 197 
 CHI  HZ I         826 38.47        20.4 0.40                           248 197 
 ROSC BZ EP        826  2.80                             117     1.0 8  254 212 
 ROSC BZ I         826 39.32        48.9 0.34                           254 212 
 CVER SZ EP   2    826  4.64                             115     0.7 4  273 204 
 GUY  SZ EP   1    826  7.91                             112     0.4 5  305 236 
 GUY  SE ES   2    826 41.67                             112    -0.3 4  305 236 
 RREF HZ EP        826 10.27                             111     0.3 7  325 230 
 RREF HZ I         826 54.47        32.8 0.26                           325 230 
 DBB  SZ EP   2    826 10.93                             109    -0.7 3  346 274 
 DBB  SZ ES   2    826 48.29                             109    -1.0 3  346 274 
 PRA  HZ EP        826 16.68                             107    -0.4 6  393 210 
 PRA  HE ES   2    826 58.77                             107    -0.3 3  393 210 
 PRA  HZ I         827  4.14        23.3 0.27                           393 210 
                                                                                
