 2013  410 0048  2.4 L   7.120 -73.957  4.0  RSN 10 0.5 2.7LRSN                1
 GAP= 97        1.19       3.0     1.9  5.3 -0.1672E-01  0.2731E+00  0.2965E+01E
 Epicentro: BARRANCABERMEJA - SANTANDER                                        3
 ACTION:UPD 13-05-22 14:37 OP:EP   STATUS:               ID:20130410004802 L   I
 2013-04-10-0038-48M.COL___218                                                 6
 STAT SP IPHASW D HRMM SECON CODA AMPLIT PERI AZIMU VELO AIN AR TRES W  DIS CAZ7
 BRR  HZ IP     C  048  7.20                              47    0.0610 27.1  93 
 BRR  HN ES        048 11.37                              47    0.5610 27.1  93 
 BRR  HN I         048 11.83      3413.7 0.20             47           27.1  93 
 GIR2 SZ IP     D  048 15.73                              47   -0.2510 84.5  93 
 GIR2 SZ I         048 16.25        98.0 0.32             47           84.5  93 
 PTB  HZ EP        048 16.43                              47    0.5710 84.6 221 
 PTB  HN ES        048 26.97                              47    0.6310 84.6 221 
 BAR2 SZ EP        048 18.94                              47   -0.0410  104 124 
 BAR2 SZ ES        048 31.11                              47   -0.7710  104 124 
 BAR2 SZ I         048 31.36       148.1 0.18             47            104 124 
 ZAR  HZ EP        048 19.39                              47    0.0510  108 293 
 ZAR  HN ES        048 32.22                              47   -0.3210  108 293 
 ZAR  HN I         048 34.63       345.5 0.28             47            108 293 
 OCA  HZ EP  4     048 24.09                              47   -0.67 9  142  30 
 OCA  HN ES   4    048 40.13                              47   -2.04 0  142  30 
 RUS  HZ EP        048 29.05                              47    0.27 9  167 144 
 RUS  HE ES        048 48.98                              47   -0.36 9  167 144 
 CAPV BZ IP  4     048 33.57                              37    0.71 9  199  65 
 CAPV BZ ES        048 57.09                              37    0.49 9  199  65 
 NOR  HZ EP        048 32.08                              37   -0.61 9  199 210 
 NOR  HE I         049  0.30        55.1 0.16             37            199 210 
 HEL  HZ EP        048 33.37                              37    0.00 9  202 239 
 HEL  HE ES        048 57.11                              37   -0.39 9  202 239 
 HEL  HN I         049  2.67        58.2 0.32             37            202 239 
                                                                                
