 2016 1210 0752 30.2 L   6.804 -73.133140.0  RSN  7 0.4 1.4LRSN                1
 GAP=138        0.96       4.6     4.2  6.1  0.1686E+01  0.7864E+01  0.1208E+01E
 Epicentro: LOS SANTOS - SANTANDER                                             3
 ACTION:UPD 17-01-11 20:13 OP:rebc STATUS:               ID:20161210075230 L   I
 OLDACT:DUP 16-12-10 16:48 OP:lv   STATUS:               ID:20161210074745d    3
 2016-12-10-0748-00M.COL___367                                                 6
 STAT SP IPHASW D HRMM SECON CODA AMPLIT PERI AZIMU VELO AIN AR TRES W  DIS CAZ7
 BAR2 EZ EP        752 49.00                             170   -0.1210 24.1 193 
 BAR2 EZ ES        753  3.95                             170    0.0510 24.1 193 
 BRR  HZ EP        752 51.30                             151    0.5410 72.2 298 
 BRR  HE ES        753  7.25                             151    0.4310 72.2 298 
 BRR  HZ I         753 13.55         4.0 0.10            150           72.2 298 
 PAM  EZ EP        752 51.83                             150    0.1310 76.1  39 
 PAM  EE ES        753  8.16                             150   -0.3310 76.1  39 
 PAM  EZ I         753 11.21         3.0 0.23            153           76.1  39 
 RUS  HZ EP        752 53.36                             142   -0.0210  101 177 
 RUS  HN ES        753 11.51                             142    0.0210  101 177 
 RUS  HZ I         753 12.79         3.0 0.34            148            101 177 
 PTB  HZ EP        752 55.99                             130   -0.82 9  149 259 
 PTB  HN ES        753 17.32                             130   -0.27 9  149 259 
 PTB  HZ I         753 21.73         2.6 0.11            132            149 259 
 ZAR  HZ EP        753  2.21                             121   -0.15 9  205 292 
 ZAR  HN ES        753 27.39                             121   -0.08 9  205 292 
 ZAR  HZ I         753 32.67         3.7 0.34            123            205 292 
 GUY2CHZ EP        753 14.48                             111    0.80 7  303 235 
 GUY2CHN ES   4    753 48.95                             111    1.34 0  303 235 
 GUY2CHZ I         753 55.66         1.5 0.42                           303 235 
 SJC  HZ EP   4    753 23.26                             105   -2.33 0  410 327 
 SJC  HN ES   4    754  3.90                             105   -4.92 0  410 327 
                                                                                
