 2014  410 0913 45.7 L   6.875 -72.991  3.0  RSN  4 0.2 1.1LRSN                1
 GAP=251        0.50       2.4     4.4  4.0 -0.3784E+01  0.7907E+01 -0.4473E-01E
 Epicentro: CEPITA - SANTANDER                                                 3
 ACTION:UPD 14-05-13 23:07 OP:nd   STATUS:               ID:20140410091345 L   I
 OLDACT:UP  14-04-10 16:56 OP:mh   STATUS:               ID:20140410090813     3
 OLDACT:REG 14-04-10 13:27 OP:l    STATUS:               ID:20140410090813     3
 2014-04-10-0908-13M.COL___250                                                 6
 STAT SP IPHASW D HRMM SECON CODA AMPLIT PERI AZIMU VELO AIN AR TRES W  DIS CAZ7
 PTB  HZ EP        914 11.68                              47    0.0410  166 257 
 PTB  HN ES        914 31.98                              47    0.1110  166 257 
 SPBC HN ES        914 35.72                              37   -0.0010  181 222 
 SPBC HZ I         914 40.93         1.5 0.19            139            181 222 
 ZAR  HZ EP        914 17.88                              37   -0.41 9  217 288 
 ZAR  HN ES        914 43.69                              37   -0.02 9  217 288 
 SML  HZ EP        914 21.95                              37    0.33 9  244 331 
 SML  HN ES   1    914 49.56                              37   -0.09 7  244 331 
 SML  HZ I         914 53.80         1.4 0.12            124            244 331 
                                                                                
