 2012 1110 0636 54.0 L   6.645 -73.198149.7  RSN  4 0.1 1.7LRSN                1
 GAP=163        0.45       5.2     3.2  3.7 -0.3140E+01  0.1573E+01  0.5138E+01E
 Epicentro: BARICHARA - SANTANDER                                              3
 ACTION:UPD 12-12-05 15:32 OP:}ep  STATUS:               ID:20121110063654 L   I
 2012-11-10-0630-00M.COL___230                                                 6
 STAT SP IPHASW D HRMM SECON CODA AMPLIT PERI AZIMU VELO AIN AR TRES W  DIS CAZ7
 BAR2 SZ EP        637 14.02                             178    0.1810 6.10 164 
 BAR2 SZ I         637 14.31        10.0 0.32                          6.10 164 
 BAR2 SZ ES        637 29.37                             178    0.0110 6.10 164 
 GIR2 SZ EP        637 14.45                             161   -0.1910 47.9   1 
 GIR2 SZ ES        637 30.62                             161   -0.1610 47.9   1 
 BRR  HZ IP     C  637 15.86                             151    0.0310 76.4 312 
 BRR  HZ I         637 15.89         7.6 0.16                          76.4 312 
 BRR  HN ES        637 33.12                             151    0.2310 76.4 312 
 PTB  HZ EP        637 20.57                             135    0.03 9  140 265 
 PTB  HN ES        637 41.11                             135   -0.16 9  140 265 
 PTB  HN I         637 47.28         6.1 0.60                           140 265 
                                                                                
