 2013  710 0601 45.9 L   6.806 -73.129145.7  RSN 10 0.4 1.9LRSN                1
 GAP=138        0.96       3.3     4.7  5.1 -0.9903E+00  0.5734E+01  0.3464E+00E
 Epicentro: LOS SANTOS - SANTANDER                                             3
 ACTION:UPD 13-08-12 10:36 OP:ep   STATUS:               ID:20130710060145 L   I
 OLDACT:REG 13-07-10 07:51 OP:nd   STATUS:               ID:20130710055959     3
 2013-07-10-0559-59M.COL___266                                                 6
 STAT SP IPHASW D HRMM SECON CODA AMPLIT PERI AZIMU VELO AIN AR TRES W  DIS CAZ7
 BAR2 SZ EP        6 2  5.40                             170   -0.1710 24.4 194 
 BAR2 SZ ES        6 2 20.76                             170   -0.1310 24.4 194 
 BAR2 SZ I         6 2 22.29        23.2 0.36            171           24.4 194 
 GIR2 SZ EP        6 2  5.52                             167   -0.0610 31.0 347 
 GIR2 SZ ES        6 2 20.21                             167   -0.7010 31.0 347 
 GIR2 SZ I         6 2 22.34        12.6 0.22            164           31.0 347 
 BRR  HZ IP     C  6 2  7.39                             152    0.2510 72.5 297 
 BRR  HN ES        6 2 24.48                             152    0.8010 72.5 297 
 BRR  HZ I         6 2 25.03        15.1 0.12            149           72.5 297 
 PAM  SZ IP     D  6 2  8.56                             151    0.5210 75.7  39 
 PAM  SN ES        6 2 25.27                             151   -0.0110 75.7  39 
 PAM  SZ I         6 2 27.76        13.1 0.54            152           75.7  39 
 RUS  HZ EP        6 2  9.86                             144    0.1510  101 177 
 RUS  HN ES        6 2 28.33                             144    0.0710  101 177 
 RUS  HZ I         6 2 29.23         5.2 0.24            146            101 177 
 PTB  HZ EP        6 2 13.01                             132   -0.05 9  150 259 
 PTB  HN ES        6 2 33.93                             132   -0.29 9  150 259 
 PTB  HZ I         6 2 40.51         6.8 0.18            131            150 259 
 OCA  HZ EP   2    6 2 14.02                             130   -0.17 5  160 352 
 OCA  HN ES   2    6 2 35.64                             130   -0.59 5  160 352 
 OCA  HZ I         6 2 45.51         7.0 0.48            129            160 352 
 SML  HZ EP        6 2 21.78                             117   -0.79 8  244 335 
 SML  HN ES        6 2 51.48                             117    0.34 8  244 335 
 SML  HZ I         6 2 54.12        12.2 0.10            117            244 335 
 GUY2CHZ EP   4    6 2 30.25                             112    0.51 0  303 235 
 GUY2CHN ES   4    6 3  7.51                             112    3.59 0  303 235 
 GUY2CHZ I         6 3 13.01         2.7 0.42                           303 235 
 PRA  HZ EP        6 2 39.83                             106    0.21 6  393 210 
 PRA  HN ES        6 3 21.31                             106   -0.19 6  393 210 
 PRA  HZ I         6 3 27.41         4.2 0.26            107            393 210 
                                                                                
