 2012  810 0017 29.1 L   6.747 -73.164139.6  RSN  6 0.4 1.4LRSN                1
 GAP=137        0.76       5.0     4.5  8.1  0.2265E+01  0.4309E+01 -0.1489E+01E
 Epicentro: VILLANUEVA - SANTANDER                                             3
 ACTION:UPD 12-09-10 11:55 OP:ep   STATUS:               ID:20120810001729 L   I
 2012-08-10-0010-00M.COL___218                                                 6
 STAT SP IPHASW D HRMM SECON CODA AMPLIT PERI AZIMU VELO AIN AR TRES W  DIS CAZ7
 BAR2 SZ EP   1    017 48.07                             173    0.14 7 17.3 187 
 BAR2 SZ ES   1    018  2.78                             173    0.20 7 17.3 187 
 BAR2 SZ I         018  4.22         9.1 0.16                          17.3 187 
 BRR  HZ EP   1    017 49.78                             151    0.07 7 72.5 303 
 BRR  HZ I         017 50.11         8.6 0.17                          72.5 303 
 BRR  HN ES   1    018  6.43                             151    0.68 7 72.5 303 
 PAM  SZ EP   1    017 50.97                             148   -0.11 7 83.2  38 
 PAM  SN ES   1    018  7.72                             148   -0.46 7 83.2  38 
 RUS  HZ EP   1    017 52.33                             144    0.44 7 94.9 175 
 RUS  HE ES   1    018  9.29                             144   -0.34 7 94.9 175 
 RUS  HZ I         018 12.08         1.8 0.34                          94.9 175 
 PTB  HN ES   1    018 15.21                             131   -0.57 7  145 261 
 ZAR  HE ES   1    018 26.10                             121   -0.18 6  204 294 
                                                                                
