 2011  510 0824 36.9 L   6.823 -73.099144.0  RSN  7 0.3 1.3LRSN                1
 GAP=141        0.66       5.3     7.8  8.1 -0.6305E+01 -0.2901E+02 -0.1258E+01E
 Epicentro: LOS SANTOS - SANTANDER                                             3
 ACTION:UP  11-06-29 08:52 OP:tino STATUS:               ID:20110510082436 L   I
 2011-05-10-0821-43S.COL___132                                                 6
 STAT SP IPHASW D HRMM SECON CODA AMPLIT PERI AZIMU VELO SNR AR TRES W  DIS CAZ7
 BTL  SZ EP        824 56.20                             172    -0.110   21 300 
 BTL  SZ ES   2    825 11.44                             172     0.0 5   21 300 
 BAR2 SZ EP   2    824 56.37                             169    -0.1 5   27 200 
 BAR2 SZ ES   3    825 10.65                             169    -1.0 2   27 200 
 BAR2 SZ I         825 11.97         7.6 0.30                            27 200 
 PAM  SZ EP        824 59.00                             152     0.410   72  38 
 BRR  HZ EP        824 57.93                             152    -0.210   75 295 
 BRR  HN ES   1    825 15.10                             152     0.5 7   75 295 
 BRR  HZ I         825 18.97         4.2 0.16                            75 295 
 RUS  HZ EP   2    825  0.48                             143    -0.2 5  103 179 
 RUS  HN ES   3    825 18.78                             143    -0.4 2  103 179 
 RUS  HZ I         825 19.93         1.2 0.34                           103 179 
 GRA  SZ EP        825  1.76                             138     0.110  122  15 
 GRA  SZ ES   2    825 20.81                             138    -0.2 5  122  15 
 GRA  SZ I         825 23.74         2.5 0.20                           122  15 
 OCA  SZ EP   1    825  4.55                             130    -0.4 7  159 351 
 OCA  SZ ES   2    825 26.31                             130    -0.5 5  159 351 
 OCA  SZ I         825 36.92         4.5 0.50                           159 351 
                                                                                
