 2013  910 0239 36.8 L   6.825 -73.168148.0  RSN 12 0.5 2.0LRSN                1
 GAP=133        1.05       3.0     4.1  5.8 -0.1484E+01  0.7009E+01  0.1490E+01E
 Epicentro: LOS SANTOS - SANTANDER                                             3
 ACTION:UPD 13-10-22 09:21 OP:ep   STATUS:               ID:20130910023936 L   I
 OLDACT:REG 13-09-10 08:20 OP:carl STATUS:               ID:20130910023749     3
 2013-09-10-0237-49M.COL___247                                                 6
 STAT SP IPHASW D HRMM SECON CODA AMPLIT PERI AZIMU VELO AIN AR TRES W  DIS CAZ7
 BAR2 SZ EP        239 56.68                             170   -0.0710 25.8 184 
 BAR2 SZ ES   1    240 11.97                             170   -0.34 7 25.8 184 
 BAR2 SZ I         240 13.25        23.8 0.20            168           25.8 184 
 BRR  HZ IP     C  239 58.47                             154    0.4710 67.8 297 
 BRR  HN ES   1    240 15.72                             154    1.17 7 67.8 297 
 BRR  HZ I         240 19.49        17.6 0.18            152           67.8 297 
 PAM  SZ EP        239 59.65                             151    0.4210 76.9  42 
 PAM  SN ES        240 16.74                             151    0.0210 76.9  42 
 PAM  SZ I         240 17.39         9.7 0.22            156           76.9  42 
 RUS  HZ EP        240  0.64                             143   -0.3410  104 175 
 RUS  HE ES        240 19.61                             143   -0.2410  104 175 
 RUS  HZ I         240 20.89         8.0 0.36            145            104 175 
 PTB  HZ EP        240  3.24                             133   -0.55 9  146 258 
 PTB  HN ES        240 23.98                             133   -0.86 9  146 258 
 PTB  HZ I         240 27.09        12.7 0.10            132            146 258 
 SPBC HZ EP        240  5.64                             129    0.11 9  164 218 
 SPBC HN ES        240 28.03                             129    0.09 9  164 218 
 SPBC HZ I         240 33.17        14.4 0.16            130            164 218 
 ZAR  HZ EP        240  8.55                             123   -0.51 9  201 292 
 ZAR  HN ES        240 34.28                             123    0.06 9  201 292 
 ZAR  HZ I         240 40.84        10.2 0.34            124            201 292 
 NOR  HZ EP        240 13.04                             119    0.42 8  234 234 
 NOR  HE ES        240 40.95                             119    0.39 8  234 234 
 NOR  HZ I         240 48.55         6.9 0.16            120            234 234 
 SML  HZ EP        240 13.11                             118   -0.06 8  240 336 
 SML  HN ES        240 41.05                             118   -0.50 8  240 336 
 SML  HZ I         240 45.78        14.2 0.24            120            240 336 
 CHI  HZ EP        240 14.86                             117    0.02 8  251 194 
 CHI  HN ES   1    240 44.43                             117   -0.08 6  251 194 
 CHI  HZ I         240 49.32         6.4 0.32            119            251 194 
 GUY2CHZ EP        240 21.20                             113    0.73 7  301 234 
 GUY2CHE ES        240 55.20                             113    0.67 7  301 234 
 GUY2CHZ I         241  3.09         7.0 0.68                           301 234 
 PRA  HZ EP        240 30.43                             107   -0.11 6  393 209 
 PRA  HE ES        241 11.92                             107   -0.53 6  393 209 
 PRA  HZ I         241 19.18         5.7 0.30            108            393 209 
                                                                                
