 2015  610 0418 53.5 L   6.790 -73.166148.8  RSN  4 0.3 1.3LRSN                1
 GAP=235        0.80       4.9     7.5  7.3  0.8395E+01 -0.3310E+01  0.1384E+01E
 Epicentro: LOS SANTOS - SANTANDER                                             3
 ACTION:UPD 15-09-10 22:11 OP:cam  STATUS:               ID:20150610041853 L   I
 OLDACT:DUP 15-06-10 18:16 OP:stll STATUS:               ID:20150610040751d    3
 OLDACT:UP  15-06-10 18:03 OP:stll STATUS:               ID:20150610040750     3
 OLDACT:REG 15-06-10 13:10 OP:stll STATUS:               ID:20150610040750     3
 2015-06-10-0407-50M.COL___294                                                 6
 STAT SP IPHASW D HRMM SECON CODA AMPLIT PERI AZIMU VELO AIN AR TRES W  DIS CAZ7
 BAR2 EZ EP        419 13.30                             171   -0.1910 21.9 185 
 BAR2 EZ ES        419 28.69                             171   -0.3810 21.9 185 
 BAR2 EZ I         419 29.61         4.1 0.14            168           21.9 185 
 BRR  HZ EP        419 15.22                             153    0.3010 69.8 300 
 BRR  HN ES        419 31.72                             153    0.1010 69.8 300 
 RUS  HZ EP        419 17.30                             145   -0.2010 99.7 175 
 RUS  HN ES        419 36.73                             145    0.5210 99.7 175 
 RUS  HZ I         419 37.78         2.0 0.26            143           99.7 175 
 SPBC HN ES        419 44.10                             130   -0.19 9  161 219 
 SPBC HZ I         419 46.92         4.2 0.20            129            161 219 
                                                                                
