 2012  210 0655 26.7 L   6.750 -73.160143.8  RSN  7 0.3 1.4LRSN                1
 GAP=137        0.44       4.2     3.8  5.5  0.1234E+01  0.4138E+01  0.1621E+01E
 ACTION:UP  12-03-07 16:29 OP:epov STATUS:               ID:20120210065526 L   I
 2012-02-10-0650-00M.COL___188                                                 6
 STAT SP IPHASW D HRMM SECON CODA AMPLIT PERI AZIMU VELO AIN AR TRES W  DIS CAZ7
 BAR2 SZ EP   1    655 46.01                             173   -0.01 7 17.6 188 
 BAR2 SZ ES   2    656  0.66                             173   -0.40 5 17.6 188 
 BAR2 SZ I         656  3.02         6.7 0.30                          17.6 188 
 GIR2 SZ EP   2    655 46.16                             165   -0.16 5 36.6 354 
 GIR2 SZ ES   2    656  1.73                             165    0.13 5 36.6 354 
 BRR  HZ EP   1    655 47.91                             152    0.16 7 72.7 303 
 BRR  HZ I         655 48.27        11.0 0.11                          72.7 303 
 BRR  HE ES   2    656  4.56                             152    0.42 5 72.7 303 
 PAM  SZ EP   2    655 49.02                             149   -0.04 5 82.7  38 
 PAM  SN ES   2    656  6.21                             149   -0.27 5 82.7  38 
 RUS  HZ EP   2    655 50.01                             145    0.11 5 95.2 175 
 RUS  HN ES   2    656  8.36                             145    0.39 5 95.2 175 
 RUS  HZ I         656 10.00         1.6 0.44                          95.2 175 
 PTB  HZ EP   2    655 53.02                             132   -0.28 5  145 261 
 PTB  HN ES   2    656 13.45                             132   -0.58 5  145 261 
 ZAR  HN ES   2    656 24.69                             122    0.31 4  205 294 
                                                                                
