 2011 1210 0201 30.8 L   6.759 -73.077141.2  RSN  4 0.2 1.4LRSN                1
 GAP=147        0.39       2.8     5.4  5.9  0.7445E+00 -0.1379E+00 -0.4800E+01E
 Epicentro: LOS SANTOS - SANTANDER                                             3
 ACTION:UPD 12-07-13 16:15 OP:ep   STATUS:               ID:20111210020130 L   I
 2011-12-10-0200-00M.COL___186                                                 6
 STAT SP IPHASW D HRMM SECON CODA AMPLIT PERI AZIMU VELO AIN AR TRES W  DIS CAZ7
 BAR2 SZ EP   1    2 1 49.78                             171   -0.08 7 21.8 212 
 PAM  SZ EP   1    2 1 52.74                             150    0.25 7 76.5  33 
 PAM  SE ES   2    2 2  9.13                             150   -0.27 5 76.5  33 
 BRR  HZ EP   1    2 1 51.84                             149   -0.16 7 80.0 299 
 BRR  HN ES   2    2 2  8.77                             149    0.25 5 80.0 299 
 BRR  HZ I         2 2  9.36         7.5 0.12                          80.0 299 
 RUS  HZ EP   1    2 1 53.72                             144   -0.05 7 95.9 180 
 RUS  HN ES        2 2 11.70                             144    0.0210 95.9 180 
 RUS  HZ I         2 2 13.29         2.5 0.35                          95.9 180 
                                                                                
