 2013  110 0321 25.7 L   5.966 -74.014 13.1  RSN  6 0.5 1.8LRSN                1
 GAP=184        1.32       5.4     4.1  8.7  0.1132E+02  0.2348E+02  0.1889E+02E
 Epicentro: LA BELLEZA - SANTANDER                                             3
 ACTION:UPD 13-02-15 09:13 OP:ep   STATUS:               ID:20130110032125 L   I
 2013-01-10-0320-00M.COL___242                                                 6
 STAT SP IPHASW D HRMM SECON CODA AMPLIT PERI AZIMU VELO AIN AR TRES W  DIS CAZ7
 PTB  HZ EP        321 38.33                              97   -0.1610 80.1 322 
 PTB  HN ES        321 47.88                              97   -0.6210 80.1 322 
 RUS  HZ EP        321 42.75                              95    0.2710  103  94 
 RUS  HN ES        321 54.71                              95   -0.9010  103  94 
 RUS  HN I         321 55.02        33.3 0.24             95            103  94 
 BAR2 SZ EP        321 44.61                              95    0.6110  115  53 
 BAR2 SZ I         322  7.38        11.1 0.34             94            115  53 
 BRR  HZ EP        321 46.46                              94    0.3810  131  15 
 BRR  HN ES        322  2.45                              94    0.4410  131  15 
 BRR  HN I         322  5.17        30.8 0.14             94            131  15 
 HEL  HZ EP        321 52.35                              56    0.58 9  170 279 
 HEL  HN ES        322 12.16                              56    0.03 9  170 279 
 HEL  HN I         322 13.64        12.4 0.20             56            170 279 
 ZAR  HN ES        322 15.99                              56   -0.56 9  193 331 
 ZAR  HN I         322 18.22         7.1 0.10             56            193 331 
                                                                                
