 2016  110 0602 44.2 L   6.884 -72.543 15.6  RSN  4 0.3 1.7LRSN                1
 GAP=201        0.66       8.5    10.3  5.6  0.8465E+02  0.4364E+02  0.3347E+02E
 Epicentro: CERRITO - SANTANDER                                                3
 ACTION:UPD 16-03-09 23:24 OP:cam  STATUS:               ID:20160110060244 L   I
 OLDACT:DUP 16-01-10 15:25 OP:drio STATUS:               ID:20160110055746d    3
 OLDACT:DUP 16-01-10 15:15 OP:drio STATUS:               ID:20160110055745d    3
 2016-01-10-0557-44M.COL___252                                                 6
 STAT SP IPHASW D HRMM SECON CODA AMPLIT PERI AZIMU VELO AIN AR TRES W  DIS CAZ7
 PAM  EZ EP        6 2 53.12                             103   -0.4310 53.3 341 
 PAM  EN ES        6 3  1.13                             103    0.2510 53.3 341 
 PAM  EZ I         6 3  3.01        16.2 0.16             47           53.3 341 
 TAM  HZ EP        6 2 59.50                              97   -0.0810 96.8 121 
 TAM  HE ES        6 3 11.69                              97    0.0910 96.8 121 
 OCA  HZ EP        6 3 10.22                              56    0.03 9  173 330 
 OCA  HE ES        6 3 30.34                              56   -0.15 9  173 330 
 OCA  HZ I         6 3 36.75        19.6 0.34             47            173 330 
 SML  HZ EP        6 3 22.72                              56    0.45 8  271 322 
 SML  HZ I         6 3 59.38         4.9 0.68             37            271 322 
                                                                                
