 2013  410 0335 23.2 L   6.497 -73.606107.3  RSN  5 0.2 1.8LRSN                1
 GAP=134        0.46       2.4     2.0  4.2  0.5199E+00  0.2442E+01  0.7072E+00E
 Epicentro: SANTA HELENA DEL OPON - SANTANDER                                  3
 ACTION:UPD 13-05-22 14:37 OP:EP   STATUS:               ID:20130410033523 L   I
 2013-04-10-0328-35M.COL___215                                                 6
 STAT SP IPHASW D HRMM SECON CODA AMPLIT PERI AZIMU VELO AIN AR TRES W  DIS CAZ7
 BAR2 SZ IP        335 39.42                             154    0.1510 48.0  77 
 BAR2 SZ I         335 39.56        39.9 0.20            157           48.0  77 
 BAR2 SZ ES        335 51.76                             154   -0.0110 48.0  77 
 BRR  HZ IP     D  335 40.32                             145    0.1310 68.5 350 
 BRR  HN ES        335 53.66                             145    0.2510 68.5 350 
 BRR  HN I         336  0.51        13.1 0.16            144           68.5 350 
 GIR2 SZ IP        335 40.96                             141   -0.2010 78.8  35 
 GIR2 SZ I         335 41.09        12.2 0.18            142           78.8  35 
 GIR2 SZ ES        335 54.92                             141   -0.2110 78.8  35 
 RUS  HN ES        335 57.39                             138    0.0310 88.4 139 
 PTB  HZ EP        335 42.24                             135    0.0110 94.2 273 
 PTB  HN ES        335 56.90                             135   -0.1510 94.2 273 
                                                                                
