 2014 1210 0641 11.3 L   6.832 -73.159145.2  RSN 20 0.5 2.2LRSN                1
 GAP= 69        1.23       2.8     3.2  5.6 -0.8989E+00  0.5310E+01  0.2763E+01E
 Epicentro: LOS SANTOS - SANTANDER                                             3
 ACTION:UPD 15-02-10 17:02 OP:nd   STATUS:               ID:20141210064111 L   I
 OLDACT:REG 14-12-10 13:19 OP:fm   STATUS:               ID:20141210063748     3
 2014-12-10-0637-48M.COL___300                                                 6
 STAT SP IPHASW D HRMM SECON CODA AMPLIT PERI AZIMU VELO AIN AR TRES W  DIS CAZ7
 BAR2 E  EP        641 31.03                             169    0.1010 26.6 185 
 BAR2 E  ES        641 46.58                             169    0.3410 26.6 185 
 BRR  HZ IP     D  641 32.96                             153    0.7410 68.2 297 
 BRR  HE ES        641 49.42                             153    0.8810 68.2 297 
 BRR  HZ I         641 52.90        24.2 0.40            150           68.2 297 
 PAM  SZ EP     D  641 33.88                             151    0.5310 75.7  42 
 PAM  SE ES        641 50.62                             151    0.0710 75.7  42 
 PAM  SZ I         641 53.02        33.2 0.58            155           75.7  42 
 RUS  HZ EP        641 34.88                             143   -0.3810  104 175 
 RUS  HN ES        641 53.56                             143   -0.3910  104 175 
 RUS  HZ I         641 54.38        17.3 0.24            145            104 175 
 PTB  HZ EP        641 37.81                             132   -0.34 9  147 257 
 PTB  HE ES        641 58.41                             132   -0.68 9  147 257 
 PTB  HZ I         642  6.08        17.2 0.18            131            147 257 
 OCA  HZ EP        641 39.28                             130    0.06 9  157 354 
 OCA  HE ES        641 59.99                             130   -1.00 9  157 354 
 OCA  HZ I         642  5.71        21.4 0.24            131            157 354 
 TAM  HZ IP     C  641 39.25                             130    0.09 9  158 106 
 TAM  HE ES        642  0.38                             130   -0.50 9  158 106 
 TAM  HZ I         642  1.38         9.0 0.20            135            158 106 
 SPBC HZ EP        641 39.91                             129   -0.02 9  165 218 
 SPBC HN ES        642  2.15                             129   -0.11 9  165 218 
 SPBC HZ I         642  8.80        26.0 0.10            129            165 218 
 ZAR  HZ EP        641 43.84                             123    0.41 9  201 291 
 ZAR  HN ES        642  9.22                             123    0.74 9  201 291 
 ZAR  HZ I         642 15.66        19.8 0.28            122            201 291 
 NOR  HZ EP        641 46.77                             118   -0.32 8  236 234 
 NOR  HE ES        642 14.76                             118   -0.24 8  236 234 
 NOR  HZ I         642 18.23        11.1 0.16            119            236 234 
 SML  HE ES        642 15.35                             118   -0.34 8  240 335 
 SML  HZ I         642 21.65        18.9 0.10            118            240 335 
 CHI  HZ EP        641 49.09                             117   -0.21 8  252 195 
 CHI  HN ES        642 18.96                             117    0.03 8  252 195 
 CHI  HZ I         642 21.57         5.2 0.32            118            252 195 
 ROSC BZ EP   1    641 49.50                             116   -0.14 6  255 210 
 ROSC BN ES        642 19.74                             116    0.20 8  255 210 
 ROSC BZ I         642 28.89        10.2 0.35            117            255 210 
 HEL  HZ EP        641 50.71                             115   -0.71 8  271 255 
 HEL  HE ES        642 22.28                             115   -0.43 8  271 255 
 HEL  HZ I         642 29.76         8.7 0.32            115            271 255 
 GUY2CHZ EP        641 56.13                             112    1.16 7  302 234 
 GUY2CHE ES        642 28.71                             112   -0.33 7  302 234 
 GUY2CHZ I         642 37.58         6.3 0.32                           302 234 
 RREF HZ EP        641 58.89                             111    1.34 7  323 229 
 RREF HE ES        642 33.06                             111   -0.56 7  323 229 
 RREF HZ I         642 43.58         8.0 0.28            111            323 229 
 TOL  SZ EP        642  0.16                             109    0.46 7  345 224 
 TOL  SN ES        642 37.56                             109    0.11 7  345 224 
 TOL  SZ I         642 44.55        16.4 0.36            110            345 224 
 MON  HZ EP   4    641 58.67                             109   -1.22 0  350 308 
 MON  HE ES        642 36.81                             109   -0.97 6  350 308 
 MON  HZ I         642 54.48         4.8 0.44            109            350 308 
 ORTC HZ EP        642  5.09                             106   -0.34 6  397 216 
 ORTC HE ES   1    642 48.50                             106    0.85 4  397 216 
 ORTC HZ I         642 55.00         4.0 0.34            107            397 216 
 SJC  HZ EP   4    642  5.00                             106   -1.40 0  405 327 
 SJC  HE ES   4    642 42.93                             106   -6.44 0  405 327 
 SJC  HZ I         642 51.17         6.0 0.48            107            405 327 
                                                                                
