 2017  510 0305 51.3 L   6.775 -73.145145.1  RSN  9 0.3 1.6LRSN                1
 GAP=138        0.80       3.4     3.4  6.9 -0.1825E+01  0.4742E+01  0.2244E+01E
 Epicentro: LOS SANTOS - SANTANDER                                             3
 ACTION:UPD 17-06-16 13:34 OP:jn   STATUS:               ID:20170510030551 L   I
 OLDACT:UP  17-05-10 17:35 OP:edw  STATUS:               ID:20170510025744d    3
 OLDACT:UP  17-05-10 17:26 OP:edw  STATUS:               ID:20170510025744d    3
 OLDACT:UP  17-05-10 17:26 OP:edw  STATUS:               ID:20170510025744d    3
 OLDACT:DUP 17-05-10 17:06 OP:edw  STATUS:               ID:20170510025744d    3
 OLDACT:UP  17-05-10 17:05 OP:edw  STATUS:               ID:20170510025743     3
 OLDACT:UP  17-05-10 17:04 OP:edw  STATUS:               ID:20170510025743     3
 OLDACT:REG 17-05-10 13:08 OP:osc  STATUS:               ID:20170510025743     3
 2017-05-10-0258-00M.COL___356                                                 6
 STAT SP IPHASW D HRMM SECON CODA AMPLIT PERI AZIMU VELO AIN AR TRES W  DIS CAZ7
 BRR  HZ EP     C  3 6 12.63                             152    0.1210 72.7 300 
 BRR  HE ES        3 6 29.28                             152    0.2610 72.7 300 
 PAM  EZ EP     D  3 6 13.64                             150    0.0210 79.5  38 
 PAM  EE ES        3 6 30.80                             150   -0.1910 79.5  38 
 PAM  EZ I         3 6 32.77        13.8 0.60            151           79.5  38 
 RUS  HZ EP        3 6 14.84                             144    0.0110 97.8 176 
 RUS  HN ES        3 6 33.14                             144   -0.0210 97.8 176 
 RUS  HZ I         3 6 34.16         5.7 0.34            144           97.8 176 
 PTB  HZ EP        3 6 18.07                             132   -0.15 9  147 260 
 PTB  HN ES        3 6 38.45                             132   -0.74 9  147 260 
 PTB  HZ I         3 6 41.59         4.3 0.22            130            147 260 
 SPBC HN ES        3 6 42.13                             129    0.50 9  161 220 
 ZAR  HZ EP   4    3 6 22.51                             122   -1.36 0  205 293 
 ZAR  HN ES        3 6 49.59                             122    0.35 8  205 293 
 NOR  HN ES        3 6 54.43                             118   -0.16 8  233 235 
 CBOC HZ EP   4    3 6 39.65                             110    1.50 0  333 253 
 CBOC HN ES   4    3 7 12.96                             110   -1.69 0  333 253 
 CBOC HZ I         3 7 26.34         1.5 0.46            109            333 253 
 SJC  HZ EP   4    3 6 45.10                             105   -2.06 0  412 327 
 SJC  HN ES   4    3 7 26.09                             105   -4.61 0  412 327 
 SJC  HZ I         3 7 31.64         1.1 0.62            105            412 327 
                                                                                
