 2012  410 0759 55.8 L   6.757 -73.077146.5  RSN  8 0.3 2.1LRSN                1
 GAP=148        0.77       3.4     5.1  5.4 -0.3055E+01  0.3089E+01  0.1394E+01E
 Epicentro: LOS SANTOS - SANTANDER                                             3
 ACTION:UPD 12-07-05 11:52 OP:tino STATUS:               ID:20120410075955 L   I
 2012-04-10-0800-00M.COL___199                                                 6
 STAT SP IPHASW D HRMM SECON CODA AMPLIT PERI AZIMU VELO AIN AR TRES W  DIS CAZ7
 BAR2 SZ EP        8 0 15.59                             171     0.110   22 213 
 BAR2 SZ ES   1    8 0 30.51                             171    -0.4 7   22 213 
 BAR2 SZ I         8 0 32.32        25.5 0.27                            22 213 
 PAM  SZ EP        8 0 18.32                             151     0.210   77  33 
 PAM  SE ES   1    8 0 35.17                             151    -0.3 7   77  33 
 BRR  HZ EP        8 0 17.41                             150    -0.210   80 299 
 BRR  HE ES        8 0 34.77                             150     0.210   80 299 
 BRR  HZ I         8 0 37.82        29.6 0.23                            80 299 
 RUS  HZ EP        8 0 19.58                             145     0.310   96 180 
 RUS  HE ES   1    8 0 37.64                             145     0.0 7   96 180 
 RUS  HZ I         8 0 39.47        13.1 0.53                            96 180 
 OCA  SZ EP        8 0 24.46                             129    -0.3 9  166 351 
 ZAR  HZ EP   1    8 0 29.80                             121     0.6 6  213 293 
 ZAR  HZ I         8 1  0.66        22.1 0.26                           213 293 
 NOR  SZ EP   1    8 0 31.17                             118    -0.8 6  238 236 
 NOR  SN ES   1    8 1  0.08                             118    -0.1 6  238 236 
 CHI  HZ EP   1    8 0 33.08                             117    -0.2 6  246 197 
 CHI  HN ES   1    8 1  2.73                             117     0.2 6  246 197 
 CHI  HZ I         8 1  8.82         6.0 0.40                           246 197 
                                                                                
