 2011  310 0901  2.2 L   6.734 -72.901135.1  RSN  6 0.4 2.4LRSN                1
 GAP=155        0.44       4.8     9.1  6.6 -0.3176E+02 -0.3878E+02  0.1277E+02E
 Epicentro: CEPITA - SANTANDER                                                 3
 ACTION:UP  11-06-16 14:32 OP:jfem STATUS:               ID:20110310090102 L   I
 2011-03-10-0859-21S.COL___135                                                 6
 STAT SP IPHASW D HRMM SECON CODA AMPLIT PERI AZIMU VELO SNR AR TRES W  DIS CAZ7
 BAR2 SZ ES   1    9 1 35.46                             165     0.012   35 243 
 BAR2 SZ I         9 1 36.94        86.8 0.23                            35 243 
 GRA  SZ ES   1    9 1 45.78                             134     0.011  128   5 
 GRA  SZ I         9 1 47.10        22.4 0.46                           128   5 
 CHI  HE ES   2    9 2  8.49                             115    -0.1 6  250 202 
 CHI  HZ I         9 2 15.30        15.9 0.38                           250 202 
 HEL  HN ES   3    9 2 17.02                             111    -0.8 3  297 258 
 HEL  HZ I         9 2 20.36        10.3 0.52                           297 258 
 GUY  SE ES   3    9 2 23.99                             109     1.1 3  320 239 
 SDV  BZ EP        9 1 50.13                             107     0.010  345  46 
                                                                                
