 2010  710 0248 43.5 L   6.775 -73.128140.2  RSN 13 0.6 3.0LRSN                1
 GAP=158        1.19       4.9     9.9 10.3 -0.1959E+02  0.3421E+02  0.1688E+01E
 Epicentro: LOS SANTOS - SANTANDER                                             3
 ACTION:UPD 10-12-01 15:16 OP:pat  STATUS:               ID:20100710024843 L   I
 2010-07-10-0246-28S.COL___120                                                 6
 STAT SP IPHASW D HRMM SECON CODA AMPLIT PERI AZIMU VELO AIN AR TRES W  DIS CAZ7
 BAR2 SZ IP     D  249  2.29                             171    -0.210   21 197 
 BAR2 SZ ES   2    249 16.35                             171    -0.9 5   21 197 
 BRR  HZ IP     C  249  4.17                             150    -0.110   74 300 
 BRR  HE ES   2    249 21.14                             150     0.7 5   74 300 
 BRR  HZ I         249 24.37       239.1 0.29                            74 300 
 RUS  HZ IP     C  249  6.25                             143    -0.310   98 177 
 RUS  HE ES   2    249 24.49                             143     0.0 5   98 177 
 RUS  HZ I         249 25.92       113.8 0.25                            98 177 
 BRI  SZ EP   1    249  7.91                             140     0.9 7  110  19 
 BRI  SZ ES   2    249 26.07                             140     0.7 5  110  19 
 GUE  SZ EP   1    249  7.27                             137    -0.7 7  119  11 
 GRA  SZ IP     D  249  9.22                             135     0.810  128  16 
 GRA  SZ ES   2    249 28.56                             135     0.7 5  128  16 
 OCA  SZ IP     D  249 10.79                             128    -0.9 9  163 353 
 OCA  SZ ES   2    249 32.78                             128    -0.9 5  163 353 
 OCA  SZ I         249 37.35       105.5 0.30                           163 353 
 CHI  HZ EP   1    249 20.85                             116     0.1 6  247 196 
 CHI  HN ES   2    249 49.52                             116    -0.2 4  247 196 
 CHI  HZ I         249 53.04        35.4 0.44                           247 196 
 ROSC BZ EP   1    249 21.74                             115     0.5 6  251 212 
 ROSC BN ES   2    249 51.42                             115     0.8 4  251 212 
 ROSC BZ I         250  0.01        57.8 0.40                           251 212 
 HEL  HZ EP   1    249 23.20                             113    -0.4 6  273 256 
 HEL  HZ I         250  1.35        37.8 0.25                           273 256 
 DBB  SZ IP     D  249 31.39                             108     0.3 7  342 275 
 ANIL HZ EP   1    249 33.67                             107     0.6 5  357 225 
 ANIL HN ES   2    250 12.61                             107     0.9 3  357 225 
 ANIL HZ I         250 24.13        95.0 0.45                           357 225 
 PRA  HZ EP   1    249 36.08                             106    -0.6 4  391 210 
 PRA  HE ES   2    250 17.94                             106    -0.2 3  391 210 
 PRA  HZ I         250 24.12        49.3 0.33                           391 210 
                                                                                
