 2017  310 0835 15.1 L   6.785 -73.167146.4  RSN  5 0.4 1.4LRSN                1
 GAP=135        0.79       4.6     4.4  6.4 -0.4825E+01  0.6196E+01 -0.1308E+01E
 Epicentro: LOS SANTOS - SANTANDER                                             3
 ACTION:UPD 17-05-25 18:38 OP:jn   STATUS:               ID:20170310083515 L   I
 OLDACT:DUP 17-03-10 18:47 OP:ar   STATUS:               ID:20170310082744d    3
 OLDACT:DUP 17-03-10 18:44 OP:ar   STATUS:               ID:20170310082743d    3
 2017-03-10-0828-00M.COL___391                                                 6
 STAT SP IPHASW D HRMM SECON CODA AMPLIT PERI AZIMU VELO AIN AR TRES W  DIS CAZ7
 BAR2 EZ EP        835 34.82                             171    0.0210 21.4 184 
 BAR2 EZ ES        835 49.96                             171   -0.1810 21.4 184 
 BAR2 EZ I         835 50.92         6.2 0.20            172           21.4 184 
 BRR  HZ EP   2    835 36.62                             153    0.34 5 69.9 301 
 BRR  HN ES   2    835 53.92                             153    1.15 5 69.9 301 
 PAM  HZ EP        835 37.78                             150    0.2010 80.2  40 
 PAM  EN ES        835 54.82                             150   -0.2710 80.2  40 
 PAM  HZ I         835 57.95         3.9 0.48            152           80.2  40 
 RUS  HZ EP        835 39.23                             144    0.3910 99.1 175 
 RUS  HN ES        835 57.25                             144   -0.0910 99.1 175 
 RUS  HZ I         835 58.79         2.5 0.30            147           99.1 175 
 PTB  HZ EP        835 41.46                             132   -0.45 9  145 259 
 PTB  HN ES        836  2.75                             132   -0.05 9  145 259 
 PTB  HZ I         836  7.64         3.6 0.42            133            145 259 
                                                                                
