 2015  510 0016  4.2 L   6.794 -73.131149.6  RSN 11 0.4 1.9LRSN                1
 GAP=139        0.92       2.6     3.7  5.7 -0.1385E+01  0.6976E+01  0.1194E+01E
 Epicentro: LOS SANTOS - SANTANDER                                             3
 ACTION:UPD 15-09-10 22:03 OP:cam  STATUS:               ID:20150510001604 L   I
 OLDACT:REG 15-05-10 12:20 OP:y    STATUS:               ID:20150510000735     3
 2015-05-10-0007-35M.COL___285                                                 6
 STAT SP IPHASW D HRMM SECON CODA AMPLIT PERI AZIMU VELO AIN AR TRES W  DIS CAZ7
 BRR  HZ EP        016 26.19                             153    0.2910 72.9 298 
 BRR  HN ES        016 43.39                             153    0.5910 72.9 298 
 PAM  SZ EP        016 27.09                             152    0.2510 76.9  38 
 PAM  SN ES        016 44.45                             152   -0.0110 76.9  38 
 PAM  SZ I         016 47.25         8.0 0.72            155           76.9  38 
 RUS  HZ EP        016 28.14                             145   -0.1810 99.9 177 
 RUS  HN ES        016 47.00                             145   -0.1010 99.9 177 
 RUS  HZ I         016 47.82        11.0 0.28            147           99.9 177 
 SPBC HZ EP        016 33.18                             130    0.09 9  164 220 
 SPBC HN ES        016 54.97                             130   -0.62 9  164 220 
 SPBC HZ I         016 57.97        18.9 0.22            130            164 220 
 ZAR  HZ EP        016 36.81                             123   -0.31 8  206 292 
 ZAR  HN ES        017  2.33                             123   -0.42 8  206 292 
 ZAR  HZ I         017 12.73         7.8 0.28            123            206 292 
 NOR  HN ES        017  8.82                             119    0.40 8  236 235 
 SML  HZ EP        016 41.67                             118    0.45 8  245 335 
 SML  HN ES        017  9.14                             118   -0.92 8  245 335 
 SML  HZ I         017 15.50         9.1 0.10            119            245 335 
 CHI  HZ EP        016 42.08                             118   -0.06 8  248 196 
 CHI  HN ES        017 11.29                             118   -0.40 8  248 196 
 CHI  HZ I         017 20.14         3.7 0.38            119            248 196 
 HEL  HZ EP        016 44.87                             115    0.06 8  273 256 
 HEL  HN ES        017 16.66                             115    0.22 8  273 256 
 HEL  HZ I         017 23.07         4.7 0.40            116            273 256 
 GUY2CHZ EP        016 48.46                             113    0.32 7  302 235 
 GUY2CHN ES        017 22.06                             113   -0.31 7  302 235 
 GUY2CHZ I         017 30.63         4.2 0.24                           302 235 
 RREF HZ EP   4    016 53.45                             111    2.81 0  323 230 
 RREF HN ES        017 27.44                             111    0.60 7  323 230 
 RREF HZ I         017 35.02         1.4 0.24            112            323 230 
                                                                                
