 2011  610 0752  9.5 L   6.797 -73.106144.0  RSN  8 0.3 1.9LRSN                1
 GAP=178        0.71       3.9     6.5  5.8 -0.1590E+02 -0.1146E+01  0.6806E+01E
 Epicentro: LOS SANTOS - SANTANDER                                             3
 ACTION:UP  11-07-14 19:04 OP:ep   STATUS:               ID:20110610075209 L   I
 2011-06-10-0752-18S.COL___120                                                 6
 STAT SP IPHASW D HRMM SECON CODA AMPLIT PERI AZIMU VELO SNR AR TRES W  DIS CAZ7
 BAR2 SZ EP        752 28.88                             170    -0.110   24 200 
 BAR2 SZ ES   1    752 44.15                             170     0.0 7   24 200 
 BAR2 SZ I         752 46.65        15.2 0.21                            24 200 
 BRR  HZ EP        752 30.60                             151    -0.110   75 297 
 BRR  HN ES   1    752 47.64                             151     0.4 7   75 297 
 BRR  HZ I         752 50.47        23.8 0.10                            75 297 
 BRI  SZ EP   1    752 33.39                             141     0.3 7  107  19 
 BRI  SZ ES   1    752 51.29                             141    -0.3 7  107  19 
 BRI  SZ I         752 54.87        10.5 0.46                           107  19 
 GRA  SZ EP   1    752 34.55                             137     0.0 7  125  16 
 GRA  SZ ES   1    752 53.65                             137    -0.4 7  125  16 
 GRA  SZ I         752 55.32        13.3 0.38                           125  16 
 OCA  SZ EP   1    752 38.18                             129     0.4 7  161 352 
 OCA  SZ I         753  4.47        12.3 0.27                           161 352 
 NOR  SZ EP   1    752 45.10                             118    -0.4 6  238 235 
 NOR  SN ES   1    753 13.37                             118    -0.2 6  238 235 
 CHI  HZ EP   1    752 47.39                             117     0.2 6  250 196 
 CHI  HN ES   1    753 17.06                             117     0.4 6  250 196 
 CHI  HZ I         753 23.75         6.0 0.41                           250 196 
 PRA  HZ EP   1    753  3.60                             106     0.4 4  394 210 
 PRA  HN ES   1    753 44.12                             106    -0.9 4  394 210 
                                                                                
