 2013  210 0725 14.0 L   6.784 -73.143147.2  RSN 10 0.3 1.9LRSN                1
 GAP=138        0.79       2.7     3.6  5.8  0.6455E+00  0.5627E+01  0.2390E+01E
 Epicentro: LOS SANTOS - SANTANDER                                             3
 ACTION:UPD 13-03-12 09:31 OP:ep   STATUS:               ID:20130210072514 L   I
 2013-02-10-0720-00M.COL___241                                                 6
 STAT SP IPHASW D HRMM SECON CODA AMPLIT PERI AZIMU VELO AIN AR TRES W  DIS CAZ7
 BAR2 SZ EP        725 33.84                             171    0.0410 21.6 192 
 BAR2 SZ I         725 50.39         9.3 0.52            171           21.6 192 
 BRR  HZ IP     C  725 35.73                             152    0.3310 72.3 300 
 BRR  HN ES        725 52.43                             152    0.3610 72.3 300 
 BRR  HN I         725 54.82        13.3 0.18            149           72.3 300 
 PAM  SZ EP   1    725 36.61                             151    0.14 7 78.6  39 
 PAM  SN ES        725 53.77                             151   -0.2110 78.6  39 
 PAM  SN I         725 55.22        11.5 0.42            150           78.6  39 
 RUS  HZ EP        725 37.75                             145   -0.0510 98.8 176 
 RUS  HN ES        725 56.09                             145   -0.2410 98.8 176 
 RUS  HN I         725 58.15        10.4 0.22            144           98.8 176 
 PTB  HZ EP        725 40.54                             132   -0.57 9  148 260 
 PTB  HN ES   1    726  1.63                             132   -0.60 7  148 260 
 PTB  HN I         726  7.01        11.7 0.30            129            148 260 
 OCA  HN ES   1    726  5.41                             130    0.49 7  162 353 
 OCA  HN I         726  7.62        30.3 0.34            127            162 353 
 ZAR  HN ES   1    726 12.53                             123    0.41 6  205 293 
 ZAR  HN I         726 18.42         9.7 0.34            120            205 293 
 SML  HZ EP   1    725 50.51                             118   -0.41 6  245 335 
 SML  HN ES        726 19.35                             118   -0.35 8  245 335 
 SML  HN I         726 30.72        14.4 0.10            115            245 335 
 CHI  HZ EP        725 52.10                             118    0.47 8  247 195 
 CHI  HN ES   1    726 21.25                             118    0.29 6  247 195 
 CHI  HN I         726 24.10         3.3 0.48            116            247 195 
 HEL  HN ES        726 25.80                             115    0.09 8  272 256 
 HEL  HN I         726 33.36         2.6 0.30            113            272 256 
                                                                                
