 2011  510 0741 27.7 L   6.796 -73.127140.9  RSN 13 0.3 2.1LRSN                1
 GAP=139        0.59       3.1     5.0  3.8 -0.7566E+01  0.2115E+01  0.8112E+00E
 Epicentro: LOS SANTOS - SANTANDER                                             3
 ACTION:UP  11-06-29 08:52 OP:tino STATUS:               ID:20110510074127 L   I
 2011-05-10-0740-25S.COL___133                                                 6
 STAT SP IPHASW D HRMM SECON CODA AMPLIT PERI AZIMU VELO SNR AR TRES W  DIS CAZ7
 BTL  SZ IP        741 46.80                             171     0.110   21 311 
 BTL  SZ ES   1    742  1.43                             171     0.0 7   21 311 
 BAR2 SZ IP        741 46.74                             170     0.010   23 195 
 BAR2 SZ ES   1    742  1.42                             170    -0.1 7   23 195 
 BAR2 SZ I         742  2.81        45.9 0.26                            23 195 
 GIR2 SZ EP   1    741 46.78                             167     0.0 7   32 347 
 GIR2 SZ ES   2    742  1.32                             167    -0.4 5   32 347 
 BRR  HZ EP        741 48.51                             151     0.110   73 298 
 BRR  HN ES   2    742  5.20                             151     0.6 5   73 298 
 BRR  HZ I         742  7.34        18.4 0.08                            73 298 
 PAM  SZ EP        741 49.60                             150     0.310   76  38 
 PAM  SN ES   2    742  6.32                             150     0.1 5   76  38 
 RUS  HZ EP        741 50.76                             143    -0.110  100 177 
 RUS  HZ I         741 51.93        12.2 0.16                           100 177 
 BRI  SZ EP        741 51.24                             140     0.210  108  20 
 GRA  SZ IP        741 52.55                             136     0.110  126  16 
 GRA  SZ I         741 53.77        13.3 0.40                           126  16 
 GRA  SZ ES   1    742 11.38                             136    -0.4 7  126  16 
 OCA  SZ EP        741 55.20                             128    -0.5 9  161 352 
 OCA  SZ ES   2    742 17.50                             128     0.0 5  161 352 
 OCA  SZ I         742 21.36        13.7 0.04                           161 352 
 NOR  SZ EP        742  3.10                             117    -0.2 8  236 235 
 NOR  SN ES   3    742 30.61                             117    -0.4 2  236 235 
 HEL  HZ EP   3    742  8.73                             114     0.9 2  274 256 
 HEL  HZ I         742 45.10         7.6 0.36                           274 256 
 RREF HZ EP   1    742 13.96                             110     0.2 5  323 230 
 RREF HZ I         742 58.11         5.9 0.21                           323 230 
 PRA  HZ EP   2    742 20.37                             106    -0.7 3  393 210 
 PRA  HN ES   3    743  3.59                             106     0.8 1  393 210 
                                                                                
