 2012  110 0432 32.6 L   6.794 -73.120143.8  RSN 10 0.3 1.8LRSN                1
 GAP=158        0.41       3.2     3.1  4.6 -0.2802E+01  0.2679E+01  0.6499E+01E
 Epicentro: LOS SANTOS - SANTANDER                                             3
 ACTION:UP  12-02-03 08:16 OP:REBC STATUS:               ID:20120110043232 L   I
 2012-01-10-0430-00M.COL___186                                                 6
 STAT SP IPHASW D HRMM SECON CODA AMPLIT PERI AZIMU VELO SNR AR TRES W  DIS CAZ7
 BAR2 SZ EP   1    432 51.85                             170    -0.2 7   23 197 
 BAR2 SZ ES   2    433  6.77                             170    -0.4 5   23 197 
 BAR2 SZ I         433  8.35        15.4 0.27                            23 197 
 GIR2 SZ EP   2    432 51.99                             167    -0.1 5   33 345 
 BRR  HZ EP   1    432 53.82                             151     0.1 7   74 298 
 BRR  HN ES   2    433 10.57                             151     0.4 5   74 298 
 BRR  HZ I         433 14.62         7.9 0.15                            74 298 
 PAM  SZ EP   1    432 54.68                             151     0.1 7   76  38 
 PAM  SN ES   1    433 11.82                             151     0.1 7   76  38 
 PTB  HZ EP   2    432 59.25                             131    -0.5 5  150 259 
 PTB  HE ES   2    433 20.74                             131    -0.1 5  150 259 
 ZAR  HZ EP   2    433  4.88                             121    -0.4 4  207 292 
 ZAR  HN ES   2    433 30.57                             121    -0.1 4  207 292 
 ZAR  HZ I         433 35.93         5.2 0.33                           207 292 
 NOR  SZ EP   2    433  8.85                             118     0.4 4  237 235 
 NOR  SN ES   2    433 36.63                             118     0.2 4  237 235 
 CHI  HZ EP   1    433 10.11                             117    -0.1 6  249 196 
 CHI  HN ES   2    433 39.70                             117     0.1 4  249 196 
 CHI  HZ I         433 46.44         2.9 0.38                           249 196 
 RREF HZ EP   2    433 19.53                             110     0.6 3  324 230 
 RREF HN ES   2    433 55.04                             110     0.1 3  324 230 
 RREF HZ I         434  4.21         3.4 0.29                           324 230 
 PRA  HZ EP   2    433 26.13                             106    -0.1 3  393 210 
 PRA  HN ES   2    434  8.37                             106     0.4 3  393 210 
                                                                                
