 2011  210 0714 54.9 L   6.794 -73.154139.6  RSN  9 0.3 2.0LRSN                1
 GAP=158        0.60       3.3     7.9  6.1 -0.1155E+02  0.1607E+02  0.3991E+00E
 Epicentro: LOS SANTOS - SANTANDER                                             3
 ACTION:UP  11-03-28 15:07 OP:jfem STATUS:               ID:20110210071454 L   I
 2011-02-10-0710-14S.COL___136                                                 6
 STAT SP IPHASW D HRMM SECON CODA AMPLIT PERI AZIMU VELO SNR AR TRES W  DIS CAZ7
 BTL  SZ EP   1    715 13.98                             172     0.3 7   19 317 
 BAR2 SZ IP        715 13.74                             170     0.010   23 188 
 BAR2 SZ I         715 14.06        34.3 0.10                            23 188 
 BAR2 SZ ES   2    715 27.98                             170    -0.5 5   23 188 
 GIR2 SZ EP   1    715 13.85                             166     0.0 7   32 352 
 GIR2 SZ ES   2    715 29.06                             166     0.4 5   32 352 
 RUS  HZ EP   1    715 17.67                             143    -0.3 7  100 176 
 RUS  HZ I         715 18.35         7.5 0.20                           100 176 
 RUS  HN ES   2    715 36.19                             143     0.2 5  100 176 
 GRA  SZ EP   1    715 19.71                             135     0.0 7  127  18 
 GRA  SZ ES   2    715 38.99                             135     0.0 5  127  18 
 GRA  SZ I         715 40.36        16.1 0.33                           127  18 
 OCA  SZ EP   1    715 22.83                             128     0.1 7  161 353 
 OCA  SZ ES   2    715 44.20                             128    -0.3 5  161 353 
 OCA  SZ I         715 48.37        11.1 0.25                           161 353 
 NOR  SZ EP   1    715 29.77                             117    -0.4 6  234 235 
 NOR  SN ES   2    715 57.65                             117     0.0 4  234 235 
 CHI  HZ EP   1    715 31.91                             116    -0.3 6  248 195 
 CHI  HN ES   2    716  1.56                             116     0.3 4  248 195 
 CHI  HZ I         716  7.20         4.0 0.09                           248 195 
 ROSC BZ EP   1    715 33.27                             115     0.7 6  252 211 
 ROSC BZ I         716 11.46        11.5 0.42                           252 211 
                                                                                
