 2014 1110 0649 47.2 L   6.784 -73.130137.0  RSN 15 0.6 1.8LRSN                1
 GAP= 73        1.57       4.4     4.6  7.5 -0.4852E+01  0.7638E+01  0.6130E+01E
 Epicentro: LOS SANTOS - SANTANDER                                             3
 ACTION:UPD 14-12-19 15:41 OP:nd   STATUS:               ID:20141110064947 L   I
 OLDACT:ARG 14-11-10 13:00 OP:stll STATUS:               ID:20141110064738     3
 2014-11-10-0647-38M.COL___286                                                 6
 STAT SP IPHASW D HRMM SECON CODA AMPLIT PERI AZIMU VELO AIN AR TRES W  DIS CAZ7
 BAR2 SZ EP        650  5.83                             170    0.0610 22.0 195 
 BAR2 SZ ES        650 20.02                             170   -0.2210 22.0 195 
 BAR2 SZ I         650 22.52        20.4 0.28            169           22.0 195 
 BRR  HZ EP        650  7.74                             150    0.1610 73.6 299 
 BRR  HN ES        650 25.03                             150    1.5710 73.6 299 
 BRR  HZ I         650 29.96         8.6 0.14            144           73.6 299 
 PAM  SZ EP        650  8.49                             149   -0.0410 77.7  38 
 PAM  SN ES        650 25.06                             149   -0.1010 77.7  38 
 PAM  SZ I         650 27.95         9.6 0.54            149           77.7  38 
 RUS  HZ EP        650  9.73                             142   -0.2510 98.7 177 
 RUS  HE ES        650 27.69                             142   -0.0410 98.7 177 
 RUS  HZ I         650 29.36         6.5 0.26            143           98.7 177 
 PTB  HZ EP        650 12.70                             130   -0.92 9  149 260 
 PTB  HE ES        650 33.80                             130   -0.42 9  149 260 
 PTB  HZ I         650 39.77         9.3 0.36            126            149 260 
 TAM  HZ EP        650 13.92                             129   -0.09 9  153 105 
 TAM  HN ES        650 35.05                             129    0.14 9  153 105 
 OCA  HZ EP        650 14.93                             127   -0.13 9  162 353 
 OCA  HN ES        650 36.07                             127   -0.71 9  162 353 
 OCA  HZ I         650 41.78         7.8 0.26            125            162 353 
 SPBC HZ EP        650 14.59                             127   -0.45 9  163 220 
 SPBC HN ES        650 36.32                             127   -0.42 9  163 220 
 SPBC HZ I         650 43.76        13.6 0.26            125            163 220 
 CHI  HZ EP        650 23.99                             115   -0.32 8  247 196 
 CHI  HN ES        650 52.79                             115   -0.45 8  247 196 
 CHI  HZ I         650 58.96         3.9 0.26            114            247 196 
 ROSC BZ EP        650 26.07                             115    1.26 8  252 212 
 ROSC BN ES        650 54.23                             115    0.10 8  252 212 
 HEL  HZ EP        650 27.65                             113    0.50 8  273 256 
 HEL  HZ I         651  4.07         3.9 0.60            111            273 256 
 GUY2CHZ EP        650 30.75                             110    0.26 7  302 235 
 GUY2CHE ES        651  4.73                             110    0.49 7  302 235 
 GUY2CHZ I         651 12.94         4.4 0.60                           302 235 
 RREF HZ EP   9    650 31.51                             109   -1.51 0  322 230 
 RREF HE ES        651  5.52                                   -1.71 7  322 230 
 RREF HZ I         651 11.94         4.6 0.28            108            322 230 
 CBOC HZ EP        650 33.89                             108   -0.03 7  335 252 
 CBOC HE ES        651  8.94                             108   -1.41 7  335 252 
 TOL  SZ EP        650 36.36                             108    1.22 7  343 225 
 TOL  SN ES        651 13.66                             108    1.15 7  343 225 
                                                                                
