 2015  210 0228 35.1 L   6.822 -73.173146.3  RSN 12 0.4 1.6LRSN                1
 GAP= 69        0.79       2.7     3.0  4.6 -0.1610E+01  0.3380E+01 -0.5609E+00E
 Epicentro: ZAPATOCA - SANTANDER                                               3
 ACTION:UPD 15-04-30 21:24 OP:nd   STATUS:               ID:20150210022835 L   I
 OLDACT:REG 15-02-10 12:50 OP:fm   STATUS:               ID:20150210022740     3
 2015-02-10-0227-40M.COL___284                                                 6
 STAT SP IPHASW D HRMM SECON CODA AMPLIT PERI AZIMU VELO AIN AR TRES W  DIS CAZ7
 BAR2 EZ ES        229  9.96                             170   -0.3110 25.4 182 
 BAR2 EZ I         229 11.68         8.7 0.18            171           25.4 182 
 BRR  HN ES   1    229 12.94                             154    0.42 7 67.4 298 
 PAM  SZ EP        228 57.51                             151    0.0910 77.6  42 
 PAM  SN ES        229 14.77                             151   -0.0410 77.6  42 
 PAM  SZ I         229 17.59         8.0 0.44            152           77.6  42 
 RUS  HZ EP        228 59.53                             143    0.4010  103 174 
 RUS  HE ES        229 17.78                             143   -0.0710  103 174 
 RUS  HZ I         229 19.14         4.3 0.24            146            103 174 
 PTB  HZ EP        229  2.26                             133    0.34 9  145 258 
 PTB  HE ES        229 23.08                             133    0.26 9  145 258 
 PTB  HZ I         229 25.21         4.2 0.14            133            145 258 
 TAM  HZ EP        229  3.19                             130    0.00 9  159 106 
 TAM  HE ES   4    229 34.44                             130    9.37 0  159 106 
 SPBC HZ EP   1    229  3.21                             129   -0.46 7  163 218 
 SPBC HE ES        229 25.56                             129   -0.38 9  163 218 
 SPBC HZ I         229 27.81         5.6 0.38            131            163 218 
 NOR  HZ EP   1    229 10.24                             119   -0.54 6  234 234 
 NOR  HE ES   1    229 38.53                             119   -0.06 6  234 234 
 NOR  HZ I         229 45.42         3.5 0.20            120            234 234 
 SML  HZ EP   1    229 10.85                             118   -0.57 6  240 336 
 SML  HE ES        229 39.93                             118    0.20 8  240 336 
 SML  HZ I         229 43.88         5.9 0.10            119            240 336 
 GUY2CHZ EP        229 19.03                             112    0.38 7  300 234 
 GUY2CHE ES        229 52.77                             112    0.19 7  300 234 
 GUY2CHZ I         229 59.67         1.6 0.34                           300 234 
 RREF HE ES   4    229 51.96                             111   -5.20 0  321 229 
 RREF HZ I         229 54.53         3.4 0.20            112            321 229 
 MON  HN ES   1    230  0.31                             109   -1.29 5  350 308 
 MON  HZ I         230  3.48         0.7 0.72            110            350 308 
                                                                                
