 2016  110 0358  5.6 L   6.898 -73.229148.5  RSN  4 0.4 1.3LRSN                1
 GAP=204        1.07       7.4     6.2  8.9 -0.1703E+02  0.1051E+02 -0.1089E+02E
 Epicentro: BETULIA - SANTANDER                                                3
 ACTION:UPD 16-03-09 23:24 OP:cam  STATUS:               ID:20160110035805 L   I
 OLDACT:REG 16-01-10 12:19 OP:drio STATUS:               ID:20160110034747     3
 2016-01-10-0347-47M.COL___263                                                 6
 STAT SP IPHASW D HRMM SECON CODA AMPLIT PERI AZIMU VELO AIN AR TRES W  DIS CAZ7
 BRR  HZ EP        358 26.96                             157    0.6110 58.1 293 
 BRR  HZ I         358 40.38         5.1 0.50            151           58.1 293 
 BRR  HN ES        358 43.08                             157    0.5310 58.1 293 
 PAM  EZ EP        358 28.26                             152    0.2510 76.2  50 
 PAM  EE ES        358 44.97                             152   -0.5310 76.2  50 
 PAM  EZ I         358 46.98         2.3 0.50            148           76.2  50 
 PTB  HZ EP        358 31.96                             134   -0.24 9  141 254 
 PTB  HN ES        358 52.46                             134   -0.50 9  141 254 
 PTB  HZ I         358 55.38         1.6 0.26            130            141 254 
 SML  HZ EP        358 40.73                             120   -0.16 8  230 336 
 SML  HN ES        359  8.28                             120   -0.15 8  230 336 
 SML  HZ I         359 18.54         2.7 0.24            115            230 336 
                                                                                
