 2012  210 0730 31.2 L   6.745 -73.153141.8  RSN  9 0.4 1.6LRSN                1
 GAP=138        0.83       4.1     4.8  7.2  0.3801E+00  0.9607E+01  0.3612E+01E
 ACTION:UP  12-03-07 16:29 OP:epov STATUS:               ID:20120210073031 L   I
 2012-02-10-0730-00M.COL___188                                                 6
 STAT SP IPHASW D HRMM SECON CODA AMPLIT PERI AZIMU VELO AIN AR TRES W  DIS CAZ7
 BAR2 SZ EP   1    730 50.36                             173    0.10 7 17.3 191 
 BAR2 SZ ES   1    731  5.56                             173    0.45 7 17.3 191 
 BAR2 SZ I         731  6.56         8.4 0.18                          17.3 191 
 GIR2 SZ EP   1    730 50.60                             165    0.01 7 37.1 353 
 BRR  HZ EP   1    730 52.35                             151    0.27 7 73.6 303 
 BRR  HE ES   1    731  8.93                             151    0.59 7 73.6 303 
 BRR  HZ I         731 11.61        11.3 0.15                          73.6 303 
 PAM  SZ EP   1    730 53.33                             148   -0.01 7 82.6  37 
 PAM  SZ I         730 53.73         7.1 0.20                          82.6  37 
 PAM  SN ES   1    731  9.94                             148   -0.64 7 82.6  37 
 RUS  HZ EP   1    730 54.74                             145    0.59 7 94.6 175 
 RUS  HE ES   1    731 11.63                             145   -0.40 7 94.6 175 
 RUS  HZ I         731 13.83         4.7 0.25                          94.6 175 
 PTB  HZ EP   1    730 56.90                             131   -0.79 7  146 261 
 PTB  HN ES   1    731 17.85                             131   -0.49 7  146 261 
 PTB  HZ I         731 21.75         0.0 0.10                           146 261 
 ZAR  HZ EP   1    731  3.86                             121    0.29 6  206 294 
 ZAR  HN ES   1    731 28.73                             121   -0.08 6  206 294 
 ZAR  HZ I         731 34.34         3.2 0.16                           206 294 
 CHI  HN ES   1    731 36.60                             117   -0.16 6  243 195 
 PRA  HE ES   1    732  5.39                             106    0.32 4  386 210 
                                                                                
