 2011  410 0127  8.6 L   6.765 -73.255161.3  RSN  4 0.3 1.5LRSN                1
 GAP=150        0.59      11.2    14.1 16.0 -0.7991E+02 -0.1103E+03  0.9154E+02E
 Epicentro: ZAPATOCA - SANTANDER                                               3
 ACTION:UP  11-06-22 15:30 OP:REBC STATUS:               ID:20110410012708 L   I
 2011-04-10-0126-02S.COL___138                                                 6
 STAT SP IPHASW D HRMM SECON CODA AMPLIT PERI AZIMU VELO SNR AR TRES W  DIS CAZ7
 BTL  SZ EP   1    127 30.45                             174     0.5 7   17 355 
 BAR2 SZ EP   1    127 29.76                             172    -0.3 7   21 157 
 BAR2 SZ I         127 49.20         4.8 0.59                            21 157 
 BRR  HZ EP   1    127 30.97                             157    -0.1 7   63 307 
 BRR  HZ I         127 32.27         8.2 0.38                            63 307 
 BRR  HE ES   2    127 48.48                             157    -0.1 5   63 307 
 GRA  SZ EP   2    127 35.73                             138    -0.1 5  134  22 
 GRA  SZ ES   2    127 57.11                             138     0.0 5  134  22 
 GRA  SZ I         127 59.39         2.3 0.51                           134  22 
                                                                                
