 2012  410 0912 22.4 L   6.765 -73.126142.0  RSN  8 0.3 1.7LRSN                1
 GAP=141        0.72       3.9     4.1  5.5 -0.3189E+01  0.6654E+00  0.1921E+01E
 Epicentro: LOS SANTOS - SANTANDER                                             3
 ACTION:UPD 12-07-05 11:52 OP:tino STATUS:               ID:20120410091222 L   I
 2012-04-10-0910-00M.COL___199                                                 6
 STAT SP IPHASW D HRMM SECON CODA AMPLIT PERI AZIMU VELO AIN AR TRES W  DIS CAZ7
 BAR2 SZ EP   1    912 41.16                             172    -0.4 7   20 198 
 BAR2 SZ ES   1    912 56.19                             172    -0.3 7   20 198 
 BAR2 SZ I         912 58.21        17.3 0.19                            20 198 
 BRR  HZ EP        912 43.53                             151     0.110   75 300 
 BRR  HE ES        913  0.19                             151     0.410   75 300 
 PAM  SZ EP        912 44.45                             150     0.110   79  37 
 PAM  SN ES   1    913  1.20                             150    -0.2 7   79  37 
 RUS  HZ EP        912 45.63                             144     0.110   97 177 
 RUS  HE ES   1    913  3.73                             144     0.2 7   97 177 
 RUS  HZ I         913  5.30         5.2 0.23                            97 177 
 PTB  HZ EP   1    912 48.68                             131    -0.5 7  149 260 
 PTB  HE ES   1    913  9.80                             131    -0.3 7  149 260 
 OCA  SZ EP   1    912 50.71                             128    -0.1 7  164 353 
 NOR  SN ES   1    913 25.44                             118    -0.1 6  234 236 
 PRA  HZ EP   1    913 16.39                             106     0.8 4  390 210 
                                                                                
