 2016  510 0119 36.6 L   7.026 -73.371127.5  RSN  5 0.4 1.4LRSN                1
 GAP=178        1.07       4.2     7.1  7.6 -0.5001E+00  0.8785E+01 -0.5996E+01E
 Epicentro: SAN VICENTE DE CHUCURI - SANTANDER                                 3
 ACTION:UPD 16-08-18 17:44 OP:cam  STATUS:               ID:20160510011936 L   I
 OLDACT:REG 16-05-10 12:19 OP:drio STATUS:               ID:20160510011747     3
 2016-05-10-0117-47M.COL___295                                                 6
 STAT SP IPHASW D HRMM SECON CODA AMPLIT PERI AZIMU VELO AIN AR TRES W  DIS CAZ7
 BRR  HZ IP     C  119 54.48                             162    0.2910 38.7 283 
 BRR  HN ES        120  8.59                             162    0.7110 38.7 283 
 BRR  HZ I         120 13.57         6.5 0.38            161           38.7 283 
 BAR2 EZ EP        119 55.12                             157   -0.0110 52.3 157 
 BAR2 EZ ES        120  9.05                             157   -0.5010 52.3 157 
 BAR2 EZ I         120  9.97         5.2 0.44            159           52.3 157 
 PTB  HZ EP        120  0.27                             131   -0.3810  132 246 
 PTB  HE ES        120 19.11                             131   -0.2610  132 246 
 PTB  HZ I         120 19.45         5.4 0.32            133            132 246 
 SPBC HZ EP        120  5.23                             123    0.67 9  171 207 
 SPBC HN ES        120 26.12                             123   -0.21 9  171 207 
 SPBC HZ I         120 31.39         3.7 0.12            125            171 207 
 ZAR  HE ES   4    120 27.97                             123    1.55 0  172 288 
 SML  HZ EP        120  8.75                             117    0.05 8  211 339 
 SML  HE ES        120 33.23                             117   -0.47 8  211 339 
                                                                                
