 2011  710 0147 14.2 L   6.850 -72.964143.1  RSN  5 0.2 2.0LRSN                1
 GAP=178        0.43       2.4     5.0  4.5 -0.7161E+00 -0.4703E+01 -0.2303E+01E
 Epicentro: CEPITA - SANTANDER                                                 3
 ACTION:UPD 12-07-25 13:59 OP:epov STATUS:               ID:20110710014714 L   I
 2011-07-10-0145-41S.COL___140                                                 6
 STAT SP IPHASW D HRMM SECON CODA AMPLIT PERI AZIMU VELO AIN AR TRES W  DIS CAZ7
 BAR2 SZ EP   1    147 33.85                             165   -0.06 7 37.4 220 
 BAR2 SZ ES   1    147 49.44                             165    0.18 7 37.4 220 
 BAR2 SZ I         147 50.88        27.8 0.26                          37.4 220 
 BRR  HZ EP        147 35.99                             147   -0.1110 87.4 289 
 BRR  HZ I         147 36.26        56.5 0.17                          87.4 289 
 BRR  HN ES   1    147 53.11                             147   -0.05 7 87.4 289 
 RUS  HZ EP   1    147 38.25                             142    0.08 7  107 187 
 RUS  HN ES   1    147 56.79                             142   -0.06 7  107 187 
 RUS  HZ I         147 57.60         9.4 0.46                           107 187 
 GRA  SZ EP   1    147 38.18                             139   -0.23 7  116   9 
 GRA  SZ I         147 39.35         7.2 0.31                           116   9 
 GRA  SZ ES   1    147 57.23                             139   -0.05 7  116   9 
 OCA  SZ EP   1    147 42.61                             129    0.44 7  159 346 
 OCA  SZ I         148 11.06         9.0 0.31                           159 346 
                                                                                
