 2017  510 0357 29.5 L   6.803 -73.119140.1  RSN  5 0.4 1.2LRSN                1
 GAP=140        0.98       5.0     5.0  8.4  0.3866E+01 -0.1472E+01  0.1150E+01E
 Epicentro: LOS SANTOS - SANTANDER                                             3
 ACTION:UPD 17-06-16 13:34 OP:jn   STATUS:               ID:20170510035729 L   I
 OLDACT:UP  17-05-10 18:03 OP:edw  STATUS:               ID:20170510034736     3
 OLDACT:REG 17-05-10 13:13 OP:osc  STATUS:               ID:20170510034736     3
 2017-05-10-0348-00M.COL___356                                                 6
 STAT SP IPHASW D HRMM SECON CODA AMPLIT PERI AZIMU VELO AIN AR TRES W  DIS CAZ7
 BRR  HZ EP        357 50.26                             150    0.0710 73.7 297 
 BRR  HN ES        358  6.93                             150    0.6010 73.7 297 
 BRR  HZ I         358 11.69         4.5 0.28            148           73.7 297 
 PAM  EZ EP        357 51.32                             150    0.3310 75.2  38 
 PAM  EN ES        358  7.28                             150   -0.4710 75.2  38 
 PAM  EZ I         358  9.14         2.4 0.18            156           75.2  38 
 RUS  HZ EP        357 52.83                             142    0.1110  101 178 
 RUS  HN ES        358 10.60                             142   -0.2310  101 178 
 RUS  HZ I         358 12.33         2.3 0.40            144            101 178 
 PTB  HZ EP   9    357 55.72                             130   -0.58 0  151 259 
 PTB  HN ES        358 16.30                             131   -0.32 9  151 259 
 PTB  HZ I         358 25.30         1.6 0.46            129            151 259 
 ZAR  HN ES        358 26.54                             120   -0.57 8  207 292 
                                                                                
