 2010  110 0334 19.9 L   6.801 -73.040142.7  RSN  8 0.5 1.7LRSN                1
 GAP=134        0.85       4.6     7.6  7.7 -0.1202E+02  0.1041E+02 -0.1919E+01E
 Epicentro: CEPITA - SANTANDER                                                 3
 ACTION:UP  10-08-24 09:43 OP:vdl  STATUS:               ID:20100110033419 L   I
 2010-01-10-0331-31S.COL___097                                                 6
 STAT SP IPHASW D HRMM SECON CODA AMPLIT PERI AZIMU VELO SNR AR TRES W  DIS CAZ7
 BAR2 SZ EP        334 39.00                             168    -0.310   28 215 
 BAR2 SZ ES   2    334 54.64                             168     0.3 5   28 215 
 GIR2 SZ EP        334 39.42                             165     0.110   35 331 
 GIR2 SZ ES   3    334 53.85                             165    -0.6 2   35 331 
 RUS  BZ EP        334 43.51                             143     0.110  101 183 
 RUS  BN ES   2    335  1.67                             143     0.0 5  101 183 
 RUS  BZ I         335  2.85         4.0 0.29                           101 183 
 OCA  SZ EP        334 48.55                             128     0.4 9  162 349 
 OCA  SZ ES   2    335  9.87                             128    -0.3 5  162 349 
 CHI  HZ EP        334 57.21                             116    -0.6 8  252 198 
 CHI  HN ES   3    335 27.97                             116     0.6 2  252 198 
 CHI  HZ I         335 32.20         2.4 0.28                           252 198 
 HEL  HZ EP        335  0.90                             113    -0.3 7  283 256 
 HEL  HE ES   3    335 31.97                             113    -1.5 2  283 256 
 HEL  HZ I         335 37.78         4.0 0.28                           283 256 
 RREF BZ EP        335  7.90                             110     0.9 7  331 231 
 RREF BN ES   2    335 44.07                             110     0.4 3  331 231 
 RREF BZ I         335 48.60         3.8 0.14                           331 231 
 SDV  BZ EP        335  8.50                             108    -0.3 6  351  49 
                                                                                
