 2016  110 0122 47.7 L   6.766 -73.143142.8  RSN  7 0.4 1.7LRSN                1
 GAP=138        1.05       4.3     4.6  6.9  0.2063E+01  0.6100E+01 -0.6169E+01E
 Epicentro: LOS SANTOS - SANTANDER                                             3
 ACTION:UPD 16-03-09 23:24 OP:cam  STATUS:               ID:20160110012247 L   I
 OLDACT:UP  16-01-10 13:39 OP:drio STATUS:               ID:20160110011751d    3
 OLDACT:UP  16-01-10 13:38 OP:drio STATUS:               ID:20160110011751d    3
 OLDACT:DUP 16-01-10 13:31 OP:drio STATUS:               ID:20160110011751d    3
 OLDACT:REG 16-01-10 12:12 OP:drio STATUS:               ID:20160110011750     3
 2016-01-10-0117-50M.COL___251                                                 6
 STAT SP IPHASW D HRMM SECON CODA AMPLIT PERI AZIMU VELO AIN AR TRES W  DIS CAZ7
 BAR2 EZ EP        123  6.77                             172   -0.1210 19.7 193 
 BAR2 EZ ES        123 21.67                             172   -0.2010 19.7 193 
 BAR2 EZ I         123 23.06        11.2 0.16            175           19.7 193 
 BRR  HZ EP        123  9.01                             151    0.3710 73.3 301 
 BRR  HN ES        123 25.44                             151    0.4610 73.3 301 
 BRR  HZ I         123 29.97        15.7 0.12            149           73.3 301 
 PAM  EZ EP        123  9.88                             149    0.1210 80.2  38 
 PAM  EN ES        123 26.61                             149   -0.3710 80.2  38 
 PAM  EZ I         123 29.20         6.8 0.50            149           80.2  38 
 RUS  HZ EP        123 11.24                             144    0.3710 96.8 176 
 RUS  HE ES        123 29.05                             144    0.0910 96.8 176 
 RUS  HZ I         123 30.08         5.2 0.44            150           96.8 176 
 PTB  HZ EP        123 14.52                             131    0.14 9  147 260 
 PTB  HN ES        123 34.45                             131   -0.74 9  147 260 
 PTB  HZ I         123 37.54         5.4 0.30            132            147 260 
 ZAR  HE ES        123 45.54                             121    0.13 8  206 293 
 ZAR  HZ I         123 49.32         6.5 0.30            122            206 293 
 CHI  HE ES   4    123 51.49                             117   -2.31 0  245 195 
 SML  HZ EP        123 23.57                             116   -0.97 8  247 336 
 SML  HN ES        123 53.77                             116    0.49 8  247 336 
 SML  HZ I         124  3.43         8.0 0.10            117            247 336 
                                                                                
