 2012 1010 0435 23.4 L   6.765 -73.158147.5  RSN  6 0.2 1.6LRSN                1
 GAP=181        0.45       4.6     5.8  4.7  0.1871E+02  0.1176E+02  0.9297E+01E
 Epicentro: LOS SANTOS - SANTANDER                                             3
 ACTION:UPD 12-11-22 17:02 OP:ep   STATUS:               ID:20121010043523 L   I
 2012-10-10-0430-00M.COL___226                                                 6
 STAT SP IPHASW D HRMM SECON CODA AMPLIT PERI AZIMU VELO AIN AR TRES W  DIS CAZ7
 BAR2 SZ EP   1    435 42.86                             172   -0.26 7 19.3 188 
 BAR2 SZ ES   1    435 58.32                             172   -0.22 7 19.3 188 
 BAR2 SZ I         435 59.43         9.6 0.34                          19.3 188 
 GIR2 SZ ES   1    435 59.12                             166    0.20 7 34.9 354 
 BRR  HZ EP   1    435 44.67                             153   -0.06 7 71.9 302 
 BRR  HE ES   1    436  1.65                             153    0.24 7 71.9 302 
 BRR  HZ I         436  5.08         7.1 0.13                          71.9 302 
 RUS  HZ EP   1    435 47.16                             145    0.14 7 96.9 175 
 RUS  HN ES   1    436  5.44                             145   -0.03 7 96.9 175 
 RUS  HZ I         436  6.39         2.9 0.38                          96.9 175 
 ZAR  HE ES   1    436 21.14                             123   -0.20 6  204 293 
 ZAR  HZ I         436 26.39         4.7 0.36                           204 293 
 PRA  HZ EP   1    436 16.87                             107    0.40 4  388 210 
 PRA  HZ I         436 59.67         2.5 0.62                           388 210 
                                                                                
