 2016  610 0226 23.8 L   6.797 -73.147145.9  RSN 12 0.4 2.0LRSN                1
 GAP= 71        1.03       4.3     3.4  6.4 -0.2082E+01  0.3106E+01  0.4827E+01E
 Epicentro: LOS SANTOS - SANTANDER                                             3
 ACTION:UPD 16-07-21 22:17 OP:rebc STATUS:               ID:20160610022623 L   I
 OLDACT:UP  16-06-10 15:00 OP:dani STATUS:               ID:20160610021748d    3
 OLDACT:UP  16-06-10 14:56 OP:dani STATUS:               ID:20160610021748d    3
 OLDACT:DUP 16-06-10 14:50 OP:dani STATUS:               ID:20160610021748d    3
 2016-06-10-0217-47M.COL___337                                                 6
 STAT SP IPHASW D HRMM SECON CODA AMPLIT PERI AZIMU VELO AIN AR TRES W  DIS CAZ7
 BAR2 EZ EP        226 43.18                             171   -0.2410 23.0 190 
 BAR2 EZ I         226 59.91        26.9 0.18                          23.0 190 
 BRR  HZ EP     C  226 45.00                             153    0.0510 71.2 299 
 BRR  HE ES        227  2.30                             153    0.8410 71.2 299 
 BRR  HZ I         227  6.29        13.8 0.14                          71.2 299 
 PAM  EZ EP        226 46.23                             151    0.2010 77.7  39 
 PAM  EN ES        227  2.92                             151   -0.4710 77.7  39 
 PAM  EZ I         227  5.37        31.3 0.48                          77.7  39 
 RUS  HZ EP        226 47.22                             144   -0.3110  100 176 
 RUS  HN ES        227  6.11                             144    0.0610  100 176 
 RUS  HZ I         227  6.96        12.3 0.26                           100 176 
 PTB  HZ EP        226 50.09                             132   -0.66 9  148 259 
 PTB  HN ES        227 11.09                             132   -0.69 9  148 259 
 PTB  HZ I         227 13.90         7.6 0.15                           148 259 
 TAM  HZ EP     D  226 51.59                             131    0.11 9  155 105 
 TAM  HE ES        227 13.32                             131    0.24 9  155 105 
 TAM  HZ I         227 19.50         9.8 0.44                           155 105 
 OCA  HZ EP        226 52.15                             130    0.02 9  161 353 
 OCA  HE ES   4    227 13.19                             130   -1.05 0  161 353 
 OCA  HZ I         227 16.60        19.4 0.20                           161 353 
 NOR  HZ EP        226 59.30                             119   -0.19 8  234 235 
 NOR  HN ES        227 27.77                             119    0.43 8  234 235 
 NOR  HZ I         227 32.84         6.4 0.16                           234 235 
 CHI  HZ EP   2    227  1.54                             117    0.08 4  248 195 
 CHI  HE ES   2    227 30.88                             117    0.04 4  248 195 
 CHI  HZ I         227 34.18         7.3 0.60                           248 195 
 ROSC BZ EP   4    227  3.75                             117    1.87 0  252 211 
 GUY2CHZ EP   4    227  9.13                             112    1.76 0  301 235 
 GUY2CHZ I         227 49.47         5.0 0.36                           301 235 
 CBOC HZ EP        227 11.64                             110    0.96 7  333 252 
 CBOC HN ES   4    227 48.33                             110    1.07 0  333 252 
 CBOC HZ I         227 51.79         1.1 0.11                           333 252 
 PRA  HZ EP        227 17.60                             107    0.33 6  392 210 
 PRA  HN ES   4    228  1.87                             107    2.88 0  392 210 
 PRA  HZ I         228  5.15         4.9 0.30                           392 210 
                                                                                
