 2011  510 0949 44.4 L   6.795 -73.147142.0  RSN 16 0.3 2.7LRSN                1
 GAP=137        0.75       3.4     4.7  5.0 -0.7614E+01  0.3366E+01  0.5233E+01E
 Epicentro: LOS SANTOS - SANTANDER                                             3
 ACTION:UP  11-06-29 08:52 OP:tino STATUS:               ID:20110510094944 L   I
 2011-05-10-0948-19S.COL___132                                                 6
 STAT SP IPHASW D HRMM SECON CODA AMPLIT PERI AZIMU VELO SNR AR TRES W  DIS CAZ7
 BTL  SZ EP        950  3.74                             172     0.210   19 316 
 BAR2 SZ IP        950  3.60                             170     0.010   23 190 
 BAR2 SZ ES   2    950 18.04                             170    -0.5 5   23 190 
 BAR2 SZ I         950 19.87       158.1 0.35                            23 190 
 GIR2 SZ EP        950  3.61                             167     0.010   32 351 
 GIR2 SZ ES   2    950 18.06                             167    -0.6 5   32 351 
 BRR  HZ EP        950  5.38                             152     0.210   71 299 
 BRR  HN ES   1    950 22.09                             152     0.8 7   71 299 
 BRR  HZ I         950 26.52       152.0 0.15                            71 299 
 PAM  SZ EP        950  6.39                             150     0.110   78  39 
 PAM  SN ES   1    950 23.27                             150     0.0 7   78  39 
 RUS  HZ EP        950  7.59                             143    -0.110  100 176 
 RUS  HZ I         950 27.13        46.2 0.18                           100 176 
 BRI  SZ IP        950  8.14                             141     0.210  109  21 
 BRI  SZ ES   1    950 26.82                             141     0.5 7  109  21 
 GUE  SZ EP        950  8.81                             139     0.010  117  12 
 GRA  SZ IP        950  9.37                             136     0.010  126  17 
 GRA  SZ ES   1    950 28.25                             136    -0.6 7  126  17 
 GRA  SZ I         950 30.01        48.2 0.44                           126  17 
 OCA  SZ EP        950 12.09                             129    -0.4 9  161 353 
 OCA  SZ ES   1    950 33.99                             129    -0.4 7  161 353 
 OCA  SZ I         950 37.20       106.9 0.16                           161 353 
 NOR  SZ EP        950 19.63                             118    -0.2 8  234 235 
 NOR  SN ES   1    950 47.08                             118    -0.4 6  234 235 
 RREF HZ EP   2    950 30.51                             110     0.2 3  321 229 
 DBB  SZ EP        950 31.37                             109    -0.3 7  339 274 
 TOL  SZ EP        950 33.00                             109     0.6 7  343 225 
 PRA  HZ EP        950 37.64                             106    -0.1 6  391 210 
 SJA  SZ EP        950 38.58                             106    -0.2 6  399 193 
                                                                                
