 2016 1010 0006  8.9 L   6.822 -73.164142.5  RSN 16 0.5 2.2LRSN                1
 GAP=133        1.09       3.2     4.3  6.2 -0.2844E+01  0.9621E+01  0.2364E+01E
 Epicentro: LOS SANTOS - SANTANDER                                             3
 ACTION:UPD 16-11-09 19:18 OP:rebc STATUS:               ID:20161010000608 L   I
 OLDACT:UP  16-10-10 15:17 OP:ar   STATUS:               ID:20161009235959d    3
 OLDACT:UP  16-10-10 15:12 OP:ar   STATUS:               ID:20161009235959d    3
 OLDACT:DUP 16-10-10 14:39 OP:ar   STATUS:               ID:20161009235959d    3
 OLDACT:UP  16-10-10 14:30 OP:ar   STATUS:               ID:20161009235958     3
 OLDACT:UP  16-10-10 13:53 OP:ar   STATUS:               ID:20161009235958     3
 OLDACT:REG 16-10-10 12:23 OP:ar   STATUS:               ID:20161009235958     3
 2016-10-10-0000-15M.COL___360                                                 6
 STAT SP IPHASW D HRMM SECON CODA AMPLIT PERI AZIMU VELO AIN AR TRES W  DIS CAZ7
 BAR2 EZ EP        0 6 28.13                             169   -0.0810 25.5 185 
 BAR2 EZ ES        0 6 43.47                             169    0.2310 25.5 185 
 BAR2 EZ I         0 6 45.74        38.4 0.22            168           25.5 185 
 PAM  EZ EP        0 6 31.10                             150    0.3410 76.9  42 
 PAM  HN ES        0 6 48.09                             150    0.3010 76.9  42 
 RUS  HZ EP        0 6 32.09                             142   -0.4510  103 175 
 RUS  HN ES        0 6 51.11                             142    0.1410  103 175 
 RUS  HZ I         0 6 51.90        23.3 0.30            144            103 175 
 PTB  HZ EP        0 6 34.65                             132   -0.84 9  146 258 
 PTB  HN ES        0 6 55.75                             132   -0.46 9  146 258 
 PTB  HZ I         0 7  2.94        16.2 0.28            130            146 258 
 OCA  HZ EP        0 6 36.79                             129    0.06 9  158 354 
 OCA  HN ES        0 6 57.94                             129   -0.48 9  158 354 
 OCA  HZ I         0 7  5.18        25.2 0.28            131            158 354 
 SPBC HZ EP   2    0 6 36.92                             128   -0.32 5  164 218 
 SPBC HN ES   2    0 6 59.22                             128   -0.10 5  164 218 
 SPBC HZ I         0 7  0.81        20.0 0.10            128            164 218 
 ZAR  HZ EP        0 6 41.56                             122    0.69 9  201 292 
 ZAR  HN ES        0 7  5.90                             122    0.12 9  201 292 
 ZAR  HZ I         0 7 11.54        12.3 0.32            122            201 292 
 NOR  HZ EP        0 6 44.67                             118    0.23 8  234 234 
 NOR  HN ES        0 7 11.81                             118   -0.34 8  234 234 
 NOR  HZ I         0 7 19.47         8.9 0.16            118            234 234 
 CHI  HZ EP        0 6 46.28                             116   -0.36 8  250 195 
 CHI  HN ES        0 7 15.53                             116   -0.53 8  250 195 
 CHI  HZ I         0 7 18.01         8.4 0.38            118            250 195 
 ROSC BZ EP        0 6 47.86                             116    0.88 8  254 210 
 ROSC BN ES   4    0 7 19.08                             116    2.41 0  254 210 
 ROSC BZ I         0 7 22.83        13.9 0.35            117            254 210 
 HEL  HZ EP   4    0 6 50.37                             114    1.55 0  271 255 
 HEL  HN ES   4    0 7 19.11                             114   -0.83 0  271 255 
 HEL  HZ I         0 7 26.22         6.1 0.30            115            271 255 
 URE  HZ EP   4    0 6 52.05                             113    2.53 0  281 292 
 GUY2CHZ EP   4    0 6 54.77                             112    2.41 0  301 234 
 GUY2CHN ES        0 7 27.39                             112    1.16 7  301 234 
 GUY2CHZ I         0 7 34.16         5.9 0.26                           301 234 
 PTGC HZ EP   4    0 6 51.36                             111   -1.62 0  312 158 
 PTGC HN ES   4    0 7 25.16                             111   -2.18 0  312 158 
 PTGC HZ I         0 7 30.27         6.5 0.28            113            312 158 
 ELA  HZ EP        0 6 55.04                             110   -0.61 7  329 229 
 ELA  HN ES        0 7 32.41                             110    0.32 7  329 229 
 ELA  HZ I         0 7 39.93         5.9 0.42            110            329 229 
 ANIL HT ES   4    0 7 39.22                             108    1.80 0  358 224 
 PRA  HZ EP        0 7  2.83                             106    0.36 6  393 209 
 PRA  HN ES   4    0 7 43.19                             106   -1.04 0  393 209 
 PRA  HZ I         0 7 50.58         5.2 0.22            107            393 209 
 SJC  HZ EP   4    0 7  2.26                             105   -1.75 0  406 327 
 SJC  HN ES   4    0 7 42.22                             105   -4.76 0  406 327 
 SJC  HZ I         0 7 47.54         2.2 0.52            106            406 327 
 CRJC HZ EP   4    0 7  9.58                             103   -1.48 0  465   4 
 CRJC HN ES   4    0 7 56.34                             103   -3.19 0  465   4 
                                                                                
