 2016  710 0201 36.2 L   5.784 -73.838111.3  RSN  5 0.3 1.3LRSN                1
 GAP=271        0.68       3.7     6.4  5.6  0.1041E+01  0.3809E+01 -0.5871E+01E
 Epicentro: ALBANIA - SANTANDER                                                3
 ACTION:UPD 17-03-29 16:48 OP:lp   STATUS:               ID:20160710020136 L   I
 OLDACT:UP  16-07-10 13:54 OP:dani STATUS:               ID:20160710015745     3
 OLDACT:UP  16-07-10 13:54 OP:dani STATUS:               ID:20160710015745     3
 OLDACT:REG 16-07-10 12:07 OP:dani STATUS:               ID:20160710015745     3
 2016-07-10-0157-45M.COL___332                                                 6
 STAT SP IPHASW D HRMM SECON CODA AMPLIT PERI AZIMU VELO AIN AR TRES W  DIS CAZ7
 SPBC HZ EP        2 1 51.84                             164    0.2010 29.7 241 
 SPBC HN ES        2 2  3.80                             164    0.0810 29.7 241 
 SPBC HZ I         2 2  4.77         5.8 0.18            162           29.7 241 
 PTB  HZ EP        2 1 56.36                             132   -0.3510  108 321 
 PTB  HE ES        2 2 12.72                             132   -0.0210  108 321 
 PTB  HZ I         2 2 18.22         3.0 0.10            131            108 321 
 BAR2 EZ ES   4    2 2 17.26                             131    2.82 0  115  39 
 NOR  HZ EP        2 1 57.26                             130   -0.3110  117 258 
 NOR  HN ES        2 2 14.19                             130   -0.0810  117 258 
 NOR  HZ I         2 2 14.77         5.3 0.20            131            117 258 
 HEL  HZ EP        2 2  6.32                             115    0.51 9  192 284 
 HEL  HE ES   4    2 2 30.27                             115    1.35 0  192 284 
 HEL  HZ I         2 2 32.14         2.3 0.37            116            192 284 
 ZAR  HE ES        2 2 33.69                             112    0.11 8  220 329 
                                                                                
