 2015  610 0214  4.1 L   6.768 -73.116141.8  RSN  7 0.5 1.6LRSN                1
 GAP=142        1.14       5.2     5.8  8.2  0.1438E+01  0.8957E+01  0.3649E+00E
 Epicentro: LOS SANTOS - SANTANDER                                             3
 ACTION:UPD 15-09-10 22:11 OP:cam  STATUS:               ID:20150610021404 L   I
 OLDACT:REG 15-06-10 13:01 OP:stll STATUS:               ID:20150610020749     3
 2015-06-10-0207-49M.COL___303                                                 6
 STAT SP IPHASW D HRMM SECON CODA AMPLIT PERI AZIMU VELO AIN AR TRES W  DIS CAZ7
 BAR2 EZ EP     C  214 23.12                             171   -0.0810 20.8 201 
 BAR2 EZ I         214 23.22         8.6 0.40            171           20.8 201 
 BAR2 EZ ES        214 38.32                             171    0.2210 20.8 201 
 BRR  HZ EP     C  214 24.94                             151   -0.1410 75.8 300 
 BRR  HZ I         214 25.10         7.8 0.20            149           75.8 300 
 BRR  HN ES        214 42.09                             151    0.6310 75.8 300 
 PAM  SZ EP        214 26.00                             150    0.0610 78.2  36 
 RUS  HZ EP        214 27.02                             144   -0.1710 96.9 178 
 RUS  HN ES        214 45.11                             144   -0.0910 96.9 178 
 RUS  HZ I         214 46.87         3.3 0.28            145           96.9 178 
 SPBC HN ES        214 53.57                             128   -0.61 9  163 221 
 ZAR  HE ES        215  1.27                             121   -0.93 8  208 293 
 ZAR  HZ I         215  7.16         5.5 0.26            121            208 293 
 GUY2CHZ EP        214 48.35                             112    0.76 7  302 236 
 GUY2CHN ES        215 22.22                             112    0.69 7  302 236 
 GUY2CHZ I         215 29.35         2.0 0.48                           302 236 
                                                                                
