 2017  210 0714 11.1 L   6.808 -73.133127.6  RSN  4 0.4 0.8LRSN                1
 GAP=240        1.02       9.0     7.5  9.7  0.2577E+02  0.1200E+02 -0.2226E+02E
 Epicentro: LOS SANTOS - SANTANDER                                             3
 ACTION:UPD 17-05-24 15:34 OP:jn   STATUS:               ID:20170210071411 L   I
 OLDACT:UP  17-02-10 18:12 OP:edw  STATUS:               ID:20170210070641d    3
 OLDACT:DUP 17-02-10 18:09 OP:edw  STATUS:               ID:20170210070641d    3
 OLDACT:REG 17-02-10 12:18 OP:edw  STATUS:               ID:20170210070640     3
 2017-02-10-0707-00M.COL___358                                                 6
 STAT SP IPHASW D HRMM SECON CODA AMPLIT PERI AZIMU VELO AIN AR TRES W  DIS CAZ7
 BAR2 EZ EP        714 28.46                             169   -0.0710 24.4 193 
 BAR2 EZ ES        714 41.77                             169   -0.3910 24.4 193 
 BAR2 EZ I         714 42.22         1.9 0.30            160           24.4 193 
 BRR  HZ EP        714 30.92                             149    0.6010 72.1 297 
 RUS  HZ EP        714 33.11                             139   -0.0110  101 177 
 RUS  HN ES        714 50.64                             139    0.3010  101 177 
 RUS  HZ I         714 54.82         0.9 0.44            134            101 177 
 PTB  HZ EP        714 36.07                             127   -0.69 9  149 259 
 PTB  HN ES        714 57.00                             127    0.20 9  149 259 
 PTB  HZ I         714 58.80         1.0 0.36            125            149 259 
                                                                                
