 2014 1010 0546 28.8 L   6.796 -73.138151.7  RSN 17 0.5 2.0LRSN                1
 GAP=138        1.19       3.5     4.7  6.4 -0.2121E+01  0.8607E+01  0.3356E+01E
 Epicentro: LOS SANTOS - SANTANDER                                             3
 ACTION:UPD 14-11-29 23:48 OP:nd   STATUS:               ID:20141010054628 L   I
 OLDACT:REG 14-10-10 12:55 OP:fm   STATUS:               ID:20141010053737     3
 2014-10-10-0537-37M.COL___293                                                 6
 STAT SP IPHASW D HRMM SECON CODA AMPLIT PERI AZIMU VELO AIN AR TRES W  DIS CAZ7
 BAR2 SZ EP        546 49.27                             171    0.0910 23.1 192 
 BAR2 SZ ES   1    547  4.33                             171   -0.71 7 23.1 192 
 BAR2 SZ I         547  6.06        27.7 0.23            167           23.1 192 
 BRR  HZ EP        546 51.28                             153    0.5910 72.2 298 
 BRR  HE ES        547  8.37                             153    0.6410 72.2 298 
 BRR  HZ I         547 12.11        10.3 0.50            150           72.2 298 
 PAM  SZ EP        546 51.99                             152    0.3110 77.2  39 
 PAM  SN ES        547  9.15                             152   -0.3410 77.2  39 
 PAM  SZ I         547 11.41        15.0 0.46            157           77.2  39 
 RUS  HZ EP        546 53.13                             145   -0.0210  100 177 
 RUS  HE ES        547 11.93                             145   -0.1710  100 177 
 RUS  HZ I         547 13.29         6.1 0.36            146            100 177 
 PTB  HZ EP        546 56.15                             133   -0.22 9  149 259 
 PTB  HN ES        547 17.13                             133   -0.71 9  149 259 
 PTB  HZ I         547 23.11        12.0 0.16            131            149 259 
 OCA  HE ES   1    547 20.46                             131    0.30 7  161 353 
 OCA  HZ I         547 25.87        10.1 0.56            133            161 353 
 SPBC HZ EP        546 58.26                             130    0.44 9  163 219 
 SPBC HN ES        547 21.14                             130    0.71 9  163 219 
 SPBC HZ I         547 26.16        16.5 0.15            130            163 219 
 ZAR  HN ES        547 26.97                             123   -0.50 9  205 292 
 ZAR  HZ I         547 33.59        10.2 0.32            123            205 292 
 SML  HZ EP        547  4.87                             119   -1.02 8  244 335 
 SML  HN ES        547 35.08                             119    0.29 8  244 335 
 SML  HZ I         547 38.33        15.5 0.10            120            244 335 
 ROSC BZ EP        547  6.69                             118   -0.61 8  253 211 
 ROSC BN ES   4    547 39.47                             118    2.17 0  253 211 
 ROSC BZ I         547 47.01        10.1 0.45            118            253 211 
 GUY2CHZ EP   1    547 12.15                             113   -0.64 5  302 235 
 GUY2CHN ES        547 47.66                             113    0.60 7  302 235 
 GUY2CHZ I         547 56.09         8.6 0.76                           302 235 
 RREF HZ EP   4    547 12.04                             112   -3.25 0  322 230 
 RREF HE ES   4    547 49.51                             112   -2.01 0  322 230 
 RREF HZ I         547 56.89         4.8 0.50            112            322 230 
 CBOC HZ EP        547 16.49                             111    0.40 7  334 252 
 CBOC HN ES        547 52.80                             111   -0.14 7  334 252 
 CBOC HZ I         548  1.55         1.5 0.40            111            334 252 
 TOL  SZ EP   1    547 18.51                             110    1.13 5  344 225 
 TOL  SN ES   4    547 57.59                             110    2.35 0  344 225 
 TOL  SZ I         548  3.19        10.6 0.42            111            344 225 
 MON  HN ES   4    547 54.40                             110   -2.28 0  355 308 
 MON  HZ I         547 57.47         2.0 0.70            110            355 308 
 PRA  HZ EP        547 22.69                             107    0.11 6  392 210 
 PRA  HN ES        548  3.56                             107   -0.94 6  392 210 
 PRA  HZ I         548 10.73         5.0 0.64            108            392 210 
 ORTC HZ EP   4    547 21.41                             107   -1.58 0  396 216 
 ORTC HN ES   4    548  6.48                             107    1.25 0  396 216 
 ORTC HZ I         548 13.95         3.3 0.56            108            396 216 
                                                                                
