 2014  610 0702  8.7 L   6.824 -73.125156.3  RSN  5 0.3 1.3LRSN                1
 GAP=185        0.66       4.2     5.9 13.1 -0.1861E+01 -0.2738E+02  0.1992E+02E
 Epicentro: LOS SANTOS - SANTANDER                                             3
 ACTION:UPD 14-07-01 22:52 OP:nd   STATUS:               ID:20140610070208 L   I
 OLDACT:REG 14-06-10 12:31 OP:mh   STATUS:               ID:20140610065809     3
 2014-06-10-0658-09M.COL___253                                                 6
 STAT SP IPHASW D HRMM SECON CODA AMPLIT PERI AZIMU VELO AIN AR TRES W  DIS CAZ7
 RUS  HZ EP        7 2 33.67                             145    0.0310  103 177 
 RUS  HZ I         7 2 53.99         1.0 0.14            145            103 177 
 PTB  HZ EP        7 2 36.37                             134   -0.38 9  151 258 
 PTB  HN ES   1    7 2 58.24                             134   -0.43 7  151 258 
 PTB  HZ I         7 3  3.72         2.5 0.19            144            151 258 
 OCA  HN ES   1    7 3  0.15                             132   -0.02 7  158 352 
 SPBC HZ EP        7 2 38.57                             131    0.26 9  167 219 
 SPBC HE ES   1    7 3  1.64                             131    0.20 7  167 219 
 SPBC HZ I         7 3  8.20         3.4 0.22            137            167 219 
 ZAR  HZ EP   4    7 2 44.28                             124    2.35 0  205 291 
 ZAR  HN ES   1    7 3  8.40                             124    0.51 6  205 291 
 ZAR  HZ I         7 3 14.28         2.4 0.14            134            205 291 
                                                                                
