 2012  210 0437 22.5 L   6.766 -73.157147.2  RSN  7 0.4 1.4LRSN                1
 GAP=137        0.64       6.1     5.7  7.5  0.3894E+01  0.1618E+02  0.6685E+01E
 ACTION:UP  12-03-07 16:29 OP:epov STATUS:               ID:20120210043722 L   I
 2012-02-10-0430-00M.COL___188                                                 6
 STAT SP IPHASW D HRMM SECON CODA AMPLIT PERI AZIMU VELO AIN AR TRES W  DIS CAZ7
 BAR2 SZ EP   1    437 42.23                             172    0.04 7 19.5 188 
 BAR2 SZ I         437 42.56         5.6 0.10                          19.5 188 
 BAR2 SZ ES   2    437 57.16                             172   -0.42 5 19.5 188 
 GIR2 SZ EP   1    437 42.41                             166    0.01 7 34.8 353 
 GIR2 SZ ES   2    437 57.40                             166   -0.55 5 34.8 353 
 BRR  HZ EP        437 44.16                             152    0.3510 72.0 302 
 BRR  HZ I         437 44.50         7.9 0.10                          72.0 302 
 BRR  HE ES   2    438  1.40                             152    0.94 5 72.0 302 
 PAM  SN ES   2    438  2.36                             150   -0.31 5 81.1  39 
 RUS  HZ EP   2    437 46.16                             145    0.06 5 97.0 175 
 RUS  HN ES   2    438  4.78                             145    0.25 5 97.0 175 
 RUS  HZ I         438  5.55         1.8 0.32                          97.0 175 
 PTB  HZ EP        437 49.07                             133   -0.30 9  146 260 
 PTB  HN ES   2    438 10.17                             133   -0.19 5  146 260 
 ZAR  HN ES   2    438 20.02                             123   -0.41 4  204 293 
                                                                                
