 2012  810 0327 31.1 L   6.760 -73.167144.1  RSN  6 0.4 1.3LRSN                1
 GAP=136        0.75       5.3     4.9  7.9  0.5805E+01  0.1309E+02  0.5768E+01E
 Epicentro: LOS SANTOS - SANTANDER                                             3
 ACTION:UPD 12-09-10 11:55 OP:ep   STATUS:               ID:20120810032731 L   I
 2012-08-10-0320-00M.COL___218                                                 6
 STAT SP IPHASW D HRMM SECON CODA AMPLIT PERI AZIMU VELO AIN AR TRES W  DIS CAZ7
 BAR2 SZ EP   1    327 50.46                             172   -0.03 7 18.6 185 
 BAR2 SZ ES   1    328  5.81                             172    0.24 7 18.6 185 
 BAR2 SZ I         328  6.72         7.3 0.18                          18.6 185 
 BRR  HZ EP   1    327 52.20                             152    0.07 7 71.5 303 
 BRR  HZ I         327 52.96         3.7 0.12                          71.5 303 
 BRR  HN ES   1    328  9.15                             152    0.66 7 71.5 303 
 PAM  SE ES   1    328 10.40                             149   -0.51 7 82.3  39 
 RUS  HZ EP   1    327 54.73                             145    0.30 7 96.3 174 
 RUS  HN ES   1    328 12.41                             145   -0.18 7 96.3 174 
 RUS  HZ I         328 15.05         1.8 0.36                          96.3 174 
 PTB  HZ EP   1    327 57.81                             132    0.11 7  145 260 
 PTB  HN ES   1    328 17.71                             132   -0.69 7  145 260 
 ZAR  HE ES   1    328 28.57                             122   -0.06 6  204 294 
                                                                                
