 2016 1210 0124 46.6 L   6.846 -73.134122.1  RSN  5 0.3 1.0LRSN                1
 GAP=243        0.74       5.6     5.7  6.0  0.2169E+02  0.8217E+01  0.2719E+01E
 Epicentro: LOS SANTOS - SANTANDER                                             3
 ACTION:UPD 17-01-11 20:13 OP:rebc STATUS:               ID:20161210012446 L   I
 OLDACT:REG 16-12-10 12:43 OP:lv   STATUS:               ID:20161210011743     3
 2016-12-10-0118-00M.COL___367                                                 6
 STAT SP IPHASW D HRMM SECON CODA AMPLIT PERI AZIMU VELO AIN AR TRES W  DIS CAZ7
 BAR2 EZ ES        125 16.43                             166   -0.3310 28.5 191 
 BRR  HZ EP        125  5.48                             148    0.2910 70.1 294 
 BRR  HE ES        125 19.72                             148    0.0410 70.1 294 
 RUS  HZ EP        125  8.27                             137   -0.2710  106 177 
 RUS  HE ES        125 26.10                             137    0.4710  106 177 
 RUS  HZ I         125 27.62         1.8 0.28            135            106 177 
 PTB  HZ EP        125 11.75                             125   -0.25 9  150 257 
 PTB  HN ES        125 31.65                             125   -0.14 9  150 257 
 PTB  HZ I         125 33.17         1.3 0.14            125            150 257 
 ZAR  HN ES        125 41.91                             117    0.20 9  203 291 
                                                                                
