 2013  210 0348 38.8 L   6.784 -73.165143.0  RSN  5 0.3 1.5LRSN                1
 GAP=135        0.62       4.3     4.1  5.9 -0.2840E+01  0.1907E+01 -0.6633E+00E
 Epicentro: LOS SANTOS - SANTANDER                                             3
 ACTION:UPD 13-03-12 09:31 OP:ep   STATUS:               ID:20130210034838 L   I
 2013-02-10-0340-00M.COL___241                                                 6
 STAT SP IPHASW D HRMM SECON CODA AMPLIT PERI AZIMU VELO AIN AR TRES W  DIS CAZ7
 BAR2 SZ ES   1    349 12.77                             171   -0.33 7 21.3 185 
 BAR2 SZ I         349 14.21         5.7 0.26            171           21.3 185 
 BRR  HZ EP   1    348 59.92                             152    0.30 7 70.2 301 
 BRR  HN ES   1    349 16.29                             152    0.45 7 70.2 301 
 BRR  HN I         349 17.16        12.7 0.32            154           70.2 301 
 PAM  SZ EP        349  0.98                             149    0.0710 80.1  40 
 PAM  SN ES   1    349 17.85                             149   -0.28 7 80.1  40 
 PAM  SN I         349 18.79         8.7 0.46            151           80.1  40 
 RUS  HZ EP   1    349  2.21                             144    0.02 7 99.0 175 
 RUS  HN ES   1    349 20.68                             144    0.27 7 99.0 175 
 RUS  HN I         349 21.91         3.2 0.40            145           99.0 175 
 PTB  HZ EP   1    349  4.94                             132   -0.41 7  145 259 
 PTB  HN ES   1    349 25.80                             132   -0.24 7  145 259 
 PTB  HN I         349 26.90         4.4 0.28            133            145 259 
                                                                                
