 2015  910 0301 37.6 L   6.593 -73.476115.6  RSN 14 0.4 2.5LRSN                1
 GAP= 85        1.01       2.5     3.3  5.4 -0.1686E+01  0.6991E+01 -0.2094E+01E
 Epicentro: EL CARMEN - SANTANDER                                              3
 ACTION:UPD 15-10-28 16:25 OP:cam  STATUS:               ID:20150910030137 L   I
 OLDACT:REG 15-09-10 12:10 OP:drio STATUS:               ID:20150910025749     3
 2015-09-10-0257-49M.COL___350                                                 6
 STAT SP IPHASW D HRMM SECON CODA AMPLIT PERI AZIMU VELO AIN AR TRES W  DIS CAZ7
 BAR2 EZ EP        3 1 53.96                             163    0.0810 32.5  90 
 BAR2 EZ ES        3 2  6.83                             163    0.2410 32.5  90 
 BAR2 EZ I         3 2  8.59       103.7 0.26            170           32.5  90 
 BRR  HZ EP        3 1 55.33                             149    0.3210 62.6 335 
 BRR  HN ES        3 2  8.88                             149    0.2810 62.6 335 
 BRR  HZ I         3 2 18.16        45.5 0.40            148           62.6 335 
 RUS  HZ EP        3 1 57.25                             140   -0.3010 88.8 151 
 RUS  HE ES        3 2 13.03                             140   -0.1010 88.8 151 
 RUS  HZ I         3 2 14.34        47.5 0.24            148           88.8 151 
 PTB  HZ EP        3 1 57.79                             134   -0.7610  109 267 
 PTB  HE ES        3 2 14.00                             134   -0.9010  109 267 
 PTB  HZ I         3 2 18.16        66.9 0.16            135            109 267 
 SPBC HZ EP        3 1 59.94                             130   -0.0410  123 212 
 SPBC HN ES        3 2 17.55                             130    0.1010  123 212 
 SPBC HZ I         3 2 23.70        71.5 0.20            134            123 212 
 ZAR  HZ EP        3 2  6.36                             118    0.48 9  182 303 
 ZAR  HE ES        3 2 28.21                             118    0.26 9  182 303 
 ZAR  HZ I         3 2 34.46        37.1 0.26            120            182 303 
 OCA  HZ EP        3 2  5.87                             118   -0.26 9  183   5 
 OCA  HN ES        3 2 28.30                             118   -0.10 9  183   5 
 OCA  HZ I         3 2 36.68        59.1 0.34            121            183   5 
 NOR  HZ EP   4    3 2  4.78                             117   -2.18 0  192 234 
 NOR  HE ES        3 2 30.33                             117    0.45 9  192 234 
 NOR  HZ I         3 2 32.73        26.0 0.46            120            192 234 
 HEL  HZ EP        3 2 12.62                             112    0.83 8  231 259 
 HEL  HE ES        3 2 38.25                             112   -0.22 8  231 259 
 HEL  HZ I         3 2 43.91        16.2 0.36            114            231 259 
 SML  HZ EP        3 2 13.58                             109   -0.19 8  253 345 
 SML  HE ES        3 2 42.21                             109    0.22 8  253 345 
 SML  HZ I         3 2 47.61        44.7 0.26            112            253 345 
 GUY2CHZ EP   4    3 2 15.78                             109    0.80 0  258 234 
 GUY2CHE ES        3 2 44.63                             109    0.48 8  258 234 
 GUY2CHZ I         3 2 54.31        17.7 0.76                           258 234 
 URE  HZ EP        3 2 14.15                             109   -0.56 8  261 300 
 URE  HN ES   4    3 2 42.86                             109   -0.80 0  261 300 
 URE  HZ I         3 2 44.78        27.6 0.16            111            261 300 
 TOL  SZ EP        3 2 20.19                             106    0.32 7  302 223 
 TOL  SN ES        3 2 52.58                             106   -0.27 7  302 223 
 TOL  SZ I         3 3  4.02        13.3 0.72            109            302 223 
 SJC  HZ EP   4    3 2 30.78                             100   -1.73 0  411 333 
 SJC  HE ES   4    3 3 12.88                             100   -2.46 0  411 333 
 SJC  HZ I         3 3 27.59         3.6 0.40            102            411 333 
                                                                                
