 2011  310 0223 21.5 L   6.742 -73.136154.0  RSN  7 0.3 2.0LRSN                1
 GAP=160        0.65       3.6     6.0  5.9 -0.7557E+01  0.1378E+02 -0.2385E+01E
 Epicentro: JORDAN - SANTANDER                                                 3
 ACTION:UP  11-06-16 14:32 OP:jfem STATUS:               ID:20110310022321 L   I
 2011-03-10-0220-43S.COL___135                                                 6
 STAT SP IPHASW D HRMM SECON CODA AMPLIT PERI AZIMU VELO SNR AR TRES W  DIS CAZ7
 BAR2 SZ EP   1    223 41.67                             173    -0.3 9   17 198 
 BAR2 SZ ES   1    223 58.12                             173     0.1 9   17 198 
 BAR2 SZ I         223 59.54        25.5 0.23                            17 198 
 RUS  HZ EP   1    223 45.49                             147    -0.1 9   94 176 
 RUS  HE ES   1    224  4.55                             147     0.1 9   94 176 
 RUS  HZ I         224  5.44        10.6 0.28                            94 176 
 GRA  SZ EP   1    223 48.49                             137     0.5 9  132  16 
 GRA  SZ ES   2    224  8.78                             137     0.2 6  132  16 
 GRA  SZ I         224 10.28        14.0 0.26                           132  16 
 OCA  SZ EP   1    223 50.57                             130    -0.5 9  167 353 
 OCA  SZ I         224 16.72        14.8 0.25                           167 353 
 CHI  HZ EP        223 58.79                             120    -0.210  243 196 
 CHI  HN ES   2    224 28.16                             120    -0.1 5  243 196 
 CHI  HZ I         224 37.11         7.7 0.34                           243 196 
 HEL  HZ EP   1    224  2.23                             116     0.2 7  272 257 
 HEL  HN ES   1    224 33.70                             116     0.0 7  272 257 
 HEL  HZ I         224 39.81         7.4 0.30                           272 257 
 PRA  HZ EP   1    224 15.24                             108     0.5 6  387 210 
 PRA  HE ES   1    224 56.60                             108     0.4 6  387 210 
                                                                                
