 2014  610 0945 34.8 L   6.600 -73.487109.3  RSN  4 0.5 1.4LRSN                1
 GAP=165        1.07       7.6     6.9 16.3  0.2864E+02 -0.4577E+02 -0.8997E+02E
 Epicentro: EL CARMEN DE CHUCURI - SANTANDER                                   3
 ACTION:UPD 14-07-01 22:52 OP:nd   STATUS:               ID:20140610094534 L   I
 OLDACT:REG 14-06-10 12:50 OP:mh   STATUS:               ID:20140610093815     3
 2014-06-10-0938-15M.COL___247                                                 6
 STAT SP IPHASW D HRMM SECON CODA AMPLIT PERI AZIMU VELO AIN AR TRES W  DIS CAZ7
 RUS  HZ EP   1    945 53.99                             138   -0.31 8 90.1 150 
 RUS  HN ES   1    946  9.82                             138    0.32 8 90.1 150 
 RUS  HZ I         946 11.07         4.7 0.35            154           90.1 150 
 PTB  HZ EP        945 54.50                             132   -0.6510  107 267 
 PTB  HN ES        946 11.04                             132    0.0310  107 267 
 PTB  HZ I         946 17.83         2.5 0.21            141            107 267 
 ZAR  HZ EP        946  3.58                             116    0.98 9  181 303 
 ZAR  HN ES        946 24.23                             116   -0.04 9  181 303 
 ZAR  HZ I         946 32.17         2.2 0.24            124            181 303 
 SML  HZ EP        946 10.54                             108   -0.09 8  252 345 
 SML  HN ES        946 38.42                             108   -0.14 8  252 345 
 SML  HZ I         946 45.25         7.4 0.06            115            252 345 
                                                                                
