 2017  510 0154 10.6 L   6.777 -73.141147.7  RSN  7 0.2 1.4LRSN                1
 GAP=138        0.62       2.6     3.2  5.1 -0.2525E+00  0.3814E+01  0.2305E+01E
 Epicentro: LOS SANTOS - SANTANDER                                             3
 ACTION:UPD 17-06-16 13:34 OP:jn   STATUS:               ID:20170510015410 L   I
 OLDACT:UP  17-05-10 16:02 OP:edw  STATUS:               ID:20170510014732d    3
 OLDACT:UP  17-05-10 16:01 OP:edw  STATUS:               ID:20170510014732d    3
 OLDACT:UP  17-05-10 16:01 OP:edw  STATUS:               ID:20170510014732d    3
 OLDACT:DUP 17-05-10 15:51 OP:edw  STATUS:               ID:20170510014732d    3
 OLDACT:UP  17-05-10 15:49 OP:edw  STATUS:               ID:20170510014731     3
 OLDACT:UP  17-05-10 15:49 OP:edw  STATUS:               ID:20170510014731     3
 OLDACT:REG 17-05-10 12:59 OP:osc  STATUS:               ID:20170510014731     3
 2017-05-10-0148-00M.COL___353                                                 6
 STAT SP IPHASW D HRMM SECON CODA AMPLIT PERI AZIMU VELO AIN AR TRES W  DIS CAZ7
 BRR  HZ EP        154 31.86                             152   -0.1710 72.9 300 
 BRR  HN ES        154 49.08                             152    0.3110 72.9 300 
 BRR  HZ I         154 50.46         6.3 0.74            152           72.9 300 
 PAM  EZ EP     C  154 33.25                             151    0.1510 79.0  38 
 PAM  EN ES        154 50.35                             151   -0.3110 79.0  38 
 PAM  EZ I         154 52.38         3.7 0.60            155           79.0  38 
 RUS  HZ EP        154 34.71                             145    0.3610 98.1 176 
 RUS  HN ES        154 52.91                             145    0.0310 98.1 176 
 RUS  HZ I         154 54.00         3.3 0.66            147           98.1 176 
 PTB  HZ EP        154 37.76                             132    0.05 9  148 260 
 PTB  HN ES   4    154 57.35                             132   -1.52 0  148 260 
 PTB  HZ I         155  4.01         2.4 0.64            133            148 260 
 SPBC HZ EP        154 38.79                             130   -0.29 9  162 220 
 SPBC HN ES        155  1.02                             130   -0.29 9  162 220 
 SPBC HZ I         155  5.65         6.0 0.10            131            162 220 
 ZAR  HN ES        155  8.85                             123    0.03 8  205 293 
 CHI  HN ES   2    155 17.76                             118    0.32 4  246 195 
                                                                                
