 2017  210 0206 10.1 L   6.781 -73.184134.6  RSN  4 0.3 1.0LRSN                1
 GAP=232        0.73       5.7     5.7  6.0  0.1825E+02  0.7323E+01  0.4085E+01E
 Epicentro: LOS SANTOS - SANTANDER                                             3
 ACTION:UPD 17-05-24 15:34 OP:jn   STATUS:               ID:20170210020610 L   I
 OLDACT:UP  17-02-10 14:11 OP:edw  STATUS:               ID:20170210015749d    3
 OLDACT:DUP 17-02-10 13:20 OP:cara STATUS:               ID:20170210015749d    3
 2017-02-10-0158-00M.COL___364                                                 6
 STAT SP IPHASW D HRMM SECON CODA AMPLIT PERI AZIMU VELO AIN AR TRES W  DIS CAZ7
 BAR2 EZ ES        2 6 42.13                             171   -0.3910 20.9 180 
 BRR  HZ EP        2 6 30.09                             151    0.2310 68.6 302 
 BRR  HE ES        2 6 45.48                             151    0.1810 68.6 302 
 RUS  HZ EP        2 6 32.34                             142   -0.2610 98.9 174 
 RUS  HN ES        2 6 50.59                             142    0.4110 98.9 174 
 RUS  HZ I         2 6 51.39         1.7 0.36            140           98.9 174 
 PTB  HZ EP        2 6 35.66                             130   -0.06 9  143 259 
 PTB  HN ES        2 6 55.60                             130   -0.13 9  143 259 
 PTB  HZ I         2 6 58.54         1.5 0.15            129            143 259 
                                                                                
