 2017  110 0137 37.1 L   6.829 -73.322122.0  RSN  8 0.3 1.6LRSN                1
 GAP=105        0.93       3.7     3.4  6.3 -0.1196E+01  0.4475E+01  0.3357E+01E
 Epicentro: ZAPATOCA - SANTANDER                                               3
 ACTION:UPD 17-05-22 15:57 OP:jn   STATUS:               ID:20170110013737 L   I
 OLDACT:UP  17-01-10 13:31 OP:and  STATUS:               ID:20170110012748     3
 OLDACT:UP  17-01-10 13:30 OP:and  STATUS:               ID:20170110012748     3
 OLDACT:UP  17-01-10 13:29 OP:and  STATUS:               ID:20170110012748     3
 OLDACT:UP  17-01-10 13:28 OP:and  STATUS:               ID:20170110012748     3
 OLDACT:UP  17-01-10 13:27 OP:and  STATUS:               ID:20170110012748     3
 OLDACT:REG 17-01-10 12:25 OP:and  STATUS:               ID:20170110012748     3
 2017-01-10-0128-00M.COL___354                                                 6
 STAT SP IPHASW D HRMM SECON CODA AMPLIT PERI AZIMU VELO AIN AR TRES W  DIS CAZ7
 BAR2 EZ EP        137 54.04                             165   -0.0410 30.4 149 
 BAR2 EZ ES        138  7.03                             165   -0.2910 30.4 149 
 BAR2 EZ I         138  8.43        38.4 0.32            166           30.4 149 
 BRR  HZ EP        137 54.40                             154   -0.2710 52.9 306 
 BRR  HN ES        138  8.63                             154    0.2710 52.9 306 
 PAM  EZ EP        137 57.50                             141   -0.1910 89.0  51 
 PAM  EN ES        138 13.73                             141   -0.0110 89.0  51 
 PAM  EZ I         138 15.87         7.7 0.26            143           89.0  51 
 RUS  HZ EP        137 59.53                             135    0.4010  107 166 
 RUS  HN ES        138 16.21                             135   -0.0910  107 166 
 RUS  HZ I         138 17.58         3.0 0.26            136            107 166 
 PTB  HZ EP   9    137 59.41                             129   -1.07 0  129 256 
 PTB  HN ES        138 16.72                             130   -0.9210  129 256 
 PTB  HZ I         138 21.30         7.7 0.34            128            129 256 
 ZAR  HZ EP   4    138  6.93                             118    0.88 0  185 293 
 ZAR  HN ES        138 28.75                             118    0.13 9  185 293 
 ZAR  HZ I         138 31.70         3.9 0.10            118            185 293 
 NOR  HN ES        138 36.18                             114    0.42 8  221 231 
 NOR  HZ I         138 42.20         2.6 0.16            114            221 231 
 GUY2CHZ EP   4    138 19.11                             108    0.98 0  287 232 
 GUY2CHN ES        138 49.83                             108   -0.30 7  287 232 
 GUY2CHZ I         138 57.68         1.8 0.38                           287 232 
 CBOC HZ EP   4    138 22.21                             106    1.12 0  316 250 
 SJC  HZ EP   4    138 29.02                             101   -1.40 0  396 329 
 SJC  HN ES   4    139  8.24                             101   -3.77 0  396 329 
                                                                                
