 2012  410 0001 12.6 L   6.765 -73.122139.0  RSN  4 0.1 1.7LRSN                1
 GAP=141        0.33       3.2     5.4  5.2  0.9061E+01 -0.1452E+02 -0.6360E+01E
 Epicentro: LOS SANTOS - SANTANDER                                             3
 ACTION:UPD 12-07-05 11:52 OP:tino STATUS:               ID:20120410000112 L   I
 2012-04-10-0000-00M.COL___199                                                 6
 STAT SP IPHASW D HRMM SECON CODA AMPLIT PERI AZIMU VELO AIN AR TRES W  DIS CAZ7
 BAR2 SZ ES   2    0 1 46.08                             171     0.1 5   20 199 
 BAR2 SZ I         0 1 47.86        10.0 0.51                            20 199 
 BRR  HZ EP   1    0 1 33.40                             150     0.1 7   75 300 
 BRR  HZ I         0 1 48.00        10.0 0.43                            75 300 
 BRR  HN ES   1    0 1 49.30                             150    -0.1 7   75 300 
 PAM  SZ EP   1    0 1 34.16                             149     0.0 7   79  36 
 RUS  HZ EP   1    0 1 35.33                             143    -0.1 7   97 177 
 RUS  HE ES   1    0 1 53.19                             143     0.0 7   97 177 
                                                                                
