 2011  910 0058 34.4 L   6.904 -72.839125.3  RSN  4 0.4 1.6LRSN                1
 GAP=257        0.52       8.8    16.1 11.8  0.9795E+02 -0.1114E+03 -0.4719E+02E
 Epicentro: GUACA - SANTANDER                                                  3
 ACTION:UPD 12-07-13 15:56 OP:ep   STATUS:               ID:20110910005834 L   I
 2011-09-10-0040-00M.COL___171                                                 6
 STAT SP IPHASW D HRMM SECON CODA AMPLIT PERI AZIMU VELO AIN AR TRES W  DIS CAZ7
 GIR2 SZ EP   2    058 52.38                             160    0.26 5 43.7 296 
 GIR2 SZ ES   3    059  5.32                             160   -0.61 2 43.7 296 
 BAR2 SZ EP   1    058 52.98                             158    0.37 7 51.3 228 
 BAR2 SZ ES   2    059  6.54                             158   -0.26 5 51.3 228 
 BAR2 SZ I         059  8.85         9.5 0.36                          51.3 228 
 BRR  HZ EP   2    058 54.88                             140   -0.53 5 99.0 283 
 BRR  HN ES   2    059 11.96                             140    0.18 5 99.0 283 
 BRR  HZ I         059 21.15        23.7 0.48                          99.0 283 
 RUS  HZ EP   2    058 57.01                             136   -0.41 5  115 194 
 RUS  HN ES   2    059 15.43                             136    0.07 5  115 194 
 RUS  HZ I         059 16.32         3.2 0.38                           115 194 
                                                                                
