 2017  910 0029  0.2 L   6.758 -73.051142.6  RSN  8 0.5 1.8LRSN                1
 GAP=151        1.12       4.2     5.3  6.8 -0.3939E+00  0.1296E+02  0.6553E+01E
 Epicentro: LOS SANTOS - SANTANDER                                             3
 ACTION:UPD 17-10-05 19:10 OP:rebc STATUS:               ID:20170910002900 L   I
 OLDACT:DUP 17-09-10 13:53 OP:dhb  STATUS:               ID:20170910002750d    3
 2017-09-10-0028-00M.COL___413                                                 6
 STAT SP IPHASW D HRMM SECON CODA AMPLIT PERI AZIMU VELO AIN AR TRES W  DIS CAZ7
 BAR2 EZ IP     C  029 19.41                             170   -0.0210 23.4 218 
 BAR2 EZ ES        029 33.73                             170   -0.7110 23.4 218 
 BAR2 EZ I         029 35.50        10.8 0.24            169           23.4 218 
 PAM  EZ IP     D  029 22.25                             151    0.3310 75.1  31 
 PAM  EE ES        029 38.97                             151    0.1010 75.1  31 
 PAM  EZ I         029 41.41         5.6 0.42            153           75.1  31 
 BRR  HZ IP     C  029 21.09                             148   -0.5910 82.6 298 
 BRR  HN ES        029 38.20                             148   -0.2510 82.6 298 
 BRR  HZ I         029 40.26         6.3 0.32            147           82.6 298 
 RUS  HZ EP        029 23.48                             144    0.2010 95.8 182 
 RUS  HN ES        029 42.14                             144    0.8510 95.8 182 
 RUS  HZ I         029 43.02         3.2 0.26            146           95.8 182 
 ZAR  HZ EP        029 34.09                             120    0.47 8  216 292 
 ZAR  HE ES        030  0.29                             120    0.59 8  216 292 
 ZAR  HZ I         030  4.60       364.0 0.03            121            216 292 
 NOR  HZ EP        029 35.77                             117   -0.61 8  241 237 
 NOR  HN ES        030  4.59                             117   -0.03 8  241 237 
 NOR  HZ I         030  8.79         2.0 0.35            118            241 237 
 CHI  HZ EP        029 37.39                             116   -0.16 8  247 198 
 CHI  HN ES        030  6.39                             116   -0.30 8  247 198 
 CHI  HZ I         030  8.22         2.1 0.07            118            247 198 
 GUY2CHZ EP        029 44.03                             111   -0.30 7  307 237 
 GUY2CHN ES   1    030 19.55                             111    0.78 5  307 237 
 GUY2CHZ I         030 26.00         1.7 0.62                           307 237 
                                                                                
