 2011 1210 0855 53.3 L   6.790 -73.181136.3  RSN 15 0.4 2.4LRSN                1
 GAP=111        0.63       2.6     3.4  4.7 -0.1689E+01  0.3846E+01  0.2421E+01E
 Epicentro: LOS SANTOS - SANTANDER                                             3
 ACTION:UPD 12-07-13 16:15 OP:ep   STATUS:               ID:20111210085553 L   I
 2011-12-10-0850-00M.COL___186                                                 6
 STAT SP IPHASW D HRMM SECON CODA AMPLIT PERI AZIMU VELO AIN AR TRES W  DIS CAZ7
 BAR2 SZ EP        856 12.00                             170    0.2310 21.9 180 
 BAR2 SZ ES   1    856 26.16                             170   -0.01 7 21.9 180 
 BAR2 SZ I         856 30.36        61.8 0.29                          21.9 180 
 GIR2 SZ EP   1    856 12.09                             166    0.21 7 32.0 357 
 BRR  HZ EP        856 13.92                             152    0.6410 68.4 301 
 BRR  HN ES   2    856 29.61                             152    0.76 5 68.4 301 
 BRR  HZ I         856 32.02        76.5 0.13                          68.4 301 
 PAM  SZ EP   1    856 14.82                             148    0.08 7 80.7  41 
 PAM  SZ I         856 15.14        73.1 0.12                          80.7  41 
 PAM  SN ES   2    856 31.11                             148   -0.34 5 80.7  41 
 RUS  HZ EP   1    856 15.91                             142   -0.17 7 99.8 174 
 RUS  HN ES   2    856 33.47                             142   -0.37 5 99.8 174 
 RUS  HZ I         856 36.26        38.3 0.29                          99.8 174 
 BRI  SZ EP   1    856 16.51                             139    0.00 7  111  22 
 PTB  HZ EP   1    856 18.67                             131   -0.48 7  144 259 
 PTB  HN ES   2    856 38.67                             131   -0.63 5  144 259 
 OCA  SZ EP   1    856 20.74                             127   -0.23 7  161 355 
 OCA  SZ ES   1    856 41.96                             127   -0.58 7  161 355 
 OCA  SZ I         856 44.33        30.9 0.32                           161 355 
 YOP  SZ EP   1    856 22.36                             124   -0.41 7  180 152 
 YOP  SN ES   2    856 45.52                             124   -0.22 4  180 152 
 YOP  SZ I         856 50.38        13.2 0.22                           180 152 
 NOR  SZ EP   1    856 28.08                             117   -0.01 6  231 234 
 NOR  SN ES   1    856 54.79                             117   -0.43 6  231 234 
 CHI  HZ EP   1    856 30.46                             115    0.19 6  247 194 
 CHI  HN ES   2    856 59.44                             115    0.34 4  247 194 
 CHI  HZ I         857  2.78         8.7 0.41                           247 194 
 HEL  HZ EP   1    856 32.35                             113   -0.26 6  268 256 
 HEL  HN ES   2    857  3.02                             113   -0.23 4  268 256 
 HEL  HZ I         857 11.52        16.0 0.33                           268 256 
 RREF HZ EP   1    856 38.85                             109    0.21 5  318 229 
 RREF HN ES   2    857 14.45                             109    0.46 3  318 229 
 RREF HZ I         857 20.75        12.0 0.35                           318 229 
 TOL  SZ EP   1    856 40.81                             108    0.01 5  340 224 
 PRA  HZ EP   1    856 46.56                             105    0.38 4  389 209 
 PRA  HN ES   2    857 27.54                             105    0.12 3  389 209 
 PRA  HZ I         857 34.16        24.3 0.26                           389 209 
                                                                                
