 2016  110 0316 48.0 L   6.767 -73.211157.2  RSN  4 0.2 1.3LRSN                1
 GAP=130        0.61       4.1     4.0  6.0  0.3875E+01 -0.6032E+01 -0.4362E+01E
 Epicentro: ZAPATOCA - SANTANDER                                               3
 ACTION:UPD 16-03-09 23:24 OP:cam  STATUS:               ID:20160110031648 L   I
 OLDACT:DUP 16-01-10 14:15 OP:drio STATUS:               ID:20160110030743d    3
 2016-01-10-0307-42M.COL___258                                                 6
 STAT SP IPHASW D HRMM SECON CODA AMPLIT PERI AZIMU VELO AIN AR TRES W  DIS CAZ7
 BRR  HZ EP        317 10.60                             156    0.4510 67.0 304 
 BRR  HN ES        317 27.42                             156   -0.0210 67.0 304 
 BRR  HZ I         317 27.99         4.3 0.14            151           67.0 304 
 PAM  EZ EP        317 11.59                             150   -0.2510 84.8  42 
 PAM  EZ I         317 30.32         1.7 0.20            136           84.8  42 
 RUS  HZ EP        317 12.58                             147   -0.0910 97.7 172 
 RUS  HE ES        317 32.02                             147    0.0910 97.7 172 
 RUS  HZ I         317 32.48         3.5 0.34            146           97.7 172 
 PTB  HZ EP        317 15.20                             136   -0.03 9  140 260 
 PTB  HE ES        317 36.30                             136   -0.19 9  140 260 
 PTB  HZ I         317 38.03         2.2 0.26            137            140 260 
                                                                                
