 2012  310 0310 11.1 L   5.987 -74.023 59.2  RSN  5 0.3 1.1LRSN                1
 GAP=148        0.72       4.1     2.5 13.4  0.2628E+01  0.1146E+01  0.4171E+01E
 ACTION:UP  12-03-31 23:18 OP:EP   STATUS:               ID:20120310031011 L   I
 2012-03-10-0307-40M.COL___181                                                 6
 STAT SP IPHASW D HRMM SECON CODA AMPLIT PERI AZIMU VELO SNR AR TRES W  DIS CAZ7
 PTB  HZ EP        310 25.04                             119     0.210   78 322 
 PTB  HN ES   1    310 35.56                             119     0.1 7   78 322 
 PTB  HZ I         310 37.27         3.1 0.17                            78 322 
 NOR  SN ES   1    310 40.93                             111     0.0 7  105 243 
 RUS  HZ EP        310 28.68                             111     0.310  105  96 
 RUS  HE ES   1    310 41.35                             111    -0.5 7  105  96 
 HEL  HZ EP   1    310 35.89                             101     0.1 7  168 278 
 HEL  HN ES   1    310 54.58                             101    -0.5 7  168 278 
 HEL  HZ I         310 56.03         2.8 0.34                           168 278 
 ZAR  HE ES   1    310 58.72                              99    -0.3 7  190 331 
                                                                                
