 2013 1010 0348 24.0 L   6.770 -73.123155.3  RSN  8 0.4 2.1LRSN                1
 GAP=185        0.90       4.4     6.5  6.8  0.8810E+01 -0.2330E+01 -0.8710E+01E
 Epicentro: LOS SANTOS - SANTANDER                                             3
 ACTION:UPD 13-11-25 09:20 OP:ep   STATUS:               ID:20131010034824 L   I
 OLDACT:REG 13-10-10 12:25 OP:mh   STATUS:               ID:20131010034750     3
 2013-10-10-0347-50M.COL___233                                                 6
 STAT SP IPHASW D HRMM SECON CODA AMPLIT PERI AZIMU VELO AIN AR TRES W  DIS CAZ7
 BAR2 SZ EP        348 44.81                             172    0.0810 20.7 198 
 BAR2 SZ ES   1    349  0.68                             172   -0.23 7 20.7 198 
 BAR2 SZ  AMP      349  2.75        48.6 0.10                          20.7 198 
 BRR  HZ EP   1    348 46.70                             153    0.31 7 75.0 300 
 BRR  HN ES        349  4.38                             153    0.5210 75.0 300 
 BRR  HZ I         349  9.06        13.0 0.11            149           75.0 300 
 RUS  HZ EP        348 48.74                             147    0.2810 97.1 177 
 RUS  HN ES        349  7.02                             147   -0.5310 97.1 177 
 RUS  HZ I         349  9.85         4.5 0.06            146           97.1 177 
 PTB  HZ EP   1    348 51.65                             134   -0.27 7  150 260 
 PTB  HN ES   1    349 13.07                             134   -0.63 7  150 260 
 PTB  HZ I         349 17.26         9.5 0.21            131            150 260 
 SPBC HZ EP   1    348 53.77                             131    0.61 7  162 220 
 SPBC HN ES   1    349 16.34                             131    0.44 7  162 220 
 SPBC HZ I         349 23.10        20.4 0.22            130            162 220 
 OCA  HZ EP   1    348 53.64                             131    0.24 7  164 352 
 OCA  HZ I         349 20.16        11.3 0.58            124            164 352 
 ZAR  HZ EP   1    348 56.66                             124   -0.78 6  208 293 
 ZAR  HN ES   2    349 23.76                             124    0.23 4  208 293 
 SML  HZ EP   1    349  1.07                             119   -0.54 6  248 335 
 SML  HN ES   1    349 30.68                             119   -0.26 6  248 335 
 SML  HZ I         349 34.04        20.4 0.10            114            248 335 
 GUY2CHZ EP   4    349  9.50                             114    1.42 0  301 236 
 GUY2CHN ES   4    349 44.89                             114    2.43 0  301 236 
                                                                                
