 2016  610 0907 32.8 L   6.756 -73.144143.0  RSN  6 0.4 1.6LRSN                1
 GAP=139        0.99       4.1     5.1  7.3 -0.1902E+01  0.4817E+01 -0.3129E+00E
 Epicentro: LOS SANTOS - SANTANDER                                             3
 ACTION:UPD 16-07-21 22:17 OP:rebc STATUS:               ID:20160610090732 L   I
 OLDACT:UP  16-06-10 18:45 OP:dani STATUS:               ID:20160610085743     3
 OLDACT:UP  16-06-10 18:44 OP:dani STATUS:               ID:20160610085743     3
 OLDACT:REG 16-06-10 13:44 OP:dani STATUS:               ID:20160610085743     3
 2016-06-10-0857-43M.COL___337                                                 6
 STAT SP IPHASW D HRMM SECON CODA AMPLIT PERI AZIMU VELO AIN AR TRES W  DIS CAZ7
 BAR2 EZ EP        9 7 52.00                             172   -0.0210 18.6 193 
 BAR2 EZ ES        9 8  7.00                             172   -0.0110 18.6 193 
 BAR2 EZ I         9 8  8.34        10.0 0.14                          18.6 193 
 BRR  HZ EP        9 7 53.93                             151    0.1110 73.9 302 
 BRR  HN ES        9 8 10.90                             151    0.7010 73.9 302 
 BRR  HZ I         9 8 14.89         8.0 0.46                          73.9 302 
 PAM  EZ EP        9 7 54.93                             149   -0.0310 81.1  37 
 PAM  EE ES        9 8 11.61                             149   -0.6310 81.1  37 
 PAM  EZ I         9 8 14.18         9.4 0.70                          81.1  37 
 RUS  HZ EP        9 7 56.22                             145    0.2810 95.7 176 
 RUS  HE ES        9 8 14.11                             145    0.1310 95.7 176 
 RUS  HZ I         9 8 15.34         2.5 0.30                          95.7 176 
 PTB  HZ EP        9 7 59.40                             131   -0.10 9  147 261 
 PTB  HN ES        9 8 19.59                             131   -0.72 9  147 261 
 PTB  HZ I         9 8 24.98         4.3 0.18                           147 261 
 OCA  HZ EP   4    9 8  0.07                             128   -1.30 0  165 353 
 OCA  HE ES        9 8 23.87                             128    0.22 9  165 353 
 OCA  HZ I         9 8 26.81         7.4 0.28                           165 353 
                                                                                
