 2015  610 0546 17.9 L   6.777 -73.117140.3  RSN  6 0.3 1.6LRSN                1
 GAP=186        0.81       3.6     5.8  5.7  0.9081E+01 -0.1807E+00 -0.6823E+01E
 Epicentro: LOS SANTOS - SANTANDER                                             3
 ACTION:UPD 15-09-10 22:11 OP:cam  STATUS:               ID:20150610054618 L   I
 OLDACT:UP  15-06-18 07:46 OP:AK   STATUS:               ID:20150610054618 L   3
 OLDACT:REG 15-06-10 13:12 OP:stll STATUS:               ID:20150610053747     3
 2015-06-10-0537-47M.COL___285                                                 6
 STAT SP IPHASW D HRMM SECON CODA AMPLIT PERI AZIMU VELO AIN AR TRES W  DIS CAZ7
 BAR2 EZ EP        546 36.77                             171   -0.0310 21.6 200 
 BAR2 EZ ES        546 51.76                             171    0.1910 21.6 200 
 BAR2 EZ I         546 52.73         3.7 0.22            167           21.6 200 
 BRR  HZ EP        546 38.88                             150    0.2110 75.3 299 
 BRR  HN ES        546 55.30                             150    0.4110 75.3 299 
 RUS  HZ EP        546 41.13                             144    0.2510 97.8 178 
 RUS  HN ES        546 58.24                             144   -0.5910 97.8 178 
 RUS  HZ I         547  0.06         3.5 0.32            144           97.8 178 
 OCA  HZ EP        546 46.10                             128    0.06 9  163 352 
 OCA  HN ES        547  7.91                             128   -0.11 9  163 352 
 OCA  HZ I         547 10.98         6.4 0.46            128            163 352 
 ZAR  HZ EP        546 50.49                             121    0.11 8  208 292 
 ZAR  HN ES        547 15.39                             121   -0.34 8  208 292 
 ZAR  HZ I         547 23.85         9.1 0.96            119            208 292 
 SML  HZ EP   1    546 54.81                             116    0.21 6  247 335 
 SML  HE ES   1    547 22.39                             116   -0.86 6  247 335 
                                                                                
