 2011 1210 0709  0.6 L   6.775 -73.118148.4  RSN  8 0.2 1.9LRSN                1
 GAP=141        0.37       2.2     4.9  4.8 -0.1352E+01  0.2702E+01  0.1371E+01E
 Epicentro: LOS SANTOS - SANTANDER                                             3
 ACTION:UPD 12-07-13 16:15 OP:ep   STATUS:               ID:20111210070900 L   I
 2011-12-10-0706-38S.COL___161                                                 6
 STAT SP IPHASW D HRMM SECON CODA AMPLIT PERI AZIMU VELO AIN AR TRES W  DIS CAZ7
 BAR2 SZ EP   1    7 9 20.43                             171   -0.08 7 21.4 199 
 BAR2 SZ I         7 9 38.26        22.2 0.30                          21.4 199 
 GIR2 SZ EP   1    7 9 20.63                             166   -0.05 7 34.6 346 
 BRR  HZ EP   1    7 9 22.42                             152    0.16 7 75.2 299 
 BRR  HN ES   2    7 9 39.36                             152    0.21 5 75.2 299 
 BRR  HZ I         7 9 42.42        15.3 0.13                          75.2 299 
 PAM  SZ EP   1    7 9 23.26                             151    0.14 7 77.7  37 
 PAM  SN ES   2    7 9 40.94                             151    0.26 5 77.7  37 
 RUS  HZ EP   1    7 9 24.43                             145    0.03 7 97.6 178 
 RUS  HN ES   2    7 9 42.70                             145   -0.27 5 97.6 178 
 RUS  HZ I         7 9 44.43         8.0 0.18                          97.6 178 
 OCA  SZ EP   1    7 9 29.18                             130   -0.23 7  163 352 
 OCA  SZ ES   2    7 9 51.49                             130   -0.39 5  163 352 
 OCA  SZ I         7 9 57.70         5.8 0.09                           163 352 
 CHI  HN ES   2    710  7.41                             118   -0.19 4  247 196 
 CHI  HZ I         710 11.64         3.1 0.28                           247 196 
 PRA  HZ EP   1    7 9 54.37                             107    0.27 4  391 210 
 PRA  HZ I         710 42.69         9.4 0.22                           391 210 
                                                                                
