 2015  610 0817 56.1 L   6.811 -73.097147.4  RSN  7 0.4 1.6LRSN                1
 GAP=210        0.89       3.4     6.2  5.8 -0.1542E+01  0.5626E+01 -0.4186E+01E
 Epicentro: LOS SANTOS - SANTANDER                                             3
 ACTION:UPD 15-09-10 22:11 OP:cam  STATUS:               ID:20150610081756 L   I
 OLDACT:DUP 15-06-10 18:57 OP:drio STATUS:               ID:20150610080750d    3
 2015-06-10-0807-48M.COL___291                                                 6
 STAT SP IPHASW D HRMM SECON CODA AMPLIT PERI AZIMU VELO AIN AR TRES W  DIS CAZ7
 BAR2 EZ EP        818 16.20                             170    0.1810 26.0 201 
 BAR2 EZ ES        818 31.27                             170   -0.2510 26.0 201 
 BAR2 EZ I         818 31.97         7.5 0.32            167           26.0 201 
 BRR  HZ EP        818 17.92                             151    0.2210 75.4 296 
 BRR  HE ES        818 35.17                             151    0.6510 75.4 296 
 BRR  HZ I         818 37.84         8.3 0.34            146           75.4 296 
 OCA  HZ EP        818 24.42                             130   -0.11 9  160 351 
 OCA  HN ES        818 46.57                             130   -0.10 9  160 351 
 OCA  HZ I         818 51.86         6.7 0.34            130            160 351 
 SPBC HZ EP        818 25.55                             129    0.38 9  168 220 
 SPBC HN ES        818 47.08                             129   -0.74 9  168 220 
 SPBC HZ I         818 54.06         3.7 0.14            129            168 220 
 ZAR  HZ EP        818 29.37                             122    0.22 8  209 291 
 ZAR  HN ES        818 54.87                             122   -0.04 8  209 291 
 ZAR  HZ I         819  1.90         3.1 0.26            121            209 291 
 SML  HZ EP        818 32.66                             118   -0.32 8  245 334 
 SML  HN ES        819  1.26                             118   -0.46 8  245 334 
 SML  HZ I         819 13.04         5.1 0.10            117            245 334 
 URE  HZ EP        818 37.86                             114    0.07 7  288 291 
 URE  HN ES   4    819  8.54                             114   -1.74 0  288 291 
 URE  HZ I         819 12.14         1.9 0.14            113            288 291 
                                                                                
