 2010  210 0016  1.6 L   6.811 -73.011148.4  RSN  9 0.4 2.4LRSN                1
 GAP=210        0.64       3.7     8.0  6.4 -0.7666E+01  0.1599E+02  0.1079E+02E
 Epicentro: CEPITA - SANTANDER                                                 3
 ACTION:UP  10-08-24 09:48 OP:vdl  STATUS:               ID:20100210001601 L   I
 2010-02-10-0014-37S.COL___094                                                 6
 STAT SP IPHASW D HRMM SECON CODA AMPLIT PERI AZIMU VELO SNR AR TRES W  DIS CAZ7
 BAR2 SZ EP   1    016 21.67                             168     0.0 7   31 218 
 GIR2 SZ EP        016 21.79                             166     0.110   36 326 
 GIR2 SZ ES        016 37.40                             166     0.010   36 326 
 OCA  SZ ES   1    016 52.30                             130    -0.2 7  161 348 
 CHI  HZ EP        016 39.89                             117    -0.1 8  254 198 
 CHI  HN ES        017  9.99                             117     0.0 8  254 198 
 CHI  HZ I         017 18.62        13.1 0.27                           254 198 
 HEL  HZ EP   1    016 43.96                             114     0.4 6  287 256 
 HEL  HZ I         017 21.50         6.5 0.25                           287 256 
 RREF BZ EP   1    016 49.82                             110     0.6 5  334 231 
 RREF BN ES   1    017 26.89                             110     0.5 5  334 231 
 RREF BZ I         017 34.22        18.4 0.31                           334 231 
 DBB  SZ EP   2    016 50.23                             109    -0.6 3  354 274 
 ANIL BE ES   1    017 31.86                             108    -0.9 5  369 226 
 PRA  HZ EP   1    016 56.12                             106    -0.1 4  401 211 
 PRA  HZ I         017 40.55         9.2 0.41                           401 211 
                                                                                
