 2013  510 0700 12.0 L   6.846 -73.150149.1  RSN 17 0.5 2.6LRSN                1
 GAP= 69        1.04       3.2     3.7  5.6 -0.1765E+00  0.3443E+01  0.7364E+00E
 Epicentro: LOS SANTOS - SANTANDER                                             3
 ACTION:UPD 13-06-20 09:49 OP:ep   STATUS:               ID:20130510070012 L   I
 2013-05-10-0700-00M.COL___256                                                 6
 STAT SP IPHASW D HRMM SECON CODA AMPLIT PERI AZIMU VELO AIN AR TRES W  DIS CAZ7
 GIR2 SZ EP        7 0 31.96                             170   -0.0210 26.2 349 
 GIR2 SZ ES   1    7 0 47.11                             170   -0.43 7 26.2 349 
 GIR2 SZ I         7 0 48.67        73.5 0.40            169           26.2 349 
 BAR2 SZ IP     D  7 0 32.15                             169   -0.0210 28.3 187 
 BAR2 SZ ES   1    7 0 47.27                             169   -0.61 7 28.3 187 
 BAR2 SZ I         7 0 48.97        77.6 0.34            166           28.3 187 
 BRR  HZ IP     D  7 0 33.75                             154    0.3510 68.5 295 
 BRR  HE ES   1    7 0 50.66                             154    0.60 7 68.5 295 
 BRR  HZ I         7 0 51.34        80.3 0.14            151           68.5 295 
 PAM  SZ IP     D  7 0 34.61                             152    0.2010 73.9  42 
 PAM  SN ES   1    7 0 51.69                             152   -0.16 7 73.9  42 
 PAM  SN I         7 0 52.63       148.2 0.44            155           73.9  42 
 RUS  HZ IP     C  7 0 36.31                             143   -0.1710  106 176 
 RUS  HE ES   1    7 0 55.40                             143   -0.15 7  106 176 
 RUS  HZ I         7 0 56.87        19.2 0.38            141            106 176 
 PTB  HZ IP     C  7 0 38.70                             133   -0.63 9  148 257 
 PTB  HN ES   1    7 0 59.87                             133   -0.75 7  148 257 
 PTB  HZ I         7 1  1.32        63.8 0.24            129            148 257 
 OCA  HZ EP        7 0 39.76                             131   -0.38 9  155 353 
 OCA  HE ES        7 1  2.90                             131    0.85 9  155 353 
 OCA  HZ I         7 1  5.57        37.8 0.30            131            155 353 
 TAM  HZ IP     C  7 0 40.48                             131    0.33 9  157 107 
 TAM  HE ES   1    7 1  2.12                             131    0.04 7  157 107 
 TAM  HZ I         7 1  3.31        16.6 0.42            131            157 107 
 ZAR  HZ EP        7 0 45.42                             123    0.95 9  202 291 
 ZAR  HN ES   1    7 1 10.06                             123    0.30 6  202 291 
 ZAR  HZ I         7 1 15.05        62.0 0.30            121            202 291 
 NOR  HZ EP   1    7 0 48.69                             119    0.45 6  237 233 
 NOR  HN ES   1    7 1 16.55                             119    0.08 6  237 233 
 NOR  HZ I         7 1 23.49        22.3 0.16            117            237 233 
 SML  HZ EP        7 0 47.66                             119   -0.68 8  239 335 
 SML  HN ES   1    7 1 16.25                             119   -0.40 6  239 335 
 SML  HZ I         7 1 21.96        58.5 0.10            118            239 335 
 CHI  HZ EP   1    7 0 50.86                             117    0.42 6  253 195 
 CHI  HE ES   1    7 1 21.09                             117    0.70 6  253 195 
 CHI  HZ I         7 1 29.30        17.9 0.44            116            253 195 
 ROSC BZ EP   4    7 0 52.23                             117    1.44 0  257 210 
 ROSC BN ES   4    7 1 23.80                             117    2.79 0  257 210 
 ROSC BZ I         7 1 30.31        25.6 0.40            115            257 210 
 HEL  HZ EP   4    7 0 53.94                             115    1.43 0  273 255 
 HEL  HE ES   1    7 1 23.86                             115   -0.22 6  273 255 
 HEL  HZ I         7 1 31.10        26.3 0.32            113            273 255 
 COD  HZ EP        7 0 58.99                             110   -0.97 7  343 355 
 COD  HN ES   4    7 1 35.93                             110   -1.41 0  343 355 
 COD  HZ I         7 1 45.60         5.2 0.44            109            343 355 
 PRA  HZ EP        7 1  5.95                             107   -0.21 6  396 209 
 PRA  HN ES   2    7 1 48.68                             107    0.30 3  396 209 
 PRA  HZ I         7 1 56.17        29.6 0.30            106            396 209 
 SJC  HZ EP   4    7 1  5.59                             106   -1.59 0  405 327 
 SJC  HN ES   4    7 1 46.36                             106   -3.84 0  405 327 
 SJC  HZ I         7 1 50.72         9.3 0.44            106            405 327 
                                                                                
