 2010  510 0329 27.2 L   6.796 -73.067148.0  RSN 14 0.6 2.8LRSN                1
 GAP=132        1.36       5.3     8.6 10.4 -0.2094E+02  0.2730E+01  0.1541E+02E
 Epicentro: LOS SANTOS - SANTANDER                                             3
 ACTION:UP  10-08-24 10:03 OP:vdl  STATUS:               ID:20100510032927 L   I
 2010-05-10-0327-29S.COL___104                                                 6
 STAT SP IPHASW D HRMM SECON CODA AMPLIT PERI AZIMU VELO SNR AR TRES W  DIS CAZ7
 BAR2 SZ EP        329 47.11                             170     0.010   26 210 
 BRR  HZ IP     C  329 49.59                             151     0.510   79 296 
 BRR  HZ I         329 49.83       105.1 0.15                            79 296 
 BRR  HN ES   1    330  6.88                             151     0.8 7   79 296 
 RUS  HZ EP        329 51.10                             145     0.010  100 181 
 RUS  HN ES   2    330  8.96                             145    -0.8 5  100 181 
 RUS  HZ I         330 11.47        54.6 0.44                           100 181 
 BRI  SZ EP        329 51.65                             143     0.510  106  16 
 GUE  SZ EP        329 52.98                             141     0.910  115   8 
 GRA  SZ EP        329 51.89                             138    -0.610  124  14 
 GRA  SZ ES   1    330 11.46                             138    -0.7 7  124  14 
 OCA  SZ EP        329 55.53                             130    -0.3 9  162 350 
 OCA  SZ ES   1    330 17.32                             130    -0.9 7  162 350 
 OCA  SZ I         330 25.80        76.1 0.21                           162 350 
 CHI  HZ EP        330  5.29                             118     0.0 8  251 197 
 CHI  HN ES   1    330 34.71                             118    -0.2 6  251 197 
 CHI  HZ I         330 38.96        40.5 0.65                           251 197 
 HEL  HZ EP        330  8.39                             115    -0.1 7  280 256 
 HEL  HZ I         330 45.62        26.3 0.45                           280 256 
 RREF BZ EP        330 13.63                             111    -0.5 7  328 230 
 RREF BN ES   2    330 49.90                             111    -0.9 3  328 230 
 RREF BZ I         330 58.80        31.6 0.36                           328 230 
 DBB  SZ EP        330 14.90                             110    -0.9 6  348 274 
 SDV  BZ EP        330 16.78                             109     0.2 6  354  49 
 SDV  BZ I         330 17.61        14.9 0.20                           354  49 
 ANIL BZ EP        330 18.12                             109     0.4 6  363 226 
 ANIL BN ES   1    330 58.14                             109     0.9 5  363 226 
 ANIL BZ I         331  2.76        61.8 0.28                           363 226 
 PRA  HZ EP        330 20.78                             107    -0.5 6  396 211 
 PRA  HN ES   2    331  3.50                             107     0.1 3  396 211 
 PRA  HZ I         331  7.85        41.9 0.75                           396 211 
                                                                                
