 2013  310 0121 11.3 L   6.770 -73.099140.8  RSN  4 0.4 1.3LRSN                1
 GAP=144        0.96       6.3     6.9  9.7 -0.4309E+01  0.6582E+01  0.1380E+02E
 Epicentro: LOS SANTOS - SANTANDER                                             3
 ACTION:UPD 13-04-09 14:01 OP:ep   STATUS:               ID:20130310012111 L   I
 2013-03-10-0120-00M.COL___231                                                 6
 STAT SP IPHASW D HRMM SECON CODA AMPLIT PERI AZIMU VELO AIN AR TRES W  DIS CAZ7
 PAM  SZ EP        121 33.35                             150    0.3610 76.9  35 
 PAM  SZ I         121 33.57         6.9 0.20             47           76.9  35 
 PAM  SE ES        121 49.44                             150   -0.4510 76.9  35 
 BRR  HZ EP        121 32.32                             149    0.0110 77.4 299 
 BRR  HE ES        121 48.99                             149    0.3110 77.4 299 
 RUS  HZ EP   1    121 34.77                             144    0.44 7 97.0 179 
 RUS  HE ES   1    121 52.18                             144   -0.10 7 97.0 179 
 RUS  HE I         121 54.25         2.7 0.22             47           97.0 179 
 PTB  HZ EP   1    121 37.43                             130   -0.88 7  152 260 
 PTB  HZ I         121 59.89         2.4 0.18             47            152 260 
                                                                                
