 2017  510 0007 27.0 L   6.757 -73.112153.3  RSN 10 0.5 1.8LRSN                1
 GAP=124        1.08       4.7     4.7  7.1  0.8173E+00  0.8548E+01  0.5553E+01E
 Epicentro: LOS SANTOS - SANTANDER                                             3
 ACTION:UPD 17-06-16 13:34 OP:jn   STATUS:               ID:20170510000727 L   I
 OLDACT:UP  17-05-11 12:55 OP:nlst STATUS:               ID:20170510000727 L   3
 OLDACT:UP  17-05-10 14:34 OP:edw  STATUS:               ID:20170510000000     3
 OLDACT:UP  17-05-10 14:33 OP:edw  STATUS:               ID:20170510000000     3
 OLDACT:UP  17-05-10 14:33 OP:edw  STATUS:               ID:20170510000000     3
 OLDACT:UP  17-05-10 14:32 OP:edw  STATUS:               ID:20170510000000     3
 OLDACT:REG 17-05-10 12:43 OP:osc  STATUS:               ID:20170510000000     3
 2017-05-10-0000-15M.COL___356                                                 6
 STAT SP IPHASW D HRMM SECON CODA AMPLIT PERI AZIMU VELO AIN AR TRES W  DIS CAZ7
 BRR  HZ IP     D  0 7 49.48                             152    0.1610 76.7 300 
 BRR  HE ES        0 8  6.96                             152    0.2710 76.7 300 
 BRR  HZ I         0 8  8.05        10.8 0.12            151           76.7 300 
 PAM  EZ EP     D  0 7 50.40                             152    0.2510 78.9  35 
 PAM  EN ES        0 8  7.68                             152   -0.5010 78.9  35 
 PAM  EZ I         0 8 11.37         5.1 0.20            157           78.9  35 
 RUS  HZ EP        0 7 51.53                             147    0.3310 95.6 178 
 RUS  HN ES        0 8 10.02                             147   -0.0310 95.6 178 
 RUS  HZ I         0 8 11.45        11.2 0.34            147           95.6 178 
 PTB  HZ EP        0 7 54.48                             133   -0.40 9  151 261 
 PTB  HN ES   3    0 8 15.09                             133   -1.50 2  151 261 
 PTB  HZ I         0 8 22.36         7.4 0.40            133            151 261 
 ZAR  HZ EP        0 8  0.98                             123    0.46 8  209 293 
 ZAR  HN ES        0 8 27.07                             123    0.44 8  209 293 
 ZAR  HZ I         0 8 31.76        12.6 0.42            124            209 293 
 NOR  HZ EP        0 8  3.79                             120    0.54 8  235 236 
 NOR  HN ES        0 8 30.73                             120   -0.76 8  235 236 
 NOR  HZ I         0 8 34.13         5.0 0.18            121            235 236 
 CHI  HZ EP   4    0 8  3.70                             119   -1.09 0  245 196 
 CHI  HN ES   4    0 8 36.30                             119    2.07 0  245 196 
 CHI  HZ I         0 8 40.69         2.4 0.28            120            245 196 
 HEL  HZ EP   4    0 8  9.67                             116    1.75 0  275 257 
 HEL  HN ES   1    0 8 39.64                             116   -0.16 6  275 257 
 HEL  HZ I         0 8 46.41         3.3 0.32            117            275 257 
 PTGC HZ EP        0 8 10.57                             113   -0.03 7  303 159 
 PTGC HN ES   4    0 8 43.08                             113   -1.49 0  303 159 
 SJC  HZ EP        0 8 22.02                             107   -1.54 6  415 327 
 SJC  HN ES   4    0 9  3.97                             107   -3.68 0  415 327 
 SJC  HZ I         0 9  7.33         2.0 0.56            108            415 327 
                                                                                
