 2011  210 0825  9.2 L   6.812 -73.184143.6  RSN  4 0.1 1.5LRSN                1
 GAP=185        0.32       4.0    15.8  4.7 -0.5270E+02  0.3002E+02 -0.5490E+01E
 Epicentro: ZAPATOCA - SANTANDER                                               3
 ACTION:UP  11-03-28 15:07 OP:jfem STATUS:               ID:20110210082509 L   I
 2011-02-10-0820-57S.COL___136                                                 6
 STAT SP IPHASW D HRMM SECON CODA AMPLIT PERI AZIMU VELO SNR AR TRES W  DIS CAZ7
 BAR2 SZ EP   1    825 28.58                             170     0.0 7   24 180 
 BAR2 SZ ES   2    825 43.72                             170     0.0 5   24 180 
 BAR2 SZ I         825 45.01        12.8 0.19                            24 180 
 RUS  HZ EP   1    825 32.73                             143    -0.1 7  102 174 
 RUS  HN ES   2    825 51.39                             143     0.1 5  102 174 
 RUS  HZ I         825 52.63         3.8 0.24                           102 174 
 GRA  SZ EP   1    825 34.32                             136     0.1 7  126  19 
 GRA  SZ ES   2    825 53.54                             136    -0.2 5  126  19 
 GRA  SZ I         825 55.46         3.3 0.41                           126  19 
 CHI  HZ EP   1    825 46.79                             117     0.0 6  249 194 
 CHI  HZ I         825 47.56         1.7 0.12                           249 194 
 CHI  HE ES   2    826 15.95                             117    -0.1 4  249 194 
                                                                                
