 2014  710 0700 32.0 L   6.758 -73.189142.7  RSN  4 0.6 1.1LRSN                1
 GAP=273        1.55      13.2     9.8 14.7  0.1195E+02  0.3208E+02 -0.3131E+02E
 Epicentro: LOS SANTOS - SANTANDER                                             3
 ACTION:UPD 15-03-16 20:42 OP:nd   STATUS:               ID:20140710070032 L   I
 OLDACT:REG 14-07-10 12:20 OP:stll STATUS:               ID:20140710065811     3
 2014-07-10-0658-11M.COL___256                                                 6
 STAT SP IPHASW D HRMM SECON CODA AMPLIT PERI AZIMU VELO AIN AR TRES W  DIS CAZ7
 BAR2 SZ EP        7 0 52.07                             172    0.9310 18.4 178 
 BAR2 SZ ES        7 1  6.13                             172    0.0410 18.4 178 
 BAR2 SZ I         7 1  6.87         6.4 0.28            173           18.4 178 
 RUS  HZ EP        7 0 54.99                             144   -0.1310 96.4 173 
 RUS  HN ES        7 1 12.44                             144   -0.7310 96.4 173 
 RUS  HZ I         7 1 14.18         1.2 0.20            145           96.4 173 
 PTB  HZ EP        7 0 57.49                             132   -0.69 9  142 260 
 PTB  HN ES        7 1 18.38                             132   -0.25 9  142 260 
 PTB  HZ I         7 1 20.02         1.4 0.20            133            142 260 
 SPBC HN ES        7 1 22.01                             130    0.85 9  157 219 
                                                                                
