 2017  810 0407 41.5 L   6.806 -73.156143.9  RSN  7 0.4 1.4LRSN                1
 GAP=237        1.02       4.7     6.0  6.9  0.8492E+01  0.1103E+02  0.9635E+01E
 Epicentro: LOS SANTOS - SANTANDER                                             3
 ACTION:UPD 17-09-04 20:18 OP:rebc STATUS:               ID:20170810040741 L   I
 OLDACT:REG 17-08-10 12:16 OP:dhb  STATUS:               ID:20170810035734     3
 2017-08-10-0358-00M.COL___396                                                 6
 STAT SP IPHASW D HRMM SECON CODA AMPLIT PERI AZIMU VELO AIN AR TRES W  DIS CAZ7
 BAR2 EZ IP     C  4 8  0.64                             170   -0.2510 23.8 187 
 BAR2 EZ ES        4 8 15.30                             170   -0.7310 23.8 187 
 BAR2 EZ I         4 8 18.44         5.3 0.30            170           23.8 187 
 BRR  HZ IP     D  4 8  2.61                             153    0.2710 69.8 298 
 BRR  HN ES        4 8 19.03                             153    0.4110 69.8 298 
 BRR  HZ I         4 8 22.56         3.5 0.16            147           69.8 298 
 RUS  HZ EP        4 8  5.07                             143   -0.0310  101 175 
 RUS  HN ES        4 8 23.98                             143    0.4610  101 175 
 RUS  HZ I         4 8 24.50         4.8 0.22            140            101 175 
 SPBC HZ EP        4 8  9.71                             129   -0.10 9  163 219 
 SPBC HE ES        4 8 32.42                             129    0.51 9  163 219 
 SPBC HZ I         4 8 38.63         4.2 0.26            124            163 219 
 ZAR  HE ES        4 8 38.69                             122   -0.07 9  203 292 
 ZAR  HZ I         4 8 49.21         2.0 0.20            117            203 292 
 NOR  HZ EP        4 8 17.31                             118    0.28 8  234 234 
 NOR  HE ES        4 8 43.90                             118   -0.87 8  234 234 
 NOR  HZ I         4 8 46.10         2.0 0.17            113            234 234 
 CHI  HZ EP        4 8 18.95                             117   -0.16 8  249 195 
 CHI  HZ I         4 8 41.52         1.2 0.08            112            249 195 
 CHI  HN ES        4 8 48.58                             117    0.12 8  249 195 
                                                                                
