 2013 1010 0447  8.0 L   6.752 -73.167153.8  RSN  6 0.4 1.6LRSN                1
 GAP=198        0.91       4.3     7.4 10.3  0.3256E+01 -0.2487E+02 -0.1380E+02E
 Epicentro: VILLANUEVA - SANTANDER                                             3
 ACTION:UPD 13-11-25 09:20 OP:ep   STATUS:               ID:20131010044708 L   I
 OLDACT:DUP 13-10-10 10:44 OP:mh   STATUS:               ID:20131010043960d    3
 2013-10-10-0439-59M.COL___273                                                 6
 STAT SP IPHASW D HRMM SECON CODA AMPLIT PERI AZIMU VELO AIN AR TRES W  DIS CAZ7
 BAR2 SZ EP        447 28.54                             173    0.0310 17.8 186 
 BAR2 SZ I         447 44.94         9.9 0.48            170           17.8 186 
 BRR  HZ EP   1    447 30.35                             154    0.28 7 71.9 303 
 BRR  HN ES   1    447 47.43                             154    0.16 7 71.9 303 
 BRR  HZ I         447 50.11         5.1 0.14            160           71.9 303 
 RUS  HZ EP   1    447 32.30                             147    0.09 7 95.5 174 
 RUS  HN ES   2    447 50.28                             147   -0.81 5 95.5 174 
 RUS  HZ I         447 53.52         3.6 0.48            147           95.5 174 
 PTB  HZ EP   1    447 34.94                             135   -0.42 7  145 261 
 PTB  HN ES        447 56.28                             135   -0.41 9  145 261 
 PTB  HZ I         447 58.24         5.1 0.14            141            145 261 
 SPBC HZ EP   1    447 37.44                             132    0.81 7  158 220 
 SPBC HN ES        447 59.15                             132    0.21 9  158 220 
 SPBC HZ I         448  4.20         5.5 0.22            136            158 220 
 SML  HZ EP        447 44.84                             119   -0.67 8  248 336 
 SML  HN ES        448 15.24                             119    0.48 8  248 336 
 SML  HZ I         448 19.27         3.4 0.10            121            248 336 
                                                                                
