 2015  310 0459 46.7 L   6.735 -73.161144.5  RSN  5 0.4 1.4LRSN                1
 GAP=231        1.08       6.4     7.4  8.1  0.1343E+02  0.1232E+02  0.7365E+01E
 Epicentro: LOS SANTOS - SANTANDER                                             3
 ACTION:UPD 15-04-30 16:24 OP:nd   STATUS:               ID:20150310045946 L   I
 OLDACT:REG 15-03-10 16:42 OP:cam  STATUS:               ID:20150310045750     3
 2015-03-10-0457-50M.COL___278                                                 6
 STAT SP IPHASW D HRMM SECON CODA AMPLIT PERI AZIMU VELO AIN AR TRES W  DIS CAZ7
 BAR2 EZ ES        5 0 20.48                             173   -0.6610 16.0 188 
 BAR2 EZ I         5 0 21.82         4.7 0.18            168           16.0 188 
 BRR  HZ EP        5 0  7.92                             151    0.0810 73.4 304 
 BRR  HN ES        5 0 25.02                             151    0.6910 73.4 304 
 BRR  HZ I         5 0 26.18         3.0 0.44            151           73.4 304 
 RUS  HZ EP        5 0  9.69                             146   -0.1410 93.6 175 
 RUS  HN ES        5 0 28.16                             146    0.2910 93.6 175 
 RUS  HZ I         5 0 29.70         3.0 0.24            144           93.6 175 
 PTB  HZ EP        5 0 13.02                             132   -0.27 9  145 261 
 PTB  HN ES        5 0 33.49                             132   -0.55 9  145 261 
 PTB  HZ I         5 0 35.94         4.5 0.16            131            145 261 
 SPBC HZ EP        5 0 14.69                             130    0.22 9  157 220 
 SPBC HN ES        5 0 36.45                             130    0.31 9  157 220 
 SPBC HZ I         5 0 42.76         3.8 0.22            129            157 220 
                                                                                
