 2012  510 0236 27.4 L   6.730 -73.150134.4  RSN  6 0.4 1.5LRSN                1
 GAP=139        0.95       5.8     5.1  8.2  0.1233E+01  0.9084E+01 -0.5250E+01E
 Epicentro: JORDAN - SANTANDER                                                 3
 ACTION:UP  12-07-05 12:03 OP:pat  STATUS:               ID:20120510023627 L   I
 2012-05-10-0230-00M.COL___195                                                 6
 STAT SP IPHASW D HRMM SECON CODA AMPLIT PERI AZIMU VELO SNR AR TRES W  DIS CAZ7
 BAR2 SZ EP        236 45.71                             173     0.110   16 193 
 BAR2 SZ I         236 46.08         6.4 0.12                            16 193 
 BAR2 SZ ES   1    236 59.05                             173    -0.7 7   16 193 
 BRR  HZ EP        236 47.61                             149     0.010   75 304 
 BRR  HZ I         236 48.06        15.6 0.09                            75 304 
 BRR  HE ES   1    237  4.11                             149     0.8 7   75 304 
 PAM  SZ EP        236 48.83                             146    -0.110   84  36 
 PAM  SN ES   1    237  5.43                             146    -0.2 7   84  36 
 RUS  HZ EP   1    236 49.71                             144     0.2 7   93 175 
 RUS  HE ES   1    237  7.02                             144     0.3 7   93 175 
 RUS  HZ I         237  8.94         2.8 0.38                            93 175 
 PTB  HZ EP   1    236 52.63                             130    -0.7 7  146 262 
 PTB  HE ES   1    237 13.42                             130    -0.1 7  146 262 
 ZAR  HZ EP   1    236 59.93                             119     0.5 6  207 294 
 ZAR  HE ES   1    237 24.05                             119    -0.4 6  207 294 
 ZAR  HZ I         237 29.39         3.3 0.29                           207 294 
                                                                                
