 2014  610 0450 34.7 L   6.818 -73.185140.2  RSN 17 0.4 2.2LRSN                1
 GAP=131        0.75       2.1     2.9  4.5 -0.1214E+01  0.4146E+01  0.1063E+01E
 Epicentro: ZAPATOCA - SANTANDER                                               3
 ACTION:UPD 14-07-01 22:52 OP:nd   STATUS:               ID:20140610045034 L   I
 OLDACT:UP  14-06-10 15:05 OP:mh   STATUS:               ID:20140610044817     3
 OLDACT:REG 14-06-10 12:26 OP:mh   STATUS:               ID:20140610044817     3
 2014-06-10-0448-17M.COL___253                                                 6
 STAT SP IPHASW D HRMM SECON CODA AMPLIT PERI AZIMU VELO AIN AR TRES W  DIS CAZ7
 BAR2 SZ EP        450 53.71                             169    0.0210 24.9 179 
 BAR2 SZ ES   1    451  8.64                             169    0.13 7 24.9 179 
 BAR2 SZ I         451 10.47        60.1 0.13            167           24.9 179 
 PAM  SZ EP        450 56.75                             149    0.3410 78.8  43 
 PAM  SN ES   1    451 13.87                             149    0.52 7 78.8  43 
 PAM  SZ I         451 15.97        19.9 0.29            157           78.8  43 
 RUS  HZ EP        450 57.93                             142   -0.1510  103 174 
 RUS  HN ES   1    451 15.89                             142   -0.43 7  103 174 
 RUS  HZ I         451 17.86        17.1 0.29            145            103 174 
 PTB  HZ EP   1    451  0.59                             131   -0.27 7  144 258 
 PTB  HN ES        451 21.05                             131   -0.21 9  144 258 
 PTB  HZ I         451 24.24        11.9 0.07            131            144 258 
 OCA  HZ EP        451  2.18                             129   -0.17 9  158 355 
 OCA  HN ES        451 23.77                             129   -0.15 9  158 355 
 OCA  HZ I         451 29.21        11.3 0.18            132            158 355 
 SPBC HZ EP        451  2.69                             128    0.03 9  162 217 
 SPBC HN ES   1    451 24.48                             128    0.01 7  162 217 
 SPBC HZ I         451 31.22        19.9 0.22            129            162 217 
 ZAR  HZ EP        451  6.31                             122    0.02 9  199 292 
 ZAR  HN ES   1    451 31.60                             122    0.67 6  199 292 
 ZAR  HZ I         451 38.33         9.3 0.06            123            199 292 
 NOR  HZ EP        451  9.85                             117    0.00 8  232 233 
 NOR  HN ES   1    451 36.91                             117   -0.36 6  232 233 
 NOR  HZ I         451 45.82         9.1 0.24            119            232 233 
 SML  HZ EP   1    451 10.40                             117   -0.23 6  240 336 
 SML  HN ES   1    451 38.01                             117   -0.64 6  240 336 
 SML  HZ I         451 41.03        19.5 0.07            119            240 336 
 CHI  HZ EP        451 11.93                             116   -0.25 8  249 194 
 CHI  HN ES        451 41.27                             116   -0.14 8  249 194 
 CHI  HZ I         451 47.64         6.8 0.29            119            249 194 
 ROSC BZ EP        451 12.75                             115    0.29 8  252 210 
 ROSC BN ES   4    451 44.49                             115    2.58 0  252 210 
 HEL  HZ EP   1    451 14.49                             114    0.28 6  268 255 
 HEL  HN ES   1    451 45.44                             114    0.41 6  268 255 
 HEL  HZ I         451 53.68         5.0 0.33            115            268 255 
 GUY2CHZ EP   4    451 19.43                             111    1.65 0  299 234 
 GUY2CHN ES   4    451 55.30                             111    3.92 0  299 234 
 GUY2CHZ I         451 59.88         6.4 0.27                           299 234 
 RREF HZ EP   4    451 22.28                             110    1.91 0  320 229 
 RREF HN ES   4    451 58.65                             110    2.66 0  320 229 
 CBOC HZ EP        451 21.22                             109    0.25 7  330 252 
 CBOC HN ES        451 56.47                             109   -0.60 7  330 252 
 CBOC HZ I         452  9.28         1.6 0.20            111            330 252 
 TOL  SZ EP        451 23.56                             108    1.02 7  342 224 
 TOL  SN ES        452  0.36                             108    0.50 7  342 224 
 TOL  SZ I         452  8.63        10.9 0.47            110            342 224 
 PRA  HZ EP        451 27.12                             106   -0.86 6  392 209 
 PRA  HN ES   1    452  9.67                             106    0.13 4  392 209 
 PRA  HZ I         452 16.11         6.4 0.54            108            392 209 
 SJC  HZ EP   4    451 28.28                             105   -1.33 0  405 327 
 SJC  HN ES   4    452  7.75                             105   -4.69 0  405 327 
 SJC  HZ I         452 13.57        37.9 0.04            107            405 327 
                                                                                
