 2017  310 0829 34.1 L   6.785 -73.161147.9  RSN  5 0.3 1.5LRSN                1
 GAP=135        0.88       4.8     4.6  6.5 -0.2065E+01  0.3477E+01  0.1310E+01E
 Epicentro: LOS SANTOS - SANTANDER                                             3
 ACTION:UPD 17-05-25 18:38 OP:jn   STATUS:               ID:20170310082934 L   I
 OLDACT:DUP 17-03-10 18:44 OP:ar   STATUS:               ID:20170310082743d    3
 2017-03-10-0828-00M.COL___391                                                 6
 STAT SP IPHASW D HRMM SECON CODA AMPLIT PERI AZIMU VELO AIN AR TRES W  DIS CAZ7
 BAR2 EZ EP        829 53.87                             171   -0.1010 21.4 186 
 BAR2 EZ ES        830  9.47                             171    0.0110 21.4 186 
 BAR2 EZ I         830 13.63        16.7 0.92            170           21.4 186 
 BRR  HZ EP        829 55.71                             153    0.2510 70.5 300 
 BRR  HN ES        830 12.71                             153    0.6010 70.5 300 
 BRR  HZ I         830 16.60         6.2 0.26            151           70.5 300 
 PAM  EZ EP        829 56.83                             150    0.1210 79.8  40 
 PAM  EE ES        830 13.83                             150   -0.5010 79.8  40 
 PAM  EZ I         830 15.49        10.3 0.52            156           79.8  40 
 RUS  HZ EP        829 58.30                             145    0.3310 99.0 175 
 RUS  HN ES        830 16.54                             145   -0.0410 99.0 175 
 RUS  HZ I         830 17.84         2.5 0.36            148           99.0 175 
 PTB  HZ EP        830  0.76                             133   -0.32 9  146 259 
 PTB  HN ES        830 21.67                             133   -0.44 9  146 259 
 PTB  HZ I         830 29.67         2.0 0.22            133            146 259 
                                                                                
