 2014  710 0302 16.4 L   6.821 -73.148141.1  RSN 16 0.5 2.2LRSN                1
 GAP= 70        1.24       3.5     3.8  5.8 -0.3028E+01  0.3113E+01  0.4423E+01E
 Epicentro: LOS SANTOS - SANTANDER                                             3
 ACTION:UPD 15-03-16 20:42 OP:nd   STATUS:               ID:20140710030216 L   I
 OLDACT:DUP 14-07-10 15:56 OP:stll STATUS:               ID:20140710025819d    3
 2014-07-10-0258-18M.COL___262                                                 6
 STAT SP IPHASW D HRMM SECON CODA AMPLIT PERI AZIMU VELO AIN AR TRES W  DIS CAZ7
 BAR2 SZ IP     C  3 2 35.77                             169    0.2610 25.6 189 
 BAR2 SZ I         3 2 36.09        45.1 0.34            167           25.6 189 
 BAR2 SZ ES        3 2 50.44                             169    0.0110 25.6 189 
 BRR  HZ IP     D  3 2 37.48                             152    0.5110 69.9 297 
 BRR  HZ I         3 2 37.73        23.6 0.34            150           69.9 297 
 BRR  HN ES        3 2 53.71                             152    0.7010 69.9 297 
 PAM  SZ EP        3 2 38.50                             151    0.4910 75.7  41 
 PAM  SN ES        3 2 54.87                             151   -0.0110 75.7  41 
 PAM  SZ I         3 2 56.81        27.2 0.16            154           75.7  41 
 RUS  HZ EP        3 2 39.85                             142   -0.0110  103 176 
 RUS  HZ I         3 2 41.01        14.9 0.14            142            103 176 
 RUS  HN ES        3 2 58.30                             142    0.1310  103 176 
 PTB  HZ EP        3 2 42.50                             131   -0.51 9  148 258 
 PTB  HN ES        3 3  3.31                             131   -0.46 9  148 258 
 PTB  HZ I         3 3  7.15        15.0 0.14            130            148 258 
 TAM  HZ IP     D  3 2 44.13                             129    0.35 9  156 106 
 TAM  HZ I         3 2 44.35        33.6 0.38            132            156 106 
 OCA  HN ES        3 3  4.60                             129   -1.15 9  158 353 
 OCA  HZ I         3 3  8.68        10.1 0.36            130            158 353 
 SPBC HZ EP        3 2 44.77                             128    0.07 9  165 218 
 SPBC HN ES        3 3  6.85                             128    0.07 9  165 218 
 SPBC HZ I         3 3 12.96        18.6 0.20            127            165 218 
 ZAR  HZ EP        3 2 48.63                             122    0.21 9  203 292 
 ZAR  HN ES        3 3 13.34                             122   -0.07 9  203 292 
 ZAR  HZ I         3 3 21.12        12.5 0.20            121            203 292 
 NOR  HZ EP        3 2 51.76                             117   -0.22 8  236 234 
 NOR  HE ES        3 3 19.08                             117   -0.66 8  236 234 
 NOR  HZ I         3 3 25.88        11.0 0.18            117            236 234 
 CHI  HN ES        3 3 22.48                             116   -0.99 8  251 195 
 CHI  HZ I         3 3 28.79         7.5 0.38            116            251 195 
 HEL  HZ EP        3 2 57.79                             114    1.38 8  272 255 
 HEL  HN ES        3 3 27.58                             114   -0.05 8  272 255 
 HEL  HZ I         3 3 35.23         8.3 0.40            114            272 255 
 SOCV BZ EP        3 2 58.01                             111   -1.09 7  300  57 
 TOL  SZ EP        3 3  5.10                             108    0.46 7  345 224 
 TOL  SE ES        3 3 42.68                             108    0.41 7  345 224 
 PRA  HZ EP        3 3 10.23                             106    0.25 6  394 209 
 PRA  HN ES        3 3 51.16                             106   -0.62 6  394 209 
 PRA  HZ I         3 3 58.47         7.5 0.30            106            394 209 
 ORTC HZ EP        3 3 10.48                             105    0.12 6  397 216 
 ORTC HE ES        3 3 52.26                             105   -0.20 6  397 216 
 ORTC HZ I         3 4  0.31         4.3 0.24            106            397 216 
                                                                                
