 2015 1010 0323 52.5 L   6.747 -73.128153.6  RSN  4 0.4 1.3LRSN                1
 GAP=141        0.83       5.9     7.7  8.1  0.3472E+01 -0.1091E+02 -0.1028E+01E
 Epicentro: LOS SANTOS - SANTANDER                                             3
 ACTION:UPD 15-12-22 20:38 OP:cam  STATUS:               ID:20151010032352 L   I
 OLDACT:DUP 15-10-10 14:26 OP:spq  STATUS:               ID:20151010031741d    3
 2015-10-10-0317-40M.COL___337                                                 6
 STAT SP IPHASW D HRMM SECON CODA AMPLIT PERI AZIMU VELO AIN AR TRES W  DIS CAZ7
 BAR2 EZ EP   1    324 13.05                             173    0.09 7 18.2 199 
 BAR2 EZ ES   1    324 28.92                             173   -0.01 7 18.2 199 
 BAR2 EZ I         324 29.27         5.7 0.36            173           18.2 199 
 BRR  HZ EP        324 14.89                             152    0.1610 75.8 302 
 BRR  HN ES        324 31.94                             152   -0.1510 75.8 302 
 BRR  HZ I         324 33.29         4.8 0.50            154           75.8 302 
 PAM  EZ EP        324 16.07                             151    0.3410 80.8  36 
 PAM  EN ES   1    324 33.56                             151   -0.30 7 80.8  36 
 PAM  EZ I         324 35.24         3.8 0.58            152           80.8  36 
 RUS  HZ EP   1    324 15.73                             147   -0.87 7 94.6 177 
 RUS  HE ES   1    324 35.87                             147    0.45 7 94.6 177 
 RUS  HZ I         324 36.71         1.0 0.26            148           94.6 177 
                                                                                
