 2015  310 0333 32.8 L   6.808 -73.131143.5  RSN 20 0.5 2.4LRSN                1
 GAP= 66        1.17       2.7     3.2  5.3  0.8251E-01  0.4704E+01  0.2619E+01E
 Epicentro: LOS SANTOS - SANTANDER                                             3
 ACTION:UPD 15-04-30 16:24 OP:nd   STATUS:               ID:20150310033332 L   I
 OLDACT:UP  15-03-10 17:09 OP:cam  STATUS:               ID:20150310032749     3
 OLDACT:UP  15-03-10 17:09 OP:cam  STATUS:               ID:20150310032749     3
 OLDACT:REG 15-03-10 16:41 OP:cam  STATUS:               ID:20150310032749     3
 2015-03-10-0327-49M.COL___278                                                 6
 STAT SP IPHASW D HRMM SECON CODA AMPLIT PERI AZIMU VELO AIN AR TRES W  DIS CAZ7
 BAR2 EZ EP        333 52.25                             170    0.0410 24.5 193 
 BAR2 EZ ES        334  6.59                             170   -0.7410 24.5 193 
 BAR2 EZ I         334  8.40        46.1 0.14            165           24.5 193 
 BRR  HZ IP     C  333 54.01                             152    0.2210 72.2 297 
 BRR  HN ES        334 10.71                             152    0.5710 72.2 297 
 BRR  HZ I         334 15.26        51.1 0.14            144           72.2 297 
 PAM  SZ EP        333 55.00                             151    0.3010 75.7  39 
 PAM  SN ES        334 11.92                             151    0.1610 75.7  39 
 PAM  SZ I         334 13.63        94.1 0.48            150           75.7  39 
 RUS  HZ EP        333 56.80                             143    0.3910  101 177 
 RUS  HN ES        334 15.16                             143    0.3610  101 177 
 RUS  HZ I         334 16.21        18.7 0.26            138            101 177 
 PTB  HZ EP        333 59.24                             131   -0.53 9  149 259 
 PTB  HZ I         334 25.10        26.0 0.24            124            149 259 
 TAM  HZ IP     D  334  0.66                             130    0.46 9  154 105 
 TAM  HN ES        334 22.24                             130    0.68 9  154 105 
 TAM  HN I         334 22.85        29.4 0.26            127            154 105 
 OCA  HZ EP        334  0.73                             129   -0.17 9  160 353 
 OCA  HN ES        334 21.94                             129   -0.86 9  160 353 
 SPBC HZ EP        334  1.50                             128    0.19 9  165 219 
 SPBC HN ES        334 22.75                             128   -0.78 9  165 219 
 SPBC HZ I         334 30.31        36.9 0.22            122            165 219 
 ZAR  HZ EP        334  5.33                             122    0.09 9  205 292 
 ZAR  HN ES        334 30.74                             122    0.21 9  205 292 
 NOR  HZ EP        334  9.09                             118    0.47 8  236 235 
 NOR  HE ES        334 36.91                             118    0.38 8  236 235 
 NOR  HZ I         334 40.64        17.7 0.14            112            236 235 
 SML  HZ EP        334  8.69                             117   -0.62 8  244 335 
 SML  HN ES        334 37.37                             117   -0.40 8  244 335 
 SML  HZ I         334 46.37        28.7 0.26            112            244 335 
 CHI  HZ EP        334 10.64                             116    0.11 8  250 195 
 CHI  HN ES        334 39.57                             116   -0.38 8  250 195 
 CHI  HZ I         334 49.12         7.0 0.42            111            250 195 
 HEL  HZ EP   1    334 13.53                             114    0.41 6  274 256 
 HEL  HZ I         334 50.55        10.6 0.50            109            274 256 
 GUY2CHZ EP        334 16.99                             112    0.46 7  303 235 
 GUY2CHN ES        334 50.63                             112    0.01 7  303 235 
 GUY2CHZ I         335  0.45        11.3 0.26                           303 235 
 PTGC HZ EP        334 15.74                             111   -0.87 7  309 159 
 PTGC HN ES        334 49.30                             111   -1.45 7  309 159 
 PTGC HZ I         334 51.50        16.2 0.36            107            309 159 
 CBOC HZ EP        334 20.37                             109    0.52 7  335 252 
 CBOC HN ES        334 56.86                             109    0.33 7  335 252 
 CBOC HZ I         335  6.19         2.9 0.16            105            335 252 
 MON  HZ EP   4    334 19.99                             108   -1.83 0  354 308 
 MON  HN ES   4    334 58.41                             108   -1.63 0  354 308 
 MON  HZ I         334 58.80        10.4 0.18            104            354 308 
 PRA  HZ EP        334 26.18                             106   -0.27 6  394 210 
 PRA  HN ES        335  7.96                             106   -0.31 6  394 210 
 PRA  HZ I         335 14.26        10.3 0.24            102            394 210 
 PAL  HZ IP     D  334 28.69                             105    0.57 6  407 239 
 MACC HZ EP   4    334 39.82                             101   -1.79 0  522 189 
 MACC HN I         335 36.46         8.1 0.30             98            522 189 
                                                                                
