 2014  310 0738 15.1 L   6.802 -73.169141.3  RSN  6 0.4 1.4LRSN                1
 GAP=133        0.80       3.3     4.0  8.5 -0.1364E+01  0.9669E+01 -0.1192E+01E
 Epicentro: LOS SANTOS - SANTANDER                                             3
 ACTION:UPD 14-04-09 23:15 OP:nd   STATUS:               ID:20140310073816dL   I
 OLDACT:REG 14-03-10 13:37 OP:fm   STATUS:               ID:20140310073744     3
 2014-03-10-0737-44M.COL___212                                                 6
 STAT SP IPHASW D HRMM SECON CODA AMPLIT PERI AZIMU VELO AIN AR TRES W  DIS CAZ7
 BAR2 SZ ES   2    738 49.82                             170    0.75 5 23.2 184 
 BAR2 SZ I         738 51.29         8.4 0.26            172           23.2 184 
 PAM  SZ EP        738 37.01                             149    0.0910 78.9  41 
 PAM  SN ES        738 53.81                             149   -0.1510 78.9  41 
 RUS  HZ EP        738 38.57                             142    0.1410  101 175 
 RUS  HE ES        738 56.63                             142   -0.0110  101 175 
 RUS  HZ I         738 57.29         2.0 0.24            146            101 175 
 PTB  HZ EP   1    738 41.42                             131   -0.04 7  145 259 
 PTB  HN ES        739  1.54                             131   -0.49 9  145 259 
 PTB  HZ I         739  4.86         3.6 0.14            133            145 259 
 OCA  HN ES        739  4.58                             128   -0.21 9  160 354 
 OCA  HZ I         739  7.73         4.6 0.26            130            160 354 
 ZAR  HN ES   1    739 12.76                             121    0.89 6  202 292 
                                                                                
