 2010  810 0711  1.9 L   6.763 -73.109146.0  RSN 11 0.5 2.4LRSN                1
 GAP=163        1.10       4.5     8.6  8.9 -0.1382E+02 -0.7128E+01  0.6044E+01E
 Epicentro: LOS SANTOS - SANTANDER                                             3
 ACTION:UP  10-09-07 10:53 OP:vdl  STATUS:               ID:20100810071102 L   I
 2010-08-10-0708-01S.COL___125                                                 6
 STAT SP IPHASW D HRMM SECON CODA AMPLIT PERI AZIMU VELO SNR AR TRES W  DIS CAZ7
 BAR2 SZ EP        711 21.12                             171    -0.310   21 204 
 BAR2 SZ ES   2    711 36.02                             171    -0.7 5   21 204 
 BAR2 SZ I         711 38.05        49.8 0.34                            21 204 
 GIR2 SZ EP   1    711 21.19                             166    -0.5 7   36 345 
 BRR  HZ IP     C  711 23.01                             151    -0.310   77 300 
 BRR  HZ I         711 23.21        86.4 0.15                            77 300 
 BRR  HE ES        711 40.56                             151     0.410   77 300 
 RUS  HZ EP   1    711 25.32                             145     0.0 7   96 178 
 RUS  HN ES   1    711 43.75                             145     0.1 7   96 178 
 RUS  HZ I         711 47.00        22.8 0.46                            96 178 
 GUE  SZ EP   1    711 27.15                             139     0.3 7  120  10 
 GUE  SZ I         711 51.10        11.5 0.18                           120  10 
 GRA  SZ EP        711 27.94                             137     0.610  129  15 
 GRA  SZ ES        711 47.66                             137     0.410  129  15 
 GRA  SZ I         711 50.34        25.9 0.36                           129  15 
 OCA  SZ EP   1    711 29.88                             129    -0.7 7  165 352 
 OCA  SZ ES   1    711 52.42                             129    -0.6 7  165 352 
 OCA  SZ I         711 57.27        47.2 0.29                           165 352 
 CHI  HZ EP   2    711 38.95                             118    -0.3 4  246 196 
 CHI  HE ES   2    712  9.39                             118     0.9 4  246 196 
 CHI  HZ I         712 14.19        11.7 0.42                           246 196 
 GUY  SZ EP   2    711 46.00                             112     0.4 4  302 236 
 GUY  SE ES   2    712 19.79                             112     0.1 4  302 236 
 GUY  SZ I         712 26.38        32.1 0.80                           302 236 
 RREF HE ES   2    712 24.72                             111     0.6 3  322 230 
 RREF HZ I         712 30.26        14.8 0.52                           322 230 
 PRA  HZ EP   2    711 54.42                             107    -0.8 3  391 210 
 PRA  HE ES   2    712 37.56                             107     0.7 3  391 210 
 PRA  HZ I         712 41.07        12.2 0.41                           391 210 
                                                                                
