 2016  110 0935  1.6 L   6.810 -73.131148.7  RSN  6 0.4 1.2LRSN                1
 GAP=138        0.90       3.8     6.1  6.1  0.3727E+01  0.8876E+01 -0.3647E+01E
 Epicentro: LOS SANTOS - SANTANDER                                             3
 ACTION:UPD 16-03-09 23:24 OP:cam  STATUS:               ID:20160110093501 L   I
 OLDACT:REG 16-01-10 12:42 OP:drio STATUS:               ID:20160110092751     3
 2016-01-10-0927-51M.COL___229                                                 6
 STAT SP IPHASW D HRMM SECON CODA AMPLIT PERI AZIMU VELO AIN AR TRES W  DIS CAZ7
 BAR2 EZ EP        935 21.56                             170   -0.0710 24.7 193 
 BAR2 EZ ES        935 37.01                             170   -0.2210 24.7 193 
 BAR2 EZ I         935 39.16         4.7 0.26            169           24.7 193 
 BRR  HZ EP        935 23.27                             153    0.1410 72.1 297 
 BRR  HE ES        935 40.33                             153    0.4210 72.1 297 
 PAM  EZ EP        935 24.46                             152    0.4210 75.5  39 
 PAM  EN ES        935 41.52                             152   -0.0010 75.5  39 
 PAM  EZ I         935 43.54         2.6 0.58            155           75.5  39 
 RUS  HZ EP        935 26.03                             144    0.3010  102 177 
 RUS  HE ES        935 43.99                             144   -0.5410  102 177 
 RUS  HZ I         935 45.45         1.1 0.34            147            102 177 
 PTB  HZ EP        935 29.21                             132    0.23 9  150 259 
 PTB  HN ES   4    935 48.56                             132   -1.77 0  150 259 
 PTB  HZ I         935 56.24         1.5 0.24            131            150 259 
 SML  HZ EP        935 37.78                             118   -0.59 8  243 335 
 SML  HE ES        936  6.60                             118   -0.44 8  243 335 
 SML  HZ I         936 14.90         2.5 0.24            118            243 335 
                                                                                
