 2013  610 0910 11.8 L   6.804 -73.137152.2  RSN  6 0.4 1.6LRSN                1
 GAP=184        0.74       4.7     6.0  8.2  0.8200E+01 -0.6064E+01 -0.1933E+02E
 Epicentro: LOS SANTOS - SANTANDER                                             3
 ACTION:UPD 14-01-08 09:53 OP:ep   STATUS:               ID:20130610091011 L   I
 OLDACT:UP  13-06-10 12:29 OP:cam  STATUS:               ID:20130610090959     3
 OLDACT:REG 13-06-10 08:22 OP:cam  STATUS:               ID:20130610090959     3
 2013-06-10-0909-59M.COL___261                                                 6
 STAT SP IPHASW D HRMM SECON CODA AMPLIT PERI AZIMU VELO AIN AR TRES W  DIS CAZ7
 BAR2 SZ EP   1    910 32.12                             171   -0.10 7 23.9 192 
 BAR2 SZ ES   2    910 47.55                             171   -0.60 5 23.9 192 
 BRR  HZ EP        910 34.07                             154    0.3810 71.9 298 
 BRR  HE ES   1    910 51.50                             154    0.73 7 71.9 298 
 RUS  HZ EP   2    910 36.53                             145    0.31 5  101 177 
 RUS  HN ES        910 55.17                             145   -0.1010  101 177 
 RUS  HZ I         910 57.34         2.7 0.48            146            101 177 
 PTB  HZ EP   2    910 39.08                             134   -0.32 5  149 259 
 PTB  HN ES        911  0.57                             134   -0.36 9  149 259 
 PTB  HZ I         911  2.36         4.1 0.16            134            149 259 
 OCA  HN ES   2    911  2.49                             131   -0.57 5  160 353 
 SML  HZ EP        910 48.79                             119   -0.01 8  244 335 
 SML  HN ES   2    911 17.30                             119   -0.36 4  244 335 
 SML  HZ I         911 20.00         7.0 0.10            120            244 335 
                                                                                
