 2017  310 0245 42.7 L   6.781 -73.129148.5  RSN  6 0.3 1.4LRSN                1
 GAP=140        0.64       2.8     3.2  4.5 -0.2243E+00  0.2980E+01  0.8954E+00E
 Epicentro: LOS SANTOS - SANTANDER                                             3
 ACTION:UPD 17-05-25 18:38 OP:jn   STATUS:               ID:20170310024542 L   I
 OLDACT:REG 17-03-10 12:15 OP:ar   STATUS:               ID:20170310023744     3
 2017-03-10-0238-00M.COL___403                                                 6
 STAT SP IPHASW D HRMM SECON CODA AMPLIT PERI AZIMU VELO AIN AR TRES W  DIS CAZ7
 BAR2 EZ EP        246  2.48                             171   -0.1310 21.7 196 
 BAR2 EZ ES        246 18.42                             171    0.2710 21.7 196 
 BAR2 EZ I         246 20.16         7.9 0.40            168           21.7 196 
 BRR  HZ EP        246  4.37                             152    0.0910 73.9 299 
 BRR  HN ES        246 21.32                             152    0.2010 73.9 299 
 PAM  EZ IP     D  246  5.42                             151    0.2010 77.9  37 
 PAM  EN ES        246 22.61                             151   -0.1810 77.9  37 
 PAM  EZ I         246 23.08         2.3 0.40            146           77.9  37 
 RUS  HZ EP        246  6.28                             145   -0.2710 98.4 177 
 RUS  HN ES        246 25.11                             145   -0.0510 98.4 177 
 RUS  HZ I         246 26.60         2.1 0.36            140           98.4 177 
 SPBC HZ EP        246 11.45                             130    0.10 9  163 220 
 SPBC HN ES        246 33.74                             130    0.03 9  163 220 
 SPBC HZ I         246 38.25         5.1 0.20            122            163 220 
 ZAR  HZ EP   2    246 16.39                             123    0.82 4  207 292 
 ZAR  HZ I         246 39.50         2.6 0.38            114            207 292 
 ZAR  HN ES        246 40.69                             123   -0.53 8  207 292 
                                                                                
