 2012  710 0440 47.1 L   6.655 -73.150150.0  RSN  4 0.5 1.3LRSN                1
 GAP=259        1.11      15.3    10.5 14.0  0.6013E+00 -0.2013E+02  0.5747E+02E
 Epicentro: VILLANUEVA - SANTANDER                                             3
 ACTION:UPD 12-08-14 11:43 OP:ep   STATUS:               ID:20120710044047 L   I
 2012-07-10-0440-00M.COL___201                                                 6
 STAT SP IPHASW D HRMM SECON CODA AMPLIT PERI AZIMU VELO AIN AR TRES W  DIS CAZ7
 BAR2 SZ EP   1    441  6.54                             177    -0.5 7    8 208 
 BAR2 SZ I         441 24.84         3.7 0.27            164              8 208 
 BRR  HZ EP   1    441  9.97                             150     0.7 7   80 309 
 BRR  HZ I         441 10.25         6.5 0.17            160             80 309 
 BRR  HN ES        441 26.46                             150     0.010   80 309 
 PTB  HZ EP   1    441 14.72                             133     0.5 7  145 265 
 PTB  HN ES        441 35.25                             133    -0.1 9  145 265 
 PTB  HZ I         441 37.79         1.3 0.19            136            145 265 
 ZAR  HZ EP   1    441 19.79                             122    -0.7 6  210 296 
 ZAR  HN ES   1    441 46.42                             122    -0.1 6  210 296 
 ZAR  HZ I         441 53.14         1.9 0.15            124            210 296 
