 2010  510 0259  4.1 L   6.815 -73.073142.2  RSN  7 0.6 1.9LRSN                1
 GAP=167        1.47       6.3    20.4 13.0 -0.3881E+02  0.4829E+02 -0.1493E+02E
 Epicentro: LOS SANTOS - SANTANDER                                             3
 ACTION:UP  10-08-24 10:03 OP:vdl  STATUS:               ID:20100510025904 L   I
 2010-05-10-0255-06S.COL___104                                                 6
 STAT SP IPHASW D HRMM SECON CODA AMPLIT PERI AZIMU VELO SNR AR TRES W  DIS CAZ7
 BAR2 SZ EP        259 23.39                             169     0.010   28 206 
 BAR2 SZ ES   1    259 38.16                             169    -0.3 7   28 206 
 BRR  HZ EP        259 25.96                             150     0.710   78 295 
 BRR  HZ I         259 27.36         8.5 0.28                            78 295 
 RUS  HZ EP        259 27.44                             143    -0.210  102 181 
 RUS  HE ES   1    259 46.06                             143     0.1 7  102 181 
 GUE  SZ EP        259 29.49                             140     1.210  113   8 
 GRA  SZ EP        259 28.15                             137    -0.610  122  14 
 GRA  SZ ES   1    259 47.54                             137    -0.4 7  122  14 
 OCA  SZ EP        259 31.57                             129    -0.5 9  160 350 
 OCA  SZ ES   1    259 53.43                             129    -0.5 7  160 350 
 OCA  SZ I         259 59.23         8.5 0.28                           160 350 
 PRA  HZ EP        259 57.63                             106    -0.5 6  397 210 
 PRA  HE ES   3    3 0 39.60                             106    -0.7 1  397 210 
 PRA  HZ I         3 0 46.09         3.2 0.46                           397 210 
                                                                                
