 2015  110 0925 46.1 L   6.824 -73.171145.6  RSN  7 0.2 1.6LRSN                1
 GAP=199        0.62       2.4     3.7  3.8  0.4180E+01  0.1155E+01 -0.6766E+00E
 Epicentro: LOS SANTOS - SANTANDER                                             3
 ACTION:UPD 15-03-02 15:38 OP:nd   STATUS:               ID:20150110092546 L   I
 OLDACT:UP  15-01-10 17:08 OP:cam  STATUS:               ID:20150110091810d    3
 OLDACT:UP  15-01-10 17:08 OP:cam  STATUS:               ID:20150110091810d    3
 OLDACT:DUP 15-01-10 17:03 OP:cam  STATUS:               ID:20150110091810d    3
 2015-01-10-0918-09M.COL___262                                                 6
 STAT SP IPHASW D HRMM SECON CODA AMPLIT PERI AZIMU VELO AIN AR TRES W  DIS CAZ7
 BAR2 EZ EP        926  5.93                             170    0.1310 25.6 183 
 BAR2 EZ ES        926 21.15                             170    0.0210 25.6 183 
 BAR2 EZ I         926 22.47         8.7 0.20            170           25.6 183 
 BRR  HN ES        926 23.74                             154    0.3510 67.5 298 
 RUS  HZ EP        926 10.26                             143    0.1810  103 175 
 RUS  HN ES        926 28.37                             143   -0.3910  103 175 
 RUS  HZ I         926 30.08         3.5 0.44            145            103 175 
 PTB  HZ EP        926 12.63                             132   -0.27 9  146 258 
 PTB  HN ES        926 33.79                             132    0.02 9  146 258 
 PTB  HZ I         926 39.67         4.0 0.26            132            146 258 
 ZAR  HZ EP        926 18.62                             123    0.41 9  201 292 
 ZAR  HN ES        926 42.99                             123   -0.23 9  201 292 
 SML  HZ EP        926 22.18                             118   -0.19 8  240 336 
 SML  HN ES        926 50.37                             118   -0.26 8  240 336 
 SML  HZ I         927  0.45         5.6 0.10            118            240 336 
 CHI  HZ EP        926 24.17                             117    0.14 8  250 194 
 CHI  HN ES        926 53.58                             117   -0.00 8  250 194 
 CHI  HZ I         926 56.83         3.5 0.50            118            250 194 
                                                                                
