 2012  510 0938 56.7 L   6.800 -73.130143.5  RSN  5 0.2 1.4LRSN                1
 GAP=239        0.50       6.4     6.6  8.2  0.2142E+02  0.4616E-01 -0.2329E+01E
 Epicentro: LOS SANTOS - SANTANDER                                             3
 ACTION:UP  12-07-05 12:04 OP:pat  STATUS:               ID:20120510093856 L   I
 2012-05-10-0934-37M.COL___187                                                 6
 STAT SP IPHASW D HRMM SECON CODA AMPLIT PERI AZIMU VELO SNR AR TRES W  DIS CAZ7
 BAR2 SZ EP   2    939 16.14                             171     0.1 5   24 194 
 BAR2 SZ I         939 16.87         6.1 0.47                            24 194 
 BRR  HZ EP        939 17.91                             152     0.210   73 298 
 BRR  HZ I         939 18.57         4.0 0.26                            73 298 
 BRR  HE ES   2    939 33.56                             152    -0.5 5   73 298 
 RUS  HZ EP   1    939 20.13                             143    -0.1 7  100 177 
 RUS  HN ES   2    939 38.61                             143     0.1 5  100 177 
 PTB  HZ EP        939 23.40                             131    -0.2 9  149 259 
 PTB  HE ES   2    939 44.87                             131     0.2 5  149 259 
 ZAR  HE ES   3    939 54.82                                     0.4 2  206 292 
                                                                                
