 2010  310 0107 42.6 L   6.791 -73.042149.3  RSN 10 0.4 2.3LRSN                1
 GAP=170        1.11       3.8     8.3  7.3 -0.9563E+01 -0.2774E+00  0.3452E+01E
 Epicentro: LOS SANTOS - SANTANDER                                             3
 ACTION:UP  10-08-24 09:53 OP:vdl  STATUS:               ID:20100310010742 L   I
 2010-03-10-0104-35S.COL___062                                                 6
 STAT SP IPHASW D HRMM SECON CODA AMPLIT PERI AZIMU VELO SNR AR TRES W  DIS CAZ7
 BAR2 SZ IP        1 8  2.83                             169     0.110   27 215 
 BAR2 SZ ES   1    1 8 17.90                             169    -0.6 7   27 215 
 BRR  HZ IP        1 8  4.68                             150    -0.110   82 295 
 BRR  HZ I         1 8  4.96        94.0 0.18                            82 295 
 BRR  HN ES        1 8 22.37                             150     0.310   82 295 
 RUS  HZ EP        1 8  6.65                             145     0.010   99 183 
 RUS  HN ES        1 8 25.34                             145     0.010   99 183 
 RUS  HZ I         1 8 26.65        14.6 0.28                            99 183 
 GUE  SZ IP        1 8  6.81                             140    -0.810  116   6 
 GRA  SZ IP        1 8  8.58                             138     0.610  124  12 
 GRA  SZ ES        1 8 28.27                             138     0.410  124  12 
 OCA  SZ EP   1    1 8 10.95                             130    -0.5 7  163 349 
 OCA  SZ ES   1    1 8 33.67                             130    -0.3 7  163 349 
 OCA  SZ I         1 8 38.64        63.7 0.25                           163 349 
 CHI  HZ EP        1 8 20.94                             118     0.2 8  251 198 
 CHI  HZ I         1 8 23.45         7.1 0.34                           251 198 
 CHI  HN ES   1    1 8 50.85                             118     0.3 6  251 198 
 HEL  HZ EP   2    1 8 24.54                             114     0.3 4  283 257 
 HEL  HZ I         1 9  1.43        11.0 0.38                           283 257 
 RREF HZ EP   1    1 8 30.84                             111     1.0 5  330 231 
 RREF HE ES   1    1 9  5.96                             111    -0.7 5  330 231 
 RREF HZ I         1 9 11.77         8.1 0.33                           330 231 
 PRA  HZ EP   1    1 8 36.34                             107    -0.5 4  397 211 
 PRA  HZ I         1 8 38.38         5.5 0.24                           397 211 
                                                                                
