 2016  610 0708 50.5 L   6.818 -73.156146.8  RSN 26 0.5 2.9LRSN                1
 GAP= 70        1.11       3.0     3.0  4.9 -0.1390E+01  0.4299E+01  0.3388E+01E
 Epicentro: LOS SANTOS - SANTANDER                                             3
 ACTION:UPD 16-07-21 22:17 OP:rebc STATUS:               ID:20160610070850 L   I
 OLDACT:UP  16-06-10 18:19 OP:dani STATUS:               ID:20160610070743     3
 OLDACT:REG 16-06-10 13:28 OP:dani STATUS:               ID:20160610070743     3
 2016-06-10-0707-43M.COL___337                                                 6
 STAT SP IPHASW D HRMM SECON CODA AMPLIT PERI AZIMU VELO AIN AR TRES W  DIS CAZ7
 BAR2 EZ EP        7 9 10.22                             170   -0.0310 25.1 187 
 BAR2 EZ ES        7 9 24.85                             170   -0.8510 25.1 187 
 BAR2 EZ I         7 9 26.89       126.4 0.20                          25.1 187 
 BRR  HZ EP     C  7 9 12.01                             153    0.3910 69.3 298 
 BRR  HE ES        7 9 29.31                             153    1.1910 69.3 298 
 BRR  HZ I         7 9 32.34       102.7 0.28                          69.3 298 
 PAM  EZ EP        7 9 13.04                             151    0.3010 76.6  41 
 PAM  EN ES        7 9 30.16                             151    0.0410 76.6  41 
 PAM  EZ I         7 9 30.82        67.6 0.20                          76.6  41 
 RUS  HZ EP        7 9 14.23                             143   -0.2310  103 176 
 RUS  HN ES        7 9 33.15                             143   -0.0410  103 176 
 RUS  HZ I         7 9 33.87        68.4 0.20                           103 176 
 PTB  HZ EP        7 9 16.73                             132   -0.72 9  147 258 
 PTB  HN ES        7 9 37.90                             132   -0.61 9  147 258 
 PTB  HZ I         7 9 44.69        70.7 0.40                           147 258 
 TAM  HZ EP        7 9 18.63                             130    0.26 9  157 106 
 TAM  HZ I         7 9 39.51        37.2 0.30                           157 106 
 TAM  HE ES        7 9 40.34                             130    0.21 9  157 106 
 OCA  HZ EP        7 9 18.24                             130   -0.42 9  158 353 
 OCA  HN ES        7 9 40.17                             130   -0.48 9  158 353 
 OCA  HZ I         7 9 48.55       141.7 0.26                           158 353 
 SPBC HZ EP        7 9 19.08                             129   -0.04 9  164 218 
 SPBC HE ES        7 9 42.01                             129    0.53 9  164 218 
 SPBC HZ I         7 9 45.59       139.4 0.20                           164 218 
 NOR  HZ EP        7 9 26.29                             119    0.01 8  235 234 
 NOR  HN ES        7 9 53.83                             119   -0.39 8  235 234 
 NOR  HZ I         710  3.55        46.9 0.14                           235 234 
 CHI  HZ EP        7 9 28.42                             117    0.03 8  250 195 
 CHI  HE ES        7 9 57.87                             117   -0.11 8  250 195 
 CHI  HZ I         710  2.60        39.2 0.44                           250 195 
 ROSC BZ EP   4    7 9 30.38                             117    1.62 0  254 211 
 ROSC BE ES   4    710  0.31                             117    1.68 0  254 211 
 ROSC BZ I         710  4.73       121.4 0.40                           254 211 
 HEL  HZ EP        7 9 31.45                             115    0.79 8  272 255 
 HEL  HN ES        710  2.50                             115    0.48 8  272 255 
 HEL  HZ I         710  8.22        39.0 0.28                           272 255 
 URE  HZ EP   4    7 9 29.59                             114   -1.79 0  282 292 
 URE  HN ES   4    710  0.89                             114   -2.42 0  282 292 
 URE  HZ I         710  9.10        40.9 0.16                           282 292 
 GUY2CHZ EP        7 9 34.24                             112    0.10 7  301 234 
 GUY2CHN ES   4    710 12.32                             112    4.10 0  301 234 
 GUY2CHZ I         710 16.28        42.2 0.34                           301 234 
 VIL  SZ EP        7 9 33.92                             112   -0.20 7  305 191 
 VIL  SN ES        710  7.95                             112   -0.22 7  305 191 
 PTGC HZ EP   4    7 9 33.30                             112   -1.32 0  311 159 
 PTGC HE ES   4    710  6.71                             112   -2.35 0  311 159 
 PTGC HZ I         710 20.33        12.1 0.44                           311 159 
 ELA  HZ EP   4    7 9 38.97                             110    1.56 0  330 229 
 ELA  HE ES   4    710 16.62                             110    2.60 0  330 229 
 ELA  HZ I         710 22.81        26.0 0.56                           330 229 
 CBOC HZ EP        7 9 37.80                             110    0.43 7  333 252 
 CBOC HN ES        710 13.28                             110   -0.68 7  333 252 
 DBB  SZ EP        7 9 38.26                             110    0.42 7  338 274 
 DBB  SZ ES        710 14.34                             110   -0.45 7  338 274 
 DBB  SZ I         710 15.50        99.9 0.30                           338 274 
 ARGC HZ EP   4    7 9 40.22                             109    0.32 0  357 340 
 ARGC HE ES   4    710 18.98                             109    0.52 0  357 340 
 ARGC HZ I         710 25.89         9.2 0.30                           357 340 
 ANIL HZ EP   4    7 9 41.57                             109    1.19 0  358 224 
 ANIL HE ES        710 20.51                             109    1.19 6  358 224 
 ANIL HZ I         710 30.22        81.4 0.36                           358 224 
 PRA  HZ EP        7 9 43.88                             107   -0.27 6  393 209 
 PRA  HE ES   4    710 25.33                             107   -0.70 0  393 209 
 PRA  HZ I         710 32.19        41.0 0.72                           393 209 
 ORTC HZ EP        7 9 44.38                             106   -0.14 6  396 216 
 ORTC HN ES        710 26.65                             106   -0.05 6  396 216 
 ORTC HZ I         710 31.46        24.3 0.22                           396 216 
 PAL  HZ EP        7 9 45.70                             106    0.04 6  406 239 
 PAL  HE ES        710 28.89                             106    0.17 6  406 239 
 PAL  HN I         710 33.10        33.9 0.24                           406 239 
 SJC  HZ EP   4    7 9 43.83                             106   -1.96 0  407 327 
 SJC  HN ES   4    710 25.23                             106   -3.72 0  407 327 
 SJC  HZ I         710 40.09        10.2 0.46                           407 327 
 YOT  HZ EP        7 9 52.66                             103   -0.93 5  472 229 
 GARC HZ EP   4    710  4.18                             100   -1.70 0  574 207 
                                                                                
