 2014  510 0425 37.1 L   6.808 -73.166140.0  RSN 17 0.5 2.7LRSN                1
 GAP= 70        1.09       2.5     3.0  6.3 -0.5166E+00  0.6081E+01  0.2052E+01E
 Epicentro: LOS SANTOS - SANTANDER                                             3
 ACTION:UPD 15-03-16 16:56 OP:nd   STATUS:               ID:20140510042537 L   I
 OLDACT:REG 14-05-10 13:42 OP:carl STATUS:               ID:20140510041810     3
 2014-05-10-0418-10M.COL___227                                                 6
 STAT SP IPHASW D HRMM SECON CODA AMPLIT PERI AZIMU VELO AIN AR TRES W  DIS CAZ7
 PAM  SZ IP     C  425 59.21                             149    0.4510 78.2  41 
 PAM  SN ES        426 16.10                             149    0.4610 78.2  41 
 PAM  SZ I         426 18.49       153.0 0.52            155           78.2  41 
 RUS  HZ EP        426  0.30                             142   -0.0710  102 175 
 RUS  HE ES        426 18.23                             142   -0.2910  102 175 
 PTB  HZ EP        426  3.29                             131   -0.13 9  146 258 
 PTB  HE ES        426 24.54                             131    0.60 9  146 258 
 PTB  HZ I         426 26.68        66.5 0.22            132            146 258 
 TAM  HZ IP     C  426  4.71                             129    0.15 9  158 105 
 TAM  HN ES        426 26.02                             129    0.04 9  158 105 
 OCA  HZ EP        426  4.70                             128   -0.16 9  159 354 
 OCA  HN ES        426 26.41                             128   -0.10 9  159 354 
 SPBC HZ EP        426  5.21                             128    0.11 9  162 218 
 SPBC HE ES        426 26.39                             128   -0.54 9  162 218 
 SPBC HZ I         426 32.02        46.8 0.22            130            162 218 
 ZAR  HZ EP        426  9.47                             121    0.55 9  202 292 
 ZAR  HE ES        426 34.04                             121    0.30 9  202 292 
 ZAR  HZ I         426 40.09        67.4 0.50            123            202 292 
 NOR  HZ EP        426 12.88                             117    0.52 8  233 234 
 NOR  HN ES        426 40.31                             117    0.45 8  233 234 
 NOR  HZ I         426 46.08        28.9 0.24            119            233 234 
 SML  HZ EP        426 12.48                             116   -0.74 8  242 336 
 SML  HN ES        426 39.91                             116   -1.48 8  242 336 
 CHI  HZ EP        426 14.59                             116    0.07 8  249 195 
 CHI  HN ES        426 43.26                             116   -0.44 8  249 195 
 ROSC BZ EP   4    426 16.45                             115    1.58 0  252 210 
 ROSC BE ES   4    426 45.21                             115    0.88 0  252 210 
 HEL  HZ EP        426 16.89                             114    0.08 8  270 255 
 HEL  HN ES        426 47.14                             114   -0.64 8  270 255 
 HEL  HZ I         426 55.37        29.1 0.42            116            270 255 
 URE  HZ EP   4    426 16.92                             113   -0.70 0  281 292 
 URE  HE ES   4    426 48.11                             113   -1.12 0  281 292 
 VIL  SZ EP        426 20.01                             111   -0.30 7  304 191 
 VIL  SE ES        426 53.47                             111   -0.55 7  304 191 
 CBOC HZ EP        426 24.42                             109    0.85 7  332 252 
 CBOC HE ES   4    426 57.32                             109   -2.49 0  332 252 
 DBB  SZ EP        426 24.53                             109    0.45 7  337 274 
 DBB  SZ ES        427  0.81                             109    0.09 7  337 274 
 ANIL HE ES        427  4.70                             107   -0.47 6  356 224 
 PRA  HZ EP        426 29.77                             106   -0.62 6  392 209 
 PRA  HN ES        427 11.72                             106   -0.24 6  392 209 
 PRA  HZ I         427 18.50        23.4 0.38            108            392 209 
 ORTC HZ EP        426 31.71                             105    0.95 6  395 216 
 ORTC HN ES        427 13.02                             105    0.41 6  395 216 
 ORTC HZ I         427 19.23        13.3 0.36            107            395 216 
                                                                                
