 2011  910 0142 25.3 L   6.804 -73.024139.3  RSN 10 0.3 2.1LRSN                1
 GAP=153        0.44       2.7     4.0  5.1 -0.2712E+01  0.6744E+01 -0.4521E+00E
 Epicentro: CEPITA - SANTANDER                                                 3
 ACTION:UPD 12-07-13 15:56 OP:ep   STATUS:               ID:20110910014225 L   I
 2011-09-10-0140-00M.COL___171                                                 6
 STAT SP IPHASW D HRMM SECON CODA AMPLIT PERI AZIMU VELO AIN AR TRES W  DIS CAZ7
 BAR2 SZ EP   1    142 44.31                             168    0.04 7 29.2 217 
 BAR2 SZ ES   2    142 59.04                             168   -0.04 5 29.2 217 
 BAR2 SZ I         143  0.65        31.3 0.30                          29.2 217 
 GIR2 SZ EP   3    142 44.33                             165    0.02 2 35.7 328 
 PAM  SZ EP   2    142 46.99                             152    0.67 5 69.3  31 
 PAM  SN ES   2    143  3.11                             152    0.37 5 69.3  31 
 BRR  HZ EP   1    142 46.30                             147   -0.17 7 83.0 294 
 BRR  HN ES   2    143  2.87                             147   -0.12 5 83.0 294 
 BRR  HZ I         143  7.31        20.6 0.15                          83.0 294 
 RUS  HZ EP   1    142 48.26                             142   -0.16 7  101 184 
 RUS  HN ES   2    143  6.31                             142   -0.17 5  101 184 
 RUS  HZ I         143  7.87         8.3 0.52                           101 184 
 OCA  SZ EP   2    142 53.19                             128   -0.07 5  162 348 
 OCA  SZ ES   2    143 14.59                             128   -0.49 5  162 348 
 OCA  SZ I         143 17.74        19.7 0.20                           162 348 
 NOR  SN ES   2    143 30.32                             116   -0.09 4  246 236 
 HEL  HZ EP   2    143  6.16                             112   -0.48 4  285 256 
 HEL  HN ES   2    143 39.65                             112    0.75 4  285 256 
 HEL  HZ I         143 43.50         4.5 0.60                           285 256 
 GUY  SZ EP   2    143 10.44                             110    0.29 3  315 236 
 GUY  SE ES   2    143 45.44                             110    0.29 3  315 236 
 GUY  SZ I         143 53.10         6.6 0.49                           315 236 
 COD  HZ I         143 30.66        12.8 0.66                           349 352 
 COD  HN ES   2    143 51.23                             108    0.06 3  349 352 
                                                                                
