 2010  610 0755 31.2 L   6.781 -73.178140.7  RSN  5 0.5 1.6LRSN                1
 GAP=155        0.92       6.0    12.0 14.3 -0.3853E+02  0.6334E+02 -0.4677E+01E
 Epicentro: LOS SANTOS - SANTANDER                                             3
 ACTION:UP  10-08-24 10:09 OP:vdl  STATUS:               ID:20100610075531 L   I
 2010-06-10-0754-16S.COL___111                                                 6
 STAT SP IPHASW D HRMM SECON CODA AMPLIT PERI AZIMU VELO SNR AR TRES W  DIS CAZ7
 RUS  HZ EP   2    755 54.11                             143    -0.2 5   99 174 
 RUS  HZ I         755 55.29         4.5 0.13                            99 174 
 RUS  HN ES   2    756 12.29                             143    -0.1 5   99 174 
 GUE  SZ EP        755 56.09                             138     0.410  119  14 
 GUE  SZ ES   1    756 15.41                             138     0.6 7  119  14 
 GRA  SZ EP        755 55.83                             135    -0.410  129  19 
 GRA  SZ ES   1    756 15.24                             135    -0.6 7  129  19 
 CHI  HE ES   2    756 37.54                             116     0.3 4  246 194 
 HEL  HZ EP   2    756 11.42                             114     0.7 4  268 256 
 HEL  HN ES   2    756 40.98                             114    -0.6 4  268 256 
 HEL  HZ I         756 48.57         2.9 0.25                           268 256 
                                                                                
