 2013  810 0934 13.2 L   6.807 -73.116143.3  RSN  8 0.5 1.8LRSN                1
 GAP=140        1.08       4.9     5.9  8.6 -0.5234E+01  0.1582E+02 -0.6587E+00E
 Epicentro: LOS SANTOS - SANTANDER                                             3
 ACTION:UPD 14-01-14 09:00 OP:ep   STATUS:               ID:20130810093413 L   I
 OLDACT:REG 13-08-10 07:46 OP:carl STATUS:               ID:20130810092959     3
 2013-08-10-0929-59M.COL___271                                                 6
 STAT SP IPHASW D HRMM SECON CODA AMPLIT PERI AZIMU VELO AIN AR TRES W  DIS CAZ7
 BAR2 SZ EP   1    934 32.43                             170   -0.16 7 24.8 197 
 BAR2 SZ ES   1    934 46.97                             170   -0.72 7 24.8 197 
 BAR2 SZ I         934 49.58         8.5 0.14            169           24.8 197 
 BRR  HZ EP        934 34.11                             151   -0.1410 73.7 297 
 BRR  HN ES   1    934 51.15                             151    0.50 7 73.7 297 
 BRR  HN I         934 51.53        47.4 0.26            151           73.7 297 
 PAM  SZ EP        934 35.28                             151    0.2610 74.8  38 
 PAM  SN ES   1    934 52.29                             151    0.27 7 74.8  38 
 PAM  SE I         934 54.47        11.0 0.46            155           74.8  38 
 RUS  HZ EP        934 36.57                             143   -0.2110  101 178 
 RUS  HE ES        934 55.58                             143    0.4310  101 178 
 RUS  HZ I         934 57.59         3.0 0.38            145            101 178 
 PTB  HZ EP   4    934 38.99                             131   -1.31 0  151 259 
 PTB  HN ES   4    935  0.19                             131   -1.22 0  151 259 
 PTB  HZ I         935  2.83         6.0 0.20            132            151 259 
 SPBC HZ EP        934 41.10                             128   -0.69 9  166 220 
 SPBC HN ES        935  3.83                             128   -0.24 9  166 220 
 SPBC HZ I         935  9.75         6.2 0.20            130            166 220 
 ZAR  HZ EP   1    934 46.38                             121    0.59 6  207 292 
 ZAR  HN ES   1    935 10.56                             121   -0.64 6  207 292 
 ZAR  HZ I         935 15.80         5.1 0.28            123            207 292 
 GUY2CHN ES        935 32.29                             112    1.02 7  304 235 
 GUY2CHN I         935 39.39         3.7 0.78                           304 235 
                                                                                
