 2010  810 0908 58.0 L   6.799 -73.049147.8  RSN  7 0.2 1.8LRSN                1
 GAP=175        0.43       2.6     6.3  4.8  0.1052E+01 -0.7786E+01  0.2585E+01E
 Epicentro: LOS SANTOS - SANTANDER                                             3
 ACTION:UP  10-09-07 10:53 OP:vdl  STATUS:               ID:20100810090857 L   I
 2010-08-10-0906-53S.COL___125                                                 6
 STAT SP IPHASW D HRMM SECON CODA AMPLIT PERI AZIMU VELO SNR AR TRES W  DIS CAZ7
 BAR2 SZ EP        9 9 18.05                                     0.110   27 213 
 BAR2 SZ ES   2    9 9 33.10                             169    -0.4 5   27 213 
 BAR2 SZ I         9 9 34.64        20.1 0.22                            27 213 
 BRR  HZ EP   1    9 9 19.83                             150    -0.1 7   81 295 
 BRR  HN ES   1    9 9 37.21                             150     0.2 7   81 295 
 BRR  HZ I         9 9 40.64         8.6 0.11                            81 295 
 RUS  HZ EP   1    9 9 21.87                             144    -0.1 7  100 182 
 RUS  HE ES   2    9 9 40.86                             144     0.3 5  100 182 
 RUS  HZ I         9 9 41.86         7.1 0.36                           100 182 
 GUE  SZ EP   2    9 9 22.85                             140     0.1 5  115   7 
 OCA  SZ EP   2    9 9 26.84                             130     0.2 5  162 349 
 OCA  SZ ES   2    9 9 48.60                             130    -0.4 5  162 349 
 OCA  SZ I         9 9 52.57         5.4 0.50                           162 349 
 CHI  HZ EP   1    9 9 36.25                             117     0.1 6  252 198 
 CHI  HE ES   2    910  5.55                             117    -0.3 4  252 198 
 CHI  HZ I         910 10.97         2.6 0.32                           252 198 
 PRA  HZ EP   2    9 9 51.69                             107    -0.5 3  397 211 
 PRA  HE ES   2    910 34.57                             107     0.1 3  397 211 
 PRA  HZ I         910 39.87         3.2 0.37                           397 211 
                                                                                
