 2012  410 0317 17.5 L   6.612 -73.179 20.3  RSN  5 0.4 2.1LRSN                1
 GAP=139        1.02       2.6     3.3  3.6 -0.2223E+00  0.4219E+01 -0.8089E+00E
 Epicentro: BARICHARA - SANTANDER                                              3
 ACTION:UPD 12-07-05 11:52 OP:tino STATUS:               ID:20120410031717 L   I
 2012-04-10-0310-00M.COL___199                                                 6
 STAT SP IPHASW D HRMM SECON CODA AMPLIT PERI AZIMU VELO AIN AR TRES W  DIS CAZ7
 BAR2 SZ IP     D  317 21.55                             173     0.410    2 191 
 BAR2 SZ ES        317 23.82                             173    -0.210    2 191 
 BAR2 SZ I         317 25.24       344.4 0.10                             2 191 
 RUS  HZ EP        317 31.14                             102     0.110   80 172 
 RUS  HN ES   1    317 41.10                             102    -0.5 7   80 172 
 BRR  HZ EP        317 30.81                             102     0.310   80 313 
 BRR  HZ I         317 31.11        58.1 0.15                            80 313 
 BRR  HE ES        317 40.44                             102    -0.310   80 313 
 PAM  SZ EP        317 33.78                             100     0.410   96  33 
 PAM  SN ES        317 45.33                             100    -0.510   96  33 
 PTB  HZ EP        317 39.42                              56     0.4 9  142 267 
 PTB  HE ES   1    317 55.22                              56    -0.6 7  142 267 
                                                                                
