 2016 1110 0651 43.3 L   6.801 -73.097142.1  RSN 10 0.4 1.8LRSN                1
 GAP=160        1.01       5.3     4.6  5.7 -0.4791E+01  0.7508E+01  0.3967E+01E
 Epicentro: LOS SANTOS - SANTANDER                                             3
 ACTION:UPD 17-10-26 21:06 OP:lp   STATUS:               ID:20161110065143 L   I
 OLDACT:REG 16-11-10 12:13 OP:lv   STATUS:               ID:20161110064742     3
 2016-11-10-0648-00M.COL___340                                                 6
 STAT SP IPHASW D HRMM SECON CODA AMPLIT PERI AZIMU VELO AIN AR TRES W  DIS CAZ7
 BAR2 EZ EP        652  2.24                             170   -0.3310 24.9 202 
 BAR2 EZ ES        652 16.96                             170   -0.6110 24.9 202 
 BAR2 EZ I         652 17.93        18.7 0.22            170           24.9 202 
 PAM  EZ EP        652  5.29                             151    0.3210 74.0  36 
 PAM  EN ES        652 22.03                             151    0.1910 74.0  36 
 PAM  EZ I         652 24.45        10.8 0.46            152           74.0  36 
 BRR  HZ IP     C  652  4.16                             150   -0.2110 75.9 297 
 BRR  HN ES        652 21.35                             150    0.5710 75.9 297 
 BRR  HZ I         652 25.21        12.9 0.12            148           75.9 297 
 PTB  HZ EP   9    652  9.39                             130   -1.11 0  153 259 
 PTB  HE ES        652 29.77                                   -0.81 9  153 259 
 PTB  HZ I         652 32.71        11.3 0.15            130            153 259 
 ZAR  HZ EP        652 15.51                             121   -0.55 8  209 292 
 ZAR  HE ES        652 41.59                             121   -0.00 8  209 292 
 ZAR  HZ I         652 48.17         7.0 0.30            121            209 292 
 NOR  HE ES   4    652 46.04                             117   -1.38 0  239 235 
 NOR  HZ I         652 48.07         3.5 0.15            118            239 235 
 CHI  HZ EP   9    652 20.91                             116   -0.10 0  250 196 
 CHI  HN ES        652 50.40                                    0.11 8  250 196 
 CHI  HZ I         652 51.96         1.8 0.36            117            250 196 
 ROSC BZ EP   4    652 23.32                             115    1.74 0  256 212 
 ROSC BN ES   4    652 59.20                             115    7.79 0  256 212 
 URE  HZ EP        652 24.89                             112    0.10 7  289 291 
 URE  HN ES   4    652 53.99                             112   -3.13 0  289 291 
 CBOC HZ EP        652 30.68                             109   -0.02 7  339 252 
 CBOC HN ES        653  7.84                             109    0.20 7  339 252 
 CBOC HZ I         653  9.91         1.4 0.22            109            339 252 
 PRA  HZ EP        652 37.12                             105    0.06 6  395 210 
 PRA  HE ES        653 19.87                             105    0.91 6  395 210 
 PRA  HZ I         653 22.61         2.8 0.30            106            395 210 
 SJC  HZ EP   4    652 36.93                             105   -2.19 0  412 326 
 SJC  HN ES   4    653 18.11                             105   -4.52 0  412 326 
                                                                                
