 2011  810 0457  1.2 L   6.429 -73.612101.2  RSN  5 0.3 1.7LRSN                1
 GAP=116        0.56       3.1     4.9  6.4  0.3222E+01  0.1091E+02 -0.9662E+00E
 Epicentro: SANTA HELENA DEL OPON - SANTANDER                                  3
 ACTION:UPD 12-07-13 15:51 OP:ep   STATUS:               ID:20110810045701 L   I
 2011-08-10-0440-00M.COL___151                                                 6
 STAT SP IPHASW D HRMM SECON CODA AMPLIT PERI AZIMU VELO AIN AR TRES W  DIS CAZ7
 BAR2 SZ EP   1    457 16.68                             151   -0.10 7 50.9  69 
 BAR2 SZ ES   1    457 28.83                             151   -0.06 7 50.9  69 
 BAR2 SZ I         457 31.03        78.5 0.23                          50.9  69 
 BRR  HZ EP   1    457 17.58                             140   -0.58 7 75.8 352 
 BRR  HZ I         457 18.29         7.8 0.09                          75.8 352 
 BRR  HN ES   1    457 31.58                             140    0.23 7 75.8 352 
 RUS  HZ EP   1    457 19.78                             138    0.33 7 83.4 135 
 RUS  HE ES   1    457 33.59                             138   -0.07 7 83.4 135 
 RUS  HZ I         457 36.03         6.8 0.38                          83.4 135 
 NOR  SN ES   2    457 47.89                             116    0.17 5  169 236 
 OCA  SZ EP   1    457 31.29                             111    0.02 6  203   9 
 OCA  SZ ES   2    457 55.22                             111    0.52 4  203   9 
 OCA  SZ I         458  1.93         5.3 0.19                           203   9 
                                                                                
