 2014 1210 0802  6.5 L   6.694 -73.327148.8  RSN  4 0.5 1.0LRSN                1
 GAP=206        1.23       9.6     9.4 10.7  0.5961E+02  0.2098E+01 -0.9707E+01E
 Epicentro: GALAN - SANTANDER                                                  3
 ACTION:UPD 15-02-10 17:02 OP:nd   STATUS:               ID:20141210080206 L   I
 OLDACT:UP  14-12-10 17:28 OP:fm   STATUS:               ID:20141210075738     3
 OLDACT:REG 14-12-10 13:23 OP:fm   STATUS:               ID:20141210075738     3
 2014-12-10-0757-38M.COL___300                                                 6
 STAT SP IPHASW D HRMM SECON CODA AMPLIT PERI AZIMU VELO AIN AR TRES W  DIS CAZ7
 BRR  HZ EP        8 2 27.75                             156    0.2510 62.4 317 
 BRR  HN ES        8 2 44.07                             156    0.1810 62.4 317 
 BRR  HZ I         8 2 48.00         2.3 0.30            156           62.4 317 
 RUS  HZ EP        8 2 30.41                             147    0.4210 92.7 163 
 RUS  HN ES        8 2 47.76                             147   -0.5710 92.7 163 
 RUS  HZ I         8 2 50.10         1.0 0.30            150           92.7 163 
 PTB  HZ EP        8 2 31.38                             137   -0.4510  126 262 
 PTB  HN ES        8 2 52.29                             137    0.6910  126 262 
 PTB  HZ I         8 2 56.45         1.4 0.14            138            126 262 
 ZAR  HZ EP        8 2 37.95                             125    0.16 9  191 298 
 ZAR  HN ES        8 3  1.38                             125   -0.82 9  191 298 
 ZAR  HZ I         8 3  7.32         2.0 0.10            127            191 298 
                                                                                
