 2010  710 0415 25.4 L   6.783 -73.474  3.9  RSN  9 0.3 1.8LRSN                1
 GAP= 98        0.63       1.9     2.5  5.3  0.1461E+01  0.1872E+01  0.1069E+01E
 Epicentro: EL CARMEN DE CHUCURI - SANTANDER                                   3
 ACTION:UPD 10-12-01 15:16 OP:pat  STATUS:               ID:20100710041525 L   I
 2010-07-10-0411-04S.COL___120                                                 6
 STAT SP IPHASW D HRMM SECON CODA AMPLIT PERI AZIMU VELO AIN AR TRES W  DIS CAZ7
 BAR2 SZ IP     C  415 31.97                              47    -0.110   38 123 
 BAR2 SZ ES   2    415 36.94                              47    -0.3 5   38 123 
 BRR  HZ IP     D  415 32.33                              47    -0.410   45 324 
 BRR  HE ES   2    415 38.31                              47    -0.2 5   45 324 
 BRR  HZ I         415 39.03        94.7 0.38                            45 324 
 GIR2 SZ EP   1    415 33.27                              47     0.3 7   45  43 
 RUS  HZ EP   1    415 43.04                              47     0.2 7  108 156 
 RUS  HE ES   2    415 55.98                              47    -0.4 5  108 156 
 RUS  HZ I         415 59.32         7.3 0.23                           108 156 
 BRI  SZ EP   1    415 45.66                              47     0.2 7  127  36 
 GUE  SZ EP   1    415 45.97                              47    -0.2 7  131  28 
 GRA  SZ EP   1    415 47.93                              47     0.2 7  143  31 
 GRA  SZ ES   2    416  5.41                              47     0.2 5  143  31 
 OCA  SZ EP   1    415 50.94                              47     0.3 7  162   6 
 OCA  SZ ES   2    416  9.98                              47    -0.4 5  162   6 
 OCA  SZ I         416 13.52        19.9 0.39                           162   6 
 HEL  HZ EP   1    416  0.91                              37     0.2 6  237 254 
 HEL  HN ES   2    416 29.05                              37     0.8 4  237 254 
 HEL  HZ I         416 31.34         9.4 0.52                           237 254 
                                                                                
