 2017  310 0325 57.6 L   6.782 -73.120148.6  RSN 12 0.6 2.0LRSN                1
 GAP=122        1.29       4.5     4.8  7.0 -0.1497E+01  0.6190E+01  0.7641E+01E
 Epicentro: LOS SANTOS - SANTANDER                                             3
 ACTION:UPD 17-05-25 18:38 OP:jn   STATUS:               ID:20170310032557 L   I
 OLDACT:UP  17-03-10 16:09 OP:ar   STATUS:               ID:20170310031744d    3
 OLDACT:UP  17-03-10 16:07 OP:ar   STATUS:               ID:20170310031744d    3
 OLDACT:DUP 17-03-10 16:04 OP:ar   STATUS:               ID:20170310031744d    3
 2017-03-10-0318-00M.COL___402                                                 6
 STAT SP IPHASW D HRMM SECON CODA AMPLIT PERI AZIMU VELO AIN AR TRES W  DIS CAZ7
 BAR2 EZ IP     C  326 17.58                             171    0.0610 22.0 198 
 BAR2 EZ ES        326 32.70                             171   -0.3810 22.0 198 
 BAR2 EZ I         326 34.01        46.1 0.18            168           22.0 198 
 BRR  HZ IP     C  326 19.41                             152    0.1810 74.7 299 
 BRR  HN ES        326 36.76                             152    0.6410 74.7 299 
 BRR  HZ I         326 40.24         9.8 0.20            152           74.7 299 
 PAM  EZ EP        326 20.42                             151    0.3310 77.2  37 
 PAM  EN ES        326 37.78                             151    0.1410 77.2  37 
 PAM  EZ I         326 39.81        11.5 0.50            156           77.2  37 
 RUS  HZ EP        326 21.86                             145    0.4110 98.4 178 
 RUS  HN ES        326 39.77                             145   -0.3010 98.4 178 
 RUS  HZ I         326 41.24        14.7 0.32            145           98.4 178 
 PTB  HZ EP        326 24.42                             132   -0.58 9  150 260 
 PTB  HN ES        326 45.60                             132   -0.78 9  150 260 
 PTB  HZ I         326 52.32         8.5 0.68            132            150 260 
 SPBC HZ EP        326 26.50                             130    0.18 9  163 220 
 SPBC HN ES        326 48.36                             130   -0.37 9  163 220 
 SPBC HZ I         326 51.19        23.3 0.26            130            163 220 
 ZAR  HZ EP        326 30.06                             122   -0.50 8  207 292 
 ZAR  HN ES        326 56.29                             122    0.01 8  207 292 
 ZAR  HZ I         327  0.92         5.7 0.12            124            207 292 
 NOR  HZ EP        326 32.92                             119   -0.68 8  236 235 
 NOR  HN ES        327  1.62                             119   -0.07 8  236 235 
 NOR  HZ I         327  4.89         6.4 0.18            119            236 235 
 CHI  HZ EP        326 35.71                             118    0.40 8  247 196 
 CHI  HN ES        327  5.24                             118    0.51 8  247 196 
 CHI  HZ I         327 14.79         3.8 0.44            119            247 196 
 ROSC BZ EP   4    326 38.12                             117    2.29 0  253 212 
 ROSC BE ES   4    327 10.49                             117    4.83 0  253 212 
 ROSC BZ I         327 13.18         9.6 0.35            118            253 212 
 GUY2CHZ EP   4    326 43.81                             113    2.36 0  302 235 
 GUY2CHE ES        327 17.42                             113    1.75 7  302 235 
 GUY2CHZ  IAML     327 27.74         4.2 0.54                           302 235 
 PTGC HZ EP        326 40.52                             112   -0.71 7  306 159 
 PTGC HN ES   4    327 13.93                             112   -1.35 0  306 159 
 PTGC HZ I         327 17.20         9.4 0.38            114            306 159 
                                                                                
