 2016  110 0823 47.2 L   6.833 -73.184148.4  RSN  8 0.4 1.4LRSN                1
 GAP=130        0.98       3.1     4.7  5.7 -0.1336E+01  0.4661E+01  0.4779E+00E
 Epicentro: ZAPATOCA - SANTANDER                                               3
 ACTION:UPD 16-03-09 23:24 OP:cam  STATUS:               ID:20160110082347 L   I
 OLDACT:REG 16-01-10 12:37 OP:drio STATUS:               ID:20160110081742     3
 2016-01-10-0817-42M.COL___247                                                 6
 STAT SP IPHASW D HRMM SECON CODA AMPLIT PERI AZIMU VELO AIN AR TRES W  DIS CAZ7
 BAR2 EZ EP        824  7.15                             169   -0.0710 26.6 180 
 BAR2 EZ ES        824 22.66                             169   -0.1710 26.6 180 
 BAR2 EZ I         824 23.56         3.7 0.30            162           26.6 180 
 BRR  HZ EP        824  8.41                             155    0.0710 65.8 297 
 BRR  HN ES        824 25.42                             155    0.5810 65.8 297 
 PAM  EZ EP        824  9.92                             151    0.2210 77.5  44 
 PAM  EN ES        824 27.18                             151   -0.0710 77.5  44 
 PAM  EZ I         824 29.12         4.1 0.50            154           77.5  44 
 RUS  HZ EP        824 11.93                             143    0.4310  105 174 
 RUS  HE ES        824 30.03                             143   -0.4210  105 174 
 RUS  HZ I         824 31.79         2.6 0.34            137            105 174 
 PTB  HZ EP        824 13.86                             133   -0.23 9  144 257 
 PTB  HN ES        824 34.98                             133   -0.08 9  144 257 
 PTB  HZ I         824 38.33         2.1 0.12            129            144 257 
 SPBC HZ EP        824 16.54                             130    0.61 9  163 217 
 SPBC HE ES        824 38.33                             130   -0.00 9  163 217 
 SPBC HZ I         824 45.47         3.6 0.34            125            163 217 
 SML  HZ EP        824 23.79                             118    0.35 8  239 336 
 SML  HN ES        824 50.80                             118   -0.90 8  239 336 
 SML  HZ I         824 55.54         2.9 0.10            118            239 336 
 CHI  HZ EP        824 24.59                             117   -0.72 8  251 194 
 CHI  HE ES        824 54.99                             117   -0.04 8  251 194 
 CHI  HZ I         825 23.70         1.6 0.52            114            251 194 
                                                                                
