 2011  910 0855 26.9 L   6.737 -73.118147.9  RSN  5 0.2 1.5LRSN                1
 GAP=190        0.44       5.2     7.0  5.3  0.2170E+02  0.1271E+02  0.1197E+02E
 Epicentro: JORDAN - SANTANDER                                                 3
 ACTION:UPD 12-07-13 15:56 OP:ep   STATUS:               ID:20110910085526 L   I
 2011-09-10-0840-00M.COL___171                                                 6
 STAT SP IPHASW D HRMM SECON CODA AMPLIT PERI AZIMU VELO AIN AR TRES W  DIS CAZ7
 BAR2 SZ EP   1    855 46.71                             173    0.01 7 17.5 204 
 BAR2 SZ ES   2    856  1.88                             173   -0.24 5 17.5 204 
 BAR2 SZ I         856  2.88        10.4 0.51                          17.5 204 
 GIR2 SZ EP   2    855 46.88                             165   -0.17 5 38.7 348 
 GIR2 SZ ES        856  2.68                             165   -0.0810 38.7 348 
 BRR  HZ EP   1    855 48.84                             151    0.19 7 77.4 302 
 BRR  HZ I         855 52.86         4.9 0.14                          77.4 302 
 BRR  HE ES   2    856  6.15                             151    0.56 5 77.4 302 
 RUS  HZ EP   1    855 50.38                             146    0.00 7 93.5 178 
 RUS  HZ I         855 51.37         3.6 0.34                          93.5 178 
 RUS  HN ES   2    856  8.75                             146    0.07 5 93.5 178 
 ZAR  HN ES   2    856 25.43                             122   -0.50 4  210 294 
 ZAR  HZ I         856 30.92         3.7 0.27                           210 294 
                                                                                
