 2013 1210 0807 32.8 L   6.819 -73.157145.4  RSN 11 0.5 1.8LRSN                1
 GAP=134        1.16       4.3     5.7  8.5  0.1103E+01  0.1442E+02  0.2869E+01E
 Epicentro: LOS SANTOS - SANTANDER                                             3
 ACTION:UPD 14-01-13 10:17 OP:ep   STATUS:               ID:20131210080732 L   I
 OLDACT:DUP 13-12-10 13:30 OP:jn   STATUS:               ID:20131210080001d    3
 OLDACT:REG 13-12-10 07:14 OP:jn   STATUS:               ID:20131210080000     3
 2013-12-10-0800-00M.COL___285                                                 6
 STAT SP IPHASW D HRMM SECON CODA AMPLIT PERI AZIMU VELO AIN AR TRES W  DIS CAZ7
 BAR2 SZ EP        8 7 52.55                             170    0.1710 25.2 186 
 BAR2 SZ ES        8 8  6.98                             170   -0.7110 25.2 186 
 BAR2 SZ I         8 8  8.43        36.9 0.30            159           25.2 186 
 BRR  HZ EP     C  8 7 54.27                             153    0.5310 69.1 298 
 BRR  HN ES        8 8 11.12                             153    1.0010 69.1 298 
 BRR  HZ I         8 8 11.82        13.6 0.38            144           69.1 298 
 PAM  SN ES        8 8 12.22                             151    0.0710 76.6  41 
 RUS  HZ EP        8 7 56.79                             143    0.1610  103 175 
 RUS  HN ES        8 8 15.20                             143   -0.0510  103 175 
 RUS  HZ I         8 8 17.12         4.6 0.16            127            103 175 
 PTB  HZ EP        8 7 59.14                             132   -0.47 9  147 258 
 PTB  HN ES        8 8 20.18                             132   -0.39 9  147 258 
 PTB  HZ I         8 8 25.36         8.5 0.16            118            147 258 
 OCA  HN ES   1    8 8 22.26                             130   -0.46 7  158 354 
 OCA  HZ I         8 8 25.41        11.6 0.18            118            158 354 
 SPBC HN ES   1    8 8 23.43                             129   -0.14 7  164 218 
 SPBC HZ I         8 8 27.47         6.8 0.26            115            164 218 
 ZAR  HN ES   1    8 8 30.37                             123    0.27 6  202 292 
 ZAR  HZ I         8 8 36.29         8.8 0.44            111            202 292 
 SML  HN ES   1    8 8 36.42                             118   -1.02 6  241 335 
 CHI  HZ EP   2    8 8 10.95                             117    0.34 4  250 195 
 CHI  HZ I         8 8 45.02         2.2 0.40            106            250 195 
 PRA  HN ES   2    8 9  8.95                             106    0.71 3  393 209 
                                                                                
