 2010  510 0239  2.4 L   6.777 -72.928149.3  RSN  8 0.4 1.9LRSN                1
 GAP=184        0.93       3.9     8.5  6.8 -0.1262E+02  0.3995E+01  0.3802E+01E
 Epicentro: CEPITA - SANTANDER                                                 3
 ACTION:UP  10-08-24 10:03 OP:vdl  STATUS:               ID:20100510023902 L   I
 2010-05-10-0237-18S.COL___104                                                 6
 STAT SP IPHASW D HRMM SECON CODA AMPLIT PERI AZIMU VELO SNR AR TRES W  DIS CAZ7
 BAR2 SZ ES   1    239 38.18                             166    -0.4 7   35 234 
 BRR  HZ IP     D  239 25.65                             146     0.310   94 293 
 BRR  HZ I         239 26.08        13.8 0.25                            94 293 
 BRR  HN ES   1    239 42.93                             146    -0.3 7   94 293 
 RUS  HZ EP        239 26.35                             145     0.010   99 190 
 RUS  HN ES   1    239 45.49                             145     0.4 7   99 190 
 RUS  HZ I         239 46.84         4.9 0.22                            99 190 
 GUE  SZ ES   1    239 47.36                             140     0.4 7  117   0 
 GRA  SZ EP        239 27.80                             138     0.110  123   6 
 GRA  SZ ES   1    239 46.85                             138    -0.7 7  123   6 
 OCA  SZ EP        239 31.28                             129    -0.3 9  167 345 
 OCA  SZ ES   1    239 54.80                             129     0.4 7  167 345 
 OCA  SZ I         239 57.32        15.4 0.32                           167 345 
 RREF BZ EP        239 51.30                             110     0.7 7  339 232 
 RREF BE ES   1    240 28.04                             110    -0.2 5  339 232 
 RREF BZ I         240 34.58         3.7 0.29                           339 232 
 PRA  HZ EP        239 56.50                             107    -0.7 6  402 213 
 PRA  HE ES   2    240 39.52                             107    -0.5 3  402 213 
 PRA  HZ I         240 46.02         3.2 0.21                           402 213 
                                                                                
