 2017  410 0634  5.4 L   6.772 -73.086149.6  RSN  9 0.4 1.4LRSN                1
 GAP=146        0.98       4.0     4.6  5.4 -0.2341E+00  0.3068E+01  0.3245E+01E
 Epicentro: LOS SANTOS - SANTANDER                                             3
 ACTION:UPD 17-05-30 21:10 OP:jn   STATUS:               ID:20170410063405 L   I
 OLDACT:UP  17-04-10 18:14 OP:edw  STATUS:               ID:20170410062701d    3
 OLDACT:DUP 17-04-10 18:10 OP:edw  STATUS:               ID:20170410062701d    3
 OLDACT:REG 17-04-10 13:13 OP:edw  STATUS:               ID:20170410062700     3
 2017-04-10-0628-00M.COL___368                                                 6
 STAT SP IPHASW D HRMM SECON CODA AMPLIT PERI AZIMU VELO AIN AR TRES W  DIS CAZ7
 BAR2 EZ EP        634 25.31                             171   -0.1810 22.6 208 
 BAR2 EZ ES        634 41.01                             171   -0.1410 22.6 208 
 BAR2 EZ I         634 41.96         6.9 0.40            167           22.6 208 
 PAM  EZ EP        634 28.18                             152    0.2310 75.9  34 
 PAM  EN ES        634 45.38                             152   -0.1510 75.9  34 
 PAM  EZ I         634 47.18         1.8 0.48            156           75.9  34 
 BRR  HZ EP        634 27.33                             151   -0.0710 78.5 298 
 BRR  HN ES        634 45.19                             151    0.6510 78.5 298 
 BRR  HZ I         634 47.69         3.0 0.20            148           78.5 298 
 RUS  HZ EP        634 29.25                             145   -0.0610 97.3 180 
 RUS  HN ES        634 47.57                             145   -0.3810 97.3 180 
 RUS  HZ I         634 49.60         2.6 0.38            145           97.3 180 
 PTB  HZ EP   9    634 32.24                             131   -1.00 0  154 260 
 PTB  HN ES        634 53.35                             132   -0.59 9  154 260 
 PTB  HZ I         635  0.89         3.0 0.34            130            154 260 
 SPBC HZ EP        634 34.78                             129    0.39 9  165 221 
 SPBC HN ES        634 56.96                             129   -0.03 9  165 221 
 SPBC HZ I         635  3.54         6.3 0.24            128            165 221 
 ZAR  HZ EP        634 38.07                             122   -0.80 8  211 292 
 ZAR  HN ES        635  4.96                             122    0.01 8  211 292 
 ZAR  HZ I         635  8.93         3.0 0.32            122            211 292 
 CHI  HZ EP        634 43.95                             118    0.74 8  248 197 
 CHI  HN ES   4    635 14.32                             118    1.64 0  248 197 
 PRA  HZ EP        634 58.90                             107   -0.25 6  393 211 
 PRA  HN ES   4    635 38.48                             107   -2.58 0  393 211 
 PRA  HZ I         635 47.37         1.1 0.74            107            393 211 
                                                                                
