 2016 1210 0516  4.3 L   6.786 -73.147147.8  RSN  6 0.4 1.4LRSN                1
 GAP=137        0.94       4.8     4.2  6.9  0.1808E+01  0.5486E+01  0.5287E+00E
 Epicentro: LOS SANTOS - SANTANDER                                             3
 ACTION:UPD 17-01-11 20:13 OP:rebc STATUS:               ID:20161210051604 L   I
 OLDACT:REG 16-12-10 12:57 OP:lv   STATUS:               ID:20161210050744     3
 2016-12-10-0508-00M.COL___367                                                 6
 STAT SP IPHASW D HRMM SECON CODA AMPLIT PERI AZIMU VELO AIN AR TRES W  DIS CAZ7
 BAR2 EZ EP        516 24.05                             171   -0.0510 21.8 190 
 BAR2 EZ ES        516 39.11                             171   -0.4710 21.8 190 
 BAR2 EZ I         516 40.50         7.6 0.24            172           21.8 190 
 BRR  HZ EP        516 25.83                             153    0.1710 71.8 300 
 BRR  HN ES        516 42.97                             153    0.6210 71.8 300 
 PAM  EZ EP        516 26.82                             151    0.0610 78.6  39 
 PAM  EN ES        516 44.03                             151   -0.2810 78.6  39 
 PAM  EZ I         516 46.08         4.0 0.48            152           78.6  39 
 RUS  HZ EP        516 28.33                             145    0.2310 99.1 176 
 RUS  HN ES        516 47.07                             145    0.3710 99.1 176 
 RUS  HZ I         516 47.96         3.1 0.28            146           99.1 176 
 PTB  HZ EP        516 30.87                             133   -0.48 9  147 259 
 PTB  HN ES        516 52.03                             133   -0.45 9  147 259 
 PTB  HZ I         516 54.75         3.1 0.15            133            147 259 
 ZAR  HZ EP   4    516 38.57                             123    1.69 0  204 293 
 ZAR  HN ES        517  2.56                             123    0.24 9  204 293 
 ZAR  HZ I         517  7.17         2.1 0.17            123            204 293 
                                                                                
