 2010  110 0530 48.1 L   6.808 -73.067147.3  RSN  5 0.2 1.5LRSN                1
 GAP=191        0.57       3.4    26.9  5.2  0.1916E+02  0.9150E+01  0.5764E+00E
 Epicentro: LOS SANTOS - SANTANDER                                             3
 ACTION:UP  10-08-24 09:43 OP:vdl  STATUS:               ID:20100110053048 L   I
 2010-01-10-0524-46S.COL___097                                                 6
 STAT SP IPHASW D HRMM SECON CODA AMPLIT PERI AZIMU VELO SNR AR TRES W  DIS CAZ7
 BAR2 SZ IP        531  8.14                             169     0.110   27 208 
 BAR2 SZ ES   1    531 23.39                             169    -0.1 7   27 208 
 GIR2 SZ EP        531  8.35                             167     0.410   33 335 
 GIR2 SZ ES   2    531 23.62                             167     0.1 5   33 335 
 RUS  BZ EP        531 11.84                             144    -0.210  101 181 
 RUS  BN ES   2    531 30.59                             144    -0.1 5  101 181 
 RUS  BZ I         531 32.17         3.0 0.27                           101 181 
 OCA  SZ EP        531 16.41                             130    -0.2 9  161 350 
 OCA  SZ ES   2    531 38.29                             130    -0.5 5  161 350 
 OCA  SZ I         531 43.75         7.6 0.18                           161 350 
 CHI  HZ EP        531 26.25                             117     0.0 8  252 197 
 CHI  HZ I         531 27.21         1.4 0.16                           252 197 
                                                                                
