 2013  310 0116 18.4 L   6.790 -73.128140.0  RSN  4 0.3 1.3LRSN                1
 GAP=139        0.54       3.7     3.9  6.2 -0.1077E+01 -0.3690E+01  0.3857E+01E
 Epicentro: LOS SANTOS - SANTANDER                                             3
 ACTION:UPD 13-04-09 14:01 OP:ep   STATUS:               ID:20130310011618 L   I
 2013-03-10-0110-00M.COL___231                                                 6
 STAT SP IPHASW D HRMM SECON CODA AMPLIT PERI AZIMU VELO AIN AR TRES W  DIS CAZ7
 BRR  HZ EP   1    116 39.29                             151    0.24 7 73.4 299 
 BRR  HZ I         116 52.03         5.3 0.54            141           73.4 299 
 BRR  HN ES        116 55.33                             151    0.1710 73.4 299 
 PAM  SZ EP        116 40.10                             150    0.1310 77.1  38 
 PAM  SZ I         116 40.37         5.3 0.19            144           77.1  38 
 PAM  SE ES   1    116 56.40                             150   -0.41 7 77.1  38 
 RUS  HZ EP   1    116 41.36                             143   -0.13 7 99.3 177 
 RUS  HE ES   1    116 59.62                             143    0.12 7 99.3 177 
 RUS  HE I         117  0.53         3.2 0.25            138           99.3 177 
 PTB  HZ EP   2    116 44.63                             130   -0.42 5  149 259 
 PTB  HN ES   2    117  5.37                             130   -0.47 5  149 259 
 PTB  HZ I         117  8.00         1.4 0.19            122            149 259 
                                                                                
