 2017  110 0538 17.7 L   6.768 -73.168136.0  RSN  7 0.4 1.2LRSN                1
 GAP= 97        0.81       4.7     3.8  6.1 -0.4202E+01  0.3009E+01 -0.4870E+01E
 Epicentro: LOS SANTOS - SANTANDER                                             3
 ACTION:UPD 17-05-22 15:57 OP:jn   STATUS:               ID:20170110053817 L   I
 OLDACT:UP  17-01-10 15:08 OP:and  STATUS:               ID:20170110052743     3
 OLDACT:REG 17-01-10 13:12 OP:and  STATUS:               ID:20170110052743     3
 2017-01-10-0528-00M.COL___356                                                 6
 STAT SP IPHASW D HRMM SECON CODA AMPLIT PERI AZIMU VELO AIN AR TRES W  DIS CAZ7
 BAR2 EZ ES        538 50.14                             171   -0.2510 19.5 185 
 BRR  HZ EP        538 38.33                             151    0.5810 70.9 302 
 BRR  HN ES   3    538 54.90                             151    1.49 2 70.9 302 
 BRR  HZ I         538 56.76         3.9 0.22            150           70.9 302 
 PAM  EZ EP        538 39.19                             147    0.0610 81.6  39 
 PAM  EN ES        538 55.69                             147   -0.1810 81.6  39 
 PAM  EZ I         538 58.71         3.5 0.54            150           81.6  39 
 RUS  HZ EP   3    538 41.01                             142    0.79 2 97.3 174 
 RUS  HN ES        538 58.00                             142    0.1810 97.3 174 
 RUS  HZ I         539  0.89         1.8 0.36            146           97.3 174 
 PTB  HZ EP        538 43.07                             130   -0.50 9  145 260 
 PTB  HN ES        539  3.70                             130   -0.08 9  145 260 
 PTB  HZ I         539  6.74         2.5 0.14            132            145 260 
 TAM  HZ EP        538 44.68                             128   -0.05 9  157 104 
 ZAR  HZ EP   4    538 50.94                             120    1.54 0  203 293 
 ZAR  HN ES   4    539 11.17                             120   -2.98 0  203 293 
 ZAR  HZ I         539 17.97         2.2 0.13            122            203 293 
                                                                                
