 2014  210 0026 23.3 L   6.829 -73.135145.9  RSN 15 0.5 2.3LRSN                1
 GAP= 71        0.91       3.2     4.3  6.1  0.6852E+00 -0.9534E+00  0.3646E+01E
 Epicentro: LOS SANTOS - SANTANDER                                             3
 ACTION:UPD 14-03-10 08:09 OP:ep   STATUS:               ID:20140210002623 L   I
 OLDACT:UP  14-02-10 10:49 OP:mh   STATUS:               ID:20140210002000     3
 OLDACT:REG 14-02-10 09:16 OP:mh   STATUS:               ID:20140210002000     3
 2014-02-10-0020-00M.COL___291                                                 6
 STAT SP IPHASW D HRMM SECON CODA AMPLIT PERI AZIMU VELO AIN AR TRES W  DIS CAZ7
 BAR2 SZ IP        026 43.03                             169   -0.0410 26.7 191 
 BAR2 SZ ES   1    026 58.11                             169   -0.33 7 26.7 191 
 BAR2 SZ I         026 59.40        81.5 0.10            157           26.7 191 
 BRR  HZ IP        026 44.90                             153    0.4210 70.7 296 
 BRR  HN ES        027  1.53                             153    0.5610 70.7 296 
 BRR  HZ I         027  5.79        24.4 0.11            151           70.7 296 
 PAM  SZ EP        026 45.85                             152    0.4610 74.2  40 
 PAM  SZ I         027  5.53        36.9 0.42            138           74.2  40 
 RUS  HZ IP     C  026 47.00                             143   -0.3410  104 177 
 RUS  HZ I         027  6.46        19.5 0.11            127            104 177 
 PTB  HZ EP   1    026 49.82                             132   -0.66 7  150 258 
 PTB  HZ I         027 12.53        17.1 0.08            122            150 258 
 TAM  HZ IP     D  026 51.37                             131    0.36 9  155 106 
 TAM  HZ I         027 13.64        14.0 0.38            115            155 106 
 OCA  HZ EP   1    026 50.93                             130   -0.45 7  157 353 
 OCA  HN ES        027 12.58                             130   -0.67 9  157 353 
 OCA  HZ I         027 19.37        29.6 0.36            120            157 353 
 SPBC HZ EP   2    026 51.79                             128   -0.37 5  166 219 
 SPBC HN ES   1    027 14.21                             128   -0.42 7  166 219 
 ZAR  HZ EP   1    026 55.79                             122    0.00 6  204 291 
 ZAR  HN ES   1    027 21.65                             122    0.56 6  204 291 
 ZAR  HZ I         027 27.36        22.2 0.25            114            204 291 
 NOR  HZ EP        026 59.49                             118    0.11 8  237 234 
 NOR  HN ES   4    027 24.12                             118   -3.37 0  237 234 
 NOR  HZ I         027 31.31        14.1 0.22            109            237 234 
 SML  HZ EP   1    026 59.42                             118   -0.30 6  241 335 
 SML  HN ES   1    027 27.86                             118   -0.23 6  241 335 
 CHI  HZ EP   1    027  1.49                             117    0.07 6  252 195 
 CHI  HN ES   1    027 30.58                             117   -0.54 6  252 195 
 HEL  HZ EP   1    027  4.64                             115    0.86 6  274 255 
 HEL  HN ES   4    027 35.39                             115    0.08 0  274 255 
 HEL  HZ I         027 43.38         8.5 0.19            107            274 255 
 URE  HZ EP   4    027  3.34                             114   -1.07 0  284 291 
 URE  HN ES   2    027 35.68                             114   -0.76 4  284 291 
 PRA  HZ EP   1    027 17.66                             106    0.40 4  395 209 
 PRA  HZ I         028  6.01         4.8 0.25            100            395 209 
 SJC  HZ EP   4    027 17.76                             106   -0.91 0  407 327 
 SJC  HN ES   4    027 57.60                             106   -4.22 0  407 327 
                                                                                
