 2014  910 0211 40.6 L   6.350 -73.595115.1  RSN 19 0.4 2.5LRSN                1
 GAP= 53        1.04       2.1     2.6  5.0 -0.1549E+01  0.4300E+01  0.4024E+00E
 Epicentro: SANTA HELENA DEL OPON - SANTANDER                                  3
 ACTION:UPD 14-10-03 23:03 OP:nd   STATUS:               ID:20140910021141 L   I
 OLDACT:UPD 14-09-10 14:12 OP:FJMB STATUS:               ID:20140910021141 L   3
 2014-09-10-0208-06M.COL___278                                                 6
 STAT SP IPHASW D HRMM SECON CODA AMPLIT PERI AZIMU VELO AIN AR TRES W  DIS CAZ7
 BAR2 SZ IP     C  211 58.04                             154    0.2910 52.9  60 
 BAR2 SZ ES        212 11.36                             154    0.2410 52.9  60 
 BAR2 SZ I         212 12.39       186.1 0.42            149           52.9  60 
 RUS  HZ IP     D  211 59.32                             145   -0.2310 75.9 132 
 RUS  HN ES        212 13.92                             145   -0.4210 75.9 132 
 RUS  HZ I         212 14.93        40.7 0.16            140           75.9 132 
 BRR  HZ IP     C  211 59.65                             141    0.1410 84.8 351 
 BRR  HN ES        212 14.26                             141   -0.0110 84.8 351 
 BRR  HZ I         212 15.34        62.8 0.12            137           84.8 351 
 SPBC HZ EP     D  212  0.13                             138   -0.2010 93.5 214 
 SPBC HN ES        212 15.82                             138    0.0910 93.5 214 
 SPBC HZ I         212 21.98        62.0 0.30            135           93.5 214 
 PTB  HZ IP     D  211 59.77                             137   -0.8010 97.6 282 
 PTB  HN ES   4    212 14.85                             137   -1.29 0 97.6 282 
 PTB  HZ I         212 15.36       124.3 0.34            133           97.6 282 
 PAM  SZ EP        212  5.79                             124   -0.07 9  148  42 
 PAM  SN ES        212 26.28                             124    0.71 9  148  42 
 PAM  SZ I         212 30.45        25.3 0.34            120            148  42 
 NOR  HZ EP   4 C  212  6.68                             120   -0.48 0  166 238 
 NOR  HN ES   4    212 28.00                             120    0.12 0  166 238 
 NOR  HZ I         212 29.96        71.2 0.16            117            166 238 
 ROSC BZ EP   4    212 11.51                             118    1.82 0  185 206 
 ROSC BN ES   4    212 34.73                             118    2.36 0  185 206 
 ROSC BZ I    4    212 36.44        32.4 0.35            115            185 206 
 ZAR  HZ EP        212  9.70                             117    0.18 9  188 312 
 ZAR  HN ES        212 31.14                             117   -0.94 9  188 312 
 ZAR  HZ I         212 36.77        83.1 0.42            114            188 312 
 CHI  HZ EP        212  9.58                             117   -0.73 9  191 185 
 CHI  HN ES        212 33.42                             117   -0.07 9  191 185 
 CHI  HZ I         212 37.64        22.4 0.24            114            191 185 
 TAM  HZ EP        212 10.86                             115    0.04 9  200  87 
 TAM  HZ I         212 33.02        44.8 0.26            112            200  87 
 TAM  HN ES        212 34.22                             115   -0.17 9  200  87 
 OCA  HZ EP        212 12.12                             114   -0.10 8  211   8 
 OCA  HE ES        212 37.78                             114    0.89 8  211   8 
 OCA  HZ I         212 43.59        54.1 0.34            111            211   8 
 HEL  HZ EP        212 13.44                             114    0.54 8  215 265 
 HEL  HN ES        212 38.44                             114    0.35 8  215 265 
 HEL  HZ I         212 43.27        33.1 0.34            111            215 265 
 GUY2CHZ EP        212 15.64                             112    0.64 8  232 238 
 GUY2CHN ES        212 41.84                             112    0.00 8  232 238 
 GUY2CHZ I         212 46.94        26.3 0.48                           232 238 
 URE  HZ EP   4    212 16.89                             108   -1.22 0  264 306 
 URE  HN ES   4    212 45.31                             108   -2.05 0  264 306 
 CBOC HZ EP   4    212 19.93                             108    0.63 0  273 259 
 CBOC HN ES   4    212 48.78                             108   -0.70 0  273 259 
 TOL  SZ EP        212 20.13                             108    0.60 8  273 225 
 TOL  SN ES        212 50.04                             108    0.14 8  273 225 
 TOL  SZ I         213  0.13        42.9 0.48            106            273 225 
 SML  HZ EP        212 19.03                             107   -0.42 7  276 349 
 SML  HN ES        212 49.09                             107   -0.67 7  276 349 
 SML  HZ I         213  4.60        42.3 0.26            106            276 349 
 ANIL HZ EP        212 20.82                             107   -0.28 7  287 224 
 ANIL HN ES        212 53.20                             107    0.52 7  287 224 
 ANIL HZ I         213  2.25         5.4 0.42            105            287 224 
 PRA  HZ EP        212 24.96                             104   -0.26 7  325 206 
 PRA  HN ES        213  0.54                             104    0.52 7  325 206 
 PRA  HZ I         213  3.21        14.2 0.70            103            325 206 
 ORTC HZ EP        212 25.42                             104    0.04 7  326 214 
 ORTC HE ES        213  0.18                             104   -0.12 7  326 214 
 ORTC HZ I         213  7.20        10.2 0.18            103            326 214 
 MON  HZ EP   4    212 27.24                             102   -1.23 0  353 320 
 MON  HN ES   4    213  4.44                             102   -1.36 0  353 320 
 MON  HZ I         213  8.57         6.2 0.34            102            353 320 
                                                                                
