 2016 1010 0633 34.2 L   6.946 -72.903101.5  RSN  4 0.3 1.4LRSN                1
 GAP=304        0.63       5.7     8.5 19.9  0.1565E+02 -0.1202E+03 -0.1961E+02E
 Epicentro: SANTA BARBARA - SANTANDER                                          3
 ACTION:UPD 16-11-09 19:18 OP:rebc STATUS:               ID:20161010063334 L   I
 OLDACT:REG 16-10-10 13:13 OP:ar   STATUS:               ID:20161010062745     3
 2016-10-10-0628-00M.COL___354                                                 6
 STAT SP IPHASW D HRMM SECON CODA AMPLIT PERI AZIMU VELO AIN AR TRES W  DIS CAZ7
 PTB  HZ EP        634  1.06                             114   -0.1310  178 255 
 PTB  HN ES        634 22.06                             114   -0.2110  178 255 
 PTB  HZ I         634 29.69         3.5 0.48            126            178 255 
 SPBC HZ EP        634  3.39                             112    0.3910  193 222 
 SPBC HE ES        634 25.83                             112    0.3210  193 222 
 SPBC HZ I         634 27.81         3.9 0.22            124            193 222 
 CHI  HZ EP        634 12.49                             104   -0.11 8  272 200 
 CHI  HE ES        634 42.17                             104   -0.42 8  272 200 
 CHI  HZ I         634 45.57         0.9 0.24            115            272 200 
 GUY2CHE ES        634 55.64                             100    0.09 8  332 235 
                                                                                
