 2013  710 0607 26.0 L   6.817 -73.170148.1  RSN  7 0.4 1.6LRSN                1
 GAP=141        1.15       5.5     6.1  6.9 -0.7659E+01  0.9175E+01 -0.9227E+01E
 Epicentro: LOS SANTOS - SANTANDER                                             3
 ACTION:UPD 13-08-12 10:36 OP:ep   STATUS:               ID:20130710060726 L   I
 OLDACT:DUP 13-07-10 09:15 OP:nd   STATUS:               ID:20130710055960d    3
 2013-07-10-0559-59M.COL___266                                                 6
 STAT SP IPHASW D HRMM SECON CODA AMPLIT PERI AZIMU VELO AIN AR TRES W  DIS CAZ7
 BAR2 SZ EP        6 7 45.69                             170   -0.2210 24.9 183 
 BAR2 SZ ES        6 8  1.28                             170   -0.1910 24.9 183 
 BAR2 SZ I         6 8  3.92         4.9 0.42            174           24.9 183 
 GIR2 SZ EP        6 7 45.79                             168   -0.0710 29.0 355 
 GIR2 SZ ES        6 8  1.12                             168   -0.2610 29.0 355 
 GIR2 SZ I         6 8  3.29         4.8 0.24            165           29.0 355 
 BRR  HZ EP        6 7 47.62                             154    0.4310 68.0 298 
 BRR  HN ES        6 8  4.68                             154    0.9310 68.0 298 
 BRR  HZ I         6 8  7.98         5.8 0.30            153           68.0 298 
 PAM  SZ EP        6 7 48.51                             151    0.0610 77.6  42 
 PAM  SN ES        6 8  6.02                             151    0.0410 77.6  42 
 PAM  SZ I         6 8  7.86         9.1 0.54            152           77.6  42 
 PTB  HZ EP        6 7 52.47                             133   -0.46 9  146 258 
 PTB  HN ES        6 8 13.73                             133   -0.23 9  146 258 
 PTB  HZ I         6 8 15.93         4.3 0.14            135            146 258 
 OCA  HZ EP        6 7 55.12                             131    0.87 9  158 354 
 OCA  HN ES        6 8 15.68                             131   -0.64 9  158 354 
 OCA  HZ I         6 8 22.20         4.6 0.14            131            158 354 
 SML  HZ EP        6 8  2.33                             118   -0.09 8  241 336 
 SML  HN ES        6 8 30.45                             118   -0.40 8  241 336 
 SML  HZ I         6 8 33.56         9.9 0.22            120            241 336 
                                                                                
