 2015  610 0956 45.5 L   6.760 -73.057146.5  RSN  6 0.4 1.5LRSN                1
 GAP=279        0.78       6.9     7.8  8.1  0.1467E+02  0.5529E+01 -0.3938E+01E
 Epicentro: LOS SANTOS - SANTANDER                                             3
 ACTION:UPD 15-09-10 22:11 OP:cam  STATUS:               ID:20150610095646dL   I
 OLDACT:DUP 15-06-10 18:26 OP:spq  STATUS:               ID:20150610094751d    3
 2015-06-10-0947-50M.COL___288                                                 6
 STAT SP IPHASW D HRMM SECON CODA AMPLIT PERI AZIMU VELO AIN AR TRES W  DIS CAZ7
 BAR2 EZ EP        957  5.53                             171    0.3510 23.2 217 
 BAR2 EZ ES   1    957 20.41                             171   -0.15 7 23.2 217 
 BAR2 EZ I         957 23.15         4.4 0.26            163           23.2 217 
 BRR  HZ EP        957  7.33                             149   -0.0010 81.9 298 
 BRR  HN ES        957 24.17                             149   -0.2210 81.9 298 
 BRR  HZ I         957 28.02         6.2 0.12            147           81.9 298 
 SPBC HN ES   1    957 36.74                             128   -0.08 7  166 223 
 SPBC HZ I         957 41.72         3.2 0.08            128            166 223 
 ZAR  HZ EP   1    957 18.37                             121   -0.71 6  215 292 
 ZAR  HN ES   1    957 46.01                             121    0.72 6  215 292 
 ZAR  HZ I         957 49.36         5.8 0.28            122            215 292 
 MON  HZ EP   4    957 33.07                             108   -2.63 0  364 308 
 MON  HN ES   4    958 11.63                             108   -3.26 0  364 308 
 MON  HZ I         958 14.42         0.8 0.61            110            364 308 
 SJC  HZ EP   4    957 40.12                             105   -2.00 0  418 326 
 SJC  HN ES   4    958 22.22                             105   -4.09 0  418 326 
 SJC  HZ I         958 23.67         0.8 0.50            108            418 326 
                                                                                
