 2013  810 0124 58.3 L   6.812 -73.138148.4  RSN 14 0.5 2.2LRSN                1
 GAP=137        0.97       2.8     4.1  5.4 -0.1992E+01  0.5546E+01  0.2976E+01E
 Epicentro: LOS SANTOS - SANTANDER                                             3
 ACTION:UPD 14-01-14 09:00 OP:ep   STATUS:               ID:20130810012458 L   I
 OLDACT:DUP 13-08-10 12:08 OP:carl STATUS:               ID:20130810011960d    3
 2013-08-10-0119-59M.COL___271                                                 6
 STAT SP IPHASW D HRMM SECON CODA AMPLIT PERI AZIMU VELO AIN AR TRES W  DIS CAZ7
 BAR2 SZ IP     D  125 18.21                             170   -0.0610 24.7 191 
 BAR2 SZ ES   1    125 33.53                             170   -0.33 7 24.7 191 
 BAR2 SZ I         125 34.96        24.3 0.42            170           24.7 191 
 GIR2 SZ EP        125 18.27                             168    0.0110 30.2 348 
 GIR2 SZ ES   1    125 34.44                             168    0.61 7 30.2 348 
 GIR2 SZ I         125 35.38        13.0 0.18            167           30.2 348 
 BRR  HZ IP     C  125 20.05                             153    0.3110 71.3 297 
 BRR  HN ES   1    125 37.41                             153    0.94 7 71.3 297 
 BRR  HN I         125 37.87        55.4 0.30            152           71.3 297 
 PAM  SZ EP        125 21.06                             152    0.3510 75.9  40 
 PAM  SN ES   1    125 38.57                             152    0.38 7 75.9  40 
 PAM  SZ I         125 42.22        11.9 0.50            154           75.9  40 
 RUS  HZ EP        125 22.35                             144   -0.0510  102 177 
 RUS  HN ES   1    125 40.69                             144   -0.51 7  102 177 
 RUS  HZ I         125 42.00        16.1 0.26            146            102 177 
 PTB  HZ EP        125 24.81                             132   -0.77 9  149 258 
 PTB  HN ES   1    125 46.40                             132   -0.45 7  149 258 
 PTB  HZ I         125 48.13        16.4 0.34            132            149 258 
 OCA  HZ EP   1    125 26.73                             130    0.03 7  159 353 
 OCA  HE ES        125 48.20                             130   -0.66 9  159 353 
 OCA  HZ I         125 54.07        25.8 0.24            132            159 353 
 SPBC HZ EP        125 26.91                             129   -0.23 9  165 219 
 SPBC HN ES   1    125 49.36                             129   -0.28 7  165 219 
 SPBC HZ I         125 53.20        27.0 0.22            130            165 219 
 ZAR  HZ EP        125 31.33                             123    0.39 9  204 292 
 ZAR  HN ES        125 56.11                             123   -0.30 9  204 292 
 ZAR  HZ I         126  3.23        22.7 0.38            123            204 292 
 NOR  HZ EP   1    125 34.89                             119    0.56 6  236 234 
 NOR  HE ES        126  2.66                             119    0.22 8  236 234 
 NOR  HZ I         126  8.21        12.7 0.14            120            236 234 
 SML  HZ EP   1    125 34.44                             118   -0.54 6  243 335 
 SML  HN ES   1    126  3.27                             118   -0.33 6  243 335 
 SML  HZ I         126  6.70        33.3 0.10            119            243 335 
 CHI  HZ EP        125 36.04                             117   -0.26 8  250 195 
 CHI  HN ES   1    126  5.37                             117   -0.57 6  250 195 
 CHI  HZ I         126 11.67         5.2 0.78            119            250 195 
 GUY2CHZ EP        125 43.01                             113    0.82 7  303 235 
 GUY2CHE ES        126 16.85                             113    0.43 7  303 235 
 GUY2CHZ I         126 25.40         5.7 0.22                           303 235 
 PRA  HZ EP        125 52.65                             107    0.57 6  394 210 
 PRA  HN ES        126 34.00                             107   -0.04 6  394 210 
 PRA  HN I         126 39.85         3.7 0.52            108            394 210 
                                                                                
