 2011  410 0644 34.8 L   6.837 -73.297107.9  RSN  4 0.3 1.5LRSN                1
 GAP=148        0.80       9.8     7.4  9.8  0.8810E+01 -0.1083E+02 -0.5962E+02E
 Epicentro: ZAPATOCA - SANTANDER                                               3
 ACTION:UP  11-06-22 15:30 OP:REBC STATUS:               ID:20110410064434 L   I
 2011-04-10-0642-17S.COL___134                                                 6
 STAT SP IPHASW D HRMM SECON CODA AMPLIT PERI AZIMU VELO SNR AR TRES W  DIS CAZ7
 BAR2 SZ EP   2    644 50.75                             164     0.7 5   30 155 
 BAR2 SZ ES   1    645  1.98                             164     0.0 7   30 155 
 BRR  HZ EP        644 50.62                             151    -0.310   55 303 
 BRR  HN ES   1    645  3.48                             151     0.0 7   55 303 
 BRR  HZ I         645  4.94        17.8 0.20                            55 303 
 PAM  SZ EP   1    644 53.32                             139    -0.5 7   86  50 
 PAM  SE ES   2    645  8.80                             139     0.1 5   86  50 
 PAM  SZ I         645 15.66         2.9 0.27                            86  50 
 OCA  SZ EP        645  0.24                             120     0.4 9  155 359 
 OCA  SZ I         645 26.79         5.5 0.21                           155 359 
                                                                                
