 2016  210 0446 19.4 L   6.830 -73.192136.0  RSN 13 0.4 1.6LRSN                1
 GAP=129        0.95       2.4     3.6  5.8 -0.1371E+01  0.8608E+01 -0.8501E+00E
 Epicentro: ZAPATOCA - SANTANDER                                               3
 ACTION:UPD 16-03-04 21:24 OP:rebc STATUS:               ID:20160210044619 L   I
 OLDACT:DUP 16-02-10 18:08 OP:ak   STATUS:               ID:20160210043748d    3
 OLDACT:REG 16-02-10 14:38 OP:ak   STATUS:               ID:20160210043746     3
 2016-02-10-0437-46M.COL___316                                                 6
 STAT SP IPHASW D HRMM SECON CODA AMPLIT PERI AZIMU VELO AIN AR TRES W  DIS CAZ7
 BAR2 EZ EP        446 38.15                             169    0.2110 26.3 178 
 BAR2 EZ ES        446 52.91                             169    0.5310 26.3 178 
 BAR2 EZ I         446 53.91         6.7 0.32            169           26.3 178 
 PAM  EN ES        446 57.32                             149    0.0910 78.3  44 
 RUS  HZ EP        446 41.75                             141   -0.7510  104 173 
 RUS  HN ES        447  0.29                             141   -0.2210  104 173 
 RUS  HZ I         447  1.40         3.0 0.24            143            104 173 
 PTB  HZ EP        446 44.84                             131   -0.35 9  143 257 
 PTB  HN ES        447  4.81                             131   -0.49 9  143 257 
 PTB  HZ I         447  8.09         6.2 0.14            130            143 257 
 OCA  HZ EP        446 47.05                             128    0.44 9  156 355 
 OCA  HN ES        447  7.67                             128   -0.16 9  156 355 
 OCA  HZ I         447  9.61         9.7 0.20            129            156 355 
 SPBC HZ EP        446 47.27                             127    0.15 9  163 217 
 SPBC HN ES        447  8.33                             127   -0.41 9  163 217 
 SPBC HZ I         447 12.41         6.4 0.12            127            163 217 
 ZAR  HZ EP   2    446 50.39                             121   -0.22 4  198 292 
 ZAR  HN ES        447 15.69                             121    0.75 9  198 292 
 ZAR  HZ I         447 22.81         4.5 0.26            121            198 292 
 NOR  HZ EP   2    446 54.88                             117    0.53 4  232 233 
 NOR  HN ES        447 21.60                             117   -0.00 8  232 233 
 NOR  HZ I         447 24.01         3.6 0.16            117            232 233 
 SML  HZ EP        446 54.79                             116   -0.15 8  239 336 
 SML  HN ES        447 22.04                             116   -0.62 8  239 336 
 SML  HZ I         447 27.09         5.6 0.10            117            239 336 
 CHI  HZ EP        446 57.12                             115    0.32 8  251 194 
 CHI  HN ES        447 26.42                             115    0.46 8  251 194 
 CHI  HZ I         447 29.39         1.1 0.34            116            251 194 
 HEL  HZ EP   2    446 59.24                             113    0.56 4  268 255 
 HEL  HN ES        447 29.15                             113   -0.16 8  268 255 
 HEL  HZ I         447 37.25         2.4 0.34            114            268 255 
 GUY2CHN ES   4    447 38.32                             111    2.52 0  299 234 
 GUY2CHZ I         447 43.50         2.2 0.24                           299 234 
 CBOC HZ EP   2    447  6.05                             108    0.56 3  330 251 
 CBOC HE ES        447 41.92                             108    0.49 7  330 251 
                                                                                
