 2011  610 0908 54.2 L   6.759 -73.110149.8  RSN  5 0.1 1.5LRSN                1
 GAP=185        0.33       6.5     7.0  7.7 -0.1445E+02 -0.4051E+02  0.3894E+00E
 Epicentro: LOS SANTOS - SANTANDER                                             3
 ACTION:UP  11-07-14 19:04 OP:ep   STATUS:               ID:20110610090854 L   I
 2011-06-10-0907-21S.COL___120                                                 6
 STAT SP IPHASW D HRMM SECON CODA AMPLIT PERI AZIMU VELO SNR AR TRES W  DIS CAZ7
 BAR2 SZ EP   2    9 9 14.11                             172    -0.1 5   20 203 
 BRR  HZ EP        9 9 16.12                             151     0.010   77 300 
 BRR  HE ES   1    9 9 33.15                             151     0.0 7   77 300 
 BRR  HZ I         9 9 35.89         7.2 0.26                            77 300 
 BRI  SZ EP   1    9 9 18.74                             141     0.1 7  111  18 
 BRI  SZ I         9 9 19.52         3.0 0.07                           111  18 
 GRA  SZ EP        9 9 20.05                             137     0.010  129  15 
 GRA  SZ I         9 9 45.34         2.6 0.35                           129  15 
 OCA  SZ EP   1    9 9 23.15                             130    -0.1 7  165 352 
 OCA  SZ I         9 9 49.60         5.0 0.33                           165 352 
                                                                                
