 2013  110 0324 49.3 L   6.737 -73.171142.3  RSN  4 0.5 1.6LRSN                1
 GAP=240        1.19      13.4     8.6 10.8  0.4462E+02  0.2499E+02  0.6937E+01E
 Epicentro: VILLANUEVA - SANTANDER                                             3
 ACTION:UPD 13-02-15 09:13 OP:ep   STATUS:               ID:20130110032449 L   I
 2013-01-10-0320-00M.COL___242                                                 6
 STAT SP IPHASW D HRMM SECON CODA AMPLIT PERI AZIMU VELO AIN AR TRES W  DIS CAZ7
 BAR2 SZ EP        325  8.25                             174   -0.1110 16.0 184 
 BAR2 SZ ES        325 22.75                             174   -0.4910 16.0 184 
 BAR2 SZ I         325 24.31         4.5 0.28            168           16.0 184 
 BRR  HZ EP        325 10.30                             151    0.1810 72.5 304 
 BRR  HN ES        325 27.09                             151    0.7110 72.5 304 
 BRR  HN I         325 27.70        10.0 0.24            149           72.5 304 
 PTB  HZ EP        325 15.86                             132    0.26 9  144 261 
 PTB  HN ES        325 36.30                             132    0.17 9  144 261 
 PTB  HN I         325 41.13         6.0 0.52            130            144 261 
 ZAR  HN ES        325 45.76                             121   -0.90 9  204 294 
 ZAR  HN I         325 50.68         5.3 0.44            121            204 294 
                                                                                
