 2013 1010 0217 38.3 L   5.802 -73.857118.1  RSN  4 0.2 1.4LRSN                1
 GAP=152        0.50       5.9     3.9  5.4 -0.1689E+02  0.2410E+01 -0.4471E+01E
 Epicentro: ALBANIA - SANTANDER                                                3
 ACTION:UPD 13-11-25 09:20 OP:ep   STATUS:               ID:20131010021738 L   I
 OLDACT:UP  13-10-10 12:39 OP:mh   STATUS:               ID:20131010021641     3
 OLDACT:REG 13-10-10 12:25 OP:mh   STATUS:               ID:20131010021641     3
 2013-10-10-0216-41M.COL___230                                                 6
 STAT SP IPHASW D HRMM SECON CODA AMPLIT PERI AZIMU VELO AIN AR TRES W  DIS CAZ7
 SPBC HZ EP   1    217 54.83                             165    0.31 7 29.0 235 
 SPBC HN ES        218  7.30                             165    0.1010 29.0 235 
 SPBC HZ I         218  8.35        14.4 0.24            129           29.0 235 
 RUS  HZ EP   1    217 58.45                             142    0.17 7 86.3  83 
 RUS  HN ES   1    218 13.55                             142   -0.34 7 86.3  83 
 RUS  HZ I         218 14.76         1.3 0.25            114           86.3  83 
 BAR2 SZ ES        218 17.50                             133    0.0010  115  40 
 BAR2 SZ I         218 19.45        14.5 0.36            104            115  40 
 NOR  HZ EP   1    217 59.85                             132   -0.23 7  115 257 
 NOR  HE ES   2    218 16.83                             132   -0.26 5  115 257 
 NOR  HZ I         218 19.50         3.8 0.08             99            115 257 
                                                                                
