 2016  110 0614 33.2 L   6.827 -73.166148.3  RSN  6 0.4 1.3LRSN                1
 GAP=133        1.04       4.3     5.3  6.9  0.8034E+00  0.6163E+01 -0.5982E+01E
 Epicentro: LOS SANTOS - SANTANDER                                             3
 ACTION:UPD 16-03-09 23:24 OP:cam  STATUS:               ID:20160110061433 L   I
 OLDACT:DUP 16-01-10 15:51 OP:drio STATUS:               ID:20160110060744d    3
 OLDACT:REG 16-01-10 12:28 OP:drio STATUS:               ID:20160110060743     3
 2016-01-10-0607-43M.COL___254                                                 6
 STAT SP IPHASW D HRMM SECON CODA AMPLIT PERI AZIMU VELO AIN AR TRES W  DIS CAZ7
 BAR2 EZ EP        614 53.42                             170    0.2210 26.0 184 
 BAR2 EZ ES        615  7.99                             170   -0.8010 26.0 184 
 BAR2 EZ I         615  9.38         2.5 0.14            172           26.0 184 
 BRR  HZ EP        614 54.94                             154    0.4910 67.8 297 
 BRR  HN ES        615 11.69                             154    0.6810 67.8 297 
 BRR  HZ I         615 15.35         4.1 0.46            153           67.8 297 
 PAM  EZ EP        614 55.57                             151   -0.0710 76.6  42 
 PAM  EE ES        615 13.25                             151    0.1110 76.6  42 
 PAM  EZ I         615 15.25         2.9 0.60            153           76.6  42 
 RUS  HZ EP        614 57.47                             143    0.0410  104 175 
 RUS  HE ES        615 16.39                             143    0.0610  104 175 
 RUS  HZ I         615 17.74         2.4 0.30            147            104 175 
 PTB  HZ EP        614 59.92                             133   -0.32 9  146 258 
 PTB  HE ES        615 21.21                             133   -0.12 9  146 258 
 PTB  HZ I         615 23.68         2.2 0.36            134            146 258 
 SML  HZ EP        615  9.67                             118    0.08 8  240 335 
 SML  HE ES        615 37.33                             118   -0.63 8  240 335 
 SML  HZ I         615 41.47         2.5 0.10            120            240 335 
                                                                                
