 2012  810 0937 17.1 L   6.739 -73.173145.4  RSN  5 0.2 1.5LRSN                1
 GAP=229        0.40       4.2     4.0  4.8  0.7976E+01  0.4504E+01 -0.1503E+01E
 Epicentro: VILLANUEVA - SANTANDER                                             3
 ACTION:UPD 12-09-10 11:55 OP:ep   STATUS:               ID:20120810093717 L   I
 2012-08-10-0930-00M.COL___218                                                 6
 STAT SP IPHASW D HRMM SECON CODA AMPLIT PERI AZIMU VELO AIN AR TRES W  DIS CAZ7
 BAR2 SZ EP   1    937 36.36                             173   -0.16 7 16.2 184 
 BAR2 SZ ES   1    937 51.94                             173    0.25 7 16.2 184 
 BAR2 SZ I         937 54.30        11.5 0.39                          16.2 184 
 BRR  HZ EP   1    937 38.27                             152    0.05 7 72.1 304 
 BRR  HZ I         937 39.54         5.5 0.27                          72.1 304 
 BRR  HN ES   1    937 54.61                             152   -0.11 7 72.1 304 
 RUS  HE ES   1    937 58.29                             146   -0.16 7 94.1 174 
 RUS  HZ I         938  0.78         3.3 0.32                          94.1 174 
 PTB  HZ EP   1    937 43.85                             133    0.23 7  144 261 
 PTB  HN ES   1    938  4.35                             133    0.02 7  144 261 
 ZAR  HN ES   2    938 14.45                             122   -0.29 4  204 294 
                                                                                
