 2016 1110 0131 16.6 L   6.807 -73.137141.8  RSN  7 0.4 1.6LRSN                1
 GAP=153        0.99       4.6     5.4  7.1 -0.4168E+00  0.1029E+02  0.1517E+02E
 Epicentro: LOS SANTOS - SANTANDER                                             3
 ACTION:UPD 17-10-26 21:06 OP:lp   STATUS:               ID:20161110013116 L   I
 OLDACT:REG 16-11-10 11:51 OP:lv   STATUS:               ID:20161110012740     3
 2016-11-10-0128-00M.COL___349                                                 6
 STAT SP IPHASW D HRMM SECON CODA AMPLIT PERI AZIMU VELO AIN AR TRES W  DIS CAZ7
 BAR2 EZ ES        131 50.27                             170   -0.4310 24.3 192 
 BAR2 EZ I         131 51.32         9.7 0.17            167           24.3 192 
 BRR  HZ EP        131 37.39                             152    0.0710 71.7 298 
 BRR  HE ES        131 54.31                             152    0.8010 71.7 298 
 BRR  HZ I         131 58.13        15.0 0.11            151           71.7 298 
 PAM  EZ IP     C  131 38.51                             150    0.2210 76.2  39 
 PAM  EN ES        131 55.03                             150   -0.2010 76.2  39 
 PAM  EZ I         131 57.25         6.8 0.28            155           76.2  39 
 PTB  HZ EP        131 42.67                             131   -0.65 9  149 259 
 PTB  HN ES   4    132  2.76                             131   -1.42 0  149 259 
 PTB  HZ I         132  6.05         4.3 0.13            130            149 259 
 ZAR  HZ EP   4    131 50.18                             121    1.36 0  205 292 
 ZAR  HN ES        132 13.63                             121   -0.35 9  205 292 
 ZAR  HZ I         132 19.26         3.7 0.19            122            205 292 
 CHI  HZ EP        131 54.49                             116    0.33 8  250 195 
 CHI  HE ES        132 23.52                             116    0.04 8  250 195 
 CHI  HZ I         132 30.60         2.1 0.40            117            250 195 
 PRA  HZ EP        132 10.32                             106    0.23 6  393 210 
 PRA  HN ES        132 51.95                             106    0.12 6  393 210 
 PRA  HZ I         132 57.25         1.8 0.20            106            393 210 
 SJC  HZ EP   4    132 10.17                             105   -1.82 0  409 327 
 SJC  HN ES   4    132 51.66                             105   -3.56 0  409 327 
                                                                                
