 2013  610 0322 48.8 L   6.737 -73.197149.7  RSN  4 0.3 1.4LRSN                1
 GAP=227        0.61       6.1     6.0  5.9  0.1907E+02  0.6365E+01  0.6404E+01E
 Epicentro: VILLANUEVA - SANTANDER                                             3
 ACTION:UPD 14-01-08 09:53 OP:ep   STATUS:               ID:20130610032248 L   I
 OLDACT:UP  13-06-10 09:47 OP:cam  STATUS:               ID:20130610031959     3
 OLDACT:REG 13-06-10 07:46 OP:cam  STATUS:               ID:20130610031959     3
 2013-06-10-0319-59M.COL___261                                                 6
 STAT SP IPHASW D HRMM SECON CODA AMPLIT PERI AZIMU VELO AIN AR TRES W  DIS CAZ7
 BAR2 SZ EP   1    323  8.37                             174   -0.36 7 16.1 174 
 BAR2 SZ ES   1    323 24.10                             174   -0.22 7 16.1 174 
 BRR  HZ EP   1    323 10.13                             154   -0.13 7 70.0 306 
 BRR  HN ES        323 27.27                             154    0.2310 70.0 306 
 BRR  HZ I         323 29.28         5.9 0.34            153           70.0 306 
 RUS  HZ EP   1    323 13.04                             146    0.59 7 94.3 172 
 RUS  HN ES   1    323 30.89                             146   -0.05 7 94.3 172 
 RUS  HZ I         323 31.81         3.2 0.32            148           94.3 172 
 PTB  HZ EP        323 15.33                             134   -0.11 9  141 261 
 PTB  HN ES   1    323 36.19                             134   -0.06 7  141 261 
 PTB  HZ I         323 37.94         2.8 0.18            135            141 261 
                                                                                
