 2015  710 0954 49.2 L   6.856 -73.224127.1  RSN  8 0.4 1.9LRSN                1
 GAP=175        0.73       2.6     4.5  6.4  0.2791E+00  0.1326E+02 -0.2201E+01E
 Epicentro: ZAPATOCA - SANTANDER                                               3
 ACTION:UPD 15-09-08 21:47 OP:cam  STATUS:               ID:20150710095449 L   I
 OLDACT:REG 15-07-10 13:03 OP:spq  STATUS:               ID:20150710094747     3
 2015-07-10-0947-47M.COL___340                                                 6
 STAT SP IPHASW D HRMM SECON CODA AMPLIT PERI AZIMU VELO AIN AR TRES W  DIS CAZ7
 BAR2 EZ EP        955  6.96                             166    0.1910 29.5 171 
 BAR2 EZ ES   1    955 20.41                             166   -0.05 7 29.5 171 
 BAR2 EZ I         955 21.58        26.7 0.26            170           29.5 171 
 RUS  HZ EP   1    955 12.07                             137    0.31 7  108 172 
 RUS  HN ES   1    955 29.18                             137   -0.15 7  108 172 
 OCA  HZ EP        955 15.31                             126   -0.15 9  153 356 
 OCA  HE ES        955 35.85                             126   -0.08 9  153 356 
 OCA  HZ I         955 44.32        15.2 0.44            128            153 356 
 ZAR  HZ EP        955 19.05                             119   -0.37 9  194 291 
 ZAR  HE ES        955 43.24                             119    0.26 9  194 291 
 ZAR  HZ I         955 46.07         7.9 0.56            121            194 291 
 NOR  HE ES   1    955 49.66                             115   -0.72 6  231 232 
 NOR  HZ I         955 56.97         3.2 0.14            117            231 232 
 SML  HZ EP   1    955 23.16                             114   -0.69 6  235 337 
 SML  HE ES   1    955 51.46                             114    0.60 6  235 337 
 SML  HZ I         955 54.70         9.1 0.32            116            235 337 
 GUY2CHZ EP        955 32.04                             109    0.39 7  298 233 
 CBOC HZ EP        955 35.00                             107    0.29 7  327 251 
                                                                                
