 2010 1210 0550 33.2 L   6.841 -73.023153.3  RSN  6 0.2 1.6LRSN                1
 GAP=172        0.33       2.5     9.4  5.0 -0.1056E+02  0.1350E+02 -0.1416E+01E
 Epicentro: CEPITA - SANTANDER                                                 3
 ACTION:UP  11-01-14 15:23 OP:pat  STATUS:               ID:20101210055033 L   I
 2010-12-10-0540-00M.COL___135                                                 6
 STAT SP IPHASW D HRMM SECON CODA AMPLIT PERI AZIMU VELO SNR AR TRES W  DIS CAZ7
 BTL  SZ EP        550 53.97                             169     0.110   28 288 
 BAR2 SZ EP   2    550 53.96                             167     0.0 5   33 213 
 BAR2 SZ ES   2    551 10.30                             167     0.1 5   33 213 
 RUS  HZ EP   2    550 58.12                             144     0.1 5  105 184 
 RUS  HN ES   2    551 17.19                             144    -0.2 5  105 184 
 RUS  HZ I         551 19.05         2.9 0.14                           105 184 
 GRA  SZ EP   2    550 58.40                             140    -0.1 5  118  12 
 GRA  SZ ES   2    551 18.00                             140    -0.3 5  118  12 
 GRA  SZ I         551 21.56         5.4 0.36                           118  12 
 OCA  SZ EP   2    551  2.06                             132     0.1 5  158 348 
 OCA  SZ ES   2    551 24.21                             132    -0.1 5  158 348 
 OCA  SZ I         551 28.48         7.1 0.36                           158 348 
 PRA  HZ EP   2    551 28.43                             107     0.2 3  403 211 
 PRA  HN ES   2    552 10.68                             107    -0.5 3  403 211 
                                                                                
