 2011 1010 0514 10.4 L   6.796 -73.107139.7  RSN 15 0.4 2.7LRSN                1
 GAP=118        0.84       2.9     4.5  5.3 -0.3111E+00  0.6187E+01  0.4729E+01E
 Epicentro: LOS SANTOS - SANTANDER                                             3
 ACTION:UPD 12-07-13 16:03 OP:ep   STATUS:               ID:20111010051410 L   I
 2011-10-10-0512-37S.COL___168                                                 6
 STAT SP IPHASW D HRMM SECON CODA AMPLIT PERI AZIMU VELO AIN AR TRES W  DIS CAZ7
 BAR2 SZ EP        514 29.33                             170   -0.0110 24.0 200 
 BAR2 SZ ES   1    514 43.83                             170   -0.27 7 24.0 200 
 BAR2 SZ I         514 45.58       236.5 0.15                          24.0 200 
 PAM  SZ EP        514 32.23                             150    0.3710 75.1  37 
 PAM  SE ES   1    514 48.65                             150    0.07 7 75.1  37 
 PAM  SZ I         514 51.03        38.8 0.32                          75.1  37 
 BRR  HZ EP        514 31.23                             150    0.0710 75.2 297 
 BRR  HN ES   1    514 47.80                             150    0.47 7 75.2 297 
 BRR  HZ I         514 52.63       144.7 0.14                          75.2 297 
 RUS  HZ EP        514 33.31                             143   -0.2310 99.9 178 
 RUS  HN ES   1    514 51.39                             143   -0.18 7 99.9 178 
 RUS  HZ I         514 52.86        40.9 0.26                          99.9 178 
 OCA  SZ EP        514 38.16                             128   -0.21 9  161 352 
 OCA  SZ ES   1    514 59.81                             128   -0.35 7  161 352 
 OCA  SZ I         515  4.89        55.9 0.24                           161 352 
 YOP  SZ EP        514 40.07                             125    0.25 9  177 154 
 YOP  SZ I         515  7.05        50.6 0.61                           177 154 
 ZAR  HZ EP   2    514 43.28                             120    0.36 4  208 292 
 ZAR  HN ES   1    515  7.87                             120   -0.39 6  208 292 
 ZAR  HZ I         515 13.74        60.9 0.29                           208 292 
 NOR  SZ EP        514 45.38                             117   -0.79 8  238 235 
 CHI  HZ EP   1    514 47.48                             116   -0.40 6  249 196 
 CHI  HE ES   1    515 16.32                             116   -0.77 6  249 196 
 CHI  HZ I         515 23.44        21.8 0.30                           249 196 
 ROSC BZ EP        514 49.24                             115    0.81 8  255 212 
 ROSC BE ES   1    515 18.98                             115    0.91 6  255 212 
 ROSC BZ I         515 25.14        62.9 0.36                           255 212 
 HEL  HZ EP   1    514 51.38                             113    0.58 6  276 256 
 HEL  HZ I         515 28.17        36.8 0.19                           276 256 
 VIL  SZ EP   1    514 53.02                             111   -0.61 5  304 192 
 VIL  SZ I         515 38.65        23.6 0.36                           304 192 
 GUY  SZ EP   1    514 54.77                             111    0.37 5  307 236 
 RREF HZ EP   1    514 56.57                             109   -0.09 5  325 230 
 RREF HZ I         515 41.73        39.1 0.32                           325 230 
 PRA  HZ EP   1    515  3.76                             105   -0.20 4  394 210 
 PRA  HE ES   1    515 45.98                             105    0.28 4  394 210 
                                                                                
