 2014  110 0722 25.6 L   6.243 -74.061 59.7  RSN  4 0.3 1.3LRSN                1
 GAP=163        0.72       4.9     2.8  9.8  0.7565E+01  0.5880E+01  0.3299E+02E
 Epicentro: CIMITARRA - SANTANDER                                              3
 ACTION:UPD 14-03-13 09:54 OP:ep   STATUS:               ID:20140110072225 L   I
 OLDACT:REG 14-01-10 08:02 OP:carl STATUS:               ID:20140110072000     3
 2014-01-10-0720-00M.COL___285                                                 6
 STAT SP IPHASW D HRMM SECON CODA AMPLIT PERI AZIMU VELO AIN AR TRES W  DIS CAZ7
 PTB  HZ EP        722 37.03                             131   -0.0310 54.7 307 
 PTB  HN ES        722 46.12                             131    0.1510 54.7 307 
 PTB  HZ I         722 49.51        17.2 0.10            143           54.7 307 
 RUS  HZ EP        722 44.43                             109    0.2810  115 110 
 RUS  HN ES        722 58.12                             109   -0.4610  115 110 
 RUS  HZ I         722 59.21         3.5 0.24            120            115 110 
 HEL  HZ IP     C  722 49.72                             102    0.06 9  163 268 
 HEL  HN ES   1    723  7.77                             102   -0.61 7  163 268 
 HEL  HZ I         723 10.01         4.4 0.30            110            163 268 
 CHI  HZ EP        722 52.34                             100    0.26 9  182 168 
 CHI  HN ES        723 12.80                             100    0.11 9  182 168 
 CHI  HZ I         723 16.49         1.7 0.44            107            182 168 
                                                                                
