 2014  210 0019 53.6 L   6.824 -73.077145.9  RSN 10 0.5 1.8LRSN                1
 GAP=144        1.27       3.8     5.2  7.5 -0.3046E+01  0.7098E+01  0.1886E+01E
 Epicentro: LOS SANTOS - SANTANDER                                             3
 ACTION:UPD 14-03-10 08:09 OP:ep   STATUS:               ID:20140210001953 L   I
 OLDACT:REG 14-02-10 10:45 OP:fm   STATUS:               ID:20140210001836     3
 2014-02-10-0018-36M.COL___224                                                 6
 STAT SP IPHASW D HRMM SECON CODA AMPLIT PERI AZIMU VELO AIN AR TRES W  DIS CAZ7
 BAR2 SZ EP        020 13.17                             169   -0.1410 28.2 204 
 BAR2 SZ ES        020 27.89                             169   -0.8310 28.2 204 
 BAR2 SZ I         020 29.03        17.3 0.17            171           28.2 204 
 PAM  SZ EP        020 16.15                             153    0.7510 70.6  36 
 PAM  SN ES        020 32.92                             153    0.4910 70.6  36 
 PAM  SZ I         020 35.13        14.1 0.41            153           70.6  36 
 BRR  HZ EP        020 15.39                             151    0.3510 76.8 294 
 BRR  HN ES        020 32.20                             151    0.4010 76.8 294 
 BRR  HZ I         020 36.42         8.9 0.25            151           76.8 294 
 RUS  HZ EP        020 17.46                             143   -0.0410  103 180 
 RUS  HN ES        020 36.06                             143   -0.1110  103 180 
 RUS  HZ I         020 37.62         7.4 0.41            147            103 180 
 PTB  HZ EP        020 20.42                             130   -0.84 9  156 258 
 PTB  HE ES        020 43.52                             130    0.65 9  156 258 
 OCA  HZ EP        020 21.33                             130   -0.40 9  159 350 
 OCA  HN ES        020 43.23                             130   -0.47 9  159 350 
 OCA  HZ I         020 48.50         5.4 0.26            131            159 350 
 SPBC HN ES        020 45.50                             128    0.03 9  170 220 
 ZAR  HZ EP   1    020 26.35                             122   -0.28 6  210 291 
 ZAR  HN ES        020 52.03                             122   -0.41 8  210 291 
 ZAR  HZ I         020 54.06         5.0 0.11            123            210 291 
 NOR  HE ES        020 59.26                             118    0.61 8  242 235 
 CHI  HZ EP     C  020 32.38                             117    0.61 8  253 197 
 CHI  HN ES        021  1.00                             117   -0.57 8  253 197 
                                                                                
