 2012  910 0716 47.4 L   6.785 -73.140148.4  RSN 15 0.4 3.3LRSN 3.5WRSN        1
 SPEC AVERAGE  MO 14.3 ST  8.3 OM  3.3 f0 2.92 R0.5245 AL 2.95 WI 10.6 MW  3.5 3
 SPEC SD       MO  0.3 ST  3.3 OM  0.7 f00.621 R0.0976 AL      WI      MW  0.2 3
 GAP= 66        0.88       3.2     3.1  5.2  0.1846E+01  0.3693E+01  0.6343E+01E
 Epicentro: LOS SANTOS - SANTANDER                                             3
 SPEC ROSCBH Z MO 14.7 ST 12.0 OM  2.9 f0 2.52 R0.5833 AL 3.88 WI 14.9 MW  3.8 3
 SPEC ROSCBH Z T 71754 K 0.000 GD  292 VS 4.20 DE 3.00 Q0230.0 QA 0.60 VS 4.20 3
 SPEC RUS HH Z MO 14.1 ST  2.0 OM  2.5 f0 2.24 R0.6562 AL 1.91 WI 10.0 MW  3.4 3
 SPEC RUS HH Z T 71729 K 0.000 GD  178 VS 4.20 DE 3.00 Q0230.0 QA 0.60 VS 4.20 3
 SPEC PAM SH Z MO 14.0 ST  9.1 OM  2.4 f0 4.06 R0.3621 AL 2.93 WI  4.7 MW  3.3 3
 SPEC PAM SH Z T 71727 K 0.000 GD  167 VS 4.20 DE 3.00 Q0230.0 QA 0.60 VS 4.20 3
 SPEC HEL HH Z MO 14.5 ST  9.5 OM  2.6 f0 2.88 R0.5104 AL 2.54 WI 11.2 MW  3.6 3
 SPEC HEL HH Z T 71759 K 0.000 GD  309 VS 4.20 DE 3.00 Q0230.0 QA 0.60 VS 4.20 3
 SPEC CHI HH Z MO 14.4 ST  8.8 OM  2.6 f0 2.88 R0.5104 AL 3.47 WI 12.1 MW  3.6 3
 SPEC CHI HH Z T 71753 K 0.000 GD  288 VS 4.20 DE 3.00 Q0230.0 QA 0.60 VS 4.20 3
 ACTION:UPD 12-10-22 14:18 OP:ep   STATUS:               ID:20120910071647 L   I
 2012-09-10-0710-00M.COL___227                                                 6
 STAT SP IPHASW D HRMM SECON CODA AMPLIT PERI AZIMU VELO AIN AR TRES W  DIS CAZ7
 BAR2 SZ IP        717  7.27                             171   -0.0610 21.8 192 
 BAR2 SZ ES   1    717 22.77                             171   -0.09 7 21.8 192 
 BAR2 SZ I         717 24.06       759.8 0.31                          21.8 192 
 GIR2 SZ EP        717  7.35                             167   -0.0910 33.0 350 
 BRR  HZ IP     D  717  9.15                             153    0.2310 72.5 299 
 BRR  HN ES        717 26.31                             153    0.6210 72.5 299 
 BRR  HZ I         717 28.67       351.2 0.14                          72.5 299 
 PAM  SZ EP        717 10.10                             151    0.1410 78.3  38 
 PAM  SE ES   1    717 27.21                             151   -0.34 7 78.3  38 
 PAM  SZ I         717 29.30       411.6 0.44                          78.3  38 
 RUS  HZ IP     D  717 11.10                             145   -0.2010 98.9 176 
 RUS  HN ES   1    717 29.64                             145   -0.30 7 98.9 176 
 PTB  HZ EP   1    717 14.10                             133   -0.51 7  148 260 
 PTB  HZ I         717 41.21       238.5 0.24                           148 260 
 TAM  HZ IP     D  717 15.42                             131    0.21 9  154 104 
 TAM  HZ I         717 15.62       364.8 0.32                           154 104 
 TAM  HE ES   1    717 36.31                             131   -0.58 7  154 104 
 YOP  SZ IP     D  717 17.74                             127    0.27 9  177 153 
 YOP  SZ I         717 18.99       150.2 0.37                           177 153 
 YOP  SE ES   1    717 41.45                             127    0.52 7  177 153 
 ZAR  HZ EP        717 19.91                             123   -0.23 9  205 293 
 ZAR  HN ES        717 45.09                             123   -0.59 9  205 293 
 ZAR  HZ I         717 51.74       308.8 0.38                           205 293 
 NOR  SZ EP        717 23.23                             119   -0.01 8  234 235 
 NOR  SN ES   1    717 51.48                             119    0.29 6  234 235 
 NOR  SZ I         717 58.49       169.6 0.26                           234 235 
 CHI  HZ EP        717 25.18                             118    0.08 8  247 195 
 CHI  HN ES   1    717 54.09                             118   -0.41 6  247 195 
 CHI  HZ I         718  0.68       110.2 0.38                           247 195 
 ROSC BZ EP        717 26.68                             117    1.13 8  252 211 
 ROSC BZ I         717 28.59       110.9 0.30                           252 211 
 HEL  HZ EP   1    717 27.99                             115    0.22 6  272 256 
 HEL  HZ I         718  6.26       149.9 0.38                           272 256 
 VIL  SZ EP   1    717 30.20                             113   -0.58 5  302 192 
 VIL  SZ I         717 32.74        44.3 0.36                           302 192 
 VIL  SN ES   1    718  4.16                             113   -0.45 5  302 192 
 PRA  HZ EP        717 40.26                             107   -0.63 6  391 210 
 PRA  HN ES   1    718 22.61                             107    0.01 4  391 210 
                                                                                
