 2013  510 0735 44.5 L   6.789 -73.251157.7  RSN  4 0.4 1.6LRSN                1
 GAP=191        0.73       5.2     8.3  9.2 -0.8057E+00 -0.3569E+02 -0.6340E+01E
 Epicentro: ZAPATOCA - SANTANDER                                               3
 ACTION:UPD 13-06-20 09:49 OP:ep   STATUS:               ID:20130510073544 L   I
 2013-05-10-0730-00M.COL___256                                                 6
 STAT SP IPHASW D HRMM SECON CODA AMPLIT PERI AZIMU VELO AIN AR TRES W  DIS CAZ7
 BRR  HZ EP   1    736  6.68                             157    0.20 8 61.9 305 
 BRR  HN ES   1    736 23.95                             157    0.32 8 61.9 305 
 RUS  HZ EP   1    736  9.05                             146   -0.40 8  101 169 
 PTB  HZ EP        736 11.74                             137    0.2810  136 258 
 PTB  HN ES        736 32.25                             137   -0.2510  136 258 
 PTB  HZ I         736 34.51         2.9 0.32            135            136 258 
 SML  HZ EP        736 21.69                             120    0.25 8  240 338 
 SML  HN ES   1    736 49.59                             120   -0.67 6  240 338 
 SML  HZ I         736 52.71         4.8 0.10            119            240 338 
                                                                                
