 2015 1110 0833 36.9 L   6.822 -73.105140.4  RSN  8 0.4 1.7LRSN                1
 GAP=187        0.89       2.7     4.9  5.7  0.5030E+00  0.5372E+01 -0.2872E+01E
 Epicentro: LOS SANTOS - SANTANDER                                             3
 ACTION:UPD 15-12-28 16:09 OP:cam  STATUS:               ID:20151110083336 L   I
 OLDACT:UP  15-11-10 19:20 OP:ak   STATUS:               ID:20151110082747     3
 OLDACT:UP  15-11-10 19:19 OP:ak   STATUS:               ID:20151110082747     3
 OLDACT:UP  15-11-10 19:18 OP:ak   STATUS:               ID:20151110082747     3
 OLDACT:UP  15-11-10 19:15 OP:ak   STATUS:               ID:20151110082747     3
 OLDACT:REG 15-11-10 13:38 OP:dnl  STATUS:               ID:20151110082747     3
 2015-11-10-0827-47M.COL___310                                                 6
 STAT SP IPHASW D HRMM SECON CODA AMPLIT PERI AZIMU VELO AIN AR TRES W  DIS CAZ7
 BAR2 EZ EP        833 56.06                             169    0.1110 26.8 199 
 BAR2 EZ ES        834 10.53                             169   -0.2910 26.8 199 
 BAR2 EZ I         834 12.39        13.3 0.10            166           26.8 199 
 BRR  HZ EP        833 57.99                             151    0.3510 74.2 295 
 BRR  HN ES        834 14.65                             151    0.8310 74.2 295 
 BRR  HZ I         834 15.44         8.8 0.19            147           74.2 295 
 RUS  HZ EP        834  0.38                             142    0.1010  103 179 
 RUS  HN ES        834 18.31                             142   -0.2110  103 179 
 OCA  HZ EP        834  4.65                             129    0.03 9  159 351 
 OCA  HN ES        834 25.94                             129   -0.31 9  159 351 
 SPBC HZ EP   1    834  5.36                             127   -0.08 7  168 220 
 SPBC HN ES        834 27.47                             127   -0.24 9  168 220 
 SPBC HZ I         834 33.77         6.1 0.14            126            168 220 
 ZAR  HZ EP   1    834  9.98                             121    0.64 6  207 291 
 ZAR  HN ES        834 34.38                             121   -0.27 8  207 291 
 ZAR  HZ I         834 39.76         5.0 0.30            120            207 291 
 SML  HZ EP        834 13.12                             116   -0.08 8  243 334 
 SML  HE ES        834 40.97                             116   -0.55 8  243 334 
 SML  HZ I         834 47.01         6.0 0.07            116            243 334 
 GUY2CHZ EP   1    834 21.35                             111    0.51 5  306 235 
 GUY2CHN ES        834 54.66                             111   -0.45 7  306 235 
 GUY2CHZ I         834 59.18         1.8 0.32                           306 235 
                                                                                
