 2011  410 0115 49.7 L   6.712 -73.102139.4  RSN  6 0.3 1.6LRSN                1
 GAP=181        0.67       5.8     8.0  6.5 -0.1845E+02  0.5821E+01 -0.9253E+01E
 Epicentro: JORDAN - SANTANDER                                                 3
 ACTION:UP  11-06-22 15:30 OP:REBC STATUS:               ID:20110410011549 L   I
 2011-04-10-0100-00M.COL___140                                                 6
 STAT SP IPHASW D HRMM SECON CODA AMPLIT PERI AZIMU VELO SNR AR TRES W  DIS CAZ7
 BAR2 SZ EP   1    116  8.58                             173     0.1 8   16 214 
 BAR2 SZ ES   1    116 23.42                             173     0.3 8   16 214 
 BAR2 SZ I         116 24.98        10.2 0.17                            16 214 
 GIR2 SZ EP   1    116  8.72                             163    -0.3 8   42 346 
 BRR  HZ EP   1    116 10.37                             148    -0.4 8   80 303 
 BRR  HE ES   2    116 27.10                             148    -0.1 5   80 303 
 BRR  HZ I         117 38.73         9.6 0.29                            80 303 
 PAM  SZ EP   1    116 11.50                             148    -0.1 8   82  33 
 PAM  SN ES   1    116 28.45                             148    -0.2 8   82  33 
 GRA  SZ EP        116 15.44                             134     0.310  134  14 
 GRA  SZ I         116 16.93         5.3 0.26                           134  14 
 GRA  SZ ES   1    116 34.57                             134    -0.3 7  134  14 
 OCA  SZ EP   1    116 18.66                             126     0.1 7  171 352 
 OCA  SZ ES   2    116 41.63                             126     0.6 5  171 352 
 OCA  SZ I         116 46.07         3.8 0.23                           171 352 
                                                                                
