 2012 1010 0347 51.7 L   6.782 -73.063154.5  RSN  5 0.3 1.5LRSN                1
 GAP=148        0.64       5.0     7.7  7.6 -0.6047E+01  0.1070E+02 -0.4274E+01E
 Epicentro: LOS SANTOS - SANTANDER                                             3
 ACTION:UPD 12-11-22 17:02 OP:ep   STATUS:               ID:20121010034751 L   I
 2012-10-10-0340-00M.COL___226                                                 6
 STAT SP IPHASW D HRMM SECON CODA AMPLIT PERI AZIMU VELO AIN AR TRES W  DIS CAZ7
 BAR2 SZ EP   1    348 12.37                             170   -0.02 7 24.8 212 
 BAR2 SZ I         348 12.83         5.2 0.14                          24.8 212 
 BAR2 SZ ES   1    348 29.01                             170    0.47 7 24.8 212 
 GIR2 SZ EP   1    348 12.10                             166   -0.41 7 35.9 336 
 PAM  SZ EP   1    348 15.01                             153    0.39 7 73.6  33 
 PAM  SE ES   1    348 32.27                             153   -0.24 7 73.6  33 
 PAM  SE I         348 33.99         7.1 0.36                          73.6  33 
 RUS  HZ EP   1    348 16.31                             146    0.16 7 98.4 181 
 RUS  HN ES   1    348 34.90                             146   -0.33 7 98.4 181 
 RUS  HN I         348 36.89         3.9 0.34                          98.4 181 
 ZAR  HN ES   2    348 52.07                             123   -0.07 4  213 292 
                                                                                
