 2012 1110 0718 43.2 L   7.363 -73.126  7.2  RSN  8 0.5 2.1LRSN                1
 GAP=106        1.22       2.1     3.2  6.8 -0.8445E+00  0.8651E+01 -0.5003E+01E
 Epicentro: RIONEGRO - SANTANDER                                               3
 ACTION:UPD 12-12-05 15:32 OP:}ep  STATUS:               ID:20121110071843 L   I
 2012-11-10-0710-00M.COL___230                                                 6
 STAT SP IPHASW D HRMM SECON CODA AMPLIT PERI AZIMU VELO AIN AR TRES W  DIS CAZ7
 GIR2 SZ IP        718 48.85                              97    0.0110 32.3 193 
 GIR2 SZ ES        718 53.11                              97   -0.1510 32.3 193 
 PAM  SZ IP        718 51.78                              95    0.3410 47.2  93 
 PAM  SZ I         718 51.95       104.7 0.12                          47.2  93 
 PAM  SN ES   1    718 58.02                              95    0.13 7 47.2  93 
 BRR  HZ EP        718 54.96                              93    0.4810 70.6 246 
 BRR  HN ES        719  3.80                              93    0.5010 70.6 246 
 BRR  HZ I         719  5.56        25.4 0.46                          70.6 246 
 BAR2 SZ EP        718 57.03                              92    0.0510 85.5 184 
 BAR2 SZ ES        719  7.26                              92   -0.4810 85.5 184 
 BAR2 SZ I         719  9.66        55.0 0.64                          85.5 184 
 OCA  HZ EP        718 58.56                              92   -0.4110 99.2 348 
 OCA  HE ES        719 10.51                              92   -0.7710 99.2 348 
 OCA  HN I         719 11.45       131.3 0.16                          99.2 348 
 RUS  HZ EP        719  9.69                              91    0.75 9  163 178 
 RUS  HN ES        719 28.54                              91   -0.49 9  163 178 
 RUS  HN I         719 31.62        25.7 0.42                           163 178 
 PTB  HN ES        719 29.83                              56   -0.73 9  173 238 
 SML  HZ EP        719 12.40                              56    0.48 9  190 327 
 SML  HE ES        719 34.82                              56    0.48 9  190 327 
                                                                                
