 2013  410 0856 11.0 L   6.334 -73.708100.1  RSN  5 0.2 2.0LRSN                1
 GAP=160        0.47       2.5     2.2  4.6 -0.1269E+00 -0.1844E+00  0.8942E+00E
 Epicentro: SANTA HELENA DEL OPON - SANTANDER                                  3
 ACTION:UPD 13-05-22 14:37 OP:EP   STATUS:               ID:20130410085611 L   I
 2013-04-10-0848-46M.COL___214                                                 6
 STAT SP IPHASW D HRMM SECON CODA AMPLIT PERI AZIMU VELO AIN AR TRES W  DIS CAZ7
 BAR2 SZ EP   1    856 27.46                             144    0.11 7 64.8  64 
 BAR2 SZ ES        856 40.07                             144   -0.0110 64.8  64 
 BAR2 SZ I         856 41.30        59.5 0.12            144           64.8  64 
 RUS  HZ EP        856 29.31                             137    0.0710 84.7 125 
 RUS  HZ I         856 29.62         9.3 0.32            142           84.7 125 
 BRR  HZ EP        856 28.51                             136   -0.1210 85.5 360 
 BRR  HE ES        856 42.20                             136   -0.1710 85.5 360 
 BRR  HN I         856 49.03        20.3 0.18            134           85.5 360 
 PTB  HZ EP        856 28.47                             136   -0.2110 85.8 285 
 PTB  HN ES        856 42.67                             136    0.2210 85.8 285 
 PTB  HZ I         856 44.96        15.5 0.42            136           85.8 285 
 OCA  HN ES        857  7.16                             109    0.24 8  215  12 
 OCA  HN I         857 11.72        24.7 0.26            110            215  12 
                                                                                
