 2011 1110 0539 13.3 L   6.400 -73.595110.1  RSN  6 0.4 1.8LRSN                1
 GAP=176        0.76       4.8     5.0  7.4  0.9342E+01  0.1147E+02 -0.3325E+01E
 Epicentro: SANTA HELENA DEL OPON - SANTANDER                                  3
 ACTION:UPD 12-07-13 16:09 OP:ep   STATUS:               ID:20111110053913 L   I
 2011-11-10-0536-02S.COL___178                                                 6
 STAT SP IPHASW D HRMM SECON CODA AMPLIT PERI AZIMU VELO AIN AR TRES W  DIS CAZ7
 BAR2 SZ EP        539 30.37                             154    0.5710 50.4  65 
 BAR2 SZ ES   1    539 42.73                             154    0.08 7 50.4  65 
 BAR2 SZ I         539 44.47        53.8 0.18                          50.4  65 
 BRR  HZ EP        539 31.37                             141    0.0210 79.2 351 
 BRR  HZ I         539 31.65        19.6 0.15                          79.2 351 
 BRR  HN ES   1    539 45.52                             141    0.11 7 79.2 351 
 RUS  HZ EP   1    539 32.24                             142    0.16 7 79.8 135 
 RUS  HN ES   1    539 46.08                             142   -0.63 7 79.8 135 
 RUS  HZ I         539 47.93         8.3 0.30                          79.8 135 
 PAM  SZ EP   1    539 38.12                             123    0.28 7  144  44 
 PAM  SN ES   1    539 56.57                             123   -0.39 7  144  44 
 PAM  SZ I         539 59.19         1.7 0.22                           144  44 
 ZAR  HZ EP   1    539 41.26                             116   -0.31 7  185 311 
 ZAR  HN ES   1    540  3.48                             116   -0.12 7  185 311 
 ZAR  HZ I         540  7.58        10.3 0.24                           185 311 
 OCA  SZ EP   1    539 43.62                             113   -0.47 6  206   9 
 OCA  SZ I         540 17.30         9.0 0.41                           206   9 
                                                                                
