 2014  110 0648  3.3 L   5.955 -74.135  4.1  RSN  6 0.3 1.0LRSN                1
 GAP=122        0.83       1.9     1.7  5.0  0.3149E+00  0.7622E+00  0.1591E+01E
 Epicentro: LA BELLEZA - SANTANDER                                             3
 ACTION:UPD 14-03-13 09:53 OP:ep   STATUS:               ID:20140110064803 L   I
 OLDACT:DUP 14-01-10 12:58 OP:carl STATUS:               ID:20140110064001d    3
 2014-01-10-0640-00M.COL___285                                                 6
 STAT SP IPHASW D HRMM SECON CODA AMPLIT PERI AZIMU VELO AIN AR TRES W  DIS CAZ7
 SPBC HZ EP        648  8.56                              47   -0.6110 34.1 168 
 SPBC HE ES        648 14.04                              47    0.3010 34.1 168 
 SPBC HZ I         648 18.92         9.1 0.54            117           34.1 168 
 PTB  HZ EP        648 15.17                              47    0.0710 73.8 331 
 PTB  HN ES        648 24.28                              47   -0.0210 73.8 331 
 PTB  HZ I         648 27.66        16.1 0.10            103           73.8 331 
 NOR  HN ES        648 29.13                              47   -0.1710 92.1 242 
 RUS  HZ EP        648 22.59                              47    0.5010  117  93 
 RUS  HN ES        648 36.46                              47   -0.2810  117  93 
 RUS  HZ I         648 37.35         2.8 0.24             98            117  93 
 HEL  HZ IP     C  648 27.85                              47   -0.15 9  156 280 
 HEL  HN ES   4    648 45.59                              47   -1.66 0  156 280 
 GUY2CHZ EP        648 28.75                              47    0.36 9  158 239 
 GUY2CHN ES        648 48.03                              47    0.07 9  158 239 
 GUY2CHZ I         648 54.52         1.7 0.30                           158 239 
                                                                                
