 2012  210 0511 11.4 L   6.763 -73.128153.8  RSN  6 0.4 1.3LRSN                1
 GAP=141        0.58       5.8     6.3  8.1 -0.3657E+00 -0.2280E+01  0.2973E+01E
 ACTION:UP  12-03-07 16:29 OP:epov STATUS:               ID:20120210051111 L   I
 2012-02-10-0510-00M.COL___188                                                 6
 STAT SP IPHASW D HRMM SECON CODA AMPLIT PERI AZIMU VELO AIN AR TRES W  DIS CAZ7
 BAR2 SZ EP   1    511 31.80                             172   -0.11 7 19.8 198 
 BAR2 SZ ES   2    511 47.85                             172   -0.08 5 19.8 198 
 BAR2 SZ I         511 48.59         4.0 0.30                          19.8 198 
 GIR2 SZ EP   2    511 31.71                             166   -0.42 5 35.7 348 
 BRR  HZ EP   1    511 33.60                             153   -0.01 7 75.0 301 
 BRR  HZ I         511 33.98         7.4 0.16                          75.0 301 
 BRR  HE ES   2    511 51.80                             153    0.85 5 75.0 301 
 PAM  SZ EP   2    511 34.64                             152    0.07 5 79.4  37 
 PAM  SE ES   2    511 52.37                             152   -0.29 5 79.4  37 
 RUS  HZ EP   1    511 36.00                             146    0.36 7 96.3 177 
 RUS  HN ES   2    511 54.37                             146   -0.19 5 96.3 177 
 RUS  HZ I         511 55.37         1.3 0.27                          96.3 177 
 PTB  HN ES   2    512  0.20                             133   -0.56 5  149 261 
                                                                                
