 2010  510 0540 57.8 L   6.789 -73.045139.4  RSN  6 0.5 1.5LRSN                1
 GAP=168        1.34       8.1    17.6 15.4  0.3442E+02 -0.1402E+03 -0.5269E+02E
 Epicentro: LOS SANTOS - SANTANDER                                             3
 ACTION:UP  10-08-24 10:04 OP:vdl  STATUS:               ID:20100510054057 L   I
 2010-05-10-0538-34S.COL___104                                                 6
 STAT SP IPHASW D HRMM SECON CODA AMPLIT PERI AZIMU VELO SNR AR TRES W  DIS CAZ7
 BAR2 SZ EP        541 16.54                             169    -0.210   27 215 
 BAR2 SZ ES   1    541 31.57                             169     0.0 7   27 215 
 BRR  HZ IP     C  541 19.12                             149     0.210   82 296 
 BRR  HZ I         541 19.41        13.9 0.14                            82 296 
 BRR  HE ES   1    541 35.70                             149     0.3 7   82 296 
 RUS  HZ EP        541 20.69                             143    -0.210   99 182 
 RUS  HE ES   2    541 38.57                             143    -0.2 5   99 182 
 RUS  HZ I         541 42.58         2.0 0.17                            99 182 
 BRI  SZ EP        541 21.01                             141     0.110  106  15 
 GUE  SZ EP        541 22.85                             138     1.010  116   7 
 OCA  SZ EP        541 25.11                             128    -0.8 9  163 349 
 OCA  SZ ES   2    541 46.51                             128    -1.3 5  163 349 
 OCA  SZ I         541 52.81         5.2 0.27                           163 349 
                                                                                
