 2013  610 0734 11.6 L   6.816 -73.142153.0  RSN 12 0.5 2.6LRSN                1
 GAP= 65        1.03       3.7     3.8  5.5  0.1381E+01  0.2671E+01  0.1329E+01E
 Epicentro: LOS SANTOS - SANTANDER                                             3
 ACTION:UPD 14-01-08 09:53 OP:ep   STATUS:               ID:20130610073411 L   I
 OLDACT:UP  13-06-10 11:25 OP:cam  STATUS:               ID:20130610072959     3
 OLDACT:REG 13-06-10 08:14 OP:cam  STATUS:               ID:20130610072959     3
 2013-06-10-0729-59M.COL___261                                                 6
 STAT SP IPHASW D HRMM SECON CODA AMPLIT PERI AZIMU VELO AIN AR TRES W  DIS CAZ7
 BAR2 SZ EP     C  734 32.01                             170   -0.0810 25.2 190 
 BAR2 SZ ES   1    734 48.67                             170    0.56 7 25.2 190 
 GIR2 SZ EP     D  734 31.87                             169   -0.1810 29.6 349 
 GIR2 SZ ES        734 48.08                             169    0.0510 29.6 349 
 BRR  HZ IP     D  734 33.85                             154    0.3910 70.7 297 
 BRR  HZ I         734 34.14        48.5 0.18            149           70.7 297 
 BRR  HE ES        734 51.36                             154    0.8110 70.7 297 
 PAM  SZ EP        734 34.76                             153    0.3110 75.8  40 
 PAM  SZ I         734 35.09        76.7 0.24            152           75.8  40 
 PAM  SN ES        734 51.75                             153   -0.5710 75.8  40 
 RUS  HZ EP     D  734 35.89                             145   -0.2610  102 176 
 RUS  HN ES   1    734 54.52                             145   -0.81 7  102 176 
 PTB  HZ EP        734 38.58                             133   -0.60 9  148 258 
 PTB  HN ES        735  0.15                             133   -0.59 9  148 258 
 PTB  HZ I         735  4.65        43.4 0.16            131            148 258 
 TAM  HZ IP        734 40.17                             132    0.34 9  155 106 
 TAM  HZ I         734 40.29        34.0 0.18            134            155 106 
 TAM  HN ES   1    735  2.08                             132    0.20 7  155 106 
 OCA  HZ EP   2    734 40.59                             132    0.31 5  159 353 
 OCA  HE ES        735  2.38                             132   -0.30 9  159 353 
 OCA  HZ I         735  9.02        32.3 0.44            129            159 353 
 YOP  SE ES   2    735  6.84                             128    0.61 4  180 154 
 ZAR  HZ EP        734 44.72                             124    0.27 9  204 292 
 ZAR  HN ES   2    735 10.83                             124    0.73 4  204 292 
 ZAR  HZ I         735 16.01        43.5 0.40            122            204 292 
 NOR  HZ EP   1    734 48.04                             120    0.18 6  236 234 
 NOR  HN ES   2    735 17.27                             120    1.10 4  236 234 
 NOR  HZ I         735 21.59        22.4 0.32            119            236 234 
 SML  HZ EP        734 48.40                             119   -0.04 8  242 335 
 SML  HN ES   1    735 16.74                             119   -0.47 6  242 335 
 SML  HZ I         735 24.78        38.0 0.10            117            242 335 
 COD  HZ EP   4    735  0.87                             110    0.85 0  346 355 
 COD  HN ES   4    735 39.29                             110    1.46 0  346 355 
                                                                                
