 2016  210 0415 43.6 L   6.785 -73.134143.7  RSN  7 0.4 1.5LRSN                1
 GAP=202        1.02       3.7     5.7  6.9  0.6287E+01  0.5100E+01 -0.5042E+01E
 Epicentro: LOS SANTOS - SANTANDER                                             3
 ACTION:UPD 16-03-04 21:24 OP:rebc STATUS:               ID:20160210041543 L   I
 OLDACT:DUP 16-02-10 17:06 OP:ak   STATUS:               ID:20160210040741d    3
 OLDACT:REG 16-02-10 14:36 OP:ak   STATUS:               ID:20160210040740     3
 2016-02-10-0407-40M.COL___319                                                 6
 STAT SP IPHASW D HRMM SECON CODA AMPLIT PERI AZIMU VELO AIN AR TRES W  DIS CAZ7
 BAR2 EZ EP        416  3.17                             171    0.2510 22.0 194 
 BAR2 EZ ES        416 18.32                             171    0.3110 22.0 194 
 BAR2 EZ I         416 20.40         5.4 0.34            169           22.0 194 
 RUS  HZ EP        416  6.89                             144   -0.1010 98.8 177 
 RUS  HN ES        416 24.94                             144   -0.3110 98.8 177 
 RUS  HZ I         416 26.94         2.3 0.26            145           98.8 177 
 PTB  HZ EP        416  9.93                             131   -0.52 9  149 260 
 PTB  HN ES        416 30.78                             131   -0.64 9  149 260 
 PTB  HZ I         416 33.26         5.2 0.10            131            149 260 
 SPBC HZ EP        416 12.10                             129    0.24 9  163 220 
 SPBC HN ES        416 33.79                             129   -0.14 9  163 220 
 SPBC HZ I         416 39.29         4.3 0.22            129            163 220 
 ZAR  HZ EP        416 16.63                             122    0.57 8  206 292 
 ZAR  HN ES        416 42.05                             122    0.64 8  206 292 
 ZAR  HZ I         416 47.32         7.6 0.34            122            206 292 
 SML  HZ EP        416 19.49                             117   -0.81 8  246 335 
 SML  HN ES        416 49.03                             117    0.08 8  246 335 
 SML  HZ I         416 51.74         4.4 0.10            118            246 335 
 CHI  HZ EP        416 21.21                             117    0.20 8  247 196 
 CHI  HN ES        416 50.58                             117    0.36 8  247 196 
 CHI  HZ I         416 54.03         1.3 0.42            118            247 196 
                                                                                
