 2012  610 0702 14.6 L   6.769 -73.198153.6  RSN  4 0.6 1.7LRSN                1
 GAP=180        1.18       9.7     9.8 14.2 -0.1826E+02  0.3443E+02 -0.4417E+02E
 Epicentro: VILLANUEVA - SANTANDER                                             3
 ACTION:UPD 12-08-06 17:48 OP:ep   STATUS:               ID:20120610070211 L   I
 2012-06-10-0700-00M.COL___201                                                 6
 STAT SP IPHASW D HRMM SECON CODA AMPLIT PERI AZIMU VELO AIN AR TRES W  DIS CAZ7
 BAR2 SZ EP   1    7 2 34.62                             172   -0.54 7 19.6 175 
 BAR2 SZ ES   1    7 2 51.90                             172    0.75 7 19.6 175 
 BAR2 SZ I         7 2 52.68         8.3 0.28            173           19.6 175 
 PTB  HZ EP   1    7 2 41.34                             135   -0.37 7  141 260 
 PTB  HN ES   1    7 3  2.08                             135   -0.74 7  141 260 
 PTB  HZ I         7 3  7.93         3.2 0.26            135            141 260 
 OCA  HZ EP   1    7 2 44.27                             131    0.43 7  163 355 
 OCA  HN ES   1    7 3  5.85                             131   -0.77 7  163 355 
 OCA  HZ I         7 3 10.09         9.6 0.15            132            163 355 
 ZAR  HZ EP   1    7 2 48.04                             125    0.83 6  200 294 
 ZAR  HE ES   1    7 3 13.22                             125    0.61 6  200 294 
 ZAR  HZ I         7 3 18.20         3.9 0.17            125            200 294 
                                                                                
