 2014 1010 0305 43.3 L   6.875 -73.197144.1  RSN 10 0.5 1.6LRSN                1
 GAP=126        1.18       4.6     5.8  8.8 -0.2763E+01  0.7502E+01 -0.1006E+02E
 Epicentro: BETULIA - SANTANDER                                                3
 ACTION:UPD 14-11-29 23:48 OP:nd   STATUS:               ID:20141010030543 L   I
 OLDACT:REG 14-10-10 12:50 OP:fm   STATUS:               ID:20141010025744     3
 2014-10-10-0257-44M.COL___290                                                 6
 STAT SP IPHASW D HRMM SECON CODA AMPLIT PERI AZIMU VELO AIN AR TRES W  DIS CAZ7
 BAR2 SZ EP   1    3 6  2.78                             167   -0.16 7 31.3 177 
 BAR2 SZ ES   1    3 6 18.11                             167   -0.13 7 31.3 177 
 BAR2 SZ I         3 6 19.97        13.5 0.58            167           31.3 177 
 BRR  HZ EP   1    3 6  4.67                             155    0.86 7 62.4 294 
 BRR  HN ES        3 6 20.75                             155    0.9510 62.4 294 
 BRR  HZ I         3 6 24.70         6.6 0.30            154           62.4 294 
 PAM  SZ EP        3 6  5.66                             151    0.4410 75.2  47 
 PAM  SN ES        3 6 21.93                             151   -0.3810 75.2  47 
 PAM  SZ I         3 6 24.53        10.1 0.28            155           75.2  47 
 RUS  HZ EP   1    3 6  7.63                             141    0.07 7  109 173 
 RUS  HN ES        3 6 26.06                             141   -0.4110  109 173 
 RUS  HZ I         3 6 28.14         2.2 0.30            142            109 173 
 PTB  HZ EP   1    3 6  9.79                             132   -0.03 7  144 255 
 PTB  HN ES        3 6 29.92                             132   -0.57 9  144 255 
 PTB  HZ I         3 6 32.52         3.9 0.52            132            144 255 
 OCA  HZ EP   1    3 6 10.87                             131    0.20 7  151 355 
 SPBC HN ES   1    3 6 34.50                             128    0.14 7  166 216 
 SPBC HZ I         3 6 39.58         3.3 0.30            128            166 216 
 SML  HZ EP   1    3 6 18.63                             118   -0.15 6  234 336 
 SML  HN ES        3 6 45.57                             118   -0.87 8  234 336 
 SML  HZ I         3 6 49.36         6.2 0.10            120            234 336 
 GUY2CHZ EP   4    3 6 24.87                             112   -2.02 0  302 233 
 GUY2CHE ES   4    3 7  3.84                             112    2.97 0  302 233 
 GUY2CHZ I         3 7 10.99         0.9 0.38                           302 233 
 PRA  HZ EP   4    3 6 28.71                             106   -8.60 0  397 208 
 PRA  HN ES   4    3 7 18.93                             106   -0.49 0  397 208 
 PRA  HZ I         3 7 25.51         2.0 0.52            107            397 208 
                                                                                
