 2012 1210 0236 45.7 L   6.789 -73.190143.7  RSN 10 0.4 1.9LRSN                1
 GAP=132        0.81       3.2     4.7  6.8  0.8236E+00  0.1184E+02 -0.1929E+01E
 Epicentro: LOS SANTOS - SANTANDER                                             3
 ACTION:UPD 13-01-04 14:26 OP:ep   STATUS:               ID:20121210023645 L   I
 2012-12-10-0230-00M.COL___242                                                 6
 STAT SP IPHASW D HRMM SECON CODA AMPLIT PERI AZIMU VELO AIN AR TRES W  DIS CAZ7
 BAR2 SZ EP   1    237  5.20                             171    0.17 7 21.7 178 
 BAR2 SZ ES   1    237 20.07                             171   -0.05 7 21.7 178 
 BAR2 SZ I         237 21.05        39.1 0.26                          21.7 178 
 GIR2 SZ EP   1    237  5.24                             167    0.11 7 32.1 359 
 GIR2 SZ ES   1    237 20.48                             167    0.18 7 32.1 359 
 GIR2 SZ I         237 22.32        10.6 0.34                          32.1 359 
 PAM  SZ EP   1    237  8.17                             149    0.24 7 81.5  42 
 PAM  SE ES   1    237 24.92                             149   -0.37 7 81.5  42 
 PAM  SZ I         237 27.46        15.2 0.58                          81.5  42 
 RUS  HZ EP   1    237  9.26                             144    0.09 7 99.8 173 
 RUS  HN ES   1    237 27.28                             144   -0.21 7 99.8 173 
 RUS  HZ I         237 28.65         7.9 0.26                          99.8 173 
 PTB  HZ EP   1    237 11.83                             132   -0.19 7  143 259 
 PTB  HN ES   1    237 31.88                             132   -0.68 7  143 259 
 PTB  HZ I         237 35.25         8.5 0.14                           143 259 
 OCA  HN ES   1    237 35.94                             129    0.03 7  161 355 
 OCA  HZ I         237 38.64        10.2 0.21                           161 355 
 ZAR  HE ES   1    237 43.48                             122    1.03 6  200 293 
 ZAR  HZ I         237 49.46        12.3 0.26                           200 293 
 SML  HZ EP   1    237 21.35                             117   -0.74 6  243 336 
 SML  HE ES   1    237 50.97                             117    0.47 6  243 336 
 CHI  HN ES   1    237 52.58                             117    0.48 6  246 194 
 MON  HN ES   1    238 11.37                             108   -0.76 5  351 309 
                                                                                
