 2010  710 0726 30.1 L   6.780 -73.076148.9  RSN  6 0.4 1.6LRSN                1
 GAP=164        0.67       5.0    10.8  9.5 -0.7199E+01 -0.3496E+02 -0.1036E+02E
 Epicentro: LOS SANTOS - SANTANDER                                             3
 ACTION:UPD 10-12-01 15:16 OP:pat  STATUS:               ID:20100710072630 L   I
 2010-07-10-0724-15S.COL___120                                                 6
 STAT SP IPHASW D HRMM SECON CODA AMPLIT PERI AZIMU VELO AIN AR TRES W  DIS CAZ7
 BAR2 SZ EP   1    726 49.95                             171    -0.1 7   24 210 
 BAR2 SZ ES   2    727  4.91                             171    -0.8 5   24 210 
 BRR  HZ EP   1    726 51.81                             151    -0.2 7   79 297 
 BRR  HZ I         726 52.07        15.9 0.16                            79 297 
 BRR  HN ES   2    727  9.59                             151     0.5 5   79 297 
 RUS  HZ EP   1    726 54.28                             145     0.3 7   98 180 
 RUS  HN ES   2    727 12.85                             145     0.3 5   98 180 
 RUS  HZ I         727 13.79         3.3 0.35                            98 180 
 BRI  SZ EP   1    726 54.50                             142     0.3 7  108  17 
 GUE  SZ EP   1    726 54.93                             140    -0.2 7  117   8 
 GRA  SZ EP   1    726 55.39                             138    -0.2 7  126  14 
 GRA  SZ ES   2    727 16.06                             138     0.5 5  126  14 
                                                                                
