 2010  410 0447 39.6 L   6.825 -72.999144.3  RSN  9 0.4 3.2LRSN                1
 GAP=267        0.97       5.1     6.9  6.3 -0.3154E+00  0.1047E+02  0.1414E+02E
 Epicentro: CEPITA - SANTANDER                                                 3
 ACTION:UPD 10-08-24 09:58 OP:vdl  STATUS:               ID:20100410044739 L   I
 2010-04-10-0440-00S.COL___098                                                 6
 STAT SP IPHASW D HRMM SECON CODA AMPLIT PERI AZIMU VELO AIN AR TRES W  DIS CAZ7
 BAR2 SZ IP        447 59.57                             167     0.310   33 218 
 BAR2 SZ ES        448 14.12                             167    -0.510   33 218 
 BRR  HZ IP     C  448  1.63                             148     0.210   85 292 
 BRR  HE ES        448 18.65                             148     0.210   85 292 
 BRR  HZ I         448 23.42       186.4 0.12                            85 292 
 CHI  HZ EP        448 18.10                             116     0.1 8  256 199 
 CHI  HN ES   1    448 48.13                             116     0.1 6  256 199 
 CHI  HZ I         448 50.96        55.2 0.62                           256 199 
 ROSC BZ EP        448 19.62                             115     0.8 8  264 214 
 ROSC BN ES        448 49.74                             115     0.3 8  264 214 
 ROSC BZ I         448 54.37        97.1 0.47                           264 214 
 HEL  HZ EP        448 21.72                             113     0.1 7  289 256 
 HEL  HN ES        448 54.23                             113    -0.1 7  289 256 
 HEL  HZ I         448 58.87        75.6 0.28                           289 256 
 RREF BZ EP        448 26.56                             109    -0.8 7  336 231 
 RREF BN ES        449  4.85                             109     0.3 7  336 231 
 RREF BZ I         449  9.25        57.5 0.44                           336 231 
 DBB  SZ EP        448 28.31                             108    -0.6 6  356 274 
 ANIL BZ EP        448 31.01                             107     0.1 6  371 226 
 ANIL BN ES   1    449 10.65                             107    -0.3 5  371 226 
 ANIL BZ I         449 16.12       121.2 0.26                           371 226 
 PRA  HZ EP        448 33.61                             106    -0.7 6  403 211 
 PRA  HE ES        449 16.64                             106    -0.4 6  403 211 
 PRA  HZ I         449 21.88        76.4 0.31                           403 211 
                                                                                
