 2016  310 0401 30.1 L   6.796 -73.174138.2  RSN  5 0.2 1.2LRSN                1
 GAP=142        0.50       2.9     2.9  4.2 -0.2518E+01  0.4496E+01  0.9594E+00E
 Epicentro: LOS SANTOS - SANTANDER                                             3
 ACTION:UPD 16-05-13 21:22 OP:cam  STATUS:               ID:20160310040130 L   I
 OLDACT:REG 16-03-10 13:26 OP:cara STATUS:               ID:20160310035749     3
 2016-03-10-0357-49M.COL___286                                                 6
 STAT SP IPHASW D HRMM SECON CODA AMPLIT PERI AZIMU VELO AIN AR TRES W  DIS CAZ7
 BAR2 EZ EP        4 1 48.68                             170   -0.1510 22.5 182 
 BAR2 EZ ES        4 2  3.56                             170    0.1410 22.5 182 
 BAR2 EZ I         4 2  5.36         4.6 0.26            171           22.5 182 
 PAM  EN ES        4 2  8.58                             149    0.0610 79.8  41 
 PAM  EZ I         4 2 10.19         5.1 0.52            153           79.8  41 
 RUS  HZ EP        4 1 53.16                             142    0.0310  100 174 
 RUS  HE ES        4 2 10.86                             142   -0.2110  100 174 
 RUS  HZ I         4 2 12.81         1.1 0.66            146            100 174 
 PTB  HZ EP        4 1 56.35                             131    0.16 9  145 259 
 PTB  HN ES        4 2 16.27                             131   -0.25 9  145 259 
 PTB  HZ I         4 2 21.73         2.3 0.38            132            145 259 
 SPBC HZ EP        4 1 57.78                             128   -0.05 9  161 218 
 SPBC HE ES        4 2 19.75                             128    0.31 9  161 218 
 SPBC HZ I         4 2 22.05         2.0 0.52            130            161 218 
                                                                                
