 2010  810 0023 52.5 L   6.770 -73.104150.0  RSN  5 0.2 1.6LRSN                1
 GAP=164        0.46       3.7     6.7  6.8 -0.1355E-01 -0.1511E+02  0.3188E+01E
 Epicentro: LOS SANTOS - SANTANDER                                             3
 ACTION:UP  10-09-07 10:53 OP:vdl  STATUS:               ID:20100810002352 L   I
 2010-08-10-0020-59S.COL___125                                                 6
 STAT SP IPHASW D HRMM SECON CODA AMPLIT PERI AZIMU VELO SNR AR TRES W  DIS CAZ7
 BRR  HZ EP        024 14.40                             152     0.010   77 299 
 BRR  HN ES   1    024 31.57                             152     0.0 7   77 299 
 BRR  HZ I         024 34.81         8.8 0.29                            77 299 
 RUS  HZ EP   1    024 16.40                             146     0.0 7   97 179 
 RUS  HN ES   2    024 35.11                             146     0.0 5   97 179 
 RUS  HZ I         024 36.08         2.9 0.45                            97 179 
 GUE  SZ EP   2    024 17.29                             140    -0.5 5  119  10 
 GRA  SZ EP   2    024 18.37                             138     0.1 5  128  15 
 GRA  SZ ES   2    024 38.77                             138     0.4 5  128  15 
 GRA  SZ I         024 39.61         3.5 0.32                           128  15 
 PRA  HZ EP   2    024 46.59                             107     0.5 3  391 210 
 PRA  HZ I         025 36.90         2.6 0.24                           391 210 
                                                                                
