 2010  810 0053 38.8 L   6.795 -73.128143.0  RSN 10 0.4 2.0LRSN                1
 GAP=161        0.97       4.7    10.4 10.4 -0.2039E+02  0.5440E+01  0.3485E+01E
 Epicentro: LOS SANTOS - SANTANDER                                             3
 ACTION:UP  10-09-07 10:53 OP:vdl  STATUS:               ID:20100810005338 L   I
 2010-08-10-0050-40S.COL___125                                                 6
 STAT SP IPHASW D HRMM SECON CODA AMPLIT PERI AZIMU VELO SNR AR TRES W  DIS CAZ7
 BAR2 SZ EP   1    053 57.66                             171    -0.4 7   23 195 
 BAR2 SZ ES   2    054 12.74                             171    -0.4 5   23 195 
 BAR2 SZ I         054 15.21        24.1 0.25                            23 195 
 GIR2 SZ EP        053 58.83                             167     0.710   32 347 
 BRR  HZ IP     C  053 59.51                             152    -0.210   73 298 
 BRR  HZ I         053 59.71        50.3 0.13                            73 298 
 BRR  HE ES   2    054 16.40                             152     0.3 5   73 298 
 RUS  HZ EP   1    054  1.84                             144    -0.4 7  100 177 
 RUS  HN ES   2    054 20.76                             144     0.3 5  100 177 
 RUS  HZ I         054 22.65         9.4 0.35                           100 177 
 GUE  SZ EP        054  2.79                             139    -0.410  117  11 
 GUE  SZ I         054 23.98         5.5 0.21                           117  11 
 GRA  SZ EP   1    054  4.61                             137     0.9 7  126  17 
 GRA  SZ ES   2    054 22.94                             137    -0.3 5  126  17 
 GRA  SZ I         054 27.13         6.4 0.57                           126  17 
 OCA  SZ EP   2    054  6.77                             129    -0.2 5  161 352 
 OCA  SZ ES   2    054 28.57                             129    -0.3 5  161 352 
 OCA  SZ I         054 34.60        11.3 0.16                           161 352 
 CHI  HZ EP   2    054 16.04                             117    -0.3 4  249 196 
 CHI  HE ES   1    054 45.93                             117     0.3 6  249 196 
 CHI  HZ I         054 47.61         7.8 0.36                           249 196 
 GUY  SZ EP   2    054 22.94                             112     0.5 4  303 235 
 GUY  SE ES   2    054 56.39                             112    -0.1 4  303 235 
 GUY  SZ I         055  6.17        16.2 0.46                           303 235 
 PRA  HZ EP   2    054 31.93                             106    -0.3 3  393 210 
 PRA  HN ES   2    055 13.54                             106    -0.4 3  393 210 
 PRA  HZ I         055 18.33         6.9 0.71                           393 210 
                                                                                
