 2010  510 0403 38.7 L   6.792 -72.978140.8  RSN  8 0.5 1.7LRSN                1
 GAP=176        1.42       6.3    12.4 12.3 -0.2553E+02 -0.9780E+01 -0.5409E+01E
 Epicentro: CEPITA - SANTANDER                                                 3
 ACTION:UP  10-08-24 10:03 OP:vdl  STATUS:               ID:20100510040338 L   I
 2010-05-10-0402-07S.COL___104                                                 6
 STAT SP IPHASW D HRMM SECON CODA AMPLIT PERI AZIMU VELO SNR AR TRES W  DIS CAZ7
 BAR2 SZ IP     C  4 3 57.88                             167    -0.110   32 226 
 BAR2 SZ ES   2    4 4 13.04                             167     0.0 5   32 226 
 BRR  HZ EP        4 4  0.53                             146     0.110   88 293 
 BRR  HN ES   1    4 4 17.40                             146     0.0 7   88 293 
 BRR  HZ I         4 4 20.03        17.4 0.13                            88 293 
 RUS  HZ EP        4 4  1.76                             143    -0.210  100 187 
 RUS  HE ES   1    4 4 20.14                             143     0.0 7  100 187 
 RUS  HZ I         4 4 21.50         3.1 0.53                           100 187 
 BRI  SZ EP        4 4  2.51                             142     0.710  104  11 
 GUE  SZ EP        4 4  4.00                             139     1.110  115   3 
 GRA  SZ EP        4 4  2.31                             137    -1.010  122   9 
 GRA  SZ ES   1    4 4 22.10                             137    -0.3 7  122   9 
 OCA  SZ EP        4 4  6.39                             128    -0.7 9  164 347 
 OCA  SZ ES   2    4 4 29.11                             128     0.0 5  164 347 
 OCA  SZ I         4 4 37.30         6.3 0.40                           164 347 
 RREF BZ EP        4 4 26.42                             109     0.2 7  335 232 
 RREF BN ES   2    4 5  3.27                             109     0.0 3  335 232 
 RREF BZ I         4 5  7.76         3.2 0.49                           335 232 
                                                                                
