 2014  610 0101 36.7 L   6.741 -73.968 74.4  RSN  7 0.5 1.7LRSN                1
 GAP= 99        1.01       3.9     3.9  9.2  0.3605E+00  0.4014E+01  0.1407E+02E
 Epicentro: PUERTO PARRA - SANTANDER                                           3
 ACTION:UPD 14-07-01 22:52 OP:nd   STATUS:               ID:20140610010136 L   I
 OLDACT:UP  14-06-10 14:00 OP:mh   STATUS:               ID:20140610005805     3
 OLDACT:REG 14-06-10 12:11 OP:mh   STATUS:               ID:20140610005805     3
 2014-06-10-0058-05M.COL___259                                                 6
 STAT SP IPHASW D HRMM SECON CODA AMPLIT PERI AZIMU VELO AIN AR TRES W  DIS CAZ7
 BRR  HZ EP        1 1 48.99                             143    0.0110 49.4  35 
 BRR  HN ES   1    1 1 59.06                             143    0.49 7 49.4  35 
 BRR  HZ I         1 2  0.41        12.2 0.15            149           49.4  35 
 PTB  HZ IP     C  1 1 49.26                             138   -0.4510 58.4 248 
 PTB  HN ES   1    1 1 59.41                             138   -0.46 7 58.4 248 
 PTB  HZ I         1 2  1.30         9.1 0.05            141           58.4 248 
 SPBC HZ EP   1    1 1 55.41                             116   -0.65 7  121 185 
 SPBC HN ES   1    1 2 11.82                             116    0.64 7  121 185 
 SPBC HZ I         1 2 14.91      2960.6 0.02            119            121 185 
 ZAR  HZ EP   1    1 1 56.78                             114   -0.05 7  129 310 
 ZAR  HN ES   1    1 2 12.70                             114    0.15 7  129 310 
 ZAR  HZ I         1 2 15.88         8.9 0.23            119            129 310 
 RUS  HZ EP        1 1 58.06                             113   -0.16 9  136 134 
 RUS  HN ES   1    1 2 14.83                             113   -0.19 7  136 134 
 RUS  HZ I         1 2 20.29         1.7 0.13            116            136 134 
 NOR  HZ EP   1    1 2  0.71                             108   -0.24 7  164 218 
 NOR  HN ES   1    1 2 20.63                             108    0.75 7  164 218 
 NOR  HZ I         1 2 25.45         4.6 0.39            111            164 218 
 GUY2CHZ EP        1 2 10.03                             102    0.92 8  228 223 
 GUY2CHN ES   1    1 2 33.81                             102   -0.60 6  228 223 
 GUY2CHZ I         1 2 39.25         1.4 0.29                           228 223 
                                                                                
