 2015 1010 0812 31.9 L   6.824 -73.117149.1  RSN 16 0.4 2.0LRSN                1
 GAP=128        0.88       2.4     3.3  4.8 -0.1850E+01  0.2860E+01  0.8740E+00E
 Epicentro: LOS SANTOS - SANTANDER                                             3
 ACTION:UPD 15-12-22 20:38 OP:cam  STATUS:               ID:20151010081231 L   I
 OLDACT:DUP 15-10-10 17:31 OP:spq  STATUS:               ID:20151010080737d    3
 2015-10-10-0807-36M.COL___337                                                 6
 STAT SP IPHASW D HRMM SECON CODA AMPLIT PERI AZIMU VELO AIN AR TRES W  DIS CAZ7
 BAR2 EZ EP        812 51.95                             169   -0.0010 26.6 196 
 BAR2 EZ ES   1    813  6.85                             169   -0.78 7 26.6 196 
 BAR2 EZ I         813  8.29        18.1 0.16            168           26.6 196 
 BRR  HZ EP        812 53.81                             153    0.3510 72.9 296 
 BRR  HN ES        813 10.73                             153    0.4210 72.9 296 
 BRR  HZ I         813 11.69        19.5 0.12            150           72.9 296 
 PAM  EZ EP     C  812 54.78                             153    0.5910 73.3  39 
 PAM  EN ES        813 11.82                             153    0.2010 73.3  39 
 PAM  EZ I         813 14.15        11.8 0.52            155           73.3  39 
 RUS  HZ EP        812 55.75                             144   -0.3610  103 178 
 RUS  HN ES   1    813 15.14                             144    0.11 7  103 178 
 RUS  HZ I         813 18.55         3.9 0.20            144            103 178 
 OCA  HZ EP        812 59.95                             131   -0.27 9  158 352 
 OCA  HE ES        813 21.81                             131   -0.54 9  158 352 
 OCA  HZ I         813 25.10        24.6 0.18            131            158 352 
 OCA  HE E         813 27.59                                            158 352 
 SPBC HZ EP        813  0.87                             129   -0.12 9  167 219 
 SPBC HE ES        813 23.58                             129   -0.14 9  167 219 
 SPBC HZ I         813 29.03        15.3 0.22            128            167 219 
 ZAR  HZ EP        813  5.26                             123    0.53 8  206 291 
 ZAR  HE ES        813 30.53                             123    0.17 8  206 291 
 ZAR  HZ I         813 35.87         9.8 0.32            122            206 291 
 NOR  HN ES        813 36.50                             119   -0.08 8  239 234 
 NOR  HZ I         813 37.71         7.4 0.16            118            239 234 
 SML  HZ EP   1    813  8.21                             118   -0.35 6  243 334 
 SML  HE ES   1    813 37.35                             118    0.16 6  243 334 
 SML  HZ I         813 39.67        16.2 0.10            118            243 334 
 CHI  HZ EP        813 10.28                             117    0.18 8  252 196 
 CHI  HN ES        813 39.83                             117   -0.11 8  252 196 
 CHI  HZ I         813 46.79         4.1 0.48            118            252 196 
 HEL  HZ EP   4    813 13.83                             115    1.18 0  276 255 
 HEL  HN ES        813 43.73                             115   -0.75 7  276 255 
 HEL  HZ I         813 50.86         5.4 0.42            115            276 255 
 URE  HZ EP        813 12.74                             114   -0.57 7  286 291 
 URE  HN ES   4    813 43.49                             114   -2.16 0  286 291 
 URE  HZ I         813 53.42         8.3 0.18            114            286 291 
 GUY2CHZ EP   4    813 17.55                             113    1.47 0  305 235 
 GUY2CHE ES   1    813 51.33                             113    0.75 5  305 235 
 GUY2CHZ I         813 56.45         6.1 0.30                           305 235 
 SDV  BZ EP        813 21.47                             109   -0.08 6  356  50 
 SDV  BE ES   4    813 59.20                             109   -1.11 0  356  50 
 SDV  BZ I         814  0.96         1.4 0.55            110            356  50 
 ORTC HZ EP   1    813 26.67                             107    0.31 4  399 216 
 ORTC HN ES        814  9.29                             107    0.42 6  399 216 
 ORTC HZ I         814 16.53         2.3 0.20            107            399 216 
 SJC  HZ EP   4    813 26.28                             106   -1.20 0  409 326 
 SJC  HN ES   4    814  8.13                             106   -2.73 0  409 326 
 SJC  HZ I         814 16.80         1.6 0.44            106            409 326 
                                                                                
