 2014  710 0158 48.6 L   6.757 -73.172147.9  RSN  5 0.2 1.3LRSN                1
 GAP=231        0.48       2.9     3.3  3.8  0.1472E+01  0.3130E+01  0.5475E+00E
 Epicentro: LOS SANTOS - SANTANDER                                             3
 ACTION:UPD 15-03-16 20:42 OP:nd   STATUS:               ID:20140710015848 L   I
 OLDACT:REG 14-07-10 12:13 OP:stll STATUS:               ID:20140710015813     3
 2014-07-10-0158-13M.COL___262                                                 6
 STAT SP IPHASW D HRMM SECON CODA AMPLIT PERI AZIMU VELO AIN AR TRES W  DIS CAZ7
 BAR2 SZ EP        159  8.32                             173   -0.1010 18.3 184 
 BAR2 SZ ES        159 23.86                             173    0.0110 18.3 184 
 BAR2 SZ I         159 25.99         6.5 0.24            172           18.3 184 
 BRR  HZ EP        159 10.09                             153    0.0910 71.2 303 
 BRR  HN ES        159 26.79                             153    0.1210 71.2 303 
 RUS  HE ES        159 30.62                             145   -0.0910 96.1 174 
 RUS  HZ I         159 32.02         2.2 0.26            146           96.1 174 
 PTB  HZ EP        159 15.12                             133   -0.32 9  144 260 
 PTB  HN ES        159 36.25                             133   -0.10 9  144 260 
 PTB  HZ I         159 38.68         2.3 0.22            134            144 260 
 SPBC HZ EP        159 17.10                             131    0.33 9  158 219 
 SPBC HZ I         159 17.40         3.1 0.22            131            158 219 
 SPBC HN ES        159 38.79                             131    0.06 9  158 219 
                                                                                
