 2014 1110 0314 52.0 L   6.316 -73.745103.7  RSN  6 0.3 1.5LRSN                1
 GAP= 84        0.81       3.1     3.1  6.3 -0.3630E+00 -0.9059E+00 -0.1646E+01E
 Epicentro: LANDAZURI - SANTANDER                                              3
 ACTION:UPD 14-12-19 15:41 OP:nd   STATUS:               ID:20141110031452 L   I
 OLDACT:ARG 14-11-10 12:59 OP:stll STATUS:               ID:20141110030745     3
 2014-11-10-0307-45M.COL___298                                                 6
 STAT SP IPHASW D HRMM SECON CODA AMPLIT PERI AZIMU VELO AIN AR TRES W  DIS CAZ7
 BAR2 SZ EP        315  9.30                             144    0.3210 69.3  64 
 BAR2 SZ ES        315 22.38                             144    0.1410 69.3  64 
 SPBC HZ EP        315 10.21                             139    0.4710 81.8 206 
 SPBC HN ES        315 23.76                             139    0.1810 81.8 206 
 SPBC HZ I         315 27.17        10.3 0.20            138           81.8 206 
 PTB  HZ EP        315  9.48                             138   -0.2010 82.4 287 
 PTB  HN ES        315 23.08                             138   -0.4010 82.4 287 
 PTB  HZ I         315 24.16         8.5 0.14            140           82.4 287 
 RUS  HZ EP        315 10.62                             137   -0.0910 87.0 123 
 RUS  HN ES        315 24.89                             137   -0.4310 87.0 123 
 RUS  HZ I         315 26.68         6.0 0.26            138           87.0 123 
 BRR  HZ EP        315 10.05                             136   -0.0310 87.6   2 
 BRR  HZ I         315 10.38         7.9 0.22            140           87.6   2 
 BRR  HN ES        315 24.52                             136    0.3210 87.6   2 
 PAM  SZ EP        315 17.68                             118   -0.33 9  162  46 
                                                                                
