 2016  310 0449 30.3 L   6.900 -73.195138.6  RSN  5 0.2 1.5LRSN                1
 GAP=154        0.63       3.8     3.7  5.3 -0.4113E+01  0.7456E+01  0.1820E+01E
 Epicentro: BETULIA - SANTANDER                                                3
 ACTION:UPD 16-05-13 21:22 OP:cam  STATUS:               ID:20160310044930 L   I
 OLDACT:REG 16-03-10 13:32 OP:cara STATUS:               ID:20160310044750     3
 2016-03-10-0447-50M.COL___286                                                 6
 STAT SP IPHASW D HRMM SECON CODA AMPLIT PERI AZIMU VELO AIN AR TRES W  DIS CAZ7
 BAR2 EZ EP        449 49.72                             165    0.3910 34.1 178 
 BAR2 EZ ES        450  4.53                             165    0.3410 34.1 178 
 BAR2 EZ I         450  6.26         6.7 0.36            167           34.1 178 
 PAM  EZ EP   4    449 52.58                             151    1.10 0 73.1  48 
 PAM  EZ I         449 52.77        10.4 0.22            155           73.1  48 
 PAM  EN ES        450  7.70                             151   -0.3210 73.1  48 
 RUS  HZ EP        449 54.12                             139   -0.1110  112 174 
 RUS  HE ES        450 12.78                             139   -0.1210  112 174 
 RUS  HZ I         450 13.19         2.0 0.34            143            112 174 
 PTB  HZ EP        449 56.50                             131    0.07 9  145 254 
 PTB  HN ES        450 16.73                             131   -0.09 9  145 254 
 PTB  HZ I         450 24.20         4.2 0.82            130            145 254 
 SPBC HZ EP        449 58.78                             126   -0.01 9  169 215 
 SPBC HN ES        450 20.81                             126   -0.21 9  169 215 
 SPBC HZ I         450 24.99         4.5 0.20            127            169 215 
                                                                                
