 2012  310 0029 31.3 L   6.744 -73.174137.1  RSN  5 0.4 1.7LRSN                1
 GAP=135        0.79       4.7     5.0 10.1 -0.9922E+00  0.2129E+02  0.6587E+00E
 ACTION:UP  12-03-31 23:18 OP:EP   STATUS:               ID:20120310002932dL   I
 2012-03-10-0027-44M.COL___137                                                 6
 STAT SP IPHASW D HRMM SECON CODA AMPLIT PERI AZIMU VELO SNR AR TRES W  DIS CAZ7
 PAM  SZ EP   1    029 53.03                             147     0.0 7   84  38 
 PAM  SN ES   1    030  9.92                             147     0.0 7   84  38 
 PAM  SZ I         030 12.82         4.9 0.66                            84  38 
 RUS  HZ EP   1    029 54.22                             144     0.5 7   95 174 
 RUS  HN ES   1    030 11.02                             144    -0.2 7   95 174 
 RUS  HZ I         030 13.73         7.3 0.39                            95 174 
 PTB  HZ EP   1    029 57.13                             131     0.0 7  144 261 
 PTB  HN ES   1    030 17.18                             131    -0.2 7  144 261 
 PTB  HZ I         030 19.76         7.6 0.14                           144 261 
 ZAR  HZ EP   1    030  2.38                             120    -0.7 6  204 294 
 ZAR  HN ES   1    030 28.51                             120     0.6 6  204 294 
 ZAR  HZ I         030 34.45        15.4 0.37                           204 294 
 PRA  HN ES   1    031  4.63                             105     0.1 4  385 210 
                                                                                
