 2016  410 0221  7.9 L   6.832 -73.196135.7  RSN  6 0.2 1.3LRSN                1
 GAP=129        0.66       2.5     3.5  5.2 -0.3033E+01  0.5666E+01 -0.5008E+00E
 Epicentro: ZAPATOCA - SANTANDER                                               3
 ACTION:UPD 16-05-05 14:20 OP:rebc STATUS:               ID:20160410022107 L   I
 OLDACT:UP  16-04-10 14:52 OP:mh   STATUS:               ID:20160410021745     3
 OLDACT:REG 16-04-10 12:30 OP:mh   STATUS:               ID:20160410021745     3
 2016-04-10-0217-45M.COL___292                                                 6
 STAT SP IPHASW D HRMM SECON CODA AMPLIT PERI AZIMU VELO AIN AR TRES W  DIS CAZ7
 BAR2 EZ EP        221 26.35                             168   -0.0210 26.6 177 
 BAR2 EZ ES        221 40.94                             168    0.1510 26.6 177 
 BAR2 EZ I         221 44.00         3.5 0.15            169           26.6 177 
 PAM  EZ EP        221 29.54                             148    0.4510 78.5  44 
 PAM  EN ES        221 45.27                             148   -0.3810 78.5  44 
 PAM  EZ I         221 48.73         6.7 0.63            152           78.5  44 
 RUS  HZ EP        221 30.94                             140   -0.0210  105 173 
 RUS  HN ES        221 48.85                             140   -0.1210  105 173 
 RUS  HZ I         221 50.70         2.3 0.64            144            105 173 
 PTB  HZ EP        221 33.30                             131   -0.29 9  143 257 
 PTB  HN ES        221 53.57                             131   -0.08 9  143 257 
 PTB  HZ I         221 56.43                             133            143 257 
 OCA  HN ES        221 56.34                             128    0.15 9  156 355 
 SPBC HZ EP        221 35.36                             127   -0.19 9  163 217 
 SPBC HN ES        221 57.50                             127    0.35 9  163 217 
 SPBC HZ I         222  0.21         3.6 0.34            130            163 217 
                                                                                
