 2017  510 0714 36.4 L   6.826 -73.147156.1  RSN  5 0.4 1.1LRSN                1
 GAP=135        1.01       5.5     4.7  8.7  0.1822E+01  0.6106E+01  0.5342E+01E
 Epicentro: LOS SANTOS - SANTANDER                                             3
 ACTION:UPD 17-06-16 13:34 OP:jn   STATUS:               ID:20170510071436 L   I
 OLDACT:UP  17-05-10 19:52 OP:edw  STATUS:               ID:20170510070642     3
 OLDACT:REG 17-05-10 13:30 OP:osc  STATUS:               ID:20170510070642     3
 2017-05-10-0707-00M.COL___356                                                 6
 STAT SP IPHASW D HRMM SECON CODA AMPLIT PERI AZIMU VELO AIN AR TRES W  DIS CAZ7
 BRR  HZ EP        714 58.84                             155    0.2310 69.7 297 
 BRR  HN ES        715 15.86                             155   -0.0610 69.7 297 
 BRR  HZ I         715 17.64         3.0 0.64            156           69.7 297 
 PAM  EZ EP        714 59.88                             153    0.2510 75.3  41 
 PAM  EN ES        715 17.38                             153   -0.3410 75.3  41 
 PAM  EZ I         715 17.95         1.3 0.22            149           75.3  41 
 RUS  HZ EP        715  1.21                             145   -0.1910  103 176 
 RUS  HZ I         715 21.30         1.4 0.42            133            103 176 
 RUS  HN ES        715 21.35                             145    0.4710  103 176 
 PTB  HZ EP        715  3.81                             134   -0.47 9  148 258 
 PTB  HE ES        715 25.50                             134   -0.52 9  148 258 
 PTB  HZ I         715 26.71         1.7 0.48            129            148 258 
 ZAR  HE ES        715 35.88                             125    0.70 9  203 291 
                                                                                
