 2015  510 0913 11.5 L   6.805 -73.128142.7  RSN  5 0.4 1.3LRSN                1
 GAP=240        0.84       5.0     6.7  8.3  0.1406E+02  0.1588E+02 -0.3101E+00E
 Epicentro: LOS SANTOS - SANTANDER                                             3
 ACTION:UPD 15-09-10 22:03 OP:cam  STATUS:               ID:20150510091311 L   I
 OLDACT:UP  15-05-10 17:45 OP:drio STATUS:               ID:20150510090751     3
 OLDACT:REG 15-05-10 13:45 OP:y    STATUS:               ID:20150510090751     3
 2015-05-10-0907-51M.COL___261                                                 6
 STAT SP IPHASW D HRMM SECON CODA AMPLIT PERI AZIMU VELO AIN AR TRES W  DIS CAZ7
 BAR2 EZ EP        913 30.41                             170   -0.3410 24.3 194 
 BAR2 EZ ES        913 45.64                             170   -0.1610 24.3 194 
 BAR2 EZ I         913 46.66         4.9 0.12            171           24.3 194 
 BRR  HZ EP        913 32.33                             152   -0.0510 72.7 297 
 BRR  HN ES        913 49.13                             152    0.4410 72.7 297 
 BRR  HZ I         913 50.35         2.9 0.48            152           72.7 297 
 RUS  HE ES        913 53.53                             143    0.2610  101 177 
 SPBC HZ EP   2    913 41.00                             128    1.10 5  165 219 
 SPBC HN ES        914  1.74                             128   -0.33 9  165 219 
 ZAR  HN ES        914  9.02                             122   -0.16 8  206 292 
                                                                                
