 2016  110 0726  5.9 L   6.807 -73.134146.6  RSN  7 0.3 1.4LRSN                1
 GAP=138        0.87       2.9     4.4  5.2  0.2596E+00  0.4095E+01  0.2990E+00E
 Epicentro: LOS SANTOS - SANTANDER                                             3
 ACTION:UPD 16-03-09 23:24 OP:cam  STATUS:               ID:20160110072605 L   I
 OLDACT:DUP 16-01-10 16:22 OP:drio STATUS:               ID:20160110071750d    3
 2016-01-10-0717-49M.COL___254                                                 6
 STAT SP IPHASW D HRMM SECON CODA AMPLIT PERI AZIMU VELO AIN AR TRES W  DIS CAZ7
 BAR2 EZ EP        726 25.66                             170   -0.0110 24.3 193 
 BAR2 EZ ES        726 40.83                             170   -0.2410 24.3 193 
 BAR2 EZ I         726 42.03         3.9 0.24            169           24.3 193 
 BRR  HZ EP        726 27.61                             152    0.4110 71.9 298 
 BRR  HE ES        726 44.38                             152    0.5910 71.9 298 
 BRR  HZ I         726 44.99         3.3 0.12            153           71.9 298 
 PAM  EZ EP        726 28.41                             151    0.2710 76.0  39 
 PAM  EN ES        726 45.00                             151   -0.4710 76.0  39 
 PAM  EZ I         726 47.27         3.6 0.18            152           76.0  39 
 RUS  HZ EP        726 29.74                             144   -0.0610  101 177 
 RUS  HN ES        726 48.64                             144    0.2110  101 177 
 RUS  HZ I         726 50.24         2.6 0.34            143            101 177 
 PTB  HZ EP        726 32.40                             132   -0.68 9  149 259 
 PTB  HE ES        726 53.96                             132   -0.30 9  149 259 
 PTB  HZ I         726 55.35         4.3 0.14            132            149 259 
 SML  HZ EP        726 42.70                             118    0.13 8  244 335 
 SML  HE ES        727 11.08                             118   -0.08 8  244 335 
 SML  HZ I         727 14.00         4.1 0.30            118            244 335 
 CHI  HZ EP        726 43.83                             117    0.05 8  250 195 
 CHI  HN ES        727 13.44                             117    0.13 8  250 195 
 CHI  HZ I         727 19.49         1.6 0.56            117            250 195 
                                                                                
