 2012 1210 0824 31.3 L   6.862 -73.170146.9  RSN  5 0.2 1.2LRSN                1
 GAP=200        0.50       4.2     4.3  5.7  0.7128E+01  0.4615E+01 -0.4267E+01E
 Epicentro: ZAPATOCA - SANTANDER                                               3
 ACTION:UPD 13-01-04 14:26 OP:ep   STATUS:               ID:20121210082431 L   I
 2012-12-10-0820-00M.COL___242                                                 6
 STAT SP IPHASW D HRMM SECON CODA AMPLIT PERI AZIMU VELO AIN AR TRES W  DIS CAZ7
 BAR2 SZ EP   1    824 51.35                             168    0.16 7 29.9 183 
 BAR2 SZ ES        825  6.74                             168    0.0210 29.9 183 
 BAR2 SZ  IAML1    825  7.74         5.7 0.14                          29.9 183 
 RUS  HZ EP   1    824 55.62                             142   -0.03 7  108 175 
 RUS  HZ I         825 16.75         1.0 0.52                           108 175 
 PTB  HZ EP   1    824 58.18                             132   -0.05 7  147 256 
 PTB  HN ES   1    825 18.94                             132   -0.32 7  147 256 
 PTB  HZ I         825 24.02         2.5 0.12                           147 256 
 ZAR  HN ES   1    825 28.72                             123    0.47 6  199 291 
 SML  HN ES   1    825 34.88                             118   -0.29 6  236 335 
                                                                                
