 2012  110 0643 22.7 L   6.777 -73.141148.4  RSN 10 0.5 2.0LRSN                1
 GAP=138        1.00       4.9     5.8  7.6 -0.9769E+01  0.7271E+01  0.3733E+01E
 Epicentro: LOS SANTOS - SANTANDER                                             3
 ACTION:UP  12-02-03 08:16 OP:REBC STATUS:               ID:20120110064322 L   I
 2012-01-10-0640-00M.COL___186                                                 6
 STAT SP IPHASW D HRMM SECON CODA AMPLIT PERI AZIMU VELO SNR AR TRES W  DIS CAZ7
 BAR2 SZ EP        643 42.56                             172     0.010   21 193 
 BAR2 SZ ES   1    643 57.77                             172    -0.3 7   21 193 
 BAR2 SZ I         644  0.46        25.3 0.31                            21 193 
 GIR2 SZ EP   2    643 42.38                             166    -0.3 5   34 350 
 BRR  HZ EP        643 44.44                             152     0.310   73 300 
 BRR  HE ES   1    644  1.83                             152     0.8 7   73 300 
 BRR  HZ I         644  4.62        22.9 0.20                            73 300 
 PAM  SZ EP        643 45.31                             151     0.110   79  38 
 PAM  SN ES   1    644  2.70                             151    -0.2 7   79  38 
 RUS  HZ EP   1    643 46.43                             145    -0.1 7   98 176 
 RUS  HN ES   1    644  5.21                             145     0.1 7   98 176 
 RUS  HZ I         644  6.15        13.5 0.21                            98 176 
 PTB  HZ EP   1    643 49.02                             133    -0.8 7  148 260 
 PTB  HN ES   1    644 10.23                             133    -0.8 7  148 260 
 OCA  SZ EP   1    643 51.59                             130     0.2 7  163 353 
 OCA  SZ I         644 17.37        11.8 0.19                           163 353 
 NOR  SZ EP   1    643 58.13                             119    -0.3 6  234 235 
 NOR  SN ES   1    644 26.28                             119    -0.1 6  234 235 
 CHI  HZ EP   1    644  0.67                             118     0.4 6  246 195 
 CHI  HN ES   1    644 29.42                             118    -0.2 6  246 195 
 CHI  HZ I         644 35.75         4.8 0.24                           246 195 
 RREF HN ES   1    644 45.83                             111     1.1 5  321 230 
 RREF HZ I         644 49.84         6.7 0.34                           321 230 
                                                                                
