 2014  910 0613 45.0 L   6.833 -73.121143.9  RSN  7 0.5 1.5LRSN                1
 GAP=155        1.20       5.3     6.3  9.2 -0.6203E+01  0.1555E+01  0.2914E+01E
 Epicentro: LOS SANTOS - SANTANDER                                             3
 ACTION:UPD 14-10-03 23:03 OP:nd   STATUS:               ID:20140910060818 L   I
 OLDACT:UPD 14-09-10 14:12 OP:FJMB STATUS:               ID:20140910060818 L   3
 2014-09-10-0608-18M.COL___278                                                 6
 STAT SP IPHASW D HRMM SECON CODA AMPLIT PERI AZIMU VELO AIN AR TRES W  DIS CAZ7
 BAR2 SZ EP        614  4.52                             169    0.0310 27.4 194 
 BAR2 SZ ES        614 19.32                             169   -0.3810 27.4 194 
 BAR2 SZ I         614 20.57         6.0 0.18            168           27.4 194 
 BRR  HZ EP        614  6.29                             152    0.3010 72.0 295 
 BRR  HN ES        614 22.79                             152    0.4310 72.0 295 
 BRR  HZ I         614 27.69         6.9 0.12            152           72.0 295 
 PAM  SZ EP     C  614  7.34                             152    0.6010 72.8  40 
 PTB  HZ EP        614 11.53                             131   -0.59 9  151 258 
 PTB  HN ES        614 32.75                             131   -0.53 9  151 258 
 PTB  HZ I         614 34.86         4.9 0.10            132            151 258 
 OCA  HN ES        614 33.94                             130   -0.65 9  157 352 
 SPBC HZ EP        614 13.46                             128   -0.33 9  168 219 
 SPBC HN ES        614 36.67                             128    0.43 9  168 219 
 SPBC HZ I         614 40.44         3.5 0.22            129            168 219 
 ZAR  HE ES        614 43.38                             122    0.62 8  205 291 
                                                                                
