 2011 1110 0414 44.3 L   6.759 -73.091145.2  RSN  5 0.3 1.5LRSN                1
 GAP=145        0.59       5.2     6.9  8.3  0.1728E+02  0.5518E+01  0.2660E+01E
 Epicentro: LOS SANTOS - SANTANDER                                             3
 ACTION:UPD 12-07-13 16:09 OP:ep   STATUS:               ID:20111110041444 L   I
 2011-11-10-0411-38S.COL___178                                                 6
 STAT SP IPHASW D HRMM SECON CODA AMPLIT PERI AZIMU VELO AIN AR TRES W  DIS CAZ7
 BAR2 SZ EP   1    415  3.59                             171   -0.18 7 21.0 209 
 BAR2 SZ I         415 22.43         5.1 0.43                          21.0 209 
 PAM  SE ES   2    415 23.47                             151   -0.22 5 77.4  34 
 BRR  HZ EP        415  5.80                             150    0.0210 78.6 299 
 BRR  HE ES   1    415 22.93                             150    0.36 7 78.6 299 
 BRR  HZ I         415 25.54         8.0 0.21                          78.6 299 
 RUS  HZ EP   1    415  7.96                             145    0.35 7 95.8 179 
 RUS  HN ES   1    415 25.61                             145   -0.22 7 95.8 179 
 ZAR  HN ES   2    415 42.55                             121   -0.74 4  211 293 
 ZAR  HZ I         415 48.48         3.7 0.46                           211 293 
                                                                                
