 2010  610 0852 58.7 L   6.773 -73.318144.0  RSN  5 0.3 1.1LRSN                1
 GAP=215        0.65       6.6    35.0  9.8 -0.1186E+03  0.2047E+02 -0.1976E+02E
 Epicentro: ZAPATOCA - SANTANDER                                               3
 ACTION:UP  10-08-24 10:09 OP:vdl  STATUS:               ID:20100610085258 L   I
 2010-06-10-0852-36S.COL___111                                                 6
 STAT SP IPHASW D HRMM SECON CODA AMPLIT PERI AZIMU VELO SNR AR TRES W  DIS CAZ7
 GIR2 SZ EP   2    853 18.10                             165    -0.2 5   37  22 
 GIR2 SZ ES   2    853 33.69                             165     0.1 5   37  22 
 RUS  HZ EP   2    853 22.29                             143     0.0 5  101 165 
 RUS  HE ES   2    853 40.71                             143     0.0 5  101 165 
 RUS  HZ I         853 41.52         2.0 0.20                           101 165 
 BRI  SZ EP        853 22.90                             138    -0.410  119  29 
 GUE  SZ EP   2    853 23.61                             137    -0.3 5  125  20 
 GRA  SZ EP        853 25.10                             134     0.510  135  25 
 GRA  SZ ES   2    853 44.72                             134    -0.1 5  135  25 
                                                                                
