 2011  410 0208 31.5 L   6.769 -73.128153.4  RSN  5 0.3 1.7LRSN                1
 GAP=181        0.71       7.0    11.6  9.5 -0.6132E+01 -0.2891E+02 -0.2811E+01E
 Epicentro: LOS SANTOS - SANTANDER                                             3
 ACTION:UP  11-06-22 15:30 OP:REBC STATUS:               ID:20110410020831 L   I
 2011-04-10-0202-48S.COL___138                                                 6
 STAT SP IPHASW D HRMM SECON CODA AMPLIT PERI AZIMU VELO SNR AR TRES W  DIS CAZ7
 BAR2 SZ EP   1    2 8 51.97                             172     0.0 7   20 197 
 BAR2 SZ ES   2    2 9  7.47                             172    -0.5 5   20 197 
 BAR2 SZ I         2 9  8.28         7.0 0.41                            20 197 
 BTL  SZ EP        2 8 52.32                             171     0.310   23 317 
 BRR  HZ EP        2 8 53.78                             153     0.110   75 300 
 BRR  HZ I         2 8 54.18        12.8 0.15                            75 300 
 BRR  HE ES   1    2 9 10.89                             153    -0.1 7   75 300 
 GRA  SZ ES   2    2 9 18.39                             138     0.3 5  128  16 
 GRA  SZ I         2 9 19.44         5.6 0.34                           128  16 
 OCA  SZ EP   1    2 9  0.15                             131    -0.6 7  164 353 
 OCA  SZ ES   2    2 9 23.65                             131     0.1 5  164 353 
 OCA  SZ I         2 9 28.02         7.2 0.36                           164 353 
                                                                                
