 2016 1210 0851 54.1 L   6.759 -73.176130.8  RSN  4 0.4 1.0LRSN                1
 GAP=240        1.10      10.0     7.9  9.7  0.4969E+02  0.1040E+02 -0.2522E+02E
 Epicentro: LOS SANTOS - SANTANDER                                             3
 ACTION:UPD 17-01-11 20:13 OP:rebc STATUS:               ID:20161210085154 L   I
 OLDACT:DUP 16-12-10 18:14 OP:lv   STATUS:               ID:20161210084742d    3
 2016-12-10-0848-00M.COL___361                                                 6
 STAT SP IPHASW D HRMM SECON CODA AMPLIT PERI AZIMU VELO AIN AR TRES W  DIS CAZ7
 BAR2 EZ EP        852 11.85                             172    0.0210 18.5 182 
 BAR2 EZ ES        852 25.34                             172   -0.3210 18.5 182 
 RUS  HZ EP        852 15.91                             142   -0.1710 96.4 174 
 RUS  HE ES        852 33.81                             142    0.5810 96.4 174 
 RUS  HZ I         852 35.32         1.0 0.27            143           96.4 174 
 PTB  HZ EP        852 18.71                             129   -0.78 9  144 260 
 PTB  HN ES        852 39.18                             129   -0.12 9  144 260 
 PTB  HZ I         852 41.65         1.4 0.19            129            144 260 
 ZAR  HZ EP        852 26.11                             119    0.64 9  203 294 
 ZAR  HN ES        852 50.24                             119    0.31 9  203 294 
 ZAR  HZ I         852 55.25         2.1 0.38            119            203 294 
                                                                                
