 2017  410 0343  6.4 L   6.702 -73.192154.0  RSN  5 0.2 0.8LRSN                1
 GAP=135        0.61       4.3     5.8  5.9  0.9683E+01 -0.4590E+01 -0.4593E+01E
 Epicentro: VILLANUEVA - SANTANDER                                             3
 ACTION:UPD 17-05-30 21:10 OP:jn   STATUS:               ID:20170410034306 L   I
 OLDACT:UP  17-04-10 16:34 OP:edw  STATUS:               ID:20170410033747d    3
 OLDACT:UP  17-04-10 16:33 OP:edw  STATUS:               ID:20170410033747d    3
 OLDACT:DUP 17-04-10 16:30 OP:edw  STATUS:               ID:20170410033747d    3
 2017-04-10-0338-00M.COL___371                                                 6
 STAT SP IPHASW D HRMM SECON CODA AMPLIT PERI AZIMU VELO AIN AR TRES W  DIS CAZ7
 BAR2 EZ EP   3    343 26.94                             175    0.09 2 12.2 175 
 BAR2 EZ ES   3    343 42.55                             175   -0.25 2 12.2 175 
 BRR  HZ EP        343 28.96                             153    0.4310 72.9 308 
 BRR  HN ES        343 45.77                             153   -0.0210 72.9 308 
 PAM  EZ EP        343 29.96                             149   -0.2310 89.0  38 
 RUS  HZ EP        343 30.43                             148    0.1610 90.3 172 
 RUS  HN ES        343 48.86                             148   -0.0410 90.3 172 
 PTB  HZ EP        343 33.12                             135   -0.33 9  141 263 
 PTB  HZ I         343 57.27         0.8 0.20            103            141 263 
 PTB  HN ES   4    343 57.70                             135    3.14 0  141 263 
                                                                                
