 2015  110 0928 56.5 L   6.825 -73.159149.9  RSN  9 0.4 1.9LRSN                1
 GAP=182        0.97       3.1     5.4  5.7  0.5017E+01  0.3237E+01 -0.1363E+01E
 Epicentro: LOS SANTOS - SANTANDER                                             3
 ACTION:UPD 15-03-02 15:38 OP:nd   STATUS:               ID:20150110092856 L   I
 OLDACT:UP  15-01-10 17:21 OP:cam  STATUS:               ID:20150110092816     3
 OLDACT:REG 15-01-10 13:40 OP:cam  STATUS:               ID:20150110092816     3
 2015-01-10-0928-16M.COL___262                                                 6
 STAT SP IPHASW D HRMM SECON CODA AMPLIT PERI AZIMU VELO AIN AR TRES W  DIS CAZ7
 BAR2 EZ EP        929 16.82                             170    0.0910 25.9 186 
 BAR2 EZ ES        929 32.43                             170   -0.0410 25.9 186 
 BAR2 EZ I         929 34.43        16.2 0.30            169           25.9 186 
 BRR  HZ EP        929 18.53                             154    0.5310 68.6 297 
 BRR  HN ES        929 35.23                             154    0.4910 68.6 297 
 RUS  HZ EP        929 21.20                             144    0.2910  104 175 
 RUS  HE ES        929 39.42                             144   -0.5010  104 175 
 RUS  HZ I         929 40.73         5.2 0.30            144            104 175 
 PTB  HZ EP        929 23.42                             133   -0.36 9  147 258 
 PTB  HN ES        929 44.33                             133   -0.69 9  147 258 
 PTB  HZ I         929 46.37         8.1 0.40            132            147 258 
 OCA  HN ES        929 46.81                             131   -0.22 9  157 354 
 ZAR  HZ EP        929 29.45                             124    0.43 9  202 292 
 ZAR  HN ES        929 54.73                             124    0.38 9  202 292 
 ZAR  HZ I         929 59.76         9.8 0.24            123            202 292 
 SML  HZ EP        929 33.06                             119   -0.01 8  241 335 
 SML  HN ES        930  1.18                             119   -0.37 8  241 335 
 SML  HZ I         930  5.93        10.7 0.10            119            241 335 
 CHI  HZ EP        929 34.91                             118    0.18 8  251 195 
 CHI  HN ES        930  4.56                             118    0.05 8  251 195 
 CHI  HZ I         930  9.47         4.3 0.32            118            251 195 
 HEL  HZ EP   44   929 38.44                             116    1.55 0  271 255 
 MON  HZ EP   4    929 43.79                             109   -1.59 0  351 308 
 SJC  HZ EP        929 51.02                             106   -0.86 6  406 327 
                                                                                
