 2016 1010 0712 27.9 L   6.772 -73.191142.3  RSN  8 0.2 1.7LRSN                1
 GAP=141        0.61       2.8     2.7  3.9 -0.3359E+01  0.6183E+00  0.1754E+01E
 Epicentro: ZAPATOCA - SANTANDER                                               3
 ACTION:UPD 16-11-09 19:18 OP:rebc STATUS:               ID:20161010071227 L   I
 OLDACT:REG 16-10-10 13:17 OP:ar   STATUS:               ID:20161010070644     3
 2016-10-10-0707-00M.COL___354                                                 6
 STAT SP IPHASW D HRMM SECON CODA AMPLIT PERI AZIMU VELO AIN AR TRES W  DIS CAZ7
 BAR2 EZ EP        712 47.07                             172    0.0410 19.9 177 
 BAR2 EZ ES        713  2.09                             172    0.1310 19.9 177 
 BAR2 EZ I         713  3.95        17.0 0.30            170           19.9 177 
 PAM  EZ EP        712 50.27                             148    0.2010 82.9  41 
 PAM  EE ES        713  7.47                             148    0.0910 82.9  41 
 PAM  EZ I         713  9.67        11.0 0.46            152           82.9  41 
 RUS  HZ EP        712 50.79                             144   -0.3110 98.0 173 
 RUS  HN ES        713  9.17                             144   -0.0410 98.0 173 
 RUS  HZ I         713 10.83         5.8 0.34            145           98.0 173 
 PTB  HZ EP        712 54.07                             132    0.00 9  142 260 
 PTB  HN ES        713 13.95                             132   -0.54 9  142 260 
 PTB  HZ I         713 19.90         9.5 0.30            133            142 260 
 SPBC HZ EP        712 55.85                             129    0.26 9  158 218 
 SPBC HN ES        713 17.36                             129    0.16 9  158 218 
 SPBC HZ I         713 20.09        10.4 0.38            130            158 218 
 TAM  HZ EP        712 55.41                             129   -0.26 9  159 103 
 NOR  HN ES        713 30.35                             118    0.35 8  229 234 
 CHI  HZ EP        713  5.01                             117    0.08 8  244 194 
 CHI  HN ES        713 33.74                             117   -0.08 8  244 194 
 CHI  HZ I         713 41.72         1.9 0.46            118            244 194 
                                                                                
