 2010 1110 0402 23.7 L   6.820 -73.065141.0  RSN 10 0.6 2.2LRSN                1
 GAP=167        1.42       4.9     8.8  9.5 -0.1439E+02  0.1654E+02  0.4451E+01E
 Epicentro: LOS SANTOS - SANTANDER                                             3
 ACTION:UP  10-12-17 16:51 OP:REBC STATUS:               ID:20101110040223 L   I
 2010-11-10-0358-55S.COL___128                                                 6
 STAT SP IPHASW D HRMM SECON CODA AMPLIT PERI AZIMU VELO SNR AR TRES W  DIS CAZ7
 BAR2 SZ EP        4 2 42.74                             168    -0.110   28 207 
 BAR2 SZ ES   2    4 2 57.76                             168    -0.1 5   28 207 
 BAR2 SZ I         4 2 59.65        48.2 0.00                            28 207 
 BRR  HZ EP        4 2 44.50                             149    -0.310   78 294 
 BRR  HZ I         4 2 44.80        55.9 0.12                            78 294 
 BRR  HN ES        4 3  1.39                             149     0.210   78 294 
 RUS  HZ EP        4 2 46.84                             142    -0.310  103 181 
 RUS  HN ES        4 3  5.01                             142    -0.410  103 181 
 RUS  HZ I         4 3  7.32        27.0 0.45                           103 181 
 GRA  SZ EP        4 2 48.49                             137     0.410  121  14 
 GRA  SZ I         4 2 50.00        21.6 0.65                           121  14 
 GRA  SZ ES   1    4 3  7.72                             137     0.5 7  121  14 
 OCA  SZ EP        4 2 51.18                             129    -0.4 9  159 350 
 OCA  SZ ES   1    4 3 13.37                             129     0.1 7  159 350 
 OCA  SZ I         4 3 17.63        18.2 0.88                           159 350 
 NOR  SZ EP        4 2 59.21                             117    -0.9 8  243 235 
 NOR  SN ES   2    4 3 27.64                             117    -0.8 4  243 235 
 NOR  SZ I         4 3 28.65         2.3 0.31                           243 235 
 ROSC BZ EP   1    4 3  3.23                             115     1.0 6  259 212 
 ROSC BN ES        4 3 34.08                             115     1.7 8  259 212 
 ROSC BZ I         4 3 37.91        12.1 0.89                           259 212 
 HEL  HZ EP        4 3  4.81                             113     0.1 7  281 256 
 HEL  HN ES   2    4 3 35.93                             113    -0.7 4  281 256 
 HEL  HZ I         4 3 41.77         8.7 0.65                           281 256 
 RREF HZ EP   1    4 3 10.53                             109     0.0 5  330 230 
 RREF HN ES   1    4 3 46.55                             109    -0.6 5  330 230 
 RREF HZ I         4 3 55.03         7.5 0.58                           330 230 
 PRA  HZ EP   1    4 3 18.32                             105     0.5 4  398 211 
 PRA  HN ES   2    4 3 59.59                             105    -0.4 3  398 211 
 PRA  HZ I         4 4  6.79        20.7 0.30                           398 211 
                                                                                
