 2013 1110 0455 19.8 L   6.355 -73.748  6.4  RSN  6 0.6 1.3LRSN                1
 GAP=110        1.48       4.6     3.3 11.9  0.4558E+01  0.2207E+02  0.2055E+02E
 Epicentro: SANTA HELENA DEL OPON - SANTANDER                                  3
 ACTION:UPD 14-01-09 16:26 OP:ep   STATUS:               ID:20131110045519 L   I
 OLDACT:REG 13-11-10 09:14 OP:stll STATUS:               ID:20131110044846     3
 2013-11-10-0448-46M.COL___213                                                 6
 STAT SP IPHASW D HRMM SECON CODA AMPLIT PERI AZIMU VELO AIN AR TRES W  DIS CAZ7
 BAR2 SZ EP        455 31.22                              92    0.2610 67.8  67 
 BAR2 SZ ES        455 39.15                              92   -0.4910 67.8  67 
 BAR2 SZ I         455 41.42        21.1 0.58             92           67.8  67 
 PTB  HZ EP        455 32.81                              92    0.0810 81.0 285 
 PTB  HZ I         455 34.39        12.2 0.10             92           81.0 285 
 PTB  HN ES        455 42.28                              92   -0.5010 81.0 285 
 BRR  HN ES        455 43.69                              92    0.3310 83.2   3 
 RUS  HZ EP        455 35.02                              92    0.4910 89.6 125 
 RUS  HZ I         455 35.20         6.9 0.14             92           89.6 125 
 RUS  HN ES        455 45.40                              92   -0.5810 89.6 125 
 HEL  HZ EP        455 50.16                              56    0.08 9  198 265 
 HEL  HN ES        456 12.84                              56   -0.83 9  198 265 
 HEL  HZ I         456 14.43         4.3 0.42             56            198 265 
 GUY2CHZ EP        455 54.18                              56    1.40 8  218 235 
 GUY2CHZ I         456 22.30         1.3 0.30                           218 235 
                                                                                
