 2015  210 0329 45.3 L   6.746 -73.174141.3  RSN  7 0.5 1.3LRSN                1
 GAP=135        1.24       5.6     5.7  7.8 -0.1001E+02  0.1036E+02  0.6247E+01E
 Epicentro: LOS SANTOS - SANTANDER                                             3
 ACTION:UPD 15-04-30 21:24 OP:nd   STATUS:               ID:20150210032945 L   I
 OLDACT:REG 15-02-10 12:53 OP:fm   STATUS:               ID:20150210032750     3
 2015-02-10-0327-50M.COL___281                                                 6
 STAT SP IPHASW D HRMM SECON CODA AMPLIT PERI AZIMU VELO AIN AR TRES W  DIS CAZ7
 BAR2 EZ EP        330  4.32                             173    0.0410 17.0 183 
 BAR2 EZ ES        330 19.27                             173    0.1910 17.0 183 
 BAR2 EZ I         330 22.14         4.5 0.28            170           17.0 183 
 BRR  HZ EP        330  6.13                             152    0.1310 71.6 304 
 BRR  HN ES        330 22.88                             152    0.7510 71.6 304 
 BRR  HZ I         330 25.69         3.3 0.38            152           71.6 304 
 PAM  SZ EP        330  7.25                             148   -0.2110 84.0  39 
 PAM  SE ES        330 24.17                             148   -0.5710 84.0  39 
 PAM  SZ I         330 26.42         2.9 0.20            155           84.0  39 
 RUS  HZ EP        330  8.53                             145    0.3210 94.9 174 
 RUS  HN ES        330 25.70                             145   -0.3710 94.9 174 
 RUS  HZ I         330 29.00         1.3 0.30            147           94.9 174 
 PTB  HZ EP        330 11.19                             132   -0.34 9  144 261 
 PTB  HN ES        330 31.52                             132   -0.47 9  144 261 
 PTB  HZ I         330 39.62         3.6 0.48            133            144 261 
 SPBC HZ EP        330 13.25                             129    0.41 9  157 219 
 SPBC HE ES        330 34.84                             129    0.53 9  157 219 
 SPBC HZ I         330 41.85         3.9 0.10            131            157 219 
 GUY2CHZ EP        330 28.63                             112    0.60 7  295 235 
 GUY2CHE ES        331  0.09                             112   -1.27 7  295 235 
 GUY2CHZ I         331 10.98         1.8 0.52                           295 235 
                                                                                
