 2012  110 0501 56.7 L   6.806 -73.128144.0  RSN 15 0.4 2.3LRSN                1
 GAP=138        0.66       3.1     3.7  5.1 -0.2885E+01  0.4403E+01  0.4798E+01E
 Epicentro: LOS SANTOS - SANTANDER                                             3
 ACTION:UP  12-02-03 08:16 OP:REBC STATUS:               ID:20120110050156 L   I
 2012-01-10-0500-00M.COL___186                                                 6
 STAT SP IPHASW D HRMM SECON CODA AMPLIT PERI AZIMU VELO SNR AR TRES W  DIS CAZ7
 BAR2 SZ IP        5 2 16.12                             170     0.010   24 194 
 BAR2 SZ ES   2    5 2 30.82                             170    -0.5 5   24 194 
 BAR2 SZ I         5 2 32.57        56.9 0.17                            24 194 
 GIR2 SZ EP        5 2 16.13                             167     0.010   31 347 
 GIR2 SZ ES   2    5 2 30.94                             167    -0.4 5   31 347 
 BRR  HZ IP     C  5 2 17.90                             152     0.210   73 297 
 BRR  HZ I         5 2 18.18        87.3 0.19                            73 297 
 BRR  HE ES   1    5 2 34.99                             152     0.8 7   73 297 
 PAM  SZ EP   1    5 2 18.84                             151     0.2 7   76  39 
 PAM  SE ES   1    5 2 36.10                             151     0.4 7   76  39 
 RUS  HZ EP   1    5 2 20.18                             143    -0.1 7  101 177 
 RUS  HN ES   2    5 2 38.40                             143    -0.4 5  101 177 
 RUS  HZ I         5 2 40.07        22.4 0.33                           101 177 
 PTB  HZ EP   1    5 2 22.93                             131    -0.8 7  150 259 
 PTB  HE ES   2    5 2 44.51                             131    -0.3 5  150 259 
 OCA  SZ EP   1    5 2 24.51                             130    -0.3 7  160 352 
 OCA  SZ ES   2    5 2 46.21                             130    -0.6 5  160 352 
 OCA  SZ I         5 2 50.56        22.0 0.29                           160 352 
 ZAR  HZ EP   2    5 2 28.74                             122    -0.5 4  206 292 
 ZAR  HN ES   2    5 2 54.36                             122    -0.2 4  206 292 
 ZAR  HZ I         5 2 59.88        33.0 0.26                           206 292 
 NOR  SZ EP   1    5 2 32.60                             118     0.0 6  237 235 
 NOR  SN ES   1    5 3  0.59                             118     0.1 6  237 235 
 CHI  HZ EP   1    5 2 34.66                             117     0.2 6  250 196 
 CHI  HE ES   2    5 3  3.90                             117     0.0 4  250 196 
 CHI  HZ I         5 3 10.62         9.5 0.48                           250 196 
 HEL  HZ EP   2    5 2 37.47                             114     0.4 4  274 256 
 HEL  HN ES   2    5 3  8.76                             114     0.2 4  274 256 
 HEL  HZ I         5 3 15.67        10.3 0.48                           274 256 
 VIL  SN ES   2    5 3 14.43                             112     0.4 4  304 192 
 GUY  SZ EP   2    5 2 40.81                             112     0.1 4  306 235 
 GUY  SN ES   2    5 3 15.09                             112     0.0 4  306 235 
 GUY  SZ I         5 3 25.93         9.2 0.41                           306 235 
 RREF HZ EP   2    5 2 43.19                             111     0.2 3  324 230 
 RREF HE ES   2    5 3 19.21                             111     0.1 3  324 230 
 RREF HZ I         5 3 26.37         8.8 0.24                           324 230 
 PRA  HZ EP   2    5 2 50.58                             106     0.2 3  394 210 
 PRA  HE ES   2    5 3 32.34                             106     0.1 3  394 210 
                                                                                
