 2016 1210 0107 20.9 L   6.614 -73.422114.2  RSN  9 0.3 1.5LRSN                1
 GAP= 75        0.85       2.8     3.2  4.6  0.1257E+01  0.2691E+01  0.2683E+01E
 Epicentro: EL CARMEN - SANTANDER                                              3
 ACTION:UPD 17-01-11 20:13 OP:rebc STATUS:               ID:20161210010720 L   I
 OLDACT:DUP 16-12-10 13:38 OP:lv   STATUS:               ID:20161210005741d    3
 2016-12-10-0058-00M.COL___367                                                 6
 STAT SP IPHASW D HRMM SECON CODA AMPLIT PERI AZIMU VELO AIN AR TRES W  DIS CAZ7
 BAR2 EZ EP        1 7 36.70                             166   -0.1110 26.6  95 
 BAR2 EZ ES        1 7 49.53                             166    0.2910 26.6  95 
 BAR2 EZ I         1 7 51.52        17.2 0.27            169           26.6  95 
 BRR  HZ EP        1 7 38.15                             149   -0.0410 63.3 330 
 BRR  HE ES        1 7 52.07                             149    0.3710 63.3 330 
 BRR  HZ I         1 7 53.28        17.3 0.12            149           63.3 330 
 RUS  HZ EP        1 7 39.99                             140   -0.6610 88.1 155 
 RUS  HN ES        1 7 55.89                             140   -0.1910 88.1 155 
 RUS  HZ I         1 7 58.17         2.6 0.21            142           88.1 155 
 PAM  EZ EP        1 7 42.81                             132    0.0410  113  45 
 PAM  EE ES        1 8  0.05                             132    0.1910  113  45 
 PAM  EZ I         1 8  4.02         3.6 0.36            135            113  45 
 PTB  HZ EP   9    1 7 40.56                             131   -1.71 0  115 266 
 PTB  HN ES        1 7 56.54                                   -0.7110  115 266 
 PTB  HZ I         1 8  1.25         8.9 0.08            132            115 266 
 TAM  HZ EP        1 7 49.01                             118   -0.03 9  181  96 
 TAM  HN ES   4    1 8  8.36                             118   -2.65 0  181  96 
 ZAR  HZ EP        1 7 49.32                             117   -0.18 9  186 302 
 ZAR  HN ES        1 8 11.61                             117   -0.22 9  186 302 
 ZAR  HZ I         1 8 17.97         6.3 0.37            118            186 302 
 CHI  HZ EP        1 7 54.07                             112    0.06 8  222 189 
 CHI  HE ES        1 8 20.11                             112    0.25 8  222 189 
 CHI  HZ I         1 8 24.22         1.4 0.08            114            222 189 
 GUY2CHZ EP        1 7 59.35                             108    0.42 8  264 235 
 GUY2CHE ES   4    1 8 29.23                             108    0.62 0  264 235 
 GUY2CHZ I         1 8 35.53         2.2 0.39                           264 235 
                                                                                
