 2017  410 0515 53.2 L   6.770 -73.116143.8  RSN  8 0.5 1.3LRSN                1
 GAP=142        1.09       3.9     5.0  6.2 -0.5094E+00  0.4007E+01  0.3649E+01E
 Epicentro: LOS SANTOS - SANTANDER                                             3
 ACTION:UPD 17-05-30 21:10 OP:jn   STATUS:               ID:20170410051553 L   I
 OLDACT:DUP 17-04-10 17:15 OP:edw  STATUS:               ID:20170410050745d    3
 OLDACT:UP  17-04-10 17:15 OP:edw  STATUS:               ID:20170410050744d    3
 OLDACT:DUP 17-04-10 17:10 OP:edw  STATUS:               ID:20170410050744d    3
 2017-04-10-0508-00M.COL___371                                                 6
 STAT SP IPHASW D HRMM SECON CODA AMPLIT PERI AZIMU VELO AIN AR TRES W  DIS CAZ7
 BAR2 EZ EP        516 12.58                             171    0.0610 21.0 200 
 BAR2 EZ ES        516 27.00                             171   -0.6010 21.0 200 
 BAR2 EZ I         516 28.71         7.6 0.20            171           21.0 200 
 BRR  HZ IP     C  516 14.26                             151   -0.1010 75.6 300 
 BRR  HE ES        516 31.57                             151    0.6810 75.6 300 
 BRR  HZ I         516 34.66         2.4 0.20            150           75.6 300 
 PAM  EZ EP        516 15.46                             150    0.2510 78.0  36 
 PAM  EN ES        516 32.17                             150   -0.2310 78.0  36 
 PAM  EZ I         516 35.32         2.8 0.42            153           78.0  36 
 RUS  HZ EP        516 16.70                             144    0.2210 97.1 178 
 RUS  HN ES        516 34.86                             144    0.2010 97.1 178 
 RUS  HZ I         516 36.73         2.1 0.44            145           97.1 178 
 PTB  HZ EP   9    516 19.03                             131   -1.19 0  150 260 
 PTB  HN ES        516 40.15                             131    0.03 9  150 260 
 PTB  HZ I         516 42.17         2.3 0.10            131            150 260 
 SPBC HZ EP        516 21.24                             129   -0.24 9  163 221 
 SPBC HN ES        516 43.60                             129    0.05 9  163 221 
 SPBC HZ I         516 45.91         4.0 0.10            129            163 221 
 ZAR  HZ EP        516 26.60                             121    0.67 8  208 293 
 ZAR  HN ES        516 50.74                             121   -0.74 8  208 293 
 ZAR  HZ I         516 56.07         2.0 0.34            122            208 293 
 CHI  HZ EP        516 29.64                             117   -0.87 8  246 196 
 CHI  HN ES        517  0.06                             117    0.43 8  246 196 
 CHI  HZ I         517  5.05         1.1 0.48            118            246 196 
                                                                                
