 2012 1110 0749 52.2 L   6.810 -73.153145.1  RSN  9 0.5 1.9LRSN                1
 GAP=135        1.35       4.6     7.3  8.4  0.1195E+01  0.1584E+02 -0.2117E+01E
 Epicentro: LOS SANTOS - SANTANDER                                             3
 ACTION:UPD 12-12-05 15:32 OP:}ep  STATUS:               ID:20121110074952 L   I
 2012-11-10-0750-00M.COL___230                                                 6
 STAT SP IPHASW D HRMM SECON CODA AMPLIT PERI AZIMU VELO AIN AR TRES W  DIS CAZ7
 BAR2 SZ EP        750 11.94                             170    0.2110 24.3 188 
 BAR2 SZ ES        750 26.71                             170   -0.2810 24.3 188 
 BAR2 SZ I         750 28.25        15.8 0.16                          24.3 188 
 GIR2 SZ EP        750 11.87                             168    0.1510 30.0 351 
 BRR  HZ EP        750 13.65                             153    0.4810 69.9 298 
 BRR  HN ES        750 30.50                             153    0.9510 69.9 298 
 BRR  HN I         750 33.43        25.2 0.16                          69.9 298 
 PAM  SN ES        750 31.06                             151   -0.4810 77.1  41 
 RUS  HZ EP        750 16.06                             143    0.1210  102 176 
 RUS  HZ I         750 17.04         5.1 0.14                           102 176 
 RUS  HN ES        750 34.17                             143   -0.3010  102 176 
 PTB  HZ EP        750 18.75                             132   -0.27 9  147 258 
 PTB  HN ES        750 39.45                             132   -0.52 9  147 258 
 PTB  HN I         750 42.35        13.5 0.18                           147 258 
 OCA  HN ES        750 42.98                             130    0.72 9  159 353 
 SML  HZ EP        750 28.28                             117   -0.33 8  242 335 
 SML  HN ES        750 55.82                             117   -1.21 8  242 335 
 PRA  HZ EP        750 46.39                             106    0.66 6  393 209 
 PRA  HN I         751 32.39         2.6 0.50                           393 209 
                                                                                
