 2014 1110 0324  1.3 L   6.758 -73.156144.9  RSN  9 0.3 1.6LRSN                1
 GAP=137        0.83       3.3     3.7  4.7 -0.2977E+01  0.4051E+01  0.3574E+01E
 Epicentro: LOS SANTOS - SANTANDER                                             3
 ACTION:UPD 14-12-19 15:41 OP:nd   STATUS:               ID:20141110032401 L   I
 OLDACT:DUP 14-11-10 16:32 OP:stll STATUS:               ID:20141110031748d    3
 2014-11-10-0317-46M.COL___298                                                 6
 STAT SP IPHASW D HRMM SECON CODA AMPLIT PERI AZIMU VELO AIN AR TRES W  DIS CAZ7
 BAR2 SZ EP        324 20.97                             172    0.2310 18.6 189 
 BAR2 SZ ES        324 36.04                             172    0.1410 18.6 189 
 BAR2 SZ I         324 37.02        13.6 0.34            169           18.6 189 
 BRR  HZ EP        324 22.78                             152    0.3510 72.5 302 
 BRR  HZ I         324 22.92        10.1 0.20            151           72.5 302 
 BRR  HE ES        324 39.37                             152    0.4610 72.5 302 
 PAM  SZ EP        324 23.41                             149   -0.2810 81.7  38 
 PAM  SE ES        324 40.93                             149   -0.2210 81.7  38 
 PAM  SZ I         324 43.00         5.1 0.50            155           81.7  38 
 RUS  HZ EP        324 24.95                             145    0.3010 96.1 175 
 RUS  HN ES        324 42.66                             145   -0.1910 96.1 175 
 RUS  HZ I         324 44.36         2.9 0.26            146           96.1 175 
 PTB  HZ EP        324 27.55                             132   -0.47 9  146 261 
 PTB  HE ES        324 48.53                             132   -0.33 9  146 261 
 PTB  HZ I         324 56.48         4.4 0.36            132            146 261 
 SPBC HZ EP        324 29.06                             130   -0.27 9  159 220 
 SPBC HN ES        324 50.66                             130   -0.52 9  159 220 
 SPBC HZ I         324 58.96         8.4 0.22            130            159 220 
 CHI  HZ EP        324 38.29                             117   -0.15 8  244 195 
 CHI  HN ES        325  7.90                             117    0.50 8  244 195 
 CHI  HZ I         325 12.11         2.0 0.34            119            244 195 
 GUY2CHZ EP        324 44.88                             112    0.41 7  298 235 
 GUY2CHN ES        325 18.32                             112    0.19 7  298 235 
 GUY2CHZ I         325 27.87         2.0 0.34                           298 235 
 CBOC HZ EP        324 48.00                             110    0.10 7  331 253 
                                                                                
