 2017  810 0516 18.5 L   6.808 -73.136144.2  RSN 16 0.5 1.9LRSN                1
 GAP=137        0.98       3.2     3.8  4.8 -0.8182E+00  0.6728E+01  0.4117E+01E
 Epicentro: LOS SANTOS - SANTANDER                                             3
 ACTION:UPD 17-09-04 20:18 OP:rebc STATUS:               ID:20170810051618 L   I
 OLDACT:REG 17-08-10 12:29 OP:dhb  STATUS:               ID:20170810050742     3
 2017-08-10-0508-00M.COL___396                                                 6
 STAT SP IPHASW D HRMM SECON CODA AMPLIT PERI AZIMU VELO AIN AR TRES W  DIS CAZ7
 BAR2 EZ IP        516 37.68                             170   -0.2810 24.4 192 
 BAR2 EZ ES        516 52.85                             170   -0.2810 24.4 192 
 BAR2 EZ I         516 54.05        15.9 0.09            169           24.4 192 
 BRR  HZ IP     C  516 39.49                             152   -0.0110 71.7 297 
 BRR  HE ES        516 56.49                             152    0.6010 71.7 297 
 BRR  HZ I         516 59.83        15.5 0.14            141           71.7 297 
 PAM  EZ IP     C  516 40.75                             151    0.2910 76.0  39 
 PAM  EN ES        516 57.81                             151    0.2210 76.0  39 
 PAM  EZ I         517  0.34         6.8 0.48            145           76.0  39 
 RUS  HZ EP        516 41.95                             143   -0.2010  101 177 
 RUS  HN ES        517  0.28                             143   -0.3210  101 177 
 RUS  HZ I         517  1.80        12.0 0.28            140            101 177 
 SPBC HZ EP        516 46.69                             128   -0.31 9  165 219 
 SPBC HE ES        517  9.11                             128   -0.13 9  165 219 
 SPBC HZ I         517 11.50        13.6 0.10            122            165 219 
 ZAR  HZ EP        516 50.10                             122   -0.81 9  205 292 
 ZAR  HE ES        517 16.11                             122   -0.08 9  205 292 
 ZAR  HZ I         517 21.46         7.0 0.10            114            205 292 
 NOR  HZ EP        516 54.11                             118   -0.18 8  236 234 
 NOR  HN ES        517 21.34                             118   -0.86 8  236 234 
 NOR  HZ I         517 27.77         6.3 0.32            112            236 234 
 CHI  HZ IP     C  516 56.65                             117    0.42 8  250 195 
 CHI  HN ES        517 25.76                             117    0.09 8  250 195 
 CHI  HZ I         517 27.88         4.5 0.35            111            250 195 
 ROSC BZ EP        516 57.60                             116    0.92 8  254 211 
 ROSC BN ES   2    517 27.57                             116    1.12 4  254 211 
 ROSC BZ I         517 32.47         8.4 0.40            111            254 211 
 URE  HZ EP   9    516 57.24                             113   -2.32 0  285 292 
 URE  HE ES        517 29.00                                   -0.27 7  285 292 
 GUY2CHZ EP        517  2.90                             112    0.71 7  303 235 
 GUY2CHN ES   2    517 37.70                             112    1.43 4  303 235 
 GUY2CHZ I         517 44.60         3.7 0.22                           303 235 
 CBOC HZ EP        517  5.66                             109    0.16 7  335 252 
 CBOC HN ES        517 42.25                             109    0.10 7  335 252 
 CBOC HZ I         517 50.91         1.7 0.46            104            335 252 
 DBB  EZ EP        517  6.09                             109    0.06 7  341 274 
 DBB  EZ I         517 49.70         2.7 0.12            103            341 274 
 PRA  HZ EP        517 11.70                             106   -0.42 6  393 210 
 PRA  HN ES        517 54.08                             106    0.14 6  393 210 
 PRA  HZ I         517 59.54         3.7 0.24            102            393 210 
 ORTC HZ EP        517 12.38                             106   -0.14 6  397 216 
 ORTC HN ES        517 55.40                             106    0.74 6  397 216 
 ORTC HZ I         517 59.04         1.7 0.23            101            397 216 
 PAL  HZ EP        517 13.16                             105   -0.61 6  407 239 
 PAL  HZ I         517 57.48         1.4 0.34            101            407 239 
                                                                                
