 2017  210 0705 41.8 L   7.374 -73.196134.8  RSN  5 0.3 1.1LRSN                1
 GAP=211        0.82       7.0     3.4  6.9 -0.3298E+01  0.3577E+01 -0.1947E+01E
 Epicentro: EL PLAYON - SANTANDER                                              3
 ACTION:UPD 17-05-24 15:34 OP:jn   STATUS:               ID:20170210070541 L   I
 OLDACT:REG 17-02-10 12:17 OP:edw  STATUS:               ID:20170210065742     3
 2017-02-10-0658-00M.COL___358                                                 6
 STAT SP IPHASW D HRMM SECON CODA AMPLIT PERI AZIMU VELO AIN AR TRES W  DIS CAZ7
 PAM  EZ EP        7 6  1.81                             157    0.1910 54.9  94 
 PAM  EN ES        7 6 16.82                             157   -0.2410 54.9  94 
 PAM  EZ I         7 6 17.78         2.9 0.14            157           54.9  94 
 BRR  HZ IP        7 6  1.49                             153    0.1110 64.2 243 
 BRR  HN ES        7 6 16.63                             153   -0.0110 64.2 243 
 BAR2 EZ ES        7 6 20.25                             145    0.5210 86.5 179 
 BAR2 EZ I         7 6 20.51         2.9 0.10            145           86.5 179 
 PTB  HZ EP        7 6  9.95                             126    0.17 9  167 237 
 PTB  HN ES        7 6 31.05                             126   -0.54 9  167 237 
 PTB  HZ I         7 6 32.92         1.4 0.50            126            167 237 
 TAM  HE ES        7 6 34.86                             122   -0.34 9  187 124 
                                                                                
