 2011  810 0237 56.9 L   6.668 -73.299143.8  RSN  4 0.4 1.5LRSN                1
 GAP=166        0.76       5.7     6.7  7.7  0.6830E+01  0.1684E+02  0.1024E+02E
 Epicentro: GALAN - SANTANDER                                                  3
 ACTION:UPD 12-07-25 14:07 OP:epov STATUS:               ID:20110810023756 L   I
 2011-08-10-0233-40S.COL___150                                                 6
 STAT SP IPHASW D HRMM SECON CODA AMPLIT PERI AZIMU VELO AIN AR TRES W  DIS CAZ7
 BAR2 SZ EP   1    238 15.60                             174   -0.56 7 15.4 123 
 BAR2 SZ ES   1    238 30.73                             174   -0.45 7 15.4 123 
 BAR2 SZ I         238 32.87         6.9 0.22                          15.4 123 
 BRR  HZ EP        238 17.83                             154    0.2510 66.6 317 
 BRR  HN ES   1    238 33.91                             154    0.20 7 66.6 317 
 BRR  HZ I         238 36.15         9.8 0.10                          66.6 317 
 RUS  HZ EP        238 19.61                             147   -0.0410 89.1 164 
 RUS  HZ I         238 20.77         3.8 0.11                          89.1 164 
 RUS  HE ES   1    238 37.97                             147    0.57 7 89.1 164 
 NOR  SZ EP   1    238 30.28                             121    0.14 6  212 235 
 NOR  SN ES   1    238 55.74                             121   -0.34 6  212 235 
                                                                                
