 2017  410 0549 55.0 L   6.802 -73.120148.9  RSN 22 0.5 2.2LRSN                1
 GAP=114        1.32       4.4     4.9  5.8 -0.2518E+00  0.6625E+01  0.3671E+01E
 Epicentro: LOS SANTOS - SANTANDER                                             3
 ACTION:UPD 17-05-30 21:10 OP:jn   STATUS:               ID:20170410054955 L   I
 OLDACT:UP  17-04-10 18:00 OP:edw  STATUS:               ID:20170410054742     3
 OLDACT:REG 17-04-10 13:10 OP:edw  STATUS:               ID:20170410054742     3
 2017-04-10-0548-00M.COL___371                                                 6
 STAT SP IPHASW D HRMM SECON CODA AMPLIT PERI AZIMU VELO AIN AR TRES W  DIS CAZ7
 BAR2 EZ EP        550 15.02                             171    0.0310 24.2 197 
 BAR2 EZ ES        550 29.63                             171   -0.9810 24.2 197 
 BAR2 EZ I         550 31.30        62.1 0.74            164           24.2 197 
 BRR  HZ IP     C  550 16.87                             152    0.2710 73.6 297 
 BRR  HN ES        550 34.24                             152    0.7810 73.6 297 
 BRR  HZ I         550 37.46        26.4 0.16            151           73.6 297 
 PAM  EZ EP     C  550 17.89                             151    0.4810 75.5  38 
 PAM  EN ES        550 34.88                             151   -0.0310 75.5  38 
 PAM  EZ I         550 37.14        31.4 0.56            158           75.5  38 
 RUS  HZ IP     D  550 18.86                             144   -0.1710  101 178 
 RUS  HN ES        550 37.24                             144   -0.5610  101 178 
 RUS  HZ I         550 38.63        27.3 0.28            141            101 178 
 PTB  HZ EP   9    550 21.66                             132   -0.79 0  151 259 
 PTB  HN ES        550 42.36                             132   -0.73 9  151 259 
 PTB  HZ I         550 44.82        19.6 0.38            130            151 259 
 SPBC HZ EP        550 23.97                             129    0.08 9  165 220 
 SPBC HN ES        550 46.93                             129    0.48 9  165 220 
 SPBC HZ I         550 53.28        39.5 0.18            127            165 220 
 YPLC HZ IP     D  550 25.24                             127    0.36 9  176 152 
 YPLC HN ES   4    550 50.40                             127    2.20 0  176 152 
 YPLC HZ I         550 56.72        11.5 0.28            127            176 152 
 ZAR  HZ EP        550 27.62                             122   -0.27 8  207 292 
 ZAR  HN ES        550 53.59                             122    0.03 8  207 292 
 ZAR  HZ I         550 59.45        21.9 0.26            122            207 292 
 NOR  HZ EP        550 31.13                             118   -0.01 8  237 235 
 NOR  HN ES        550 58.90                             118   -0.45 8  237 235 
 NOR  HZ I         551  4.45        21.9 0.30            118            237 235 
 CHI  HZ EP        550 33.05                             117    0.11 8  250 196 
 CHI  HN ES   4    551  0.03                             117   -2.53 0  250 196 
 CHI  HZ I         551  7.61         3.8 0.28            117            250 196 
 ROSC BZ EP   4    550 34.96                             117    1.52 0  254 212 
 ROSC BN ES   4    551  5.93                             117    2.49 0  254 212 
 ROSC BZ I         551 14.04         9.4 0.25            116            254 212 
 HEL  HZ EP   4    550 37.29                             115    1.63 0  275 256 
 HEL  HN ES   4    551 10.66                             115    3.27 0  275 256 
 HEL  HZ I         551 14.40        14.3 0.32            114            275 256 
 URE  HZ EP   9    550 35.32                             113   -1.16 0  286 292 
 URE  HN ES        551  6.20                             114   -1.50 7  286 292 
 URE  HZ I         551 11.66        11.8 0.36            114            286 292 
 PTGC HZ EP   9 D  550 37.90                             112   -0.97 0  308 159 
 PTGC HN ES        551 10.91                             112   -1.23 7  308 159 
 PTGC HZ I         551 18.17         5.2 0.32            112            308 159 
 ELA  HZ EP   4    550 45.38                             110    3.16 0  331 230 
 ELA  HN ES   4    551 22.33                             110    3.26 0  331 230 
 ELA  HZ I         551 27.81        10.3 0.36            110            331 230 
 CBOC HZ EP        550 42.82                             110    0.49 7  336 252 
 CBOC HN ES   4    551 16.01                             110   -3.27 0  336 252 
 CBOC HZ I         551 30.90         3.7 0.46            110            336 252 
 DBB  EZ EP        550 42.75                             109   -0.15 7  342 274 
 DBB  EN ES   4    551 17.78                             109   -2.51 0  342 274 
 DBB  EZ I         551 21.03         4.9 0.16            110            342 274 
 ANIL HN ES   4    551 25.98                             108    1.70 0  359 225 
 PRA  HZ EP        550 48.77                             106   -0.01 6  394 210 
 PRA  HN ES   4    551 30.39                             106   -0.37 0  394 210 
 PRA  HZ I         551 36.95         5.3 0.36            107            394 210 
 ORTC HZ EP        550 49.24                             106    0.03 6  397 216 
 ORTC HN ES        551 32.27                             106    0.75 6  397 216 
 ORTC HZ I         551 36.78         2.5 0.50            106            397 216 
 APAC HZ EP        550 49.05                             106   -0.53 6  401 288 
 APAC HN ES   4    551 29.08                             106   -3.09 0  401 288 
 APAC HZ I         551 34.75         4.6 0.52            107            401 288 
 PAL  HZ EP        550 50.73                             106    0.20 6  408 239 
 PAL  HN ES   4    551 36.52                             106    2.65 0  408 239 
 PAL  HZ I         551 39.63         3.7 0.32            106            408 239 
 SJC  HZ EP        550 49.32                             106   -1.48 6  411 327 
 SJC  HN ES   4    551 29.89                             106   -4.46 0  411 327 
 SJC  HZ I         551 34.72         5.6 0.54            107            411 327 
                                                                                
