 2017  110 0818 38.4 L   7.350 -73.121  9.6  RSN  6 0.3 1.1LRSN                1
 GAP=177        0.42       3.0     1.6  4.0 -0.1495E+01  0.3383E+01  0.1610E+01E
 Epicentro: RIONEGRO - SANTANDER                                               3
 ACTION:UPD 17-05-22 15:57 OP:jn   STATUS:               ID:20170110081838 L   I
 OLDACT:UP  17-01-10 16:45 OP:and  STATUS:               ID:20170110080760d    3
 OLDACT:DUP 17-01-10 16:40 OP:and  STATUS:               ID:20170110080760d    3
 2017-01-10-0807-59S.COL___290                                                 6
 STAT SP IPHASW D HRMM SECON CODA AMPLIT PERI AZIMU VELO AIN AR TRES W  DIS CAZ7
 PAM  EZ EP     D  818 46.67                              98    0.0510 46.5  91 
 PAM  EN ES        818 52.93                              98   -0.1010 46.5  91 
 PAM  EZ I         818 53.90        11.5 0.16             98           46.5  91 
 BRR  HZ EP   2    818 49.85                              95    0.12 5 70.6 248 
 BRR  HN ES   2    818 58.27                              95   -0.29 5 70.6 248 
 BAR2 EZ ES   2    819  2.76                              94    0.14 5 84.0 185 
 RUS  HZ EP   2    819  4.62                              56    0.70 5  161 179 
 RUS  HN ES   2    819 23.38                              56   -0.44 5  161 179 
 PTB  HZ EP   2    819  4.80                              56    0.02 4  173 239 
 PTB  HN ES   2    819 25.33                              56   -0.02 4  173 239 
 ZAR  HN ES   2    819 29.70                              56   -0.03 4  192 275 
                                                                                
