 2012 1210 0558 27.1 L   6.801 -73.159143.3  RSN  5 0.4 1.4LRSN                1
 GAP=182        0.78       4.9     6.1  9.9  0.7653E+01  0.1488E+02 -0.5756E+01E
 Epicentro: LOS SANTOS - SANTANDER                                             3
 ACTION:UPD 13-01-04 14:26 OP:ep   STATUS:               ID:20121210055827 L   I
 2012-12-10-0556-37M.COL___203                                                 6
 STAT SP IPHASW D HRMM SECON CODA AMPLIT PERI AZIMU VELO AIN AR TRES W  DIS CAZ7
 BAR2 SZ EP   1    558 46.64                             170    0.26 7 23.2 187 
 BAR2 SZ ES   1    559  1.41                             170   -0.05 7 23.2 187 
 BAR2 SZ I         559  4.46         6.2 0.27                          23.2 187 
 RUS  HZ EP   1    558 50.58                             143    0.00 7  101 175 
 RUS  HN ES   1    559  9.14                             143    0.22 7  101 175 
 RUS  HZ I         559 10.58         3.0 0.48                           101 175 
 PTB  HZ EP   1    558 53.34                             132   -0.36 7  146 259 
 PTB  HN ES   1    559 13.88                             132   -0.59 7  146 259 
 PTB  HZ I         559 17.04         5.1 0.18                           146 259 
 OCA  HN ES   1    559 16.78                             129   -0.29 7  160 354 
 OCA  HZ I         559 21.09         2.6 0.44                           160 354 
 ZAR  HE ES   1    559 25.15                             122    0.88 6  203 292 
                                                                                
