 2012  910 0721  0.8 L   6.759 -73.101151.3  RSN  7 0.2 1.9LRSN                1
 GAP=144        0.51       3.6     4.5  4.6  0.5215E+00  0.6337E+01 -0.8429E+00E
 Epicentro: LOS SANTOS - SANTANDER                                             3
 ACTION:UPD 12-10-22 14:18 OP:ep   STATUS:               ID:20120910072100 L   I
 2012-09-10-0720-00M.COL___227                                                 6
 STAT SP IPHASW D HRMM SECON CODA AMPLIT PERI AZIMU VELO AIN AR TRES W  DIS CAZ7
 BAR2 SZ EP        721 21.07                             172   -0.0110 20.5 206 
 BAR2 SZ ES   1    721 36.86                             172   -0.01 7 20.5 206 
 BAR2 SZ I         721 38.93        19.9 0.19                          20.5 206 
 GIR2 SZ EP   1    721 21.11                             166   -0.21 7 36.8 344 
 BRR  HZ EP        721 23.24                             151    0.2910 77.7 300 
 BRR  HZ I         721 24.82        13.5 0.12                          77.7 300 
 BRR  HE ES   1    721 40.41                             151    0.21 7 77.7 300 
 PAM  SZ EP   1    721 23.96                             152    0.28 7 78.0  35 
 PAM  SE ES   1    721 41.18                             152   -0.32 7 78.0  35 
 PAM  SZ I         721 43.44        10.7 0.17                          78.0  35 
 RUS  HZ EP   1    721 24.96                             146    0.15 7 95.9 179 
 RUS  HE ES   1    721 43.39                             146   -0.12 7 95.9 179 
 RUS  HZ I         721 45.12         6.2 0.39                          95.9 179 
 PTB  HZ EP   1    721 28.37                             132   -0.25 7  152 261 
 PTB  HZ I         721 55.17         8.9 0.35                           152 261 
 ZAR  HZ EP   1    721 33.95                             123   -0.34 6  210 293 
 ZAR  HZ I         722  6.15         9.2 0.46                           210 293 
                                                                                
