 2016  510 0903 31.0 L   6.790 -73.139141.4  RSN 10 0.5 1.6LRSN                1
 GAP=183        1.13       3.0     5.3  6.2  0.1069E+01  0.4973E+01 -0.1490E+00E
 Epicentro: LOS SANTOS - SANTANDER                                             3
 ACTION:UPD 16-08-18 17:44 OP:cam  STATUS:               ID:20160510090331 L   I
 OLDACT:UP  16-05-10 15:45 OP:drio STATUS:               ID:20160510085743d    3
 OLDACT:UP  16-05-10 14:40 OP:dani STATUS:               ID:20160510085743d    3
 OLDACT:DUP 16-05-10 14:08 OP:dani STATUS:               ID:20160510085743d    3
 OLDACT:UP  16-05-10 14:05 OP:dani STATUS:               ID:20160510085742     3
 OLDACT:UP  16-05-10 14:04 OP:dani STATUS:               ID:20160510085742     3
 OLDACT:REG 16-05-10 12:30 OP:drio STATUS:               ID:20160510085742     3
 2016-05-10-0857-42M.COL___282                                                 6
 STAT SP IPHASW D HRMM SECON CODA AMPLIT PERI AZIMU VELO AIN AR TRES W  DIS CAZ7
 BAR2 EZ EP        9 3 50.07                             171   -0.0610 22.4 192 
 BAR2 EZ ES        9 4  5.06                             171    0.0410 22.4 192 
 BAR2 EZ I         9 4  5.96         5.9 0.22            168           22.4 192 
 BRR  HZ EP        9 3 51.77                             151   -0.0210 72.4 299 
 BRR  HN ES        9 4  8.54                             151    0.5710 72.4 299 
 BRR  HZ I         9 4 12.79         5.7 0.11            148           72.4 299 
 RUS  HZ EP        9 3 54.32                             143    0.0410 99.4 176 
 RUS  HE ES        9 4 12.57                             143    0.1610 99.4 176 
 RUS  HZ I         9 4 14.07         2.6 0.15            145           99.4 176 
 PTB  HZ EP        9 3 56.89                             131   -0.81 9  148 259 
 PTB  HN ES        9 4 17.89                             131   -0.61 9  148 259 
 PTB  HZ I         9 4 25.12         4.7 0.29            130            148 259 
 OCA  HZ EP        9 3 59.96                             128    0.83 9  161 353 
 OCA  HE ES        9 4 20.08                             128   -0.97 9  161 353 
 OCA  HZ I         9 4 25.76        12.4 0.34            130            161 353 
 ZAR  HZ EP        9 4  3.55                             121    0.23 9  205 292 
 ZAR  HE ES        9 4 28.59                             121    0.09 9  205 292 
 ZAR  HZ I         9 4 35.19         3.1 0.16            121            205 292 
 NOR  HZ EP   4    9 4  8.04                             118    1.52 0  235 235 
 NOR  HN ES        9 4 34.39                             118    0.21 8  235 235 
 NOR  HZ I         9 4 39.33         3.4 0.24            118            235 235 
 SML  HZ EP        9 4  7.35                             116   -0.22 8  245 335 
 SML  HE ES        9 4 36.68                             116    0.61 8  245 335 
 SML  HZ I         9 4 40.76         4.2 0.10            117            245 335 
 CHI  HZ EP        9 4  7.89                             116   -0.51 8  248 195 
 CHI  HN ES        9 4 37.62                             116    0.08 8  248 195 
 CHI  HZ I         9 4 43.94         1.8 0.14            118            248 195 
 ORTC HZ EP        9 4 25.18                             106    0.42 6  395 216 
 ORTC HN ES        9 5  7.08                             106    0.42 6  395 216 
                                                                                
