 2013 1110 0706 45.6 L   6.807 -73.154141.6  RSN 14 0.6 2.2LRSN 2.7WRSN        1
 SPEC AVERAGE  MO 13.1 ST 81.7 OM  1.2 f0 14.8 R0.2201 AL 0.00 WI 20.0 MW  2.7 3
 SPEC SD       MO  0.1 ST155.1 OM  0.2 f0 11.5 R0.1509 AL      WI      MW  0.1 3
 GAP= 70        1.38       3.7     3.7  6.7 -0.1580E+01  0.6081E+01  0.1520E+01E
 Epicentro: LOS SANTOS - SANTANDER                                             3
 SPEC BAR2SH Z MO 13.3 ST 20.6 OM  1.5 f0 11.6 R0.1659 AL-0.00 WI 20.0 MW  2.8 3
 SPEC BAR2SH Z T 7 717 K 0.050 GD  143 VS 5.20 DE 3.20 Q0750.0 QA 1.50 VS 5.20 3
 SPEC BRR HH Z MO 13.2 ST 14.7 OM  1.3 f0 11.7 R0.1644 AL-0.00 WI 20.0 MW  2.7 3
 SPEC BRR HH Z T 7 721 K 0.050 GD  157 VS 5.20 DE 3.20 Q0750.0 QA 1.50 VS 5.20 3
 SPEC RUS HH Z MO 12.8 ST  3.6 OM  0.9 f0 9.64 R0.1996 AL-0.00 WI 20.0 MW  2.5 3
 SPEC RUS HH Z T 7 725 K 0.050 GD  173 VS 5.20 DE 3.20 Q0750.0 QA 1.50 VS 5.20 3
 SPEC PTB HH Z MO 13.1 ST478.7 OM  1.1 f0 40.0 R0.0481 AL-0.00 WI 20.0 MW  2.7 3
 SPEC PTB HH Z T 7 730 K 0.050 GD  204 VS 5.20 DE 3.20 Q0750.0 QA 1.50 VS 5.20 3
 SPEC ZAR HH Z MO 13.1 ST126.6 OM  1.0 f0 26.0 R0.0740 AL-0.00 WI 20.0 MW  2.7 3
 SPEC ZAR HH Z T 7 740 K 0.050 GD  247 VS 5.20 DE 3.20 Q0750.0 QA 1.50 VS 5.20 3
 SPEC NOR HH Z MO 13.0 ST  8.6 OM  0.9 f0 11.1 R0.1733 AL-0.00 WI 20.0 MW  2.6 3
 SPEC NOR HH Z T 7 747 K 0.050 GD  273 VS 5.20 DE 3.20 Q0750.0 QA 1.50 VS 5.20 3
 SPEC SML HH Z MO 13.1 ST0.568 OM  1.0 f0 4.11 R0.4681 AL-0.00 WI 20.0 MW  2.7 3
 SPEC SML HH Z T 7 748 K 0.050 GD  281 VS 5.20 DE 3.20 Q0750.0 QA 1.50 VS 5.20 3
 SPEC HEL HH Z MO 13.1 ST0.494 OM  0.9 f0 4.12 R0.4670 AL-0.00 WI 20.0 MW  2.7 3
 SPEC HEL HH Z T 7 755 K 0.050 GD  305 VS 5.20 DE 3.20 Q0750.0 QA 1.50 VS 5.20 3
 OLDACT:DUP 13-11-10 12:45 OP:stll STATUS:               ID:20131110065837d    3
 ACTION:UPD 14-01-09 16:26 OP:ep   STATUS:               ID:20131110070645 L   I
 OLDACT:UP  13-11-10 12:57 OP:stll STATUS:               ID:20131110065837d    3
 2013-11-10-0658-36M.COL___213                                                 6
 STAT SP IPHASW D HRMM SECON CODA AMPLIT PERI AZIMU VELO AIN AR TRES W  DIS CAZ7
 BAR2 SZ EP        7 7  4.95                             170    0.2010 24.0 188 
 BAR2 SZ ES        7 7 19.30                             170   -0.3810 24.0 188 
 BAR2 SZ I         7 7 22.47        51.3 0.26            169           24.0 188 
 BRR  HZ IP     C  7 7  6.67                             152    0.4310 70.0 298 
 BRR  HN ES        7 7 23.31                             152    0.9810 70.0 298 
 BRR  SZ I         7 7 26.96        19.9 0.26            154           70.0 298 
 PAM  SZ EP        7 7  7.76                             150    0.3810 77.3  40 
 PAM  SN ES        7 7 24.61                             150    0.2510 77.3  40 
 PAM  SZ I         7 7 27.37        16.4 0.38            153           77.3  40 
 RUS  HZ EP        7 7  8.85                             143   -0.1710  101 176 
 RUS  HE ES        7 7 27.04                             143   -0.2310  101 176 
 RUS  SZ I         7 7 28.59        15.4 0.68            144            101 176 
 PTB  HZ EP        7 7 11.33                             131   -0.85 9  147 258 
 PTB  HN ES        7 7 32.04                             131   -0.85 9  147 258 
 PTB  SZ I         7 7 39.20        18.3 0.46            133            147 258 
 CAPV BZ IP     C  7 7 12.84                             131    0.17 9  149  38 
 TAM  HZ IP     D  7 7 13.33                             129    0.27 9  156 105 
 TAM  HE ES        7 7 33.79                             129   -0.68 9  156 105 
 TAM  SZ I         7 7 44.75        12.9 1.80            132            156 105 
 OCA  HE ES        7 7 35.49                             129    0.21 9  159 353 
 ZAR  HZ EP        7 7 17.46                             122   -0.21 9  203 292 
 ZAR  HE ES        7 7 42.14                             122   -0.54 9  203 292 
 ZAR  SZ I         7 7 47.79        19.0 0.50            124            203 292 
 NOR  HZ EP        7 7 20.69                             118   -0.39 8  234 234 
 NOR  HN ES        7 7 48.66                             118   -0.07 8  234 234 
 NOR  SZ I         7 7 53.80        11.3 0.18            120            234 234 
 SML  HZ EP        7 7 21.21                             117   -0.68 8  243 335 
 SML  HN ES        7 7 50.07                             117   -0.11 8  243 335 
 SML  SZ I         7 7 53.24        21.5 0.08            119            243 335 
 ROSC BZ EP        7 7 24.46                             116    0.93 8  253 211 
 ROSC BN ES        7 7 53.16                             116    0.05 8  253 211 
 ROSC SZ I         7 7 59.54        30.3 0.40            118            253 211 
 HEL  HZ EP        7 7 24.98                             114   -0.56 8  271 256 
 HEL  HN ES        7 7 56.55                             114   -0.14 8  271 256 
 HEL  SZ I         7 8  3.10         8.9 0.38            116            271 256 
 GUY2CHZ EP        7 7 29.59                             111    0.59 7  301 235 
 GUY2CHN ES        7 8  4.65                             111    1.81 7  301 235 
 GUY2CSZ I         7 8 10.90        10.7 0.40                           301 235 
                                                                                
