 2016 1110 0208  8.0 L   6.801 -73.157148.8  RSN 15 0.5 2.6LRSN                1
 GAP= 73        1.05       3.6     3.3  5.5  0.6423E-01  0.3125E+01  0.7362E+01E
 Epicentro: LOS SANTOS - SANTANDER                                             3
 ACTION:UPD 17-10-26 21:06 OP:lp   STATUS:               ID:20161110020808 L   I
 OLDACT:UP  16-11-10 15:26 OP:lv   STATUS:               ID:20161110020741     3
 OLDACT:REG 16-11-10 11:52 OP:lv   STATUS:               ID:20161110020741     3
 2016-11-10-0208-00M.COL___349                                                 6
 STAT SP IPHASW D HRMM SECON CODA AMPLIT PERI AZIMU VELO AIN AR TRES W  DIS CAZ7
 BAR2 HZ IP     D  2 8 27.93                             171   -0.0510 23.2 187 
 BAR2 HZ ES        2 8 43.28                             171   -0.3010 23.2 187 
 BAR2 HZ I         2 8 44.03        87.9 0.40            169           23.2 187 
 BRR  HZ IP     C  2 8 29.80                             153    0.3910 70.1 299 
 BRR  HN ES        2 8 46.82                             153    0.7110 70.1 299 
 BRR  HZ I         2 8 49.98        54.9 0.28            152           70.1 299 
 PAM  HZ EP        2 8 30.93                             151    0.3610 78.1  40 
 PAM  HN ES        2 8 47.78                             151   -0.4110 78.1  40 
 PAM  HZ I         2 8 48.74        44.3 0.20            150           78.1  40 
 PTB  HZ EP        2 8 34.54                             133   -0.56 9  147 259 
 PTB  HN ES        2 8 55.65                             133   -0.59 9  147 259 
 PTB  HZ I         2 9  2.54        39.7 0.46            130            147 259 
 TAM  HZ IP     D  2 8 36.37                             131    0.35 9  156 105 
 TAM  HZ I         2 8 57.43        20.0 0.32            129            156 105 
 TAM  HN ES        2 8 57.88                             131   -0.01 9  156 105 
 ZAR  HZ EP        2 8 40.61                             123    0.09 9  203 292 
 ZAR  HN ES        2 9  5.96                             123    0.08 9  203 292 
 ZAR  HZ I         2 9 11.15        51.7 0.36            121            203 292 
 NOR  HZ EP        2 8 44.08                             119    0.29 8  234 234 
 NOR  HN ES   4    2 9 12.65                             119    0.93 0  234 234 
 NOR  HZ I         2 9 21.31        22.1 0.18            117            234 234 
 CHI  HZ EP        2 8 46.13                             118    0.30 8  248 195 
 CHI  HN ES        2 9 15.42                             118    0.07 8  248 195 
 CHI  HZ I         2 9 19.29        25.1 0.44            115            248 195 
 ROSC BZ EP   4    2 8 47.86                             117    1.65 0  252 211 
 ROSC BE ES        2 9 16.03                             117    0.00 8  252 211 
 ROSC BZ I         2 9 22.64        68.9 0.40            115            252 211 
 URE  HE ES   4    2 9 19.31                             114   -1.82 0  283 292 
 VIL  HZ EP   3    2 8 52.07                             113    0.54 2  303 191 
 VIL  HN ES        2 9 25.52                             113    0.03 7  303 191 
 VIL  HZ I         2 9 28.68        36.7 0.42            110            303 191 
 PTGC HZ EP        2 8 51.06                             112   -0.98 7  309 158 
 PTGC HN ES   4    2 9 25.11                             112   -1.29 0  309 158 
 PTGC HZ I         2 9 27.22        13.2 0.34            110            309 158 
 CBOC HZ EP        2 8 55.75                             110    0.85 7  332 252 
 CBOC HE ES   4    2 9 32.98                             110    1.49 0  332 252 
 CBOC HZ I         2 9 37.54         5.9 0.40            108            332 252 
 PRA  HZ EP        2 9  1.59                             107    0.04 6  391 209 
 PRA  HN ES        2 9 42.73                             107   -0.60 6  391 209 
 PRA  HZ I         2 9 48.14        25.5 0.62            105            391 209 
 ORTC HZ EP        2 9  2.48                             107    0.54 6  395 216 
 ORTC HN ES   4    2 9 45.86                             107    1.85 0  395 216 
 ORTC HZ I         2 9 49.35        13.9 0.26            105            395 216 
 SJC  HZ EP        2 9  2.15                             106   -1.42 6  408 327 
 SJC  HE ES   4    2 9 43.45                             106   -3.47 0  408 327 
 SJC  HZ I         2 9 51.95         6.2 0.38            105            408 327 
                                                                                
