 2012 1110 0015 25.1 L   6.796 -73.177140.0  RSN  5 0.2 1.5LRSN                1
 GAP=177        0.50       3.2     3.4  4.0  0.1697E+01  0.3137E+01  0.4084E+00E
 Epicentro: LOS SANTOS - SANTANDER                                             3
 ACTION:UPD 12-12-05 15:32 OP:}ep  STATUS:               ID:20121110001525 L   I
 2012-11-10-0010-00M.COL___230                                                 6
 STAT SP IPHASW D HRMM SECON CODA AMPLIT PERI AZIMU VELO AIN AR TRES W  DIS CAZ7
 BAR2 SZ EP        015 43.95                             170   -0.0910 22.6 182 
 BAR2 SZ ES        015 58.61                             170   -0.1810 22.6 182 
 BAR2 SZ I         016  1.00        11.6 0.16                          22.6 182 
 GIR2 SZ EP        015 44.07                             167   -0.0310 31.3 357 
 GIR2 SZ ES        015 58.93                             167    0.0210 31.3 357 
 BRR  HZ EP        015 45.80                             152    0.3210 68.4 300 
 RUS  HZ EP        015 48.10                             143   -0.2010  100 174 
 RUS  HN ES        016  6.64                             143    0.2610  100 174 
 RUS  HN I         016  7.77         4.9 0.20                           100 174 
 PTB  HZ EP   1    015 51.21                             131   -0.09 7  144 259 
 PTB  HN ES        016 11.67                             131   -0.06 9  144 259 
 PTB  HZ I         016 15.00         3.0 0.14                           144 259 
                                                                                
