 2012  810 0345 10.1 L   6.743 -73.223147.0  RSN  4 0.1 1.4LRSN                1
 GAP=218        0.35       3.6     3.4  3.7  0.6018E+01  0.1472E+01  0.6645E+00E
 Epicentro: VILLANUEVA - SANTANDER                                             3
 ACTION:UPD 12-09-10 11:55 OP:ep   STATUS:               ID:20120810034510 L   I
 2012-08-10-0340-00M.COL___218                                                 6
 STAT SP IPHASW D HRMM SECON CODA AMPLIT PERI AZIMU VELO AIN AR TRES W  DIS CAZ7
 BAR2 SZ EP   1    345 29.85                             173    0.07 7 17.3 165 
 BAR2 SZ ES   1    345 44.94                             173   -0.19 7 17.3 165 
 BAR2 SZ I         345 45.35         6.9 0.24                          17.3 165 
 BRR  HZ EP   1    345 31.05                             154   -0.13 7 67.4 307 
 BRR  HZ I         345 31.45         8.2 0.12                          67.4 307 
 BRR  HN ES   1    345 47.81                             154    0.19 7 67.4 307 
 RUS  HZ EP   1    345 33.74                             146    0.13 7 95.3 171 
 RUS  HN ES   1    345 51.97                             146    0.02 7 95.3 171 
 RUS  HZ I         345 53.44         1.9 0.32                          95.3 171 
 PTB  HZ EP   1    345 36.24                             134   -0.10 7  138 261 
 PTB  HN ES   1    345 56.79                             134    0.00 7  138 261 
 PTB  HZ I         345 59.74         2.6 0.53                           138 261 
                                                                                
