 2013  310 0016 55.3 L   6.781 -73.153145.2  RSN  9 0.3 2.1LRSN                1
 GAP= 99        0.74       3.3     3.3  4.8 -0.4710E-01  0.2268E+01  0.4703E+01E
 Epicentro: LOS SANTOS - SANTANDER                                             3
 ACTION:UPD 13-04-09 14:01 OP:ep   STATUS:               ID:20130310001655 L   I
 2013-03-10-0010-00M.COL___231                                                 6
 STAT SP IPHASW D HRMM SECON CODA AMPLIT PERI AZIMU VELO AIN AR TRES W  DIS CAZ7
 BAR2 SZ IP        017 14.83                             171    0.0210 21.1 189 
 BAR2 SZ ES   1    017 29.89                             171   -0.14 7 21.1 189 
 BAR2 SZ I         017 31.35        53.3 0.20            162           21.1 189 
 BRR  HZ IP     C  017 16.64                             152    0.2510 71.5 300 
 BRR  HE ES        017 33.35                             152    0.5010 71.5 300 
 BRR  HE I         017 37.48        52.0 0.22            145           71.5 300 
 PAM  SZ IP     C  017 17.72                             150    0.1510 79.6  39 
 PAM  SZ I         017 17.92        16.1 0.20            150           79.6  39 
 PAM  SE ES        017 34.52                             150   -0.4310 79.6  39 
 RUS  HZ IP     C  017 18.81                             144   -0.0310 98.5 175 
 RUS  HZ I         017 19.68        11.3 0.10            134           98.5 175 
 RUS  HE ES        017 37.30                             144    0.1010 98.5 175 
 PTB  HZ EP        017 21.37                             132   -0.73 9  147 260 
 PTB  HE ES   1    017 42.84                             132   -0.16 7  147 260 
 PTB  HZ I         017 45.05        12.3 0.09            123            147 260 
 TAM  HZ EP   1    017 23.14                             130    0.19 7  155 104 
 ZAR  HZ EP   2    017 28.23                             122    0.53 4  204 293 
 ZAR  HN ES   1    017 52.79                             122   -0.19 6  204 293 
 ZAR  HZ I         017 59.02        12.4 0.37            115            204 293 
 CHI  HZ EP   1    017 32.96                             117    0.25 6  246 195 
 CHI  HZ I         018  9.97         5.5 0.45            109            246 195 
 PRA  HZ EP        017 48.51                             107   -0.02 6  390 210 
 PRA  HN ES        018 30.17                             107    0.12 6  390 210 
 PRA  HZ I         018 36.75         5.3 0.38            101            390 210 
                                                                                
