 2014  210 0518 30.1 L   6.793 -73.111145.8  RSN 14 0.5 1.8LRSN                1
 GAP= 73        0.88       2.8     3.4  5.1  0.3405E+00  0.5842E+01  0.1272E+01E
 Epicentro: LOS SANTOS - SANTANDER                                             3
 ACTION:UPD 14-03-10 08:09 OP:ep   STATUS:               ID:20140210051830 L   I
 OLDACT:REG 14-02-10 11:04 OP:fm   STATUS:               ID:20140210051748     3
 2014-02-10-0517-48M.COL___224                                                 6
 STAT SP IPHASW D HRMM SECON CODA AMPLIT PERI AZIMU VELO AIN AR TRES W  DIS CAZ7
 BAR2 SZ EP   1    518 49.78                             170    0.04 7 23.6 199 
 BAR2 SZ ES        519  4.83                             170   -0.2310 23.6 199 
 BAR2 SZ I         519  6.06        34.8 0.05            162           23.6 199 
 BRR  HZ IP     D  518 51.65                             151    0.1910 74.9 298 
 BRR  HN ES   1    519  8.60                             151    0.47 7 74.9 298 
 BRR  HZ I         519 11.61         9.5 0.18            142           74.9 298 
 PAM  SZ EP        518 52.62                             151    0.4110 75.6  37 
 PAM  SN ES   1    519  9.54                             151    0.08 7 75.6  37 
 PAM  SZ I         519 12.37         6.8 0.41            145           75.6  37 
 RUS  HZ EP   1    518 53.63                             144   -0.15 7 99.6 178 
 RUS  HN ES        519 11.81                             144   -0.4510 99.6 178 
 RUS  HZ I         519 13.40         6.5 0.32            131           99.6 178 
 PTB  HZ EP   1    518 56.59                             131   -0.80 7  151 259 
 PTB  HZ I         519 22.26         6.5 0.10            119            151 259 
 TAM  HZ EP   1    518 56.95                             131   -0.47 7  151 105 
 TAM  HN ES        519 19.17                             131    0.43 9  151 105 
 TAM  HZ I         519 22.59         4.3 0.19            120            151 105 
 OCA  HZ EP   1    518 58.51                             129   -0.01 7  162 352 
 OCA  HN ES   1    519 19.96                             129   -0.74 7  162 352 
 OCA  HZ I         519 24.09         8.6 0.19            119            162 352 
 SPBC HZ EP   1    518 58.68                             129   -0.09 7  165 220 
 SPBC HZ I         519 25.60                             116            165 220 
 ZAR  HZ EP   1    519  3.63                             122    0.70 6  208 292 
 ZAR  HN ES   1    519 28.74                             122    0.19 6  208 292 
 ZAR  HZ I         519 33.70         7.4 0.19            111            208 292 
 NOR  HZ EP   1    519  5.67                             118   -0.44 6  237 235 
 NOR  HZ I         519 40.15         7.7 0.15            107            237 235 
 SML  HZ EP   1    519  6.15                             117   -0.82 6  246 335 
 SML  HN ES   1    519 36.15                             117    0.42 6  246 335 
 SML  HZ I         519 40.13         5.9 0.20            108            246 335 
 CHI  HZ EP   1    519  7.49                             117   -0.34 6  249 196 
 CHI  HN ES   1    519 37.96                             117    0.70 6  249 196 
 CHI  HZ I         519 43.11         4.0 0.24            106            249 196 
 GUY2CHZ EP   1    519 14.67                             112    0.66 5  304 235 
 GUY2CHN ES   1    519 48.09                             112   -0.17 5  304 235 
 GUY2CHZ I         519 56.40         4.4 0.36                           304 235 
 PRA  HZ EP        519 23.58                             106   -0.18 6  393 210 
 PRA  HN ES        520  6.25                             106    0.63 6  393 210 
 PRA  HZ I         520 12.50         3.8 0.37             97            393 210 
 SJC  HZ EP   4    519 23.87                             105   -2.10 0  412 327 
 SJC  HN ES   4    520  5.44                             105   -4.12 0  412 327 
                                                                                
