 2011  510 0219  3.1 L   6.776 -73.084146.8  RSN 12 0.4 1.9LRSN                1
 GAP=146        0.81       3.8     6.2  5.1 -0.1096E+02 -0.5373E+00  0.2476E+01E
 Epicentro: LOS SANTOS - SANTANDER                                             3
 ACTION:UP  11-06-29 08:52 OP:tino STATUS:               ID:20110510021903 L   I
 2011-05-10-0213-45S.COL___133                                                 6
 STAT SP IPHASW D HRMM SECON CODA AMPLIT PERI AZIMU VELO SNR AR TRES W  DIS CAZ7
 BAR2 SZ IP        219 22.82                             171     0.010   23 208 
 BAR2 SZ ES   1    219 37.56                             171    -0.7 7   23 208 
 BAR2 SZ I         219 39.60        15.4 0.30                            23 208 
 BTL  SZ IP        219 22.99                             170     0.110   26 308 
 BTL  SZ ES   1    219 38.39                             170     0.0 7   26 308 
 GIR2 SZ EP        219 22.91                             166    -0.110   36 340 
 GIR2 SZ ES   2    219 38.83                             166     0.3 5   36 340 
 PAM  SZ EP        219 25.71                             152     0.410   75  34 
 PAM  SN ES   1    219 42.92                             152     0.3 7   75  34 
 BRR  HZ IP        219 24.73                             150     0.010   79 298 
 BRR  HZ I         219 25.00        38.3 0.16                            79 298 
 BRR  HN ES   1    219 42.44                             150     0.7 7   79 298 
 RUS  HZ EP        219 26.56                             145    -0.210   98 180 
 RUS  HN ES   2    219 45.22                             145     0.0 5   98 180 
 RUS  HZ I         219 46.69         9.2 0.31                            98 180 
 BRI  SZ EP        219 27.39                             141     0.310  109  17 
 BRI  SZ ES   1    219 45.56                             141    -0.3 7  109  17 
 GRA  SZ IP        219 28.64                             137     0.210  126  14 
 GRA  SZ ES   1    219 47.94                             137    -0.4 7  126  14 
 GRA  SZ I         219 49.29         9.7 0.41                           126  14 
 OCA  SZ EP        219 31.33                             129    -0.5 9  164 351 
 OCA  SZ ES   2    219 53.60                             129    -0.6 5  164 351 
 OCA  SZ I         219 59.33        10.0 0.13                           164 351 
 NOR  SE ES   2    220  6.75                             118    -0.8 4  239 236 
 RREF HZ EP   3    219 49.64                             111     0.0 2  325 231 
 RREF HN ES   2    220 26.81                             111     0.8 3  325 231 
 PRA  HZ EP        219 56.93                             107     0.1 6  393 211 
                                                                                
