 2012  710 0935 44.7 L   6.696 -73.172133.5  RSN  5 0.3 1.2LRSN                1
 GAP=191        0.64       5.0     6.0  8.6 -0.1138E+02  0.2571E+02 -0.1591E+02E
 Epicentro: VILLANUEVA - SANTANDER                                             3
 ACTION:UP  12-08-14 11:44 OP:ep   STATUS:               ID:20120710093545 L   I
 2012-07-10-0930-00M.COL___201                                                 6
 STAT SP IPHASW D HRMM SECON CODA AMPLIT PERI AZIMU VELO AIN AR TRES W  DIS CAZ7
 BAR2 SZ ES   1    936 16.80                             175     0.1 8   12 185 
 BAR2 SZ I         936 19.53         4.9 0.19            173             12 185 
 BRR  HZ EP   1    936  4.41                             149    -0.4 8   75 307 
 PTB  HZ EP   1    936 10.68                             130     0.4 8  143 263 
 PTB  HN ES   1    936 29.86                             130    -0.3 8  143 263 
 PTB  HZ I         936 32.59         1.4 0.32            132            143 263 
 OCA  HN ES        936 35.42                             125     0.010  171 355 
 ZAR  HZ EP   1    936 16.44                             119    -0.1 7  206 295 
 ZAR  HE ES        936 41.64                             119     0.2 9  206 295 
 ZAR  HZ I         936 48.16         1.9 0.17            122            206 295 
