 2010  510 0109  7.3 L   6.768 -73.031147.0  RSN  7 0.3 2.0LRSN                1
 GAP=172        0.67       3.8     9.2  7.1 -0.1093E+01 -0.1455E+02 -0.1167E+02E
 Epicentro: CEPITA - SANTANDER                                                 3
 ACTION:UP  10-08-24 10:03 OP:vdl  STATUS:               ID:20100510010907 L   I
 2010-05-10-0105-24S.COL___104                                                 6
 STAT SP IPHASW D HRMM SECON CODA AMPLIT PERI AZIMU VELO SNR AR TRES W  DIS CAZ7
 BAR2 SZ EP        1 9 26.92                             170    -0.210   26 221 
 BAR2 SZ ES   1    1 9 42.24                             170    -0.4 7   26 221 
 BRR  HZ EP        1 9 29.62                             149     0.310   84 297 
 BRR  HZ I         1 9 29.95        32.7 0.15                            84 297 
 BRR  HN ES   2    1 9 46.75                             149     0.2 5   84 297 
 RUS  HZ EP        1 9 30.92                             145     0.010   97 183 
 RUS  HN ES   1    1 9 49.56                             145     0.2 7   97 183 
 RUS  HZ I         1 9 50.97         6.5 0.38                            97 183 
 GUE  SZ EP        1 9 32.43                             139     0.210  118   6 
 GRA  SZ EP        1 9 32.84                             137     0.210  126  11 
 GRA  SZ ES   2    1 9 52.80                             137     0.3 5  126  11 
 OCA  SZ EP        1 9 35.74                             129    -0.5 9  166 349 
 OCA  SZ I         110  3.28        15.3 0.34                           166 349 
 CHI  HE ES   3    110 14.93                             117     0.3 2  249 198 
                                                                                
