 2013  910 0520  6.5 L   6.776 -73.124147.5  RSN  6 0.5 1.3LRSN                1
 GAP=202        1.16       5.0     7.9  8.5  0.7510E+01  0.9165E+01 -0.9138E+01E
 Epicentro: LOS SANTOS - SANTANDER                                             3
 ACTION:UPD 13-10-22 09:21 OP:ep   STATUS:               ID:20130910052006 L   I
 OLDACT:REG 13-09-10 07:51 OP:carl STATUS:               ID:20130910051959     3
 2013-09-10-0519-59M.COL___269                                                 6
 STAT SP IPHASW D HRMM SECON CODA AMPLIT PERI AZIMU VELO AIN AR TRES W  DIS CAZ7
 BAR2 SZ ES        520 41.66                             171   -0.1210 21.3 198 
 BAR2 SZ I         520 42.61         3.8 0.28            166           21.3 198 
 BRR  HZ EP        520 28.28                             152    0.2110 74.6 299 
 BRR  HN ES   1    520 45.47                             152    0.61 7 74.6 299 
 BRR  HN I         520 46.02         8.6 0.30            149           74.6 299 
 RUS  HZ EP        520 30.64                             145    0.3810 97.8 177 
 RUS  HN ES        520 48.22                             145   -0.5410 97.8 177 
 RUS  HZ I         520 50.26         1.4 0.38            144           97.8 177 
 PTB  HZ EP        520 33.52                             132   -0.30 9  150 260 
 PTB  HN ES        520 54.34                             132   -0.75 9  150 260 
 PTB  HZ I         521  0.28         2.9 0.44            130            150 260 
 SPBC HZ EP        520 35.18                             129    0.06 9  163 220 
 SPBC HE ES        520 58.24                             129    0.82 9  163 220 
 SPBC HZ I         521  2.48         2.6 0.42            128            163 220 
 SML  HZ EP   1    520 42.96                             117   -0.68 6  247 335 
 SML  HE ES        521 12.81                             117    0.24 8  247 335 
                                                                                
