 2013  310 0452 19.2 L   6.812 -73.166138.1  RSN  6 0.5 1.3LRSN                1
 GAP=133        0.96       5.9     8.5  9.7  0.7875E+01  0.1912E+02 -0.4134E+00E
 Epicentro: LOS SANTOS - SANTANDER                                             3
 ACTION:UPD 13-04-09 14:01 OP:ep   STATUS:               ID:20130310045219 L   I
 2013-03-10-0450-00M.COL___231                                                 6
 STAT SP IPHASW D HRMM SECON CODA AMPLIT PERI AZIMU VELO AIN AR TRES W  DIS CAZ7
 BAR2 SZ EP   1    452 38.34                             169    0.41 8 24.4 184 
 BAR2 SZ I         452 54.90         4.8 0.24            156           24.4 184 
 BRR  HZ EP   1    452 38.43                             152   -0.94 8 68.5 298 
 BRR  HE ES   1    452 55.63                             152    0.53 8 68.5 298 
 BRR  HE I         452 57.28         7.4 0.16            127           68.5 298 
 PAM  SZ EP   1    452 40.75                             149    0.12 8 77.8  41 
 PAM  SE ES   1    452 57.10                             149   -0.25 8 77.8  41 
 PAM  SZ I         452 58.50         3.1 0.30            137           77.8  41 
 RUS  HZ EP        452 42.76                             141    0.4410  102 175 
 RUS  HN ES   1    452 59.82                             141   -0.53 7  102 175 
 RUS  HN I         453  2.64         2.0 0.26            124            102 175 
 ZAR  HZ EP   1    452 50.74                             121   -0.14 6  201 292 
 ZAR  HZ I         453 21.50         3.0 0.39            104            201 292 
 SML  HZ EP   1    452 55.15                             116   -0.02 6  242 336 
                                                                                
