 2014 1110 0442 19.7 L   6.734 -73.204151.2  RSN  4 0.1 1.0LRSN                1
 GAP=225        0.39       3.2     3.1  3.9  0.5003E+01 -0.1497E+01 -0.9153E+00E
 Epicentro: VILLANUEVA - SANTANDER                                             3
 ACTION:UPD 14-12-19 15:41 OP:nd   STATUS:               ID:20141110044219 L   I
 OLDACT:ARG 14-11-10 12:59 OP:stll STATUS:               ID:20141110043735     3
 2014-11-10-0437-35M.COL___295                                                 6
 STAT SP IPHASW D HRMM SECON CODA AMPLIT PERI AZIMU VELO AIN AR TRES W  DIS CAZ7
 BAR2 SZ EP        442 39.68                             174   -0.2210 15.8 171 
 BRR  HZ EP        442 41.53                             154    0.1310 69.7 306 
 BRR  HN ES        442 58.31                             154    0.0210 69.7 306 
 RUS  HZ EP        442 43.70                             147    0.1210 94.0 172 
 RUS  HN ES        443  2.18                             147    0.0110 94.0 172 
 RUS  HZ I         443  3.09         1.2 0.32            146           94.0 172 
 PTB  HZ EP        442 46.42                             135   -0.07 9  140 261 
 PTB  HN ES        443  7.34                             135   -0.01 9  140 261 
 PTB  HZ I         443  9.35         1.6 0.60            134            140 261 
                                                                                
