 2013 1110 0700 45.2 L   6.850 -73.112144.7  RSN  7 0.6 1.6LRSN 2.1WRSN        1
 SPEC AVERAGE  MO 12.3 ST  8.3 OM  0.8 f0 12.5 R0.1796 AL 0.00 WI 20.0 MW  2.1 3
 SPEC SD       MO  0.1 ST 10.5 OM  0.3 f0 7.21 R0.1077 AL      WI      MW  0.0 3
 GAP=140        1.52       5.9     6.7 10.5  0.1191E+01  0.1338E+02 -0.1713E+02E
 Epicentro: LOS SANTOS - SANTANDER                                             3
 SPEC BRR HH Z MO 12.2 ST0.913 OM  0.6 f0 7.87 R0.1975 AL-0.00 WI 20.0 MW  2.1 3
 SPEC BRR HH Z T 7 122 K 0.000 GD  161 VS 4.20 DE 3.20 Q0300.0 QA 0.60 VS 4.20 3
 SPEC RUS HH Z MO 12.2 ST0.154 OM  0.6 f0 4.20 R0.3700 AL-0.00 WI 20.0 MW  2.1 3
 SPEC RUS HH Z T 7 126 K 0.000 GD  179 VS 4.20 DE 3.20 Q0300.0 QA 0.60 VS 4.20 3
 SPEC PTB HH Z MO 12.2 ST 10.6 OM  0.5 f0 17.6 R0.0883 AL-0.00 WI 20.0 MW  2.1 3
 SPEC PTB HH Z T 7 131 K 0.000 GD  210 VS 4.20 DE 3.20 Q0300.0 QA 0.60 VS 4.20 3
 SPEC ZAR HH Z MO 12.4 ST  2.0 OM  0.6 f0 8.76 R0.1774 AL-0.00 WI 20.0 MW  2.2 3
 SPEC ZAR HH Z T 7 141 K 0.000 GD  251 VS 4.20 DE 3.20 Q0300.0 QA 0.60 VS 4.20 3
 SPEC SML HH Z MO 12.2 ST 28.0 OM  0.4 f0 23.9 R0.0650 AL-0.00 WI 20.0 MW  2.1 3
 SPEC SML HH Z T 7 147 K 0.000 GD  280 VS 4.20 DE 3.20 Q0300.0 QA 0.60 VS 4.20 3
 OLDACT:REG 13-11-10 09:17 OP:stll STATUS:               ID:20131110065836     3
 ACTION:UPD 14-01-09 16:26 OP:ep   STATUS:               ID:20131110070045 L   I
 OLDACT:UP  13-11-10 12:56 OP:stll STATUS:               ID:20131110065836     3
 2013-11-10-0658-36M.COL___213                                                 6
 STAT SP IPHASW D HRMM SECON CODA AMPLIT PERI AZIMU VELO AIN AR TRES W  DIS CAZ7
 BAR2 SZ EP        7 1  5.26                             168    0.3810 29.5 195 
 BAR2 SZ ES        7 1 20.26                             168    0.0610 29.5 195 
 BAR2 SZ I         7 1 23.26        19.7 1.28            171           29.5 195 
 BRR  HZ EP        7 1  7.22                             152    0.9010 72.1 293 
 BRR  HN ES        7 1 23.70                             152    0.9410 72.1 293 
 BRR  SZ I         7 1 26.66         5.9 1.46            152           72.1 293 
 RUS  HZ EP        7 1  9.04                             142   -0.2310  106 178 
 RUS  HN ES        7 1 27.86                             142   -0.1610  106 178 
 RUS  SZ I         7 1 30.11         4.7 0.58            147            106 178 
 CAPV BZ ES        7 1 32.04                             133   -0.73 9  143  38 
 PTB  HZ EP        7 1 12.07                             131   -0.48 9  153 257 
 PTB  HN ES        7 1 32.88                             131   -0.98 9  153 257 
 PTB  SZ I         7 1 36.14         4.5 0.18            133            153 257 
 ZAR  HZ EP        7 1 18.07                             122    0.31 8  206 290 
 ZAR  HN ES        7 1 42.89                             122   -0.24 8  206 290 
 SML  HZ EP        7 1 22.11                             118    0.68 8  240 334 
 SML  HN ES        7 1 48.94                             118   -0.73 8  240 334 
 SML  HZ I         7 1 58.16         3.4 0.10            119            240 334 
                                                                                
