 2017  910 0950 44.7 L   6.777 -73.180137.8  RSN  7 0.5 1.4LRSN                1
 GAP=133        1.31       5.0     5.8  8.3 -0.3236E+01  0.1703E+02  0.2905E+01E
 Epicentro: LOS SANTOS - SANTANDER                                             3
 ACTION:UPD 17-10-05 19:10 OP:rebc STATUS:               ID:20170910095044 L   I
 OLDACT:REG 17-09-10 13:32 OP:dhb  STATUS:               ID:20170910094739     3
 2017-09-10-0948-00M.COL___391                                                 6
 STAT SP IPHASW D HRMM SECON CODA AMPLIT PERI AZIMU VELO AIN AR TRES W  DIS CAZ7
 BAR2 EZ EP        951  3.20                             171   -0.0910 20.4 181 
 BAR2 EZ ES        951 18.14                             171    0.3310 20.4 181 
 BAR2 EZ I         951 19.55        10.9 0.18            170           20.4 181 
 BRR  HZ EP        951  5.32                             152    0.4710 69.2 302 
 BRR  HE ES        951 19.75                             152   -0.8410 69.2 302 
 BRR  HZ I         951 25.86         3.8 0.48            148           69.2 302 
 PAM  EZ EP        951  6.12                             148   -0.2110 81.8  40 
 PAM  EN ES        951 23.17                             148   -0.0410 81.8  40 
 PAM  EZ I         951 25.22         3.3 0.48            154           81.8  40 
 RUS  HZ EP        951  7.13                             143   -0.3610 98.4 174 
 RUS  HN ES        951 25.78                             143    0.5010 98.4 174 
 RUS  HZ I         951 26.78         1.4 0.48            147           98.4 174 
 SPBC HZ EP        951 11.32                             128   -0.83 9  159 219 
 SPBC HN ES        951 34.04                             128    0.45 9  159 219 
 SPBC HZ I         951 39.54         5.4 0.18            129            159 219 
 ZAR  HZ EP        951 17.31                             121    0.96 9  202 293 
 ZAR  HN ES        951 41.38                             121    0.32 9  202 293 
 ZAR  HZ I         951 50.45         2.7 0.18            122            202 293 
 NOR  HZ EP        951 19.57                             117    0.11 8  230 234 
 NOR  HN ES        951 45.92                             117   -0.67 8  230 234 
 NOR  HZ I         951 52.94         2.8 0.24            119            230 234 
                                                                                
