 2016  710 0123 57.1 L   6.740 -73.193145.7  RSN  5 0.5 1.7LRSN                1
 GAP=227        1.24       7.2     8.9 11.2  0.3195E+02  0.4375E+01  0.1875E+01E
 Epicentro: VILLANUEVA - SANTANDER                                             3
 ACTION:UPD 17-03-29 16:48 OP:lp   STATUS:               ID:20160710012357 L   I
 OLDACT:UP  16-07-10 13:34 OP:dani STATUS:               ID:20160710011743     3
 OLDACT:REG 16-07-10 12:02 OP:dani STATUS:               ID:20160710011743     3
 2016-07-10-0117-43M.COL___325                                                 6
 STAT SP IPHASW D HRMM SECON CODA AMPLIT PERI AZIMU VELO AIN AR TRES W  DIS CAZ7
 BRR  HZ EP        124 17.94                             153   -0.2310 70.3 305 
 BRR  HE ES        124 34.78                             153    0.1610 70.3 305 
 RUS  HZ EP        124 20.33                             145   -0.0710 94.5 173 
 RUS  HN ES        124 38.57                             145   -0.0110 94.5 173 
 RUS  HZ I         124 39.50         5.9 0.38            146           94.5 173 
 PTB  HZ EP        124 22.88                             133   -0.60 9  141 261 
 PTB  HN ES   1    124 42.78                             133   -1.28 7  141 261 
 PTB  HZ I         124 46.10         7.3 0.22            130            141 261 
 SPBC HZ EP        124 25.28                             131    0.50 9  155 219 
 SPBC HN ES        124 46.83                             131    0.44 9  155 219 
 SPBC HZ I         124 50.23         7.7 0.22            129            155 219 
 ZAR  HN ES        124 55.14                             123    0.71 9  202 294 
 ZAR  HZ I         125  3.02         5.5 0.26            121            202 294 
                                                                                
