 2016 1210 0922 54.7 L   6.798 -73.121148.0  RSN 32 0.6 2.9LRSN                1
 GAP= 67        1.20       3.4     3.5  5.0  0.1116E+01  0.4341E+01  0.8180E+00E
 Epicentro: LOS SANTOS - SANTANDER                                             3
 ACTION:UPD 17-01-11 20:13 OP:rebc STATUS:               ID:20161210092254 L   I
 OLDACT:REG 16-12-10 13:24 OP:lv   STATUS:               ID:20161210091747     3
 2016-12-10-0918-00M.COL___361                                                 6
 STAT SP IPHASW D HRMM SECON CODA AMPLIT PERI AZIMU VELO AIN AR TRES W  DIS CAZ7
 BAR2 EZ EP        923 14.70                             170    0.1310 23.7 197 
 BAR2 EZ ES        923 29.65                             170   -0.4510 23.7 197 
 BAR2 EZ I         923 31.12       526.5 0.22            166           23.7 197 
 BRR  HZ IP     D  923 16.57                             152    0.3710 73.7 298 
 BRR  HN ES        923 33.74                             152    0.7510 73.7 298 
 BRR  HZ I         923 36.29       129.9 0.16            152           73.7 298 
 PAM  EZ EP        923 17.50                             152    0.4710 75.8  38 
 PAM  EN ES        923 34.74                             152    0.2710 75.8  38 
 PAM  EZ I         923 39.26        57.4 0.28            157           75.8  38 
 RUS  HZ EP        923 18.68                             144    0.0710  100 178 
 RUS  HE ES        923 37.12                             144   -0.1710  100 178 
 RUS  HZ I         923 38.35       156.9 0.26            143            100 178 
 PTB  HZ EP        923 21.79                             132   -0.26 9  150 259 
 PTB  HN ES        923 42.55                             132   -0.86 9  150 259 
 PTB  HZ I         923 47.31       110.0 0.13            131            150 259 
 TAM  HZ EP        923 23.02                             132    0.74 9  152 105 
 TAM  HE ES        923 42.92                             132   -0.89 9  152 105 
 TAM  HZ I         923 45.75        58.7 0.48            134            152 105 
 ZAR  HZ EP        923 27.28                             122   -0.25 8  207 292 
 ZAR  HN ES        923 52.98                             122   -0.17 8  207 292 
 ZAR  HZ I         923 58.66       154.9 0.36            123            207 292 
 CHI  HZ EP        923 32.88                             117    0.33 8  249 196 
 CHI  HN ES        924  2.51                             117    0.42 8  249 196 
 CHI  HZ I         924  9.45        70.6 0.43            118            249 196 
 ROSC BZ EP   9    923 34.53                             117    1.49 0  254 212 
 ROSC BN ES        924  5.20                                    0.74 8  254 212 
 ROSC BZ I         924  7.81        92.4 0.35            117            254 212 
 URE  HZ EP        923 34.71                             114   -1.43 7  286 292 
 URE  HN ES   4    924  6.01                             114   -2.47 0  286 292 
 URE  HZ I         924 15.37        98.4 0.16            115            286 292 
 GUY2CHZ EP        923 39.06                             113    0.44 7  303 235 
 GUY2CHN ES        924 12.96                             113    0.06 7  303 235 
 GUY2CHZ I         924 23.13        59.8 0.42                           303 235 
 LL1C HZ EP   9    923 40.36                             112    1.93 0  307 351 
 LL1C HN ES        924 14.76                                    0.26 7  307 351 
 PTGC HZ IP     C  923 37.71                             112   -0.78 7  308 159 
 PTGC HN ES   4    924 10.91                             112   -1.76 0  308 159 
 PTGC HZ I         924 21.21        25.3 0.26            113            308 159 
 LL6C HZ EP   9    923 19.93                             111   -20.6 0  325 357 
 LL6C HE ES        923 55.11                                   -0.57 7  325 357 
 LL6C HZ I         924  2.52        20.2 0.28            113            325 357 
 ELA  HZ EP   4    923 43.93                             111    2.10 0  331 230 
 ELA  HE ES   4    924 22.03                             111    3.41 0  331 230 
 ELA  HZ I         924 28.15        49.6 0.40            111            331 230 
 CBOC HZ EP        923 43.23                             110    1.27 7  336 252 
 CBOC HN ES   4    924 17.55                             110   -1.30 0  336 252 
 CBOC HZ I         924 21.93        13.4 0.38            111            336 252 
 DBB  HZ EP        923 43.05                             110    0.50 7  342 274 
 DBB  HN ES   4    924 18.09                             110   -1.80 0  342 274 
 ARGC HZ EP        923 45.00                             109    0.46 6  360 340 
 ARGC HE ES        924 23.10                             109   -0.34 6  360 340 
 ARGC HZ I         924 26.34        18.0 0.38            110            360 340 
 PRA  HZ EP   9    923 46.07                             107   -2.33 0  393 210 
 PRA  HN ES        924 27.93                                   -0.05 6  393 210 
 APAC HZ EP        923 48.81                             106   -0.43 6  401 288 
 APAC HN ES   4    924 27.62                             106   -4.19 0  401 288 
 APAC HZ I         924 34.23        16.0 0.38            107            401 288 
 PAL  HZ EP        923 50.60                             106    0.44 6  408 239 
 PAL  HE ES   4    924 31.65                             106   -1.80 0  408 239 
 PAL  HZ I         924 36.03        15.7 0.40            107            408 239 
 SJC  HZ EP   4    923 48.57                             106   -1.93 0  411 327 
 SJC  HN ES   4    924 30.99                             106   -3.05 0  411 327 
 SJC  HZ I         924 34.63        27.9 0.44            107            411 327 
 LCBC HZ EP        923 51.75                             105   -0.24 5  424 303 
 LCBC HE ES   4    924 34.72                             105   -1.98 0  424 303 
 CRJC HZ EP   4    923 55.16                             104   -2.08 0  468   3 
 CRJC HN ES   4    924 42.34                             104   -3.70 0  468   3 
 CRJC HZ I         924 46.67        26.7 0.40            105            468   3 
 GUA  EZ EP        923 57.16                             103   -0.66 5  473 173 
 GUA  EE ES   4    924 44.95                             103   -2.13 0  473 173 
 GUA  EZ I         924 51.96        18.8 0.20            104            473 173 
 YOT  HZ EP        923 57.54                             103   -0.46 5  474 229 
 YOT  HE ES   4    924 51.83                             103    4.43 0  474 229 
 SMAR HZ EP        924  0.15                             103   -0.55 4  498 346 
 SMAR HN ES   4    924 48.01                             103   -4.19 0  498 346 
 SMAR HZ I         924 51.53        13.9 0.17            104            498 346 
 MACC HZ EP   4    924  1.76                             102   -1.70 0  521 189 
 MACC HN ES   4    924 53.51                             102   -3.60 0  521 189 
 MACC HZ I         924 59.74        11.2 0.28            102            521 189 
 MARO HZ EP   4    924  6.62                             101    0.71 0  539 216 
 MARO HE ES   4    924 56.76                             101   -4.72 0  539 216 
 MARO HZ I         925  6.74         6.5 0.33            102            539 216 
 GARC HZ EP   4    924  8.83                             100   -1.27 0  574 207 
 GARC HN ES   4    925  5.42                             100   -3.51 0  574 207 
 GARC HZ I         925 11.82        15.6 0.22            101            574 207 
 CONO HZ EP   4    924 16.29                             100    1.03 0  614 216 
 CONO HE ES   4    925 15.03                             100   -3.09 0  614 216 
 CONO HZ I         925 33.53         4.1 0.41            100            614 216 
 FLO2 HZ EP        924 17.69                              99   -0.26 2  641 206 
 FLO2 HE ES   4    925 20.81                              99   -2.10 0  641 206 
 FLO2 HZ I         925 29.06         2.5 0.44            100            641 206 
                                                                                
