 2014  210 0327  5.5 L   6.809 -73.159147.6  RSN  6 0.4 2.0LRSN                1
 GAP=200        1.04       6.0     6.8  8.6  0.2109E+02 -0.9494E+01 -0.1911E+02E
 Epicentro: LOS SANTOS - SANTANDER                                             3
 ACTION:UPD 14-03-10 08:09 OP:ep   STATUS:               ID:20140210032705 L   I
 OLDACT:REG 14-02-10 10:00 OP:mh   STATUS:               ID:20140210032000     3
 2014-02-10-0320-00M.COL___291                                                 6
 STAT SP IPHASW D HRMM SECON CODA AMPLIT PERI AZIMU VELO AIN AR TRES W  DIS CAZ7
 BAR2 SZ EP        327 24.93                             170   -0.3810 24.1 186 
 BAR2 SZ ES   1    327 40.54                             170   -0.27 7 24.1 186 
 BAR2 SZ I         327 42.23        46.4 0.04            173           24.1 186 
 BRR  HZ EP        327 27.55                             154    0.8510 69.4 298 
 BRR  HN ES        327 43.75                             154    0.4810 69.4 298 
 BRR  HZ I         327 47.46         4.0 0.12            150           69.4 298 
 RUS  HZ EP        327 29.78                             144    0.3210  102 175 
 RUS  HN ES        327 47.86                             144   -0.3310  102 175 
 RUS  HZ I         327 49.44         0.6 0.24            149            102 175 
 PTB  HZ EP   1    327 32.38                             133   -0.07 7  147 258 
 PTB  HN ES        327 53.39                             133   -0.13 9  147 258 
 PTB  HZ I         327 58.50         2.1 0.13            133            147 258 
 ZAR  HZ EP   4    327 40.16                             123    2.32 0  202 292 
 ZAR  HN ES        328  2.73                             123   -0.37 9  202 292 
 ZAR  HZ I         328 11.51         2.2 0.06            123            202 292 
 SML  HZ EP        327 41.75                             118   -0.26 8  242 336 
 SML  HN ES   1    328  9.95                             118   -0.58 6  242 336 
 SML  HZ I         328 20.33     14303.2 0.02            118            242 336 
                                                                                
