 2010  810 0957 30.1 L   6.740 -73.042148.5  RSN  5 0.3 1.4LRSN                1
 GAP=177        0.63       8.2    14.0 10.0  0.7611E+02 -0.7700E+02 -0.3517E+02E
 Epicentro: ARATOCA - SANTANDER                                                3
 ACTION:UP  10-09-07 10:53 OP:vdl  STATUS:               ID:20100810095730 L   I
 2010-08-10-0953-41S.COL___125                                                 6
 STAT SP IPHASW D HRMM SECON CODA AMPLIT PERI AZIMU VELO SNR AR TRES W  DIS CAZ7
 BAR2 SZ EP   1    957 50.07                             171     0.1 7   23 224 
 BAR2 SZ ES   2    958  5.89                             171     0.3 5   23 224 
 BAR2 SZ I         958  6.40         9.0 0.34                            23 224 
 GIR2 SZ EP   2    957 50.43                             164     0.1 5   41 336 
 BRR  HZ IP     C  957 52.16                             149    -0.110   85 299 
 BRR  HZ I         957 53.06         9.1 0.13                            85 299 
 BRR  HN ES   1    958  9.71                             149     0.1 7   85 299 
 RUS  HZ EP   1    957 53.95                             146     0.3 7   94 183 
 RUS  HE ES   2    958 11.27                             146    -0.7 5   94 183 
 RUS  HZ I         958 14.35         3.3 0.42                            94 183 
 GUE  SZ EP   2    957 55.10                             139    -0.3 5  121   6 
 GUE  SZ I         958 16.70         1.9 0.19                           121   6 
                                                                                
