 2011 1010 0236 54.7 L   6.752 -73.125145.3  RSN  8 0.3 1.7LRSN                1
 GAP=141        0.48       3.2     4.6  5.9  0.3565E+00  0.6273E+01 -0.1919E+01E
 Epicentro: LOS SANTOS - SANTANDER                                             3
 ACTION:UPD 12-07-13 16:03 OP:ep   STATUS:               ID:20111010023654 L   I
 2011-10-10-0235-50S.COL___162                                                 6
 STAT SP IPHASW D HRMM SECON CODA AMPLIT PERI AZIMU VELO AIN AR TRES W  DIS CAZ7
 BAR2 SZ EP   1    237 13.68                             172   -0.49 7 18.7 200 
 BAR2 SZ ES   2    237 29.22                             172   -0.14 5 18.7 200 
 BAR2 SZ I         237 29.85         8.9 0.41                          18.7 200 
 GIR2 SZ EP   3    237 14.16                             165   -0.30 2 37.0 348 
 BRR  HZ EP   1    237 16.05                             151    0.00 7 75.9 301 
 BRR  HZ I         237 16.43         9.7 0.07                          75.9 301 
 BRR  HN ES   2    237 33.21                             151    0.50 5 75.9 301 
 PAM  SN ES   2    237 34.18                             150   -0.25 5 80.2  36 
 RUS  HZ EP   1    237 18.29                             145    0.30 7 95.1 177 
 RUS  HN ES   2    237 36.37                             145    0.19 5 95.1 177 
 OCA  SZ EP   1    237 23.72                             128    0.24 7  166 353 
 OCA  SZ ES   2    237 46.17                             128    0.22 5  166 353 
 OCA  SZ I         237 50.28         4.4 0.18                           166 353 
 ZAR  HZ EP   2    237 27.32                             122   -0.21 4  208 293 
 ZAR  HN ES   2    237 52.76                             122   -0.39 4  208 293 
 ZAR  HZ I         237 58.09         4.3 0.18                           208 293 
 NOR  SN ES   2    237 58.01                             118    0.00 4  234 236 
                                                                                
