 2010  510 0847 15.6 L   6.714 -73.107142.6  RSN  5 0.4 1.7LRSN                1
 GAP=161        0.73       5.4     6.3  8.9 -0.5363E+01 -0.1005E+01  0.4366E+01E
 Epicentro: JORDAN - SANTANDER                                                 3
 ACTION:UP  10-08-24 10:04 OP:vdl  STATUS:               ID:20100510084715 L   I
 2010-05-10-0843-54S.COL___104                                                 6
 STAT SP IPHASW D HRMM SECON CODA AMPLIT PERI AZIMU VELO SNR AR TRES W  DIS CAZ7
 BAR2 SZ EP   1    847 34.20                             173    -0.6 7   16 212 
 BRR  HZ IP     C  847 36.93                             149     0.010   80 303 
 BRR  HZ I         847 38.93        22.7 0.07                            80 303 
 BRR  HE ES   1    847 53.56                             149     0.0 7   80 303 
 RUS  HZ EP   1    847 38.14                             146    -0.2 7   91 178 
 RUS  HE ES   2    847 56.88                             146     0.8 5   91 178 
 RUS  HZ I         847 57.90         3.9 0.22                            91 178 
 BRI  SZ IP        847 40.03                             138     0.210  116  17 
 BRI  SZ ES   2    847 58.65                             138     0.0 5  116  17 
 HEL  HZ EP   1    847 56.38                             114     0.5 6  274 258 
 HEL  HN ES   2    848 27.04                             114    -0.3 4  274 258 
 HEL  HZ I         848 34.10         2.7 0.62                           274 258 
                                                                                
