 2011  710 0719  3.5 L   6.308 -73.603109.4  RSN  4 0.1 1.4LRSN                1
 GAP=149        0.35       4.6     3.6  9.0 -0.1121E+02  0.2390E+02 -0.2654E+02E
 Epicentro: SANTA HELENA DEL OPON - SANTANDER                                  3
 ACTION:UPD 12-07-25 13:59 OP:epov STATUS:               ID:20110710071903 L   I
 2011-07-10-0716-37S.COL___140                                                 6
 STAT SP IPHASW D HRMM SECON CODA AMPLIT PERI AZIMU VELO AIN AR TRES W  DIS CAZ7
 BAR2 SZ EP        719 20.09                             151   -0.1010 56.1  56 
 BAR2 SZ I         719 20.69        13.1 0.23                          56.1  56 
 RUS  HZ EP   1    719 21.62                             144   -0.09 7 73.6 129 
 RUS  HN ES   1    719 36.01                             144    0.09 7 73.6 129 
 RUS  HZ I         719 38.57         3.3 0.26                          73.6 129 
 BTL  SZ EP   1    719 21.73                             142    0.13 7 77.0  29 
 NOR  SZ EP   1    719 29.50                             119    0.13 7  163 240 
 NOR  SN ES   1    719 49.48                             119   -0.08 7  163 240 
                                                                                
