 2017  810 0205 44.0 L   6.822 -73.144145.5  RSN 27 0.6 2.5LRSN                1
 GAP= 65        1.13       2.5     2.7  4.6  0.2218E+00  0.3882E+01  0.7894E+00E
 Epicentro: LOS SANTOS - SANTANDER                                             3
 ACTION:UPD 17-09-04 20:18 OP:rebc STATUS:               ID:20170810020544 L   I
 OLDACT:REG 17-08-10 12:05 OP:dhb  STATUS:               ID:20170810015739     3
 2017-08-10-0158-00M.COL___396                                                 6
 STAT SP IPHASW D HRMM SECON CODA AMPLIT PERI AZIMU VELO AIN AR TRES W  DIS CAZ7
 BAR2 EZ IP     C  2 6  3.55                             169   -0.1310 25.8 189 
 BAR2 EZ ES        2 6 18.58                             169   -0.4310 25.8 189 
 BAR2 EZ I         2 6 19.69       138.8 0.21            168           25.8 189 
 BRR  HZ IP     C  2 6  5.46                             153    0.3610 70.2 297 
 BRR  HN ES        2 6 22.22                             153    0.6910 70.2 297 
 BRR  HZ I         2 6 27.34        98.1 0.20            149           70.2 297 
 PAM  EZ IP     C  2 6  6.43                             151    0.3210 75.4  41 
 PAM  EE ES        2 6 23.46                             151    0.1410 75.4  41 
 PAM  EZ I         2 6 27.23        34.5 0.30            152           75.4  41 
 RUS  HZ IP     C  2 6  7.52                             143   -0.4110  103 176 
 RUS  HN ES        2 6 25.98                             143   -0.6010  103 176 
 RUS  HZ I         2 6 27.22        53.5 0.28            142            103 176 
 TAM  HZ IP     C  2 6 11.90                             130    0.16 9  156 106 
 TAM  HN ES        2 6 33.32                             130   -0.03 9  156 106 
 TAM  HZ I         2 6 34.00        59.5 0.56            131            156 106 
 SPBC HZ EP        2 6 12.51                             129   -0.19 9  165 218 
 SPBC HN ES        2 6 34.74                             129   -0.32 9  165 218 
 SPBC HZ I         2 6 36.96        70.0 0.22            126            165 218 
 YPLC HZ IP     C  2 6 14.00                             126   -0.01 9  179 152 
 YPLC HN ES        2 6 37.64                             126    0.24 9  179 152 
 YPLC HZ I         2 6 41.47        26.7 0.28            126            179 152 
 ZAR  HZ EP        2 6 16.52                             122    0.14 9  203 291 
 ZAR  HN ES        2 6 42.41                             122    0.80 9  203 291 
 ZAR  HZ I         2 6 48.50        60.1 0.20            120            203 291 
 TABC EZ EP   9    2 6 21.09                             119    1.09 0  232 210 
 TABC EZ ES        2 6 49.43                                    0.29 8  232 210 
 TABC EZ I         2 6 55.42        45.6 0.40            117            232 210 
 NOR  HZ EP        2 6 19.57                             118   -0.34 8  236 234 
 NOR  HN ES        2 6 46.92                             118   -0.98 8  236 234 
 NOR  HZ I         2 6 50.31        29.8 0.18            116            236 234 
 CHI  HZ EP        2 6 22.26                             117    0.29 8  251 195 
 CHI  HN ES        2 6 51.84                             117    0.27 8  251 195 
 CHI  HZ I         2 6 56.89        10.6 0.24            115            251 195 
 ROSC BZ EP   9    2 6 23.90                             116    1.53 0  255 211 
 ROSC BN ES        2 6 54.55                                    0.74 8  255 211 
 ROSC BZ I         2 6 59.59        32.5 0.45            115            255 211 
 HEL  HZ EP        2 6 24.71                             115    0.40 8  273 255 
 HEL  HN ES        2 6 56.53                             115    0.80 8  273 255 
 HEL  HZ I         2 7  2.92        26.5 0.32            113            273 255 
 URE  HZ EP   2    2 6 24.02                             114   -0.98 4  283 291 
 URE  HN ES        2 6 56.36                             114   -0.60 7  283 291 
 URE  HZ I         2 7  8.05        34.9 0.20            112            283 291 
 GUY2CHZ EP        2 6 28.24                             112    0.44 7  303 234 
 GUY2CHN ES        2 7  2.15                             112    0.21 7  303 234 
 GUY2CHZ I         2 7 11.17        21.0 0.68                           303 234 
 VIL  EZ EP        2 6 27.88                             112    0.17 7  306 192 
 VIL  EE ES        2 7  1.98                             112    0.20 7  306 192 
 VIL  EZ I         2 7  7.82        15.5 0.46            111            306 192 
 PTGC HZ EP   2    2 6 26.90                             111   -1.23 3  311 159 
 PTGC HN ES   3    2 7  0.01                             111   -2.51 2  311 159 
 PTGC HZ I         2 7  7.50        13.5 0.22            111            311 159 
 LL6C HZ EP   2    2 6 28.82                             111   -0.62 3  322 358 
 LL6C HN ES        2 7  5.08                             111    0.21 7  322 358 
 LL6C HZ I         2 7  9.42        11.0 0.75            109            322 358 
 ELA  HZ EP   2    2 6 32.78                             110    1.72 3  331 229 
 ELA  HN ES   4    2 7 12.47                             110    4.72 0  331 229 
 ELA  HZ I         2 7 13.24        13.7 0.38            109            331 229 
 CBOC HZ EP        2 6 31.55                             110    0.51 7  335 252 
 CBOC HN ES        2 7  6.88                             110   -0.82 7  335 252 
 CBOC HZ I         2 7 20.20         6.0 0.44            108            335 252 
 DBB  EZ EP        2 6 31.70                             109    0.21 7  339 274 
 DBB  EN ES        2 7  7.53                             109   -0.98 7  339 274 
 DBB  EZ I         2 7 17.55        10.0 0.20            108            339 274 
 ARGC HZ EP   2    2 6 34.80                             108    1.38 3  357 340 
 ARGC HE ES   2    2 7 13.29                             108    1.35 3  357 340 
 ARGC HZ I         2 7 22.38         5.8 0.27            107            357 340 
 PRA  HZ EP        2 6 37.78                             106   -0.02 6  394 209 
 PRA  HN ES        2 7 20.21                             106    0.47 6  394 209 
 PRA  HZ I         2 7 23.74        13.8 0.20            105            394 209 
 ORTC HZ EP        2 6 38.68                             106    0.50 6  397 216 
 ORTC HN ES        2 7 20.65                             106    0.23 6  397 216 
 ORTC HZ I         2 7 28.43        10.2 0.34            105            397 216 
 PAL  HZ IP     D  2 6 39.73                             106    0.39 6  407 239 
 PAL  HE ES        2 7 22.77                             106    0.28 6  407 239 
 PAL  HZ I         2 7 31.82         8.0 0.30            104            407 239 
 SJC  HZ EP        2 6 38.34                             106   -1.01 6  407 327 
 SJC  HN ES        2 7 20.43                             106   -2.07 6  407 327 
 SJC  HZ I         2 7 23.73         7.7 0.12            105            407 327 
 MACC HZ EP        2 6 52.11                             101   -0.91 4  523 189 
 MACC HN ES   4    2 7 37.89                             101   -8.95 0  523 189 
 MACC HZ I         2 7 40.08         2.3 0.13            101            523 189 
                                                                                
