 2010 1010 0511 59.8 L   6.772 -73.151149.7  RSN 11 0.4 2.4LRSN                1
 GAP=173        0.75       3.8     5.9  5.9 -0.1146E+02  0.2426E+01  0.4715E+01E
 Epicentro: LOS SANTOS - SANTANDER                                             3
 ACTION:UP  11-02-18 11:08 OP:tino STATUS:               ID:20101010051159 L   I
 2010-10-10-0507-45S.COL___121                                                 6
 STAT SP IPHASW D HRMM SECON CODA AMPLIT PERI AZIMU VELO SNR AR TRES W  DIS CAZ7
 BAR2 SZ IP        512 19.37                             172    -0.410   20 190 
 BAR2 SZ I         512 19.66        44.4 0.20                            20 190 
 BAR2 SZ ES   1    512 35.38                             172    -0.1 7   20 190 
 BRR  HZ EP        512 21.24                             153    -0.210   72 301 
 BRR  HZ I         512 22.86        64.5 0.13                            72 301 
 BRR  HE ES   1    512 38.26                             153     0.0 7   72 301 
 GUE  SZ EP   2    512 25.42                             139     0.3 5  120  12 
 GRA  SZ IP        512 26.17                             137     0.610  129  17 
 GRA  SZ ES   1    512 45.84                             137     0.1 7  129  17 
 GRA  SZ I         512 46.92        25.4 0.37                           129  17 
 OCA  SZ EP   1    512 28.02                             130    -0.6 7  163 353 
 OCA  SZ ES   1    512 51.43                             130     0.2 7  163 353 
 OCA  SZ I         512 54.61        30.7 0.23                           163 353 
 NOR  SZ EP   1    512 35.37                             119    -0.1 6  233 235 
 NOR  SE ES   1    513  3.65                             119     0.3 6  233 235 
 CHI  HZ EP   1    512 37.49                             118     0.1 6  245 195 
 CHI  HN ES   2    513  7.57                             118     0.9 4  245 195 
 CHI  HZ I         513 15.61         8.0 0.53                           245 195 
 ROSC BZ EP   2    512 37.37                             118    -0.4 4  250 211 
 ROSC BZ I         513 17.21        13.9 0.37                           250 211 
 HEL  HZ EP   2    512 40.21                             116     0.2 4  271 256 
 HEL  HE ES   2    513 11.82                             116     0.4 4  271 256 
 HEL  HZ I         513 18.64        15.4 0.20                           271 256 
 DBB  SZ EP   1    512 47.14                             110    -0.2 5  339 275 
 PRA  HZ EP   1    512 53.07                             107     0.0 4  389 210 
 PRA  HE ES   2    513 34.79                             107     0.1 3  389 210 
 PRA  HZ I         513 41.91        20.9 0.22                           389 210 
                                                                                
