 2016 1010 0023 43.3 L   6.836 -73.138144.3  RSN 23 0.4 2.8LRSN                1
 GAP=136        0.90       2.3     3.3  4.3 -0.1363E+01  0.5893E+01  0.6609E+00E
 Epicentro: LOS SANTOS - SANTANDER                                             3
 ACTION:UPD 16-11-09 19:18 OP:rebc STATUS:               ID:20161010002343 L   I
 OLDACT:UP  16-10-10 15:44 OP:ar   STATUS:               ID:20161010001742d    3
 OLDACT:DUP 16-10-10 15:25 OP:ar   STATUS:               ID:20161010001742d    3
 2016-10-10-0018-00M.COL___360                                                 6
 STAT SP IPHASW D HRMM SECON CODA AMPLIT PERI AZIMU VELO AIN AR TRES W  DIS CAZ7
 BAR2 EZ IP     C  024  3.02                             169    0.1410 27.4 190 
 BAR2 EZ ES        024 17.78                             169   -0.3410 27.4 190 
 BAR2 EZ I         024 19.36       188.6 0.20            165           27.4 190 
 PAM  EZ EP        024  5.92                             151    0.7310 73.8  41 
 PAM  EN ES        024 22.91                             151    0.6810 73.8  41 
 PAM  EZ I         024 23.51        61.2 0.18            157           73.8  41 
 RUS  HZ EP        024  6.92                             142   -0.3110  104 177 
 RUS  HN ES        024 25.61                             142   -0.2610  104 177 
 RUS  HZ I         024 26.99        59.8 0.22            141            104 177 
 PTB  HZ EP        024  9.74                             131   -0.59 9  149 257 
 PTB  HN ES        024 30.75                             131   -0.64 9  149 257 
 PTB  HZ I         024 33.15       101.6 0.14            130            149 257 
 OCA  HZ EP        024 11.26                             130    0.08 9  156 353 
 OCA  HN ES        024 32.75                             130   -0.14 9  156 353 
 SPBC HZ EP        024 11.99                             128   -0.08 9  167 218 
 SPBC HN ES        024 34.25                             128   -0.23 9  167 218 
 ZAR  HZ EP        024 15.11                             122   -0.51 9  203 291 
 ZAR  HN ES        024 41.07                             122    0.27 9  203 291 
 ZAR  HZ I         024 46.58       107.6 0.58            122            203 291 
 NOR  HZ EP        024 19.30                             118   -0.00 8  238 234 
 NOR  HN ES        024 47.50                             118    0.14 8  238 234 
 NOR  HZ I         024 52.07        74.1 0.16            117            238 234 
 CHI  HZ EP        024 21.20                             116   -0.19 8  253 195 
 CHI  HN ES        024 51.25                             116    0.17 8  253 195 
 CHI  HZ I         024 57.72        31.8 0.44            116            253 195 
 ROSC BZ EP   4    024 23.18                             116    1.38 0  257 211 
 ROSC BN ES   4    024 54.17                             116    2.38 0  257 211 
 ROSC BZ I         024 59.66        50.9 0.35            116            257 211 
 HEL  HZ EP        024 23.93                             114    0.25 8  274 255 
 HEL  HN ES   4    024 56.97                             114    1.83 0  274 255 
 URE  HZ EP        024 23.94                             113   -0.32 7  283 291 
 URE  HN ES   4    024 53.72                             113   -2.46 0  283 291 
 URE  HZ I         024 58.51        50.4 0.16            114            283 291 
 GUY2CHZ EP        024 27.48                             112    0.26 7  304 234 
 GUY2CHN ES        025  1.88                             112    0.44 7  304 234 
 GUY2CHZ I         025 11.98        25.5 0.36                           304 234 
 VIL  EZ EP        024 26.70                             111   -0.45 7  307 192 
 VIL  EN ES        025  1.56                             111    0.24 7  307 192 
 VIL  EZ I         025  5.51        40.4 0.34            111            307 192 
 PTGC HZ EP   4    024 26.25                             111   -1.26 0  312 159 
 PTGC HN ES   4    024 59.42                             111   -2.55 0  312 159 
 PTGC HZ I         025  7.40        19.8 0.24            111            312 159 
 ELA  HZ EP        024 30.97                             110    0.48 7  332 229 
 ELA  HN ES   4    025  9.77                             110    2.49 0  332 229 
 ELA  HZ I         025 16.74        27.6 0.40            110            332 229 
 CBOC HZ EP        024 30.66                             109    0.24 7  336 251 
 CBOC HN ES        025  7.88                             109    0.73 7  336 251 
 CBOC HZ I         025 16.46        11.0 0.26            109            336 251 
 DBB  EZ EP        024 31.32                             109    0.50 7  340 274 
 DBB  EZ ES   4    025  6.73                             109   -1.12 0  340 274 
 ANIL HZ EP   4    024 35.26                             108    1.78 0  361 224 
 ANIL HN ES        025 13.03                             108    0.44 6  361 224 
 ANIL HZ I         025 19.18        59.8 0.28            108            361 224 
 PRA  HZ EP        024 36.82                             106   -0.44 6  396 209 
 PRA  HN ES        025 19.60                             106    0.28 6  396 209 
 PRA  HZ I         025 31.20        21.1 0.42            106            396 209 
 SJC  HZ EP        024 37.50                             105   -1.02 6  406 327 
 SJC  HN ES   4    025 18.42                             105   -3.14 0  406 327 
 SJC  HZ I         025 22.77        13.2 0.44            106            406 327 
 PAL  HZ EP        024 38.88                             105    0.11 6  408 239 
 PAL  HN ES   4    025 20.38                             105   -1.63 0  408 239 
 PAL  HZ I         025 27.16         9.6 0.22            106            408 239 
 YOT  HZ EP        024 46.32                             103   -0.41 5  475 229 
 YOT  HN ES   2    025 36.06                             103   -0.11 2  475 229 
 GARC HZ EP   4    024 57.39                             100   -1.64 0  577 207 
                                                                                
