 2015 1210 0849 35.9 L   6.812 -73.178145.6  RSN 10 0.4 1.7LRSN                1
 GAP=180        0.85       2.6     5.1  5.3 -0.3521E+01  0.5232E+01 -0.1280E+01E
 Epicentro: ZAPATOCA - SANTANDER                                               3
 ACTION:UPD 16-02-04 15:03 OP:cam  STATUS:               ID:20151210084935 L   I
 OLDACT:UP  15-12-10 19:31 OP:ak   STATUS:               ID:20151210084748     3
 OLDACT:REG 15-12-10 13:08 OP:ar   STATUS:               ID:20151210084748     3
 2015-12-10-0847-48M.COL___334                                                 6
 STAT SP IPHASW D HRMM SECON CODA AMPLIT PERI AZIMU VELO AIN AR TRES W  DIS CAZ7
 BAR2 EZ EP        849 55.69                             170    0.1410 24.3 181 
 BAR2 EZ ES        850 10.35                             170   -0.5110 24.3 181 
 BAR2 EZ I         850 11.62        13.5 0.21            169           24.3 181 
 BRR  HZ EP     C  849 57.20                             154    0.3510 67.4 299 
 BRR  HE ES        850 13.67                             154    0.5010 67.4 299 
 BRR  HZ I         850 17.37         8.3 0.13            150           67.4 299 
 RUS  HZ EP   1    849 59.87                             143    0.10 7  102 174 
 RUS  HE ES   1    850 18.08                             143   -0.30 7  102 174 
 RUS  HZ I         850 19.23         5.0 0.28            146            102 174 
 PTB  HZ EP        850  2.21                             133   -0.37 9  145 258 
 PTB  HN ES   1    850 23.00                             133   -0.38 7  145 258 
 PTB  HZ I         850 26.53         5.0 0.16            131            145 258 
 OCA  HZ EP        850  3.70                             130   -0.36 9  159 354 
 OCA  HN ES        850 26.63                             130    0.62 9  159 354 
 OCA  HZ I         850 30.87         9.8 0.16            131            159 354 
 SPBC HZ EP        850  4.60                             129    0.31 9  162 218 
 SPBC HN ES        850 26.64                             129    0.22 9  162 218 
 SPBC HZ I         850 31.53         9.5 0.28            129            162 218 
 NOR  HZ EP   2    850 11.19                             119   -0.22 4  233 234 
 NOR  HE ES        850 38.93                             119   -0.16 8  233 234 
 NOR  HZ I         850 45.55         2.9 0.26            119            233 234 
 SML  HZ EP        850 11.88                             118   -0.37 8  241 336 
 SML  HN ES        850 40.09                             118   -0.50 8  241 336 
 SML  HZ I         850 44.71         9.1 0.11            118            241 336 
 GUY2CHZ EP   2    850 20.05                             112    0.77 4  299 234 
 GUY2CHN ES   2    850 53.31                             112    0.22 4  299 234 
 GUY2CHZ I         851  2.24         1.8 0.19                           299 234 
 PRA  HE ES        851 11.21                             107    0.17 6  391 209 
 PRA  HZ I         851 15.65         1.3 0.21            107            391 209 
                                                                                
