 2010  510 0252 30.7 L   6.776 -72.988137.3  RSN  6 0.5 1.5LRSN                1
 GAP=177        1.35       8.9    17.9 16.7  0.3986E+02 -0.1663E+03 -0.7373E+02E
 Epicentro: CEPITA - SANTANDER                                                 3
 ACTION:UP  10-08-24 10:03 OP:vdl  STATUS:               ID:20100510025230 L   I
 2010-05-10-0250-58S.COL___104                                                 6
 STAT SP IPHASW D HRMM SECON CODA AMPLIT PERI AZIMU VELO SNR AR TRES W  DIS CAZ7
 BAR2 SZ IP     D  252 49.50                             167     0.010   30 227 
 BAR2 SZ ES   1    253  4.00                             167    -0.1 7   30 227 
 BRR  HZ EP        252 52.06                             145     0.010   88 295 
 BRR  HZ I         252 52.41         8.4 0.08                            88 295 
 BRR  HN ES   1    253  8.73                             145     0.1 7   88 295 
 RUS  HZ EP        252 53.53                             143     0.110   98 186 
 RUS  HZ I         252 54.71         3.9 0.17                            98 186 
 RUS  HN ES   2    253 10.87                             143    -0.3 5   98 186 
 GUE  SZ EP        252 55.73                             137     1.110  117   3 
 GRA  SZ EP        252 54.38                             135    -0.710  124   9 
 OCA  SZ EP        252 58.43                             127    -0.5 9  166 347 
 OCA  SZ I         253 23.35         3.9 0.40                           166 347 
                                                                                
