 2011  410 0509 39.6 L   6.730 -73.134143.6  RSN 14 0.4 2.3LRSN                1
 GAP=117        0.92       3.3     5.1  6.8 -0.2913E+01  0.5421E+01  0.5056E+01E
 Epicentro: JORDAN - SANTANDER                                                 3
 ACTION:UP  11-06-22 15:30 OP:REBC STATUS:               ID:20110410050939 L   I
 2011-04-10-0508-05S.COL___138                                                 6
 STAT SP IPHASW D HRMM SECON CODA AMPLIT PERI AZIMU VELO SNR AR TRES W  DIS CAZ7
 BAR2 SZ EP        5 9 58.86                             173     0.110   16 199 
 BAR2 SZ ES   1    510 13.11                             173    -0.7 7   16 199 
 BAR2 SZ I         510 15.59        35.8 0.22                            16 199 
 BTL  SZ EP        5 9 59.10                             169     0.110   26 325 
 GIR2 SZ EP   1    5 9 59.27                             164     0.1 7   39 350 
 BRR  HZ IP     D  510  0.77                             150     0.010   76 303 
 BRR  HZ I         510  0.98        66.6 0.14                            76 303 
 BRR  HE ES   1    510 17.98                             150     0.7 7   76 303 
 PAM  SZ EP   1    510  1.60                             149    -0.3 7   83  35 
 PAM  SN ES   2    510 18.44                             149    -0.8 5   83  35 
 GRA  SZ EP        510  5.69                             135     0.510  133  16 
 GRA  SZ ES   1    510 25.64                             135     0.4 7  133  16 
 GRA  SZ I         510 27.46        17.2 0.26                           133  16 
 OCA  SZ EP        510  7.52                             128    -0.9 9  168 353 
 OCA  SZ ES        510 31.06                             128     0.1 9  168 353 
 OCA  SZ I         510 34.88        28.1 0.30                           168 353 
 YOP  SZ EP   1    510  8.95                             127     0.2 7  171 153 
 YOP  SE ES   1    510 31.86                             127     0.4 7  171 153 
 NOR  SZ EP   2    510 14.67                             118    -0.1 4  231 236 
 NOR  SN ES   2    510 41.64                             118    -0.7 4  231 236 
 CHI  HZ EP   1    510 16.31                             117    -0.1 6  242 196 
 CHI  HE ES   2    510 45.41                             117     0.3 4  242 196 
 CHI  HZ I         510 51.93         8.4 0.43                           242 196 
 HEL  HZ EP   1    510 20.08                             114     0.5 6  271 257 
 HEL  HE ES   2    510 51.22                             114     0.4 4  271 257 
 HEL  HZ I         510 57.70        10.3 0.49                           271 257 
 GUY  SZ EP   2    510 22.48                             112    -0.5 4  300 236 
 GUY  SN ES   2    510 56.29                             112    -0.5 4  300 236 
 GUY  SZ I         511  8.94        15.8 0.26                           300 236 
 RREF HZ EP   2    510 25.15                             111     0.0 3  318 231 
 RREF HN ES   2    511  1.14                             111     0.4 3  318 231 
 RREF HZ I         511  8.04        11.2 0.36                           318 231 
 PRA  HZ EP   2    510 31.78                             106    -0.5 3  386 210 
 PRA  HN ES   2    511 13.04                             106    -0.4 3  386 210 
                                                                                
