 2015  210 0802 45.9 L   6.804 -73.159156.1  RSN  6 0.5 1.2LRSN                1
 GAP=135        1.14       6.0     6.0  8.9 -0.1060E+02  0.3537E+01  0.1282E+02E
 Epicentro: LOS SANTOS - SANTANDER                                             3
 ACTION:UPD 15-04-30 21:24 OP:nd   STATUS:               ID:20150210080245 L   I
 OLDACT:UP  15-02-10 17:12 OP:fm   STATUS:               ID:20150210075750d    3
 OLDACT:DUP 15-02-10 17:12 OP:fm   STATUS:               ID:20150210075750d    3
 2015-02-10-0757-49M.COL___287                                                 6
 STAT SP IPHASW D HRMM SECON CODA AMPLIT PERI AZIMU VELO AIN AR TRES W  DIS CAZ7
 BRR  HE ES        8 3 26.09                             155    0.6610 69.7 299 
 BRR  HZ I         8 3 28.28         2.7 0.74            155           69.7 299 
 PAM  SZ EP        8 3  9.67                             152    0.4010 78.0  41 
 PAM  SE ES        8 3 26.88                             152   -0.6210 78.0  41 
 PAM  SZ I         8 3 30.29         3.1 0.50            157           78.0  41 
 RUS  HZ EP        8 3 10.43                             146   -0.3010  101 175 
 RUS  HE ES        8 3 30.38                             146    0.2910  101 175 
 RUS  HZ I         8 3 32.42         1.4 0.44            148            101 175 
 PTB  HZ EP        8 3 13.26                             135   -0.36 9  146 259 
 PTB  HN ES        8 3 34.86                             135   -0.38 9  146 259 
 PTB  HZ I         8 3 41.78         1.2 0.18            136            146 259 
 SPBC HZ EP        8 3 15.80                             131    0.63 9  163 218 
 SPBC HN ES        8 3 37.67                             131   -0.33 9  163 218 
 SPBC HZ I         8 3 42.41         2.5 0.10            133            163 218 
 GUY2CHZ EP   1    8 3 29.80                             114   -0.11 5  300 235 
                                                                                
