 2017  510 0826  8.7 L   6.802 -73.123152.4  RSN 11 0.3 2.1LRSN                1
 GAP=139        0.71       2.8     3.1  4.7 -0.6205E+00  0.4523E+01  0.2461E+01E
 Epicentro: LOS SANTOS - SANTANDER                                             3
 ACTION:UPD 17-06-16 13:34 OP:jn   STATUS:               ID:20170510082608 L   I
 OLDACT:UP  17-05-10 18:21 OP:OSC  STATUS:               ID:20170510081738     3
 OLDACT:UP  17-05-10 17:48 OP:OSC  STATUS:               ID:20170510081738     3
 OLDACT:REG 17-05-10 13:37 OP:osc  STATUS:               ID:20170510081738     3
 2017-05-10-0818-00M.COL___353                                                 6
 STAT SP IPHASW D HRMM SECON CODA AMPLIT PERI AZIMU VELO AIN AR TRES W  DIS CAZ7
 BRR  HZ EP     C  826 30.81                             153    0.1610 73.3 297 
 BRR  HE ES        826 48.26                             153    0.4710 73.3 297 
 BRR  HZ I         826 52.03        21.3 0.22            151           73.3 297 
 PAM  EZ EP        826 31.80                             153    0.3210 75.6  38 
 PAM  EN ES        826 49.05                             153   -0.2310 75.6  38 
 PAM  EZ I         826 51.44        12.1 0.40            159           75.6  38 
 RUS  HZ EP        826 32.88                             145   -0.2010  101 178 
 RUS  HE ES        826 51.80                             145   -0.3210  101 178 
 RUS  HZ I         826 52.75        21.5 0.46            145            101 178 
 PTB  HZ EP        826 35.84                             133   -0.57 9  150 259 
 PTB  HN ES   4    826 57.16                             133   -0.88 0  150 259 
 PTB  HZ I         827  0.00        13.0 0.40            132            150 259 
 SPBC HZ EP        826 37.99                             130    0.14 9  165 220 
 SPBC HN ES        827  0.92                             130    0.31 9  165 220 
 SPBC HZ I         827  4.64        21.3 0.09            130            165 220 
 ZAR  HZ EP        826 41.75                             123   -0.03 8  206 292 
 ZAR  HE ES        827  7.21                             123   -0.40 8  206 292 
 ZAR  HZ I         827 12.30        18.6 0.42            124            206 292 
 NOR  HZ EP        826 45.14                             120    0.12 8  237 235 
 NOR  HE ES        827 13.43                             120    0.05 8  237 235 
 NOR  HZ I         827 19.43         8.6 0.18            120            237 235 
 CHI  HZ EP        826 47.09                             118    0.25 8  250 196 
 CHI  HN ES   2    827 16.57                             118   -0.04 4  250 196 
 CHI  HZ I         827 24.97         6.8 0.44            119            250 196 
 ROSC BZ EP   9    826 49.44                             118    2.12 0  254 211 
 ROSC BE ES   9    827 22.52                                    2.93 0  254 211 
 ROSC BZ I         827 22.96        20.2 0.75            119            254 211 
 HEL  HZ EP        826 49.63                             116    0.13 8  275 256 
 HEL  HE ES        827 21.17                             116   -0.18 8  275 256 
 HEL  HZ I         827 27.02         7.8 0.32            116            275 256 
 PTGC HZ EP   4    826 51.93                             113   -0.82 0  308 159 
 PTGC HE ES   4    827 26.28                             113   -0.85 0  308 159 
 CBOC HZ EP   4    826 57.42                             111    1.27 0  336 252 
 CBOC HE ES   4    827 34.29                             111    1.11 0  336 252 
 CBOC HZ I         827 47.02         2.0 0.32            112            336 252 
                                                                                
