 2014  410 0541 33.3 L   6.875 -72.945203.4  RSN  8 0.4 2.1LRSN                1
 GAP=203        0.84       4.2     7.0  8.8 -0.7301E+01 -0.4060E+01  0.9330E+01E
 Epicentro: GUACA - SANTANDER                                                  3
 ACTION:UPD 14-05-13 23:07 OP:nd   STATUS:               ID:20140410054133 L   I
 OLDACT:UP  14-04-10 15:15 OP:mh   STATUS:               ID:20140410053814     3
 OLDACT:UP  14-04-10 15:12 OP:mh   STATUS:               ID:20140410053814     3
 OLDACT:REG 14-04-10 13:22 OP:l    STATUS:               ID:20140410053814     3
 2014-04-10-0538-14M.COL___253                                                 6
 STAT SP IPHASW D HRMM SECON CODA AMPLIT PERI AZIMU VELO AIN AR TRES W  DIS CAZ7
 RUS  HZ EP        542  3.40                             151   -0.1610  110 188 
 RUS  HN ES   2    542 26.94                             151   -0.24 5  110 188 
 OCA  HE ES        542 31.97                             141   -0.06 9  156 345 
 PTB  HZ EP        542  6.64                             138   -0.62 9  171 258 
 PTB  HE ES   1    542 33.46                             138   -0.31 7  171 258 
 PTB  HZ I         542 38.79        10.0 0.06            134            171 258 
 SPBC HZ EP        542  8.75                             136    0.33 9  184 223 
 SPBC HN ES        542 36.16                             136    0.33 9  184 223 
 SPBC HZ I         542 41.74        14.4 0.06            134            184 223 
 SML  HZ EP   4    542 16.23                             128    2.23 0  247 330 
 SML  HN ES   1    542 46.48                             128    0.72 6  247 330 
 SML  HZ I         542 53.84         9.3 0.20            126            247 330 
 NOR  HZ EP        542 15.61                             126    0.46 8  258 236 
 NOR  HN ES        542 48.14                             126    0.32 8  258 236 
 NOR  HZ I         542 52.88         5.7 0.29            125            258 236 
 HEL  HZ EP        542 19.21                             122   -0.19 7  296 255 
 HEL  HN ES   1    542 54.60                             122   -0.77 5  296 255 
 HEL  HZ I         543  3.75         3.3 0.25            121            296 255 
 PRA  HZ EP   4    542 34.70                             114    3.35 0  410 212 
 PRA  HN ES   4    543 22.08                             114    5.43 0  410 212 
 PRA  HZ I         543 26.76         3.6 0.24            114            410 212 
 SJC  HZ EP   4    542 33.85                             114    1.96 0  415 324 
 SJC  HN ES   4    543 16.01                             114   -1.59 0  415 324 
                                                                                
