 2012 1210 0624  1.0 L   6.817 -73.152140.0  RSN  9 0.5 1.8LRSN                1
 GAP=182        0.91       3.6     5.7  8.0  0.2345E+01  0.8485E+01 -0.2741E+01E
 Epicentro: LOS SANTOS - SANTANDER                                             3
 ACTION:UPD 13-01-04 14:26 OP:ep   STATUS:               ID:20121210062401 L   I
 2012-12-10-0620-00M.COL___242                                                 6
 STAT SP IPHASW D HRMM SECON CODA AMPLIT PERI AZIMU VELO AIN AR TRES W  DIS CAZ7
 BAR2 SZ EP   1    624 20.19                             169    0.20 7 25.1 188 
 BAR2 SZ ES   1    624 34.90                             169    0.11 7 25.1 188 
 BAR2 SZ I         624 36.47        21.9 0.24                          25.1 188 
 RUS  HZ EP   1    624 24.27                             142   -0.07 7  103 176 
 RUS  HE ES   1    624 42.92                             142    0.38 7  103 176 
 RUS  HZ I         624 43.99         7.9 0.28                           103 176 
 PTB  HZ EP   1    624 26.82                             131   -0.67 7  147 258 
 PTB  HN ES   1    624 47.54                             131   -0.60 7  147 258 
 PTB  HZ I         624 50.96         6.5 0.14                           147 258 
 OCA  HZ EP   1    624 29.23                             129    0.54 7  158 353 
 OCA  HN ES   1    624 49.34                             129   -0.94 7  158 353 
 OCA  HZ I         625  0.36         8.3 0.42                           158 353 
 ZAR  HE ES   1    624 57.79                             121   -0.07 6  203 292 
 SML  HZ EP   1    624 37.22                             116    0.12 6  242 335 
 SML  HN ES   1    625  6.13                             116    0.88 6  242 335 
 CHI  HZ EP   1    624 38.32                             116   -0.26 6  250 195 
 CHI  HN ES   1    625  7.97                             116    0.09 6  250 195 
 CHI  HZ I         625 11.06         3.4 0.30                           250 195 
 HEL  HZ EP   4    624 42.52                             114    1.61 0  272 255 
 HEL  HN ES   1    625 12.91                             114    0.87 6  272 255 
 HEL  HZ I         625 18.33         3.3 0.32                           272 255 
 MON  HZ EP   4    624 47.34                             108   -2.25 0  352 308 
 PRA  HZ EP   1    624 53.99                             105   -0.50 4  393 209 
 PRA  HZ I         625 40.40         3.2 0.62                           393 209 
                                                                                
