 2016  910 0912 44.8 L   6.784 -73.113148.2  RSN 15 0.5 1.9LRSN                1
 GAP=123        0.97       3.6     3.4  5.5 -0.5131E+00  0.4297E+01  0.5179E+01E
 Epicentro: LOS SANTOS - SANTANDER                                             3
 ACTION:UPD 17-08-17 21:08 OP:lp   STATUS:               ID:20160910091244 L   I
 OLDACT:REG 16-09-10 13:56 OP:cara STATUS:               ID:20160910090738     3
 2016-09-10-0908-00M.COL___324                                                 6
 STAT SP IPHASW D HRMM SECON CODA AMPLIT PERI AZIMU VELO AIN AR TRES W  DIS CAZ7
 BAR2 EZ EP        913  4.58                             171   -0.1110 22.5 200 
 BAR2 EZ ES        913 19.91                             171   -0.3110 22.5 200 
 BAR2 EZ I         913 21.48        15.0 0.46            169           22.5 200 
 BRR  HZ EP        913  6.53                             152    0.1010 75.2 298 
 BRR  HN ES        913 23.87                             152    0.5610 75.2 298 
 BRR  HZ I         913 28.83         9.3 0.12            149           75.2 298 
 PAM  EZ EP        913  7.35                             151    0.1410 76.6  37 
 PAM  EE ES        913 24.70                             151   -0.0010 76.6  37 
 PAM  EZ I         913 27.43         5.9 0.48            148           76.6  37 
 RUS  HZ EP        913  8.91                             145    0.2710 98.6 178 
 RUS  HN ES        913 27.56                             145    0.3210 98.6 178 
 RUS  HZ I         913 29.87         9.8 0.50            140           98.6 178 
 PTB  HZ EP   2    913 11.19                             132   -1.05 5  151 260 
 PTB  HN ES        913 32.69                             132   -0.97 9  151 260 
 PTB  HZ I         913 37.26        12.1 0.28            128            151 260 
 SPBC HZ EP        913 13.56                             129    0.00 9  164 220 
 SPBC HN ES        913 36.16                             129    0.16 9  164 220 
 SPBC HZ I         913 40.65        14.2 0.22            125            164 220 
 ZAR  HZ EP   4    913 16.59                             122   -1.21 0  208 292 
 ZAR  HE ES        913 42.96                             122   -0.60 8  208 292 
 ZAR  HZ I         913 48.44        12.8 0.60            118            208 292 
 NOR  HZ EP   2    913 20.62                             119   -0.24 4  237 235 
 NOR  HE ES        913 49.29                             119    0.29 8  237 235 
 NOR  HZ I         913 52.92         7.7 0.22            115            237 235 
 CHI  HZ EP   2    913 22.51                             118   -0.03 4  248 196 
 CHI  HN ES        913 51.79                             118   -0.19 8  248 196 
 CHI  HZ I         913 57.88         4.2 0.30            114            248 196 
 HEL  HZ EP        913 26.39                             115    0.93 8  275 256 
 HEL  HN ES        913 57.37                             115    0.18 8  275 256 
 HEL  HZ I         914  2.93         4.8 0.30            111            275 256 
 URE  HZ EP   3    913 27.45                             114    1.03 2  288 292 
 URE  HE ES   4    913 55.63                             114   -3.27 0  288 292 
 URE  HZ I         914  9.72         7.2 0.18            110            288 292 
 GUY2CHZ EP   2    913 29.44                             113    0.72 4  303 235 
 GUY2CHN ES   4    914  5.71                             113    2.71 0  303 235 
 GUY2CHZ I         914 10.16         4.1 0.62                           303 235 
 PTGC HZ EP        913 27.54                             112   -0.87 7  306 159 
 PTGC HZ I         913 56.14         1.7 0.17            108            306 159 
 PTGC HN ES   4    914  0.71                             112   -1.73 0  306 159 
 CBOC HZ EP   2    913 31.47                             110   -0.66 3  337 253 
 CBOC HN ES        914  9.30                             110    0.24 7  337 253 
 CBOC HZ I         914 14.91         1.7 0.44            107            337 253 
 SJC  HZ EP   9    913 38.70                             106   -2.14 0  413 327 
 SJC  HN ES        914 22.56                                    0.14 6  413 327 
 SJC  HZ I         914 25.07         1.6 0.38            103            413 327 
                                                                                
