 2013  810 0031 23.9 L   6.856 -73.318127.7  RSN  6 0.5 1.9LRSN                1
 GAP=153        1.03       5.3     6.0  9.4 -0.1348E+01  0.1130E+02 -0.1731E+02E
 Epicentro: ZAPATOCA - SANTANDER                                               3
 ACTION:UPD 14-01-14 09:00 OP:ep   STATUS:               ID:20130810003123 L   I
 OLDACT:REG 13-08-10 07:32 OP:carl STATUS:               ID:20130810002959     3
 2013-08-10-0029-59M.COL___270                                                 6
 STAT SP IPHASW D HRMM SECON CODA AMPLIT PERI AZIMU VELO AIN AR TRES W  DIS CAZ7
 BAR2 SZ IP     C  031 42.14                             165    0.4810 32.8 153 
 BAR2 SZ ES   1    031 55.21                             165   -0.27 7 32.8 153 
 BAR2 SZ I         031 56.31        29.0 0.26            169           32.8 153 
 BRR  HZ IP     D  031 42.42                             157    0.3610 51.6 303 
 BRR  HN ES   1    031 56.47                             157    0.27 7 51.6 303 
 BRR  HN I         031 56.99        40.4 0.20            155           51.6 303 
 PTB  HZ EP   1    031 46.93                             131   -0.94 7  131 255 
 PTB  HN ES        032  6.07                             131   -0.4710  131 255 
 PTB  HZ I         032  9.28         5.7 0.30            133            131 255 
 OCA  HN ES   1    032  9.99                             126   -0.66 7  153 360 
 OCA  HN I         032 14.76        21.3 0.28            127            153 360 
 ZAR  HZ EP        031 53.26                             121    0.12 9  184 293 
 ZAR  HN ES        032 16.51                             121    0.58 9  184 293 
 ZAR  HZ I         032 18.91         3.6 0.24            122            184 293 
 SML  HZ EP   1    031 58.14                             115   -0.00 6  231 339 
 SML  HN ES        032 24.61                             115   -0.22 8  231 339 
 SML  HZ I         032 27.07         7.0 0.24            116            231 339 
                                                                                
