 2015  210 0623 19.4 L   6.767 -73.353110.9  RSN  6 0.3 1.0LRSN                1
 GAP=182        0.76       3.6     3.7  6.0  0.5843E+01  0.7096E+01  0.5732E+01E
 Epicentro: ZAPATOCA - SANTANDER                                               3
 ACTION:UPD 15-04-30 21:24 OP:nd   STATUS:               ID:20150210062319 L   I
 OLDACT:UP  15-02-10 16:34 OP:fm   STATUS:               ID:20150210061739d    3
 OLDACT:DUP 15-02-10 16:31 OP:fm   STATUS:               ID:20150210061739d    3
 2015-02-10-0617-37M.COL___287                                                 6
 STAT SP IPHASW D HRMM SECON CODA AMPLIT PERI AZIMU VELO AIN AR TRES W  DIS CAZ7
 BAR2 EZ EP        623 35.14                             165    0.2010 27.0 136 
 BAR2 EZ ES        623 47.42                             165    0.3410 27.0 136 
 BAR2 EZ I         623 49.38        10.0 0.24            165           27.0 136 
 BRR  HZ EP        623 35.78                             152   -0.0410 54.6 314 
 BRR  HE ES        623 48.58                             152   -0.0710 54.6 314 
 BRR  HZ I         623 52.54         2.0 0.12            155           54.6 314 
 RUS  HZ EP        623 40.01                             135    0.0710  101 163 
 RUS  HE ES        623 55.33                             135   -0.6610  101 163 
 RUS  HZ I         623 59.41         1.3 0.26            137            101 163 
 PTB  HE ES        623 58.58                             128   -0.0710  125 258 
 SPBC HZ EP        623 43.84                             123    0.09 9  147 213 
 SPBC HE ES        624  3.12                             123    0.36 9  147 213 
 SPBC HZ I         624  8.70         1.6 0.10            125            147 213 
 ZAR  HN ES        624  9.51                             116   -0.21 9  185 296 
                                                                                
