 2014  110 0641 28.8 L   6.832 -73.552 97.8  RSN  8 0.5 1.6LRSN                1
 GAP=117        1.35       4.2     5.4  9.9 -0.9684E+01  0.9109E+01 -0.3305E-01E
 Epicentro: SAN VICENTE DE CHUCURI - SANTANDER                                 3
 ACTION:UPD 14-03-13 09:53 OP:ep   STATUS:               ID:20140110064128 L   I
 OLDACT:REG 14-01-10 07:59 OP:carl STATUS:               ID:20140110064000     3
 2014-01-10-0640-00M.COL___285                                                 6
 STAT SP IPHASW D HRMM SECON CODA AMPLIT PERI AZIMU VELO AIN AR TRES W  DIS CAZ7
 BAR2 SZ EP        641 43.28                             152   -0.6010 48.7 123 
 BAR2 SZ ES        641 55.84                             152    0.2310 48.7 123 
 BAR2 SZ I         641 56.97        55.2 0.50            157           48.7 123 
 PTB  HZ EP        641 47.83                             129   -0.2110  105 252 
 PTB  HN ES        642  3.30                             129    0.2810  105 252 
 PTB  HZ I         642  4.10         9.8 0.14            128            105 252 
 PAM  SZ EP        641 49.63                             129    0.5110  110  59 
 PAM  SN ES        642  5.03                             129    0.0910  110  59 
 PAM  SZ I         642  6.87         5.1 0.14            130            110  59 
 RUS  HZ EP        641 48.99                             127   -0.7610  116 153 
 RUS  HN ES   4    642  4.42                             127   -1.64 0  116 153 
 SPBC HZ EP        641 52.84                             120    0.90 9  143 204 
 SPBC HE ES        642  9.20                             120   -0.76 9  143 204 
 SPBC HZ I         642 14.81         4.3 0.26            121            143 204 
 OCA  HZ EP        641 53.03                             118   -0.63 9  158   9 
 OCA  HN ES        642 13.28                             118    0.25 9  158   9 
 OCA  HZ I         642 20.72         5.3 0.30            117            158   9 
 ZAR  HZ EP   4    641 55.62                             117    1.71 0  162 297 
 ZAR  HN ES   4    642 18.19                             117    4.73 0  162 297 
 ZAR  HZ I         642 20.30         7.7 0.54            116            162 297 
 CHI  HZ EP        642  4.35                             108    0.47 8  244 185 
 CHI  HN ES        642 31.78                             108    0.56 8  244 185 
 CHI  HZ I         642 37.10         1.2 0.30            108            244 185 
                                                                                
