 2017  710 0115 39.3 L   6.673 -73.120146.8  RSN  5 0.3 1.5LRSN                1
 GAP=185        0.71       6.2     3.5  5.9 -0.4665E+01  0.3902E+01 -0.2022E+01E
 Epicentro: VILLANUEVA - SANTANDER                                             3
 ACTION:UPD 17-08-30 15:31 OP:rebc STATUS:               ID:20170710011539 L   I
 OLDACT:REG 17-07-10 12:53 OP:dnl  STATUS:               ID:20170710010737     3
 2017-07-10-0108-00M.COL___380                                                 6
 STAT SP IPHASW D HRMM SECON CODA AMPLIT PERI AZIMU VELO AIN AR TRES W  DIS CAZ7
 BAR2 EZ EP        115 58.52                             175   -0.4010 11.3 218 
 BAR2 EZ ES        116 14.36                             175    0.1710 11.3 218 
 BAR2 EZ I         116 15.62         9.1 0.24            171           11.3 218 
 BRR  HZ EP        116  1.48                             149    0.2910 81.1 306 
 BRR  HN ES        116 18.44                             149    0.2110 81.1 306 
 BRR  HZ I         116 26.93         7.2 0.22            145           81.1 306 
 PAM  EZ EP        116  2.65                             148    0.3710 87.1  32 
 PAM  EE ES        116 19.80                             148   -0.3610 87.1  32 
 PAM  EZ I         116 21.94         4.7 0.48            147           87.1  32 
 PTB  HZ EP   2    116  6.59                             132    0.12 5  149 264 
 PTB  HN ES        116 27.43                             132   -0.19 9  149 264 
 PTB  HZ I         116 29.22         2.6 0.44            133            149 264 
 ZAR  HZ EP   2    116 12.32                             121   -0.39 4  212 295 
 ZAR  HN ES        116 38.64                             121   -0.10 8  212 295 
 ZAR  HZ I         116 44.42         3.4 0.34            122            212 295 
                                                                                
