 2016 1210 0554 36.9 L   6.787 -73.155143.8  RSN 17 0.4 2.4LRSN                1
 GAP= 71        0.99       3.3     2.9  5.1  0.2293E+00  0.4063E+01  0.4932E+01E
 Epicentro: LOS SANTOS - SANTANDER                                             3
 ACTION:UPD 17-01-11 20:13 OP:rebc STATUS:               ID:20161210055436 L   I
 OLDACT:DUP 16-12-10 15:59 OP:lv   STATUS:               ID:20161210054746d    3
 2016-12-10-0548-00M.COL___367                                                 6
 STAT SP IPHASW D HRMM SECON CODA AMPLIT PERI AZIMU VELO AIN AR TRES W  DIS CAZ7
 BAR2 EZ EP        554 56.23                             171    0.0010 21.7 188 
 BAR2 EZ ES        555 11.18                             171   -0.1510 21.7 188 
 BAR2 EZ I         555 12.32        76.6 0.38            169           21.7 188 
 BRR  HZ EP        554 58.25                             152    0.4610 71.0 300 
 BRR  HN ES        555 14.90                             152    0.7910 71.0 300 
 BRR  HZ I         555 19.35        41.9 0.18            150           71.0 300 
 PAM  EZ EP        554 59.20                             150    0.2210 79.2  39 
 PAM  EN ES        555 16.23                             150   -0.0010 79.2  39 
 PAM  EZ I         555 18.68        43.2 0.26            153           79.2  39 
 RUS  HZ EP        555  0.20                             144   -0.1210 99.2 175 
 RUS  HN ES        555 18.96                             144    0.3410 99.2 175 
 RUS  HZ I         555 19.91        27.3 0.23            145           99.2 175 
 PTB  HZ EP        555  3.00                             132   -0.55 9  146 259 
 PTB  HN ES        555 23.90                             132   -0.47 9  146 259 
 PTB  HZ I         555 30.32        31.4 0.26            130            146 259 
 TAM  HZ EP        555  4.64                             130    0.19 9  156 104 
 TAM  HE ES        555 25.08                             130   -0.89 9  156 104 
 TAM  HZ I         555 25.56        20.8 0.38            134            156 104 
 ZAR  HZ EP        555  8.98                             122   -0.16 9  204 293 
 ZAR  HE ES        555 33.51                             122   -0.80 9  204 293 
 ZAR  HZ I         555 39.43        38.8 0.32            122            204 293 
 CHI  HZ EP        555 14.55                             117    0.28 8  247 195 
 CHI  HN ES        555 43.72                             117    0.27 8  247 195 
 CHI  HZ I         555 47.58        22.2 0.46            118            247 195 
 ROSC BZ EP   4    555 17.02                             116    2.34 0  251 211 
 ROSC BN ES        555 43.90                             116   -0.28 8  251 211 
 ROSC BZ I         555 50.94        55.9 0.40            117            251 211 
 URE  HZ EP   4    555 16.65                             113   -1.14 0  283 292 
 URE  HN ES   4    555 47.22                             113   -2.49 0  283 292 
 URE  HZ I         555 59.04        16.0 0.17            113            283 292 
 GUY2CHZ EP        555 20.52                             112    0.33 7  299 235 
 GUY2CHE ES   4    555 58.83                             112    4.85 0  299 235 
 GUY2CHZ I         556  2.51        19.6 0.34                           299 235 
 PTGC HZ EP   4    555 19.40                             111   -1.12 0  308 158 
 PTGC HE ES   4    555 52.65                             111   -1.93 0  308 158 
 PTGC HZ I         555 56.58        10.7 0.27            113            308 158 
 LL6C HZ EP   9    555  1.48                             110   -21.2 0  326 358 
 LL6C HN ES        555 37.43                                    0.24 7  326 358 
 CBOC HZ EP        555 24.15                             110    0.62 7  332 252 
 CBOC HN ES        555 59.79                             110   -0.14 7  332 252 
 CBOC HZ I         556  6.12         4.0 0.34            110            332 252 
 PRA  HZ EP        555 30.27                             106    0.16 6  390 210 
 PRA  HN ES        556 11.67                             106    0.03 6  390 210 
 PRA  HZ I         556 18.34        16.9 0.31            107            390 210 
 PAL  HZ EP        555 31.83                             106    0.07 6  404 239 
 PAL  HN ES   4    556 12.03                             106   -2.55 0  404 239 
 PAL  HZ I         556 19.12         5.0 0.22            106            404 239 
 SJC  HZ EP   4    555 30.44                             105   -2.00 0  410 327 
 SJC  HN ES   4    556 11.66                             105   -4.12 0  410 327 
 SJC  HZ I         556 20.24         5.4 0.50            106            410 327 
                                                                                
