 2012  110 0421 52.1 L   6.800 -73.078147.9  RSN 18 0.4 3.4LRSN                1
 GAP=106        0.74       2.7     3.4  4.3 -0.1470E+01  0.2901E+00  0.2366E+01E
 Epicentro: LOS SANTOS - SANTANDER                                             3
 ACTION:UP  12-02-03 08:16 OP:REBC STATUS:               ID:20120110042152 L   I
 2012-01-10-0420-00M.COL___181                                                 6
 STAT SP IPHASW D HRMM SECON CODA AMPLIT PERI AZIMU VELO SNR AR TRES W  DIS CAZ7
 BAR2 SZ IP        422 12.07                             170     0.010   26 207 
 BAR2 SZ ES   1    422 27.05                             170    -0.5 7   26 207 
 BAR2 SZ I         422 30.74       898.3 0.61                            26 207 
 GIR2 SZ EP        422 12.09                             167     0.010   33 337 
 GIR2 SZ ES   2    422 27.66                             167     0.0 5   33 337 
 PAM  SZ IP        422 14.79                             152     0.510   73  35 
 PAM  SN ES   2    422 31.87                             152     0.3 5   73  35 
 BRR  HZ IP     D  422 13.93                             151     0.110   78 296 
 BRR  HN ES   1    422 31.25                             151     0.4 7   78 296 
 BRR  HZ I         422 37.23       307.8 0.17                            78 296 
 RUS  HZ IP        422 15.98                             144    -0.110  100 180 
 RUS  HN ES   1    422 34.39                             144    -0.3 7  100 180 
 RUS  HZ I         422 38.27       290.6 0.27                           100 180 
 PTB  HZ EP   2    422 19.14                             131    -0.8 5  155 259 
 PTB  HN ES   2    422 41.56                             131    -0.1 5  155 259 
 YOP  SZ EP        422 22.65                             127     0.7 9  176 156 
 YOP  SN ES   2    422 45.33                             127     0.0 4  176 156 
 YOP  SZ I         422 49.77       204.6 0.47                           176 156 
 ZAR  HZ EP   2    422 24.80                             122    -0.6 4  211 291 
 ZAR  HN ES   2    422 51.36                             122     0.0 4  211 291 
 ZAR  HZ I         422 58.75       301.0 0.46                           211 291 
 NOR  SZ EP        422 28.04                             118    -0.6 8  241 236 
 NOR  SN ES   2    422 57.71                             118     0.6 4  241 236 
 CHI  HZ EP        422 29.94                             117    -0.2 8  251 197 
 CHI  HN ES   1    422 59.88                             117     0.1 6  251 197 
 CHI  HZ I         423  5.59       130.4 0.46                           251 197 
 HEL  HZ EP   2    422 33.07                             115    -0.2 4  279 256 
 HEL  HN ES   2    423  5.45                             115     0.1 4  279 256 
 HEL  HZ I         423 14.15       130.8 0.43                           279 256 
 VIL  SZ EP   1    422 35.45                             112    -0.4 5  305 193 
 VIL  SN ES   1    423  9.68                             112    -0.2 5  305 193 
 VIL  SZ I         423 17.75        93.4 0.47                           305 193 
 GUY  SZ EP   1    422 37.35                             112     0.6 5  310 236 
 GUY  SN ES   2    423 11.82                             112     0.2 4  310 236 
 GUY  SZ I         423 21.30       331.4 0.42                           310 236 
 RREF HZ EP   2    422 38.93                             111    -0.1 3  328 230 
 RREF HZ I         423 23.53       143.9 0.22                           328 230 
 COD  HZ EP   2    422 39.94                             109    -0.7 3  349 353 
 COD  HN ES   2    423 18.35                             109    -0.2 3  349 353 
 COD  HZ I         423 24.45       109.2 0.56                           349 353 
 TOL  SZ EP   2    422 41.62                             109     0.6 3  349 226 
 SDV  BZ EP        422 41.34                             109    -0.2 6  355  49 
 SDV  BN ES   2    423 19.63                             109    -0.5 3  355  49 
 PRA  HZ EP        422 45.77                             107    -0.4 6  396 211 
 PRA  HN ES   2    423 28.85                             107     0.6 3  396 211 
                                                                                
