 2013  810 0330 33.6 L   6.805 -73.162139.4  RSN 19 0.5 2.4LRSN                1
 GAP=134        1.05       2.7     3.6  5.2 -0.1580E+01  0.7339E+01  0.2229E+01E
 Epicentro: LOS SANTOS - SANTANDER                                             3
 ACTION:UPD 14-01-14 09:00 OP:ep   STATUS:               ID:20130810033033 L   I
 OLDACT:REG 13-08-10 07:36 OP:carl STATUS:               ID:20130810032959     3
 2013-08-10-0329-59M.COL___271                                                 6
 STAT SP IPHASW D HRMM SECON CODA AMPLIT PERI AZIMU VELO AIN AR TRES W  DIS CAZ7
 BAR2 SZ IP     D  330 52.49                             170    0.0310 23.6 185 
 BAR2 SZ ES   1    331  6.98                             170   -0.20 7 23.6 185 
 BAR2 SZ I         331  8.21       108.2 0.20            170           23.6 185 
 GIR2 SZ EP        330 52.60                             167    0.1210 30.5 353 
 GIR2 SZ ES        331  7.12                             167   -0.1010 30.5 353 
 GIR2 SZ I         331  9.71        56.9 0.22            167           30.5 353 
 BRR  HZ IP     C  330 54.40                             152    0.4610 69.4 299 
 BRR  HN ES   1    331 11.17                             152    1.34 7 69.4 299 
 BRR  HZ I         331 12.87        53.3 0.14            151           69.4 299 
 PAM  SZ IP     D  330 55.38                             149    0.2010 78.1  41 
 PAM  SN ES        331 12.35                             149    0.3310 78.1  41 
 PAM  SZ I         331 14.63        54.0 0.50            152           78.1  41 
 RUS  HZ EP        330 56.48                             142   -0.2810  101 175 
 RUS  HN ES   1    331 14.51                             142   -0.33 7  101 175 
 RUS  HZ I         331 16.58        29.9 0.28            144            101 175 
 PTB  HZ EP        330 59.13                             131   -0.76 9  146 259 
 PTB  HN ES   1    331 20.02                             131   -0.38 7  146 259 
 PTB  HZ I         331 22.89        55.3 0.16            131            146 259 
 OCA  HZ EP   1    331  1.96                             128    0.62 7  160 354 
 OCA  HN ES        331 22.50                             128   -0.49 9  160 354 
 OCA  HZ I         331 30.35        39.3 0.50            130            160 354 
 SPBC HZ EP        331  1.43                             128   -0.10 9  162 218 
 SPBC HN ES        331 22.70                             128   -0.63 9  162 218 
 SPBC HZ I         331 25.26        30.8 0.22            129            162 218 
 ZAR  HZ EP        331  5.51                             121    0.08 9  202 292 
 ZAR  HN ES        331 30.44                             121    0.17 9  202 292 
 ZAR  HZ I         331 33.68        19.4 0.14            122            202 292 
 NOR  HZ EP   1    331  8.42                             117   -0.41 6  234 234 
 NOR  HE ES   1    331 36.79                             117    0.47 6  234 234 
 NOR  HZ I         331 38.32        23.8 0.14            118            234 234 
 SML  HZ EP        331  9.22                             116   -0.51 8  242 336 
 SML  HN ES   1    331 37.46                             116   -0.46 6  242 336 
 SML  HZ I         331 41.32        33.2 0.28            117            242 336 
 CHI  HZ EP        331 11.02                             116    0.08 8  249 195 
 CHI  HN ES   1    331 39.66                             116   -0.42 6  249 195 
 CHI  HZ I         331 45.82         7.6 0.26            117            249 195 
 HEL  HZ EP   1    331 14.68                             114    1.38 6  270 256 
 HEL  HN ES        331 44.13                             114   -0.15 8  270 256 
 HEL  HZ I         331 51.40        15.5 0.28            115            270 256 
 URE  HZ EP        331 13.36                             112   -0.78 7  282 292 
 URE  HE ES        331 45.21                             112   -0.57 7  282 292 
 GUY2CHZ EP        331 17.61                             111    0.84 7  300 234 
 GUY2CHN ES        331 50.38                             111   -0.08 7  300 234 
 GUY2CHZ I         331 57.79        18.1 0.24                           300 234 
 RREF HZ EP   1    331 19.89                             110    0.55 5  321 229 
 RREF HN ES   1    331 55.07                             110    0.04 5  321 229 
 RREF HZ I         332  1.53         9.5 0.22            111            321 229 
 CBOC HZ EP   1    331 21.07                             109    1.01 5  332 252 
 CBOC HN ES   1    331 57.04                             109    0.72 5  332 252 
 CBOC HZ I         332  1.56         5.5 0.34            110            332 252 
 PRA  HZ EP        331 27.17                             105    0.33 6  392 209 
 PRA  HN ES   1    332  8.34                             105   -0.04 4  392 209 
 PRA  HZ I         332 13.05         7.0 0.30            107            392 209 
 ORTC HN ES        332  9.17                             105    0.12 6  395 216 
                                                                                
