 2014 1010 0630 35.4 L   6.815 -73.158156.0  RSN 22 0.5 2.3LRSN                1
 GAP= 70        1.11       3.0     3.7  6.8 -0.7708E+00  0.9307E+01  0.3169E+01E
 Epicentro: LOS SANTOS - SANTANDER                                             3
 ACTION:UPD 14-11-29 23:48 OP:nd   STATUS:               ID:20141010063035 L   I
 OLDACT:DUP 14-10-10 18:44 OP:fm   STATUS:               ID:20141010062741d    3
 2014-10-10-0627-40M.COL___287                                                 6
 STAT SP IPHASW D HRMM SECON CODA AMPLIT PERI AZIMU VELO AIN AR TRES W  DIS CAZ7
 BAR2 SZ EP        630 56.50                             171    0.2410 24.8 186 
 BAR2 SZ ES   1    631 12.22                             171   -0.33 7 24.8 186 
 BAR2 SZ I         631 14.25        40.5 0.34            169           24.8 186 
 BRR  HZ EP        630 58.38                             155    0.8510 69.2 298 
 BRR  HN ES        631 15.46                             155    0.6510 69.2 298 
 BRR  HZ I         631 20.24        20.8 0.24            148           69.2 298 
 PAM  SZ EP        630 59.24                             152    0.5810 77.0  41 
 PAM  SN ES        631 16.30                             152   -0.5310 77.0  41 
 PAM  SZ I         631 17.10        14.9 0.32            154           77.0  41 
 RUS  HZ EP        631  0.42                             145    0.1610  102 175 
 RUS  HN ES        631 19.15                             145   -0.5210  102 175 
 RUS  HZ I         631 20.12        15.7 0.28            146            102 175 
 PTB  HZ EP        631  2.61                             134   -0.49 9  147 258 
 PTB  HN ES        631 24.32                             134   -0.41 9  147 258 
 PTB  HZ I         631 26.86        27.5 0.12            130            147 258 
 TAM  HN ES   1    631 25.95                             132   -0.43 7  157 105 
 OCA  HN ES        631 26.50                             132   -0.42 9  158 354 
 OCA  HZ I         631 33.54        23.2 0.22            130            158 354 
 SPBC HZ EP        631  5.49                             131    0.78 9  164 218 
 SPBC HN ES   1    631 27.33                             131   -0.27 7  164 218 
 SPBC HZ I         631 34.95        20.8 0.20            129            164 218 
 ZAR  HN ES        631 34.41                             124    0.40 9  202 292 
 ZAR  HZ I         631 40.61        30.3 0.32            121            202 292 
 SML  HZ EP   1    631 12.34                             119   -0.03 6  242 335 
 SML  HN ES        631 40.97                             119   -0.26 8  242 335 
 SML  HZ I         631 51.32        23.9 0.24            118            242 335 
 CHI  HZ EP   4    631 10.56                             119   -3.22 0  250 195 
 CHI  HN ES        631 43.72                             119   -0.03 8  250 195 
 CHI  HZ I         631 50.13         4.5 0.30            118            250 195 
 ROSC BZ EP   4    631 13.13                             118   -1.01 0  253 211 
 ROSC BE ES   1    631 45.10                             118    0.71 6  253 211 
 ROSC BZ I         631 54.17        18.2 0.45            117            253 211 
 URE  HZ EP   4    631 13.42                             115   -3.33 0  282 292 
 URE  HN ES   4    631 45.66                             115   -3.37 0  282 292 
 URE  HZ I         632  0.54        13.3 0.26            113            282 292 
 GUY2CHZ EP   4    631 21.37                             114    1.92 0  301 234 
 GUY2CHE ES        631 53.89                             114    0.05 7  301 234 
 GUY2CHZ I         632  5.24         9.6 0.52                           301 234 
 RREF HZ EP   4    631 20.05                             112   -1.93 0  322 229 
 RREF HE ES   4    631 55.51                             112   -2.82 0  322 229 
 RREF HZ I         632  2.52        10.8 0.40            111            322 229 
 CBOC HZ EP   4    631 23.94                             111    1.30 0  333 252 
 CBOC HE ES        631 59.14                             111   -0.37 7  333 252 
 CBOC HZ I         632  8.68         3.7 0.42            110            333 252 
 DBB  SZ EP   1    631 22.10                             111   -1.01 5  338 274 
 DBB  SZ ES   1    631 59.62                             111   -0.73 5  338 274 
 DBB  SZ I         632  4.98        20.0 0.30            109            338 274 
 TOL  SZ EP   4    631 26.09                             111    2.01 0  344 224 
 TOL  SE ES   4    632  2.58                             111    0.51 0  344 224 
 TOL  SZ I         632  8.42        19.0 0.52            110            344 224 
 MON  HZ EP   4    632  0.43                             110   35.88 0  352 308 
 MON  HE ES   4    632 13.90                             110   10.99 0  352 308 
 MON  HZ I         632 17.82         4.5 0.34            109            352 308 
 PRA  HN ES        632 11.58                             108    0.13 6  393 209 
 PRA  HZ I         632 20.10         5.3 0.36            107            393 209 
 PAL  HZ EP   1    631 30.42                             107   -0.43 4  405 239 
 PAL  HE ES        632 13.58                             107   -0.54 6  405 239 
 PAL  HZ I         632 18.89         3.6 0.32            106            405 239 
 SJC  HZ EP   4    631 29.61                             107   -1.43 0  407 327 
 SJC  HN ES   4    632 10.07                             107   -4.39 0  407 327 
 SJC  HZ I         632 16.86         3.0 0.40            106            407 327 
 CAP2 HN ES   4    632 26.06                             103   -8.94 0  506 294 
                                                                                
