 2016  310 0122 50.8 L   6.812 -73.154144.0  RSN 23 0.3 3.0LRSN 3.5WRSN        1
 SPEC AVERAGE  MO 14.3 ST0.381 OM  2.4 f0 1.28 R1.6576 AL 0.00 WI 30.0 MW  3.5 3
 SPEC SD       MO  0.1 ST0.730 OM  0.3 f00.697 R0.5346 AL      WI      MW  0.1 3
 GAP= 70        0.72       1.9     1.9  3.5 -0.5850E+00  0.2217E+01  0.8208E+00E
 Epicentro: LOS SANTOS - SANTANDER                                             3
 SPEC BAR2EH Z MO 14.2 ST  1.2 OM  2.3 f0 2.37 R0.8118 AL-0.00 WI 30.0 MW  3.4 3
 SPEC BAR2EH Z T 12323 K 0.000 GD  146 VS 5.20 DE 3.50 Q0750.0 QA 1.50 VS 3.50 3
 SPEC PAM EH Z MO 14.4 ST0.190 OM  2.5 f0 1.05 R1.8324 AL-0.00 WI 30.0 MW  3.6 3
 SPEC PAM EH Z T 12328 K 0.000 GD  163 VS 5.20 DE 3.50 Q0750.0 QA 1.50 VS 3.50 3
 SPEC RUS HH Z MO 14.5 ST0.168 OM  2.5 f00.982 R1.9593 AL-0.00 WI 30.0 MW  3.6 3
 SPEC RUS HH Z T 12331 K 0.000 GD  176 VS 5.20 DE 3.50 Q0750.0 QA 1.50 VS 3.50 3
 SPEC OCA HH Z MO 14.4 ST  1.5 OM  2.4 f0 2.05 R0.9385 AL-0.00 WI 30.0 MW  3.6 3
 SPEC OCA HH Z T 12339 K 0.000 GD  214 VS 5.20 DE 3.50 Q0750.0 QA 1.50 VS 3.50 3
 SPEC CHI HH Z MO 14.5 ST0.093 OM  2.3 f00.797 R2.4141 AL-0.00 WI 30.0 MW  3.6 3
 SPEC CHI HH Z T 12356 K 0.000 GD  288 VS 5.20 DE 3.50 Q0750.0 QA 1.50 VS 3.50 3
 SPEC HEL HH Z MO 14.3 ST0.127 OM  2.1 f0 1.01 R1.9050 AL-0.00 WI 30.0 MW  3.5 3
 SPEC HEL HH Z T 12360 K 0.000 GD  307 VS 5.20 DE 3.50 Q0750.0 QA 1.50 VS 3.50 3
 SPECGUY2CHH Z MO 14.4 ST0.126 OM  2.2 f00.908 R2.1189 AL-0.00 WI 30.0 MW  3.6 3
 SPECGUY2CHH Z T 124 7 K 0.000 GD  333 VS 5.20 DE 3.50 Q0750.0 QA 1.50 Q1 0.00 3
 SPEC PTGCHH Z MO 14.3 ST0.173 OM  2.1 f0 1.08 R1.7815 AL-0.00 WI 30.0 MW  3.5 3
 SPEC PTGCHH Z T 124 5 K 0.000 GD  341 VS 5.20 DE 3.50 Q0750.0 QA 1.50 VS 3.50 3
 SPEC CBOCHH Z MO 14.3 ST0.086 OM  2.0 f00.908 R2.1189 AL-0.00 WI 30.0 MW  3.5 3
 SPEC CBOCHH Z T 12413 K 0.000 GD  362 VS 5.20 DE 3.50 Q0750.0 QA 1.50 VS 3.50 3
 SPEC MON HH Z MO 14.2 ST0.192 OM  1.9 f0 1.26 R1.5270 AL-0.00 WI 30.0 MW  3.4 3
 SPEC MON HH Z T 12412 K 0.000 GD  380 VS 5.20 DE 3.50 Q0750.0 QA 1.50 VS 3.50 3
 SPEC ANILHH Z MO 14.4 ST0.472 OM  2.1 f0 1.45 R1.3269 AL-0.00 WI 30.0 MW  3.5 3
 SPEC ANILHH Z T 12419 K 0.000 GD  385 VS 5.20 DE 3.50 Q0750.0 QA 1.50 VS 3.50 3
 SPEC ORTCHH Z MO 14.3 ST0.179 OM  2.0 f0 1.10 R1.7491 AL-0.00 WI 30.0 MW  3.5 3
 SPEC ORTCHH Z T 12425 K 0.000 GD  421 VS 5.20 DE 3.50 Q0750.0 QA 1.50 VS 3.50 3
 SPEC SJC HH Z MO 14.1 ST0.174 OM  1.8 f0 1.26 R1.5270 AL-0.00 WI 30.0 MW  3.4 3
 SPEC SJC HH Z T 12424 K 0.000 GD  432 VS 5.20 DE 3.50 Q0750.0 QA 1.50 VS 3.50 3
 OLDACT:REG 16-03-10 12:51 OP:cara STATUS:               ID:20160310011747     3
 ACTION:UPD 16-05-13 21:22 OP:cam  STATUS:               ID:20160310012250 L   I
 OLDACT:UP  16-03-14 10:33 OP:Ak   STATUS:               ID:20160310012250 L   3
 OLDACT:UP  16-03-10 15:02 OP:cara STATUS:               ID:20160310011747     3
 2016-03-10-0117-47M.COL___286                                                 6
 STAT SP IPHASW D HRMM SECON CODA AMPLIT PERI AZIMU VELO AIN AR TRES W  DIS CAZ7
 BAR2 EZ IP     D  123 10.45                             170    0.1810 24.5 187 
 BAR2 EZ ES        123 25.42                             170   -0.0210 24.5 187 
 BAR2 EZ I         123 27.01       196.5 0.48            169           24.5 187 
 PAM  EZ EP     D  123 13.27                             151    0.4410 76.9  41 
 PAM  EN ES        123 30.20                             151    0.2110 76.9  41 
 PAM  EZ I         123 32.63       297.9 0.48            154           76.9  41 
 RUS  HZ EP        123 14.42                             143   -0.0910  102 176 
 RUS  HN ES        123 32.90                             143   -0.0810  102 176 
 RUS  HZ I         123 34.32       179.0 0.30            144            102 176 
 PTB  HZ EP        123 16.94                             132   -0.66 9  147 258 
 PTB  HN ES        123 38.18                             132   -0.30 9  147 258 
 PTB  HZ I         123 40.66        81.5 0.40            131            147 258 
 TAM  HZ IP     D  123 18.81                             130    0.33 9  156 105 
 TAM  HN ES        123 39.68                             130   -0.37 9  156 105 
 OCA  HZ EP        123 18.67                             129   -0.20 9  159 353 
 OCA  HN ES        123 40.54                             129   -0.20 9  159 353 
 OCA  HZ I         123 45.25       232.5 0.46            131            159 353 
 SPBC HZ EP        123 19.30                             129    0.06 9  164 218 
 SPBC HN ES        123 41.74                             129    0.34 9  164 218 
 SPBC HZ I         123 43.21       190.2 0.18            129            164 218 
 ZAR  HZ EP        123 22.98                             122   -0.05 9  203 292 
 ZAR  HN ES        123 48.52                             122    0.38 9  203 292 
 ZAR  HZ I         123 54.16        64.3 0.34            122            203 292 
 NOR  HZ EP        123 26.39                             118   -0.07 8  235 234 
 NOR  HN ES        123 53.71                             118   -0.55 8  235 234 
 NOR  HZ I         124  0.09       101.5 0.16            118            235 234 
 CHI  HZ EP        123 28.32                             117   -0.23 8  250 195 
 CHI  HN ES        123 57.86                             117   -0.10 8  250 195 
 CHI  HZ I         124  7.89        53.7 0.42            117            250 195 
 HEL  HZ EP   4    123 31.90                             114    1.00 0  272 255 
 HEL  HE ES        124  1.69                             114   -0.45 8  272 255 
 HEL  HZ I         124  9.29        51.3 0.36            115            272 255 
 GUY2CHZ EP        123 34.52                             112    0.16 7  301 234 
 GUY2CHE ES        124  8.67                             112    0.35 7  301 234 
 GUY2CHZ I         124 16.61        59.1 0.32                           301 234 
 VIL  SZ EP        123 34.12                             112   -0.18 7  304 191 
 VIL  SN ES        124  8.59                             112    0.39 7  304 191 
 PTGC HZ EP   4    123 33.41                             111   -1.38 0  310 159 
 PTGC HN ES   4    124  6.87                             111   -2.20 0  310 159 
 PTGC HZ I         124 11.81        62.9 0.32            112            310 159 
 CBOC HZ EP        123 37.88                             110    0.26 7  333 252 
 CBOC HE ES        124 15.02                             110    0.90 7  333 252 
 CBOC HZ I         124 18.48        15.0 0.44            110            333 252 
 DBB  SZ IP        123 38.01                             109   -0.11 7  338 274 
 DBB  SZ ES   4    124 13.35                             109   -1.66 0  338 274 
 DBB  SZ I         124 18.11       129.9 0.72            110            338 274 
 MON  HZ EP   4    123 37.38                             108   -2.21 0  352 308 
 MON  HN ES   4    124 14.05                             108   -3.57 0  352 308 
 MON  HZ I         124 17.90        17.9 0.22            109            352 308 
 ANIL HZ EP   9    123 41.84                             108    1.23 0  358 224 
 ANIL HE ES        124 20.85                                    0.19 6  358 224 
 ANIL HZ I         124 29.72        93.3 0.32            109            358 224 
 ORTC HZ EP        123 44.64                             106   -0.12 6  396 216 
 ORTC HN ES        124 26.75                             106   -0.06 6  396 216 
 ORTC HZ I         124 34.28        33.3 0.48            107            396 216 
 PAL  HZ EP     C  123 46.09                             106    0.17 6  406 239 
 PAL  HE ES        124 29.02                             106    0.13 6  406 239 
 PAL  HZ I         124 32.08        16.8 0.20            106            406 239 
 SJC  HZ EP   4    123 44.68                             105   -1.47 0  408 327 
 SJC  HN ES   4    124 26.04                             105   -3.26 0  408 327 
 SJC  HZ I         124 30.24        17.6 0.56            106            408 327 
 CRJC HZ EP   4    123 50.76                             103   -2.37 0  466   4 
 CRJC HE ES   4    124 38.43                             103   -3.30 0  466   4 
 CRJC HZ I         124 44.11        19.1 0.14            104            466   4 
 MACC HZ IP   4    123 57.51                             101   -2.13 0  522 189 
 MACC HZ I         123 57.93        29.0 0.44            102            522 189 
 MACC HE ES   4    124 49.70                             101   -3.61 0  522 189 
                                                                                
