 2011  410 0056  6.8 L   6.734 -73.102144.9  RSN  7 0.3 1.7LRSN                1
 GAP=163        0.68       4.3     7.0  6.2 -0.1157E+02 -0.2096E+01  0.1848E+01E
 Epicentro: JORDAN - SANTANDER                                                 3
 ACTION:UP  11-06-22 15:30 OP:REBC STATUS:               ID:20110410005606 L   I
 2011-04-10-0054-29S.COL___138                                                 6
 STAT SP IPHASW D HRMM SECON CODA AMPLIT PERI AZIMU VELO SNR AR TRES W  DIS CAZ7
 BAR2 SZ EP   1    056 26.09                             173    -0.1 7   18 210 
 BAR2 SZ ES   1    056 41.45                             173     0.1 7   18 210 
 BAR2 SZ I         056 43.93        10.8 0.30                            18 210 
 GIR2 SZ EP   2    056 26.94                             164     0.3 5   39 345 
 BRR  HZ EP   1    056 28.13                             150    -0.2 7   79 301 
 BRR  HZ I         056 29.66        12.3 0.13                            79 301 
 BRR  HN ES   1    056 45.27                             150     0.2 7   79 301 
 PAM  SZ EP   1    056 28.98                             150    -0.1 7   80  34 
 PAM  SN ES   1    056 46.11                             150    -0.4 7   80  34 
 GRA  SZ EP   1    056 32.94                             135     0.5 7  131  14 
 GRA  SZ ES   1    056 52.94                             135     0.5 7  131  14 
 GRA  SZ I         056 55.13         5.0 0.36                           131  14 
 OCA  SZ EP   1    056 35.63                             128    -0.2 7  168 352 
 OCA  SZ ES   2    056 57.65                             128    -0.8 5  168 352 
 OCA  SZ I         057  1.85         8.2 0.00                           168 352 
 CHI  HZ EP   2    056 43.76                             117    -0.1 4  243 197 
 CHI  HZ I         056 46.58         1.8 0.14                           243 197 
 CHI  HN ES   2    057 12.89                             117     0.2 4  243 197 
                                                                                
