 2012 1010 0940 29.1 L   6.810 -73.081149.4  RSN 10 0.4 1.9LRSN                1
 GAP=144        0.77       3.7     4.6  5.6 -0.1322E+01  0.8162E+01  0.6864E+01E
 Epicentro: LOS SANTOS - SANTANDER                                             3
 ACTION:UPD 12-11-22 17:02 OP:ep   STATUS:               ID:20121010094029 L   I
 2012-10-10-0940-00M.COL___226                                                 6
 STAT SP IPHASW D HRMM SECON CODA AMPLIT PERI AZIMU VELO AIN AR TRES W  DIS CAZ7
 BAR2 SZ EP        940 49.05                             169   -0.1910 26.6 205 
 BAR2 SZ I         940 49.24        22.0 0.20                          26.6 205 
 BAR2 SZ ES   1    941  4.49                             169   -0.46 7 26.6 205 
 GIR2 SZ EP   1    940 49.39                             167    0.16 7 32.1 337 
 GIR2 SZ ES   1    941  5.08                             167    0.15 7 32.1 337 
 PAM  SZ EP   1    940 51.92                             153    0.52 7 72.1  36 
 PAM  SZ I         940 52.09         7.3 0.18                          72.1  36 
 PAM  SN ES   1    941  9.14                             153    0.34 7 72.1  36 
 PAM  SN I         941 10.28         8.6 0.16                          72.1  36 
 BRR  HZ EP   1    940 51.00                             151    0.03 7 77.0 295 
 BRR  HZ I         940 51.21        30.1 0.14                          77.0 295 
 BRR  HE ES   1    941  8.39                             151    0.35 7 77.0 295 
 RUS  HZ EP   1    940 52.92                             144   -0.35 7  102 180 
 RUS  HZ I         940 54.03         5.5 0.16                           102 180 
 RUS  HN ES   1    941 11.65                             144   -0.48 7  102 180 
 RUS  HN I         941 13.70        10.3 0.22                           102 180 
 ZAR  HZ EP   1    941  1.74                             122   -0.68 6  210 291 
 ZAR  HN ES   1    941 27.92                             122   -0.49 6  210 291 
 ZAR  HZ I         941 33.54        16.4 0.34                           210 291 
 NOR  SN ES   1    941 34.37                             118    0.06 6  241 235 
 CHI  HZ EP   1    941  6.90                             117   -0.43 6  252 197 
 CHI  HN ES   1    941 37.90                             117    0.75 6  252 197 
 CHI  HN I         941 41.24         7.2 0.30                           252 197 
 RREF HZ EP   1    941 16.38                             111    0.28 5  328 230 
 RREF HN ES   1    941 53.67                             111    0.91 5  328 230 
 RREF HZ I         941 57.55         5.9 0.24                           328 230 
 PRA  HZ EP   1    941 23.59                             107    0.32 4  397 210 
 PRA  HN ES   1    942  5.61                             107    0.07 4  397 210 
                                                                                
