 2012 1010 0927 48.7 L   6.772 -73.138144.0  RSN  6 0.3 1.7LRSN                1
 GAP=139        0.55       3.6     4.0  4.8  0.3430E+01  0.5056E+01  0.1011E+01E
 Epicentro: LOS SANTOS - SANTANDER                                             3
 ACTION:UPD 12-11-22 17:02 OP:ep   STATUS:               ID:20121010092748 L   I
 2012-10-10-0920-00M.COL___226                                                 6
 STAT SP IPHASW D HRMM SECON CODA AMPLIT PERI AZIMU VELO AIN AR TRES W  DIS CAZ7
 BAR2 SZ EP   1    928  8.03                             171   -0.04 7 20.5 194 
 BAR2 SZ ES   1    928 22.93                             171   -0.25 7 20.5 194 
 BAR2 SZ I         928 24.26        12.1 0.10                          20.5 194 
 GIR2 SZ ES   1    928 23.45                             166   -0.07 7 34.5 350 
 BRR  HZ EP   1    928  9.82                             151    0.03 7 73.5 300 
 BRR  HZ I         928 10.10         9.1 0.15                          73.5 300 
 BRR  HE ES   1    928 26.84                             151    0.59 7 73.5 300 
 PAM  SZ EP   1    928 10.96                             150    0.11 7 79.3  38 
 PAM  SZ I         928 11.15        13.3 0.20                          79.3  38 
 PAM  SE ES   1    928 27.97                             150   -0.15 7 79.3  38 
 RUS  HZ EP   1    928 12.04                             144   -0.02 7 97.4 176 
 RUS  HN ES   1    928 30.34                             144    0.07 7 97.4 176 
 RUS  HZ I         928 32.23         3.8 0.28                          97.4 176 
 ZAR  HZ EP   1    928 21.41                             122    0.17 6  206 293 
 ZAR  HE ES   1    928 46.07                             122   -0.55 6  206 293 
 ZAR  HZ I         928 52.64         4.1 0.33                           206 293 
                                                                                
