 2013  110 0013 26.8 L   6.789 -73.137139.7  RSN  6 0.4 1.9LRSN                1
 GAP=238        1.07       5.9     7.6  7.1  0.2793E+02  0.1412E+02  0.8373E+01E
 Epicentro: LOS SANTOS - SANTANDER                                             3
 ACTION:UPD 13-02-15 09:13 OP:ep   STATUS:               ID:20130110001326 L   I
 2013-01-10-0010-00M.COL___242                                                 6
 STAT SP IPHASW D HRMM SECON CODA AMPLIT PERI AZIMU VELO AIN AR TRES W  DIS CAZ7
 BAR2 SZ ES        013 59.63                             171   -0.7310 22.3 193 
 BAR2 SZ I         014  2.68         9.3 0.26            164           22.3 193 
 BRR  HZ EP        013 47.38                             151    0.0410 72.6 299 
 BRR  HN ES        014  4.29                             151    0.9010 72.6 299 
 BRR  HN I         014  7.76        33.2 0.18            148           72.6 299 
 RUS  HZ EP        013 49.77                             143   -0.0510 99.3 177 
 RUS  HN ES        014  7.99                             143    0.1810 99.3 177 
 RUS  HN I         014  9.32         5.5 0.20            142           99.3 177 
 PTB  HZ EP        013 53.46                             130    0.15 9  148 259 
 PTB  HN ES        014 13.65                             130   -0.36 9  148 259 
 PTB  HN I         014 18.48        12.6 0.54            129            148 259 
 ZAR  HZ EP        013 58.48                             121   -0.48 8  205 292 
 ZAR  HN ES        014 23.99                             121   -0.08 8  205 292 
 ZAR  HN I         014 28.30        16.6 0.76            121            205 292 
 CHI  HZ EP        014  4.32                             116    0.29 8  248 195 
 CHI  HN ES        014 33.21                             116    0.11 8  248 195 
 CHI  HN I         014 40.76         5.7 0.32            116            248 195 
                                                                                
