 2012  310 0905  5.9 L   6.771 -73.150142.0  RSN 14 0.5 3.1LRSN                1
 GAP=114        1.22       4.4     4.7  6.9  0.1689E+01  0.7823E+01  0.4864E+01E
 ACTION:UP  12-03-31 23:18 OP:EP   STATUS:               ID:20120310090505 L   I
 2012-03-10-0900-00M.COL___193                                                 6
 STAT SP IPHASW D HRMM SECON CODA AMPLIT PERI AZIMU VELO SNR AR TRES W  DIS CAZ7
 BAR2 SZ EP        9 5 25.15                             172     0.110   20 190 
 BAR2 SZ ES   1    9 5 39.55                             172    -0.4 7   20 190 
 BAR2 SZ I         9 5 41.92       306.4 0.20                            20 190 
 BRR  HZ EP        9 5 27.05                             152     0.310   72 301 
 BRR  HZ I         9 5 27.34       292.3 0.12                            72 301 
 BRR  HE ES        9 5 44.06                             152     1.110   72 301 
 PAM  SZ EP        9 5 27.94                             149     0.110   80  38 
 PAM  SN ES   1    9 5 44.55                             149    -0.5 7   80  38 
 PAM  SZ I         9 5 47.27       104.6 0.31                            80  38 
 RUS  HZ EP        9 5 29.02                             144     0.010   97 176 
 RUS  HN ES        9 5 46.91                             144    -0.210   97 176 
 RUS  HZ I         9 5 49.53       168.6 0.22                            97 176 
 PTB  HZ EP   1    9 5 31.61                             132    -0.8 7  147 260 
 PTB  HN ES   1    9 5 52.63                             132    -0.5 7  147 260 
 PTB  HZ I         9 5 57.87        99.7 0.00                           147 260 
 OCA  SZ EP        9 5 33.77                             128    -0.4 9  163 353 
 YOP  SZ EP        9 5 35.62                             126     0.2 9  176 153 
 YOP  SN ES   1    9 5 58.56                             126     0.1 7  176 153 
 YOP  SZ I         9 6  2.93        63.1 0.25                           176 153 
 ZAR  HZ EP   1    9 5 37.86                             122    -0.3 6  205 293 
 ZAR  HN ES   1    9 6  2.64                             122    -0.7 6  205 293 
 ZAR  HZ I         9 6  8.85       218.1 0.35                           205 293 
 NOR  SZ EP        9 5 40.75                             118    -0.4 8  232 235 
 NOR  SN ES   1    9 6  9.25                             118     0.6 6  232 235 
 CHI  HZ EP   1    9 5 43.02                             117     0.0 6  245 195 
 CHI  HN ES   1    9 6 11.73                             117    -0.3 6  245 195 
 CHI  HZ I         9 6 18.56        68.8 0.47                           245 195 
 HEL  HZ EP   1    9 5 46.50                             114     0.7 6  271 256 
 HEL  HN ES   1    9 6 16.29                             114    -0.6 6  271 256 
 HEL  HZ I         9 6 23.62        72.5 0.26                           271 256 
 GUY  SZ EP        9 5 50.10                             112     0.8 7  301 236 
 RREF HZ EP   1    9 5 51.92                             110     0.3 5  319 230 
 RREF HZ I         9 6 36.77        94.5 0.33                           319 230 
 PAL  HZ EP   1    9 6  0.30                             105    -0.4 4  404 239 
 PAL  HE ES   1    9 6 43.15                             105    -0.3 4  404 239 
                                                                                
