 2016  910 0629 25.1 L   6.790 -73.135142.4  RSN  9 0.3 1.7LRSN                1
 GAP=138        0.80       2.6     3.2  4.6 -0.1614E+01  0.4251E+01 -0.1723E+00E
 Epicentro: LOS SANTOS - SANTANDER                                             3
 ACTION:UPD 17-08-17 21:08 OP:lp   STATUS:               ID:20160910062925 L   I
 OLDACT:REG 16-09-10 13:51 OP:cara STATUS:               ID:20160910062729     3
 2016-09-10-0628-00M.COL___333                                                 6
 STAT SP IPHASW D HRMM SECON CODA AMPLIT PERI AZIMU VELO AIN AR TRES W  DIS CAZ7
 BAR2 EZ IP        629 44.16                             171   -0.1810 22.5 193 
 BAR2 HN ES        629 59.19                             171   -0.1310 22.5 193 
 BAR2 EZ I         629 59.96        13.1 0.22            172           22.5 193 
 BRR  HZ IP        629 46.23                             151    0.2310 72.8 299 
 BRR  HN ES        630  2.47                             151    0.1810 72.8 299 
 BRR  HZ I         630  9.59         6.8 0.30            150           72.8 299 
 PAM  EZ EP        629 47.20                             150    0.2110 77.5  38 
 PAM  EE ES        630  4.34                             150    0.2910 77.5  38 
 PAM  EZ I         630  6.42         9.0 0.50            153           77.5  38 
 RUS  HZ EP        629 48.61                             143    0.1510 99.4 177 
 RUS  HN ES        630  6.41                             143   -0.2610 99.4 177 
 RUS  HZ I         630  7.48         4.6 0.24            148           99.4 177 
 PTB  HZ EP        629 51.26                             131   -0.65 9  149 259 
 PTB  HE ES        630 12.31                             131   -0.49 9  149 259 
 PTB  HZ I         630 13.52         4.3 0.32            132            149 259 
 OCA  HZ EP        629 53.14                             129   -0.15 9  161 353 
 OCA  HE ES        630 15.06                             129   -0.20 9  161 353 
 OCA  HZ I         630 17.68        12.4 0.20            130            161 353 
 SPBC HZ EP        629 53.39                             128    0.03 9  163 220 
 SPBC HE ES        630 15.62                             128    0.24 9  163 220 
 SPBC HZ I         630 17.62         8.2 0.24            131            163 220 
 ZAR  HZ EP        629 57.75                             121    0.24 8  206 292 
 ZAR  HN ES        630 22.86                             121    0.09 8  206 292 
 ZAR  HZ I         630 28.94         8.2 0.32            123            206 292 
 GUY2CHZ EP        630  8.38                             112   -0.24 7  302 235 
 GUY2CHE ES        630 43.43                             112    0.89 7  302 235 
 GUY2CHZ I         630 50.58         2.1 0.32                           302 235 
                                                                                
