 2017  210 0353  7.1 L   7.369 -73.187133.5  RSN  5 0.2 1.0LRSN                1
 GAP=210        0.64       4.1     3.3  4.8 -0.2272E+01  0.2713E+01  0.1361E+01E
 Epicentro: EL PLAYON - SANTANDER                                              3
 ACTION:UPD 17-05-24 15:34 OP:jn   STATUS:               ID:20170210035307 L   I
 OLDACT:UP  17-02-10 16:10 OP:edw  STATUS:               ID:20170210033918     3
 OLDACT:REG 17-02-10 12:01 OP:edw  STATUS:               ID:20170210033918     3
 2017-02-10-0348-00M.COL___364                                                 6
 STAT SP IPHASW D HRMM SECON CODA AMPLIT PERI AZIMU VELO AIN AR TRES W  DIS CAZ7
 PAM  EZ EP        353 27.06                             157    0.3310 53.9  93 
 PAM  EN ES        353 41.68                             157   -0.3410 53.9  93 
 PAM  EZ I         353 42.08         2.9 0.20            160           53.9  93 
 BRR  HZ EP        353 26.47                             152   -0.1110 64.8 244 
 BRR  HN ES        353 41.76                             152    0.0110 64.8 244 
 BAR2 EZ EP        353 28.27                             145    0.0210 85.9 180 
 BAR2 EZ ES        353 45.18                             145    0.4510 85.9 180 
 BAR2 EZ I         353 45.94         1.8 0.52            145           85.9 180 
 RUS  HZ EP        353 35.25                             126   -0.03 9  164 176 
 RUS  HN ES        353 56.96                             126   -0.29 9  164 176 
 PTB  HZ EP        353 35.00                             125   -0.04 9  168 237 
 PTB  HN ES        353 56.75                             125   -0.07 9  168 237 
 PTB  HZ I         354  0.76         1.1 0.20            125            168 237 
                                                                                
