 2012  110 0033 41.2 L   6.823 -73.126150.1  RSN  7 0.4 1.6LRSN                1
 GAP=138        0.82       6.1     6.7  8.8  0.4770E+00  0.9569E+01  0.1297E+02E
 Epicentro: LOS SANTOS - SANTANDER                                             3
 ACTION:UP  12-02-03 08:16 OP:REBC STATUS:               ID:20120110003341 L   I
 2012-01-10-0030-00M.COL___186                                                 6
 STAT SP IPHASW D HRMM SECON CODA AMPLIT PERI AZIMU VELO SNR AR TRES W  DIS CAZ7
 GIR2 SZ EP   1    034  1.38                             168     0.0 7   29 345 
 GIR2 SZ ES   2    034 16.33                             168    -0.7 5   29 345 
 BRR  HZ EP   1    034  3.26                             153     0.4 7   72 296 
 BRR  HN ES   1    034 20.26                             153     0.5 7   72 296 
 BRR  HZ I         034 23.09         8.3 0.13                            72 296 
 PAM  SZ EP   1    034  4.23                             153     0.5 7   74  39 
 PAM  SN ES   1    034 21.08                             153    -0.2 7   74  39 
 RUS  HZ EP   1    034  5.52                             144     0.0 7  103 177 
 RUS  HE ES   2    034 24.35                             144    -0.2 5  103 177 
 RUS  HZ I         034 26.07         3.2 0.23                           103 177 
 PTB  HZ EP   1    034  8.16                             132    -0.6 7  150 258 
 OCA  SZ EP   2    034  9.36                             131    -0.3 5  158 352 
 OCA  SZ ES   2    034 31.26                             131    -0.6 5  158 352 
 OCA  SZ I         034 35.72         5.0 0.25                           158 352 
 ZAR  HN ES   2    034 39.67                             123     0.0 4  205 291 
 ZAR  HZ I         034 48.53         3.6 0.25                           205 291 
                                                                                
