 2013  410 0724 25.5 L   6.796 -73.123140.7  RSN 13 0.5 2.3LRSN                1
 GAP=128        1.16       3.7     4.7  6.2 -0.6192E+01 -0.1156E+01  0.4807E+01E
 Epicentro: LOS SANTOS - SANTANDER                                             3
 ACTION:UPD 13-05-22 14:37 OP:EP   STATUS:               ID:20130410072425 L   I
 2013-04-10-0718-38M.COL___215                                                 6
 STAT SP IPHASW D HRMM SECON CODA AMPLIT PERI AZIMU VELO AIN AR TRES W  DIS CAZ7
 BAR2 SZ EP        724 44.70                             170    0.2210 23.4 196 
 BAR2 SZ I         725  0.59        37.9 0.28            164           23.4 196 
 GIR2 SZ EP        724 44.79                             167    0.2410 32.2 346 
 GIR2 SZ ES        724 59.41                             167   -0.0410 32.2 346 
 BRR  HZ EP        724 46.49                             151    0.2910 73.6 298 
 BRR  HN ES        725  3.02                             151    0.6410 73.6 298 
 BRR  HN I         725  4.02        49.4 0.30            153           73.6 298 
 RUS  HZ EP        724 48.75                             143    0.0810100.0 177 
 RUS  HE ES        725  6.73                             143   -0.0410100.0 177 
 CAPV BZ EP        724 52.65                             131    0.31 9  148  37 
 PTB  HZ EP        724 51.29                             130   -0.94 9  150 259 
 PTB  HN ES        725 12.26                             130   -0.85 9  150 259 
 PTB  HE I         725 18.03        23.0 0.34            128            150 259 
 OCA  HZ EP        724 53.79                             128    0.34 9  161 352 
 OCA  HN ES        725 14.57                             128   -0.71 9  161 352 
 OCA  HN I         725 19.48        54.7 0.34            127            161 352 
 NOR  HZ EP        725  0.98                             117   -0.10 8  236 235 
 NOR  HN ES        725 29.11                             117    0.24 8  236 235 
 NOR  HN I         725 34.86        21.0 0.16            114            236 235 
 CHI  HZ EP        725  3.02                             116    0.12 8  249 196 
 CHI  HN I         725 39.31        11.6 0.24            112            249 196 
 ROSC BZ ES        725 32.44                             116   -0.56 8  254 212 
 HEL  HZ EP        725  6.62                             114    0.95 8  274 256 
 HEL  HN ES        725 37.32                             114    0.29 8  274 256 
 HEL  HN I         725 42.60         6.2 0.32            111            274 256 
 SDV  BZ EP        725 14.22                             107   -0.90 6  359  50 
 PRA  HZ EP        725 18.80                             106   -0.10 6  393 210 
 PRA  HN ES        726  0.72                             106    0.13 6  393 210 
 PRA  HE I         726  4.54         6.0 0.48            103            393 210 
                                                                                
