 2015  310 0757  9.1 L   6.819 -73.182144.0  RSN 18 0.4 2.4LRSN                1
 GAP=131        1.00       2.4     3.4  4.8 -0.1248E+01  0.5577E+01  0.1594E+01E
 Epicentro: ZAPATOCA - SANTANDER                                               3
 ACTION:UPD 15-04-30 16:24 OP:nd   STATUS:               ID:20150310075709 L   I
 OLDACT:UP  15-03-10 17:29 OP:cam  STATUS:               ID:20150310074749     3
 OLDACT:REG 15-03-10 16:47 OP:cam  STATUS:               ID:20150310074749     3
 2015-03-10-0747-49M.COL___278                                                 6
 STAT SP IPHASW D HRMM SECON CODA AMPLIT PERI AZIMU VELO AIN AR TRES W  DIS CAZ7
 BAR2 EZ EP     C  757 28.54                             170   -0.0110 25.1 180 
 BAR2 EZ ES        757 42.98                             170   -0.7410 25.1 180 
 BAR2 EZ I         757 46.07        35.9 0.70            167           25.1 180 
 BRR  HZ EP     C  757 30.22                             154    0.4210 66.6 299 
 BRR  HN ES        757 46.98                             154    1.0310 66.6 299 
 BRR  HZ I         757 52.14        27.4 0.14            151           66.6 299 
 PAM  SZ EP        757 31.49                             150    0.3010 78.5  43 
 PAM  SN ES        757 48.54                             150    0.1210 78.5  43 
 PAM  SZ I         757 50.37        51.8 0.42            151           78.5  43 
 RUS  HZ EP        757 32.77                             143   -0.0810  103 174 
 RUS  HN ES        757 51.61                             143    0.2310  103 174 
 RUS  HZ I         757 52.03        33.1 0.32            140            103 174 
 PTB  HZ EP        757 34.96                             132   -0.64 9  144 258 
 PTB  HN ES        757 56.02                             132   -0.25 9  144 258 
 PTB  HZ I         757 57.86        22.7 0.12            129            144 258 
 OCA  HZ EP   1    757 36.65                             130   -0.39 7  158 355 
 OCA  HN ES        757 58.49                             130   -0.33 9  158 355 
 OCA  HZ I         758  3.27        21.0 0.68            128            158 355 
 SPBC HZ EP        757 37.33                             129   -0.05 9  162 217 
 SPBC HN ES        757 59.20                             129   -0.24 9  162 217 
 SPBC HZ I         758  6.32        48.1 0.22            125            162 217 
 ZAR  HZ EP        757 40.81                             123   -0.15 9  200 292 
 ZAR  HN ES        758  5.94                             123    0.13 9  200 292 
 ZAR  HZ I         758 16.65        20.0 0.54            120            200 292 
 SML  HZ EP        757 44.91                             117   -0.33 8  240 336 
 SML  HE ES        758 13.14                             117   -0.29 8  240 336 
 SML  HZ I         758 16.60        40.0 0.26            116            240 336 
 CHI  HZ EP        757 46.58                             117   -0.23 8  250 194 
 CHI  HN ES        758 16.11                             117   -0.11 8  250 194 
 CHI  HZ I         758 19.51        11.9 0.48            114            250 194 
 ROSC BZ EP   1    757 48.08                             116    0.99 6  252 210 
 ROSC BN I         758 27.33        49.0 0.45            114            252 210 
 HEL  HZ EP        757 49.53                             115    0.68 8  269 255 
 HEL  HN ES        758 19.93                             115    0.08 8  269 255 
 HEL  HZ I         758 25.78        10.5 0.40            112            269 255 
 GUY2CHZ EP   4    757 54.08                             112    1.69 0  299 234 
 GUY2CHN ES        758 25.51                             112   -0.65 7  299 234 
 GUY2CHZ I         758 38.38        11.5 0.44                           299 234 
 CBOC HZ EP        757 56.29                             110    0.72 7  330 252 
 CBOC HN ES        758 31.24                             110   -0.58 7  330 252 
 CBOC HN I         758 35.71         9.0 0.20            108            330 252 
 TOL  SZ EP   4    757 58.47                             109    1.34 0  342 224 
 TOL  SN ES        758 35.23                             109    0.64 7  342 224 
 TOL  SZ I         758 41.82        10.5 0.50            107            342 224 
 PRA  HZ EP        758  2.26                             106   -0.28 6  392 209 
 PRA  HN ES        758 44.15                             106   -0.07 6  392 209 
 PRA  HZ I         758 51.82         7.6 0.54            104            392 209 
 ORTC HZ EP        758  3.08                             106    0.20 6  395 216 
 ORTC HN ES   4    758 46.19                             106    1.36 0  395 216 
 ORTC HZ I         758 52.51         5.7 0.24            104            395 216 
 PAL  HZ EP        758  4.11                             106    0.19 6  403 239 
 PAL  HN ES        758 46.91                             106    0.23 6  403 239 
 PAL  HZ I         758 52.10         4.5 0.38            104            403 239 
                                                                                
