 2017  310 0421 49.2 L   6.735 -73.131144.0  RSN  5 0.5 1.1LRSN                1
 GAP=141        0.88       6.4     7.7  8.4  0.1761E+02 -0.1613E+02 -0.1926E+02E
 Epicentro: JORDAN - SANTANDER                                                 3
 ACTION:UPD 17-05-25 18:38 OP:jn   STATUS:               ID:20170310042149 L   I
 OLDACT:DUP 17-03-10 16:23 OP:ar   STATUS:               ID:20170310041741d    3
 OLDACT:UP  17-03-10 16:21 OP:ar   STATUS:               ID:20170310041740     3
 OLDACT:UP  17-03-10 16:21 OP:ar   STATUS:               ID:20170310041740     3
 OLDACT:REG 17-03-10 12:21 OP:ar   STATUS:               ID:20170310041740     3
 2017-03-10-0418-00M.COL___403                                                 6
 STAT SP IPHASW D HRMM SECON CODA AMPLIT PERI AZIMU VELO AIN AR TRES W  DIS CAZ7
 BAR2 EZ EP        422  8.28                             173   -0.2710 16.8 200 
 BAR2 EZ ES        422 23.35                             173   -0.2510 16.8 200 
 BAR2 EZ I         422 24.09         3.7 0.16            169           16.8 200 
 BRR  HZ EP        422 10.30                             151   -0.2010 76.3 303 
 BRR  HE ES        422 27.54                             151    0.4610 76.3 303 
 PAM  EZ EP        422 11.56                             149   -0.0010 82.1  35 
 RUS  HZ EP   2    422 13.57                             146    1.26 5 93.3 177 
 RUS  HN ES        422 30.39                             146    0.1010 93.3 177 
 RUS  HZ I         422 30.94         1.4 0.30            144           93.3 177 
 PTB  HZ EP   2    422 16.31                             132    0.20 5  148 262 
 PTB  HN ES   2    422 36.20                             132   -0.86 5  148 262 
 PTB  HZ I         422 40.13         1.7 0.16            129            148 262 
                                                                                
