 2014  310 0804  7.2 L   6.737 -73.098156.8  RSN  5 0.4 1.3LRSN                1
 GAP=145        0.78       4.8     6.3 12.3 -0.1145E+02  0.2182E+02 -0.2718E+02E
 Epicentro: JORDAN - SANTANDER                                                 3
 OLDACT:REG 14-03-10 08:22 OP:y    STATUS:               ID:20140310075938     3
 ACTION:UPD 14-04-09 23:15 OP:nd   STATUS:               ID:20140310080407 L   I
 OLDACT:UP  14-03-10 13:09 OP:fm   STATUS:               ID:20140310075938     3
 2014-03-10-0759-38M.COL___214                                                 6
 STAT SP IPHASW D HRMM SECON CODA AMPLIT PERI AZIMU VELO AIN AR TRES W  DIS CAZ7
 PAM  SZ EP        8 4 30.82                             152    0.0710 79.8  33 
 PAM  SE ES   2    8 4 48.69                             152   -0.42 5 79.8  33 
 RUS  HN ES        8 4 50.48                             148   -0.1210 93.4 179 
 RUS  HZ I         8 4 51.51         1.8 0.34            149           93.4 179 
 PTB  HZ EP   1    8 4 35.01                             134   -0.44 7  152 262 
 PTB  HN ES   1    8 4 57.07                             134   -0.40 7  152 262 
 PTB  HZ I         8 5 23.99         2.7 1.60            126            152 262 
 SPBC HN ES   1    8 4 59.92                             132    0.74 7  161 222 
 SPBC HZ I         8 5  1.04         4.3 0.12            129            161 222 
 OCA  HN ES   1    8 5  0.85                             131    0.45 7  168 352 
                                                                                
