 2012 1110 0956 11.8 L   6.744 -73.151148.6  RSN  5 0.2 1.7LRSN                1
 GAP=183        0.46       8.0     5.8  6.7  0.9903E+01 -0.2313E+01  0.2682E+02E
 Epicentro: JORDAN - SANTANDER                                                 3
 ACTION:UPD 12-12-05 15:32 OP:}ep  STATUS:               ID:20121110095611 L   I
 2012-11-10-0950-00M.COL___230                                                 6
 STAT SP IPHASW D HRMM SECON CODA AMPLIT PERI AZIMU VELO AIN AR TRES W  DIS CAZ7
 BAR2 SZ EP        956 31.74                             173    0.1010 17.1 192 
 GIR2 SZ EP        956 31.74                             165   -0.2110 37.3 353 
 BRR  HZ EP        956 33.61                             152    0.2310 73.9 303 
 BRR  HN ES        956 50.20                             152   -0.0310 73.9 303 
 BRR  HN I         956 51.09        12.5 0.30                          73.9 303 
 RUS  HN ES   3    956 53.76                             146   -0.02 2 94.5 175 
 PTB  HZ EP        956 38.72                             133   -0.11 9  146 261 
 PTB  HN I         957  4.69         4.9 0.36                           146 261 
                                                                                
