 2011  910 0722 31.4 L   6.811 -73.083148.5  RSN  5 0.2 1.6LRSN                1
 GAP=202        0.39       6.1     7.3  5.5  0.3138E+02  0.4399E+01  0.6446E+01E
 Epicentro: LOS SANTOS - SANTANDER                                             3
 ACTION:UPD 12-07-13 15:56 OP:ep   STATUS:               ID:20110910072231 L   I
 2011-09-10-0720-00M.COL___171                                                 6
 STAT SP IPHASW D HRMM SECON CODA AMPLIT PERI AZIMU VELO AIN AR TRES W  DIS CAZ7
 BAR2 SZ EP   1    722 51.41                             169   -0.02 7 26.6 205 
 BAR2 SZ ES   2    723  6.79                             169   -0.26 5 26.6 205 
 BAR2 SZ I         723  9.48        12.6 0.27                          26.6 205 
 GIR2 SZ EP   3    722 51.21                             167   -0.22 2 32.1 338 
 GIR2 SZ ES   2    723  6.90                             167   -0.14 5 32.1 338 
 BRR  HZ EP   2    722 53.36                             151    0.18 5 76.9 295 
 BRR  HE ES   2    723 10.64                             151    0.48 5 76.9 295 
 BRR  HZ I         723 12.80         7.9 0.17                          76.9 295 
 RUS  HZ EP   1    722 55.52                             144    0.02 7  102 180 
 RUS  HN ES   2    723 14.35                             144    0.07 5  102 180 
 RUS  HZ I         723 15.48         4.4 0.33                           102 180 
 ZAR  HE ES   2    723 30.20                             122   -0.38 4  210 291 
 ZAR  HZ I         723 34.42         3.7 0.36                           210 291 
                                                                                
