 2012  410 0516 15.6 L   6.748 -73.118148.1  RSN  8 0.3 1.9LRSN                1
 GAP=142        0.64       3.6     3.5  5.2 -0.1655E+01  0.4500E+01 -0.1070E+01E
 Epicentro: LOS SANTOS - SANTANDER                                             3
 ACTION:UPD 12-07-05 11:52 OP:tino STATUS:               ID:20120410051615 L   I
 2012-04-10-0510-00M.COL___199                                                 6
 STAT SP IPHASW D HRMM SECON CODA AMPLIT PERI AZIMU VELO AIN AR TRES W  DIS CAZ7
 BAR2 SZ EP        516 35.63                             173     0.210   19 203 
 BAR2 SZ ES   1    516 50.65                             173    -0.3 7   19 203 
 BAR2 SZ I         516 53.38        13.9 0.38                            19 203 
 BRR  HZ EP        516 37.61                             151     0.310   77 301 
 BRR  HZ I         516 37.94        28.7 0.15                            77 301 
 BRR  HN ES   1    516 54.80                             151     0.5 7   77 301 
 PAM  SZ EP   1    516 37.98                             150    -0.3 7   80  35 
 PAM  SN ES   1    516 55.52                             150    -0.4 7   80  35 
 RUS  HZ EP   1    516 39.36                             146     0.2 7   95 178 
 RUS  HN ES   1    516 57.61                             146     0.0 7   95 178 
 RUS  HZ I         517  1.85         5.7 0.39                            95 178 
 PTB  HZ EP   1    516 42.64                             132    -0.3 7  150 261 
 PTB  HN ES   1    517  3.88                             132    -0.4 7  150 261 
 OCA  SZ EP   1    516 44.82                             129     0.1 7  166 352 
 ZAR  HZ EP   2    516 48.45                             122    -0.3 4  209 293 
 ZAR  HN ES   1    517 14.54                             122     0.0 6  209 293 
 ZAR  HZ I         517 20.20        12.2 0.41                           209 293 
 NOR  SZ EP   1    516 51.16                             119    -0.2 6  234 236 
 NOR  SE ES   1    517 19.38                             119     0.1 6  234 236 
                                                                                
