 2010  110 0026 37.0 L   6.840 -73.069137.0  RSN  6 0.4 1.5LRSN                1
 GAP=191        0.75       4.0    20.8  9.4  0.5213E+01  0.4070E+02  0.1033E+02E
 Epicentro: LOS SANTOS - SANTANDER                                             3
 ACTION:UP  10-08-24 09:43 OP:vdl  STATUS:               ID:20100110002637 L   I
 2010-01-10-0025-05S.COL___097                                                 6
 STAT SP IPHASW D HRMM SECON CODA AMPLIT PERI AZIMU VELO SNR AR TRES W  DIS CAZ7
 GIR2 SZ EP        026 55.95                             167     0.410   30 333 
 BAR2 SZ EP        026 55.86                             167     0.110   30 205 
 BAR2 SZ ES   2    027 10.36                             167     0.0 5   30 205 
 GIR2 SZ ES   3    027 10.36                             167     0.3 2   30 333 
 RUS  BZ EP        026 59.83                             141    -0.410  105 181 
 RUS  BN ES   2    027 18.20                             141    -0.1 5  105 181 
 RUS  BZ I         027 19.45         3.8 0.32                           105 181 
 OCA  SZ EP   2    027  4.06                             128    -0.2 5  157 350 
 OCA  SZ ES   1    027 25.17                             128    -0.5 7  157 350 
 CHI  HZ EP        027 15.26                             114     0.3 8  255 197 
 CHI  HN ES   2    027 43.57                             114    -1.0 4  255 197 
 CHI  HZ I         027 49.41         1.9 0.26                           255 197 
 RREF BE ES   3    028  0.75                             108     0.4 2  331 230 
 RREF BZ I         028  4.57         2.1 0.15                           331 230 
                                                                                
