 2016 1210 0920 40.5 L   6.599 -73.466113.6  RSN  4 0.5 0.9LRSN                1
 GAP=149        1.36      10.5     7.7 12.1  0.4853E+02  0.2791E+02 -0.1308E+02E
 Epicentro: EL CARMEN - SANTANDER                                              3
 ACTION:UPD 17-01-11 20:13 OP:rebc STATUS:               ID:20161210092040 L   I
 OLDACT:DUP 16-12-10 18:38 OP:lv   STATUS:               ID:20161210091748d    3
 2016-12-10-0918-00M.COL___361                                                 6
 STAT SP IPHASW D HRMM SECON CODA AMPLIT PERI AZIMU VELO AIN AR TRES W  DIS CAZ7
 BAR2 EZ EP        920 55.86                             164   -0.7010 31.4  91 
 BAR2 EZ ES        921  9.05                             164   -0.0110 31.4  91 
 RUS  HZ EP        921  0.96                             140    0.6410 88.9 152 
 RUS  HE ES        921 16.03                             140    0.2710 88.9 152 
 RUS  HZ I         921 18.48         1.9 0.20            139           88.9 152 
 PTB  HZ EP        921  0.53                             133   -0.9010  110 267 
 PTB  HN ES        921 17.65                             133   -0.0810  110 267 
 PTB  HZ I         921 21.99         1.7 0.18            132            110 267 
 ZAR  HZ EP        921  9.13                             117    0.36 9  183 303 
 ZAR  HE ES        921 31.43                             117    0.63 9  183 303 
                                                                                
