 2017  410 0535  2.6 L   7.417 -73.213150.7  RSN 14 0.4 1.9LRSN                1
 GAP=137        0.91       3.9     3.5  4.9  0.3376E+01  0.3126E+01  0.1780E+01E
 Epicentro: EL PLAYON - SANTANDER                                              3
 ACTION:UPD 17-05-30 21:10 OP:jn   STATUS:               ID:20170410053502 L   I
 OLDACT:UP  17-04-10 17:50 OP:edw  STATUS:               ID:20170410052744d    3
 OLDACT:DUP 17-04-10 17:39 OP:edw  STATUS:               ID:20170410052744d    3
 OLDACT:UP  17-04-10 17:37 OP:edw  STATUS:               ID:20170410052743     3
 OLDACT:UP  17-04-10 17:36 OP:edw  STATUS:               ID:20170410052743     3
 OLDACT:UP  17-04-10 17:33 OP:edw  STATUS:               ID:20170410052743     3
 OLDACT:REG 17-04-10 13:09 OP:edw  STATUS:               ID:20170410052743     3
 2017-04-10-0528-00M.COL___371                                                 6
 STAT SP IPHASW D HRMM SECON CODA AMPLIT PERI AZIMU VELO AIN AR TRES W  DIS CAZ7
 PAM  EZ EP     C  535 24.22                             158   -0.0610 57.4  99 
 PAM  EN ES        535 40.93                             158   -0.2810 57.4  99 
 PAM  EZ I         535 41.60        16.7 0.32            162           57.4  99 
 BRR  HZ IP     C  535 24.36                             155    0.4410 64.8 238 
 BRR  HN ES        535 41.07                             155    0.4910 64.8 238 
 BRR  HZ I         535 42.20        28.0 0.14            148           64.8 238 
 BAR2 EZ EP        535 25.89                             147    0.0810 91.3 178 
 BAR2 EZ ES        535 43.65                             147   -0.3010 91.3 178 
 BAR2 EZ I         535 45.22        31.6 0.14            143           91.3 178 
 PTB  HZ EP        535 31.60                             129   -0.22 9  168 235 
 PTB  HN ES        535 54.20                             129   -0.44 9  168 235 
 PTB  HZ I         535 58.58        10.0 0.16            125            168 235 
 RUS  HZ EP        535 32.32                             129   -0.23 9  169 175 
 RUS  HN ES        535 55.42                             129   -0.52 9  169 175 
 RUS  HZ I         535 57.66         7.6 0.40            127            169 175 
 ZAR  HZ EP        535 33.21                             127    0.10 9  182 273 
 ZAR  HN ES        535 57.47                             127    0.53 9  182 273 
 ZAR  HZ I         536  2.71        15.6 0.38            124            182 273 
 SPBC HZ EP        535 36.72                             122   -0.06 8  217 206 
 SPBC HN ES   4    536  5.33                             122    1.86 0  217 206 
 SPBC HZ I         536 10.70         6.2 0.14            119            217 206 
 YPLC HZ EP        535 39.70                             119    0.34 8  242 158 
 YPLC HN ES        536  8.60                             119    0.54 8  242 158 
 YPLC HZ I         536 13.06         3.8 0.34            118            242 158 
 NOR  HZ EP   4    535 40.63                             115   -2.31 0  275 222 
 NOR  HN ES   4    536 17.23                             115    2.80 0  275 222 
 NOR  HZ I         536 23.52         5.4 0.24            114            275 222 
 HEL  HZ EP   4    535 46.10                             114    1.12 0  290 242 
 HEL  HE ES   4    536 16.39                             114   -1.67 0  290 242 
 HEL  HZ I         536 28.89         4.3 0.52            113            290 242 
 ARGC HZ EP   4    535 47.07                             114    2.19 0  293 337 
 ARGC HN ES   4    536 19.21                             114    1.33 0  293 337 
 CHI  HZ EP        535 48.36                             112    0.64 7  314 191 
 CHI  HN ES        536 23.13                             112    0.20 7  314 191 
 CHI  HZ I         536 28.34         1.2 0.40            111            314 191 
 SJC  HZ EP        535 50.71                             110   -0.64 6  349 322 
 SJC  HN ES   4    536 26.35                             110   -3.05 0  349 322 
 SJC  HZ I         536 28.38         1.9 0.30            110            349 322 
 CBOC HZ EP   4    535 53.09                             109    1.07 0  354 241 
 CBOC HN ES        536 29.89                             109   -0.70 6  354 241 
 CBOC HZ I         536 35.96         1.1 0.38            108            354 241 
 PRA  HZ EP        536  2.66                             105   -0.34 5  449 204 
 PRA  HN ES   4    536 51.58                             105    1.45 0  449 204 
 PRA  HZ I         536 58.05         1.8 0.26            104            449 204 
 CONO HZ EP   4    536 10.66                              99   -18.7 0  664 212 
                                                                                
