 2012  310 0327 37.3 L   6.755 -73.155146.2  RSN  7 0.4 1.6LRSN                1
 GAP=137        0.93       4.7     5.6  9.6  0.1262E+01  0.1412E+02  0.9298E+01E
 ACTION:UP  12-03-31 23:18 OP:EP   STATUS:               ID:20120310032737 L   I
 2012-03-10-0320-00M.COL___193                                                 6
 STAT SP IPHASW D HRMM SECON CODA AMPLIT PERI AZIMU VELO SNR AR TRES W  DIS CAZ7
 BRR  HZ EP   1    327 59.38                             152     0.8 7   73 302 
 BRR  HZ I         327 59.77        18.5 0.10                            73 302 
 BRR  HE ES   1    328 15.59                             152     0.4 7   73 302 
 PAM  SZ EP   1    328  0.00                             149     0.2 7   82  38 
 PAM  SZ I         328  0.67         3.8 0.23                            82  38 
 PAM  SN ES   1    328 17.15                             149    -0.2 7   82  38 
 RUS  HZ EP   1    328  0.16                             145    -0.6 7   96 175 
 RUS  HN ES   1    328 18.69                             145    -0.3 7   96 175 
 RUS  HZ I         328 20.90         5.5 0.25                            96 175 
 PTB  HZ EP   1    328  3.96                             132    -0.1 7  146 261 
 PTB  HN ES   1    328 24.92                             132    -0.1 7  146 261 
 PTB  HZ I         328 27.05         3.0 0.31                           146 261 
 ZAR  HZ EP   1    328  9.65                             122    -0.2 6  205 294 
 ZAR  HN ES   1    328 34.74                             122    -0.5 6  205 294 
 ZAR  HZ I         328 42.04         6.0 0.23                           205 294 
 CHI  HN ES   1    328 43.95                             118     0.5 6  244 195 
 PRA  HN ES   1    329 11.61                             107     0.1 4  387 210 
                                                                                
