 2014  410 0137 37.1 L   6.812 -73.150144.6  RSN 17 0.5 2.3LRSN                1
 GAP=135        1.05       2.6     4.0  5.9 -0.2313E+01  0.6379E+01  0.1808E+01E
 Epicentro: LOS SANTOS - SANTANDER                                             3
 ACTION:UPD 14-05-13 23:07 OP:nd   STATUS:               ID:20140410013737 L   I
 OLDACT:REG 14-04-10 13:02 OP:l    STATUS:               ID:20140410012809     3
 2014-04-10-0128-09M.COL___259                                                 6
 STAT SP IPHASW D HRMM SECON CODA AMPLIT PERI AZIMU VELO AIN AR TRES W  DIS CAZ7
 BRR  HZ EP        137 58.57                             153    0.4810 70.1 298 
 BRR  HN ES   1    138 15.38                             153    0.94 7 70.1 298 
 BRR  HZ I         138 20.14        19.2 0.26            147           70.1 298 
 PAM  SZ EP     C  137 59.54                             151    0.3610 76.7  40 
 PAM  SN ES        138 16.91                             151    0.5310 76.7  40 
 RUS  HZ EP        138  0.84                             143   -0.0210  102 176 
 RUS  HN ES        138 18.52                             143   -0.8610  102 176 
 RUS  HZ I         138 20.56        23.3 0.21            145            102 176 
 PTB  HZ EP        138  3.36                             132   -0.61 9  148 258 
 PTB  HN ES        138 24.33                             132   -0.59 9  148 258 
 OCA  HZ EP        138  4.80                             130   -0.42 9  159 353 
 OCA  HN ES        138 26.78                             130   -0.35 9  159 353 
 OCA  HZ I         138 32.70        30.6 0.23            129            159 353 
 SPBC HZ EP        138  5.62                             129    0.02 9  164 219 
 SPBC HN ES        138 27.88                             129    0.07 9  164 219 
 SPBC HZ I         138 31.89        39.0 0.20            128            164 219 
 ZAR  HZ EP        138  9.70                             122    0.31 9  203 292 
 ZAR  HZ I         138 26.11         8.2 0.13            120            203 292 
 ZAR  HE ES        138 35.01                             122    0.45 9  203 292 
 NOR  HZ EP        138 13.02                             118    0.20 8  235 234 
 NOR  HN ES     C  138 40.22                             118   -0.45 8  235 234 
 NOR  HZ I         138 46.04        19.2 0.09            117            235 234 
 SML  HZ EP        138 13.09                             117   -0.44 8  242 335 
 SML  HN ES        138 41.41                             117   -0.52 8  242 335 
 CHI  HZ EP        138 14.77                             117   -0.11 8  250 195 
 CHI  HN ES        138 44.60                             117    0.27 8  250 195 
 ROSC BZ EP   4    138 16.54                             116    1.27 0  254 211 
 ROSC BN ES   2    138 45.58                             116    0.55 4  254 211 
 ROSC BZ I         138 52.13        14.5 0.35            116            254 211 
 HEL  HZ EP   1    138 17.27                             115    0.01 6  272 256 
 HEL  HN ES   4    138 51.88                             115    3.32 0  272 256 
 HEL  HZ I         138 55.33         7.4 0.25            114            272 256 
 URE  HZ EP   4    138 17.36                             113   -0.67 0  283 292 
 URE  HN ES   4 C  138 51.81                             113    1.88 0  283 292 
 URE  HZ I         139  0.82        12.2 0.26            113            283 292 
 GUY2CHZ EP        138 21.62                             112    0.90 7  302 235 
 GUY2CHN ES        138 54.72                             112    0.00 7  302 235 
 GUY2CHZ I         139  4.68         8.2 0.54                           302 235 
 PTGC HZ EP   4    138 19.57                             111   -1.52 0  310 159 
 PTGC HN ES   4    138 52.57                             111   -2.81 0  310 159 
 RREF HZ EP        138 23.84                             111    0.57 7  322 229 
 RREF HN ES        138 59.42                             111    0.16 7  322 229 
 RREF HZ I         139  8.31        12.7 0.34            110            322 229 
 CBOC HZ EP        138 23.96                             110   -0.02 7  334 252 
 PRA  HZ EP        138 30.13                             106   -0.58 6  393 209 
 PRA  HN ES        139 12.58                             106    0.08 6  393 209 
 PRA  HZ I         139 17.69         4.4 0.25            107            393 209 
 SJC  HZ EP   4    138 28.90                             106   -3.58 0  408 327 
 SJC  HN ES   4    139 11.18                             106   -4.48 0  408 327 
                                                                                
