 2016  710 0109 16.8 L   6.694 -73.214156.1  RSN  5 0.3 1.5LRSN                1
 GAP=221        0.74       5.6     6.6  6.3  0.2179E+02  0.6533E+01 -0.3975E+00E
 Epicentro: VILLANUEVA - SANTANDER                                             3
 ACTION:UPD 17-03-29 16:48 OP:lp   STATUS:               ID:20160710010916 L   I
 OLDACT:UP  16-07-10 13:30 OP:dani STATUS:               ID:20160710010744     3
 OLDACT:REG 16-07-10 12:01 OP:dani STATUS:               ID:20160710010744     3
 2016-07-10-0107-44M.COL___325                                                 6
 STAT SP IPHASW D HRMM SECON CODA AMPLIT PERI AZIMU VELO AIN AR TRES W  DIS CAZ7
 BRR  HZ EP        1 9 39.21                             154    0.1110 71.5 310 
 BRR  HN ES        1 9 56.66                             154    0.1710 71.5 310 
 BRR  HZ I         1 9 58.81         3.5 0.18            151           71.5 310 
 RUS  HE ES        1 9 59.42                             149   -0.2310 89.7 171 
 RUS  HZ I         110  5.72         4.0 0.64            145           89.7 171 
 PTB  HZ EP        1 9 44.22                             136    0.39 9  138 263 
 PTB  HE ES        110  4.80                             136   -0.11 9  138 263 
 PTB  HZ I         110 11.08         3.1 0.20            132            138 263 
 SPBC HZ EP        1 9 45.10                             134    0.23 9  149 220 
 SPBC HN ES   4    110  9.16                             134    2.40 0  149 220 
 SPBC HZ I         110 15.54         5.6 0.28            130            149 220 
 ZAR  HZ EP        1 9 49.09                             125   -0.64 9  202 296 
 ZAR  HE ES        110 15.37                             125   -0.05 9  202 296 
 ZAR  HZ I         110 23.78         3.7 0.10            125            202 296 
                                                                                
