 2017  410 0600  5.4 L   6.766 -73.146154.8  RSN  4 0.1 0.8LRSN                1
 GAP=235        0.44       3.7     3.7  4.5  0.6996E+01 -0.2615E+01 -0.1848E+01E
 Epicentro: LOS SANTOS - SANTANDER                                             3
 ACTION:UPD 17-05-30 21:10 OP:jn   STATUS:               ID:20170410060005 L   I
 OLDACT:DUP 17-04-10 18:04 OP:edw  STATUS:               ID:20170410055741d    3
 OLDACT:UP  17-04-10 18:03 OP:edw  STATUS:               ID:20170410055740     3
 OLDACT:REG 17-04-10 13:11 OP:edw  STATUS:               ID:20170410055740     3
 2017-04-10-0558-00M.COL___371                                                 6
 STAT SP IPHASW D HRMM SECON CODA AMPLIT PERI AZIMU VELO AIN AR TRES W  DIS CAZ7
 BAR2 EZ EP        6 0 25.81                             172   -0.2010 19.7 192 
 BRR  HZ EP        6 0 27.59                             153    0.0110 73.0 301 
 BRR  HN ES        6 0 45.00                             153    0.0810 73.0 301 
 RUS  HZ EP        6 0 30.02                             147    0.2710 96.9 176 
 RUS  HN ES        6 0 48.70                             147   -0.0810 96.9 176 
 RUS  HZ I         6 0 50.46         0.8 0.40            146           96.9 176 
 PTB  HZ EP        6 0 32.90                             134   -0.11 9  147 260 
 PTB  HN ES        6 0 54.59                             134    0.02 9  147 260 
 PTB  HZ I         6 0 55.63         0.9 0.40            134            147 260 
                                                                                
