 2013  510 1943 22.4 L   7.454 -73.203132.8  RSN  4 0.1 1.5LRSN                1
 GAP=227        0.36       7.0     3.5  4.2 -0.1927E+02  0.7885E+01 -0.1119E+02E
 Epicentro: EL PLAYON - SANTANDER                                              3
 ACTION:UPD 13-06-20 09:49 OP:ep   STATUS:               ID:20130510194322 L   I
 2013-05-10-1940-00M.COL___256                                                 6
 STAT SP IPHASW D HRMM SECON CODA AMPLIT PERI AZIMU VELO AIN AR TRES W  DIS CAZ7
 PAM  SZ EP       1943 42.25                             156    0.1310 57.0 103 
 PAM  SN ES       1943 57.32                             156   -0.1510 57.0 103 
 PAM  SZ I        1943 58.37         6.4 0.16            156           57.0 103 
 BRR  HZ EP   1   1943 42.04                             151    0.03 7 68.0 236 
 BRR  HE ES   1   1943 57.41                             151    0.13 7 68.0 236 
 BAR2 SZ ES   2   1944  1.24                             142    0.10 5 95.3 179 
 PTB  HZ EP       1943 50.62                             124   -0.08 9  171 234 
 PTB  HN ES       1944 12.70                             124   -0.05 9  171 234 
 PTB  HZ I        1944 15.87         3.4 0.30            124            171 234 
                                                                                
