 2015  110 1015 27.1 L   6.768 -73.105162.0  RSN  5 0.5 1.6LRSN                1
 GAP=212        1.10       4.6     8.8  9.6 -0.6135E+01  0.1844E+02 -0.1149E+02E
 Epicentro: LOS SANTOS - SANTANDER                                             3
 ACTION:UPD 15-03-02 15:38 OP:nd   STATUS:               ID:20150110101527 L   I
 OLDACT:REG 15-01-10 19:34 OP:mh   STATUS:               ID:20150110100749     3
 2015-01-10-1007-49M.COL___265                                                 6
 STAT SP IPHASW D HRMM SECON CODA AMPLIT PERI AZIMU VELO AIN AR TRES W  DIS CAZ7
 BAR2 EZ EP   1   1015 49.03                             172    0.42 7 21.2 204 
 BAR2 EZ ES       1016  5.46                             172    0.0410 21.2 204 
 BAR2 EZ I        1016  6.35         5.5 0.07            168           21.2 204 
 SPBC HZ EP       1015 57.08                             132    0.21 9  163 221 
 SPBC HN ES       1016 19.67                             132   -0.45 9  163 221 
 OCA  HZ EP       1015 56.17                             132   -0.88 9  164 352 
 OCA  HN ES       1016 20.89                             132    0.45 9  164 352 
 OCA  HZ I        1016 24.87         3.1 0.32            131            164 352 
 ZAR  HZ EP   1   1016  2.07                             125    0.91 6  210 293 
 ZAR  HN ES       1016 27.87                             125    0.11 8  210 293 
 ZAR  HZ I        1016 37.04         2.1 0.54            123            210 293 
 SML  HZ EP   1   1016  5.61                             120    0.43 6  249 335 
 SML  HN ES       1016 34.38                             120   -0.54 8  249 335 
 SML  HZ I        1016 41.14         4.6 0.10            120            249 335 
                                                                                
