 2016  210 1331 17.3 L   6.763 -73.206135.4  RSN  5 0.2 1.4LRSN                1
 GAP=131        0.35       2.9     2.6  4.3 -0.2680E+01  0.5578E+01 -0.7566E+00E
 Epicentro: ZAPATOCA - SANTANDER                                               3
 ACTION:UPD 16-03-04 21:24 OP:rebc STATUS:               ID:20160210133117 L   I
 OLDACT:REG 16-02-10 21:43 OP:dnl  STATUS:               ID:20160210132748     3
 2016-02-10-1327-48M.COL___321                                                 6
 STAT SP IPHASW D HRMM SECON CODA AMPLIT PERI AZIMU VELO AIN AR TRES W  DIS CAZ7
 BAR2 EZ EP   2   1331 35.50                             172   -0.06 5 19.1 172 
 BAR2 EZ ES   2   1331 50.22                             172    0.39 5 19.1 172 
 BAR2 EZ I        1331 53.16         6.8 0.44            172           19.1 172 
 PAM  EZ IP     D 1331 38.87                             146   -0.0010 84.8  41 
 PAM  EE ES       1331 55.67                             146   -0.0510 84.8  41 
 PAM  EZ I        1331 57.98         4.3 0.60            153           84.8  41 
 RUS  HZ EP   2   1331 39.91                             142    0.15 5 97.2 172 
 RUS  HN ES   2   1331 56.98                             142   -0.32 5 97.2 172 
 RUS  HZ I        1331 59.09         2.7 0.19            149           97.2 172 
 PTB  HZ EP       1331 42.74                             131    0.01 9  140 260 
 PTB  HE ES   2   1332  2.60                             131    0.02 5  140 260 
 PTB  HZ I        1332  6.90         3.7 0.22            134            140 260 
 ZAR  HZ EP   2   1331 48.82                             121    0.24 4  199 294 
 ZAR  HN ES   2   1332 12.73                             121   -0.27 4  199 294 
 ZAR  HZ I        1332 17.23         3.1 0.40            124            199 294 
                                                                                
