 2013  910 1005 43.9 L   6.825 -73.153148.9  RSN 11 0.4 2.3LRSN                1
 GAP=134        0.88       2.8     3.7  4.8  0.6404E+00  0.4351E+01  0.1681E+00E
 Epicentro: LOS SANTOS - SANTANDER                                             3
 ACTION:UPD 13-10-22 09:21 OP:ep   STATUS:               ID:20130910100543 L   I
 OLDACT:REG 13-09-10 16:38 OP:cam  STATUS:               ID:20130910095941     3
 2013-09-10-0959-41M.COL___247                                                 6
 STAT SP IPHASW D HRMM SECON CODA AMPLIT PERI AZIMU VELO AIN AR TRES W  DIS CAZ7
 BAR2 SZ EP       10 6  3.91                             170   -0.0810 25.9 187 
 BAR2 SZ ES       10 6 19.30                             170   -0.3410 25.9 187 
 BAR2 SZ I        10 6 21.04        29.4 0.18            167           25.9 187 
 BRR  HZ IP     C 10 6  5.67                             154    0.3610 69.2 297 
 BRR  HN ES       10 6 22.52                             154    0.5310 69.2 297 
 BRR  HZ I        10 6 22.97        35.9 0.34            152           69.2 297 
 PAM  SZ EP     C 10 6  6.81                             152    0.4210 75.8  41 
 PAM  SE ES       10 6 23.84                             152   -0.0710 75.8  41 
 PAM  SZ I        10 6 25.68        26.8 0.54            156           75.8  41 
 RUS  HZ EP       10 6  8.01                             144   -0.1810  103 176 
 RUS  HN ES       10 6 26.99                             144   -0.1210  103 176 
 RUS  HZ I        10 6 28.46        24.8 0.18            143            103 176 
 PTB  HZ EP       10 6 10.51                             133   -0.62 9  147 258 
 PTB  HN ES       10 6 31.86                             133   -0.49 9  147 258 
 PTB  HZ I        10 6 33.85        44.8 0.12            131            147 258 
 ZAR  HZ EP   1   10 6 16.54                             123    0.14 6  202 292 
 ZAR  HN ES       10 6 42.07                             123    0.34 9  202 292 
 ZAR  HZ I        10 6 50.80        17.7 0.20            123            202 292 
 NOR  HZ EP   1   10 6 20.38                             119    0.44 6  236 234 
 NOR  HE ES   1   10 6 48.10                             119    0.07 6  236 234 
 NOR  HZ I        10 6 54.29        12.2 0.16            119            236 234 
 SML  HZ EP       10 6 20.34                             118   -0.09 8  241 335 
 SML  HE ES       10 6 48.81                             118   -0.09 8  241 335 
 SML  HZ I        10 6 50.46        23.3 0.26            119            241 335 
 CHI  HZ EP       10 6 22.56                             117    0.49 8  251 195 
 CHI  HN ES       10 6 52.05                             117    0.24 8  251 195 
 CHI  HZ I        10 6 59.42         5.5 0.26            118            251 195 
 GUY2CHZ EP   4   10 6 29.28                             113    1.49 0  302 234 
 PRA  HZ EP   1   10 6 37.71                             107   -0.08 4  394 209 
 SJC  HZ EP       10 6 38.17                             106   -1.11 6  406 327 
 SJC  HN ES   4   10 7 19.26                             106   -3.19 0  406 327 
 SJC  HZ I        10 7 22.36         3.9 0.34            107            406 327 
                                                                                
