 2017  510 1107 21.2 L   6.322 -73.605115.6  RSN  4 0.3 1.3LRSN                1
 GAP=137        0.88       4.2     3.9  8.6  0.1845E+01  0.9291E+01  0.7974E+01E
 Epicentro: SANTA HELENA DEL OPON - SANTANDER                                  3
 ACTION:UPD 17-06-16 13:34 OP:jn   STATUS:               ID:20170510110721 L   I
 OLDACT:DUP 17-05-10 23:14 OP:lv   STATUS:               ID:20170510105741d    3
 2017-05-10-1058-00M.COL___359                                                 6
 STAT SP IPHASW D HRMM SECON CODA AMPLIT PERI AZIMU VELO AIN AR TRES W  DIS CAZ7
 RUS  HZ EP       11 7 39.85                             145   -0.2310 74.8 129 
 RUS  HN ES       11 7 54.87                             145    0.0310 74.8 129 
 RUS  HZ I        11 7 55.99         4.1 0.12            148           74.8 129 
 BRR  HZ EP       11 7 40.16                             140   -0.1810 87.6 352 
 BRR  HN ES       11 7 55.79                             140    0.4910 87.6 352 
 PTB  HZ EP       11 7 40.88                             137   -0.2610 97.2 284 
 PTB  HN ES       11 7 56.29                             137   -0.4410 97.2 284 
 PTB  HZ I        11 7 59.09         4.4 0.07            138           97.2 284 
 NOR  HZ EP       11 7 48.01                             121    0.51 9  163 239 
 NOR  HN ES       11 8  8.25                             121    0.21 9  163 239 
 NOR  HZ I        11 8 10.88         2.8 0.11            123            163 239 
 ZAR  HZ EP   4   11 7 52.28                             117    2.04 0  190 313 
 ZAR  HN ES   4   11 8 14.23                             117    1.30 0  190 313 
                                                                                
