 2016  210 1026 18.0 L   6.843 -73.228135.2  RSN 11 0.3 1.8LRSN                1
 GAP=123        0.56       2.0     3.4  4.6 -0.1602E+01  0.9383E+01 -0.1406E+01E
 Epicentro: ZAPATOCA - SANTANDER                                               3
 ACTION:UPD 16-03-04 21:24 OP:rebc STATUS:               ID:20160210102618 L   I
 OLDACT:REG 16-02-10 21:34 OP:dnl  STATUS:               ID:20160210101741     3
 2016-02-10-1017-41M.COL___316                                                 6
 STAT SP IPHASW D HRMM SECON CODA AMPLIT PERI AZIMU VELO AIN AR TRES W  DIS CAZ7
 BAR2 EZ EP     C 1026 36.70                             168    0.1710 28.2 170 
 BAR2 EZ ES       1026 50.98                             168    0.0410 28.2 170 
 BAR2 EZ I        1026 54.25         5.2 0.12            167           28.2 170 
 PAM  EZ IP     D 1026 39.56                             148    0.2310 80.1  47 
 PAM  EN ES       1026 56.19                             148    0.2610 80.1  47 
 PAM  EZ I        1026 58.38        16.9 0.52            157           80.1  47 
 RUS  HZ EP   2   1026 40.85                             140   -0.37 5  106 171 
 RUS  HN ES       1026 58.92                             140   -0.3810  106 171 
 RUS  HZ I        1027  1.37         5.0 0.26            145            106 171 
 PTB  HZ EP       1026 43.39                             131   -0.06 9  140 256 
 PTB  HN ES   2   1027  3.03                             131   -0.23 5  140 256 
 PTB  HZ I        1027  7.41         7.8 0.20            131            140 256 
 SPBC HZ EP   2   1026 45.93                             127    0.34 5  161 215 
 SPBC HE ES   2   1027  7.44                             127    0.36 5  161 215 
 SPBC HZ I        1027 14.26         8.5 0.15            129            161 215 
 ZAR  HZ EP   2   1026 48.90                             121    0.14 4  194 292 
 ZAR  HN ES   4   1027 13.80                             121    1.08 0  194 292 
 ZAR  HZ I        1027 21.06         7.4 0.17            123            194 292 
 NOR  HZ EP   2   1026 53.02                             117    0.31 4  230 232 
 NOR  HN ES   2   1027 20.29                             117    0.55 4  230 232 
 NOR  HZ I        1027 22.70         5.6 0.18            119            230 232 
 SML  HZ EP   2   1026 52.75                             116   -0.47 4  236 337 
 SML  HN ES       1027 20.21                             116   -0.45 8  236 337 
 SML  HZ I        1027 24.56         8.9 0.08            119            236 337 
 CHI  HZ EP   2   1026 55.07                             115   -0.38 4  251 193 
 CHI  HN ES       1027 24.48                             115   -0.15 8  251 193 
 CHI  HZ I        1027 29.42         2.6 0.28            118            251 193 
 HEL  HZ EP   2   1026 57.81                             113    0.91 4  265 254 
 HEL  HN ES   2   1027 27.01                             113   -0.19 4  265 254 
 HEL  HZ I        1027 36.23         5.4 0.28            115            265 254 
 GUY2CHZ EP   2   1027  0.25                             111   -0.42 4  297 233 
 GUY2CHN ES   2   1027 34.05                             111    0.13 4  297 233 
 GUY2CHZ I        1027 41.12         2.7 0.68                           297 233 
 SJC  HZ EP   4   1027 10.90                             104   -1.33 0  400 328 
 SJC  HN ES   4   1027 52.02                             104   -2.47 0  400 328 
                                                                                
