 2013  810 1630  0.6 L   6.803 -73.158139.7  RSN 16 0.5 2.5LRSN                1
 GAP= 70        1.08       2.9     3.1  5.4 -0.8412E+00  0.3569E+01  0.2515E+01E
 Epicentro: LOS SANTOS - SANTANDER                                             3
 ACTION:UPD 14-01-14 09:00 OP:ep   STATUS:               ID:20130810163000 L   I
 OLDACT:REG 13-08-10 17:26 OP:carl STATUS:               ID:20130810162959     3
 2013-08-10-1629-59M.COL___271                                                 6
 STAT SP IPHASW D HRMM SECON CODA AMPLIT PERI AZIMU VELO AIN AR TRES W  DIS CAZ7
 BAR2 SZ IP     D 1630 19.71                             170    0.1910 23.4 187 
 BAR2 SZ ES   1   1630 34.16                             170   -0.10 7 23.4 187 
 BAR2 SZ I        1630 35.43        75.6 0.20            168           23.4 187 
 GIR2 SZ IP     C 1630 19.84                             167    0.2810 30.8 353 
 GIR2 SZ ES       1630 34.23                             167   -0.1010 30.8 353 
 GIR2 SZ I        1630 35.77        57.8 0.16            168           30.8 353 
 BRR  HZ IP     C 1630 21.63                             152    0.5910 69.9 299 
 BRR  HN ES       1630 37.64                             152    0.6710 69.9 299 
 BRR  HZ I        1630 42.43        53.0 0.12            150           69.9 299 
 PAM  SZ IP     D 1630 22.73                             149    0.5010 78.0  40 
 PAM  SN ES   1   1630 39.31                             149    0.22 7 78.0  40 
 PAM  SZ I        1630 40.00        46.8 0.38            154           78.0  40 
 RUS  HZ IP     C 1630 23.72                             142   -0.0910  101 175 
 RUS  HE ES   1   1630 41.95                             142    0.06 7  101 175 
 RUS  HZ I        1630 42.94        28.6 0.22            143            101 175 
 PTB  HZ EP       1630 26.40                             131   -0.58 9  147 259 
 PTB  HN ES   1   1630 46.99                             131   -0.56 7  147 259 
 PTB  HZ I        1630 49.62        62.9 0.16            130            147 259 
 TAM  HZ IP     C 1630 28.21                             129    0.26 9  156 105 
 TAM  HN ES       1630 49.05                             129   -0.22 9  156 105 
 TAM  HN I        1630 50.08        47.9 0.32            133            156 105 
 OCA  HZ EP   1   1630 28.32                             128   -0.10 7  160 354 
 OCA  HN ES       1630 49.65                             128   -0.46 9  160 354 
 OCA  HZ I        1630 51.82        41.9 0.20            130            160 354 
 SPBC HZ EP   1   1630 28.90                             128    0.30 7  163 219 
 SPBC HN ES       1630 49.63                             128   -0.80 9  163 219 
 SPBC HZ I        1630 55.45        28.0 0.32            128            163 219 
 ZAR  HZ EP   1   1630 32.66                             121    0.12 6  203 292 
 ZAR  HN ES       1630 57.59                             121    0.16 9  203 292 
 ZAR  HZ I        1631  7.37        32.5 0.12            122            203 292 
 NOR  HZ EP   1   1630 35.59                             117   -0.32 6  234 234 
 NOR  HN ES   1   1631  3.95                             117    0.52 6  234 234 
 NOR  HZ I        1631  9.28        24.7 0.34            118            234 234 
 SML  HZ EP       1630 36.27                             116   -0.55 8  243 336 
 SML  HN ES   1   1631  3.42                             116   -1.64 6  243 336 
 CHI  HZ EP   1   1630 38.03                             116    0.05 6  249 195 
 CHI  HN ES       1631  6.32                             116   -0.80 8  249 195 
 CHI  HZ I        1631 14.56         8.2 0.56            117            249 195 
 GUY2CHZ EP   1   1630 44.38                             111    0.53 5  300 235 
 GUY2CHN ES   1   1631 17.59                             111    0.02 5  300 235 
 GUY2CHZ I        1631 25.01        15.6 0.28                           300 235 
 RREF HZ EP   4   1630 47.33                             110    0.92 0  321 229 
 RREF HN ES       1631 22.19                             110    0.06 7  321 229 
 RREF HZ I        1631 28.76        12.8 0.24            110            321 229 
 CBOC HZ EP       1630 48.02                             109    0.86 7  332 252 
 CBOC HN ES   1   1631 24.12                             109    0.67 5  332 252 
 CBOC HN I        1631 27.46        25.5 0.26            109            332 252 
                                                                                
