 2011  810 1124 24.3 L   6.778 -73.123146.0  RSN  5 0.4 1.8LRSN                1
 GAP=238        0.79       5.4     8.4  7.1  0.1270E+02  0.1587E+02  0.1163E+02E
 Epicentro: LOS SANTOS - SANTANDER                                             3
 ACTION:UPD 12-07-13 15:51 OP:ep   STATUS:               ID:20110810112424 L   I
 2011-08-10-1120-39S.COL___150                                                 6
 STAT SP IPHASW D HRMM SECON CODA AMPLIT PERI AZIMU VELO AIN AR TRES W  DIS CAZ7
 BAR2 SZ EP       1124 43.87                             171   -0.0810 21.6 198 
 BAR2 SZ ES   1   1124 58.48                             171   -0.78 7 21.6 198 
 BRR  HZ EP       1124 45.86                             151    0.1710 74.5 299 
 BRR  HE ES   1   1125  2.80                             151    0.45 7 74.5 299 
 BRR  HZ I        1125  6.81        16.0 0.42                          74.5 299 
 RUS  HZ EP       1124 48.08                             145    0.1610 98.1 177 
 RUS  HE ES   1   1125  6.67                             145    0.35 7 98.1 177 
 RUS  HZ I        1125  7.57         7.1 0.24                          98.1 177 
 NOR  SZ EP       1124 59.55                             118   -0.59 8  235 235 
 NOR  SN ES   2   1125 28.16                             118    0.09 4  235 235 
 CHI  HZ EP   1   1125  2.06                             117    0.20 6  247 196 
 CHI  HE ES   1   1125 31.25                             117    0.11 6  247 196 
                                                                                
