 2017  110 1820 28.6 L   6.781 -73.112141.1  RSN  8 0.4 1.7LRSN                1
 GAP=142        0.87       3.9     4.0  5.5  0.2285E+00  0.4769E+01  0.4943E+00E
 Epicentro: LOS SANTOS - SANTANDER                                             3
 ACTION:UPD 17-05-22 15:57 OP:jn   STATUS:               ID:20170110182028 L   I
 OLDACT:UP  17-01-11 00:08 OP:edw  STATUS:               ID:20170110181759     3
 OLDACT:UP  17-01-11 00:07 OP:edw  STATUS:               ID:20170110181759     3
 OLDACT:REG 17-01-10 23:11 OP:ar   STATUS:               ID:20170110181759     3
 2017-01-10-1817-59S.COL___320                                                 6
 STAT SP IPHASW D HRMM SECON CODA AMPLIT PERI AZIMU VELO AIN AR TRES W  DIS CAZ7
 BAR2 EZ ES       1821  1.91                             171   -0.5410 22.3 200 
 BAR2 EZ I        1821  5.58        11.4 0.31            172           22.3 200 
 BRR  HZ IP       1820 49.46                             150    0.0110 75.5 299 
 BRR  HE ES       1821  6.33                             150    0.5810 75.5 299 
 PAM  EZ EP     C 1820 50.46                             150    0.2310 76.7  36 
 PAM  EN ES       1821  7.12                             150   -0.0210 76.7  36 
 PAM  EZ I        1821  9.60         6.7 0.28            151           76.7  36 
 RUS  HZ EP       1820 51.64                             143   -0.0410 98.3 178 
 RUS  HN ES       1821  9.75                             143    0.0310 98.3 178 
 RUS  HZ I        1821 10.68         3.5 0.22            146           98.3 178 
 PTB  HZ EP   9   1820 54.52                             130   -0.93 0  151 260 
 PTB  HN ES       1821 15.08                             130   -0.41 9  151 260 
 PTB  HZ I        1821 17.81         7.4 0.18            131            151 260 
 ZAR  HZ EP       1821  0.56                             120   -0.58 8  208 292 
 ZAR  HE ES       1821 26.38                             120   -0.18 8  208 292 
 ZAR  HZ I        1821 32.40         9.4 0.18            121            208 292 
 CHI  HZ EP   2   1821  6.51                             116    0.62 4  248 196 
 CHI  HN ES   4   1821 37.00                             116    1.99 0  248 196 
 GUY2CHZ EP   4   1821 13.30                             111    1.14 0  303 236 
 GUY2CHN ES       1821 46.55                             111    0.38 7  303 236 
 GUY2CHZ  IAML    1821 52.82         2.4 0.24                           303 236 
                                                                                
