 2016  610 1448 30.0 L   6.784 -73.197139.1  RSN  5 0.2 1.5LRSN                1
 GAP=231        0.59       3.4     3.6  4.4  0.2919E+01  0.2468E+01  0.1889E+01E
 Epicentro: ZAPATOCA - SANTANDER                                               3
 ACTION:UPD 16-07-21 22:17 OP:rebc STATUS:               ID:20160610144830 L   I
 OLDACT:REG 16-06-10 20:47 OP:edw  STATUS:               ID:20160610143746     3
 2016-06-10-1437-46M.COL___343                                                 6
 STAT SP IPHASW D HRMM SECON CODA AMPLIT PERI AZIMU VELO AIN AR TRES W  DIS CAZ7
 BAR2 EZ EP       1448 48.75                             171    0.0010 21.3 176 
 BAR2 EZ ES       1449  3.10                             171   -0.3010 21.3 176 
 BAR2 EZ I        1449  4.01        10.7 0.46                          21.3 176 
 BRR  HZ EP       1448 50.33                             153    0.1710 67.2 302 
 BRR  HN ES       1449  6.14                             153    0.2310 67.2 302 
 RUS  HZ EP       1448 53.16                             143    0.1910 99.4 173 
 RUS  HN ES       1449 10.91                             143   -0.0110 99.4 173 
 RUS  HZ I        1449 12.31         5.5 0.32                          99.4 173 
 PTB  HZ EP       1448 55.66                             132   -0.19 9  142 259 
 PTB  HN ES       1449 15.83                             132   -0.21 9  142 259 
 PTB  HZ I        1449 18.85         4.0 0.46                           142 259 
 SPBC HZ EP       1448 57.22                             128   -0.27 9  158 218 
 SPBC HN ES       1449 19.30                             128    0.35 9  158 218 
                                                                                
