 2013  510 1608  9.9 L   6.787 -73.134149.4  RSN  6 0.4 2.0LRSN                1
 GAP=139        0.85       5.1     4.7  6.6 -0.6136E+01  0.4363E+01  0.7939E+01E
 Epicentro: LOS SANTOS - SANTANDER                                             3
 ACTION:UPD 13-06-20 09:49 OP:ep   STATUS:               ID:20130510160809 L   I
 2013-05-10-1600-00M.COL___256                                                 6
 STAT SP IPHASW D HRMM SECON CODA AMPLIT PERI AZIMU VELO AIN AR TRES W  DIS CAZ7
 BAR2 SZ EP       16 8 29.92                             171   -0.0610 22.2 194 
 BAR2 SZ ES   1   16 8 45.80                             171    0.19 7 22.2 194 
 BAR2 SZ I        16 8 46.45        20.4 0.24            169           22.2 194 
 BRR  HZ EP       16 8 31.78                             153    0.2010 73.0 299 
 BRR  HN ES       16 8 48.91                             153    0.4510 73.0 299 
 BRR  HZ I        16 8 52.09        19.3 0.14            152           73.0 299 
 PAM  SZ EP       16 8 32.76                             151    0.2110 77.7  38 
 PAM  SZ I        16 8 32.98        20.7 0.20            155           77.7  38 
 PAM  SE ES       16 8 49.81                             151   -0.3810 77.7  38 
 RUS  HZ EP       16 8 33.95                             145    0.0210 99.1 177 
 RUS  HN ES   1   16 8 52.60                             145   -0.06 7 99.1 177 
 RUS  HZ I        16 8 54.18         9.0 0.30            145           99.1 177 
 PTB  HZ EP       16 8 36.83                             133   -0.46 9  149 259 
 PTB  HN ES   1   16 8 57.73                             133   -0.90 7  149 259 
 PTB  HZ I        16 8 59.51        14.4 0.30            132            149 259 
 NOR  HZ EP   1   16 8 46.35                             119    0.45 6  235 235 
 NOR  HE ES   1   16 9 14.35                             119    0.39 6  235 235 
 NOR  HZ I        16 9 19.33         9.7 0.38            120            235 235 
                                                                                
