 2017  710 1259 33.6 L   6.782 -73.161143.1  RSN  9 0.4 2.0LRSN                1
 GAP=111        1.08       4.8     3.7  6.9  0.2178E+01  0.6513E+01  0.9693E+01E
 Epicentro: LOS SANTOS - SANTANDER                                             3
 ACTION:UPD 17-08-30 15:31 OP:rebc STATUS:               ID:20170710125933 L   I
 OLDACT:REG 17-07-10 20:59 OP:lv   STATUS:               ID:20170710125745     3
 2017-07-10-1258-00M.COL___380                                                 6
 STAT SP IPHASW D HRMM SECON CODA AMPLIT PERI AZIMU VELO AIN AR TRES W  DIS CAZ7
 BAR2 EZ IP     D 1259 52.56                             171   -0.2810 21.2 186 
 BAR2 EZ ES       13 0  7.43                             171   -0.4410 21.2 186 
 BAR2 EZ I        13 0  9.63        42.1 0.22            170           21.2 186 
 BRR  HZ EP       1259 54.60                             152    0.2010 70.7 301 
 BRR  HE ES       13 0 11.48                             152    0.8210 70.7 301 
 BRR  HZ I        13 0 13.20        18.0 0.20            153           70.7 301 
 PAM  EZ EP       1259 55.60                             149   -0.0610 79.9  40 
 PAM  EN ES       13 0 12.71                             149   -0.1810 79.9  40 
 PAM  EZ I        13 0 14.75        28.8 0.44            153           79.9  40 
 PTB  HZ EP       1259 59.60                             132   -0.54 9  146 259 
 PTB  HN ES       13 0 20.16                             132   -0.70 9  146 259 
 PTB  HZ I        13 0 23.06        11.9 0.07            133            146 259 
 YPLC HZ EP       13 0  2.94                             126   -0.14 9  176 151 
 YPLC HN ES       13 0 26.81                             126    0.70 9  176 151 
 YPLC HZ I        13 0 29.67         9.0 0.51            128            176 151 
 ZAR  HZ EP       13 0  5.70                             122   -0.06 9  203 293 
 ZAR  HN ES       13 0 31.25                             122    0.38 9  203 293 
 ZAR  HZ I        13 0 35.20                             124            203 293 
 NOR  HZ EP       13 0  9.20                             118    0.32 8  232 235 
 NOR  HN ES       13 0 36.35                             118   -0.07 8  232 235 
 NOR  HZ I        13 0 39.25         5.7 0.35            120            232 235 
 HEL  HZ EP   4   13 0 14.49                             114    1.08 0  270 256 
 HEL  HE ES       13 0 44.82                             114    0.32 8  270 256 
 HEL  HZ I        13 0 46.44         2.4 0.14            116            270 256 
 GUY2CHN ES   4   13 0 52.99                             112    2.52 0  299 235 
 SJC  HZ EP   4   13 0 27.51                             105   -1.62 0  410 327 
 SJC  HN ES   4   13 1  9.13                             105   -3.34 0  410 327 
 SJC  HZ I        13 1 11.71         2.0 0.20            107            410 327 
                                                                                
