 2017  710 1735 13.6 L   6.730 -73.115141.8  RSN  5 0.2 1.8LRSN                1
 GAP=172        0.87       8.1     4.3  6.1  0.5790E+00  0.3237E+01 -0.7280E+01E
 Epicentro: JORDAN - SANTANDER                                                 3
 ACTION:UPD 17-08-30 15:31 OP:rebc STATUS:               ID:20170710173513 L   I
 OLDACT:REG 17-07-10 21:28 OP:lv   STATUS:               ID:20170710172737     3
 2017-07-10-1728-00M.COL___389                                                 6
 STAT SP IPHASW D HRMM SECON CODA AMPLIT PERI AZIMU VELO AIN AR TRES W  DIS CAZ7
 BAR2 EZ EP       1735 32.76                             172    0.1710 17.0 206 
 BAR2 EZ ES       1735 47.41                             172   -0.0310 17.0 206 
 BAR2 EZ I        1735 48.81        16.0 0.10            172           17.0 206 
 BRR  HZ EP       1735 34.75                             149    0.0710 78.0 302 
 BRR  HN ES       1735 51.24                             149    0.0810 78.0 302 
 BRR  HZ I        1735 54.85        15.8 0.27            147           78.0 302 
 PAM  EZ EP       1735 35.69                             148    0.0910 81.5  34 
 PAM  EN ES       1735 52.53                             148   -0.2710 81.5  34 
 PTB  HZ EP   9   1735 39.83                             130   -0.55 0  150 262 
 PTB  HN ES       1735 59.87                                   -0.89 9  150 262 
 PTB  HZ I        1736  2.86         4.8 0.08            130            150 262 
 ZAR  HZ EP       1735 46.02                             120   -0.36 8  210 294 
 ZAR  HN ES       1736 12.18                             120    0.20 8  210 294 
 ZAR  HZ I        1736 16.91         6.1 0.15            120            210 294 
 GUY2CHN ES   4   1736 31.95                             111    1.42 0  300 236 
 SJC  HZ EP   4   1736  7.38                             104   -2.58 0  418 327 
 SJC  HN ES   4   1736 48.64                             104   -5.32 0  418 327 
                                                                                
