 2011  610 1442 32.9 L   6.870 -72.898101.5  RSN  5 0.2 1.3LRSN                1
 GAP=184        0.47       3.6     4.8  8.5 -0.8977E+01 -0.1316E+02  0.7079E+01E
 Epicentro: GUACA - SANTANDER                                                  3
 ACTION:UP  11-07-14 19:04 OP:ep   STATUS:               ID:20110610144232 L   I
 2011-06-10-1439-01S.COL___132                                                 6
 STAT SP IPHASW D HRMM SECON CODA AMPLIT PERI AZIMU VELO SNR AR TRES W  DIS CAZ7
 BRR  HE ES   1   1443  5.78                             133     0.0 7   94 286 
 BRI  SZ EP   1   1442 51.93                             133     0.3 7   94   7 
 BRI  SZ ES   1   1443  6.13                             133    -0.1 7   94   7 
 BRI  SZ I        1443 12.69         6.7 0.37                            94   7 
 BRR  HZ I        1443 10.19         9.1 0.12                            94 286 
 RUS  HN ES   2   1443  9.56                             129     0.0 5  110 191 
 RUS  HZ I        1443 10.39         1.9 0.35                           110 191 
 GRA  SZ EP   1   1442 53.14                             128    -0.2 7  113   5 
 GRA  SZ I        1442 54.46         5.2 0.35                           113   5 
 NOR  SE ES   2   1443 38.19                             105    -0.2 4  262 237 
                                                                                
