 2017  910 1500 13.4 L   6.080 -73.789104.0  RSN  5 0.4 1.4LRSN                1
 GAP=164        0.92       5.5     5.9  7.9 -0.2549E+02  0.1631E+02 -0.9879E+01E
 Epicentro: EL PENON - SANTANDER                                               3
 ACTION:UPD 17-10-05 19:10 OP:rebc STATUS:               ID:20170910150013 L   I
 OLDACT:REG 17-09-10 19:56 OP:lv   STATUS:               ID:20170910145737     3
 2017-09-10-1458-00M.COL___415                                                 6
 STAT SP IPHASW D HRMM SECON CODA AMPLIT PERI AZIMU VELO AIN AR TRES W  DIS CAZ7
 SPBC HZ EP       15 0 29.21                             149   -0.1910 56.7 214 
 SPBC HE ES       15 0 42.29                             149    0.4310 56.7 214 
 SPBC HZ I        15 0 43.50         8.3 0.09            152           56.7 214 
 BAR2 EZ EP       15 0 31.95                             137    0.0510 87.8  50 
 BAR2 EZ ES       15 0 46.08                             137   -0.2410 87.8  50 
 BAR2 EZ I        15 0 47.11         7.3 0.38            140           87.8  50 
 BRR  HZ EP       15 0 33.98                             128    0.0510  114   4 
 BRR  HN ES       15 0 50.12                             128    0.2010  114   4 
 BRR  HZ I        15 0 52.68         3.4 0.20            130            114   4 
 NOR  HZ EP       15 0 35.46                             124   -0.3810  133 245 
 NOR  HN ES       15 0 52.66                             124   -0.6710  133 245 
 NOR  HZ I        15 0 55.34         4.9 0.18            126            133 245 
 GUY2CHZ EP       15 0 44.01                             112    0.49 9  199 242 
 GUY2CHN ES       15 1  7.41                             112    0.42 9  199 242 
 GUY2CHZ I        15 1 13.41         2.0 0.48                           199 242 
                                                                                
