 2017  410 1502 52.0 L   6.830 -73.268136.0  RSN  4 0.2 1.4LRSN                1
 GAP=152        0.46       4.0     9.3  5.6 -0.2646E+02  0.1956E+02 -0.9184E+01E
 Epicentro: ZAPATOCA - SANTANDER                                               3
 ACTION:UPD 17-05-30 21:10 OP:jn   STATUS:               ID:20170410150252 L   I
 OLDACT:UP  17-04-10 22:13 OP:cog  STATUS:               ID:20170410145750     3
 OLDACT:UP  17-04-10 22:11 OP:cog  STATUS:               ID:20170410145750     3
 OLDACT:REG 17-04-10 20:45 OP:cog  STATUS:               ID:20170410145750     3
 2017-04-10-1458-00M.COL___377                                                 6
 STAT SP IPHASW D HRMM SECON CODA AMPLIT PERI AZIMU VELO AIN AR TRES W  DIS CAZ7
 BAR2 EZ EP       15 3 10.51                             168   -0.1010 27.9 160 
 BAR2 EZ ES       15 3 25.00                             168   -0.0910 27.9 160 
 BAR2 EZ I        15 3 26.84         6.0 0.38            168           27.9 160 
 PAM  EZ EP       15 3 13.57                             146   -0.1210 84.4  48 
 PAM  EN ES       15 3 30.77                             146    0.2010 84.4  48 
 PAM  EZ I        15 3 32.82         4.5 0.48            151           84.4  48 
 RUS  HN ES       15 3 33.39                             140    0.0610  106 169 
 PTB  HZ EP   3   15 3 18.01                             133    0.92 2  135 256 
 PTB  HZ ES   4   15 3 42.80                             133    6.18 0  135 256 
 PTB  HZ I        15 3 44.01         3.1 0.20            128            135 256 
                                                                                
