 2016  810 1753 52.8 L   6.800 -73.174142.6  RSN 15 0.3 2.4LRSN                1
 GAP=133        1.07       3.6     4.0  5.9 -0.1651E+01  0.5709E+01  0.3448E+01E
 Epicentro: LOS SANTOS - SANTANDER                                             3
 ACTION:UPD 16-10-29 15:34 OP:rebc STATUS:               ID:20160810175352 L   I
 OLDACT:REG 16-08-10 21:22 OP:lv   STATUS:               ID:20160810174759     3
 2016-08-10-1747-59S.COL___352                                                 6
 STAT SP IPHASW D HRMM SECON CODA AMPLIT PERI AZIMU VELO AIN AR TRES W  DIS CAZ7
 BAR2 EZ IP     C 1754 11.85                             170   -0.1810 23.0 182 
 BAR2 EZ ES       1754 26.82                             170   -0.2210 23.0 182 
 BAR2 EZ I        1754 28.59        85.4 0.19                          23.0 182 
 BRR  HZ IP     C 1754 13.64                             153    0.2010 68.5 300 
 BRR  HN ES       1754 30.17                             153    0.6210 68.5 300 
 BRR  HZ I        1754 34.94        47.6 0.24                          68.5 300 
 PAM  EZ EP       1754 14.85                             150    0.0610 79.4  41 
 PAM  EE ES       1754 32.06                             150    0.1010 79.4  41 
 PAM  EZ I        1754 32.68        34.5 0.16                          79.4  41 
 RUS  HZ EP       1754 16.03                             143   -0.2210  101 174 
 RUS  HE ES       1754 34.45                             143   -0.0910  101 174 
 RUS  HZ I        1754 35.95        36.9 0.21                           101 174 
 PTB  HZ EP       1754 18.37                             132   -0.85 9  145 259 
 PTB  HN ES       1754 39.56                             132   -0.28 9  145 259 
 PTB  HZ I        1754 45.25        43.0 0.14                           145 259 
 SPBC HZ EP       1754 20.83                             129   -0.03 9  161 218 
 SPBC HN ES       1754 42.72                             129   -0.03 9  161 218 
 SPBC HZ I        1754 45.28        58.6 0.10                           161 218 
 ZAR  HZ EP       1754 25.03                             122    0.30 9  201 292 
 ZAR  HN ES       1754 49.42                             122   -0.23 9  201 292 
 ZAR  HZ I        1754 56.60        25.4 0.14                           201 292 
 NOR  HZ EP       1754 28.39                             118    0.33 8  232 234 
 NOR  HE ES       1754 55.73                             118    0.16 8  232 234 
 NOR  HZ I        1755  1.52        20.6 0.18                           232 234 
 CHI  HZ EP       1754 30.33                             117    0.11 8  248 194 
 CHI  HE ES       1754 59.58                             117    0.16 8  248 194 
 CHI  HZ I        1755  1.93        15.0 0.26                           248 194 
 ROSC BZ EP   9   1754 32.04                             116    1.48 0  251 210 
 ROSC BN ES       1755  2.66                                    1.16 8  251 210 
 ROSC BZ I        1755  6.77        36.6 0.35                           251 210 
 HEL  HZ EP   4   1754 34.12                             115    1.61 0  269 256 
 HEL  HN ES   4   1755  4.81                             115    1.33 0  269 256 
 HEL  HZ I        1755 11.93        12.0 0.25                           269 256 
 URE  HZ EP   4   1754 36.17                             113    2.78 0  281 292 
 URE  HE ES   4   1755  3.40                             113   -1.65 0  281 292 
 URE  HZ I        1755 13.27        25.1 0.28                           281 292 
 GUY2CHZ EP   4   1754 37.38                             112    1.42 0  299 234 
 GUY2CHN ES       1755 10.10                             112    0.46 7  299 234 
 GUY2CHZ I        1755 17.57        11.4 0.48                           299 234 
 ELA  HZ EP   4   1754 40.99                             110    1.76 0  327 229 
 ELA  HN ES   4   1755 14.23                             110   -1.23 0  327 229 
 ELA  HZ I        1755 23.08         9.4 0.48                           327 229 
 SJC  HZ EP   9   1754 45.58                             105   -2.47 0  408 327 
 SJC  HE ES       1755 27.13                                   -1.56 6  408 327 
 SJC  HZ I        1755 35.82         3.8 0.08                           408 327 
                                                                                
