 2012  410 1845 19.0 L   6.784 -73.159148.0  RSN 15 0.4 2.6LRSN                1
 GAP=113        0.98       4.0     4.7  6.4 -0.2154E+00  0.7872E+01  0.5200E+01E
 Epicentro: LOS SANTOS - SANTANDER                                             3
 ACTION:UPD 12-07-05 11:52 OP:tino STATUS:               ID:20120410184519 L   I
 2012-04-10-1839-38M.COL___178                                                 6
 STAT SP IPHASW D HRMM SECON CODA AMPLIT PERI AZIMU VELO AIN AR TRES W  DIS CAZ7
 BAR2 SZ EP       1845 38.75                             171    -0.110   21 187 
 BAR2 SZ ES   1   1845 54.34                             171     0.0 7   21 187 
 BAR2 SZ I        1845 55.67        59.7 0.29                            21 187 
 BRR  HZ EP       1845 40.79                             153     0.410   71 300 
 BRR  HE ES   1   1845 57.87                             153     0.8 7   71 300 
 BRR  HZ I        1846  0.28       106.2 0.21                            71 300 
 PAM  SZ EP       1845 41.60                             151     0.010   80  40 
 PAM  SN ES   1   1845 58.92                             151    -0.3 7   80  40 
 PAM  SZ I        1846  0.97        27.6 0.37                            80  40 
 RUS  HZ EP       1845 42.58                             145    -0.310   99 175 
 RUS  HN ES   1   1846  1.40                             145    -0.1 7   99 175 
 RUS  HZ I        1846  2.43        32.3 0.28                            99 175 
 PTB  HZ EP       1845 45.32                             133    -0.7 9  146 259 
 PTB  HN ES   1   1846  6.74                             133    -0.3 7  146 259 
 PTB  HZ I        1846  8.92        45.3 0.20                           146 259 
 OCA  SZ EP   1   1845 47.67                             130     0.0 7  162 354 
 OCA  SZ ES   1   1846  9.96                             130     0.0 7  162 354 
 YOP  SN ES   2   1846 13.22                             127     0.6 4  178 153 
 ZAR  HZ EP   1   1845 51.36                             123    -0.2 6  203 293 
 ZAR  HE ES   1   1846 16.64                             123    -0.2 6  203 293 
 ZAR  HZ I        1846 22.66        59.3 0.36                           203 293 
 NOR  SZ EP   1   1845 53.70                             119    -0.9 6  232 235 
 NOR  SN ES   1   1846 22.56                             119     0.2 6  232 235 
 CHI  HZ EP   1   1845 56.72                             118     0.1 6  247 195 
 CHI  HZ I        1846 31.83        24.0 0.42                           247 195 
 ROSC BZ EP   1   1845 57.45                             117     0.5 6  250 211 
 ROSC BZ I        1846 36.16        40.9 0.45                           250 211 
 HEL  HZ EP   1   1845 59.68                             115     0.6 6  270 256 
 HEL  HZ I        1846 37.10        19.9 0.25                           270 256 
 RREF HZ EP   1   1846  5.79                             111     0.8 5  319 229 
 RREF HZ I        1846 51.01        24.6 0.33                           319 229 
 PRA  HZ EP   1   1846 12.58                             107     0.3 4  390 210 
 SJA  SZ EP   2   1846 13.77                             107     0.4 3  398 193 
 SJA  SZ I        1847  0.08        18.7 0.38                           398 193 
                                                                                
