 2016  310 1510  2.2 L   6.804 -73.174144.7  RSN  5 0.3 1.5LRSN                1
 GAP=143        0.72       3.5     4.2  5.3 -0.4172E+01  0.4907E+01  0.2977E+01E
 Epicentro: LOS SANTOS - SANTANDER                                             3
 ACTION:UPD 16-05-13 21:23 OP:cam  STATUS:               ID:20160310151002 L   I
 OLDACT:REG 16-03-10 21:02 OP:ar   STATUS:               ID:20160310150750     3
 2016-03-10-1507-50M.COL___288                                                 6
 STAT SP IPHASW D HRMM SECON CODA AMPLIT PERI AZIMU VELO AIN AR TRES W  DIS CAZ7
 BAR2 EZ EP       1510 21.78                             170    0.1110 23.4 182 
 BAR2 EZ ES       1510 36.77                             170   -0.1110 23.4 182 
 BAR2 EZ I        1510 41.57         4.2 0.26            168           23.4 182 
 PAM  EZ EP       1510 24.65                             150    0.2710 79.1  41 
 PAM  EN ES       1510 41.73                             150    0.0310 79.1  41 
 PAM  EZ I        1510 43.93        12.6 0.58            156           79.1  41 
 RUS  HZ EP       1510 25.77                             143   -0.1010  101 174 
 RUS  HE ES       1510 44.12                             143   -0.2210  101 174 
 RUS  HZ I        1510 45.38         2.5 0.26            145            101 174 
 PTB  HZ EP       1510 28.15                             132   -0.63 9  145 258 
 PTB  HN ES       1510 49.85                             132    0.32 9  145 258 
 PTB  HZ I        1510 55.61         4.3 0.20            133            145 258 
 CHI  HZ EP       1510 39.87                             117    0.11 8  248 194 
 CHI  HN ES       1511  9.45                             117    0.36 8  248 194 
 CHI  HZ I        1511 17.46         3.1 0.44            119            248 194 
                                                                                
