 2012  410 1205 35.4 L   6.769 -73.124147.8  RSN  7 0.4 1.8LRSN                1
 GAP=237        0.82       6.0     6.2  6.9  0.1542E+02  0.1056E+02  0.6191E+01E
 Epicentro: LOS SANTOS - SANTANDER                                             3
 ACTION:UPD 12-07-05 11:52 OP:tino STATUS:               ID:20120410120535 L   I
 2012-04-10-1159-38M.COL___181                                                 6
 STAT SP IPHASW D HRMM SECON CODA AMPLIT PERI AZIMU VELO AIN AR TRES W  DIS CAZ7
 BAR2 SZ EP   1   12 5 55.24                             172     0.0 7   21 198 
 BAR2 SZ ES   1   12 6 10.34                             172    -0.3 7   21 198 
 BAR2 SZ I        12 6 12.85        12.9 0.32                            21 198 
 BRR  HZ EP   1   12 5 57.27                             152     0.3 7   75 300 
 BRR  HZ I        12 5 57.44        13.3 0.15                            75 300 
 BRR  HN ES   1   12 6 14.44                             152     0.6 7   75 300 
 RUS  HZ EP   1   12 5 59.03                             145    -0.1 7   97 177 
 RUS  HN ES   1   12 6 17.60                             145     0.0 7   97 177 
 RUS  HZ I        12 6 20.60         5.3 0.38                            97 177 
 PTB  HZ EP   1   12 6  2.23                             132    -0.5 7  149 260 
 PTB  HE ES   1   12 6 23.38                             132    -0.6 7  149 260 
 PTB  HZ I        12 6 29.12         8.7 0.31                           149 260 
 ZAR  HZ EP   1   12 6  8.18                             122    -0.2 6  208 293 
 ZAR  HN ES   1   12 6 34.02                             122     0.0 6  208 293 
 ZAR  HZ I        12 6 39.65         7.3 0.29                           208 293 
 NOR  SZ EP   1   12 6 11.22                             119     0.0 6  235 235 
 NOR  SN ES   1   12 6 39.78                             119     0.6 6  235 235 
 CHI  HZ EP   1   12 6 13.30                             118     0.4 6  246 196 
 CHI  HZ I        12 6 13.95         4.3 0.43                           246 196 
                                                                                
