 2012  910 1006 32.7 L   6.776 -73.154149.5  RSN  8 0.4 1.7LRSN                1
 GAP=183        0.73       4.5     5.6  6.0  0.9488E+01  0.1040E+02  0.6393E+01E
 Epicentro: LOS SANTOS - SANTANDER                                             3
 ACTION:UPD 12-10-22 14:18 OP:ep   STATUS:               ID:20120910100632 L   I
 2012-09-10-1000-00M.COL___227                                                 6
 STAT SP IPHASW D HRMM SECON CODA AMPLIT PERI AZIMU VELO AIN AR TRES W  DIS CAZ7
 BAR2 SZ EP   1   10 6 52.53                             172   -0.16 7 20.5 189 
 BAR2 SZ ES   1   10 7  7.73                             172   -0.58 7 20.5 189 
 BAR2 SZ I        10 7  9.38        12.3 0.44                          20.5 189 
 GIR2 SZ EP   1   10 6 53.04                             166    0.20 7 33.8 353 
 GIR2 SZ ES   1   10 7  8.67                             166    0.08 7 33.8 353 
 BRR  HZ EP   1   10 6 54.45                             153    0.21 7 71.8 301 
 BRR  HZ I        10 6 56.02         9.7 0.12                          71.8 301 
 BRR  HE ES   1   10 7 11.90                             153    0.82 7 71.8 301 
 RUS  HZ EP   1   10 6 56.40                             145   -0.20 7 98.0 175 
 RUS  HN ES   1   10 7 15.27                             145    0.00 7 98.0 175 
 RUS  HZ I        10 7 16.13         3.1 0.40                          98.0 175 
 PTB  HZ EP   1   10 6 59.44                             133   -0.37 7  146 260 
 PTB  HN ES   1   10 7 20.72                             133   -0.27 7  146 260 
 PTB  HN I        10 7 25.83         7.5 0.26                           146 260 
 ZAR  HZ EP   1   10 7  5.16                             123   -0.21 6  204 293 
 ZAR  HE ES   1   10 7 30.66                             123   -0.23 6  204 293 
 ZAR  HZ I        10 7 36.81         5.0 0.24                           204 293 
 CHI  HN ES   1   10 7 39.93                             118    0.34 6  246 195 
 PRA  HZ EP   1   10 7 26.85                             107    0.86 4  389 210 
 PRA  HZ I        10 7 28.29         1.6 0.50                           389 210 
                                                                                
