 2012  610 1927 51.8 L   6.769 -73.183150.0  RSN  4 0.4 1.6LRSN                1
 GAP=240        0.74      10.1     6.8 11.2  0.3489E+02  0.1503E+02 -0.3296E+02E
 Epicentro: LOS SANTOS - SANTANDER                                             3
 ACTION:UPD 12-08-06 17:48 OP:ep   STATUS:               ID:20120610192750 L   I
 2012-06-10-1920-00M.COL___201                                                 6
 STAT SP IPHASW D HRMM SECON CODA AMPLIT PERI AZIMU VELO AIN AR TRES W  DIS CAZ7
 BAR2 SZ EP   1   1928 12.34                             172    0.52 8 19.5 180 
 BAR2 SZ ES   1   1928 27.13                             172   -0.35 8 19.5 180 
 BAR2 SZ I        1928 28.68        13.9 0.21            173           19.5 180 
 RUS  HN ES   1   1928 34.47                             145    0.08 8 97.5 174 
 PTB  HZ EP   1   1928 18.02                             134   -0.64 7  143 260 
 PTB  HN ES       1928 39.79                             134    0.1510  143 260 
 PTB  HZ I        1928 40.93         3.3 0.14            135            143 260 
 ZAR  HE ES   1   1928 49.67                             124    0.11 7  202 293 
                                                                                
