 2017  710 1453  1.3 L   6.328 -74.040 31.2  RSN  7 0.4 1.7LRSN                1
 GAP=155        0.91       3.0     2.4  4.1 -0.3261E+01 -0.4339E+01  0.3800E+01E
 Epicentro: CIMITARRA - SANTANDER                                              3
 ACTION:UPD 17-08-30 15:31 OP:rebc STATUS:               ID:20170710145301 L   I
 OLDACT:REG 17-07-10 21:15 OP:lv   STATUS:               ID:20170710144738     3
 2017-07-10-1448-00M.COL___387                                                 6
 STAT SP IPHASW D HRMM SECON CODA AMPLIT PERI AZIMU VELO AIN AR TRES W  DIS CAZ7
 PTB  HZ IP     D 1453 10.52                             114   -0.2110 51.7 297 
 PTB  HN ES       1453 18.05                             114   -0.0310 51.7 297 
 BRR  HZ EP       1453 16.03                              61    0.0110 93.4  23 
 BRR  HE ES       1453 27.93                              61    0.4410 93.4  23 
 BRR  HZ I        1453 30.47        19.4 0.25             71           93.4  23 
 BAR2 EZ EP       1453 17.31                              61    0.2810 99.2  73 
 BAR2 EZ ES       1453 29.18                              61   -0.1110 99.2  73 
 BAR2 EZ I        1453 30.21        37.0 0.17             71           99.2  73 
 NOR  HZ EP       1453 19.84                              61   -0.1810  125 227 
 NOR  HN ES       1453 33.88                              61   -0.7210  125 227 
 NOR  HZ I        1453 39.81         5.8 0.13             56            125 227 
 ZAR  HE ES       1453 41.63                              61   -0.09 9  157 325 
 HEL  HZ EP       1453 25.65                              61    0.17 9  165 265 
 HEL  HE ES       1453 44.25                              61   -0.07 9  165 265 
 HEL  HZ I        1453 45.25        19.2 0.15             56            165 265 
 GUY2CHZ EP   2   1453 29.96                              61    1.17 4  191 230 
 GUY2CHN ES   2   1453 51.49                              61    1.28 4  191 230 
 GUY2CHZ I        1453 56.46         4.4 0.55                           191 230 
                                                                                
