 2017  410 1657 12.5 L   6.881 -73.098146.2  RSN 16 0.6 2.7LRSN                1
 GAP=113        1.38       4.4     5.4  6.9  0.2787E+01  0.8979E+01  0.9109E+01E
 Epicentro: PIEDECUESTA - SANTANDER                                            3
 ACTION:UPD 17-05-30 21:10 OP:jn   STATUS:               ID:20170410165712 L   I
 OLDACT:UP  17-04-10 22:35 OP:cog  STATUS:               ID:20170410164745     3
 OLDACT:UP  17-04-10 22:34 OP:cog  STATUS:               ID:20170410164745     3
 OLDACT:REG 17-04-10 20:53 OP:cog  STATUS:               ID:20170410164745     3
 2017-04-10-1648-00M.COL___374                                                 6
 STAT SP IPHASW D HRMM SECON CODA AMPLIT PERI AZIMU VELO AIN AR TRES W  DIS CAZ7
 BAR2 EZ EP       1657 32.09                             167   -0.3410 33.3 196 
 BAR2 EZ ES       1657 47.98                             167    0.0110 33.3 196 
 BAR2 EZ I        1657 53.11        48.0 0.28            163           33.3 196 
 PAM  EZ EP       1657 34.61                             154    0.4210 67.1  41 
 PAM  EE ES       1657 51.62                             154    0.5210 67.1  41 
 PAM  EZ I        1657 53.64       227.9 0.42            161           67.1  41 
 BRR  HZ EP       1657 33.71                             152   -0.0510 72.3 290 
 BRR  HE ES       1657 50.65                             152    0.3010 72.3 290 
 BRR  HZ I        1657 55.30        91.7 0.26            151           72.3 290 
 RUS  HZ EP       1657 36.26                             141   -0.6810  109 179 
 RUS  HE ES       1657 55.17                             141   -0.8410  109 179 
 RUS  HZ I        1657 56.68        31.1 0.28            141            109 179 
 PTB  HZ EP   9   1657 38.66                             131   -1.50 0  155 256 
 PTB  HN ES       1658  0.57                             130    0.34 9  155 256 
 PTB  HZ I        1658  3.05        57.5 0.34            131            155 256 
 YPLC HZ EP       1657 42.81                             126   -0.06 9  182 154 
 YPLC HE ES       1658  6.96                             126    0.39 9  182 154 
 YPLC HZ I        1658  9.48        60.3 0.34            128            182 154 
 ZAR  HZ EP       1657 44.72                             122   -0.44 8  206 289 
 ZAR  HN ES       1658  9.77                             122   -0.86 8  206 289 
 NOR  HZ EP       1657 48.72                             117   -0.56 8  244 233 
 NOR  HE ES   4   1658 16.26                             117   -1.72 0  244 233 
 NOR  HZ I        1658 19.83        29.7 0.18            118            244 233 
 CHI  HZ EP       1657 50.88                             116   -0.44 8  259 196 
 CHI  HE ES       1658 21.04                             116   -0.56 8  259 196 
 CHI  HZ I        1658 27.35        20.0 0.32            117            259 196 
 ROSC BZ EP       1657 53.08                             116    1.30 8  263 211 
 ROSC BN ES       1658 23.12                             116    0.69 8  263 211 
 ROSC BZ I        1658 29.22        33.6 0.60            117            263 211 
 HEL  HZ EP       1657 54.49                             114    0.93 7  280 254 
 HEL  HE ES   4   1658 27.71                             114    2.12 0  280 254 
 HEL  HZ I        1658 32.18        20.1 0.34            115            280 254 
 VIL  EE ES       1658 31.90                             111    0.09 7  313 192 
 VIL  EZ I        1658 36.08        25.0 0.34            113            313 192 
 PTGC HE ES   4   1658 29.06                             111   -2.86 0  315 160 
 ELA  HZ EP   4   1658  3.09                             110    2.59 0  339 229 
 ELA  HE ES   3   1658 39.21                             110    1.27 2  339 229 
 ELA  HZ I        1658 47.05        18.7 0.38            111            339 229 
 ANIL HE ES       1658 44.71                             108    1.44 6  367 224 
 PRA  HZ EP   9   1658  6.52                             106   -0.73 0  402 210 
 PRA  HE ES       1658 48.07                             103   -1.16 6  402 210 
 PRA  HZ I        1658 56.19        33.3 0.28            107            402 210 
 ORTC HZ EP       1658  7.35                             106   -0.30 6  406 216 
 ORTC HN ES   3   1658 52.29                             106    1.62 1  406 216 
 ORTC HZ I        1658 57.90         8.7 0.58            107            406 216 
                                                                                
