 2017  710 1840 13.9 L   6.992 -73.489109.0  RSN  5 0.4 1.6LRSN                1
 GAP=129        1.12       7.1     3.9  8.3 -0.2927E+01  0.9060E+01 -0.1085E+02E
 Epicentro: SAN VICENTE DE CHUCURI - SANTANDER                                 3
 ACTION:UPD 17-08-30 15:31 OP:rebc STATUS:               ID:20170710184013 L   I
 OLDACT:REG 17-07-10 21:33 OP:lv   STATUS:               ID:20170710183636     3
 2017-07-10-1838-00M.COL___383                                                 6
 STAT SP IPHASW D HRMM SECON CODA AMPLIT PERI AZIMU VELO AIN AR TRES W  DIS CAZ7
 BRR  HZ IP     C 1840 28.72                             165   -0.1710 27.7 297 
 BRR  HN ES       1840 40.60                             165    0.0110 27.7 297 
 BRR  HZ I        1840 41.25                             164           27.7 297 
 BAR2 EZ EP       1840 31.17                             151    0.6310 55.7 143 
 BAR2 EZ ES       1840 43.98                             151    0.4610 55.7 143 
 BAR2 EZ I        1840 44.72        14.2 0.27            154           55.7 143 
 PAM  EZ EP       1840 33.70                             136   -0.0810 95.3  66 
 PAM  EN ES       1840 48.81                             136   -0.4810 95.3  66 
 PAM  EZ I        1840 52.76         9.2 0.14            137           95.3  66 
 PTB  HZ EP       1840 34.64                             129   -0.5510  118 245 
 PTB  HN ES       1840 51.25                             129   -0.5610  118 245 
 PTB  HZ I        1840 54.49         3.1 0.11            130            118 245 
 ZAR  HZ EP       1840 39.85                             119    0.32 9  161 290 
 ZAR  HN ES       1841  0.02                             119    0.50 9  161 290 
 ZAR  HZ I        1841  3.05         9.6 0.22            120            161 290 
                                                                                
