 2013 1210 1925 59.4 L   6.782 -73.145146.6  RSN  7 0.4 1.7LRSN                1
 GAP=137        1.14       4.5     5.3  7.5 -0.3259E+01  0.1119E+02  0.3684E+00E
 Epicentro: LOS SANTOS - SANTANDER                                             3
 ACTION:UPD 14-01-13 10:17 OP:ep   STATUS:               ID:20131210192559 L   I
 OLDACT:UP  13-12-10 16:27 OP:cam  STATUS:               ID:20131210192000     3
 OLDACT:REG 13-12-10 15:04 OP:cam  STATUS:               ID:20131210192000     3
 2013-12-10-1920-00M.COL___285                                                 6
 STAT SP IPHASW D HRMM SECON CODA AMPLIT PERI AZIMU VELO AIN AR TRES W  DIS CAZ7
 BAR2 SZ EP       1926 18.88                             171   -0.2310 21.4 191 
 BAR2 SZ ES       1926 34.19                             171   -0.2810 21.4 191 
 BAR2 SZ I        1926 35.20        17.0 0.18            170           21.4 191 
 BRR  HZ EP       1926 21.16                             152    0.4510 72.2 300 
 BRR  HE ES       1926 38.07                             152    0.7510 72.2 300 
 BRR  HZ I        1926 41.71        12.7 0.30            152           72.2 300 
 PAM  SZ EP       1926 22.01                             150    0.2110 78.8  39 
 PAM  SN ES       1926 39.14                             150   -0.1210 78.8  39 
 PAM  SN I        1926 39.93        18.2 0.24            154           78.8  39 
 RUS  HZ EP       1926 22.99                             144   -0.1210 98.6 176 
 RUS  HN ES       1926 41.66                             144    0.0710 98.6 176 
 RUS  HZ I        1926 44.71         1.5 0.14            146           98.6 176 
 PTB  HZ EP       1926 25.70                             132   -0.73 9  148 260 
 PTB  HN ES       1926 46.78                             132   -0.71 9  148 260 
 PTB  HZ I        1926 51.32         6.9 0.16            133            148 260 
 NOR  HZ EP       1926 35.70                             119    0.62 8  234 235 
 NOR  HN ES       1927  3.35                             119    0.45 8  234 235 
 NOR  HZ I        1927  5.03         4.0 0.24            120            234 235 
 SML  HE ES       1927  4.76                             117   -0.28 8  246 335 
                                                                                
