 2015  610 1016 23.5 L   6.791 -73.149147.0  RSN  9 0.5 1.6LRSN                1
 GAP=200        1.11       3.6     5.9  6.5  0.1565E+01  0.1168E+02  0.6345E+00E
 Epicentro: LOS SANTOS - SANTANDER                                             3
 ACTION:UPD 15-09-10 22:11 OP:cam  STATUS:               ID:20150610101623 L   I
 OLDACT:DUP 15-06-11 01:07 OP:ak   STATUS:               ID:20150610100750d    3
 2015-06-10-1007-49M.COL___295                                                 6
 STAT SP IPHASW D HRMM SECON CODA AMPLIT PERI AZIMU VELO AIN AR TRES W  DIS CAZ7
 BAR2 EZ EP       1016 43.59                             171    0.3210 22.3 189 
 BAR2 EZ ES       1016 58.48                             171   -0.2010 22.3 189 
 BAR2 EZ I        1017  0.04         5.7 0.23            169           22.3 189 
 BRR  HZ EP       1016 45.45                             153    0.6510 71.3 299 
 BRR  HN ES       1017  2.18                             153    0.7710 71.3 299 
 BRR  HZ I        1017  5.28         4.1 0.26            151           71.3 299 
 RUS  HZ EP       1016 47.68                             144    0.3710 99.6 176 
 RUS  HN ES       1017  5.34                             144   -0.5410 99.6 176 
 RUS  HZ I        1017  8.82         5.4 0.52            146           99.6 176 
 SPBC HZ EP       1016 51.50                             130   -0.50 9  162 219 
 SPBC HN ES       1017 13.83                             130   -0.40 9  162 219 
 SPBC HZ I        1017 19.62         9.2 0.20            130            162 219 
 ZAR  HZ EP   1   1016 56.37                             123    0.34 6  204 292 
 ZAR  HE ES       1017 20.91                             123   -0.49 9  204 292 
 ZAR  HZ I        1017 27.82         4.5 0.19            124            204 292 
 NOR  HZ EP       1016 59.27                             119    0.06 8  234 235 
 NOR  HN ES       1017 27.06                             119    0.00 8  234 235 
 NOR  HZ I        1017 29.93         3.0 0.22            120            234 235 
 SML  HZ EP       1016 59.64                             118   -0.64 8  244 335 
 SML  HN ES       1017 28.50                             118   -0.47 8  244 335 
 GUY2CHZ EP   1   1017  7.70                             113    0.63 5  300 235 
 GUY2CHN ES       1017 40.99                             113   -0.06 7  300 235 
 GUY2CHZ I        1017 52.72         2.1 0.46                           300 235 
 PRA  HZ EP       1017 16.45                             107   -0.49 6  391 210 
 PRA  HN ES       1017 59.44                             107    0.82 6  391 210 
 PRA  HZ I        1018  2.85         1.7 0.26            108            391 210 
                                                                                
