 2017  510 1414 52.5 L   6.086 -73.774 92.6  RSN  4 0.3 1.3LRSN                1
 GAP=143        0.81       5.1     3.1  8.5  0.3345E+01  0.7005E+01 -0.2532E+01E
 Epicentro: EL PENON - SANTANDER                                               3
 ACTION:UPD 17-06-16 13:34 OP:jn   STATUS:               ID:20170510141452 L   I
 OLDACT:REG 17-05-10 20:51 OP:lv   STATUS:               ID:20170510140743     3
 2017-05-10-1408-00M.COL___362                                                 6
 STAT SP IPHASW D HRMM SECON CODA AMPLIT PERI AZIMU VELO AIN AR TRES W  DIS CAZ7
 RUS  HZ EP       1415  9.39                             137   -0.2510 79.5 106 
 RUS  HN ES       1415 23.18                             137    0.2010 79.5 106 
 RUS  HZ I        1415 24.90         5.0 0.21            140           79.5 106 
 PTB  HZ EP       1415  9.69                             132   -0.2810 90.6 304 
 PTB  HN ES       1415 23.42                             132   -0.1510 90.6 304 
 PTB  HZ I        1415 26.24         2.9 0.06            134           90.6 304 
 NOR  HZ EP       1415 14.10                             120   -0.2910  134 245 
 NOR  HN ES       1415 31.76                             120    0.3210  134 245 
 ZAR  HZ EP       1415 21.86                             111    0.60 9  196 322 
 ZAR  HE ES   4   1415 45.36                             111    1.69 0  196 322 
 ZAR  HZ I        1415 46.25         4.9 0.23            111            196 322 
                                                                                
