 2015  410 1426 26.4 L   6.776 -73.127149.2  RSN 11 0.4 2.1LRSN                1
 GAP=140        0.89       3.0     3.6  5.1 -0.2536E+01  0.6373E+01 -0.5131E+00E
 Epicentro: LOS SANTOS - SANTANDER                                             3
 ACTION:UPD 15-06-03 16:53 OP:cam  STATUS:               ID:20150410142626 L   I
 OLDACT:UP  15-04-10 21:14 OP:mh   STATUS:               ID:20150410141749     3
 OLDACT:REG 15-04-10 20:23 OP:mh   STATUS:               ID:20150410141749     3
 2015-04-10-1417-49M.COL___272                                                 6
 STAT SP IPHASW D HRMM SECON CODA AMPLIT PERI AZIMU VELO AIN AR TRES W  DIS CAZ7
 BAR2 EZ EP   1   1426 46.58                             172    0.16 7 21.3 197 
 BAR2 EZ ES       1427  2.13                             172    0.1110 21.3 197 
 BAR2 EZ I        1427  5.86        25.3 0.30            170           21.3 197 
 BRR  HZ EP       1426 48.39                             152    0.2810 74.3 300 
 BRR  HN ES       1427  5.78                             152    0.7610 74.3 300 
 BRR  HZ I        1427  9.91        19.7 0.08            151           74.3 300 
 PAM  SZ EP       1426 49.40                             151    0.3610 78.1  37 
 PAM  SN ES       1427  6.25                             151   -0.4310 78.1  37 
 PAM  SZ I        1427  9.02        25.3 0.28            157           78.1  37 
 RUS  HZ EP       1426 50.20                             145   -0.1110 97.9 177 
 RUS  HN ES       1427  8.70                             145   -0.2510 97.9 177 
 RUS  HZ I        1427 12.32         8.8 0.38            149           97.9 177 
 PTB  HZ EP       1426 53.25                             132   -0.55 9  149 260 
 PTB  HN ES   1   1427 14.48                             132   -0.68 7  149 260 
 PTB  HZ I        1427 21.61        20.9 0.24            134            149 260 
 SPBC HZ EP       1426 55.55                             130    0.44 9  162 220 
 SPBC HN ES       1427 17.47                             130   -0.03 9  162 220 
 SPBC HZ I        1427 20.34        31.1 0.26            132            162 220 
 OCA  HZ EP       1426 55.21                             130   -0.05 9  163 353 
 OCA  HN ES       1427 17.40                             130   -0.35 9  163 353 
 ZAR  HZ EP       1426 59.17                             123   -0.21 8  207 293 
 ZAR  HN ES       1427 25.18                             123    0.08 8  207 293 
 ZAR  HZ I        1427 32.22        18.5 0.06            125            207 293 
 NOR  HZ EP   1   1427  2.27                             119   -0.09 6  235 235 
 NOR  HN ES   1   1427 29.74                             119   -0.66 6  235 235 
 HEL  HZ EP       1427  7.29                             115    0.33 8  273 256 
 HEL  HN ES       1427 38.56                             115   -0.02 8  273 256 
 HEL  HZ I        1427 46.36         7.5 0.30            118            273 256 
 GUY2CHZ EP   4   1427 12.20                             113    1.99 0  301 235 
 GUY2CHN ES   1   1427 44.99                             113    0.63 5  301 235 
 GUY2CHZ I        1427 53.09         6.5 0.36                           301 235 
                                                                                
