 2016  710 1536 34.7 L   6.738 -73.207150.0  RSN  5 0.3 1.7LRSN                1
 GAP=224        0.69       5.3     4.8  5.1  0.1586E+02  0.3428E+01 -0.1843E+01E
 Epicentro: VILLANUEVA - SANTANDER                                             3
 ACTION:UPD 17-03-29 16:49 OP:lp   STATUS:               ID:20160710153634 L   I
 OLDACT:REG 16-07-10 21:55 OP:edw  STATUS:               ID:20160710153400     3
 2016-07-10-1533-59S.COL___328                                                 6
 STAT SP IPHASW D HRMM SECON CODA AMPLIT PERI AZIMU VELO AIN AR TRES W  DIS CAZ7
 BAR2 EZ EP       1536 54.35                             173   -0.3410 16.3 170 
 BAR2 EZ ES       1537  9.99                             173   -0.3210 16.3 170 
 BAR2 EZ I        1537 10.86        10.3 0.22            177           16.3 170 
 BRR  HZ EP       1536 56.30                             154    0.1310 69.1 306 
 BRR  HN ES       1537 13.32                             154    0.3910 69.1 306 
 BRR  HZ I        1537 20.66        13.5 0.32            151           69.1 306 
 RUS  HZ EP       1536 58.73                             146    0.3110 94.5 172 
 RUS  HN ES       1537 17.03                             146    0.0910 94.5 172 
 PTB  HZ EP       1537  1.02                             135   -0.27 9  140 261 
 PTB  HN ES       1537 22.11                             135    0.05 9  140 261 
 PTB  HZ I        1537 25.66         5.5 0.20            136            140 261 
 ZAR  HZ EP       1537  7.19                             124    0.15 9  201 295 
 ZAR  HE ES       1537 32.04                             124   -0.25 9  201 295 
 ZAR  HZ I        1537 38.00         5.2 0.26            125            201 295 
                                                                                
