 2010  810 1434 27.2 L   6.800 -73.079140.1  RSN 14 0.6 2.7LRSN                1
 GAP=163        1.37       4.4     8.9  7.2 -0.1503E+02  0.8074E+01  0.1299E+01E
 Epicentro: LOS SANTOS - SANTANDER                                             3
 ACTION:UP  10-09-07 10:53 OP:vdl  STATUS:               ID:20100810143427 L   I
 2010-08-10-1431-13S.COL___125                                                 6
 STAT SP IPHASW D HRMM SECON CODA AMPLIT PERI AZIMU VELO SNR AR TRES W  DIS CAZ7
 BAR2 SZ IP       1434 46.13                             169     0.010   26 207 
 BAR2 SZ ES       1435  0.28                             169    -0.710   26 207 
 BAR2 SZ I        1435  1.87       115.3 0.69                            26 207 
 GIR2 SZ EP       1434 46.17                             166     0.010   33 338 
 GIR2 SZ ES   1   1435  1.40                             166     0.3 7   33 338 
 BRR  HZ IP     C 1434 47.97                             149    -0.110   78 296 
 BRR  HN ES       1435  4.70                             149     0.310   78 296 
 BRR  HZ I        1435  9.18       182.7 1.02                            78 296 
 RUS  HZ EP       1434 50.24                             142    -0.110  100 180 
 RUS  HN ES       1435  8.52                             142     0.110  100 180 
 RUS  HZ I        1435 10.24        32.4 0.54                           100 180 
 BRI  SZ EP   1   1434 50.76                             141     0.4 7  106  17 
 BRI  SZ ES   2   1435  8.64                             141     0.2 5  106  17 
 BRI  SZ I        1435 10.71        45.2 0.49                           106  17 
 GUE  SZ EP       1434 52.14                             138     0.910  115   8 
 GUE  SZ ES   2   1435 11.03                             138     1.0 5  115   8 
 GUE  SZ I        1435 13.46        43.2 0.19                           115   8 
 GRA  SZ IP       1434 51.96                             136     0.210  124  14 
 GRA  SZ ES   1   1435 10.02                             136    -0.9 7  124  14 
 GRA  SZ I        1435 13.56        96.1 0.58                           124  14 
 OCA  SZ EP       1434 54.67                             128    -0.5 9  161 351 
 OCA  SZ ES   2   1435 15.65                             128    -1.3 5  161 351 
 OCA  SZ I        1435 19.55       108.0 0.23                           161 351 
 CHI  HZ EP   1   1435  4.62                             116    -0.1 6  251 197 
 CHI  HN ES   2   1435 33.64                             116    -0.5 4  251 197 
 CHI  HZ I        1435 37.27        16.3 0.23                           251 197 
 ROSC BN ES   1   1435 36.58                             115     1.3 6  257 212 
 ROSC BZ I        1435 42.25        32.7 0.57                           257 212 
 RREF HZ EP   1   1435 14.55                                     0.8 5  327 230 
 RREF HN ES   2   1435 50.79                             109     0.8 3  327 230 
 RREF HZ I        1435 55.20        30.1 0.04                           327 230 
 DBB  SZ EP       1435 14.49                             108    -0.8 6  347 274 
 ANIL HN ES   2   1435 56.83                             107     0.3 3  363 225 
 PRA  HZ EP       1435 20.22                             105    -0.7 6  396 211 
 PRA  HN ES   1   1436  1.77                             105    -1.1 4  396 211 
 PRA  HZ I        1436  7.19        15.5 0.62                           396 211 
                                                                                
