 2013  710 1438  5.3 L   6.708 -73.183155.2  RSN  4 0.2 2.6LRSN                1
 GAP=181        0.65       8.5     4.8  5.6 -0.3106E+01  0.7609E+00  0.1164E+01E
 Epicentro: VILLANUEVA - SANTANDER                                             3
 ACTION:UPD 13-08-12 10:36 OP:ep   STATUS:               ID:20130710143805 L   I
 OLDACT:DUP 13-07-10 17:10 OP:stll STATUS:               ID:20130710142846d    3
 2013-07-10-1428-45M.COL___226                                                 6
 STAT SP IPHASW D HRMM SECON CODA AMPLIT PERI AZIMU VELO AIN AR TRES W  DIS CAZ7
 BAR2 SZ EP       1438 25.90                             175    0.0310 12.8 180 
 BAR2 SZ ES       1438 42.04                             175    0.0910 12.8 180 
 GIR2 SZ EP       1438 25.90                             164   -0.4410 41.0 358 
 BRR  HZ EP       1438 27.84                             153    0.2910 73.3 307 
 BRR  HN ES       1438 45.01                             153    0.0810 73.3 307 
 BRR  HN I        1438 49.36        66.9 0.20            149           73.3 307 
 PTB  HZ EP       1438 32.70                             135    0.18 9  142 263 
 PTB  HZ ES       1438 53.54                             135   -0.24 9  142 263 
                                                                                
