 2014  710 1201 59.5 L   6.808 -73.156147.3  RSN  6 0.2 1.6LRSN                1
 GAP=200        0.48       2.4     2.7  4.2  0.1785E+01  0.1440E+01 -0.3924E+01E
 Epicentro: LOS SANTOS - SANTANDER                                             3
 ACTION:UPD 15-03-16 20:42 OP:nd   STATUS:               ID:20140710120159 L   I
 OLDACT:REG 14-07-10 19:34 OP:cam  STATUS:               ID:20140710120000     3
 2014-07-10-1200-00M.COL___282                                                 6
 STAT SP IPHASW D HRMM SECON CODA AMPLIT PERI AZIMU VELO AIN AR TRES W  DIS CAZ7
 BAR2 SZ EP       12 2 19.29                             170   -0.0810 24.1 187 
 BAR2 SZ ES       12 2 34.75                             170   -0.0810 24.1 187 
 BAR2 SZ I        12 2 35.99         8.9 0.26            170           24.1 187 
 RUS  HZ EP       12 2 23.72                             144    0.2110  102 175 
 RUS  HE ES       12 2 42.26                             144    0.0510  102 175 
 RUS  HZ I        12 2 44.96         2.6 0.22            147            102 175 
 PTB  HZ EP       12 2 26.12                             133   -0.42 9  147 258 
 PTB  HN ES       12 2 47.69                             133    0.09 9  147 258 
 PTB  HZ I        12 2 52.88         4.3 0.52            133            147 258 
 ZAR  HZ EP   4   12 2 33.97                             123    2.04 0  203 292 
 ZAR  HN ES       12 2 57.37                             123    0.17 9  203 292 
 ZAR  HZ I        12 3  3.54         4.1 0.28            124            203 292 
 NOR  HE ES   1   12 3  3.22                             119    0.01 6  234 234 
 SML  HZ EP       12 2 36.27                             118    0.17 8  242 335 
 SML  HE ES       12 3  4.57                             118   -0.06 8  242 335 
 SML  HZ I        12 3  8.80         5.1 0.10            119            242 335 
                                                                                
