 2012  210 1529 58.3 L   6.777 -73.114148.4  RSN  5 0.2 1.7LRSN                1
 GAP=239        0.41       3.2     4.1  3.9  0.3167E+01  0.1048E+01  0.2460E+01E
 ACTION:UP  12-03-07 16:29 OP:epov STATUS:               ID:20120210152958 L   I
 2012-02-10-1530-00M.COL___188                                                 6
 STAT SP IPHASW D HRMM SECON CODA AMPLIT PERI AZIMU VELO AIN AR TRES W  DIS CAZ7
 BAR2 SZ EP       1530 18.12                             171   -0.1510 21.8 200 
 BAR2 SZ ES   1   1530 33.68                             171   -0.12 7 21.8 200 
 BAR2 SZ I        1530 34.67        13.8 0.12                          21.8 200 
 BRR  HZ EP       1530 20.11                             152    0.0810 75.5 299 
 BRR  HE ES   1   1530 37.07                             152    0.13 7 75.5 299 
 BRR  HZ I        1530 41.32        13.7 0.47                          75.5 299 
 RUS  HZ EP       1530 22.08                             145   -0.0910 97.8 178 
 RUS  HN ES   1   1530 40.97                             145    0.22 7 97.8 178 
 RUS  HZ I        1530 41.95         4.4 0.34                          97.8 178 
 NOR  SN ES   1   1531  2.30                             119   -0.19 6  236 235 
 CHI  HZ EP   1   1530 36.29                             118    0.26 6  247 196 
 CHI  HZ I        1530 38.68         2.4 0.23                           247 196 
                                                                                
