 2012  110 1418 29.5 L   6.829 -73.179145.1  RSN  6 0.5 1.3LRSN                1
 GAP=131        0.92       5.4     5.8 11.9 -0.1156E+00  0.2156E+02  0.1359E+02E
 Epicentro: ZAPATOCA - SANTANDER                                               3
 ACTION:UP  12-02-03 08:16 OP:REBC STATUS:               ID:20120110141829 L   I
 2012-01-10-1416-00S.MAN___179                                                 6
 STAT SP IPHASW D HRMM SECON CODA AMPLIT PERI AZIMU VELO SNR AR TRES W  DIS CAZ7
 BAR2 SZ EP   1   1418 49.25                             169     0.1 7   26 181 
 PAM  SZ EP   1   1418 52.05                             150     0.4 7   77  43 
 PAM  SN ES   1   1419  8.89                             150     0.0 7   77  43 
 RUS  HN ES   1   1419 11.71                             143    -0.4 7  104 174 
 RUS  HZ I        1419 14.26         3.5 0.22                           104 174 
 PTB  HZ EP   1   1418 55.74                             132    -0.4 7  145 257 
 PTB  HN ES   1   1419 16.90                             132     0.0 7  145 257 
 PTB  HZ I        1419 19.74         0.0 0.15                           145 257 
 ZAR  HN ES   1   1419 26.51                             123     0.2 6  199 292 
 CHI  HZ EP   1   1419  6.73                             117    -0.7 6  251 194 
 CHI  HE ES   1   1419 38.04                             117     1.1 6  251 194 
                                                                                
