 2012  110 1943  5.2 L   6.746 -73.184130.0  RSN  4 0.5 1.6LRSN                1
 GAP=134        0.99       6.4     5.7 13.1 -0.4079E+01  0.2805E+02 -0.1636E+02E
 Epicentro: VILLANUEVA - SANTANDER                                             3
 ACTION:UP  12-02-03 08:16 OP:REBC STATUS:               ID:20120110194305 L   I
 2012-01-10-1940-00M.COL___185                                                 6
 STAT SP IPHASW D HRMM SECON CODA AMPLIT PERI AZIMU VELO SNR AR TRES W  DIS CAZ7
 PAM  SZ EP       1943 26.02                             145    -0.310   85  39 
 PAM  SN ES   1   1943 43.07                             145     0.3 7   85  39 
 RUS  HZ EP   1   1943 27.33                             142     0.3 7   95 173 
 RUS  HN ES   1   1943 43.83                             142    -0.2 7   95 173 
 RUS  HZ I        1943 46.91         5.2 0.31                            95 173 
 PTB  HZ EP   1   1943 30.06                             129    -0.4 7  143 261 
 PTB  HN ES   1   1943 50.61                             129     0.5 7  143 261 
 ZAR  HZ EP   1   1943 37.36                             119     0.8 6  202 294 
 ZAR  HN ES   1   1944  0.27                             119    -0.7 6  202 294 
 ZAR  HZ I        1944  7.29         6.3 0.40                           202 294 
                                                                                
