 2011  510 1051 55.3 L   6.774 -73.071127.4  RSN 11 0.4 1.8LRSN                1
 GAP=147        0.81       4.5     6.6  6.9 -0.7937E+01 -0.4478E+01 -0.2644E+01E
 Epicentro: LOS SANTOS - SANTANDER                                             3
 ACTION:UP  11-06-29 08:52 OP:tino STATUS:               ID:20110510105155 L   I
 2011-05-10-1049-12S.COL___132                                                 6
 STAT SP IPHASW D HRMM SECON CODA AMPLIT PERI AZIMU VELO SNR AR TRES W  DIS CAZ7
 BAR2 SZ EP   1   1052 12.71                             169     0.0 7   24 211 
 BAR2 SZ ES   1   1052 25.39                             169    -0.9 7   24 211 
 BAR2 SZ I        1052 30.85        16.8 0.57                            24 211 
 BTL  SZ EP   1   1052 12.89                             167     0.1 7   27 306 
 BTL  SZ ES   2   1052 26.56                             167     0.1 5   27 306 
 GIR2 SZ EP   1   1052 12.86                             163    -0.1 7   36 338 
 PAM  SZ EP   1   1052 15.76                             148     0.4 7   75  33 
 PAM  SN ES   2   1052 31.66                             148     0.6 5   75  33 
 BRR  HZ EP   1   1052 14.83                             145    -0.2 7   80 298 
 BRR  HN ES   1   1052 31.19                             145     0.7 7   80 298 
 BRR  HZ I        1052 32.62        21.0 0.15                            80 298 
 RUS  HZ EP   1   1052 17.27                             141     0.2 7   98 181 
 RUS  HN ES   2   1052 34.29                             141     0.3 5   98 181 
 RUS  HZ I        1052 37.03         6.9 0.34                            98 181 
 BRI  SZ EP   1   1052 17.44                             137     0.0 7  109  16 
 BRI  SZ I        1052 40.66        10.3 0.36                           109  16 
 GRA  SZ EP   1   1052 18.74                             132    -0.3 7  126  14 
 GRA  SZ ES   2   1052 37.20                             132    -0.3 5  126  14 
 GRA  SZ I        1052 39.12         8.1 0.35                           126  14 
 OCA  SZ EP   2   1052 22.49                             124    -0.1 5  164 350 
 OCA  SZ ES   2   1052 43.70                             124    -0.3 5  164 350 
 OCA  SZ I        1052 50.84         7.6 0.30                           164 350 
 NOR  SN ES   2   1052 57.93                             114    -0.2 4  240 236 
 HEL  HZ EP   2   1052 35.27                             110    -0.2 4  279 257 
 HEL  HZ I        1052 49.04         5.4 0.62                           279 257 
                                                                                
