 2011 1010 1627 53.8 L   6.758 -73.106141.5  RSN  5 0.2 1.8LRSN                1
 GAP=144        0.39       3.4     5.0  4.5  0.2640E+01 -0.4070E+01 -0.2657E+01E
 Epicentro: LOS SANTOS - SANTANDER                                             3
 ACTION:UPD 12-07-13 16:03 OP:ep   STATUS:               ID:20111010162753 L   I
 2011-10-10-1626-10S.COL___168                                                 6
 STAT SP IPHASW D HRMM SECON CODA AMPLIT PERI AZIMU VELO AIN AR TRES W  DIS CAZ7
 BAR2 SZ EP       1628 12.77                             172   -0.0910 20.2 205 
 BAR2 SZ ES   1   1628 27.51                             172   -0.21 7 20.2 205 
 BAR2 SZ I        1628 28.59         8.1 0.22                          20.2 205 
 BRR  HZ EP       1628 14.72                             150   -0.1410 77.3 300 
 BRR  HZ I        1628 16.56        16.4 0.32                          77.3 300 
 BRR  HN ES   2   1628 31.66                             150    0.38 5 77.3 300 
 PAM  SZ EP       1628 15.75                             149    0.1210 78.4  35 
 PAM  SN ES   3   1628 32.83                             149    0.17 2 78.4  35 
 RUS  HZ EP       1628 16.82                             144    0.0410 95.7 178 
 RUS  HE ES   2   1628 34.97                             144    0.26 5 95.7 178 
 ZAR  HZ EP   3   1628 26.93                             121    0.35 2  210 293 
 ZAR  HZ I        1628 56.30         5.3 0.34                           210 293 
                                                                                
