 2016  410 1943 11.8 L   6.808 -73.176146.1  RSN  7 0.4 1.5LRSN                1
 GAP=132        1.03       4.9     4.6  8.6 -0.3529E+01  0.1197E+02 -0.4241E+01E
 Epicentro: LOS SANTOS - SANTANDER                                             3
 ACTION:UPD 16-05-05 14:20 OP:rebc STATUS:               ID:20160410194311 L   I
 OLDACT:UP  16-04-10 23:17 OP:drio STATUS:               ID:20160410193748     3
 OLDACT:UP  16-04-10 23:17 OP:drio STATUS:               ID:20160410193748     3
 OLDACT:REG 16-04-10 20:39 OP:drio STATUS:               ID:20160410193748     3
 2016-04-10-1937-48M.COL___295                                                 6
 STAT SP IPHASW D HRMM SECON CODA AMPLIT PERI AZIMU VELO AIN AR TRES W  DIS CAZ7
 BAR2 EZ EP       1943 31.50                             170    0.0510 23.9 182 
 BAR2 EZ ES       1943 47.18                             170    0.3710 23.9 182 
 BAR2 EZ I        1943 47.98         9.2 0.20            171           23.9 182 
 PAM  EZ EP       1943 34.57                             150    0.4610 78.9  42 
 PAM  EE ES       1943 51.37                             150   -0.1710 78.9  42 
 PAM  EZ I        1943 53.57         3.8 0.50            152           78.9  42 
 RUS  HZ EP       1943 35.57                             144   -0.0710  102 174 
 RUS  HE ES       1943 53.60                             144   -0.6610  102 174 
 RUS  HZ I        1943 55.46         2.4 0.52            146            102 174 
 PTB  HZ EP       1943 38.13                             133   -0.35 9  145 258 
 PTB  HN ES       1943 59.07                             133   -0.25 9  145 258 
 PTB  HZ I        1944  3.11         4.1 0.20            134            145 258 
 SPBC HE ES       1944  3.06                             129    0.75 9  162 218 
 ZAR  HZ EP   4   1943 45.84                             123    1.96 0  201 292 
 ZAR  HN ES       1944  8.84                             123   -0.09 9  201 292 
 GUY2CHZ EP   4   1943 57.07                             113    1.93 0  299 234 
 GUY2CHE ES   4   1944 32.68                             113    3.71 0  299 234 
 GUY2CHZ I        1944 36.90         2.3 0.32                           299 234 
                                                                                
