 2012 1010 1921 13.0 L   6.800 -73.107140.0  RSN  5 0.2 1.7LRSN                1
 GAP=141        0.53       3.5     5.7  6.0 -0.2522E+01  0.4007E+01  0.3664E+00E
 Epicentro: LOS SANTOS - SANTANDER                                             3
 ACTION:UPD 12-11-22 17:03 OP:ep   STATUS:               ID:20121010192113 L   I
 2012-10-10-1920-00M.COL___229                                                 6
 STAT SP IPHASW D HRMM SECON CODA AMPLIT PERI AZIMU VELO AIN AR TRES W  DIS CAZ7
 BAR2 SZ EP       1921 31.95                             170   -0.0210 24.4 200 
 BAR2 SZ I        1921 32.07        14.0 0.40                          24.4 200 
 BAR2 SZ ES   2   1921 46.94                             170    0.18 5 24.4 200 
 GIR2 SZ EP   3   1921 31.98                             166   -0.05 2 32.3 343 
 PAM  SZ EP       1921 34.83                             150    0.3710 74.8  37 
 PAM  SN ES   1   1921 50.88                             150   -0.31 7 74.8  37 
 PAM  SN I        1921 53.80         8.4 0.44                          74.8  37 
 BRR  HZ EP       1921 33.57                             150   -0.1910 75.0 297 
 BRR  HN ES   2   1921 50.24                             150    0.29 5 75.0 297 
 RUS  HZ EP       1921 36.01                             143   -0.1710  100 178 
 RUS  HN ES   1   1921 54.37                             143    0.12 7  100 178 
 RUS  HN I        1921 56.23         9.2 0.36                           100 178 
                                                                                
