 2011  710 1843 15.9 L   6.759 -73.170143.2  RSN  6 0.2 1.7LRSN                1
 GAP=180        0.39       2.5     4.3  3.5  0.2398E+01  0.1540E+01 -0.9734E+00E
 Epicentro: LOS SANTOS - SANTANDER                                             3
 ACTION:UPD 12-07-25 13:59 OP:epov STATUS:               ID:20110710184315 L   I
 2011-07-10-1840-44S.COL___140                                                 6
 STAT SP IPHASW D HRMM SECON CODA AMPLIT PERI AZIMU VELO AIN AR TRES W  DIS CAZ7
 BAR2 SZ EP       1843 35.11                             172   -0.0710 18.5 184 
 BAR2 SZ ES       1843 50.11                             172   -0.0710 18.5 184 
 BAR2 SZ I        1843 51.15        11.3 0.52                          18.5 184 
 BTL  SZ EP       1843 35.42                             171    0.2110 20.6 329 
 BRR  HZ EP       1843 36.87                             152    0.0610 71.2 303 
 BRR  HZ I        1843 37.12        20.9 0.13                          71.2 303 
 BRR  HN ES   1   1843 53.23                             152    0.14 7 71.2 303 
 RUS  HZ EP   1   1843 39.14                             144    0.01 7 96.3 174 
 RUS  HE ES   1   1843 57.18                             144   -0.05 7 96.3 174 
 RUS  HZ I        1843 59.71         3.8 0.33                          96.3 174 
 OCA  SZ EP   2   1843 44.47                             128    0.02 5  164 354 
 OCA  SZ ES   2   1844  6.08                             128   -0.61 5  164 354 
 OCA  SZ I        1844  8.34         8.6 0.90                           164 354 
 NOR  SZ EP   2   1843 50.79                             118   -0.22 4  230 235 
 NOR  SN ES   2   1844 18.17                             118   -0.18 4  230 235 
                                                                                
