 2015  710 1254 44.2 L   6.082 -73.332130.4  RSN  7 0.4 1.9LRSN                1
 GAP=197        0.95       4.5     6.2  9.0 -0.7348E+01  0.2044E+02  0.1518E+02E
 Epicentro: SUAITA - SANTANDER                                                 3
 ACTION:UPD 15-09-08 21:47 OP:cam  STATUS:               ID:20150710125444 L   I
 OLDACT:UP  15-07-11 00:45 OP:ar   STATUS:               ID:20150710124748     3
 OLDACT:REG 15-07-10 22:02 OP:ar   STATUS:               ID:20150710124748     3
 2015-07-10-1247-48M.COL___343                                                 6
 STAT SP IPHASW D HRMM SECON CODA AMPLIT PERI AZIMU VELO AIN AR TRES W  DIS CAZ7
 BAR2 EZ EP       1255  4.01                             154    0.6910 58.8  16 
 BAR2 EZ ES       1255 17.94                             154   -0.3110 58.8  16 
 BAR2 EZ I        1255 22.12         6.2 0.48            148           58.8  16 
 NOR  HZ EP       1255 13.58                             122    0.42 9  180 251 
 NOR  HN ES       1255 35.62                             122   -0.16 9  180 251 
 NOR  HZ I        1255 39.28        12.6 0.24            116            180 251 
 ZAR  HZ EP       1255 17.76                             116   -0.70 8  230 313 
 ZAR  HN ES       1255 45.10                             116   -0.10 8  230 313 
 ZAR  HZ I        1255 50.02         9.6 0.40            109            230 313 
 GUY2CHZ EP       1255 21.17                             114    0.50 8  244 247 
 GUY2CHN ES   2   1255 49.82                             114    0.67 4  244 247 
 GUY2CHZ I        1255 55.89         5.9 0.60                           244 247 
 TOL  SZ EP       1255 23.95                             111   -0.06 7  276 233 
 TOL  SZ I        1255 57.40         3.8 0.42            105            276 233 
 PRA  HZ EP       1255 27.44                             108   -0.56 7  314 213 
 PRA  HN ES       1256  1.71                             108   -0.47 7  314 213 
 PRA  HZ I        1256  4.30         6.9 0.36            102            314 213 
 ORTC HZ EP   2   1255 28.52                             108   -0.30 3  321 222 
 ORTC HN ES       1256  3.82                             108    0.18 7  321 222 
                                                                                
