 2013  310 1633  0.9 L   6.766 -73.156144.4  RSN 10 0.4 2.3LRSN                1
 GAP= 72        1.00       3.2     3.3  5.5 -0.1761E+01  0.6887E+00  0.1025E+01E
 Epicentro: LOS SANTOS - SANTANDER                                             3
 ACTION:UPD 13-04-09 14:01 OP:ep   STATUS:               ID:20130310163300 L   I
 2013-03-10-1628-49M.COL___204                                                 6
 STAT SP IPHASW D HRMM SECON CODA AMPLIT PERI AZIMU VELO AIN AR TRES W  DIS CAZ7
 BAR2 SZ EP       1633 20.44                             172    0.1110 19.5 189 
 BAR2 SZ ES       1633 35.50                             172    0.0410 19.5 189 
 BAR2 SZ I        1633 36.37        47.4 0.16            170           19.5 189 
 BRR  HZ IP     C 1633 22.48                             152    0.4910 72.1 302 
 BRR  HZ I        1633 22.85        17.9 0.12            150           72.1 302 
 BRR  HN ES       1633 39.37                             152    0.9610 72.1 302 
 PAM  SZ EP       1633 23.45                             149    0.2210 81.0  38 
 PAM  SZ I        1633 23.81        32.1 0.16            151           81.0  38 
 PAM  SN ES       1633 40.22                             149   -0.3910 81.0  38 
 RUS  HZ EP       1633 24.23                             145   -0.0610 96.9 175 
 RUS  HN ES       1633 42.10                             145   -0.4110 96.9 175 
 RUS  HN I        1633 43.09        33.6 0.28            143           96.9 175 
 PTB  HZ EP       1633 27.35                             132   -0.28 9  146 260 
 PTB  HN ES       1633 47.74                             132   -0.71 9  146 260 
 PTB  HN I        1633 48.80        31.2 0.36            130            146 260 
 CAPV BZ IP     C 1633 28.78                             131    0.22 9  153  37 
 TAM  HZ EP       1633 28.62                             130    0.09 9  155 104 
 TAM  HN ES       1633 50.17                             130    0.13 9  155 104 
 OCA  HZ EP       1633 29.16                             129   -0.32 9  164 354 
 OCA  HN ES       1633 51.22                             129   -0.52 9  164 354 
 OCA  HN I        1633 54.52        83.8 0.22            128            164 354 
 NOR  HZ EP       1633 36.48                             118    0.22 8  232 235 
 NOR  HN ES       1634  3.99                             118    0.19 8  232 235 
 NOR  HN I        1634 12.17        26.3 0.14            117            232 235 
 CHI  HZ EP   1   1633 37.98                             117   -0.16 6  245 195 
 CHI  HN ES   1   1634  7.18                             117    0.03 6  245 195 
 CHI  HN I        1634 12.30         8.8 0.32            116            245 195 
                                                                                
