 2013  910 1020  6.5 L   6.281 -73.672110.9  RSN  6 0.5 1.5LRSN                1
 GAP= 89        1.18       5.5     5.0 11.5  0.5132E+01  0.1181E+02  0.9862E+01E
 Epicentro: SANTA HELENA DEL OPON - SANTANDER                                  3
 ACTION:UPD 13-10-22 09:21 OP:ep   STATUS:               ID:20130910102006 L   I
 OLDACT:UP  13-09-10 16:16 OP:cam  STATUS:               ID:20130910101959     3
 OLDACT:REG 13-09-10 14:53 OP:cam  STATUS:               ID:20130910101959     3
 2013-09-10-1019-59M.COL___269                                                 6
 STAT SP IPHASW D HRMM SECON CODA AMPLIT PERI AZIMU VELO AIN AR TRES W  DIS CAZ7
 BAR2 SZ EP       1020 24.12                             148    0.2110 64.2  58 
 BAR2 SZ ES       1020 37.22                             148   -0.2410 64.2  58 
 BAR2 SZ I        1020 38.37        28.2 0.18            150           64.2  58 
 RUS  HZ EP       1020 25.11                             142   -0.1210 78.1 123 
 RUS  HN ES   1   1020 39.74                             142   -0.08 7 78.1 123 
 SPBC HZ EP   1   1020 25.21                             141    0.21 7 82.4 213 
 SPBC HN ES   1   1020 40.28                             141    0.88 7 82.4 213 
 SPBC HZ I        1020 41.20         4.4 0.18            141           82.4 213 
 PTB  HZ EP       1020 25.06                             137   -0.5410 91.3 288 
 PTB  HN ES       1020 39.79                             137   -0.6910 91.3 288 
 PTB  HZ I        1020 40.30         3.2 0.28            139           91.3 288 
 BRR  HN ES       1020 40.83                             137    0.3710 91.5 357 
 ZAR  HE ES   1   1020 58.46                             116    1.03 7  187 316 
                                                                                
