 2010  210 1136 48.0 L   6.776 -72.907136.6  RSN  7 0.5 2.1LRSN                1
 GAP=217        0.74       5.4    13.4  8.0 -0.3609E+02  0.2189E+02  0.1049E+02E
 Epicentro: CEPITA - SANTANDER                                                 3
 ACTION:UP  10-08-24 09:48 OP:vdl  STATUS:               ID:20100210113648 L   I
 2010-02-10-1136-07S.COL___094                                                 6
 STAT SP IPHASW D HRMM SECON CODA AMPLIT PERI AZIMU VELO SNR AR TRES W  DIS CAZ7
 BAR2 SZ IP       1137  7.40                             165     0.510   37 236 
 BAR2 SZ ES   2   1137 21.11                             165    -0.6 5   37 236 
 GIR2 SZ EP   1   1137  7.38                             161     0.3 7   46 317 
 GIR2 SZ ES   2   1137 22.18                             161     0.2 5   46 317 
 OCA  SZ EP   1   1137 16.16                             126    -0.2 7  168 344 
 OCA  SZ ES   2   1137 37.73                             126    -0.8 5  168 344 
 CHI  HZ EP   1   1137 25.78                             115    -0.1 6  254 201 
 CHI  HE ES   2   1137 54.58                             115    -0.8 4  254 201 
 CHI  HZ I        1137 59.65         5.0 0.66                           254 201 
 RREF BZ EP   1   1137 35.64                             108    -0.3 5  341 233 
 RREF BN ES   2   1138 13.38                             108     0.0 3  341 233 
 RREF BZ I        1138 17.25         4.6 0.41                           341 233 
 TOL  SZ EP   1   1137 38.15                             107     0.2 5  361 228 
 TOL  SZ ES   2   1138 17.75                             107     0.9 3  361 228 
 PRA  HZ EP   1   1137 41.84                             105    -0.7 4  403 213 
 PRA  HN ES   2   1138 24.81                             105    -0.3 3  403 213 
 PRA  HZ I        1138 29.78         6.2 0.24                           403 213 
                                                                                
