 2012  110 1630 59.5 L   6.812 -73.174146.0  RSN  7 0.4 1.7LRSN                1
 GAP=132        0.84       4.5     4.7  6.8  0.3248E+01  0.7719E+01  0.6822E+01E
 Epicentro: LOS SANTOS - SANTANDER                                             3
 ACTION:UP  12-02-03 08:16 OP:REBC STATUS:               ID:20120110163059 L   I
 2012-01-10-1630-00M.COL___186                                                 6
 STAT SP IPHASW D HRMM SECON CODA AMPLIT PERI AZIMU VELO SNR AR TRES W  DIS CAZ7
 BAR2 SZ IP       1631 19.22                             170     0.010   24 182 
 BAR2 SZ ES   1   1631 34.58                             170     0.0 7   24 182 
 BAR2 SZ I        1631 37.02        13.6 0.17                            24 182 
 BRR  HN ES   1   1631 37.78                             154     0.9 7   68 299 
 PAM  SZ EP   1   1631 21.99                             151     0.1 7   78  42 
 PAM  SN ES   1   1631 38.96                             151    -0.3 7   78  42 
 RUS  HZ EP       1631 23.30                             143    -0.110  102 174 
 RUS  HN ES   1   1631 41.84                             143    -0.2 7  102 174 
 RUS  HZ I        1631 43.74         6.7 0.32                           102 174 
 PTB  HZ EP       1631 25.94                             133    -0.3 9  145 258 
 PTB  HN ES   1   1631 46.59                             133    -0.5 7  145 258 
 ZAR  HZ EP   1   1631 31.81                             123     0.2 6  201 292 
 ZAR  HN ES   1   1631 56.63                             123    -0.1 6  201 292 
 CHI  HZ EP   1   1631 37.78                             117     0.5 6  249 194 
 CHI  HN ES   1   1632  7.35                             117     0.6 6  249 194 
 CHI  HZ I        1632 12.16         4.5 0.28                           249 194 
                                                                                
