 2011  410 1843 10.0 L   6.763 -73.322119.6  RSN  5 0.3 1.8LRSN                1
 GAP=171        0.58       7.8     8.8  7.8 -0.4053E+01  0.2849E+01  0.5843E+01E
 Epicentro: ZAPATOCA - SANTANDER                                               3
 ACTION:UP  11-06-22 15:30 OP:REBC STATUS:               ID:20110410184309 L   I
 2011-04-10-1839-34S.COL___138                                                 6
 STAT SP IPHASW D HRMM SECON CODA AMPLIT PERI AZIMU VELO SNR AR TRES W  DIS CAZ7
 BTL  SZ EP       1843 26.25                             170    -0.110   18  19 
 BAR2 SZ EP       1843 26.51                             169     0.010   24 141 
 BAR2 SZ ES   1   1843 39.50                             169     0.1 7   24 141 
 BAR2 SZ I        1843 40.33        17.1 0.24                            24 141 
 GIR2 SZ ES   2   1843 39.10                                    -0.8 5   38  22 
 BRR  HZ EP   3   1843 27.23                             153    -0.3 2   57 312 
 BRR  HZ I        1843 27.35        17.5 0.12                            57 312 
 BRR  HN ES   2   1843 41.64                             153     0.4 5   57 312 
 PAM  SZ EP   3   1843 30.83                             140     0.1 2   94  47 
 PAM  SN ES   2   1843 47.24                             140     0.4 5   94  47 
                                                                                
