 2014 1110 1134 57.9 L   6.809 -73.175142.0  RSN 12 0.3 2.2LRSN                1
 GAP=132        0.85       2.9     3.8  4.5 -0.2657E+01  0.4314E+01  0.1783E+01E
 Epicentro: LOS SANTOS - SANTANDER                                             3
 ACTION:UPD 14-12-19 15:41 OP:nd   STATUS:               ID:20141110113457 L   I
 OLDACT:UP  14-11-10 23:19 OP:cam  STATUS:               ID:20141110112815     3
 OLDACT:UP  14-11-10 23:18 OP:cam  STATUS:               ID:20141110112815     3
 OLDACT:UP  14-11-10 23:18 OP:cam  STATUS:               ID:20141110112815     3
 OLDACT:REG 14-11-10 22:28 OP:ccam STATUS:               ID:20141110112815     3
 2014-11-10-1128-15M.COL___286                                                 6
 STAT SP IPHASW D HRMM SECON CODA AMPLIT PERI AZIMU VELO AIN AR TRES W  DIS CAZ7
 BAR2 SZ EP       1135 17.31                             170    0.2510 24.0 182 
 BAR2 SZ ES       1135 31.89                             170   -0.1410 24.0 182 
 BAR2 SZ I        1135 32.77        91.6 0.26            171           24.0 182 
 BRR  HZ IP     C 1135 19.09                             153    0.6710 67.9 299 
 BRR  HN ES       1135 35.15                             153    0.7010 67.9 299 
 BRR  HZ I        1135 40.41        47.4 0.14            151           67.9 299 
 PAM  SZ IP     C 1135 20.05                             150    0.2910 78.7  42 
 PAM  SN ES       1135 36.70                             150   -0.1410 78.7  42 
 PAM  SZ I        1135 39.43        12.0 0.32            153           78.7  42 
 RUS  HZ EP     D 1135 21.14                             143   -0.2110  102 174 
 RUS  HN ES       1135 39.46                             143   -0.2010  102 174 
 RUS  HZ I        1135 40.21        28.7 0.52            146            102 174 
 PTB  HZ EP       1135 24.17                             132   -0.09 9  145 258 
 PTB  HN ES       1135 44.40                             132   -0.45 9  145 258 
 PTB  HZ I        1135 48.33        19.7 0.12            132            145 258 
 OCA  HZ EP       1135 25.63                             129   -0.12 9  159 354 
 OCA  HN ES       1135 46.82                             129   -0.69 9  159 354 
 OCA  HZ I        1135 49.73        27.7 0.20            131            159 354 
 NOR  HZ EP       1135 33.16                             118   -0.01 8  233 234 
 NOR  HE ES       1136  0.61                             118   -0.09 8  233 234 
 NOR  HZ I        1136  6.24         9.3 0.16            119            233 234 
 CHI  HZ EP   1   1135 35.43                             116    0.05 6  249 194 
 HEL  HZ EP   4   1135 39.58                             114    2.00 0  269 255 
 URE  HZ EP   1   1135 38.16                             113   -0.22 6  280 292 
 URE  HN ES   4   1136  8.62                             113   -1.36 0  280 292 
 GUY2CHZ EP   4   1135 42.52                             112    1.44 0  299 234 
 TOL  SZ EP       1135 45.84                             109    0.04 7  342 224 
 MON  HZ EP   4   1135 44.45                             108   -1.91 0  351 309 
 PRA  HZ EP       1135 51.20                             106    0.02 6  391 209 
 ORTC HZ EP       1135 51.61                             106    0.07 6  394 216 
 SJC  HZ EP   4   1135 51.72                             105   -1.28 0  407 327 
                                                                                
