 2015 1010 1127 37.7 L   6.813 -73.127142.4  RSN 23 0.5 2.7LRSN                1
 GAP= 72        1.07       2.3     2.9  4.8 -0.8307E+00  0.4624E+01  0.1828E+01E
 Epicentro: LOS SANTOS - SANTANDER                                             3
 ACTION:UPD 15-12-22 20:38 OP:cam  STATUS:               ID:20151010112737 L   I
 OLDACT:REG 15-10-10 21:22 OP:ak   STATUS:               ID:20151010111748     3
 2015-10-10-1117-48M.COL___337                                                 6
 STAT SP IPHASW D HRMM SECON CODA AMPLIT PERI AZIMU VELO AIN AR TRES W  DIS CAZ7
 BAR2 EZ IP     C 1127 57.25                             170    0.2910 25.2 194 
 BAR2 EZ ES       1128 12.16                             170    0.1710 25.2 194 
 BAR2 EZ I        1128 14.50        79.4 0.19            168           25.2 194 
 BRR  HZ IP     C 1127 58.96                             152    0.4210 72.3 297 
 BRR  HN ES       1128 15.13                             152    0.3210 72.3 297 
 BRR  HZ I        1128 20.20       103.8 0.14            150           72.3 297 
 PAM  EZ EP       1127 59.90                             151    0.4910 75.0  39 
 PAM  EN ES       1128 16.83                             151    0.4910 75.0  39 
 PAM  EZ I        1128 18.68        66.3 0.23            155           75.0  39 
 RUS  HZ EP       1128  1.41                             143    0.2010  102 177 
 RUS  HE ES       1128 19.21                             143   -0.3510  102 177 
 RUS  HZ I        1128 22.01        42.2 0.29            145            102 177 
 TAM  HZ EP       1128  5.50                             130    0.54 9  154 106 
 TAM  HN ES       1128 25.38                             130   -0.85 9  154 106 
 TAM  HZ I        1128 26.23        41.2 0.36            135            154 106 
 OCA  HZ EP       1128  5.12                             129   -0.51 9  159 352 
 OCA  HN ES       1128 27.18                             129   -0.24 9  159 352 
 OCA  HZ I        1128 34.95        89.4 0.20            131            159 352 
 SPBC HZ EP       1128  6.29                             128    0.12 9  166 219 
 SPBC HN ES       1128 28.26                             128   -0.12 9  166 219 
 SPBC HZ I        1128 35.81        96.6 0.16            129            166 219 
 ZAR  HZ EP       1128  9.85                             121   -0.21 8  205 292 
 ZAR  HN ES       1128 35.42                             121    0.11 8  205 292 
 ZAR  HZ I        1128 40.86       136.0 0.30            122            205 292 
 NOR  HZ EP       1128 13.41                             118   -0.09 8  237 234 
 NOR  HE ES       1128 41.59                             118    0.16 8  237 234 
 NOR  HZ I        1128 44.66        43.2 0.26            119            237 234 
 SML  HZ EP       1128 13.36                             117   -0.72 8  243 335 
 SML  HN ES       1128 41.76                             117   -0.71 8  243 335 
 SML  HZ I        1128 43.62        49.1 0.09            118            243 335 
 CHI  HZ EP       1128 15.65                             116    0.23 8  251 196 
 CHI  HN ES       1128 44.25                             116   -0.60 8  251 196 
 CHI  HZ I        1128 49.00        21.5 0.56            118            251 196 
 ROSC BZ EP   1   1128 16.93                             116    1.05 6  255 211 
 ROSC BE ES       1128 44.75                             116   -0.92 8  255 211 
 ROSC BZ I        1128 54.02        48.0 0.40            117            255 211 
 HEL  HZ EP       1128 18.96                             114    0.96 8  274 256 
 HEL  HE ES       1128 48.47                             114   -0.96 8  274 256 
 HEL  HZ I        1128 56.62        31.9 0.24            115            274 256 
 GUY2CHZ EP   1   1128 21.72                             112    0.29 5  304 235 
 GUY2CHN ES       1128 55.83                             112    0.28 7  304 235 
 GUY2CHZ I        1129  3.31        32.6 0.62                           304 235 
 VIL  SZ EP       1128 20.73                             111   -0.44 7  305 192 
 VIL  SE ES       1128 54.86                             111   -0.22 7  305 192 
 ELA  HZ EP       1128 24.77                             110    0.08 7  332 230 
 ELA  HE ES       1129  1.28                             110   -0.07 7  332 230 
 ELA  HZ I        1129 12.49        18.9 0.42            111            332 230 
 CBOC HZ EP       1128 25.15                             109    0.41 7  336 252 
 CBOC HE ES       1129  1.49                             109    0.05 7  336 252 
 CBOC HZ I        1129 12.91        10.5 0.42            110            336 252 
 DBB  SZ EP       1128 24.88                             109   -0.38 7  341 274 
 DBB  SZ ES   4   1128 59.62                             109   -2.74 0  341 274 
 DBB  SZ I        1129  5.34        80.0 0.36            110            341 274 
 SDV  BZ EP   4   1128 26.06                             108   -1.26 0  358  50 
 SDV  BN ES   4   1129  2.79                             108   -3.23 0  358  50 
 SDV  BZ I        1129  6.40         6.7 0.30            110            358  50 
 ANIL HZ EP       1128 27.44                             108   -0.22 6  360 225 
 ANIL HN ES       1129  7.59                             108    0.96 6  360 225 
 ANIL HZ I        1129 12.10        70.5 0.30            109            360 225 
 ORTC HZ EP       1128 31.80                             106    0.02 6  398 216 
 ORTC HN ES       1129 13.90                             106   -0.06 6  398 216 
 ORTC HZ I        1129 20.16        17.6 0.42            107            398 216 
 SJC  HZ EP   4   1128 30.54                             105   -2.59 0  409 327 
 SJC  HN ES   4   1129 10.58                             105   -5.80 0  409 327 
 SJC  HZ I        1129 16.44         8.2 0.43            107            409 327 
 CRJC HZ EP   4   1128 36.98                             103   -2.93 0  466   3 
 CRJC HN ES   4   1129 21.23                             103   -7.21 0  466   3 
 CRJC HZ I        1129 41.86         5.8 0.16            104            466   3 
                                                                                
