 2015  610 1405 41.3 L   6.668 -72.934210.8  RSN 24 0.6 3.3LRSN                1
 GAP=172        1.21       2.9     4.6  5.3 -0.2607E+01  0.4955E+01  0.9648E+00E
 Epicentro: ARATOCA - SANTANDER                                                3
 2015-06-10-1357-51M.COL___309                                                 6
 OLDACT:REG 15-06-10 21:47 OP:ak   STATUS:               ID:20150610135751     3
 OLDACT:UP  15-06-11 00:15 OP:ak   STATUS:               ID:20150610135751     3
 OLDACT:UP  15-06-11 00:16 OP:ak   STATUS:               ID:20150610135751     3
 OLDACT:UP  15-06-11 00:17 OP:ak   STATUS:               ID:20150610135751     3
 ACTION:UPD 15-09-10 22:11 OP:cam  STATUS:               ID:20150610140541 L   I
 OLDACT:UP  15-06-18 07:46 OP:AK   STATUS:               ID:20150610140541 L   3
 STAT SP IPHASW D HRMM SECON CODA AMPLIT PERI AZIMU VELO AIN AR TRES W  DIS CAZ7
 BAR2 EZ IP     C 14 6  8.78                             172   -0.0510 28.7 253 
 BAR2 EZ ES       14 6 30.75                             172    0.4210 28.7 253 
 BAR2 EZ I        14 6 32.46        87.2 0.42            170           28.7 253 
 PAM  SZ IP     C 14 6 10.79                             159    0.0510 78.6  19 
 PAM  SN ES       14 6 32.97                             159   -0.7610 78.6  19 
 PAM  SZ I        14 6 36.28       100.7 0.56            160           78.6  19 
 RUS  HZ IP     C 14 6 11.35                             157    0.2110 87.3 191 
 RUS  HE ES       14 6 34.32                             157   -0.1310 87.3 191 
 RUS  HZ I        14 6 35.38       106.4 0.24            158           87.3 191 
 BRR  HZ IP     C 14 6 11.48                             154    0.4810 98.7 300 
 BRR  HN ES       14 6 35.09                             154    0.9010 98.7 300 
 BRR  HZ I        14 6 39.27       135.4 0.14            153           98.7 300 
 SPBC HZ EP     C 14 6 15.79                             140   -0.04 9  169 228 
 SPBC HN ES       14 6 42.63                             140   -0.16 9  169 228 
 SPBC HZ I        14 6 48.36       365.0 0.19            141            169 228 
 OCA  HZ EP       14 6 16.71                             138   -0.01 9  179 346 
 OCA  HE ES       14 6 44.40                             138    0.02 9  179 346 
 OCA  HZ I        14 6 50.78       237.0 0.30            139            179 346 
 ZAR  HZ EP       14 6 20.89                             130   -0.21 8  231 293 
 ZAR  HE ES       14 6 52.85                             130    0.67 8  231 293 
 ZAR  HZ I        14 6 56.28       121.5 0.29            131            231 293 
 CHI  HZ EP       14 6 22.61                             129   -0.06 8  242 201 
 CHI  HN ES       14 6 54.51                             129   -0.45 8  242 201 
 CHI  HZ I        14 6 56.30        70.2 0.32            131            242 201 
 NOR  HZ EP       14 6 22.88                             129    0.28 8  247 240 
 NOR  HE ES       14 6 54.25                             129   -0.60 8  247 240 
 NOR  HZ I        14 6 58.15       116.3 0.16            130            247 240 
 SML  HZ EP       14 6 24.22                             126   -0.30 8  267 332 
 SML  HE ES       14 6 59.02                             126    0.76 8  267 332 
 SML  HZ I        14 7  0.94       210.7 0.10            127            267 332 
 HEL  HZ EP       14 6 28.20                             124    0.72 7  292 260 
 HEL  HN ES       14 7  3.33                             124   -0.20 7  292 260 
 HEL  HZ I        14 7  6.49        93.1 0.22            125            292 260 
 VIL  SZ EP       14 6 27.93                             123    0.45 7  295 197 
 VIL  SN ES       14 7  2.66                             123   -0.87 7  295 197 
 VIL  SZ I        14 7  4.28        76.4 0.26            125            295 197 
 URE  HZ EP   1   14 6 28.06                             122   -0.92 5  311 293 
 URE  HN ES       14 7  5.22                             122   -0.97 7  311 293 
 URE  HZ I        14 7  7.67       150.5 0.14            123            311 293 
 GUY2CHZ EP       14 6 30.72                             122    0.94 7  313 239 
 GUY2CHN ES       14 7  8.41                             122    0.79 7  313 239 
 GUY2CHZ I        14 7 12.01        58.9 0.46                           313 239 
 LL2C HZ EP       14 6 29.50                             121   -0.81 7  324 350 
 LL2C HN ES       14 7  7.70                             121   -0.86 7  324 350 
 LL2C HZ I        14 7 12.50       163.1 0.26            122            324 350 
 RREF HZ EP       14 6 32.71                             120    0.83 7  331 234 
 RREF HN ES       14 7 10.74                             120   -0.62 7  331 234 
 TOL  SZ EP       14 6 34.39                             119    0.83 6  351 229 
 TOL  SN ES       14 7 13.55                             119   -0.80 6  351 229 
 TOL  SZ I        14 7 19.52        39.8 0.42            120            351 229 
 CBOC HZ EP       14 6 34.33                             119    0.83 6  352 256 
 CBOC HN ES       14 7 13.54                             119   -0.71 6  352 256 
 CBOC HZ I        14 7 19.09        48.0 0.50            120            352 256 
 MON  HZ EP       14 6 35.36                             117   -1.05 6  381 308 
 MON  HN ES       14 7 19.06                             117   -0.36 6  381 308 
 MON  HZ I        14 7 20.65        44.0 0.20            118            381 308 
 PRA  HZ EP       14 6 37.13                             116   -0.52 6  392 214 
 PRA  HN ES   4   14 7 19.92                             116   -1.71 0  392 214 
 PRA  HZ I        14 7 23.64       102.8 0.38            117            392 214 
 ORTC HZ EP       14 6 38.45                             115    0.08 6  398 220 
 ORTC HN ES   4   14 7 21.02                             115   -1.90 0  398 220 
 ORTC HZ I        14 7 25.29        35.8 0.22            117            398 220 
 PAL  HZ EP       14 6 41.20                             114    0.51 5  419 242 
 PAL  HN ES       14 7 26.85                             114   -0.18 5  419 242 
 PAL  HZ I        14 7 31.93        34.1 0.26            116            419 242 
 SJC  HZ EP   4   14 6 40.77                             113   -1.62 0  434 325 
 SJC  HN ES   4   14 7 27.08                             113   -2.98 0  434 325 
 SJC  HZ I        14 7 32.45        30.8 0.28            115            434 325 
 SMAR HZ EP   4   14 6 50.10                             110   -1.59 0  517 344 
 SMAR HN ES   4   14 7 40.01                             110   -6.61 0  517 344 
 SMAR HZ I        14 7 43.10        20.3 0.19            111            517 344 
                                                                                
