 2011 1110 1103 59.5 L   6.764 -73.114152.9  RSN  5 0.3 1.8LRSN                1
 GAP=142        0.63       4.3     4.8  6.1  0.5441E+01  0.3136E+01  0.1506E+01E
 Epicentro: LOS SANTOS - SANTANDER                                             3
 ACTION:UPD 12-07-13 16:09 OP:ep   STATUS:               ID:20111110110359 L   I
 2011-11-10-1100-33S.COL___178                                                 6
 STAT SP IPHASW D HRMM SECON CODA AMPLIT PERI AZIMU VELO AIN AR TRES W  DIS CAZ7
 BAR2 SZ EP       11 4 20.00                             172    0.0510 20.4 202 
 BAR2 SZ ES   1   11 4 36.29                             172    0.40 7 20.4 202 
 BAR2 SZ I        11 4 38.03        10.5 0.16                          20.4 202 
 BRR  HZ EP       11 4 21.79                             152    0.0810 76.2 300 
 BRR  HZ I        11 4 38.55        15.2 0.33                          76.2 300 
 BRR  HE ES   1   11 4 39.29                             152    0.26 7 76.2 300 
 PAM  SZ EP   1   11 4 22.77                             152    0.22 7 78.4  36 
 PAM  SE ES   1   11 4 40.08                             152   -0.44 7 78.4  36 
 RUS  HZ EP       11 4 23.70                             146    0.0210 96.4 178 
 RUS  HN ES   1   11 4 42.15                             146   -0.39 7 96.4 178 
 RUS  HZ I        11 4 43.92         4.0 0.24                          96.4 178 
 ZAR  HE ES   1   11 4 58.50                             123   -0.46 6  209 293 
 ZAR  HZ I        11 5  4.83         7.7 0.54                           209 293 
                                                                                
