 2017  910 1057 20.4 L   6.762 -73.160147.9  RSN  6 0.4 1.4LRSN                1
 GAP=136        0.89       4.0     4.8  6.3  0.1790E+01  0.7359E+01  0.6045E+01E
 Epicentro: LOS SANTOS - SANTANDER                                             3
 ACTION:UPD 17-10-05 19:10 OP:rebc STATUS:               ID:20170910105720 L   I
 OLDACT:DUP 17-09-10 20:59 OP:lv   STATUS:               ID:20170910104740d    3
 2017-09-10-1048-00M.COL___397                                                 6
 STAT SP IPHASW D HRMM SECON CODA AMPLIT PERI AZIMU VELO AIN AR TRES W  DIS CAZ7
 BAR2 EZ EP       1057 40.00                             172   -0.2010 18.9 187 
 BAR2 EZ ES       1057 55.37                             172   -0.2910 18.9 187 
 BAR2 EZ I        1057 56.21         7.9 0.28            171           18.9 187 
 BRR  HZ EP       1057 41.79                             153   -0.0310 71.9 302 
 BRR  HE ES       1057 58.99                             153    0.4610 71.9 302 
 BRR  HZ I        1058  0.21         4.6 0.14            150           71.9 302 
 PAM  EZ EP       1057 42.96                             150   -0.1410 81.7  39 
 PAM  EN ES       1058  0.52                             150   -0.2810 81.7  39 
 PAM  EZ I        1058  3.30         2.3 0.42            152           81.7  39 
 RUS  HZ EP       1057 44.75                             145    0.6810 96.5 175 
 RUS  HN ES       1058  2.65                             145    0.1110 96.5 175 
 RUS  HZ I        1058  4.05         3.2 0.30            145           96.5 175 
 ZAR  HN ES       1058 18.18                             123   -0.24 9  204 293 
 ZAR  HZ I        1058 23.75         2.3 0.06            122            204 293 
 PRA  HZ EP       1058 13.78                             107    0.31 6  388 210 
 PRA  HN ES       1058 54.14                             107   -0.73 6  388 210 
 PRA  HZ I        1059  2.25         1.4 0.38            107            388 210 
                                                                                
