 2013  310 1755  0.1 L   6.827 -73.151148.1  RSN 13 0.4 2.5LRSN                1
 GAP= 70        0.75       2.8     2.8  4.8 -0.5697E-01  0.2846E+01  0.7652E+00E
 Epicentro: LOS SANTOS - SANTANDER                                             3
 ACTION:UPD 13-04-09 14:01 OP:ep   STATUS:               ID:20130310175500 L   I
 2013-03-10-1748-49M.COL___204                                                 6
 STAT SP IPHASW D HRMM SECON CODA AMPLIT PERI AZIMU VELO AIN AR TRES W  DIS CAZ7
 BAR2 SZ EP       1755 20.02                             170   -0.0710 26.2 188 
 BAR2 SZ ES   1   1755 35.80                             170    0.13 7 26.2 188 
 BAR2 SZ I        1755 44.68        81.6 0.26            173           26.2 188 
 BRR  HZ EP   1   1755 21.61                             154    0.20 7 69.3 297 
 BRR  HN ES   1   1755 38.58                             154    0.56 7 69.3 297 
 BRR  HZ I        1755 43.77        53.7 0.16            146           69.3 297 
 PAM  SZ EP       1755 22.59                             152    0.1210 75.5  41 
 PAM  SN ES   1   1755 39.54                             152   -0.36 7 75.5  41 
 PAM  SZ I        1755 39.98        59.2 0.40            145           75.5  41 
 RUS  HZ EP       1755 24.14                             143   -0.1810  104 176 
 RUS  HE ES   1   1755 42.87                             143   -0.32 7  104 176 
 RUS  HZ I        1755 44.67        14.4 0.42            143            104 176 
 PTB  HZ EP   1   1755 26.54                             132   -0.74 7  148 258 
 PTB  HN ES   1   1755 48.03                             132   -0.43 7  148 258 
 PTB  HZ I        1755 50.52        64.7 0.20            127            148 258 
 TAM  HZ EP   1   1755 28.37                             131    0.26 7  156 106 
 TAM  HE ES   1   1755 50.04                             131    0.10 7  156 106 
 ZAR  HZ EP   1   1755 32.59                             123    0.05 6  202 291 
 ZAR  HN ES   1   1755 57.61                             123   -0.23 6  202 291 
 ZAR  HZ I        1756  3.54        83.0 0.32            117            202 291 
 NOR  HZ EP   1   1755 36.01                             119   -0.11 6  236 234 
 NOR  HN ES   1   1756  3.83                             119   -0.37 6  236 234 
 NOR  HZ I        1756 11.53        31.6 0.20            115            236 234 
 SML  HZ EP   1   1755 35.80                             118   -0.75 6  241 335 
 SML  HN ES   1   1756  5.81                             118    0.84 6  241 335 
 SML  HZ I        1756 13.87        31.4 0.10            112            241 335 
 CHI  HZ EP   1   1755 38.45                             117    0.20 6  251 195 
 CHI  HN ES   1   1756  8.65                             117    0.67 6  251 195 
 CHI  HZ I        1756 14.32         9.7 0.44            114            251 195 
 HEL  HZ EP   1   1755 41.27                             115    0.80 6  272 255 
 HEL  HN ES   1   1756 12.02                             115    0.08 6  272 255 
 HEL  HZ I        1756 19.66        24.9 0.58            111            272 255 
 COD  HZ EP   1   1755 48.16                             109   -0.07 5  345 355 
 COD  HZ I        1756 38.69         3.8 0.46            105            345 355 
 PRA  HZ EP   1   1755 53.68                             107   -0.31 4  394 209 
 PRA  HN ES   1   1756 36.70                             107    0.69 4  394 209 
 PRA  HZ I        1756 41.14        12.7 0.32            104            394 209 
                                                                                
