 2017  210 1204 32.6 L   6.746 -73.147146.8  RSN  5 0.3 1.4LRSN                1
 GAP=139        0.64       3.8     5.8  5.6 -0.6731E+01  0.1513E+02 -0.4335E+01E
 Epicentro: LOS SANTOS - SANTANDER                                             3
 ACTION:UPD 17-05-24 15:34 OP:jn   STATUS:               ID:20170210120432 L   I
 OLDACT:UP  17-02-10 22:22 OP:and  STATUS:               ID:20170210115747d    3
 OLDACT:DUP 17-02-10 22:20 OP:and  STATUS:               ID:20170210115747d    3
 2017-02-10-1158-00M.COL___358                                                 6
 STAT SP IPHASW D HRMM SECON CODA AMPLIT PERI AZIMU VELO AIN AR TRES W  DIS CAZ7
 BAR2 EZ EP       12 4 52.18                             173   -0.0410 17.4 193 
 BAR2 EZ ES       12 5  7.57                             173    0.0210 17.4 193 
 BAR2 EZ I        12 5  8.32         7.7 0.30            173           17.4 193 
 BRR  HZ EP       12 4 54.39                             152    0.3910 74.1 303 
 BRR  HN ES   3   12 5 11.63                             152    0.92 2 74.1 303 
 PAM  EZ IP     D 12 4 55.44                             149    0.2510 82.2  37 
 PAM  EN ES       12 5 12.50                             149   -0.3310 82.2  37 
 PAM  EZ I        12 5 15.07         3.1 0.51            150           82.2  37 
 RUS  HZ EP       12 4 55.88                             146   -0.1310 94.6 176 
 RUS  HN ES       12 5 14.37                             146    0.0810 94.6 176 
 RUS  HZ I        12 5 15.94         3.3 0.36            147           94.6 176 
 PTB  HZ EP       12 4 59.23                             132   -0.28 9  147 261 
 PTB  HN ES   3   12 5 19.58                             132   -0.95 2  147 261 
 PTB  HZ I        12 5 20.96         3.7 0.12            134            147 261 
                                                                                
