 2011 1010 1822 11.9 L   6.770 -73.096132.9  RSN  5 0.2 1.8LRSN                1
 GAP=144        0.57       3.4     5.2  5.5 -0.3510E+00 -0.1978E+01  0.3107E-01E
 Epicentro: LOS SANTOS - SANTANDER                                             3
 ACTION:UPD 12-07-13 16:03 OP:ep   STATUS:               ID:20111010182211 L   I
 2011-10-10-1820-00M.COL___171                                                 6
 STAT SP IPHASW D HRMM SECON CODA AMPLIT PERI AZIMU VELO AIN AR TRES W  DIS CAZ7
 BAR2 SZ EP       1822 29.77                             170   -0.1810 21.8 206 
 BAR2 SZ ES   1   1822 43.67                             170   -0.36 7 21.8 206 
 GIR2 SZ EP       1822 29.90                             164   -0.2910 35.8 343 
 PAM  SZ EP       1822 32.66                             148   -0.0610 76.7  35 
 PAM  SE ES   1   1822 49.31                             148    0.35 7 76.7  35 
 BRR  HZ EP       1822 32.23                             148    0.1510 77.6 299 
 BRR  HZ I        1822 32.82        14.5 0.36                          77.6 299 
 BRR  HN ES   1   1822 47.99                             148    0.18 7 77.6 299 
 RUS  HZ EP       1822 34.34                             142    0.2010 97.0 179 
 RUS  HN ES   1   1822 51.64                             142    0.16 7 97.0 179 
                                                                                
