 2017  110 1123  6.4 L   6.786 -73.151147.1  RSN 11 0.4 2.2LRSN                1
 GAP= 99        1.07       4.0     4.0  5.8  0.1564E+01  0.2009E+00  0.3841E+01E
 Epicentro: LOS SANTOS - SANTANDER                                             3
 ACTION:UPD 17-05-22 15:57 OP:jn   STATUS:               ID:20170110112306 L   I
 OLDACT:UP  17-01-10 23:57 OP:ar   STATUS:               ID:20170110111759     3
 OLDACT:UP  17-01-10 23:57 OP:ar   STATUS:               ID:20170110111759     3
 OLDACT:UP  17-01-10 23:55 OP:ar   STATUS:               ID:20170110111759     3
 OLDACT:REG 17-01-10 22:49 OP:ar   STATUS:               ID:20170110111759     3
 2017-01-10-1117-59S.COL___293                                                 6
 STAT SP IPHASW D HRMM SECON CODA AMPLIT PERI AZIMU VELO AIN AR TRES W  DIS CAZ7
 BAR2 EZ IP     C 1123 26.11                             171   -0.0110 21.7 189 
 BAR2 EZ ES       1123 41.35                             171   -0.1810 21.7 189 
 BAR2 EZ I        1123 43.80        67.9 0.32            170           21.7 189 
 BRR  HZ EP       1123 27.88                             153    0.2210 71.4 300 
 BRR  HN ES       1123 45.11                             153    0.8310 71.4 300 
 BRR  HZ I        1123 48.66        40.2 0.30            151           71.4 300 
 PAM  EZ EP       1123 29.01                             151    0.2010 79.0  39 
 PAM  EN ES       1123 46.00                             151   -0.3210 79.0  39 
 PAM  EZ I        1123 49.33        16.1 0.46            154           79.0  39 
 RUS  HZ EP       1123 30.11                             144   -0.0210 99.1 176 
 RUS  HN ES       1123 48.48                             144   -0.2010 99.1 176 
 RUS  HZ I        1123 49.93        19.9 0.38            146           99.1 176 
 PTB  HZ EP       1123 32.60                             133   -0.75 9  147 259 
 PTB  HN ES       1123 54.01                             133   -0.40 9  147 259 
 PTB  HZ I        1124  0.73        15.5 0.52            132            147 259 
 TAM  HZ EP       1123 34.40                             131    0.24 9  155 104 
 TAM  HN ES   4   1123 53.63                             131   -2.22 0  155 104 
 TAM  HZ I        1123 59.01         9.3 0.58            134            155 104 
 ZAR  HZ EP       1123 39.10                             123    0.21 9  204 293 
 ZAR  HN ES       1124  3.96                             123   -0.31 9  204 293 
 ZAR  HZ I        1124  9.12        19.7 0.24            122            204 293 
 CHI  HZ EP       1123 44.59                             118    0.64 8  247 195 
 CHI  HN ES       1124 13.79                             118    0.52 8  247 195 
 CHI  HZ I        1124 17.27         8.6 0.38            118            247 195 
 ROSC BZ EP   9   1123 46.31                             117    1.94 0  251 211 
 ROSC BN ES       1124 16.49                             117    0.53 8  251 211 
 ROSC BZ I        1124 20.70        22.1 0.45            118            251 211 
 URE  HN ES   4   1124 16.16                             114   -3.41 0  284 292 
 URE  HZ I        1124 29.72         9.5 0.40            114            284 292 
 PTGC HZ EP       1123 49.40                             112   -0.74 7  307 158 
 PTGC HN ES   4   1124 22.89                             112   -1.40 0  307 158 
 ELA  HN ES   4   1124 31.99                             111    2.44 0  328 230 
                                                                                
