 2011  910 1927 37.3 L   6.787 -73.089147.8  RSN  5 0.2 1.6LRSN                1
 GAP=199        0.55       6.0     6.7  7.4  0.2806E+02 -0.9037E+01 -0.1408E+02E
 Epicentro: LOS SANTOS - SANTANDER                                             3
 ACTION:UPD 12-07-13 15:56 OP:ep   STATUS:               ID:20110910192737 L   I
 2011-09-10-1920-00M.COL___171                                                 6
 STAT SP IPHASW D HRMM SECON CODA AMPLIT PERI AZIMU VELO AIN AR TRES W  DIS CAZ7
 BAR2 SZ EP   1   1927 56.83                             170   -0.40 7 23.9 206 
 GIR2 SZ EP       1927 57.47                             166    0.1310 34.3 340 
 BRR  HZ EP       1927 58.97                             151   -0.1010 77.4 297 
 BRR  HZ I        1927 59.56        14.0 0.12                          77.4 297 
 BRR  HN ES   1   1928 16.13                             151    0.11 7 77.4 297 
 RUS  HZ EP   1   1928  1.64                             145    0.47 7 98.9 180 
 RUS  HN ES   1   1928 19.60                             145   -0.16 7 98.9 180 
 RUS  HZ I        1928 21.53         3.5 0.23                          98.9 180 
 ZAR  HZ EP   1   1928 10.37                             122   -0.20 6  210 292 
 ZAR  HN ES   1   1928 36.60                             122    0.10 6  210 292 
                                                                                
