 2012  710 1221 11.8 L   6.938 -73.093126.3  RSN  4 0.2 1.2LRSN                1
 GAP=252        0.53       6.8     5.4  6.6  0.2691E+02  0.2690E+01 -0.9803E+01E
 Epicentro: PIEDECUESTA - SANTANDER                                            3
 ACTION:UPD 12-08-14 11:44 OP:ep   STATUS:               ID:20120710122111 L   I
 2012-07-10-1220-00M.COL___201                                                 6
 STAT SP IPHASW D HRMM SECON CODA AMPLIT PERI AZIMU VELO AIN AR TRES W  DIS CAZ7
 BAR2 SZ EP   1   1221 29.93                             162     0.4 8   39 195 
 BAR2 SZ ES   1   1221 43.29                             162    -0.2 8   39 195 
 BAR2 SZ I        1221 47.84         3.3 0.18            120             39 195 
 RUS  HZ EP   1   1221 34.63                             135    -0.3 8  116 179 
 RUS  HN ES   1   1221 53.02                             135     0.1 8  116 179 
 RUS  HZ I        1221 55.23         2.3 0.40            109            116 179 
 PTB  HZ EP       1221 38.12                             125     0.010  157 254 
 PTB  HN ES   1   1221 58.82                             125     0.1 7  157 254 
 PTB  HZ I        1222  1.76         1.9 0.16            110            157 254 
 ZAR  HZ I        1221 31.81         3.6 0.32            112            204 288 
 ZAR  HN ES       1222  7.41                             118    -0.1 9  204 288 
