 2015  410 1641  1.8 L   6.805 -73.157143.2  RSN 18 0.5 3.0LRSN                1
 GAP=135        1.06       2.9     3.8  5.2 -0.1734E+01  0.7044E+01  0.1482E+00E
 Epicentro: LOS SANTOS - SANTANDER                                             3
 ACTION:UPD 15-06-03 16:54 OP:cam  STATUS:               ID:20150410164101 L   I
 OLDACT:UP  15-04-10 23:46 OP:mh   STATUS:               ID:20150410163750     3
 OLDACT:UP  15-04-10 23:46 OP:mh   STATUS:               ID:20150410163750     3
 OLDACT:UP  15-04-10 23:44 OP:mh   STATUS:               ID:20150410163750     3
 OLDACT:UP  15-04-10 23:43 OP:mh   STATUS:               ID:20150410163750     3
 OLDACT:UP  15-04-10 23:43 OP:mh   STATUS:               ID:20150410163750     3
 OLDACT:REG 15-04-10 20:25 OP:mh   STATUS:               ID:20150410163750     3
 2015-04-10-1637-50M.COL___269                                                 6
 STAT SP IPHASW D HRMM SECON CODA AMPLIT PERI AZIMU VELO AIN AR TRES W  DIS CAZ7
 BAR2 EZ EP       1641 21.31                             170    0.2010 23.7 187 
 BAR2 EZ ES       1641 35.70                             170   -0.4910 23.7 187 
 BAR2 EZ I        1641 37.03       291.1 0.40            168           23.7 187 
 BRR  HZ IP     C 1641 23.04                             153    0.4610 69.8 299 
 BRR  HN ES       1641 39.70                             153    0.9110 69.8 299 
 BRR  HZ I        1641 42.86       240.4 0.40            151           69.8 299 
 PAM  SZ EP       1641 24.16                             150    0.4110 77.8  41 
 PAM  SN ES       1641 41.20                             150    0.3210 77.8  41 
 PAM  SZ I        1641 42.98       273.8 0.84            154           77.8  41 
 RUS  HZ EP       1641 25.20                             143   -0.1310  101 175 
 RUS  HN ES       1641 43.41                             143   -0.2910  101 175 
 RUS  HZ I        1641 45.63        90.2 0.20            143            101 175 
 PTB  HZ EP   1   1641 27.55                             132   -0.89 7  147 259 
 PTB  HN ES       1641 48.44                             132   -0.79 9  147 259 
 PTB  HZ I        1641 50.87       120.0 0.46            130            147 259 
 OCA  HZ EP   1   1641 29.23                             129   -0.60 7  160 354 
 OCA  HN ES       1641 51.37                             129   -0.33 9  160 354 
 OCA  HZ I        1641 56.55       242.2 0.32            130            160 354 
 SPBC HZ EP       1641 30.21                             128    0.16 9  163 219 
 SPBC HN ES       1641 52.02                             128   -0.08 9  163 219 
 SPBC HZ I        1641 57.28       203.5 0.20            128            163 219 
 ZAR  HZ EP       1641 33.98                             122    0.06 9  203 292 
 ZAR  HN ES       1641 59.31                             122    0.33 9  203 292 
 ZAR  HZ I        1642  4.29       112.0 0.42            122            203 292 
 NOR  HZ EP       1641 37.37                             118    0.08 8  234 234 
 NOR  HN ES   1   1642  4.54                             118   -0.44 6  234 234 
 NOR  HZ I        1642  9.22        89.0 0.16            118            234 234 
 SML  HZ EP       1641 38.30                             117    0.15 8  243 336 
 SML  HN ES       1642  5.44                             117   -1.08 8  243 336 
 SML  HZ I        1642  9.98       108.8 0.28            118            243 336 
 ROSC BZ EP   4   1641 40.88                             116    1.13 0  253 211 
 ROSC BN ES   4   1642 12.19                             116    2.83 0  253 211 
 HEL  HZ EP   1   1641 41.74                             114   -0.01 6  271 256 
 HEL  HN ES       1642 13.54                             114    0.63 8  271 256 
 HEL  HZ I        1642 19.87        70.8 0.32            114            271 256 
 URE  HZ EP   4   1641 41.78                             113   -0.79 0  282 292 
 URE  HN ES   4 C 1642 12.41                             113   -1.98 0  282 292 
 GUY2CHZ EP   1   1641 45.44                             112    0.24 5  300 235 
 GUY2CHN ES   4   1642 22.08                             112    3.03 0  300 235 
 GUY2CHZ I        1642 29.14        55.9 0.58                           300 235 
 VIL  SZ EP   1   1641 45.01                             111   -0.11 5  304 191 
 VIL  SN ES   4   1642 19.13                             111    0.20 0  304 191 
 VIL  SZ I        1642 22.05        57.8 0.32            112            304 191 
 PTGC HZ EP   4   1641 44.54                             111   -1.10 0  310 158 
 PTGC HN ES   4   1642 18.12                             111   -1.73 0  310 158 
 PTGC HZ I        1642 24.71        49.7 0.24            112            310 158 
 CRECREN ES   4   1642 25.26                             111    2.63 0  317 230 
 RREF HN ES   4   1642 24.84                             110    1.24 0  321 229 
 CBOC HZ EP       1641 48.92                             109    0.44 7  333 252 
 CBOC HN ES   1   1642 25.44                             109    0.55 5  333 252 
 CBOC HZ I        1642 42.28        16.2 0.52            110            333 252 
 DBB  SZ EP       1641 48.70                             109   -0.31 7  338 274 
 MON  HZ EP   4   1641 48.30                             108   -2.23 0  352 308 
 MON  HN ES   4   1642 26.67                             108   -1.88 0  352 308 
 MON  HZ I        1642 27.48        24.2 0.20            109            352 308 
 ORTC HZ EP   1   1641 55.77                             106    0.18 4  395 216 
 ORTC HN ES   1   1642 37.60                             106    0.05 4  395 216 
 ORTC HZ I        1642 44.27        24.5 0.46            106            395 216 
                                                                                
