 2011  310 1754 45.5 L   6.025 -73.710105.9  RSN  4 0.3 1.9LRSN                1
 GAP=142        0.65       6.8     4.9 12.0 -0.7328E+01  0.4069E+02  0.1595E+02E
 Epicentro: BOLIVAR - SANTANDER                                                3
 ACTION:UP  11-06-16 14:32 OP:jfem STATUS:               ID:20110310175445 L   I
 2011-03-10-1751-50S.COL___135                                                 6
 STAT SP IPHASW D HRMM SECON CODA AMPLIT PERI AZIMU VELO SNR AR TRES W  DIS CAZ7
 RUS  HZ EP       1755  3.00                             144    -0.210   71 102 
 RUS  HZ I        1755  3.50        13.5 0.31                            71 102 
 RUS  HN ES   2   1755 16.84                             144    -0.2 5   71 102 
 BAR2 SZ EP       1755  4.08                             138     0.110   86  43 
 BAR2 SZ ES   1   1755 18.55                             138     0.2 7   86  43 
 BAR2 SZ I        1755 20.65        40.1 0.23                            86  43 
 HEL  HZ EP       1755 15.65                             112    -0.3 9  202 275 
 HEL  HN ES   2   1755 39.31                             112    -0.4 4  202 275 
 HEL  HZ I        1755 45.05         6.1 0.65                           202 275 
 GUY  SZ EP       1755 16.64                             112     0.4 9  204 244 
 GUY  SN ES   2   1755 40.61                             112     0.3 4  204 244 
 GUY  SZ I        1755 44.54        11.6 0.41                           204 244 
                                                                                
