 2014  310 1057 14.8 L   6.779 -73.170137.3  RSN  4 0.2 1.4LRSN                1
 GAP=140        0.55       3.2     3.2  4.6 -0.3172E+01  0.4165E+01 -0.1498E+01E
 Epicentro: LOS SANTOS - SANTANDER                                             3
 ACTION:UPD 14-04-09 23:15 OP:nd   STATUS:               ID:20140310105714 L   I
 OLDACT:DUP 14-03-10 16:10 OP:nd   STATUS:               ID:20140310105051d    3
 2014-03-10-1050-50M.COL___218                                                 6
 STAT SP IPHASW D HRMM SECON CODA AMPLIT PERI AZIMU VELO AIN AR TRES W  DIS CAZ7
 BAR2 SZ EP       1057 33.55                             171    0.1610 20.6 184 
 BAR2 SZ ES       1057 47.99                             171    0.1210 20.6 184 
 BAR2 SZ I        1057 51.84         6.3 0.50            174           20.6 184 
 PAM  SZ EP       1057 36.07                             148   -0.3110 80.9  40 
 PAM  SN ES       1057 53.26                             148    0.0710 80.9  40 
 PAM  SZ I        1057 57.47        48.6 0.36            151           80.9  40 
 RUS  HZ EP       1057 37.60                             143   -0.0010 98.4 174 
 RUS  HN ES       1057 55.25                             143   -0.1110 98.4 174 
 RUS  HZ I        1057 57.41         1.2 0.32            148           98.4 174 
 PTB  HZ EP       1057 41.15                             131    0.31 9  145 260 
 PTB  HN ES       1058  0.89                             131   -0.23 9  145 260 
 PTB  HZ I        1058  3.62         1.5 0.16            135            145 260 
                                                                                
