 2017  510 1018 24.0 L   6.749 -73.145148.0  RSN  6 0.3 1.5LRSN                1
 GAP=139        0.68       3.2     2.9  5.9 -0.7552E+00  0.3685E+01  0.2440E+01E
 Epicentro: LOS SANTOS - SANTANDER                                             3
 ACTION:UPD 17-06-16 13:34 OP:jn   STATUS:               ID:20170510101824 L   I
 OLDACT:REG 17-05-10 20:32 OP:lv   STATUS:               ID:20170510100728     3
 2017-05-10-1008-00M.COL___353                                                 6
 STAT SP IPHASW D HRMM SECON CODA AMPLIT PERI AZIMU VELO AIN AR TRES W  DIS CAZ7
 BRR  HZ EP       1018 45.68                             152    0.1510 74.1 302 
 BRR  HN ES       1019  2.81                             152    0.4610 74.1 302 
 BRR  HZ I        1019  7.17         7.5 0.14            153           74.1 302 
 PAM  EZ EP       1018 46.72                             150    0.0310 81.7  37 
 PAM  EN ES       1019  4.02                             150   -0.3910 81.7  37 
 PAM  EZ I        1019  6.21         7.1 0.47            153           81.7  37 
 RUS  HZ EP       1018 47.48                             146   -0.0810 95.0 176 
 RUS  HN ES       1019  6.10                             146    0.1510 95.0 176 
 RUS  HZ I        1019  7.12         4.2 0.18            149           95.0 176 
 PTB  HZ EP       1018 51.28                             133    0.23 9  147 261 
 PTB  HN ES       1019 11.83                             133   -0.34 9  147 261 
 PTB  HZ I        1019 14.05         2.8 0.43            135            147 261 
 ZAR  HN ES       1019 22.28                             123   -0.13 8  206 294 
 NOR  HN ES       1019 27.02                             119   -0.19 8  232 236 
 NOR  HZ I        1019 31.31         1.6 0.09            122            232 236 
                                                                                
