 2017  410 1623 42.7 L   6.873 -73.199143.3  RSN  4 0.2 1.6LRSN                1
 GAP=152        0.50       3.4     3.2  5.2 -0.4937E+01  0.7784E+01 -0.5755E+01E
 Epicentro: BETULIA - SANTANDER                                                3
 ACTION:UPD 17-05-30 21:10 OP:jn   STATUS:               ID:20170410162342 L   I
 OLDACT:REG 17-04-10 20:52 OP:cog  STATUS:               ID:20170410160625     3
 2017-04-10-1618-00M.COL___368                                                 6
 STAT SP IPHASW D HRMM SECON CODA AMPLIT PERI AZIMU VELO AIN AR TRES W  DIS CAZ7
 BAR2 EZ ES       1624 17.37                             167   -0.0410 31.1 177 
 PAM  EZ EP       1624  4.74                             151    0.2310 75.5  47 
 PAM  EE ES       1624 21.43                             151   -0.1110 75.5  47 
 PAM  EZ I        1624 23.57         8.2 0.50            152           75.5  47 
 RUS  HZ EP   4   1624  6.39                             141   -0.43 0  109 173 
 RUS  HN ES       1624 25.68                             141    0.0210  109 173 
 PTB  HZ EP       1624  8.80                             132   -0.27 9  144 255 
 PTB  HN ES       1624 29.83                             132    0.16 9  144 255 
 PTB  HZ I        1624 32.28         4.0 0.44            133            144 255 
                                                                                
