 2016  610 1707 10.4 L   6.776 -73.085141.1  RSN 20 0.4 2.8LRSN                1
 GAP= 96        0.94       3.0     2.7  4.6 -0.1313E+01  0.4263E+01  0.3052E+01E
 Epicentro: LOS SANTOS - SANTANDER                                             3
 ACTION:UPD 16-07-21 22:17 OP:rebc STATUS:               ID:20160610170710 L   I
 OLDACT:UP  16-06-10 23:36 OP:edw  STATUS:               ID:20160610165743     3
 OLDACT:REG 16-06-10 20:58 OP:edw  STATUS:               ID:20160610165743     3
 2016-06-10-1657-43M.COL___340                                                 6
 STAT SP IPHASW D HRMM SECON CODA AMPLIT PERI AZIMU VELO AIN AR TRES W  DIS CAZ7
 BAR2 EZ IP     D 17 7 29.11                             170   -0.3210 23.0 208 
 BAR2 EZ ES       17 7 43.37                             170   -0.9310 23.0 208 
 BAR2 EZ I        17 7 46.91        94.5 0.42                          23.0 208 
 PAM  EZ EP       17 7 32.05                             151    0.0710 75.5  34 
 PAM  EN ES       17 7 49.12                             151    0.3010 75.5  34 
 PAM  EZ I        17 7 51.43       130.7 0.54                          75.5  34 
 BRR  HZ EP     C 17 7 31.03                             149   -0.4210 78.3 298 
 BRR  HN ES       17 7 48.55                             149    0.6710 78.3 298 
 BRR  HZ I        17 7 52.28       116.7 0.14                          78.3 298 
 RUS  HZ EP       17 7 33.01                             144   -0.4510 97.7 180 
 RUS  HN ES       17 7 51.97                             144    0.5110 97.7 180 
 TAM  HZ IP     D 17 7 37.28                             131    0.26 9  148 105 
 TAM  HE ES       17 7 57.94                             131    0.14 9  148 105 
 PTB  HZ EP   4   17 7 35.69                             130   -1.84 0  154 260 
 PTB  HN ES   4   17 7 57.23                             130   -1.48 0  154 260 
 PTB  HZ I        17 8  3.05       103.0 0.30                           154 260 
 OCA  HZ EP   4   17 7 37.53                             128   -1.13 0  164 351 
 OCA  HE ES   4   17 7 59.56                             128   -1.16 0  164 351 
 OCA  HZ I        17 8  4.32       111.5 0.28                           164 351 
 SPBC HZ EP       17 7 38.06                             127   -0.68 9  165 221 
 SPBC HE ES       17 8  1.09                             127    0.23 9  165 221 
 SPBC HZ I        17 8  6.50        82.3 0.22                           165 221 
 NOR  HZ EP   4   17 7 45.00                             117   -1.27 0  239 236 
 NOR  HN ES       17 8 14.04                             117   -0.22 8  239 236 
 NOR  HZ I        17 8 20.94        44.1 0.56                           239 236 
 CHI  HZ EP       17 7 47.47                             116   -0.27 8  248 197 
 CHI  HN ES       17 8 17.13                             116    0.24 8  248 197 
 CHI  HZ I        17 8 21.83        24.3 0.24                           248 197 
 ROSC BZ EP       17 7 48.44                             116    0.05 8  254 213 
 ROSC BN ES       17 8 18.23                             116    0.20 8  254 213 
 ROSC BZ I        17 8 26.34        52.2 0.45                           254 213 
 HEL  HZ EP       17 7 51.02                             113    0.01 7  278 257 
 HEL  HN ES       17 8 22.93                             113    0.23 7  278 257 
 HEL  HZ I        17 8 29.83        22.9 0.26                           278 257 
 URE  HZ EP       17 7 52.24                             112    0.21 7  291 292 
 URE  HN ES       17 8 24.32                             112   -0.20 7  291 292 
 URE  HZ I        17 8 32.56        42.6 0.18                           291 292 
 GUY2CHZ EP       17 7 55.06                             111    0.83 7  305 236 
 GUY2CHE ES       17 8 28.53                             111    0.10 7  305 236 
 GUY2CHZ I        17 8 36.25        27.9 0.26                           305 236 
 LL6C HZ EP   4   17 7 54.33                             109   -1.89 0  328 356 
 LL6C HE ES   4   17 8 30.09                             109   -1.89 0  328 356 
 LL6C HZ I        17 8 32.31        13.1 0.58                           328 356 
 ELA  HZ EP       17 7 58.16                             109    0.73 7  333 231 
 ELA  HN ES       17 8 34.13                             109    0.00 7  333 231 
 ELA  HZ I        17 8 41.56        22.4 0.50                           333 231 
 CBOC HZ EP       17 7 57.47                             109   -0.27 7  339 253 
 CBOC HE ES       17 8 34.42                             109   -0.27 7  339 253 
 ANIL HZ EP       17 8  0.44                             107    0.10 6  360 226 
 ANIL HN ES       17 8 39.38                             107    0.07 6  360 226 
 ANIL HZ I        17 8 48.29        54.9 0.50                           360 226 
 PRA  HZ EP       17 8  3.36                             106   -0.50 6  393 211 
 PRA  HN ES       17 8 45.59                             106    0.01 6  393 211 
 PRA  HZ I        17 8 48.42        24.6 0.62                           393 211 
 ORTC HZ EP   4   17 8  3.27                             105   -1.09 0  397 217 
 ORTC HN ES   4   17 8 45.56                             105   -0.91 0  397 217 
 SJC  HZ EP   4   17 8  2.92                             105   -3.56 0  415 326 
 SJC  HE ES   4   17 8 45.77                             105   -4.47 0  415 326 
 CRJC HZ EP   4   17 8  9.26                             103   -3.75 0  470   3 
 CRJC HE ES   4   17 8 57.56                             103   -4.31 0  470   3 
 CRJC HZ I        17 9  0.25        13.9 0.18                           470   3 
 SJG  BZ EP   4   17 8  2.98                              92   -99.9 0 1462  30 
                                                                                
