 2014  910 1201  8.6 L   6.809 -73.142149.9  RSN  9 0.4 2.0LRSN                1
 GAP=137        0.92       3.1     4.5  5.6  0.1248E+01  0.5327E+01  0.1419E+01E
 Epicentro: LOS SANTOS - SANTANDER                                             3
 ACTION:UPD 14-10-03 23:03 OP:nd   STATUS:               ID:20140910120108 L   I
 OLDACT:REG 14-09-10 19:38 OP:mh   STATUS:               ID:20140910120000     3
 2014-09-10-1200-00M.COL___285                                                 6
 STAT SP IPHASW D HRMM SECON CODA AMPLIT PERI AZIMU VELO AIN AR TRES W  DIS CAZ7
 BAR2 SZ EP       12 1 28.83                             170    0.1010 24.3 191 
 BAR2 SZ ES       12 1 44.25                             170   -0.1910 24.3 191 
 BAR2 SZ I        12 1 46.43        17.8 0.28            162           24.3 191 
 BRR  HZ EP       12 1 30.52                             153    0.3510 71.1 298 
 BRR  HN ES       12 1 47.74                             153    0.7310 71.1 298 
 BRR  HZ I        12 2 40.91        22.4 0.09            146           71.1 298 
 PAM  SZ EP   1   12 1 31.68                             152    0.50 7 76.4  40 
 PAM  SN ES       12 1 48.77                             152   -0.0410 76.4  40 
 PAM  SZ I        12 1 50.98        11.4 0.20            159           76.4  40 
 RUS  HZ EP       12 1 32.65                             144   -0.1510  102 176 
 RUS  HN ES       12 1 51.17                             144   -0.5310  102 176 
 RUS  HZ I        12 1 52.47         6.9 0.40            153            102 176 
 PTB  HZ EP   1   12 1 35.77                             133   -0.17 7  148 259 
 PTB  HN ES   1   12 1 56.49                             133   -0.79 7  148 259 
 PTB  HZ I        12 2  4.31        11.6 0.34            133            148 259 
 SPBC HZ EP   1   12 1 37.80                             130    0.31 7  164 219 
 SPBC HN ES   1   12 2  0.20                             130    0.16 7  164 219 
 SPBC HZ I        12 2  4.64        17.6 0.40            135            164 219 
 ZAR  HN ES       12 2  6.76                             123   -0.06 9  204 292 
 ZAR  HZ I        12 2 13.30         9.4 0.32            126            204 292 
 NOR  HN ES   4   12 2 10.53                             119   -2.25 0  236 234 
 SML  HZ EP       12 1 44.82                             118   -0.54 8  243 335 
 SML  HN ES   1   12 2 13.47                             118   -0.59 6  243 335 
 SML  HZ I        12 2 17.38        16.6 0.10            124            243 335 
 CHI  HZ EP       12 1 46.75                             118    0.13 8  250 195 
 CHI  HN ES       12 2 16.65                             118    0.36 8  250 195 
 CHI  HZ I        12 2 22.22         3.1 0.30            127            250 195 
 GUY2CHZ EP   4   12 1 52.07                             113   -0.41 0  302 235 
 GUY2CHN ES   4   12 2 30.47                             113    3.75 0  302 235 
                                                                                
