 2012  410 1337 21.7 L   6.777 -73.162137.9  RSN 12 0.4 2.3LRSN                1
 GAP=135        0.81       3.7     4.0  5.7 -0.9685E+00  0.6791E+01  0.4495E+01E
 Epicentro: LOS SANTOS - SANTANDER                                             3
 ACTION:UPD 12-07-05 11:52 OP:tino STATUS:               ID:20120410133721 L   I
 2012-04-10-1329-38M.COL___172                                                 6
 STAT SP IPHASW D HRMM SECON CODA AMPLIT PERI AZIMU VELO AIN AR TRES W  DIS CAZ7
 BAR2 SZ EP       1337 40.30                             171     0.010   21 186 
 BAR2 SZ ES   1   1337 54.88                             171     0.0 7   21 186 
 BAR2 SZ I        1337 56.39        69.6 0.28                            21 186 
 BRR  HZ EP       1337 42.08                             151     0.110   71 301 
 BRR  HN ES   1   1337 58.58                             151     0.8 7   71 301 
 PAM  SZ EP       1337 43.18                             148    -0.110   80  39 
 PAM  SZ I        1337 43.45        23.2 0.18                            80  39 
 PAM  SN ES   1   1338  0.04                             148    -0.1 7   80  39 
 RUS  HZ EP   1   1337 44.62                             143     0.1 7   98 175 
 RUS  HN ES   1   1338  2.25                             143    -0.1 7   98 175 
 RUS  HZ I        1338  4.39        31.3 0.33                            98 175 
 PTB  HZ EP   1   1337 47.12                             131    -0.7 7  145 260 
 PTB  HN ES   1   1338  7.77                             131    -0.4 7  145 260 
 PTB  HZ I        1338  9.73        14.1 0.12                           145 260 
 ZAR  HZ EP   1   1337 53.64                             121     0.1 6  203 293 
 ZAR  HN ES   1   1338 18.00                             121    -0.4 6  203 293 
 ZAR  HZ I        1338 23.87        28.2 0.38                           203 293 
 NOR  SZ EP   1   1337 56.65                             117     0.0 6  232 235 
 NOR  SN ES   1   1338 23.85                             117    -0.1 6  232 235 
 CHI  HZ EP   1   1337 58.60                             116    -0.1 6  246 195 
 CHI  HN ES   1   1338 27.33                             116    -0.2 6  246 195 
 HEL  HZ EP   1   1338  1.78                             113     0.5 6  270 256 
 GUY  SN ES   2   1338 38.95                             111     0.4 4  301 235 
 RREF HZ EP   1   1338  8.40                             109     1.2 5  319 229 
 RREF HZ I        1338 47.78         7.3 0.33                           319 229 
 PRA  HZ EP   1   1338 14.63                             105     0.0 4  389 210 
                                                                                
