 2015  310 1354  2.3 L   6.507 -73.855 26.4  RSN 10 0.5 2.8LRSN 3.0WRSN        1
 SPEC AVERAGE  MO 13.6 ST 28.4 OM  2.4 f0 7.59 R0.2705 AL 0.00 WI 30.0 MW  3.0 3
 SPEC SD       MO  0.2 ST 48.5 OM  0.4 f0 4.40 R0.1286 AL      WI      MW  0.1 3
 GAP= 67        1.26       3.4     2.4  6.1 -0.1569E+01 -0.2091E+01  0.9243E+01E
 Epicentro: CIMITARRA - SANTANDER                                              3
 SPEC PTB HH Z MO 13.4 ST163.5 OM  2.1 f0 18.4 R0.0845 AL-0.00 WI 30.0 MW  2.8 3
 SPEC PTB HH Z T135420 K 0.000 GD 71.6 VS 4.20 DE 3.20 Q0230.0 QA 0.60 VS 4.20 3
 SPEC BRR HH Z MO 13.5 ST 25.0 OM  2.2 f0 9.05 R0.1717 AL-0.00 WI 30.0 MW  2.9 3
 SPEC BRR HH Z T135421 K 0.000 GD 73.1 VS 4.20 DE 3.20 Q0230.0 QA 0.60 VS 4.20 3
 SPEC BAR2EH Z MO 13.7 ST  4.1 OM  2.4 f0 4.13 R0.3763 AL-0.00 WI 30.0 MW  3.1 3
 SPEC BAR2EH Z T135422 K 0.000 GD 79.5 VS 4.20 DE 3.20 Q0230.0 QA 0.60 VS 4.20 3
 SPEC SPBCHH Z MO 13.6 ST 18.8 OM  2.2 f0 7.39 R0.2103 AL-0.00 WI 30.0 MW  3.0 3
 SPEC SPBCHH Z T135429 K 0.000 GD  101 VS 4.20 DE 3.20 Q0230.0 QA 0.60 VS 4.20 3
 SPEC RUS HH Z MO 13.9 ST  2.4 OM  2.5 f0 2.91 R0.5340 AL-0.00 WI 30.0 MW  3.2 3
 SPEC RUS HH Z T135431 K 0.000 GD  104 VS 4.20 DE 3.20 Q0230.0 QA 0.60 VS 4.20 3
 SPEC NOR HH Z MO 13.3 ST 12.5 OM  1.8 f0 8.20 R0.1895 AL-0.00 WI 30.0 MW  2.8 3
 SPEC NOR HH Z T135440 K 0.000 GD  123 VS 4.20 DE 3.20 Q0230.0 QA 0.60 VS 4.20 3
 SPEC PAM SH Z MO 13.8 ST  6.4 OM  2.3 f0 4.44 R0.3500 AL-0.00 WI 30.0 MW  3.1 3
 SPEC PAM SH Z T135443 K 0.000 GD  125 VS 4.20 DE 3.20 Q0230.0 QA 0.60 VS 4.20 3
 SPEC HEL HH Z MO 13.6 ST  4.3 OM  2.1 f0 4.40 R0.3532 AL-0.00 WI 30.0 MW  3.0 3
 SPEC HEL HH Z T135448 K 0.000 GD  137 VS 4.20 DE 3.20 Q0230.0 QA 0.60 VS 4.20 3
 SPECGUY2CHH Z MO 13.7 ST  0.9 OM  2.1 f0 2.50 R 0.621 AL-0.00 WI 30.0 MW  3.1 3
 SPECGUY2CHH Z T135457 K       GD148.0 VS 4.20 DE 3.20 Q0230.0 QA 0.60 VS 4.20 3
 SPEC URE HH Z MO 13.3 ST 18.6 OM  1.7 f0 9.43 R0.1648 AL-0.00 WI 30.0 MW  2.8 3
 SPEC URE HH Z T135458 K 0.000 GD  151 VS 4.20 DE 3.20 Q0230.0 QA 0.60 VS 4.20 3
 OLDACT:REG 15-03-10 20:06 OP:spq  STATUS:               ID:20150310134750     3
 ACTION:UPD 15-04-30 16:24 OP:nd   STATUS:               ID:20150310135402 L   I
 OLDACT:UP  15-03-11 06:45 OP:carl STATUS:               ID:20150310134750     3
 2015-03-10-1347-50M.COL___278                                                 6
 STAT SP IPHASW D HRMM SECON CODA AMPLIT PERI AZIMU VELO AIN AR TRES W  DIS CAZ7
 PTB  HZ IP     C 1354 13.54                              99    0.0210 66.6 273 
 PTB  HN ES       1354 22.38                              99    0.0910 66.6 273 
 PTB  HZ I        1354 22.93       504.7 0.22            106           66.6 273 
 BRR  HZ IP     D 1354 13.81                              98    0.0810 68.2  13 
 BRR  HZ I        1354 23.84       435.6 0.12            103           68.2  13 
 BAR2 EZ IP     D 1354 14.67                              96   -0.2810 75.0  83 
 BAR2 HZ I        1354 25.39       409.0 0.24             61           75.0  83 
 BAR2 EZ I        1354 25.44       424.4 0.22                          75.0  83 
 SPBC HZ EP       1354 18.12                              61    0.1910 97.5 194 
 SPBC HN ES       1354 30.78                              61    0.6410 97.5 194 
 SPBC HZ I        1354 32.77       309.8 0.24             61           97.5 194 
 RUS  HZ IP     C 1354 19.73                              61   -0.1310  109 128 
 RUS  HN ES       1354 33.45                              61   -0.1310  109 128 
 RUS  HZ I        1354 34.41       379.9 0.28             61            109 128 
 NOR  HZ EP       1354 24.11                              61   -0.74 9  153 227 
 NOR  HN ES       1354 41.56                              61   -0.91 9  153 227 
 NOR  HZ I        1354 48.03        72.8 0.16             61            153 227 
 PAM  SZ EP       1354 25.65                              61   -0.25 9  157  54 
 PAM  SN ES       1354 44.55                              61    0.22 9  157  54 
 PAM  HZ I        1354 45.53       260.6 0.18             61            157  54 
 HEL  HZ EP       1354 29.68                              61    0.05 9  188 259 
 HEL  HN ES       1354 50.01                              61   -0.97 9  188 259 
 HEL  HZ I        1354 51.65        84.5 0.20             61            188 259 
 GUY2CHZ EP       1354 34.70                              61    1.09 8  219 230 
 GUY2CHN ES       1354 58.77                              61    0.71 8  219 230 
 GUY2CHZ I        1355  2.11        42.7 0.22                           219 230 
 URE  HZ EP       1354 34.76                              61    0.25 8  231 307 
 URE  HN ES       1355  0.01                              61    0.36 8  231 307 
 URE  HZ I        1355  7.49        25.0 0.12             61            231 307 
                                                                                
