 2012  210 1556 28.7 L   6.716 -73.023149.8  RSN  5 0.4 1.7LRSN                1
 GAP=205        0.82       9.3     6.1  8.7 -0.3796E+01  0.1208E+02  0.1108E+02E
 ACTION:UP  12-03-07 16:29 OP:epov STATUS:               ID:20120210155628 L   I
 2012-02-10-1550-00M.COL___188                                                 6
 STAT SP IPHASW D HRMM SECON CODA AMPLIT PERI AZIMU VELO AIN AR TRES W  DIS CAZ7
 BAR2 SZ EP       1556 48.89                             171    0.0910 22.3 232 
 BAR2 SZ ES   1   1557  4.76                             171    0.28 7 22.3 232 
 BAR2 SZ I        1557  6.90         5.1 0.20                          22.3 232 
 GIR2 SZ EP   1   1556 49.05                             163   -0.21 7 44.3 335 
 PAM  SZ EP   1   1556 51.67                             151    0.31 7 77.6  27 
 PAM  SE ES       1557  9.11                             151    0.0710 77.6  27 
 BRR  HZ EP       1556 50.92                             148   -0.3510 87.6 300 
 BRR  HN ES   1   1557  8.26                             148   -0.61 7 87.6 300 
 ZAR  HN ES   1   1557 30.72                             121    0.83 6  220 293 
 ZAR  HZ I        1557 33.40         7.0 0.40                           220 293 
                                                                                
