 2010 1110 1012 52.2 L   6.415 -73.706 19.2  RSN  5 0.2 1.6LRSN                1
 GAP=133        0.52       2.1     2.9  4.6  0.2495E+01  0.7202E+01  0.2315E+01E
 Epicentro: SANTA HELENA DEL OPON - SANTANDER                                  3
 ACTION:UP  10-12-17 16:51 OP:REBC STATUS:               ID:20101110101252 L   I
 2010-11-10-1011-22S.COL___128                                                 6
 STAT SP IPHASW D HRMM SECON CODA AMPLIT PERI AZIMU VELO SNR AR TRES W  DIS CAZ7
 BAR2 SZ EP       1013  2.48                             106    -0.110   61  71 
 BAR2 SZ ES   2   1013 10.27                             106    -0.4 5   61  71 
 BAR2 SZ I        1013 11.58        23.7 0.27                            61  71 
 BRR  HZ EP       1013  4.50                             102    -0.110   77 359 
 BRR  HE ES   1   1013 14.48                             102     0.2 7   77 359 
 BRR  HZ I        1013 15.92        22.1 0.13                            77 359 
 RUS  HZ EP       1013  7.28                             101     0.210   90 130 
 RUS  HE ES   2   1013 18.66                             101    -0.1 5   90 130 
 RUS  HZ I        1013 19.88        12.4 0.31                            90 130 
 GRA  SZ EP   2   1013 20.69                              56     0.6 4  191  31 
 GRA  SZ ES   2   1013 41.82                              56    -0.1 4  191  31 
 GRA  SZ I        1013 43.55         8.4 0.14                           191  31 
 HEL  HZ EP   2   1013 22.14                              56     0.2 4  203 263 
 HEL  HE ES   2   1013 44.75                              56    -0.5 4  203 263 
 HEL  HZ I        1013 45.86         3.9 0.41                           203 263 
                                                                                
