 2014 1010 1620 46.7 L   6.776 -73.152146.3  RSN  6 0.3 1.7LRSN                1
 GAP=137        0.89       4.3     4.4  6.5 -0.4626E+01  0.3440E+01  0.9218E+00E
 Epicentro: LOS SANTOS - SANTANDER                                             3
 ACTION:UPD 14-11-29 23:48 OP:nd   STATUS:               ID:20141010162046 L   I
 OLDACT:REG 14-10-10 21:39 OP:stll STATUS:               ID:20141010161747     3
 2014-10-10-1617-47M.COL___289                                                 6
 STAT SP IPHASW D HRMM SECON CODA AMPLIT PERI AZIMU VELO AIN AR TRES W  DIS CAZ7
 BAR2 SZ EP       1621  6.37                             172    0.0710 20.5 189 
 BAR2 SZ I        1621  6.80        12.6 0.28            170           20.5 189 
 BAR2 SZ ES       1621 21.55                             172   -0.0610 20.5 189 
 BRR  HZ EP       1621  8.12                             152    0.2210 71.9 301 
 BRR  HN ES       1621 25.12                             152    0.6510 71.9 301 
 PAM  SZ EP       1621  9.01                             150   -0.0710 79.9  39 
 PAM  SZ I        1621  9.28        17.3 0.22            152           79.9  39 
 PAM  SE ES       1621 26.10                             150   -0.4710 79.9  39 
 RUS  HZ EP       1621 10.74                             145    0.4710 97.9 176 
 RUS  HN ES       1621 28.68                             145   -0.0110 97.9 176 
 RUS  HZ I        1621 29.76         4.1 0.46            144           97.9 176 
 PTB  HZ EP       1621 13.21                             132   -0.35 9  147 260 
 PTB  HN ES       1621 34.17                             132   -0.37 9  147 260 
 PTB  HZ I        1621 36.94         5.6 0.10            131            147 260 
 SPBC HN ES       1621 36.83                             130   -0.20 9  161 219 
 SPBC HZ I        1621 40.23         6.7 0.20            129            161 219 
                                                                                
