 2017  710 1156 26.9 L   6.752 -73.089139.9  RSN  6 0.3 1.8LRSN                1
 GAP=271        0.70       4.3     4.3  4.6 -0.1265E+01  0.3934E+01  0.4213E+01E
 Epicentro: LOS SANTOS - SANTANDER                                             3
 ACTION:UPD 17-08-30 15:31 OP:rebc STATUS:               ID:20170710115626 L   I
 OLDACT:REG 17-07-10 20:51 OP:lv   STATUS:               ID:20170710114739     3
 2017-07-10-1148-00M.COL___380                                                 6
 STAT SP IPHASW D HRMM SECON CODA AMPLIT PERI AZIMU VELO AIN AR TRES W  DIS CAZ7
 BAR2 EZ IP     D 1156 45.71                             171   -0.0510 20.5 210 
 BAR2 EZ ES       1157  0.28                             171   -0.2010 20.5 210 
 BAR2 EZ I        1157  2.04        10.8 0.08            169           20.5 210 
 BRR  HZ EP       1156 47.80                             149   -0.1110 79.3 300 
 BRR  HE ES       1157  4.74                             149    0.4410 79.3 300 
 BRR  HZ I        1157  7.96         8.9 0.21            147           79.3 300 
 PTB  HZ EP   9   1156 52.62                             130   -1.26 0  153 261 
 PTB  HN ES       1157 13.61                                   -0.06 9  153 261 
 PTB  HZ I        1157 16.01         5.4 0.12            129            153 261 
 ZAR  HZ EP       1156 59.95                             120    0.16 8  212 293 
 ZAR  HE ES       1157 25.01                             120   -0.44 8  212 293 
 ZAR  HZ I        1157 30.09         9.1 0.06            120            212 293 
 NOR  HZ EP       1157  2.29                             117   -0.23 8  237 236 
 NOR  HN ES       1157 30.64                             117    0.32 8  237 236 
 NOR  HZ I        1157 36.22         5.6 0.26            117            237 236 
 GUY2CHZ EP       1157 10.97                             111    0.49 7  303 236 
 GUY2CHN ES       1157 44.13                             111   -0.36 7  303 236 
 GUY2CHZ I        1157 50.77         3.2 0.31                           303 236 
                                                                                
