 2013  910 1321 24.5 L   6.740 -73.180150.0  RSN  4 0.2 1.5LRSN                1
 GAP=239        0.60       6.6     4.8  6.8  0.2064E+02  0.6617E+00 -0.1358E+02E
 Epicentro: VILLANUEVA - SANTANDER                                             3
 ACTION:UPD 13-10-22 09:21 OP:ep   STATUS:               ID:20130910132124 L   I
 OLDACT:UP  13-09-10 16:22 OP:cam  STATUS:               ID:20130910131959     3
 OLDACT:REG 13-09-10 15:07 OP:cam  STATUS:               ID:20130910131959     3
 2013-09-10-1319-59M.COL___269                                                 6
 STAT SP IPHASW D HRMM SECON CODA AMPLIT PERI AZIMU VELO AIN AR TRES W  DIS CAZ7
 BAR2 SZ EP       1321 44.40                             174   -0.1410 16.3 181 
 BAR2 SZ ES   1   1322  0.07                             174   -0.09 7 16.3 181 
 RUS  HZ EP   1   1321 48.74                             146    0.48 7 94.3 173 
 RUS  HN ES       1322  6.81                             146    0.0410 94.3 173 
 RUS  HZ I        1322  7.84         4.5 0.26            144           94.3 173 
 PTB  HZ EP       1321 51.08                             134   -0.32 9  143 261 
 PTB  HN ES       1322 12.32                             134   -0.04 9  143 261 
 PTB  HZ I        1322 16.05         4.0 0.10            132            143 261 
 ZAR  HE ES       1322 22.88                             123    0.28 9  203 294 
                                                                                
