 2012  810 1217 12.4 L   6.454 -73.591107.7  RSN  4 0.2 1.6LRSN                1
 GAP=204        0.59       6.8     3.5  6.4 -0.1737E+01  0.6637E+01  0.5934E+01E
 Epicentro: SANTA HELENA DEL OPON - SANTANDER                                  3
 ACTION:UPD 12-09-10 11:55 OP:ep   STATUS:               ID:20120810121712 L   I
 2012-08-10-1210-00M.COL___219                                                 6
 STAT SP IPHASW D HRMM SECON CODA AMPLIT PERI AZIMU VELO AIN AR TRES W  DIS CAZ7
 BAR2 SZ EP       1217 28.81                             154    0.3410 47.7  71 
 BAR2 SZ ES       1217 40.85                             154   -0.1510 47.7  71 
 BAR2 SZ I        1217 42.75        46.9 0.44                          47.7  71 
 BRR  HZ EP       1217 29.65                             143   -0.1110 73.5 350 
 BRR  HN ES   1   1217 43.57                             143    0.27 7 73.5 350 
 BRR  HZ I        1217 53.07         7.9 0.34                          73.5 350 
 GIR2 SZ EP   1   1217 30.21                             140   -0.39 7 81.9  32 
 PTB  HZ EP       1217 31.69                             135    0.0810 96.2 276 
 PTB  HE ES   1   1217 46.43                             135   -0.16 7 96.2 276 
 PTB  HZ I        1217 47.90         2.9 0.18                          96.2 276 
                                                                                
