 2016  410 1531 34.3 L   6.797 -73.145145.9  RSN  9 0.3 2.0LRSN                1
 GAP=107        0.76       3.3     2.8  4.8 -0.1826E+01  0.3266E+01 -0.5941E+00E
 Epicentro: LOS SANTOS - SANTANDER                                             3
 ACTION:UPD 16-05-05 14:20 OP:rebc STATUS:               ID:20160410153134 L   I
 OLDACT:UP  16-04-10 22:23 OP:drio STATUS:               ID:20160410152745     3
 OLDACT:REG 16-04-10 20:09 OP:drio STATUS:               ID:20160410152745     3
 2016-04-10-1527-45M.COL___291                                                 6
 STAT SP IPHASW D HRMM SECON CODA AMPLIT PERI AZIMU VELO AIN AR TRES W  DIS CAZ7
 BAR2 EZ EP       1531 53.98                             171    0.0210 23.0 190 
 BAR2 EZ ES       1532  9.55                             171    0.2810 23.0 190 
 BAR2 EZ I        1532 11.56        24.2 0.28            171           23.0 190 
 PAM  EZ EP       1531 56.68                             151    0.1210 77.6  39 
 PAM  EN ES       1532 13.87                             151   -0.0410 77.6  39 
 PAM  EZ I        1532 15.94        11.0 0.56            153           77.6  39 
 RUS  HZ EP       1531 57.94                             144   -0.1210  100 176 
 RUS  HE ES       1532 16.23                             144   -0.3410  100 176 
 RUS  HZ I        1532 17.72        10.1 0.30            146            100 176 
 PTB  HZ EP       1532  0.77                             132   -0.52 9  148 259 
 PTB  HE ES       1532 22.07                             132   -0.26 9  148 259 
 PTB  HZ I        1532 23.22         8.8 0.60            132            148 259 
 TAM  HZ EP       1532  2.25                             131    0.26 9  155 105 
 SPBC HZ EP       1532  2.83                             129    0.03 9  163 219 
 SPBC HN ES       1532 25.05                             129    0.03 9  163 219 
 SPBC HZ I        1532 27.59        22.6 0.22            130            163 219 
 ZAR  HZ EP       1532  6.27                             122   -0.52 9  204 292 
 ZAR  HE ES       1532 32.51                             122    0.40 9  204 292 
 ZAR  HZ I        1532 38.23         7.2 0.14            123            204 292 
 NOR  HZ EP       1532 10.52                             119    0.48 8  235 235 
 NOR  HE ES       1532 38.28                             119    0.39 8  235 235 
 NOR  HZ I        1532 44.18         7.4 0.28            120            235 235 
 GUY2CHZ EP   4   1532 19.91                             112    2.00 0  301 235 
 GUY2CHE ES   4   1532 49.45                             112   -2.47 0  301 235 
 GUY2CHZ I        1533  0.50         5.5 0.28                           301 235 
                                                                                
