 2016 1010 1340 44.5 L   6.804 -73.168144.0  RSN  9 0.4 1.9LRSN                1
 GAP=134        0.81       3.2     3.5  6.1 -0.1932E+01  0.6917E+01  0.1011E+01E
 Epicentro: LOS SANTOS - SANTANDER                                             3
 ACTION:UPD 16-11-09 19:18 OP:rebc STATUS:               ID:20161010134044 L   I
 OLDACT:UP  16-10-10 21:54 OP:dnl  STATUS:               ID:20161010133747     3
 OLDACT:UP  16-10-10 21:54 OP:dnl  STATUS:               ID:20161010133747     3
 OLDACT:REG 16-10-10 20:04 OP:dln  STATUS:               ID:20161010133747     3
 2016-10-10-1338-00M.COL___360                                                 6
 STAT SP IPHASW D HRMM SECON CODA AMPLIT PERI AZIMU VELO AIN AR TRES W  DIS CAZ7
 BAR2 EZ EP       1341  3.83                             170   -0.0910 23.5 184 
 BAR2 EZ IP       1341  3.83                             170           23.5 184 
 BAR2 EZ ES       1341 19.17                             170    0.1110 23.5 184 
 BAR2 EZ I        1341 20.36        19.5 0.22            168           23.5 184 
 PAM  EZ EP       1341  6.68                             150    0.0810 78.6  41 
 PAM  EE ES       1341 23.82                             150   -0.0210 78.6  41 
 PAM  EZ I        1341 26.46        10.2 0.28            155           78.6  41 
 RUS  HZ EP       1341  7.86                             144   -0.2610  101 175 
 RUS  HN ES       1341 26.81                             144    0.2610  101 175 
 RUS  HZ I        1341 28.72         6.2 0.30            144            101 175 
 PTB  HZ EP       1341 10.61                             132   -0.50 9  145 258 
 PTB  HN ES       1341 31.29                             132   -0.57 9  145 258 
 PTB  HZ I        1341 34.18         9.5 0.20            131            145 258 
 SPBC HZ EP   2   1341 12.81                             129    0.06 5  162 218 
 SPBC HN ES       1341 35.29                             129    0.51 9  162 218 
 SPBC HZ I        1341 41.85        19.0 0.32            129            162 218 
 ZAR  HZ EP   2   1341 17.71                             123    1.14 4  202 292 
 ZAR  HE ES       1341 41.94                             123    0.36 9  202 292 
 ZAR  HZ I        1341 48.00         8.2 0.32            123            202 292 
 NOR  HZ EP   4   1341 21.36                             119    1.42 0  233 234 
 NOR  HE ES       1341 47.79                             119    0.21 8  233 234 
 NOR  HZ I        1341 54.71         7.5 0.18            118            233 234 
 CHI  HZ EP   2   1341 22.07                             117   -0.01 4  248 195 
 CHI  HN ES       1341 51.08                             117   -0.31 8  248 195 
 CHI  HZ I        1341 57.73         4.3 0.32            117            248 195 
 GUY2CHZ EP   4   1341 29.24                             112    1.42 0  299 234 
 GUY2CHE ES   4   1342  3.32                             112    1.70 0  299 234 
 GUY2CHZ I        1342 11.86         4.9 0.68                           299 234 
                                                                                
