 2017  110 1525  0.5 L   6.802 -73.164144.2  RSN  4 0.2 1.2LRSN                1
 GAP=142        0.58       3.6     3.5  5.0 -0.3836E+01  0.5039E+01 -0.1696E+01E
 Epicentro: LOS SANTOS - SANTANDER                                             3
 ACTION:UPD 17-05-22 15:57 OP:jn   STATUS:               ID:20170110152500 L   I
 OLDACT:REG 17-01-10 23:00 OP:ar   STATUS:               ID:20170110151759     3
 2017-01-10-1517-59S.COL___321                                                 6
 STAT SP IPHASW D HRMM SECON CODA AMPLIT PERI AZIMU VELO AIN AR TRES W  DIS CAZ7
 BAR2 EZ ES       1525 34.76                             170   -0.3010 23.3 185 
 BAR2 EZ I        1525 37.14         4.8 0.17            171           23.3 185 
 PAM  EZ EP       1525 22.65                             150    0.0810 78.5  41 
 PAM  EN ES       1525 39.91                             150    0.0910 78.5  41 
 PAM  EZ I        1525 41.63         3.8 0.42            153           78.5  41 
 RUS  HZ EP       1525 24.16                             143    0.0710  101 175 
 RUS  HN ES       1525 42.62                             143    0.1110  101 175 
 RUS  HZ I        1525 44.00         2.1 0.46            146            101 175 
 PTB  HZ EP       1525 26.79                             132   -0.34 9  146 259 
 PTB  HE ES       1525 48.20                             132    0.28 9  146 259 
 PTB  HZ I        1525 52.40         2.1 0.12            133            146 259 
                                                                                
