 2012  710 1654 51.9 L   6.849 -74.079 87.1  RSN  5 0.2 1.8LRSN                1
 GAP=105        0.48       2.7     1.9  4.1  0.1914E+01  0.7264E+00  0.2155E+01E
 Epicentro: PUERTO PARRA - SANTANDER                                           3
 ACTION:UPD 12-08-14 11:44 OP:ep   STATUS:               ID:20120710165451 L   I
 2012-07-10-1650-00M.COL___201                                                 6
 STAT SP IPHASW D HRMM SECON CODA AMPLIT PERI AZIMU VELO AIN AR TRES W  DIS CAZ7
 BRR  HZ EP       1655  5.42                             148    -0.110   50  55 
 BRR  HZ I        1655  5.85        51.9 0.17            150             50  55 
 BRR  HN ES       1655 16.12                             148     0.010   50  55 
 PTB  HZ EP       1655  5.78                             146     0.010   54 231 
 PTB  HN ES   1   1655 16.73                             146     0.0 7   54 231 
 PTB  HZ I        1655 18.41        14.9 0.08            150             54 231 
 BAR2 SZ EP       1655 10.60                             126     0.210  103 106 
 BAR2 SZ ES   1   1655 24.80                             126     0.0 7  103 106 
 BAR2 SZ I        1655 29.80        15.4 0.43            130            103 106 
 ZAR  HZ EP       1655 10.76                             124    -0.210  112 310 
 ZAR  HE ES   1   1655 26.00                             124     0.2 7  112 310 
 ZAR  HZ I        1655 28.20        18.7 0.20            128            112 310 
 RUS  HZ EP   1   1655 16.26                             115     0.2 7  153 134 
 RUS  HE ES   1   1655 34.56                             115    -0.3 7  153 134 
 RUS  HZ I        1655 35.52         4.3 0.18            119            153 134 
