 2013  510 1903 22.5 L   6.779 -73.140148.0  RSN  5 0.4 1.8LRSN                1
 GAP=155        1.00       9.2     6.2  7.8 -0.3304E+02  0.4028E+01  0.1233E+02E
 Epicentro: LOS SANTOS - SANTANDER                                             3
 ACTION:UPD 13-06-20 09:49 OP:ep   STATUS:               ID:20130510190322 L   I
 2013-05-10-1900-00M.COL___256                                                 6
 STAT SP IPHASW D HRMM SECON CODA AMPLIT PERI AZIMU VELO AIN AR TRES W  DIS CAZ7
 BAR2 SZ EP       19 3 42.34                             171   -0.0610 21.2 193 
 BAR2 SZ I        19 3 42.77        16.4 0.10            169           21.2 193 
 BAR2 SZ ES       19 3 57.96                             171    0.0710 21.2 193 
 BRR  HZ EP       19 3 44.12                             152    0.0910 72.9 300 
 BRR  HN ES       19 4  1.39                             152    0.6010 72.9 300 
 BRR  HZ I        19 4 10.31        17.7 0.42            146           72.9 300 
 PAM  SZ EP     C 19 3 45.31                             151    0.2310 78.8  38 
 PAM  SZ I        19 3 45.50        12.7 0.22            152           78.8  38 
 PAM  SN ES       19 4  2.31                             151   -0.3510 78.8  38 
 PTB  HZ EP       19 3 49.23                             133   -0.48 9  148 260 
 PTB  HN ES       19 4 10.28                             133   -0.62 9  148 260 
 PTB  HZ I        19 4 15.01         6.9 0.32            131            148 260 
 NOR  HZ EP   2   19 3 59.19                             119    0.87 4  234 235 
 NOR  HN ES   1   19 4 26.88                             119    0.66 6  234 235 
 NOR  HZ I        19 4 31.49         3.9 0.54            120            234 235 
                                                                                
