 2015  910 1329 29.0 L   6.768 -73.176140.7  RSN  7 0.4 1.8LRSN                1
 GAP=232        1.04       5.9     6.1  7.0  0.1006E+02  0.7334E+01  0.7138E+01E
 Epicentro: LOS SANTOS - SANTANDER                                             3
 ACTION:UPD 15-10-28 16:25 OP:cam  STATUS:               ID:20150910132929 L   I
 OLDACT:REG 15-09-10 20:53 OP:stll STATUS:               ID:20150910132750     3
 2015-09-10-1327-50M.COL___348                                                 6
 STAT SP IPHASW D HRMM SECON CODA AMPLIT PERI AZIMU VELO AIN AR TRES W  DIS CAZ7
 BAR2 EZ EP       1329 47.49                             172   -0.4210 19.5 182 
 BAR2 EZ ES       1330  2.76                             172    0.0710 19.5 182 
 BAR2 EZ I        1330  5.36        11.9 0.44            158           19.5 182 
 BRR  HZ EP       1329 49.46                             152   -0.0410 70.1 302 
 BRR  HE ES       1330  5.89                             152    0.3710 70.1 302 
 RUS  HZ EP       1329 51.96                             144   -0.0210 97.4 174 
 PTB  HZ EP       1329 54.50                             132   -0.66 9  144 260 
 PTB  HN ES       1330 14.79                             132   -0.80 9  144 260 
 PTB  HZ I        1330 22.74         9.7 0.36            120            144 260 
 SPBC HZ EP       1329 56.86                             129    0.25 9  158 219 
 SPBC HN ES       1330 18.66                             129    0.48 9  158 219 
 ZAR  HZ EP       1330  1.40                             121    0.50 9  202 293 
 ZAR  HE ES       1330 26.01                             121    0.20 9  202 293 
 ZAR  HZ I        1330 32.10         6.7 0.26            113            202 293 
 NOR  HZ EP       1330  4.18                             118    0.30 8  230 235 
 NOR  HZ I        1330 37.65         4.1 0.18            109            230 235 
                                                                                
