 2013  510 1826  4.8 L   6.777 -73.140151.7  RSN  6 0.3 1.8LRSN                1
 GAP=138        0.67       3.9     4.1  5.5 -0.1419E+01  0.2111E+01 -0.1223E+00E
 Epicentro: LOS SANTOS - SANTANDER                                             3
 ACTION:UPD 13-06-20 09:49 OP:ep   STATUS:               ID:20130510182604 L   I
 2013-05-10-1820-00M.COL___256                                                 6
 STAT SP IPHASW D HRMM SECON CODA AMPLIT PERI AZIMU VELO AIN AR TRES W  DIS CAZ7
 BAR2 SZ EP   1   1826 24.97                             172   -0.10 7 21.0 193 
 BAR2 SZ ES   1   1826 41.02                             172    0.11 7 21.0 193 
 BAR2 SZ I        1826 42.95        10.6 0.45            169           21.0 193 
 BRR  HZ EP       1826 26.67                             153    0.0010 73.0 300 
 BRR  HN ES       1826 44.22                             153    0.4810 73.0 300 
 PAM  SZ EP       1826 27.61                             151   -0.1110 79.0  38 
 PAM  SZ I        1826 27.87        14.5 0.20            155           79.0  38 
 PAM  SN ES   1   1826 45.25                             151   -0.36 7 79.0  38 
 RUS  HZ EP   1   1826 29.20                             146    0.26 7 98.0 176 
 RUS  HN ES       1826 47.74                             146   -0.0410 98.0 176 
 RUS  HZ I        1826 50.06         5.9 0.58            144           98.0 176 
 PTB  HZ EP   1   1826 32.21                             133   -0.04 7  148 260 
 PTB  HN ES   1   1826 52.94                             133   -0.73 7  148 260 
 PTB  HZ I        1826 54.95         7.3 0.12            133            148 260 
 NOR  HZ EP   2   1826 41.34                             120    0.58 4  234 235 
 NOR  HN ES   2   1827  8.74                             120   -0.08 4  234 235 
 NOR  HZ I        1827 12.58         6.4 0.20            120            234 235 
                                                                                
