 2016  610 1042 49.1 L   6.784 -73.137147.7  RSN  9 0.4 1.8LRSN                1
 GAP=184        0.89       2.9     4.6  5.1 -0.2008E+01  0.3525E+01  0.3117E+01E
 Epicentro: LOS SANTOS - SANTANDER                                             3
 ACTION:UPD 16-07-21 22:17 OP:rebc STATUS:               ID:20160610104249 L   I
 OLDACT:UP  16-06-10 22:01 OP:edw  STATUS:               ID:20160610103744d    3
 OLDACT:DUP 16-06-10 21:52 OP:edw  STATUS:               ID:20160610103744d    3
 2016-06-10-1037-42M.COL___337                                                 6
 STAT SP IPHASW D HRMM SECON CODA AMPLIT PERI AZIMU VELO AIN AR TRES W  DIS CAZ7
 BAR2 EZ EP       1043  8.64                             171   -0.2410 21.8 193 
 BAR2 EZ ES       1043 23.73                             171   -0.6110 21.8 193 
 BAR2 EZ I        1043 25.62        10.6 0.34                          21.8 193 
 BRR  HZ EP       1043 10.76                             152    0.2610 72.9 299 
 BRR  HN ES       1043 27.51                             152    0.2810 72.9 299 
 RUS  HZ EP       1043 12.88                             145    0.0210 98.7 177 
 RUS  HE ES       1043 31.94                             145    0.5210 98.7 177 
 RUS  HZ I        1043 33.88         7.0 0.50                          98.7 177 
 PTB  HZ EP   4   1043 15.32                             132   -0.91 0  148 260 
 PTB  HN ES       1043 37.12                             132   -0.30 9  148 260 
 PTB  HZ I        1043 39.64         9.6 0.26                           148 260 
 OCA  HZ EP       1043 17.54                             130   -0.15 9  162 353 
 OCA  HE ES       1043 40.18                             130    0.16 9  162 353 
 OCA  HZ I        1043 42.99        11.7 0.16                           162 353 
 NOR  HZ EP       1043 25.35                             119    0.49 8  234 235 
 NOR  HN ES       1043 52.51                             119   -0.28 8  234 235 
 NOR  HZ I        1043 56.92         7.5 0.22                           234 235 
 CHI  HZ EP       1043 26.04                             118   -0.65 8  247 195 
 CHI  HN ES       1043 56.47                             118    0.42 8  247 195 
 CHI  HZ I        1043 58.49         3.1 0.34                           247 195 
 GUY2CHZ EP       1043 33.17                             113    0.45 7  301 235 
 GUY2CHE ES       1044  6.85                             113    0.07 7  301 235 
 GUY2CHZ I        1044 14.17         3.4 0.62                           301 235 
 PRA  HN EP       1043 41.88                             107   -0.63 6  391 210 
 PRA  HE ES       1044 24.14                             107   -0.06 6  391 210 
 PRA  HN I        1044 31.24         2.2 0.56                           391 210 
 SJC  HZ EP   4   1043 42.51                             106   -2.40 0  411 327 
 SJC  HN ES   4   1044 26.83                             106   -1.65 0  411 327 
                                                                                
