 2013  210 1144 49.4 L   6.818 -73.120146.5  RSN 10 0.3 1.8LRSN                1
 GAP=139        0.69       2.2     3.2  4.1  0.3034E-01  0.3638E+01  0.7503E-01E
 Epicentro: LOS SANTOS - SANTANDER                                             3
 ACTION:UPD 13-03-12 09:32 OP:ep   STATUS:               ID:20130210114449 L   I
 2013-02-10-1140-00M.COL___241                                                 6
 STAT SP IPHASW D HRMM SECON CODA AMPLIT PERI AZIMU VELO AIN AR TRES W  DIS CAZ7
 BAR2 SZ IP       1145  9.10                             170   -0.0310 25.9 195 
 BAR2 SZ ES       1145 24.87                             170    0.3110 25.9 195 
 BAR2 SZ I        1145 25.39        18.1 0.36            167           25.9 195 
 BRR  HZ EP       1145 10.82                             152    0.1410 72.8 296 
 BRR  HZ I        1145 11.37        11.7 0.35            149           72.8 296 
 BRR  HN ES       1145 27.32                             152    0.0110 72.8 296 
 PAM  SZ EP       1145 11.76                             152    0.3010 74.0  39 
 PAM  SE ES       1145 28.87                             152    0.1710 74.0  39 
 PAM  SZ I        1145 30.66        11.1 0.19            155           74.0  39 
 RUS  HZ EP       1145 13.14                             143   -0.1810  102 178 
 RUS  HE ES       1145 31.73                             143   -0.2810  102 178 
 RUS  HE I        1145 33.26        12.2 0.59            144            102 178 
 PTB  HZ EP   1   1145 16.08                             132   -0.59 7  151 258 
 PTB  HE ES   1   1145 37.96                             132   -0.02 7  151 258 
 PTB  HZ I        1145 40.33         9.3 0.14            130            151 258 
 OCA  HZ EP   1   1145 17.57                             130    0.00 7  159 352 
 OCA  HE ES   1   1145 38.94                             130   -0.64 7  159 352 
 OCA  HZ I        1145 40.45         8.3 0.24            131            159 352 
 ZAR  HZ EP   1   1145 22.77                             122    0.72 6  206 291 
 ZAR  HE ES   1   1145 47.53                             122   -0.01 6  206 291 
 ZAR  HZ I        1145 54.51         8.1 0.26            122            206 291 
 SML  HZ EP   1   1145 26.07                             118    0.11 6  243 334 
 SML  HE ES   1   1145 53.73                             118   -0.78 6  243 334 
 CHI  HZ EP   1   1145 27.49                             117    0.10 6  251 196 
 CHI  HN ES       1145 56.85                             117   -0.21 8  251 196 
 CHI  HZ I        1146  0.33         1.8 0.27            117            251 196 
 HEL  HZ EP   1   1145 30.26                             115    0.29 6  275 256 
 HEL  HN ES   1   1146  1.95                             115    0.31 6  275 256 
 HEL  HZ I        1146  8.81         3.7 0.29            114            275 256 
                                                                                
