 2012  210 1732 42.4 L   6.799 -73.212144.0  RSN  4 0.2 1.4LRSN                1
 GAP=230        0.47       4.6     4.6  5.8  0.1010E+02 -0.1470E+01 -0.1540E+01E
 ACTION:UP  12-03-07 16:29 OP:epov STATUS:               ID:20120210173242 L   I
 2012-02-10-1730-00M.COL___188                                                 6
 STAT SP IPHASW D HRMM SECON CODA AMPLIT PERI AZIMU VELO AIN AR TRES W  DIS CAZ7
 BAR2 SZ EP   1   1733  1.52                             171   -0.32 7 23.1 172 
 BAR2 SZ I        1733 17.94         4.6 0.28                          23.1 172 
 BRR  HZ EP       1733  3.31                             154    0.2710 64.9 302 
 BRR  HN ES   1   1733 19.02                             154   -0.10 7 64.9 302 
 BRR  HZ I        1733 27.46        11.7 0.46                          64.9 302 
 RUS  HZ EP   1   1733  6.10                             143    0.05 7  101 172 
 RUS  HN ES   1   1733 24.56                             143    0.09 7  101 172 
 RUS  HZ I        1733 26.17         2.4 0.37                           101 172 
 PTB  HZ EP       1733  8.45                             133   -0.14 9  141 258 
 PTB  HN ES   1   1733 29.02                             133    0.01 7  141 258 
                                                                                
