 2012 1110 1747 17.2 L   6.039 -74.076  4.3  RSN 10 0.4 2.3LRSN                1
 GAP=108        0.95       2.2     2.5  5.1 -0.9182E+00  0.7434E+00  0.2142E+01E
 Epicentro: LA BELLEZA - SANTANDER                                             3
 ACTION:UPD 12-12-05 15:32 OP:}ep  STATUS:               ID:20121110174717 L   I
 2012-11-10-1740-00M.COL___230                                                 6
 STAT SP IPHASW D HRMM SECON CODA AMPLIT PERI AZIMU VELO AIN AR TRES W  DIS CAZ7
 PTB  HZ IP     D 1747 28.36                              90    0.0610 69.5 323 
 PTB  HN ES   1   1747 37.80                              90    0.81 7 69.5 323 
 PTB  HZ I        1747 40.83       265.3 0.14                          69.5 323 
 RUS  HZ IP   9 D 1747 32.65                              90   -2.44 0  111  98 
 BAR2 SZ IPg      1747 34.75                              90   -0.8610  116  58 
 BAR2 SZ I        1747 57.16        43.3 0.52                           116  58 
 BRR  HZ EP       1747 36.54                              90   -0.1110  125  19 
 BRR  HN ES   1   1747 52.45                              90    0.59 7  125  19 
 BRR  HZ I        1747 54.92        40.5 0.10                           125  19 
 GIR2 SZ EP   1   1747 40.52                              90   -0.22 7  151  40 
 GIR2 SZ ES   2   1747 58.73                              90   -0.41 5  151  40 
 CHI  HZ EP   1   1747 42.70                              90    0.21 7  160 166 
 CHI  HN ES   1   1748  2.65                              90    0.40 7  160 166 
 CHI  HZ I        1748  8.84        17.9 0.64                           160 166 
 HEL  HZ IP     D 1747 42.46                              90   -0.17 9  162 276 
 HEL  HN ES   1   1748  2.26                              90   -0.24 7  162 276 
 HEL  HZ I        1748  4.56        44.0 0.16                           162 276 
 ZAR  HZ EP   1   1747 45.16                              56   -0.04 7  182 332 
 ZAR  HE ES   1   1748  6.31                              56   -0.76 7  182 332 
 ZAR  HZ I        1748 11.25        17.2 0.22                           182 332 
 RREF HZ EP       1747 46.86                              56    0.10 9  189 228 
 RREF HN ES   1   1748  9.56                              56   -0.29 7  189 228 
 RREF HZ I        1748 12.54        25.3 0.34                           189 228 
 PAM  SZ EP       1747 49.74                              56    0.60 8  209  47 
 PAM  SN ES   1   1748 14.59                              56    0.50 6  209  47 
 PAM  SZ I        1748 16.91        59.2 0.38                           209  47 
 PRA  HN ES   1   1748 27.19                              56    0.04 6  272 199 
 PRA  HN I        1748 42.63         8.7 0.52                           272 199 
                                                                                
