 2014  610 1817 31.2 L   7.455 -73.177131.7  RSN 11 0.4 2.1LRSN                1
 GAP=114        0.93       3.2     3.9  6.5  0.4021E+00  0.8724E+01  0.8488E+00E
 Epicentro: EL PLAYON - SANTANDER                                              3
 ACTION:UPD 14-07-01 22:52 OP:nd   STATUS:               ID:20140610181731 L   I
 OLDACT:DUP 14-06-11 00:57 OP:fm   STATUS:               ID:20140610180813d    3
 2014-06-10-1808-12M.COL___250                                                 6
 STAT SP IPHASW D HRMM SECON CODA AMPLIT PERI AZIMU VELO AIN AR TRES W  DIS CAZ7
 PAM  SZ IP       1817 51.06                             156    0.4510 54.3 104 
 PAM  SE ES       1818  6.01                             156    0.2510 54.3 104 
 PAM  SZ I        1818  8.02        21.1 0.66            158           54.3 104 
 BRR  HZ EP       1817 50.76                             150   -0.0210 70.4 237 
 BRR  HN ES       1818  5.89                             150   -0.1810 70.4 237 
 BRR  HZ I        1818  6.59        35.4 0.36            149           70.4 237 
 OCA  HZ EP   1   1817 52.86                             144    0.68 7 88.1 350 
 OCA  HN ES   1   1818  8.95                             144    0.40 7 88.1 350 
 OCA  HZ I        1818 11.16        31.4 0.80            145           88.1 350 
 BAR2 SZ EP   1   1817 52.62                             142   -0.21 7 95.4 180 
 BAR2 SZ ES   1   1818  9.32                             142   -0.39 7 95.4 180 
 BAR2 SZ I        1818 10.10        51.2 0.34            142           95.4 180 
 RUS  HZ EP   1   1817 59.76                             124   -0.40 7  173 177 
 RUS  HN ES   1   1818 22.09                             124   -0.67 7  173 177 
 PTB  HZ EP       1817 59.55                             124   -0.06 9  174 234 
 PTB  HE ES       1818 21.69                             124   -0.10 9  174 234 
 PTB  HZ I        1818 23.14        10.0 0.16            123            174 234 
 SML  HZ EP   1   1817 59.82                             123   -0.25 7  179 327 
 SML  HN ES       1818 21.74                             123   -0.86 9  179 327 
 ZAR  HZ EP       1818  0.73                             122   -0.08 9  186 271 
 ZAR  HE ES       1818 24.34                             122    0.43 9  186 271 
 ZAR  HZ I        1818 27.24        23.1 0.44            122            186 271 
 NOR  HN ES   1   1818 43.06                             111    0.48 6  281 222 
 NOR  HZ I        1818 47.69         5.4 0.14            111            281 222 
 GUY2CHZ EP   4   1818 21.61                             106    2.28 0  346 225 
 GUY2CHN ES   4   1818 59.55                             106    2.67 0  346 225 
 GUY2CHZ I        1819  6.65         3.0 0.58                           346 225 
 RREF HZ EP   4   1818 24.93                             105    2.45 0  371 220 
 RREF HN ES   1   1819  3.44                             105    0.96 5  371 220 
 RREF HZ I        1819 10.10         2.8 0.66            105            371 220 
                                                                                
