 2013  110 1123  1.6 L   6.819 -73.135145.6  RSN  7 0.4 2.2LRSN 3.0WRSN        1
 SPEC AVERAGE  MO 13.6 ST  3.5 OM  2.9 f0 3.64 R0.4187 AL 2.54 WI 17.4 MW  3.0 3
 SPEC SD       MO  0.3 ST  1.9 OM  1.0 f00.718 R0.0778 AL      WI      MW  0.2 3
 GAP=184        1.07       3.7     5.8  6.7  0.4991E+01  0.3050E+01 -0.2069E-01E
 Epicentro: LOS SANTOS - SANTANDER                                             3
 SPEC OCA HH N MO 14.0 ST  5.6 OM  2.3 f0 3.43 R0.4286 AL 2.33 WI 19.7 MW  3.3 3
 SPEC OCA HH N T112350 K 0.000 GD  214 VS 4.20 DE 3.00 Q0230.0 QA 0.60 VS 4.20 3
 SPEC CHI HH N MO 13.4 ST0.899 OM  1.6 f0 2.89 R0.5087 AL 2.11 WI 16.6 MW  2.9 3
 SPEC CHI HH N T1124 8 K 0.000 GD  290 VS 4.20 DE 3.00 Q0230.0 QA 0.60 VS 4.20 3
 SPEC BRR HH N MO 13.5 ST  4.1 OM  1.9 f0 4.61 R0.3189 AL 3.18 WI 15.9 MW  2.9 3
 SPEC BRR HH N T112339 K 0.000 GD  162 VS 4.20 DE 3.00 Q0230.0 QA 0.60 VS 4.20 3
 ACTION:UPD 13-02-15 09:13 OP:ep   STATUS:               ID:20130110112301 L   I
 2013-01-10-1118-40M.COL___165                                                 6
 STAT SP IPHASW D HRMM SECON CODA AMPLIT PERI AZIMU VELO AIN AR TRES W  DIS CAZ7
 BAR2 SZ EP       1123 21.48                             170    0.2010 25.6 192 
 BAR2 SZ ES       1123 36.05                             170   -0.5610 25.6 192 
 BAR2 SZ I        1123 37.50        31.0 0.24            170           25.6 192 
 BRR  HZ EP       1123 23.16                             152    0.4110 71.3 297 
 BRR  HN ES       1123 40.24                             152    1.0010 71.3 297 
 BRR  HN I        1123 44.30        35.3 0.16            152           71.3 297 
 RUS  HZ EP       1123 25.66                             143    0.1610  103 177 
 RUS  HE ES       1123 44.10                             143   -0.0310  103 177 
 RUS  HE I        1123 46.32        13.5 0.26            146            103 177 
 PTB  HZ EP       1123 28.54                             132   -0.17 9  149 258 
 PTB  HN ES       1123 49.23                             132   -0.62 9  149 258 
 PTB  HN I        1123 54.37        21.2 0.22            133            149 258 
 OCA  HZ EP       1123 29.42                             130   -0.32 9  158 353 
 OCA  HN ES       1123 51.30                             130   -0.37 9  158 353 
 OCA  HN I        1123 55.91        81.6 0.26            131            158 353 
 ZAR  HZ EP       1123 33.96                             122   -0.12 9  204 291 
 ZAR  HN ES       1123 59.48                             122    0.07 9  204 291 
 CHI  HZ EP       1123 39.87                             117    0.31 8  251 195 
 CHI  HZ I        1123 41.88         4.2 0.38            119            251 195 
 CHI  HN ES       1124  9.05                             117   -0.10 8  251 195 
                                                                                
