 2015  110 1707 57.0 L   6.755 -73.155142.0  RSN  5 0.3 1.6LRSN                1
 GAP=137        0.80       3.8     4.3  6.5 -0.2466E+01  0.1368E+02 -0.2820E+01E
 Epicentro: LOS SANTOS - SANTANDER                                             3
 ACTION:UPD 15-03-02 15:38 OP:nd   STATUS:               ID:20150110170757 L   I
 OLDACT:UP  15-01-10 23:43 OP:mh   STATUS:               ID:20150110165746     3
 OLDACT:UP  15-01-10 23:42 OP:mh   STATUS:               ID:20150110165746     3
 OLDACT:REG 15-01-10 19:51 OP:mh   STATUS:               ID:20150110165746     3
 2015-01-10-1657-46M.COL___271                                                 6
 STAT SP IPHASW D HRMM SECON CODA AMPLIT PERI AZIMU VELO AIN AR TRES W  DIS CAZ7
 BAR2 EZ EP       17 8 16.11                             172    0.0110 18.3 189 
 BAR2 EZ ES       17 8 31.55                             172    0.5610 18.3 189 
 BAR2 EZ I        17 8 33.90        13.0 0.24            171           18.3 189 
 PAM  SZ EP       17 8 19.18                             149    0.0710 81.9  38 
 PAM  SN ES       17 8 36.20                             149   -0.1510 81.9  38 
 PAM  SZ I        17 8 39.43         6.5 0.52            154           81.9  38 
 RUS  HZ EP       17 8 19.75                             145   -0.3010 95.7 175 
 RUS  HN ES       17 8 37.74                             145   -0.2810 95.7 175 
 RUS  HZ I        17 8 39.85         3.3 0.26            148           95.7 175 
 ZAR  HZ EP       17 8 29.72                             121    0.40 9  205 294 
 ZAR  HN ES       17 8 54.00                             121   -0.52 9  205 294 
 ZAR  HZ I        17 8 59.33         6.7 0.26            123            205 294 
 NOR  HZ EP   1   17 8 32.40                             118    0.27 6  231 235 
 NOR  HN ES       17 8 59.64                             118    0.12 8  231 235 
 NOR  HZ I        17 9  7.25         3.4 0.60            120            231 235 
                                                                                
