 2016 1210 1758 56.9 L   7.247 -73.723 97.3  RSN  6 0.4 2.0LRSN                1
 GAP=218        1.10       7.5     5.6  8.4  0.2818E+02  0.1902E+02  0.2397E+02E
 Epicentro: PUERTO WILCHES - SANTANDER                                         3
 ACTION:UPD 17-01-11 20:13 OP:rebc STATUS:               ID:20161210175856 L   I
 OLDACT:REG 16-12-10 20:56 OP:dnl  STATUS:               ID:20161210175744     3
 2016-12-10-1758-00M.COL___379                                                 6
 STAT SP IPHASW D HRMM SECON CODA AMPLIT PERI AZIMU VELO AIN AR TRES W  DIS CAZ7
 BRR  HZ EP       1759 10.14                             170   -0.0110 15.5 175 
 BRR  HN ES       1759 20.17                             170   -0.3410 15.5 175 
 BRR  HZ I        1759 21.03        51.6 0.10            167           15.5 175 
 BAR2 EZ EP       1759 15.49                             133    0.2010 93.9 140 
 BAR2 EZ ES       1759 30.18                             133    0.5210 93.9 140 
 BAR2 EZ I        1759 31.63        53.1 0.28            135           93.9 140 
 PTB  HZ EP       1759 15.78                             127   -0.9910  113 226 
 PTB  HN ES   4   1759 30.18                             127   -2.11 0  113 226 
 PTB  HZ I        1759 35.04        12.3 0.21            126            113 226 
 ZAR  HZ EP       1759 18.65                             123    0.3210  128 282 
 ZAR  HE ES       1759 35.35                             123    0.2810  128 282 
 ZAR  HZ I        1759 40.16        16.3 0.12            123            128 282 
 RUS  HZ EP       1759 22.86                             117   -0.11 9  166 155 
 RUS  HE ES       1759 43.14                             117   -0.18 9  166 155 
 RUS  HZ I        1759 45.00        14.4 0.28            117            166 155 
 GUY2CHZ EP   4   1759 38.56                             105    1.39 0  288 219 
 GUY2CHN ES       18 0  9.10                             105    0.49 7  288 219 
 GUY2CHZ I        18 0 15.16         3.2 0.30                           288 219 
                                                                                
