 2012 1210 1416 27.4 L   6.787 -73.188145.0  RSN  9 0.5 2.2LRSN                1
 GAP=132        1.33       4.4     6.0  7.9  0.1413E+01  0.1394E+02 -0.8781E+00E
 Epicentro: LOS SANTOS - SANTANDER                                             3
 ACTION:UPD 13-01-04 14:26 OP:ep   STATUS:               ID:20121210141627 L   I
 2012-12-10-1410-00M.COL___242                                                 6
 STAT SP IPHASW D HRMM SECON CODA AMPLIT PERI AZIMU VELO AIN AR TRES W  DIS CAZ7
 BAR2 SZ EP       1416 46.79                             171   -0.0910 21.5 178 
 BAR2 SZ ES       1417  1.82                             171   -0.2710 21.5 178 
 BAR2 SZ I        1417  4.14        48.0 0.30                          21.5 178 
 GIR2 SZ EP       1416 46.93                             167   -0.0610 32.3 359 
 GIR2 SZ ES       1417  1.72                             167   -0.5610 32.3 359 
 GIR2 SZ I        1417  3.14        19.0 0.12                          32.3 359 
 PAM  SZ EP       1416 49.82                             149    0.0510 81.5  41 
 PAM  SZ I        1416 50.01        25.5 0.22                          81.5  41 
 PAM  SN ES       1417  8.21                             149    0.9810 81.5  41 
 RUS  HZ EP       1416 50.75                             144   -0.2310 99.5 173 
 RUS  HZ I        1416 51.86         6.9 0.12                          99.5 173 
 RUS  HE ES       1417  9.70                             144    0.3110 99.5 173 
 PTB  HZ EP       1416 53.42                             133   -0.42 9  143 259 
 PTB  HN ES       1417 14.22                             133   -0.27 9  143 259 
 PTB  HN I        1417 19.73        24.4 0.28                           143 259 
 OCA  HN ES       1417 17.33                             129   -0.50 9  161 355 
 ZAR  HN ES       1417 25.67                             123    1.31 9  200 293 
 ZAR  HN I        1417 30.24        17.9 0.30                           200 293 
 SML  HZ EP       1417  4.31                             117    0.41 8  243 336 
 SML  HN ES       1417 31.74                             117   -0.65 8  243 336 
 SML  HN I        1417 35.49        46.5 0.10                           243 336 
 CHI  HZ EP       1417  4.88                             117    0.13 8  246 194 
 CHI  HN I        1417 39.73         9.1 0.50                           246 194 
                                                                                
