 2011  710 1503 21.1 L   6.778 -73.108144.0  RSN  5 0.3 1.7LRSN                1
 GAP=187        0.63       4.0     6.2  5.6 -0.1257E+02  0.4792E+01 -0.3775E+01E
 Epicentro: LOS SANTOS - SANTANDER                                             3
 ACTION:UPD 12-07-25 13:59 OP:epov STATUS:               ID:20110710150321 L   I
 2011-07-10-1459-58S.COL___139                                                 6
 STAT SP IPHASW D HRMM SECON CODA AMPLIT PERI AZIMU VELO AIN AR TRES W  DIS CAZ7
 BAR2 SZ EP       15 3 40.75                             171    0.2510 22.1 202 
 BAR2 SZ I        15 3 40.93         8.3 0.14                          22.1 202 
 BAR2 SZ ES       15 3 55.42                             171   -0.2010 22.1 202 
 BRR  HZ EP   1   15 3 42.60                             151    0.26 7 76.0 299 
 BRR  HN ES   1   15 3 59.40                             151    0.49 7 76.0 299 
 BRR  HZ I        15 4  4.57         9.5 0.13                          76.0 299 
 GRA  SZ EP   1   15 3 46.42                             136    0.13 7  127  15 
 GRA  SZ ES   1   15 4  5.69                             136   -0.24 7  127  15 
 GRA  SZ I        15 4  7.01        10.5 0.29                           127  15 
 OCA  SZ EP   1   15 3 49.56                             129    0.00 7  163 352 
 OCA  SZ ES   1   15 4 11.37                             129   -0.38 7  163 352 
 NOR  SZ EP   2   15 3 56.43                             118   -0.52 4  237 236 
 NOR  SN ES   1   15 4 24.49                             118   -0.42 6  237 236 
                                                                                
