 2012  210 1531 21.1 L   6.746 -73.105149.7  RSN  5 0.2 1.8LRSN                1
 GAP=144        0.46       4.5     4.8  5.2  0.1262E+02 -0.6077E+01 -0.8235E+01E
 ACTION:UP  12-03-07 16:29 OP:epov STATUS:               ID:20120210153121 L   I
 2012-02-10-1530-00M.COL___188                                                 6
 STAT SP IPHASW D HRMM SECON CODA AMPLIT PERI AZIMU VELO AIN AR TRES W  DIS CAZ7
 BAR2 SZ EP       1531 41.12                             172   -0.0510 19.0 207 
 BAR2 SZ ES   1   1531 56.49                             172   -0.30 7 19.0 207 
 BAR2 SZ I        1531 59.72         9.5 0.22                          19.0 207 
 BRR  HZ EP       1531 43.06                             151   -0.0510 78.1 301 
 BRR  HZ I        1531 43.32        17.5 0.13                          78.1 301 
 BRR  HE ES   1   1532  0.63                             151    0.38 7 78.1 301 
 PAM  SZ EP   1   1531 43.92                             151    0.02 7 79.5  34 
 RUS  HZ EP   1   1531 45.01                             146    0.16 7 94.4 179 
 RUS  HN ES   1   1532  3.41                             146    0.06 7 94.4 179 
 ZAR  HE ES   1   1532 20.33                             122   -0.20 6  210 293 
                                                                                
