 2012 1010 1912 56.7 L   6.793 -73.106150.0  RSN  5 0.1 1.6LRSN                1
 GAP=142        0.31       5.8     6.5  5.7  0.2107E+02 -0.6891E+01  0.8169E+01E
 Epicentro: LOS SANTOS - SANTANDER                                             3
 ACTION:UPD 12-11-22 17:03 OP:ep   STATUS:               ID:20121010191256 L   I
 2012-10-10-1910-00M.COL___229                                                 6
 STAT SP IPHASW D HRMM SECON CODA AMPLIT PERI AZIMU VELO AIN AR TRES W  DIS CAZ7
 BAR2 SZ EP       1913 16.78                             171   -0.0810 23.7 201 
 BAR2 SZ I        1913 17.32         7.0 0.18                          23.7 201 
 GIR2 SZ EP   3   1913 17.08                             167    0.14 2 33.1 343 
 GIR2 SZ ES   3   1913 32.94                             167    0.23 2 33.1 343 
 PAM  SN ES   3   1913 36.76                             152   -0.09 2 75.3  37 
 PAM  SN I        1913 38.06         8.2 0.48                          75.3  37 
 BRR  HZ EP       1913 18.68                             151    0.1210 75.4 297 
 BRR  HN ES   1   1913 35.49                             151   -0.11 7 75.4 297 
 BRR  HN I        1913 37.11        21.5 0.18                          75.4 297 
 RUS  HZ EP   2   1913 20.79                             145   -0.02 5 99.6 179 
 RUS  HN ES   3   1913 39.78                             145    0.17 2 99.6 179 
 RUS  HZ I        1913 40.40         1.8 0.44                          99.6 179 
                                                                                
