 2014  410 1132 35.7 L   7.318 -73.360116.9  RSN  8 0.4 2.1LRSN                1
 GAP=201        0.79       4.4     5.8  9.0 -0.1348E+02  0.3478E+01  0.1032E+02E
 Epicentro: SABANA DE TORRES - SANTANDER                                       3
 ACTION:UPD 14-05-13 23:07 OP:nd   STATUS:               ID:20140410113235 L   I
 OLDACT:UP  14-04-10 21:36 OP:cam  STATUS:               ID:20140410112813     3
 OLDACT:REG 14-04-10 20:23 OP:cam  STATUS:               ID:20140410112813     3
 2014-04-10-1128-13M.COL___253                                                 6
 STAT SP IPHASW D HRMM SECON CODA AMPLIT PERI AZIMU VELO AIN AR TRES W  DIS CAZ7
 OCA  HZ EP       1132 56.58                             136    0.1910  102   2 
 OCA  HN ES       1133 12.46                             136   -0.0710  102   2 
 OCA  HZ I        1133 12.97        24.9 0.20            141            102   2 
 PTB  HZ EP   4 D 1132 59.28                             124   -1.30 0  149 235 
 PTB  HN ES   4   1133 17.49                             124   -2.49 0  149 235 
 PTB  HZ I        1133 21.99        15.4 0.20            125            149 235 
 ZAR  HZ EP       1133  2.87                             121    0.46 9  167 277 
 ZAR  HN ES       1133 23.38                             121    0.14 9  167 277 
 ZAR  HZ I        1133 25.27        19.3 0.26            123            167 277 
 SML  HZ EP       1133  3.60                             118   -0.41 9  182 334 
 SML  HE ES   4   1133 25.12                             118   -0.97 0  182 334 
 SML  HZ I        1133 31.24        24.7 0.22            122            182 334 
 SPBC HE ES   1   1133 29.48                             116   -0.41 6  200 203 
 SPBC HZ I        1133 38.78         9.6 0.22            116            200 203 
 NOR  HZ EP   1   1133 13.02                             110    0.65 6  256 221 
 NOR  HE ES   4   1133 41.87                             110    0.91 0  256 221 
 NOR  HZ I        1133 45.51         7.6 0.52            110            256 221 
 HEL  HZ EP   4   1133 16.60                             108    2.19 0  270 243 
 HEL  HN ES   1   1133 43.98                             108   -0.62 6  270 243 
 HEL  HZ I        1133 50.64         5.2 0.20            110            270 243 
 RREF HZ EP   4   1133 25.40                             103    1.75 0  346 220 
 SJC  HZ EP       1133 22.89                             103   -0.33 6  349 325 
 SJC  HN ES   4   1133 58.26                             103   -2.02 0  349 325 
 SJC  HZ I        1134  0.74         5.9 0.42            105            349 325 
                                                                                
