 2011 1010 1036 17.5 L   6.765 -73.114141.7  RSN  7 0.3 1.8LRSN                1
 GAP=142        0.51       4.0     5.1  5.2 -0.3956E+00 -0.3590E+01  0.3494E+01E
 Epicentro: LOS SANTOS - SANTANDER                                             3
 ACTION:UPD 12-07-13 16:03 OP:ep   STATUS:               ID:20111010103617 L   I
 2011-10-10-1020-00M.COL___171                                                 6
 STAT SP IPHASW D HRMM SECON CODA AMPLIT PERI AZIMU VELO AIN AR TRES W  DIS CAZ7
 BAR2 SZ EP       1036 36.69                             171    0.0910 20.5 202 
 BAR2 SZ ES   1   1036 51.29                             171   -0.20 7 20.5 202 
 BAR2 SZ I        1036 52.93        15.9 0.18                          20.5 202 
 GIR2 SZ EP       1036 36.44                             165   -0.4010 35.8 346 
 BRR  HZ EP       1036 38.56                             150    0.0410 76.1 300 
 BRR  HE ES   1   1036 55.13                             150    0.23 7 76.1 300 
 BRR  HZ I        1037  0.79        10.5 0.44                          76.1 300 
 PAM  SZ EP       1036 39.62                             150    0.2610 78.3  36 
 PAM  SN ES   2   1036 56.41                             150    0.01 5 78.3  36 
 RUS  HZ EP       1036 40.58                             144    0.0010 96.5 178 
 RUS  HE ES   3   1036 59.01                             144    0.45 2 96.5 178 
 OCA  SZ ES   3   1037  7.27                             128   -0.81 2  165 352 
 NOR  SZ EP   2   1036 53.10                             117    0.02 4  235 236 
                                                                                
