 2017  810 1051  1.8 L   6.812 -73.118150.4  RSN  4 0.1 1.2LRSN                1
 GAP=241        0.36       4.1     4.6  3.3  0.1588E+02 -0.1031E+01 -0.1734E+01E
 Epicentro: LOS SANTOS - SANTANDER                                             3
 ACTION:UPD 17-09-04 20:18 OP:rebc STATUS:               ID:20170810105101 L   I
 OLDACT:REG 17-08-10 20:27 OP:dani STATUS:               ID:20170810104740     3
 2017-08-10-1048-00M.COL___401                                                 6
 STAT SP IPHASW D HRMM SECON CODA AMPLIT PERI AZIMU VELO AIN AR TRES W  DIS CAZ7
 BAR2 EZ EP       1051 21.84                             170   -0.1510 25.3 196 
 BAR2 EZ ES       1051 37.71                             170   -0.0610 25.3 196 
 BAR2 EZ I        1051 38.45         2.8 0.18            169           25.3 196 
 BRR  HZ EP       1051 23.68                             153    0.1510 73.3 297 
 BRR  HN ES       1051 40.57                             153    0.0610 73.3 297 
 BRR  HZ I        1051 42.49         9.0 0.33            153           73.3 297 
 RUS  HZ EP       1051 26.07                             144    0.0210  102 178 
 RUS  HN ES       1051 45.05                             144    0.0510  102 178 
 RUS  HZ I        1051 46.37         1.3 0.40            145            102 178 
 ZAR  HN ES       1052  0.39                             123   -0.09 8  206 291 
                                                                                
