 2010  910 1813 12.1 L   6.732 -73.162143.3  RSN  6 0.4 1.4LRSN                1
 GAP=157        0.73       6.8    14.0 11.8  0.2914E+02 -0.7975E+02 -0.3835E+02E
 Epicentro: VILLANUEVA - SANTANDER                                             3
 ACTION:UP  11-02-18 11:01 OP:tino STATUS:               ID:20100910181312 L   I
 2010-09-10-1811-32S.COL___120                                                 6
 STAT SP IPHASW D HRMM SECON CODA AMPLIT PERI AZIMU VELO SNR AR TRES W  DIS CAZ7
 BAR2 SZ EP   1   1813 30.96                             174    -0.4 7   16 189 
 BAR2 SZ ES   2   1813 45.62                             174    -0.7 5   16 189 
 BAR2 SZ I        1813 47.15         9.8 0.21                            16 189 
 GIR2 SZ EP   2   1813 32.13                             164     0.4 5   39 355 
 BRR  HZ EP   1   1813 33.04                             152    -0.1 7   74 304 
 BRR  HE ES   2   1813 49.85                             152     0.3 5   74 304 
 RUS  HZ EP   1   1813 34.96                             146    -0.2 7   93 175 
 RUS  HZ I        1813 35.57         2.5 0.28                            93 175 
 RUS  HN ES   2   1813 53.94                             146     0.9 5   93 175 
 GUE  SZ EP   1   1813 37.48                             137     0.2 7  124  12 
 GRA  SZ EP   1   1813 37.90                             135     0.1 7  134  17 
                                                                                
