 2013  510 1237  0.6 L   6.780 -73.159146.0  RSN  6 0.4 1.7LRSN                1
 GAP=136        0.86       5.0     4.9  7.3  0.1301E+01 -0.2900E+00  0.3239E+01E
 Epicentro: LOS SANTOS - SANTANDER                                             3
 ACTION:UPD 13-06-20 09:49 OP:ep   STATUS:               ID:20130510123700 L   I
 2013-05-10-1230-00M.COL___256                                                 6
 STAT SP IPHASW D HRMM SECON CODA AMPLIT PERI AZIMU VELO AIN AR TRES W  DIS CAZ7
 BAR2 SZ EP       1237 19.95                             171   -0.2710 21.0 187 
 BAR2 SZ ES   1   1237 35.47                             171   -0.04 7 21.0 187 
 BAR2 SZ I        1237 37.29         8.1 0.26            172           21.0 187 
 BRR  HZ EP       1237 21.85                             153    0.0810 71.0 301 
 BRR  HN ES       1237 38.95                             153    0.6810 71.0 301 
 BRR  HZ I        1237 41.96         8.2 0.30            153           71.0 301 
 PAM  SZ EP   1   1237 22.98                             150   -0.02 7 80.0  39 
 PAM  SN ES   1   1237 39.95                             150   -0.52 7 80.0  39 
 PAM  SZ I        1237 41.96        11.8 0.56            153           80.0  39 
 RUS  HZ EP       1237 24.51                             145    0.2810 98.5 175 
 RUS  HN ES       1237 42.73                             145    0.0710 98.5 175 
 RUS  HZ I        1237 44.00         7.4 0.44            148           98.5 175 
 PTB  HZ EP   2   1237 27.07                             133   -0.35 5  146 260 
 PTB  HN ES       1237 47.79                             133   -0.55 9  146 260 
 PTB  HZ I        1237 50.68         6.2 0.14            134            146 260 
 PRA  HZ EP   2   1237 54.33                             107    0.50 3  389 210 
                                                                                
