 2011  910 1055 20.4 L   7.261 -73.369 27.4  RSN  6 0.4 1.5LRSN                1
 GAP=166        0.76       3.4     2.7  4.3 -0.2682E+01 -0.1823E+01  0.2669E+01E
 Epicentro: SABANA DE TORRES - SANTANDER                                       3
 ACTION:UPD 12-07-13 15:56 OP:ep   STATUS:               ID:20110910105520 L   I
 2011-09-10-1040-00M.COL___171                                                 6
 STAT SP IPHASW D HRMM SECON CODA AMPLIT PERI AZIMU VELO AIN AR TRES W  DIS CAZ7
 GIR2 SZ EP   1   1055 27.08                             130    0.30 7 28.0 136 
 GIR2 SZ ES   1   1055 32.29                             130    0.53 7 28.0 136 
 BRR  HZ EP   1   1055 28.11                             116   -0.12 7 41.5 246 
 BRR  HN ES   1   1055 34.23                             116   -0.12 7 41.5 246 
 BRR  HZ I        1055 35.55        44.2 0.14                          41.5 246 
 PAM  SZ EP   1   1055 32.99                             100   -0.29 7 74.4  83 
 PAM  SN ES   1   1055 42.90                             100   -0.44 7 74.4  83 
 PAM  SZ I        1055 44.82        11.4 0.17                          74.4  83 
 BAR2 SZ ES   1   1055 42.80                              98   -0.63 7 76.8 164 
 BRI  SZ EP   1   1055 34.19                              97    0.36 7 80.8  51 
 RUS  HZ EP   1   1055 43.63                              61    0.04 7  155 168 
 RUS  HN ES   1   1056  2.14                              61    0.44 7  155 168 
 RUS  HZ I        1056  4.81         5.0 0.23                           155 168 
                                                                                
