 2015  110 1954 17.9 L   6.796 -73.136144.4  RSN  8 0.5 2.1LRSN                1
 GAP=138        1.22       4.4     5.8  7.5 -0.9182E+01  0.1055E+02  0.6586E+00E
 Epicentro: LOS SANTOS - SANTANDER                                             3
 ACTION:UPD 15-03-02 15:38 OP:nd   STATUS:               ID:20150110195417 L   I
 OLDACT:UP  15-01-11 01:41 OP:mh   STATUS:               ID:20150110195345     3
 OLDACT:UP  15-01-11 01:40 OP:mh   STATUS:               ID:20150110195345     3
 OLDACT:REG 15-01-11 01:15 OP:mh   STATUS:               ID:20150110195345     3
 2015-01-10-1953-45M.COL___271                                                 6
 STAT SP IPHASW D HRMM SECON CODA AMPLIT PERI AZIMU VELO AIN AR TRES W  DIS CAZ7
 BAR2 EZ EP       1954 37.23                             170   -0.1510 23.2 193 
 BAR2 EZ ES       1954 51.80                             170   -0.7710 23.2 193 
 BAR2 EZ I        1955  5.92        10.6 0.24            171           23.2 193 
 BRR  HZ EP       1954 39.18                             152    0.1910 72.3 298 
 BRR  HN ES       1954 56.26                             152    0.8410 72.3 298 
 BRR  HZ I        1954 59.47        17.8 0.24            154           72.3 298 
 PAM  SZ EP       1954 40.35                             151    0.3810 77.0  39 
 PAM  SN ES       1954 57.27                             151    0.1010 77.0  39 
 PAM  SZ I        1954 59.43        39.6 0.48            157           77.0  39 
 RUS  HZ EP   1   1954 41.76                             144    0.26 7  100 177 
 RUS  HN ES       1955  0.26                             144    0.3610  100 177 
 RUS  HZ I        1955  1.83        16.6 0.20            149            100 177 
 PTB  HZ EP       1954 44.66                             131   -0.21 9  149 259 
 PTB  HN ES       1955  6.41                             131    0.53 9  149 259 
 PTB  HZ I        1955  8.69        20.3 0.18            136            149 259 
 OCA  HZ EP   1   1954 45.70                             129   -0.47 7  161 353 
 OCA  HN ES       1955  7.49                             129   -0.72 9  161 353 
 OCA  HZ I        1955 13.66        21.1 0.78            135            161 353 
 SPBC HZ EP       1954 46.50                             129    0.15 9  164 219 
 SPBC HN ES       1955  7.95                             129   -0.58 9  164 219 
 SPBC HZ I        1955 10.96        14.8 0.20            134            164 219 
 NOR  HZ EP       1954 54.03                             118    0.39 8  235 235 
 NOR  HN ES       1955 20.79                             118   -0.71 8  235 235 
 NOR  HZ I        1955 29.99         8.4 0.19            123            235 235 
                                                                                
