 2011  210 1913 48.1 L   6.746 -73.129132.7  RSN 15 0.5 3.3LRSN                1
 GAP=137        1.00       3.0     5.0  7.2 -0.3369E+01  0.1219E+02  0.1472E+01E
 Epicentro: JORDAN - SANTANDER                                                 3
 ACTION:UP  11-03-28 15:07 OP:jfem STATUS:               ID:20110210191348 L   I
 2011-02-10-1900-00M.COL___138                                                 6
 STAT SP IPHASW D HRMM SECON CODA AMPLIT PERI AZIMU VELO SNR AR TRES W  DIS CAZ7
 BAR2 SZ IP     C 1914  6.22                             172     0.210   18 199 
 BAR2 SZ ES   1   1914 20.01                             172    -0.1 7   18 199 
 BAR2 SZ I        1914 21.99       847.8 0.24                            18 199 
 GIR2 SZ IP       1914  6.31                             163    -0.110   38 349 
 RUS  HZ EP   1   1914 10.12                             143     0.0 7   94 177 
 RUS  HN ES   1   1914 27.99                             143     0.7 7   94 177 
 GUE  SZ EP   1   1914 11.39                             135    -0.7 7  122  11 
 GRA  SZ EP       1914 13.21                             133     0.510  131  16 
 GRA  SZ ES   1   1914 30.98                             133    -0.9 7  131  16 
 GRA  SZ I        1914 35.77       298.8 0.42                           131  16 
 OCA  SZ EP   1   1914 16.76                             125     0.7 7  166 353 
 OCA  SZ ES   1   1914 38.21                             125     0.4 7  166 353 
 OCA  SZ I        1914 42.50       353.8 0.36                           166 353 
 YOP  SZ EP       1914 16.85                             124     0.2 9  173 153 
 YOP  SN ES   1   1914 38.31                             124    -0.6 7  173 153 
 YOP  SZ I        1914 42.61       146.1 0.52                           173 153 
 NOR  SZ EP   1   1914 22.14                             116    -0.8 6  233 236 
 NOR  SE ES   1   1914 49.94                             116    -0.1 6  233 236 
 CHI  HZ EP   1   1914 24.29                             115    -0.2 6  243 196 
 CHI  HE ES   1   1914 52.47                             115    -0.5 6  243 196 
 CHI  HZ I        1914 57.88        82.8 0.31                           243 196 
 ROSC BZ EP   1   1914 25.54                             114     0.5 6  249 212 
 ROSC BN ES   1   1914 54.16                             114     0.2 6  249 212 
 ROSC BZ I        1915  2.31       238.5 0.43                           249 212 
 HEL  HZ EP   1   1914 27.43                             112    -0.3 6  272 257 
 HEL  HN ES   1   1914 58.10                             112    -0.5 6  272 257 
 HEL  HZ I        1915  6.78       108.0 0.33                           272 257 
 VIL  SZ EP   1   1914 29.69                             110    -0.4 5  296 190 
 VIL  SN ES   1   1915  2.81                             110    -0.1 5  296 190 
 VIL  SZ I        1915 15.32        72.6 0.27                           296 190 
 GUY  SZ EP   1   1914 31.39                             110     0.4 5  299 236 
 GUY  SN ES   1   1915  4.86                             110     0.5 5  299 236 
 GUY  SZ I        1915 10.47       165.6 0.30                           299 236 
 TOL  SZ EP   1   1914 36.18                             107     0.6 5  341 226 
 DBB  SZ EP   1   1914 35.02                             107    -0.3 5  342 275 
                                                                                
