 2012  310 1613 13.8 L   6.813 -73.394123.8  RSN  4 0.3 1.3LRSN                1
 GAP=183        0.83       9.1    10.7  8.6  0.7188E+02  0.4010E+02  0.3473E+02E
 ACTION:UP  12-03-31 23:18 OP:EP   STATUS:               ID:20120310161313 L   I
 2012-03-10-1610-00M.COL___193                                                 6
 STAT SP IPHASW D HRMM SECON CODA AMPLIT PERI AZIMU VELO SNR AR TRES W  DIS CAZ7
 BAR2 SZ EP       1613 31.13                             164     0.010   34 136 
 BAR2 SZ ES   1   1613 44.00                             164    -0.6 7   34 136 
 BAR2 SZ I        1613 45.54        12.6 0.45                            34 136 
 BRR  HZ EP       1613 31.20                             157    -0.110   48 313 
 BRR  HN ES       1613 45.26                             157     0.310   48 313 
 BRR  HZ I        1613 46.32         8.9 0.27                            48 313 
 RUS  HZ EP   1   1613 36.38                             137     0.4 7  107 161 
 RUS  HE ES   1   1613 53.56                             137     0.2 7  107 161 
 RUS  HZ I        1613 54.63         1.7 0.24                           107 161 
 PTB  HZ EP       1613 36.36                             132    -0.210  121 256 
 PTB  HZ I        1613 59.64         2.2 0.27                           121 256 
                                                                                
