 2011  210 1533 47.6 L   6.800 -73.155143.5  RSN  5 0.2 1.6LRSN                1
 GAP=158        0.39       3.4    12.7  4.3 -0.3393E+02 -0.3558E+01  0.1982E+01E
 Epicentro: LOS SANTOS - SANTANDER                                             3
 ACTION:UP  11-03-28 15:07 OP:jfem STATUS:               ID:20110210153347 L   I
 2011-02-10-1530-50S.COL___136                                                 6
 STAT SP IPHASW D HRMM SECON CODA AMPLIT PERI AZIMU VELO SNR AR TRES W  DIS CAZ7
 BTL  SZ EP   1   1534  7.12                             172     0.2 8   18 316 
 BTL  SZ ES   2   1534 22.08                             172     0.2 5   18 316 
 BAR2 SZ EP   1   1534  6.86                             170    -0.1 8   23 188 
 BAR2 SZ ES   2   1534 21.88                             170    -0.2 5   23 188 
 BAR2 SZ I        1534 24.80        13.1 0.24                            23 188 
 RUS  HZ EP   1   1534 11.19                             143     0.0 8  101 175 
 RUS  HZ I        1534 29.04         9.6 0.54                           101 175 
 RUS  HN ES   2   1534 29.76                             143     0.2 5  101 175 
 GRA  SZ EP       1534 12.71                             136     0.010  126  18 
 GRA  SZ ES   1   1534 32.11                             136    -0.1 7  126  18 
 GRA  SZ I        1534 33.35         3.8 0.13                           126  18 
 CHI  HZ EP   1   1534 25.26                             117     0.1 6  248 195 
 CHI  HE ES   2   1534 54.08                             117    -0.4 4  248 195 
 CHI  HZ I        1534 59.88         1.9 0.33                           248 195 
                                                                                
