 2014 1210 1047 27.3 L   6.753 -73.158143.4  RSN  6 0.3 1.4LRSN                1
 GAP=137        0.92       4.7     5.0  6.5 -0.5949E+00  0.1909E+00 -0.9319E+00E
 Epicentro: LOS SANTOS - SANTANDER                                             3
 ACTION:UPD 15-02-10 17:02 OP:nd   STATUS:               ID:20141210104727 L   I
 OLDACT:DUP 14-12-10 22:37 OP:stll STATUS:               ID:20141210103750d    3
 2014-12-10-1037-49M.COL___299                                                 6
 STAT SP IPHASW D HRMM SECON CODA AMPLIT PERI AZIMU VELO AIN AR TRES W  DIS CAZ7
 BAR2 E  EP       1047 46.67                             173    0.1110 18.0 189 
 BAR2 E  ES       1048  1.98                             173    0.4110 18.0 189 
 BRR  HZ EP       1047 48.50                             152    0.2210 72.6 303 
 BRR  HN ES       1048  4.67                             152    0.0210 72.6 303 
 PAM  SZ EP       1047 49.37                             149   -0.2110 82.3  38 
 PAM  SZ I        1047 49.65         6.8 0.22            154           82.3  38 
 RUS  HZ EP       1047 50.51                             145    0.0510 95.5 175 
 RUS  HN ES       1048  7.92                             145   -0.6110 95.5 175 
 RUS  HZ I        1048 10.31         1.8 0.32            143           95.5 175 
 PTB  HZ EP       1047 53.85                             132   -0.02 9  145 261 
 PTB  HN ES       1048 13.99                             132   -0.61 9  145 261 
 PTB  HZ I        1048 22.15         3.1 0.30            129            145 261 
 SPBC HZ EP       1047 55.23                             129    0.07 9  158 220 
 SPBC HN ES       1048 17.48                             129    0.59 9  158 220 
 SPBC HZ I        1048 23.77         3.3 0.30            127            158 220 
                                                                                
