 2014  110 1819 12.4 L   6.826 -73.109145.1  RSN 13 0.5 2.4LRSN                1
 GAP=140        0.98       3.5     4.4  5.7 -0.1684E+01  0.5576E+01 -0.1643E+01E
 Epicentro: LOS SANTOS - SANTANDER                                             3
 ACTION:UPD 14-03-13 09:54 OP:ep   STATUS:               ID:20140110181912 L   I
 OLDACT:REG 14-01-10 16:01 OP:stll STATUS:               ID:20140110181816     3
 2014-01-10-1818-16M.COL___246                                                 6
 STAT SP IPHASW D HRMM SECON CODA AMPLIT PERI AZIMU VELO AIN AR TRES W  DIS CAZ7
 BAR2 SZ EP     D 1819 32.14                             169    0.1310 27.1 197 
 BAR2 SZ ES       1819 47.87                             169    0.5510 27.1 197 
 BAR2 SZ I        1819 52.69        48.6 0.21            169           27.1 197 
 PAM  SZ EP     C 1819 34.88                             152    0.6310 72.6  38 
 PAM  SZ I        1819 52.55        38.8 0.22            148           72.6  38 
 BRR  HZ IP     C 1819 33.93                             152    0.3410 73.6 295 
 BRR  HN ES   1   1819 49.79                             152   -0.35 7 73.6 295 
 BRR  HZ I        1819 54.91        58.9 0.11            150           73.6 295 
 RUS  HZ IP     C 1819 36.23                             143   -0.0310  103 178 
 RUS  HN ES   1   1819 54.18                             143   -0.70 7  103 178 
 RUS  HZ I        1819 56.34        22.8 0.32            140            103 178 
 PTB  HZ EP   1   1819 38.94                             131   -0.77 7  152 258 
 PTB  HN ES       1820  1.23                             131    0.20 9  152 258 
 PTB  HZ I        1820  4.90        45.9 0.16            128            152 258 
 OCA  HZ EP   1   1819 39.91                             130   -0.52 7  158 352 
 OCA  HN ES   1   1820  1.36                             130   -0.94 7  158 352 
 OCA  HZ I        1820  5.33        20.7 0.17            126            158 352 
 SPBC HZ EP       1819 41.22                             128   -0.07 9  168 219 
 SPBC HN ES   1   1820  2.97                             128   -0.86 7  168 219 
 SPBC HZ I        1820  6.92        35.7 0.12            125            168 219 
 ZAR  HZ EP       1819 45.11                             122    0.04 8  207 291 
 ZAR  HN ES   1   1820 10.38                             122   -0.18 6  207 291 
 ZAR  HZ I        1820 15.74        33.0 0.16            119            207 291 
 NOR  HZ EP   1   1819 48.14                             118   -0.47 6  240 234 
 NOR  HZ I        1820 18.37        26.4 0.16            115            240 234 
 SML  HZ EP       1819 48.56                             117   -0.32 8  243 334 
 SML  HN ES   1   1820 17.86                             117    0.51 6  243 334 
 SML  HZ I        1820 25.61        30.5 0.09            114            243 334 
 HEL  HZ EP       1819 53.02                             114   -0.06 7  277 255 
 HEL  HN ES       1820 25.26                             114    0.44 7  277 255 
 HEL  HZ I        1820 30.47        15.6 0.48            112            277 255 
 URE  HZ EP   4   1819 52.04                             113   -1.69 0  287 291 
 GUY2CHZ EP       1819 56.63                             112    0.10 7  306 235 
 GUY2CHN ES   2   1820 31.14                             112    0.19 4  306 235 
 GUY2CHZ I        1820 38.73        11.4 0.16                           306 235 
 RREF HZ EP       1819 59.64                             110    0.58 7  327 229 
 RREF HN ES   4   1820 37.50                             110    2.03 0  327 229 
 RREF HZ I        1820 44.53        11.2 0.36            108            327 229 
                                                                                
