 2017  210 1052 11.7 L   6.765 -73.112144.0  RSN 17 0.5 2.2LRSN                1
 GAP= 69        1.06       3.6     3.3  5.2  0.1780E+01  0.4455E+01  0.5622E+01E
 Epicentro: LOS SANTOS - SANTANDER                                             3
 ACTION:UPD 17-05-24 15:34 OP:jn   STATUS:               ID:20170210105211 L   I
 OLDACT:UP  17-02-10 22:09 OP:and  STATUS:               ID:20170210104744     3
 OLDACT:UP  17-02-10 22:08 OP:and  STATUS:               ID:20170210104744     3
 OLDACT:UP  17-02-10 22:08 OP:and  STATUS:               ID:20170210104744     3
 OLDACT:UP  17-02-10 22:06 OP:and  STATUS:               ID:20170210104744     3
 OLDACT:UP  17-02-10 22:06 OP:and  STATUS:               ID:20170210104744     3
 OLDACT:UP  17-02-10 22:06 OP:and  STATUS:               ID:20170210104744     3
 OLDACT:UP  17-02-10 22:04 OP:and  STATUS:               ID:20170210104744     3
 OLDACT:UP  17-02-10 22:04 OP:and  STATUS:               ID:20170210104744     3
 OLDACT:REG 17-02-10 20:12 OP:and  STATUS:               ID:20170210104744     3
 2017-02-10-1048-00M.COL___349                                                 6
 STAT SP IPHASW D HRMM SECON CODA AMPLIT PERI AZIMU VELO AIN AR TRES W  DIS CAZ7
 BAR2 EZ IP     D 1052 30.93                             171   -0.1610 20.6 202 
 BAR2 EZ ES       1052 45.98                             171   -0.2110 20.6 202 
 BAR2 EZ I        1052 48.10        35.8 0.24            167           20.6 202 
 BRR  HZ IP     D 1052 32.86                             151   -0.1210 76.4 300 
 BRR  HN ES       1052 49.85                             151    0.2910 76.4 300 
 BRR  HZ I        1052 53.14        35.2 0.14            147           76.4 300 
 PAM  EZ IP     D 1052 33.75                             150   -0.0510 78.2  36 
 PAM  EN ES       1052 50.78                             150   -0.2310 78.2  36 
 PAM  EZ I        1052 51.91        26.6 0.18            154           78.2  36 
 RUS  HZ IP     D 1052 34.79                             145   -0.2210 96.5 178 
 RUS  HN ES       1052 53.42                             145    0.2510 96.5 178 
 RUS  HZ I        1052 54.35        17.8 0.22            144           96.5 178 
 PTB  HZ EP   9   1052 37.55                             131   -1.27 0  151 261 
 PTB  HN ES       1052 58.88                             132    0.19 9  151 261 
 PTB  HZ I        1053  2.09        21.1 0.16            129            151 261 
 TAM  HZ IP     C 1052 39.16                             131    0.33 9  151 104 
 TAM  HN ES       1053  0.76                             131    0.78 9  151 104 
 TAM  HZ I        1053  1.21        17.3 0.35            134            151 104 
 ZAR  HZ EP       1052 44.03                             121   -0.53 8  209 293 
 ZAR  HN ES       1053 10.29                             121    0.11 8  209 293 
 ZAR  HZ I        1053 15.48        41.6 0.28            120            209 293 
 CHI  HZ IP     D 1052 49.10                             117    0.07 8  246 196 
 CHI  HN ES       1053 17.93                             117   -0.19 8  246 196 
 CHI  HZ I        1053 25.55         5.1 0.24            117            246 196 
 URE  HE ES   4   1053 23.13                             113   -2.53 0  289 292 
 URE  HZ I        1053 35.15        16.2 0.20            112            289 292 
 PTGC HZ EP   3   1052 55.10                             112    0.16 2  304 159 
 PTGC HN ES       1053 26.87                             112   -1.77 7  304 159 
 PTGC HZ I        1053 27.73        12.8 0.34            112            304 159 
 ELA  HZ EP   4   1053  1.64                             110    3.10 0  329 230 
 ELA  HN ES   4   1053 39.22                             110    4.16 0  329 230 
 ELA  HZ I        1053 42.43         7.5 0.42            109            329 230 
 CBOC HZ EP       1052 58.90                             109    0.06 7  336 253 
 CBOC HN ES       1053 35.30                             109   -0.29 7  336 253 
 CBOC HZ I        1053 47.78         5.9 0.64            109            336 253 
 DBB  EZ EP       1052 59.63                             109    0.04 7  344 275 
 DBB  EN ES   4   1053 34.95                             109   -1.98 0  344 275 
 DBB  EZ I        1053 38.21         4.7 0.19            108            344 275 
 PRA  HZ EP       1053  5.28                             106    0.27 6  391 210 
 PRA  HN ES       1053 47.95                             106    1.38 6  391 210 
 PRA  HZ I        1053 50.60         5.4 0.23            106            391 210 
 ORTC HZ EP       1053  6.40                             106    0.92 6  395 217 
 ORTC HN ES   4   1053 49.86                             106    2.45 0  395 217 
 ORTC HZ I        1053 55.74         3.5 0.26            106            395 217 
 PAL  HZ EP       1053  6.80                             106   -0.17 6  407 240 
 PAL  HN ES   3   1053 51.41                             106    1.35 1  407 240 
 PAL  HZ I        1053 55.75         5.2 0.58            105            407 240 
 SJC  HZ IP   9 D 1053  5.60                             105   -2.25 0  415 327 
 SJC  HN ES       1053 49.10                             106   -0.28 6  415 327 
 SJC  HZ I        1053 54.42         2.8 0.50            105            415 327 
                                                                                
