 2017  610 1140  9.6 L   6.842 -73.161147.8  RSN 28 0.5 3.1LRSN 3.7WRSN        1
 SPEC AVERAGE  MO 14.6 ST0.164 OM  3.6 f00.844 R2.3281 AL 0.00 WI 30.0 MW  3.7 3
 SPEC SD       MO  0.2 ST0.051 OM  1.2 f00.117 R0.3619 AL      WI      MW  0.1 3
 GAP=103        1.07       3.4     3.1  6.0  0.1601E+01  0.1222E+01  0.3033E+01E
 Epicentro: LOS SANTOS - SANTANDER                                             3
      15.0      25.0      22.0  6.0  9.0 10.0  0.0  0.1           RSN FPFIT    F
 SPEC TABCEH Z MO 14.7 ST0.253 OM  2.5 f00.969 R1.9856 AL-0.00 WI 30.0 MW  3.7 3
 SPEC TABCEH Z T114113 K 0.000 GD  275 VS 5.20 DE 3.50 Q0750.0 QA 1.50 VS 5.20 3
 SPEC CHI HH Z MO 14.5 ST0.139 OM  2.3 f00.908 R2.1189 AL-0.00 WI 30.0 MW  3.6 3
 SPEC CHI HH Z T114116 K 0.000 GD  293 VS 5.20 DE 3.50 Q0750.0 QA 1.50 VS 5.20 3
 SPEC ROSCBH Z MO 14.9 ST0.134 OM  2.7 f00.657 R2.9285 AL-0.00 WI 30.0 MW  3.9 3
 SPEC ROSCBH Z T114119 K 0.000 GD  295 VS 5.20 DE 3.50 Q0750.0 QA 1.50 VS 5.20 3
 SPEC VIL EH Z MO 14.5 ST0.130 OM  2.3 f00.844 R2.2796 AL-0.00 WI 30.0 MW  3.6 3
 SPEC VIL EH Z T114126 K 0.000 GD  341 VS 5.20 DE 3.50 Q0750.0 QA 1.50 VS 5.20 3
 OLDACT:UP  17-06-10 23:17 OP:edw  STATUS:               ID:20170610113742     3
 OLDACT:UP  17-06-10 23:16 OP:edw  STATUS:               ID:20170610113742     3
 OLDACT:REG 17-06-10 20:25 OP:edw  STATUS:               ID:20170610113742     3
 ACTION:UPD 17-09-14 16:51 OP:jn   STATUS:               ID:20170610114009 L   I
 OLDACT:UP  17-07-04 14:58 OP:nlst STATUS:               ID:20170610114009 L   3
 OLDACT:UP  17-06-10 23:18 OP:edw  STATUS:               ID:20170610113742     3
 2017-06-10-1138-00M.COL___341                                                 6
 STAT SP IPHASW D HRMM SECON CODA AMPLIT PERI AZIMU VELO AIN AR TRES W  DIS CAZ7
 BRR  HZ IP     C 1140 31.06                             154    0.2610 67.6 296 
 BRR  HN ES       1140 48.09                             154    0.7810 67.6 296 
 BRR  HZ I        1140 51.89       201.2 0.26            154           67.6 296 
 PTB  HZ EP       1140 36.01                             133   -0.69 9  147 257 
 PTB  HN ES       1140 56.83                             133   -0.98 9  147 257 
 PTB  HZ I        1140 59.59       109.7 0.12            132            147 257 
 TAM  HZ IP     D 1140 37.73                             130    0.00 9  158 106 
 TAM  HZ I        1140 58.35        66.0 0.40            132            158 106 
 TAM  HN ES       1140 59.42                             130   -0.23 9  158 106 
 SPBC HZ EP       1140 38.46                             129   -0.06 9  166 218 
 SPBC HN ES       1141  0.76                             129   -0.30 9  166 218 
 SPBC HZ I        1141  5.84       157.1 0.24            129            166 218 
 ZAR  HZ EP       1140 41.99                             123    0.12 9  201 291 
 ZAR  HE ES       1141  7.68                             123    0.66 9  201 291 
 ZAR  HZ I        1141 13.44       179.9 0.40            123            201 291 
 TABC EZ EP   4 D 1140 47.80                             119    1.97 0  233 210 
 TABC EZ ES   4   1141 15.47                             119    1.41 0  233 210 
 TABC EZ I        1141 19.40       159.4 0.36            119            233 210 
 NOR  HZ EP     D 1140 45.81                             119    0.19 8  236 233 
 NOR  HN ES   4   1141 12.80                             119   -0.89 0  236 233 
 NOR  HZ I        1141 19.91        76.1 0.64            119            236 233 
 CHI  HZ EP     D 1140 48.06                             117    0.19 8  253 195 
 CHI  HN ES       1141 17.67                             117   -0.03 8  253 195 
 CHI  HZ I        1141 24.22        51.7 0.62            117            253 195 
 ROSC BZ EP   4   1140 50.33                             117    2.14 0  256 210 
 ROSC BN ES   4   1141 21.10                             117    2.82 0  256 210 
 ROSC BZ I        1141 24.99       136.5 0.40            117            256 210 
 HEL  HZ EP   4 D 1140 51.96                             115    2.07 0  272 255 
 HEL  HN ES       1141 21.11                             115   -0.19 8  272 255 
 HEL  HZ I        1141 27.64        74.2 0.40            115            272 255 
 URE  HZ EP   9   1140 49.28                             114   -1.15 0  281 291 
 URE  HN ES       1141 21.56                             114    0.45 7  281 291 
 URE  HZ I        1141 30.58       109.7 0.26            114            281 291 
 LL1C HZ EP   4   1140 54.30                             112    1.53 0  302 352 
 LL1C HN ES   4   1141 29.95                             112    3.53 0  302 352 
 VIL  EZ EP       1140 53.44                             112   -0.17 7  308 191 
 VIL  EN ES       1141 27.81                             112   -0.10 7  308 191 
 VIL  EZ I        1141 33.58        70.8 0.38            112            308 191 
 PTGC HZ IP   9 D 1140 52.69                             112   -1.44 0  314 159 
 PTGC HN ES       1141 26.29                             112   -1.11 7  314 159 
 PTGC HZ I        1141 29.25        33.3 0.40            112            314 159 
 LL6C HN EP   4   1140 34.52                             111   -20.4 0  320 358 
 LL6C HN ES   4   1141  8.50                             111   -21.7 0  320 358 
 RECRCHN ES   4   1141 34.54                             111    3.25 0  320 230 
 ELA  HZ EP   4   1140 58.78                             110    2.02 0  331 229 
 ELA  HN ES       1141 34.52                             110    1.00 7  331 229 
 ELA  HZ I        1141 41.52        47.0 0.46            111            331 229 
 CBOC HZ EP       1140 57.50                             110    0.90 7  333 251 
 CBOC HN ES       1141 32.76                             110   -0.49 7  333 251 
 CBOC HZ I        1141 50.43        24.9 0.76            110            333 251 
 DBB  EZ EP       1140 57.01                             110    0.06 7  337 273 
 DBB  EN ES   1   1141 32.79                             110   -1.08 5  337 273 
 DBB  EZ I        1141 36.56        27.4 0.30            110            337 273 
 ARGC HZ EP   4   1140 59.64                             109    0.85 0  354 340 
 ARGC HN ES   1   1141 37.29                             109    0.15 5  354 340 
 ARGC HZ I        1141 45.14        29.5 0.32            109            354 340 
 ANIL HZ EP       1140 59.60                             109   -0.15 6  359 224 
 ANIL HN ES   4   1141 41.44                             109    2.59 0  359 224 
 ANIL HZ I        1141 47.35       115.2 0.28            109            359 224 
 APAC HZ IP     D 1141  3.39                             107   -0.14 6  395 287 
 APAC HN ES       1141 44.94                             107   -0.63 6  395 287 
 APAC HZ I        1142  2.42        20.5 0.50            107            395 287 
 ORTC HZ EP       1141  4.24                             106    0.31 6  398 216 
 ORTC HN ES   4   1141 48.55                             106    2.26 0  398 216 
 ORTC HZ I        1141 52.03        31.5 0.42            107            398 216 
 SJC  HZ EP   4   1141  3.07                             106   -1.62 0  404 327 
 SJC  HN ES   4   1141 44.66                             106   -2.98 0  404 327 
 SJC  HZ I        1141 48.88        48.0 0.50            107            404 327 
 PAL  HZ EP     C 1141  5.45                             106    0.49 6  407 238 
 PAL  HN ES   4   1141 46.34                             106   -1.78 0  407 238 
 PAL  HZ I        1141 56.64        17.8 0.32            106            407 238 
 CRJC HZ EP   9   1141  9.62                             104   -2.03 0  463   4 
 CRJC HE ES       1141 57.06                             104   -0.94 5  463   4 
 CRJC HZ I        1142  0.05        19.7 0.18            104            463   4 
 YOT  HZ EP   9   1141 11.40                             103   -1.53 0  474 228 
 YOT  HE ES       1142  1.57                             104    0.79 5  474 228 
 SMAR HZ EP       1141 14.05                             103   -0.92 4  492 346 
 SMAR HN ES   4   1142  2.52                             103   -3.41 0  492 346 
 SMAR HZ I        1142  4.89        15.6 0.42            103            492 346 
 MACC HZ EP   4   1141 16.98                             102   -1.92 0  525 188 
 MACC HN ES   4   1142  8.73                             102   -4.20 0  525 188 
 MACC HZ I        1142 15.64        17.5 0.70            102            525 188 
 MARO HZ EP       1141 21.20                             101    0.17 4  540 215 
 MARO HN ES       1142 17.19                             101    0.47 4  540 215 
 MARO HZ I        1142 21.71         9.8 0.52            102            540 215 
 CONO HZ EP       1141 31.33                             100    0.97 3  615 216 
                                                                                
