 2010  310 1532  1.7 L   6.788 -73.002149.7  RSN 10 0.4 2.1LRSN                1
 GAP=197        0.74       3.2     7.0  6.6  0.9067E+00 -0.1016E+01  0.5122E+01E
 Epicentro: CEPITA - SANTANDER                                                 3
 ACTION:UP  10-08-24 09:53 OP:vdl  STATUS:               ID:20100310153201 L   I
 2010-03-10-1530-23S.COL___091                                                 6
 STAT SP IPHASW D HRMM SECON CODA AMPLIT PERI AZIMU VELO SNR AR TRES W  DIS CAZ7
 BAR2 SZ EP       1532 21.86                             168    -0.110   30 223 
 BRR  HZ EP       1532 23.77                             149    -0.410   86 294 
 BRR  HN ES       1532 41.62                             149    -0.110   86 294 
 BRR  HZ I        1532 44.08        26.6 0.15                            86 294 
 RUS  BZ EP       1532 26.03                             145     0.210   99 185 
 RUS  BN ES   1   1532 44.61                             145     0.1 7   99 185 
 RUS  BZ I        1532 45.70        15.8 0.37                            99 185 
 OCA  SZ EP   1   1532 30.67                             130     0.0 7  164 348 
 OCA  SZ ES   1   1532 54.00                             130     0.7 7  164 348 
 CHI  HZ EP   1   1532 39.93                             118    -0.1 6  252 199 
 CHI  HN ES   1   1533  9.64                             118    -0.2 6  252 199 
 CHI  HZ I        1533 15.19         7.5 0.40                           252 199 
 ROSC BE ES   2   1533 11.84                             117     0.4 4  260 214 
 ROSC BZ I        1533 19.11        11.6 0.29                           260 214 
 HEL  HZ EP   2   1532 44.01                             114     0.2 4  287 257 
 HEL  HZ I        1533 19.98         8.1 0.18                           287 257 
 RREF BE ES   2   1533 27.85                             111     1.4 3  333 231 
 DBB  SZ EP   1   1532 50.70                             109    -0.5 5  355 274 
 PRA  HZ EP   1   1532 56.27                             107     0.1 4  399 212 
 PRA  HN ES   1   1533 38.74                             107     0.1 4  399 212 
                                                                                
