 2011  810 1137 13.2 L   6.777 -73.102145.2  RSN  5 0.3 1.8LRSN                1
 GAP=187        0.60       3.2     7.1  5.9  0.5874E+01 -0.8340E+01 -0.4924E+01E
 Epicentro: LOS SANTOS - SANTANDER                                             3
 ACTION:UPD 12-07-13 15:51 OP:ep   STATUS:               ID:20110810113713 L   I
 2011-08-10-1135-40S.COL___150                                                 6
 STAT SP IPHASW D HRMM SECON CODA AMPLIT PERI AZIMU VELO AIN AR TRES W  DIS CAZ7
 BAR2 SZ EP       1137 32.84                             170    0.0910 22.3 204 
 BAR2 SZ I        1137 33.00        14.1 0.18                          22.3 204 
 BAR2 SZ ES   1   1137 47.57                             170   -0.43 7 22.3 204 
 BRR  HZ EP       1137 34.76                             150    0.1410 76.7 298 
 BRR  HZ I        1137 35.00        28.4 0.32                          76.7 298 
 BRR  HE ES   1   1137 51.66                             150    0.35 7 76.7 298 
 RUS  HZ EP       1137 36.55                             144   -0.1610 97.9 179 
 RUS  HN ES   1   1137 55.30                             144    0.25 7 97.9 179 
 RUS  HZ I        1137 56.56         5.7 0.36                          97.9 179 
 OCA  SZ EP       1137 41.91                             129    0.14 9  163 352 
 OCA  SZ ES   1   1138  3.60                             129   -0.45 7  163 352 
 NOR  SN ES   2   1138 16.84                             118   -0.40 4  237 236 
                                                                                
