 2014 1110 1629 19.2 L   6.788 -73.095145.4  RSN  6 0.4 1.8LRSN                1
 GAP=242        0.87       5.4     8.2  6.3  0.1478E+02  0.1539E+02  0.5848E+01E
 Epicentro: LOS SANTOS - SANTANDER                                             3
 ACTION:UPD 14-12-19 15:41 OP:nd   STATUS:               ID:20141110162919 L   I
 OLDACT:UP  14-11-11 00:22 OP:cam  STATUS:               ID:20141110162817     3
 OLDACT:REG 14-11-10 22:51 OP:ccam STATUS:               ID:20141110162817     3
 2014-11-10-1628-17M.COL___295                                                 6
 STAT SP IPHASW D HRMM SECON CODA AMPLIT PERI AZIMU VELO AIN AR TRES W  DIS CAZ7
 BAR2 SZ ES       1629 53.92                             170   -0.1810 23.7 204 
 BAR2 SZ I        1629 55.68        22.5 0.26            164           23.7 204 
 BRR  HZ EP       1629 40.81                             151    0.1510 76.8 297 
 BRR  HN ES       1629 57.62                             151    0.2410 76.8 297 
 BRR  HN I        1629 58.74        32.4 0.26            149           76.8 297 
 RUS  HZ EP       1629 43.11                             144    0.2910 99.0 179 
 RUS  HN ES       1630  1.12                             144   -0.1110 99.0 179 
 RUS  HZ I        1630  3.74         3.7 0.24            142           99.0 179 
 PTB  HZ EP       1629 45.89                             131   -0.75 9  153 260 
 SPBC HZ EP       1629 47.80                             128   -0.14 9  166 221 
 SPBC HN ES       1630 10.52                             128    0.18 9  166 221 
 SPBC HZ I        1630 15.95         6.2 0.28            127            166 221 
 GUY2CHZ EP   1   1630  4.07                             112    0.82 5  305 236 
                                                                                
