 2011  910 1135 16.7 L   6.789 -73.112139.6  RSN 13 0.4 2.5LRSN                1
 GAP=141        0.73       2.6     3.7  5.2 -0.2915E+01  0.5486E+01  0.7626E-01E
 Epicentro: LOS SANTOS - SANTANDER                                             3
 ACTION:UPD 12-07-13 15:56 OP:ep   STATUS:               ID:20110910113516 L   I
 2011-09-10-1120-00M.COL___171                                                 6
 STAT SP IPHASW D HRMM SECON CODA AMPLIT PERI AZIMU VELO AIN AR TRES W  DIS CAZ7
 BAR2 SZ EP   1   1135 35.72                             170    0.13 7 23.1 200 
 BAR2 SZ ES   1   1135 49.87                             170   -0.45 7 23.1 200 
 BAR2 SZ I        1135 52.01        67.4 0.19                          23.1 200 
 GIR2 SZ EP       1135 35.78                             166    0.0810 33.2 344 
 BRR  HZ EP       1135 37.55                             150    0.1310 75.0 298 
 BRR  HN ES   1   1135 54.25                             150    0.68 7 75.0 298 
 BRR  HZ I        1135 58.81        85.0 0.18                          75.0 298 
 PAM  SZ EP       1135 38.20                             150    0.0210 76.0  37 
 PAM  SZ I        1135 38.89        29.0 0.18                          76.0  37 
 PAM  SN ES   1   1135 55.24                             150    0.30 7 76.0  37 
 RUS  HZ EP   1   1135 39.64                             143   -0.11 7 99.2 178 
 RUS  HN ES   1   1135 57.37                             143   -0.36 7 99.2 178 
 RUS  HZ I        1135 59.69        19.4 0.38                          99.2 178 
 BRI  SZ EP       1135 40.23                             140    0.2310  108  19 
 OCA  SZ EP       1135 44.80                             128    0.10 9  162 352 
 OCA  SZ ES   1   1136  5.69                             128   -0.85 7  162 352 
 OCA  SZ I        1136  9.65        37.4 0.31                           162 352 
 ZAR  HZ EP   1   1135 48.62                             120   -0.54 6  208 292 
 ZAR  HN ES   1   1136 14.29                             120   -0.18 6  208 292 
 ZAR  HZ I        1136 20.35        29.0 0.24                           208 292 
 NOR  SZ EP   1   1135 51.46                             117   -0.87 6  237 235 
 NOR  SN ES   1   1136 20.25                             117    0.12 6  237 235 
 CHI  HN ES   1   1136 23.26                             116    0.08 6  248 196 
 ROSC BN ES   1   1136 24.48                             115    0.33 6  254 212 
 HEL  HZ EP   1   1135 57.64                             113    0.67 6  275 256 
 HEL  HN ES   1   1136 28.31                             113   -0.08 6  275 256 
 HEL  HZ I        1136 35.22        10.2 0.40                           275 256 
 PRA  HZ EP   1   1136 10.02                             105   -0.09 4  393 210 
 PRA  HN ES   1   1136 51.82                             105    0.05 4  393 210 
 PRA  HZ I        1136 56.68        31.2 0.20                           393 210 
                                                                                
