 2011  510 1558 25.1 L   6.762 -73.118145.2  RSN 13 0.2 2.6LRSN                1
 GAP=142        0.46       2.4     3.5  2.9 -0.4384E+01  0.2016E+01 -0.5044E+00E
 Epicentro: LOS SANTOS - SANTANDER                                             3
 ACTION:UP  11-06-29 08:52 OP:tino STATUS:               ID:20110510155825 L   I
 2011-05-10-1555-25S.COL___132                                                 6
 STAT SP IPHASW D HRMM SECON CODA AMPLIT PERI AZIMU VELO SNR AR TRES W  DIS CAZ7
 BAR2 SZ EP   1   1558 44.59                             172     0.0 8   20 201 
 BAR2 SZ ES   1   1558 59.38                             172    -0.4 8   20 201 
 BAR2 SZ I        1559  0.97       162.6 0.26                            20 201 
 BTL  SZ EP   1   1558 44.71                             170     0.1 8   24 316 
 BTL  SZ ES   1   1559  0.05                             170     0.1 8   24 316 
 GIR2 SZ EP   1   1558 44.70                             165    -0.1 8   36 347 
 GIR2 SZ ES   1   1559  0.26                             165     0.1 8   36 347 
 BRR  HZ EP   1   1558 46.49                             151     0.1 8   76 300 
 BRR  HN ES   2   1559  3.44                             151     0.4 5   76 300 
 BRR  HZ I        1559  4.70        92.3 0.17                            76 300 
 PAM  SZ EP   1   1558 47.44                             150     0.1 8   79  36 
 PAM  SN ES   2   1559  4.41                             150    -0.2 5   79  36 
 RUS  HZ EP   1   1558 48.63                             145     0.2 8   96 178 
 RUS  HN ES   1   1559  6.72                             145     0.0 8   96 178 
 RUS  HZ I        1559  9.02        47.3 0.46                            96 178 
 BRI  SZ IP       1558 49.23                             140     0.110  111  19 
 BRI  SZ ES   2   1559  8.22                             140     0.3 5  111  19 
 BRI  SZ I        1559  9.80        29.6 0.37                           111  19 
 GRA  SZ IP       1558 50.50                             136     0.010  129  16 
 GRA  SZ I        1558 51.95        59.8 0.25                           129  16 
 GRA  SZ ES   2   1559 10.14                             136    -0.2 5  129  16 
 OCA  SZ EP   1   1558 53.29                             129    -0.5 7  165 352 
 OCA  SZ I        1559 20.06        34.3 0.14                           165 352 
 NOR  SZ EP   1   1559  0.60                             118    -0.2 6  235 236 
 NOR  SE ES   2   1559 28.54                             118    -0.1 4  235 236 
 HEL  HZ EP   2   1559  6.28                             114     0.8 4  274 257 
 HEL  HN ES   2   1559 36.75                             114    -0.2 4  274 257 
 HEL  HZ I        1559 43.37        25.7 0.31                           274 257 
 RREF HZ EP   2   1559 11.22                             111     0.1 3  321 230 
 RREF HN ES   2   1559 46.79                             111    -0.3 3  321 230 
 RREF HZ I        1559 54.77        21.0 0.46                           321 230 
 PRA  HZ EP   2   1559 18.07                             106    -0.2 3  390 210 
 PRA  HN ES   2   1559 59.94                             106     0.1 3  390 210 
                                                                                
