 2012  710 1339 51.5 L   6.734 -73.259125.7  RSN  5 0.4 1.4LRSN                1
 GAP=202        0.94       8.4     7.4  9.2  0.3967E+02  0.1718E+02  0.1185E+02E
 Epicentro: ZAPATOCA - SANTANDER                                               3
 ACTION:UPD 12-08-14 11:44 OP:ep   STATUS:               ID:20120710133951 L   I
 2012-07-10-1340-00M.COL___201                                                 6
 STAT SP IPHASW D HRMM SECON CODA AMPLIT PERI AZIMU VELO AIN AR TRES W  DIS CAZ7
 BAR2 SZ EP       1340  8.73                             171     0.110   18 151 
 BAR2 SZ ES   1   1340 21.35                             171    -0.6 7   18 151 
 BAR2 SZ I        1340 25.10         6.2 0.09            170             18 151 
 BRR  HZ EP   1   1340 10.34                             151     0.2 7   65 310 
 BRR  HZ I        1340 12.42        19.7 0.48            149             65 310 
 BRR  HE ES   1   1340 24.86                             151     0.2 7   65 310 
 RUS  HZ EP       1340 12.63                             141    -0.310   95 168 
 RUS  HN ES   1   1340 30.33                             141     0.7 7   95 168 
 RUS  HZ I        1340 32.70         2.7 0.23            143             95 168 
 PTB  HZ EP       1340 15.49                             130    -0.110  134 261 
 PTB  HN ES   1   1340 34.17                             130    -0.2 7  134 261 
 PTB  HZ I        1340 39.62         2.5 0.14            129            134 261 
 ZAR  HN ES   1   1340 45.69                             119     0.2 6  195 295 
 ZAR  HZ I        1340 52.22         3.5 0.20            120            195 295 
