 2011  610 1800 12.7 L   6.808 -73.134146.0  RSN  8 0.3 2.3LRSN                1
 GAP=138        0.73       3.4     5.6  6.7 -0.7464E+01  0.3575E+01  0.6839E+00E
 Epicentro: LOS SANTOS - SANTANDER                                             3
 ACTION:UP  11-07-14 19:04 OP:ep   STATUS:               ID:20110610180012 L   I
 2011-06-10-1759-44S.COL___132                                                 6
 STAT SP IPHASW D HRMM SECON CODA AMPLIT PERI AZIMU VELO SNR AR TRES W  DIS CAZ7
 BAR2 SZ EP   1   18 0 31.97                             170    -0.4 7   24 193 
 BAR2 SZ ES   2   18 0 47.22                             170    -0.5 5   24 193 
 BAR2 SZ I        18 0 50.54        45.4 0.47                            24 193 
 BRR  HZ EP   1   18 0 33.90                             152     0.0 7   72 297 
 BRR  HE ES   1   18 0 51.16                             152     0.7 7   72 297 
 BRR  HZ I        18 0 52.18        39.9 0.13                            72 297 
 PAM  SZ EP   1   18 0 35.14                             151     0.3 7   76  39 
 PAM  SE ES   2   18 0 52.24                             151     0.1 5   76  39 
 RUS  HZ EP   1   18 0 36.60                             144     0.0 7  101 177 
 RUS  HE ES   1   18 0 55.36                             144     0.2 7  101 177 
 RUS  HZ I        18 0 55.95        38.1 0.24                           101 177 
 BRI  SZ EP   2   18 0 36.84                             142     0.3 5  107  20 
 BRI  SZ ES   1   18 0 54.90                             142    -0.2 7  107  20 
 BRI  SZ I        18 0 59.17        19.7 0.48                           107  20 
 GRA  SZ EP   1   18 0 37.90                             137     0.0 7  124  17 
 GRA  SZ ES   1   18 0 57.66                             137     0.1 7  124  17 
 GRA  SZ I        18 0 58.97        45.4 0.28                           124  17 
 OCA  SZ EP   1   18 0 41.29                             130     0.3 7  160 353 
 OCA  SZ ES   1   18 1  2.44                             130    -0.6 7  160 353 
 OCA  SZ I        18 1  7.53        28.6 0.48                           160 353 
 NOR  SZ EP   2   18 0 48.43                             118    -0.2 4  236 234 
 NOR  SN ES   1   18 1 16.38                             118    -0.3 6  236 234 
                                                                                
