 2010  210 1847 21.0 L   6.388 -73.630112.6  RSN 10 0.4 2.5LRSN                1
 GAP=118        0.60       3.2     4.4  8.3 -0.3685E+01  0.2176E+02  0.4579E+01E
 Epicentro: SANTA HELENA DEL OPON - SANTANDER                                  3
 ACTION:UP  10-08-24 09:48 OP:vdl  STATUS:               ID:20100210184721 L   I
 2010-02-10-1845-40S.COL___094                                                 6
 STAT SP IPHASW D HRMM SECON CODA AMPLIT PERI AZIMU VELO SNR AR TRES W  DIS CAZ7
 BAR2 SZ IP       1847 38.07                             152     0.110   54  65 
 BAR2 SZ ES   2   1847 51.00                             152    -0.2 5   54  65 
 GIR2 SZ EP   1   1847 40.49                             138     0.1 7   90  32 
 GIR2 SZ ES   2   1847 55.13                             138    -0.3 5   90  32 
 CHI  HZ EP   1   1847 50.76                             115    -0.3 6  195 183 
 CHI  HZ I        1847 51.71        16.2 0.26                           195 183 
 CHI  HN ES   2   1848 15.01                             115     0.5 4  195 183 
 OCA  SZ EP   1   1847 52.43                             113     0.3 6  208  10 
 OCA  SZ ES   2   1848 16.83                             113     0.4 4  208  10 
 HEL  HZ EP   1   1847 52.40                             113    -0.4 6  211 264 
 HEL  HE ES   2   1848 17.74                             113     0.1 4  211 264 
 HEL  HZ I        1848 20.45        41.3 0.21                           211 264 
 RREF BZ EP   1   1847 57.16                             109    -0.6 6  251 229 
 RREF BE ES   2   1848 27.31                             109     0.9 4  251 229 
 RREF BZ I        1848 30.97        18.2 0.28                           251 229 
 TOL  SZ EP   1   1847 59.93                             107     0.0 6  273 223 
 ANIL BZ EP   1   1848  1.84                             106     0.3 5  287 223 
 ANIL BZ I        1848 39.83        40.9 0.27                           287 223 
 DBB  SZ EP   1   1848  2.19                             105     0.2 5  294 284 
 DBB  SZ ES   2   1848 33.37                             105    -0.5 4  294 284 
 PRA  HZ EP   1   1848  5.58                             103    -0.3 5  327 205 
 PRA  HE ES   2   1848 40.92                             103     0.1 3  327 205 
 PRA  HZ I        1848 49.13        18.4 0.17                           327 205 
                                                                                
