 2017  910 1148 24.5 L   6.802 -73.143138.0  RSN 19 0.5 2.5LRSN                1
 GAP=112        1.14       3.3     4.0  5.6  0.1227E+01  0.1008E+02  0.4163E+01E
 Epicentro: LOS SANTOS - SANTANDER                                             3
 ACTION:UPD 17-10-05 19:10 OP:rebc STATUS:               ID:20170910114824 L   I
 OLDACT:REG 17-09-10 19:47 OP:lv   STATUS:               ID:20170910114741     3
 2017-09-10-1148-00M.COL___399                                                 6
 STAT SP IPHASW D HRMM SECON CODA AMPLIT PERI AZIMU VELO AIN AR TRES W  DIS CAZ7
 BAR2 EZ IP     C 1148 42.97                             170   -0.2210 23.6 191 
 BAR2 EZ ES       1148 57.48                             170   -0.2910 23.6 191 
 BAR2 EZ I        1148 58.59       113.5 0.32            166           23.6 191 
 BRR  HZ IP     C 1148 44.77                             151   -0.0410 71.4 298 
 BRR  HN ES       1149  1.50                             151    0.8310 71.4 298 
 BRR  HZ I        1149  6.40        63.4 0.16            150           71.4 298 
 PAM  EZ EP       1148 45.86                             150    0.0010 77.0  39 
 PAM  EN ES       1149  2.36                             150   -0.1710 77.0  39 
 PAM  EZ I        1149  4.70       103.0 0.40            157           77.0  39 
 RUS  HZ EP       1148 47.10                             142   -0.3910  101 176 
 RUS  HN ES       1149  6.05                             142    0.6110  101 176 
 SPBC HZ EP       1148 51.93                             127   -0.50 9  164 219 
 SPBC HN ES       1149 13.98                             127   -0.25 9  164 219 
 SPBC HZ I        1149 19.90        40.7 0.32            128            164 219 
 YPLC HN ES       1149 16.55                             125    0.02 9  177 151 
 ZAR  HZ EP       1148 56.01                             121   -0.45 9  204 292 
 ZAR  HN ES       1149 21.19                             121   -0.21 9  204 292 
 ZAR  HZ I        1149 23.49        37.6 0.28            122            204 292 
 NOR  HZ EP       1148 59.01                             117   -0.81 8  235 234 
 NOR  HN ES       1149 27.03                             117   -0.35 8  235 234 
 NOR  HZ I        1149 32.84        18.1 0.28            118            235 234 
 CHI  HZ EP       1149  1.70                             116   -0.09 8  249 195 
 CHI  HN ES       1149 30.67                             116   -0.22 8  249 195 
 CHI  HZ I        1149 33.08        10.4 0.34            117            249 195 
 ROSC BZ EP       1149  3.51                             115    1.28 8  253 211 
 ROSC BN ES       1149 32.47                             115    0.80 8  253 211 
 HEL  HZ EP       1149  5.41                             113    1.06 8  272 256 
 HEL  HN ES       1149 35.29                             113   -0.16 8  272 256 
 HEL  HZ I        1149 42.02        22.9 0.36            114            272 256 
 GUY2CHZ EP       1149  8.08                             111    0.29 7  302 235 
 GUY2CHZ I        1149 49.19        15.0 0.44                           302 235 
 PTGC HZ EP   4   1149  6.58                             110   -1.43 0  309 159 
 PTGC HN ES   4   1149 39.52                             110   -2.44 0  309 159 
 ELA  HZ EP   4   1149 12.69                             109    1.63 0  329 229 
 ELA  HN ES       1149 46.73                             109   -0.66 7  329 229 
 ELA  HZ I        1149 57.17         8.9 0.32            110            329 229 
 DBB  EZ EP       1149 11.94                             108    0.25 7  340 274 
 DBB  EN ES   4   1149 45.84                             108   -2.68 0  340 274 
 DBB  EZ I        1149 50.19        12.0 0.20            110            340 274 
 ANIL HN ES   4   1149 53.96                             107    1.26 0  358 225 
 ANIL HZ I        1149 59.19        31.4 0.34            109            358 225 
 PRA  HZ EP       1149 17.00                             105   -0.79 6  392 210 
 PRA  HE ES       1149 59.21                             105   -0.15 6  392 210 
 PRA  HZ I        1150  4.00        13.9 0.52            107            392 210 
 ORTC HZ EP       1149 18.74                             105    0.55 6  396 216 
 ORTC HN ES   4   1150  1.28                             105    1.20 0  396 216 
 ORTC HZ I        1150  7.96        11.1 0.38            107            396 216 
 APAC HZ EP       1149 19.08                             105    0.63 6  399 288 
 APAC HN ES       1150  0.31                             105   -0.24 6  399 288 
 APAC HZ I        1150  2.29         9.0 0.42            107            399 288 
 PAL  HZ EP       1149 19.38                             105   -0.06 6  406 239 
 PAL  HN ES   4   1150  0.60                             105   -1.71 0  406 239 
 PAL  HZ I        1150  7.92         8.8 0.38            106            406 239 
 SJC  HZ EP   4   1149 17.75                             104   -2.06 0  409 327 
 SJC  HN ES   4   1149 58.61                             104   -4.35 0  409 327 
                                                                                
