 2013 1010 1942 27.7 L   6.798 -73.171139.2  RSN 11 0.4 2.2LRSN                1
 GAP=133        0.79       2.2     3.2  4.4 -0.7742E+00  0.5339E+01  0.1258E+00E
 Epicentro: LOS SANTOS - SANTANDER                                             3
 ACTION:UPD 13-11-25 09:20 OP:ep   STATUS:               ID:20131010194227 L   I
 OLDACT:REG 13-10-10 17:31 OP:nd   STATUS:               ID:20131010193959     3
 2013-10-10-1939-59M.COL___273                                                 6
 STAT SP IPHASW D HRMM SECON CODA AMPLIT PERI AZIMU VELO AIN AR TRES W  DIS CAZ7
 BAR2 SZ EP       1942 46.67                             170    0.1510 22.8 183 
 BAR2 SZ ES       1943  1.32                             170    0.1110 22.8 183 
 BAR2 SZ I        1943  3.13        61.7 0.66            169           22.8 183 
 PAM  SZ IP     D 1942 49.73                             149    0.3910 79.3  41 
 PAM  SN ES       1943  5.99                             149   -0.2210 79.3  41 
 PAM  SZ I        1943  7.53        12.0 0.20            154           79.3  41 
 RUS  HZ EP       1942 50.72                             142   -0.0810  101 174 
 RUS  HN ES       1943  8.78                             142   -0.0510  101 174 
 RUS  HZ I        1943 10.41        13.1 0.30            144            101 174 
 PTB  HZ EP       1942 53.49                             131   -0.38 9  145 259 
 PTB  HN ES       1943 14.38                             131    0.08 9  145 259 
 PTB  HZ I        1943 19.60        18.9 0.32            130            145 259 
 SPBC HZ EP       1942 55.41                             128   -0.10 9  161 218 
 SPBC HN ES       1943 17.17                             128   -0.04 9  161 218 
 SPBC HZ I        1943 21.95        33.7 0.06            128            161 218 
 ZAR  HZ EP       1942 59.89                             121    0.43 9  202 292 
 ZAR  HN ES       1943 24.47                             121    0.24 9  202 292 
 ZAR  HZ I        1943 30.34        15.6 0.52            122            202 292 
 NOR  HZ EP       1943  2.57                             117   -0.22 8  232 234 
 NOR  HN ES       1943 30.18                             117    0.02 8  232 234 
 NOR  HZ I        1943 35.78         9.8 0.20            118            232 234 
 SML  HZ EP       1943  3.99                             116    0.14 8  243 336 
 SML  HN ES       1943 31.31                             116   -0.75 8  243 336 
 SML  HZ I        1943 37.39        16.2 0.24            118            243 336 
 CHI  HZ EP       1943  4.84                             116   -0.09 8  248 195 
 CHI  HN ES       1943 34.11                             116    0.13 8  248 195 
 CHI  HZ I        1943 39.47         8.8 0.36            117            248 195 
 GUY2CHZ EP       1943 11.65                             111    0.92 7  299 234 
 GUY2CHN ES   4   1943 47.09                             111    2.79 0  299 234 
 GUY2CHZ I        1943 53.05         8.1 0.34                           299 234 
 PRA  HZ EP     D 1943 20.59                             105   -0.22 6  390 209 
 PRA  HN ES       1944  1.35                             105   -0.89 6  390 209 
 PRA  HZ I        1944  9.29         7.8 0.26            107            390 209 
                                                                                
