 2017  110 1230  9.8 L   6.779 -73.075153.1  RSN  7 0.4 1.7LRSN                1
 GAP=126        1.07       5.5     7.4  6.8  0.1612E+01  0.3131E+01  0.1131E+02E
 Epicentro: LOS SANTOS - SANTANDER                                             3
 ACTION:UPD 17-05-22 15:57 OP:jn   STATUS:               ID:20170110123009 L   I
 OLDACT:UP  17-01-11 00:02 OP:ar   STATUS:               ID:20170110122759     3
 OLDACT:REG 17-01-10 22:53 OP:ar   STATUS:               ID:20170110122759     3
 2017-01-10-1227-59S.COL___297                                                 6
 STAT SP IPHASW D HRMM SECON CODA AMPLIT PERI AZIMU VELO AIN AR TRES W  DIS CAZ7
 BAR2 EZ EP       1230 30.33                             171   -0.0310 23.8 210 
 BAR2 EZ ES       1230 45.80                             171   -0.5710 23.8 210 
 BAR2 EZ I        1230 54.28        12.2 0.40            168           23.8 210 
 PAM  EZ EP       1230 32.88                             153    0.1910 74.6  34 
 PAM  EN ES       1230 50.46                             153   -0.0410 74.6  34 
 PAM  EZ I        1230 52.44         9.5 0.54            159           74.6  34 
 BRR  HZ EP       1230 32.25                             151    0.0110 79.2 297 
 BRR  HN ES       1230 50.28                             151    0.5710 79.2 297 
 BRR  HZ I        1230 53.27        10.2 0.13            155           79.2 297 
 RUS  HZ EP       1230 34.18                             146    0.0410 98.0 181 
 RUS  HN ES       1230 53.27                             146    0.1810 98.0 181 
 RUS  HZ I        1230 54.44         3.9 0.18            146           98.0 181 
 PTB  HZ EP       1230 37.25                             132   -0.82 9  155 260 
 PTB  HN ES   4   1230 58.63                             132   -1.45 0  155 260 
 PTB  HZ I        1231  0.24         9.5 0.14            135            155 260 
 CHI  HZ EP       1230 48.75                             119    0.80 8  249 197 
 CHI  HN ES   4   1231 19.75                             119    2.08 0  249 197 
 CHI  HZ I        1231 25.45         2.3 0.60            121            249 197 
 PTGC HZ EP       1230 53.17                             113   -0.31 7  304 160 
 PTGC HE ES   4   1231 25.40                             113   -2.11 0  304 160 
                                                                                
