 2016 1110 1454 36.4 L   6.891 -73.214130.7  RSN  6 0.5 2.0LRSN                1
 GAP=125        1.21       7.3     5.2  8.6 -0.1152E+02  0.1612E+02 -0.6942E+00E
 Epicentro: BETULIA - SANTANDER                                                3
 ACTION:UPD 17-10-26 21:06 OP:lp   STATUS:               ID:20161110145436 L   I
 OLDACT:REG 16-11-10 20:17 OP:dnl  STATUS:               ID:20161110144740     3
 2016-11-10-1448-00M.COL___349                                                 6
 STAT SP IPHASW D HRMM SECON CODA AMPLIT PERI AZIMU VELO AIN AR TRES W  DIS CAZ7
 BAR2 EZ IP     D 1454 54.58                             165    0.1210 33.2 174 
 BAR2 EZ ES       1455  8.72                             165    0.1510 33.2 174 
 BAR2 EZ I        1455  9.58        36.0 0.34            163           33.2 174 
 BRR  HZ IP     D 1454 55.22                             154   -0.0410 59.9 294 
 BRR  HN ES       1455 10.07                             154    0.0810 59.9 294 
 BRR  HZ I        1455 10.51        28.4 0.58            152           59.9 294 
 PAM  EZ EP       1454 57.24                             148    0.3510 75.5  49 
 PAM  EN ES       1455 12.68                             148   -0.2010 75.5  49 
 PAM  EZ I        1455 13.97        25.4 0.24            152           75.5  49 
 PTB  HZ EP       1455  0.77                             129   -0.91 9  143 254 
 PTB  HE ES       1455 20.56                             129   -0.85 9  143 254 
 PTB  HZ I        1455 24.86        12.8 0.12            128            143 254 
 ZAR  HZ EP       1455  6.82                             120    0.07 9  193 290 
 ZAR  HN ES       1455 31.03                             120    0.59 9  193 290 
 ZAR  HZ I        1455 34.43        11.1 0.48            120            193 290 
 NOR  HZ EP   2   1455 11.18                             115   -0.10 4  235 231 
 NOR  HN ES       1455 39.44                             115    0.94 8  235 231 
 NOR  HZ I        1455 44.73         4.7 0.14            115            235 231 
                                                                                
