 2012  810 1044 25.9 L   6.704 -73.174151.9  RSN  6 0.1 1.8LRSN                1
 GAP=227        0.29       2.5     2.4  2.3  0.3941E+01  0.1610E+01  0.1424E+01E
 Epicentro: VILLANUEVA - SANTANDER                                             3
 ACTION:UPD 12-09-10 11:55 OP:ep   STATUS:               ID:20120810104425 L   I
 2012-08-10-1040-00M.COL___218                                                 6
 STAT SP IPHASW D HRMM SECON CODA AMPLIT PERI AZIMU VELO AIN AR TRES W  DIS CAZ7
 BAR2 SZ EP       1044 46.05                             175   -0.0510 12.4 184 
 BAR2 SZ I        1044 46.22        22.8 0.23                          12.4 184 
 BAR2 SZ ES       1045  1.89                             175    0.0310 12.4 184 
 BRR  HZ EP       1044 47.89                             153    0.0010 74.3 307 
 BRR  HZ I        1044 48.43        25.7 0.11                          74.3 307 
 BRR  HN ES       1045  5.12                             153    0.0810 74.3 307 
 RUS  HZ EP   1   1044 49.51                             148   -0.05 7 90.3 174 
 RUS  HN ES   1   1045  7.93                             148   -0.09 7 90.3 174 
 RUS  HZ I        1045  9.94         5.3 0.40                          90.3 174 
 PTB  HZ EP       1044 52.93                             134   -0.02 9  143 263 
 PTB  HN ES   1   1045 14.04                             134   -0.02 7  143 263 
 PTB  HZ I        1045 20.11         6.1 0.32                           143 263 
 ZAR  HE ES       1045 24.57                             123   -0.06 8  205 295 
 ZAR  HZ I        1045 31.17         8.3 0.28                           205 295 
 CHI  HZ EP   1   1045  3.03                             120    0.27 6  238 195 
 CHI  HZ I        1045 37.17         2.7 0.59                           238 195 
                                                                                
