 2017  610 1309 29.5 L   6.818 -73.281151.1  RSN  4 0.1 1.5LRSN                1
 GAP=299        0.34       5.2     5.9  6.0 -0.1477E+02 -0.1857E+02  0.7996E+01E
 Epicentro: ZAPATOCA - SANTANDER                                               3
 ACTION:UPD 17-09-14 16:51 OP:jn   STATUS:               ID:20170610130929 L   I
 OLDACT:UP  17-06-11 00:00 OP:edw  STATUS:               ID:20170610130742     3
 OLDACT:REG 17-06-10 20:33 OP:edw  STATUS:               ID:20170610130742     3
 2017-06-10-1308-00M.COL___362                                                 6
 STAT SP IPHASW D HRMM SECON CODA AMPLIT PERI AZIMU VELO AIN AR TRES W  DIS CAZ7
 PTB  HZ EP       13 9 55.62                             136   -0.1010  134 257 
 PTB  HE ES       1310 16.13                             136   -0.0110  134 257 
 PTB  HZ I        1310 23.85         4.1 0.60            145            134 257 
 ZAR  HZ EP   2   1310  1.17                             126    0.29 5  190 293 
 ZAR  HN ES   4   1310 27.31                             126    1.98 0  190 293 
 NOR  HZ EP       1310  4.50                             121    0.05 9  224 232 
 NOR  HN ES       1310 31.75                             121    0.07 9  224 232 
 NOR  HZ I        1310 38.04         2.8 0.14            129            224 232 
 CBOC HN ES       1310 50.65                             112   -0.06 7  320 251 
 SJC  HN ES   4   1311  5.70                             107   -1.06 0  400 329 
                                                                                
