 2012  510 1047 43.8 L   6.672 -73.201143.5  RSN  6 0.4 1.7LRSN                1
 GAP=216        0.86       8.9    11.5 10.5  0.5938E+02  0.5437E+02  0.4501E+00E
 Epicentro: VILLANUEVA - SANTANDER                                             3
 ACTION:UP  12-07-05 12:04 OP:pat  STATUS:               ID:20120510104743 L   I
 2012-05-10-1040-00M.COL___195                                                 6
 STAT SP IPHASW D HRMM SECON CODA AMPLIT PERI AZIMU VELO SNR AR TRES W  DIS CAZ7
 BAR2 SZ EP       1048  3.28                             176     0.310    9 167 
 BAR2 SZ ES   2   1048 17.65                             176    -0.3 5    9 167 
 BAR2 SZ I        1048 18.47         8.8 0.44                             9 167 
 BRR  HZ EP       1048  4.89                             151     0.010   74 310 
 BRR  HZ I        1048  6.62        13.2 0.12                            74 310 
 BRR  HE ES   2   1048 21.74                             151     0.4 5   74 310 
 RUS  HZ EP       1048  6.68                             147     0.210   87 171 
 RUS  HN ES   1   1048 23.79                             147    -0.3 7   87 171 
 RUS  HZ I        1048 25.67         8.4 0.30                            87 171 
 PTB  HZ EP       1048  9.40                             134    -0.5 9  140 264 
 PTB  HZ I        1048 32.45         3.3 0.12                           140 264 
 ZAR  HZ EP       1048 16.12                             122     0.0 9  204 296 
 ZAR  HZ I        1048 48.18         6.5 0.62                           204 296 
 NOR  SE ES   3   1048 46.51                             120     1.8 2  222 236 
                                                                                
