 2014 1010 1506 12.3 L   6.769 -73.154148.0  RSN  5 0.4 1.6LRSN                1
 GAP=137        1.13       6.1     5.9  8.2 -0.3333E+01  0.5701E+01  0.1932E+01E
 Epicentro: LOS SANTOS - SANTANDER                                             3
 ACTION:UPD 14-11-29 23:48 OP:nd   STATUS:               ID:20141010150612 L   I
 OLDACT:DUP 14-10-11 00:12 OP:stll STATUS:               ID:20141010145748d    3
 2014-10-10-1457-47M.COL___289                                                 6
 STAT SP IPHASW D HRMM SECON CODA AMPLIT PERI AZIMU VELO AIN AR TRES W  DIS CAZ7
 BAR2 SZ EP       15 6 32.11                             172    0.0110 19.8 189 
 BAR2 SZ ES       15 6 47.15                             172   -0.4210 19.8 189 
 BAR2 SZ I        15 6 48.77        12.0 0.16            171           19.8 189 
 BRR  HZ EP       15 6 34.16                             153    0.4510 72.1 301 
 BRR  HN ES       15 6 51.17                             153    0.7410 72.1 301 
 PAM  SZ EP       15 6 35.04                             150    0.1210 80.7  38 
 PAM  SN ES       15 6 52.11                             150   -0.4710 80.7  38 
 PAM  SZ I        15 6 54.42         7.1 0.46            152           80.7  38 
 RUS  HZ EP       15 6 36.23                             145    0.2310 97.2 175 
 RUS  HN ES       15 6 54.76                             145    0.2510 97.2 175 
 RUS  HZ I        15 6 57.18         4.0 0.56            146           97.2 175 
 PTB  HZ EP       15 6 38.62                             133   -0.66 9  146 260 
 PTB  HN ES       15 6 59.98                             133   -0.37 9  146 260 
 PTB  HZ I        15 7  1.60         6.4 0.44            134            146 260 
                                                                                
