 2017  110 1624 15.0 L   6.879 -73.365132.4  RSN  4 0.3 1.2LRSN                1
 GAP=162        0.83       5.1     4.7  8.3 -0.8217E+01  0.2751E+01 -0.1921E+01E
 Epicentro: SAN VICENTE DE CHUCURI - SANTANDER                                 3
 ACTION:UPD 17-05-22 15:57 OP:jn   STATUS:               ID:20170110162415 L   I
 OLDACT:UP  17-01-11 00:40 OP:edw  STATUS:               ID:20170110161759     3
 OLDACT:REG 17-01-10 23:03 OP:ar   STATUS:               ID:20170110161759     3
 2017-01-10-1617-59S.COL___321                                                 6
 STAT SP IPHASW D HRMM SECON CODA AMPLIT PERI AZIMU VELO AIN AR TRES W  DIS CAZ7
 BAR2 EZ ES       1624 48.16                             163    0.3310 37.6 148 
 PAM  EZ EP       1624 37.11                             144    0.4710 89.4  55 
 PAM  EN ES       1624 53.09                             144   -0.4210 89.4  55 
 PAM  EZ I        1624 55.95         3.5 0.40            144           89.4  55 
 RUS  HZ EP       1624 38.23                             137   -0.2710  113 164 
 RUS  HN ES       1624 56.80                             137   -0.0310  113 164 
 RUS  HZ I        1624 58.62         2.3 0.28            138            113 164 
 PTB  HN ES       1624 57.55                             134   -0.0910  126 253 
                                                                                
