 2013 1110 1012 23.3 L   6.834 -73.195149.2  RSN  4 0.4 0.9LRSN                1
 GAP=197        0.57       6.2     9.2 10.2  0.2704E+02 -0.3940E+00 -0.5828E+01E
 Epicentro: ZAPATOCA - SANTANDER                                               3
 ACTION:UPD 14-01-09 16:26 OP:ep   STATUS:               ID:20131110101223 L   I
 OLDACT:DUP 13-11-10 14:58 OP:jn   STATUS:               ID:20131110101001d    3
 2013-11-10-1010-00M.COL___273                                                 6
 STAT SP IPHASW D HRMM SECON CODA AMPLIT PERI AZIMU VELO AIN AR TRES W  DIS CAZ7
 BRR  HN ES   2   1013  1.44                             155    0.50 5 64.6 298 
 RUS  HZ EP   2   1012 47.68                             143    0.03 5  105 173 
 RUS  HN ES   2   1013  6.36                             143   -0.32 5  105 173 
 RUS  HZ I        1013  7.57         1.0 0.24            140            105 173 
 PTB  HZ EP   1   1012 50.39                             134    0.29 7  143 257 
 PTB  HN ES   2   1013 10.58                             134   -0.46 5  143 257 
 PTB  HZ I        1013 16.83         1.1 0.52            128            143 257 
 SML  HN ES   2   1013 27.15                             119   -0.57 4  238 336 
                                                                                
