 2013  710 1524  3.5 L   6.837 -73.137143.9  RSN  8 0.5 2.1LRSN                1
 GAP= 70        1.32       6.2     5.1  9.6  0.9732E+00 -0.3405E+01 -0.2840E+01E
 Epicentro: LOS SANTOS - SANTANDER                                             3
 ACTION:UPD 13-08-12 10:36 OP:ep   STATUS:               ID:20130710152403 L   I
 OLDACT:REG 13-07-10 15:49 OP:stll STATUS:               ID:20130710151846     3
 2013-07-10-1518-46M.COL___226                                                 6
 STAT SP IPHASW D HRMM SECON CODA AMPLIT PERI AZIMU VELO AIN AR TRES W  DIS CAZ7
 GIR2 SZ EP       1524 23.23                             169    0.3610 27.4 347 
 BAR2 SZ IP     C 1524 23.12                             169    0.1010 27.5 191 
 BAR2 SZ I        1524 23.23        16.5 0.42            168           27.5 191 
 BAR2 SZ ES       1524 37.97                             169   -0.2510 27.5 191 
 BRR  HZ IP     D 1524 25.04                             152    0.6310 70.2 295 
 BRR  HN ES       1524 41.69                             152    0.9910 70.2 295 
 BRR  HN I        1524 42.65        26.3 0.48            153           70.2 295 
 RUS  HZ EP       1524 27.57                             142    0.1910  105 177 
 RUS  HN ES       1524 45.78                             142   -0.2110  105 177 
 RUS  HN I        1524 47.26        22.2 0.30            143            105 177 
 CAPV BZ ES       1524 50.60                             132   -0.79 9  145  39 
 PTB  HZ EP       1524 30.12                             131   -0.38 9  150 257 
 PTB  HN ES       1524 50.83                             131   -0.71 9  150 257 
 PTB  HN I        1524 53.37        16.6 0.28            132            150 257 
 TAM  HZ EP       1524 31.22                             130    0.16 9  155 107 
 ZAR  HE ES       1525  0.52                             122   -0.42 9  203 291 
                                                                                
