 2010  310 1523 46.5 L   6.803 -73.040137.5  RSN 12 0.6 2.8LRSN                1
 GAP=194        1.08       4.0     8.5  7.1  0.2628E+01  0.1582E+02  0.4787E+01E
 Epicentro: CEPITA - SANTANDER                                                 3
 ACTION:UP  10-08-24 09:53 OP:vdl  STATUS:               ID:20100310152346 L   I
 2010-03-10-1520-47S.COL___091                                                 6
 STAT SP IPHASW D HRMM SECON CODA AMPLIT PERI AZIMU VELO SNR AR TRES W  DIS CAZ7
 BAR2 SZ EP       1524  5.35                             168     0.110   28 214 
 BAR2 SZ ES   2   1524 20.00                             168     0.1 5   28 214 
 BRR  HZ IP       1524  7.29                             147    -0.110   82 294 
 BRR  HZ I        1524  7.65       222.4 0.10                            82 294 
 BRR  HN ES       1524 24.18                             147     0.410   82 294 
 RUS  BZ EP       1524  9.36                             142    -0.110  101 183 
 RUS  BN ES       1524 27.43                             142     0.010  101 183 
 RUS  BZ I        1524 28.49        60.2 0.32                           101 183 
 OCA  SZ EP       1524 14.18                             128    -0.2 9  162 349 
 OCA  SZ ES   1   1524 35.64                             128    -0.4 7  162 349 
 OCA  SZ I        1524 41.54       123.3 0.14                           162 349 
 CHI  HZ EP       1524 24.21                             115     0.0 8  252 198 
 CHI  HN ES   1   1524 52.91                             115    -0.6 6  252 198 
 ROSC BE ES   3   1524 54.24                             114    -0.6 2  259 213 
 ROSC BZ I        1525  1.81        27.6 1.16                           259 213 
 HEL  HZ EP       1524 27.70                             112     0.1 7  284 256 
 HEL  HZ I        1525  4.42        30.1 0.24                           284 256 
 RREF BZ EP   1   1524 34.46                             109     1.1 5  331 231 
 RREF BN ES   3   1525  9.54                             109    -0.4 2  331 231 
 RREF BZ I        1525 14.37        19.6 0.15                           331 231 
 DBB  SZ EP       1524 33.99                             107    -1.0 6  351 274 
 TOL  SZ EP       1524 36.84                             107     1.4 6  352 226 
 TOL  SZ ES   3   1525 14.18                             107     0.6 2  352 226 
 ANIL BZ EP   2   1524 37.85                             107     0.8 3  366 226 
 ANIL BE ES   1   1525 15.45                             107    -0.9 5  366 226 
 ANIL BZ I        1525 20.92        32.9 0.46                           366 226 
 PRA  HZ EP   1   1524 40.02                             105    -0.5 4  398 211 
 PRA  HN ES   1   1525 22.23                             105    -0.4 4  398 211 
 PRA  HZ I        1525 23.14        12.4 0.24                           398 211 
                                                                                
