 2013 1110 1146  7.3 L   6.704 -73.189148.2  RSN  4 0.3 1.4LRSN                1
 GAP=225        0.77       6.0     6.3  7.4  0.2749E+02  0.9290E+00 -0.7930E+01E
 Epicentro: VILLANUEVA - SANTANDER                                             3
 ACTION:UPD 14-01-09 16:26 OP:ep   STATUS:               ID:20131110114607 L   I
 OLDACT:REG 13-11-10 14:14 OP:jn   STATUS:               ID:20131110114000     3
 2013-11-10-1140-00M.COL___273                                                 6
 STAT SP IPHASW D HRMM SECON CODA AMPLIT PERI AZIMU VELO AIN AR TRES W  DIS CAZ7
 BRR  HZ EP       1146 28.96                             152    0.1310 72.9 308 
 BRR  HN ES       1146 45.28                             152   -0.3310 72.9 308 
 BRR  HZ I        1146 48.84         6.7 0.26            152           72.9 308 
 RUS  HZ EP       1146 30.69                             147    0.0610 90.5 173 
 RUS  HN ISg      1146 48.91                             147    0.1110 90.5 173 
 RUS  HN ES       1146 48.91                             147    0.1110 90.5 173 
 RUS  HZ I        1146 50.13         3.1 0.54            149           90.5 173 
 PTB  HZ EP       1146 33.45                             134   -0.47 9  141 263 
 PTB  HN ES       1146 54.53                             134   -0.13 9  141 263 
 PTB  HZ I        1146 58.77         3.1 0.12            135            141 263 
 ZAR  HN ES       1147  5.95                             123    0.62 9  204 295 
                                                                                
