 2010  510 1945 23.6 L   6.752 -73.044147.9  RSN 11 0.5 2.5LRSN                1
 GAP=168        0.87       4.3     7.9  8.0 -0.1502E+02  0.1138E+02  0.5733E+01E
 Epicentro: ARATOCA - SANTANDER                                                3
 ACTION:UP  10-08-24 10:04 OP:vdl  STATUS:               ID:20100510194523 L   I
 2010-05-10-1943-51S.COL___104                                                 6
 STAT SP IPHASW D HRMM SECON CODA AMPLIT PERI AZIMU VELO SNR AR TRES W  DIS CAZ7
 BAR2 SZ EP   1   1945 43.26                             170    -0.3 7   24 221 
 BAR2 SZ ES   2   1945 58.51                             170    -0.5 5   24 221 
 BRR  HZ EP   1   1945 45.93                             149     0.2 7   84 298 
 BRR  HN ES   2   1946  3.58                             149     0.6 5   84 298 
 BRR  HZ I        1946  6.53        43.0 0.28                            84 298 
 RUS  HZ EP   1   1945 47.14                             146    -0.1 7   95 183 
 RUS  HN ES   2   1946  5.51                             146    -0.1 5   95 183 
 RUS  HZ I        1946  8.60        23.3 0.38                            95 183 
 BRI  SZ EP   1   1945 47.84                             142     0.0 7  110  14 
 BRI  SZ ES   2   1946  7.00                             142     0.3 5  110  14 
 GUE  SZ EP   1   1945 48.62                             139    -0.2 7  120   6 
 GUE  SZ ES   2   1946  7.86                             139    -0.6 5  120   6 
 GRA  SZ EP   1   1945 50.06                             137     0.8 7  128  12 
 GRA  SZ ES   2   1946 10.27                             137     1.0 5  128  12 
 OCA  SZ EP   1   1945 52.01                             129    -0.7 7  167 350 
 OCA  SZ ES   2   1946 14.83                             129    -0.6 5  167 350 
 OCA  SZ I        1946 18.62        45.2 0.35                           167 350 
 CHI  HZ EP   1   1946  1.33                             118     0.1 6  247 198 
 CHI  HE ES   2   1946 30.66                             118     0.1 4  247 198 
 CHI  HZ I        1946 36.10        14.2 0.72                           247 198 
 HEL  HZ EP   1   1946  4.75                             114    -0.3 6  282 257 
 HEL  HN ES   2   1946 36.85                             114    -0.5 4  282 257 
 HEL  HZ I        1946 41.04        12.1 0.82                           282 257 
 RREF BZ EP   1   1946 11.31                             111     0.8 5  327 231 
 RREF BN ES   2   1946 47.90                             111     0.9 3  327 231 
 RREF BZ I        1946 54.88        19.4 0.40                           327 231 
 PRA  HZ EP   1   1946 16.72                             107    -0.6 4  393 211 
 PRA  HE ES   2   1946 59.30                             107     0.0 3  393 211 
 PRA  HZ I        1947  5.06        16.1 0.66                           393 211 
                                                                                
