 2017  310 1731  1.6 L   6.783 -73.132141.8  RSN 17 0.4 2.3LRSN                1
 GAP= 99        0.87       2.9     2.7  4.3 -0.4657E+00  0.2232E+01  0.1971E+01E
 Epicentro: LOS SANTOS - SANTANDER                                             3
 ACTION:UPD 17-05-25 18:38 OP:jn   STATUS:               ID:20170310173101 L   I
 OLDACT:UP  17-03-11 00:07 OP:and  STATUS:               ID:20170310172745     3
 OLDACT:UP  17-03-11 00:06 OP:and  STATUS:               ID:20170310172745     3
 OLDACT:UP  17-03-11 00:05 OP:and  STATUS:               ID:20170310172745     3
 OLDACT:UP  17-03-11 00:05 OP:and  STATUS:               ID:20170310172745     3
 OLDACT:UP  17-03-11 00:05 OP:and  STATUS:               ID:20170310172745     3
 OLDACT:UP  17-03-11 00:04 OP:and  STATUS:               ID:20170310172745     3
 OLDACT:UP  17-03-11 00:04 OP:and  STATUS:               ID:20170310172745     3
 OLDACT:UP  17-03-11 00:04 OP:and  STATUS:               ID:20170310172745     3
 OLDACT:UP  17-03-11 00:03 OP:and  STATUS:               ID:20170310172745     3
 OLDACT:UP  17-03-11 00:02 OP:and  STATUS:               ID:20170310172745     3
 OLDACT:UP  17-03-11 00:02 OP:and  STATUS:               ID:20170310172745     3
 OLDACT:UP  17-03-11 00:01 OP:and  STATUS:               ID:20170310172745     3
 OLDACT:REG 17-03-10 21:13 OP:and  STATUS:               ID:20170310172745     3
 2017-03-10-1728-00M.COL___399                                                 6
 STAT SP IPHASW D HRMM SECON CODA AMPLIT PERI AZIMU VELO AIN AR TRES W  DIS CAZ7
 BAR2 EZ IP     C 1731 20.41                             171   -0.2610 21.8 195 
 BAR2 EZ ES       1731 35.50                             171   -0.0810 21.8 195 
 BAR2 EZ I        1731 38.18        52.0 0.32            169           21.8 195 
 BRR  HZ IP     C 1731 22.08                             151   -0.3210 73.4 299 
 BRR  HN ES       1731 39.28                             151    0.6210 73.4 299 
 BRR  HZ I        1731 42.50        27.3 0.24            147           73.4 299 
 PAM  EZ IP     C 1731 23.12                             150   -0.2610 77.9  38 
 PAM  EN ES       1731 40.36                             150   -0.0410 77.9  38 
 PAM  EZ I        1731 43.45        26.9 0.36            152           77.9  38 
 RUS  HZ EP       1731 24.38                             144   -0.3810 98.6 177 
 RUS  HN ES       1731 42.95                             144    0.0810 98.6 177 
 RUS  HZ I        1731 44.23        18.7 0.42            145           98.6 177 
 PTB  HZ EP   9   1731 27.01                             131   -1.29 0  149 260 
 PTB  HN ES       1731 47.80                             131   -0.07 9  149 260 
 PTB  HZ I        1731 53.19        17.1 0.24            129            149 260 
 TAM  HZ IP     C 1731 28.76                             130    0.03 9  153 104 
 TAM  HN ES       1731 50.42                             130    0.49 9  153 104 
 SPBC HZ EP       1731 29.59                             128   -0.10 9  163 220 
 SPBC HE ES       1731 51.95                             128    0.31 9  163 220 
 SPBC HZ I        1731 53.82        36.1 0.28            128            163 220 
 ZAR  HZ EP       1731 34.04                             121    0.08 8  206 292 
 ZAR  HN ES       1731 58.72                             121   -0.52 8  206 292 
 ZAR  HZ I        1732  4.07        21.6 0.26            120            206 292 
 NOR  HZ EP       1731 36.62                             118   -0.44 8  235 235 
 NOR  HN ES       1732  4.70                             118   -0.06 8  235 235 
 NOR  HZ I        1732  9.89        14.6 0.22            117            235 235 
 CHI  HZ EP       1731 38.62                             116   -0.25 8  247 196 
 CHI  HN ES       1732  7.78                             116   -0.20 8  247 196 
 CHI  HZ I        1732 12.98        10.5 0.40            117            247 196 
 ROSC BZ EP   3   1731 40.70                             116    1.34 2  252 212 
 ROSC BN ES   4   1732 11.32                             116    2.47 0  252 212 
 ROSC BZ I        1732 15.04        36.5 0.40            116            252 212 
 HEL  HZ EP       1731 42.50                             114    0.83 8  273 256 
 HEL  HE ES   4   1732 14.74                             114    1.77 0  273 256 
 HEL  HZ I        1732 20.65        11.0 0.34            113            273 256 
 URE  HZ EP   4   1731 40.92                             113   -1.75 0  286 292 
 URE  HN ES   4   1732 11.47                             113   -3.26 0  286 292 
 URE  HZ I        1732 22.62        14.5 0.20            112            286 292 
 GUY2CHZ EP       1731 45.73                             112    0.74 7  301 235 
 GUY2CHN ES   4   1732 22.53                             112    3.66 0  301 235 
 GUY2CHZ  IAML    1732 26.55        12.3 0.38                           301 235 
 PTGC HZ EP   9   1731 43.51                             111   -1.45 0  306 159 
 PTGC HN ES       1732 16.71                             111   -0.66 7  306 159 
 ORTC HZ EP   2   1731 55.33                             106    0.07 3  395 217 
 ORTC HN ES   3   1732 39.11                             106    1.96 1  395 217 
 ORTC HZ I        1732 41.62         5.7 0.32            106            395 217 
 SJC  HZ EP   4   1731 54.63                             105   -2.64 0  412 327 
 SJC  HN ES   4   1732 35.60                             105   -5.13 0  412 327 
 SJC  HZ I        1732 50.13         3.9 0.70            105            412 327 
                                                                                
