 2016 1010 1841 34.2 L   7.316 -73.197130.0  RSN  5 0.4 1.6LRSN                1
 GAP=171        0.93       5.3     4.4  9.2  0.5427E+00  0.1942E+02 -0.6905E+01E
 Epicentro: RIONEGRO - SANTANDER                                               3
 ACTION:UPD 16-11-09 19:18 OP:rebc STATUS:               ID:20161010184134 L   I
 OLDACT:REG 16-10-10 20:19 OP:dln  STATUS:               ID:20161010183746     3
 2016-10-10-1838-00M.COL___339                                                 6
 STAT SP IPHASW D HRMM SECON CODA AMPLIT PERI AZIMU VELO AIN AR TRES W  DIS CAZ7
 PAM  EZ EP       1841 53.38                             156   -0.1310 55.0  87 
 PAM  EE ES       1842  8.45                             156   -0.0910 55.0  87 
 PAM  EZ I        1842  9.67         4.5 0.34            161           55.0  87 
 BAR2 EZ EP       1841 54.94                             147    0.3210 80.0 179 
 BAR2 EZ ES       1842 11.05                             147    0.5310 80.0 179 
 BAR2 EZ I        1842 12.50        22.6 0.14            148           80.0 179 
 RUS  HZ EP   2   1842  2.47                             127    0.88 5  158 175 
 RUS  HN ES       1842 22.21                             127   -0.71 9  158 175 
 RUS  HZ I        1842 25.06         1.9 0.30            129            158 175 
 PTB  HZ EP   2   1842  1.92                             125    0.41 5  163 238 
 PTB  HN ES       1842 22.70                             125   -0.08 9  163 238 
 PTB  HZ I        1842 27.18         4.0 0.16            127            163 238 
 ZAR  HZ EP       1842  3.22                             122   -0.41 9  184 276 
 ZAR  HN ES       1842 26.67                             122    0.11 9  184 276 
 ZAR  HZ I        1842 29.71         6.3 0.32            123            184 276 
                                                                                
