 2011  710 1454 51.0 L   6.729 -73.069142.0  RSN  7 0.2 1.5LRSN                1
 GAP=168        0.39       2.0     3.7  3.7 -0.2121E+01  0.2300E+01 -0.9915E+00E
 Epicentro: JORDAN - SANTANDER                                                 3
 ACTION:UPD 12-07-25 13:59 OP:epov STATUS:               ID:20110710145451 L   I
 2011-07-10-1453-26S.COL___139                                                 6
 STAT SP IPHASW D HRMM SECON CODA AMPLIT PERI AZIMU VELO AIN AR TRES W  DIS CAZ7
 BAR2 SZ EP   2   1455 10.04                             172   -0.05 5 19.7 220 
 BAR2 SZ ES   2   1455 24.60                             172   -0.40 5 19.7 220 
 BAR2 SZ I        1455 26.17         6.8 0.44                          19.7 220 
 BRR  HZ EP   1   1455 12.28                             148   -0.14 7 82.5 300 
 BRR  HZ I        1455 13.17         9.4 0.10                          82.5 300 
 BRR  HE ES   1   1455 29.29                             148    0.16 7 82.5 300 
 RUS  HZ EP   2   1455 13.75                             145   -0.04 5 92.5 181 
 RUS  HE ES   1   1455 31.77                             145    0.19 7 92.5 181 
 RUS  HZ I        1455 33.50         5.5 0.26                          92.5 181 
 GRA  SZ EP   1   1455 16.57                             135    0.22 7  131  13 
 GRA  SZ ES   1   1455 35.99                             135   -0.15 7  131  13 
 GRA  SZ I        1455 37.62         3.8 0.21                           131  13 
 OCA  SZ EP   1   1455 19.59                             127   -0.28 7  169 351 
 OCA  SZ ES   1   1455 42.60                             127    0.20 7  169 351 
 NOR  SZ EP   2   1455 26.65                             117   -0.13 4  237 237 
 NOR  SE ES   2   1455 54.49                             117   -0.21 4  237 237 
 HEL  HZ EP   1   1455 31.91                             113    0.18 6  279 258 
                                                                                
