 2013  410 1227 37.9 L   6.783 -73.158147.6  RSN  8 0.4 1.8LRSN                1
 GAP=181        0.81       3.9     5.4  5.4  0.3577E+01  0.4489E+01  0.3868E+01E
 Epicentro: LOS SANTOS - SANTANDER                                             3
 ACTION:UPD 13-05-22 14:37 OP:EP   STATUS:               ID:20130410122737 L   I
 2013-04-10-1220-00M.COL___245                                                 6
 STAT SP IPHASW D HRMM SECON CODA AMPLIT PERI AZIMU VELO AIN AR TRES W  DIS CAZ7
 BAR2 SZ EP       1227 57.70                             171    0.0210 21.3 187 
 BAR2 SZ ES       1228 12.76                             171   -0.3610 21.3 187 
 BAR2 SZ I        1228 14.05        15.9 0.46            157           21.3 187 
 GIR2 SZ EP       1227 57.78                             167   -0.0210 32.9 353 
 GIR2 SZ ES   1   1228 13.45                             167    0.11 7 32.9 353 
 BRR  HZ EP       1227 59.52                             153    0.3210 70.9 300 
 BRR  HN ES   1   1228 16.74                             153    0.91 7 70.9 300 
 RUS  HZ EP       1228  1.57                             145   -0.1010 98.8 175 
 RUS  HN ES       1228 20.32                             145    0.0810 98.8 175 
 RUS  HZ I        1228 21.79         5.7 0.20            128           98.8 175 
 PTB  HZ EP       1228  4.35                             133   -0.48 9  146 259 
 PTB  HN ES       1228 25.64                             133   -0.22 9  146 259 
 PTB  HZ I        1228 31.53        12.7 0.36            119            146 259 
 OCA  HN ES   1   1228 28.42                             130   -0.37 7  162 354 
 CHI  HZ EP       1228 15.66                             118    0.23 8  246 195 
 CHI  HZ I        1228 50.61         3.0 0.40            105            246 195 
 PRA  HZ EP   1   1228 31.80                             107    0.62 4  390 210 
                                                                                
