 2010  910 1913 37.3 L   6.739 -73.159147.0  RSN  5 0.4 1.6LRSN                1
 GAP=158        0.65       6.0    12.2  9.9  0.1774E+02 -0.5535E+02 -0.2399E+02E
 Epicentro: VILLANUEVA - SANTANDER                                             3
 ACTION:UP  11-02-18 11:01 OP:tino STATUS:               ID:20100910191337 L   I
 2010-09-10-1910-35S.COL___120                                                 6
 STAT SP IPHASW D HRMM SECON CODA AMPLIT PERI AZIMU VELO SNR AR TRES W  DIS CAZ7
 BAR2 SZ EP   1   1913 56.71                             173    -0.3 8   17 190 
 BAR2 SZ ES   2   1914 11.67                             173    -0.6 5   17 190 
 BAR2 SZ I        1914 13.15        10.9 0.18                            17 190 
 GIR2 SZ EP   2   1913 56.85                             165    -0.5 5   38 354 
 GIR2 SZ ES   3   1914 13.75                             165     0.8 3   38 354 
 BRR  HZ EP   1   1913 58.59                             152    -0.1 8   74 304 
 BRR  HE ES   2   1914 15.82                             152     0.4 5   74 304 
 BRR  HZ I        1914 18.83        11.1 0.38                            74 304 
 RUS  HZ EP   1   1914  1.04                             146     0.3 8   94 175 
 RUS  HE ES   2   1914 19.13                             146     0.2 5   94 175 
 RUS  HZ I        1914 20.70         3.5 0.38                            94 175 
 GRA  SZ EP       1914  3.36                             135     0.110  133  17 
                                                                                
