 2011  310 1056 26.6 L   6.815 -73.188135.2  RSN 10 0.5 3.2LRSN                1
 GAP=133        1.12       4.9     7.5  9.4 -0.7637E+01  0.2006E+02  0.8597E+01E
 Epicentro: ZAPATOCA - SANTANDER                                               3
 ACTION:UP  11-06-16 14:32 OP:jfem STATUS:               ID:20110310105626 L   I
 2011-03-10-1054-42S.COL___135                                                 6
 STAT SP IPHASW D HRMM SECON CODA AMPLIT PERI AZIMU VELO SNR AR TRES W  DIS CAZ7
 BAR2 SZ IP       1056 45.46                             169     0.510   25 179 
 BAR2 SZ ES   1   1056 59.08                             169    -0.2 7   25 179 
 BAR2 SZ I        1057  1.40       350.8 0.31                            25 179 
 GUE  SZ EP       1056 50.78                             137     0.510  116  15 
 GRA  SZ IP       1056 51.37                             134     0.510  126  20 
 GRA  SZ ES   1   1057  9.39                             134    -0.4 7  126  20 
 GRA  SZ I        1057 12.12       449.1 0.41                           126  20 
 OCA  SZ EP       1056 53.50                             127    -0.3 9  158 355 
 OCA  SZ ES   1   1057 14.28                             127    -0.9 7  158 355 
 OCA  SZ I        1057 19.74       205.7 0.30                           158 355 
 YOP  SZ EP       1056 56.04                             123    -0.2 9  183 152 
 CHI  HZ EP   1   1057  3.29                             115    -0.4 6  249 194 
 CHI  HZ I        1057 43.27        80.6 0.36                           249 194 
 HEL  HZ EP   1   1057  5.65                             113    -0.1 6  268 255 
 HEL  HN ES   1   1057 36.86                             113     0.5 6  268 255 
 HEL  HZ I        1057 43.92       114.4 0.40                           268 255 
 VIL  SZ EP   2   1057  9.06                             110    -0.5 4  304 191 
 DBB  SZ EP       1057 13.19                             108     0.1 7  335 274 
 PRA  HZ EP       1057 18.86                             105    -0.8 6  391 209 
                                                                                
