 2015  910 1122 49.7 L   6.813 -73.151141.3  RSN 13 0.5 2.2LRSN                1
 GAP=112        1.11       3.0     3.9  5.6 -0.9669E+00  0.3044E+01 -0.1829E-01E
 Epicentro: LOS SANTOS - SANTANDER                                             3
 ACTION:UPD 15-10-28 16:25 OP:cam  STATUS:               ID:20150910112249 L   I
 OLDACT:REG 15-09-10 20:26 OP:stll STATUS:               ID:20150910111750     3
 2015-09-10-1117-50M.COL___353                                                 6
 STAT SP IPHASW D HRMM SECON CODA AMPLIT PERI AZIMU VELO AIN AR TRES W  DIS CAZ7
 BAR2 EZ EP       1123  9.14                             170    0.2910 24.7 188 
 BAR2 EZ ES       1123 23.56                             170   -0.2010 24.7 188 
 BAR2 EZ I        1123 25.47        31.4 0.18            170           24.7 188 
 BRR  HZ EP       1123 10.89                             152    0.5710 70.0 298 
 BRR  HE ES       1123 27.45                             152    1.0710 70.0 298 
 BRR  HZ I        1123 30.44        15.0 0.28            150           70.0 298 
 RUS  HZ EP       1123 13.08                             142   -0.0710  102 176 
 RUS  HE ES       1123 31.34                             142   -0.0810  102 176 
 RUS  HZ I        1123 32.87        13.8 0.30            145            102 176 
 PTB  HZ EP       1123 16.14                             131   -0.16 9  147 258 
 PTB  HN ES       1123 35.77                             131   -1.26 9  147 258 
 PTB  HZ I        1123 38.63         9.1 0.22            131            147 258 
 TAM  HZ EP       1123 17.30                             129    0.16 9  156 105 
 TAM  HZ I        1123 17.55        17.5 0.34            133            156 105 
 OCA  HZ EP       1123 17.51                             129   -0.04 9  159 353 
 OCA  HN ES       1123 38.56                             129   -0.69 9  159 353 
 OCA  HZ I        1123 43.94        32.7 0.38            129            159 353 
 SPBC HZ EP       1123 18.08                             128    0.12 9  164 219 
 SPBC HZ I        1123 18.18        24.0 0.22            129            164 219 
 SPBC HN ES       1123 39.68                             128   -0.30 9  164 219 
 ZAR  HZ EP       1123 21.98                             121    0.21 9  203 292 
 ZAR  HE ES       1123 47.12                             121    0.36 9  203 292 
 ZAR  HZ I        1123 56.17        12.3 0.36            121            203 292 
 NOR  HZ EP       1123 25.20                             117   -0.04 8  235 234 
 NOR  HE ES       1123 52.80                             117   -0.14 8  235 234 
 NOR  HZ I        1123 58.30        10.1 0.16            118            235 234 
 SML  HZ EP       1123 25.53                             117   -0.40 8  242 335 
 SML  HE ES       1123 53.88                             117   -0.29 8  242 335 
 SML  HZ I        1123 57.73        13.9 0.10            117            242 335 
 HEL  HZ EP       1123 29.83                             114    0.14 8  272 255 
 HEL  HE ES       1124  1.48                             114    0.62 8  272 255 
 HEL  HZ I        1124  8.78         6.8 0.50            114            272 255 
 GUY2CHZ EP       1123 33.34                             111    0.17 7  302 234 
 GUY2CHE ES       1124  7.07                             111    0.01 7  302 234 
 GUY2CHZ I        1124 15.38         9.5 0.32                           302 234 
 PRA  HZ EP       1123 42.83                             106   -0.38 6  393 209 
 PRA  HN ES       1124 24.96                             106    0.04 6  393 209 
 PRA  HZ I        1124 31.71         6.2 0.28            107            393 209 
                                                                                
