 2017  810 1226  7.5 L   6.768 -73.167142.0  RSN  5 0.4 1.0LRSN                1
 GAP=135        0.58       3.3     6.2  5.2 -0.5778E+01  0.9219E+01 -0.2849E+01E
 Epicentro: LOS SANTOS - SANTANDER                                             3
 ACTION:UPD 17-09-04 20:18 OP:rebc STATUS:               ID:20170810122607 L   I
 OLDACT:UP  17-08-10 22:29 OP:dani STATUS:               ID:20170810121738d    3
 OLDACT:DUP 17-08-10 22:27 OP:dani STATUS:               ID:20170810121738d    3
 OLDACT:UP  17-08-10 22:26 OP:dani STATUS:               ID:20170810121737     3
 OLDACT:REG 17-08-10 20:40 OP:dani STATUS:               ID:20170810121737     3
 2017-08-10-1218-00M.COL___408                                                 6
 STAT SP IPHASW D HRMM SECON CODA AMPLIT PERI AZIMU VELO AIN AR TRES W  DIS CAZ7
 BAR2 EZ EP       1226 26.41                             172   -0.1810 19.5 185 
 BAR2 EZ ES       1226 41.50                             172    0.0110 19.5 185 
 BAR2 EZ I        1226 44.88         3.0 0.16            171           19.5 185 
 BRR  HZ EP       1226 28.33                             152    0.1110 71.0 302 
 BRR  HN ES   3   1226 42.88                             152   -1.51 2 71.0 302 
 PAM  EZ EP       1226 29.41                             149   -0.1510 81.6  39 
 PAM  EN ES       1226 46.96                             149    0.1810 81.6  39 
 PAM  EZ I        1226 47.17         2.6 0.16            153           81.6  39 
 RUS  HZ EP       1226 30.52                             144   -0.1010 97.2 175 
 RUS  HN ES       1226 48.83                             144    0.1610 97.2 175 
 RUS  HZ I        1226 50.15         1.1 0.24            146           97.2 175 
 ZAR  HN ES   3   1227  6.04                             122    1.37 2  203 293 
                                                                                
