 2011 1110 1852 35.9 L   6.794 -73.093141.5  RSN  6 0.3 1.8LRSN                1
 GAP=144        0.59       3.7     5.1  5.2 -0.3222E-01  0.3651E+01 -0.4174E+01E
 Epicentro: LOS SANTOS - SANTANDER                                             3
 ACTION:UPD 12-07-13 16:09 OP:ep   STATUS:               ID:20111110185235 L   I
 2011-11-10-1851-39S.COL___178                                                 6
 STAT SP IPHASW D HRMM SECON CODA AMPLIT PERI AZIMU VELO AIN AR TRES W  DIS CAZ7
 BAR2 SZ EP       1852 54.89                             170   -0.1110 24.4 204 
 BAR2 SZ ES   1   1853 10.10                             170    0.18 7 24.4 204 
 BAR2 SZ I        1853 11.44         9.2 0.17                          24.4 204 
 PAM  SZ EP       1852 57.57                             151    0.1310 74.3  36 
 PAM  SZ I        1852 57.82        11.6 0.19                          74.3  36 
 PAM  SN ES   1   1853 14.38                             151    0.11 7 74.3  36 
 BRR  HZ EP       1852 56.55                             150   -0.3310 76.7 297 
 BRR  HZ I        1852 57.93        20.6 0.18                          76.7 297 
 BRR  HN ES   1   1853 13.10                             150   -0.17 7 76.7 297 
 RUS  HZ EP   1   1852 59.14                             143    0.01 7 99.7 179 
 RUS  HN ES   1   1853 17.32                             143    0.05 7 99.7 179 
 OCA  SZ EP   1   1853  3.76                             128   -0.22 7  162 351 
 ZAR  HZ EP   1   1853  9.39                             121    0.76 6  210 292 
 ZAR  HZ I        1853 39.37         8.1 0.23                           210 292 
                                                                                
