 2015  510 1306 37.6 L   6.904 -73.327110.6  RSN  4 0.1 1.6LRSN                1
 GAP=155        0.36       2.0     2.1  2.9  0.6106E+00  0.1080E+01 -0.2389E+01E
 Epicentro: BETULIA - SANTANDER                                                3
 ACTION:UPD 15-09-10 22:03 OP:cam  STATUS:               ID:20150510130637 L   I
 OLDACT:REG 15-05-10 20:37 OP:stll STATUS:               ID:20150510125749     3
 2015-05-10-1257-49M.COL___267                                                 6
 STAT SP IPHASW D HRMM SECON CODA AMPLIT PERI AZIMU VELO AIN AR TRES W  DIS CAZ7
 BAR2 EZ EP       13 6 53.50                             160   -0.0310 38.0 155 
 BAR2 EZ I        13 6 53.67        13.6 0.10            160           38.0 155 
 BAR2 EZ ES       13 7  5.97                             160    0.0210 38.0 155 
 BRR  HZ EP       13 6 53.58                             155   -0.0810 48.1 298 
 BRR  HN ES       13 7  6.22                             155    0.0410 48.1 298 
 OCA  HZ EP       13 7  2.36                             123    0.22 9  148   0 
 OCA  HN ES       13 7 21.15                             123   -0.12 9  148   0 
 ZAR  HZ EP       13 7  5.40                             117   -0.11 9  181 291 
 ZAR  HN ES       13 7 27.34                             117    0.07 9  181 291 
 ZAR  HZ I        13 7 29.42         3.8 0.30            116            181 291 
                                                                                
