 2011  610 1855 27.9 L   6.848 -73.303121.0  RSN  9 0.3 2.7LRSN                1
 GAP=104        0.55       2.3     3.7  4.3 -0.2913E+01  0.2615E+01 -0.4110E+00E
 Epicentro: ZAPATOCA - SANTANDER                                               3
 ACTION:UP  11-07-14 19:04 OP:ep   STATUS:               ID:20110610185527 L   I
 2011-06-10-1853-30S.COL___132                                                 6
 STAT SP IPHASW D HRMM SECON CODA AMPLIT PERI AZIMU VELO SNR AR TRES W  DIS CAZ7
 BAR2 SZ EP   1   1855 44.85                             165     0.0 7   31 155 
 BAR2 SZ ES   1   1855 57.72                             165    -0.3 7   31 155 
 BAR2 SZ I        1855 59.30       363.5 0.23                            31 155 
 BRR  HZ EP   1   1855 45.27                             155    -0.2 7   54 302 
 BRR  HE ES   1   1855 59.39                             155     0.3 7   54 302 
 BRR  HZ I        1856  0.08       106.0 0.11                            54 302 
 PAM  SZ EP   1   1855 48.01                             143    -0.2 7   86  51 
 PAM  SN ES   2   1856  4.61                             143     0.6 5   86  51 
 RUS  HZ EP   1   1855 49.88                             136    -0.1 7  108 167 
 RUS  HE ES   1   1856  7.25                             136     0.0 7  108 167 
 BRI  SZ EP   1   1855 49.77                             135     0.0 7  111  30 
 BRI  SZ ES   2   1856  7.35                             135     0.5 5  111  30 
 BRI  SZ I        1856 10.54        38.7 0.33                           111  30 
 GRA  SZ EP   1   1855 51.08                             130    -0.1 7  127  26 
 GRA  SZ ES   2   1856  9.38                             130     0.0 5  127  26 
 GRA  SZ I        1856 12.15        61.3 0.49                           127  26 
 OCA  SZ EP   1   1855 53.77                             125     0.0 7  154 359 
 OCA  SZ ES   1   1856 13.66                             125    -0.3 7  154 359 
 OCA  SZ I        1856 14.53       127.6 0.32                           154 359 
 NOR  SZ EP   1   1856  1.58                             114     0.4 6  224 231 
 NOR  SN ES   1   1856 26.86                             114    -0.2 6  224 231 
 PRA  HZ EP   1   1856 20.81                             102     0.5 4  388 207 
                                                                                
