 2014  410 1510 30.9 L   6.818 -73.137144.0  RSN  6 0.5 2.0LRSN                1
 GAP=202        0.97       4.3     7.5  9.1  0.8213E+01 -0.6717E+01 -0.9508E+01E
 Epicentro: LOS SANTOS - SANTANDER                                             3
 ACTION:UPD 14-05-13 23:07 OP:nd   STATUS:               ID:20140410151030 L   I
 OLDACT:REG 14-04-10 20:31 OP:cam  STATUS:               ID:20140410150819     3
 2014-04-10-1508-19M.COL___264                                                 6
 STAT SP IPHASW D HRMM SECON CODA AMPLIT PERI AZIMU VELO AIN AR TRES W  DIS CAZ7
 BRR  HZ EP   2   1510 52.17                             152    0.34 5 71.1 297 
 BRR  HE ES   1   1511  9.25                             152    1.07 8 71.1 297 
 RUS  HZ EP   1   1510 54.79                             143    0.19 7  103 177 
 RUS  HE ES       1511 12.69                             143   -0.4110  103 177 
 PTB  HZ EP   1   1510 57.51                             131   -0.32 7  149 258 
 PTB  HN ES       1511 18.47                             131   -0.38 9  149 258 
 PTB  HZ I        1511 24.26         7.0 0.22            130            149 258 
 SPBC HZ EP       1510 59.45                             128   -0.00 9  165 219 
 SPBC HN ES       1511 21.94                             128    0.20 9  165 219 
 SPBC HZ I        1511 22.79        11.4 0.20            128            165 219 
 SML  HZ EP   1   1511  7.50                             117    0.25 6  242 335 
 SML  HE ES       1511 35.10                             117   -0.52 8  242 335 
 SML  HZ I        1511 38.96         9.4 0.10            117            242 335 
 PRA  HZ EP   1   1511 25.49                             106    0.89 4  394 210 
                                                                                
