 2017  710 1234 21.6 L   6.841 -73.173154.1  RSN  5 0.6 1.6LRSN                1
 GAP=215        1.31       7.9     9.4  9.3 -0.1129E+02  0.2349E+02 -0.1126E+02E
 Epicentro: ZAPATOCA - SANTANDER                                               3
 ACTION:UPD 17-08-30 15:31 OP:rebc STATUS:               ID:20170710123421 L   I
 OLDACT:REG 17-07-10 20:56 OP:lv   STATUS:               ID:20170710122740     3
 2017-07-10-1228-00M.COL___377                                                 6
 STAT SP IPHASW D HRMM SECON CODA AMPLIT PERI AZIMU VELO AIN AR TRES W  DIS CAZ7
 BAR2 EZ EP       1234 42.16                             169   -0.1310 27.6 182 
 BAR2 EZ ES       1234 57.77                             169   -0.6810 27.6 182 
 BAR2 EZ I        1234 59.94        13.4 0.17            165           27.6 182 
 BRR  HZ EP       1234 43.83                             155    0.4610 66.4 296 
 BRR  HN ES       1235  1.22                             155    0.8410 66.4 296 
 BRR  HZ I        1235  2.31         5.7 0.10            152           66.4 296 
 PTB  HZ EP       1234 49.45                             134    0.40 9  146 257 
 PTB  HN ES       1235  9.86                             134   -0.63 9  146 257 
 PTB  HZ I        1235 15.96         2.7 0.02            132            146 257 
 NOR  HZ EP       1234 58.30                             120    0.48 8  235 233 
 NOR  HN ES       1235 25.92                             120   -0.18 8  235 233 
 NOR  HZ I        1235 33.76         2.7 0.27            119            235 233 
 SJC  HZ EP       1235 16.21                             107   -0.56 6  404 327 
 SJC  HN ES       1235 58.93                             107   -0.91 6  404 327 
                                                                                
