 2014  810 1328 39.6 L   6.809 -73.132143.1  RSN  5 0.4 1.6LRSN                1
 GAP=138        1.01       5.1     4.5  8.0  0.1909E+01  0.8970E+01  0.1840E+01E
 Epicentro: LOS SANTOS - SANTANDER                                             3
 ACTION:UPD 14-09-15 21:48 OP:nd   STATUS:               ID:20140810132839 L   I
 OLDACT:DUP 14-08-11 00:50 OP:carl STATUS:               ID:20140810131822d    3
 2014-08-10-1318-20M.COL___251                                                 6
 STAT SP IPHASW D HRMM SECON CODA AMPLIT PERI AZIMU VELO AIN AR TRES W  DIS CAZ7
 BRR  HZ EP       1329  0.88                             152    0.3710 72.1 297 
 BRR  HN ES       1329 17.36                             152    0.5410 72.1 297 
 PAM  SZ EP       1329  1.15                             151   -0.2810 75.6  39 
 PAM  SN ES       1329 18.13                             151   -0.3210 75.6  39 
 PAM  SZ I        1329 21.43         9.8 0.30            155           75.6  39 
 RUS  HZ EP       1329  3.38                             143    0.2210  102 177 
 RUS  HN ES       1329 21.64                             143    0.1110  102 177 
 RUS  HZ I        1329 22.71         2.9 0.22            147            102 177 
 PTB  HZ EP       1329  6.01                             131   -0.50 9  149 259 
 PTB  HN ES       1329 26.89                             131   -0.60 9  149 259 
 PTB  HZ I        1329 34.26         8.2 0.34            132            149 259 
 ZAR  HZ EP       1329 12.51                             122    0.53 9  205 292 
 ZAR  HN ES       1329 37.14                             122   -0.10 9  205 292 
 ZAR  HZ I        1329 43.16         4.9 0.28            123            205 292 
                                                                                
