 2015  510 1805 37.2 L   6.774 -73.094146.9  RSN  4 0.2 1.6LRSN                1
 GAP=144        0.51       2.8     4.1  4.2 -0.2637E+00 -0.1176E+01  0.4035E+00E
 Epicentro: LOS SANTOS - SANTANDER                                             3
 ACTION:UPD 15-09-10 22:03 OP:cam  STATUS:               ID:20150510180537 L   I
 OLDACT:REG 15-05-10 20:57 OP:stll STATUS:               ID:20150510175749     3
 2015-05-10-1757-49M.COL___255                                                 6
 STAT SP IPHASW D HRMM SECON CODA AMPLIT PERI AZIMU VELO AIN AR TRES W  DIS CAZ7
 BAR2 EZ EP       18 5 56.95                             171    0.0510 22.4 206 
 BAR2 EZ ES       18 6 11.94                             171   -0.3610 22.4 206 
 BAR2 EZ I        18 6 14.39         8.0 0.28            169           22.4 206 
 PAM  SZ EP       18 5 59.39                             151   -0.0310 76.2  35 
 PAM  SZ I        18 5 59.67        10.1 0.18            154           76.2  35 
 PAM  SN ES       18 6 16.89                             151    0.1010 76.2  35 
 BRR  HZ EP       18 5 58.75                             151   -0.0410 77.5 298 
 BRR  HN ES       18 6 15.80                             151    0.1310 77.5 298 
 BRR  HZ I        18 6 16.53         8.4 0.30            153           77.5 298 
 RUS  HZ EP       18 6  0.69                             145   -0.1110 97.5 179 
 RUS  HN ES       18 6 19.49                             145    0.2510 97.5 179 
 RUS  HZ I        18 6 22.15         3.8 0.30            145           97.5 179 
                                                                                
