 2012  810 1119 51.8 L   7.454 -73.369114.5  RSN  5 0.2 1.7LRSN                1
 GAP=164        0.56       2.7     3.8  5.7 -0.1228E+01  0.6453E+01 -0.1934E+01E
 Epicentro: SABANA DE TORRES - SANTANDER                                       3
 ACTION:UPD 12-09-10 11:55 OP:ep   STATUS:               ID:20120810111951 L   I
 2012-08-10-1114-35M.COL___207                                                 6
 STAT SP IPHASW D HRMM SECON CODA AMPLIT PERI AZIMU VELO AIN AR TRES W  DIS CAZ7
 BRR  HZ EP   1   1120  8.76                             153    0.14 7 53.9 225 
 BRR  HN ES       1120 21.49                             153   -0.2310 53.9 225 
 BRR  HZ I        1120 24.09         7.7 0.18                          53.9 225 
 OCA  HZ EP   1   1120 11.25                             140    0.17 7 87.0   4 
 OCA  HN ES   1   1120 26.06                             140   -0.04 7 87.0   4 
 OCA  HZ I        1120 29.35        16.3 0.34                          87.0   4 
 BAR2 SZ ES       1120 27.94                             137    0.1310 97.5 168 
 BAR2 SZ I        1120 29.16        12.4 0.20                          97.5 168 
 PTB  HZ EP       1120 17.04                             122   -0.36 9  157 230 
 PTB  HZ I        1120 26.35         4.4 0.76                           157 230 
 PTB  HE ES   1   1120 37.75                             122    0.40 7  157 230 
 ZAR  HE ES   1   1120 38.85                             120    0.15 7  164 272 
 ZAR  HZ I        1120 40.79        11.4 0.04                           164 272 
                                                                                
