 2014  110 1410 21.6 L   6.806 -73.137137.6  RSN  7 0.6 1.4LRSN                1
 GAP=137        1.43       6.0     6.6  9.0 -0.6114E+01  0.1299E+02  0.1615E+02E
 Epicentro: LOS SANTOS - SANTANDER                                             3
 ACTION:UPD 14-03-13 09:54 OP:ep   STATUS:               ID:20140110141021 L   I
 OLDACT:REG 14-01-10 15:47 OP:stll STATUS:               ID:20140110140813     3
 2014-01-10-1408-13M.COL___243                                                 6
 STAT SP IPHASW D HRMM SECON CODA AMPLIT PERI AZIMU VELO AIN AR TRES W  DIS CAZ7
 BAR2 SZ EP       1410 40.58                             170    0.3310 24.1 192 
 BAR2 SZ ES       1410 54.94                             170    0.1310 24.1 192 
 BAR2 SZ I        1410 56.63         8.6 0.38            168           24.1 192 
 BRR  HZ EP       1410 42.31                             151    0.4210 71.8 298 
 BRR  HN ES       1410 58.61                             151    0.8810 71.8 298 
 BRR  HZ I        1410 59.95         5.8 0.20            151           71.8 298 
 PAM  SZ EP       1410 43.45                             150    0.5810 76.3  39 
 PAM  SN ES       1410 58.21                             150   -1.2610 76.3  39 
 RUS  HZ EP       1410 44.58                             142   -0.0010  101 177 
 RUS  HN ES       1411  2.44                             142   -0.0810  101 177 
 RUS  HZ I        1411  5.30         2.1 0.30            143            101 177 
 PTB  HZ EP       1410 47.48                             130   -0.52 9  149 259 
 PTB  HN ES       1411  8.16                             130   -0.45 9  149 259 
 PTB  HZ I        1411 13.07         4.7 0.10            130            149 259 
 CHI  HZ EP       1410 58.92                             115   -0.02 8  249 195 
 CHI  HZ I        1411  1.15         1.5 0.52            116            249 195 
 CHI  HN ES       1411 28.52                             115    0.45 8  249 195 
 GUY2CHZ EP       1411  5.06                             111    0.10 7  302 235 
 GUY2CHN ES       1411 37.88                             111   -0.91 7  302 235 
 GUY2CHZ I        1411 48.48         1.8 0.42                           302 235 
                                                                                
