 2016 1210 1921 32.4 L   6.679 -73.189142.0  RSN  5 0.5 1.6LRSN                1
 GAP=223        1.13       8.3     7.8  8.3  0.3967E+02  0.1229E+02 -0.3153E+01E
 Epicentro: VILLANUEVA - SANTANDER                                             3
 ACTION:UPD 17-01-11 20:13 OP:rebc STATUS:               ID:20161210192132 L   I
 OLDACT:REG 16-12-10 21:00 OP:dnl  STATUS:               ID:20161210191748     3
 2016-12-10-1918-00M.COL___379                                                 6
 STAT SP IPHASW D HRMM SECON CODA AMPLIT PERI AZIMU VELO AIN AR TRES W  DIS CAZ7
 BAR2 EZ EP       1921 51.30                             176   -0.1010 9.68 175 
 BAR2 EZ ES       1922  6.56                             176    0.3610 9.68 175 
 BAR2 EZ I        1922  7.41         9.5 0.38            169           9.68 175 
 BRR  HZ EP       1921 52.76                             151   -0.6110 74.7 309 
 BRR  HN ES       1922  9.81                             151    0.1010 74.7 309 
 BRR  HZ I        1922 15.03        15.2 0.46            149           74.7 309 
 RUS  HZ EP       1921 55.21                             147    0.3010 87.8 172 
 RUS  HE ES       1922 12.11                             147   -0.3410 87.8 172 
 RUS  HZ I        1922 15.65         2.0 0.54            147           87.8 172 
 PTB  HZ EP       1921 58.16                             133   -0.31 9  141 264 
 PTB  HN ES       1922 19.06                             133    0.27 9  141 264 
 PTB  HZ I        1922 25.97         5.3 0.44            131            141 264 
 ZAR  HZ EP       1922  5.74                             121    1.00 9  205 296 
 ZAR  HN ES       1922 29.42                             121   -0.52 9  205 296 
 ZAR  HZ I        1922 35.26         4.6 0.34            122            205 296 
                                                                                
