 2015  210 1211 10.8 L   6.810 -73.148143.1  RSN  8 0.5 1.9LRSN                1
 GAP=136        1.06       3.7     4.8  6.2 -0.3761E+01  0.9048E+01 -0.1444E+01E
 Epicentro: LOS SANTOS - SANTANDER                                             3
 ACTION:UPD 15-04-30 21:24 OP:nd   STATUS:               ID:20150210121110 L   I
 OLDACT:ARG 15-02-10 21:07 OP:stll STATUS:               ID:20150210120744     3
 2015-02-10-1207-44M.COL___284                                                 6
 STAT SP IPHASW D HRMM SECON CODA AMPLIT PERI AZIMU VELO AIN AR TRES W  DIS CAZ7
 BAR2 EZ EP       1211 30.07                             170   -0.0210 24.4 189 
 BAR2 EZ ES       1211 45.17                             170    0.0010 24.4 189 
 BAR2 EZ I        1211 46.61        13.2 0.44            169           24.4 189 
 BRR  HZ EP       1211 31.86                             152    0.2910 70.4 298 
 BRR  HZ I        1211 32.15        18.9 0.24            151           70.4 298 
 BRR  HN ES       1211 47.84                             152    0.0310 70.4 298 
 PAM  SZ EP       1211 32.81                             150    0.1610 76.7  40 
 PAM  SN ES       1211 50.00                             150    0.2810 76.7  40 
 RUS  HZ EP       1211 34.12                             143   -0.2110  102 176 
 RUS  HN ES       1211 52.61                             143   -0.1110  102 176 
 RUS  HZ I        1211 54.47         6.3 0.44            144            102 176 
 PTB  HZ EP       1211 37.02                             131   -0.49 9  148 258 
 PTB  HN ES       1211 57.83                             131   -0.54 9  148 258 
 PTB  HZ I        1212  1.31         8.8 0.16            131            148 258 
 SPBC HZ EP       1211 39.23                             128    0.11 9  164 219 
 SPBC HE ES       1212  1.01                             128   -0.24 9  164 219 
 SPBC HZ I        1212  8.02        12.5 0.28            128            164 219 
 SML  HZ EP       1211 46.08                             117   -1.03 8  243 335 
 SML  HN ES       1212 15.94                             117    0.48 8  243 335 
 SML  HZ I        1212 19.68         9.8 0.10            118            243 335 
 GUY2CHZ EP       1211 55.23                             112    0.94 7  302 235 
 GUY2CHN ES       1212 29.15                             112    0.90 7  302 235 
 GUY2CHZ I        1212 35.54         2.7 0.56                           302 235 
                                                                                
