 2016  910 1503 59.0 L   6.769 -73.153143.9  RSN  8 0.3 1.6LRSN                1
 GAP=137        0.81       3.5     3.4  4.9 -0.5719E+00  0.5560E+01  0.1732E+01E
 Epicentro: LOS SANTOS - SANTANDER                                             3
 ACTION:UPD 17-08-17 21:08 OP:lp   STATUS:               ID:20160910150359 L   I
 OLDACT:REG 16-09-10 21:18 OP:lv   STATUS:               ID:20160910145737     3
 2016-09-10-1458-00M.COL___336                                                 6
 STAT SP IPHASW D HRMM SECON CODA AMPLIT PERI AZIMU VELO AIN AR TRES W  DIS CAZ7
 BAR2 EZ EP       15 4 18.12                             172   -0.1810 19.8 189 
 BAR2 EZ ES       15 4 33.43                             172    0.0410 19.8 189 
 BAR2 EZ I        15 4 34.42         8.6 0.20            173           19.8 189 
 BRR  HZ EP       15 4 20.23                             152    0.2610 72.2 301 
 BRR  HE ES       15 4 36.48                             152    0.1310 72.2 301 
 BRR  HZ I        15 4 38.20        11.2 0.20            151           72.2 301 
 PAM  EZ EP       15 4 21.29                             149    0.1210 80.5  38 
 PAM  EN ES       15 4 38.52                             149    0.0210 80.5  38 
 PAM  EZ I        15 4 41.57         7.1 0.34            151           80.5  38 
 RUS  HZ EP       15 4 21.94                             144   -0.3410 97.2 175 
 RUS  HN ES       15 4 40.60                             144    0.1210 97.2 175 
 RUS  HZ I        15 4 41.44         3.9 0.36            146           97.2 175 
 PTB  HZ EP       15 4 24.86                             132   -0.79 9  146 260 
 PTB  HN ES       15 4 46.17                             132   -0.29 9  146 260 
 PTB  HZ I        15 4 46.58         5.1 0.14            132            146 260 
 ZAR  HZ EP       15 4 31.35                             122    0.01 9  205 293 
 ZAR  HN ES       15 4 56.65                             122    0.04 9  205 293 
 ZAR  HZ I        15 5  2.41         6.2 0.24            122            205 293 
 NOR  HZ EP       15 4 34.49                             118    0.19 8  232 235 
 NOR  HN ES       15 5  2.15                             118    0.29 8  232 235 
 NOR  HZ I        15 5  7.10         3.0 0.13            119            232 235 
 GUY2CHZ EP       15 4 42.98                             112    0.80 7  299 235 
 GUY2CHN ES   4   15 5 17.94                             112    2.04 0  299 235 
 GUY2CHZ I        15 5 24.57         3.1 0.64                           299 235 
                                                                                
