 2017  810 1809 22.3 L   6.825 -73.136139.0  RSN  8 0.6 1.8LRSN                1
 GAP=136        1.47       5.4     6.6  8.9  0.3154E+00  0.1736E+02  0.8449E+01E
 Epicentro: LOS SANTOS - SANTANDER                                             3
 ACTION:UPD 17-09-04 20:18 OP:rebc STATUS:               ID:20170810180922 L   I
 OLDACT:REG 17-08-10 21:14 OP:dani STATUS:               ID:20170810180743     3
 2017-08-10-1808-00M.COL___411                                                 6
 STAT SP IPHASW D HRMM SECON CODA AMPLIT PERI AZIMU VELO AIN AR TRES W  DIS CAZ7
 BAR2 EZ IP     D 18 9 40.79                             169   -0.4310 26.2 191 
 BAR2 EZ ES       18 9 55.41                             169   -0.5410 26.2 191 
 BAR2 EZ I        18 9 57.29        12.0 0.27            167           26.2 191 
 BRR  HZ IP     C 18 9 42.55                             151   -0.1910 70.9 296 
 BRR  HZ EP       18 9 43.59                             151    0.8510 70.9 296 
 BRR  HN ES       18 9 59.06                             151    0.4010 70.9 296 
 BRR  HZ I        1810  3.24        12.2 0.11            150           70.9 296 
 PAM  EZ IP     C 18 9 43.68                             151    0.0110 74.6  40 
 PAM  EN ES       1810  0.33                             151    0.0210 74.6  40 
 PAM  EZ I        1810  2.49         8.8 0.44            155           74.6  40 
 RUS  HZ EP       18 9 45.34                             142   -0.3010  103 177 
 RUS  HE ES       1810  4.04                             142    0.2410  103 177 
 RUS  HZ I        1810  5.09         6.2 0.21            143            103 177 
 ZAR  HZ EP       18 9 55.18                             121    0.83 9  204 291 
 ZAR  HN ES       1810 18.76                             121   -0.55 9  204 291 
 ZAR  HZ I        1810 26.39        10.4 0.15            121            204 291 
 NOR  HZ EP       18 9 57.48                             117   -0.47 8  237 234 
 NOR  HN ES       1810 25.24                             117   -0.49 8  237 234 
 NOR  HZ I        1810 29.33         6.4 0.16            118            237 234 
 CHI  HZ EP       18 9 59.21                             115   -0.78 8  252 195 
 CHI  HN ES       1810 30.77                             115    1.40 8  252 195 
 CHI  HZ I        1810 36.75         3.3 0.40            117            252 195 
 GUY2CHZ EP   9   1810  7.44                             111    1.52 0  304 234 
 GUY2CHE ES       1810 42.51                             110    1.08 7  304 234 
 GUY2CHZ I        1810 49.25         4.2 0.40                           304 234 
                                                                                
