 2013  610 1042 20.0 L   6.781 -73.134148.0  RSN 12 0.5 2.1LRSN                1
 GAP=184        0.89       3.3     4.5  6.0  0.9157E+00  0.3900E+01 -0.1521E+01E
 Epicentro: LOS SANTOS - SANTANDER                                             3
 ACTION:UPD 14-01-08 09:53 OP:ep   STATUS:               ID:20130610104220 L   I
 OLDACT:UP  13-06-10 16:11 OP:mh   STATUS:               ID:20130610103959     3
 OLDACT:UP  13-06-10 16:09 OP:mh   STATUS:               ID:20130610103959     3
 OLDACT:REG 13-06-10 14:12 OP:mh   STATUS:               ID:20130610103959     3
 2013-06-10-1039-59M.COL___261                                                 6
 STAT SP IPHASW D HRMM SECON CODA AMPLIT PERI AZIMU VELO AIN AR TRES W  DIS CAZ7
 BAR2 SZ EP   1   1042 39.85                             171   -0.00 7 21.5 194 
 BAR2 SZ ES   1   1042 54.97                             171   -0.37 7 21.5 194 
 BAR2 SZ I        1042 57.44        12.7 0.52            168           21.5 194 
 BRR  HZ EP       1042 41.71                             152    0.2110 73.4 299 
 BRR  HN ES       1042 59.12                             152    0.8410 73.4 299 
 BRR  HN I        1042 59.30        22.4 0.28            150           73.4 299 
 RUS  HZ EP   1   1042 43.94                             145    0.14 7 98.4 177 
 RUS  HN ES       1043  2.17                             145   -0.2110 98.4 177 
 RUS  HN I        1043  3.86        22.4 0.40            143           98.4 177 
 PTB  HZ EP   1   1042 46.71                             132   -0.51 7  149 260 
 PTB  HN ES   1   1043  7.60                             132   -0.85 7  149 260 
 PTB  HN I        1043  8.86        18.1 0.20            130            149 260 
 OCA  HZ EP       1042 48.41                             130   -0.27 9  163 353 
 OCA  HN ES       1043 11.01                             130   -0.06 9  163 353 
 OCA  HN I        1043 13.25        36.9 0.18            130            163 353 
 ZAR  HZ EP   1   1042 52.96                             123    0.18 6  206 293 
 ZAR  HN ES       1043 18.40                             123    0.04 8  206 293 
 ZAR  HN I        1043 26.30        14.0 0.34            121            206 293 
 NOR  HN ES   2   1043 24.85                             119    1.07 4  235 235 
 NOR  HN I        1043 29.78        18.5 0.18            117            235 235 
 SML  HZ EP   1   1042 56.54                             118   -0.46 6  246 335 
 SML  HN ES   2   1043 25.67                             118   -0.21 4  246 335 
 SML  HZ I        1043 28.20        16.4 0.10            117            246 335 
 CHI  HZ EP   1   1042 58.10                             118    0.48 6  247 196 
 CHI  HE ES   4   1043 23.76                             118   -3.22 0  247 196 
 CHI  HE I        1043 33.64         7.3 0.24            117            247 196 
 HEL  HN ES       1043 31.58                             115   -0.33 8  273 256 
 GUY2CHZ EP   4   1043  4.68                             113    1.00 0  301 235 
 GUY2CHN ES   4   1043 39.37                             113    1.61 0  301 235 
 GUY2CHN I        1043 49.94         4.3 0.56                           301 235 
 PRA  HZ EP   1   1043 14.28                             107    0.84 4  391 210 
 PRA  HN ES   2   1043 55.23                             107    0.09 3  391 210 
 PRA  HN I        1043 59.90         2.5 0.38            106            391 210 
                                                                                
