 2017  510 1752  7.0 L   6.773 -73.139145.6  RSN 12 0.5 2.0LRSN                1
 GAP=113        1.00       3.7     4.0  6.7  0.9199E+00  0.5286E+01  0.5416E+01E
 Epicentro: LOS SANTOS - SANTANDER                                             3
 ACTION:UPD 17-06-16 13:34 OP:jn   STATUS:               ID:20170510175207 L   I
 OLDACT:REG 17-05-10 21:07 OP:lv   STATUS:               ID:20170510174728     3
 2017-05-10-1748-00M.COL___368                                                 6
 STAT SP IPHASW D HRMM SECON CODA AMPLIT PERI AZIMU VELO AIN AR TRES W  DIS CAZ7
 BRR  HZ EP       1752 28.22                             152   -0.0510 73.3 300 
 BRR  HE ES       1752 45.48                             152    0.6410 73.3 300 
 BRR  HZ I        1752 49.98        17.8 0.06            150           73.3 300 
 PAM  EZ EP       1752 29.19                             151   -0.1310 79.2  38 
 PAM  EN ES       1752 46.36                             151   -0.3710 79.2  38 
 PAM  EZ I        1752 48.57        18.8 0.30            156           79.2  38 
 RUS  HZ EP       1752 30.30                             145   -0.2310 97.6 176 
 RUS  HN ES       1752 48.47                             145   -0.4110 97.6 176 
 RUS  HZ I        1752 49.95        13.5 0.25            146           97.6 176 
 PTB  HZ EP       1752 33.36                             132   -0.63 9  148 260 
 PTB  HN ES   4   1752 53.67                             132   -1.36 0  148 260 
 PTB  HZ I        1752 59.83        13.3 0.21            132            148 260 
 SPBC HZ EP       1752 35.30                             129   -0.03 9  161 220 
 SPBC HN ES   1   1752 57.65                             129    0.23 7  161 220 
 SPBC HZ I        1752 59.88        20.6 0.19            130            161 220 
 YPLC HZ EP       1752 36.71                             127    0.20 9  174 151 
 YPLC HN ES       1753  0.41                             127    0.90 9  174 151 
 YPLC HZ I        1753  1.36        14.0 0.11            131            174 151 
 ZAR  HZ EP   2   1752 40.51                             122    0.87 4  206 293 
 ZAR  HN ES   1   1753  5.09                             122    0.01 6  206 293 
 ZAR  HZ I        1753 10.37         8.0 0.10            123            206 293 
 NOR  HZ EP       1752 42.81                             119    0.19 8  234 235 
 NOR  HN ES       1753 10.43                             119    0.04 8  234 235 
 CHI  HZ EP   2   1752 43.50                             118   -0.91 4  246 196 
 CHI  HN ES   2   1753 12.65                             118   -0.94 4  246 196 
 CHI  HZ I        1753 17.88         5.2 0.29            119            246 196 
 ROSC BZ EP   9   1752 46.94                             117    2.05 0  251 212 
 ROSC BN ES       1753 16.90                                    0.41 8  251 212 
 ROSC BZ I        1753 22.36         8.0 0.55            118            251 212 
 HEL  HZ EP   4   1752 48.74                             115    1.52 0  272 256 
 HEL  HE ES   4   1753 17.14                             115   -1.44 0  272 256 
 HEL  HZ I        1753 25.12         9.6 0.41            116            272 256 
 CBOC HZ EP   4   1752 55.32                             110    1.42 0  333 253 
 CBOC HN ES   4   1753 28.12                             110   -2.35 0  333 253 
 ORTC HZ EP   2   1753  1.98                             107    1.28 3  393 217 
 SJC  HZ EP   4   1753  1.01                             106   -1.90 0  412 327 
 SJC  HN ES   4   1753 42.52                             106   -3.99 0  412 327 
                                                                                
