 2010 1110 1059 22.3 L   6.739 -73.089147.7  RSN 10 0.4 2.2LRSN                1
 GAP=166        0.71       3.6     6.0  5.8 -0.2233E+01  0.5497E+01 -0.5267E+01E
 Epicentro: JORDAN - SANTANDER                                                 3
 ACTION:UP  10-12-17 16:51 OP:REBC STATUS:               ID:20101110105922 L   I
 2010-11-10-1057-09S.COL___128                                                 6
 STAT SP IPHASW D HRMM SECON CODA AMPLIT PERI AZIMU VELO SNR AR TRES W  DIS CAZ7
 BAR2 SZ EP       1059 42.16                             172     0.110   19 213 
 BAR2 SZ ES   1   1059 57.49                             172     0.0 7   19 213 
 BAR2 SZ I        1059 58.33        30.6 0.39                            19 213 
 GIR2 SZ EP   2   1059 41.48                             164    -0.9 5   39 343 
 BRR  HZ EP   1   1059 44.20                             150     0.0 7   80 301 
 BRR  HN ES   1   11 0  1.53                             150     0.3 7   80 301 
 BRR  HZ I        11 0  3.28        34.6 0.08                            80 301 
 RUS  HZ EP   1   1059 45.99                             146     0.3 7   94 180 
 RUS  HN ES       11 0  3.92                             146    -0.110   94 180 
 RUS  HZ I        11 0  5.74        24.2 0.36                            94 180 
 GRA  SZ EP   1   1059 48.40                             136     0.3 7  131  14 
 GRA  SZ I        11 0 15.31        13.2 0.14                           131  14 
 OCA  SZ EP       1059 51.49                             129     0.0 9  168 351 
 OCA  SZ ES   2   11 0 13.23                             129    -1.0 5  168 351 
 OCA  SZ I        11 0 17.72        17.2 0.50                           168 351 
 NOR  SZ EP   2   1059 57.72                             119    -0.6 4  236 237 
 NOR  SE ES   2   11 0 26.62                             119     0.2 4  236 237 
 HEL  HZ EP   2   11 0  3.63                             115     0.5 4  277 257 
 HEL  HE ES   2   11 0 34.62                             115    -0.3 4  277 257 
 HEL  HZ I        11 0 41.42         8.6 0.54                           277 257 
 RREF HZ EP   2   11 0  9.04                             111     0.5 3  322 231 
 RREF HZ I        11 0 51.48        13.2 0.51                           322 231 
 PRA  HZ EP   2   11 0 15.47                             107    -0.1 3  389 211 
 PRA  HN ES   2   11 0 56.19                             107    -0.9 3  389 211 
                                                                                
