 2013 1010 1031 13.7 L   6.487 -73.906 75.1  RSN  9 0.4 1.7LRSN                1
 GAP=100        0.88       2.7     2.3  6.6  0.5402E+00  0.2498E+01  0.1603E+01E
 Epicentro: CIMITARRA - SANTANDER                                              3
 ACTION:UPD 13-11-25 09:20 OP:ep   STATUS:               ID:20131010103113 L   I
 OLDACT:REG 13-10-10 16:06 OP:nd   STATUS:               ID:20131010102959     3
 2013-10-10-1029-59M.COL___273                                                 6
 STAT SP IPHASW D HRMM SECON CODA AMPLIT PERI AZIMU VELO AIN AR TRES W  DIS CAZ7
 PTB  HZ EP       1031 26.70                             137   -0.3610 61.1 275 
 PTB  HN ES       1031 37.39                             137   -0.0610 61.1 275 
 PTB  HZ I        1031 37.95        28.6 0.12            129           61.1 275 
 BRR  HZ IP     C 1031 27.86                             131   -0.1210 71.8  17 
 BRR  HN ES       1031 39.23                             131    0.1410 71.8  17 
 BRR  HZ I        1031 40.62        27.0 0.14            125           71.8  17 
 BAR2 SZ EP       1031 29.23                             128    0.0710 80.9  82 
 BAR2 SZ ES       1031 41.34                             128    0.1610 80.9  82 
 BAR2 SZ I        1031 42.83        25.8 0.12            120           80.9  82 
 RUS  HZ EP       1031 32.58                             118   -0.1610  112 126 
 RUS  HN ES       1031 47.48                             118   -0.0710  112 126 
 RUS  HZ I        1031 48.88         4.5 0.14            110            112 126 
 NOR  HZ EP       1031 37.13                             111    0.99 9  148 226 
 NOR  HN ES       1031 53.07                             111   -0.54 9  148 226 
 NOR  HZ I        1031 57.12        11.7 0.14            104            148 226 
 ZAR  HZ EP       1031 36.74                             110    0.03 9  153 317 
 ZAR  HN ES       1031 54.82                             110    0.20 9  153 317 
 ZAR  HZ I        1031 56.36        13.8 0.42            104            153 317 
 CHI  HZ EP   4   1031 44.18                             104    0.68 0  206 175 
 CHI  HN ES   4   1032  9.94                             104    3.22 0  206 175 
 CHI  HZ I        1032 18.51         2.2 0.30             99            206 175 
 GUY2CHZ EP   4   1031 45.88                             104    1.44 0  214 229 
 GUY2CHN ES   4   1032 11.21                             104    2.82 0  214 229 
 GUY2CHZ I        1032 17.20         3.2 0.28                           214 229 
 URE  HZ EP   4   1031 44.28                             102   -1.29 0  228 308 
 URE  HN ES   4   1032  6.39                             102   -4.01 0  228 308 
 SML  HZ EP       1031 48.88                             101   -0.16 8  257 356 
 SML  HN ES   2   1032 15.91                             101   -0.66 4  257 356 
 SML  HZ I        1032 23.23         7.8 0.24             97            257 356 
                                                                                
