 2017  710 1405 19.3 L   6.847 -74.034 76.9  RSN  6 0.4 1.4LRSN                1
 GAP=103        1.09       3.6     3.4  8.5 -0.1807E-02  0.6294E+01  0.6981E+01E
 Epicentro: PUERTO PARRA - SANTANDER                                           3
 ACTION:UPD 17-08-30 15:31 OP:rebc STATUS:               ID:20170710140519 L   I
 OLDACT:REG 17-07-10 21:12 OP:lv   STATUS:               ID:20170710135741     3
 2017-07-10-1358-00M.COL___380                                                 6
 STAT SP IPHASW D HRMM SECON CODA AMPLIT PERI AZIMU VELO AIN AR TRES W  DIS CAZ7
 BRR  HZ EP       14 5 31.31                             146   -0.2410 45.7  51 
 BRR  HN ES       14 5 41.78                             146    0.6510 45.7  51 
 BRR  HZ I        14 5 42.72        10.2 0.12            146           45.7  51 
 PTB  HZ EP       14 5 31.93                             140   -0.5410 57.8 234 
 PTB  HN ES       14 5 42.41                             140   -0.3610 57.8 234 
 BAR2 EZ EP       14 5 36.28                             123   -0.2710 98.2 107 
 BAR2 EZ ES       14 5 49.92                             123   -0.1110 98.2 107 
 BAR2 EZ I        14 5 51.75         7.2 0.20            125           98.2 107 
 ZAR  HZ EP       14 5 37.79                             118   -0.3210  116 308 
 ZAR  HE ES       14 5 53.03                             118    0.2310  116 308 
 ZAR  HZ I        14 5 55.12         8.2 0.23            119            116 308 
 SPBC HN ES       14 5 56.25                             115    0.0210  132 182 
 NOR  HZ EP       14 5 45.14                             109    0.88 9  169 213 
 NOR  HN ES       14 6  4.05                             109    0.29 9  169 213 
                                                                                
