 2017  110 1941 27.9 L   6.786 -73.135144.5  RSN  4 0.3 1.5LRSN                1
 GAP=139        0.52       2.7     4.1  5.0 -0.8449E+00 -0.5519E+00  0.3209E+01E
 Epicentro: LOS SANTOS - SANTANDER                                             3
 ACTION:UPD 17-05-22 15:57 OP:jn   STATUS:               ID:20170110194127 L   I
 OLDACT:REG 17-01-10 23:14 OP:ar   STATUS:               ID:20170110193759     3
 2017-01-10-1937-59S.COL___321                                                 6
 STAT SP IPHASW D HRMM SECON CODA AMPLIT PERI AZIMU VELO AIN AR TRES W  DIS CAZ7
 BRR  HZ EP       1941 48.85                             152   -0.1810 73.0 299 
 BRR  HE ES       1942  5.59                             152    0.0910 73.0 299 
 PAM  EZ EP       1941 50.06                             150    0.0310 77.9  38 
 PAM  EN ES       1942  7.37                             150    0.0910 77.9  38 
 PAM  EZ I        1942  9.16         9.1 0.52            152           77.9  38 
 RUS  HZ EP       1941 51.47                             144    0.0410 98.9 177 
 RUS  HN ES       1942  9.55                             144   -0.2110 98.9 177 
 RUS  HZ I        1942 11.03         3.1 0.38            143           98.9 177 
 CHI  HZ EP   2   1942  5.37                             117   -0.04 4  247 196 
 CHI  HN ES   2   1942 35.65                             117    0.99 4  247 196 
 CHI  HZ I        1942 38.57         2.3 0.34            117            247 196 
                                                                                
