 2010  810 1238 47.1 L   6.794 -73.041142.0  RSN  9 0.4 1.9LRSN                1
 GAP=170        0.98       5.2     9.1  8.7 -0.1876E+02 -0.2224E+02  0.5267E+01E
 Epicentro: LOS SANTOS - SANTANDER                                             3
 ACTION:UP  10-09-07 10:53 OP:vdl  STATUS:               ID:20100810123847 L   I
 2010-08-10-1235-57S.COL___125                                                 6
 STAT SP IPHASW D HRMM SECON CODA AMPLIT PERI AZIMU VELO SNR AR TRES W  DIS CAZ7
 BAR2 SZ EP       1239  6.42                             168     0.110   27 215 
 BAR2 SZ ES   1   1239 21.22                             168    -0.1 7   27 215 
 BAR2 SZ I        1239 22.43        27.5 0.16                            27 215 
 GIR2 SZ EP   2   1239  6.62                             165     0.2 5   36 332 
 BRR  HZ IP     D 1239  8.34                             148    -0.110   82 295 
 BRR  HZ I        1239  8.89        39.2 0.51                            82 295 
 BRR  HN ES       1239 25.26                             148     0.110   82 295 
 RUS  HZ EP   2   1239 10.14                             143    -0.3 5  100 183 
 RUS  HN ES   2   1239 28.58                             143     0.0 5  100 183 
 RUS  HZ I        1239 29.87         6.0 0.11                           100 183 
 GUE  SZ EP       1239 10.54                             139    -0.810  115   6 
 GUE  SZ ES   3   1239 29.03                             139    -1.2 2  115   6 
 GUE  SZ I        1239 31.29         5.0 0.30                           115   6 
 GRA  SZ EP       1239 12.29                             137     0.510  123  12 
 GRA  SZ ES   1   1239 31.63                             137     0.6 7  123  12 
 GRA  SZ I        1239 32.67        18.8 0.46                           123  12 
 CHI  HN ES   2   1239 54.85                             116     0.5 4  251 198 
 CHI  HZ I        1239 57.51         2.8 0.08                           251 198 
 RREF HN ES   2   1240 10.41                             110    -0.2 3  330 231 
 RREF HZ I        1240 15.04         4.1 0.41                           330 231 
 PRA  HZ EP   2   1239 41.19                                     0.1 3  397 211 
 PRA  HN ES   2   1240 23.71                             106     0.5 3  397 211 
 PRA  HZ I        1240 29.45         4.8 0.25                           397 211 
                                                                                
