 2011 1010 1437 37.5 L   6.775 -73.083144.6  RSN  4 0.1 1.7LRSN                1
 GAP=146        0.29       1.9     2.8  2.8 -0.1422E+00 -0.5805E+00  0.1844E+00E
 Epicentro: LOS SANTOS - SANTANDER                                             3
 ACTION:UPD 12-07-13 16:03 OP:ep   STATUS:               ID:20111010143737 L   I
 2011-10-10-1435-53S.COL___168                                                 6
 STAT SP IPHASW D HRMM SECON CODA AMPLIT PERI AZIMU VELO AIN AR TRES W  DIS CAZ7
 BAR2 SZ EP       1437 56.93                             171   -0.0410 23.0 208 
 BAR2 SZ ES   1   1438 12.09                             171   -0.08 7 23.0 208 
 BAR2 SZ I        1438 12.81         7.3 0.42                          23.0 208 
 PAM  SZ EP       1437 59.54                             151    0.0810 75.4  34 
 PAM  SN ES   1   1438 16.57                             151   -0.04 7 75.4  34 
 BRR  HZ EP       1437 58.92                             150   -0.0210 78.6 298 
 BRR  HZ I        1438 11.34        11.5 0.48                          78.6 298 
 BRR  HN ES   1   1438 15.73                             150    0.05 7 78.6 298 
 RUS  HZ EP       1438  0.86                             144   -0.0510 97.6 180 
 RUS  HN ES   1   1438 19.30                             144    0.12 7 97.6 180 
                                                                                
