 2011  910 1317 23.8 L   6.761 -73.131145.5  RSN  4 0.1 1.7LRSN                1
 GAP=140        0.37       3.2     5.6  6.0 -0.1163E+02  0.2086E+02 -0.6620E+01E
 Epicentro: LOS SANTOS - SANTANDER                                             3
 ACTION:UPD 12-07-13 15:56 OP:ep   STATUS:               ID:20110910131723 L   I
 2011-09-10-1314-40S.COL___136                                                 6
 STAT SP IPHASW D HRMM SECON CODA AMPLIT PERI AZIMU VELO AIN AR TRES W  DIS CAZ7
 GIR2 SZ EP       1317 43.56                             166    0.0110 35.9 349 
 PAM  SZ EP       1317 46.22                             150    0.1110 79.8  37 
 PAM  SZ I        1317 46.54         9.6 0.17                          79.8  37 
 PAM  SN ES   1   1318  3.37                             150   -0.16 7 79.8  37 
 RUS  HZ EP   1   1317 47.27                             145    0.08 7 96.1 177 
 RUS  HN ES   1   1318  5.43                             145   -0.01 7 96.1 177 
 RUS  HZ I        1318  7.33         9.9 0.24                          96.1 177 
 NOR  SZ EP   1   1317 59.09                             118   -0.28 6  234 236 
 NOR  SN ES   2   1318 27.36                             118    0.23 4  234 236 
                                                                                
