 2011  210 1911 41.7 L   6.731 -73.149144.8  RSN  4 0.3 1.7LRSN                1
 GAP=208        0.78       8.3     9.4 10.9 -0.1965E+02  0.4174E+02 -0.2446E+02E
 Epicentro: JORDAN - SANTANDER                                                 3
 ACTION:UP  11-03-28 15:07 OP:jfem STATUS:               ID:20110210191141 L   I
 2011-02-10-1906-42S.COL___136                                                 6
 STAT SP IPHASW D HRMM SECON CODA AMPLIT PERI AZIMU VELO SNR AR TRES W  DIS CAZ7
 BAR2 SZ EP   1   1912  0.66                             173    -0.4 7   16 194 
 BAR2 SZ ES   1   1912 15.98                             173    -0.2 7   16 194 
 BAR2 SZ I        1912 18.56        18.0 0.13                            16 194 
 BTL  SZ EP   1   1912  1.83                             170     0.6 7   25 328 
 RUS  HZ EP   1   1912  4.62                             146    -0.2 7   93 176 
 RUS  HN ES       1912 23.04                             146     0.210   93 176 
 RUS  HZ I        1912 24.90         5.6 0.26                            93 176 
 NOR  SN ES   1   1912 44.33                             119     0.0 6  230 236 
                                                                                
