 2017  110 1424 49.6 L   6.769 -73.146145.8  RSN  5 0.3 1.5LRSN                1
 GAP=138        0.70       3.7     3.6  5.1 -0.1272E+01  0.2293E+01  0.7657E+00E
 Epicentro: LOS SANTOS - SANTANDER                                             3
 ACTION:UPD 17-05-22 15:57 OP:jn   STATUS:               ID:20170110142449 L   I
 OLDACT:REG 17-01-10 22:57 OP:ar   STATUS:               ID:20170110141759     3
 2017-01-10-1417-59S.COL___321                                                 6
 STAT SP IPHASW D HRMM SECON CODA AMPLIT PERI AZIMU VELO AIN AR TRES W  DIS CAZ7
 BAR2 EZ EP       1425  9.16                             172   -0.0310 20.0 192 
 BAR2 EZ ES       1425 24.31                             172   -0.1510 20.0 192 
 BAR2 EZ I        1425 25.34        15.9 0.38            171           20.0 192 
 BRR  HZ EP       1425 10.96                             152    0.0910 72.9 301 
 BRR  HN ES       1425 27.90                             152    0.4510 72.9 301 
 PAM  EZ EP       1425 11.99                             150   -0.0110 80.0  38 
 PAM  EN ES       1425 29.23                             150   -0.2310 80.0  38 
 PAM  EZ I        1425 31.39         4.8 0.36            153           80.0  38 
 RUS  HZ EP       1425 13.57                             145    0.4410 97.2 176 
 RUS  HN ES       1425 31.39                             145   -0.0810 97.2 176 
 RUS  HZ I        1425 32.89         4.0 0.46            146           97.2 176 
 PTB  HZ EP       1425 16.16                             132   -0.37 9  147 260 
 PTB  HN ES       1425 37.34                             132   -0.19 9  147 260 
 PTB  HZ I        1425 44.11         2.9 0.40            132            147 260 
                                                                                
