 2011  710 1447 55.1 L   6.785 -73.112144.4  RSN  8 0.2 1.7LRSN                1
 GAP=159        0.47       2.1     3.9  3.9 -0.2500E+01 -0.3079E+00 -0.8552E-01E
 Epicentro: LOS SANTOS - SANTANDER                                             3
 ACTION:UPD 12-07-25 13:59 OP:epov STATUS:               ID:20110710144755 L   I
 2011-07-10-1444-43S.COL___140                                                 6
 STAT SP IPHASW D HRMM SECON CODA AMPLIT PERI AZIMU VELO AIN AR TRES W  DIS CAZ7
 BAR2 SZ EP       1448 14.60                             171    0.0310 22.6 200 
 BAR2 SZ ES   1   1448 30.00                             171    0.26 7 22.6 200 
 BAR2 SZ I        1448 33.16         9.1 0.62                          22.6 200 
 BRR  HZ EP   1   1448 16.37                             151    0.02 7 75.2 298 
 BRR  HZ I        1448 24.91        14.5 0.44                          75.2 298 
 BRR  HE ES   1   1448 32.94                             151    0.02 7 75.2 298 
 RUS  HZ EP   1   1448 18.92                             144    0.32 7 98.7 178 
 RUS  HZ I        1448 19.94         5.6 0.08                          98.7 178 
 RUS  HN ES   1   1448 36.72                             144   -0.19 7 98.7 178 
 BRI  SZ EP   2   1448 18.93                             141    0.03 5  109  19 
 GRA  SZ EP       1448 20.13                             137   -0.1610  126  16 
 GRA  SZ ES   1   1448 39.44                             137   -0.48 7  126  16 
 GRA  SZ I        1448 42.71         7.1 0.52                           126  16 
 OCA  SZ EP   1   1448 23.57                             129    0.05 7  162 352 
 OCA  SZ ES   1   1448 46.04                             129    0.36 7  162 352 
 OCA  SZ I        1448 51.46         8.3 0.31                           162 352 
 NOR  SZ EP   2   1448 31.01                             118    0.03 4  237 235 
 NOR  SE ES   1   1448 58.66                             118   -0.30 6  237 235 
 CHI  HZ EP   1   1448 32.78                             117    0.11 6  248 196 
 CHI  HZ I        1449  7.67         3.2 0.25                           248 196 
                                                                                
