 2012 1210 1318 54.8 L   6.785 -73.151142.1  RSN  5 0.1 2.0LRSN                1
 GAP=140        0.42       2.1     2.7  3.3 -0.2087E+01  0.5221E+00  0.1738E+01E
 Epicentro: LOS SANTOS - SANTANDER                                             3
 ACTION:UPD 13-01-04 14:26 OP:ep   STATUS:               ID:20121210131854 L   I
 2012-12-10-1318-19M.COL___203                                                 6
 STAT SP IPHASW D HRMM SECON CODA AMPLIT PERI AZIMU VELO AIN AR TRES W  DIS CAZ7
 BAR2 SZ EP       1319 13.89                             171   -0.0410 21.6 189 
 BAR2 SZ ES       1319 28.91                             171    0.0410 21.6 189 
 BAR2 SZ I        1319 30.47        31.3 0.24                          21.6 189 
 PAM  SZ EP       1319 16.85                             150    0.1510 79.0  39 
 PAM  SN ES       1319 33.82                             150    0.0110 79.0  39 
 RUS  HZ EP       1319 17.84                             143   -0.2110 99.0 176 
 RUS  HE ES       1319 36.11                             143   -0.0910 99.0 176 
 RUS  HE I        1319 37.54        12.9 0.48                          99.0 176 
 PTB  HE ES       1319 42.07                             131   -0.03 9  147 259 
 PTB  HN I        1319 46.76        19.3 0.60                           147 259 
 CHI  HZ EP       1319 32.00                             116   -0.08 8  247 195 
 CHI  HN ES       1320  1.52                             116    0.34 8  247 195 
 CHI  HN I        1320  8.04         5.1 0.34                           247 195 
                                                                                
