 2017  810 1355 13.2 L   6.731 -73.171154.2  RSN  4 0.4 1.0LRSN                1
 GAP=136        0.95       5.3     8.0  7.6  0.1355E+00 -0.3363E+01  0.6671E+00E
 Epicentro: VILLANUEVA - SANTANDER                                             3
 ACTION:UPD 17-09-04 20:18 OP:rebc STATUS:               ID:20170810135513 L   I
 OLDACT:UP  17-08-10 23:26 OP:dani STATUS:               ID:20170810134743     3
 OLDACT:REG 17-08-10 20:47 OP:dani STATUS:               ID:20170810134743     3
 2017-08-10-1348-00M.COL___408                                                 6
 STAT SP IPHASW D HRMM SECON CODA AMPLIT PERI AZIMU VELO AIN AR TRES W  DIS CAZ7
 BAR2 EZ EP       1355 33.38                             174   -0.3210 15.4 185 
 BAR2 EZ ES       1355 49.05                             174   -0.6510 15.4 185 
 BAR2 EZ I        1355 51.48         2.4 0.36            170           15.4 185 
 BRR  HZ EP       1355 35.48                             153    0.1410 72.8 305 
 BRR  HN ES       1355 52.81                             153    0.2010 72.8 305 
 PAM  EZ EP       1355 36.45                             150   -0.3110 85.1  38 
 PAM  EN ES       1355 55.54                             150    0.4010 85.1  38 
 PAM  EZ I        1356  4.85         2.9 0.20            144           85.1  38 
 RUS  HZ EP       1355 37.48                             147    0.2010 93.2 174 
 RUS  HN ES       1355 56.42                             147    0.3510 93.2 174 
 RUS  HZ I        1355 57.69         1.0 0.35            151           93.2 174 
                                                                                
