 2012  310 1442 50.1 L   6.810 -73.206140.2  RSN  4 0.3 1.2LRSN                1
 GAP=146        0.66       5.3     5.2  9.0 -0.8764E+01  0.9208E+01 -0.1823E+01E
 ACTION:UP  12-03-31 23:18 OP:EP   STATUS:               ID:20120310144250 L   I
 2012-03-10-1440-00M.COL___193                                                 6
 STAT SP IPHASW D HRMM SECON CODA AMPLIT PERI AZIMU VELO SNR AR TRES W  DIS CAZ7
 BAR2 SZ ES   2   1443 24.72                             170     0.8 5   24 174 
 BAR2 SZ I        1443 26.43         6.3 0.28                            24 174 
 PAM  SZ EP   1   1443 11.98                             148     0.0 7   81  44 
 PAM  SE ES   1   1443 28.84                             148    -0.2 7   81  44 
 RUS  HZ EP   1   1443 13.52                             142     0.0 7  102 172 
 RUS  HZ I        1443 16.60         1.6 0.57                           102 172 
 RUS  HE ES   1   1443 31.47                             142    -0.2 7  102 172 
 PTB  HZ EP   2   1443 16.61                             132     0.5 5  141 258 
 PTB  HN ES   1   1443 36.05                             132    -0.3 7  141 258 
                                                                                
