 2010  210 1042 43.9 L   6.777 -72.934147.1  RSN  7 0.4 2.2LRSN                1
 GAP=215        0.61       4.7    11.5  6.8 -0.2876E+02  0.1393E+02  0.7915E+01E
 Epicentro: CEPITA - SANTANDER                                                 3
 ACTION:UP  10-08-24 09:48 OP:vdl  STATUS:               ID:20100210104243 L   I
 2010-02-10-1041-07S.COL___094                                                 6
 STAT SP IPHASW D HRMM SECON CODA AMPLIT PERI AZIMU VELO SNR AR TRES W  DIS CAZ7
 BAR2 SZ EP   1   1043  4.15                             166     0.2 7   34 233 
 BAR2 SZ ES   2   1043 19.13                             166    -0.5 5   34 233 
 GIR2 SZ EP   1   1043  4.23                             163     0.1 7   44 319 
 GIR2 SZ ES   2   1043 20.28                             163     0.4 5   44 319 
 OCA  SZ EP   1   1043 12.79                             129    -0.2 7  167 345 
 OCA  SZ ES   2   1043 35.43                             129    -0.2 5  167 345 
 CHI  HZ EP   1   1043 22.29                             117     0.1 6  253 200 
 CHI  HE ES   2   1043 52.05                             117     0.0 4  253 200 
 CHI  HZ I        1043 57.09         5.4 0.17                           253 200 
 RREF BZ EP   1   1043 31.77                             110    -0.2 5  338 232 
 RREF BE ES   2   1044  9.64                             110     0.1 3  338 232 
 RREF BZ I        1044 13.80         7.1 0.20                           338 232 
 TOL  SZ EP   1   1043 34.92                             109     1.0 5  359 228 
 TOL  SZ ES   2   1044 12.68                             109    -0.3 3  359 228 
 PRA  HZ EP   1   1043 37.66                             106    -1.0 4  402 213 
 PRA  HE ES   2   1044 21.33                             106     0.0 3  402 213 
 PRA  HZ I        1044 26.50         6.4 0.25                           402 213 
                                                                                
