 2013  210 1056  5.4 L   6.762 -73.144147.6  RSN  7 0.4 1.5LRSN                1
 GAP=138        0.82       4.2     4.8  7.4  0.1224E+01  0.9520E+01 -0.3116E+01E
 Epicentro: LOS SANTOS - SANTANDER                                             3
 ACTION:UPD 13-03-12 09:32 OP:ep   STATUS:               ID:20130210105605 L   I
 2013-02-10-1050-00M.COL___241                                                 6
 STAT SP IPHASW D HRMM SECON CODA AMPLIT PERI AZIMU VELO AIN AR TRES W  DIS CAZ7
 BAR2 SZ EP       1056 25.26                             172    0.1010 19.2 193 
 BAR2 SZ I        1056 41.40         8.3 0.20            167           19.2 193 
 BRR  HZ EP       1056 27.18                             152    0.3310 73.4 301 
 BRR  HZ I        1056 27.42        11.0 0.27            152           73.4 301 
 BRR  HN ES   1   1056 43.91                             152    0.31 7 73.4 301 
 PAM  SZ EP       1056 28.24                             150    0.2610 80.6  38 
 PAM  SZ I        1056 28.58         3.9 0.27            151           80.6  38 
 PAM  SN ES       1056 45.22                             150   -0.3910 80.6  38 
 RUS  HZ EP   1   1056 29.44                             145    0.42 7 96.4 176 
 RUS  HN ES   1   1056 47.15                             145   -0.30 7 96.4 176 
 RUS  HN I        1056 48.70         2.9 0.14            140           96.4 176 
 PTB  HZ EP   1   1056 31.99                             132   -0.45 7  147 260 
 PTB  HE ES   2   1056 52.76                             132   -0.79 5  147 260 
 PTB  HZ I        1056 55.24         3.2 0.10            130            147 260 
 ZAR  HN ES   1   1057  4.13                             122    0.46 6  206 293 
 ZAR  HZ I        1057  6.37         2.6 0.13            121            206 293 
 SML  HZ EP       1056 41.97                             117   -0.56 8  248 336 
 SML  HE ES   1   1057 11.54                             117    0.03 6  248 336 
                                                                                
