 2013 1010 1539 16.1 L   6.838 -73.743 18.3  RSN  6 0.2 1.6LRSN                1
 GAP=102        0.60       1.8     1.6  2.5 -0.2410E+00  0.9329E+00  0.1345E+00E
 Epicentro: EL CARMEN DE CHUCURI - SANTANDER                                   3
 ACTION:UPD 13-11-25 09:20 OP:ep   STATUS:               ID:20131010153916 L   I
 OLDACT:REG 13-10-10 19:48 OP:nd   STATUS:               ID:20131010153846     3
 2013-10-10-1538-46M.COL___233                                                 6
 STAT SP IPHASW D HRMM SECON CODA AMPLIT PERI AZIMU VELO AIN AR TRES W  DIS CAZ7
 BRR  HZ IP     D 1539 21.72                             118   -0.0310 29.9   7 
 BRR  HN ES       1539 26.14                             118   -0.0410 29.9   7 
 BRR  HZ I        1539 26.59       101.4 0.10             91           29.9   7 
 BAR2 SZ IP     C 1539 27.15                             103   -0.2610 67.7 114 
 BAR2 SZ ES   4   1539 33.67                             103   -2.59 0 67.7 114 
 BAR2 SZ I        1539 37.36        35.3 0.44             90           67.7 114 
 PTB  HZ IP     D 1539 29.92                             100    0.1010 85.5 247 
 PTB  HN ES       1539 40.56                             100    0.0110 85.5 247 
 PAM  SZ EP       1539 36.94                              56    0.2710  128  64 
 PAM  SN ES   4   1539 54.48                              56    1.73 0  128  64 
 PAM  SZ I        1539 56.22         6.2 0.18             90            128  64 
 RUS  HZ EP       1539 36.57                              97   -0.0510  128 145 
 RUS  HN ES   4   1539 50.71                              97   -1.94 0  128 145 
 RUS  HZ I        1539 54.47         4.0 0.38             90            128 145 
 ZAR  HZ EP       1539 38.34                              56    0.38 9  143 300 
 ZAR  HN ES       1539 54.65                              56   -0.38 9  143 300 
 ZAR  HZ I        1539 57.80        13.4 0.24             90            143 300 
                                                                                
