 2010  510 1024  8.9 L   6.776 -73.108142.9  RSN 10 0.5 2.1LRSN                1
 GAP=160        1.06       4.8    11.3  9.7 -0.1978E+02  0.1748E+02  0.8732E+01E
 Epicentro: LOS SANTOS - SANTANDER                                             3
 ACTION:UP  10-08-24 10:04 OP:vdl  STATUS:               ID:20100510102408 L   I
 2010-05-10-1021-06S.COL___104                                                 6
 STAT SP IPHASW D HRMM SECON CODA AMPLIT PERI AZIMU VELO SNR AR TRES W  DIS CAZ7
 BAR2 SZ IP     D 1024 27.72                             171    -0.510   22 202 
 BAR2 SZ ES   2   1024 43.17                             171     0.0 5   22 202 
 BRR  HZ EP   1   1024 30.35                             150     0.3 7   76 299 
 BRR  HE ES   2   1024 47.26                             150     0.7 5   76 299 
 BRR  HZ I        1024 51.93        40.0 0.13                            76 299 
 RUS  HZ EP       1024 31.99                             144    -0.210   98 178 
 RUS  HN ES   2   1024 50.21                             144    -0.1 5   98 178 
 RUS  HZ I        1024 51.00         8.2 0.23                            98 178 
 BRI  SZ EP   1   1024 33.42                             140     0.8 7  109  18 
 BRI  SZ ES   2   1024 51.41                             140     0.3 5  109  18 
 GUE  SZ EP   1   1024 32.89                             138    -0.6 7  118  10 
 GUE  SZ ES   2   1024 52.34                             138    -0.4 5  118  10 
 GRA  SZ EP   1   1024 34.64                             136     0.6 7  127  15 
 GRA  SZ ES   2   1024 54.29                             136     0.7 5  127  15 
 OCA  SZ EP   1   1024 36.41                             128    -0.9 7  163 352 
 OCA  SZ ES   2   1024 58.69                             128    -0.8 5  163 352 
 OCA  SZ I        1025  1.47        25.7 0.30                           163 352 
 CHI  HZ EP       1024 47.04                             116     0.7 8  247 196 
 CHI  HE ES   2   1025 14.81                             116    -0.7 4  247 196 
 CHI  HZ I        1025 18.37         4.0 0.30                           247 196 
 HEL  HZ EP   1   1024 49.39                             114     0.0 6  276 257 
 PRA  HZ EP   1   1025  2.32                             106     0.0 4  392 210 
 PRA  HE ES   2   1025 44.28                             106     0.3 3  392 210 
 PRA  HZ I        1025 49.93         4.5 0.34                           392 210 
                                                                                
