 2017  210 1223 40.3 L   6.828 -73.347128.0  RSN  5 0.2 1.5LRSN                1
 GAP=104        0.50       2.5     2.2  3.7 -0.4800E+00  0.7882E+00  0.6830E+00E
 Epicentro: ZAPATOCA - SANTANDER                                               3
 ACTION:UPD 17-05-24 15:34 OP:jn   STATUS:               ID:20170210122340 L   I
 OLDACT:UP  17-02-10 22:31 OP:and  STATUS:               ID:20170210121744     3
 OLDACT:UP  17-02-10 22:31 OP:and  STATUS:               ID:20170210121744     3
 OLDACT:REG 17-02-10 20:26 OP:and  STATUS:               ID:20170210121744     3
 2017-02-10-1218-00M.COL___358                                                 6
 STAT SP IPHASW D HRMM SECON CODA AMPLIT PERI AZIMU VELO AIN AR TRES W  DIS CAZ7
 BAR2 EZ IP     C 1223 58.14                             165    0.0810 31.8 145 
 BAR2 EZ ES       1224 11.61                             165   -0.2710 31.8 145 
 BAR2 EZ I        1224 12.50        15.9 0.34            165           31.8 145 
 BRR  HZ EP       1223 58.61                             157    0.1510 50.8 307 
 BRR  HN ES       1224 12.80                             157    0.2110 50.8 307 
 PAM  EZ EP       1224  1.58                             143   -0.0810 91.2  52 
 PAM  EN ES       1224 18.25                             143   -0.0410 91.2  52 
 PAM  EZ I        1224 19.40         3.9 0.11            145           91.2  52 
 RUS  HZ EP       1224  3.10                             138    0.1610  107 164 
 RUS  HN ES       1224 20.66                             138    0.1010  107 164 
 RUS  HZ I        1224 22.57         5.6 0.32            138            107 164 
 PTB  HZ EP       1224  3.62                             132   -0.3210  127 255 
 PTB  HE ES       1224 22.34                             132   -0.0210  127 255 
 PTB  HZ I        1224 25.03         4.1 0.11            133            127 255 
                                                                                
