 2013  510 1219 51.6 L   6.840 -73.132154.8  RSN 17 0.5 3.3LRSN 3.7WRSN        1
 SPEC AVERAGE  MO 14.6 ST127.7 OM  3.5 f0 5.15 R0.3563 AL 4.39 WI 68.1 MW  3.7 3
 SPEC SD       MO  0.3 ST133.0 OM  0.6 f0 1.82 R0.1601 AL      WI      MW  0.2 3
 GAP= 66        1.14       3.4     4.1  5.4 -0.8210E+00  0.3626E+01  0.4051E+01E
 Epicentro: LOS SANTOS - SANTANDER                                             3
 SPEC RUS HH N MO 14.4 ST  8.9 OM  2.7 f0 3.20 R0.4856 AL 2.22 WI 70.3 MW  3.5 3
 SPEC RUS HH N T122034 K 0.000 GD  187 VS 4.20 DE 3.20 Q0300.0 QA 0.60 VS 4.20 3
 SPEC NOR HH N MO 14.8 ST376.9 OM  3.0 f0 7.69 R0.2021 AL 8.67 WI 81.9 MW  3.8 3
 SPEC NOR HH N T122054 K 0.000 GD  284 VS 4.20 DE 3.20 Q0300.0 QA 0.60 VS 4.20 3
 SPEC OCA HH N MO 15.0 ST211.2 OM  3.3 f0 5.49 R0.2831 AL 4.17 WI 67.4 MW  4.0 3
 SPEC OCA HH N T122041 K 0.000 GD  219 VS 4.20 DE 3.20 Q0300.0 QA 0.60 VS 4.20 3
 SPEC PAM SH N MO 14.1 ST 30.1 OM  2.5 f0 5.76 R0.2698 AL 4.29 WI 76.9 MW  3.4 3
 SPEC PAM SH N T122031 K 0.000 GD  171 VS 4.20 DE 3.20 Q0300.0 QA 0.60 VS 4.20 3
 SPEC CHI HH N MO 14.9 ST 11.6 OM  3.0 f0 2.38 R0.6529 AL 2.53 WI 84.2 MW  3.9 3
 SPEC CHI HH N T122058 K 0.000 GD  296 VS 4.20 DE 3.20 Q0300.0 QA 0.60 VS 4.20 3
 SPEC BRR HH N MO 14.6 ST127.4 OM  3.0 f0 6.36 R0.2443 AL 4.48 WI 27.7 MW  3.7 3
 SPEC BRR HH N T122031 K 0.000 GD  170 VS 4.20 DE 3.20 Q0300.0 QA 0.60 VS 4.20 3
 ACTION:UPD 13-06-20 09:49 OP:ep   STATUS:               ID:20130510121951 L   I
 2013-05-10-1218-50M.COL___225                                                 6
 STAT SP IPHASW D HRMM SECON CODA AMPLIT PERI AZIMU VELO AIN AR TRES W  DIS CAZ7
 GIR2 SZ IP     C 1220 12.25                             169   -0.0510 27.2 346 
 GIR2 SZ ES       1220 28.84                             169    0.4310 27.2 346 
 GIR2 SZ I        1220 29.73       214.3 0.24            164           27.2 346 
 BAR2 SZ IP     D 1220 12.13                             169   -0.3310 28.0 192 
 BAR2 SZ ES       1220 27.62                             169   -1.0810 28.0 192 
 BAR2 SZ I        1220 28.98       471.5 0.26            168           28.0 192 
 BRR  HZ IP     C 1220 14.04                             154    0.3010 70.6 295 
 BRR  HZ I        1220 14.34       423.6 0.26            147           70.6 295 
 BRR  HN ES       1220 31.59                             154    0.6110 70.6 295 
 PAM  SZ EP     C 1220 14.96                             154    0.3810 73.0  41 
 PAM  SZ I        1220 15.31       581.3 0.42            152           73.0  41 
 PAM  SN ES       1220 32.46                             154   -0.0210 73.0  41 
 RUS  HZ EP     D 1220 15.99                             144   -0.6110  105 177 
 RUS  HN ES   4   1220 34.74                             144   -1.33 0  105 177 
 RUS  HZ I        1220 35.87       229.7 0.32            143            105 177 
 PTB  HZ EP   1   1220 18.82                             133   -0.76 7  150 257 
 PTB  HZ I        1220 45.84       222.2 0.44            128            150 257 
 TAM  HZ IP     C 1220 20.35                             133    0.32 9  155 107 
 TAM  HN ES       1220 42.17                             133    0.00 9  155 107 
 TAM  HZ I        1220 48.21        91.4 0.60            131            155 107 
 OCA  HZ EP   1   1220 20.32                             132    0.03 7  156 352 
 OCA  HN ES   4   1220 43.15                             132    0.52 0  156 352 
 OCA  HZ I        1220 49.15       174.0 0.36            127            156 352 
 YOP  SZ EP       1220 22.65                             128   -0.02 9  182 154 
 YOP  SN ES   1   1220 47.09                             128    0.21 7  182 154 
 YOP  SZ I        1220 47.68        97.9 0.44            126            182 154 
 NOR  HZ EP     C 1220 28.07                             120   -0.25 8  239 234 
 NOR  HN ES       1220 56.21                             120   -0.72 8  239 234 
 NOR  HZ I        1221  0.33       160.0 0.20            116            239 234 
 SML  HZ EP   1   1220 28.44                             120    0.01 6  240 335 
 SML  HE ES   1   1220 57.38                             120    0.25 6  240 335 
 SML  HZ I        1221  4.66       199.4 0.14            115            240 335 
 CHI  HZ EP       1220 30.19                             118   -0.17 8  253 195 
 CHI  HN ES   1   1221  0.88                             118    0.32 6  253 195 
 CHI  HZ I        1221  3.13        83.5 0.46            115            253 195 
 ROSC BZ EP       1220 31.49                             118    0.72 8  257 211 
 ROSC BN ES       1221  2.55                             118    1.27 8  257 211 
 ROSC BZ I        1221  9.82       225.8 0.45            115            257 211 
 HEL  HZ EP   2   1220 33.41                             116    0.80 4  275 255 
 RREF HZ EP   4   1220 39.88                             112    1.23 0  326 229 
 RREF HN ES   4   1221 17.45                             112    2.13 0  326 229 
 RREF HZ I        1221 20.54       111.0 0.30            109            326 229 
 COD  HZ EP       1220 39.48                             111   -0.42 7  344 354 
 COD  HN ES   1   1221 17.22                             111   -0.32 5  344 354 
 COD  HZ I        1221 29.06        45.4 0.76            107            344 354 
 PRA  HZ EP       1220 45.51                             108   -0.51 6  397 209 
 PRA  HN ES   2   1221 28.52                             108    0.07 3  397 209 
 PRA  HZ I        1221 33.83       122.2 0.32            105            397 209 
                                                                                
