 2012  710 1354 22.8 L   6.751 -73.223138.5  RSN  5 0.4 1.6LRSN                1
 GAP=220        1.05      12.6    12.4 10.7  0.1278E+03  0.4727E+02  0.3552E+02E
 Epicentro: VILLANUEVA - SANTANDER                                             3
 ACTION:UPD 12-08-14 11:44 OP:ep   STATUS:               ID:20120710135422 L   I
 2012-07-10-1350-00M.COL___201                                                 6
 STAT SP IPHASW D HRMM SECON CODA AMPLIT PERI AZIMU VELO AIN AR TRES W  DIS CAZ7
 BAR2 SZ EP       1354 41.09                             172    -0.410   18 166 
 BAR2 SZ ES   1   1354 55.43                             172    -0.6 7   18 166 
 BAR2 SZ I        1354 57.70         9.0 0.25            176             18 166 
 BRR  HZ EP   1   1354 43.48                             153     0.6 7   67 306 
 BRR  HN ES   1   1354 59.18                             153     0.6 7   67 306 
 BRR  HZ I        1355  5.98        17.2 0.24            150             67 306 
 RUS  HZ EP       1354 45.71                             143     0.210   96 171 
 RUS  HZ I        1354 46.90         3.8 0.16            150             96 171 
 RUS  HN ES   1   1355  3.57                             143     0.3 7   96 171 
 PTB  HZ EP       1354 48.19                             132    -0.1 9  138 260 
 ZAR  HN ES       1355 18.44                             121    -0.2 9  198 294 
 ZAR  HZ I        1355 25.10         4.6 0.52            123            198 294 
