 2014  410 1804  6.2 L   6.786 -73.197153.5  RSN  5 0.4 1.6LRSN                1
 GAP=131        0.76       4.5     5.9  9.3  0.7180E+01 -0.1623E+02 -0.1759E+02E
 Epicentro: ZAPATOCA - SANTANDER                                               3
 ACTION:UPD 14-05-13 23:07 OP:nd   STATUS:               ID:20140410180406 L   I
 OLDACT:UP  14-04-10 23:11 OP:cam  STATUS:               ID:20140410175821d    3
 OLDACT:DUP 14-04-10 23:10 OP:cam  STATUS:               ID:20140410175821d    3
 OLDACT:UP  14-04-10 23:09 OP:cam  STATUS:               ID:20140410175820     3
 OLDACT:REG 14-04-10 20:42 OP:cam  STATUS:               ID:20140410175820     3
 2014-04-10-1758-20M.COL___256                                                 6
 STAT SP IPHASW D HRMM SECON CODA AMPLIT PERI AZIMU VELO AIN AR TRES W  DIS CAZ7
 BRR  HZ EP       18 4 28.22                             155    0.2510 67.1 302 
 BRR  HN ES   1   18 4 45.60                             155    0.65 7 67.1 302 
 BRR  HZ I        18 4 49.85        11.5 0.32            156           67.1 302 
 PAM  SZ EP   1   18 4 29.27                             151   -0.25 7 82.2  42 
 RUS  HZ EP   1   18 4 30.89                             146    0.24 7 99.6 173 
 RUS  HE ES   1   18 4 49.32                             146   -0.40 7 99.6 173 
 PTB  HZ EP   1   18 4 33.34                             135    0.04 7  142 259 
 PTB  HN ES       18 4 54.18                             135   -0.26 9  142 259 
 PTB  HZ I        18 4 57.63         3.5 0.18            139            142 259 
 SML  HZ EP   1   18 4 43.51                             119    0.34 6  243 337 
 SML  HE ES       18 5 11.54                             119   -0.47 8  243 337 
                                                                                
