 2014 1210 1809 25.0 L   7.055 -73.170135.5  RSN  5 0.4 1.5LRSN                1
 GAP=117        0.99       3.9     5.4  8.1 -0.1235E+01  0.1778E+02 -0.7954E+01E
 Epicentro: GIRON - SANTANDER                                                  3
 ACTION:UPD 15-02-10 17:02 OP:nd   STATUS:               ID:20141210180925 L   I
 OLDACT:REG 14-12-10 21:56 OP:stll STATUS:               ID:20141210180745     3
 2014-12-10-1807-45M.COL___303                                                 6
 STAT SP IPHASW D HRMM SECON CODA AMPLIT PERI AZIMU VELO AIN AR TRES W  DIS CAZ7
 BAR2 E  EP       18 9 44.74                             158    0.3810 51.2 182 
 BAR2 E  ES       18 9 59.23                             158   -0.2210 51.2 182 
 PAM  SZ EP       18 9 45.50                             155    0.3110 60.7  59 
 PAM  SN ES       1810  1.03                             155    0.1010 60.7  59 
 PAM  SZ I        1810  2.24         4.0 0.20            156           60.7  59 
 RUS  HZ EP       18 9 49.93                             134   -0.1710  129 176 
 RUS  HZ I        18 9 50.56         3.1 0.22            136            129 176 
 RUS  HN ES       1810  9.32                             134   -0.3410  129 176 
 PTB  HZ EP       18 9 51.20                             128   -0.49 9  153 248 
 PTB  HN ES       1810 13.09                             128    0.60 9  153 248 
 PTB  HZ I        1810 14.15         4.5 0.44            129            153 248 
 SML  HZ EP       18 9 58.59                             118    0.39 8  217 333 
 SML  HN ES       1810 23.42                             118   -0.66 8  217 333 
 SML  HZ I        1810 28.20         5.5 0.10            118            217 333 
                                                                                
