 2012  210 1219 14.6 L   6.549 -73.569107.6  RSN 10 0.4 2.2LRSN                1
 GAP= 62        0.88       4.0     3.6  6.7 -0.1343E+01  0.6703E+01  0.8109E+01E
 ACTION:DUP 12-03-07 16:29 OP:epov STATUS:               ID:20120210121915dL   I
 2012-02-10-1212-00S.MAN___181                                                 6
 STAT SP IPHASW D HRMM SECON CODA AMPLIT PERI AZIMU VELO AIN AR TRES W  DIS CAZ7
 BAR2 SZ IP       1219 30.66                             157    0.2710 43.1  84 
 BAR2 SZ ES   1   1219 42.93                             157    0.20 7 43.1  84 
 BRR  HZ EP       1219 31.51                             147    0.2810 63.7 346 
 BRR  HE ES   1   1219 45.02                             147    0.79 7 63.7 346 
 BRR  HZ I        1219 50.49        42.4 0.07                          63.7 346 
 RUS  HZ EP       1219 33.73                             137   -0.2010 90.4 143 
 RUS  HE ES   1   1219 48.93                             137   -0.10 7 90.4 143 
 RUS  HZ I        1219 50.79        32.0 0.18                          90.4 143 
 PTB  HZ EP       1219 33.50                             134   -0.4310 98.1 269 
 PTB  HE ES   1   1219 48.32                             134   -0.72 7 98.1 269 
 PAM  SZ EP   1   1219 37.30                             126   -0.25 7  130  48 
 PAM  SE ES   1   1219 54.95                             126   -0.52 7  130  48 
 ZAR  HZ EP   1   1219 41.74                             116   -0.06 7  176 306 
 ZAR  HZ I        1220  7.22        39.7 0.23                           176 306 
 NOR  SZ EP   1   1219 42.30                             116    0.01 7  181 233 
 NOR  SN ES   1   1220  3.91                             116   -0.01 7  181 233 
 CHI  HZ EP   1   1219 46.33                             112   -0.05 6  213 185 
 CHI  HZ I        1220 16.96         6.4 0.24                           213 185 
 RREF HZ EP   1   1219 54.14                             106    1.10 6  268 227 
 RREF HZ I        1220 29.45        10.4 0.44                           268 227 
 PRA  HZ EP       1220  1.66                             101    0.16 6  346 205 
                                                                                
