 2013 1110 1311 33.6 L   6.757 -73.209144.9  RSN  5 0.5 1.4LRSN                1
 GAP=194        1.09       8.0     8.0  9.7  0.2602E+02  0.1163E+02 -0.1385E+02E
 Epicentro: VILLANUEVA - SANTANDER                                             3
 ACTION:UPD 14-01-09 16:27 OP:ep   STATUS:               ID:20131110131133 L   I
 OLDACT:UP  13-11-10 15:56 OP:jn   STATUS:               ID:20131110131000     3
 OLDACT:REG 13-11-10 14:23 OP:jn   STATUS:               ID:20131110131000     3
 2013-11-10-1310-00M.COL___273                                                 6
 STAT SP IPHASW D HRMM SECON CODA AMPLIT PERI AZIMU VELO AIN AR TRES W  DIS CAZ7
 BAR2 SZ EP   1   1311 52.28                             172   -0.79 7 18.4 171 
 BAR2 SZ ES       1312  8.25                             172    0.0210 18.4 171 
 BAR2 HZ I        1312 18.77        11.0 1.50            166           18.4 171 
 BRR  HZ EP       1311 54.46                             153   -0.0410 67.8 305 
 BRR  HN ES   2   1312 11.94                             153    1.16 5 67.8 305 
 BRR  HZ I        1312 50.57         6.9 0.72            159           67.8 305 
 RUS  HZ EP       1311 57.76                             144    0.7510 96.5 172 
 RUS  HN ES       1312 14.84                             144   -0.4110 96.5 172 
 RUS  HZ I        1312 45.32         5.0 3.44            166           96.5 172 
 PTB  HZ EP       1311 59.94                             133    0.10 9  140 260 
 PTB  HN ES       1312 20.07                             133   -0.21 9  140 260 
 PTB  HZ I        1312 23.80         1.3 0.30            159            140 260 
 SML  HN ES   2   1312 38.60                             117   -0.45 4  245 337 
                                                                                
