 2012  610 1112 18.0 L   6.802 -73.150136.0  RSN  5 0.3 1.5LRSN                1
 GAP=244        0.55       5.0     4.2  6.4  0.7771E+01  0.7891E+01 -0.6484E+01E
 Epicentro: LOS SANTOS - SANTANDER                                             3
 ACTION:UP  12-08-06 17:48 OP:ep   STATUS:               ID:20120610111217 L   I
 2012-06-10-1110-00M.COL___201                                                 6
 STAT SP IPHASW D HRMM SECON CODA AMPLIT PERI AZIMU VELO AIN AR TRES W  DIS CAZ7
 BAR2 SZ EP   1   1112 36.80                             170    0.34 7 23.5 189 
 BAR2 SZ ES   1   1112 50.62                             170   -0.24 7 23.5 189 
 BAR2 SZ I        1112 53.92         5.4 0.16            175           23.5 189 
 RUS  HZ EP   1   1112 40.73                             142   -0.09 7  101 176 
 RUS  HZ I        1112 42.05         4.1 0.13            148            101 176 
 RUS  HN ES   1   1112 58.82                             142    0.19 7  101 176 
 PTB  HZ EP   1   1112 43.62                             130   -0.52 7  147 259 
 PTB  HN ES   1   1113  4.40                             130   -0.14 7  147 259 
 PTB  HZ I        1113  7.26         4.0 0.14            132            147 259 
 ZAR  HZ EP   1   1112 49.81                             120    0.05 6  203 292 
 ZAR  HN ES   1   1113 14.87                             120    0.33 6  203 292 
 ZAR  HZ I        1113 20.42         3.8 0.15            122            203 292 
 NOR  SN ES   1   1113 20.74                             116    0.17 6  234 234 
                                                                                
