 2010  810 1750 35.8 L   6.805 -73.064139.2  RSN 13 0.5 2.4LRSN                1
 GAP=168        1.18       4.0     7.6  8.0 -0.1280E+02  0.4985E+01  0.5781E+01E
 Epicentro: LOS SANTOS - SANTANDER                                             3
 ACTION:UP  10-09-07 10:53 OP:vdl  STATUS:               ID:20100810175035 L   I
 2010-08-10-1746-02S.COL___125                                                 6
 STAT SP IPHASW D HRMM SECON CODA AMPLIT PERI AZIMU VELO SNR AR TRES W  DIS CAZ7
 BAR2 SZ EP       1750 54.70                             169     0.010   27 209 
 BAR2 SZ ES   2   1751  9.41                             169    -0.1 5   27 209 
 BAR2 SZ I        1751 13.26        50.9 0.90                            27 209 
 GIR2 SZ EP   2   1750 55.07                             166     0.3 5   33 335 
 BRR  HZ EP       1750 56.41                             149    -0.310   79 295 
 BRR  HN ES       1751 13.41                             149     0.410   79 295 
 BRR  HZ I        1751 15.80        71.7 1.20                            79 295 
 RUS  HZ EP       1750 58.75                             143    -0.210  101 181 
 RUS  HN ES   1   1751 16.80                             143    -0.2 7  101 181 
 RUS  HZ I        1751 19.33        18.0 0.31                           101 181 
 GUE  SZ EP       1751  0.57                             139     0.810  114   8 
 GUE  SZ ES   2   1751 17.61                             139    -0.8 5  114   8 
 GRA  SZ IP       1751  0.43                             136     0.210  123  14 
 GRA  SZ ES   1   1751 19.17                                    -0.1 7  123  14 
 GRA  SZ I        1751 20.85        21.3 0.17                           123  14 
 OCA  SZ EP       1751  2.94                             128    -0.7 9  161 350 
 OCA  SZ ES   2   1751 24.84                             128    -0.6 5  161 350 
 OCA  SZ I        1751 30.41        25.2 1.39                           161 350 
 CHI  HZ EP   1   1751 13.09                             116    -0.4 6  252 197 
 CHI  HN ES       1751 43.46                             116     0.6 8  252 197 
 CHI  HZ          1751 45.63         9.3 0.48                           252 197 
 ROSC BN ES   1   1751 43.14                             115    -0.9 6  258 213 
 ROSC BZ I        1751 50.12        23.7 0.12                           258 213 
 HEL  HZ EP   1   1751 17.02                                     0.3 6  281 256 
 HEL  HZ I        1751 52.61        12.8 0.31                           281 256 
 RREF HZ EP       1751 23.03                             109     0.5 7  329 230 
 RREF HN ES       1751 59.08                             109     0.2 7  329 230 
 RREF HZ I        1752  6.29        14.0 0.14                           329 230 
 DBB  SZ EP   1   1751 23.53                             108    -0.5 5  348 274 
 PRA  HZ EP   1   1751 30.23                                     0.6 4  397 211 
 PRA  HN ES   1   1752 10.59                             105    -1.1 4  397 211 
 PRA  HZ I        1752 13.81         9.0 0.60                           397 211 
                                                                                
