 2011  110 1224 49.5 L   6.873 -73.171142.3  RSN 15 0.5 2.9LRSN                1
 GAP=134        0.85       3.1     4.9  5.6 -0.3021E+01  0.8253E+01  0.3233E+01E
 Epicentro: ZAPATOCA - SANTANDER                                               3
 ACTION:UP  11-02-08 08:40 OP:pat  STATUS:               ID:20110110122449 L   I
 2011-01-10-1220-00M.COL___136                                                 6
 STAT SP IPHASW D HRMM SECON CODA AMPLIT PERI AZIMU VELO SNR AR TRES W  DIS CAZ7
 BTL  SZ EP   1   1225  8.81                             175     0.3 7   12 295 
 BTL  SZ ES   2   1225 24.07                             175     0.7 5   12 295 
 GIR2 SZ EP   1   1225  8.56                             170     0.0 7   23 354 
 GIR2 SZ ES   2   1225 23.66                             170     0.3 5   23 354 
 BAR2 SZ IP       1225  8.90                             167     0.010   31 183 
 BAR2 SZ ES   1   1225 23.81                             167    -0.2 7   31 183 
 BAR2 SZ I        1225 24.97       235.2 0.30                            31 183 
 RUS  HZ EP   1   1225 13.18                             141    -0.3 7  109 175 
 RUS  HN ES   1   1225 32.00                             141    -0.3 7  109 175 
 RUS  HZ I        1225 33.39        38.8 0.26                           109 175 
 GRA  SZ IP       1225 14.03                             138     0.210  119  20 
 GRA  SZ ES   1   1225 32.84                             138     0.0 7  119  20 
 GRA  SZ I        1225 34.29       213.3 0.23                           119  20 
 OCA  SZ EP   1   1225 16.45                             130    -0.3 7  152 354 
 OCA  SZ ES   1   1225 37.54                             130    -0.4 7  152 354 
 OCA  SZ I        1225 43.15       118.7 0.16                           152 354 
 YOP  SZ IP     D 1225 20.13                             124     0.0 9  188 154 
 YOP  SZ I        1225 21.33        37.8 0.58                           188 154 
 YOP  SN ES   2   1225 44.52                             124     0.5 4  188 154 
 NOR  SZ EP   1   1225 25.28                             117     0.0 6  237 233 
 NOR  SN ES   1   1225 52.23                             117    -1.0 6  237 233 
 CHI  HZ EP   1   1225 27.17                             115    -0.6 6  256 194 
 CHI  HZ I        1226  3.74        30.4 0.30                           256 194 
 ROSC BZ EP   1   1225 28.75                             115     0.7 6  258 210 
 ROSC BN ES   2   1225 58.48                             115     0.4 4  258 210 
 ROSC BZ I        1226  6.94        54.5 0.48                           258 210 
 HEL  HZ EP   1   1225 30.25                             114     0.8 6  271 254 
 HEL  HN ES   1   1226  0.77                             114     0.1 6  271 254 
 HEL  HZ I        1226  8.61        39.7 0.25                           271 254 
 RREF HZ EP   1   1225 36.85                             110     1.0 5  325 228 
 RREF HZ I        1226 20.64        39.4 0.38                           325 228 
 DBB  SZ EP   1   1225 36.10                                    -0.3 5  336 273 
 PRA  HZ EP   1   1225 43.06                             105    -0.5 4  398 209 
 PRA  HN ES   2   1226 26.41                             105     0.7 3  398 209 
 SJA  SZ EP   1   1225 44.21                             105    -0.6 4  407 192 
 SJA  SZ ES   2   1226 27.92                             105     0.0 3  407 192 
 SJA  SZ I        1226 34.50        52.7 0.47                           407 192 
                                                                                
