 2013  210 1723 29.2 L   6.874 -73.301123.8  RSN  8 0.4 2.0LRSN                1
 GAP=105        0.85       3.3     4.2  6.0  0.1471E+01  0.6501E+01 -0.2086E+01E
 Epicentro: BETULIA - SANTANDER                                                3
 ACTION:UPD 13-03-12 09:32 OP:ep   STATUS:               ID:20130210172329 L   I
 2013-02-10-1720-00M.COL___241                                                 6
 STAT SP IPHASW D HRMM SECON CODA AMPLIT PERI AZIMU VELO AIN AR TRES W  DIS CAZ7
 BAR2 SZ EP       1723 46.66                             164    0.1310 33.8 157 
 BAR2 SZ ES   1   1723 59.59                             164   -0.43 7 33.8 157 
 BAR2 SZ I        1724  1.21        99.7 0.31            157           33.8 157 
 BRR  HZ EP       1723 47.04                             156    0.0810 52.3 300 
 BRR  HN ES       1724  0.68                             156   -0.1110 52.3 300 
 BRR  HZ I        1724  1.49        22.0 0.08            147           52.3 300 
 PAM  SZ EP       1723 50.05                             144    0.4210 84.0  52 
 PAM  SN ES       1724  6.08                             144    0.5410 84.0  52 
 PAM  SZ I        1724  8.52         9.6 0.28            143           84.0  52 
 RUS  HZ EP   1   1723 51.65                             135   -0.12 7  111 167 
 RUS  HE ES   1   1724  8.91                             135   -0.44 7  111 167 
 RUS  HE I        1724 10.98         7.7 0.33            127            111 167 
 OCA  HZ EP   1   1723 54.40                             126   -0.61 7  151 359 
 OCA  HN ES       1724 14.88                             126   -0.23 9  151 359 
 OCA  HZ I        1724 16.40        14.0 0.17            121            151 359 
 ZAR  HZ EP   1   1723 57.99                             120   -0.33 7  185 292 
 ZAR  HE ES   1   1724 21.60                             120    0.59 7  185 292 
 ZAR  HZ I        1724 24.53         9.8 0.27            113            185 292 
 SML  HZ EP   1   1724  2.93                             114   -0.20 6  229 338 
 SML  HE ES   1   1724 28.94                             114   -0.63 6  229 338 
 HEL  HZ EP   1   1724  7.35                             111    0.56 6  258 253 
 HEL  HZ I        1724 32.12         9.1 0.37            106            258 253 
                                                                                
