 2013  310 1156 13.5 L   6.806 -73.150145.8  RSN 12 0.5 2.1LRSN                1
 GAP= 71        1.18       3.6     4.2  6.7 -0.4172E+00  0.2556E+01  0.7172E+00E
 Epicentro: LOS SANTOS - SANTANDER                                             3
 ACTION:UPD 13-04-09 14:01 OP:ep   STATUS:               ID:20130310115613 L   I
 2013-03-10-1148-50M.COL___198                                                 6
 STAT SP IPHASW D HRMM SECON CODA AMPLIT PERI AZIMU VELO AIN AR TRES W  DIS CAZ7
 BAR2 SZ IP       1156 33.22                             170    0.1110 23.9 189 
 BAR2 SZ I        1156 33.58        21.9 0.36            169           23.9 189 
 BAR2 SZ ES       1156 48.37                             170   -0.0610 23.9 189 
 BRR  HZ IP     C 1156 35.14                             153    0.5710 70.5 298 
 BRR  HZ I        1156 35.41        25.5 0.24            150           70.5 298 
 BRR  HE ES       1156 52.10                             153    1.0610 70.5 298 
 BRR  HN I        1156 53.59        27.3 0.26            150           70.5 298 
 PAM  SZ IP     D 1156 36.17                             151    0.5010 77.2  40 
 PAM  SZ I        1156 36.34        10.7 0.26            153           77.2  40 
 PAM  SN ES       1156 53.09                             151    0.1010 77.2  40 
 RUS  HZ EP       1156 37.22                             144   -0.0410  101 176 
 RUS  HN ES       1156 55.21                             144   -0.6210  101 176 
 RUS  HE I        1156 56.89        16.5 0.48            144            101 176 
 PTB  HZ EP       1156 39.85                             132   -0.55 9  147 259 
 PTB  HN ES       1157  0.82                             132   -0.60 9  147 259 
 PTB  HN I        1157  6.46        17.4 0.28            131            147 259 
 CAPV BZ ES       1157  1.64                             132   -0.55 9  149  38 
 TAM  HZ IP     C 1156 41.38                             131    0.18 9  156 105 
 TAM  HZ I        1156 41.54         6.4 0.38            133            156 105 
 OCA  HN ES   1   1157  3.19                             130   -0.55 7  160 353 
 OCA  HN I        1157  7.36        48.9 0.24            130            160 353 
 ZAR  HN ES       1157 11.44                             122    0.35 9  203 292 
 ZAR  HN I        1157 17.48        20.4 0.26            122            203 292 
 SML  HZ EP       1156 49.96                             118   -0.04 8  243 335 
 SML  HN ES       1157 17.81                             118   -0.69 8  243 335 
 CHI  HZ EP   1   1156 51.28                             117    0.07 6  249 195 
 CHI  HN ES   1   1157 20.81                             117    0.14 6  249 195 
 CHI  HN I        1157 24.98         5.2 0.56            117            249 195 
 PRA  HZ EP   1   1157  7.57                             107    0.55 4  392 209 
                                                                                
