 2011  810 1414 31.7 L   6.721 -73.148146.8  RSN  8 0.5 2.7LRSN                1
 GAP=182        0.86       4.1     7.3  6.5 -0.9413E+00  0.9300E+01  0.7220E+01E
 Epicentro: JORDAN - SANTANDER                                                 3
 ACTION:UPD 12-07-13 15:51 OP:ep   STATUS:               ID:20110810141432 L   I
 2011-08-10-1400-00M.COL___151                                                 6
 STAT SP IPHASW D HRMM SECON CODA AMPLIT PERI AZIMU VELO AIN AR TRES W  DIS CAZ7
 BAR2 SZ EP       1414 51.02                             174   -0.3410 14.7 195 
 BAR2 SZ ES   1   1415  6.38                             174   -0.28 7 14.7 195 
 BAR2 SZ I        1415  7.57       168.7 0.12                          14.7 195 
 BRR  HZ IP     C 1414 52.87                             151   -0.3810 75.6 304 
 BRR  HN ES   1   1415 10.42                             151    0.38 7 75.6 304 
 BRR  HZ I        1415 13.33        84.8 0.54                          75.6 304 
 RUS  HZ EP       1414 54.89                             146   -0.1010 91.9 176 
 RUS  HN ES   1   1415 13.36                             146    0.23 7 91.9 176 
 OCA  SZ EP   1   1415  1.97                             128    1.02 7  169 354 
 OCA  SZ I        1415 27.14        38.8 0.23                           169 354 
 NOR  SZ EP       1415  6.90                             119   -0.08 8  230 236 
 NOR  SN ES   1   1415 34.14                             119   -0.33 6  230 236 
 CHI  HZ EP       1415  8.95                             118    0.37 8  240 196 
 CHI  HE ES   1   1415 37.80                             118    0.48 6  240 196 
 CHI  HZ I        1415 46.78        22.9 0.52                           240 196 
 PRA  HZ EP   1   1415 23.90                             107   -0.50 4  384 210 
 PRA  HN ES   1   1416  6.22                             107    0.75 4  384 210 
 SJA  SZ EP   1   1415 24.39                             107   -0.94 4  392 193 
 SJA  SZ ES   1   1416  7.45                             107    0.32 4  392 193 
                                                                                
