 2013  110 1911 46.0 L   6.008 -73.582118.2  RSN  5 0.4 1.9LRSN                1
 GAP=133        1.03       3.6    11.0 12.2  0.5113E+01  0.1021E+03  0.6772E+01E
 Epicentro: GUEPSA - SANTANDER                                                 3
 ACTION:UPD 13-02-15 09:13 OP:ep   STATUS:               ID:20130110191146 L   I
 2013-01-10-1908-42M.COL___181                                                 6
 STAT SP IPHASW D HRMM SECON CODA AMPLIT PERI AZIMU VELO AIN AR TRES W  DIS CAZ7
 RUS  HZ EP       1912  4.21                             153    0.1210 56.7 103 
 RUS  HZ I        1912  6.11         5.2 0.20            156           56.7 103 
 RUS  HN ES       1912 17.98                             153   -0.2010 56.7 103 
 BAR2 SZ EP       1912  5.35                             144    0.2610 78.3  34 
 BAR2 SZ ES       1912 20.36                             144    0.3910 78.3  34 
 BAR2 SZ I        1912 21.87        43.3 0.50            148           78.3  34 
 BRR  HZ EP       1912  8.09                             131   -0.3310  122 353 
 BRR  HN ES       1912 25.42                             131   -0.4710  122 353 
 BRR  HN I        1912 27.18        20.5 0.20            133            122 353 
 CHI  HZ EP       1912 11.33                             124   -0.66 9  153 186 
 CHI  HN ES       1912 32.58                             124    0.34 9  153 186 
 CHI  HN I        1912 35.18        10.0 0.36            126            153 186 
 ZAR  HZ EP       1912 18.85                             114    0.65 8  216 319 
                                                                                
