 2014  110 1013 24.0 L   6.742 -73.191140.0  RSN  6 0.5 1.3LRSN                1
 GAP=238        1.04       5.5     5.9  7.3  0.1338E+02  0.1630E+02  0.5810E+01E
 Epicentro: VILLANUEVA - SANTANDER                                             3
 ACTION:UPD 14-03-13 09:54 OP:ep   STATUS:               ID:20140110101324 L   I
 OLDACT:DUP 14-01-10 16:20 OP:stll STATUS:               ID:20140110100814d    3
 2014-01-10-1008-13M.COL___237                                                 6
 STAT SP IPHASW D HRMM SECON CODA AMPLIT PERI AZIMU VELO AIN AR TRES W  DIS CAZ7
 BAR2 SZ EP       1013 42.65                             173   -0.1410 16.6 177 
 BAR2 SZ ES       1013 57.71                             173    0.2410 16.6 177 
 BAR2 SZ I        1013 58.76        11.6 0.28            171           16.6 177 
 RUS  HZ EP       1013 46.44                             144   -0.3010 94.7 173 
 RUS  HZ I        1013 47.61         1.7 0.18            147           94.7 173 
 RUS  HN ES       1014  4.80                             144    0.3110 94.7 173 
 PTB  HZ EP       1013 49.61                             132   -0.31 9  142 261 
 PTB  HN ES       1014  9.96                             132   -0.20 9  142 261 
 PTB  HZ I        1014 17.65         3.3 0.32            132            142 261 
 ZAR  HZ EP       1013 55.98                             121    0.14 9  202 294 
 ZAR  HN ES       1014 20.65                             121   -0.03 9  202 294 
 ZAR  HZ I        1014 23.40         2.2 0.26            122            202 294 
 CHI  HZ EP       1013 59.94                             117   -0.60 8  241 194 
 CHI  HE ES       1014 28.93                             117   -0.13 8  241 194 
 GUY2CHZ EP       1014  7.90                             112    1.46 7  293 235 
 GUY2CHE ES       1014 39.48                             112   -0.08 7  293 235 
 GUY2CHZ I        1014 48.80         0.9 0.40                           293 235 
                                                                                
