 2016  710 1414 49.3 L   6.803 -73.154146.6  RSN  9 0.3 1.8LRSN                1
 GAP=237        0.78       3.2     3.8  4.5  0.2820E+01  0.4253E+01  0.2628E+01E
 Epicentro: LOS SANTOS - SANTANDER                                             3
 ACTION:UPD 17-03-29 16:49 OP:lp   STATUS:               ID:20160710141449 L   I
 OLDACT:REG 16-07-10 21:36 OP:edw  STATUS:               ID:20160710141400     3
 2016-07-10-1413-59S.COL___328                                                 6
 STAT SP IPHASW D HRMM SECON CODA AMPLIT PERI AZIMU VELO AIN AR TRES W  DIS CAZ7
 BAR2 EZ EP       1415  9.05                             170    0.0310 23.5 188 
 BAR2 EZ ES       1415 24.40                             170   -0.0110 23.5 188 
 BAR2 EZ I        1415 25.64         9.6 0.44            164           23.5 188 
 BRR  HZ EP       1415 10.95                             153    0.4810 70.2 299 
 BRR  HN ES       1415 26.88                             153   -0.1110 70.2 299 
 RUS  HZ EP       1415 13.21                             144    0.0710  101 176 
 RUS  HN ES       1415 31.74                             144   -0.0110  101 176 
 RUS  HZ I        1415 32.51         5.2 0.21            142            101 176 
 PTB  HZ EP       1415 15.67                             132   -0.57 9  147 259 
 PTB  HN ES       1415 36.85                             132   -0.42 9  147 259 
 PTB  HZ I        1415 41.41         6.9 0.32            130            147 259 
 SPBC HZ EP       1415 17.81                             129   -0.00 9  163 219 
 SPBC HN ES       1415 40.54                             129    0.47 9  163 219 
 SPBC HZ I        1415 46.79        10.7 0.28            127            163 219 
 ZAR  HZ EP       1415 21.96                             123    0.28 9  203 292 
 ZAR  HN ES       1415 46.83                             123   -0.12 9  203 292 
 ZAR  HZ I        1415 52.62         8.8 0.58            122            203 292 
 NOR  HZ EP       1415 25.25                             119    0.25 8  234 234 
 NOR  HN ES       1415 53.15                             119    0.29 8  234 234 
 NOR  HZ I        1416  0.13         5.0 0.18            118            234 234 
 CHI  HZ EP       1415 26.29                             117   -0.75 8  249 195 
 CHI  HN ES       1415 56.34                             117   -0.14 8  249 195 
 CHI  HZ I        1416  4.07         2.8 0.26            117            249 195 
 GUY2CHZ EP       1415 33.07                             112    0.20 7  301 235 
 GUY2CHN ES       1416  6.86                             112    0.00 7  301 235 
                                                                                
