 2017  910 1701 49.0 L   6.795 -73.148134.8  RSN 16 0.5 2.1LRSN                1
 GAP=112        1.09       3.3     3.5  5.7  0.8262E+00  0.7262E+01  0.5532E+01E
 Epicentro: LOS SANTOS - SANTANDER                                             3
 ACTION:UPD 17-10-05 19:10 OP:rebc STATUS:               ID:20170910170149 L   I
 OLDACT:REG 17-09-10 20:03 OP:lv   STATUS:               ID:20170910165746     3
 2017-09-10-1658-00M.COL___413                                                 6
 STAT SP IPHASW D HRMM SECON CODA AMPLIT PERI AZIMU VELO AIN AR TRES W  DIS CAZ7
 BAR2 EZ IP     D 17 2  7.17                             170   -0.1410 22.7 190 
 BAR2 EZ ES       17 2 20.92                             170   -0.6710 22.7 190 
 BAR2 EZ I        17 2 23.11        41.6 0.25            167           22.7 190 
 BRR  HZ IP     C 17 2  8.89                             150   -0.1010 71.3 299 
 BRR  HN ES       17 2 25.40                             150    0.8210 71.3 299 
 BRR  HZ I        17 2 26.77        22.4 0.20            150           71.3 299 
 PAM  EZ EP       17 2  9.97                             149   -0.1410 77.9  39 
 PAM  EN ES       17 2 26.60                             149    0.0310 77.9  39 
 PAM  EZ I        17 2 28.95        46.8 0.54            154           77.9  39 
 RUS  HZ EP       17 2 11.33                             142   -0.3310  100 176 
 RUS  HN ES       17 2 29.72                             142    0.3910  100 176 
 RUS  HZ I        17 2 31.83        14.4 0.36            142            100 176 
 SPBC HZ EP       17 2 16.50                             126   -0.14 9  163 219 
 SPBC HN ES       17 2 38.46                             126    0.27 9  163 219 
 SPBC HZ I        17 2 44.38        25.2 0.16            127            163 219 
 YPLC HZ IP     D 17 2 17.74                             124   -0.26 9  176 151 
 YPLC HE ES       17 2 40.79                             124    0.19 9  176 151 
 YPLC HZ I        17 2 45.61        10.0 0.40            126            176 151 
 ZAR  HZ EP       17 2 20.07                             120   -0.70 9  204 292 
 ZAR  HN ES       17 2 45.30                             120   -0.24 9  204 292 
 ZAR  HZ I        17 2 50.93        26.1 0.23            121            204 292 
 NOR  HZ EP       17 2 23.73                             116   -0.34 8  234 235 
 NOR  HN ES       17 2 51.15                             116   -0.27 8  234 235 
 NOR  HZ I        17 2 57.88         9.5 0.46            117            234 235 
 CHI  HZ EP       17 2 26.83                             115    0.77 8  248 195 
 CHI  HN ES       17 2 55.16                             115    0.20 8  248 195 
 CHI  HZ I        17 2 59.52         4.9 0.32            116            248 195 
 HEL  HZ EP       17 2 30.07                             112    1.42 8  272 256 
 HEL  HE ES       17 2 59.43                             112   -0.14 8  272 256 
 HEL  HZ I        17 3  5.52         9.1 0.38            113            272 256 
 URE  HZ EP   4   17 2 31.46                             111    1.89 0  284 292 
 URE  HN ES   4   17 2 58.96                             111   -2.25 0  284 292 
 URE  HZ I        17 3  3.61        12.1 0.16            113            284 292 
 GUY2CHZ EP   4   17 2 33.17                             110    1.09 0  301 235 
 GUY2CHN ES       17 3  5.78                             110    0.11 7  301 235 
 GUY2CHZ I        17 3 11.79         5.8 0.28                           301 235 
 PTGC HZ EP   9   17 2 31.08                             109   -1.27 0  308 159 
 PTGC HN ES       17 3  4.43                                   -0.45 7  308 159 
 CBOC HZ EP   4   17 2 36.53                             108    1.08 0  333 252 
 CBOC HN ES       17 3 11.49                             108   -0.18 7  333 252 
 CBOC HZ I        17 3 19.11         2.0 0.45            109            333 252 
 DBB  EN ES   4   17 3 10.26                             107   -2.47 0  339 274 
 PRA  HZ EP       17 2 42.73                             105    0.62 6  391 210 
 PRA  HN ES       17 3 22.68                             105   -0.84 6  391 210 
 PRA  HZ I        17 3 30.32         3.8 0.26            106            391 210 
 ORTC HZ EP       17 2 42.79                             104    0.28 6  395 216 
 ORTC HN ES       17 3 23.77                             104   -0.47 6  395 216 
 ORTC HZ I        17 3 29.42         3.0 0.36            106            395 216 
                                                                                
