 2013  510 1552 20.8 L   6.780 -73.148144.0  RSN  8 0.3 1.8LRSN                1
 GAP=137        0.72       4.1     3.6  5.3 -0.5053E+01  0.5001E+01  0.4512E+01E
 Epicentro: LOS SANTOS - SANTANDER                                             3
 ACTION:UPD 13-06-20 09:49 OP:ep   STATUS:               ID:20130510155220 L   I
 2013-05-10-1550-00M.COL___256                                                 6
 STAT SP IPHASW D HRMM SECON CODA AMPLIT PERI AZIMU VELO AIN AR TRES W  DIS CAZ7
 BAR2 SZ EP       1552 40.02                             171   -0.1710 21.1 190 
 BAR2 SZ ES       1552 55.13                             171   -0.1710 21.1 190 
 BAR2 SZ I        1552 56.69        19.8 0.25            167           21.1 190 
 BRR  HZ EP   1   1552 41.97                             152    0.14 7 72.0 300 
 BRR  HN ES       1552 58.85                             152    0.6410 72.0 300 
 BRR  HZ I        1552 59.41        14.6 0.12            150           72.0 300 
 PAM  SZ EP     C 1552 42.99                             150    0.0210 79.3  39 
 PAM  SZ I        1552 43.14        22.9 0.20            155           79.3  39 
 PAM  SN ES       1553  0.05                             150   -0.1910 79.3  39 
 RUS  HZ EP   2   1552 44.13                             144   -0.11 5 98.4 176 
 RUS  HZ I        1552 45.17         4.9 0.10            142           98.4 176 
 RUS  HN ES   1   1553  2.73                             144    0.23 7 98.4 176 
 PTB  HZ EP   1   1552 47.56                             132   -0.02 7  147 260 
 PTB  HN ES   1   1553  7.68                             132   -0.77 7  147 260 
 PTB  HZ I        1553 13.30         5.5 0.30            130            147 260 
 NOR  HZ EP   1   1552 56.46                             118    0.18 6  233 235 
 NOR  HN ES   1   1553 24.08                             118    0.14 6  233 235 
 NOR  HZ I        1553 32.53         4.1 0.18            117            233 235 
 HEL  HN ES       1553 31.73                             114   -0.34 8  271 256 
 PRA  HZ EP   2   1553 14.40                             106    0.37 3  390 210 
 PRA  HN ES   1   1553 56.17                             106    0.63 4  390 210 
 PRA  HZ I        1554  1.23         3.2 0.34            106            390 210 
                                                                                
