 2017  210 1255 58.1 L   6.785 -73.113144.7  RSN  6 0.4 1.5LRSN                1
 GAP=141        0.77       3.3     5.2  5.2 -0.1834E+01  0.4607E+01  0.4401E+01E
 Epicentro: LOS SANTOS - SANTANDER                                             3
 ACTION:UPD 17-05-24 15:34 OP:jn   STATUS:               ID:20170210125558 L   I
 OLDACT:UP  17-02-10 22:55 OP:and  STATUS:               ID:20170210124752d    3
 OLDACT:DUP 17-02-10 22:49 OP:and  STATUS:               ID:20170210124752d    3
 OLDACT:DUP 17-02-10 22:43 OP:and  STATUS:               ID:20170210124751d    3
 OLDACT:UP  17-02-10 22:42 OP:and  STATUS:               ID:20170210124750     3
 OLDACT:UP  17-02-10 22:41 OP:and  STATUS:               ID:20170210124750     3
 OLDACT:REG 17-02-10 20:29 OP:and  STATUS:               ID:20170210124750     3
 2017-02-10-1248-00M.COL___358                                                 6
 STAT SP IPHASW D HRMM SECON CODA AMPLIT PERI AZIMU VELO AIN AR TRES W  DIS CAZ7
 BAR2 EZ EP       1256 17.48                             170   -0.1410 22.7 200 
 BAR2 EZ ES       1256 32.80                             170   -0.0210 22.7 200 
 BAR2 EZ I        1256 35.26        12.0 0.28            167           22.7 200 
 BRR  HZ EP       1256 19.51                             151    0.1210 75.2 298 
 BRR  HN ES       1256 36.36                             151    0.3810 75.2 298 
 PAM  EZ IP     C 1256 20.11                             151   -0.0610 76.4  37 
 PAM  EN ES       1256 37.27                             151   -0.1010 76.4  37 
 RUS  HZ EP       1256 21.72                             144    0.0710 98.8 178 
 RUS  HN ES       1256 39.65                             144   -0.3410 98.8 178 
 RUS  HZ I        1256 41.64         7.0 0.26            143           98.8 178 
 PTB  HZ EP       1256 24.95                             131   -0.36 9  151 260 
 PTB  HN ES   3   1256 45.05                             131   -1.46 2  151 260 
 PTB  HZ I        1256 47.47         3.7 0.20            131            151 260 
 CHI  HZ EP       1256 35.68                             117   -0.03 8  248 196 
 CHI  HN ES       1257  5.81                             117    0.79 8  248 196 
 CHI  HZ I        1257 11.31         1.5 0.52            117            248 196 
                                                                                
