 2013  510 1038 49.7 L   6.763 -73.159148.0  RSN  5 0.3 1.6LRSN                1
 GAP=136        0.70       6.0     5.5  7.9  0.4169E+01 -0.7836E+01 -0.1681E+02E
 Epicentro: LOS SANTOS - SANTANDER                                             3
 ACTION:UPD 13-06-20 09:49 OP:ep   STATUS:               ID:20130510103849 L   I
 2013-05-10-1030-00M.COL___256                                                 6
 STAT SP IPHASW D HRMM SECON CODA AMPLIT PERI AZIMU VELO AIN AR TRES W  DIS CAZ7
 BAR2 SZ EP   1   1039  9.20                             172   -0.34 7 19.1 188 
 BAR2 SZ ES   1   1039 24.69                             172   -0.31 7 19.1 188 
 BAR2 SZ I        1039 26.83         9.1 0.34            167           19.1 188 
 BRR  HZ EP       1039 11.45                             153    0.3010 72.0 302 
 BRR  HN ES   1   1039 28.35                             153    0.48 7 72.0 302 
 BRR  HZ I        1039 32.69        10.2 0.14            148           72.0 302 
 PAM  SZ EP       1039 12.20                             150   -0.2210 81.5  39 
 RUS  HZ EP   2   1039 13.72                             145    0.31 5 96.6 175 
 RUS  HN ES   1   1039 32.18                             145    0.29 7 96.6 175 
 RUS  HZ I        1039 33.20         5.6 0.44            147           96.6 175 
 PTB  HZ EP   2   1039 16.75                             133    0.08 5  146 260 
 PTB  HN ES   1   1039 37.21                             133   -0.48 7  146 260 
 PTB  HZ I        1039 45.41         6.2 0.32            130            146 260 
                                                                                
