 2010  510 1252 57.5 L   6.771 -73.097139.8  RSN  6 0.5 1.9LRSN                1
 GAP=162        1.06       7.3    16.2 14.0 -0.4076E+02 -0.8531E+02  0.1608E+02E
 Epicentro: LOS SANTOS - SANTANDER                                             3
 ACTION:UP  10-08-24 10:04 OP:vdl  STATUS:               ID:20100510125257 L   I
 2010-05-10-1248-47S.COL___104                                                 6
 STAT SP IPHASW D HRMM SECON CODA AMPLIT PERI AZIMU VELO SNR AR TRES W  DIS CAZ7
 BAR2 SZ EP   1   1253 15.88                             171    -0.5 7   22 206 
 BAR2 SZ ES   2   1253 30.47                             171    -0.6 5   22 206 
 BRR  HZ EP   1   1253 18.24                             150    -0.1 7   78 299 
 BRR  HE ES   2   1253 35.13                             150     0.5 5   78 299 
 BRR  HZ I        1253 36.90        14.1 0.06                            78 299 
 RUS  HZ EP       1253 20.80                             143     0.410   97 179 
 BRI  SZ EP   1   1253 21.76                             140     0.8 7  110  18 
 BRI  SZ ES   2   1253 40.00                             140     0.8 5  110  18 
 GUE  SZ EP   1   1253 21.03                             138    -0.8 7  119   9 
 GUE  SZ ES   2   1253 40.57                             138    -0.3 5  119   9 
 GRA  SZ EP       1253 22.13                             135    -0.210  127  15 
                                                                                
