 2013  310 1312  9.5 L   6.765 -73.156148.2  RSN  5 0.4 2.0LRSN                1
 GAP=151        0.96       7.2     7.0  8.3 -0.9952E+01  0.2551E+01 -0.3619E+01E
 Epicentro: LOS SANTOS - SANTANDER                                             3
 ACTION:UPD 13-04-09 14:01 OP:ep   STATUS:               ID:20130310131209 L   I
 2013-03-10-1308-48M.COL___198                                                 6
 STAT SP IPHASW D HRMM SECON CODA AMPLIT PERI AZIMU VELO AIN AR TRES W  DIS CAZ7
 BAR2 SZ EP       1312 29.41                             172    0.0810 19.3 189 
 BAR2 SZ ES       1312 44.54                             172   -0.2710 19.3 189 
 BAR2 SZ I        1312 45.37        12.9 0.22            173           19.3 189 
 BRR  HZ EP       1312 31.41                             153    0.4610 72.2 302 
 BRR  HN ES       1312 48.26                             153    0.5710 72.2 302 
 BRR  HN I        1312 48.79        30.4 0.20            153           72.2 302 
 PTB  HZ EP       1312 36.39                             133   -0.09 9  146 260 
 PTB  HN ES       1312 57.04                             133   -0.51 9  146 260 
 CAPV BZ EP   2   1312 37.28                             131   -0.14 5  153  37 
 OCA  HN ES   1   1313  0.22                             129   -0.62 7  164 354 
                                                                                
