 2013  210 1006 47.8 L   6.789 -73.132150.2  RSN 10 0.4 2.2LRSN                1
 GAP=139        0.91       2.9     4.2  5.5  0.9070E-01  0.5785E+01  0.5167E+00E
 Epicentro: LOS SANTOS - SANTANDER                                             3
 ACTION:UPD 13-03-12 09:31 OP:ep   STATUS:               ID:20130210100647 L   I
 2013-02-10-1000-00M.COL___241                                                 6
 STAT SP IPHASW D HRMM SECON CODA AMPLIT PERI AZIMU VELO AIN AR TRES W  DIS CAZ7
 BAR2 SZ EP       10 7  8.00                             171    0.0510 22.5 194 
 BAR2 SZ ES   1   10 7 22.91                             171   -0.76 7 22.5 194 
 BAR2 SZ I        10 7 25.05        49.0 0.18            169           22.5 194 
 BRR  HZ IP     C 10 7  9.86                             153    0.3210 73.1 299 
 BRR  HE ES       10 7 27.31                             153    0.8110 73.1 299 
 BRR  HZ I        10 7 32.18        21.0 0.18            149           73.1 299 
 PAM  SZ EP       10 7 10.67                             152    0.1810 77.3  38 
 PAM  SN ES       10 7 28.25                             152    0.0610 77.3  38 
 RUS  HZ EP       10 7 12.00                             145    0.1010 99.3 177 
 RUS  HN ES       10 7 30.60                             145   -0.1010 99.3 177 
 RUS  HN I        10 7 31.48        37.9 0.40            147           99.3 177 
 PTB  HZ EP   1   10 7 14.61                             133   -0.64 7  149 259 
 PTB  HE ES   1   10 7 36.29                             133   -0.37 7  149 259 
 PTB  HZ I        10 7 39.35        21.5 0.15            132            149 259 
 OCA  HZ EP   1   10 7 16.26                             130   -0.33 7  162 353 
 OCA  HE ES   1   10 7 38.96                             130   -0.08 7  162 353 
 OCA  HZ I        10 7 43.94        14.5 0.15            132            162 353 
 ZAR  HZ EP   1   10 7 20.62                             123   -0.11 6  206 292 
 ZAR  HE ES   1   10 7 45.96                             123   -0.46 6  206 292 
 ZAR  HZ I        10 7 53.07        22.3 0.27            123            206 292 
 SML  HZ EP       10 7 24.32                             118   -0.55 8  245 335 
 SML  HN ES   1   10 7 53.62                             118   -0.16 6  245 335 
 CHI  HZ EP       10 7 25.96                             118    0.29 8  248 196 
 CHI  HN ES       10 7 54.83                             118   -0.38 8  248 196 
 CHI  HZ I        10 8  1.26         7.5 0.33            120            248 196 
 HEL  HZ EP   1   10 7 29.31                             116    0.93 6  273 256 
 HEL  HE ES   1   10 8  0.32                             116    0.29 6  273 256 
 HEL  HZ I        10 8  6.43         7.0 0.33            116            273 256 
                                                                                
