 2017  210 1249 49.3 L   6.816 -73.139143.0  RSN  7 0.3 1.5LRSN                1
 GAP=137        0.71       2.9     3.3  5.1  0.2688E+00  0.4959E+01  0.2297E+01E
 Epicentro: LOS SANTOS - SANTANDER                                             3
 ACTION:UPD 17-05-24 15:34 OP:jn   STATUS:               ID:20170210124949 L   I
 OLDACT:UP  17-02-10 22:42 OP:and  STATUS:               ID:20170210124750     3
 OLDACT:UP  17-02-10 22:41 OP:and  STATUS:               ID:20170210124750     3
 OLDACT:REG 17-02-10 20:29 OP:and  STATUS:               ID:20170210124750     3
 2017-02-10-1248-00M.COL___358                                                 6
 STAT SP IPHASW D HRMM SECON CODA AMPLIT PERI AZIMU VELO AIN AR TRES W  DIS CAZ7
 BAR2 EZ EP     C 1250  8.55                             170   -0.0510 25.2 191 
 BAR2 EZ ES       1250 23.74                             170    0.0510 25.2 191 
 BAR2 EZ I        1250 26.37        13.4 0.30            167           25.2 191 
 BRR  HZ EP       1250 10.48                             152    0.3810 71.0 297 
 BRR  HN ES   3   1250 27.57                             152    1.21 2 71.0 297 
 PAM  EZ IP     C 1250 11.35                             151    0.2710 75.6  40 
 PAM  EN ES       1250 27.86                             151   -0.2310 75.6  40 
 PAM  EZ I        1250 30.98         5.8 0.66            154           75.6  40 
 RUS  HZ EP       1250 12.79                             143   -0.0810  102 177 
 RUS  HN ES       1250 31.21                             143   -0.0710  102 177 
 RUS  HZ I        1250 32.45         4.9 0.34            142            102 177 
 PTB  HZ EP       1250 15.76                             131   -0.34 9  149 258 
 PTB  HN ES       1250 36.65                             131   -0.39 9  149 258 
 PTB  HZ I        1250 38.87         3.5 0.14            132            149 258 
 ZAR  HN ES       1250 46.89                             122    0.19 9  204 292 
 CHI  HZ EP       1250 26.75                             116   -0.27 8  251 195 
 CHI  HN ES       1250 56.98                             116    0.52 8  251 195 
 CHI  HZ I        1251  6.19         1.7 0.45            117            251 195 
                                                                                
