 2012  510 1200 56.3 L   7.421 -73.165138.0  RSN  7 0.3 1.8LRSN                1
 GAP=111        0.68       4.8     3.6  5.6  0.1230E+01  0.5073E+01  0.2532E+01E
 Epicentro: EL PLAYON - SANTANDER                                              3
 ACTION:UP  12-07-05 12:04 OP:pat  STATUS:               ID:20120510120056 L   I
 2012-05-10-1200-00M.COL___195                                                 6
 STAT SP IPHASW D HRMM SECON CODA AMPLIT PERI AZIMU VELO SNR AR TRES W  DIS CAZ7
 PAM  SZ EP       12 1 16.50                             158     0.210   52 100 
 PAM  SN ES   1   12 1 32.07                             158     0.2 7   52 100 
 BRR  HZ EP       12 1 16.63                             152     0.210   70 240 
 BRR  HE ES   1   12 1 32.57                             152     0.3 7   70 240 
 BRR  HZ I        12 1 34.23        26.5 0.12                            70 240 
 BAR2 SZ EP       12 1 18.26                             145     0.010   92 181 
 BAR2 SZ ES   1   12 1 34.99                             145    -0.4 7   92 181 
 BAR2 SZ I        12 1 38.21        15.6 0.30                            92 181 
 OCA  HN ES   2   12 1 34.39                             145    -0.8 5   92 349 
 RUS  HZ EP       12 1 25.22                             126    -0.1 9  169 177 
 RUS  HZ I        12 1 53.93         1.8 0.52                           169 177 
 PTB  HZ EP       12 1 24.88                             126    -0.1 9  173 236 
 PTB  HN ES   1   12 1 47.40                             126     0.0 7  173 236 
 PTB  HZ I        12 1 50.18         8.8 0.52                           173 236 
 ZAR  HZ EP       12 1 26.22                             123    -0.2 9  187 273 
 ZAR  HN ES   1   12 1 50.31                             123     0.3 7  187 273 
 ZAR  HZ I        12 1 53.98         9.9 0.46                           187 273 
                                                                                
