 2010 1110 1542 13.9 L   6.749 -73.143149.2  RSN  6 0.2 1.8LRSN                1
 GAP=159        0.39       2.5     3.8  3.7 -0.2637E+01  0.1860E+01  0.1971E+01E
 Epicentro: LOS SANTOS - SANTANDER                                             3
 ACTION:UP  10-12-17 16:51 OP:REBC STATUS:               ID:20101110154213 L   I
 2010-11-10-1540-28S.COL___128                                                 6
 STAT SP IPHASW D HRMM SECON CODA AMPLIT PERI AZIMU VELO SNR AR TRES W  DIS CAZ7
 BAR2 SZ EP       1542 33.71                             173    -0.210   18 194 
 BAR2 SZ ES   1   1542 49.46                             173     0.0 7   18 194 
 BAR2 SZ I        1542 49.94        17.0 0.41                            18 194 
 BRR  HZ EP       1542 35.61                             152     0.010   74 302 
 BRR  HZ I        1542 37.17        26.0 0.08                            74 302 
 BRR  HE ES   1   1542 52.64                             152     0.1 7   74 302 
 RUS  HZ EP   1   1542 37.58                             146    -0.1 7   95 176 
 RUS  HZ I        1542 38.80         5.2 0.16                            95 176 
 RUS  HN ES   2   1542 56.34                             146     0.2 5   95 176 
 GRA  SZ EP   2   1542 40.39                             137     0.5 5  131  17 
 GRA  SZ ES   1   1543  0.17                             137     0.0 7  131  17 
 GRA  SZ I        1543  1.26         8.2 0.42                           131  17 
 NOR  SZ EP   1   1542 49.54                             120     0.0 6  232 236 
 NOR  SN ES   2   1543 17.14                             120    -0.2 4  232 236 
 PRA  HZ EP   2   1543  7.26                             107     0.2 3  387 210 
 PRA  HE ES   2   1543 48.94                             107     0.5 3  387 210 
                                                                                
