 2013  110 1430 31.4 L   6.767 -73.235144.0  RSN  5 0.5 1.6LRSN                1
 GAP=218        1.25       9.2     9.5 11.0  0.4172E+02 -0.3726E+01  0.1773E+02E
 Epicentro: ZAPATOCA - SANTANDER                                               3
 ACTION:UPD 13-02-15 09:13 OP:ep   STATUS:               ID:20130110143031 L   I
 2013-01-10-1428-41M.COL___181                                                 6
 STAT SP IPHASW D HRMM SECON CODA AMPLIT PERI AZIMU VELO AIN AR TRES W  DIS CAZ7
 BAR2 SZ EP       1430 50.06                             172   -0.6610 20.2 163 
 BAR2 SZ I        1430 50.58        10.6 0.38            174           20.2 163 
 BRR  HZ EP       1430 51.81                             154   -0.1610 64.7 306 
 BRR  HN ES       1431  8.77                             154    0.7310 64.7 306 
 BRR  HN I        1431 12.52        15.4 0.42            157           64.7 306 
 RUS  HZ EP       1430 54.87                             144    0.1010 98.2 170 
 RUS  HN ES       1431 12.91                             144   -0.1110 98.2 170 
 RUS  HN I        1431 14.87         4.0 0.48            148           98.2 170 
 PTB  HZ EP       1430 57.04                             134   -0.22 9  137 260 
 PTB  HN ES       1431 17.07                             134   -0.38 9  137 260 
 CHI  HZ EP       1431  9.31                             117    0.99 8  243 193 
                                                                                
