 2016  710 1438  1.3 L   6.723 -73.217143.3  RSN  4 0.1 1.1LRSN                1
 GAP=217        0.31       2.4     2.3  2.5  0.2633E+01  0.7643E+00  0.3531E+00E
 Epicentro: VILLANUEVA - SANTANDER                                             3
 ACTION:UPD 17-03-29 16:49 OP:lp   STATUS:               ID:20160710143801 L   I
 OLDACT:DUP 16-07-11 00:38 OP:edw  STATUS:               ID:20160710143001d    3
 OLDACT:REG 16-07-10 21:40 OP:edw  STATUS:               ID:20160710143000     3
 2016-07-10-1429-59S.COL___328                                                 6
 STAT SP IPHASW D HRMM SECON CODA AMPLIT PERI AZIMU VELO AIN AR TRES W  DIS CAZ7
 BAR2 EZ EP       1438 20.64                             174    0.1110 15.0 165 
 BAR2 EZ ES       1438 35.45                             174   -0.0510 15.0 165 
 BAR2 EZ I        1438 36.49         3.7 0.22            169           15.0 165 
 BRR  HZ EP       1438 22.03                             153   -0.0810 69.2 308 
 BRR  HN ES       1438 38.34                             153    0.0310 69.2 308 
 RUS  HZ EP       1438 24.36                             145    0.0510 93.0 171 
 RUS  HN ES       1438 42.19                             145   -0.0410 93.0 171 
 RUS  HZ I        1438 45.13         2.1 0.21            144           93.0 171 
 PTB  HZ EP       1438 27.18                             133   -0.09 9  139 262 
 PTB  HN ES       1438 47.56                             133    0.06 9  139 262 
 PTB  HZ I        1438 50.71         1.9 0.20            132            139 262 
                                                                                
