 2010 1010 1459 55.2 L   7.074 -73.019155.1  RSN  7 0.4 2.1LRSN                1
 GAP=184        1.10      12.9    13.3 12.1 -0.1362E+03 -0.5102E+02  0.4373E+02E
 Epicentro: PIEDECUESTA - SANTANDER                                            3
 ACTION:UP  11-02-18 11:08 OP:tino STATUS:               ID:20101010145955 L   I
 2010-10-10-1458-49S.COL___121                                                 6
 STAT SP IPHASW D HRMM SECON CODA AMPLIT PERI AZIMU VELO SNR AR TRES W  DIS CAZ7
 BTL  SZ EP       15 0 15.63                             168    -0.610   32 238 
 BAR2 SZ ES   2   15 0 34.57                             159     0.5 5   56 199 
 BAR2 SZ I        15 0 35.45        18.5 0.04                            56 199 
 BRR  HZ EP       15 0 17.63                             152    -0.110   77 273 
 BRR  HZ I        15 0 18.32        28.7 0.05                            77 273 
 BRR  HN ES       15 0 35.16                             152    -0.110   77 273 
 GUE  SZ EP       15 0 18.35                             150    -0.310   84   7 
 GUE  SZ I        15 0 18.55        13.2 0.29                            84   7 
 GRA  SZ EP       15 0 19.55                             147     0.610   93  15 
 GRA  SZ I        15 0 21.46        33.6 0.13                            93  15 
 GRA  SZ ES   1   15 0 37.47                             147     0.1 7   93  15 
 NOR  SN ES   1   15 1  5.94                             117     0.5 6  264 231 
 HEL  HN ES   2   15 1 12.56                             114     0.5 4  294 251 
 HEL  HZ I        15 1 20.37         7.6 0.32                           294 251 
                                                                                
