 2015  110 1813 52.6 L   6.789 -73.184142.0  RSN  7 0.4 1.8LRSN                1
 GAP=132        1.02       4.8     4.7  7.7 -0.4578E+01  0.1404E+02 -0.4129E+01E
 Epicentro: LOS SANTOS - SANTANDER                                             3
 ACTION:UPD 15-03-02 15:38 OP:nd   STATUS:               ID:20150110181352 L   I
 OLDACT:REG 15-01-10 19:52 OP:mh   STATUS:               ID:20150110180745     3
 2015-01-10-1807-45M.COL___271                                                 6
 STAT SP IPHASW D HRMM SECON CODA AMPLIT PERI AZIMU VELO AIN AR TRES W  DIS CAZ7
 BAR2 EZ EP   1   1814 11.75                             171    0.04 7 21.8 179 
 BAR2 EZ ES       1814 26.80                             171    0.1610 21.8 179 
 BAR2 EZ I        1814 28.11        15.7 0.36            176           21.8 179 
 PAM  SZ EP       1814 14.90                             149    0.3010 81.0  41 
 PAM  SN ES       1814 31.65                             149   -0.1410 81.0  41 
 PAM  SZ I        1814 34.22         8.6 0.28            143           81.0  41 
 RUS  HZ EP   1   1814 15.38                             143   -0.51 7 99.8 174 
 RUS  HN ES   1   1814 33.84                             143   -0.24 7 99.8 174 
 RUS  HZ I        1814 35.94         4.6 0.48            144           99.8 174 
 PTB  HZ EP       1814 17.90                             132   -0.92 9  143 259 
 PTB  HN ES       1814 38.96                             132   -0.34 9  143 259 
 PTB  HZ I        1814 41.56         6.9 0.16            129            143 259 
 SPBC HZ EP       1814 20.78                             129    0.35 9  160 218 
 SPBC HN ES       1814 42.69                             129    0.52 9  160 218 
 ZAR  HZ EP       1814 24.91                             122    0.51 9  201 293 
 ZAR  HN ES       1814 49.37                             122    0.14 9  201 293 
 ZAR  HZ I        1814 54.81         8.0 0.38            118            201 293 
 SML  HZ EP   4   1814 25.08                             117   -3.83 0  243 336 
 SML  HZ I        1814 44.43        10.3 0.44            113            243 336 
                                                                                
