 2011  710 1336 46.7 L   6.810 -73.052144.0  RSN  4 0.3 1.4LRSN                1
 GAP=166        0.57       7.8    12.5 10.4  0.6030E+02 -0.7734E+02 -0.3637E+02E
 Epicentro: LOS SANTOS - SANTANDER                                             3
 ACTION:UPD 12-07-25 13:59 OP:epov STATUS:               ID:20110710133646 L   I
 2011-07-10-1333-57S.COL___140                                                 6
 STAT SP IPHASW D HRMM SECON CODA AMPLIT PERI AZIMU VELO AIN AR TRES W  DIS CAZ7
 BAR2 SZ EP   1   1337  6.02                             169   -0.17 7 28.1 211 
 BAR2 SZ ES   2   1337 21.47                             169    0.05 5 28.1 211 
 BAR2 SZ I        1337 24.64         5.1 0.31                          28.1 211 
 BRR  HZ EP   1   1337  7.85                             149   -0.30 7 79.9 294 
 BRR  HZ I        1337 11.58        10.7 0.30                          79.9 294 
 BRR  HN ES   1   1337 25.09                             149    0.19 7 79.9 294 
 RUS  HZ EP   2   1337 11.11                             143    0.79 5  102 182 
 RUS  HE ES   2   1337 28.44                             143   -0.32 5  102 182 
 RUS  HZ I        1337 32.35         2.4 0.09                           102 182 
 BRI  SZ EP   2   1337 10.17                             142    0.11 5  104  16 
                                                                                
