 2012  410 1447  4.0 L   6.786 -73.185134.5  RSN  6 0.3 1.6LRSN                1
 GAP=132        0.75       5.0     4.5  8.3 -0.5922E+00  0.1293E+02 -0.5378E+01E
 Epicentro: LOS SANTOS - SANTANDER                                             3
 ACTION:UPD 12-07-05 11:52 OP:tino STATUS:               ID:20120410144704 L   I
 2012-04-10-1439-36M.COL___175                                                 6
 STAT SP IPHASW D HRMM SECON CODA AMPLIT PERI AZIMU VELO AIN AR TRES W  DIS CAZ7
 BAR2 SZ EP   1   1447 22.27                             170     0.0 7   21 179 
 BAR2 SZ ES   1   1447 36.14                             170    -0.3 7   21 179 
 BAR2 SZ I        1447 38.58        14.6 0.17                            21 179 
 BRR  HZ EP   1   1447 23.94                             151     0.2 7   68 301 
 PAM  SZ EP   1   1447 25.16                             147    -0.1 7   81  41 
 PAM  SZ I        1447 25.50        11.2 0.20                            81  41 
 PAM  SN ES   1   1447 41.92                             147     0.0 7   81  41 
 RUS  HZ EP   1   1447 26.58                             142     0.0 7   99 173 
 RUS  HN ES   1   1447 44.67                             142     0.5 7   99 173 
 RUS  HZ I        1447 44.96         3.8 0.45                            99 173 
 PTB  HZ EP   1   1447 29.28                             130    -0.4 7  143 259 
 PTB  HN ES   1   1447 49.29                             130    -0.4 7  143 259 
 PTB  HZ I        1447 51.99         4.2 0.21                           143 259 
 ZAR  HN ES   1   1448  0.44                             120     0.6 6  201 293 
 ZAR  HZ I        1448  5.59         7.7 0.34                           201 293 
                                                                                
