 2010 1110 1459 38.1 L   6.760 -73.173146.0  RSN  5 0.1 1.6LRSN                1
 GAP=156        0.33       2.8     6.8  4.5  0.5372E+01 -0.1463E+02 -0.6812E+01E
 Epicentro: LOS SANTOS - SANTANDER                                             3
 ACTION:UP  10-12-17 16:51 OP:REBC STATUS:               ID:20101110145938 L   I
 2010-11-10-1457-40S.COL___128                                                 6
 STAT SP IPHASW D HRMM SECON CODA AMPLIT PERI AZIMU VELO SNR AR TRES W  DIS CAZ7
 BAR2 SZ EP       1459 57.64                             172     0.010   19 184 
 BAR2 SZ ES   1   15 0 12.91                             172     0.0 7   19 184 
 BAR2 SZ I        15 0 13.61        12.1 0.17                            19 184 
 BRR  HZ EP   2   1459 59.08                             153    -0.2 5   71 303 
 BRR  HZ I        15 0  6.51        11.7 0.21                            71 303 
 BRR  HE ES   2   15 0 15.86                             153     0.1 5   71 303 
 RUS  HZ EP   1   15 0  1.69                             145     0.1 7   96 174 
 RUS  HN ES   1   15 0 19.83                             145    -0.1 7   96 174 
 RUS  HZ I        15 0 23.09         2.8 0.30                            96 174 
 GUE  SZ EP   2   15 0  3.02                             138    -0.2 5  121  13 
 GRA  SZ EP       15 0  3.87                             136     0.110  131  18 
 GRA  SZ I        15 0 27.60         4.9 0.30                           131  18 
                                                                                
