 2012  410 1846 28.2 L   6.812 -73.190138.9  RSN 16 0.5 3.5LRSN 3.8WRSN        1
 SPEC AVERAGE  MO 14.8 ST 21.1 OM  3.0 f0 2.88 R0.5168 AL 3.48 WI 25.1 MW  3.8 3
 GAP=109        1.03       3.4     4.6  6.9  0.6283E+00  0.1027E+02  0.4324E+01E
 Epicentro: ZAPATOCA - SANTANDER                                               3
 SPEC ROSCBH Z MO 14.8 ST 25.7 OM  2.9 f0 3.20 R0.4594 AL 5.08 WI 33.0 MW  3.8 3
 SPEC ROSCBH Z T184731 K 0.020 GD  286 VS 4.20 DE 3.20 Q0230.0 QA 0.60 VS 4.20 3
 SPEC CHI HH N MO 14.8 ST 16.5 OM  3.0 f0 2.56 R0.5742 AL 1.89 WI 17.3 MW  3.8 3
 SPEC CHI HH N T184732 K 0.020 GD  285 VS 4.20 DE 3.20 Q0230.0 QA 0.60 VS 4.20 3
 ACTION:UP  12-07-05 14:00 OP:tino STATUS:               ID:20120410184627 L   I
 2012-04-10-1844-38M.COL___184                                                 6
 STAT SP IPHASW D HRMM SECON CODA AMPLIT PERI AZIMU VELO AIN AR TRES W  DIS CAZ7
 BAR2 SZ EP       1846 47.03                             170    0.0010 24.3 178 
 BAR2 SZ ES   1   1847  1.83                             170    0.12 7 24.3 178 
 BAR2 SZ I        1847  4.49       693.9 0.28                          24.3 178 
 BRR  HZ EP       1846 48.73                             153    0.4010 66.3 300 
 BRR  HZ I        1847  7.85       765.5 0.22                          66.3 300 
 PAM  SZ EP       1846 49.64                             149   -0.2010 79.7  43 
 PAM  SN ES   1   1847  6.75                             149    0.04 7 79.7  43 
 PAM  SZ I        1847  8.79       501.3 0.55                          79.7  43 
 RUS  HZ EP       1846 51.07                             142   -0.3510  102 173 
 RUS  HE ES   1   1847 10.05                             142    0.53 7  102 173 
 RUS  HZ I        1847 11.68       623.8 0.31                           102 173 
 PTB  HZ EP   1   1846 53.48                             131   -0.72 7  143 258 
 PTB  HN ES   1   1847 14.08                             131   -0.39 7  143 258 
 PTB  HZ I        1847 16.40       365.1 0.26                           143 258 
 OCA  SZ EP       1846 55.47                             128   -0.35 9  158 355 
 OCA  SZ ES   1   1847 17.51                             128    0.15 7  158 355 
 YOP  SZ EP   1   1846 57.94                             124   -0.17 7  182 152 
 YOP  SN ES   1   1847 21.68                             124    0.25 7  182 152 
 YOP  SZ I        1847 25.31       291.3 0.50                           182 152 
 ZAR  HZ EP   1   1846 59.45                             122   -0.23 6  199 292 
 ZAR  HN ES   1   1847 24.62                             122    0.38 6  199 292 
 ZAR  HZ I        1847 30.66       621.7 0.33                           199 292 
 NOR  SZ EP   1   1847  3.04                             117   -0.15 6  231 233 
 NOR  SN ES   1   1847 30.14                             117   -0.34 6  231 233 
 CHI  HZ EP   1   1847  5.37                             116   -0.16 6  249 194 
 CHI  HN ES   1   1847 33.82                             116   -0.83 6  249 194 
 CHI  HZ I        1847 38.55       218.3 0.39                           249 194 
 ROSC BZ EP       1847  6.71                             115    0.90 8  251 210 
 ROSC BZ I        1847 43.97       299.2 0.50                           251 210 
 VIL  SZ EP   1   1847 10.83                             111   -0.52 5  304 191 
 VIL  SZ I        1847 51.24       120.9 0.48                           304 191 
 RREF HZ EP   1   1847 14.58                             110    0.85 5  319 229 
 RREF HZ I        1847 58.95       151.4 0.55                           319 229 
 DBB  SZ EP   1   1847 15.43                             109    0.60 5  334 274 
 TOL  SZ EP   1   1847 16.80                             108    0.90 5  341 224 
 PRA  HZ EP   1   1847 21.17                             105   -0.18 4  391 209 
                                                                                
