 2010  910 1240  2.5 L   6.840 -73.094144.9  RSN 11 0.5 2.7LRSN                1
 GAP=181        1.03       5.8    10.8  8.9 -0.3418E+02  0.1666E+02  0.1182E+02E
 Epicentro: LOS SANTOS - SANTANDER                                             3
 ACTION:UP  11-02-18 11:01 OP:tino STATUS:               ID:20100910124002 L   I
 2010-09-10-1237-22S.COL___120                                                 6
 STAT SP IPHASW D HRMM SECON CODA AMPLIT PERI AZIMU VELO SNR AR TRES W  DIS CAZ7
 GIR2 SZ EP       1240 21.92                             168     0.010   29 337 
 BAR2 SZ IP       1240 21.84                             168    -0.310   29 200 
 BAR2 SZ I        1240 22.01       119.9 0.23                            29 200 
 BAR2 SZ ES   2   1240 36.50                             168    -0.9 5   29 200 
 GIR2 SZ ES   2   1240 36.89                             168    -0.3 5   29 337 
 BRR  HZ IP     C 1240 23.69                             151     0.010   74 293 
 BRR  HZ I        1240 23.98       150.8 0.31                            74 293 
 BRR  HE ES   2   1240 40.33                             151     0.1 5   74 293 
 GRA  SZ IP       1240 27.71                             138     0.610  120  15 
 GRA  SZ ES   2   1240 47.16                             138     0.8 5  120  15 
 GRA  SZ I        1240 48.42        60.4 0.35                           120  15 
 OCA  SZ EP   1   1240 30.36                             130     0.0 7  157 351 
 OCA  SZ ES   2   1240 51.69                             130    -0.4 5  157 351 
 OCA  SZ I        1240 57.15        47.1 0.30                           157 351 
 CHI  HZ EP   1   1240 40.51                             116    -0.2 6  254 196 
 CHI  HE ES   2   1241 11.00                             116     0.4 4  254 196 
 CHI  HZ I        1241 17.29        15.8 0.30                           254 196 
 ROSC BZ EP   1   1240 41.14                             116    -0.1 6  259 212 
 ROSC BN ES   1   1241 12.82                             116     1.3 6  259 212 
 ROSC BZ I        1241 19.61        29.6 0.35                           259 212 
 HEL  HZ EP       1240 43.05                             114    -0.3 7  279 255 
 HEL  HZ I        1241 20.17        30.8 0.46                           279 255 
 RREF HZ EP   1   1240 48.55                             110    -0.8 5  329 229 
 RREF HE ES   2   1241 27.15                             110     1.2 3  329 229 
 RREF HZ I        1241 30.03        21.5 0.76                           329 229 
 TOL  SZ EP   1   1240 51.67                             109     0.2 5  351 225 
 PRA  HZ EP   1   1240 55.85                             106    -0.9 4  399 210 
 PRA  HE ES   2   1241 38.73                             106    -0.3 3  399 210 
 PRA  HZ I        1241 44.66        18.3 0.17                           399 210 
                                                                                
