 2012  610 1414 37.6 L   6.924 -73.344130.0  RSN  5 0.4 1.9LRSN                1
 GAP=153        0.84       5.0     5.9 11.4 -0.3490E+01  0.3099E+02 -0.8545E+01E
 Epicentro: BETULIA - SANTANDER                                                3
 ACTION:UPD 12-08-06 17:48 OP:ep   STATUS:               ID:20120610141435 L   I
 2012-06-10-1410-00M.COL___201                                                 6
 STAT SP IPHASW D HRMM SECON CODA AMPLIT PERI AZIMU VELO AIN AR TRES W  DIS CAZ7
 BAR2 SZ EP   1   1414 56.50                             162    0.67 8 40.8 154 
 BAR2 SZ ES   1   1415  9.74                             162   -0.34 8 40.8 154 
 BAR2 SZ I        1415 10.92        61.4 0.30            168           40.8 154 
 PTB  HZ EP   1   1415  1.64                             132    0.00 8  130 251 
 PTB  HN ES   1   1415 20.27                             132   -0.15 8  130 251 
 PTB  HZ I        1415 23.52         6.2 0.21            133            130 251 
 OCA  HN ES   1   1415 23.23                             129   -0.06 8  145   1 
 ZAR  HZ EP   1   1415  5.50                             122   -0.86 7  179 291 
 ZAR  HN ES       1415 29.19                             122    0.3710  179 291 
 ZAR  HZ I        1415 34.87         4.9 0.13            124            179 291 
 NOR  SE ES   1   1415 37.96                             116    0.03 7  226 228 
                                                                                
