 2012 1210 1047 23.9 L   6.086 -73.865116.6  RSN  4 0.5 1.5LRSN                1
 GAP=133        1.37       6.9     7.4 18.6  0.8646E+00 -0.2590E+02  0.4718E+02E
 Epicentro: EL PEON - SANTANDER                                                3
 ACTION:UPD 13-01-04 14:26 OP:ep   STATUS:               ID:20121210104723 L   I
 2012-12-10-1040-00M.COL___242                                                 6
 STAT SP IPHASW D HRMM SECON CODA AMPLIT PERI AZIMU VELO AIN AR TRES W  DIS CAZ7
 PTB  HZ EP       1047 41.93                             142   -0.8310 82.5 307 
 PTB  HN ES       1047 57.98                             142    0.4810 82.5 307 
 PTB  HZ I        1048  0.58         2.6 0.10                          82.5 307 
 RUS  HZ EP       1047 44.02                             140    0.0910 89.1 104 
 BAR2 SZ EP       1047 44.72                             138    0.7610 94.0  53 
 BAR2 SZ ES       1047 59.18                             138   -0.4710 94.0  53 
 BAR2 SZ I        1048  0.25        16.6 0.24                          94.0  53 
 CHI  HN ES       1048 11.36                             122   -0.03 9  162 175 
                                                                                
