 2010  910 1831 30.4 L   6.721 -73.183150.4  RSN  6 0.4 1.6LRSN                1
 GAP=155        0.67       6.3    13.1 10.2  0.2145E+02 -0.4986E+02 -0.2337E+02E
 Epicentro: VILLANUEVA - SANTANDER                                             3
 ACTION:UP  11-02-18 11:01 OP:tino STATUS:               ID:20100910183130 L   I
 2010-09-10-1826-29S.COL___120                                                 6
 STAT SP IPHASW D HRMM SECON CODA AMPLIT PERI AZIMU VELO SNR AR TRES W  DIS CAZ7
 BAR2 SZ EP   1   1831 50.01                             174    -0.5 7   14 181 
 BAR2 SZ ES   2   1832  5.90                             174    -0.2 5   14 181 
 BAR2 SZ I        1832  6.79        11.2 0.57                            14 181 
 GIR2 SZ EP   2   1831 51.56                             164     0.6 5   40 358 
 BRR  HZ EP   1   1831 51.97                             153    -0.2 7   73 306 
 BRR  HZ I        1831 52.24        16.0 0.15                            73 306 
 BRR  HN ES   2   1832  9.47                             153     0.4 5   73 306 
 RUS  HZ EP   1   1831 54.23                             147     0.1 7   92 173 
 RUS  HN ES   2   1832 12.78                             147     0.3 5   92 173 
 RUS  HZ I        1832 16.08         2.8 0.37                            92 173 
 GUE  SZ EP   1   1831 56.19                             138    -0.2 7  126  13 
 GRA  SZ EP   2   1831 57.57                             136     0.7 5  135  18 
 GRA  SZ ES   3   1832 17.23                             136    -0.3 2  135  18 
                                                                                
