 2012  110 1321 27.1 L   6.671 -72.622  0.9  RSN 13 0.5 2.8LRSN                1
 GAP=129        0.96       3.7     5.1  9.1  0.6287E+01  0.1609E+02  0.1653E+02E
 Epicentro: CARCASI - SANTANDER                                                3
 ACTION:UP  12-02-03 08:16 OP:REBC STATUS:               ID:20120110132127 L   I
 2012-01-10-1320-00M.COL___186                                                 6
 STAT SP IPHASW D HRMM SECON CODA AMPLIT PERI AZIMU VELO SNR AR TRES W  DIS CAZ7
 BAR2 SZ IP       1321 37.30                              47    -0.510   63 262 
 BAR2 SZ ES   2   1321 45.78                              47    -0.4 5   63 262 
 BAR2 SZ I        1321 47.06       289.5 0.28                            63 262 
 PAM  SZ IP       1321 39.63                              47    -0.210   74 353 
 PAM  SE ES   3   1321 49.28                              47    -0.6 2   74 353 
 GIR2 SZ EP       1321 40.74                              47     0.710   78 306 
 GIR2 SZ ES   3   1321 49.91                              47    -0.2 2   78 306 
 BRR  HZ EP   3   1321 48.71                              47     1.0 2  130 292 
 YOP  SZ EP   1   1321 49.63                              47    -0.9 7  147 171 
 YOP  SN ES   1   1322  9.47                              47     0.6 7  147 171 
 YOP  SZ I        1322 11.99        97.4 0.36                           147 171 
 PTB  HZ EP   2   1321 59.08                              37     0.8 4  203 266 
 PTB  HE ES   3   1322 22.25                              37    -0.4 2  203 266 
 PTB  HZ I        1322 27.36       244.3 0.46                           203 266 
 CHI  HZ EP   1   1322  5.66                              37     0.2 6  257 209 
 CHI  HZ I        1322 44.06        37.6 0.53                           257 209 
 ZAR  HN ES   3   1322 36.07                              37     0.2 2  263 290 
 ZAR  HZ I        1322 45.66        40.0 0.44                           263 290 
 NOR  SZ EP   3   1322  7.86                              37     0.3 2  277 244 
 NOR  SN ES   3   1322 39.46                              37     0.3 2  277 244 
 VIL  SN ES   3   1322 45.43                              36    -0.4 2  307 203 
 HEL  HN ES   1   1322 50.55                              36     0.0 5  326 261 
 HEL  HZ I        1323  3.46        22.6 0.30                           326 261 
 SDV  BZ EP   2   1322 14.36                              36     0.3 3  329  42 
 SDV  BZ I        1323  1.52        44.9 0.40                           329  42 
 RREF HZ EP   3   1322 18.63                              36     0.2 2  360 237 
 RREF HN ES   3   1322 58.27                              36    -0.3 2  360 237 
 RREF HZ I        1323 12.63        16.9 0.34                           360 237 
                                                                                
