 2013  610 1120 45.0 L   6.752 -73.178148.4  RSN  7 0.5 1.8LRSN                1
 GAP=179        0.96       6.7     6.7  8.6  0.1715E+02  0.8467E+01 -0.1006E+01E
 Epicentro: VILLANUEVA - SANTANDER                                             3
 ACTION:UPD 14-01-08 09:53 OP:ep   STATUS:               ID:20130610112045 L   I
 OLDACT:UP  13-06-10 16:29 OP:mh   STATUS:               ID:20130610111959     3
 OLDACT:REG 13-06-10 14:13 OP:mh   STATUS:               ID:20130610111959     3
 2013-06-10-1119-59M.COL___261                                                 6
 STAT SP IPHASW D HRMM SECON CODA AMPLIT PERI AZIMU VELO AIN AR TRES W  DIS CAZ7
 BAR2 SZ EP   1   1121  4.81                             173   -0.08 7 17.6 181 
 BAR2 SZ ES       1121 19.94                             173   -0.4310 17.6 181 
 BAR2 SZ I        1121 21.00         9.7 0.26            178           17.6 181 
 BRR  HZ IP     D 1121  6.64                             153    0.1810 70.9 304 
 BRR  HE ES       1121 23.74                             153    0.5810 70.9 304 
 BRR  HE I        1121 27.73        12.2 0.18            151           70.9 304 
 RUS  HZ EP   1   1121  9.29                             146    0.59 7 95.6 174 
 RUS  HN ES   1   1121 27.24                             146    0.09 7 95.6 174 
 RUS  HN I        1121 28.73         5.4 0.22            150           95.6 174 
 PTB  HZ EP   1   1121 11.24                             133   -0.58 7  143 261 
 PTB  HN ES       1121 32.38                             133   -0.33 9  143 261 
 PTB  HN I        1121 35.04         5.3 0.34            135            143 261 
 OCA  HN ES   2   1121 35.63                             129   -0.99 5  165 355 
 ZAR  HN ES   1   1121 43.15                             123    0.27 6  203 294 
 ZAR  HN I        1121 44.99         8.1 0.12            123            203 294 
 SML  HN ES   4   1121 47.38                             117   -3.78 0  247 337 
 SML  HN I        1121 57.64        11.5 0.10            117            247 337 
                                                                                
