 2013  110 1318 50.5 L   5.974 -73.752103.5  RSN  5 0.5 1.5LRSN                1
 GAP=130        1.30       4.4     6.1 13.1  0.5846E+01  0.2774E+02  0.1653E+02E
 Epicentro: GUAVATA - SANTANDER                                                3
 ACTION:UPD 13-02-15 09:13 OP:ep   STATUS:               ID:20130110131850 L   I
 2013-01-10-1308-40M.COL___163                                                 6
 STAT SP IPHASW D HRMM SECON CODA AMPLIT PERI AZIMU VELO AIN AR TRES W  DIS CAZ7
 RUS  HZ EP       1319  7.88                             142   -0.3710 74.6  97 
 RUS  HN ES       1319 21.37                             142   -0.7010 74.6  97 
 BAR2 SZ EP   1   1319  9.29                             135   -0.10 7 93.0  43 
 BAR2 SZ ES       1319 24.62                             135    0.5110 93.0  43 
 BAR2 SZ I        1319 25.44        15.1 0.18            140           93.0  43 
 PTB  HZ EP       1319  9.01                             132   -0.6910 99.9 309 
 PTB  HN ES       1319 24.53                             132   -0.1210 99.9 309 
 PTB  HN I        1319 26.61         4.1 0.30            136           99.9 309 
 BRR  HZ EP       1319 11.96                             125   -0.1410  125   2 
 BRR  HN ES       1319 29.71                             125    0.7710  125   2 
 CHI  HZ EP       1319 15.40                             120    0.36 9  149 179 
 CHI  HN ES       1319 34.78                             120    0.61 9  149 179 
 CHI  HN I        1319 37.68         4.1 0.38            123            149 179 
                                                                                
