 2010 1110 1155 49.3 L   6.767 -73.109152.8  RSN  4 0.3 1.4LRSN                1
 GAP=239        0.62       7.0     8.2  8.6  0.1229E+02  0.2548E+02  0.3420E+01E
 Epicentro: LOS SANTOS - SANTANDER                                             3
 ACTION:UP  10-12-17 16:51 OP:REBC STATUS:               ID:20101110115549 L   I
 2010-11-10-1153-25S.COL___128                                                 6
 STAT SP IPHASW D HRMM SECON CODA AMPLIT PERI AZIMU VELO SNR AR TRES W  DIS CAZ7
 BAR2 SZ EP   1   1156  9.57                             172    -0.1 9   21 203 
 BRR  HZ EP   2   1156 11.05                             152    -0.4 6   77 299 
 BRR  HZ I        1156 13.09         7.6 0.16                            77 299 
 BRR  HE ES   2   1156 29.11                             152     0.3 6   77 299 
 RUS  HZ EP   1   1156 13.94                             146     0.5 9   97 178 
 RUS  HZ I        1156 14.66         2.0 0.09                            97 178 
 RUS  HN ES   1   1156 32.08                             146    -0.2 9   97 178 
 NOR  SZ EP       1156 25.44                             120    -0.110  236 236 
 NOR  SE ES   2   1156 54.05                             120     0.2 5  236 236 
                                                                                
