 2013  210 1051 55.2 L   6.793 -73.144147.2  RSN  8 0.4 1.8LRSN                1
 GAP=137        0.81       3.6     4.4  6.3  0.3069E+01  0.1870E+01 -0.3899E+00E
 Epicentro: LOS SANTOS - SANTANDER                                             3
 ACTION:UPD 13-03-12 09:32 OP:ep   STATUS:               ID:20130210105155 L   I
 2013-02-10-1050-00M.COL___241                                                 6
 STAT SP IPHASW D HRMM SECON CODA AMPLIT PERI AZIMU VELO AIN AR TRES W  DIS CAZ7
 BAR2 SZ EP       1052 15.03                             171    0.0310 22.6 191 
 BAR2 SZ I        1052 32.69        13.5 0.29            170           22.6 191 
 BRR  HZ IP     C 1052 16.78                             153    0.2310 71.8 299 
 BRR  HN ES       1052 33.73                             153    0.5510 71.8 299 
 BRR  HN I        1052 34.26        20.7 0.27            153           71.8 299 
 PAM  SZ EP       1052 17.88                             151    0.2710 77.9  39 
 PAM  SE ES   1   1052 34.59                             151   -0.48 7 77.9  39 
 PAM  SZ I        1052 36.84        10.8 0.70            150           77.9  39 
 RUS  HZ EP       1052 19.10                             144    0.0610 99.8 176 
 RUS  HN ES       1052 37.31                             144   -0.3210 99.8 176 
 RUS  HN I        1052 39.52        13.6 0.26            142           99.8 176 
 PTB  HZ EP       1052 22.02                             132   -0.28 9  148 259 
 PTB  HE ES   1   1052 43.09                             132   -0.34 7  148 259 
 PTB  HZ I        1052 45.51         6.0 0.12            131            148 259 
 ZAR  HN ES   1   1052 53.09                             123   -0.13 6  205 292 
 ZAR  HZ I        1052 58.59         4.4 0.10            122            205 292 
 SML  HZ EP   1   1052 31.38                             118   -0.63 6  245 335 
 SML  HN ES   1   1053  0.43                             118   -0.27 6  245 335 
 CHI  HZ EP   1   1052 33.58                             117    0.67 6  248 195 
                                                                                
