 2013  410 1422 35.5 L   6.786 -73.173148.0  RSN  9 0.5 2.0LRSN                1
 GAP=178        0.99       4.0     5.8  6.2  0.3878E+01  0.6274E+01  0.6346E+01E
 Epicentro: LOS SANTOS - SANTANDER                                             3
 ACTION:UPD 13-05-22 14:37 OP:EP   STATUS:               ID:20130410142235 L   I
 2013-04-10-1420-00M.COL___245                                                 6
 STAT SP IPHASW D HRMM SECON CODA AMPLIT PERI AZIMU VELO AIN AR TRES W  DIS CAZ7
 BAR2 SZ EP       1422 55.29                             172   -0.0310 21.5 183 
 BAR2 SZ ES       1423 11.08                             172    0.2710 21.5 183 
 BAR2 SZ I        1423 12.00        25.9 0.34            164           21.5 183 
 GIR2 SZ EP       1422 55.51                             167    0.0910 32.4 356 
 GIR2 SZ ES   1   1423 10.71                             167   -0.29 7 32.4 356 
 GIR2 SZ I        1423 13.50        11.2 0.16            166           32.4 356 
 BRR  HZ EP       1422 57.13                             154    0.3910 69.3 301 
 BRR  HN ES       1423 13.70                             154    0.3610 69.3 301 
 RUS  HZ EP       1422 59.14                             145   -0.1910 99.3 174 
 RUS  HN ES       1423 17.96                             145    0.0010 99.3 174 
 RUS  HZ I        1423 19.03         7.6 0.16            136           99.3 174 
 PTB  HZ EP       1423  2.03                             133   -0.28 9  144 259 
 PTB  HN ES       1423 23.02                             133   -0.24 9  144 259 
 PTB  HZ I        1423 30.58        22.5 0.26            124            144 259 
 NOR  HN ES   1   1423 38.91                             119    0.27 6  231 234 
 NOR  HZ I        1423 45.34        10.0 0.14            112            231 234 
 SML  HN ES   1   1423 40.00                             118   -0.90 6  244 336 
 CHI  HZ EP       1423 13.32                             118    0.29 8  246 195 
 CHI  HN ES       1423 41.35                             118   -0.99 8  246 195 
 CHI  HZ I        1423 47.85         4.6 0.60            111            246 195 
 PRA  HZ EP       1423 29.85                             107    1.13 6  389 209 
 PRA  HZ I        1424 16.53         3.9 0.20            102            389 209 
                                                                                
