 2013  610 1307 17.9 L   6.277 -73.486110.0  RSN  4 0.3 1.2LRSN                1
 GAP=241        0.66      12.0     6.3 16.0 -0.2896E+02 -0.2764E+01  0.1448E+03E
 Epicentro: CONTRATACION - SANTANDER                                           3
 ACTION:UPD 14-01-08 09:53 OP:ep   STATUS:               ID:20130610130717 L   I
 OLDACT:REG 13-06-10 14:17 OP:mh   STATUS:               ID:20130610125959     3
 2013-06-10-1259-59M.COL___261                                                 6
 STAT SP IPHASW D HRMM SECON CODA AMPLIT PERI AZIMU VELO AIN AR TRES W  DIS CAZ7
 BAR2 SZ EP   1   13 7 34.67                             155    0.40 7 48.4  44 
 GIR2 SZ ES       13 7 52.18                             137   -0.3210 94.4  20 
 GIR2 SZ I        13 7 53.42         4.9 0.40            156           94.4  20 
 BRR  HZ EP       13 7 37.14                             137   -0.0810 95.2 345 
 BRR  HE ES   1   13 7 52.74                             137    0.47 7 95.2 345 
 PTB  HZ EP       13 7 38.62                             132   -0.0410  111 285 
 PTB  HN ES   2   13 7 54.60                             132   -0.24 5  111 285 
 PTB  HN I        13 8  0.68         2.2 0.38            139            111 285 
                                                                                
