 2013  610 1602 31.1 L   6.731 -73.139136.9  RSN  4 0.3 1.7LRSN                1
 GAP=233        0.66       5.3     8.3  7.0  0.1393E+02  0.2922E+02  0.1950E+01E
 Epicentro: JORDAN - SANTANDER                                                 3
 ACTION:UPD 14-01-08 09:53 OP:ep   STATUS:               ID:20130610160231 L   I
 OLDACT:REG 13-06-10 14:29 OP:mh   STATUS:               ID:20130610155959     3
 2013-06-10-1559-59M.COL___261                                                 6
 STAT SP IPHASW D HRMM SECON CODA AMPLIT PERI AZIMU VELO AIN AR TRES W  DIS CAZ7
 BAR2 SZ EP   1   16 2 49.70                             173    0.13 7 16.0 197 
 BAR2 SZ ES   1   16 3  4.19                             173    0.25 7 16.0 197 
 BAR2 SZ I        16 3  5.13        10.3 0.36            164           16.0 197 
 BRR  HZ EP       16 2 51.27                             149   -0.3410 75.7 303 
 BRR  HN ES   2   16 3  7.86                             149    0.28 5 75.7 303 
 BRR  HN I        16 3 11.77        16.2 0.44            145           75.7 303 
 RUS  HZ EP   1   16 2 54.00                             144    0.54 7 92.9 176 
 RUS  HN ES       16 3 10.56                             144   -0.3110 92.9 176 
 RUS  HN I        16 3 13.50         5.7 0.38            145           92.9 176 
 NOR  HZ EP       16 3  6.00                             117    0.05 8  231 236 
 NOR  HE ES   2   16 3 33.27                             117    0.16 4  231 236 
 NOR  HE I        16 3 38.36         7.2 0.26            117            231 236 
                                                                                
