 2013 1210 1112  2.2 L   6.796 -73.126147.5  RSN 10 0.5 1.9LRSN                1
 GAP=202        1.19       4.6     6.2  7.4  0.6909E+01  0.8527E+01 -0.3232E+00E
 Epicentro: LOS SANTOS - SANTANDER                                             3
 ACTION:UPD 14-01-13 10:17 OP:ep   STATUS:               ID:20131210111202 L   I
 OLDACT:UP  13-12-10 15:11 OP:cam  STATUS:               ID:20131210111000     3
 OLDACT:REG 13-12-10 14:32 OP:cam  STATUS:               ID:20131210111000     3
 2013-12-10-1110-00M.COL___285                                                 6
 STAT SP IPHASW D HRMM SECON CODA AMPLIT PERI AZIMU VELO AIN AR TRES W  DIS CAZ7
 BAR2 SZ EP       1112 21.94                             171   -0.1310 23.4 195 
 BAR2 SZ ES       1112 37.87                             171    0.3210 23.4 195 
 BAR2 SZ I        1112 38.47        23.0 0.30            169           23.4 195 
 BRR  HZ EP       1112 23.80                             152    0.1110 73.3 298 
 BRR  HN ES       1112 41.25                             152    0.8310 73.3 298 
 BRR  HZ I        1112 42.85        10.0 0.16            150           73.3 298 
 RUS  HZ EP       1112 25.83                             144   -0.2910  100 177 
 RUS  HN ES       1112 44.22                             144   -0.5310  100 177 
 RUS  HZ I        1112 45.81         5.1 0.36            146            100 177 
 PTB  HZ EP   1   1112 29.52                             132   -0.01 7  150 259 
 PTB  HN ES       1112 50.00                             132   -0.81 9  150 259 
 PTB  HZ I        1112 55.58        10.4 0.34            131            150 259 
 SPBC HZ EP       1112 30.92                             129   -0.04 9  164 220 
 SPBC HN ES       1112 53.84                             129    0.47 9  164 220 
 SPBC HZ I        1112 57.03        12.0 0.38            129            164 220 
 ZAR  HZ EP       1112 35.89                             123    0.88 8  206 292 
 ZAR  HE ES       1113  0.40                             123   -0.18 8  206 292 
 ZAR  HZ I        1113  2.30         7.4 0.18            123            206 292 
 NOR  HZ EP   1   1112 38.26                             119    0.03 6  236 235 
 NOR  HE ES       1113  6.18                             119   -0.12 8  236 235 
 NOR  HZ I        1113  9.70         6.9 0.20            119            236 235 
 SML  HN ES       1113  6.91                             118   -0.93 8  245 335 
 SML  HZ I        1113 11.50        14.9 0.10            119            245 335 
 CHI  HZ EP   2   1112 40.10                             118    0.05 4  249 196 
 GUY2CHZ EP   4   1112 48.48                             113    2.39 0  303 235 
 PRA  HZ EP   1   1112 56.83                             107    0.93 4  393 210 
 SJC  HZ EP   4   1112 56.17                             106   -1.86 0  411 327 
                                                                                
