 2011 1110 1724 45.2 L   6.775 -73.121142.0  RSN  9 0.3 2.3LRSN                1
 GAP=141        0.63       2.4     3.2  4.2 -0.6148E+00  0.3947E+01  0.3463E+00E
 Epicentro: LOS SANTOS - SANTANDER                                             3
 ACTION:UPD 12-07-13 16:09 OP:ep   STATUS:               ID:20111110172445 L   I
 2011-11-10-1722-15S.COL___185                                                 6
 STAT SP IPHASW D HRMM SECON CODA AMPLIT PERI AZIMU VELO AIN AR TRES W  DIS CAZ7
 BAR2 SZ EP       1725  4.38                             171    0.0210 21.3 198 
 BAR2 SZ ES   1   1725 18.75                             171   -0.54 7 21.3 198 
 BAR2 SZ I        1725 20.39        59.7 0.39                          21.3 198 
 BRR  HZ IP       1725  6.42                             151    0.2410 74.9 299 
 BRR  HN ES       1725 22.92                             151    0.3910 74.9 299 
 BRR  HZ I        1725 28.00        50.8 0.16                          74.9 299 
 PAM  SZ EP       1725  7.42                             150    0.3510 77.9  37 
 PAM  SN ES       1725 24.09                             150   -0.0210 77.9  37 
 RUS  HZ EP       1725  8.57                             144    0.1810 97.7 178 
 RUS  HN ES       1725 26.36                             144   -0.1110 97.7 178 
 RUS  HZ I        1725 28.42        19.8 0.37                          97.7 178 
 OCA  SZ EP       1725 13.31                             128   -0.23 9  163 352 
 OCA  SZ ES   1   1725 34.98                             128   -0.65 7  163 352 
 OCA  SZ I        1725 39.05        46.0 0.26                           163 352 
 ZAR  HZ EP   1   1725 17.39                             121   -0.40 6  208 293 
 ZAR  HE ES   1   1725 43.39                             121    0.19 6  208 293 
 ZAR  HZ I        1725 49.57        20.5 0.16                           208 293 
 NOR  SZ EP   2   1725 20.92                             118    0.12 4  235 235 
 NOR  SN ES   2   1725 48.11                             118   -0.44 4  235 235 
 HEL  HZ EP   2   1725 25.45                             114   -0.01 4  274 257 
 HEL  HE ES   1   1725 56.75                             114   -0.10 6  274 257 
 HEL  HZ I        1726  1.69         8.8 0.34                           274 257 
 PRA  HZ EP   1   1725 38.11                             106   -0.38 4  391 210 
 PRA  HN ES   1   1726 20.03                             106   -0.01 4  391 210 
                                                                                
