 2013  810 1923 17.8 L   6.462 -73.714103.2  RSN  7 0.4 1.7LRSN                1
 GAP=100        0.89       3.3     3.2  7.8  0.9542E+00  0.1184E+02  0.4749E+01E
 Epicentro: SANTA HELENA DEL OPON - SANTANDER                                  3
 ACTION:UPD 14-01-14 09:00 OP:ep   STATUS:               ID:20130810192317 L   I
 OLDACT:REG 13-08-10 17:30 OP:carl STATUS:               ID:20130810191959     3
 2013-08-10-1919-59M.COL___271                                                 6
 STAT SP IPHASW D HRMM SECON CODA AMPLIT PERI AZIMU VELO AIN AR TRES W  DIS CAZ7
 BAR2 SZ EP   1   1923 34.13                             147   -0.02 7 60.5  76 
 BAR2 SZ ES   1   1923 47.09                             147    0.19 7 60.5  76 
 BAR2 SZ I        1923 48.09        41.8 0.32            150           60.5  76 
 BRR  HZ EP   1   1923 34.40                             142   -0.17 7 71.4   0 
 BRR  HN ES   1   1923 47.79                             142    0.14 7 71.4   0 
 BRR  HN I        1923 49.28        39.0 0.16            143           71.4   0 
 PTB  HZ EP       1923 34.70                             138   -0.7710 82.6 276 
 PTB  HN ES   1   1923 48.62                             138   -0.63 7 82.6 276 
 PTB  HZ I        1923 50.29        15.4 0.12            139           82.6 276 
 GIR2 SZ EP   1   1923 36.14                             136   -0.06 7 89.2  40 
 GIR2 SZ ES       1923 50.86                             136    0.3110 89.2  40 
 GIR2 SZ I        1923 50.99        15.2 0.40            138           89.2  40 
 RUS  HZ EP       1923 37.08                             135   -0.0110 94.0 132 
 RUS  HN ES       1923 51.94                             135   -0.1910 94.0 132 
 RUS  HZ I        1923 53.38         2.9 0.30            138           94.0 132 
 NOR  HZ EP       1923 43.59                             117    0.32 9  162 232 
 NOR  HN ES       1924  3.73                             117    0.60 9  162 232 
 ZAR  HZ EP       1923 44.02                             116   -0.09 9  170 312 
 ZAR  HN ES       1924  4.95                             116    0.33 9  170 312 
 ZAR  HZ I        1924  8.73         5.0 0.10            118            170 312 
                                                                                
