 2013  210 1539 46.9 L   6.671 -73.162151.8  RSN  6 0.2 1.6LRSN                1
 GAP=140        0.49       3.9     3.2  6.3  0.4835E+01 -0.4847E+01 -0.8130E+01E
 Epicentro: VILLANUEVA - SANTANDER                                             3
 ACTION:UPD 13-03-12 09:32 OP:ep   STATUS:               ID:20130210153946 L   I
 2013-02-10-1540-00M.COL___241                                                 6
 STAT SP IPHASW D HRMM SECON CODA AMPLIT PERI AZIMU VELO AIN AR TRES W  DIS CAZ7
 BAR2 SZ EP   1   1540  7.00                             176   -0.10 7 8.99 195 
 BAR2 SZ I        1540 23.26         8.5 0.17            175           8.99 195 
 BRR  HZ EP       1540  9.28                             151    0.1710 77.6 308 
 BRR  HE ES   1   1540 26.60                             151    0.20 7 77.6 308 
 BRR  HZ I        1540 29.19         6.2 0.45            153           77.6 308 
 RUS  HZ EP   1   1540 10.70                             149    0.35 7 86.5 174 
 RUS  HN ES   1   1540 28.51                             149   -0.11 7 86.5 174 
 RUS  HN I        1540 31.10         7.5 0.26            148           86.5 174 
 PAM  SZ EP       1540 10.32                             148   -0.2410 89.9  35 
 PAM  SZ I        1540 10.68         7.0 0.24            148           89.9  35 
 PTB  HZ EP   1   1540 14.06                             134    0.00 7  144 264 
 PTB  HN ES   1   1540 34.93                             134   -0.30 7  144 264 
 PTB  HZ I        1540 37.10         2.4 0.09            135            144 264 
 ZAR  HN ES       1540 46.20                             123    0.03 8  208 296 
 ZAR  HN I        1540 50.21         4.9 0.14            124            208 296 
                                                                                
