 2017  710 1924  6.4 L   6.827 -73.333120.0  RSN  7 0.3 2.0LRSN                1
 GAP=104        0.92       3.8     3.1  5.5  0.1820E+01  0.2863E+01  0.5786E+01E
 Epicentro: ZAPATOCA - SANTANDER                                               3
 ACTION:UPD 17-08-30 15:31 OP:rebc STATUS:               ID:20170710192406 L   I
 OLDACT:REG 17-07-10 21:35 OP:lv   STATUS:               ID:20170710191741     3
 2017-07-10-1918-00M.COL___378                                                 6
 STAT SP IPHASW D HRMM SECON CODA AMPLIT PERI AZIMU VELO AIN AR TRES W  DIS CAZ7
 BAR2 EZ IP     D 1924 23.01                             165   -0.1510 30.8 147 
 BAR2 EZ ES       1924 36.19                             165   -0.0410 30.8 147 
 BAR2 EZ I        1924 37.24        43.3 0.14            166           30.8 147 
 BRR  HZ IP     C 1924 23.42                             154   -0.2910 52.1 307 
 BRR  HN ES       1924 37.40                             154    0.2010 52.1 307 
 BRR  HZ I        1924 38.25        27.8 0.07            154           52.1 307 
 PAM  EZ EP       1924 26.75                             140   -0.1310 90.0  51 
 PAM  EN ES       1924 42.80                             140   -0.0510 90.0  51 
 PAM  EZ I        1924 46.49        11.5 0.31            140           90.0  51 
 PTB  HZ EP   9   1924 28.29                             129   -1.23 0  128 256 
 PTB  HN ES       1924 45.38                                   -0.9310  128 256 
 ZAR  HZ EP       1924 35.75                             118    0.62 9  184 294 
 ZAR  HE ES       1924 57.32                             118   -0.21 9  184 294 
 ZAR  HZ I        1925  2.74        11.8 0.31            119            184 294 
 YPLC HZ EP       1924 36.07                             117    0.18 9  190 146 
 YPLC HN ES       1924 58.79                             117   -0.09 9  190 146 
 YPLC HZ I        1925  1.07        10.4 0.14            118            190 146 
 NOR  HZ EP       1924 38.91                             113   -0.24 8  220 231 
 NOR  HN ES       1925  5.04                             113    0.36 8  220 231 
 SJC  HZ EP   4   1924 57.83                             101   -1.80 0  396 329 
 SJC  HN ES   4   1925 36.87                             101   -4.27 0  396 329 
                                                                                
