 2014  910 1021 19.6 L   6.800 -73.146142.7  RSN 14 0.4 2.1LRSN                1
 GAP=137        0.81       2.9     3.8  5.5 -0.5651E+00  0.7375E+01  0.1116E+01E
 Epicentro: LOS SANTOS - SANTANDER                                             3
 ACTION:UPD 14-10-03 23:03 OP:nd   STATUS:               ID:20140910102119 L   I
 OLDACT:UP  14-09-10 20:09 OP:mh   STATUS:               ID:20140910102000     3
 OLDACT:REG 14-09-10 19:37 OP:mh   STATUS:               ID:20140910102000     3
 2014-09-10-1020-00M.COL___285                                                 6
 STAT SP IPHASW D HRMM SECON CODA AMPLIT PERI AZIMU VELO AIN AR TRES W  DIS CAZ7
 BAR2 SZ EP     C 1021 38.82                             170   -0.0310 23.3 190 
 BAR2 SZ ES   1   1021 53.56                             170   -0.31 7 23.3 190 
 BAR2 SZ I        1021 57.46        24.3 0.35            167           23.3 190 
 PAM  SZ EP   1   1021 41.71                             150    0.24 7 77.4  40 
 PAM  SN ES   1   1021 58.74                             150    0.19 7 77.4  40 
 PAM  SZ I        1022  0.04        18.0 0.18            157           77.4  40 
 RUS  HZ EP   1   1021 42.80                             143   -0.23 7  101 176 
 RUS  HN ES   1   1022  1.25                             143   -0.08 7  101 176 
 RUS  HZ I        1022  2.29         9.4 0.42            144            101 176 
 PTB  HZ EP   1   1021 45.40                             131   -0.90 7  148 259 
 PTB  HN ES   1   1022  7.04                             131   -0.11 7  148 259 
 PTB  HZ I        1022 11.56        17.7 0.18            131            148 259 
 SPBC HZ EP     C 1021 47.77                             128   -0.08 9  163 219 
 SPBC HN ES   1   1022 10.42                             128    0.52 7  163 219 
 SPBC HZ I        1022 12.62        23.6 0.34            129            163 219 
 ZAR  HZ EP       1021 51.43                             122   -0.40 9  204 292 
 ZAR  HN ES       1022 17.00                             122    0.02 9  204 292 
 ZAR  HZ I        1022 23.29        18.6 0.32            123            204 292 
 NOR  HZ EP   1   1021 55.07                             118   -0.07 6  235 234 
 NOR  HN ES       1022 23.27                             118    0.40 8  235 234 
 NOR  HZ I        1022 28.58        14.2 0.28            119            235 234 
 SML  HZ EP   1   1021 55.68                             117   -0.36 6  244 335 
 SML  HN ES   1   1022 25.56                             117    1.09 6  244 335 
 SML  HZ I        1022 26.72        15.3 0.10            119            244 335 
 CHI  HZ EP   1   1021 56.86                             116   -0.25 6  249 195 
 CHI  HN ES   1   1022 26.59                             116    0.20 6  249 195 
 CHI  HZ I        1022 35.78         3.7 0.26            118            249 195 
 HEL  HZ EP   1   1021 59.40                             114   -0.24 6  272 256 
 HEL  HN ES   1   1022 30.22                             114   -0.67 6  272 256 
 HEL  HZ I        1022 38.05        13.9 0.26            115            272 256 
 URE  HZ EP   4   1022  2.87                             113    2.37 0  284 292 
 URE  HN ES   4   1022 30.44                             113   -1.98 0  284 292 
 URE  HZ I        1022 36.67         7.7 0.16            114            284 292 
 GUY2CHZ EP       1022  3.97                             112    0.92 7  301 235 
 GUY2CHN ES   4   1022 38.29                             112    1.33 0  301 235 
 MON  HZ EP   4   1022 10.34                             108    1.87 0  354 308 
 MON  HN ES   4   1022 44.48                             108   -2.12 0  354 308 
 PRA  HZ EP       1022 12.81                             106   -0.19 6  392 210 
 PRA  HN ES   1   1022 55.15                             106    0.49 4  392 210 
 PRA  HZ I        1023  0.82         3.7 0.48            108            392 210 
 ORTC HZ EP   1   1022 13.63                             106    0.23 4  395 216 
 ORTC HN ES   4   1022 53.87                             106   -1.50 0  395 216 
 ORTC HZ I        1023  1.99         3.0 0.50            107            395 216 
                                                                                
