 2015 1210 1934 48.2 L   6.764 -73.178144.5  RSN  4 0.2 1.4LRSN                1
 GAP=142        0.51       6.1     4.3  5.0 -0.2104E+02  0.6184E+01 -0.3227E+01E
 Epicentro: LOS SANTOS - SANTANDER                                             3
 ACTION:UPD 16-02-04 15:03 OP:cam  STATUS:               ID:20151210193448 L   I
 OLDACT:UP  15-12-11 00:52 OP:mh   STATUS:               ID:20151210192750d    3
 OLDACT:DUP 15-12-11 00:50 OP:mh   STATUS:               ID:20151210192750d    3
 OLDACT:REG 15-12-10 22:22 OP:mh   STATUS:               ID:20151210192748     3
 2015-12-10-1927-48M.COL___334                                                 6
 STAT SP IPHASW D HRMM SECON CODA AMPLIT PERI AZIMU VELO AIN AR TRES W  DIS CAZ7
 BAR2 EZ EP       1935  7.63                             172    0.0510 19.0 181 
 BAR2 EZ ES       1935 22.88                             172    0.1710 19.0 181 
 BAR2 EZ I        1935 23.70         8.4 0.16            146           19.0 181 
 PAM  EZ EP       1935 10.61                             149    0.0210 82.7  40 
 PAM  EN ES       1935 27.87                             149   -0.2010 82.7  40 
 PAM  EZ I        1935 56.99         3.1 0.30            127           82.7  40 
 PTB  HZ EP   1   1935 14.98                             133    0.32 7  144 260 
 PTB  HN ES       1935 35.36                             133    0.04 9  144 260 
 PTB  HZ I        1935 38.19         2.9 0.14            125            144 260 
 NOR  HN ES       1935 50.31                             119   -0.34 8  229 235 
                                                                                
