 2014 1110 1727  2.2 L   6.779 -73.131146.8  RSN 10 0.3 2.1LRSN                1
 GAP=139        0.84       3.4     3.8  4.7 -0.3180E+01  0.4125E+01  0.3380E+01E
 Epicentro: LOS SANTOS - SANTANDER                                             3
 ACTION:UPD 14-12-19 15:41 OP:nd   STATUS:               ID:20141110172702 L   I
 OLDACT:REG 14-11-10 22:55 OP:ccam STATUS:               ID:20141110171818     3
 2014-11-10-1718-18M.COL___295                                                 6
 STAT SP IPHASW D HRMM SECON CODA AMPLIT PERI AZIMU VELO AIN AR TRES W  DIS CAZ7
 BAR2 SZ EP     D 1727 21.93                             171   -0.0210 21.5 195 
 BAR2 SZ ES       1727 37.11                             171   -0.2210 21.5 195 
 BAR2 SZ I        1727 40.99        34.7 0.38            169           21.5 195 
 BRR  HZ IP     C 1727 23.93                             152    0.2910 73.8 299 
 BRR  HN ES       1727 40.79                             152    0.4610 73.8 299 
 BRR  HZ I        1727 43.62        17.9 0.48            153           73.8 299 
 PAM  SZ EP       1727 24.62                             151    0.0210 78.1  38 
 PAM  SN ES       1727 42.09                             151    0.0410 78.1  38 
 PAM  SZ I        1727 44.20        14.5 0.26            156           78.1  38 
 RUS  HZ EP       1727 25.70                             145   -0.2210 98.2 177 
 RUS  HE ES       1727 44.32                             145   -0.0710 98.2 177 
 RUS  HZ I        1727 45.64         9.2 0.36            146           98.2 177 
 PTB  HZ EP       1727 28.72                             132   -0.68 9  149 260 
 PTB  HN ES       1727 49.84                             132   -0.74 9  149 260 
 PTB  HZ I        1727 53.53        15.2 0.42            133            149 260 
 SPBC HZ EP       1727 30.68                             129   -0.07 9  162 220 
 SPBC HN ES       1727 53.55                             129    0.57 9  162 220 
 SPBC HZ I        1728  0.00        23.8 0.28            131            162 220 
 NOR  HZ EP       1727 38.11                             119    0.08 8  235 235 
 NOR  HN ES       1728  6.23                             119    0.28 8  235 235 
 NOR  HZ I        1728 10.87        12.5 0.20            121            235 235 
 CHI  HZ EP       1727 39.97                             117    0.17 8  247 196 
 CHI  HN ES       1728  9.06                             117   -0.04 8  247 196 
 CHI  HN I        1728 13.13        10.8 0.22            120            247 196 
 HEL  HZ EP       1727 42.78                             115    0.16 8  273 256 
 GUY2CHZ EP       1727 46.13                             112    0.23 7  301 235 
                                                                                
