 2017  410 1017  4.6 L   6.811 -73.097147.9  RSN  5 0.4 1.4LRSN                1
 GAP=142        0.98       5.4     6.8  7.2 -0.1607E+01  0.7867E+01  0.2180E+01E
 Epicentro: LOS SANTOS - SANTANDER                                             3
 ACTION:UPD 17-05-30 21:10 OP:jn   STATUS:               ID:20170410101704 L   I
 OLDACT:DUP 17-04-10 21:07 OP:cog  STATUS:               ID:20170410100745d    3
 2017-04-10-1008-00M.COL___368                                                 6
 STAT SP IPHASW D HRMM SECON CODA AMPLIT PERI AZIMU VELO AIN AR TRES W  DIS CAZ7
 BAR2 EZ EP       1017 24.51                             169    0.0010 26.0 201 
 BAR2 EZ ES       1017 39.87                             169   -0.2010 26.0 201 
 BAR2 EZ I        1017 41.23         8.1 0.16            170           26.0 201 
 PAM  EZ EP       1017 27.18                             153    0.4210 73.1  37 
 PAM  EE ES       1017 43.49                             153   -0.5910 73.1  37 
 PAM  EZ I        1017 46.01         5.5 0.62            154           73.1  37 
 BRR  HZ EP       1017 26.39                             151    0.2010 75.4 296 
 BRR  HN ES       1017 43.59                             151    0.5410 75.4 296 
 RUS  HZ EP       1017 28.55                             144   -0.0510  102 179 
 RUS  HN ES       1017 47.60                             144    0.2510  102 179 
 RUS  HZ I        1017 48.33         2.6 0.20            145            102 179 
 PTB  HZ EP       1017 31.60                             131   -0.61 9  153 259 
 PTB  HN ES   3   1017 52.68                             131   -1.09 2  153 259 
 PTB  HZ I        1017 55.92         3.1 0.20            132            153 259 
                                                                                
