 2014  910 1121  8.8 L   6.793 -73.141143.6  RSN  9 0.4 1.9LRSN                1
 GAP=137        0.97       3.9     5.0  7.6 -0.2496E+00  0.1227E+02  0.8683E-01E
 Epicentro: LOS SANTOS - SANTANDER                                             3
 ACTION:UPD 14-10-03 23:03 OP:nd   STATUS:               ID:20140910112108 L   I
 OLDACT:REG 14-09-10 19:38 OP:mh   STATUS:               ID:20140910112000     3
 2014-09-10-1120-00M.COL___285                                                 6
 STAT SP IPHASW D HRMM SECON CODA AMPLIT PERI AZIMU VELO AIN AR TRES W  DIS CAZ7
 BAR2 SZ EP       1121 28.35                             171    0.1510 22.7 192 
 BAR2 SZ I        1121 45.50        11.8 0.30            171           22.7 192 
 BRR  HZ EP       1121 30.17                             152    0.3610 72.0 299 
 BRR  HN ES       1121 46.18                             152    0.0210 72.0 299 
 BRR  HZ I        1121 51.05        16.2 0.19            151           72.0 299 
 PAM  SZ EP   1   1121 31.13                             150    0.28 7 77.7  39 
 PAM  SN ES       1121 47.90                             150   -0.1110 77.7  39 
 PAM  SZ I        1121 50.44        22.4 0.58            151           77.7  39 
 RUS  HZ EP   1   1121 32.07                             143   -0.25 7 99.8 176 
 RUS  HN ES   1   1121 50.67                             143    0.03 7 99.8 176 
 RUS  HZ I        1121 51.81         7.2 0.32            145           99.8 176 
 PTB  HZ EP       1121 35.00                             131   -0.67 9  148 259 
 PTB  HN ES   4   1121 57.98                             131    1.39 0  148 259 
 PTB  HZ I        1122  3.11        10.3 0.20            131            148 259 
 SPBC HZ EP   1   1121 37.24                             128    0.09 7  163 219 
 SPBC HN ES       1121 59.05                             128   -0.18 9  163 219 
 SPBC HZ I        1122  2.31         9.4 0.26            129            163 219 
 ZAR  HZ EP       1121 42.24                             122    1.01 9  205 292 
 ZAR  HN ES       1122  6.48                             122   -0.01 9  205 292 
 ZAR  HZ I        1122 12.22        10.3 0.42            122            205 292 
 SML  HZ EP   1   1121 44.74                             117   -0.71 6  245 335 
 SML  HN ES   1   1122 13.29                             117   -0.71 6  245 335 
 SML  HZ I        1122 21.59         9.5 0.10            117            245 335 
 GUY2CHZ EP   4   1121 54.83                             112    2.48 0  301 235 
 GUY2CHN ES   4   1122 25.41                             112   -0.87 0  301 235 
 GUY2CHZ I        1122 35.33         2.7 0.60                           301 235 
                                                                                
