 2012  510 1438 51.5 L   6.796 -73.137143.9  RSN 19 0.5 2.8LRSN                1
 GAP=127        0.98       4.0     5.3  6.6 -0.5737E+01  0.1140E+02  0.7219E+00E
 Epicentro: LOS SANTOS - SANTANDER                                             3
 ACTION:UP  12-07-05 12:04 OP:pat  STATUS:               ID:20120510143851 L   I
 2012-05-10-1437-47M.COL___187                                                 6
 STAT SP IPHASW D HRMM SECON CODA AMPLIT PERI AZIMU VELO SNR AR TRES W  DIS CAZ7
 BAR2 SZ IP       1439 11.09                             171     0.210   23 193 
 BAR2 SZ ES   2   1439 25.85                             171    -0.2 5   23 193 
 BAR2 SZ I        1439 28.41       237.8 0.40                            23 193 
 BRR  HZ IP     D 1439 12.99                             152     0.510   72 298 
 BRR  HN ES   2   1439 29.61                             152     0.7 5   72 298 
 BRR  HZ I        1439 34.04       141.6 0.56                            72 298 
 PAM  SZ IP       1439 13.95                             150     0.410   77  39 
 PAM  SN ES   1   1439 30.66                             150     0.0 7   77  39 
 RUS  HZ IP     C 1439 15.01                             144     0.010  100 177 
 RUS  HN ES   1   1439 33.03                             144    -0.4 7  100 177 
 RUS  HZ I        1439 34.59        87.1 0.38                           100 177 
 PTB  HZ EP       1439 17.56                             131    -0.8 9  149 259 
 PTB  HE ES   2   1439 38.99                             131    -0.4 5  149 259 
 PTB  HZ I        1439 41.55        45.1 0.16                           149 259 
 OCA  HZ EP   2   1439 19.45                             129    -0.3 5  161 353 
 OCA  HN ES   2   1439 41.10                             129    -0.6 5  161 353 
 OCA  HZ I        1439 45.49       164.5 0.22                           161 353 
 ZAR  HZ EP       1439 24.19                             122     0.2 9  205 292 
 ZAR  HZ I        1439 54.84        71.2 0.50                           205 292 
 NOR  SZ EP       1439 27.11                             118    -0.1 8  235 235 
 NOR  SN ES   1   1439 54.27                             118    -0.7 6  235 235 
 CHI  HZ EP       1439 29.17                             117     0.1 8  248 195 
 CHI  HZ I        1439 31.52        28.7 0.34                           248 195 
 CHI  HN ES   1   1439 58.55                             117     0.2 6  248 195 
 ROSC BZ EP   3   1439 30.97                             116     1.4 2  253 211 
 ROSC BE ES   3   1439 58.68                             116    -0.5 2  253 211 
 HEL  HZ EP   2   1439 32.24                             114     0.5 4  273 256 
 HEL  HZ I        1440  9.33        28.1 0.64                           273 256 
 GUY  SZ EP   2   1439 35.94                             112     0.6 4  304 235 
 GUY  SZ I        1440 18.33        59.9 0.30                           304 235 
 RREF HZ EP       1439 38.02                             110     0.4 7  322 230 
 RREF HZ I        1440 22.60        31.4 0.24                           322 230 
 DBB  SZ EP       1439 39.50                             109     0.5 7  340 274 
 COD  HZ EP   2   1439 40.04                             108     0.2 3  349 354 
 COD  HE ES   3   1440 16.87                             108    -0.7 2  349 354 
 COD  HZ I        1440 24.51        14.3 0.62                           349 354 
 ANIL HZ EP   2   1439 41.81                             108     0.5 3  358 225 
 ANIL HZ I        1440 26.93        78.0 0.38                           358 225 
 SDV  BZ EP       1439 40.62                             108    -0.8 6  360  50 
 SDV  BZ I        1440 22.28        13.7 0.60                           360  50 
 PRA  HZ EP       1439 44.34                             106    -0.6 6  392 210 
 SJC  HZ EP   3   1439 45.81                             105    -1.3 1  410 327 
 SJC  HZ I        1439 47.16        12.2 0.34                           410 327 
                                                                                
