 2013  610 1814 29.7 L   6.760 -73.190149.7  RSN  6 0.3 2.0LRSN                1
 GAP=229        0.67       7.0     7.7  5.8  0.3838E+02  0.5871E+01  0.3077E+01E
 Epicentro: VILLANUEVA - SANTANDER                                             3
 ACTION:UPD 14-01-08 09:53 OP:ep   STATUS:               ID:20130610181429 L   I
 OLDACT:REG 13-06-10 14:41 OP:mh   STATUS:               ID:20130610180959     3
 2013-06-10-1809-59M.COL___261                                                 6
 STAT SP IPHASW D HRMM SECON CODA AMPLIT PERI AZIMU VELO AIN AR TRES W  DIS CAZ7
 BAR2 SZ EP   1   1814 49.39                             173   -0.34 7 18.6 178 
 BAR2 SZ ES   1   1815  4.98                             173   -0.36 7 18.6 178 
 BAR2 SZ I        1815  9.76         6.8 0.20            173           18.6 178 
 BRR  HZ EP       1814 50.99                             154   -0.1910 69.3 304 
 BRR  HN ES       1815  8.21                             154    0.2810 69.3 304 
 BRR  HN I        1815 10.89        23.7 0.14            154           69.3 304 
 RUS  HZ EP       1814 53.95                             146    0.3810 96.6 173 
 RUS  HN ES   1   1815 12.27                             146    0.08 7 96.6 173 
 RUS  HN I        1815 13.94         6.0 0.66            149           96.6 173 
 PTB  HZ EP   1   1814 56.02                             134   -0.49 7  142 260 
 PTB  HN ES   2   1815 17.21                             134   -0.20 5  142 260 
 PTB  HN I        1815 18.74        13.6 0.52            136            142 260 
 ZAR  HZ EP   1   1815  2.45                             124    0.32 6  201 294 
 ZAR  HN ES   2   1815 27.63                             124    0.20 4  201 294 
 ZAR  HN I        1815 31.82        16.7 0.42            126            201 294 
 SML  HZ EP   4   1815  4.73                             118   -2.05 0  246 337 
 SML  HN ES   4   1815 33.26                             118   -2.44 0  246 337 
 SML  HN I        1815 36.07        15.4 0.10            121            246 337 
                                                                                
