 2014  910 1622 45.6 L   6.806 -73.155144.2  RSN 14 0.4 2.6LRSN                1
 GAP=135        0.90       2.9     3.6  4.9 -0.4448E+00  0.4545E+01  0.3387E+01E
 Epicentro: LOS SANTOS - SANTANDER                                             3
 ACTION:UPD 14-10-03 23:03 OP:nd   STATUS:               ID:20140910162245 L   I
 OLDACT:UP  14-09-10 21:25 OP:mh   STATUS:               ID:20140910162000     3
 OLDACT:UP  14-09-10 21:24 OP:mh   STATUS:               ID:20140910162000     3
 OLDACT:REG 14-09-10 19:48 OP:mh   STATUS:               ID:20140910162000     3
 2014-09-10-1620-00M.COL___285                                                 6
 STAT SP IPHASW D HRMM SECON CODA AMPLIT PERI AZIMU VELO AIN AR TRES W  DIS CAZ7
 BAR2 SZ EP     C 1623  5.10                             170    0.0610 23.8 187 
 BAR2 SZ ES   1   1623 20.18                             170   -0.04 7 23.8 187 
 BAR2 SZ I        1623 22.75        85.3 0.28            167           23.8 187 
 BRR  HZ EP       1623  6.84                             153    0.3410 70.0 298 
 BRR  HN ES       1623 23.44                             153    0.6210 70.0 298 
 BRR  HZ I        1623 27.84        65.5 0.28            152           70.0 298 
 PAM  SZ EP       1623  7.92                             150    0.2710 77.6  40 
 PAM  SN ES       1623 24.76                             150   -0.1010 77.6  40 
 PAM  SZ I        1623 28.32        44.2 0.48            157           77.6  40 
 RUS  HZ EP     D 1623  9.09                             143   -0.1510  101 176 
 RUS  HN ES   1   1623 27.36                             143   -0.32 7  101 176 
 RUS  HZ I        1623 28.92        37.2 0.28            145            101 176 
 PTB  HZ EP     C 1623 11.79                             132   -0.56 9  147 259 
 PTB  HN ES       1623 32.62                             132   -0.60 9  147 259 
 PTB  HZ I        1623 35.23        37.5 0.10            132            147 259 
 SPBC HZ EP       1623 14.10                             129    0.15 9  163 219 
 SPBC HN ES       1623 36.11                             129    0.03 9  163 219 
 SPBC HZ I        1623 41.99        51.1 0.20            129            163 219 
 ZAR  HZ EP   1   1623 18.17                             122    0.36 6  203 292 
 ZAR  HN ES       1623 42.53                             122   -0.42 9  203 292 
 ZAR  HZ I        1623 48.24        44.6 0.60            124            203 292 
 NOR  HZ IP       1623 21.29                             118    0.11 8  234 234 
 NOR  HN ES   4   1623 47.41                             118   -1.53 0  234 234 
 NOR  HZ I        1623 58.63        24.2 0.50            120            234 234 
 SML  HZ EP   1   1623 21.54                             117   -0.48 6  243 335 
 SML  HN ES   1   1623 49.55                             117   -0.89 6  243 335 
 SML  HZ I        1623 51.82        54.1 0.34            120            243 335 
 CHI  HZ EP   1   1623 23.24                             117    0.00 6  249 195 
 CHI  HN ES       1623 52.56                             117   -0.04 8  249 195 
 CHI  HZ I        1623 57.81        24.4 0.30            119            249 195 
 ROSC BN ES   4   1623 54.43                             116    1.14 0  253 211 
 HEL  HZ EP       1623 26.56                             114    0.93 8  271 256 
 HEL  HN ES   1   1623 57.79                             114    0.93 6  271 256 
 HEL  HZ I        1624  3.60        17.6 0.35            116            271 256 
 GUY2CHZ EP       1623 29.07                             112   -0.00 7  301 235 
 GUY2CHN ES   4   1624  6.30                             112    3.31 0  301 235 
 GUY2CHZ I        1624 11.88        36.1 0.83                           301 235 
 PRA  HZ EP       1623 38.72                             106   -0.34 6  392 209 
 PRA  HN ES   1   1624 20.49                             106   -0.27 4  392 209 
 PRA  HZ I        1624 27.38        24.0 0.26            108            392 209 
 ORTC HZ EP       1623 39.29                             106   -0.15 6  395 216 
 ORTC HN ES   4   1624 22.76                             106    1.31 0  395 216 
 ORTC HZ I        1624 27.28         9.7 0.32            108            395 216 
                                                                                
