 2011 1010 1429 43.9 L   7.205 -73.439  7.6  RSN  5 0.4 1.5LRSN                1
 GAP=158        0.74       4.3     2.5  8.3  0.2223E+01  0.8903E+01  0.1096E+02E
 Epicentro: SABANA DE TORRES - SANTANDER                                       3
 ACTION:UPD 12-07-13 16:03 OP:ep   STATUS:               ID:20111010142944 L   I
 2011-10-10-1426-07S.COL___168                                                 6
 STAT SP IPHASW D HRMM SECON CODA AMPLIT PERI AZIMU VELO AIN AR TRES W  DIS CAZ7
 BRR  HZ EP       1429 49.22                              47   -0.1510 32.0 250 
 BRR  HZ I        1429 49.41        53.9 0.16                          32.0 250 
 BRR  HE ES   1   1429 53.74                              47    0.10 7 32.0 250 
 BAR2 SZ EP       1429 55.43                              47   -0.4410 73.4 157 
 BAR2 SZ I        1430  6.97        11.2 0.38                          73.4 157 
 PAM  SZ EP       1429 57.69                              47    0.1110 83.0  80 
 PAM  SE ES   3   1430  7.68                              47   -0.57 2 83.0  80 
 RUS  HZ EP   3   1430  8.47                              47    0.69 2  150 165 
 RUS  HN ES   2   1430 27.33                              47    0.92 5  150 165 
 RUS  HZ I        1430 30.61         4.6 0.22                           150 165 
 ZAR  HZ EP       1430  9.11                              47    0.39 9  160 282 
 ZAR  HE ES   2   1430 27.56                              47   -0.52 5  160 282 
 ZAR  HZ I        1430 31.32        11.2 0.48                           160 282 
                                                                                
