 2017  310 1810  4.8 L   6.745 -73.101141.3  RSN  9 0.3 1.7LRSN                1
 GAP=145        0.76       3.1     3.3  4.5 -0.2078E+01  0.1974E+01  0.1283E+01E
 Epicentro: LOS SANTOS - SANTANDER                                             3
 ACTION:UPD 17-05-25 18:38 OP:jn   STATUS:               ID:20170310181004 L   I
 OLDACT:UP  17-03-11 00:27 OP:and  STATUS:               ID:20170310180746     3
 OLDACT:UP  17-03-11 00:26 OP:and  STATUS:               ID:20170310180746     3
 OLDACT:UP  17-03-11 00:26 OP:and  STATUS:               ID:20170310180746     3
 OLDACT:UP  17-03-11 00:25 OP:and  STATUS:               ID:20170310180746     3
 OLDACT:REG 17-03-10 21:15 OP:and  STATUS:               ID:20170310180746     3
 2017-03-10-1808-00M.COL___399                                                 6
 STAT SP IPHASW D HRMM SECON CODA AMPLIT PERI AZIMU VELO AIN AR TRES W  DIS CAZ7
 BAR2 EZ EP       1810 23.71                             172   -0.1110 19.2 208 
 BAR2 EZ ES       1810 38.31                             172   -0.3510 19.2 208 
 BAR2 EZ I        1810 39.85        13.3 0.10            171           19.2 208 
 BRR  HZ EP       1810 25.67                             149   -0.2510 78.5 301 
 BRR  HN ES       1810 42.94                             149    0.5610 78.5 301 
 PAM  EZ EP       1810 26.75                             150    0.0810 79.3  34 
 PAM  EN ES       1810 43.78                             150    0.0610 79.3  34 
 PAM  EZ I        1810 45.06         5.0 0.20            151           79.3  34 
 RUS  HZ EP       1810 27.59                             145   -0.0810 94.3 179 
 RUS  HN ES       1810 45.73                             145    0.2210 94.3 179 
 RUS  HZ I        1810 46.68        11.4 0.48            146           94.3 179 
 PTB  HZ EP   9   1810 30.41                             130   -1.36 0  152 261 
 PTB  HN ES       1810 51.63                             131    0.19 9  152 261 
 PTB  HZ I        1810 53.68         6.8 0.20            130            152 261 
 SPBC HZ EP       1810 32.77                             129   -0.06 9  162 222 
 SPBC HN ES       1810 54.91                             129    0.22 9  162 222 
 SPBC HZ I        1810 57.72         7.7 0.21            129            162 222 
 ZAR  HZ EP   2   1810 38.60                             121    0.91 4  211 293 
 ZAR  HN ES       1811  2.87                             121   -0.47 8  211 293 
 ZAR  HZ I        1811  9.24         5.6 0.11            120            211 293 
 NOR  HZ EP       1810 40.51                             118    0.16 8  235 236 
 NOR  HN ES       1811  7.77                             118   -0.31 8  235 236 
 NOR  HZ I        1811  9.92         4.0 0.14            118            235 236 
 GUY2CHZ EP   9   1810 50.08                             112    1.79 0  302 236 
 GUY2CHN ES       1811 24.60                                    0.61 7  302 236 
 GUY2CHZ  IAML    1811 30.05         2.1 0.26                           302 236 
                                                                                
