 2017  110 2354 32.6 L   6.811 -73.116147.1  RSN 17 0.5 2.2LRSN                1
 GAP=102        1.24       4.6     3.9  6.4  0.9093E+00  0.5504E+01  0.5469E+01E
 Epicentro: LOS SANTOS - SANTANDER                                             3
 ACTION:UPD 17-05-22 15:57 OP:jn   STATUS:               ID:20170110235432 L   I
 OLDACT:UP  17-01-11 08:29 OP:dnl  STATUS:               ID:20170110234759     3
 OLDACT:UP  17-01-11 08:28 OP:dnl  STATUS:               ID:20170110234759     3
 OLDACT:REG 17-01-11 07:54 OP:dnl  STATUS:               ID:20170110234759     3
 2017-01-10-2347-59S.COL___318                                                 6
 STAT SP IPHASW D HRMM SECON CODA AMPLIT PERI AZIMU VELO AIN AR TRES W  DIS CAZ7
 BAR2 EZ IP     D 2354 52.24                             170   -0.2410 25.3 197 
 BAR2 EZ ES       2355  7.33                             170   -0.6210 25.3 197 
 BAR2 EZ I        2355 11.24        39.1 0.34            164           25.3 197 
 BRR  HZ EP       2354 54.22                             152    0.1510 73.5 296 
 BRR  HN ES       2355 11.55                             152    0.7710 73.5 296 
 BRR  HZ I        2355 14.96        26.2 0.58            139           73.5 296 
 PAM  EZ EP       2354 55.16                             152    0.3310 74.4  38 
 PAM  EN ES       2355 11.91                             152   -0.2310 74.4  38 
 PAM  EZ I        2355 14.39        28.7 0.54            142           74.4  38 
 RUS  HZ EP     D 2354 56.13                             144   -0.4810  102 178 
 RUS  HN ES       2355 15.03                             144   -0.2710  102 178 
 RUS  HZ I        2355 17.94        11.7 0.22            132            102 178 
 PTB  HZ EP       2354 58.88                             132   -1.15 9  151 259 
 PTB  HE ES       2355 21.15                             132   -0.25 9  151 259 
 PTB  HZ I        2355 27.67        39.2 0.48            118            151 259 
 TAM  HZ IP     D 2355  0.42                             131    0.25 9  152 106 
 TAM  HZ I        2355 21.23        15.9 0.30            120            152 106 
 TAM  HN ES       2355 22.26                             131    0.62 9  152 106 
 ZAR  HZ EP       2355  4.93                             122   -0.51 8  207 291 
 ZAR  HE ES       2355 31.83                             122    0.81 8  207 291 
 ZAR  HZ I        2355 36.69        23.9 0.30            110            207 291 
 CHI  HZ EP       2355 10.39                             117   -0.25 8  251 196 
 CHI  HN ES       2355 41.10                             117    0.82 8  251 196 
 CHI  HZ I        2355 45.78         4.8 0.26            106            251 196 
 ROSC BZ EP   9   2355 12.47                             117    1.33 0  255 212 
 ROSC BE ES       2355 43.01                             117    0.52 8  255 212 
 ROSC BZ I        2355 50.08        23.4 0.45            105            255 212 
 GUY2CHZ EP       2355 17.23                             112    0.54 7  305 235 
 GUY2CHE ES   4   2355 53.10                             112    2.05 0  305 235 
 GUY2CHZ  IAML    2355 59.15        17.5 0.74                           305 235 
 PTGC HZ EP   4   2355 15.13                             112   -1.43 0  309 159 
 PTGC HN ES   4   2355 48.54                             112   -2.27 0  309 159 
 PTGC HZ I        2355 51.10         9.9 0.38            102            309 159 
 ELA  HZ EP   4   2355 21.21                             110    1.28 0  332 230 
 ELA  HZ ES   4   2356  1.52                             110    4.71 0  332 230 
 ELA  HZ I        2356 12.02         8.9 0.62            100            332 230 
 CBOC HZ EP       2355 20.24                             110    0.23 7  337 252 
 CBOC HN ES   4   2355 55.31                             110   -1.65 0  337 252 
 CBOC HZ I        2356 10.34         4.5 0.70             99            337 252 
 DBB  EZ EP   2   2355 19.73                             109   -0.81 3  343 274 
 DBB  EZ I        2356  5.59         5.2 0.22             99            343 274 
 ORTC HZ EP   2   2355 27.01                             106    0.06 3  398 216 
 ORTC HN ES       2356  9.91                             106    0.60 6  398 216 
 ORTC HZ I        2356 16.08         6.0 0.52             96            398 216 
 PAL  HZ EP   2   2355 28.19                             106   -0.06 3  409 239 
 PAL  HZ I        2356 13.81         4.1 0.12             96            409 239 
 SJC  HZ EP   4   2355 26.55                             106   -1.79 0  410 326 
 SJC  HN ES   4   2356  7.84                             106   -3.94 0  410 326 
 SJC  HZ I        2356 11.74         4.5 0.44             96            410 326 
                                                                                
