 2017  410 2225  1.9 L   6.789 -73.135148.8  RSN  4 0.2 1.5LRSN                1
 GAP=138        0.54       3.0     3.4  4.6  0.9904E+00  0.6135E+01 -0.1800E+01E
 Epicentro: LOS SANTOS - SANTANDER                                             3
 ACTION:UPD 17-05-30 21:10 OP:jn   STATUS:               ID:20170410222501 L   I
 OLDACT:REG 17-04-11 02:49 OP:ar   STATUS:               ID:20170410221749     3
 2017-04-10-2218-00M.COL___377                                                 6
 STAT SP IPHASW D HRMM SECON CODA AMPLIT PERI AZIMU VELO AIN AR TRES W  DIS CAZ7
 BAR2 EZ EP       2225 21.87                             171    0.0410 22.4 194 
 BAR2 EZ ES       2225 37.47                             171    0.0610 22.4 194 
 BAR2 EZ I        2225 39.39         5.6 0.06            170           22.4 194 
 PAM  EZ EP       2225 24.67                             151    0.2610 77.6  38 
 PAM  EE ES       2225 41.81                             151   -0.1810 77.6  38 
 PAM  EZ I        2225 43.07         3.8 0.16            155           77.6  38 
 RUS  HZ EP       2225 25.89                             145    0.0810 99.3 177 
 RUS  HN ES       2225 44.39                             145   -0.1110 99.3 177 
 RUS  HZ I        2225 46.12         3.7 0.16            148           99.3 177 
 ZAR  HZ EP       2225 34.25                             123   -0.41 8  206 292 
 ZAR  HE ES       2226  0.45                             123    0.21 8  206 292 
 ZAR  HZ I        2226  6.89         5.1 0.26            123            206 292 
                                                                                
