 2014  510 2219 19.7 L   7.224 -73.118120.0  RSN  7 0.5 1.8LRSN                1
 GAP=106        0.75       8.6     6.7  8.3 -0.3822E+01 -0.1898E+02  0.5542E+01E
 Epicentro: RIONEGRO - SANTANDER                                               3
 OLDACT:REG 14-05-11 03:31 OP:fm   STATUS:               ID:20140510221820     3
 ACTION:UPD 15-03-16 16:56 OP:nd   STATUS:               ID:20140510221919 L   I
 OLDACT:UP  14-05-11 04:33 OP:fm   STATUS:               ID:20140510221820     3
 2014-05-10-2218-20M.COL___248                                                 6
 STAT SP IPHASW D HRMM SECON CODA AMPLIT PERI AZIMU VELO AIN AR TRES W  DIS CAZ7
 PAM  SZ EP       2219 37.49                             157   -0.0310 48.0  75 
 PAM  SZ I        2220  5.48        13.4 0.52             47           48.0  75 
 BRR  HZ EP   2   2219 36.72                             149   -1.14 5 66.8 259 
 BRR  HN ES       2219 52.19                             149    0.1810 66.8 259 
 BRR  SZ I        2220  5.17         9.3 0.16             47           66.8 259 
 RUS  HZ EP   2   2219 45.74                             126    0.44 5  147 178 
 RUS  SZ I        2220  7.36         7.2 0.36             47            147 178 
 PTB  HZ EP   4   2219 41.87                             122   -4.71 0  166 243 
 PTB  SZ I        2220 13.19        11.1 0.18             47            166 243 
 ZAR  HZ EP   1   2219 49.31                             118   -0.25 6  194 279 
 ZAR  SZ I        2220 26.66         6.1 0.14             37            194 279 
 SML  HZ EP   2   2219 51.32                             116    0.77 4  204 329 
 SML  SZ I        2220 30.93        14.2 0.10             37            204 329 
 CHI  HZ EP   1   2220  1.48                             108    0.03 5  295 193 
 CHI  SZ I        2220 33.55         4.4 0.66             37            295 193 
                                                                                
