 2010 1010 2205 17.5 L   6.143 -73.683109.8  RSN  5 0.4 1.7LRSN                1
 GAP=134        0.74       5.6     8.2 16.8  0.4235E+01  0.9699E+02  0.4601E+02E
 Epicentro: CHIPATA - SANTANDER                                                3
 ACTION:UP  11-02-18 11:08 OP:tino STATUS:               ID:20101010220517 L   I
 2010-10-10-2202-57S.COL___121                                                 6
 STAT SP IPHASW D HRMM SECON CODA AMPLIT PERI AZIMU VELO SNR AR TRES W  DIS CAZ7
 BAR2 SZ EP   2   22 5 36.19                             143     0.7 5   74  48 
 BAR2 SZ ES       22 5 49.22                             143    -0.310   74  48 
 BAR2 SZ I        22 5 51.16        34.2 0.12                            74  48 
 BRR  HZ EP   2   22 5 37.48                             132    -0.3 5  107 358 
 BRR  HN ES   2   22 5 54.16                             132     0.5 5  107 358 
 BRR  HZ I        22 5 56.56        11.3 0.43                           107 358 
 CHI  HZ EP   2   22 5 44.72                             119     0.3 5  167 182 
 CHI  HN ES   2   22 6  5.70                             119     0.3 5  167 182 
 CHI  HZ I        22 6  9.24         3.5 0.40                           167 182 
 HEL  HZ EP   2   22 5 47.70                             113    -0.7 4  204 272 
 HEL  HE ES   2   22 6 12.87                             113     0.4 4  204 272 
 HEL  HZ I        22 6 14.16         3.8 0.34                           204 272 
 PRA  HN ES   2   22 6 31.20                             104    -0.2 4  300 206 
                                                                                
