 2013  810 2114 39.3 L   6.667 -73.958 13.1  RSN 12 0.6 3.1LRSN 3.1WRSN        1
 SPEC AVERAGE  MO 13.8 ST 38.5 OM  2.7 f0 8.12 R0.2007 AL 0.00 WI 19.5 MW  3.1 3
 SPEC SD       MO  0.1 ST 17.5 OM  0.4 f0 1.74 R0.0441 AL      WI      MW  0.1 3
 GAP= 69        1.39       2.7     2.4  4.7 -0.1800E+01  0.2341E+01 -0.2449E+01E
 Epicentro: PUERTO PARRA - SANTANDER                                           3
 SPEC HEL HH N MO 13.8 ST 17.5 OM  2.3 f0 6.07 R0.2560 AL 0.00 WI 21.1 MW  3.2 3
 SPEC HEL HH N T211524 K 0.000 GD  134 VS 4.20 DE 3.20 Q0300.0 QA 0.60 VS 4.20 3
 SPEC PAM SH N MO 14.0 ST 36.1 OM  2.5 f0 6.78 R0.2292 AL 0.00 WI 26.4 MW  3.3 3
 SPEC PAM SH N T211521 K 0.000 GD  125 VS 4.20 DE 3.20 Q0300.0 QA 0.60 VS 4.20 3
 SPEC NOR HH N MO 13.6 ST 46.1 OM  2.1 f0 10.0 R0.1554 AL 0.00 WI 14.7 MW  3.0 3
 SPEC NOR HH N T211519 K 0.000 GD  125 VS 4.20 DE 3.20 Q0300.0 QA 0.60 VS 4.20 3
 SPEC ZAR HH N MO 13.8 ST 67.5 OM  2.3 f0 10.0 R0.1554 AL 0.00 WI 18.8 MW  3.1 3
 SPEC ZAR HH N T211514 K 0.000 GD  116 VS 4.20 DE 3.20 Q0300.0 QA 0.60 VS 4.20 3
 SPEC RUS HH N MO 13.8 ST 14.0 OM  2.3 f0 5.97 R0.2603 AL 0.00 WI 23.5 MW  3.1 3
 SPEC RUS HH N T211515 K 0.000 GD  113 VS 4.20 DE 3.20 Q0300.0 QA 0.60 VS 4.20 3
 SPEC PTB HH N MO 13.8 ST 35.3 OM  2.6 f0 8.05 R0.1930 AL 0.00 WI 13.5 MW  3.1 3
 SPEC PTB HH N T211455 K 0.000 GD 58.4 VS 4.20 DE 3.20 Q0300.0 QA 0.60 VS 4.20 3
 SPEC BRR HH N MO 13.7 ST 52.8 OM  2.5 f0 10.0 R0.1554 AL 0.00 WI 18.8 MW  3.0 3
 SPEC BRR HH N T211454 K 0.000 GD 57.3 VS 4.20 DE 3.20 Q0300.0 QA 0.60 VS 4.20 3
 ACTION:UPD 14-01-14 09:00 OP:ep   STATUS:               ID:20130810211439 L   I
 OLDACT:UP  13-08-10 23:02 OP:cam  STATUS:               ID:20130810210959     3
 OLDACT:UP  13-08-10 23:00 OP:cam  STATUS:               ID:20130810210959     3
 OLDACT:REG 13-08-10 22:12 OP:cam  STATUS:               ID:20130810210959     3
 2013-08-10-2109-59M.COL___270                                                 6
 STAT SP IPHASW D HRMM SECON CODA AMPLIT PERI AZIMU VELO AIN AR TRES W  DIS CAZ7
 BRR  HZ IP     D 2114 48.40                             100   -0.0310 55.8  29 
 BRR  HZ I        2114 48.44       536.8 0.12             93           55.8  29 
 BRR  HN ES       2114 55.89                             100    0.3110 55.8  29 
 PTB  HZ IP     D 2114 48.53                             100   -0.0810 56.9 256 
 PTB  HZ I        2114 48.64      1345.2 0.26             92           56.9 256 
 PTB  HN ES       2114 55.92                             100    0.0310 56.9 256 
 BAR2 SZ EP     C 2114 53.26                              96    0.0310 86.2  95 
 BAR2 SZ ES       2115  3.69                              96   -0.4410 86.2  95 
 BAR2 SZ I        2115  4.06       655.9 0.18             92           86.2  95 
 SPBC HZ EP       2114 57.39                              95    0.2810  113 186 
 SPBC HN ES       2115 11.78                              95    0.7510  113 186 
 SPBC HZ I        2115 12.49       386.5 0.36             91            113 186 
 RUS  HZ EP       2115  0.18                              94    0.1910  129 131 
 RUS  HN ES       2115 15.55                              94   -0.6110  129 131 
 RUS  HZ I        2115 16.74       172.1 0.20             91            129 131 
 ZAR  HZ EP       2114 59.40                              94   -0.9710  135 313 
 ZAR  HN ES   4   2115 15.51                              94   -1.32 0  135 313 
 ZAR  HZ I        2115 16.21       433.5 0.24             91            135 313 
 NOR  HZ EP     D 2115  3.03                              56   -0.56 9  158 220 
 NOR  HN ES   4   2115 21.41                              56   -1.15 0  158 220 
 NOR  HZ I        2115 24.87       152.2 0.46             91            158 220 
 PAM  SZ EP       2115  4.25                              56    0.21 9  158  62 
 PAM  SN ES       2115 23.04                              56   -0.33 9  158  62 
 PAM  SZ I        2115 25.22       238.3 0.20             91            158  62 
 HEL  HZ EP       2115  6.48                              56   -0.40 9  182 253 
 HEL  HN ES       2115 27.21                              56   -1.21 9  182 253 
 HEL  HZ I        2115 28.28       406.8 0.32             56            182 253 
 OCA  HZ EP       2115  8.02                              56    0.64 9  188  22 
 OCA  HN ES       2115 29.60                              56    0.29 9  188  22 
 OCA  HZ I        2115 33.44       285.7 0.32             56            188  22 
 URE  HZ EP       2115 11.19                              56    1.02 8  211 305 
 URE  HZ I        2115 38.33        93.5 0.24             56            211 305 
 GUY2CHZ EP       2115 12.83                              56    0.65 8  223 224 
 GUY2CHN ES       2115 38.46                              56    0.60 8  223 224 
 CBOC HZ EP   4   2115 16.02                              56    1.57 0  244 249 
 SJC  HZ EP   4   2115 32.51                              55    1.14 0  382 339 
                                                                                
