 2014  210 2318 45.3 L   6.811 -73.179151.6  RSN  6 0.5 1.8LRSN                1
 GAP=198        1.07       4.9     7.4  8.0  0.1841E+02 -0.7811E+01 -0.5372E+01E
 Epicentro: LOS SANTOS - SANTANDER                                             3
 ACTION:UPD 14-03-10 08:09 OP:ep   STATUS:               ID:20140210231845 L   I
 OLDACT:REG 14-02-11 01:20 OP:nd   STATUS:               ID:20140210231749     3
 2014-02-10-2317-49M.COL___226                                                 6
 STAT SP IPHASW D HRMM SECON CODA AMPLIT PERI AZIMU VELO AIN AR TRES W  DIS CAZ7
 BRR  HZ EP       2319  7.25                             155    0.3410 67.4 299 
 BRR  HN ES       2319 23.92                             155    0.1810 67.4 299 
 BRR  HZ I        2319 27.18         8.5 0.12            153           67.4 299 
 RUS  HZ EP       2319  9.81                             145    0.0510  102 174 
 RUS  HN ES       2319 28.74                             145   -0.0910  102 174 
 RUS  HZ I        2319 30.50         3.9 0.30            146            102 174 
 PTB  HZ EP       2319 11.89                             134   -0.59 9  144 258 
 PTB  HN ES       2319 33.78                             134    0.12 9  144 258 
 PTB  HZ I        2319 36.37        13.4 0.26            134            144 258 
 ZAR  HZ EP       2319 18.04                             124    0.27 9  200 292 
 ZAR  HN ES       2319 43.06                             124   -0.01 9  200 292 
 ZAR  HZ I        2319 49.11        11.8 0.28            124            200 292 
 SML  HZ EP       2319 21.63                             119   -0.37 8  241 336 
 SML  HN ES   2   2319 49.55                             119   -1.06 4  241 336 
 SML  HZ I        2319 55.45         5.3 0.28            120            241 336 
 CHI  HZ EP       2319 24.42                             118    1.04 8  249 194 
 CHI  HN ES       2319 52.26                             118   -0.81 8  249 194 
 CHI  HZ I        2319 58.51         2.0 0.70            119            249 194 
                                                                                
