 2012  710 2201 55.7 L   6.755 -73.162144.0  RSN  9 0.4 2.2LRSN                1
 GAP=136        0.94       5.1     5.3  7.2  0.2655E+01  0.1198E+02  0.8517E+01E
 Epicentro: LOS SANTOS - SANTANDER                                             3
 ACTION:UPD 12-08-14 11:44 OP:ep   STATUS:               ID:20120710220155 L   I
 2012-07-10-2200-00M.COL___201                                                 6
 STAT SP IPHASW D HRMM SECON CODA AMPLIT PERI AZIMU VELO AIN AR TRES W  DIS CAZ7
 BAR2 SZ EP       22 2 15.06                             172     0.010   18 187 
 BAR2 SZ ES   1   22 2 30.18                             172     0.1 7   18 187 
 BAR2 SZ I        22 2 31.01        62.5 0.23            147             18 187 
 BRR  HZ EP       22 2 16.95                             152     0.210   72 303 
 BRR  HN ES   1   22 2 33.93                             152     0.8 7   72 303 
 PAM  SZ EP   1   22 2 17.88                             149    -0.2 7   82  38 
 PAM  SN ES   1   22 2 34.98                             149    -0.5 7   82  38 
 RUS  HZ EP   1   22 2 18.96                             145     0.0 7   96 175 
 RUS  HN ES   1   22 2 36.92                             145    -0.1 7   96 175 
 RUS  HZ I        22 2 38.61        12.8 0.21            113             96 175 
 PTB  HZ EP   1   22 2 21.72                             132    -0.6 7  145 261 
 PTB  HN ES   1   22 2 42.34                             132    -0.7 7  145 261 
 PTB  HZ I        22 2 46.82        25.5 0.11            107            145 261 
 ZAR  HZ EP   1   22 2 28.19                             122     0.1 6  204 294 
 ZAR  HN ES   1   22 2 53.45                             122     0.1 6  204 294 
 CHI  HZ EP   1   22 2 33.45                             117     0.7 6  243 195 
 CHI  HZ I        22 3  9.12         7.4 0.40             98            243 195 
 HEL  HZ EP   1   22 2 34.84                             115    -0.7 6  269 257 
 HEL  HZ I        22 3 13.75        12.8 0.32             98            269 257 
 PRA  HZ EP   1   22 2 49.31                             106     0.8 4  387 210 
 PRA  HE ES   1   22 3 29.58                             106    -0.2 4  387 210 
