 2016  210 2213 50.8 L   6.803 -73.138143.7  RSN  7 0.2 1.5LRSN                1
 GAP=137        0.53       1.8     2.4  4.1  0.1408E+00  0.2732E+01 -0.4314E+00E
 Epicentro: LOS SANTOS - SANTANDER                                             3
 ACTION:UPD 16-03-04 21:25 OP:rebc STATUS:               ID:20160210221350 L   I
 OLDACT:REG 16-02-11 03:58 OP:cara STATUS:               ID:20160210220748     3
 2016-02-10-2207-48M.COL___325                                                 6
 STAT SP IPHASW D HRMM SECON CODA AMPLIT PERI AZIMU VELO AIN AR TRES W  DIS CAZ7
 PAM  EZ EP       2214 13.01                             151    0.2410 76.5  39 
 PAM  EN ES       2214 29.82                             151   -0.0710 76.5  39 
 PAM  EZ I        2214 32.60         3.6 0.20            155           76.5  39 
 RUS  HZ EP       2214 14.40                             143    0.0010  101 177 
 RUS  HE ES       2214 32.78                             143   -0.0110  101 177 
 RUS  HZ I        2214 34.35         3.1 0.24            147            101 177 
 PTB  HZ EP       2214 17.34                             131   -0.37 9  149 259 
 PTB  HN ES       2214 38.83                             131    0.15 9  149 259 
 PTB  HZ I        2214 43.68         5.3 0.26            132            149 259 
 ZAR  HZ EP       2214 23.15                             122   -0.05 9  205 292 
 ZAR  HN ES       2214 48.71                             122    0.25 9  205 292 
 ZAR  HZ I        2214 56.46         3.1 0.28            123            205 292 
 SML  HZ EP       2214 27.40                             117    0.06 8  244 335 
 SML  HN ES       2214 55.52                             117   -0.30 8  244 335 
 SML  HZ I        2214 58.93         7.1 0.10            119            244 335 
 CHI  HZ IP       2214 28.83                             117    0.36 8  249 195 
 CHI  HE ES       2214 57.54                             117   -0.30 8  249 195 
 CHI  HZ I        2215  2.47         1.0 0.28            119            249 195 
 GUY2CHZ EP   9   2214 36.56                             112    2.12 0  302 235 
 GUY2CHE ES       2215 10.63                                    0.05 7  302 235 
 GUY2CHZ I        2215 16.70         2.1 0.34                           302 235 
                                                                                
