 2013  510 2156 52.9 L   6.769 -73.136142.9  RSN 15 0.5 2.6LRSN                1
 GAP= 73        0.87       2.7     3.2  5.3 -0.1235E+00  0.3134E+01 -0.1546E+00E
 Epicentro: LOS SANTOS - SANTANDER                                             3
 ACTION:UPD 13-06-20 09:49 OP:ep   STATUS:               ID:20130510215652 L   I
 2013-05-10-2150-00M.COL___256                                                 6
 STAT SP IPHASW D HRMM SECON CODA AMPLIT PERI AZIMU VELO AIN AR TRES W  DIS CAZ7
 BAR2 SZ EP   1   2157 12.39                             172    0.22 7 20.2 195 
 BAR2 SZ ES   1   2157 26.91                             172   -0.25 7 20.2 195 
 BRR  HZ EP     C 2157 14.21                             151    0.2710 73.8 300 
 BRR  HN ES       2157 30.42                             151    0.1110 73.8 300 
 BRR  HN I        2157 35.11       104.3 0.16            148           73.8 300 
 PAM  SZ EP     C 2157 15.17                             150    0.1910 79.4  37 
 PAM  SN ES   1   2157 31.81                             150   -0.35 7 79.4  37 
 PAM  SN I        2157 33.01       145.9 0.44            152           79.4  37 
 RUS  HZ EP   1   2157 16.25                             144    0.09 7 97.1 177 
 RUS  HN ES   1   2157 34.14                             144   -0.13 7 97.1 177 
 RUS  HN I        2157 35.71        35.5 0.26            144           97.1 177 
 PTB  HZ EP   1   2157 19.25                             131   -0.47 7  148 260 
 PTB  HN ES   4   2157 39.20                             131   -1.40 0  148 260 
 PTB  HN I        2157 42.20        64.8 0.26            129            148 260 
 TAM  HZ EP   1   2157 20.68                             130    0.46 7  153 104 
 TAM  HN ES   1   2157 41.14                             130   -0.35 7  153 104 
 TAM  HN I        2157 46.21        28.0 0.38            133            153 104 
 OCA  HZ EP   1   2157 20.69                             128   -0.68 7  164 353 
 OCA  HN ES       2157 44.28                             128    0.74 9  164 353 
 ZAR  HZ EP   1   2157 25.46                             121    0.02 6  206 293 
 ZAR  HN ES       2157 50.56                             121   -0.23 8  206 293 
 ZAR  HN I        2157 56.42        63.5 0.30            120            206 293 
 NOR  HZ EP   1   2157 29.07                             118    0.68 6  234 235 
 NOR  HN ES   1   2157 55.83                             118   -0.21 6  234 235 
 NOR  HN I        2158  3.70        26.9 0.18            117            234 235 
 CHI  HZ EP   1   2157 30.32                             117    0.17 6  246 196 
 CHI  HN ES   1   2157 58.95                             117   -0.23 6  246 196 
 CHI  HN I        2158  3.18        26.0 0.32            116            246 196 
 SML  HZ EP   1   2157 28.93                             116   -0.87 6  247 335 
 SML  HN ES   4   2157 56.79                             116   -1.76 0  247 335 
 SML  HN I        2158  2.64        78.9 0.10            116            247 335 
 HEL  HZ EP   1   2157 33.99                             114    0.95 6  272 257 
 HEL  HN ES   1   2158  3.99                             114   -0.32 6  272 257 
 HEL  HN I        2158 16.45        10.9 0.24            113            272 257 
 URE  HZ EP   4   2157 33.60                             113   -0.53 0  286 292 
 URE  HN ES   4   2158  3.88                             113   -2.38 0  286 292 
 URE  HN I        2158 17.23        29.8 0.24            112            286 292 
 COD  HZ EP   1   2157 40.50                             108   -1.12 5  352 354 
 COD  HN ES       2158 19.37                             108   -0.21 6  352 354 
 COD  HN I        2158 27.57         5.6 0.44            108            352 354 
 SJC  HZ EP   4   2157 47.20                             105   -1.62 0  413 327 
 SJC  HN ES   4   2158 28.39                             105   -4.01 0  413 327 
 SJC  HN I        2158 30.77        22.6 0.46            105            413 327 
                                                                                
