 2015 1210 2146  1.7 L   6.797 -73.149140.7  RSN 13 0.4 2.5LRSN                1
 GAP=149        1.02       3.4     4.2  5.3 -0.6209E+01  0.5407E+01  0.1771E+01E
 Epicentro: LOS SANTOS - SANTANDER                                             3
 ACTION:UPD 16-02-04 15:04 OP:cam  STATUS:               ID:20151210214601 L   I
 OLDACT:REG 15-12-11 02:54 OP:drio STATUS:               ID:20151210213748     3
 2015-12-10-2137-48M.COL___331                                                 6
 STAT SP IPHASW D HRMM SECON CODA AMPLIT PERI AZIMU VELO AIN AR TRES W  DIS CAZ7
 BAR2 EZ EP       2146 20.37                             170   -0.3510 23.0 189 
 BAR2 EZ ES       2146 35.42                             170   -0.1310 23.0 189 
 BAR2 EZ I        2146 39.29        35.7 0.40            170           23.0 189 
 BRR  HZ EP       2146 22.72                             152    0.4210 71.0 299 
 BRR  HN ES       2146 39.26                             152    0.9010 71.0 299 
 BRR  HZ I        2146 43.26        46.2 0.44            151           71.0 299 
 PAM  EZ EP       2146 23.51                             150    0.0910 77.9  40 
 PAM  EN ES       2146 40.22                             150   -0.1310 77.9  40 
 PAM  EZ I        2146 42.76        30.5 0.58            154           77.9  40 
 PTB  HZ EP       2146 27.80                             131   -0.43 9  147 259 
 PTB  HN ES       2146 49.06                             131    0.15 9  147 259 
 PTB  HZ I        2146 51.51        38.2 0.16            132            147 259 
 OCA  HZ EP       2146 30.38                             128    0.72 9  161 353 
 OCA  HN ES       2146 50.63                             128   -0.82 9  161 353 
 OCA  HZ I        2146 54.12        89.4 0.32            131            161 353 
 SPBC HZ EP       2146 29.77                             128   -0.01 9  163 219 
 SPBC HN ES       2146 51.22                             128   -0.45 9  163 219 
 SPBC HZ I        2146 55.59        29.8 0.30            130            163 219 
 ZAR  HZ EP       2146 33.89                             121    0.09 9  204 292 
 ZAR  HE ES       2146 58.71                             121   -0.12 9  204 292 
 ZAR  HZ I        2147  5.50        42.1 0.30            123            204 292 
 NOR  HZ EP       2146 37.31                             117    0.21 8  234 234 
 NOR  HE ES       2147  4.82                             117    0.13 8  234 234 
 NOR  HZ I        2147  6.61        16.0 0.16            120            234 234 
 SML  HZ EP       2146 37.45                             116   -0.62 8  244 335 
 SML  HN ES   4   2147  4.28                             116   -2.14 0  244 335 
 SML  HZ I        2147  8.99        37.9 0.10            119            244 335 
 HEL  HZ EP       2146 41.96                             114    0.34 8  272 256 
 HEL  HN ES       2147 12.32                             114   -0.42 8  272 256 
 HEL  HZ I        2147 19.83        10.9 0.44            116            272 256 
 GUY2CHZ EP       2146 45.35                             111    0.32 7  301 235 
 GUY2CHN ES       2147 18.50                             111   -0.32 7  301 235 
 GUY2CHZ I        2147 26.68         8.3 0.44                           301 235 
 PRA  HZ EP       2146 55.48                             106    0.47 6  392 210 
 PRA  HN ES       2147 36.52                             106   -0.06 6  392 210 
 PRA  HZ I        2147 42.54        12.8 0.34            108            392 210 
 SJC  HZ EP   4   2146 55.30                             105   -1.81 0  409 327 
 SJC  HE ES   4   2147 36.74                             105   -3.59 0  409 327 
 SJC  HZ I        2147 40.86         7.4 0.68            107            409 327 
                                                                                
