 2014  610 2326 26.4 L   6.820 -73.138137.7  RSN 24 0.5 2.9LRSN                1
 GAP= 71        1.20       2.5     2.9  4.8 -0.1726E+01  0.1816E+01  0.1870E+01E
 Epicentro: LOS SANTOS - SANTANDER                                             3
 ACTION:UPD 14-07-01 22:52 OP:nd   STATUS:               ID:20140610232626 L   I
 OLDACT:REG 14-06-11 04:06 OP:stll STATUS:               ID:20140610231813     3
 2014-06-10-2318-13M.COL___259                                                 6
 STAT SP IPHASW D HRMM SECON CODA AMPLIT PERI AZIMU VELO AIN AR TRES W  DIS CAZ7
 BAR2 SZ IP     C 2326 45.69                             169    0.6010 25.7 191 
 BAR2 SZ ES       2326 59.39                             169   -0.2910 25.7 191 
 BAR2 SZ I        2327  3.02       199.1 0.32            167           25.7 191 
 BRR  HZ IP     C 2326 47.51                             151    0.8710 70.9 297 
 BRR  HN ES       2327  2.85                             151    0.4010 70.9 297 
 BRR  HZ I        2327  8.50       189.3 0.14            150           70.9 297 
 PAM  SZ IP     D 2326 48.42                             150    0.8210 75.1  40 
 PAM  SZ I        2326 48.76       332.6 0.18            154           75.1  40 
 PAM  SN ES       2327  4.12                             150   -0.0310 75.1  40 
 RUS  HZ EP       2326 49.58                             141    0.0710  103 177 
 RUS  HN ES       2327  7.44                             141   -0.1110  103 177 
 RUS  HZ I        2327  8.86        39.7 0.46            142            103 177 
 PTB  HZ EP       2326 52.30                             130   -0.52 9  149 258 
 PTB  HN ES       2327 13.10                             130   -0.35 9  149 258 
 PTB  HZ I        2327 16.09       101.8 0.14            130            149 258 
 TAM  HZ IP     D 2326 54.13                             129    0.72 9  155 106 
 TAM  HZ I        2326 54.34        85.6 0.36            132            155 106 
 TAM  HN ES       2327 13.72                             129   -0.76 9  155 106 
 OCA  HZ EP       2326 53.75                             128   -0.12 9  158 353 
 OCA  HN ES       2327 15.15                             128   -0.16 9  158 353 
 OCA  HZ I        2327 18.82       112.3 0.50            130            158 353 
 SPBC HZ EP       2326 54.65                             127    0.15 9  165 219 
 SPBC HN ES       2327 16.69                             127    0.27 9  165 219 
 SPBC HZ I        2327 21.32        94.3 0.16            127            165 219 
 ZAR  HZ EP       2326 58.42                             120    0.11 9  204 291 
 ZAR  HN ES       2327 23.14                             120   -0.07 9  204 291 
 ZAR  HZ I        2327 29.92        99.2 0.22            121            204 291 
 NOR  HE ES       2327 28.91                             116   -0.65 8  237 234 
 NOR  HZ I        2327 34.93        50.1 0.22            117            237 234 
 SML  HZ EP       2327  1.76                             116   -0.62 8  242 335 
 SML  HZ I        2327  5.55        86.2 0.10            117            242 335 
 SML  HE ES       2327 30.00                             116   -0.46 8  242 335 
 CHI  HZ EP       2327  4.05                             115    0.14 8  251 195 
 CHI  HN ES       2327 33.03                             115   -0.15 8  251 195 
 CHI  HZ I        2327 41.12        28.8 0.34            116            251 195 
 ROSC BZ EP       2327  5.36                             115    1.02 8  255 211 
 ROSC BN ES       2327 33.87                             115   -0.07 8  255 211 
 ROSC BZ I        2327 43.69        52.6 0.30            116            255 211 
 HEL  HZ EP       2327  6.94                             113    0.59 8  273 255 
 HEL  HN ES       2327 36.69                             113   -0.84 8  273 255 
 HEL  HZ I        2327 44.12        35.9 0.40            114            273 255 
 SOCV BZ IP     D 2327  8.13                             111   -0.72 7  299  57 
 GUY2CHZ EP       2327 10.39                             110    0.53 7  303 235 
 GUY2CHN ES       2327 43.52                             110   -0.25 7  303 235 
 GUY2CHZ I        2327 52.11        24.8 0.32                           303 235 
 VIL  SE ES       2327 43.16                             110   -0.35 7  306 192 
 VIL  SZ I        2327 49.61        39.9 0.46            111            306 192 
 RREF HZ EP       2327 12.46                             109    0.03 7  324 229 
 RREF HN ES       2327 47.69                             109   -0.66 7  324 229 
 RREF HZ I        2327 55.03        37.6 0.26            110            324 229 
 TOL  SZ EP       2327 15.39                             108    0.81 6  346 224 
 TOL  SN ES       2327 51.34                             108   -0.84 6  346 224 
 SDV  BZ EP       2327 15.40                             107   -0.48 6  358  50 
 ANIL HZ EP       2327 17.14                             107    0.99 6  360 224 
 ANIL HN ES       2327 55.93                             107    0.97 6  360 224 
 ANIL HZ I        2328  3.91        56.6 0.24            108            360 224 
 PRA  HZ EP       2327 19.69                             105   -0.23 6  394 210 
 PRA  HN ES       2328  1.50                             105   -0.17 6  394 210 
 PRA  HZ I        2328  7.86        35.7 0.50            106            394 210 
 ORTC HZ EP       2327 19.68                             105   -0.63 6  398 216 
 ORTC HE ES       2328  1.64                             105   -0.73 6  398 216 
 ELOV BZ EP       2327 20.14                             104   -0.89 6  404  87 
                                                                                
