 2017  510 2246  9.1 L   6.775 -73.179152.2  RSN  4 0.2 1.1LRSN                1
 GAP=133        0.38       3.5     3.4  5.8  0.1960E+00  0.1869E+01 -0.1077E+02E
 Epicentro: LOS SANTOS - SANTANDER                                             3
 ACTION:UPD 17-06-16 13:34 OP:jn   STATUS:               ID:20170510224609 L   I
 OLDACT:UP  17-05-11 09:15 OP:y    STATUS:               ID:20170510223745d    3
 OLDACT:UP  17-05-11 09:15 OP:y    STATUS:               ID:20170510223745d    3
 OLDACT:DUP 17-05-11 09:13 OP:y    STATUS:               ID:20170510223745d    3
 OLDACT:UP  17-05-11 09:12 OP:y    STATUS:               ID:20170510223744     3
 OLDACT:UP  17-05-11 09:11 OP:y    STATUS:               ID:20170510223744     3
 OLDACT:UP  17-05-11 09:09 OP:y    STATUS:               ID:20170510223744     3
 OLDACT:UP  17-05-11 09:09 OP:y    STATUS:               ID:20170510223744     3
 OLDACT:UP  17-05-11 09:09 OP:y    STATUS:               ID:20170510223744     3
 OLDACT:UP  17-05-11 09:07 OP:y    STATUS:               ID:20170510223744     3
 OLDACT:UP  17-05-11 09:06 OP:y    STATUS:               ID:20170510223744     3
 OLDACT:UP  17-05-11 09:05 OP:y    STATUS:               ID:20170510223744     3
 OLDACT:UP  17-05-11 09:05 OP:y    STATUS:               ID:20170510223744     3
 OLDACT:UP  17-05-11 09:04 OP:y    STATUS:               ID:20170510223744     3
 OLDACT:REG 17-05-11 06:50 OP:and  STATUS:               ID:20170510223744     3
 2017-05-10-2238-00M.COL___364                                                 6
 STAT SP IPHASW D HRMM SECON CODA AMPLIT PERI AZIMU VELO AIN AR TRES W  DIS CAZ7
 BRR  HZ EP   2   2246 31.22                             154    0.36 5 69.4 302 
 BRR  HN ES   2   2246 47.96                             154    0.14 5 69.4 302 
 PAM  EZ EP       2246 32.15                             151   -0.1210 81.9  40 
 RUS  HZ EP   2   2246 33.55                             146    0.22 5 98.2 174 
 RUS  HN ES       2246 52.20                             146   -0.0210 98.2 174 
 RUS  HZ I        2246 52.67         2.2 0.28            146           98.2 174 
 PTB  HZ EP       2246 36.26                             134    0.02 9  144 260 
 PTB  HN ES   2   2246 57.16                             134   -0.24 5  144 260 
                                                                                
