 2012  310 2259 49.5 L   6.784 -73.137152.3  RSN  8 0.3 1.7LRSN                1
 GAP=138        0.73       4.5     4.1  6.5 -0.3756E+00  0.5071E+01  0.5591E+01E
 ACTION:UP  12-03-31 23:18 OP:EP   STATUS:               ID:20120310225949 L   I
 2012-03-10-2258-59S.COL___194                                                 6
 STAT SP IPHASW D HRMM SECON CODA AMPLIT PERI AZIMU VELO SNR AR TRES W  DIS CAZ7
 BAR2 SZ EP   1   23 0  9.89                             171     0.0 7   22 193 
 BAR2 SZ ES   1   23 0 25.82                             171     0.0 7   22 193 
 BAR2 SZ I        23 0 27.89         9.3 0.37                            22 193 
 BRR  HZ EP   1   23 0 11.81                             153     0.3 7   73 299 
 BRR  HE ES   1   23 0 29.20                             153     0.6 7   73 299 
 BRR  HZ I        23 0 32.63        13.0 0.19                            73 299 
 PAM  SZ EP   1   23 0 12.73                             152     0.2 7   78  38 
 PAM  SN ES   1   23 0 29.97                             152    -0.4 7   78  38 
 PAM  SZ I        23 0 31.06         3.8 0.15                            78  38 
 RUS  HZ EP   1   23 0 13.70                             146    -0.1 7   99 177 
 RUS  HZ I        23 0 14.92         2.9 0.16                            99 177 
 RUS  HN ES   1   23 0 32.73                             146     0.0 7   99 177 
 PTB  HZ EP   1   23 0 16.74                             133    -0.4 7  148 260 
 PTB  HN ES   1   23 0 38.20                             133    -0.4 7  148 260 
 PTB  HZ I        23 0 43.80         6.3 0.37                           148 260 
 ZAR  HN ES   1   23 0 48.12                             124    -0.2 6  206 292 
 ZAR  HZ I        23 0 54.33         7.1 0.39                           206 292 
 NOR  SN ES   1   23 0 53.96                             120     0.2 6  234 235 
 CHI  HZ EP   1   23 0 27.65                             119     0.2 6  247 195 
 CHI  HZ I        23 1  3.72         4.7 0.74                           247 195 
                                                                                
