 2010  910 2225 14.4 L   6.855 -73.009140.0  RSN  4 0.1 1.6LRSN                1
 GAP=179        0.37       5.0    11.3 10.5  0.3854E+02 -0.8248E+02 -0.3338E+02E
 Epicentro: CEPITA - SANTANDER                                                 3
 ACTION:UP  11-02-18 11:01 OP:tino STATUS:               ID:20100910222514 L   I
 2010-09-10-2221-17S.COL___120                                                 6
 STAT SP IPHASW D HRMM SECON CODA AMPLIT PERI AZIMU VELO SNR AR TRES W  DIS CAZ7
 BAR2 SZ EP   2   2225 33.59                             165     0.0 5   35 213 
 BAR2 SZ I        2225 49.96         6.4 0.75                            35 213 
 BRR  HZ EP   2   2225 35.87                             148     0.3 5   83 290 
 BRR  HE ES   2   2225 51.98                             148    -0.2 5   83 290 
 BRR  HZ I        2225 53.65        12.8 0.51                            83 290 
 RUS  HZ EP   1   2225 37.88                             141    -0.1 7  107 184 
 RUS  HE ES   1   2225 56.54                             141     0.1 7  107 184 
 GUE  SZ EP   2   2225 37.88                             140     0.0 5  108   5 
                                                                                
