 2017  310 2147 13.6 L   6.813 -73.176149.3  RSN  4 0.4 1.2LRSN                1
 GAP=132        0.88       4.8     4.2  8.6  0.6017E-01  0.1334E+02 -0.3859E+01E
 Epicentro: ZAPATOCA - SANTANDER                                               3
 ACTION:UPD 17-05-25 18:38 OP:jn   STATUS:               ID:20170310214714 L   I
 OLDACT:UP  17-04-26 21:26 OP:nlst STATUS:               ID:20170310214714 L   3
 OLDACT:DUP 17-03-11 03:58 OP:lv   STATUS:               ID:20170310213720d    3
 2017-03-10-2138-00M.COL___406                                                 6
 STAT SP IPHASW D HRMM SECON CODA AMPLIT PERI AZIMU VELO AIN AR TRES W  DIS CAZ7
 PAM  EZ EP       2147 36.66                             151    0.4310 78.5  42 
 PAM  EN ES       2147 53.63                             151   -0.2810 78.5  42 
 PAM  EZ I        2147 56.75         3.2 0.44            153           78.5  42 
 RUS  HZ EP       2147 37.98                             144    0.1810  102 174 
 RUS  HN ES       2147 56.66                             144   -0.0310  102 174 
 RUS  HZ I        2147 57.60         2.7 0.32            147            102 174 
 PTB  HZ EP       2147 40.44                             133   -0.12 9  145 258 
 PTB  HN ES       2148  1.49                             133   -0.12 9  145 258 
 PTB  HZ I        2148  3.85         2.2 0.18            136            145 258 
 ZAR  HZ EP       2147 45.21                             124   -0.67 9  200 292 
 ZAR  HN ES       2148 11.62                             124    0.55 9  200 292 
                                                                                
