 2014 1010 2117 32.1 L   6.819 -73.120152.0  RSN  8 0.5 2.1LRSN                1
 GAP=139        1.08       4.8     5.3  7.8  0.2141E+00  0.1519E+02  0.1303E+01E
 Epicentro: LOS SANTOS - SANTANDER                                             3
 ACTION:UPD 14-11-29 23:48 OP:nd   STATUS:               ID:20141010211732 L   I
 OLDACT:REG 14-10-11 03:13 OP:cam  STATUS:               ID:20141010211548     3
 2014-10-10-2115-48M.COL___298                                                 6
 STAT SP IPHASW D HRMM SECON CODA AMPLIT PERI AZIMU VELO AIN AR TRES W  DIS CAZ7
 BAR2 SZ EP       2117 52.61                             170    0.0410 26.0 195 
 BAR2 SZ I        2118  8.20        48.4 0.32            170           26.0 195 
 BRR  HZ EP       2117 54.54                             153    0.4910 72.7 296 
 BRR  HN ES       2118 11.14                             153    0.0010 72.7 296 
 BRR  HZ I        2118 13.55        22.2 0.20            153           72.7 296 
 PAM  SZ EP       2117 55.38                             153    0.5510 74.0  39 
 PAM  SN ES       2118 12.34                             153   -0.1910 74.0  39 
 PAM  SZ I        2118 14.28        13.8 0.44            153           74.0  39 
 RUS  HZ EP       2117 57.07                             144    0.4310  103 178 
 RUS  HN ES       2118 15.17                             144   -0.5910  103 178 
 RUS  HZ I        2118 16.86        11.0 0.30            144            103 178 
 PTB  HZ EP       2117 59.61                             133   -0.29 9  151 258 
 PTB  HN ES   4   2118 20.33                             133   -1.23 0  151 258 
 PTB  HZ I        2118 23.53        13.6 0.14            133            151 258 
 ZAR  HZ EP       2118  4.60                             123   -0.58 8  206 291 
 ZAR  HN ES       2118 31.08                             123    0.13 8  206 291 
 ZAR  HN I        2118 36.06        26.0 0.22            124            206 291 
 SML  HZ EP       2118  8.55                             119   -0.49 8  243 334 
 GUY2CHZ EP   1   2118 15.62                             113   -0.81 5  305 235 
 GUY2CHN ES       2118 51.75                             113    0.77 7  305 235 
 GUY2CHZ I        2118 58.53         3.3 0.36                           305 235 
                                                                                
