 2013  410 2126 14.2 L   6.807 -73.131145.0  RSN  7 0.4 1.9LRSN                1
 GAP=190        0.85       4.2     6.5  6.1  0.5541E+01  0.7523E+01  0.1478E+01E
 Epicentro: LOS SANTOS - SANTANDER                                             3
 ACTION:UPD 13-05-22 14:37 OP:EP   STATUS:               ID:20130410212614 L   I
 2013-04-10-2120-00M.COL___245                                                 6
 STAT SP IPHASW D HRMM SECON CODA AMPLIT PERI AZIMU VELO AIN AR TRES W  DIS CAZ7
 BAR2 SZ EP       2126 33.80                             170    0.0210 24.4 194 
 BAR2 SZ ES   1   2126 48.38                             170   -0.66 7 24.4 194 
 BAR2 SZ I        2126 49.71        24.8 0.16            166           24.4 194 
 GIR2 SZ EP       2126 34.09                             167    0.2910 30.9 347 
 GIR2 SZ ES   1   2126 48.89                             167   -0.17 7 30.9 347 
 GIR2 SZ I        2126 50.56        18.2 0.62            166           30.9 347 
 BRR  HZ IP     D 2126 35.95                             152    0.6010 72.3 297 
 BRR  HE ES   1   2126 52.47                             152    0.64 7 72.3 297 
 BRR  HZ I        2126 57.06        15.9 0.14            149           72.3 297 
 RUS  HZ EP       2126 38.02                             143    0.0710  101 177 
 RUS  HN ES   1   2126 56.25                             143   -0.20 7  101 177 
 RUS  HZ I        2126 57.44         9.7 0.40            144            101 177 
 PTB  HZ EP       2126 40.92                             131   -0.37 9  150 259 
 PTB  HN ES   1   2127  2.21                             131   -0.19 7  150 259 
 PTB  HZ I        2127  4.94        12.6 0.14            130            150 259 
 SML  HZ EP   1   2126 50.34                             117   -0.47 6  244 335 
 SML  HE ES   1   2127 18.76                             117   -0.59 6  244 335 
 PRA  HZ EP   1   2127  7.66                             106   -0.23 4  393 210 
 PRA  HN ES   1   2127 50.11                             106    0.36 4  393 210 
 PRA  HZ I        2127 56.97         2.7 0.64            107            393 210 
                                                                                
