 2014  110 2340  1.6 L   6.775 -73.148144.8  RSN 19 0.5 2.5LRSN                1
 GAP= 72        0.97       2.7     2.9  4.7 -0.5538E+00  0.2653E+01  0.9185E+00E
 Epicentro: LOS SANTOS - SANTANDER                                             3
 ACTION:UPD 14-03-13 09:54 OP:ep   STATUS:               ID:20140110234001 L   I
 OLDACT:UP  14-01-11 03:02 OP:mh   STATUS:               ID:20140110233739     3
 OLDACT:UP  14-01-11 03:01 OP:mh   STATUS:               ID:20140110233739     3
 OLDACT:UP  14-01-11 02:58 OP:mh   STATUS:               ID:20140110233739     3
 OLDACT:UP  14-01-11 02:58 OP:mh   STATUS:               ID:20140110233739     3
 OLDACT:UP  14-01-11 02:57 OP:mh   STATUS:               ID:20140110233739     3
 OLDACT:REG 14-01-11 02:28 OP:mh   STATUS:               ID:20140110233739     3
 2014-01-10-2337-39M.COL___246                                                 6
 STAT SP IPHASW D HRMM SECON CODA AMPLIT PERI AZIMU VELO AIN AR TRES W  DIS CAZ7
 BAR2 SZ EP     C 2340 21.13                             172    0.0910 20.6 191 
 BAR2 SZ ES   1   2340 35.81                             172   -0.41 7 20.6 191 
 BAR2 SZ I        2340 38.15       128.9 0.19            166           20.6 191 
 BRR  HZ EP     D 2340 23.25                             152    0.5610 72.3 301 
 BRR  HN ES       2340 39.85                             152    0.7010 72.3 301 
 BRR  HZ I        2340 41.21        64.4 0.11            148           72.3 301 
 PAM  SZ IP     D 2340 24.28                             150    0.4410 79.7  38 
 PAM  SN ES       2340 41.41                             150    0.2210 79.7  38 
 PAM  SZ I        2340 43.86        56.3 0.15            151           79.7  38 
 RUS  HZ IP     D 2340 24.86                             144   -0.1810 97.8 176 
 RUS  HN ES       2340 43.10                             144   -0.2410 97.8 176 
 RUS  HZ I        2340 44.91        25.2 0.37            139           97.8 176 
 PTB  HZ EP       2340 27.85                             132   -0.55 9  147 260 
 PTB  HN ES   1   2340 48.71                             132   -0.61 7  147 260 
 PTB  HZ I        2340 54.03        40.9 0.17            127            147 260 
 TAM  HZ IP     D 2340 29.38                             130    0.23 9  155 104 
 TAM  HN ES   1   2340 50.39                             130   -0.25 7  155 104 
 TAM  HZ I        2340 51.47        19.6 0.31            128            155 104 
 SPBC HZ EP       2340 29.81                             129    0.02 9  161 220 
 SPBC HN ES   1   2340 51.55                             129   -0.24 7  161 220 
 OCA  HZ EP   1   2340 29.87                             129   -0.20 7  163 353 
 OCA  HN ES       2340 51.91                             129   -0.39 9  163 353 
 OCA  HZ I        2340 55.35        38.6 0.11            127            163 353 
 ZAR  HZ EP       2340 34.37                             122    0.32 9  205 293 
 ZAR  HN ES       2340 59.49                             122    0.12 9  205 293 
 ZAR  HZ I        2341  5.57        44.3 0.41            118            205 293 
 NOR  HZ EP   1   2340 36.36                             118   -0.70 6  233 235 
 NOR  HN ES   1   2341  4.24                             118   -0.49 6  233 235 
 NOR  HZ I        2341 10.37        42.4 0.42            114            233 235 
 SML  HZ EP       2340 38.13                             117   -0.28 8  246 336 
 SML  HN ES       2341  6.64                             117   -0.50 8  246 336 
 SML  HZ I        2341 14.58        41.8 0.12            114            246 336 
 CHI  HZ EP       2340 38.91                             117   -0.02 8  246 195 
 CHI  HZ I        2341 15.85        12.5 0.41            113            246 195 
 HEL  HZ EP   1   2340 42.56                             115    0.92 6  271 256 
 HEL  HN ES   1   2341 12.26                             115   -0.63 6  271 256 
 HEL  HZ I        2341 20.08        23.6 0.36            111            271 256 
 URE  HZ EP   4   2340 41.45                             113   -1.24 0  285 292 
 URE  HN ES   4   2341 12.24                             113   -2.52 0  285 292 
 GUY2CHZ EP       2340 45.63                             112    0.69 7  299 235 
 GUY2CHN ES   1   2341 19.21                             112    0.45 5  299 235 
 GUY2CHZ I        2341 27.61        26.1 0.55                           299 235 
 PTGC HZ EP   4   2340 43.62                             112   -1.50 0  306 158 
 RREF HZ EP   4   2340 48.71                             111    1.26 0  320 230 
 RREF HN ES   4   2341 25.64                             111    2.41 0  320 230 
 RREF HZ I        2341 30.54        18.7 0.32            107            320 230 
 CBOC HZ EP   4   2340 48.94                             110    0.61 0  332 253 
 CBOC HN ES   4   2341 23.59                             110   -1.20 0  332 253 
 CBOC HZ I        2341 37.11         7.4 0.43            107            332 253 
 DBB  SZ EP   1   2340 48.67                             109   -0.34 5  339 275 
 TOL  SZ EP       2340 50.26                             109    0.71 7  341 225 
 SDV  BZ EP       2340 51.02                             108   -0.80 6  362  50 
                                                                                
