 2011  110 2055 11.0 L   6.786 -73.186141.3  RSN  6 0.2 1.5LRSN                1
 GAP=154        0.46       3.5     7.6 11.3 -0.1198E+02  0.3029E+02 -0.1070E+02E
 Epicentro: LOS SANTOS - SANTANDER                                             3
 ACTION:UP  11-02-08 08:40 OP:pat  STATUS:               ID:20110110205511 L   I
 2011-01-10-2052-35S.COL___136                                                 6
 STAT SP IPHASW D HRMM SECON CODA AMPLIT PERI AZIMU VELO SNR AR TRES W  DIS CAZ7
 BTL  SZ EP       2055 30.16                             173     0.210   17 328 
 GIR2 SZ EP   2   2055 30.03                             166    -0.1 5   32 358 
 RUS  HZ EP   2   2055 34.45                             143     0.2 5   99 173 
 RUS  HN ES   2   2055 52.00                             143    -0.3 5   99 173 
 RUS  HZ I        2055 54.31         4.1 0.27                            99 173 
 GRA  SZ EP   2   2055 35.64                             135    -0.4 5  129  19 
 GRA  SZ ES   2   2055 55.88                             135     0.2 5  129  19 
 GRA  SZ I        2055 57.49         4.5 0.33                           129  19 
 OCA  SZ EP   2   2055 38.97                             128    -0.1 5  161 355 
 OCA  SZ ES   2   2056  0.76                             128    -0.2 5  161 355 
 OCA  SZ I        2056  4.12         5.7 0.14                           161 355 
 NOR  SE ES   2   2056 13.24                             118    -0.1 4  230 234 
                                                                                
