 2011 1110 2148 15.3 L   6.814 -73.109152.0  RSN  6 0.3 1.8LRSN                1
 GAP=141        0.50       9.6     6.0 10.2  0.2533E+02  0.1396E+02  0.6126E+02E
 Epicentro: LOS SANTOS - SANTANDER                                             3
 ACTION:UPD 12-07-13 16:09 OP:ep   STATUS:               ID:20111110214815 L   I
 2011-11-10-2145-53S.COL___178                                                 6
 STAT SP IPHASW D HRMM SECON CODA AMPLIT PERI AZIMU VELO AIN AR TRES W  DIS CAZ7
 BTL  SZ EP   2   2148 36.03                             171    0.42 5 21.0 303 
 BAR2 SZ EP       2148 35.47                             170   -0.2310 25.8 198 
 BAR2 SZ I        2148 51.54         7.2 0.38                          25.8 198 
 PAM  SN ES   2   2148 55.45                             152   -0.18 5 73.6  38 
 BRR  HZ EP       2148 37.46                             152    0.2010 74.1 296 
 BRR  HN ES   1   2148 54.44                             152    0.03 7 74.1 296 
 BRR  HZ I        2148 59.05        15.5 0.20                          74.1 296 
 RUS  HZ EP   2   2148 39.87                             145    0.14 5  102 178 
 ZAR  HN ES   2   2149 13.87                             123   -0.47 4  207 291 
 ZAR  HZ I        2149 19.32         7.8 0.58                           207 291 
                                                                                
