 2014  910 2258 45.9 L   6.779 -73.204144.0  RSN  5 0.4 1.5LRSN                1
 GAP=130        0.90       5.2     4.6  9.4 -0.3927E+01  0.1322E+02 -0.7923E+01E
 Epicentro: ZAPATOCA - SANTANDER                                               3
 ACTION:UPD 14-10-03 23:03 OP:nd   STATUS:               ID:20140910225845 L   I
 OLDACT:DUP 14-09-11 03:04 OP:fm   STATUS:               ID:20140910224818d    3
 2014-09-10-2248-16M.COL___281                                                 6
 STAT SP IPHASW D HRMM SECON CODA AMPLIT PERI AZIMU VELO AIN AR TRES W  DIS CAZ7
 BAR2 SZ ES   1   2259 20.83                             171    0.48 7 20.8 173 
 BAR2 SZ I        2259 21.89         6.2 0.20            173           20.8 173 
 PAM  SZ EP       2259  8.67                             148    0.4010 83.3  42 
 PAM  SN ES       2259 25.33                             148   -0.4110 83.3  42 
 PAM  SZ I        2259 27.56         7.5 0.48            151           83.3  42 
 RUS  HZ EP   1   2259  9.67                             144    0.33 7 99.0 172 
 RUS  HN ES       2259 27.46                             144   -0.1810 99.0 172 
 RUS  HZ I        2259 29.04         2.8 0.38            148           99.0 172 
 PTB  HZ EP   1   2259 11.28                             133   -0.81 7  141 259 
 PTB  HN ES       2259 32.54                             133    0.01 9  141 259 
 PTB  HZ I        2259 36.57         3.0 0.14            132            141 259 
 ZAR  HN ES   1   2259 42.78                             123    0.29 6  199 293 
 ZAR  HZ I        2259 50.75         4.1 0.28            122            199 293 
                                                                                
