 2010 1110 2348 13.1 L   6.761 -73.070142.0  RSN  6 0.4 1.7LRSN                1
 GAP=168        1.16       6.3    13.8 12.0  0.1203E+00 -0.5108E+02 -0.2369E+00E
 Epicentro: LOS SANTOS - SANTANDER                                             3
 ACTION:UP  10-12-17 16:51 OP:REBC STATUS:               ID:20101110234813 L   I
 2010-11-10-2347-03S.COL___129                                                 6
 STAT SP IPHASW D HRMM SECON CODA AMPLIT PERI AZIMU VELO SNR AR TRES W  DIS CAZ7
 BAR2 SZ EP       2348 32.00                             171    -0.310   23 214 
 BAR2 SZ I        2348 48.71        11.3 0.86                            23 214 
 BTL  SZ EP       2348 32.50                             169     0.110   28 309 
 BTL  SZ ES   1   2348 47.50                             169     0.0 7   28 309 
 BRR  HZ EP       2348 33.99                             149    -0.510   81 298 
 BRR  HZ I        2348 41.47        12.9 0.18                            81 298 
 BRR  HE ES   1   2348 51.29                             149     0.2 7   81 298 
 RUS  HZ EP       2348 36.03                             144    -0.110   96 181 
 RUS  HN ES   1   2348 54.51                             144     0.3 7   96 181 
 RUS  HZ I        2348 56.18         4.8 0.37                            96 181 
 GUE  SZ EP       2348 38.56                             138     0.810  119   8 
 GRA  SZ ES   1   2348 57.11                             136    -0.7 7  128  13 
                                                                                
