 2014  910 2329  0.9 L   6.615 -73.276152.7  RSN  4 0.5 1.2LRSN                1
 GAP=206        1.18       9.8     9.8 12.5  0.5989E+02 -0.3727E+01 -0.8676E+01E
 Epicentro: GALAN - SANTANDER                                                  3
 ACTION:UPD 14-10-03 23:03 OP:nd   STATUS:               ID:20140910232900 L   I
 OLDACT:DUP 14-09-11 03:41 OP:fm   STATUS:               ID:20140910231819d    3
 2014-09-10-2318-18M.COL___284                                                 6
 STAT SP IPHASW D HRMM SECON CODA AMPLIT PERI AZIMU VELO AIN AR TRES W  DIS CAZ7
 BRR  HZ EP       2329 22.66                             153   -0.1910 72.7 319 
 BRR  HN ES       2329 40.27                             153    0.2810 72.7 319 
 BRR  HZ I        2329 42.74         5.8 0.38            156           72.7 319 
 RUS  HZ EP       2329 24.77                             150    0.6410 82.6 165 
 RUS  HE ES       2329 41.71                             150   -0.5710 82.6 165 
 RUS  HZ I        2329 45.52         1.3 0.34            152           82.6 165 
 PTB  HZ EP   1   2329 26.47                             137   -0.48 7  131 266 
 PTB  HN ES       2329 47.76                             137    0.4710  131 266 
 PTB  HZ I        2329 50.96         2.9 0.12            139            131 266 
 ZAR  HN ES   1   2329 57.87                             124   -0.82 6  200 299 
                                                                                
