 2011  410 2029 44.9 L   7.357 -73.213133.1  RSN  5 0.3 1.7LRSN                1
 GAP=154        0.65       5.8     8.3  7.2 -0.2758E+02  0.1066E+02 -0.8459E+01E
 Epicentro: RIONEGRO - SANTANDER                                               3
 ACTION:UP  11-06-22 15:30 OP:REBC STATUS:               ID:20110410202944 L   I
 2011-04-10-2026-46S.COL___138                                                 6
 STAT SP IPHASW D HRMM SECON CODA AMPLIT PERI AZIMU VELO SNR AR TRES W  DIS CAZ7
 BTL  SZ EP   1   2030  3.85                             159    -0.1 7   49 187 
 BTL  SZ ES   1   2030 18.68                                     0.0 7   49 187 
 PAM  SZ EP   1   2030  4.21                             156    -0.4 7   57  92 
 PAM  SN ES   2   2030 19.71                             156    -0.3 5   57  92 
 BRR  HZ EP   1   2030  3.87                             154    -0.3 7   62 243 
 BRR  HN ES   2   2030 19.28                             154     0.1 5   62 243 
 BRR  HZ I        2030 20.84        14.0 0.16                            62 243 
 GRA  SZ EP   1   2030  5.75                             149     0.6 7   74  38 
 GRA  SZ ES   1   2030 20.80                             149    -0.1 7   74  38 
 GRA  SZ I        2030 24.03         7.8 0.51                            74  38 
 BAR2 SZ EP   1   2030  6.01                             146     0.1 7   85 178 
 BAR2 SZ ES   1   2030 22.59                             146     0.3 7   85 178 
                                                                                
