 2011 1010 2147 16.1 L   6.772 -73.047143.4  RSN  4 0.3 1.6LRSN                1
 GAP=208        0.67       9.3    16.9  9.5  0.1228E+03 -0.8296E+02 -0.4171E+02E
 Epicentro: LOS SANTOS - SANTANDER                                             3
 ACTION:UPD 12-07-13 16:03 OP:ep   STATUS:               ID:20111010214716 L   I
 2011-10-10-2140-43S.COL___168                                                 6
 STAT SP IPHASW D HRMM SECON CODA AMPLIT PERI AZIMU VELO AIN AR TRES W  DIS CAZ7
 BAR2 SZ EP   1   2147 35.64                             170    0.15 7 24.9 217 
 BAR2 SZ ES   1   2147 50.28                             170   -0.33 7 24.9 217 
 BAR2 SZ I        2147 52.02        10.2 0.23                          24.9 217 
 GIR2 SZ EP   1   2147 35.93                             165    0.24 7 37.6 334 
 BRR  HZ EP   1   2147 37.80                             148    0.12 7 82.3 297 
 BRR  HZ I        2147 39.76         9.9 0.12                          82.3 297 
 BRR  HE ES   1   2147 54.45                             148   -0.05 7 82.3 297 
 RUS  HZ EP   1   2147 38.83                             144   -0.57 7 97.4 182 
 RUS  HN ES   1   2147 58.01                             144    0.44 7 97.4 182 
 RUS  HZ I        2147 59.17         3.7 0.23                          97.4 182 
                                                                                
