 2010  810 2108 29.2 L   6.780 -73.081148.9  RSN 15 0.4 3.1LRSN                1
 GAP=163        0.83       2.6     5.1  4.2 -0.6284E+01  0.3524E+01  0.2342E+01E
 Epicentro: LOS SANTOS - SANTANDER                                             3
 ACTION:UP  10-09-07 10:53 OP:vdl  STATUS:               ID:20100810210829 L   I
 2010-08-10-2105-09S.COL___125                                                 6
 STAT SP IPHASW D HRMM SECON CODA AMPLIT PERI AZIMU VELO SNR AR TRES W  DIS CAZ7
 BAR2 SZ IP     C 21 8 49.01                             171    -0.210   24 208 
 BAR2 SZ ES       21 9  5.06                             171     0.210   24 208 
 BAR2 SZ I        21 9  6.16       270.9 0.34                            24 208 
 GIR2 SZ EP   1   21 8 49.10                             165    -0.3 7   35 339 
 GIR2 SZ ES       21 9  5.14                             165     0.110   35 339 
 BRR  HZ EP       21 8 50.89                             150    -0.210   79 297 
 BRR  HZ I        21 8 51.24       464.1 0.18                            79 297 
 BRR  HE ES       21 9  8.15                             150    -0.110   79 297 
 RUS  HZ IP     D 21 8 52.82                             146    -0.310   98 180 
 RUS  HN ES       21 9 11.71                             146     0.010   98 180 
 RUS  HZ I        21 9 13.31        89.5 0.20                            98 180 
 BRI  SZ EP   1   21 8 53.50                             142     0.1 7  108  17 
 BRI  SZ ES       21 9 12.08                             142    -0.110  108  17 
 BRI  SZ I        21 9 17.96       107.2 0.77                           108  17 
 GUE  SZ EP   1   21 8 54.93                             139     0.7 7  117   8 
 GUE  SZ ES   2   21 9 14.14                             139     0.3 5  117   8 
 GRA  SZ EP       21 8 54.81                             137     0.110  126  14 
 GRA  SZ ES       21 9 14.90                             137     0.210  126  14 
 GRA  SZ I        21 9 16.14       241.2 0.26                           126  14 
 OCA  SZ EP   1   21 8 57.46                             129    -0.6 7  163 351 
 OCA  SZ ES   2   21 9 20.11                             129    -0.4 5  163 351 
 OCA  SZ I        21 9 24.91       191.3 0.49                           163 351 
 CHI  HZ EP       21 9  6.99                             118    -0.1 8  248 197 
 CHI  HE ES       21 9 36.15                             118    -0.4 8  248 197 
 CHI  HZ I        21 9 42.10        49.8 0.35                           248 197 
 ROSC BZ EP   1   21 9  8.63                             117     0.9 6  255 213 
 ROSC BN ES   2   21 9 38.58                                     0.9 4  255 213 
 ROSC BZ I        21 9 46.97        66.3 0.64                           255 213 
 HEL  HZ EP   1   21 9 10.45                             115     0.2 6  278 257 
 HEL  HN ES   2   21 9 41.36                                    -1.0 4  278 257 
 HEL  HZ I        21 9 48.04        73.4 0.37                           278 257 
 RREF HZ EP   1   21 9 15.88                             111    -0.1 5  326 230 
 RREF HE ES   2   21 9 53.70                             111     1.3 3  326 230 
 RREF HZ I        2110  0.99        63.9 0.16                           326 230 
 TOL  SZ EP   1   21 9 17.90                                    -0.1 5  347 226 
 ANIL HZ EP   1   21 9 20.24                                     0.7 5  361 226 
 ANIL HN ES   1   21 9 58.73                                    -0.1 5  361 226 
 ANIL HZ I        2110  4.32       109.3 0.29                           361 226 
 PRA  HZ EP   1   21 9 22.74                             107    -0.3 4  394 211 
 PRA  HN ES       2110  5.24                             107     0.2 6  394 211 
 PRA  HZ I        2110  8.96        62.7 0.50                           394 211 
                                                                                
