 2014  510 2223 49.3 L   6.784 -73.091149.9  RSN  6 0.4 1.6LRSN                1
 GAP=144        0.78       4.5     4.3  7.1 -0.2387E+00  0.4454E+01  0.6216E+01E
 Epicentro: LOS SANTOS - SANTANDER                                             3
 OLDACT:REG 14-05-11 03:31 OP:fm   STATUS:               ID:20140510221821d    3
 ACTION:UPD 15-03-16 16:56 OP:nd   STATUS:               ID:20140510222349 L   I
 OLDACT:UP  14-05-11 04:38 OP:fm   STATUS:               ID:20140510221821d    3
 2014-05-10-2218-20M.COL___248                                                 6
 STAT SP IPHASW D HRMM SECON CODA AMPLIT PERI AZIMU VELO AIN AR TRES W  DIS CAZ7
 PAM  SZ EP       2224 11.96                             152    0.0910 75.1  35 
 PAM  SN ES       2224 29.21                             152   -0.2310 75.1  35 
 PAM  SZ I        2224 31.52         3.6 0.52            157           75.1  35 
 BRR  HZ EP       2224 11.03                             151   -0.2610 77.4 298 
 BRR  HN ES       2224 28.74                             151    0.3310 77.4 298 
 BRR  SZ I        2224 41.51         8.5 2.74            149           77.4 298 
 RUS  HZ EP   1   2224 13.54                             145    0.18 7 98.6 180 
 RUS  HN ES   1   2224 32.25                             145    0.16 7 98.6 180 
 RUS  SZ I        2224 32.38         4.4 1.86            152           98.6 180 
 PTB  HE ES   1   2224 38.85                             132   -0.00 7  153 260 
 ZAR  HZ EP   1   2224 23.57                             122    0.87 6  210 292 
 ZAR  HN ES   1   2224 47.98                             122   -0.75 6  210 292 
 ZAR  SZ I        2224 53.67         3.7 0.58            125            210 292 
 CHI  HZ EP   2   2224 26.61                             118   -0.65 4  249 197 
 CHI  HN ES   2   2224 56.37                             118   -0.47 4  249 197 
 CHI  SZ I        2224 57.78         5.7 2.64            123            249 197 
                                                                                
