 2011  710 2348 42.2 L   6.775 -73.077146.6  RSN 12 0.5 2.2LRSN                1
 GAP=164        0.82       3.5     6.5  5.4 -0.9850E+01  0.2301E+01  0.3759E+01E
 Epicentro: LOS SANTOS - SANTANDER                                             3
 ACTION:UPD 12-07-25 13:59 OP:epov STATUS:               ID:20110710234842 L   I
 2011-07-10-2345-47S.COL___140                                                 6
 STAT SP IPHASW D HRMM SECON CODA AMPLIT PERI AZIMU VELO AIN AR TRES W  DIS CAZ7
 BAR2 SZ EP       2349  1.95                             171    0.0510 23.3 210 
 BAR2 SZ ES   1   2349 16.92                             171   -0.37 7 23.3 210 
 BAR2 SZ I        2349 19.57        44.4 0.42                          23.3 210 
 BTL  SZ EP       2349  2.09                             169    0.1210 26.4 307 
 BTL  SZ ES   2   2349 17.57                             169    0.16 5 26.4 307 
 BRR  HZ EP       2349  3.67                             150   -0.2110 79.2 298 
 BRR  HZ I        2349  3.90        27.4 0.16                          79.2 298 
 BRR  HN ES   1   2349 21.25                             150    0.44 7 79.2 298 
 RUS  HZ EP       2349  5.89                             145    0.1010 97.5 180 
 RUS  HN ES   2   2349 24.29                             145    0.08 5 97.5 180 
 RUS  HZ I        2349 25.79        13.0 0.36                          97.5 180 
 BRI  SZ EP       2349  6.36                             142    0.2010  109  17 
 GRA  SZ EP       2349  7.62                             137    0.0710  126  14 
 GRA  SZ I        2349  8.73        27.3 0.32                           126  14 
 GRA  SZ ES   1   2349 27.56                             137    0.22 7  126  14 
 OCA  SZ EP       2349 10.28                             129   -0.63 9  164 351 
 OCA  SZ ES   2   2349 33.12                             129   -0.20 5  164 351 
 OCA  SZ I        2349 36.45        30.3 0.20                           164 351 
 NOR  SZ EP       2349 18.04                             118   -0.41 8  239 236 
 NOR  SN ES   2   2349 45.59                             118   -1.15 4  239 236 
 CHI  HZ EP       2349 19.47                             117   -0.38 8  248 197 
 CHI  HZ I        2349 21.61         4.9 0.16                           248 197 
 CHI  HN ES   2   2349 49.50                             117    0.26 4  248 197 
 HEL  HZ EP   2   2349 23.91                             114    0.74 4  279 257 
 RREF HZ EP       2349 30.06                             111    1.25 7  326 231 
 RREF HN ES   3   2350  6.22                             111    1.04 2  326 231 
 RREF HZ I        2350 13.29         8.1 0.56                           326 231 
 PRA  HZ EP       2349 35.85                             107   -0.03 6  393 211 
 PRA  HN ES   2   2350 17.59                             107   -0.19 3  393 211 
                                                                                
