 2015  910 2353  9.5 L   6.728 -73.195154.0  RSN  6 0.4 1.7LRSN                1
 GAP=226        0.97       5.4     5.7  6.8  0.1184E+02  0.6113E+01 -0.2523E+01E
 Epicentro: VILLANUEVA - SANTANDER                                             3
 ACTION:UPD 15-10-28 16:25 OP:cam  STATUS:               ID:20150910235309 L   I
 OLDACT:UP  15-09-11 04:52 OP:ak   STATUS:               ID:20150910234746     3
 OLDACT:REG 15-09-11 03:48 OP:ak   STATUS:               ID:20150910234746     3
 2015-09-10-2347-46M.COL___348                                                 6
 STAT SP IPHASW D HRMM SECON CODA AMPLIT PERI AZIMU VELO AIN AR TRES W  DIS CAZ7
 BAR2 EZ EP       2353 29.89                             174   -0.1210 15.1 175 
 BAR2 EZ ES       2353 45.43                             174   -0.5610 15.1 175 
 BRR  HZ EP       2353 31.83                             154    0.2810 70.9 306 
 BRR  HN ES       2353 49.16                             154    0.4310 70.9 306 
 BRR  HZ I        2353 53.39         7.8 0.15            152           70.9 306 
 RUS  HZ EP       2353 34.16                             147    0.5710 93.2 172 
 RUS  HN ES       2353 52.30                             147   -0.0710 93.2 172 
 RUS  HZ I        2353 53.27         3.6 0.46            151           93.2 172 
 PTB  HZ EP       2353 36.70                             135    0.11 9  141 262 
 PTB  HN ES       2353 57.60                             135   -0.10 9  141 262 
 SPBC HZ EP   1   2353 37.69                             133   -0.10 7  154 219 
 SPBC HN ES       2353 59.89                             133    0.05 9  154 219 
 SPBC HZ I        2354  2.31         6.8 0.21            134            154 219 
 ZAR  HZ EP       2353 41.45                             124   -0.88 9  202 295 
 ZAR  HN ES       2354  8.10                             124    0.17 9  202 295 
 ZAR  HZ I        2354 14.16         8.2 0.31            125            202 295 
                                                                                
