 2017  710 2214 18.3 L   6.825 -73.155150.5  RSN 12 0.5 2.1LRSN                1
 GAP=110        1.07       4.0     3.8  6.1  0.2282E-01  0.3548E+01  0.5527E+01E
 Epicentro: LOS SANTOS - SANTANDER                                             3
 ACTION:UPD 17-08-30 15:31 OP:rebc STATUS:               ID:20170710221418 L   I
 OLDACT:REG 17-07-11 03:40 OP:osc  STATUS:               ID:20170710220745     3
 2017-07-10-2208-00M.COL___389                                                 6
 STAT SP IPHASW D HRMM SECON CODA AMPLIT PERI AZIMU VELO AIN AR TRES W  DIS CAZ7
 BAR2 EZ EP       2214 38.21                             170   -0.3310 26.0 187 
 BAR2 EZ ES       2214 53.84                             170   -0.5010 26.0 187 
 BAR2 EZ I        2214 56.07        25.0 0.32            168           26.0 187 
 BRR  HZ EP       2214 40.12                             154    0.2910 69.0 297 
 BRR  HE ES       2214 57.21                             154    0.5810 69.0 297 
 PAM  EZ EP       2214 41.23                             152    0.3110 75.9  41 
 PAM  EE ES       2214 58.48                             152   -0.1010 75.9  41 
 PAM  EZ I        2215  0.68        13.2 0.28            157           75.9  41 
 PTB  HZ EP       2214 44.80                             133   -0.80 9  147 258 
 PTB  HE ES       2215  6.57                             133   -0.34 9  147 258 
 PTB  HZ I        2215 11.27         6.9 0.11            133            147 258 
 SPBC HZ EP       2214 47.37                             130    0.07 9  165 218 
 SPBC HE ES       2215 10.09                             130    0.16 9  165 218 
 SPBC HZ I        2215 15.43        18.3 0.33            130            165 218 
 YPLC HZ EP       2214 48.57                             127   -0.14 9  180 151 
 YPLC HE ES       2215 13.02                             127    0.57 9  180 151 
 YPLC HZ I        2215 13.63        19.9 0.30            129            180 151 
 ZAR  HZ EP       2214 50.53                             124   -0.31 9  202 292 
 ZAR  HE ES       2215 16.55                             124    0.32 9  202 292 
 ZAR  HZ I        2215 22.20         8.7 0.34            125            202 292 
 TABC EZ EP       2214 54.49                             120   -0.03 8  232 210 
 TABC EZ ES   2   2215 23.10                             120    0.31 4  232 210 
 NOR  HZ EP       2214 54.64                             119    0.26 8  236 234 
 NOR  HN ES       2215 22.10                             119   -0.43 8  236 234 
 NOR  HZ I        2215 30.20        11.1 0.14            120            236 234 
 GUY2CHZ EP   9   2215  4.89                             113    2.69 0  302 234 
 GUY2CHE ES       2215 39.26                                    0.11 7  302 234 
 GUY2CHZ I        2215 43.50         5.4 0.54                           302 234 
 PTGC HZ EP   9   2215  1.28                             112   -1.41 0  312 159 
 PTGC HN ES       2215 35.18                                   -0.74 7  312 159 
 ELA  HE ES   2   2215 44.88                             111    2.62 3  330 229 
                                                                                
