 2010  810 2041 41.9 L   6.787 -73.074150.4  RSN  6 0.2 1.7LRSN                1
 GAP=167        0.57       2.5     5.4  5.3 -0.2938E+01 -0.5568E+01  0.3512E+00E
 Epicentro: LOS SANTOS - SANTANDER                                             3
 ACTION:UP  10-09-07 10:53 OP:vdl  STATUS:               ID:20100810204141 L   I
 2010-08-10-2039-08S.COL___125                                                 6
 STAT SP IPHASW D HRMM SECON CODA AMPLIT PERI AZIMU VELO SNR AR TRES W  DIS CAZ7
 BAR2 SZ EP   1   2042  2.03                             170    -0.1 7   25 209 
 BAR2 SZ I        2042  2.38        14.1 0.35                            25 209 
 BAR2 SZ ES   2   2042 17.95                             170     0.0 5   25 209 
 GIR2 SZ EP   1   2042  2.17                             166    -0.1 7   35 338 
 GIR2 SZ ES   2   2042 18.14                             166     0.0 5   35 338 
 BRR  HZ EP       2042  3.97                             151    -0.110   79 297 
 BRR  HE ES       2042 21.34                             151     0.110   79 297 
 BRR  HZ I        2042 23.62        19.5 0.15                            79 297 
 RUS  HZ EP   1   2042  5.95                             145    -0.1 7   99 181 
 RUS  HN ES       2042 24.85                             145     0.010   99 181 
 RUS  HZ I        2042 25.70         4.0 0.37                            99 181 
 GUE  SZ EP   1   2042  7.34                             140     0.3 7  117   8 
 GUE  SZ ES       2042 26.25                             140    -0.410  117   8 
 GUE  SZ I        2042 30.38         3.1 0.24                           117   8 
 GRA  SZ EP   1   2042  7.60                             138     0.1 7  125  14 
 GRA  SZ ES       2042 27.81                             138     0.310  125  14 
 GRA  SZ I        2042 28.63        12.9 0.60                           125  14 
                                                                                
