 2013 1110 2132 15.9 L   6.789 -73.175144.3  RSN  7 0.5 1.8LRSN                1
 GAP=133        1.18       4.4     5.6  7.9 -0.2982E+01  0.8525E+01 -0.7372E+01E
 Epicentro: LOS SANTOS - SANTANDER                                             3
 ACTION:UPD 14-01-09 16:27 OP:ep   STATUS:               ID:20131110213215 L   I
 OLDACT:UP  13-11-11 03:41 OP:carl STATUS:               ID:20131110212849     3
 OLDACT:REG 13-11-11 02:49 OP:carl STATUS:               ID:20131110212849     3
 2013-11-10-2128-49M.COL___216                                                 6
 STAT SP IPHASW D HRMM SECON CODA AMPLIT PERI AZIMU VELO AIN AR TRES W  DIS CAZ7
 BAR2 SZ EP       2132 35.35                             171    0.0810 21.8 182 
 BAR2 SZ ES       2132 49.49                             171   -0.9310 21.8 182 
 BAR2 SZ I        2132 52.97        16.5 0.50            171           21.8 182 
 BRR  HZ EP       2132 37.36                             153    0.6410 69.0 301 
 BRR  HN ES       2132 53.62                             153    0.6310 69.0 301 
 BRR  HZ I        2132 57.60         9.2 0.26            150           69.0 301 
 PAM  SZ EP       2132 38.40                             149    0.3110 80.4  41 
 PAM  SN ES       2132 55.36                             149   -0.0710 80.4  41 
 PAM  SZ I        2132 57.41        11.2 0.58            153           80.4  41 
 RUS  HZ EP       2132 39.36                             144   -0.0310 99.6 174 
 RUS  HN ES       2132 58.10                             144    0.3610 99.6 174 
 RUS  HZ I        2132 59.44         6.7 0.42            147           99.6 174 
 PTB  HZ EP       2132 42.38                             132   -0.01 9  144 259 
 PTB  HN ES       2133  3.06                             132   -0.03 9  144 259 
 PTB  HZ I        2133  8.42         6.6 0.22            132            144 259 
 SPBC HN ES       2133  5.49                             129   -0.38 9  160 218 
 SPBC HZ I        2133 12.25         9.9 0.28            131            160 218 
 SML  HZ EP       2132 51.52                             117   -0.85 8  243 336 
 SML  HE ES       2133 20.70                             117   -0.16 8  243 336 
 SML  HZ I        2133 29.64         6.1 0.10            118            243 336 
                                                                                
