 2015 1210 2133 30.3 L   6.743 -73.140146.8  RSN  4 0.3 1.6LRSN                1
 GAP=234        0.84       9.2    10.6  7.5  0.8134E+02  0.1210E+01 -0.4365E+01E
 Epicentro: LOS SANTOS - SANTANDER                                             3
 ACTION:UPD 16-02-04 15:03 OP:cam  STATUS:               ID:20151210213330 L   I
 OLDACT:DUP 15-12-11 03:18 OP:drio STATUS:               ID:20151210212749d    3
 2015-12-10-2127-48M.COL___331                                                 6
 STAT SP IPHASW D HRMM SECON CODA AMPLIT PERI AZIMU VELO AIN AR TRES W  DIS CAZ7
 BAR2 EZ EP       2133 49.84                             173   -0.1010 17.3 196 
 BAR2 EZ ES       2134  5.02                             173   -0.2510 17.3 196 
 BAR2 EZ I        2134  6.27        11.4 0.28            164           17.3 196 
 BRR  HZ EP       2133 51.44                             151   -0.3310 74.9 303 
 BRR  HN ES       2134  9.02                             151    0.5010 74.9 303 
 RUS  HZ EP       2133 54.15                             146    0.4510 94.2 176 
 RUS  HE ES       2134 11.83                             146   -0.1310 94.2 176 
 RUS  HZ I        2134 13.03         5.4 0.46            142           94.2 176 
 ZAR  HE ES       2134 28.52                             122   -0.20 8  207 294 
 ZAR  HZ I        2134 34.42         4.2 0.38            120            207 294 
                                                                                
