 2014  510 2215 16.0 L   6.716 -73.125145.6  RSN  6 0.4 1.5LRSN                1
 GAP=143        0.67       4.1     7.7 10.0 -0.1621E+02  0.2433E+02  0.4295E+01E
 Epicentro: JORDAN - SANTANDER                                                 3
 OLDACT:DUP 14-05-11 04:16 OP:fm   STATUS:               ID:20140510220817d    3
 ACTION:UPD 15-03-16 16:56 OP:nd   STATUS:               ID:20140510221516 L   I
 OLDACT:UP  14-05-11 04:21 OP:fm   STATUS:               ID:20140510220817d    3
 2014-05-10-2208-16M.COL___248                                                 6
 STAT SP IPHASW D HRMM SECON CODA AMPLIT PERI AZIMU VELO AIN AR TRES W  DIS CAZ7
 PAM  SZ EP       2215 38.88                             148    0.2810 83.4  34 
 PAM  SN ES       2215 55.82                             148   -0.3810 83.4  34 
 PAM  SZ I        2216  4.82         4.1 2.20            152           83.4  34 
 RUS  HZ EP   2   2215 39.74                             146    0.63 5 91.2 177 
 RUS  HN ES   2   2215 57.63                             146    0.53 5 91.2 177 
 RUS  SZ I        2216  0.45         3.3 1.40            144           91.2 177 
 SPBC HN ES   2   2216  5.60                             129   -0.20 5  158 222 
 OCA  HN ES   1   2216  8.05                             127    0.04 7  170 353 
 NOR  HN ES   2   2216 19.08                             118    0.11 4  231 237 
 CHI  HZ EP   2   2215 52.03                             117   -0.79 4  240 196 
 CHI  HN ES   2   2216 21.13                             117   -0.38 4  240 196 
 CHI  SZ I        2216 33.62         4.3 2.36            120            240 196 
                                                                                
