 2013  110 2326 59.3 L   6.783 -73.128152.0  RSN  7 0.3 2.0LRSN                1
 GAP=185        0.71       3.3     5.1  6.7  0.3811E+01 -0.5393E+01  0.2675E+01E
 Epicentro: LOS SANTOS - SANTANDER                                             3
 ACTION:UPD 13-02-15 09:13 OP:ep   STATUS:               ID:20130110232659 L   I
 2013-01-10-2320-00M.COL___242                                                 6
 STAT SP IPHASW D HRMM SECON CODA AMPLIT PERI AZIMU VELO AIN AR TRES W  DIS CAZ7
 BAR2 SZ EP       2327 19.50                             172   -0.1210 21.9 196 
 BAR2 SZ I        2327 19.67        35.2 0.19            166           21.9 196 
 BRR  HZ EP     D 2327 21.45                             153    0.2210 73.8 299 
 BRR  HZ I        2327 21.66        17.8 0.19            148           73.8 299 
 BRR  HE ES       2327 38.82                             153    0.4510 73.8 299 
 RUS  HZ EP       2327 23.34                             146   -0.1510 98.5 177 
 RUS  HN ES   1   2327 42.17                             146   -0.22 7 98.5 177 
 RUS  HN I        2327 42.66        14.1 0.35            142           98.5 177 
 PTB  HZ EP       2327 26.38                             133   -0.50 9  149 260 
 PTB  HE ES   1   2327 48.20                             133   -0.23 7  149 260 
 PTB  HZ I        2327 49.68        14.5 0.15            128            149 260 
 OCA  HZ EP   1   2327 28.46                             131    0.20 7  162 353 
 OCA  HN ES   1   2327 50.61                             131   -0.27 7  162 353 
 ZAR  HE ES   1   2327 58.10                             124   -0.11 6  207 292 
 ZAR  HZ I        2328  4.56        15.2 0.35            120            207 292 
 CHI  HZ EP   1   2327 37.69                             119    0.52 6  247 196 
 CHI  HN ES   1   2328  7.22                             119    0.48 6  247 196 
 CHI  HZ I        2328 12.84         3.4 0.37            116            247 196 
                                                                                
