 2017  710 2324  6.8 L   6.781 -73.123136.0  RSN  9 0.4 1.9LRSN                1
 GAP=115        1.01       4.7     3.7  6.5  0.4760E+01  0.9172E+01  0.1256E+02E
 Epicentro: LOS SANTOS - SANTANDER                                             3
 ACTION:UPD 17-08-30 15:31 OP:rebc STATUS:               ID:20170710232406 L   I
 OLDACT:REG 17-07-11 03:58 OP:osc  STATUS:               ID:20170710231736     3
 2017-07-10-2318-00M.COL___377                                                 6
 STAT SP IPHASW D HRMM SECON CODA AMPLIT PERI AZIMU VELO AIN AR TRES W  DIS CAZ7
 BAR2 EZ EP       2324 24.76                             170   -0.4610 21.8 198 
 BAR2 EZ ES       2324 39.48                             170   -0.1110 21.8 198 
 BAR2 EZ I        2324 41.71        35.8 0.18            170           21.8 198 
 BRR  HZ EP       2324 27.22                             150    0.1210 74.5 299 
 BRR  HE ES       2324 43.52                             150    0.5910 74.5 299 
 BRR  HZ I        2324 47.16        14.3 0.18            151           74.5 299 
 PAM  EE ES       2324 44.55                             149    0.0310 77.5  37 
 PTB  HZ EP       2324 32.41                             129   -0.77 9  150 260 
 PTB  HE ES       2324 53.94                             129    0.18 9  150 260 
 PTB  HZ I        2324 55.05         6.3 0.16            131            150 260 
 YPLC HZ EP       2324 36.01                             125    0.42 9  174 152 
 YPLC HN ES       2324 57.80                             125   -0.25 9  174 152 
 YPLC HZ I        2325  2.63        11.7 0.28            127            174 152 
 ZAR  HZ EP       2324 39.25                             120    0.29 8  207 292 
 ZAR  HE ES       2325  3.51                             120   -0.54 8  207 292 
 ZAR  HZ I        2325 10.09        12.4 0.18            122            207 292 
 NOR  HZ EP       2324 42.13                             116    0.06 8  236 235 
 NOR  HE ES       2325  9.93                             116    0.35 8  236 235 
 NOR  HZ I        2325 11.04         5.2 0.14            118            236 235 
 HEL  HE ES       2325 17.47                             113   -0.44 8  274 256 
 GUY2CHZ EP       2324 50.80                             110    0.73 7  302 235 
 GUY2CHE ES   4   2325 22.87                             110   -0.95 0  302 235 
 GUY2CHZ I        2325 32.23         2.0 0.42                           302 235 
                                                                                
