 2011  210 2331 13.8 L   6.776 -73.118140.3  RSN  6 0.4 1.6LRSN                1
 GAP=162        0.73       4.7    11.3  9.1 -0.3312E+02  0.3656E+02 -0.1126E+02E
 Epicentro: LOS SANTOS - SANTANDER                                             3
 ACTION:UP  11-03-28 15:07 OP:jfem STATUS:               ID:20110210233113 L   I
 2011-02-10-2328-02S.COL___136                                                 6
 STAT SP IPHASW D HRMM SECON CODA AMPLIT PERI AZIMU VELO SNR AR TRES W  DIS CAZ7
 BAR2 SZ ES   2   2331 48.05                             171     0.5 5   22 199 
 BAR2 SZ I        2331 49.00        10.6 0.23                            22 199 
 GIR2 SZ EP   2   2331 33.66                             165     0.7 5   35 346 
 RUS  HZ EP   1   2331 37.23                             143     0.4 8   98 178 
 RUS  HE ES   1   2331 54.35                             143    -0.4 8   98 178 
 RUS  HZ I        2331 56.81         3.2 0.33                            98 178 
 GRA  SZ EP       2331 38.81                             135     0.110  127  16 
 GRA  SZ ES   1   2331 57.77                             135    -0.4 7  127  16 
 GRA  SZ I        2331 59.20        11.4 0.34                           127  16 
 NOR  SZ EP   2   2331 49.22                             117    -0.2 4  236 236 
 NOR  SN ES   2   2332 16.95                             117    -0.1 4  236 236 
 CHI  HZ EP   2   2331 50.64                             116    -0.4 4  247 196 
 CHI  HE ES   2   2332 20.01                             116    -0.1 4  247 196 
 CHI  HZ I        2332 27.01         1.8 0.35                           247 196 
                                                                                
