 2010  710 2320 57.8 L   6.767 -73.050149.6  RSN 14 0.4 4.0LRSN                1
 GAP=134        0.90       3.2     6.1  5.0 -0.9019E+01  0.1481E+01  0.2212E+01E
 Epicentro: LOS SANTOS - SANTANDER                                             3
 ACTION:UPD 10-12-01 15:16 OP:pat  STATUS:               ID:20100710232057 L   I
 2010-07-10-2318-29S.COL___120                                                 6
 STAT SP IPHASW D HRMM SECON CODA AMPLIT PERI AZIMU VELO AIN AR TRES W  DIS CAZ7
 BAR2 SZ IP       2321 17.96                             170     0.010   24 217 
 BAR2 SZ ES       2321 33.59                             170     0.010   24 217 
 BAR2 SZ I        2321 35.84      1587.5 0.46                            24 217 
 BRR  HZ IP     D 2321 19.84                             150    -0.210   82 297 
 BRR  HE ES   1   2321 37.02                             150    -0.3 7   82 297 
 BRR  HZ I        2321 39.73      1403.8 0.10                            82 297 
 RUS  HZ IP     D 2321 21.75                             146     0.110   97 182 
 RUS  HZ I        2321 23.31       525.9 0.48                            97 182 
 RUS  HE ES   1   2321 40.37                             146     0.1 7   97 182 
 GUE  SZ EP       2321 23.78                             140     0.810  118   7 
 GRA  SZ IP       2321 23.75                             138     0.310  127  12 
 GRA  SZ ES   1   2321 43.28                             138    -0.2 7  127  12 
 GRA  SZ I        2321 45.93      1192.2 0.34                           127  12 
 OCA  SZ EP       2321 26.40                             129    -0.5 9  165 350 
 OCA  SZ ES   1   2321 49.50                             129    -0.1 7  165 350 
 OCA  SZ I        2321 54.20      1304.2 0.30                           165 350 
 CHI  HZ IP     D 2321 35.59                             118    -0.1 8  248 198 
 CHI  HE ES   1   2322  4.69                             118    -0.5 6  248 198 
 CHI  HZ I        2322 14.20       408.2 0.66                           248 198 
 CVER SZ EP       2321 38.02                             115    -0.4 8  273 205 
 CVER SZ I        2321 40.09       935.9 0.44                           273 205 
 HEL  HZ EP   2   2321 39.33                             115     0.1 4  281 257 
 HEL  HE ES   3   2322 10.86                             115    -0.7 2  281 257 
 HEL  HZ I        2322 17.24       383.3 0.21                           281 257 
 RREF HZ EP       2321 45.01                             111     0.2 7  328 231 
 RREF HN ES   1   2322 22.75                             111     1.3 5  328 231 
 RREF HZ I        2322 26.62       552.7 0.16                           328 231 
 TOL  SZ EP       2321 46.83                             110     0.0 6  348 226 
 SDV  BZ IP       2321 47.15                             109    -0.2 6  355  49 
 SDV  BZ I        2321 48.23       288.9 0.25                           355  49 
 ANIL HZ EP       2321 48.17                             109    -0.2 6  362 226 
 ANIL HE ES   2   2322 27.81                             109     0.1 3  362 226 
 PRA  HZ EP   1   2321 51.28                             107    -0.4 4  394 211 
 PRA  HE ES   2   2322 34.27                             107     0.5 3  394 211 
 PRA  HZ I        2322 39.79       576.4 0.55                           394 211 
                                                                                
