 2011 1110 2254 19.8 L   6.768 -73.128146.6  RSN  5 0.2 1.6LRSN                1
 GAP=140        0.48       3.5     3.9  4.7  0.1032E+01 -0.1607E+00  0.2043E+01E
 Epicentro: LOS SANTOS - SANTANDER                                             3
 ACTION:UPD 12-07-13 16:09 OP:ep   STATUS:               ID:20111110225419 L   I
 2011-11-10-2252-50S.COL___178                                                 6
 STAT SP IPHASW D HRMM SECON CODA AMPLIT PERI AZIMU VELO AIN AR TRES W  DIS CAZ7
 BAR2 SZ IP       2254 39.37                             172   -0.0710 20.3 197 
 BAR2 SZ ES   1   2254 54.69                             172   -0.10 7 20.3 197 
 BAR2 SZ I        2254 56.04         6.9 0.20                          20.3 197 
 BRR  HZ IP     C 2254 41.39                             151    0.1910 74.6 300 
 BRR  HZ I        2254 41.83        14.3 0.09                          74.6 300 
 BRR  HN ES   1   2254 58.16                             151    0.24 7 74.6 300 
 PAM  SZ EP       2254 42.25                             150    0.0810 79.0  37 
 PAM  SE ES   1   2254 59.45                             150   -0.19 7 79.0  37 
 RUS  HZ EP       2254 43.27                             145   -0.0710 96.9 177 
 RUS  HE ES   2   2255  1.88                             145    0.15 5 96.9 177 
 RUS  HZ I        2255  3.22         3.4 0.50                          96.9 177 
 ZAR  HE ES   2   2255 17.39                             122   -0.80 4  207 293 
                                                                                
