 2012  610 2051 43.2 L   6.783 -73.210140.0  RSN  6 0.3 1.7LRSN                1
 GAP=176        0.63       3.5     4.2  6.8  0.1342E+01  0.1062E+02 -0.9984E-01E
 Epicentro: ZAPATOCA - SANTANDER                                               3
 ACTION:UPD 12-08-06 17:48 OP:ep   STATUS:               ID:20120610205141 L   I
 2012-06-10-2050-00M.COL___201                                                 6
 STAT SP IPHASW D HRMM SECON CODA AMPLIT PERI AZIMU VELO AIN AR TRES W  DIS CAZ7
 BAR2 SZ EP       2052  2.23                             171    0.1310 21.3 172 
 BAR2 SZ ES   1   2052 16.78                             171   -0.06 7 21.3 172 
 BAR2 SZ I        2052 19.51         7.7 0.29            173           21.3 172 
 RUS  HZ EP   1   2052  6.51                             143    0.20 7 99.5 172 
 RUS  HE ES   1   2052 24.39                             143    0.05 7 99.5 172 
 RUS  HZ I        2052 26.92         5.0 0.26            147           99.5 172 
 PTB  HZ EP       2052  8.50                             132   -0.54 9  140 259 
 PTB  HN ES   1   2052 29.40                             132    0.21 7  140 259 
 PTB  HZ I        2052 32.45         7.5 0.15            135            140 259 
 OCA  HN ES   1   2052 32.87                             128   -0.14 7  161 356 
 OCA  HZ I        2052 35.21        10.2 0.18            132            161 356 
 ZAR  HN ES   1   2052 39.54                             122    0.32 6  198 293 
 ZAR  HZ I        2052 41.96         6.6 0.14            125            198 293 
 NOR  SZ EP   1   2052 18.38                             118    0.51 6  228 234 
 NOR  SN ES   1   2052 44.60                             118   -0.31 6  228 234 
                                                                                
