 2011 1110 2317  0.8 L   6.788 -73.137138.0  RSN 11 0.4 2.2LRSN                1
 GAP=138        0.78       3.7     4.3  7.1 -0.2081E+01  0.6957E+01  0.4752E+01E
 Epicentro: LOS SANTOS - SANTANDER                                             3
 ACTION:UPD 12-07-13 16:09 OP:ep   STATUS:               ID:20111110231700 L   I
 2011-11-10-2315-21S.COL___178                                                 6
 STAT SP IPHASW D HRMM SECON CODA AMPLIT PERI AZIMU VELO AIN AR TRES W  DIS CAZ7
 BTL  SZ EP       2317 19.83                             171    0.3610 20.4 315 
 BAR2 SZ EP       2317 19.56                             170    0.0610 22.3 193 
 BAR2 SZ ES   3   2317 33.98                             170   -0.09 2 22.3 193 
 BAR2 SZ I        2317 39.27        18.3 0.42                          22.3 193 
 BRR  HZ EP       2317 21.33                             151    0.1010 72.7 299 
 BRR  HE ES   1   2317 37.84                             151    0.70 7 72.7 299 
 BRR  HZ I        2317 42.68        69.4 0.12                          72.7 299 
 PAM  SZ IP       2317 22.50                             150    0.2510 77.8  38 
 PAM  SN ES   1   2317 39.13                             150    0.18 7 77.8  38 
 RUS  HZ EP       2317 23.68                             143   -0.0410 99.2 177 
 RUS  HN ES   2   2317 40.22                             143   -1.36 5 99.2 177 
 RUS  HZ I        2317 43.45         9.0 0.60                          99.2 177 
 OCA  SZ EP       2317 28.19                             128   -0.49 9  162 353 
 OCA  SZ ES   1   2317 49.62                             128   -0.78 7  162 353 
 OCA  SZ I        2317 53.12        29.9 0.33                           162 353 
 ZAR  HZ EP   2   2317 32.85                             121   -0.07 4  205 292 
 ZAR  HN ES   1   2317 57.93                             121   -0.03 6  205 292 
 ZAR  HZ I        2318  3.17        28.1 0.38                           205 292 
 NOR  SZ EP   2   2317 35.88                             117   -0.24 4  235 235 
 NOR  SN ES   1   2318  3.50                             117   -0.15 6  235 235 
 HEL  HZ EP   1   2317 40.79                             113    0.07 6  273 256 
 HEL  HN ES   2   2318 11.44                             113   -0.40 4  273 256 
 HEL  HZ I        2318 18.71         9.7 0.28                           273 256 
 RREF HZ EP   2   2317 46.96                             110    0.33 3  322 230 
 RREF HZ I        2318 28.56         7.7 0.22                           322 230 
 PRA  HZ EP   2   2317 54.14                             106    0.13 3  391 210 
                                                                                
