 2013  110 2213 24.7 L   6.760 -73.187151.0  RSN  7 0.3 2.2LRSN                1
 GAP=230        0.78       5.9     6.2  5.3  0.2471E+02  0.1006E+02  0.7218E+01E
 Epicentro: VILLANUEVA - SANTANDER                                             3
 ACTION:UPD 13-02-15 09:13 OP:ep   STATUS:               ID:20130110221324 L   I
 2013-01-10-2210-00M.COL___242                                                 6
 STAT SP IPHASW D HRMM SECON CODA AMPLIT PERI AZIMU VELO AIN AR TRES W  DIS CAZ7
 BAR2 SZ EP       2213 44.59                             173   -0.3210 18.5 178 
 BAR2 SZ ES       2214  0.58                             173   -0.0610 18.5 178 
 BAR2 SZ I        2214  2.83        40.8 0.19            137           18.5 178 
 BRR  HZ EP       2213 46.51                             154    0.1410 69.6 304 
 BRR  HN ES       2214  3.78                             154    0.5510 69.6 304 
 BRR  HZ I        2214  9.72        20.2 0.23            127           69.6 304 
 RUS  HZ EP       2213 48.49                             146   -0.2410 96.5 173 
 RUS  HE ES       2214  7.33                             146   -0.1110 96.5 173 
 RUS  HE I        2214  8.60        33.7 0.25            116           96.5 173 
 PTB  HZ EP       2213 51.62                             134   -0.05 9  142 260 
 PTB  HN ES   1   2214 12.56                             134   -0.11 7  142 260 
 PTB  HZ I        2214 14.70        20.0 0.15            108            142 260 
 ZAR  HZ EP   1   2213 57.36                             124    0.08 6  202 294 
 ZAR  HN ES       2214 22.16                             124   -0.50 9  202 294 
 ZAR  HZ I        2214 29.60        16.6 0.20            105            202 294 
 CHI  HZ EP       2214  2.79                             119    0.65 8  243 194 
 CHI  HZ I        2214 40.83         7.1 0.70            101            243 194 
 HEL  HZ EP   1   2214  4.79                             116    0.17 6  267 256 
 HEL  HZ I        2214 43.80         8.2 0.53            100            267 256 
                                                                                
