 2015  810 2008 31.7 L   6.818 -73.164139.7  RSN 23 0.4 2.9LRSN                1
 GAP= 70        1.00       2.2     2.7  4.5 -0.7074E+00  0.4342E+01  0.1393E+01E
 Epicentro: LOS SANTOS - SANTANDER                                             3
 ACTION:UPD 15-09-15 23:01 OP:cam  STATUS:               ID:20150810200831 L   I
 OLDACT:REG 15-08-11 04:04 OP:drio STATUS:               ID:20150810200750     3
 2015-08-10-2007-50M.COL___347                                                 6
 STAT SP IPHASW D HRMM SECON CODA AMPLIT PERI AZIMU VELO AIN AR TRES W  DIS CAZ7
 BAR2 EZ EP       20 8 50.65                             169    0.0110 25.0 185 
 BAR2 EZ ES       20 9  5.51                             169    0.0910 25.0 185 
 BAR2 EZ I        20 9  8.35       191.0 0.32            166           25.0 185 
 BRR  HZ EP       20 8 52.60                             152    0.5510 68.5 298 
 BRR  HN ES       20 9  7.56                             152   -0.3610 68.5 298 
 BRR  HZ I        20 9 13.44       113.7 0.14            140           68.5 298 
 PAM  EZ EP     D 20 8 53.49                             150    0.2210 77.2  42 
 PAM  EN ES       20 9 10.63                             150    0.5410 77.2  42 
 PAM  EZ I        20 9 12.95        99.7 0.58            141           77.2  42 
 RUS  HZ EP     C 20 8 54.59                             142   -0.4310  103 175 
 RUS  HE ES       20 9 13.23                             142    0.0210  103 175 
 RUS  HZ I        20 9 14.14        79.1 0.26            132            103 175 
 TAM  HZ IP     D 20 8 58.93                             129   -0.21 9  158 105 
 TAM  HN ES       20 9 20.64                             129    0.10 9  158 105 
 TAM  HZ I        20 9 21.02        42.3 0.30            119            158 105 
 OCA  HZ EP       20 8 58.97                             129   -0.37 9  158 354 
 OCA  HN ES       20 9 20.42                             129   -0.48 9  158 354 
 OCA  HZ I        20 9 25.57       163.2 0.36            117            158 354 
 SPBC HZ EP       20 8 59.63                             128   -0.14 9  163 218 
 SPBC HN ES       20 9 21.35                             128   -0.32 9  163 218 
 SPBC HZ I        20 9 27.35       155.1 0.24            116            163 218 
 ZAR  HZ EP       20 9  3.47                             121   -0.02 9  201 292 
 ZAR  HN ES       20 9 29.12                             121    0.83 9  201 292 
 ZAR  HZ I        20 9 37.07        85.7 0.36            110            201 292 
 NOR  HZ EP       20 9  6.69                             117   -0.35 8  234 234 
 NOR  HE ES       20 9 33.99                             117   -0.61 8  234 234 
 NOR  HZ I        20 9 39.98        89.0 0.24            107            234 234 
 SML  HZ EP       20 9  7.34                             116   -0.37 8  241 336 
 SML  HE ES       20 9 35.59                             116   -0.21 8  241 336 
 SML  HZ I        20 9 38.43        41.5 0.34            106            241 336 
 CHI  HZ EP       20 9  8.79                             116   -0.43 8  250 195 
 CHI  HE ES       20 9 37.77                             116   -0.72 8  250 195 
 CHI  HZ I        20 9 43.40        33.8 0.22            106            250 195 
 ROSC BZ EP       20 9 10.44                             115    0.87 8  253 210 
 ROSC BE ES       20 9 39.47                             115    0.36 8  253 210 
 ROSC BZ I        20 9 48.20        99.3 0.35            105            253 210 
 HEL  HZ EP       20 9 12.05                             114    0.60 8  271 255 
 HEL  HN ES       20 9 43.03                             114    0.57 8  271 255 
 HEL  HZ I        20 9 49.51        51.4 0.44            103            271 255 
 URE  HZ EP   4   20 9 10.92                             113   -1.28 0  281 292 
 URE  HN ES   4   20 9 42.19                             113   -1.59 0  281 292 
 URE  HZ I        20 9 53.01        47.6 0.24            102            281 292 
 GUY2CHZ EP       20 9 15.42                             111    0.44 7  301 234 
 GUY2CHN ES       20 9 48.68                             111   -0.06 7  301 234 
 GUY2CHZ I        20 9 56.91        78.7 0.32                           301 234 
 PTGC HZ EP   4   20 9 13.97                             110   -1.62 0  311 158 
 PTGC HE ES   4   20 9 44.25                             110   -5.57 0  311 158 
 CBOC HZ EP       20 9 18.52                             109    0.30 7  332 252 
 CBOC HN ES   4   20 9 52.14                             109   -2.37 0  332 252 
 CBOC HZ I        2010 23.16        48.2 0.24             99            332 252 
 DBB  SZ EP       20 9 18.26                             108   -0.43 7  337 274 
 DBB  SZ ES       20 9 54.45                             108   -0.90 7  337 274 
 DBB  SZ I        2010  4.92        66.2 0.36             99            337 274 
 TOL  SZ EP       20 9 20.18                             108    0.46 7  343 224 
 TOL  SE ES       20 9 56.93                             108   -0.25 7  343 224 
 TOL  SZ I        2010  2.41        33.1 0.28             99            343 224 
 MON  HZ EP   4   20 9 17.95                             108   -2.20 0  351 308 
 MON  HN ES   4   20 9 54.90                             108   -3.04 0  351 308 
 MON  HZ I        20 9 59.58        14.2 0.34             98            351 308 
 ANIL HZ EP       20 9 21.95                             107    0.67 6  357 224 
 ANIL HN ES       20 9 59.83                             107   -0.12 6  357 224 
 ORTC HZ EP       20 9 25.30                             105   -0.17 6  396 216 
 ORTC HN ES       2010  8.14                             105    0.73 6  396 216 
 ORTC HZ I        2010 14.42        29.1 0.50             96            396 216 
 SJC  HZ EP   4   20 9 25.05                             105   -1.70 0  406 327 
 SJC  HE ES   4   2010  5.44                             105   -4.25 0  406 327 
 SJC  HZ I        2010  9.59        10.8 0.38             95            406 327 
 CRJC HZ EP   4   20 9 31.05                             102   -2.77 0  466   4 
 CRJC HZ I        2010 26.87        12.0 0.18                           466   4 
                                                                                
