 2015  110 2248 12.7 L   6.812 -73.139144.4  RSN 25 0.6 2.4LRSN                1
 GAP= 71        1.98       4.4     5.2  8.6 -0.2986E+01  0.1254E+02  0.6677E+01E
 Epicentro: LOS SANTOS - SANTANDER                                             3
 ACTION:UPD 15-03-02 15:38 OP:nd   STATUS:               ID:20150110224812 L   I
 OLDACT:REG 15-01-11 06:10 OP:stll STATUS:               ID:20150110223747     3
 2015-01-10-2237-47M.COL___265                                                 6
 STAT SP IPHASW D HRMM SECON CODA AMPLIT PERI AZIMU VELO AIN AR TRES W  DIS CAZ7
 BAR2 EZ IP     C 2248 32.30                             169    0.1410 24.8 191 
 BAR2 EZ ES       2248 47.35                             169   -0.0210 24.8 191 
 BAR2 EZ I        2248 50.67        44.4 0.24            170           24.8 191 
 BRR  HZ EP       2248 33.91                             152    0.2410 71.2 297 
 BRR  HE ES       2248 51.52                             152    1.4710 71.2 297 
 BRR  HZ I        2248 58.30        41.4 0.32            151           71.2 297 
 PAM  SZ EP       2248 34.87                             151    0.2210 75.8  40 
 PAM  SN ES       2248 51.61                             151   -0.1810 75.8  40 
 PAM  SZ I        2248 54.79        20.1 0.22            155           75.8  40 
 RUS  HZ EP       2248 35.96                             143   -0.4210  102 177 
 RUS  HE ES       2248 54.34                             143   -0.5310  102 177 
 RUS  HZ I        2248 56.12        23.8 0.28            147            102 177 
 PTB  HZ EP       2248 38.80                             131   -0.82 9  149 258 
 PTB  HE ES       2249  0.51                             131   -0.13 9  149 258 
 PTB  HZ I        2249  3.33        36.7 0.26            133            149 258 
 TAM  HZ IP     C 2248 40.45                             130    0.25 9  155 106 
 TAM  HZ I        2248 40.57        38.1 0.20            136            155 106 
 TAM  HN ES       2249  1.51                             130   -0.17 9  155 106 
 OCA  HZ EP       2248 40.52                             129   -0.24 9  159 353 
 OCA  HE ES       2249  2.88                             129    0.22 9  159 353 
 OCA  HZ I        2249 13.90        25.2 0.32            132            159 353 
 SPBC HZ EP       2248 41.14                             128   -0.07 9  165 219 
 SPBC HN ES       2249  3.35                             128   -0.12 9  165 219 
 SPBC HZ I        2249 10.23        57.7 0.18            131            165 219 
 ZAR  HZ EP       2248 44.75                             122   -0.30 9  204 292 
 ZAR  HE ES       2249 10.02                             122   -0.28 9  204 292 
 ZAR  HZ I        2249 15.92        37.0 0.32            124            204 292 
 NOR  HZ EP       2248 48.01                             118   -0.46 8  236 234 
 NOR  HN ES       2249 15.72                             118   -0.68 8  236 234 
 NOR  HZ I        2249 23.54        31.4 0.16            120            236 234 
 SML  HZ EP       2248 48.58                             117   -0.54 8  243 335 
 SML  HN ES       2249 17.36                             117   -0.19 8  243 335 
 SML  HZ I        2249 23.80        42.3 0.10            120            243 335 
 CHI  HZ EP       2248 50.08                             116   -0.38 8  250 195 
 CHI  HE ES       2249 19.35                             116   -0.58 8  250 195 
 CHI  HZ I        2249 25.43        15.0 0.32            120            250 195 
 ROSC BZ EP       2248 52.18                             116    1.29 8  254 211 
 ROSC BE ES       2249 21.21                             116    0.52 8  254 211 
 ROSC BZ I        2249 26.81        30.4 0.40            119            254 211 
 HEL  HZ EP       2248 53.25                             114    0.32 8  273 256 
 HEL  HE ES       2249 23.92                             114   -0.42 8  273 256 
 HEL  HZ I        2249 30.49        13.0 0.30            116            273 256 
 SOCV BZ EP   9   2248 54.75                             112   -0.75 0  300  57 
 SOCV BN ES       2249 25.71                                   -2.44 7  300  57 
 RREF HZ EP       2248 59.15                             110    0.23 7  323 229 
 RREF HN ES       2249 35.52                             110    0.53 7  323 229 
 RREF HZ I        2249 40.70        16.6 0.24            113            323 229 
 DBB  SZ EP       2248 59.96                             109   -0.21 7  340 274 
 TOL  SZ EP       2249  1.17                             109    0.13 7  345 225 
 TOL  SN ES       2249 39.03                             109    0.26 7  345 225 
 MON  HZ EP   9   2248 59.68                             108   -1.91 0  353 308 
 MON  HN ES       2249 36.63                                   -1.21 6  353 308 
 MON  HZ I        2249 40.40         6.7 0.44            110            353 308 
 ANIL HZ EP       2249  4.60                             108    2.00 6  359 224 
 ANIL HN ES       2249 41.64                             108    0.10 6  359 224 
 ANIL HZ I        2249 48.69         4.0 0.46            110            359 224 
 SDV  BZ EP   9   2249  1.26                             108   -1.23 0  359  50 
 SDV  BE ES       2249 38.16                                   -1.96 6  359  50 
 ORTC HZ EP       2249  5.93                             106   -0.79 6  397 216 
 ORTC HN ES       2249 49.35                             106    0.46 6  397 216 
 ORTC HZ I        2249 54.01         9.3 0.52            108            397 216 
 ELOV BZ EP   9   2249  5.50                             105   -2.05 0  405  87 
 ELOV BE ES       2249 45.89                                   -2.41 6  405  87 
 SJC  HZ EP   9   2249  6.41                             105   -1.69 0  409 327 
 SJC  HZ I        2249  8.35         6.6 0.12            107            409 327 
 SJC  HN ES       2249 45.03                                   -4.62 6  409 327 
 CRJC HZ EP   9   2249 10.71                             103   -4.26 0  466   3 
 CRJC HE ES       2249 58.01                                   -1.29 5  466   3 
                                                                                
