 2013  910 2300 39.2 L   6.859 -73.434128.4  RSN 13 0.5 2.5LRSN                1
 GAP= 80        0.89       2.7     4.3  6.1 -0.1192E+01  0.5830E+01  0.7293E+00E
 Epicentro: SAN VICENTE DE CHUCURI - SANTANDER                                 3
 ACTION:UPD 13-10-22 09:21 OP:ep   STATUS:               ID:20130910230039 L   I
 OLDACT:REG 13-09-10 21:14 OP:mh   STATUS:               ID:20130910225959     3
 2013-09-10-2259-59M.COL___269                                                 6
 STAT SP IPHASW D HRMM SECON CODA AMPLIT PERI AZIMU VELO AIN AR TRES W  DIS CAZ7
 BAR2 SZ EP       23 0 57.46                             162    0.1710 40.6 137 
 BAR2 SZ ES   1   23 1 11.19                             162   -0.21 7 40.6 137 
 BAR2 SZ I        23 1 12.48        83.0 0.20            164           40.6 137 
 BRR  HZ EP       23 0 57.49                             161    0.5310 41.2 312 
 BRR  HN ES   1   23 1 12.02                             161    1.21 7 41.2 312 
 BRR  HZ I        23 1 13.53       129.5 0.14            159           41.2 312 
 PAM  SZ EP   1   23 1  0.97                             141   -0.04 7 97.0  57 
 PAM  SN ES   2   23 1 17.98                             141   -0.04 5 97.0  57 
 PAM  SZ I        23 1 23.37        15.7 0.14            145           97.0  57 
 RUS  HZ EP   1   23 1  2.05                             136   -0.32 7  114 160 
 RUS  HN ES   1   23 1 19.90                             136   -0.54 7  114 160 
 RUS  HZ I        23 1 21.62        31.4 0.22            137            114 160 
 PTB  HZ EP       23 1  1.85                             135   -0.2710  118 253 
 PTB  HN ES   1   23 1 19.16                             135   -0.83 7  118 253 
 PTB  HZ I        23 1 21.07        59.4 0.50            133            118 253 
 SPBC HZ EP   1   23 1  5.05                             127   -0.19 7  151 208 
 SPBC HN ES   2   23 1 25.06                             127   -0.48 5  151 208 
 SPBC HZ I        23 1 29.59        35.2 0.46            127            151 208 
 OCA  HZ EP   1   23 1  5.35                             127   -0.17 7  153   5 
 OCA  HN ES       23 1 25.85                             127   -0.20 9  153   5 
 OCA  HZ I        23 1 27.31       154.8 0.16            129            153   5 
 ZAR  HZ EP   1   23 1  7.26                             123    0.02 7  172 294 
 ZAR  HN ES   2   23 1 29.26                             123    0.16 4  172 294 
 ZAR  HZ I        23 1 35.18        51.2 0.46            123            172 294 
 NOR  HZ EP   1   23 1 12.04                             117    0.33 6  214 228 
 NOR  HN ES   1   23 1 37.18                             117    0.12 6  214 228 
 NOR  HZ I        23 1 41.66        18.6 0.26            117            214 228 
 SML  HZ EP   1   23 1 12.63                             116   -0.32 6  226 342 
 SML  HN ES   1   23 1 38.83                             116   -0.44 6  226 342 
 SML  HZ I        23 1 42.39        66.7 0.11            117            226 342 
 HEL  HZ EP   4   23 1 17.93                             114    2.59 0  243 252 
 HEL  HN ES   4   23 1 47.05                             114    3.52 0  243 252 
 HEL  HZ I        23 1 52.74        10.2 0.30            114            243 252 
 CHI  HZ EP   1   23 1 16.80                             113    0.78 6  249 188 
 CHI  HN ES   1   23 1 44.88                             113    0.15 6  249 188 
 CHI  HZ I        23 1 52.07         8.2 0.44            114            249 188 
 GUY2CHZ EP   4   23 1 21.33                             110    1.70 0  280 230 
 GUY2CHE ES   4   23 1 54.17                             110    3.00 0  280 230 
 PRA  HZ EP   1   23 1 31.81                             104    0.67 4  383 205 
 PRA  HN ES   4   23 2 13.36                             104    1.71 0  383 205 
 PRA  HZ I        23 2 19.77        11.7 0.28            104            383 205 
                                                                                
