 2010 1110 2220 36.0 L   6.749 -73.131144.9  RSN  6 0.2 1.9LRSN                1
 GAP=166        0.54       3.5     6.3  5.8  0.1233E+01 -0.3441E+01 -0.9890E+01E
 Epicentro: LOS SANTOS - SANTANDER                                             3
 ACTION:UP  10-12-17 16:51 OP:REBC STATUS:               ID:20101110222036 L   I
 2010-11-10-2218-32S.COL___129                                                 6
 STAT SP IPHASW D HRMM SECON CODA AMPLIT PERI AZIMU VELO SNR AR TRES W  DIS CAZ7
 BAR2 SZ EP       2220 55.18                             172    -0.210   18 199 
 BAR2 SZ ES   1   2221 10.35                             172    -0.2 7   18 199 
 BAR2 SZ I        2221 12.47        14.7 0.33                            18 199 
 BRR  HZ EP       2220 57.25                             151     0.010   76 302 
 BRR  HZ I        2220 57.53        39.4 0.12                            76 302 
 BRR  HE ES   2   2221 14.20                             151     0.3 5   76 302 
 RUS  HZ EP       2220 59.27                             145     0.010   95 177 
 RUS  HN ES   1   2221 17.58                             145     0.2 7   95 177 
 RUS  HZ I        2221 19.25         6.0 0.28                            95 177 
 GUE  SZ EP       2221  1.33                             138     0.310  122  11 
 OCA  SZ EP       2221  4.62                             128    -0.2 9  166 353 
 NOR  SN ES   2   2221 39.26                             118     0.1 4  233 236 
                                                                                
