 2010 1210 2321  4.6 L   6.752 -72.930147.3  RSN  7 0.6 1.8LRSN                1
 GAP=184        1.51      10.5    21.9 13.5 -0.2670E+02 -0.4681E+02 -0.2158E+02E
 Epicentro: CEPITA - SANTANDER                                                 3
 ACTION:UP  11-01-14 15:24 OP:pat  STATUS:               ID:20101210232104 L   I
 2010-12-10-2318-32S.COL___134                                                 6
 STAT SP IPHASW D HRMM SECON CODA AMPLIT PERI AZIMU VELO SNR AR TRES W  DIS CAZ7
 BAR2 SZ EP   1   2321 24.11                             167    -0.6 7   33 238 
 BAR2 SZ ES   1   2321 39.56                             167    -0.8 7   33 238 
 BAR2 SZ I        2321 40.49        11.1 0.12                            33 238 
 BTL  SZ ES   1   2321 41.50                             164     0.7 7   42 296 
 RUS  HZ EP   1   2321 28.34                             146     0.1 7   97 190 
 RUS  HN ES   1   2321 47.07                             146     0.4 7   97 190 
 RUS  HZ I        2321 48.75         5.2 0.27                            97 190 
 GRA  SZ EP   1   2321 30.99                             137     1.0 7  126   6 
 GRA  SZ I        2321 54.77         6.1 0.22                           126   6 
 OCA  SZ EP   1   2321 33.07                             128    -0.9 7  170 345 
 OCA  SZ I        2322  2.68         7.7 0.31                           170 345 
 CHI  HZ EP   1   2321 42.51                             117    -0.2 6  251 201 
 CHI  HZ I        2322 17.83         3.9 0.32                           251 201 
 HEL  HN ES   2   2322 21.26                             113     0.5 4  294 258 
 HEL  HZ I        2322 22.61         5.3 0.20                           294 258 
                                                                                
