 2011  810 2143 36.0 L   6.735 -73.104141.4  RSN  5 0.2 1.7LRSN                1
 GAP=145        0.35       3.4     4.1  5.1 -0.4660E+01  0.6177E+00  0.3110E+00E
 Epicentro: JORDAN - SANTANDER                                                 3
 ACTION:UPD 12-07-13 15:51 OP:ep   STATUS:               ID:20110810214336 L   I
 2011-08-10-2141-58S.COL___149                                                 6
 STAT SP IPHASW D HRMM SECON CODA AMPLIT PERI AZIMU VELO AIN AR TRES W  DIS CAZ7
 BAR2 SZ EP   2   2143 54.74                             172   -0.30 5 18.0 209 
 BAR2 SZ ES   2   2144  9.92                             172    0.05 5 18.0 209 
 BAR2 SZ I        2144 11.46        11.2 0.22                          18.0 209 
 BRR  HZ EP   2   2143 57.11                             149   -0.06 5 78.7 302 
 BRR  HZ I        2143 57.36        22.7 0.08                          78.7 302 
 BRR  HN ES   2   2144 13.87                             149    0.22 5 78.7 302 
 PAM  SZ EP   1   2143 58.08                             149    0.11 7 80.4  34 
 PAM  SN ES   2   2144 14.84                             149   -0.25 5 80.4  34 
 RUS  HZ EP   2   2143 59.09                             145    0.26 5 93.2 179 
 RUS  HN ES   2   2144 16.61                             145    0.00 5 93.2 179 
 RUS  HZ I        2144 18.84         4.0 0.36                          93.2 179 
 NOR  SN ES   2   2144 38.92                             118   -0.22 4  234 237 
                                                                                
