 2012  310 2350  3.9 L   7.357 -73.170133.9  RSN  6 0.4 1.4LRSN                1
 GAP=177        0.97       9.2     5.6  9.1  0.1697E+01  0.1399E+02 -0.4576E+01E
 ACTION:UP  12-03-31 23:18 OP:EP   STATUS:               ID:20120310235003 L   I
 2012-03-10-2350-00M.COL___192                                                 6
 STAT SP IPHASW D HRMM SECON CODA AMPLIT PERI AZIMU VELO SNR AR TRES W  DIS CAZ7
 PAM  SZ EP   1   2350 23.82                             158     0.3 7   52  92 
 PAM  SZ I        2350 24.18         3.9 0.14                            52  92 
 PAM  SN ES   1   2350 38.81                             158     0.1 7   52  92 
 BRR  HZ EP   1   2350 23.43                             152    -0.1 7   66 245 
 BRR  HE ES   1   2350 38.75                             152     0.0 7   66 245 
 BRR  HZ I        2350 41.31        14.3 0.45                            66 245 
 BAR2 SZ EP   1   2350 25.56                             146     0.6 7   85 181 
 BAR2 SZ ES   1   2350 40.84                             146    -0.6 7   85 181 
 BAR2 SZ I        2350 43.05         4.3 0.07                            85 181 
 RUS  HZ EP   1   2350 31.53                             127    -0.4 7  162 177 
 RUS  HZ I        2350 53.82         3.5 0.61                           162 177 
 PTB  HZ EP   1   2350 32.01                             125     0.1 7  168 238 
 PTB  HN ES   1   2350 54.55                             125     0.7 7  168 238 
 PTB  HZ I        2350 57.33         2.8 0.31                           168 238 
 ZAR  HZ EP   1   2350 33.31                             122    -0.5 7  187 275 
 ZAR  HE ES   1   2350 56.93                             122    -0.2 7  187 275 
 ZAR  HZ I        2351  1.19         3.1 0.25                           187 275 
                                                                                
