 2012  510 2257 21.9 L   6.762 -73.148143.1  RSN  5 0.3 1.5LRSN                1
 GAP=138        0.69       4.9     4.6  6.4 -0.2109E+01  0.5951E+01  0.1278E+01E
 Epicentro: LOS SANTOS - SANTANDER                                             3
 ACTION:UP  12-07-05 12:04 OP:pat  STATUS:               ID:20120510225721 L   I
 2012-05-10-2250-00M.COL___195                                                 6
 STAT SP IPHASW D HRMM SECON CODA AMPLIT PERI AZIMU VELO SNR AR TRES W  DIS CAZ7
 BAR2 SZ EP   1   2257 41.18                             172     0.0 8   19 192 
 BAR2 SZ ES   1   2257 55.94                             172    -0.2 8   19 192 
 BAR2 SZ I        2257 57.21         8.3 0.13                            19 192 
 BRR  HZ EP   1   2257 43.27                             151     0.4 8   73 302 
 BRR  HZ I        2257 48.49        17.2 0.12                            73 302 
 BRR  HN ES   1   2257 59.25                             151     0.0 8   73 302 
 PAM  SZ EP   1   2257 44.28                             149     0.2 8   81  38 
 PAM  SN ES   1   2258  1.15                             149    -0.2 8   81  38 
 RUS  HZ EP   1   2257 45.21                             144     0.1 8   96 176 
 RUS  HZ I        2257 46.05         2.8 0.11                            96 176 
 RUS  HE ES   1   2258  3.25                             144     0.1 8   96 176 
 PTB  HZ EP       2257 48.07                             132    -0.510  147 260 
 PTB  HE ES   1   2258  9.72                             132     0.4 7  147 260 
 PTB  HZ I        2258 11.75         3.4 0.18                           147 260 
                                                                                
