 2011  110 2002  7.0 L   6.783 -73.168144.4  RSN  6 0.3 1.6LRSN                1
 GAP=156        0.52       4.8     8.9  8.6 -0.2426E+02  0.2303E+02 -0.3811E+01E
 Epicentro: LOS SANTOS - SANTANDER                                             3
 ACTION:UP  11-02-08 08:40 OP:pat  STATUS:               ID:20110110200207 L   I
 2011-01-10-2000-15S.COL___136                                                 6
 STAT SP IPHASW D HRMM SECON CODA AMPLIT PERI AZIMU VELO SNR AR TRES W  DIS CAZ7
 BAR2 SZ EP   2   20 2 26.19                             171    -0.3 5   21 185 
 BAR2 SZ ES   2   20 2 41.73                             171     0.1 5   21 185 
 BAR2 SZ I        20 2 43.70         8.4 0.13                            21 185 
 GIR2 SZ EP   2   20 2 26.67                             167     0.1 5   33 355 
 RUS  HZ EP   2   20 2 30.20                             144    -0.3 5   99 175 
 RUS  HZ I        20 2 51.09         5.3 0.34                            99 175 
 GRA  SZ EP   2   20 2 33.10                             136     0.7 5  128  18 
 GRA  SZ ES   2   20 2 52.19                             136     0.1 5  128  18 
 GRA  SZ I        20 2 53.50         4.6 0.35                           128  18 
 OCA  SZ EP   2   20 2 35.04                             129    -0.3 5  162 354 
 OCA  SZ ES   2   20 2 57.20                             129    -0.3 5  162 354 
 OCA  SZ I        20 3  0.23         7.7 0.21                           162 354 
 NOR  SZ EP   2   20 2 42.48                             119     0.1 4  232 235 
 NOR  SN ES   2   20 3 10.07                             119     0.2 4  232 235 
                                                                                
