 2016  910 2151 54.6 L   6.697 -73.170153.2  RSN  6 0.3 1.4LRSN                1
 GAP=227        0.81       4.9     4.5  6.5  0.7700E+01  0.7306E+01  0.2222E+01E
 Epicentro: VILLANUEVA - SANTANDER                                             3
 ACTION:UPD 17-08-17 21:08 OP:lp   STATUS:               ID:20160910215154 L   I
 OLDACT:UP  16-09-11 03:30 OP:edw  STATUS:               ID:20160910214733     3
 OLDACT:REG 16-09-11 02:46 OP:edw  STATUS:               ID:20160910214733     3
 2016-09-10-2148-00M.COL___345                                                 6
 STAT SP IPHASW D HRMM SECON CODA AMPLIT PERI AZIMU VELO AIN AR TRES W  DIS CAZ7
 BAR2 EZ EP       2152 14.74                             175   -0.2610 11.7 187 
 BAR2 EZ ES       2152 30.96                             175    0.0910 11.7 187 
 BAR2 EZ I        2152 34.49         4.1 0.28            169           11.7 187 
 BRR  HZ EP       2152 16.80                             152   -0.0110 75.1 307 
 BRR  HN ES       2152 33.68                             152   -0.4310 75.1 307 
 RUS  HZ EP       2152 18.76                             148    0.3710 89.5 174 
 RUS  HN ES       2152 36.98                             148    0.0610 89.5 174 
 RUS  HZ I        2152 38.42         3.1 0.26            147           89.5 174 
 PTB  HZ EP       2152 21.60                             134   -0.23 9  143 263 
 PTB  HN ES       2152 43.44                             134    0.40 9  143 263 
 PTB  HZ I        2152 46.12         2.9 0.14            132            143 263 
 ZAR  HZ EP   4   2152 29.18                             124    1.39 0  206 295 
 ZAR  HN ES       2152 54.13                             124    0.48 8  206 295 
 ZAR  HZ I        2152 58.99         4.8 0.30            124            206 295 
 NOR  HZ EP   4   2152 26.79                             121   -3.11 0  226 236 
 NOR  HN ES       2152 56.95                             121   -0.45 8  226 236 
 NOR  HZ I        2153  6.36         2.0 0.20            120            226 236 
                                                                                
