 2012  110 2157 19.1 L   6.762 -73.147142.5  RSN  8 0.4 1.8LRSN                1
 GAP=138        0.90       6.6     5.5  8.2 -0.5515E+01  0.7132E+01 -0.6034E+01E
 Epicentro: LOS SANTOS - SANTANDER                                             3
 ACTION:UP  12-02-03 08:16 OP:REBC STATUS:               ID:20120110215719 L   I
 2012-01-10-2150-00M.COL___186                                                 6
 STAT SP IPHASW D HRMM SECON CODA AMPLIT PERI AZIMU VELO SNR AR TRES W  DIS CAZ7
 BAR2 SZ EP   2   2157 38.38                             172     0.1 5   19 192 
 BAR2 SZ ES   2   2157 52.81                             172    -0.4 5   19 192 
 BAR2 SZ I        2157 53.94        15.1 0.28                            19 192 
 GIR2 SZ EP   3   2157 38.38                             165    -0.1 2   35 352 
 GIR2 SZ ES   3   2157 52.89                             165    -0.8 2   35 352 
 BRR  HZ EP       2157 40.28                             151     0.310   73 301 
 BRR  HN ES   1   2157 56.96                             151     0.6 7   73 301 
 BRR  HZ I        2157 58.47        17.2 0.16                            73 301 
 PAM  SZ EP       2157 41.14                             149     0.010   81  38 
 PAM  SN ES   1   2157 58.03                             149    -0.4 7   81  38 
 RUS  HZ EP   2   2157 42.59                             145     0.4 5   96 176 
 RUS  HE ES   2   2158  0.90                             145     0.6 5   96 176 
 RUS  HZ I        2158  2.41         4.3 0.28                            96 176 
 PTB  HZ EP       2157 45.06                             132    -0.7 9  147 260 
 PTB  HN ES   2   2158  5.99                             132    -0.5 5  147 260 
 PTB  HZ I        2158  8.77         6.3 0.42                           147 260 
 OCA  SZ EP       2157 47.72                             128     0.2 9  164 353 
 OCA  SZ I        2158 12.11        12.4 0.43                           164 353 
 ZAR  HN ES   1   2158 17.00                             122     0.2 6  206 293 
 ZAR  HZ I        2158 19.48         4.7 0.30                           206 293 
                                                                                
