 2012 1110 2356  1.9 L   6.765 -73.161147.1  RSN  7 0.4 1.4LRSN                1
 GAP=136        0.74       4.0     4.4  6.6  0.1515E+01  0.5288E+01  0.6225E+01E
 Epicentro: LOS SANTOS - SANTANDER                                             3
 ACTION:UPD 12-12-05 15:32 OP:}ep  STATUS:               ID:20121110235601 L   I
 2012-11-10-2350-00M.COL___230                                                 6
 STAT SP IPHASW D HRMM SECON CODA AMPLIT PERI AZIMU VELO AIN AR TRES W  DIS CAZ7
 BAR2 SZ EP   1   2356 21.30                             172   -0.27 7 19.2 187 
 BAR2 SZ ES   1   2356 36.63                             172   -0.32 7 19.2 187 
 BAR2 SZ I        2356 37.71        14.8 0.28                          19.2 187 
 BRR  HZ EP   1   2356 23.50                             153    0.32 7 71.7 302 
 BRR  HZ I        2356 23.79         6.7 0.14                          71.7 302 
 BRR  HN ES   1   2356 40.37                             153    0.56 7 71.7 302 
 PAM  SZ EP   1   2356 24.44                             150   -0.02 7 81.5  39 
 PAM  SN ES   1   2356 41.85                             150   -0.24 7 81.5  39 
 PAM  SZ I        2356 43.82         3.1 0.22                          81.5  39 
 RUS  HZ EP   1   2356 25.47                             145    0.00 7 96.9 175 
 RUS  HZ I        2356 43.58         3.5 0.56                          96.9 175 
 RUS  HN ES   1   2356 44.34                             145    0.44 7 96.9 175 
 PTB  HZ EP   1   2356 28.16                             133   -0.56 7  145 260 
 PTB  HN ES   1   2356 49.36                             133   -0.31 7  145 260 
 PTB  HZ I        2356 53.38         3.2 0.12                           145 260 
 ZAR  HE ES   1   2356 59.85                             123    0.10 6  204 293 
 CHI  HZ EP   1   2356 39.91                             118    0.74 6  244 195 
 CHI  HN ES   1   2357  7.89                             118   -0.39 6  244 195 
 CHI  HZ I        2357 14.41         1.4 0.68                           244 195 
                                                                                
