 2017  310 2212 13.2 L   6.768 -73.124139.3  RSN  7 0.4 1.8LRSN                1
 GAP=141        1.08       4.0     4.8  7.5  0.1648E+01  0.8726E+01  0.9983E+01E
 Epicentro: LOS SANTOS - SANTANDER                                             3
 ACTION:UPD 17-05-25 18:38 OP:jn   STATUS:               ID:20170310221213 L   I
 OLDACT:REG 17-03-11 03:03 OP:lv   STATUS:               ID:20170310220746     3
 2017-03-10-2208-00M.COL___409                                                 6
 STAT SP IPHASW D HRMM SECON CODA AMPLIT PERI AZIMU VELO AIN AR TRES W  DIS CAZ7
 BRR  HZ EP       2212 33.71                             150   -0.2210 75.0 300 
 BRR  HN ES       2212 50.96                             150    0.8910 75.0 300 
 BRR  HZ I        2212 51.97        11.0 0.09            151           75.0 300 
 PAM  EZ EP       2212 34.59                             149   -0.2810 78.7  37 
 PAM  EN ES       2212 51.60                             149   -0.1310 78.7  37 
 PAM  EZ I        2212 54.04        17.3 0.26            153           78.7  37 
 RUS  HZ EP       2212 35.85                             143   -0.2510 96.9 177 
 RUS  HN ES       2212 53.90                             143   -0.0310 96.9 177 
 RUS  HZ I        2212 55.60         4.8 0.32            143           96.9 177 
 PTB  HZ EP       2212 40.01                             130    0.15 9  149 260 
 PTB  HN ES       2212 59.94                             130   -0.67 9  149 260 
 PTB  HZ I        2213  2.42         5.1 0.11            130            149 260 
 ZAR  HZ EP       2212 46.44                             120    0.78 8  208 293 
 ZAR  HN ES       2213 10.33                             120   -0.60 8  208 293 
 ZAR  HZ I        2213 15.24         8.6 0.27            121            208 293 
 CHI  HZ EP       2212 50.57                             116    0.28 8  246 196 
 CHI  HN ES       2213 19.44                             116    0.25 8  246 196 
 CHI  HZ I        2213 26.96         2.6 0.38            117            246 196 
 PRA  HZ EP       2213  6.30                             105   -0.03 6  390 210 
 PRA  HN ES       2213 47.77                             105    0.04 6  390 210 
 PRA  HZ I        2213 54.83         5.0 0.16            106            390 210 
 SJC  HZ EP   4   2213  6.10                             104   -3.01 0  414 327 
 SJC  HN ES   4   2213 46.65                             104   -6.03 0  414 327 
                                                                                
