 2012  110 2316 40.4 L   6.775 -73.139142.3  RSN  6 0.3 1.3LRSN                1
 GAP=138        0.57       5.4     6.0  8.0 -0.6949E+01  0.1111E+02  0.4911E+01E
 Epicentro: LOS SANTOS - SANTANDER                                             3
 ACTION:UP  12-02-03 08:16 OP:REBC STATUS:               ID:20120110231640 L   I
 2012-01-10-2310-00M.COL___186                                                 6
 STAT SP IPHASW D HRMM SECON CODA AMPLIT PERI AZIMU VELO SNR AR TRES W  DIS CAZ7
 BAR2 SZ EP   2   2316 59.46                             171    -0.1 5   21 193 
 BAR2 SZ I        2316 59.75        10.3 0.40                            21 193 
 GIR2 SZ EP   3   2316 59.25                             166    -0.5 2   34 350 
 GIR2 SZ ES   3   2317 14.19                             166    -0.7 2   34 350 
 BRR  HZ EP       2317  1.33                             151     0.010   73 300 
 BRR  HN ES   2   2317 18.10                             151     0.5 5   73 300 
 PAM  SZ EP       2317  2.60                             150     0.210   79  38 
 PAM  SN ES   1   2317 19.22                             150    -0.3 7   79  38 
 RUS  HZ EP   2   2317  3.65                             144     0.0 5   98 176 
 RUS  HZ I        2317  4.76         1.8 0.26                            98 176 
 RUS  HN ES   2   2317 21.86                             144     0.1 5   98 176 
 PTB  HZ EP   2   2317  6.45                             131    -0.7 5  148 260 
 PTB  HZ I        2317 25.59         1.8 0.22                           148 260 
                                                                                
