 2014  510 2153 37.2 L   6.592 -73.056167.1  RSN  5 0.4 1.6LRSN                1
 GAP=157        0.81       5.1     6.1  8.8 -0.7364E+01  0.1558E+01 -0.3310E+01E
 Epicentro: CURITI - SANTANDER                                                 3
 OLDACT:REG 14-05-11 03:28 OP:fm   STATUS:               ID:20140510214820     3
 ACTION:UPD 15-03-16 16:56 OP:nd   STATUS:               ID:20140510215337 L   I
 OLDACT:UP  14-05-11 04:03 OP:fm   STATUS:               ID:20140510214820     3
 2014-05-10-2148-20M.COL___245                                                 6
 STAT SP IPHASW D HRMM SECON CODA AMPLIT PERI AZIMU VELO AIN AR TRES W  DIS CAZ7
 RUS  HZ EP       2154  1.94                             154    0.1810 77.4 182 
 RUS  HN ES       2154 20.97                             154    0.0710 77.4 182 
 RUS  HZ I        2154 22.87         8.2 0.30            161           77.4 182 
 PAM  SZ EP       2154  2.56                             150   -0.0010 91.5  25 
 PAM  SE ES   1   2154 21.63                             150   -0.69 7 91.5  25 
 PAM  HZ I        2154 24.84         2.7 0.48            152           91.5  25 
 BRR  HZ EP   1   2154  1.99                             150    0.09 7 92.2 308 
 BRR  HN ES   1   2154 21.81                             150    0.68 7 92.2 308 
 BRR  HZ I        2154 31.34        10.7 1.26            148           92.2 308 
 PTB  HE ES   2   2154 29.08                             135   -0.48 5  155 268 
 NOR  HN ES   1   2154 41.96                             123   -0.51 6  231 241 
                                                                                
