 2013  510 2133 35.6 L   6.849 -73.320125.8  RSN  5 0.3 1.7LRSN                1
 GAP=108        0.72       5.0     5.7  8.8 -0.7776E-01  0.5904E+01  0.1120E+02E
 Epicentro: ZAPATOCA - SANTANDER                                               3
 ACTION:UPD 13-06-20 09:49 OP:ep   STATUS:               ID:20130510213335 L   I
 2013-05-10-2130-00M.COL___256                                                 6
 STAT SP IPHASW D HRMM SECON CODA AMPLIT PERI AZIMU VELO AIN AR TRES W  DIS CAZ7
 BAR2 SZ EP       2133 53.30                             165    0.2510 32.2 152 
 BRR  HZ EP   1   2133 53.83                             156    0.33 7 51.9 303 
 BRR  HE ES   1   2134  7.67                             156    0.18 7 51.9 303 
 BRR  HN I        2134  8.05        36.0 0.16            159           51.9 303 
 PAM  SZ EP   1   2133 56.50                             143    0.09 7 87.4  52 
 PAM  SE ES   1   2134 12.23                             143   -0.43 7 87.4  52 
 PAM  SZ I        2134 20.72         2.7 0.20            143           87.4  52 
 RUS  HZ EP   1   2133 58.33                             137    0.23 7  109 166 
 RUS  HN ES   1   2134 15.50                             137   -0.17 7  109 166 
 RUS  HN I        2134 16.63         5.8 0.24            142            109 166 
 PTB  HZ EP   1   2133 58.61                             131   -0.71 7  130 255 
 PTB  HN ES   4   2134 16.71                             131   -1.14 0  130 255 
 PTB  HN I        2134 20.41        17.7 0.22            137            130 255 
                                                                                
