 2011 1210 2047 35.6 L   6.784 -73.141140.1  RSN  8 0.4 1.8LRSN                1
 GAP=138        0.91       5.5     6.1  7.3 -0.7617E+01  0.7365E+01  0.9186E+01E
 Epicentro: LOS SANTOS - SANTANDER                                             3
 ACTION:UPD 12-07-13 16:15 OP:ep   STATUS:               ID:20111210204735 L   I
 2011-12-10-2040-00M.COL___186                                                 6
 STAT SP IPHASW D HRMM SECON CODA AMPLIT PERI AZIMU VELO AIN AR TRES W  DIS CAZ7
 BAR2 SZ EP       2047 54.56                             171    0.0710 21.7 192 
 BAR2 SZ I        2047 54.89        14.7 0.38                          21.7 192 
 GIR2 SZ EP       2047 54.45                             166   -0.1810 33.1 350 
 GIR2 SZ ES   1   2048  8.65                             166   -0.84 7 33.1 350 
 BRR  HZ EP       2047 56.28                             151    0.0910 72.5 300 
 BRR  HZ I        2047 57.84        20.4 0.14                          72.5 300 
 BRR  HN ES   1   2048 13.15                             151    0.88 7 72.5 300 
 PAM  SZ EP       2047 57.24                             149   -0.0210 78.5  38 
 PAM  SE ES   1   2048 14.38                             149    0.21 7 78.5  38 
 RUS  HZ EP       2047 58.86                             143    0.2210 98.8 176 
 RUS  HN ES   2   2048 16.62                             143   -0.01 5 98.8 176 
 RUS  HZ I        2048 19.14         6.7 0.26                          98.8 176 
 PTB  HZ EP       2048  1.41                             131   -0.69 9  148 260 
 PTB  HN ES   2   2048 22.79                             131    0.00 5  148 260 
 PTB  HZ I        2048 25.09         5.1 0.14                           148 260 
 OCA  SZ EP       2048  3.75                             128    0.12 9  162 353 
 OCA  SZ I        2048 32.23         9.1 0.27                           162 353 
 NOR  SZ EP       2048 11.21                             117    0.30 8  234 235 
                                                                                
