 2010  110 2311 32.0 L   5.951 -73.704119.6  RSN  9 0.3 2.3LRSN                1
 GAP= 89        0.55       2.8     6.6  7.1 -0.1268E+02  0.3518E+02 -0.9638E+01E
 Epicentro: GUAVATA - SANTANDER                                                3
 ACTION:UP  10-08-24 09:43 OP:vdl  STATUS:               ID:20100110231132 L   I
 2010-01-10-2309-53S.COL___097                                                 6
 STAT SP IPHASW D HRMM SECON CODA AMPLIT PERI AZIMU VELO SNR AR TRES W  DIS CAZ7
 RUS  BZ IP       2311 50.99                             149     0.010   69  95 
 RUS  BN ES   1   2312  5.57                             149    -0.2 7   69  95 
 RUS  BZ I        2312  7.09        29.7 0.32                            69  95 
 BAR2 SZ EP   1   2311 52.44                             140     0.3 7   91  39 
 BAR2 SZ ES   1   2312  7.80                             140    -0.1 7   91  39 
 GIR2 SZ IP       2311 56.32                             128     0.2 9  137  24 
 GIR2 SZ ES   1   2312 15.08                             128     0.2 7  137  24 
 CHI  HZ EP   1   2311 57.11                             126    -0.2 7  146 181 
 CHI  HE ES   1   2312 17.02                             126    -0.1 7  146 181 
 CHI  HZ I        2312 21.74        21.1 0.36                           146 181 
 HEL  HZ EP   2   2312  3.22                             116    -0.1 4  204 278 
 HEL  HZ I        2312  4.63        21.4 0.48                           204 278 
 GUE  SZ IP       2312  5.42                             114    -0.2 8  225  22 
 GUE  SZ ES   2   2312 31.14                             114    -0.7 4  225  22 
 GRA  SZ EP   2   2312  6.85                             112     0.2 4  236  25 
 PRA  HZ EP   1   2312 11.25                             108    -0.3 6  280 208 
 PRA  HN ES   1   2312 42.97                             108     0.6 6  280 208 
 PRA  HZ I        2312 46.61        32.9 0.38                           280 208 
 DBB  SZ EP   2   2312 13.74                             107    -0.3 4  301 293 
                                                                                
