 2017  110 2254 52.8 L   6.762 -73.146142.7  RSN  8 0.5 1.7LRSN                1
 GAP=138        1.02       5.6     4.8  8.8 -0.3763E+01  0.1349E+02 -0.1176E+02E
 Epicentro: LOS SANTOS - SANTANDER                                             3
 ACTION:UPD 17-05-22 15:57 OP:jn   STATUS:               ID:20170110225452 L   I
 OLDACT:UP  17-01-11 08:22 OP:dnl  STATUS:               ID:20170110224759     3
 OLDACT:REG 17-01-11 07:52 OP:dnl  STATUS:               ID:20170110224759     3
 2017-01-10-2247-59S.COL___318                                                 6
 STAT SP IPHASW D HRMM SECON CODA AMPLIT PERI AZIMU VELO AIN AR TRES W  DIS CAZ7
 BAR2 EZ EP   2   2255 12.54                             172    0.60 5 19.2 192 
 BAR2 EZ ES       2255 26.55                             172   -0.3510 19.2 192 
 BAR2 EZ I        2255 27.99        12.4 0.12            166           19.2 192 
 BRR  HZ EP   2   2255 14.15                             151    0.46 5 73.3 301 
 BRR  HE ES   2   2255 31.01                             151    0.98 5 73.3 301 
 BRR  HZ I        2255 42.14        18.1 0.38            139           73.3 301 
 PAM  EZ IP     C 2255 14.95                             149    0.1010 80.7  38 
 PAM  EE ES       2255 31.83                             149   -0.2510 80.7  38 
 PAM  EZ I        2255 33.81        10.5 0.52            143           80.7  38 
 RUS  HZ EP   2   2255 16.09                             144    0.19 5 96.4 176 
 RUS  HN ES       2255 34.41                             144    0.4610 96.4 176 
 RUS  HZ I        2255 36.10         5.8 0.38            154           96.4 176 
 PTB  HZ EP       2255 18.81                             131   -0.59 9  147 260 
 PTB  HN ES       2255 39.62                             131   -0.56 9  147 260 
 PTB  HZ I        2255 43.90         5.1 0.12            127            147 260 
 ZAR  HZ EP   4   2255 26.61                             121    1.44 0  206 293 
 ZAR  HN ES       2255 51.12                             121    0.67 8  206 293 
 ZAR  HZ I        2256  0.44         3.8 0.30            117            206 293 
 GUY2CHZ EP   9   2255 38.73                             112    2.79 0  299 235 
 GUY2CHN ES       2256 12.56                             110    0.14 7  299 235 
 GUY2CHZ  IAML    2256 15.20         1.8 0.30                           299 235 
 SJC  HZ EP   4   2255 46.91                             105   -1.72 0  413 327 
 SJC  HN ES   4   2256 28.16                             105   -4.06 0  413 327 
 SJC  HZ I        2257 16.42         2.0 0.40            103            413 327 
                                                                                
