 2016 1210 2353 46.3 L   6.780 -73.163147.4  RSN  5 0.4 1.6LRSN                1
 GAP=234        0.97       7.7     7.0  8.6  0.3406E+02  0.1144E+01 -0.5221E+01E
 Epicentro: LOS SANTOS - SANTANDER                                             3
 ACTION:UPD 17-01-11 20:13 OP:rebc STATUS:               ID:20161210235346 L   I
 OLDACT:UP  16-12-11 04:23 OP:cog  STATUS:               ID:20161210234751d    3
 OLDACT:DUP 16-12-11 03:46 OP:cog  STATUS:               ID:20161210234751d    3
 2016-12-10-2348-00M.COL___370                                                 6
 STAT SP IPHASW D HRMM SECON CODA AMPLIT PERI AZIMU VELO AIN AR TRES W  DIS CAZ7
 BAR2 EZ EP       2354  5.72                             172   -0.3810 20.9 186 
 BAR2 HN ES       2354 21.28                             172   -0.2510 20.9 186 
 BAR2 EZ I        2354 21.48        14.5 0.52            173           20.9 186 
 BRR  HZ EP       2354  7.66                             153    0.0410 70.6 301 
 BRR  HN ES       2354 24.35                             153    0.1310 70.6 301 
 BRR  HZ I        2354 27.85         5.7 0.24            154           70.6 301 
 RUS  HZ EP       2354 10.08                             145   -0.0110 98.6 175 
 RUS  HN ES       2354 29.17                             145    0.5410 98.6 175 
 RUS  HZ I        2354 29.91         3.9 0.51            147           98.6 175 
 PTB  HN ES       2354 33.63                             133   -0.56 9  145 260 
 ZAR  HE ES       2354 44.68                             123    0.59 9  203 293 
                                                                                
