 2011  710 2306  6.3 L   6.788 -73.096137.3  RSN  6 0.4 2.0LRSN                1
 GAP=161        0.64       4.2     8.6  8.5 -0.7384E+00 -0.1580E+02 -0.2168E+01E
 Epicentro: LOS SANTOS - SANTANDER                                             3
 ACTION:UPD 12-07-25 13:59 OP:epov STATUS:               ID:20110710230606 L   I
 2011-07-10-2302-21S.COL___139                                                 6
 STAT SP IPHASW D HRMM SECON CODA AMPLIT PERI AZIMU VELO AIN AR TRES W  DIS CAZ7
 BAR2 SZ EP       23 6 24.72                             170   -0.1810 23.7 204 
 BAR2 SZ ES   2   23 6 38.93                             170   -0.49 5 23.7 204 
 BAR2 SZ I        23 6 41.08        27.4 0.20                          23.7 204 
 BTL  SZ EP       23 6 24.91                             170    0.0010 23.9 307 
 BRR  HZ EP       23 6 26.52                             150   -0.3410 76.7 297 
 BRR  HZ I        23 6 27.07        31.5 0.10                          76.7 297 
 BRR  HN ES   2   23 6 43.78                             150    0.88 5 76.7 297 
 RUS  HZ EP       23 6 29.36                             143    0.2710 99.0 179 
 RUS  HN ES   2   23 6 46.98                             143    0.10 5 99.0 179 
 RUS  HZ I        23 6 48.00         8.8 0.28                          99.0 179 
 BRI  SZ EP       23 6 29.42                             140    0.0910  108  18 
 BRI  SZ ES   2   23 6 47.60                             140    0.29 5  108  18 
 OCA  SZ ES   3   23 6 55.17                             127   -0.71 2  162 351 
                                                                                
