 2011  410 2021 48.4 L   6.888 -73.160124.7  RSN  7 0.5 1.8LRSN                1
 GAP=139        1.02       9.2    11.2 10.8 -0.3579E+02  0.6697E+01 -0.2202E+02E
 Epicentro: BETULIA - SANTANDER                                                3
 ACTION:UP  11-06-22 15:30 OP:REBC STATUS:               ID:20110410202148 L   I
 2011-04-10-2019-39S.COL___138                                                 6
 STAT SP IPHASW D HRMM SECON CODA AMPLIT PERI AZIMU VELO SNR AR TRES W  DIS CAZ7
 BTL  SZ EP       2022  5.53                                     0.210   12 286 
 BTL  SZ ES   3   2022 19.39                                     0.9 2   12 286 
 GIR2 SZ EP       2022  4.56                                    -0.710   21 350 
 GIR2 SZ ES   2   2022 18.65                                     0.2 5   21 350 
 BAR2 SZ EP       2022  5.54                             164    -0.210   33 184 
 BAR2 SZ ES   2   2022 19.15                             164    -0.1 5   33 184 
 BAR2 SZ I        2022 21.92        13.9 0.19                            33 184 
 BRR  HZ IP     C 2022  7.28                             150     0.310   66 292 
 BRR  HZ I        2022  7.73        19.7 0.11                            66 292 
 BRR  HN ES   2   2022 21.56                             150     0.1 5   66 292 
 PAM  SZ EP   1   2022  8.21                             148     0.2 7   71  45 
 PAM  SN ES   2   2022 23.69                             148     0.4 5   71  45 
 GRA  SZ EP   1   2022 11.79                             134     0.7 7  117  20 
 GRA  SZ I        2022 13.33         8.5 0.33                           117  20 
 GRA  SZ ES   2   2022 27.90                             134    -0.8 5  117  20 
 OCA  SZ EP   1   2022 13.83                             126    -0.3 7  150 353 
 OCA  SZ I        2022 38.64         8.6 0.23                           150 353 
                                                                                
