 2017  210 2156 22.1 L   7.128 -73.737 17.9  RSN  4 0.5 0.9LRSN                1
 GAP=208        1.17       9.4     5.1  5.3 -0.3765E+02 -0.1547E+02  0.3387E+02E
 Epicentro: BARRANCABERMEJA - SANTANDER                                        3
 ACTION:UPD 17-05-24 15:35 OP:jn   STATUS:               ID:20170210215622 L   I
 OLDACT:REG 17-02-11 05:09 OP:dnl  STATUS:               ID:20170210214747     3
 2017-02-10-2148-00M.COL___364                                                 6
 STAT SP IPHASW D HRMM SECON CODA AMPLIT PERI AZIMU VELO AIN AR TRES W  DIS CAZ7
 BRR  HZ IP     C 2156 25.12                             168   -0.0110 3.55 130 
 BRR  HE ES       2156 27.69                             168    0.2010 3.55 130 
 BRR  HZ I        2156 27.96        35.2 0.50            143           3.55 130 
 PTB  HZ EP       2156 38.60                              98    0.1610  103 231 
 PTB  HN ES       2156 50.74                              98   -0.4410  103 231 
 PTB  HZ I        2156 51.17         5.4 0.20             97            103 231 
 PAM  EZ EP       2156 41.78                              97    0.7310  117  78 
 PAM  EE ES       2156 55.03                              97   -0.8010  117  78 
 PAM  EZ I        2156 57.48         2.0 0.14             96            117  78 
 RUS  HZ EP   4   2156 47.40                              56    1.31 0  155 152 
 RUS  HE ES       2157  4.98                              56    0.19 9  155 152 
 RUS  HZ I        2157  8.29         1.1 0.26             56            155 152 
                                                                                
