 2016  710 2158 54.6 L   6.750 -73.166146.0  RSN  6 0.5 1.6LRSN                1
 GAP=231        0.97       6.1     7.0  9.0  0.2145E+02  0.5656E+01  0.4972E+01E
 Epicentro: LOS SANTOS - SANTANDER                                             3
 ACTION:UPD 17-03-29 16:49 OP:lp   STATUS:               ID:20160710215854 L   I
 OLDACT:UP  16-07-11 06:53 OP:dani STATUS:               ID:20160710215744     3
 OLDACT:UP  16-07-11 06:52 OP:dani STATUS:               ID:20160710215744     3
 OLDACT:REG 16-07-11 06:07 OP:dani STATUS:               ID:20160710215744     3
 2016-07-10-2157-44M.COL___326                                                 6
 STAT SP IPHASW D HRMM SECON CODA AMPLIT PERI AZIMU VELO AIN AR TRES W  DIS CAZ7
 BAR2 EZ EP       2159 13.87                             173   -0.2910 17.5 186 
 BAR2 EZ I        2159 29.64        10.9 0.18            173           17.5 186 
 BRR  HN ES       2159 32.55                             152    0.1710 72.1 303 
 RUS  HZ EP       2159 18.25                             145    0.2510 95.3 174 
 RUS  HE ES       2159 36.10                             145   -0.1510 95.3 174 
 RUS  HZ I        2159 37.93         6.0 0.42            146           95.3 174 
 PTB  HZ EP       2159 20.75                             133   -0.55 9  145 261 
 PTB  HN ES   2   2159 40.70                             133   -1.42 5  145 261 
 PTB  HZ I        2159 44.99         4.1 0.30            135            145 261 
 SPBC HZ EP       2159 22.93                             130    0.35 9  157 220 
 SPBC HN ES       2159 44.76                             130    0.36 9  157 220 
 SPBC HZ I        2159 47.01         7.2 0.40            133            157 220 
 ZAR  HN ES       2159 52.68                             122    0.29 9  204 294 
                                                                                
