 2017  810 2248 43.2 L   6.781 -73.106140.3  RSN  5 0.3 1.5LRSN                1
 GAP=142        0.86       4.4     4.7  6.2  0.4459E+01  0.7027E+01 -0.1315E+01E
 Epicentro: LOS SANTOS - SANTANDER                                             3
 ACTION:UPD 17-09-04 20:18 OP:rebc STATUS:               ID:20170810224843 L   I
 OLDACT:UP  17-08-11 06:10 OP:edw  STATUS:               ID:20170810224744     3
 OLDACT:REG 17-08-11 05:18 OP:edw  STATUS:               ID:20170810224744     3
 2017-08-10-2248-00M.COL___414                                                 6
 STAT SP IPHASW D HRMM SECON CODA AMPLIT PERI AZIMU VELO AIN AR TRES W  DIS CAZ7
 BAR2 EZ EP       2249  2.05                             170   -0.1310 22.5 202 
 BAR2 EZ ES       2249 17.45                             170    0.4910 22.5 202 
 BAR2 EZ I        2249 18.35         7.8 0.18            171           22.5 202 
 BRR  HZ EP     D 2249  3.96                             150   -0.1010 76.0 298 
 BRR  HN ES       2249 20.58                             150    0.2610 76.0 298 
 PAM  EZ EP     C 2249  5.03                             150    0.2410 76.3  36 
 PAM  EN ES       2249 21.23                             150   -0.3910 76.3  36 
 PAM  EZ I        2249 24.37         3.3 0.32            151           76.3  36 
 RUS  HZ EP       2249  6.57                             143    0.3010 98.3 178 
 RUS  HN ES       2249 23.75                             143   -0.5010 98.3 178 
 RUS  HZ I        2249 25.22         4.7 0.52            146           98.3 178 
 ZAR  HZ EP       2249 15.97                             120    0.15 8  209 292 
 ZAR  HN ES       2249 40.84                             120   -0.40 8  209 292 
 ZAR  HZ I        2249 46.29         4.1 0.22            121            209 292 
                                                                                
