 2015 1110 2035 52.5 L   6.807 -73.100143.1  RSN 14 0.5 2.3LRSN                1
 GAP=142        1.22       3.1     5.1  6.1 -0.1326E+01  0.8159E+01  0.1853E+00E
 Epicentro: LOS SANTOS - SANTANDER                                             3
 ACTION:UPD 15-12-28 16:09 OP:cam  STATUS:               ID:20151110203552 L   I
 OLDACT:UP  15-11-11 05:27 OP:ar   STATUS:               ID:20151110202748     3
 OLDACT:REG 15-11-11 04:24 OP:ar   STATUS:               ID:20151110202748     3
 2015-11-10-2027-48M.COL___319                                                 6
 STAT SP IPHASW D HRMM SECON CODA AMPLIT PERI AZIMU VELO AIN AR TRES W  DIS CAZ7
 BAR2 EZ EP       2036 11.83                             169   -0.0010 25.4 201 
 BAR2 EZ ES       2036 27.04                             169    0.1210 25.4 201 
 BAR2 EZ I        2036 27.66        31.4 0.20            168           25.4 201 
 PAM  EZ EP       2036 14.71                             151    0.5210 73.7  37 
 PAM  EE ES       2036 30.81                             151   -0.3110 73.7  37 
 PAM  EZ I        2036 33.66        39.1 0.60            153           73.7  37 
 BRR  HZ EP       2036 13.72                             151    0.1410 75.3 296 
 BRR  HN ES       2036 30.72                             151    0.6810 75.3 296 
 BRR  HZ I        2036 34.93        39.0 0.48            146           75.3 296 
 RUS  HZ EP       2036 16.19                             143    0.1810  101 179 
 RUS  HN ES       2036 34.17                             143   -0.1910  101 179 
 RUS  HZ I        2036 35.31        27.5 0.34            146            101 179 
 OCA  HZ EP       2036 21.54                             129    0.96 9  160 351 
 OCA  HN ES       2036 41.74                             129   -0.75 9  160 351 
 OCA  HZ I        2036 46.23        42.9 0.34            128            160 351 
 SPBC HZ EP       2036 20.82                             128   -0.32 9  167 220 
 SPBC HE ES       2036 42.84                             128   -0.65 9  167 220 
 ZAR  HZ EP       2036 26.24                             121    1.03 8  208 291 
 ZAR  HN ES       2036 50.70                             121   -0.03 8  208 291 
 ZAR  HZ I        2036 56.31        31.5 0.38            120            208 291 
 NOR  HZ EP       2036 28.19                             117   -0.36 8  239 235 
 NOR  HN ES       2036 56.83                             117    0.15 8  239 235 
 NOR  HZ I        2036 57.20        11.5 0.24            117            239 235 
 SML  HZ EP       2036 28.38                             117   -0.74 8  245 334 
 SML  HE ES       2036 56.86                             117   -0.83 8  245 334 
 SML  HZ I        2037  3.35        30.7 0.10            116            245 334 
 CHI  HZ EP       2036 29.50                             116   -0.76 8  251 196 
 CHI  HE ES       2037  0.02                             116    0.29 8  251 196 
 CHI  HZ I        2037  2.92         4.2 0.26            117            251 196 
 URE  HZ EP       2036 33.95                             113    0.03 7  288 291 
 URE  HE ES   4   2037  3.90                             113   -2.33 0  288 291 
 URE  HZ I        2037 14.00        14.1 0.16            112            288 291 
 GUY2CHZ EP   9   2036 37.98                             111    1.50 0  306 235 
 GUY2CHN ES       2037 12.15                             111   -0.15 7  306 235 
 GUY2CHZ I        2037 16.81         9.9 0.32                           306 235 
 MON  HZ EP   9   2036 39.51                             108   -2.27 0  357 308 
 MON  HN ES       2037 18.02                                    0.06 6  357 308 
 MON  HZ I        2037 33.36         4.5 0.40            108            357 308 
 ORTC HZ EP       2036 47.20                             106    0.47 6  399 217 
 ORTC HN ES   4   2037 30.60                             106    1.55 0  399 217 
 ORTC HZ I        2037 36.11         4.4 0.18            106            399 217 
                                                                                
