 2013 1210 2356 51.9 L   6.744 -73.121144.1  RSN 10 0.5 1.8LRSN                1
 GAP=161        1.24       5.5     4.0  6.9 -0.2140E+01  0.3196E+01  0.1030E+02E
 Epicentro: JORDAN - SANTANDER                                                 3
 ACTION:UPD 14-01-13 10:17 OP:ep   STATUS:               ID:20131210235651 L   I
 OLDACT:REG 13-12-11 00:16 OP:stll STATUS:               ID:20131210234806     3
 2013-12-10-2348-06M.COL___256                                                 6
 STAT SP IPHASW D HRMM SECON CODA AMPLIT PERI AZIMU VELO AIN AR TRES W  DIS CAZ7
 BAR2 SZ EP       2357 11.21                             172   -0.0410 18.2 202 
 BAR2 SZ ES       2357 25.93                             172   -0.4110 18.2 202 
 BAR2 SZ I        2357 28.01        18.0 0.22            167           18.2 202 
 BRR  HZ IP     D 2357 13.42                             151    0.2210 76.7 302 
 BRR  HN ES       2357 30.03                             151    0.2210 76.7 302 
 RUS  HZ EP       2357 15.32                             145    0.2710 94.3 177 
 RUS  HN ES       2357 33.74                             145    0.6310 94.3 177 
 RUS  HZ I        2357 35.50         5.1 0.50            144           94.3 177 
 PTB  HZ EP       2357 18.21                             131   -0.69 9  149 261 
 PTB  HN ES       2357 39.41                             131   -0.54 9  149 261 
 PTB  HZ I        2357 45.10         9.3 0.22            131            149 261 
 TAM  HZ EP       2357 19.52                             131    0.45 9  151 103 
 TAM  HN ES       2357 39.75                             131   -0.51 9  151 103 
 SPBC HZ EP       2357 20.34                             129    0.33 9  160 221 
 SPBC HN ES       2357 41.92                             129   -0.00 9  160 221 
 SPBC HZ I        2357 47.39        10.5 0.20            129            160 221 
 NOR  HZ EP       2357 27.26                             118   -0.15 8  233 236 
 NOR  HN ES       2357 55.44                             118    0.33 8  233 236 
 NOR  HZ I        2358  2.47         4.7 0.24            119            233 236 
 CHI  HZ EP       2357 27.70                             117   -1.26 8  243 196 
 CHI  HN ES       2357 58.29                             117    0.44 8  243 196 
 CHI  HZ I        2358  4.63         2.4 0.50            118            243 196 
 GUY2CHZ EP       2357 36.39                             112    1.08 7  300 236 
 GUY2CHN ES       2358  9.25                             112    0.09 7  300 236 
 GUY2CHZ I        2358 18.21         5.4 0.76                           300 236 
 PRA  HZ EP       2357 45.23                             106    0.32 6  388 210 
 PRA  HN ES       2358 25.20                             106   -1.05 6  388 210 
                                                                                
