 2015  610 2321  6.1 L   6.810 -73.127147.6  RSN 19 0.5 2.7LRSN                1
 GAP=138        1.08       2.6     4.2  5.2 -0.2274E+01  0.8818E+01  0.9405E+00E
 Epicentro: LOS SANTOS - SANTANDER                                             3
 ACTION:UPD 15-09-10 22:11 OP:cam  STATUS:               ID:20150610232106 L   I
 OLDACT:REG 15-06-11 03:51 OP:ar   STATUS:               ID:20150610231750     3
 2015-06-10-2317-50M.COL___303                                                 6
 STAT SP IPHASW D HRMM SECON CODA AMPLIT PERI AZIMU VELO AIN AR TRES W  DIS CAZ7
 BAR2 EZ EP       2321 25.76                             170   -0.1910 24.8 194 
 BAR2 EZ ES       2321 41.47                             170    0.0110 24.8 194 
 BAR2 EZ I        2321 42.87        83.3 0.24            169           24.8 194 
 BRR  HZ IP     C 2321 27.64                             152    0.1510 72.6 297 
 BRR  HZ EP       2321 27.68                             152    0.1910 72.6 297 
 BRR  HN ES       2321 45.12                             152    0.9210 72.6 297 
 BRR  HZ I        2321 45.89        98.5 0.22            151           72.6 297 
 PAM  SZ EP       2321 28.76                             152    0.4010 75.2  39 
 PAM  SN ES       2321 45.76                             152    0.0210 75.2  39 
 PAM  SZ I        2321 48.02       127.5 0.64            154           75.2  39 
 RUS  HZ EP       2321 29.93                             144   -0.1410  102 177 
 RUS  HN ES       2321 48.58                             144   -0.2110  102 177 
 RUS  HZ I        2321 50.87        39.0 0.28            144            102 177 
 OCA  HZ EP       2321 34.98                             130    0.53 9  159 352 
 OCA  HN ES       2321 55.89                             130   -0.70 9  159 352 
 OCA  HZ I        2322  2.08       114.2 0.16            131            159 352 
 SPBC HZ EP       2321 34.64                             129   -0.27 9  165 219 
 SPBC HE ES       2321 56.99                             129   -0.42 9  165 219 
 SPBC HZ I        2321 59.18        74.5 0.30            129            165 219 
 ZAR  HZ EP       2321 38.77                             123   -0.03 8  206 292 
 ZAR  HN ES       2322  4.19                             123   -0.13 8  206 292 
 ZAR  HZ I        2322  9.04        78.2 0.60            123            206 292 
 NOR  HZ EP       2321 41.76                             119   -0.39 8  237 235 
 NOR  HN ES       2322  9.94                             119   -0.36 8  237 235 
 NOR  HZ I        2322 14.42        38.2 0.20            119            237 235 
 SML  HZ EP       2321 42.68                             118   -0.11 8  244 335 
 SML  HN ES       2322 10.92                             118   -0.51 8  244 335 
 SML  HZ I        2322 20.17        54.9 0.24            119            244 335 
 CHI  HZ EP       2321 43.82                             117   -0.22 8  250 196 
 CHI  HN ES       2322 13.18                             117   -0.48 8  250 196 
 CHI  HZ I        2322 18.49        18.8 0.38            118            250 196 
 HEL  HZ EP       2321 47.59                             115    0.96 8  274 256 
 HEL  HN ES       2322 17.63                             115   -0.64 8  274 256 
 HEL  HZ I        2322 24.01        31.3 0.40            115            274 256 
 URE  HZ EP       2321 46.56                             114   -0.84 7  285 292 
 URE  HN ES   4   2322 17.59                             114   -2.05 0  285 292 
 URE  HZ I        2322 18.51        46.6 0.36            114            285 292 
 GUY2CHZ EP       2321 50.63                             112    0.60 7  304 235 
 GUY2CHE ES   4   2322 26.63                             112    2.32 0  304 235 
 GUY2CHZ I        2322 35.57        28.5 0.62                           304 235 
 VIL  SN ES   4   2322 22.70                             112   -1.10 0  305 192 
 VIL  SZ I        2322 34.19        29.3 0.34            113            305 192 
 RREF HZ EP       2321 52.83                             111    0.28 7  324 229 
 RREF HN ES       2322 29.79                             111    0.98 7  324 229 
 RREF HZ I        2322 36.83         9.4 0.28            111            324 229 
 CBOC HZ EP       2321 54.16                             110    0.83 7  336 252 
 ANIL HN ES       2322 35.60                             109    0.30 6  360 225 
 ANIL HZ I        2322 40.67        48.8 0.30            109            360 225 
 ORTC HZ EP       2322  0.01                             107   -0.29 6  398 216 
 ORTC HN ES       2322 43.43                             107    0.84 6  398 216 
 ORTC HZ I        2322 48.30        10.7 0.46            107            398 216 
 PAL  HZ EP       2322  1.20                             106   -0.37 6  408 239 
 PAL  HN ES       2322 44.29                             106   -0.56 6  408 239 
 PAL  HZ I        2322 49.83         8.7 0.46            106            408 239 
                                                                                
