 2010 1110 2157 27.9 L   6.787 -73.114147.7  RSN 10 0.5 2.1LRSN                1
 GAP=162        0.93       4.6     6.9  7.5 -0.1445E+02  0.6346E+01  0.2212E+01E
 Epicentro: LOS SANTOS - SANTANDER                                             3
 ACTION:UP  10-12-17 16:51 OP:REBC STATUS:               ID:20101110215727 L   I
 2010-11-10-2154-29S.COL___129                                                 6
 STAT SP IPHASW D HRMM SECON CODA AMPLIT PERI AZIMU VELO SNR AR TRES W  DIS CAZ7
 BAR2 SZ EP       2157 47.59                             171    -0.210   23 200 
 BAR2 SZ ES   2   2158  3.03                             171    -0.2 5   23 200 
 BAR2 SZ I        2158  4.34        29.6 0.50                            23 200 
 GIR2 SZ EP   2   2157 47.66                             166    -0.2 5   33 345 
 BRR  HZ EP       2157 49.50                             151     0.010   75 298 
 BRR  HZ I        2157 49.79        25.8 0.25                            75 298 
 BRR  HE ES   1   2158  6.69                             151     0.4 7   75 298 
 RUS  HZ EP       2157 51.56                             145    -0.210   99 178 
 RUS  HE ES   1   2158 10.34                             145     0.0 7   99 178 
 RUS  HZ I        2158 11.56         9.5 0.38                            99 178 
 GUE  SZ EP       2157 53.70                             139     0.810  117  10 
 GRA  SZ EP       2157 53.42                             137     0.110  126  16 
 GRA  SZ I        2157 54.56        18.6 0.30                           126  16 
 GRA  SZ ES   2   2158 11.92                             137    -1.3 5  126  16 
 OCA  SZ EP   3   2157 56.75                             129     0.2 2  162 352 
 OCA  SZ ES   3   2158 17.85                             129    -1.0 2  162 352 
 OCA  SZ I        2158 24.10        21.4 0.31                           162 352 
 NOR  SZ EP       2158  3.57                             119    -0.4 8  237 235 
 NOR  SN ES   1   2158 32.00                             119    -0.1 6  237 235 
 RREF HZ EP   1   2158 13.76                             111    -0.6 5  323 230 
 RREF HN ES   1   2158 50.86                             111     0.3 5  323 230 
 RREF HZ I        2159  0.02         6.8 0.27                           323 230 
 PRA  HZ EP       2158 21.63                             107     0.1 6  392 210 
 PRA  HE ES   2   2159  4.11                             107     0.7 3  392 210 
                                                                                
