 2013  610 2042  7.7 L   6.768 -73.150147.9  RSN  6 0.4 1.7LRSN                1
 GAP=235        0.88       5.5     5.1  6.0  0.4486E+01  0.9320E+01  0.6974E+01E
 Epicentro: LOS SANTOS - SANTANDER                                             3
 ACTION:UPD 14-01-08 09:53 OP:ep   STATUS:               ID:20130610204207 L   I
 OLDACT:REG 13-06-10 21:25 OP:nd   STATUS:               ID:20130610203959     3
 2013-06-10-2039-59M.COL___261                                                 6
 STAT SP IPHASW D HRMM SECON CODA AMPLIT PERI AZIMU VELO AIN AR TRES W  DIS CAZ7
 BAR2 SZ EP       2042 27.41                             172   -0.1010 19.8 190 
 BAR2 SZ ES       2042 42.80                             172   -0.1710 19.8 190 
 BAR2 SZ I        2042 43.72         8.5 0.46            169           19.8 190 
 BRR  HZ IP     C 2042 29.38                             152    0.2410 72.5 301 
 BRR  HN ES       2042 46.29                             152    0.4110 72.5 301 
 BRR  HZ I        2042 49.89        10.6 0.26            150           72.5 301 
 RUS  HZ EP       2042 31.21                             145   -0.1910 97.1 176 
 RUS  HN ES       2042 50.10                             145    0.2010 97.1 176 
 RUS  HZ I        2042 50.93         2.7 0.18            147           97.1 176 
 PTB  HZ EP       2042 33.98                             133   -0.75 9  147 260 
 PTB  HN ES       2042 55.44                             133   -0.38 9  147 260 
 PTB  HZ I        2043  1.27         8.1 0.44            132            147 260 
 NOR  HZ EP       2042 43.61                             119    0.33 8  232 235 
 NOR  HN ES       2043 11.16                             119    0.11 8  232 235 
 NOR  HZ I        2043 16.10         6.5 0.16            120            232 235 
 GUY2CHZ EP       2042 51.74                             113    0.62 7  299 235 
 GUY2CHN ES   2   2043 25.05                             113    0.04 4  299 235 
 GUY2CHZ I        2043 33.82         3.3 0.46                           299 235 
                                                                                
