 2011  810 2158 10.4 L   6.774 -73.138146.1  RSN  6 0.2 1.7LRSN                1
 GAP=139        0.35       2.7     3.9  4.3 -0.2923E+01  0.5584E+00  0.3330E+01E
 Epicentro: LOS SANTOS - SANTANDER                                             3
 ACTION:UPD 12-07-25 14:07 OP:epov STATUS:               ID:20110810215810 L   I
 2011-08-10-2155-39S.COL___150                                                 6
 STAT SP IPHASW D HRMM SECON CODA AMPLIT PERI AZIMU VELO AIN AR TRES W  DIS CAZ7
 BAR2 SZ ES   2   2158 45.54                             172    0.18 5 20.6 194 
 BAR2 SZ I        2158 48.04        13.5 0.28                          20.6 194 
 BRR  HZ EP   1   2158 31.89                             152    0.14 7 73.3 300 
 BRR  HZ I        2158 44.28        16.5 0.35                          73.3 300 
 BRR  HN ES   2   2158 48.06                             152   -0.31 5 73.3 300 
 PAM  SZ EP   1   2158 32.80                             150    0.01 7 79.1  38 
 PAM  SN ES   2   2158 50.22                             150   -0.01 5 79.1  38 
 RUS  HZ EP   1   2158 33.78                             145   -0.23 7 97.6 176 
 RUS  HN ES   2   2158 52.57                             145    0.17 5 97.6 176 
 RUS  HZ I        2158 53.93         5.0 0.18                          97.6 176 
 NOR  SN ES   2   2159 13.99                             119    0.11 4  234 235 
 CHI  HZ EP   1   2158 48.03                             117    0.16 6  246 196 
 CHI  HE ES   2   2159 16.83                             117   -0.24 4  246 196 
 CHI  HZ I        2159 25.62         2.5 0.57                           246 196 
                                                                                
