 2013  210 2015 47.3 L   6.778 -73.158149.6  RSN  8 0.4 1.6LRSN                1
 GAP=136        0.84       4.1     4.2  6.8  0.9057E+00  0.5588E+01  0.4879E+01E
 Epicentro: LOS SANTOS - SANTANDER                                             3
 ACTION:UPD 13-03-12 09:32 OP:ep   STATUS:               ID:20130210201547 L   I
 2013-02-10-2010-00M.COL___241                                                 6
 STAT SP IPHASW D HRMM SECON CODA AMPLIT PERI AZIMU VELO AIN AR TRES W  DIS CAZ7
 BAR2 SZ EP   1   2016  7.27                             172   -0.03 7 20.7 187 
 BAR2 SZ ES   1   2016 22.97                             172    0.04 7 20.7 187 
 BAR2 SZ I        2016 25.05        14.0 0.28            169           20.7 187 
 BRR  HZ EP   1   2016  9.42                             153    0.59 7 71.2 301 
 BRR  HN ES   1   2016 26.34                             153    0.70 7 71.2 301 
 BRR  HZ I        2016 30.15         7.2 0.44            151           71.2 301 
 PAM  SZ EP   1   2016 10.16                             151    0.11 7 80.1  39 
 PAM  SN ES   1   2016 27.41                             151   -0.41 7 80.1  39 
 PAM  SZ I        2016 29.51         6.2 0.20            148           80.1  39 
 RUS  HZ EP       2016 11.18                             145   -0.0510 98.3 175 
 RUS  HZ I        2016 28.91         4.7 0.38            141           98.3 175 
 RUS  HN ES       2016 30.01                             145    0.0910 98.3 175 
 PTB  HZ EP       2016 14.12                             133   -0.26 9  146 260 
 PTB  HN ES       2016 34.81                             133   -0.73 9  146 260 
 PTB  HZ I        2016 41.20         7.4 0.26            129            146 260 
 ZAR  HN ES   1   2016 45.34                             123   -0.06 6  204 293 
 ZAR  HZ I        2016 52.43         4.3 0.26            120            204 293 
 NOR  HN ES   1   2016 51.52                             120    0.74 6  232 235 
 CHI  HZ EP   1   2016 24.95                             118    0.07 6  246 195 
 CHI  HZ E        2016 24.95                                            246 195 
 CHI  HE ES   1   2016 54.19                             118   -0.04 6  246 195 
 CHI  HZ I        2017  0.52         1.8 0.36            114            246 195 
                                                                                
