 2016  410 2102 56.6 L   6.858 -73.094140.1  RSN  4 0.2 1.1LRSN                1
 GAP=142        0.55       3.3     3.4  4.6 -0.3655E+01  0.4635E+01 -0.9949E+00E
 Epicentro: LOS SANTOS - SANTANDER                                             3
 ACTION:UPD 16-05-05 14:20 OP:rebc STATUS:               ID:20160410210256 L   I
 OLDACT:REG 16-04-11 03:18 OP:cara STATUS:               ID:20160410205746     3
 2016-04-10-2057-46M.COL___295                                                 6
 STAT SP IPHASW D HRMM SECON CODA AMPLIT PERI AZIMU VELO AIN AR TRES W  DIS CAZ7
 BAR2 EZ EP       21 3 15.75                             167    0.0510 30.9 198 
 BAR2 EZ ES       21 3 30.79                             167    0.1610 30.9 198 
 BAR2 EZ I        21 3 32.21         4.0 0.14            169           30.9 198 
 PAM  EZ EP       21 3 17.99                             153    0.3110 68.8  39 
 PAM  EN ES       21 3 33.89                             153   -0.2610 68.8  39 
 PAM  EZ I        21 3 37.73         2.7 0.16            153           68.8  39 
 RUS  HZ EP       21 3 20.25                             141    0.0210  107 179 
 RUS  HE ES       21 3 38.58                             141   -0.1110  107 179 
 RUS  HZ I        21 3 39.65         1.5 0.24            144            107 179 
 PTB  HZ EP       21 3 23.43                             129   -0.30 9  155 257 
 PTB  HE ES       21 3 45.03                             129    0.11 9  155 257 
 PTB  HZ I        21 3 46.03         1.9 0.32            132            155 257 
                                                                                
