 2011  310 2115  0.4 L   6.856 -72.844138.6  RSN  4 0.3 1.8LRSN                1
 GAP=192        0.68       3.4    16.5  8.6 -0.1117E+02 -0.4945E+02 -0.4142E+01E
 Epicentro: GUACA - SANTANDER                                                  3
 ACTION:UP  11-06-16 14:32 OP:jfem STATUS:               ID:20110310211500 L   I
 2011-03-10-2113-06S.COL___135                                                 6
 STAT SP IPHASW D HRMM SECON CODA AMPLIT PERI AZIMU VELO SNR AR TRES W  DIS CAZ7
 BAR2 SZ EP   1   2115 20.07                             160     0.2 7   48 232 
 BAR2 SZ ES   1   2115 34.97                             160    -0.2 7   48 232 
 BAR2 SZ I        2115 36.35        26.0 0.41                            48 232 
 RUS  HZ EP   1   2115 24.45                             140     0.3 7  110 194 
 RUS  HE ES   1   2115 42.55                             140    -0.1 7  110 194 
 RUS  HZ I        2115 45.44         7.6 0.44                           110 194 
 GRA  SZ EP   1   2115 23.98                             138     0.0 7  114   2 
 GRA  SZ ES   1   2115 42.41                             138     0.0 7  114   2 
 GRA  SZ I        2115 44.42         6.8 0.59                           114   2 
 OCA  SZ EP   1   2115 27.69                             128    -0.6 7  162 341 
 OCA  SZ ES   1   2115 50.40                             128     0.4 7  162 341 
 OCA  SZ I        2115 55.99         8.2 0.34                           162 341 
                                                                                
