 2013  710 2216  9.2 L   6.791 -73.161148.0  RSN  9 0.4 1.9LRSN                1
 GAP=135        0.91       4.3     4.3  6.9 -0.3295E+01  0.1078E+02 -0.6510E+01E
 Epicentro: LOS SANTOS - SANTANDER                                             3
 ACTION:UPD 13-08-12 10:36 OP:ep   STATUS:               ID:20130710221609 L   I
 OLDACT:REG 13-07-10 21:26 OP:jn   STATUS:               ID:20130710220959     3
 2013-07-10-2209-59M.COL___266                                                 6
 STAT SP IPHASW D HRMM SECON CODA AMPLIT PERI AZIMU VELO AIN AR TRES W  DIS CAZ7
 BAR2 SZ EP     D 2216 29.07                             171   -0.0410 22.1 186 
 BAR2 SZ ES       2216 45.03                             171    0.4210 22.1 186 
 BAR2 SZ I        2216 46.89        10.5 0.20            171           22.1 186 
 GIR2 SZ EP       2216 29.20                             167    0.0110 32.0 354 
 BRR  HZ EP     C 2216 30.97                             153    0.4010 70.2 300 
 PAM  SZ EP       2216 31.93                             151    0.1410 79.2  40 
 PAM  SN ES       2216 49.29                             151   -0.1010 79.2  40 
 PAM  SZ I        2216 51.35        15.8 0.64            155           79.2  40 
 RUS  HZ EP       2216 32.96                             145   -0.1910 99.8 175 
 RUS  HN ES   1   2216 51.27                             145   -0.53 7 99.8 175 
 RUS  HZ I        2216 52.95         8.6 0.20            149           99.8 175 
 PTB  HZ EP       2216 35.76                             133   -0.46 9  146 259 
 PTB  HN ES       2216 57.50                             133    0.23 9  146 259 
 PTB  HZ I        2217  3.09        10.0 0.32            134            146 259 
 ZAR  HZ EP   1   2216 42.85                             123    1.15 6  203 293 
 ZAR  HE ES   1   2217  6.43                             123   -0.60 6  203 293 
 ZAR  HZ I        2217 14.21        20.3 0.30            124            203 293 
 NOR  HN ES   1   2217 12.64                             119   -0.06 6  233 234 
 SML  HZ EP   1   2216 45.66                             118   -0.34 6  244 336 
 SML  HN ES   1   2217 14.06                             118   -0.62 6  244 336 
                                                                                
