 2012  310 2356 12.4 L   6.746 -73.168141.8  RSN  6 0.4 1.9LRSN                1
 GAP=136        0.94       5.9     5.1  8.1  0.1664E+01  0.8090E+01 -0.5026E+01E
 ACTION:UP  12-03-31 23:18 OP:EP   STATUS:               ID:20120310235612 L   I
 2012-03-10-2350-00M.COL___192                                                 6
 STAT SP IPHASW D HRMM SECON CODA AMPLIT PERI AZIMU VELO SNR AR TRES W  DIS CAZ7
 BAR2 SZ EP       2356 31.46                             173     0.110   17 185 
 BAR2 SZ I        2356 31.80        31.3 0.10                            17 185 
 BAR2 SZ ES   1   2356 46.51                             173     0.3 7   17 185 
 BRR  HZ EP       2356 33.28                             151     0.110   72 304 
 BRR  HN ES   1   2356 49.80                             151     0.5 7   72 304 
 PAM  SZ EP       2356 34.42                             148    -0.110   84  38 
 PAM  SZ I        2356 34.57        11.2 0.17                            84  38 
 PAM  SN ES   1   2356 51.33                             148    -0.5 7   84  38 
 RUS  HZ EP   1   2356 35.45                             145     0.1 7   95 174 
 RUS  HN ES   1   2356 53.31                             145     0.1 7   95 174 
 RUS  HZ I        2356 55.73         7.5 0.29                            95 174 
 PTB  HZ EP   1   2356 38.16                             132    -0.5 7  144 261 
 PTB  HN ES   1   2356 58.39                             132    -0.8 7  144 261 
 PTB  HZ I        2357  2.10         8.6 0.11                           144 261 
 ZAR  HZ EP   1   2356 45.17                             121     0.6 6  204 294 
 ZAR  HE ES   1   2357  9.83                             121     0.2 6  204 294 
 ZAR  HZ I        2357 15.59        15.1 0.31                           204 294 
                                                                                
