 2014  510 2304 34.5 L   6.774 -73.143140.8  RSN  4 0.3 1.4LRSN                1
 GAP=138        0.61       3.9     3.6  7.9 -0.2364E+01  0.1061E+02  0.1099E+01E
 Epicentro: LOS SANTOS - SANTANDER                                             3
 OLDACT:REG 14-05-11 03:36 OP:fm   STATUS:               ID:20140510225819     3
 ACTION:UPD 15-03-16 16:56 OP:nd   STATUS:               ID:20140510230434 L   I
 OLDACT:UP  14-05-11 04:45 OP:fm   STATUS:               ID:20140510225819     3
 2014-05-10-2258-19M.COL___248                                                 6
 STAT SP IPHASW D HRMM SECON CODA AMPLIT PERI AZIMU VELO AIN AR TRES W  DIS CAZ7
 PAM  SZ EP       23 4 56.43                             149    0.0910 79.4  38 
 PAM  SN ES       23 5 13.23                             149   -0.1210 79.4  38 
 PAM  SZ I        23 5 14.37         4.4 0.20            159           79.4  38 
 RUS  HZ EP   1   23 4 57.81                             143    0.24 7 97.7 176 
 RUS  HN ES   1   23 5 15.66                             143    0.10 7 97.7 176 
 RUS  SZ I        23 5 27.24         4.8 3.36            140           97.7 176 
 PTB  HZ EP   1   23 5  0.53                             131   -0.54 7  148 260 
 PTB  HE ES   1   23 5 21.57                             131   -0.20 7  148 260 
 PTB  SZ I        23 5 23.65         4.3 0.16            136            148 260 
 ZAR  HN ES   1   23 5 32.45                             121    0.49 6  205 293 
                                                                                
