 2016  110 2316 43.3 L   6.813 -73.153147.0  RSN  7 0.4 1.6LRSN                1
 GAP=135        0.60       4.3     3.6  5.8 -0.3228E+01  0.3152E+01  0.4016E+01E
 Epicentro: LOS SANTOS - SANTANDER                                             3
 ACTION:UPD 16-03-09 23:24 OP:cam  STATUS:               ID:20160110231643 L   I
 OLDACT:DUP 16-01-11 07:29 OP:dnl\ STATUS:               ID:20160110230756d    3
 2016-01-10-2307-55M.COL___251                                                 6
 STAT SP IPHASW D HRMM SECON CODA AMPLIT PERI AZIMU VELO AIN AR TRES W  DIS CAZ7
 BRR  HZ EP   1   2317  4.71                             153    0.23 7 69.7 298 
 BRR  HN ES       2317 21.33                             153    0.3210 69.7 298 
 BRR  HZ I        2317 27.58         6.3 0.39            153           69.7 298 
 PAM  EZ EP       2317  5.68                             151    0.0910 76.8  41 
 PAM  EN ES       2317 22.87                             151   -0.1210 76.8  41 
 PAM  EZ I        2317 24.87         6.9 0.47            155           76.8  41 
 RUS  HZ EP   2   2317  7.11                             144   -0.15 5  102 176 
 RUS  HE ES   2   2317 25.45                             144   -0.52 5  102 176 
 RUS  HZ I        2317 26.48         4.3 0.29            149            102 176 
 PTB  HZ EP   1   2317 10.59                             132    0.29 7  147 258 
 PTB  HE ES   2   2317 30.68                             132   -0.69 5  147 258 
 PTB  HZ I        2317 33.46         2.8 0.11            135            147 258 
 ZAR  HE ES   2   2317 40.37                             123   -0.56 4  203 292 
 ZAR  HZ I        2317 42.29         4.1 0.09            126            203 292 
 SML  HZ EP   2   2317 19.57                             118   -0.22 4  242 335 
 SML  HE ES   2   2317 47.48                             118   -0.78 4  242 335 
 SML  HZ I        2317 49.83         5.0 0.09            121            242 335 
 GUY2CHZ EP   4   2317 29.15                             113    2.19 0  301 234 
 GUY2CHN ES   2   2318  1.12                             113    0.08 4  301 234 
 GUY2CHZ I        2318  9.06         1.6 0.32                           301 234 
                                                                                
