 2011  210 2348 54.4 L   6.776 -73.114138.4  RSN  5 0.2 1.4LRSN                1
 GAP=162        0.39       3.2     6.4  7.3 -0.1032E+02  0.1706E+02  0.7784E+00E
 Epicentro: LOS SANTOS - SANTANDER                                             3
 ACTION:UP  11-03-28 15:07 OP:jfem STATUS:               ID:20110210234854 L   I
 2011-02-10-2345-23S.COL___136                                                 6
 STAT SP IPHASW D HRMM SECON CODA AMPLIT PERI AZIMU VELO SNR AR TRES W  DIS CAZ7
 BAR2 SZ EP       2349 13.22                             171     0.110   22 201 
 BAR2 SZ I        2349 31.35         7.4 0.28                            22 201 
 RUS  HZ EP   1   2349 17.13                             143    -0.1 7   98 178 
 RUS  HE ES   2   2349 34.76                             143    -0.3 5   98 178 
 RUS  HZ I        2349 37.26         2.5 0.20                            98 178 
 GRA  SZ EP   2   2349 18.96                             135    -0.2 5  127  16 
 GRA  SZ ES   2   2349 38.55                             135     0.1 5  127  16 
 GRA  SZ I        2349 39.91         5.6 0.18                           127  16 
 NOR  SZ EP   2   2349 29.63                             117    -0.3 4  236 236 
 NOR  SN ES   2   2349 57.51                             117     0.0 4  236 236 
 CHI  HZ EP   1   2349 31.59                             116     0.1 6  247 196 
 CHI  HE ES   2   2350  0.90                             116     0.4 4  247 196 
 CHI  HZ I        2350  9.43         2.5 0.45                           247 196 
                                                                                
