 2016 1110 2233 15.2 L   6.657 -73.382119.0  RSN  5 0.3 1.6LRSN                1
 GAP=156        0.89       6.9     4.0  7.9 -0.3807E+01  0.1279E+02 -0.1073E+02E
 Epicentro: GALAN - SANTANDER                                                  3
 ACTION:UPD 17-10-26 21:06 OP:lp   STATUS:               ID:20161110223315 L   I
 OLDACT:REG 16-11-11 07:30 OP:dani STATUS:               ID:20161110222759     3
 2016-11-10-2227-59S.COL___278                                                 6
 STAT SP IPHASW D HRMM SECON CODA AMPLIT PERI AZIMU VELO AIN AR TRES W  DIS CAZ7
 BAR2 EZ EP       2233 31.50                             168   -0.1510 23.2 108 
 BAR2 EZ ES       2233 44.59                             168    0.1310 23.2 108 
 BAR2 EZ I        2233 44.97        12.3 0.20            173           23.2 108 
 BRR  HZ EP       2233 32.60                             151   -0.3610 61.7 324 
 BRR  HE ES       2233 46.23                             151   -0.5610 61.7 324 
 BRR  HZ I        2233 50.28        10.2 0.28            147           61.7 324 
 PAM  EN ES       2233 54.33                             136    0.4110  107  45 
 PTB  HE ES       2233 55.10                             132    0.3010  120 264 
 ZAR  HZ EP       2233 44.18                             118   -0.10 9  187 300 
 ZAR  HN ES       2234  7.37                             118    0.43 9  187 300 
 ZAR  HZ I        2234 11.69         4.1 0.68            119            187 300 
                                                                                
