 2013 1010 2030 12.7 L   6.845 -73.347116.2  RSN  8 0.6 1.9LRSN 2.5WRSN        1
 SPEC AVERAGE  MO 12.8 ST  5.4 OM  1.6 f0 9.33 R0.2707 AL 0.00 WI 20.0 MW  2.5 3
 SPEC SD       MO  0.1 ST  5.7 OM  0.7 f0 4.17 R0.1500 AL      WI      MW  0.1 3
 GAP=100        1.65       5.8     5.3 10.7 -0.9958E+01  0.7416E+01 -0.5908E+01E
 Epicentro: ZAPATOCA - SANTANDER                                               3
 SPEC BRR HH Z MO 12.9 ST 13.3 OM  1.1 f0 14.2 R0.1355 AL-0.00 WI 20.0 MW  2.5 3
 SPEC BRR HH Z T203041 K 0.050 GD  126 VS 5.20 DE 3.20 Q0750.0 QA 1.50 VS 5.20 3
 SPEC PAM SH Z MO 12.6 ST  2.5 OM  0.8 f0 9.78 R0.1967 AL-0.00 WI 20.0 MW  2.4 3
 SPEC PAM SH Z T203047 K 0.050 GD  146 VS 5.20 DE 3.20 Q0750.0 QA 1.50 VS 5.20 3
 SPEC PTB HH Z MO 12.9 ST0.323 OM  1.0 f0 4.01 R0.4798 AL-0.00 WI 20.0 MW  2.6 3
 SPEC PTB HH Z T203050 K 0.050 GD  172 VS 5.20 DE 3.20 Q0750.0 QA 1.50 VS 5.20 3
 OLDACT:REG 13-10-10 23:47 OP:stll STATUS:               ID:20131010202846     3
 ACTION:UPD 13-11-25 09:20 OP:ep   STATUS:               ID:20131010203012 L   I
 OLDACT:UP  13-10-11 01:05 OP:stll STATUS:               ID:20131010202846     3
 2013-10-10-2028-46M.COL___230                                                 6
 STAT SP IPHASW D HRMM SECON CODA AMPLIT PERI AZIMU VELO AIN AR TRES W  DIS CAZ7
 BAR2 SZ EP       2030 29.05                             163   -0.0810 33.3 147 
 BAR2 SZ ES       2030 42.29                             163    0.3710 33.3 147 
 BAR2 SZ I        2030 43.37        70.7 0.26            170           33.3 147 
 BRR  HZ EP       2030 29.60                             155    0.1110 49.7 306 
 BRR  HN ES       2030 42.77                             155    0.2110 49.7 306 
 BRR  SZ I        2030 55.15        13.4 0.36            155           49.7 306 
 PAM  SZ EP       2030 32.71                             140   -0.1410 90.0  53 
 PAM  SN ES       2030 48.79                             140    0.2510 90.0  53 
 PAM  SZ I        2030 50.81        10.6 0.22            148           90.0  53 
 RUS  HN ES       2030 51.10                             134   -0.3010  109 164 
 PTB  HZ EP       2030 34.46                             129   -1.0010  127 255 
 PTB  HN ES       2030 52.11                             129   -1.0710  127 255 
 PTB  SZ I        2030 57.50        13.9 0.34            133            127 255 
 SPBC HZ EP       2030 39.89                             123    1.65 9  154 211 
 SPBC HN ES       2030 58.09                             123   -0.05 9  154 211 
 SPBC SZ I        2031  3.81         5.9 0.22            129            154 211 
 CAPV BZ EP       2030 38.84                             122   -0.20 9  160  45 
 CAPV BZ ES       2030 59.18                             122   -0.38 9  160  45 
 ZAR  HN ES       2031  3.80                             118    0.76 9  182 293 
                                                                                
