 2012  110 2337 11.5 L   6.775 -73.166147.0  RSN 10 0.3 2.0LRSN                1
 GAP=135        0.60       3.2     3.2  5.1 -0.3287E-01  0.1122E+01  0.3943E+01E
 Epicentro: LOS SANTOS - SANTANDER                                             3
 ACTION:UP  12-02-03 08:16 OP:REBC STATUS:               ID:20120110233711 L   I
 2012-01-10-2330-00M.COL___186                                                 6
 STAT SP IPHASW D HRMM SECON CODA AMPLIT PERI AZIMU VELO SNR AR TRES W  DIS CAZ7
 BAR2 SZ EP       2337 31.22                             172     0.010   20 185 
 BAR2 SZ ES   2   2337 46.18                             172    -0.4 5   20 185 
 BAR2 SZ I        2337 49.07        22.5 0.34                            20 185 
 GIR2 SZ EP       2337 31.48                             166     0.110   34 355 
 BRR  HZ EP       2337 33.10                             153     0.310   71 301 
 BRR  HN ES   1   2337 49.60                             153     0.3 7   71 301 
 BRR  HZ I        2337 53.67        21.0 0.18                            71 301 
 PAM  SZ EP       2337 34.07                             150     0.010   81  39 
 PAM  SN ES   2   2337 51.30                             150    -0.4 5   81  39 
 RUS  HZ EP       2337 34.94                             145    -0.310   98 175 
 RUS  HE ES   2   2337 53.87                             145     0.2 5   98 175 
 RUS  HZ I        2337 54.96         8.7 0.28                            98 175 
 PTB  HZ EP       2337 38.09                             133    -0.2 9  145 260 
 PTB  HE ES   1   2337 59.27                             133     0.0 7  145 260 
 PTB  HZ I        2338  2.24        10.0 0.38                           145 260 
 OCA  SZ EP   2   2337 40.20                             129     0.1 5  163 354 
 OCA  SZ I        2338  6.58        15.4 0.33                           163 354 
 ZAR  HZ EP   1   2337 43.68                             123    -0.3 6  203 293 
 ZAR  HE ES   1   2338  9.13                             123    -0.1 6  203 293 
 ZAR  HZ I        2338 15.41        14.4 0.38                           203 293 
 NOR  SZ EP   1   2337 47.15                             119     0.2 6  231 235 
 NOR  SN ES   2   2338 13.95                             119    -0.6 4  231 235 
 CHI  HZ EP       2337 49.09                             118     0.2 8  245 195 
 CHI  HZ I        2337 51.01         4.4 0.40                           245 195 
 CHI  HE ES   2   2338 18.83                             118     0.7 4  245 195 
                                                                                
