 2017  210 2317 34.7 L   6.721 -73.156142.6  RSN  5 0.3 1.4LRSN                1
 GAP=139        0.62       3.5     3.3  5.4 -0.1842E+01  0.2331E+01 -0.2789E+01E
 Epicentro: VILLANUEVA - SANTANDER                                             3
 ACTION:UPD 17-05-24 15:35 OP:jn   STATUS:               ID:20170210231734 L   I
 OLDACT:REG 17-02-11 05:14 OP:dnl  STATUS:               ID:20170210230748     3
 2017-02-10-2308-00M.COL___364                                                 6
 STAT SP IPHASW D HRMM SECON CODA AMPLIT PERI AZIMU VELO AIN AR TRES W  DIS CAZ7
 BAR2 EZ ES       2318  8.87                             174    0.1510 14.6 191 
 BAR2 EZ I        2318 10.01         9.0 0.36            172           14.6 191 
 BRR  HZ EP       2317 55.78                             151    0.0410 74.8 305 
 BRR  HN ES       2318 12.47                             151    0.3410 74.8 305 
 BRR  HZ I        2318 18.84         7.4 0.32            149           74.8 305 
 PAM  EZ IP     D 2317 57.05                             148   -0.0310 85.0  36 
 PAM  EN ES       2318 14.30                             148   -0.2110 85.0  36 
 PAM  EZ I        2318 16.25         5.8 0.40            151           85.0  36 
 RUS  HZ EP   2   2317 58.26                             146    0.71 5 92.0 175 
 RUS  HN ES       2318 15.19                             146   -0.1710 92.0 175 
 RUS  HZ I        2318 17.45         1.7 0.32            150           92.0 175 
 PTB  HZ EP   2   2318  1.08                             132   -0.12 5  145 262 
 PTB  HN ES       2318 21.53                             132   -0.31 9  145 262 
 PTB  HZ I        2318 27.32         2.6 0.18            132            145 262 
                                                                                
