 2012 1210 2004  0.1 L   6.826 -73.168147.5  RSN 12 0.5 2.3LRSN                1
 GAP=132        0.95       3.3     4.7  6.3 -0.1030E+01  0.1059E+02  0.1761E+01E
 Epicentro: LOS SANTOS - SANTANDER                                             3
 ACTION:UPD 13-01-04 14:26 OP:ep   STATUS:               ID:20121210200400 L   I
 2012-12-10-2000-00M.COL___242                                                 6
 STAT SP IPHASW D HRMM SECON CODA AMPLIT PERI AZIMU VELO AIN AR TRES W  DIS CAZ7
 BAR2 SZ IP       20 4 20.17                             170    0.1310 25.9 183 
 BAR2 SZ ES   1   20 4 34.79                             170   -0.77 7 25.9 183 
 BAR2 SZ I        20 4 36.95        55.3 0.38                          25.9 183 
 GIR2 SZ EP   1   20 4 20.26                             169    0.31 7 28.1 354 
 GIR2 SZ ES   1   20 4 36.02                             169    0.63 7 28.1 354 
 GIR2 SZ I        20 4 37.39        36.5 0.60                          28.1 354 
 PAM  SZ EP       20 4 22.98                             151    0.4610 76.8  42 
 PAM  SN ES   1   20 4 40.16                             151    0.20 7 76.8  42 
 PAM  SZ I        20 4 42.42        48.1 0.56                          76.8  42 
 RUS  HZ EP   1   20 4 23.79                             143   -0.50 7  104 175 
 RUS  HN ES   1   20 4 43.19                             143    0.06 7  104 175 
 PTB  HZ EP       20 4 26.51                             133   -0.58 9  146 258 
 PTB  HN ES   1   20 4 47.27                             133   -0.84 7  146 258 
 PTB  HZ I        20 4 54.01        29.8 0.34                           146 258 
 OCA  HN ES   1   20 4 50.16                             130   -0.10 7  157 354 
 ZAR  HZ EP   1   20 4 32.54                             123    0.18 6  201 292 
 ZAR  HN ES   1   20 4 58.46                             123    0.97 6  201 292 
 ZAR  HZ I        20 5  9.00        18.8 0.38                           201 292 
 SML  HZ EP   2   20 4 35.82                             118   -0.65 4  240 336 
 SML  HE ES   1   20 5  4.39                             118   -0.42 6  240 336 
 CHI  HZ EP     C 20 4 38.44                             117    0.26 8  251 194 
 CHI  HN ES   1   20 5  7.68                             117   -0.16 6  251 194 
 CHI  HZ I        20 5 17.34         7.5 0.62                           251 194 
 HEL  HZ EP   1   20 4 41.01                             115    0.75 6  270 255 
 HEL  HN ES   1   20 5 11.47                             115   -0.09 6  270 255 
 HEL  HZ I        20 5 18.95         9.9 0.28                           270 255 
 COD  HZ EP   1   20 4 47.56                             109   -0.67 5  345 355 
 COD  HN ES   2   20 5 24.78                             109   -0.96 3  345 355 
 PRA  HZ EP   1   20 4 53.83                             107   -0.05 4  393 209 
 PRA  HN ES   1   20 5 36.58                             107    0.79 4  393 209 
 PRA  HZ I        20 5 39.92         7.4 0.38                           393 209 
                                                                                
