 2017  510 2206 59.4 L   6.778 -73.114140.0  RSN 12 0.5 2.0LRSN                1
 GAP=142        0.91       3.2     3.6  5.9 -0.1244E+01  0.6947E+01  0.4011E+01E
 Epicentro: LOS SANTOS - SANTANDER                                             3
 ACTION:UPD 17-06-16 13:34 OP:jn   STATUS:               ID:20170510220659 L   I
 OLDACT:UP  17-05-11 08:55 OP:y    STATUS:               ID:20170510215744d    3
 OLDACT:UP  17-05-11 08:55 OP:y    STATUS:               ID:20170510215744d    3
 OLDACT:UP  17-05-11 08:55 OP:y    STATUS:               ID:20170510215744d    3
 OLDACT:UP  17-05-11 08:52 OP:y    STATUS:               ID:20170510215744d    3
 OLDACT:UP  17-05-11 08:52 OP:y    STATUS:               ID:20170510215744d    3
 OLDACT:DUP 17-05-11 08:49 OP:y    STATUS:               ID:20170510215744d    3
 OLDACT:UP  17-05-11 08:49 OP:y    STATUS:               ID:20170510215743     3
 OLDACT:UP  17-05-11 08:47 OP:y    STATUS:               ID:20170510215743     3
 OLDACT:UP  17-05-11 08:47 OP:y    STATUS:               ID:20170510215743     3
 OLDACT:UP  17-05-11 08:46 OP:y    STATUS:               ID:20170510215743     3
 OLDACT:UP  17-05-11 08:46 OP:y    STATUS:               ID:20170510215743     3
 OLDACT:UP  17-05-11 08:44 OP:y    STATUS:               ID:20170510215743     3
 OLDACT:UP  17-05-11 08:43 OP:y    STATUS:               ID:20170510215743     3
 OLDACT:UP  17-05-11 08:42 OP:y    STATUS:               ID:20170510215743     3
 OLDACT:UP  17-05-11 08:42 OP:y    STATUS:               ID:20170510215743     3
 OLDACT:REG 17-05-11 06:48 OP:and  STATUS:               ID:20170510215743     3
 2017-05-10-2158-00M.COL___365                                                 6
 STAT SP IPHASW D HRMM SECON CODA AMPLIT PERI AZIMU VELO AIN AR TRES W  DIS CAZ7
 BRR  HZ EP       22 7 20.29                             150    0.1510 75.4 299 
 BRR  HN ES       22 7 36.92                             150    0.5710 75.4 299 
 BRR  HZ I        22 7 41.08        20.3 0.10            151           75.4 299 
 PAM  EZ IP     C 22 7 21.12                             150    0.1710 77.1  36 
 PAM  EN ES       22 7 37.60                             150   -0.1910 77.1  36 
 PAM  EZ I        22 7 39.96        39.0 0.54            156           77.1  36 
 RUS  HZ EP       22 7 22.05                             144   -0.3110 98.0 178 
 RUS  HN ES       22 7 40.42                             144    0.1210 98.0 178 
 RUS  HZ I        22 7 42.28        18.0 0.38            145           98.0 178 
 PTB  HZ EP   3   22 7 25.19                             130   -0.95 2  151 260 
 PTB  HN ES   2   22 7 45.40                             130   -1.63 5  151 260 
 PTB  HZ I        22 7 49.43        10.6 0.29            132            151 260 
 SPBC HZ EP       22 7 27.26                             128   -0.20 9  164 220 
 SPBC HN ES       22 7 49.37                             128   -0.00 9  164 220 
 SPBC HZ I        22 7 52.37        21.4 0.20            130            164 220 
 ZAR  HZ EP       22 7 31.42                             121   -0.45 8  208 292 
 ZAR  HN ES       22 7 57.13                             121   -0.10 8  208 292 
 ZAR  HZ I        22 7 59.11         8.6 0.20            123            208 292 
 TABC EZ EP   2   22 7 35.01                             118    0.26 4  230 212 
 TABC EZ ES       22 8  2.94                             118    0.60 8  230 212 
 TABC EZ I        22 8 10.08         9.6 0.39            121            230 212 
 NOR  HZ EP       22 7 34.59                             117   -0.33 8  236 235 
 NOR  HE ES       22 8  2.34                             117   -0.32 8  236 235 
 NOR  HZ I        22 8  9.40         7.5 0.16            119            236 235 
 CHI  HZ EP       22 7 36.37                             116   -0.22 8  247 196 
 CHI  HN ES   2   22 8  5.66                             116    0.03 4  247 196 
 CHI  HZ I        22 8  9.02         4.4 0.48            119            247 196 
 ROSC BZ EP   3   22 7 39.02                             116    1.87 2  253 212 
 ROSC BN ES   4   22 8  8.91                             116    2.29 0  253 212 
 HEL  HZ EP   2   22 7 40.73                             114    1.13 4  275 256 
 HEL  HN ES       22 8 11.47                             114    0.49 8  275 256 
 HEL  HZ I        22 8 15.10         7.5 0.30            116            275 256 
 CBOC HZ EP       22 7 47.01                             109    0.67 7  336 253 
 CBOC HN ES       22 8 22.44                             109   -0.54 7  336 253 
 CBOC HZ I        22 8 24.92         2.6 0.20            111            336 253 
                                                                                
