 2013  410 2259 30.4 L   6.310 -73.677109.3  RSN  8 0.5 1.9LRSN                1
 GAP=113        1.17       5.0     4.6 10.2 -0.5698E+01  0.2215E+02 -0.1354E+01E
 Epicentro: SANTA HELENA DEL OPON - SANTANDER                                  3
 ACTION:UPD 13-05-22 14:37 OP:EP   STATUS:               ID:20130410225930 L   I
 2013-04-10-2257-48M.COL___212                                                 6
 STAT SP IPHASW D HRMM SECON CODA AMPLIT PERI AZIMU VELO AIN AR TRES W  DIS CAZ7
 BAR2 SZ EP       2259 47.82                             148    0.2510 63.0  60 
 BAR2 SZ ES   1   23 0  1.12                             148    0.19 7 63.0  60 
 RUS  HZ IP     D 2259 48.92                             141   -0.2310 80.3 125 
 RUS  HN ES   1   23 0  3.71                             141   -0.04 7 80.3 125 
 RUS  HZ I        23 0  4.99         6.6 0.18            150           80.3 125 
 BRR  HZ IP     C 2259 49.17                             138    0.0810 88.2 357 
 BRR  HN ES   1   23 0  3.55                             138   -0.09 7 88.2 357 
 PTB  HZ IP     C 2259 48.28                             137   -0.9710 89.9 286 
 PTB  HN ES   2   23 0  3.25                             137   -0.67 5 89.9 286 
 PTB  HZ I        23 0  8.25        15.7 0.10            137           89.9 286 
 GIR2 SZ EP       2259 50.77                             134    0.4510  100  32 
 GIR2 SZ ES   1   23 0  5.90                             134    0.07 7  100  32 
 GIR2 SZ I        23 0  7.18        21.1 0.56            137            100  32 
 NOR  HZ EP       2259 54.89                             121   -0.69 9  156 238 
 NOR  HN ES   1   23 0 15.44                             121    0.24 7  156 238 
 NOR  HZ I        23 0 19.75        18.0 0.12            123            156 238 
 HEL  HZ EP       23 0  1.99                             113    0.59 8  205 266 
 HEL  HN ES       23 0 26.57                             113    1.01 8  205 266 
 HEL  HZ I        23 0 28.55         9.2 0.32            115            205 266 
 SML  HZ EP   1   23 0  9.51                             106    0.10 6  279 351 
 SML  HE ES   1   23 0 39.14                             106   -0.67 6  279 351 
 SML  HZ I        23 0 49.47         9.9 0.10            108            279 351 
                                                                                
