 2014  710 2321 45.0 L   6.761 -73.140131.7  RSN  7 0.3 1.4LRSN                1
 GAP=201        0.75       3.4     4.6  6.0  0.4812E+01 -0.5983E+00 -0.5836E+01E
 Epicentro: LOS SANTOS - SANTANDER                                             3
 ACTION:UPD 15-03-16 20:42 OP:nd   STATUS:               ID:20140710232145 L   I
 OLDACT:REG 14-07-11 06:06 OP:spq  STATUS:               ID:20140710231816     3
 2014-07-10-2318-16M.COL___259                                                 6
 STAT SP IPHASW D HRMM SECON CODA AMPLIT PERI AZIMU VELO AIN AR TRES W  DIS CAZ7
 BAR2 SZ ES   1   2322 16.72                             171   -0.04 7 19.3 194 
 BAR2 SZ I        2322 18.86         7.0 0.28            166           19.3 194 
 BRR  HZ EP       2322  4.76                             149   -0.0210 73.8 301 
 BRR  HE ES       2322 20.02                             149   -0.2210 73.8 301 
 RUS  HZ EP       2322  7.44                             142    0.4010 96.3 176 
 RUS  HE ES   1   2322 24.10                             142   -0.15 7 96.3 176 
 RUS  HZ I        2322 25.98         1.5 0.20            140           96.3 176 
 PTB  HZ EP       2322 10.16                             129   -0.65 9  148 261 
 PTB  HN ES       2322 31.20                             129    0.23 9  148 261 
 PTB  HZ I        2322 33.67         1.7 0.12            126            148 261 
 SPBC HE ES   1   2322 33.56                             126    0.23 7  160 220 
 SPBC HZ I        2322 40.59         7.8 0.22            124            160 220 
 ZAR  HN ES       2322 41.66                             119    0.08 8  206 293 
 ZAR  HZ I        2322 47.58         2.2 0.34            118            206 293 
 SML  HZ EP       2322 21.11                             114   -0.20 8  248 336 
 SML  HN ES       2322 50.11                             114    0.46 8  248 336 
 SML  HZ I        2322 51.11         3.6 0.10            114            248 336 
                                                                                
