 2014  811 0432 10.7 L   6.788 -73.156151.0  RSN  8 0.4 1.7LRSN                1
 GAP=136        1.09       4.0     5.3  6.8 -0.2717E+01  0.7200E+01 -0.3613E+01E
 Epicentro: LOS SANTOS - SANTANDER                                             3
 ACTION:UPD 14-09-15 21:48 OP:nd   STATUS:               ID:20140811043210 L   I
 OLDACT:UP  14-08-11 15:28 OP:cam  STATUS:               ID:20140811043000     3
 OLDACT:REG 14-08-11 13:40 OP:cam  STATUS:               ID:20140811043000     3
 2014-08-11-0430-00M.COL___285                                                 6
 STAT SP IPHASW D HRMM SECON CODA AMPLIT PERI AZIMU VELO AIN AR TRES W  DIS CAZ7
 BAR2 SZ EP        432 30.82                             171   -0.0610 21.9 188 
 BAR2 SZ ES        432 46.39                             171   -0.2710 21.9 188 
 BAR2 SZ I         432 48.43         7.4 0.32            170           21.9 188 
 BRR  HZ EP        432 32.61                             153    0.2610 70.8 300 
 BRR  HN ES        432 50.20                             153    0.9310 70.8 300 
 BRR  HZ I         432 53.60         5.0 0.10            151           70.8 300 
 PAM  SZ EP     C  432 33.61                             151    0.0910 79.1  40 
 PAM  SN ES        432 51.34                             151   -0.0210 79.1  40 
 PAM  SZ I         432 52.99         8.4 0.46            155           79.1  40 
 RUS  HZ EP        432 35.26                             145    0.4310 99.4 175 
 RUS  HE ES        432 53.06                             145   -0.6310 99.4 175 
 RUS  HZ I         432 54.59         3.9 0.32            148           99.4 175 
 PTB  HZ EP        432 37.82                             133   -0.11 9  146 259 
 PTB  HN ES        432 58.88                             133   -0.32 9  146 259 
 PTB  HZ I         433  4.65         5.9 0.42            133            146 259 
 SPBC HZ EP        432 39.78                             130    0.39 9  161 219 
 SPBC HN ES        433  1.73                             130   -0.08 9  161 219 
 SPBC HZ I         433  7.40         6.7 0.54            131            161 219 
 SML  HZ EP        432 47.49                             118   -0.16 8  244 336 
 SML  HE ES        433 15.71                             118   -0.80 8  244 336 
 SML  HZ I         433 18.83         9.9 0.10            120            244 336 
 PRA  HZ EP   4    433  5.25                             107    1.09 0  390 210 
 SJC  HZ EP   4    433  4.46                             106   -1.99 0  410 327 
 SJC  HN ES   4    433 48.07                             106   -1.89 0  410 327 
 SJC  HN I         433 52.04         1.9 0.22            108            410 327 
                                                                                
