 2015  111 0438 40.9 L   6.837 -73.186152.2  RSN  9 0.5 1.9LRSN                1
 GAP=185        1.08       3.3     5.8  6.2  0.6437E+00  0.2448E+01 -0.1518E+01E
 Epicentro: ZAPATOCA - SANTANDER                                               3
 ACTION:UPD 15-03-02 15:38 OP:nd   STATUS:               ID:20150111043840 L   I
 OLDACT:REG 15-01-11 13:29 OP:cam  STATUS:               ID:20150111043816     3
 2015-01-11-0438-16M.COL___253                                                 6
 STAT SP IPHASW D HRMM SECON CODA AMPLIT PERI AZIMU VELO AIN AR TRES W  DIS CAZ7
 BAR2 EZ EP        439  1.15                             169   -0.2310 27.1 179 
 BAR2 EZ ES        439 16.71                             169   -0.6410 27.1 179 
 BAR2 EZ I         439 18.26         8.3 0.20            168           27.1 179 
 BRR  HZ IP     D  439  2.80                             155    0.3710 65.3 297 
 BRR  HN ES        439 19.80                             155    0.5710 65.3 297 
 BRR  HZ I         439 23.36        12.4 0.54            150           65.3 297 
 PTB  HZ EP        439  7.57                             134   -0.51 9  144 257 
 PTB  HN ES        439 29.69                             134    0.40 9  144 257 
 PTB  HZ I         439 33.69         7.5 0.26            131            144 257 
 OCA  HZ EP        439 10.11                             132    0.82 9  156 355 
 OCA  HN ES        439 31.10                             132   -0.34 9  156 355 
 OCA  HN I         439 35.65        21.5 0.32            132            156 355 
 SPBC HZ EP        439 10.15                             130    0.21 9  164 217 
 SPBC HN ES        439 32.78                             130    0.18 9  164 217 
 SPBC HZ I         439 39.70         6.9 0.18            130            164 217 
 ZAR  HZ EP        439 13.61                             124    0.42 9  198 292 
 ZAR  HN ES        439 38.05                             124   -0.33 9  198 292 
 ZAR  HZ I         439 44.47         6.5 0.30            123            198 292 
 SML  HZ EP        439 17.33                             119    0.04 8  238 336 
 SML  HN ES   1    439 45.39                             119   -0.29 6  238 336 
 SML  HZ I         439 52.69        10.2 0.10            119            238 336 
 CHI  HZ EP        439 19.39                             118    0.13 8  252 194 
 CHI  HN ES        439 48.89                             118   -0.30 8  252 194 
 CHI  HZ I         439 51.88         2.4 0.30            119            252 194 
 MON  HZ EP        439 28.48                             110   -0.97 6  348 308 
 MON  HN ES        440  6.92                             110   -0.41 6  348 308 
 MON  HZ I         440 21.45         2.2 0.58            110            348 308 
                                                                                
