 2014  511 0523 55.2 L   6.816 -73.170143.0  RSN 14 0.5 2.5LRSN                1
 GAP=133        1.22       3.0     4.4  7.5 -0.2568E+01  0.1080E+02  0.1826E+01E
 Epicentro: LOS SANTOS - SANTANDER                                             3
 ACTION:UPD 15-03-16 16:56 OP:nd   STATUS:               ID:20140511052355 L   I
 OLDACT:REG 14-05-11 15:29 OP:carl STATUS:               ID:20140511051806     3
 2014-05-11-0518-06M.COL___242                                                 6
 STAT SP IPHASW D HRMM SECON CODA AMPLIT PERI AZIMU VELO AIN AR TRES W  DIS CAZ7
 PAM  SZ EP        524 17.51                             150    0.3210 77.8  42 
 PAM  SN ES        524 34.12                             150   -0.1810 77.8  42 
 PAM  SZ I         524 36.44        29.7 0.56            156           77.8  42 
 RUS  HZ EP        524 18.77                             143   -0.1010  103 175 
 RUS  HE ES        524 37.19                             143   -0.1110  103 175 
 RUS  HZ I         524 39.86        38.9 0.76            146            103 175 
 PTB  HZ EP        524 21.08                             132   -0.69 9  145 258 
 PTB  HN ES        524 42.23                             132   -0.24 9  145 258 
 PTB  HZ I         524 44.74        37.0 0.46            132            145 258 
 OCA  HZ EP        524 22.93                             129   -0.21 9  158 354 
 OCA  HN ES        524 46.37                             129    1.47 9  158 354 
 OCA  HZ I         524 47.44        40.3 0.22            132            158 354 
 SPBC HZ EP        524 23.56                             128    0.06 9  163 218 
 SPBC HN ES        524 45.07                             128   -0.48 9  163 218 
 SPBC HZ I         524 50.64        40.0 0.24            130            163 218 
 ZAR  HZ EP        524 27.00                             122   -0.18 9  201 292 
 ZAR  HN ES        524 52.19                             122    0.10 9  201 292 
 ZAR  HZ I         525  0.80        34.3 0.12            124            201 292 
 NOR  HZ EP        524 31.05                             118    0.36 8  234 234 
 NOR  HN ES        524 58.89                             118    0.55 8  234 234 
 NOR  HZ I         525  0.79        17.0 0.16            120            234 234 
 SML  HZ EP        524 30.87                             117   -0.54 8  241 336 
 SML  HE ES        524 58.25                             117   -1.37 8  241 336 
 SML  HZ I         525  1.18        36.9 0.24            120            241 336 
 CHI  HZ EP        524 33.05                             116    0.15 8  250 194 
 CHI  HN ES        525  2.55                             116    0.27 8  250 194 
 CHI  HZ I         525 10.12        16.0 0.40            119            250 194 
 HEL  HZ EP        524 35.58                             114    0.51 8  270 255 
 HEL  HN ES        525  6.19                             114    0.05 8  270 255 
 HEL  HZ I         525 14.43        11.9 0.26            116            270 255 
 URE  HZ EP   4    524 34.87                             113   -0.95 0  281 292 
 URE  HN ES   4    525  5.25                             113   -2.22 0  281 292 
 URE  HZ I         525 18.31        30.9 0.20            115            281 292 
 CBOC HZ EP        524 42.59                             109    0.78 7  332 252 
 CBOC HN ES        525 18.67                             109    0.54 7  332 252 
 PRA  HZ EP        524 48.65                             106   -0.05 6  392 209 
 PRA  HN ES        525 29.81                             106   -0.58 6  392 209 
 PRA  HZ I         525 35.49        19.1 0.72            108            392 209 
 ORTC HZ EP        524 48.91                             106   -0.14 6  395 216 
 ORTC HN ES        525 30.82                             106   -0.20 6  395 216 
 ORTC HZ I         525 37.48         9.4 0.42            108            395 216 
                                                                                
