 2017  911 0109  1.4 L   6.761 -73.040150.1  RSN  4 0.3 1.6LRSN                1
 GAP=246        0.64       5.1     8.7  7.4  0.9549E+01  0.5952E+01 -0.2272E+01E
 Epicentro: LOS SANTOS - SANTANDER                                             3
 ACTION:UPD 17-10-05 19:11 OP:rebc STATUS:               ID:20170911010901 L   I
 OLDACT:UP  17-09-11 16:07 OP:mg   STATUS:               ID:20170911010739     3
 OLDACT:REG 17-09-11 12:33 OP:mg   STATUS:               ID:20170911010739     3
 2017-09-11-0108-00M.COL___416                                                 6
 STAT SP IPHASW D HRMM SECON CODA AMPLIT PERI AZIMU VELO AIN AR TRES W  DIS CAZ7
 BAR2 EZ EP   2    1 9 21.14                             171   -0.44 5 24.4 220 
 BAR2 EZ ES   1    1 9 37.72                             171    0.41 7 24.4 220 
 BRR  HZ EP        1 9 24.00                             149    0.2510 83.5 297 
 BRR  HN ES   1    1 9 40.79                             149   -0.38 7 83.5 297 
 BRR  HZ I         1 9 44.89         4.4 0.10            146           83.5 297 
 RUS  HZ EP   2    1 9 24.73                             146   -0.55 5 96.2 183 
 RUS  HN ES   1    1 9 43.77                             146   -0.12 7 96.2 183 
 SPBC HZ EP   2    1 9 31.07                             129    0.42 5  168 223 
 SPBC HN ES   1    1 9 53.39                             129   -0.08 7  168 223 
 SPBC HZ I         1 9 55.14         7.2 0.05            129            168 223 
                                                                                
