 2015  711 0626 59.1 L   6.748 -73.150134.3  RSN  6 0.3 1.7LRSN                1
 GAP=198        0.70       3.3     5.3  7.5 -0.1878E+01  0.1722E+02  0.3266E+01E
 Epicentro: LOS SANTOS - SANTANDER                                             3
 ACTION:UPD 15-09-08 21:48 OP:cam  STATUS:               ID:20150711062658 L   I
 OLDACT:DUP 15-07-11 19:12 OP:spq  STATUS:               ID:20150711061749d    3
 2015-07-11-0617-48M.COL___336                                                 6
 STAT SP IPHASW D HRMM SECON CODA AMPLIT PERI AZIMU VELO AIN AR TRES W  DIS CAZ7
 BAR2 EZ EP        627 16.77                             172   -0.4410 17.6 192 
 BAR2 EZ ES   1    627 31.58                             172    0.22 7 17.6 192 
 BAR2 EZ I         627 32.92         7.4 0.28            170           17.6 192 
 OCA  HZ EP   4    627 25.22                             126   -1.84 0  166 354 
 OCA  HN ES        627 49.23                             126    0.33 9  166 354 
 OCA  HZ I         627 54.04        11.4 0.36            125            166 354 
 ZAR  HZ EP        627 30.63                             119   -0.35 8  206 294 
 ZAR  HE ES        627 55.84                             119   -0.04 8  206 294 
 ZAR  HZ I         628  1.85         6.3 0.32            118            206 294 
 NOR  HE ES        628  0.96                             116    0.14 8  231 236 
 NOR  HZ I         628  7.00         3.0 0.08            116            231 236 
 PRA  HZ EP        627 52.04                             105    0.44 6  387 210 
 PRA  HN ES   1    628 33.00                             105    0.42 4  387 210 
 PRA  HZ I         628 38.08         1.5 0.34            105            387 210 
 SJC  HZ EP   4    627 51.58                             104   -3.23 0  414 327 
 SJC  HN ES   4    628 34.58                             104   -3.71 0  414 327 
 SJC  HZ I         628 44.15         1.0 0.64            103            414 327 
                                                                                
