 2011  611 0426 16.9 L   6.833 -73.105146.8  RSN  5 0.2 1.3LRSN                1
 GAP=163        0.55       3.6     5.9  6.6 -0.5504E+01 -0.4291E-02 -0.4847E+01E
 Epicentro: LOS SANTOS - SANTANDER                                             3
 ACTION:UP  11-07-14 19:04 OP:ep   STATUS:               ID:20110611042616 L   I
 2011-06-11-0425-50S.COL___133                                                 6
 STAT SP IPHASW D HRMM SECON CODA AMPLIT PERI AZIMU VELO SNR AR TRES W  DIS CAZ7
 BAR2 SZ EP   1    426 36.39                             169    -0.3 7   28 198 
 BAR2 SZ ES   1    426 51.95                             169    -0.3 7   28 198 
 BAR2 SZ I         426 53.40         4.6 0.20                            28 198 
 BRR  HZ EP   1    426 38.19                             152    -0.1 7   74 294 
 BRR  HE ES   1    426 55.02                             152     0.1 7   74 294 
 BRR  HZ I         426 55.97         5.2 0.15                            74 294 
 RUS  HN ES   1    427  0.05                             143     0.3 7  104 179 
 RUS  HZ I         427  1.23         3.2 0.30                           104 179 
 GRA  SZ EP   1    426 41.84                             138     0.0 7  121  16 
 GRA  SZ ES   1    427  1.53                             138     0.3 7  121  16 
 GRA  SZ I         427  2.53         2.1 0.34                           121  16 
 NOR  SE ES   2    427 21.88                             118     0.2 4  240 234 
                                                                                
