 2011  911 0406 38.0 L   6.506 -73.511112.0  RSN  5 0.3 1.2LRSN                1
 GAP=196        0.47       6.2    10.6 10.3 -0.1156E+02  0.4777E+02  0.1206E+02E
 Epicentro: SIMACOTA - SANTANDER                                               3
 ACTION:UPD 12-07-13 15:56 OP:ep   STATUS:               ID:20110911040638 L   I
 2011-09-11-0400-00M.COL___169                                                 6
 STAT SP IPHASW D HRMM SECON CODA AMPLIT PERI AZIMU VELO AIN AR TRES W  DIS CAZ7
 BAR2 SZ EP   1    4 6 54.23                             160    0.20 7 37.6  75 
 BAR2 SZ I         4 6 54.60         9.4 0.25                          37.6  75 
 BAR2 SZ ES   2    4 7  6.21                             160   -0.36 5 37.6  75 
 BRR  HZ EP   2    4 6 55.18                             145   -0.33 5 70.1 342 
 BRR  HZ I         4 7  1.41         7.2 0.11                          70.1 342 
 GIR2 SZ EP   2    4 6 55.87                             145    0.00 5 72.4  29 
 GIR2 SZ ES   2    4 7 10.32                             145    0.48 5 72.4  29 
 RUS  HZ EP   2    4 6 57.12                             141    0.00 5 82.7 145 
 RUS  HZ I         4 7  4.16         1.6 0.64                          82.7 145 
 PAM  SN ES   2    4 7 18.93                             128   -0.27 5  129  44 
                                                                                
