 2016  311 0203  2.9 L   6.811 -73.339126.9  RSN  4 0.3 1.1LRSN                1
 GAP=130        0.73       3.7     4.1  7.1  0.1665E+01  0.8307E+01 -0.2452E+01E
 Epicentro: ZAPATOCA - SANTANDER                                               3
 ACTION:UPD 16-05-13 21:23 OP:cam  STATUS:               ID:20160311020302 L   I
 OLDACT:DUP 16-03-11 14:59 OP:cara STATUS:               ID:20160311015753d    3
 OLDACT:UP  16-03-11 14:57 OP:cara STATUS:               ID:20160311015752     3
 OLDACT:UP  16-03-11 14:55 OP:cara STATUS:               ID:20160311015752     3
 OLDACT:UP  16-03-11 14:50 OP:cara STATUS:               ID:20160311015752     3
 OLDACT:UP  16-03-11 14:49 OP:cara STATUS:               ID:20160311015752     3
 OLDACT:UP  16-03-11 14:48 OP:cara STATUS:               ID:20160311015752     3
 OLDACT:REG 16-03-11 12:48 OP:cara STATUS:               ID:20160311015752     3
 2016-03-11-0157-52M.COL___274                                                 6
 STAT SP IPHASW D HRMM SECON CODA AMPLIT PERI AZIMU VELO AIN AR TRES W  DIS CAZ7
 BAR2 EZ IP        2 3 20.78                             166    0.3010 29.8 144 
 BAR2 EZ ES        2 3 33.91                             166   -0.2510 29.8 144 
 BAR2 EZ I         2 3 35.03         8.2 0.38            169           29.8 144 
 PAM  EZ EP        2 3 24.31                             142    0.1110 91.7  50 
 PAM  EE ES        2 3 40.75                             142   -0.0310 91.7  50 
 PAM  EZ I         2 3 42.47         1.8 0.38            145           91.7  50 
 RUS  HZ EP        2 3 24.80                             138   -0.4810  105 164 
 RUS  HN ES        2 3 43.03                             138    0.3210  105 164 
 RUS  HZ I         2 3 44.28         0.9 0.28            141            105 164 
 ZAR  HE ES        2 3 54.84                             121    0.02 9  184 294 
 ZAR  HZ I         2 3 58.96         1.9 0.30            121            184 294 
                                                                                
