 2015  711 0850 45.5 L   6.811 -73.131143.0  RSN 18 0.5 2.5LRSN                1
 GAP=138        0.97       2.8     4.3  6.5 -0.3197E+01  0.1365E+02  0.1332E+01E
 Epicentro: LOS SANTOS - SANTANDER                                             3
 ACTION:UPD 15-09-08 21:48 OP:cam  STATUS:               ID:20150711085045 L   I
 OLDACT:UP  15-07-27 09:46 OP:SPQ  STATUS:               ID:20150711085045 L   3
 OLDACT:REG 15-07-11 12:41 OP:spq  STATUS:               ID:20150711084749     3
 2015-07-11-0847-49M.COL___337                                                 6
 STAT SP IPHASW D HRMM SECON CODA AMPLIT PERI AZIMU VELO AIN AR TRES W  DIS CAZ7
 BAR2 EZ IP     C  851  4.78                             170   -0.0210 24.9 193 
 BAR2 EZ ES   1    851 19.91                             170    0.03 7 24.9 193 
 BAR2 EZ I         851 20.82        26.0 0.20            167           24.9 193 
 PAM  EZ EP        851  7.80                             151    0.5310 75.3  39 
 PAM  EN ES        851 24.63                             151    0.3510 75.3  39 
 PAM  EZ I         851 26.67        70.9 0.48            156           75.3  39 
 RUS  HZ EP   1    851  8.75                             143   -0.29 7  102 177 
 RUS  HN ES   1    851 27.13                             143   -0.29 7  102 177 
 RUS  HZ I         851 28.51        33.6 0.35            144            102 177 
 OCA  HZ EP     D  851 13.06                             129   -0.41 9  159 352 
 OCA  HN ES        851 34.62                             129   -0.69 9  159 352 
 OCA  HZ I         851 36.82        61.4 0.58            132            159 352 
 ZAR  HZ EP        851 18.28                             122    0.43 9  205 292 
 ZAR  HN ES        851 43.67                             122    0.57 9  205 292 
 ZAR  HZ I         851 48.79        48.6 0.44            123            205 292 
 NOR  HZ EP        851 20.90                             118   -0.37 8  237 234 
 NOR  HN ES        851 48.67                             118   -0.52 8  237 234 
 NOR  HZ I         851 54.44        15.7 0.52            118            237 234 
 SML  HZ EP        851 21.14                             117   -0.76 8  243 335 
 SML  HN ES   1    851 50.72                             117    0.41 6  243 335 
 SML  HZ I         851 52.74        29.2 0.26            119            243 335 
 CHI  HZ EP   1    851 23.52                             116    0.32 6  250 195 
 CHI  HN ES   1    851 52.45                             116   -0.18 6  250 195 
 CHI  HZ I         851 56.61        10.1 0.42            118            250 195 
 ROSC BN ES   4    851 54.58                             116    1.14 0  255 211 
 ROSC BZ I         852  0.98        34.1 0.50            117            255 211 
 HEL  HZ EP   4    851 26.94                             114    1.18 0  274 256 
 HEL  HN ES   1    851 56.76                             114   -0.42 6  274 256 
 HEL  HZ I         852  3.57        15.1 0.42            115            274 256 
 SOCV BZ EP   4    851 26.75                             112   -1.41 0  299  57 
 SOCV BN ES   4    851 58.71                             112   -2.74 0  299  57 
 GUY2CHZ EP        851 29.92                             112    0.73 7  303 235 
 GUY2CHE ES        852  3.89                             112    0.60 7  303 235 
 GUY2CHZ I         852  9.93        12.2 0.46                           303 235 
 PTGC HZ EP   4    851 28.04                             111   -1.23 0  309 159 
 PTGC HE ES   4    852  1.02                             111   -2.41 0  309 159 
 PTGC HZ I         852  3.60        23.0 0.40            113            309 159 
 CBOC HZ EP        851 33.34                             109    0.84 7  336 252 
 CBOC HN ES        852  8.62                             109   -0.56 7  336 252 
 CBOC HZ I         852 12.58         4.5 0.24            110            336 252 
 TOL  SZ EP   4    851 34.93                             109    1.07 0  346 225 
 TOL  SN ES        852 11.61                             109    0.01 6  346 225 
 TOL  SZ I         852 17.07        10.5 0.24            110            346 225 
 MON  HZ EP   4    851 32.67                             108   -1.76 0  354 308 
 MON  HE ES   4    852 11.36                             108   -1.25 0  354 308 
 MON  HZ I         852 11.98        10.0 0.18            109            354 308 
 PRA  HZ EP        851 38.86                             106   -0.26 6  394 210 
 PRA  HN ES        852 20.79                             106   -0.18 6  394 210 
 PRA  HZ I         852 28.11         9.8 0.36            107            394 210 
 ORTC HN ES   1    852 21.60                             106   -0.10 4  397 216 
 ORTC HZ I         852 26.64         9.6 0.46            107            397 216 
 SJC  HZ EP   4    851 39.18                             105   -1.75 0  409 327 
 SJC  HN ES   4    852 21.25                             105   -2.93 0  409 327 
 SJC  HZ I         852 24.77         5.9 0.40            107            409 327 
                                                                                
