 2017  111 0922  1.1 L   6.785 -73.148141.3  RSN  5 0.3 0.9LRSN                1
 GAP=137        0.77       4.4     4.5  6.6 -0.1439E+01  0.1093E+02  0.1171E+01E
 Epicentro: LOS SANTOS - SANTANDER                                             3
 ACTION:UPD 17-05-22 15:58 OP:jn   STATUS:               ID:20170111092201 L   I
 OLDACT:DUP 17-01-11 18:16 OP:and  STATUS:               ID:20170111091745d    3
 OLDACT:UP  17-01-11 18:16 OP:and  STATUS:               ID:20170111091744     3
 OLDACT:UP  17-01-11 18:15 OP:and  STATUS:               ID:20170111091744     3
 OLDACT:UP  17-01-11 18:15 OP:and  STATUS:               ID:20170111091744     3
 OLDACT:UP  17-01-11 18:14 OP:and  STATUS:               ID:20170111091744     3
 OLDACT:UP  17-01-11 18:12 OP:and  STATUS:               ID:20170111091744     3
 OLDACT:REG 17-01-11 13:00 OP:and  STATUS:               ID:20170111091744     3
 2017-01-11-0918-00M.COL___337                                                 6
 STAT SP IPHASW D HRMM SECON CODA AMPLIT PERI AZIMU VELO AIN AR TRES W  DIS CAZ7
 BAR2 EZ EP        922 20.26                             171    0.0510 21.6 190 
 BAR2 EZ ES        922 34.96                             171   -0.1210 21.6 190 
 BRR  HZ EP        922 22.07                             151    0.2210 71.7 300 
 BRR  HN ES   2    922 38.95                             151    0.95 5 71.7 300 
 PAM  EN ES        922 39.82                             149   -0.2010 78.9  39 
 RUS  HZ EP        922 24.11                             143   -0.2410 98.9 176 
 RUS  HN ES        922 42.67                             143    0.2310 98.9 176 
 PTB  HZ EP        922 27.97                             131    0.27 9  147 259 
 PTB  HN ES        922 47.93                             131   -0.48 9  147 259 
 PTB  HZ I         922 57.38         1.1 0.42            129            147 259 
                                                                                
