 2011  611 0620 48.6 L   6.801 -73.050148.0  RSN  4 0.2 1.5LRSN                1
 GAP=247        0.56       5.0     6.7  6.4  0.5269E+01  0.1622E+02  0.3795E+01E
 Epicentro: LOS SANTOS - SANTANDER                                             3
 ACTION:UP  11-07-14 19:04 OP:ep   STATUS:               ID:20110611062048 L   I
 2011-06-11-0619-35S.COL___133                                                 6
 STAT SP IPHASW D HRMM SECON CODA AMPLIT PERI AZIMU VELO SNR AR TRES W  DIS CAZ7
 BAR2 SZ EP   1    621  8.64                             169     0.1 7   27 212 
 BAR2 SZ ES   1    621 23.77                             169    -0.4 7   27 212 
 BAR2 SZ I         621 25.22         7.0 0.19                            27 212 
 BRR  HZ EP   1    621 10.39                             150    -0.1 7   81 295 
 BRR  HZ I         621 18.20         7.2 0.53                            81 295 
 BRR  HN ES   1    621 27.92                             150     0.3 7   81 295 
 RUS  HN ES   1    621 31.49                             144     0.2 7  101 182 
 RUS  HZ I         621 32.95         4.3 0.47                           101 182 
 NOR  SZ EP   1    621 25.41                             118     0.0 6  243 236 
 NOR  SE ES   1    621 53.97                             118    -0.1 6  243 236 
                                                                                
