 2010  611 0731 53.3 L   6.821 -73.136140.0  RSN 12 0.4 2.5LRSN                1
 GAP=156        0.97       3.4     6.6  7.2 -0.1186E+02  0.2010E+02 -0.4867E+00E
 Epicentro: LOS SANTOS - SANTANDER                                             3
 ACTION:UP  10-08-24 10:09 OP:vdl  STATUS:               ID:20100611073153 L   I
 2010-06-11-0730-21S.COL___117                                                 6
 STAT SP IPHASW D HRMM SECON CODA AMPLIT PERI AZIMU VELO SNR AR TRES W  DIS CAZ7
 BAR2 SZ IP        732 12.34                             169     0.110   26 192 
 BAR2 SZ ES   1    732 26.85                             169    -0.2 7   26 192 
 RUS  HZ IP     C  732 16.30                             142    -0.310  103 177 
 RUS  HE ES   1    732 35.21                             142     0.4 7  103 177 
 RUS  HZ I         732 36.19        35.0 0.16                           103 177 
 BRI  SZ IP        732 16.91                             141     0.510  106  21 
 BRI  SZ ES   1    732 35.37                             141     0.9 7  106  21 
 GUE  SZ EP        732 17.32                             139     0.110  114  12 
 GUE  SZ ES   1    732 35.44                             139    -0.5 7  114  12 
 GRA  SZ IP        732 17.15                             136    -0.610  123  17 
 GRA  SZ ES   1    732 36.59                             136    -0.3 7  123  17 
 OCA  SZ EP        732 20.76                             129    -0.2 9  158 353 
 OCA  SZ ES   1    732 42.97                             129     0.5 7  158 353 
 OCA  SZ I         732 46.31        27.0 0.33                           158 353 
 CHI  HZ EP        732 30.55                             116    -0.4 8  251 195 
 CHI  HE ES   2    732 59.95                             116    -0.3 4  251 195 
 CHI  HZ I         733  9.83        17.0 0.39                           251 195 
 ROSC BZ EP   1    732 32.17                             115     0.8 6  255 211 
 ROSC BN ES   1    733  1.13                             115     0.1 6  255 211 
 ROSC BZ I         733  7.15        26.8 0.46                           255 211 
 HEL  HZ EP   1    732 33.65                             114     0.3 6  274 255 
 HEL  HE ES   1    733  4.37                             114    -0.3 6  274 255 
 HEL  HZ I         733 11.16        20.3 0.41                           274 255 
 RREF BZ EP   1    732 39.66                             110     0.2 5  324 229 
 RREF BE ES        733 15.51                             110     0.1 7  324 229 
 RREF BZ I         733 26.67        23.1 0.19                           324 229 
 DBB  SZ EP   1    732 40.00                             108    -0.6 5  340 274 
 TOL  SZ EP   1    732 42.06                             108     0.5 5  346 224 
                                                                                
