 2014  111 0654  1.4 L   6.813 -73.129140.0  RSN 12 0.5 1.6LRSN                1
 GAP=138        1.09       3.3     4.1  6.3 -0.2292E+01  0.1150E+02  0.1970E+01E
 Epicentro: LOS SANTOS - SANTANDER                                             3
 ACTION:UPD 14-03-13 09:54 OP:ep   STATUS:               ID:20140111065401 L   I
 OLDACT:REG 14-01-11 09:39 OP:carl STATUS:               ID:20140111065000     3
 2014-01-11-0650-00M.COL___285                                                 6
 STAT SP IPHASW D HRMM SECON CODA AMPLIT PERI AZIMU VELO AIN AR TRES W  DIS CAZ7
 BAR2 SZ EP        654 20.35                             169    0.0010 25.1 194 
 BAR2 SZ ES        654 34.82                             169   -0.3310 25.1 194 
 BAR2 SZ I         654 36.44        16.9 0.16            167           25.1 194 
 PAM  SZ EP        654 23.29                             151    0.4610 75.0  39 
 PAM  SN ES        654 40.18                             151    0.6110 75.0  39 
 PAM  SZ I         654 41.55         7.2 0.20            155           75.0  39 
 RUS  HZ EP        654 24.27                             142   -0.3910  102 177 
 RUS  HN ES        654 42.99                             142    0.1710  102 177 
 RUS  HZ I         654 44.90         3.6 0.28            143            102 177 
 PTB  HZ EP        654 27.32                             130   -0.75 9  150 258 
 PTB  HE ES        654 48.93                             130    0.03 9  150 258 
 PTB  HZ I         654 50.69         7.9 0.20            130            150 258 
 OCA  HN ES        654 50.11                             129   -0.66 9  159 352 
 SPBC HZ EP        654 29.46                             127   -0.20 9  166 219 
 SPBC HE ES        654 52.27                             127    0.55 9  166 219 
 SPBC HZ I         654 55.95         8.1 0.26            128            166 219 
 ZAR  HZ EP        654 33.75                             121    0.18 8  205 292 
 ZAR  HN ES        654 58.48                             121   -0.21 8  205 292 
 NOR  HZ EP        654 36.23                             117   -0.80 8  237 234 
 NOR  HE ES        655  4.75                             117   -0.10 8  237 234 
 NOR  HZ I         655 10.14         4.4 0.38            118            237 234 
 CHI  HZ EP        654 38.75                             116   -0.21 8  251 196 
 CHI  HN ES        655  7.99                             116   -0.30 8  251 196 
 CHI  HZ I         655 13.94         1.9 0.24            117            251 196 
 HEL  HZ EP        654 42.28                             113    0.74 8  274 256 
 HEL  HN ES        655 13.23                             113    0.36 8  274 256 
 HEL  HZ I         655 20.78         3.4 0.38            114            274 256 
 GUY2CHZ EP        654 45.08                             111    0.09 7  304 235 
 GUY2CHN ES        655 18.77                             111   -0.24 7  304 235 
 GUY2CHZ I         655 27.78         2.0 0.44                           304 235 
 CBOC HZ EP        654 49.40                             109    1.09 7  336 252 
 CBOC HN ES        655 25.52                             109    0.59 7  336 252 
 CBOC HZ I         655 34.09         1.1 0.30            110            336 252 
                                                                                
