 2011  711 0944 51.6 L   6.726 -73.140152.5  RSN  5 0.2 1.2LRSN                1
 GAP=160        0.40       2.4     3.7  5.3 -0.2791E+01 -0.1252E+01  0.4639E+00E
 Epicentro: JORDAN - SANTANDER                                                 3
 ACTION:UPD 12-07-25 14:00 OP:epov STATUS:               ID:20110711094451 L   I
 2011-07-11-0940-00M.COL___130                                                 6
 STAT SP IPHASW D HRMM SECON CODA AMPLIT PERI AZIMU VELO AIN AR TRES W  DIS CAZ7
 BAR2 SZ EP   1    945 11.69                             174   -0.23 7 15.5 198 
 BRR  HZ EP   1    945 13.61                             152   -0.14 7 76.0 304 
 BRR  HZ I         945 22.29         4.1 0.30                          76.0 304 
 BRR  HN ES   1    945 31.06                             152    0.04 7 76.0 304 
 RUS  HZ EP   1    945 15.39                             147   -0.08 7 92.4 176 
 RUS  HN ES   1    945 34.21                             147    0.13 7 92.4 176 
 RUS  HZ I         945 35.44         1.8 0.24                          92.4 176 
 GRA  SZ EP   1    945 18.42                             137    0.33 7  133  16 
 GRA  SZ ES   1    945 38.66                             137   -0.08 7  133  16 
 GRA  SZ I         945 39.41         2.8 0.35                           133  16 
 NOR  SN ES   1    945 55.22                             120    0.08 6  231 236 
                                                                                
