 2013  511 0240 37.2 L   6.808 -73.180145.6  RSN  9 0.3 1.5LRSN                1
 GAP=132        0.58       2.9     3.5  4.8  0.3749E-01  0.4517E+01  0.1736E+01E
 Epicentro: LOS SANTOS - SANTANDER                                             3
 ACTION:UPD 13-06-20 09:49 OP:ep   STATUS:               ID:20130511024037 L   I
 2013-05-11-0240-00M.COL___256                                                 6
 STAT SP IPHASW D HRMM SECON CODA AMPLIT PERI AZIMU VELO AIN AR TRES W  DIS CAZ7
 BAR2 SZ EP   1    240 56.78                             170   -0.02 8 23.8 181 
 BAR2 SZ ES   1    241 12.25                             170    0.14 8 23.8 181 
 BAR2 SZ I         241 12.93         5.0 0.28            169           23.8 181 
 BRR  HZ EP   1    240 57.76                             154   -0.35 8 67.5 299 
 BRR  HN ES   1    241 14.49                             154    0.05 8 67.5 299 
 BRR  HZ I         241 19.06         6.9 0.46            152           67.5 299 
 PAM  SZ EP   1    240 59.73                             150    0.24 8 79.2  42 
 PAM  SN ES   1    241 16.82                             150   -0.07 8 79.2  42 
 PAM  SZ I         241 18.93         7.9 0.56            156           79.2  42 
 RUS  HZ EP   1    241  0.70                             144   -0.30 8  102 174 
 RUS  HN ES   1    241 19.45                             144   -0.13 8  102 174 
 RUS  HZ I         241 20.78         2.2 0.60            146            102 174 
 PTB  HZ EP        241  4.02                             133    0.2010  144 258 
 PTB  HE ES   1    241 25.19                             133    0.59 7  144 258 
 PTB  HZ I         241 30.60         3.6 0.22            133            144 258 
 ZAR  HN ES   2    241 33.66                             123   -0.56 5  200 292 
 NOR  HE ES   2    241 39.32                             119   -0.96 4  232 234 
 SML  HN ES   1    241 41.75                             118   -0.16 6  241 336 
 PRA  HZ EP        241 30.70                             107    0.14 6  391 209 
 PRA  HN ES   2    242 12.74                             107    0.54 3  391 209 
 PRA  HZ I         242 18.17         1.6 0.74            108            391 209 
                                                                                
