 2016  411 0111  8.7 L   6.796 -73.157138.1  RSN  7 0.4 1.6LRSN                1
 GAP=135        1.01       3.5     4.5  7.1 -0.3747E+01  0.1236E+02 -0.5463E+01E
 Epicentro: LOS SANTOS - SANTANDER                                             3
 ACTION:UPD 16-05-05 14:20 OP:rebc STATUS:               ID:20160411011108 L   I
 OLDACT:REG 16-04-11 12:25 OP:mh   STATUS:               ID:20160411010747     3
 2016-04-11-0107-47M.COL___298                                                 6
 STAT SP IPHASW D HRMM SECON CODA AMPLIT PERI AZIMU VELO AIN AR TRES W  DIS CAZ7
 BAR2 EZ EP        111 27.64                             170    0.2910 22.7 187 
 BAR2 EZ ES        111 41.64                             170   -0.2910 22.7 187 
 BAR2 EZ I         111 43.39        14.8 0.14            170           22.7 187 
 PAM  EZ EP     D  111 30.47                             149    0.3410 78.5  40 
 PAM  EN ES        111 47.34                             149    0.4610 78.5  40 
 PAM  EZ I         111 49.44         8.2 0.52            153           78.5  40 
 RUS  HZ EP   1    111 31.64                             142    0.00 7  100 175 
 RUS  HN ES        111 49.48                             142   -0.0810  100 175 
 RUS  HZ I         111 51.09         3.9 0.50            145            100 175 
 PTB  HZ EP        111 34.32                             130   -0.57 9  146 259 
 PTB  HN ES        111 55.15                             130   -0.20 9  146 259 
 PTB  HZ I         111 58.17         6.7 0.11            131            146 259 
 OCA  HE EP        111 35.90                             128   -0.51 9  161 354 
 OCA  HZ ES        111 57.45                             128   -0.60 9  161 354 
 SPBC HZ EP        111 36.34                             127   -0.13 9  162 219 
 SPBC HN ES        111 58.31                             127    0.14 9  162 219 
 SPBC HZ I         112  3.28         5.8 0.26            129            162 219 
 ZAR  HZ EP        111 41.14                             121    0.63 9  203 292 
 ZAR  HN ES        112  5.95                             121    0.59 9  203 292 
 ZAR  HZ I         112 12.07         4.8 0.22            122            203 292 
                                                                                
