 2013  811 0026  3.9 L   6.784 -73.179152.0  RSN 12 0.5 1.8LRSN                1
 GAP=133        1.08       4.1     4.4  7.1 -0.1829E+01  0.8181E+01  0.4506E+01E
 Epicentro: LOS SANTOS - SANTANDER                                             3
 ACTION:UPD 14-01-14 09:00 OP:ep   STATUS:               ID:20130811002603 L   I
 OLDACT:DUP 13-08-11 09:36 OP:jn   STATUS:               ID:20130811001960d    3
 2013-08-11-0019-59M.COL___271                                                 6
 STAT SP IPHASW D HRMM SECON CODA AMPLIT PERI AZIMU VELO AIN AR TRES W  DIS CAZ7
 BAR2 SZ EP        026 24.34                             172    0.0910 21.2 181 
 BAR2 SZ ES        026 40.02                             172   -0.0910 21.2 181 
 BAR2 SZ I         026 41.10        14.7 0.42            171           21.2 181 
 GIR2 SZ EP   1    026 24.14                             167   -0.22 7 32.6 357 
 GIR2 SZ ES   1    026 40.16                             167   -0.15 7 32.6 357 
 GIR2 SZ I         026 42.41         7.1 0.24            167           32.6 357 
 BRR  HZ EP     C  026 26.13                             154    0.5210 68.9 301 
 BRR  HN ES        026 43.44                             154    0.9010 68.9 301 
 BRR  HZ I         026 49.57        10.6 0.62            152           68.9 301 
 PAM  SZ EP        026 27.14                             151    0.1310 81.1  41 
 PAM  SN ES        026 44.58                             151   -0.4410 81.1  41 
 PAM  SZ I         026 49.18         6.0 0.50            154           81.1  41 
 RUS  HZ EP        026 28.39                             145    0.2110 99.1 174 
 RUS  HN ES        026 46.53                             145   -0.5710 99.1 174 
 RUS  HZ I         026 47.89         6.3 0.38            148           99.1 174 
 PTB  HZ EP        026 30.84                             134   -0.21 9  144 259 
 PTB  HN ES        026 51.94                             134   -0.27 9  144 259 
 PTB  HZ I         026 54.74         7.4 0.48            134            144 259 
 SPBC HN ES   1    026 55.19                             131    0.29 7  160 218 
 SPBC HZ I         026 58.11        13.9 0.30            132            160 218 
 ZAR  HN ES   1    027  1.94                             124    0.03 6  201 293 
 ZAR  HZ I         027  9.34        10.5 0.34            124            201 293 
 NOR  HE ES   1    027  7.38                             120   -0.03 6  231 234 
 NOR  HZ I         027 14.23         5.1 0.20            121            231 234 
 CHI  HN ES        027 11.42                             119    0.29 8  246 194 
 CHI  HZ I         027 17.56         2.4 0.44            120            246 194 
 URE  HN ES   1    027 15.37                             115   -1.66 6  281 293 
 GUY2CHN ES   1    027 21.50                             114    0.24 5  297 235 
                                                                                
