 2014  711 0118 13.1 L   6.786 -73.151141.2  RSN 11 0.4 1.7LRSN                1
 GAP= 71        0.97       3.1     3.3  5.3 -0.1837E+01  0.3514E+01  0.2237E+01E
 Epicentro: LOS SANTOS - SANTANDER                                             3
 ACTION:UPD 15-03-16 20:42 OP:nd   STATUS:               ID:20140711011813 L   I
 OLDACT:REG 14-07-11 12:38 OP:stll STATUS:               ID:20140711010815     3
 2014-07-11-0108-15M.COL___259                                                 6
 STAT SP IPHASW D HRMM SECON CODA AMPLIT PERI AZIMU VELO AIN AR TRES W  DIS CAZ7
 BAR2 SZ EP        118 32.30                             171    0.1210 21.7 189 
 BAR2 SZ ES        118 47.02                             171   -0.0310 21.7 189 
 BAR2 SZ I         118 48.56        16.7 0.72            170           21.7 189 
 BRR  HZ EP        118 34.38                             152    0.5710 71.5 300 
 BRR  HN ES        118 50.70                             152    0.7710 71.5 300 
 PAM  SZ EP        118 34.94                             149   -0.0210 78.9  39 
 PAM  SN ES        118 51.72                             149   -0.2710 78.9  39 
 PAM  SZ I         118 54.36         8.1 0.52            153           78.9  39 
 RUS  HZ EP        118 36.74                             143    0.4110 99.1 176 
 RUS  HZ I         118 37.11         3.5 0.46            146           99.1 176 
 RUS  HN ES        118 54.21                             143   -0.2210 99.1 176 
 PTB  HZ EP        118 39.24                             131   -0.42 9  147 259 
 PTB  HN ES        119  0.55                             131    0.20 9  147 259 
 PTB  HZ I         119  7.70         6.8 0.42            131            147 259 
 TAM  HZ EP        118 40.47                             129    0.00 9  155 104 
 OCA  HN ES        119  2.81                             128   -0.34 9  162 353 
 OCA  HZ I         119  7.21         6.1 0.18            130            162 353 
 SPBC HZ EP        118 40.77                             128   -0.37 9  162 219 
 SPBC HE ES        119  2.42                             128   -0.56 9  162 219 
 SPBC HZ I         119 10.51         8.1 0.18            129            162 219 
 ZAR  HZ EP        118 45.00                             121   -0.29 9  204 293 
 ZAR  HN ES        119  9.87                             121   -0.51 9  204 293 
 ZAR  HZ I         119 16.87         4.5 0.50            122            204 293 
 NOR  HZ EP        118 48.73                             118    0.27 8  233 235 
 NOR  HE ES        119 15.71                             118   -0.30 8  233 235 
 NOR  HZ I         119 21.57         5.3 0.20            119            233 235 
 GUY2CHZ EP        118 56.98                             112    0.60 7  300 235 
 GUY2CHN ES        119 30.50                             112    0.38 7  300 235 
 GUY2CHZ I         119 39.14         4.1 0.70                           300 235 
                                                                                
