 2012  311 0425 23.6 L   6.772 -73.161147.4  RSN  6 0.4 1.1LRSN                1
 GAP=136        1.05       7.1     6.2 11.0  0.4734E+01  0.5901E+01  0.1119E+02E
 ACTION:UP  12-03-31 23:18 OP:EP   STATUS:               ID:20120311042523 L   I
 2012-03-11-0420-00M.COL___193                                                 6
 STAT SP IPHASW D HRMM SECON CODA AMPLIT PERI AZIMU VELO SNR AR TRES W  DIS CAZ7
 BAR2 SZ EP   2    425 43.22                             172    -0.2 5   20 187 
 BAR2 SZ I         426  2.08         4.0 0.79                            20 187 
 BRR  HZ EP        425 45.30                             153     0.310   71 301 
 BRR  HZ I         425 50.44         3.6 0.31                            71 301 
 BRR  HN ES        426  2.18                             153     0.610   71 301 
 PAM  SZ EP   1    425 46.12                             150    -0.1 7   81  39 
 PAM  SE ES   1    426  3.26                             150    -0.6 7   81  39 
 RUS  HZ EP   1    425 47.67                             145     0.3 7   98 175 
 RUS  HE ES   1    426  5.77                             145    -0.1 7   98 175 
 RUS  HZ I         426  7.88         1.7 0.26                            98 175 
 PTB  HZ EP   1    425 50.38                             133    -0.2 7  146 260 
 PTB  HN ES   1    426 10.77                             133    -0.8 7  146 260 
 PTB  HZ I         426 13.46         1.1 0.09                           146 260 
 ZAR  HN ES   1    426 21.33                             123    -0.2 6  204 293 
 ZAR  HZ I         426 27.06         1.5 0.44                           204 293 
                                                                                
