 2012  811 0320 17.4 L   6.704 -73.194151.6  RSN  4 0.2 1.2LRSN                1
 GAP=224        0.47       5.0     4.8  5.4  0.1191E+02  0.7510E+00  0.3569E-01E
 Epicentro: VILLANUEVA - SANTANDER                                             3
 ACTION:UPD 12-09-10 11:55 OP:ep   STATUS:               ID:20120811032017 L   I
 2012-08-11-0320-00M.COL___218                                                 6
 STAT SP IPHASW D HRMM SECON CODA AMPLIT PERI AZIMU VELO AIN AR TRES W  DIS CAZ7
 BAR2 SZ EP   1    320 37.24                             175   -0.35 7 12.4 174 
 BAR2 SZ I         320 37.87         4.9 0.15                          12.4 174 
 BAR2 SZ ES   1    320 53.25                             175   -0.08 7 12.4 174 
 BRR  HZ EP   1    320 39.24                             153   -0.04 7 72.5 308 
 BRR  HZ I         320 39.48         2.7 0.12                          72.5 308 
 BRR  HN ES   1    320 56.59                             153    0.26 7 72.5 308 
 RUS  HZ EP   1    320 41.22                             148    0.15 7 90.5 172 
 RUS  HZ I         320 41.95         1.4 0.24                          90.5 172 
 RUS  HE ES   1    320 59.63                             148    0.11 7 90.5 172 
 PTB  HZ EP   2    320 44.65                             135    0.39 5  141 263 
 PTB  HN ES   1    321  4.97                             135   -0.22 7  141 263 
                                                                                
