 2015 1011 0535  2.5 L   6.783 -73.126142.5  RSN 12 0.4 1.7LRSN                1
 GAP=140        1.00       2.6     4.0  5.3 -0.1322E+01  0.8190E+01  0.9718E+00E
 Epicentro: LOS SANTOS - SANTANDER                                             3
 ACTION:UPD 15-12-22 20:39 OP:cam  STATUS:               ID:20151011053502 L   I
 OLDACT:UP  15-10-11 17:30 OP:ak   STATUS:               ID:20151011052750     3
 OLDACT:REG 15-10-11 13:17 OP:ak   STATUS:               ID:20151011052750     3
 2015-10-11-0527-50M.COL___340                                                 6
 STAT SP IPHASW D HRMM SECON CODA AMPLIT PERI AZIMU VELO AIN AR TRES W  DIS CAZ7
 BAR2 EZ EP        535 21.62                             171   -0.0810 22.0 196 
 BAR2 EZ ES        535 36.99                             171    0.3010 22.0 196 
 BAR2 EZ I         535 38.18        17.4 0.18            169           22.0 196 
 BRR  HZ EP        535 23.50                             151    0.0510 73.9 299 
 BRR  HN ES        535 40.24                             151    0.4410 73.9 299 
 BRR  HZ I         535 44.04         7.7 0.42            149           73.9 299 
 PAM  EZ EP        535 24.52                             150    0.1510 77.5  37 
 PAM  EN ES        535 41.73                             150    0.3010 77.5  37 
 PAM  EZ I         535 43.76         4.9 0.48            155           77.5  37 
 RUS  HZ EP        535 25.47                             144   -0.3110 98.6 177 
 RUS  HN ES        535 43.57                             144   -0.3810 98.6 177 
 RUS  HZ I         535 45.95         3.9 0.24            146           98.6 177 
 OCA  HN ES        535 52.37                             128   -0.42 9  162 352 
 OCA  HZ I         535 59.32         9.1 0.34            131            162 352 
 SPBC HZ EP        535 30.77                             128    0.03 9  163 220 
 SPBC HE ES        535 52.36                             128   -0.41 9  163 220 
 SPBC HZ I         535 58.78         8.9 0.24            130            163 220 
 ZAR  HZ EP        535 35.68                             121    0.68 8  207 292 
 ZAR  HN ES        535 59.93                             121   -0.43 8  207 292 
 ZAR  HZ I         536  6.16         4.9 0.30            122            207 292 
 NOR  HZ EP        535 37.68                             118   -0.43 8  235 235 
 NOR  HE ES        536  5.85                             118   -0.04 8  235 235 
 NOR  HZ I         536 13.56         4.1 0.26            119            235 235 
 SML  HZ EP        535 39.82                             116    0.60 8  246 335 
 SML  HE ES        536  6.95                             116   -0.91 8  246 335 
 CHI  HZ EP        535 39.61                             117   -0.27 8  247 196 
 CHI  HN ES        536  9.05                             117    0.01 8  247 196 
 CHI  HZ I         536 14.66         1.9 0.40            119            247 196 
 HEL  HZ EP        535 42.63                             114   -0.09 8  274 256 
 HEL  HE ES        536 13.88                             114   -0.22 8  274 256 
 HEL  HZ I         536 20.83         2.9 0.44            115            274 256 
 GUY2CHZ EP        535 46.77                             112    0.74 7  302 235 
 GUY2CHN ES        536 20.92                             112    0.93 7  302 235 
 GUY2CHZ I         536 28.11         2.3 0.60                           302 235 
                                                                                
