 2013  811 0817 26.7 L   6.798 -73.168145.5  RSN 10 0.4 1.7LRSN                1
 GAP=134        0.83       2.8     4.0  5.5 -0.2415E+00  0.4825E+01  0.1971E+01E
 Epicentro: LOS SANTOS - SANTANDER                                             3
 ACTION:UPD 14-01-14 09:01 OP:ep   STATUS:               ID:20130811081726 L   I
 OLDACT:REG 13-08-11 07:43 OP:jn   STATUS:               ID:20130811080959     3
 2013-08-11-0809-59M.COL___270                                                 6
 STAT SP IPHASW D HRMM SECON CODA AMPLIT PERI AZIMU VELO AIN AR TRES W  DIS CAZ7
 BAR2 SZ EP        817 46.32                             171    0.0210 22.9 184 
 BAR2 SZ ES        818  1.41                             171   -0.1710 22.9 184 
 BAR2 SZ I         818  2.19        16.3 0.36            168           22.9 184 
 BRR  HZ EP        817 48.03                             153    0.3110 69.1 300 
 BRR  HN ES        818  4.81                             153    0.7110 69.1 300 
 BRR  HZ I         818  8.05        12.8 0.34            151           69.1 300 
 PAM  SZ EP        817 49.20                             150    0.1910 79.1  41 
 PAM  SN ES        818  5.98                             150   -0.4110 79.1  41 
 PAM  SZ I         818  8.14        10.0 0.50            155           79.1  41 
 RUS  HZ EP        817 50.38                             144   -0.0610  101 175 
 RUS  HN ES   1    818  8.80                             144   -0.15 7  101 175 
 RUS  HZ I         818 10.08         3.9 0.44            144            101 175 
 PTB  HZ EP        817 53.12                             132   -0.31 9  145 259 
 PTB  HN ES   1    818 13.57                             132   -0.70 7  145 259 
 PTB  HZ I         818 18.94         8.5 0.14            131            145 259 
 OCA  HN ES   1    818 17.17                             130    0.12 7  160 354 
 SPBC HN ES   1    818 16.80                             129   -0.32 7  161 218 
 ZAR  HZ EP   1    817 59.11                             123    0.20 6  202 292 
 ZAR  HN ES   1    818 24.00                             123   -0.02 6  202 292 
 ZAR  HZ I         818 29.85         7.1 0.34            122            202 292 
 SML  HE ES   1    818 31.19                             117   -0.52 6  243 336 
 CHI  HZ EP   1    818  4.22                             117   -0.09 6  248 195 
 CHI  HN ES        818 34.18                             117    0.55 8  248 195 
 CHI  HZ I         818 42.25         2.7 0.37            118            248 195 
                                                                                
