 2015  311 0455 58.6 L   6.810 -73.139147.1  RSN 14 0.4 2.2LRSN                1
 GAP= 71        0.91       3.0     3.3  4.6 -0.9418E+00  0.4418E+01  0.1456E+01E
 Epicentro: LOS SANTOS - SANTANDER                                             3
 ACTION:UPD 15-04-30 16:25 OP:nd   STATUS:               ID:20150311045558 L   I
 OLDACT:UP  15-03-11 15:11 OP:cam  STATUS:               ID:20150311044752d    3
 OLDACT:UP  15-03-11 15:10 OP:cam  STATUS:               ID:20150311044752d    3
 OLDACT:DUP 15-03-11 15:06 OP:cam  STATUS:               ID:20150311044752d    3
 2015-03-11-0447-50M.COL___284                                                 6
 STAT SP IPHASW D HRMM SECON CODA AMPLIT PERI AZIMU VELO AIN AR TRES W  DIS CAZ7
 BAR2 EZ EP     C  456 18.33                             170   -0.1310 24.5 191 
 BAR2 EZ ES        456 33.47                             170   -0.4410 24.5 191 
 BAR2 EZ I         456 35.52        45.4 0.26            168           24.5 191 
 BRR  HZ EP        456 20.12                             153    0.1810 71.3 297 
 BRR  HN ES        456 37.33                             153    0.7710 71.3 297 
 BRR  HZ I         456 39.60        22.1 0.70            151           71.3 297 
 PAM  SZ EP        456 21.06                             151    0.1410 76.1  40 
 PAM  SN ES        456 38.45                             151    0.1510 76.1  40 
 PAM  SZ I         456 40.58        19.5 0.58            156           76.1  40 
 RUS  HZ EP        456 22.25                             144   -0.3510  102 177 
 RUS  HN ES        456 41.03                             144   -0.2510  102 177 
 RUS  HZ I         456 41.87        17.7 0.30            145            102 177 
 TAM  HZ IP     D  456 26.53                             131    0.15 9  155 105 
 TAM  HN ES        456 48.30                             131    0.28 9  155 105 
 TAM  HZ I         456 49.77         7.6 0.24            135            155 105 
 SPBC HZ EP        456 27.25                             129   -0.11 9  164 219 
 SPBC HE ES        456 49.29                             129   -0.48 9  164 219 
 SPBC HZ I         456 55.26        27.7 0.22            129            164 219 
 NOR  HZ EP        456 34.63                             119    0.05 8  236 234 
 NOR  HN ES   4    457  1.81                             119   -0.80 0  236 234 
 NOR  HZ I         457  8.38        15.1 0.20            119            236 234 
 SML  HZ EP        456 34.67                             118   -0.60 8  243 335 
 SML  HN ES        457  3.25                             118   -0.59 8  243 335 
 SML  HZ I         457  7.07        17.4 0.10            119            243 335 
 ROSC BZ EP        456 37.42                             117    0.44 8  254 211 
 ROSC BN ES   4    457  8.74                             117    1.87 0  254 211 
 ROSC BZ I         457 13.84        13.4 0.45            118            254 211 
 HEL  HZ EP        456 39.21                             115    0.18 8  273 256 
 HEL  HN ES   4    457 12.39                             115    1.86 0  273 256 
 HEL  HZ I         457 18.17         7.2 0.22            115            273 256 
 GUY2CHZ EP   4    456 43.71                             112    1.26 0  302 235 
 GUY2CHN ES        457 17.19                             112    0.57 7  302 235 
 GUY2CHZ I         457 24.77        14.6 0.34                           302 235 
 PRA  HZ EP        456 52.01                             107   -0.35 6  393 210 
 ORTC HZ EP        456 53.41                             106    0.65 6  397 216 
 PAL  HZ EP        456 54.02                             106    0.04 6  407 239 
                                                                                
