 2014  711 0612 16.3 L   6.803 -73.163134.5  RSN  4 0.5 1.6LRSN                1
 GAP=181        1.19       5.5     8.1 11.3  0.4106E+01  0.2183E+02 -0.8492E+01E
 Epicentro: LOS SANTOS - SANTANDER                                             3
 ACTION:UPD 15-03-16 20:43 OP:nd   STATUS:               ID:20140711061216 L   I
 OLDACT:REG 14-07-11 12:44 OP:stll STATUS:               ID:20140711060820     3
 2014-07-11-0608-20M.COL___253                                                 6
 STAT SP IPHASW D HRMM SECON CODA AMPLIT PERI AZIMU VELO AIN AR TRES W  DIS CAZ7
 BAR2 SZ EP        612 35.09                             170    0.5510 23.4 185 
 BAR2 SZ ES        612 49.24                             170    0.4410 23.4 185 
 BAR2 SZ I         612 50.69        21.2 0.36            170           23.4 185 
 RUS  HZ EP        612 39.24                             141    0.2810  101 175 
 RUS  HN ES        612 55.84                             141   -0.8210  101 175 
 RUS  HZ I         613  0.82         3.0 0.36            144            101 175 
 PTB  HZ EP        612 41.95                             130   -0.22 9  146 259 
 PTB  HN ES        613  2.47                             130    0.10 9  146 259 
 PTB  HZ I         613  6.50         5.5 0.20            131            146 259 
 OCA  HN ES        613  4.63                             127   -0.41 9  160 354 
 OCA  HZ I         613  8.11         6.6 0.24            130            160 354 
                                                                                
