 2017  411 0447 56.1 L   6.788 -73.114152.2  RSN  9 0.5 1.4LRSN                1
 GAP=141        1.22       4.7     5.7  7.0 -0.2007E+01  0.6541E+01  0.4665E+01E
 Epicentro: LOS SANTOS - SANTANDER                                             3
 ACTION:UPD 17-05-30 21:10 OP:jn   STATUS:               ID:20170411044756 L   I
 OLDACT:UP  17-04-11 16:44 OP:edw  STATUS:               ID:20170411044749d    3
 OLDACT:DUP 17-04-11 16:42 OP:edw  STATUS:               ID:20170411044749d    3
 OLDACT:UP  17-04-11 16:42 OP:edw  STATUS:               ID:20170411044748     3
 OLDACT:UP  17-04-11 16:41 OP:edw  STATUS:               ID:20170411044748     3
 OLDACT:UP  17-04-11 16:40 OP:edw  STATUS:               ID:20170411044748     3
 OLDACT:REG 17-04-11 11:59 OP:edw  STATUS:               ID:20170411044748     3
 2017-04-11-0448-00M.COL___368                                                 6
 STAT SP IPHASW D HRMM SECON CODA AMPLIT PERI AZIMU VELO AIN AR TRES W  DIS CAZ7
 BAR2 EZ EP        448 16.47                             171   -0.0110 23.0 199 
 BAR2 EZ ES        448 31.95                             171   -0.4410 23.0 199 
 BAR2 EZ I         448 33.06         5.5 0.28            167           23.0 199 
 BRR  HN EP        448 18.23                             152    0.0910 74.9 298 
 BRR  HE ES        448 35.89                             152    0.5510 74.9 298 
 PAM  EZ EP        448 18.23                             152   -0.6910 76.2  37 
 PAM  EN ES        448 36.76                             152    0.0210 76.2  37 
 PAM  EZ I         448 38.46         2.4 0.20            156           76.2  37 
 RUS  HZ EP        448 20.54                             145    0.1710 99.1 178 
 RUS  HN ES        448 39.60                             145    0.2810 99.1 178 
 RUS  HZ I         448 40.50         1.4 0.44            145           99.1 178 
 PTB  HZ EP   9    448 23.59                             132   -0.28 0  151 260 
 PTB  HN ES        448 44.45                             136   -0.81 9  151 260 
 PTB  HZ I         448 51.75         3.3 0.40            130            151 260 
 SPBC HZ EP        448 25.68                             130    0.48 9  164 220 
 SPBC HN ES        448 47.27                             130   -0.64 9  164 220 
 SPBC HZ I         448 54.55         2.6 0.22            129            164 220 
 ZAR  HZ EP        448 29.34                             123    0.01 8  208 292 
 ZAR  HN ES        448 55.35                             123    0.08 8  208 292 
 ZAR  HZ I         449  1.08         2.9 0.36            122            208 292 
 CHI  HE ES   2    449  5.56                             118    1.78 4  248 196 
 PRA  HZ EP        448 50.51                             107    0.61 6  393 210 
 PRA  HE ES        449 30.75                             107   -1.14 6  393 210 
 PRA  HZ I         449 39.15         1.6 0.28            108            393 210 
                                                                                
