 2015  311 0442 14.0 L   6.786 -73.112144.0  RSN  4 0.3 1.5LRSN                1
 GAP=240        0.70       4.2     6.9  6.1  0.5154E+01  0.9008E+01  0.2573E+01E
 Epicentro: LOS SANTOS - SANTANDER                                             3
 ACTION:UPD 15-04-30 16:24 OP:nd   STATUS:               ID:20150311044214 L   I
 OLDACT:REG 15-03-11 13:06 OP:cam  STATUS:               ID:20150311043748     3
 2015-03-11-0437-48M.COL___287                                                 6
 STAT SP IPHASW D HRMM SECON CODA AMPLIT PERI AZIMU VELO AIN AR TRES W  DIS CAZ7
 BAR2 EZ EP        442 33.37                             171   -0.0810 22.7 200 
 BAR2 EZ ES        442 48.16                             171   -0.4310 22.7 200 
 BAR2 EZ I         442 49.43        11.6 0.90            165           22.7 200 
 BRR  HZ EP        442 35.24                             151    0.0110 75.2 298 
 BRR  HN ES        442 52.03                             151    0.2710 75.2 298 
 BRR  HZ I         442 56.30         4.5 0.32            148           75.2 298 
 RUS  HN ES        442 56.18                             144    0.4010 98.8 178 
 RUS  HN I         442 58.82         4.9 0.28            144           98.8 178 
 SPBC HZ EP        442 42.49                             128   -0.02 9  164 220 
 SPBC HN ES        443  4.54                             128   -0.18 9  164 220 
 SPBC HZ I         443  9.67         3.6 0.20            128            164 220 
                                                                                
