 2012 1211 0757 46.2 L   6.767 -73.173144.0  RSN  7 0.3 1.6LRSN                1
 GAP=161        0.60       4.1     3.9  5.8  0.5533E+01 -0.4197E+00 -0.1478E+01E
 Epicentro: LOS SANTOS - SANTANDER                                             3
 ACTION:UPD 13-01-04 14:27 OP:ep   STATUS:               ID:20121211075746 L   I
 2012-12-11-0756-41M.COL___194                                                 6
 STAT SP IPHASW D HRMM SECON CODA AMPLIT PERI AZIMU VELO AIN AR TRES W  DIS CAZ7
 BAR2 SZ EP   1    758  5.66                             172    0.09 7 19.3 183 
 BAR2 SZ ES   1    758 20.24                             172   -0.42 7 19.3 183 
 BAR2 SZ I         758 22.36        21.4 0.26                          19.3 183 
 BRR  HZ EP     C  758  7.47                             152    0.3310 70.4 302 
 BRR  HN ES   4    758 24.99                             152    1.54 0 70.4 302 
 BRR  HZ I         758 32.45         7.4 0.14                          70.4 302 
 RUS  HZ EP   1    758  9.69                             144    0.13 7 97.2 174 
 RUS  HN ES   1    758 27.99                             144    0.23 7 97.2 174 
 RUS  HZ I         758 29.93         4.8 0.32                          97.2 174 
 PTB  HZ EP   1    758 12.30                             132   -0.42 7  144 260 
 PTB  HN ES   1    758 33.75                             132    0.37 7  144 260 
 PTB  HZ I         758 36.93         6.2 0.13                           144 260 
 TAM  HZ EP   1    758 13.81                             130   -0.15 7  157 103 
 ZAR  HN ES   1    758 43.15                             122   -0.37 6  203 293 
 CHI  HZ EP   1    758 23.29                             117   -0.07 6  244 195 
 CHI  HN ES   1    758 52.11                             117   -0.21 6  244 195 
 CHI  HZ I         758 58.80         1.9 0.34                           244 195 
                                                                                
