 2014 1211 0341 50.2 L   6.849 -73.172140.7  RSN 16 0.5 1.9LRSN                1
 GAP=131        1.15       2.7     3.8  5.6 -0.1431E+01  0.7195E+01  0.9417E+00E
 Epicentro: ZAPATOCA - SANTANDER                                               3
 ACTION:UPD 15-02-10 17:02 OP:nd   STATUS:               ID:20141211034150 L   I
 OLDACT:REG 14-12-11 12:51 OP:fm   STATUS:               ID:20141211033747     3
 2014-12-11-0337-47M.COL___300                                                 6
 STAT SP IPHASW D HRMM SECON CODA AMPLIT PERI AZIMU VELO AIN AR TRES W  DIS CAZ7
 BAR2 EZ EP        342  9.49                             168    0.1610 28.4 182 
 BAR2 EZ ES        342 23.97                             168   -0.2910 28.4 182 
 BAR2 EZ I         342 28.36        12.4 0.32            167           28.4 182 
 BRR  HZ EP        342 10.31                             153   -0.2010 66.1 296 
 BRR  HE ES        342 26.66                             153    0.3010 66.1 296 
 BRR  HZ I         342 32.35        14.7 0.30            151           66.1 296 
 PAM  SZ EP        342 12.45                             151    0.7010 75.3  44 
 PAM  SN ES        342 29.14                             151    0.5810 75.3  44 
 PAM  SZ I         342 31.40        13.4 0.32            156           75.3  44 
 RUS  HZ EP        342 14.16                             141    0.2810  106 175 
 RUS  HN ES        342 31.75                             141   -0.5910  106 175 
 PTB  HZ EP        342 16.64                             131    0.04 9  146 257 
 PTB  HE ES        342 37.46                             131    0.27 9  146 257 
 PTB  HZ I         342 40.79         8.5 0.22            131            146 257 
 OCA  HZ EP        342 16.75                             130   -0.83 9  155 354 
 OCA  HN ES        342 38.52                             130   -0.41 9  155 354 
 OCA  HZ I         342 43.33        12.1 0.16            132            155 354 
 SPBC HZ EP        342 19.09                             127    0.54 9  166 217 
 SPBC HN ES        342 40.79                             127    0.13 9  166 217 
 SPBC HZ I         342 47.06        12.0 0.32            129            166 217 
 ZAR  HZ EP        342 22.35                             122    0.53 9  199 291 
 ZAR  HN ES        342 46.85                             122    0.36 9  199 291 
 ZAR  HZ I         342 52.45        11.0 0.34            123            199 291 
 NOR  HZ EP        342 25.57                             117   -0.16 8  236 233 
 NOR  HE ES        342 52.97                             117   -0.47 8  236 233 
 NOR  HZ I         342 57.23         4.9 0.28            119            236 233 
 SML  HZ EP        342 25.48                             117   -0.39 8  238 335 
 SML  HN ES        342 53.17                             117   -0.53 8  238 335 
 SML  HZ I         343  1.82        17.0 0.10            119            238 335 
 CHI  HZ EP        342 27.36                             116   -0.75 8  253 194 
 CHI  HN ES        342 56.97                             116   -0.71 8  253 194 
 CHI  HZ I         343  7.11         2.7 0.36            118            253 194 
 HEL  HZ EP        342 30.91                             114    0.92 8  271 255 
 HEL  HN ES        343  0.66                             114   -0.37 8  271 255 
 HEL  HZ I         343  8.70         4.0 0.28            115            271 255 
 URE  HE ES        343  1.35                             113   -0.57 7  279 291 
 URE  HZ I         343 10.90         8.3 0.24            115            279 291 
 GUY2CHZ EP        342 33.72                             111    0.06 7  302 234 
 GUY2CHE ES        343  7.43                             111   -0.14 7  302 234 
 GUY2CHZ I         343 14.65         2.5 0.22                           302 234 
 RREF HZ EP        342 36.73                             110    0.45 7  323 228 
 RREF HE ES        343 12.99                             110    0.77 7  323 228 
 RREF HZ I         343 22.06         3.8 0.30            112            323 228 
 CBOC HE ES   4    343  8.22                             109   -4.90 0  333 251 
 TOL  SE ES   4    343 18.36                             108    2.25 0  345 224 
 TOL  SZ I         343 24.26         4.5 0.14            110            345 224 
                                                                                
