 2013  111 0922 12.2 L   6.786 -73.039150.0  RSN  5 0.4 2.0LRSN                1
 GAP=227        1.04       7.6    10.5  9.5 -0.5212E+01  0.2936E+02  0.1019E+01E
 Epicentro: CEPITA - SANTANDER                                                 3
 ACTION:UPD 13-02-15 09:13 OP:ep   STATUS:               ID:20130111092212 L   I
 2013-01-11-0920-00M.COL___242                                                 6
 STAT SP IPHASW D HRMM SECON CODA AMPLIT PERI AZIMU VELO AIN AR TRES W  DIS CAZ7
 BAR2 SZ ES   1    922 47.84                             169   -0.38 7 26.7 216 
 BAR2 SZ I         922 48.88        10.9 0.16            155           26.7 216 
 BRR  HZ IP     C  922 35.07                             150    0.5610 82.4 296 
 BRR  HE ES        922 52.30                             150    0.4210 82.4 296 
 BRR  HE I         922 52.41        27.5 0.24            145           82.4 296 
 PTB  HZ EP        922 40.02                             131   -0.57 9  159 260 
 PTB  HN I         923  3.23         9.3 0.22            119            159 260 
 OCA  HN ES        923  3.42                             130   -0.36 9  164 349 
 OCA  HN I         923  6.67        25.2 0.40            121            164 349 
 ZAR  HZ EP        922 46.47                             122    0.31 8  216 291 
 ZAR  HN ES        923 12.32                             122   -0.29 8  216 291 
                                                                                
