 2017  211 0603 16.0 L   6.798 -73.133142.0  RSN 20 0.5 2.2LRSN                1
 GAP= 66        1.03       3.5     3.2  5.0 -0.1198E+00  0.3120E+01  0.6512E+01E
 Epicentro: LOS SANTOS - SANTANDER                                             3
 ACTION:UPD 17-05-24 15:35 OP:jn   STATUS:               ID:20170211060316 L   I
 OLDACT:UP  17-02-11 15:58 OP:and  STATUS:               ID:20170211055745     3
 OLDACT:UP  17-02-11 15:57 OP:and  STATUS:               ID:20170211055745     3
 OLDACT:UP  17-02-11 15:56 OP:and  STATUS:               ID:20170211055745     3
 OLDACT:UP  17-02-11 15:54 OP:and  STATUS:               ID:20170211055745     3
 OLDACT:UP  17-02-11 15:53 OP:and  STATUS:               ID:20170211055745     3
 OLDACT:REG 17-02-11 12:53 OP:and  STATUS:               ID:20170211055745     3
 2017-02-11-0558-00M.COL___346                                                 6
 STAT SP IPHASW D HRMM SECON CODA AMPLIT PERI AZIMU VELO AIN AR TRES W  DIS CAZ7
 BAR2 EZ IP     C  6 3 34.86                             170   -0.3310 23.4 193 
 BAR2 EZ ES        6 3 50.12                             170   -0.0310 23.4 193 
 BAR2 EZ I         6 3 51.52        54.2 0.14            168           23.4 193 
 BRR  HZ IP     C  6 3 36.68                             151   -0.1410 72.5 298 
 BRR  HN ES        6 3 53.74                             151    0.6810 72.5 298 
 BRR  HZ I         6 3 57.68        37.2 0.42            147           72.5 298 
 PAM  EZ IP     D  6 3 37.67                             150   -0.1110 76.6  39 
 PAM  EN ES        6 3 54.71                             150   -0.0510 76.6  39 
 PAM  EZ I         6 3 57.03        25.9 0.56            154           76.6  39 
 RUS  HZ IP     C  6 3 38.81                             143   -0.5610  100 177 
 RUS  HN ES        6 3 57.47                             143   -0.1210  100 177 
 RUS  HZ I         6 3 59.00        16.3 0.26            145            100 177 
 PTB  HZ EP   9    6 3 41.13                             131   -1.66 0  149 259 
 PTB  HN ES        6 4  2.50                                    0.48 9  149 259 
 PTB  HZ I         6 4  9.77        16.0 0.20            129            149 259 
 TAM  HZ IP     C  6 3 43.34                             130    0.08 9  154 105 
 TAM  HN ES        6 4  4.90                             130    0.39 9  154 105 
 ZAR  HZ EP   2    6 3 49.34                             121    0.99 4  205 292 
 ZAR  HN ES        6 4 12.97                             121   -0.61 8  205 292 
 ZAR  HZ I         6 4 19.70        13.4 0.21            120            205 292 
 NOR  HZ EP        6 3 51.10                             118   -0.53 8  236 235 
 NOR  HN ES   2    6 4 18.59                             118   -0.83 4  236 235 
 NOR  HZ I         6 4 26.85         7.1 0.25            117            236 235 
 CHI  HZ EP        6 3 53.24                             116   -0.28 8  249 195 
 CHI  HN ES        6 4 22.47                             116   -0.31 8  249 195 
 CHI  HZ I         6 4 25.95         9.4 0.52            117            249 195 
 ROSC BZ EP        6 3 54.76                             116    0.77 8  253 211 
 ROSC BN ES   3    6 4 25.21                             116    1.60 2  253 211 
 ROSC BZ I         6 4 28.76        19.4 0.45            116            253 211 
 URE  HZ EP   9    6 4  0.21                             113    3.16 0  285 292 
 URE  HN ES        6 4 31.55                                   -0.67 7  285 292 
 URE  HZ I         6 4 38.61         8.6 0.34            112            285 292 
 PTGC HZ IP   9 C  6 3 58.06                             111   -1.56 0  308 159 
 PTGC HN ES        6 4 31.82                                   -0.26 7  308 159 
 PTGC HZ I         6 4 32.73         8.0 0.28            113            308 159 
 LL6C HN EP   9    6 3 40.63                             110   -20.9 0  325 357 
 LL6C HE ES        6 4 16.80                                    0.63 7  325 357 
 ELA  HZ EP        6 4  3.71                             110    0.90 7  330 230 
 ELA  HN ES   3    6 4 40.64                             110    1.33 2  330 230 
 ELA  HZ I         6 4 47.57         7.8 0.60            110            330 230 
 CBOC HZ EP   2    6 4  3.16                             109    0.25 3  335 252 
 CBOC HN ES   2    6 4 39.84                             109    0.34 3  335 252 
 ANIL HZ EP        6 4  6.74                             108    0.97 6  358 225 
 ANIL HN ES   4    6 4 46.64                             108    2.06 0  358 225 
 PRA  HZ EP        6 4  8.78                             106   -0.68 6  393 210 
 PRA  HN ES        6 4 51.00                             106   -0.16 6  393 210 
 PRA  HZ I         6 4 56.30         8.3 0.34            106            393 210 
 ORTC HZ EP        6 4  9.59                             106   -0.29 6  396 216 
 ORTC HN ES        6 4 52.83                             106    0.93 6  396 216 
 ORTC HZ I         6 4 54.44         4.8 0.20            106            396 216 
 SJC  HZ EP   9    6 4  9.09                             105   -2.46 0  410 327 
 SJC  HN ES        6 4 51.55                                   -0.87 6  410 327 
 SJC  HZ I         6 5  2.30         3.0 0.32            105            410 327 
 CRJC HZ EP   9    6 4 15.10                             103   -3.31 0  468   3 
 CRJC HN ES        6 5  3.79                                    0.01 5  468   3 
                                                                                
