 2014  511 0725 51.1 L   6.801 -73.184141.3  RSN  6 0.3 1.5LRSN                1
 GAP=132        0.78       2.7     4.0  6.7 -0.2035E+01  0.7191E+01  0.1043E+01E
 Epicentro: LOS SANTOS - SANTANDER                                             3
 ACTION:UPD 15-03-16 16:56 OP:nd   STATUS:               ID:20140511072551 L   I
 OLDACT:REG 14-05-11 15:30 OP:carl STATUS:               ID:20140511071815     3
 2014-05-11-0718-15M.COL___239                                                 6
 STAT SP IPHASW D HRMM SECON CODA AMPLIT PERI AZIMU VELO AIN AR TRES W  DIS CAZ7
 PAM  SZ EP        726 13.36                             149    0.3110 80.0  42 
 PAM  SN ES        726 30.10                             149   -0.0410 80.0  42 
 PAM  SZ I         726 32.32         4.9 0.36            153           80.0  42 
 RUS  HZ EP        726 14.74                             143    0.2410  101 174 
 RUS  HE ES        726 32.40                             143   -0.3110  101 174 
 RUS  HZ I         726 34.45         2.8 0.18            143            101 174 
 PTB  HZ EP        726 17.16                             132   -0.22 9  144 258 
 PTB  HN ES        726 38.04                             132    0.20 9  144 258 
 PTB  HZ I         726 40.22         5.4 0.44            133            144 258 
 SPBC HZ EP        726 19.61                             128    0.55 9  161 218 
 SPBC HN ES        726 40.95                             128    0.11 9  161 218 
 SPBC HZ I         726 44.32         8.7 0.76            129            161 218 
 SML  HE ES        726 55.14                             117   -0.40 8  242 336 
 CHI  HZ EP        726 28.05                             116   -0.44 8  248 194 
 CHI  HN ES        726 57.31                             116   -0.32 8  248 194 
 CHI  HZ I         727  6.27         1.5 0.56            117            248 194 
                                                                                
