 2010  511 0555  9.7 L   6.784 -72.978138.5  RSN 11 0.4 1.9LRSN                1
 GAP=139        0.77       3.4     5.8  5.5 -0.1017E+02 -0.4910E+01  0.3749E+01E
 Epicentro: CEPITA - SANTANDER                                                 3
 ACTION:UP  10-08-24 10:04 OP:vdl  STATUS:               ID:20100511055509 L   I
 2010-05-11-0554-10S.COL___104                                                 6
 STAT SP IPHASW D HRMM SECON CODA AMPLIT PERI AZIMU VELO AIN AR TRES W  DIS CAZ7
 BAR2 SZ IP        555 28.58                             167    -0.110   31 227 
 BAR2 SZ ES   1    555 43.28                             167    -0.2 7   31 227 
 BRR  HZ IP     D  555 31.24                             145     0.010   89 294 
 BRR  HN ES   1    555 48.10                             145     0.1 7   89 294 
 BRR  HZ I         555 50.23        11.9 0.27                            89 294 
 RUS  HZ EP        555 32.48                             143    -0.210   99 187 
 RUS  HZ I         555 33.62         5.1 0.18                            99 187 
 RUS  HN ES   2    555 50.71                             143     0.2 5   99 187 
 BRI  SZ EP   3    555 32.04                             141    -0.6 2  105  11 
 GUE  SZ EP   2    555 34.06                             138     0.4 5  116   3 
 GRA  SZ EP        555 34.31                             136     0.210  123   9 
 GRA  SZ ES   1    555 53.37                             136     0.3 7  123   9 
 OCA  SZ EP        555 37.90                             127    -0.1 9  165 347 
 OCA  SZ ES   2    555 58.62                             127    -1.4 5  165 347 
 OCA  SZ I         556  3.26         6.9 0.25                           165 347 
 ROSC BZ EP        555 48.86                             114     0.5 8  261 215 
 ROSC BN ES   1    556 18.44                             114    -0.1 6  261 215 
 ROSC BZ I         556 22.94         7.4 0.48                           261 215 
 RREF BZ EP        555 57.31                             109     0.2 7  335 232 
 RREF BE ES   1    556 34.32                             109     0.3 5  335 232 
 RREF BZ I         556 40.06         4.6 0.24                           335 232 
 SDV  BZ IP     D  555 58.02                             108     0.0 6  347  48 
 SDV  BZ I         555 59.15         1.4 0.38                           347  48 
 PRA  HZ EP   1    556  2.67                             105    -1.3 4  400 212 
 PRA  HE ES   2    556 45.72                             105    -0.5 3  400 212 
 PRA  HZ I         556 50.22         5.2 0.47                           400 212 
                                                                                
