 2017  911 0855 17.0 L   6.819 -73.154147.3  RSN 25 0.5 2.2LRSN                1
 GAP= 65        0.93       2.2     2.5  4.1 -0.1126E+00  0.2722E+01  0.5185E+00E
 Epicentro: LOS SANTOS - SANTANDER                                             3
 ACTION:UPD 17-10-05 19:11 OP:rebc STATUS:               ID:20170911085517 L   I
 OLDACT:UP  17-09-11 17:31 OP:and  STATUS:               ID:20170911084739     3
 OLDACT:UP  17-09-11 17:09 OP:and  STATUS:               ID:20170911084739     3
 OLDACT:UP  17-09-11 17:08 OP:and  STATUS:               ID:20170911084739     3
 OLDACT:UP  17-09-11 17:08 OP:and  STATUS:               ID:20170911084739     3
 OLDACT:UP  17-09-11 17:04 OP:and  STATUS:               ID:20170911084739     3
 OLDACT:UP  17-09-11 17:04 OP:and  STATUS:               ID:20170911084739     3
 OLDACT:UP  17-09-11 17:03 OP:and  STATUS:               ID:20170911084739     3
 OLDACT:UP  17-09-11 17:03 OP:and  STATUS:               ID:20170911084739     3
 OLDACT:UP  17-09-11 17:02 OP:and  STATUS:               ID:20170911084739     3
 OLDACT:UP  17-09-11 17:02 OP:and  STATUS:               ID:20170911084739     3
 OLDACT:UP  17-09-11 17:01 OP:and  STATUS:               ID:20170911084739     3
 OLDACT:UP  17-09-11 17:01 OP:and  STATUS:               ID:20170911084739     3
 OLDACT:UP  17-09-11 16:59 OP:and  STATUS:               ID:20170911084739     3
 OLDACT:REG 17-09-11 13:43 OP:mg   STATUS:               ID:20170911084739     3
 2017-09-11-0848-00M.COL___409                                                 6
 STAT SP IPHASW D HRMM SECON CODA AMPLIT PERI AZIMU VELO AIN AR TRES W  DIS CAZ7
 BAR2 EZ IP     D  855 36.81                             170   -0.0810 25.3 187 
 BAR2 EZ ES        855 52.06                             170   -0.3210 25.3 187 
 BAR2 EZ I         855 54.52        44.6 0.26            167           25.3 187 
 BRR  HZ IP     C  855 38.48                             153    0.2210 69.4 297 
 BRR  HN ES        855 55.66                             153    0.8510 69.4 297 
 BRR  HZ I         855 56.64        18.2 0.13            149           69.4 297 
 PAM  EZ IP     C  855 39.50                             151    0.1410 76.3  41 
 PAM  EN ES        855 56.81                             151    0.0510 76.3  41 
 PAM  EZ I         855 59.77        12.1 0.37            153           76.3  41 
 RUS  HZ EP        855 40.98                             144   -0.1210  103 176 
 RUS  HN ES        855 59.26                             144   -0.6010  103 176 
 RUS  HZ I         856  0.75        16.8 0.30            141            103 176 
 TAM  HZ IP     C  855 45.12                             131    0.15 9  156 106 
 TAM  HN ES        856  6.95                             131    0.20 9  156 106 
 SPBC HZ EP        855 45.65                             129   -0.11 9  164 218 
 SPBC HN ES        856  7.55                             129   -0.61 9  164 218 
 SPBC HZ I         856 10.13        19.9 0.04            125            164 218 
 YPLC HZ IP     D  855 47.12                             127   -0.05 9  179 151 
 YPLC HN ES        856 11.21                             127    0.55 9  179 151 
 YPLC HZ I         856 13.88        14.8 0.22            125            179 151 
 ZAR  HZ EP        855 49.16                             123   -0.26 9  202 292 
 ZAR  HN ES        856 15.00                             123    0.32 9  202 292 
 ZAR  HZ I         856 20.03        21.3 0.36            120            202 292 
 NOR  HZ IP     C  855 52.97                             119    0.06 8  235 234 
 NOR  HE ES        856 20.50                             119   -0.40 8  235 234 
 NOR  HZ I         856 27.57         8.1 0.08            116            235 234 
 CHI  HZ EP        855 55.10                             117    0.08 8  250 195 
 CHI  HN ES        856 24.28                             117   -0.36 8  250 195 
 CHI  HZ I         856 30.34         9.0 0.28            115            250 195 
 ROSC BZ EP   4    855 57.50                             117    2.11 0  254 211 
 ROSC BN ES   4    856 28.66                             117    3.35 0  254 211 
 ROSC BZ I         856 31.32        25.2 0.40            114            254 211 
 HEL  HZ EP   3    855 58.95                             115    1.65 2  272 255 
 HEL  HN ES        856 28.96                             115    0.27 8  272 255 
 HEL  HZ I         856 34.89         4.6 0.40            112            272 255 
 URE  HZ EP        855 57.12                             114   -0.89 7  282 292 
 URE  HN ES   4    856 27.94                             114   -2.02 0  282 292 
 URE  HZ I         856 38.08        12.0 0.26            111            282 292 
 GUY2CHZ EP   3    856  2.03                             113    1.25 2  302 234 
 GUY2CHN ES        856 35.36                             113    0.47 7  302 234 
 GUY2CHZ I         856 42.90         6.3 0.34                           302 234 
 VIL  EZ EP        856  0.80                             112    0.06 7  305 191 
 VIL  EN ES        856 34.73                             112   -0.10 7  305 191 
 VIL  EZ I         856 39.72        18.9 0.30            110            305 191 
 PTGC HZ IP   3 D  855 59.86                             112   -1.36 2  311 159 
 PTGC HN ES   4    856 33.09                             112   -2.59 0  311 159 
 PTGC HZ I         856 38.73         4.6 0.34            110            311 159 
 LL6C HZ EP        856  2.14                             111   -0.42 7  323 358 
 LL6C HE ES        856 37.09                             111   -0.98 7  323 358 
 DBB  EZ EP        856  5.46                             110    1.00 7  338 274 
 DBB  EN ES   3    856 39.98                             110   -1.47 2  338 274 
 DBB  EZ I         856 41.42         5.3 0.26            107            338 274 
 ARGC HZ EP        856  7.28                             109    0.79 6  357 340 
 ANIL HN ES   4    856 49.44                             109    3.46 0  358 224 
 ANIL HZ I         856 57.88        14.0 0.30            106            358 224 
 PRA  HZ EP        856 10.66                             107   -0.12 6  393 209 
 PRA  HN ES        856 52.57                             107   -0.12 6  393 209 
 PRA  HZ I         856 58.92         9.0 0.36            105            393 209 
 ORTC HZ EP        856 11.12                             107   -0.03 6  397 216 
 ORTC HN ES   3    856 54.64                             107    1.28 1  397 216 
 ORTC HZ I         857  0.56         3.5 0.30            105            397 216 
 PAL  HZ EP        856 12.96                             106    0.67 6  406 239 
 PAL  HZ I         856 57.69         3.2 0.28            104            406 239 
 SJC  HZ IP   3 C  856 10.90                             106   -1.49 1  407 327 
 SJC  HN ES   4    856 52.38                             106   -3.18 0  407 327 
 SJC  HZ I         857  6.47         3.1 0.70            104            407 327 
 URI  HZ EP   3    856 27.36                             101   -2.49 1  555  13 
                                                                                
