 2016  311 0624 35.5 L   6.809 -73.147140.2  RSN  7 0.3 1.5LRSN                1
 GAP=136        0.72       2.3     3.9  5.3 -0.1207E+01  0.6638E+01  0.1907E+01E
 Epicentro: LOS SANTOS - SANTANDER                                             3
 ACTION:UPD 16-05-13 21:23 OP:cam  STATUS:               ID:20160311062435 L   I
 OLDACT:REG 16-03-11 13:46 OP:cara STATUS:               ID:20160311061747     3
 2016-03-11-0617-47M.COL___261                                                 6
 STAT SP IPHASW D HRMM SECON CODA AMPLIT PERI AZIMU VELO AIN AR TRES W  DIS CAZ7
 BAR2 EZ IP     C  624 54.55                             170    0.0410 24.3 189 
 BAR2 EZ ES        625  9.02                             170   -0.2910 24.3 189 
 BAR2 EZ I         625 10.88         8.0 0.18            169           24.3 189 
 PAM  EZ IP        624 57.45                             150    0.3310 76.7  40 
 PAM  EN ES        625 14.32                             150    0.3710 76.7  40 
 PAM  EZ I         625 16.80         5.0 0.44            152           76.7  40 
 RUS  HZ EP        624 58.61                             142   -0.2010  102 176 
 RUS  HN ES        625 17.00                             142    0.0410  102 176 
 RUS  HZ I         625 17.93         2.9 0.22            144            102 176 
 OCA  HN ES        625 24.39                             128   -0.61 9  159 353 
 OCA  HZ I         625 27.98         7.5 0.26            129            159 353 
 SPBC HZ EP        625  3.54                             128   -0.13 9  164 219 
 SPBC HE ES        625 25.72                             128    0.10 9  164 219 
 SPBC HZ I         625 28.06         3.9 0.16            128            164 219 
 ZAR  HN ES        625 32.91                             121    0.36 9  204 292 
 ZAR  HZ I         625 39.48         3.5 0.48            121            204 292 
 CHI  HZ EP        625 12.97                             116   -0.06 8  250 195 
 CHI  HN ES        625 42.30                             116    0.03 8  250 195 
 CHI  HZ I         625 48.06         0.8 0.54            117            250 195 
                                                                                
