 2011  711 0130 33.3 L   6.782 -73.134144.7  RSN 14 0.3 2.8LRSN                1
 GAP=139        0.50       1.9     3.0  3.1 -0.2482E+01  0.2036E+01  0.1119E+01E
 Epicentro: LOS SANTOS - SANTANDER                                             3
 ACTION:UPD 12-07-25 13:59 OP:epov STATUS:               ID:20110711013033 L   I
 2011-07-11-0128-44S.COL___140                                                 6
 STAT SP IPHASW D HRMM SECON CODA AMPLIT PERI AZIMU VELO AIN AR TRES W  DIS CAZ7
 BTL  SZ EP   1    130 52.84                             171    0.12 7 21.1 316 
 BTL  SZ ES   1    131  7.84                             171   -0.07 7 21.1 316 
 BAR2 SZ EP   1    130 52.52                             171   -0.21 7 21.6 194 
 BAR2 SZ ES   1    131  7.57                             171   -0.35 7 21.6 194 
 BAR2 SZ I         131 10.53       181.8 0.38                          21.6 194 
 BRR  HZ EP   2    130 54.35                             152   -0.06 5 73.3 299 
 BRR  HE ES   1    131 11.12                             152    0.20 7 73.3 299 
 BRR  HZ I         131 15.86        74.7 0.17                          73.3 299 
 PAM  SZ EP   1    130 55.55                             150    0.14 7 78.2  38 
 PAM  SN ES   1    131 12.86                             150    0.17 7 78.2  38 
 RUS  HZ EP   1    130 56.69                             144   -0.06 7 98.5 177 
 RUS  HN ES   1    131 15.28                             144    0.20 7 98.5 177 
 RUS  HZ I         131 16.88        78.9 0.35                          98.5 177 
 BRI  SZ EP   1    130 57.14                             141   -0.02 7  110  20 
 BRI  SZ ES   1    131 15.59                             141   -0.22 7  110  20 
 BRI  SZ I         131 17.94        50.4 0.75                           110  20 
 GRA  SZ EP   1    130 58.41                             136   -0.13 7  127  17 
 GRA  SZ ES   1    131 18.41                             136    0.15 7  127  17 
 GRA  SZ I         131 19.67        72.2 0.39                           127  17 
 OCA  SZ EP   1    131  1.48                             129   -0.21 7  162 353 
 OCA  SZ ES   1    131 23.92                             129    0.05 7  162 353 
 OCA  SZ I         131 28.70        71.3 0.28                           162 353 
 NOR  SZ EP   1    131  8.69                             118   -0.22 6  235 235 
 NOR  SE ES   1    131 36.88                             118    0.16 6  235 235 
 CHI  HZ EP   1    131 10.97                             117    0.25 6  247 196 
 CHI  HE ES   1    131 40.25                             117    0.31 6  247 196 
 CHI  HZ I         131 44.26        36.3 0.41                           247 196 
 HEL  HZ EP   1    131 14.07                             114    0.57 6  273 256 
 HEL  HN ES   1    131 44.38                             114   -0.50 6  273 256 
 HEL  HZ I         131 52.39        77.2 0.36                           273 256 
 RREF HZ EP   1    131 19.96                             111    0.65 5  321 230 
 RREF HZ I         132  2.12        40.7 0.26                           321 230 
 PRA  HZ EP   1    131 26.66                             106    0.06 4  391 210 
 PRA  HE ES   1    132  7.75                             106   -0.47 4  391 210 
 SJA  SZ EP   1    131 26.70                             106   -0.87 4  398 193 
 SJA  SZ I         132 19.89        43.0 0.60                           398 193 
                                                                                
