 2013  311 0903 56.7 L   6.739 -73.212139.9  RSN  4 0.3 1.6LRSN                1
 GAP=222        0.58       5.2     4.8  6.9  0.1036E+02  0.7705E+01 -0.3666E+01E
 Epicentro: VILLANUEVA - SANTANDER                                             3
 ACTION:UPD 13-04-09 14:01 OP:ep   STATUS:               ID:20130311090356 L   I
 2013-03-11-0900-00M.COL___231                                                 6
 STAT SP IPHASW D HRMM SECON CODA AMPLIT PERI AZIMU VELO AIN AR TRES W  DIS CAZ7
 BAR2 SZ EP   1    9 4 15.97                             173    0.49 7 16.5 169 
 BAR2 SZ ES   1    9 4 29.84                             173   -0.30 7 16.5 169 
 BAR2 SZ I         9 4 30.78         9.9 0.22            171           16.5 169 
 BRR  HZ EP   1    9 4 16.82                             152   -0.23 7 68.6 306 
 BRR  HN ES   1    9 4 33.07                             152    0.13 7 68.6 306 
 BRR  HN I         9 4 34.10         9.5 0.22            152           68.6 306 
 RUS  HN ES        9 4 37.17                             144    0.0010 94.6 171 
 RUS  HN I         9 4 38.83         5.9 0.44            144           94.6 171 
 PTB  HZ EP   1    9 4 22.10                             132   -0.30 7  139 261 
 PTB  HN ES        9 4 42.58                             132    0.11 9  139 261 
 PTB  HN I         9 4 44.91         5.5 0.22            132            139 261 
                                                                                
