 2012  211 0801 11.1 L   6.734 -73.135152.0  RSN  6 0.3 0.9LRSN                1
 GAP=141        0.41       6.1     5.7  8.6  0.1052E+01 -0.2818E+02  0.2731E+01E
 ACTION:UP  12-03-07 16:29 OP:epov STATUS:               ID:20120211080111 L   I
 2012-02-11-0800-00M.COL___188                                                 6
 STAT SP IPHASW D HRMM SECON CODA AMPLIT PERI AZIMU VELO AIN AR TRES W  DIS CAZ7
 BAR2 SZ EP        8 1 31.36                             173   -0.0310 16.6 198 
 GIR2 SZ EP   3    8 1 31.48                             165   -0.27 2 38.6 350 
 BRR  HZ EP        8 1 33.42                             151    0.2110 75.9 303 
 BRR  HZ I         8 1 49.55         2.9 0.14                          75.9 303 
 BRR  HN ES   1    8 1 50.40                             151   -0.04 7 75.9 303 
 PAM  SZ EP        8 1 34.21                             150   -0.0910 82.4  36 
 RUS  HZ EP   3    8 1 35.46                             147    0.47 2 93.3 176 
 RUS  HN ES   3    8 1 53.64                             147    0.03 2 93.3 176 
 RUS  HZ I         8 1 54.77         0.7 0.26                          93.3 176 
 PTB  HZ EP   3    8 1 38.40                             133   -0.20 2  148 262 
 PTB  HN ES   3    8 1 58.85                             133   -1.18 2  148 262 
 PTB  HZ I         8 2  0.41         0.9 0.20                           148 262 
                                                                                
