 2014 1011 0947 40.4 L   6.828 -73.202118.4  RSN  4 0.4 0.8LRSN                1
 GAP=128        0.84       4.1     4.1 10.0 -0.7898E+00  0.2199E+02 -0.5203E+01E
 Epicentro: ZAPATOCA - SANTANDER                                               3
 ACTION:UPD 14-11-29 23:48 OP:nd   STATUS:               ID:20141011094740 L   I
 OLDACT:DUP 14-10-11 14:23 OP:fm   STATUS:               ID:20141011093742d    3
 2014-10-11-0937-41M.COL___291                                                 6
 STAT SP IPHASW D HRMM SECON CODA AMPLIT PERI AZIMU VELO AIN AR TRES W  DIS CAZ7
 PAM  SZ EP   1    948  0.28                             144    0.37 7 79.3  44 
 PAM  SN ES        948 14.89                             144   -0.2410 79.3  44 
 PAM  SZ I         948 20.26         1.3 0.16            152           79.3  44 
 RUS  HZ EP   1    948  1.55                             136   -0.32 7  104 173 
 RUS  HN ES        948 18.98                             136    0.3610  104 173 
 RUS  HZ I         948 21.67         0.9 0.34            147            104 173 
 PTB  HZ EP   1    948  4.26                             126   -0.47 7  142 257 
 PTB  HN ES        948 23.34                             126   -0.38 9  142 257 
 PTB  HZ I         948 29.51         1.0 0.48            132            142 257 
 ZAR  HZ EP        948 10.50                             116    0.05 9  197 292 
 ZAR  HE ES        948 34.43                             116    0.53 9  197 292 
 ZAR  HZ I         948 44.07         1.2 0.22            122            197 292 
                                                                                
