 2010  111 0931 13.3 L   6.768 -73.083140.2  RSN  5 0.1 1.7LRSN                1
 GAP=283        0.30       3.8     4.2  3.7 -0.2561E+01  0.4207E+01  0.6756E+01E
 Epicentro: LOS SANTOS - SANTANDER                                             3
 ACTION:UP  10-08-24 09:43 OP:vdl  STATUS:               ID:20100111093112 L   I
 2010-01-11-0920-00S.COL___095                                                 6
 STAT SP IPHASW D HRMM SECON CODA AMPLIT PERI AZIMU VELO SNR AR TRES W  DIS CAZ7
 BAR2 SZ IP        931 32.26                             171     0.010   22 210 
 BAR2 SZ ES   1    931 46.96                             171     0.0 7   22 210 
 RUS  BZ EP   2    931 36.16                             144     0.0 5   97 180 
 RUS  BZ I         931 57.07         4.3 0.25                            97 180 
 CHI  HZ IP        931 50.41                             116    -0.1 8  247 197 
 CHI  HE ES   2    932 19.75                             116     0.2 4  247 197 
 CHI  HZ I         932 28.29         3.0 0.57                           247 197 
 HEL  HZ EP   2    931 54.13                             113     0.3 4  278 257 
 HEL  HE ES   2    932 25.35                             113    -0.2 4  278 257 
 HEL  HZ I         932 30.57         3.1 0.33                           278 257 
 PRA  HZ EP   1    932  6.61                             105     0.0 4  392 211 
 PRA  HN ES   1    932 48.27                             105     0.0 4  392 211 
 PRA  HZ I         932 53.41         4.6 0.35                           392 211 
                                                                                
