 2012  511 0225  5.1 L   6.782 -73.150143.5  RSN 11 0.4 2.8LRSN                1
 GAP=137        0.99       3.3     5.3  7.1 -0.2873E+01  0.7382E+01  0.1857E+01E
 Epicentro: LOS SANTOS - SANTANDER                                             3
 ACTION:UP  12-07-05 12:04 OP:pat  STATUS:               ID:20120511022505 L   I
 2012-05-11-0220-00M.COL___195                                                 6
 STAT SP IPHASW D HRMM SECON CODA AMPLIT PERI AZIMU VELO SNR AR TRES W  DIS CAZ7
 BAR2 SZ EP        225 24.85                             171     0.410   21 190 
 BAR2 SZ ES   1    225 39.46                             171    -0.1 7   21 190 
 BAR2 SZ I         225 41.51       126.0 0.43                            21 190 
 BRR  HZ EP        225 26.72                             152     0.610   72 300 
 BRR  HN ES   1    225 42.57                             152     0.2 7   72 300 
 BRR  HZ I         225 48.66        88.9 0.18                            72 300 
 PAM  SZ EP        225 27.68                             150     0.510   79  39 
 PAM  SN ES   1    225 44.32                             150    -0.1 7   79  39 
 RUS  HZ EP   1    225 28.70                             144     0.2 7   99 176 
 RUS  HN ES   1    225 46.44                             144    -0.3 7   99 176 
 PTB  HZ EP   1    225 31.34                             132    -0.5 7  147 260 
 PTB  HN ES   1    225 52.51                             132    -0.2 7  147 260 
 PTB  HZ I         225 58.70        58.1 0.33                           147 260 
 OCA  HZ EP   1    225 32.73                             129    -0.7 7  162 353 
 OCA  HN ES   1    225 54.80                             129    -0.7 7  162 353 
 OCA  HZ I         226  1.31       132.8 0.43                           162 353 
 ZAR  HZ EP   1    225 37.50                             122     0.0 6  204 293 
 ZAR  HN ES   1    226  3.13                             122     0.4 6  204 293 
 ZAR  HZ I         226 13.91        57.7 0.36                           204 293 
 CHI  HZ EP   1    225 42.55                             117     0.1 6  247 195 
 CHI  HN ES   1    226 11.22                             117    -0.4 6  247 195 
 ROSC BN ES        226 11.84                             116    -0.5 8  251 211 
 ROSC BZ I         226 20.75        79.2 0.47                           251 211 
 COD  HN ES   1    226 30.86                             108    -0.6 5  350 355 
 COD  HZ I         226 37.05        17.3 0.58                           350 355 
 PRA  HZ EP   1    225 58.30                             106     0.0 4  390 210 
 PRA  HN ES   1    226 39.90                             106     0.1 4  390 210 
                                                                                
