 2016  311 0443 45.8 L   6.861 -73.290122.5  RSN  4 0.3 1.0LRSN                1
 GAP=226        0.69       4.6     4.8  6.8  0.1005E+02  0.1274E+02  0.3024E+01E
 Epicentro: BETULIA - SANTANDER                                                3
 ACTION:UPD 16-05-13 21:23 OP:cam  STATUS:               ID:20160311044345 L   I
 OLDACT:DUP 16-03-11 16:44 OP:cara STATUS:               ID:20160311043753d    3
 OLDACT:REG 16-03-11 13:16 OP:cara STATUS:               ID:20160311043752     3
 2016-03-11-0437-52M.COL___268                                                 6
 STAT SP IPHASW D HRMM SECON CODA AMPLIT PERI AZIMU VELO AIN AR TRES W  DIS CAZ7
 BAR2 EZ IP        444  3.17                             165    0.3310 32.0 158 
 BAR2 EZ ES        444 15.92                             165   -0.2510 32.0 158 
 BAR2 EZ I         444 17.36         5.6 0.30            158           32.0 158 
 RUS  HZ EP        444  7.63                             136   -0.4110  109 168 
 RUS  HE ES        444 25.74                             136    0.3210  109 168 
 RUS  HZ I         444 30.57         0.5 0.40            150            109 168 
 SPBC HZ EP        444 12.20                             124    0.02 9  159 213 
 SPBC HN ES        444 32.72                             124   -0.07 9  159 213 
 SPBC HZ I         444 33.97         1.5 0.38            125            159 213 
 ZAR  HZ ES        444 37.75                             119    0.05 9  187 292 
 ZAR  HN ES        444 38.05                                            187 292 
 ZAR  HZ I         445 19.68         1.8 0.50            113            187 292 
                                                                                
