 2013 1211 0858 40.9 L   6.494 -73.538113.1  RSN  5 0.4 1.5LRSN                1
 GAP=198        0.83       8.9     6.2  9.9 -0.6239E+01  0.3197E+02 -0.4222E+02E
 Epicentro: SIMACOTA - SANTANDER                                               3
 ACTION:UPD 14-01-13 10:17 OP:ep   STATUS:               ID:20131211085840 L   I
 OLDACT:REG 13-12-11 08:04 OP:jn   STATUS:               ID:20131211085738     3
 2013-12-11-0857-38M.COL___241                                                 6
 STAT SP IPHASW D HRMM SECON CODA AMPLIT PERI AZIMU VELO AIN AR TRES W  DIS CAZ7
 BAR2 SZ EP        858 57.74                             158    0.5010 40.8  75 
 BAR2 SZ ES        859  9.84                             158   -0.1410 40.8  75 
 BAR2 SZ I         859 11.42        18.6 0.40            150           40.8  75 
 BRR  HZ EP        858 58.58                             146   -0.0010 70.5 344 
 BRR  HZ I         859 20.25         3.5 0.10                          70.5 344 
 PTB  HZ EP        859  1.00                             135   -0.0510  102 273 
 PTB  HE ES   2    859 16.12                             135   -0.63 5  102 273 
 PTB  HZ I         859 20.65         4.5 0.10            129            102 273 
 ZAR  HN ES   2    859 31.75                             117    0.61 4  183 307 
 ZAR  HZ I         859 36.04         5.1 0.30            111            183 307 
 SML  HZ EP        859 17.39                             108   -0.63 8  262 347 
 SML  HE ES   2    859 47.62                             108    0.65 4  262 347 
                                                                                
