 2017  211 0727 29.6 L   6.716 -73.280161.5  RSN  4 0.3 1.1LRSN                1
 GAP=189        0.62       5.9     7.3  6.4  0.2582E+02  0.3575E+01 -0.1169E+01E
 Epicentro: GALAN - SANTANDER                                                  3
 ACTION:UPD 17-05-24 15:35 OP:jn   STATUS:               ID:20170211072729 L   I
 OLDACT:UP  17-02-11 16:52 OP:and  STATUS:               ID:20170211071235d    3
 OLDACT:DUP 17-02-11 16:49 OP:and  STATUS:               ID:20170211071235d    3
 OLDACT:UP  17-02-11 16:40 OP:and  STATUS:               ID:20170211071232     3
 OLDACT:UP  17-02-11 16:38 OP:and  STATUS:               ID:20170211071232     3
 OLDACT:UP  17-02-11 16:35 OP:and  STATUS:               ID:20170211071232     3
 OLDACT:REG 17-02-11 12:58 OP:and  STATUS:               ID:20170211071232     3
 2017-02-11-0718-00M.COL___346                                                 6
 STAT SP IPHASW D HRMM SECON CODA AMPLIT PERI AZIMU VELO AIN AR TRES W  DIS CAZ7
 BAR2 EZ EP        727 50.69                             174   -0.3510 17.4 142 
 BAR2 EZ ES   4    728  5.75                             174   -2.01 0 17.4 142 
 BAR2 EZ I         728  6.52         2.3 0.34            174           17.4 142 
 BRR  HZ EP        727 52.42                             157    0.2710 64.4 312 
 BRR  HN ES        728  9.72                             157   -0.0110 64.4 312 
 RUS  HZ EP   2    727 55.15                             149    0.66 5 93.6 167 
 RUS  HN ES        728 13.92                             149    0.0310 93.6 167 
 PTB  HZ EP        727 56.41                             139   -0.1510  132 262 
 PTB  HN ES   2    728 17.67                             139    0.10 5  132 262 
                                                                                
