 2016  311 0939 36.0 L   6.791 -73.140140.2  RSN  6 0.3 1.7LRSN                1
 GAP=183        0.73       2.4     4.7  5.4  0.1052E+01  0.6144E+01 -0.1461E+01E
 Epicentro: LOS SANTOS - SANTANDER                                             3
 ACTION:UPD 16-05-13 21:23 OP:cam  STATUS:               ID:20160311093936 L   I
 OLDACT:REG 16-03-11 14:10 OP:cara STATUS:               ID:20160311093748     3
 2016-03-11-0937-48M.COL___264                                                 6
 STAT SP IPHASW D HRMM SECON CODA AMPLIT PERI AZIMU VELO AIN AR TRES W  DIS CAZ7
 BAR2 EZ EP        939 54.79                             170   -0.2010 22.5 192 
 BAR2 EZ ES        940  9.56                             170   -0.2010 22.5 192 
 BAR2 EZ I         940 10.94         8.5 0.42            170           22.5 192 
 RUS  HZ EP        939 58.85                             143   -0.3310 99.6 176 
 RUS  HN ES        940 17.28                             143    0.0610 99.6 176 
 RUS  HZ I         940 18.47         3.2 0.26            146           99.6 176 
 OCA  HZ EP        940  4.20                             128    0.17 9  161 353 
 OCA  HN ES        940 26.27                             128    0.42 9  161 353 
 OCA  HZ I         940 33.02        10.1 0.34            129            161 353 
 SPBC HN ES        940 26.47                             128    0.51 9  163 219 
 SPBC HZ I         940 30.86         9.3 0.20            129            163 219 
 ZAR  HZ EP        940  8.23                             121   -0.00 9  205 292 
 ZAR  HN ES        940 32.89                             121   -0.45 9  205 292 
 ZAR  HZ I         940 37.99         5.0 0.26            121            205 292 
 CHI  HZ EP        940 13.26                             116   -0.10 8  248 195 
 CHI  HN ES        940 42.69                             116    0.23 8  248 195 
 CHI  HZ I         940 44.86         2.3 0.36            118            248 195 
                                                                                
