 2013  311 0640 44.1 L   6.784 -73.134141.0  RSN  5 0.3 1.8LRSN                1
 GAP=238        0.59       7.4     6.4  8.1  0.2946E+02  0.2374E+01 -0.3598E+01E
 Epicentro: LOS SANTOS - SANTANDER                                             3
 ACTION:UPD 13-04-09 14:01 OP:ep   STATUS:               ID:20130311064044 L   I
 2013-03-11-0640-00M.COL___231                                                 6
 STAT SP IPHASW D HRMM SECON CODA AMPLIT PERI AZIMU VELO AIN AR TRES W  DIS CAZ7
 BAR2 SZ ES   2    641 17.28                             171   -0.64 5 21.9 194 
 BAR2 SZ I         641 18.70         6.4 0.30            168           21.9 194 
 BRR  HZ EP   1    641  4.86                             151    0.05 7 73.2 299 
 BRR  HN ES   2    641 21.27                             151    0.28 5 73.2 299 
 BRR  HN I         641 25.47        13.1 0.16            149           73.2 299 
 RUS  HZ EP   1    641  7.39                             143    0.19 7 98.7 177 
 RUS  HN ES   2    641 25.70                             143    0.45 5 98.7 177 
 RUS  HN I         641 27.10         5.4 0.38            146           98.7 177 
 PTB  HZ EP   1    641 10.23                             131   -0.50 7  149 260 
 PTB  HN ES   1    641 31.48                             131   -0.05 7  149 260 
 PTB  HN I         641 35.91         6.7 0.26            131            149 260 
 ZAR  HN ES   1    641 41.89                             121    0.27 6  206 292 
 ZAR  HN I         641 46.14        16.8 0.94            122            206 292 
                                                                                
