 2010  611 0917 28.3 L   6.837 -73.151145.6  RSN  6 0.4 1.2LRSN                1
 GAP=158        0.92       3.2    16.1  8.5 -0.2442E+02  0.4418E+02 -0.5460E+01E
 Epicentro: LOS SANTOS - SANTANDER                                             3
 ACTION:UP  10-08-24 10:09 OP:vdl  STATUS:               ID:20100611091728 L   I
 2010-06-11-0914-55S.COL___117                                                 6
 STAT SP IPHASW D HRMM SECON CODA AMPLIT PERI AZIMU VELO SNR AR TRES W  DIS CAZ7
 BAR2 SZ EP   1    917 47.51                             169    -0.4 8   27 188 
 BAR2 SZ ES   1    918  3.22                             169    -0.1 8   27 188 
 RUS  HZ EP   1    917 51.55                             142    -0.7 7  105 176 
 RUS  HZ I         918 11.11         1.8 0.38                           105 176 
 RUS  HN ES        918 11.44                             142     0.410  105 176 
 GUE  SZ EP        917 52.99                             140     0.310  113  13 
 GUE  SZ ES        918 11.86                             140     0.210  113  13 
 GRA  SZ EP   1    917 53.30                             138     0.1 7  122  18 
 GRA  SZ ES   1    918 11.95                             138    -0.7 7  122  18 
 OCA  SZ EP        917 56.46                             130     0.3 9  156 353 
 OCA  SZ ES        918 17.77                             130    -0.2 9  156 353 
 OCA  SZ I         918 23.06         2.7 0.25                           156 353 
 CHI  HE ES        918 36.04                             117     0.0 8  252 195 
                                                                                
