 2012  411 0916  3.1 L   6.768 -73.076145.8  RSN  4 0.3 1.6LRSN                1
 GAP=242        0.63       9.6    15.4  7.1  0.1206E+03 -0.1843E+02 -0.1462E+02E
 Epicentro: LOS SANTOS - SANTANDER                                             3
 ACTION:UPD 12-07-05 11:52 OP:tino STATUS:               ID:20120411091603 L   I
 2012-04-11-0910-00M.COL___176                                                 6
 STAT SP IPHASW D HRMM SECON CODA AMPLIT PERI AZIMU VELO AIN AR TRES W  DIS CAZ7
 BAR2 SZ EP   1    916 22.82                             170     0.1 7   23 211 
 BAR2 SZ I         916 36.57        11.5 1.03                            23 211 
 BAR2 SZ ES   1    916 37.62                             170    -0.4 7   23 211 
 BRR  HZ EP        916 24.75                             149     0.010   80 298 
 BRR  HN ES   1    916 42.00                             149     0.3 7   80 298 
 BRR  HZ I         916 46.11         6.4 1.40                            80 298 
 RUS  HZ EP   1    916 26.79                             145     0.2 7   97 181 
 RUS  HN ES   1    916 45.10                             145     0.2 7   97 181 
 PTB  HZ EP   2    916 30.18                             130    -0.6 5  155 261 
                                                                                
