 2017  511 0242 31.2 L   6.786 -73.156148.4  RSN  7 0.3 1.4LRSN                1
 GAP=136        0.77       3.9     4.0  7.0 -0.3390E+01  0.4799E+00  0.3444E+01E
 Epicentro: LOS SANTOS - SANTANDER                                             3
 ACTION:UPD 17-06-16 13:34 OP:jn   STATUS:               ID:20170511024231 L   I
 OLDACT:UP  17-05-15 19:25 OP:nlst STATUS:               ID:20170511024231 L   3
 OLDACT:UP  17-05-11 16:33 OP:osc  STATUS:               ID:20170511023744     3
 OLDACT:UP  17-05-11 16:32 OP:osc  STATUS:               ID:20170511023744     3
 OLDACT:REG 17-05-11 13:04 OP:osc  STATUS:               ID:20170511023744     3
 2017-05-11-0238-00M.COL___362                                                 6
 STAT SP IPHASW D HRMM SECON CODA AMPLIT PERI AZIMU VELO AIN AR TRES W  DIS CAZ7
 BRR  HZ EP     C  242 52.85                             153    0.2410 70.9 300 
 BRR  HN ES        243  9.81                             153    0.4910 70.9 300 
 BRR  HZ I         243 14.13         6.7 0.36            149           70.9 300 
 PAM  EZ EP        242 53.81                             151    0.0110 79.3  39 
 PAM  EN ES        243 11.06                             151   -0.3810 79.3  39 
 PAM  EZ I         243 11.55         2.8 0.18            154           79.3  39 
 RUS  HZ EP        242 55.17                             145    0.0710 99.1 175 
 RUS  HE ES        243 13.87                             145    0.1210 99.1 175 
 RUS  HZ I         243 15.09         5.3 0.28            146           99.1 175 
 PTB  HZ EP   1    242 58.12                             133   -0.13 7  146 259 
 PTB  HN ES        243 18.83                             133   -0.52 9  146 259 
 PTB  HZ I         243 20.84         2.8 0.40            131            146 259 
 SPBC HN ES   1    243 21.92                             130   -0.04 7  161 219 
 ZAR  HZ EP   9    243  0.25                             123   -3.51 0  204 293 
 ZAR  HE ES   9    243 29.94                                    4.29 0  204 293 
 ZAR  HZ I         243 34.57         4.4 0.16            122            204 293 
 NOR  HZ EP   4    243 11.56                             119    4.68 0  233 235 
 NOR  HE ES   4    243 35.37                             119    0.66 0  233 235 
 NOR  HZ I         243 41.91         1.6 0.16            119            233 235 
                                                                                
