 2012  211 0545 55.3 L   6.799 -73.170145.8  RSN  7 0.4 1.4LRSN                1
 GAP=133        0.79       5.2     5.1  8.3  0.3716E+00  0.6534E+01  0.6321E+01E
 ACTION:UP  12-03-07 16:29 OP:epov STATUS:               ID:20120211054555 L   I
 2012-02-11-0540-00M.COL___188                                                 6
 STAT SP IPHASW D HRMM SECON CODA AMPLIT PERI AZIMU VELO AIN AR TRES W  DIS CAZ7
 BAR2 SZ EP   3    546 14.79                             171   -0.15 2 22.9 183 
 GIR2 SZ EP   3    546 14.83                             167   -0.16 2 31.0 355 
 BRR  HZ EP        546 16.57                             153    0.2310 68.9 300 
 BRR  HN ES   1    546 33.53                             153    0.79 7 68.9 300 
 PAM  SZ EP        546 17.64                             150    0.0010 79.2  41 
 PAM  SN ES   1    546 34.54                             150   -0.52 7 79.2  41 
 RUS  HZ EP        546 19.36                             144    0.2810  101 175 
 RUS  HN ES   1    546 37.31                             144   -0.31 7  101 175 
 RUS  HZ I         546 39.30         3.6 0.30                           101 175 
 PTB  HZ EP        546 21.80                             132   -0.24 9  145 259 
 PTB  HN ES   2    546 42.27                             132   -0.62 5  145 259 
 PTB  HZ I         546 44.75         2.4 0.14                           145 259 
 ZAR  HN ES   2    546 51.98                             123   -0.64 4  202 292 
 ZAR  HZ I         546 58.34         3.6 0.36                           202 292 
                                                                                
