 2017  411 0404  0.5 L   6.799 -73.187146.6  RSN  7 0.3 1.5LRSN                1
 GAP=109        0.77       3.1     3.4  5.4  0.1082E+01  0.6153E+01  0.1729E+01E
 Epicentro: ZAPATOCA - SANTANDER                                               3
 ACTION:UPD 17-05-30 21:10 OP:jn   STATUS:               ID:20170411040400 L   I
 OLDACT:UP  17-04-11 16:25 OP:edw  STATUS:               ID:20170411035743     3
 OLDACT:REG 17-04-11 11:56 OP:edw  STATUS:               ID:20170411035743     3
 2017-04-11-0358-00M.COL___371                                                 6
 STAT SP IPHASW D HRMM SECON CODA AMPLIT PERI AZIMU VELO AIN AR TRES W  DIS CAZ7
 BAR2 EZ EP        4 4 20.25                             171    0.0010 22.9 179 
 BAR2 EZ ES        4 4 35.62                             171   -0.0110 22.9 179 
 BAR2 EZ I         4 4 38.01         7.5 0.44            171           22.9 179 
 PAM  EZ EP     C  4 4 23.22                             150    0.2110 80.4  42 
 PAM  EN ES        4 4 40.25                             150   -0.3010 80.4  42 
 PAM  EZ I         4 4 42.34         5.1 0.52            154           80.4  42 
 RUS  HZ EP        4 4 24.38                             144   -0.0010  101 173 
 RUS  HN ES        4 4 43.44                             144    0.4510  101 173 
 RUS  HZ I         4 4 44.08         6.7 0.32            147            101 173 
 PTB  HZ EP        4 4 26.54                             133   -0.62 9  143 259 
 PTB  HN ES        4 4 47.72                             133   -0.21 9  143 259 
 PTB  HZ I         4 4 51.54         4.0 0.18            132            143 259 
 YPLC HN ES   2    4 4 53.76                             126   -0.28 4  179 150 
 ZAR  HZ EP        4 4 32.78                             123    0.19 9  200 293 
 ZAR  HN ES        4 4 58.05                             123    0.44 9  200 293 
 ZAR  HZ I         4 5  8.69         2.4 0.24            123            200 293 
 CHI  HZ EP        4 4 38.42                             117    0.29 8  247 194 
 CHI  HN ES        4 5  7.15                             117   -0.32 8  247 194 
 CHI  HZ I         4 5 10.96         1.9 0.42            119            247 194 
                                                                                
