 2010  311 0733 32.3 L   6.511 -73.894 22.0  RSN  4 0.2 1.8LRSN                1
 GAP=132        0.56       4.4     3.2  6.4  0.8904E+01  0.1250E+02  0.2576E+02E
 Epicentro: PUERTO PARRA - SANTANDER                                           3
 ACTION:UP  10-08-24 09:53 OP:vdl  STATUS:               ID:20100311073332 L   I
 2010-03-11-0728-29S.COL___091                                                 6
 STAT SP IPHASW D HRMM SECON CODA AMPLIT PERI AZIMU VELO SNR AR TRES W  DIS CAZ7
 BRR  HZ IP        733 43.61                             105    -0.110   69  17 
 BRR  HE ES        733 52.75                             105     0.110   69  17 
 BRR  HZ I         733 53.88        66.2 0.13                            69  17 
 BAR2 SZ IP        733 45.62                             104     0.110   79  84 
 BAR2 SZ ES   1    733 55.44                             104    -0.3 7   79  84 
 RUS  BZ IP        733 50.92                              56     0.210  113 127 
 RUS  BE ES        734  5.09                              56     0.010  113 127 
 RUS  BZ I         734  5.99        17.4 0.36                           113 127 
 HEL  HZ EP   2    733 59.92                              56     0.4 4  184 259 
 HEL  HE ES   2    734 20.17                              56    -0.6 4  184 259 
 HEL  HZ I         734 21.29         6.8 0.22                           184 259 
                                                                                
