 2016  711 0230 18.9 L   6.498 -73.560 20.0  RSN 14 0.5 2.3LRSN                1
 GAP=128        1.03       3.3     2.3  4.2  0.1373E+01  0.6047E+01  0.1635E+01E
 Epicentro: SANTA HELENA DEL OPON - SANTANDER                                  3
 ACTION:UPD 17-03-29 16:49 OP:lp   STATUS:               ID:20160711023018 L   I
 OLDACT:REG 16-07-11 12:15 OP:lv   STATUS:               ID:20160711022747     3
 2016-07-11-0227-47M.COL___331                                                 6
 STAT SP IPHASW D HRMM SECON CODA AMPLIT PERI AZIMU VELO AIN AR TRES W  DIS CAZ7
 BAR2 EZ IP        230 26.97                             114    0.1910 43.0  76 
 BAR2 EZ ES        230 32.91                             114    0.0010 43.0  76 
 BAR2 EZ I         230 34.39       271.0 0.28             47           43.0  76 
 RUS  HZ IP     C  230 33.05                             102   -0.1410 85.2 142 
 RUS  HN ES        230 43.84                             102   -0.4810 85.2 142 
 RUS  HZ I         230 44.77        94.5 0.18             47           85.2 142 
 PTB  HN IP     C  230 34.75                             100   -0.0310 99.3 273 
 PTB  HZ IP     D  230 34.75                             100   -0.0310 99.3 273 
 PTB  HN ES        230 47.35                             100    0.2010 99.3 273 
 PTB  HZ I         230 47.86       263.1 0.24             47           99.3 273 
 SPBC HZ IP     D  230 36.69                              99    0.3110  109 211 
 SPBC HN ES   4    230 51.67                              99    1.68 0  109 211 
 SPBC HZ I         230 54.00       151.3 0.14             47            109 211 
 NOR  HZ EP   2    230 46.09                              56    0.96 4  178 235 
 NOR  HN ES        231  5.32                              56   -0.25 9  178 235 
 NOR  HZ I         231 11.46        24.0 0.22             37            178 235 
 ZAR  HZ EP   2    230 45.34                              56   -0.07 4  181 308 
 ZAR  HE ES        231  5.68                              56   -0.39 9  181 308 
 ZAR  HZ I         231 11.55        33.1 0.36             47            181 308 
 TAM  HZ EP   2    230 49.09                              56    1.76 4  196  92 
 TAM  HN ES   4    231 11.74                              56    2.25 0  196  92 
 TAM  HZ I         231 17.04        20.6 0.26             37            196  92 
 ROSC BZ EP   4    230 50.36                              56    1.85 0  202 205 
 ROSC BE ES   4    231 16.22                              56    4.64 0  202 205 
 ROSC BZ I         231 27.60        34.6 0.50             37            202 205 
 CHI  HZ EP   4    230 51.37                              56    2.12 0  208 185 
 CHI  HE ES   4    231 16.37                              56    3.47 0  208 185 
 CHI  HZ I         231 23.90        14.8 0.60             37            208 185 
 HEL  HZ EP        230 50.76                              56   -0.06 8  221 261 
 HEL  HN ES        231 14.93                              56   -0.77 8  221 261 
 HEL  HZ I         231 16.26        14.8 0.26             37            221 261 
 GUY2CHZ EP   4    230 55.32                              56    1.36 0  245 235 
 GUY2CHN ES        231 22.17                              56    0.89 8  245 235 
 GUY2CHZ I         231 30.21        16.1 0.30                           245 235 
 CBOC HZ EP   4    230 59.64                              55    1.59 0  280 256 
 CBOC HN ES   4    231 30.03                              55    1.47 0  280 256 
 CBOC HZ I         231 40.86         6.5 0.55             37            280 256 
 PTGC HZ EP   4    231  2.19                              55    2.00 0  299 148 
 PTGC HN ES   4    231 34.93                              55    2.56 0  299 148 
 PTGC HZ I         231 46.99         8.2 0.44             36            299 148 
 BET  EN E         232 30.94                                            466 206 
                                                                                
