 2012  711 0431 37.6 L   6.932 -72.873126.2  RSN  4 0.4 1.5LRSN                1
 GAP=270        0.86      13.7    20.0 10.6  0.2326E+03 -0.9332E+02 -0.5580E+02E
 Epicentro: GUACA - SANTANDER                                                  3
 ACTION:UPD 12-08-14 11:44 OP:ep   STATUS:               ID:20120711043137 L   I
 2012-07-11-0430-00M.COL___188                                                 6
 STAT SP IPHASW D HRMM SECON CODA AMPLIT PERI AZIMU VELO AIN AR TRES W  DIS CAZ7
 BAR2 SZ EP   2    431 56.38                             157     0.5 5   51 222 
 BAR2 SZ ES   1    432 10.66                             157     0.5 7   51 222 
 BAR2 SZ I         432 12.43        10.4 0.18            160             51 222 
 BRR  HZ EP   1    431 58.29                             141    -0.1 7   95 282 
 BRR  HN ES        432 14.30                             141    -0.310   95 282 
 BRR  HZ I         432 16.32         8.5 0.14            144             95 282 
 RUS  HZ EP   1    432  0.50                             135    -0.4 7  117 191 
 RUS  HN ES   1    432 18.88                             135    -0.2 7  117 191 
 RUS  HZ I         432 19.91         3.8 0.22            138            117 191 
 PTB  HZ EP   1    432  6.96                             121     0.6 7  180 256 
