 2012  111 0026 22.9 L   6.794 -73.079149.4  RSN 14 0.3 2.3LRSN                1
 GAP=145        0.62       2.4     3.9  4.1 -0.2009E+01  0.3069E+01  0.9790E+00E
 Epicentro: LOS SANTOS - SANTANDER                                             3
 ACTION:UP  12-02-03 08:16 OP:REBC STATUS:               ID:20120111002622 L   I
 2012-01-11-0020-00M.COL___187                                                 6
 STAT SP IPHASW D HRMM SECON CODA AMPLIT PERI AZIMU VELO SNR AR TRES W  DIS CAZ7
 BAR2 SZ EP   1    026 42.79                             170    -0.2 7   25 207 
 BAR2 SZ ES   1    026 58.38                             170    -0.3 7   25 207 
 BAR2 SZ I         027  0.70        57.2 0.29                            25 207 
 GIR2 SZ EP        026 43.12                             167     0.010   34 338 
 GIR2 SZ ES   2    026 58.35                             167    -0.5 5   34 338 
 PAM  SZ EP        026 45.79                             153     0.510   73  35 
 PAM  SN ES   1    027  2.79                             153     0.1 7   73  35 
 BRR  HZ IP        026 44.87                             151     0.010   78 296 
 BRR  HZ I         026 45.17        46.1 0.20                            78 296 
 BRR  HE ES   1    027  2.41                             151     0.5 7   78 296 
 RUS  HZ EP        026 46.82                             145    -0.110  100 180 
 RUS  HE ES   1    027  5.77                             145     0.1 7  100 180 
 RUS  HZ I         027  6.89        14.3 0.34                           100 180 
 PTB  HZ EP   2    026 49.98                             131    -0.8 5  155 260 
 PTB  HE ES   2    027 12.08                             131    -0.5 5  155 260 
 OCA  SZ EP   1    026 51.49                             130    -0.2 7  162 351 
 OCA  SZ ES   2    027 14.18                             130     0.1 5  162 351 
 OCA  SZ I         027 19.43        22.1 0.27                           162 351 
 ZAR  HE ES   2    027 22.29                             122    -0.1 4  211 292 
 ZAR  HZ I         027 27.71        15.0 0.25                           211 292 
 NOR  SZ EP   1    026 59.56                             119     0.1 6  240 236 
 NOR  SE ES   2    027 28.34                             119     0.4 4  240 236 
 CHI  HZ EP   1    027  0.82                             118    -0.1 6  250 197 
 CHI  HN ES   1    027 30.47                             118    -0.2 6  250 197 
 CHI  HZ I         027 33.92         8.8 0.53                           250 197 
 GUY  SZ EP   2    027  8.25                             112     0.7 4  309 236 
 GUY  SZ I         027 50.38        17.6 0.45                           309 236 
 RREF HZ EP   2    027  9.96                             111     0.2 3  327 230 
 RREF HE ES   2    027 46.92                             111     0.6 3  327 230 
 RREF HZ I         027 55.52        12.6 0.36                           327 230 
 COD  HZ EP   2    027 10.86                             109    -0.7 3  350 353 
 COD  HN ES   1    027 49.25                             109    -0.3 5  350 353 
 PRA  HZ EP   1    027 16.83                             107    -0.1 4  395 211 
 PRA  HE ES   2    027 58.86                             107    -0.2 3  395 211 
                                                                                
