 2017  411 0215 10.2 L   6.766 -73.136149.3  RSN  7 0.3 1.5LRSN                1
 GAP=139        0.91       4.3     6.3  5.7 -0.1292E+02  0.8152E+01 -0.3378E+00E
 Epicentro: LOS SANTOS - SANTANDER                                             3
 ACTION:UPD 17-05-30 21:10 OP:jn   STATUS:               ID:20170411021510 L   I
 OLDACT:UP  17-04-11 15:41 OP:edw  STATUS:               ID:20170411020520     3
 OLDACT:UP  17-04-11 15:40 OP:edw  STATUS:               ID:20170411020520     3
 OLDACT:REG 17-04-11 11:50 OP:edw  STATUS:               ID:20170411020520     3
 2017-04-11-0208-00M.COL___371                                                 6
 STAT SP IPHASW D HRMM SECON CODA AMPLIT PERI AZIMU VELO AIN AR TRES W  DIS CAZ7
 BAR2 EZ EP        215 30.28                             172    0.0610 19.9 195 
 BAR2 EZ ES        215 45.81                             172   -0.0010 19.9 195 
 PAM  EZ EP        215 33.30                             150    0.3510 79.6  37 
 PAM  EN ES        215 50.43                             150   -0.2510 79.6  37 
 PAM  EZ I         215 52.71         5.3 0.30            152           79.6  37 
 RUS  HZ EP        215 34.44                             145    0.3810 96.8 177 
 RUS  HN ES        215 52.19                             145   -0.4610 96.8 177 
 RUS  HZ I         215 54.11         3.1 0.42            149           96.8 177 
 PTB  HZ EP   9    215 36.86                             132   -0.65 0  148 260 
 PTB  HN ES        215 57.48                             133   -0.67 9  148 260 
 PTB  HZ I         216  0.92         2.7 0.12            131            148 260 
 SPBC HZ EP        215 38.72                             130   -0.07 9  161 220 
 SPBC HN ES        216  1.53                             130    0.46 9  161 220 
 SPBC HZ I         216  4.35         8.7 0.24            130            161 220 
 ZAR  HZ EP        215 42.96                             122   -0.19 8  206 293 
 ZAR  HN ES   4    216  9.98                             122    1.15 0  206 293 
 ZAR  HZ I         216 17.03         2.2 0.26            121            206 293 
 CHI  HZ EP        215 47.22                             118   -0.54 8  245 196 
 CHI  HN ES        216 17.16                             118    0.11 8  245 196 
                                                                                
