 2017  311 0608 25.9 L   6.995 -73.214125.0  RSN  7 0.4 1.3LRSN                1
 GAP=129        0.65       2.8     2.8  4.9 -0.3242E+00  0.1457E+01  0.3397E-01E
 Epicentro: GIRON - SANTANDER                                                  3
 ACTION:UPD 17-05-25 18:39 OP:jn   STATUS:               ID:20170311060825 L   I
 OLDACT:UP  17-03-11 14:58 OP:and  STATUS:               ID:20170311060742     3
 OLDACT:UP  17-03-11 14:58 OP:and  STATUS:               ID:20170311060742     3
 OLDACT:UP  17-03-11 14:58 OP:and  STATUS:               ID:20170311060742     3
 OLDACT:UP  17-03-11 14:58 OP:and  STATUS:               ID:20170311060742     3
 OLDACT:REG 17-03-11 12:39 OP:and  STATUS:               ID:20170311060742     3
 2017-03-11-0608-00M.COL___388                                                 6
 STAT SP IPHASW D HRMM SECON CODA AMPLIT PERI AZIMU VELO AIN AR TRES W  DIS CAZ7
 BAR2 EZ EP        6 8 43.53                             160   -0.2410 44.7 176 
 BAR2 EZ ES        6 8 58.01                             160    0.3110 44.7 176 
 BAR2 EZ I         6 8 58.86        11.8 0.28            160           44.7 176 
 BRR  HZ IP   2 D  6 8 43.53                             154   -0.46 5 56.4 283 
 BRR  HN ES        6 8 58.17                             154    0.0810 56.4 283 
 PAM  EZ EP        6 8 45.29                             150   -0.0910 68.3  56 
 PAM  EN ES        6 9  0.58                             150    0.0110 68.3  56 
 RUS  HZ EP   2    6 8 49.51                             133   -0.06 5  123 173 
 RUS  HN ES        6 9  8.19                             133    0.1710  123 173 
 RUS  HZ I         6 9  9.55         1.3 0.18            133            123 173 
 PTB  HZ EP   9    6 8 50.27                             128   -0.86 0  146 250 
 PTB  HN ES        6 9  9.97                             127    0.03 9  146 250 
 PTB  HZ I         6 9 11.36         4.0 0.18            126            146 250 
 SPBC HZ EP   3    6 8 55.97                             122    1.71 2  176 213 
 SPBC HN ES        6 9 15.92                             122   -0.44 9  176 213 
 SPBC HZ I         6 9 17.41         1.9 0.10            121            176 213 
 ZAR  HZ EP   2    6 8 56.42                             120    0.86 4  190 287 
 ZAR  HN ES        6 9 18.69                             120    0.01 9  190 287 
 ZAR  HZ I         6 9 23.10         1.8 0.13            119            190 287 
                                                                                
