 2015 1011 0623  1.1 L   7.131 -73.345  4.0  RSN 12 0.4 1.7LRSN                1
 GAP= 91        0.99       1.7     1.9  4.3  0.1748E+00  0.2996E+01  0.1086E+01E
 Epicentro: LEBRIJA - SANTANDER                                                3
 ACTION:UPD 15-12-22 20:39 OP:cam  STATUS:               ID:20151011062301 L   I
 OLDACT:REG 15-10-11 13:21 OP:ak   STATUS:               ID:20151011061748     3
 2015-10-11-0617-48M.COL___340                                                 6
 STAT SP IPHASW D HRMM SECON CODA AMPLIT PERI AZIMU VELO AIN AR TRES W  DIS CAZ7
 BRR  HZ IP     D  623  7.75                              90   -0.1210 40.6 266 
 BRR  HN ES        623 13.25                              90    0.1210 40.6 266 
 BRR  HZ I         623 22.50        23.9 0.34             47           40.6 266 
 BAR2 EZ IP     C  623 11.21                              90   -0.1810 62.3 163 
 BAR2 EZ ES        623 19.19                              90   -0.2110 62.3 163 
 BAR2 EZ I         623 19.40        19.8 0.14             47           62.3 163 
 PAM  EZ IP     D  623 13.60                              90    0.0410 74.9  72 
 PAM  EE ES        623 22.92                              90   -0.3510 74.9  72 
 PAM  EZ I         623 24.66        15.5 0.18             47           74.9  72 
 OCA  HZ EP        623 20.89                              90    0.4610  123   1 
 OCA  HN ES        623 35.72                              90    0.2210  123   1 
 OCA  HZ I         623 38.59        40.4 0.36             47            123   1 
 RUS  HZ EP        623 23.63                              90    0.20 9  140 168 
 RUS  HE ES        623 40.35                              90   -0.49 9  140 168 
 RUS  HZ I         623 48.63         5.5 0.18             47            140 168 
 ZAR  HZ EP        623 27.81                              90    0.06 9  172 284 
 ZAR  HN ES        623 47.58                              90   -0.94 9  172 284 
 ZAR  HZ I         623 48.73        21.8 0.28             47            172 284 
 SPBC HZ EP   1    623 30.03                              56    0.76 7  182 206 
 SPBC HN ES        623 52.21                              56    0.99 9  182 206 
 SPBC HZ I         623 55.39        16.8 0.17             37            182 206 
 SML  HZ EP   1    623 31.66                              56    0.13 6  201 337 
 SML  HN ES        623 55.03                              56   -0.22 9  201 337 
 SML  HZ I         623 58.79        16.6 0.12             37            201 337 
 NOR  HZ EP   2    623 36.92                              56    0.25 4  242 224 
 NOR  HN ES        624  4.40                              56    0.00 8  242 224 
 HEL  HZ EP        623 39.84                              56    0.16 8  263 247 
 HEL  HN ES        624  9.21                              56   -0.55 8  263 247 
 HEL  HZ I         624 11.74         2.5 0.22             37            263 247 
 CHI  HZ EP   4    623 44.93                              56    3.07 0  280 189 
 CHI  HN ES   4    624 17.41                              56    3.76 0  280 189 
 CHI  HZ I         624 31.75         1.4 0.30             37            280 189 
 GUY2CHZ EP   1    623 46.15                              55    0.81 5  307 227 
 GUY2CHN ES        624 19.82                              55   -0.02 7  307 227 
 GUY2CHZ I         624 25.29         3.2 0.52                           307 227 
                                                                                
