 2017  511 0920 34.8 L   6.695 -73.210156.3  RSN  5 0.2 1.4LRSN                1
 GAP=202        0.66       5.3     5.5  5.7  0.1991E+02 -0.1103E+01 -0.4103E+01E
 Epicentro: VILLANUEVA - SANTANDER                                             3
 ACTION:UPD 17-06-16 13:35 OP:jn   STATUS:               ID:20170511092034 L   I
 OLDACT:UP  17-05-11 16:10 OP:edw  STATUS:               ID:20170511091738     3
 OLDACT:REG 17-05-11 13:45 OP:osc  STATUS:               ID:20170511091738     3
 2017-05-11-0918-00M.COL___353                                                 6
 STAT SP IPHASW D HRMM SECON CODA AMPLIT PERI AZIMU VELO AIN AR TRES W  DIS CAZ7
 BRR  HZ EP     D  920 57.01                             154   -0.1310 71.8 309 
 BRR  HN ES        921 14.64                             154    0.0910 71.8 309 
 BRR  HZ I         921 19.22         5.5 0.42            152           71.8 309 
 RUS  HZ EP        920 59.28                             149    0.3710 89.9 171 
 RUS  HN ES        921 17.41                             149   -0.2910 89.9 171 
 RUS  HZ I         921 21.08         3.3 0.42            150           89.9 171 
 PTB  HZ EP        921  1.94                             136    0.04 9  139 263 
 PTB  HN ES        921 23.02                             136   -0.00 9  139 263 
 PTB  HZ I         921 30.63         2.1 0.40            135            139 263 
 ZAR  HZ EP        921  7.45                             125   -0.34 9  202 296 
 ZAR  HN ES        921 33.75                             125    0.24 9  202 296 
 ZAR  HZ I         921 39.96         2.6 0.36            126            202 296 
 SJC  HZ EP   9    921 28.46                             107   -2.98 0  415 329 
 SJC  HN ES        922 11.99                             108   -0.64 6  415 329 
                                                                                
