 2012 1111 0627 26.0 L   6.803 -73.161142.2  RSN 13 0.5 2.6LRSN                1
 GAP= 70        1.24       3.6     3.7  5.7 -0.8467E+00  0.5348E+01  0.7822E+00E
 Epicentro: LOS SANTOS - SANTANDER                                             3
 ACTION:UPD 12-12-05 15:32 OP:}ep  STATUS:               ID:20121111062726 L   I
 2012-11-11-0620-00M.COL___230                                                 6
 STAT SP IPHASW D HRMM SECON CODA AMPLIT PERI AZIMU VELO AIN AR TRES W  DIS CAZ7
 BAR2 SZ EP        627 45.31                             170    0.1510 23.4 186 
 BAR2 SZ ES        627 59.86                             170   -0.2810 23.4 186 
 BAR2 SZ I         628  1.26        82.1 0.18                          23.4 186 
 GIR2 SZ EP        627 45.38                             167    0.1910 30.7 353 
 GIR2 SZ ES        628  0.59                             167    0.4010 30.7 353 
 BRR  HZ EP        627 47.15                             152    0.5210 69.5 299 
 BRR  HN ES        628  3.65                             152    0.9010 69.5 299 
 BRR  HN I         628  8.09        93.9 0.14                          69.5 299 
 PAM  SZ IP     C  627 48.24                             150    0.3910 78.2  41 
 PAM  SZ I         627 48.43        65.6 0.22                          78.2  41 
 PAM  SN ES        628  4.95                             150    0.0310 78.2  41 
 RUS  HZ EP        627 49.23                             143   -0.1610  101 175 
 RUS  HN ES        628  7.39                             143   -0.2810  101 175 
 PTB  HZ EP        627 52.19                             132   -0.30 9  146 259 
 PTB  HN ES        628 12.10                             132   -1.08 9  146 259 
 PTB  HN I         628 15.35        67.6 0.24                           146 259 
 TAM  HZ IP     C  627 53.57                             129    0.05 9  157 105 
 TAM  HZ I         627 53.72        33.1 0.20                           157 105 
 TAM  HN ES        628 14.66                             129   -0.36 9  157 105 
 OCA  HZ EP        627 53.60                             129   -0.34 9  160 354 
 OCA  HN ES        628 15.07                             129   -0.70 9  160 354 
 OCA  HN I         628 16.35       120.8 0.18                           160 354 
 ZAR  HZ EP        627 58.95                             122    0.95 9  202 292 
 NOR  HZ EP        628  0.85                             118   -0.50 8  233 234 
 NOR  HN ES        628 29.15                             118    0.19 8  233 234 
 NOR  HN I         628 31.77        44.7 0.16                           233 234 
 SML  HZ EP        628  1.71                             117   -0.57 8  243 336 
 SML  HE ES        628 30.34                             117   -0.26 8  243 336 
 ROSC BZ EP        628  4.64                             116    0.82 8  252 211 
 ROSC BZ I         628  6.96         7.0 0.25                           252 211 
 HEL  HZ EP        628  5.96                             114    0.14 8  270 256 
 HEL  HE ES        628 36.77                             114   -0.13 8  270 256 
 HEL  HE I         628 44.41        19.8 0.34                           270 256 
                                                                                
