 2012  511 0516 15.8 L   6.801 -73.151143.5  RSN 11 0.4 2.7LRSN                1
 GAP=136        0.91       3.3     4.3  6.1 -0.2621E+01  0.5489E+01  0.4766E+01E
 Epicentro: LOS SANTOS - SANTANDER                                             3
 ACTION:DUP 12-07-05 12:04 OP:pat  STATUS:               ID:20120511051615 L   I
 2012-05-11-0510-00M.COL___195                                                 6
 STAT SP IPHASW D HRMM SECON CODA AMPLIT PERI AZIMU VELO SNR AR TRES W  DIS CAZ7
 BAR2 SZ EP        516 35.31                             170     0.210   23 188 
 BAR2 SZ ES   1    516 49.76                             170    -0.4 7   23 188 
 BAR2 SZ I         516 52.05        54.0 0.17                            23 188 
 BRR  HZ EP   1    516 37.07                             152     0.5 7   71 299 
 BRR  HZ I         516 38.64       118.9 0.12                            71 299 
 BRR  HN ES        516 53.72                             152     0.810   71 299 
 PAM  SZ EP        516 38.01                             150     0.310   78  40 
 PAM  SN ES        516 54.66                             150    -0.210   78  40 
 RUS  HZ EP   1    516 39.42                             143     0.1 7  101 176 
 RUS  HN ES   1    516 57.16                             143    -0.5 7  101 176 
 PTB  HZ EP   1    516 42.05                             132    -0.4 7  147 259 
 PTB  HN ES   1    517  2.86                             132    -0.5 7  147 259 
 PTB  HZ I         517  5.60        50.8 0.13                           147 259 
 OCA  HZ EP   1    516 43.76                             129    -0.1 7  160 353 
 OCA  HN ES   1    517  5.35                             129    -0.4 7  160 353 
 OCA  HZ I         517 10.67       114.0 0.32                           160 353 
 ZAR  HZ EP   1    516 47.39                             122    -0.6 6  203 292 
 ZAR  HN ES   1    517 12.81                             122    -0.3 6  203 292 
 ZAR  HZ I         517 19.85        59.2 0.27                           203 292 
 NOR  SZ EP   1    516 51.27                             118     0.0 6  234 234 
 NOR  SN ES   1    517 19.15                             118     0.1 6  234 234 
 CHI  HZ EP   1    516 53.77                             117     0.4 6  249 195 
 CHI  HN ES   1    517 22.68                             117     0.1 6  249 195 
 ROSC BE ES   1    517 23.39                             116     0.0 6  253 211 
 ROSC BZ I         517 31.03        23.0 0.30                           253 211 
 PRA  HZ EP   1    517  9.06                             106    -0.1 4  392 209 
 PRA  HE ES   1    517 50.91                             106     0.1 4  392 209 
                                                                                
