 2016  311 0637 36.7 L   6.818 -73.149142.9  RSN 10 0.3 2.5LRSN                1
 GAP=135        0.80       2.4     3.4  4.9 -0.1952E+01  0.7709E+01 -0.1704E-01E
 Epicentro: LOS SANTOS - SANTANDER                                             3
 ACTION:UPD 16-05-13 21:23 OP:cam  STATUS:               ID:20160311063736 L   I
 OLDACT:REG 16-03-11 13:47 OP:cara STATUS:               ID:20160311062751     3
 2016-03-11-0627-51M.COL___261                                                 6
 STAT SP IPHASW D HRMM SECON CODA AMPLIT PERI AZIMU VELO AIN AR TRES W  DIS CAZ7
 BAR2 EZ EP        637 56.13                             169    0.1310 25.3 188 
 BAR2 EZ ES        638 10.62                             169   -0.4510 25.3 188 
 BAR2 EZ I         638 12.31        52.4 0.20            169           25.3 188 
 PAM  EZ EP        637 58.92                             151    0.4210 76.0  41 
 PAM  EN ES        638 15.92                             151    0.3910 76.0  41 
 PAM  EZ I         638 18.29        63.1 0.48            155           76.0  41 
 RUS  HZ EP        638  0.11                             143   -0.1810  103 176 
 RUS  HN ES        638 18.93                             143    0.2210  103 176 
 RUS  HZ I         638 19.85        38.0 0.22            147            103 176 
 OCA  HZ EP        638  4.07                             129   -0.49 9  158 353 
 OCA  HN ES        638 26.11                             129   -0.21 9  158 353 
 OCA  HZ I         638 30.63        37.6 0.14            131            158 353 
 SPBC HZ EP        638  4.78                             128   -0.30 9  165 218 
 SPBC HN ES        638 27.16                             128   -0.08 9  165 218 
 SPBC HZ I         638 29.65        58.2 0.36            130            165 218 
 ZAR  HZ EP        638  8.58                             122   -0.24 9  203 292 
 ZAR  HE ES        638 34.09                             122    0.19 9  203 292 
 ZAR  HZ I         638 44.57        22.4 0.22            122            203 292 
 NOR  HZ EP        638 12.36                             118    0.02 8  236 234 
 NOR  HN ES        638 40.53                             118    0.38 8  236 234 
 NOR  HZ I         638 47.96        26.4 0.14            119            236 234 
 CHI  HZ EP        638 14.11                             116   -0.31 8  251 195 
 CHI  HE ES        638 43.61                             116   -0.25 8  251 195 
 CHI  HZ I         638 47.09        15.6 0.42            119            251 195 
 HEL  HZ EP        638 17.41                             114    0.65 8  272 255 
 HEL  HN ES        638 47.62                             114   -0.41 8  272 255 
 HEL  HZ I         638 53.68        11.4 0.36            115            272 255 
 GUY2CHZ EP        638 20.62                             112    0.37 7  302 234 
 GUY2CHN ES        638 54.58                             112    0.34 7  302 234 
 GUY2CHZ I         639  2.26        13.9 0.26                           302 234 
                                                                                
