 2016  511 0849 20.3 L   6.791 -73.129149.3  RSN 12 0.5 1.6LRSN                1
 GAP=121        1.16       3.3     4.5  6.3  0.9411E+00  0.1097E+01  0.3498E+01E
 Epicentro: LOS SANTOS - SANTANDER                                             3
 ACTION:UPD 16-08-18 17:44 OP:cam  STATUS:               ID:20160511084920 L   I
 OLDACT:UP  16-05-11 16:52 OP:dani STATUS:               ID:20160511084741     3
 OLDACT:UP  16-05-11 16:50 OP:dani STATUS:               ID:20160511084741     3
 OLDACT:UP  16-05-11 16:47 OP:dani STATUS:               ID:20160511084741     3
 OLDACT:UP  16-05-11 16:42 OP:dani STATUS:               ID:20160511084741     3
 OLDACT:REG 16-05-11 12:38 OP:drio STATUS:               ID:20160511084741     3
 2016-05-11-0847-41M.COL___271                                                 6
 STAT SP IPHASW D HRMM SECON CODA AMPLIT PERI AZIMU VELO AIN AR TRES W  DIS CAZ7
 BAR2 EZ EP   2    849 40.36                             171    0.06 5 22.7 195 
 BAR2 EZ ES   2    849 55.19                             171   -0.74 5 22.7 195 
 BAR2 EZ I         849 56.83         5.4 0.12            170           22.7 195 
 BRR  HZ EP        849 42.14                             153    0.2410 73.3 299 
 BRR  HN ES        849 59.09                             153    0.3010 73.3 299 
 BRR  HZ I         850  2.36         7.2 0.24            153           73.3 299 
 PAM  EZ EP     D  849 43.20                             152    0.3710 77.0  38 
 PAM  EE ES        850  0.39                             152   -0.0410 77.0  38 
 PAM  EZ I         850  2.37         7.0 0.46            153           77.0  38 
 RUS  HZ EP        849 44.77                             145    0.5010 99.4 177 
 RUS  HE ES        850  3.44                             145    0.4310 99.4 177 
 RUS  HZ I         850  4.04         4.6 0.34            145           99.4 177 
 PTB  HZ EP        849 47.24                             133   -0.42 9  149 259 
 PTB  HN ES        850  7.93                             133   -1.10 9  149 259 
 OCA  HZ EP        849 49.30                             130    0.34 9  162 353 
 OCA  HE ES        850 10.72                             130   -0.62 9  162 353 
 OCA  HZ I         850 14.19         8.8 0.18            131            162 353 
 SPBC HZ EP        849 49.11                             130    0.05 9  164 220 
 SPBC HE ES        850 12.11                             130    0.58 9  164 220 
 SPBC HZ I         850 12.90         5.8 0.14            130            164 220 
 ZAR  HZ EP        849 53.81                             123    0.66 8  206 292 
 ZAR  HE ES        850 18.61                             123   -0.19 8  206 292 
 ZAR  HZ I         850 23.98         3.5 0.28            123            206 292 
 SML  HZ EP        849 56.98                             118   -0.28 8  245 335 
 SML  HN ES   4    850 26.85                             118    0.72 0  245 335 
 SML  HZ I         850 28.52         4.3 0.10            119            245 335 
 CHI  HZ EP        849 57.87                             118   -0.23 8  248 196 
 CHI  HE ES   4    850 29.46                             118    1.85 0  248 196 
 CHI  HZ I         850 30.38         1.1 0.22            118            248 196 
 PTGC HZ EP        850  3.42                             112   -0.67 7  307 159 
 PTGC HN ES        850 37.31                             112   -0.97 7  307 159 
 PTGC HZ I         850 47.18         2.5 0.36            113            307 159 
 PRA  HZ EP        850 14.21                             107    0.31 6  392 210 
 PRA  HE ES   2    850 56.58                             107    0.84 3  392 210 
 PRA  HZ I         851  0.25         1.4 0.26            107            392 210 
                                                                                
