 2015  111 0345 45.8 L   6.761 -73.298155.7  RSN  4 0.2 1.4LRSN                1
 GAP=242        0.54       4.2     7.3  6.5 -0.1090E+02 -0.2728E+02  0.1457E+02E
 Epicentro: ZAPATOCA - SANTANDER                                               3
 ACTION:UPD 15-03-02 15:38 OP:nd   STATUS:               ID:20150111034545 L   I
 OLDACT:DUP 15-01-11 16:11 OP:cam  STATUS:               ID:20150111033815d    3
 2015-01-11-0338-14M.COL___253                                                 6
 STAT SP IPHASW D HRMM SECON CODA AMPLIT PERI AZIMU VELO AIN AR TRES W  DIS CAZ7
 BRR  HZ EP        346  7.28                             158   -0.1510 59.6 310 
 BRR  HN ES        346 24.42                             158    0.1010 59.6 310 
 BRR  HN I         346 24.99         7.0 0.18            163           59.6 310 
 PTB  HZ EP        346 12.10                             138    0.0010  130 259 
 PTB  HN ES        346 32.75                             138    0.1310  130 259 
 PTB  HZ I         346 35.63         1.8 0.10            140            130 259 
 SPBC HZ EP        346 13.60                             134   -0.23 9  150 215 
 SPBC HN ES        346 35.54                             134   -0.17 9  150 215 
 SPBC HZ I         346 43.25         3.1 0.20            134            150 215 
 CHI  HZ EP        346 23.62                             120    0.44 8  241 192 
                                                                                
