 2016  411 0955 41.5 L   6.782 -73.159141.2  RSN 11 0.4 2.2LRSN                1
 GAP=136        0.86       3.4     3.9  5.4 -0.6151E+00  0.9539E+01 -0.1077E+01E
 Epicentro: LOS SANTOS - SANTANDER                                             3
 ACTION:UPD 16-05-05 14:20 OP:rebc STATUS:               ID:20160411095541 L   I
 OLDACT:UP  16-04-11 19:10 OP:mh   STATUS:               ID:20160411094749     3
 OLDACT:UP  16-04-11 19:08 OP:mh   STATUS:               ID:20160411094749     3
 OLDACT:REG 16-04-11 13:27 OP:mh   STATUS:               ID:20160411094749     3
 2016-04-11-0947-49M.COL___279                                                 6
 STAT SP IPHASW D HRMM SECON CODA AMPLIT PERI AZIMU VELO AIN AR TRES W  DIS CAZ7
 BAR2 EZ EP        956  0.59                             171    0.0110 21.1 187 
 BAR2 EZ ES        956 15.24                             171   -0.1910 21.1 187 
 BAR2 EZ I         956 16.60        45.0 0.22            170           21.1 187 
 PAM  EZ EP        956  3.36                             149   -0.0610 79.9  39 
 PAM  EN ES        956 20.81                             149    0.3110 79.9  39 
 PAM  EZ I         956 22.85        23.1 0.54            150           79.9  39 
 RUS  HZ EP        956  4.47                             143   -0.2410 98.7 175 
 RUS  HN ES        956 22.91                             143    0.1310 98.7 175 
 PTB  HZ EP        956  7.87                             131   -0.10 9  146 259 
 PTB  HN ES        956 28.18                             131   -0.40 9  146 259 
 PTB  HZ I         956 35.69         8.4 0.27            129            146 259 
 OCA  HZ EP   1    956  9.02                             128   -0.65 7  162 354 
 OCA  HN ES   1    956 31.93                             128    0.32 7  162 354 
 OCA  HZ I         956 35.37        24.0 0.22            127            162 354 
 ZAR  HZ EP        956 13.54                             121   -0.09 9  203 293 
 ZAR  HE ES        956 38.95                             121    0.30 9  203 293 
 ZAR  HZ I         956 44.92         6.7 0.26            120            203 293 
 ROSC BZ EP        956 19.29                             116    0.15 8  250 211 
 HEL  HZ EP        956 22.34                             114    1.03 8  270 256 
 HEL  HE ES   4    956 56.13                             114    3.81 0  270 256 
 URE  HZ EP        956 21.69                             113   -0.63 7  283 292 
 URE  HN ES   4    956 51.53                             113   -2.60 0  283 292 
 GUY2CHZ EP   1    956 25.11                             112    0.44 5  299 235 
 GUY2CHZ I         956 35.82        12.4 0.74                           299 235 
 GUY2CHN ES   4    957  1.93                             112    3.62 0  299 235 
 ORTC HZ EP   4    956 30.71                             106   -4.30 0  393 216 
 ORTC HZ I         956 53.44         8.0 0.66            105            393 216 
 ORTC HN ES   4    957 18.03                             106    1.31 0  393 216 
                                                                                
