 2010 1011 0610 30.2 L   6.852 -73.093144.0  RSN  6 0.4 1.8LRSN                1
 GAP=183        0.85       5.9     8.3  8.3 -0.1848E+02  0.2432E+01 -0.4746E+01E
 Epicentro: LOS SANTOS - SANTANDER                                             3
 ACTION:UP  11-02-18 11:09 OP:tino STATUS:               ID:20101011061030 L   I
 2010-10-11-0607-03S.COL___121                                                 6
 STAT SP IPHASW D HRMM SECON CODA AMPLIT PERI AZIMU VELO SNR AR TRES W  DIS CAZ7
 BAR2 SZ IP        610 49.46                             168    -0.310   30 199 
 BAR2 SZ I         610 49.92         9.5 0.16                            30 199 
 BAR2 SZ ES   1    611  5.06                             168     0.0 7   30 199 
 BRR  HZ IP     D  610 51.19                             152    -0.110   74 292 
 BRR  HZ I         610 52.70        17.3 0.11                            74 292 
 BRR  HN ES   1    611  8.14                             152     0.4 7   74 292 
 GUE  SZ EP   2    610 54.71                             141     0.5 5  110  10 
 GRA  SZ EP   1    610 54.99                             139     0.3 7  119  16 
 GRA  SZ ES   1    611 14.29                             139     0.5 7  119  16 
 GRA  SZ I         611 15.85         6.8 0.23                           119  16 
 OCA  SZ EP   1    610 57.74                             130    -0.2 7  155 351 
 OCA  SZ ES   1    611 18.75                             130    -0.8 7  155 351 
 OCA  SZ I         611 24.55         8.5 0.13                           155 351 
 HEL  HZ EP   2    611 11.20                             114     0.1 4  279 255 
 HEL  HN ES   2    611 43.32                             114     0.3 4  279 255 
 HEL  HZ I         611 49.43         2.9 0.35                           279 255 
                                                                                
