 2014 1211 0406 15.0 L   6.804 -73.151150.5  RSN 17 0.5 2.1LRSN                1
 GAP=136        1.08       2.7     3.7  5.1 -0.2373E+01  0.6338E+01  0.8137E+00E
 Epicentro: LOS SANTOS - SANTANDER                                             3
 ACTION:UPD 15-02-10 17:02 OP:nd   STATUS:               ID:20141211040615 L   I
 OLDACT:REG 14-12-11 12:52 OP:fm   STATUS:               ID:20141211035750     3
 2014-12-11-0357-50M.COL___300                                                 6
 STAT SP IPHASW D HRMM SECON CODA AMPLIT PERI AZIMU VELO AIN AR TRES W  DIS CAZ7
 BAR2 EZ EP        4 6 35.48                             171    0.2510 23.6 188 
 BAR2 EZ ES        4 6 50.80                             171   -0.1910 23.6 188 
 BAR2 EZ I         4 6 53.07        27.6 0.42            169           23.6 188 
 BRR  HZ IP     C  4 6 37.45                             154    0.8110 70.5 298 
 BRR  HE ES        4 6 54.55                             154    1.0410 70.5 298 
 BRR  HZ I         4 6 55.78        22.2 0.18            151           70.5 298 
 PAM  SZ EP        4 6 38.11                             152    0.3610 77.5  40 
 PAM  SN ES        4 6 55.52                             152    0.0510 77.5  40 
 PAM  SZ I         4 6 58.06        27.3 0.64            157           77.5  40 
 RUS  HZ EP        4 6 38.98                             145   -0.2910  101 176 
 RUS  HN ES        4 6 57.75                             145   -0.4410  101 176 
 RUS  HZ I         4 7  0.58         8.3 0.56            146            101 176 
 PTB  HZ EP        4 6 42.46                             133    0.13 9  147 259 
 PTB  HE ES        4 7  3.07                             133   -0.56 9  147 259 
 PTB  HZ I         4 7  9.21        17.4 0.42            133            147 259 
 OCA  HZ EP        4 6 43.11                             131   -0.55 9  160 353 
 OCA  HN ES        4 7  5.77                             131   -0.23 9  160 353 
 OCA  HZ I         4 7  9.67        13.4 0.22            133            160 353 
 SPBC HZ EP        4 6 44.26                             130    0.38 9  163 219 
 SPBC HN ES        4 7  6.11                             130   -0.28 9  163 219 
 SPBC HZ I         4 7 12.56        18.7 0.76            131            163 219 
 ZAR  HZ EP        4 6 47.81                             124    0.10 9  203 292 
 ZAR  HN ES        4 7 13.00                             124   -0.20 9  203 292 
 ZAR  HZ I         4 7 18.93        15.9 0.18            124            203 292 
 NOR  HZ EP        4 6 51.46                             120    0.46 8  234 234 
 NOR  HE ES        4 7 19.05                             120   -0.01 8  234 234 
 NOR  HZ I         4 7 23.14         8.0 0.18            120            234 234 
 SML  HZ EP        4 6 51.20                             118   -0.65 8  243 335 
 SML  HE ES        4 7 20.12                             118   -0.46 8  243 335 
 SML  HZ I         4 7 25.02        17.0 0.10            120            243 335 
 CHI  HZ EP        4 6 52.24                             118   -0.77 8  249 195 
 CHI  HN ES        4 7 22.48                             118   -0.16 8  249 195 
 CHI  HZ I         4 7 28.51         3.7 0.36            120            249 195 
 HEL  HZ EP        4 6 55.61                             116    0.19 8  272 256 
 HEL  HN ES        4 7 26.19                             116   -0.75 8  272 256 
 HEL  HZ I         4 7 32.82         4.6 0.42            117            272 256 
 GUY2CHZ EP        4 6 59.00                             113    0.18 7  301 235 
 GUY2CHE ES        4 7 33.04                             113    0.06 7  301 235 
 GUY2CHZ I         4 7 44.95         5.2 0.68                           301 235 
 RREF HZ EP        4 7  1.60                             112    0.25 7  322 229 
 RREF HN ES        4 7 37.71                             112    0.23 7  322 229 
 RREF HZ I         4 7 44.01         5.4 0.24            113            322 229 
 CBOC HZ EP        4 7  2.56                             111    0.48 7  333 252 
 CBOC HN ES        4 7 38.47                             111   -0.32 7  333 252 
 CBOC HZ I         4 7 50.62         1.9 0.42            112            333 252 
 TOL  SE ES        4 7 41.93                             110    0.70 7  343 225 
 TOL  SZ I         4 7 52.55         9.2 0.70            111            343 225 
 MON  HZ EP   4    4 7  9.55                             109    5.42 0  353 308 
 MON  HE ES   4    4 7 40.11                             109   -2.32 0  353 308 
 MON  HZ I         4 7 44.49         2.7 0.34            111            353 308 
                                                                                
