 2016 1211 0555 12.8 L   7.410 -73.186133.0  RSN  5 0.3 1.7LRSN                1
 GAP=218        0.64       4.5     4.4  6.2  0.8252E+01 -0.3309E+01 -0.1694E+02E
 Epicentro: EL PLAYON - SANTANDER                                              3
 ACTION:UPD 17-01-11 20:14 OP:rebc STATUS:               ID:20161211055512 L   I
 OLDACT:REG 16-12-11 12:54 OP:edw  STATUS:               ID:20161211054749     3
 2016-12-11-0548-00M.COL___370                                                 6
 STAT SP IPHASW D HRMM SECON CODA AMPLIT PERI AZIMU VELO AIN AR TRES W  DIS CAZ7
 BRR  HZ IP     C  555 32.48                             152    0.1710 67.1 240 
 BRR  HE ES        555 47.57                             152    0.0210 67.1 240 
 BRR  HZ I         555 48.40         9.8 0.09            148           67.1 240 
 BAR2 EZ EP        555 34.47                             144    0.2910 90.4 180 
 BAR2 EZ ES        555 50.59                             144   -0.2810 90.4 180 
 BAR2 EZ I         555 51.43         6.6 0.11            142           90.4 180 
 PTB  HZ EP        555 40.91                             125   -0.02 9  170 236 
 PTB  HN ES        556  2.61                             125   -0.28 9  170 236 
 PTB  HZ I         556  5.94         5.7 0.13            123            170 236 
 ZAR  HZ EP        555 42.66                             122    0.26 9  185 273 
 ZAR  HN ES        556  5.64                             122    0.12 9  185 273 
 ZAR  HZ I         556  7.03         7.4 0.14            121            185 273 
 SJC  HZ EP        556  0.48                             106   -0.69 6  352 322 
 SJC  HE ES        556 39.01                             106    0.08 6  352 322 
                                                                                
