 2013  411 0753 58.6 L   6.793 -73.148148.0  RSN  8 0.3 1.9LRSN                1
 GAP=138        0.86       3.0     4.8  5.1 -0.9704E+00 -0.1636E+01  0.2287E+01E
 Epicentro: LOS SANTOS - SANTANDER                                             3
 ACTION:UPD 13-05-22 14:37 OP:EP   STATUS:               ID:20130411075358 L   I
 2013-04-11-0748-37M.COL___211                                                 6
 STAT SP IPHASW D HRMM SECON CODA AMPLIT PERI AZIMU VELO AIN AR TRES W  DIS CAZ7
 BAR2 SZ EP        754 18.50                             171    0.0010 22.5 190 
 BAR2 SZ ES        754 33.75                             171   -0.2610 22.5 190 
 BAR2 SZ I         754 35.14        17.7 0.26            167           22.5 190 
 GIR2 SZ EP        754 18.69                             167    0.1110 32.0 351 
 GIR2 SZ ES        754 34.01                             167   -0.1310 32.0 351 
 BRR  HZ EP        754 20.53                             153    0.5110 71.4 299 
 BRR  HN ES        754 37.40                             153    0.6910 71.4 299 
 BRR  HN I         754 38.05        18.8 0.28            151           71.4 299 
 RUS  HZ EP        754 22.55                             144    0.0210 99.8 176 
 RUS  HN ES        754 41.22                             144    0.0310 99.8 176 
 RUS  HN I         754 43.08        11.0 0.32            143           99.8 176 
 PTB  HZ EP        754 25.31                             133   -0.42 9  147 259 
 PTB  HN ES        754 46.46                             133   -0.42 9  147 259 
 PTB  HN I         754 51.61         9.3 0.50            131            147 259 
 CAPV BZ EP        754 26.06                             132   -0.20 9  150  38 
 OCA  HN ES        754 49.16                             130   -0.29 9  161 353 
 CHI  HZ EP        754 36.77                             118    0.42 8  248 195 
 CHI  HN ES        755  5.65                             118   -0.13 8  248 195 
 CHI  HN I         755 11.63         3.6 0.44            117            248 195 
                                                                                
