 2010  511 0231 40.3 L   6.789 -73.001134.6  RSN  4 0.2 1.4LRSN                1
 GAP=181        0.53       5.9    11.8  8.5  0.4713E+02 -0.4845E+02 -0.2604E+02E
 Epicentro: CEPITA - SANTANDER                                                 3
 ACTION:UP  10-08-24 10:04 OP:vdl  STATUS:               ID:20100511023140 L   I
 2010-05-11-0227-59S.COL___104                                                 6
 STAT SP IPHASW D HRMM SECON CODA AMPLIT PERI AZIMU VELO AIN AR TRES W  DIS CAZ7
 BAR2 SZ EP        231 58.58                             167    -0.210   30 223 
 BAR2 SZ ES   2    232 13.03                             167    -0.1 5   30 223 
 BRR  HZ EP        232  1.13                             145    -0.110   86 294 
 BRR  HE ES   2    232 18.01                             145     0.4 5   86 294 
 BRR  HZ I         232 18.76         9.1 0.08                            86 294 
 RUS  HZ EP        232  3.13                             142     0.210  100 185 
 RUS  HN ES   1    232 20.55                             142     0.0 7  100 185 
 RUS  HZ I         232 23.19         3.0 0.26                           100 185 
 GUE  SZ EP   2    232  4.27                             137     0.3 5  115   4 
                                                                                
