 2016  511 0808 26.3 L   6.809 -73.120149.9  RSN 15 0.5 1.6LRSN                1
 GAP=121        1.12       3.2     4.8  6.9 -0.2123E+01  0.6844E+01  0.5053E+01E
 Epicentro: LOS SANTOS - SANTANDER                                             3
 ACTION:UPD 16-08-18 17:44 OP:cam  STATUS:               ID:20160511080826 L   I
 OLDACT:UP  16-05-11 15:50 OP:dani STATUS:               ID:20160511075749d    3
 OLDACT:UP  16-05-11 15:43 OP:dani STATUS:               ID:20160511075749d    3
 OLDACT:DUP 16-05-11 14:46 OP:dani STATUS:               ID:20160511075749d    3
 2016-05-11-0757-48M.COL___284                                                 6
 STAT SP IPHASW D HRMM SECON CODA AMPLIT PERI AZIMU VELO AIN AR TRES W  DIS CAZ7
 BAR2 EZ EP        8 8 46.31                             170   -0.1710 25.0 196 
 BAR2 EZ I         8 9  2.89         6.7 0.14            168           25.0 196 
 BRR  HZ EP        8 8 48.04                             153    0.0110 73.2 297 
 BRR  HE ES        8 9  5.51                             153    0.5510 73.2 297 
 BRR  HZ I         8 9  7.69         6.3 0.14            153           73.2 297 
 PAM  EZ IP     C  8 8 49.33                             152    0.5010 74.8  38 
 PAM  EE ES        8 9  6.48                             152    0.0910 74.8  38 
 PAM  EZ I         8 9  9.34         5.4 0.36            155           74.8  38 
 RUS  HZ EP        8 8 50.96                             144    0.4210  101 178 
 RUS  HN ES   2    8 9  9.55                             144    0.11 5  101 178 
 RUS  HZ I         8 9 10.01         2.6 0.26            144            101 178 
 PTB  HZ EP        8 8 53.04                             132   -0.85 9  151 259 
 PTB  HN ES   4    8 9 13.76                             132   -1.64 0  151 259 
 PTB  HZ I         8 9 21.37         5.6 0.31            132            151 259 
 OCA  HZ EP        8 8 54.47                             131   -0.42 9  160 352 
 OCA  HE ES        8 9 16.52                             131   -0.66 9  160 352 
 OCA  HZ I         8 9 19.58         7.2 0.28            133            160 352 
 SPBC HZ EP        8 8 55.82                             129    0.44 9  166 220 
 SPBC HE ES        8 9 17.36                             129   -0.69 9  166 220 
 SPBC HZ I         8 9 19.69         5.9 0.26            129            166 220 
 ZAR  HZ EP        8 8 59.40                             123    0.14 8  206 292 
 ZAR  HN ES        8 9 24.66                             123   -0.30 8  206 292 
 ZAR  HZ I         8 9 30.61         5.8 0.20            123            206 292 
 NOR  HZ EP        8 9  2.50                             119   -0.10 8  238 235 
 NOR  HE ES        8 9 30.50                             119   -0.39 8  238 235 
 NOR  HZ I         8 9 35.90         2.4 0.22            119            238 235 
 SML  HZ EP        8 9  2.79                             118   -0.42 8  244 335 
 SML  HE ES        8 9 32.52                             118    0.54 8  244 335 
 SML  HZ I         8 9 35.38         5.8 0.10            119            244 335 
 CHI  HZ EP   2    8 9  4.57                             118    0.13 4  250 196 
 CHI  HN ES   2    8 9 34.19                             118    0.02 4  250 196 
 CHI  HZ I         8 9 36.15         2.7 0.36            118            250 196 
 HEL  HZ EP   4    8 9  8.46                             115    1.39 0  275 256 
 HEL  HN ES   4    8 9 40.54                             115    1.68 0  275 256 
 HEL  HZ I         8 9 44.29         2.6 0.34            115            275 256 
 PTGC HZ EP   2    8 9  9.68                             112   -0.68 4  309 159 
 PTGC HE ES   2    8 9 43.36                             112   -1.35 4  309 159 
 PTGC HZ I         8 9 56.78         2.1 0.58            113            309 159 
 CBOC HZ EP        8 9 14.72                             110    0.97 7  337 252 
 CBOC HE ES   4    8 9 44.95                             110   -5.79 0  337 252 
 CBOC HZ I         810  5.78         0.7 0.62            111            337 252 
 PRA  HZ EP        8 9 20.79                             107    0.54 6  394 210 
 PRA  HN ES        810  3.43                             107    1.11 6  394 210 
 PRA  HZ I         810  7.06         2.0 0.46            107            394 210 
                                                                                
