 2010  411 0701 55.3 L   6.782 -72.930141.0  RSN  7 0.5 2.0LRSN                1
 GAP=228        1.00       5.6     9.3  6.9 -0.1953E+02  0.2729E+01  0.7377E+01E
 Epicentro: CEPITA - SANTANDER                                                 3
 ACTION:UPD 10-08-24 09:58 OP:vdl  STATUS:               ID:20100411070155 L   I
 2010-04-11-0659-47S.COL___097                                                 6
 STAT SP IPHASW D HRMM SECON CODA AMPLIT PERI AZIMU VELO AIN AR TRES W  DIS CAZ7
 BAR2 SZ EP        7 2 14.76                             165     0.110   35 233 
 BAR2 SZ ES        7 2 29.88                             165     0.110   35 233 
 BRR  HZ EP        7 2 16.94                             145    -0.410   94 293 
 BRR  HN ES        7 2 34.22                             145    -0.410   94 293 
 BRR  HZ I         7 2 37.70        14.2 0.13                            94 293 
 OCA  SZ EP        7 2 23.65                             127    -0.2 9  167 345 
 OCA  SZ ES   1    7 2 46.97                             127     0.9 7  167 345 
 OCA  SZ I         7 2 49.82        12.0 0.23                           167 345 
 HEL  HZ EP   2    7 2 37.42                             112    -0.4 4  295 257 
 HEL  HN ES   2    7 3 11.41                             112     0.4 4  295 257 
 HEL  HZ I         7 3 13.74         4.1 0.30                           295 257 
 RREF BZ EP        7 2 43.97                             109     0.8 7  339 232 
 RREF BN ES        7 3 20.84                             109     0.3 7  339 232 
 RREF BZ I         7 3 28.92         4.2 0.41                           339 232 
 TOL  SZ EP   2    7 2 45.65                             107     0.5 3  359 228 
 TOL  SZ ES   2    7 3 24.08                             107     0.0 3  359 228 
 PRA  HZ EP        7 2 49.10                             105    -0.8 6  403 213 
 PRA  HZ I         7 3 36.74         4.2 0.35                           403 213 
                                                                                
