 2016  911 0438 54.2 L   6.690 -73.486111.1  RSN  5 0.5 1.3LRSN                1
 GAP=136        1.18       5.4     7.4 11.2  0.1668E+02  0.4363E+02  0.5381E+01E
 Epicentro: EL CARMEN - SANTANDER                                              3
 ACTION:UPD 17-08-17 21:08 OP:lp   STATUS:               ID:20160911043854 L   I
 OLDACT:UP  16-09-11 15:26 OP:dani STATUS:               ID:20160911043739     3
 OLDACT:REG 16-09-11 12:30 OP:dani STATUS:               ID:20160911043739     3
 2016-09-11-0438-00M.COL___351                                                 6
 STAT SP IPHASW D HRMM SECON CODA AMPLIT PERI AZIMU VELO AIN AR TRES W  DIS CAZ7
 BAR2 EZ EP        439 10.31                             161    0.2410 35.3 108 
 BAR2 EZ ES        439 23.24                             161    0.7810 35.3 108 
 BAR2 EZ I         439 24.02        12.3 0.34            162           35.3 108 
 BRR  HZ EP        439 10.04                             153   -0.5010 52.4 332 
 BRR  HN ES        439 22.70                             153   -0.5910 52.4 332 
 BRR  HZ I         439 23.67         3.8 0.11            154           52.4 332 
 RUS  HE ES        439 30.10                             136   -0.3810 98.8 153 
 RUS  HZ I         439 32.87         2.7 0.18            136           98.8 153 
 SPBC HN ES        439 34.95                             126   -0.0010  132 210 
 ZAR  HZ EP        439 21.64                             118    0.12 9  176 300 
 ZAR  HE ES        439 43.30                             118    0.46 9  176 300 
 ZAR  HZ I         439 46.03         3.3 0.29            118            176 300 
                                                                                
