 2012  311 0248 22.1 L   6.737 -73.190157.2  RSN  4 0.2 1.4LRSN                1
 GAP=227        0.61       7.3     6.8  8.3  0.1781E+02 -0.9298E+01  0.1678E+02E
 ACTION:UP  12-03-31 23:18 OP:EP   STATUS:               ID:20120311024822 L   I
 2012-03-11-0240-00M.COL___193                                                 6
 STAT SP IPHASW D HRMM SECON CODA AMPLIT PERI AZIMU VELO SNR AR TRES W  DIS CAZ7
 BAR2 SZ EP   1    248 42.45                             174    -0.5 7   16 177 
 BAR2 SZ I         249  0.47         4.6 0.33                            16 177 
 BRR  HZ EP   1    248 44.49                             155     0.1 7   71 305 
 BRR  HE ES        249  1.99                             155     0.110   71 305 
 BRR  HZ I         249 25.60         9.7 0.15                            71 305 
 RUS  HZ EP   1    248 46.85                             148     0.3 7   94 173 
 RUS  HN ES   2    249  5.60                             148     0.0 5   94 173 
 PTB  HZ EP   1    248 49.55                             136     0.1 7  142 261 
 PTB  HE ES   1    249 10.69                             136    -0.2 7  142 261 
 PTB  HZ I         249 13.65         1.5 0.37                           142 261 
                                                                                
