 2012  811 0806 34.9 L   6.764 -73.134147.3  RSN  8 0.4 1.8LRSN                1
 GAP=140        0.79       4.2     4.6  6.4  0.5565E+00  0.7576E+01  0.1846E+00E
 Epicentro: LOS SANTOS - SANTANDER                                             3
 ACTION:UPD 12-09-10 11:55 OP:ep   STATUS:               ID:20120811080634 L   I
 2012-08-11-0800-00M.COL___218                                                 6
 STAT SP IPHASW D HRMM SECON CODA AMPLIT PERI AZIMU VELO AIN AR TRES W  DIS CAZ7
 BAR2 SZ EP   1    8 6 54.69                             172    0.01 7 19.7 196 
 BAR2 SZ ES   1    8 7 10.21                             172    0.12 7 19.7 196 
 BAR2 SZ I         8 7 10.93        16.6 0.27                          19.7 196 
 GIR2 SZ EP   1    8 6 54.94                             166    0.03 7 35.4 349 
 GIR2 SZ ES   1    8 7 10.02                             166   -0.47 7 35.4 349 
 BRR  HZ EP   1    8 6 56.40                             152   -0.03 7 74.3 301 
 BRR  HZ I         8 6 58.77        14.1 0.07                          74.3 301 
 BRR  HE ES   1    8 7 14.09                             152    0.90 7 74.3 301 
 PAM  SZ EP   1    8 6 57.79                             150    0.33 7 79.7  37 
 PAM  SN ES   1    8 7 15.03                             150    0.01 7 79.7  37 
 RUS  HZ EP   1    8 6 58.33                             145   -0.22 7 96.5 177 
 RUS  HE ES   1    8 7 17.01                             145    0.04 7 96.5 177 
 RUS  HZ I         8 7 18.43         5.4 0.47                          96.5 177 
 PTB  HZ EP   1    8 7  1.74                             132   -0.34 7  148 260 
 PTB  HN ES   1    8 7 22.75                             132   -0.49 7  148 260 
 OCA  HN ES   1    8 7 25.65                             129   -0.58 7  164 353 
 ZAR  HZ EP   1    8 7  8.47                             122    0.71 6  207 293 
 ZAR  HE ES   1    8 7 33.30                             122   -0.06 6  207 293 
                                                                                
