 2014  411 0851 55.6 L   6.801 -73.071125.7  RSN  5 0.2 1.8LRSN                1
 GAP=262        0.46       2.7     8.6 12.4 -0.1297E+02 -0.8841E+02  0.1474E+02E
 Epicentro: LOS SANTOS - SANTANDER                                             3
 ACTION:UPD 14-05-13 23:07 OP:nd   STATUS:               ID:20140411085155 L   I
 OLDACT:UP  14-04-11 19:15 OP:stll STATUS:               ID:20140411084819     3
 OLDACT:REG 14-04-11 13:04 OP:stll STATUS:               ID:20140411084819     3
 2014-04-11-0848-19M.COL___236                                                 6
 STAT SP IPHASW D HRMM SECON CODA AMPLIT PERI AZIMU VELO AIN AR TRES W  DIS CAZ7
 PTB  HZ EP        852 21.90                             125    0.0610  156 259 
 PTB  HN ES        852 42.30                             125    0.0110  156 259 
 PTB  HZ I         852 44.47         8.7 0.48             61            156 259 
 ZAR  HZ EP        852 28.12                             117    0.44 9  212 291 
 ZAR  HN ES        852 52.58                             117   -0.10 9  212 291 
 NOR  HZ EP        852 30.81                             113   -0.23 9  242 236 
 NOR  HN ES        852 58.70                             113    0.03 9  242 236 
 NOR  HZ I         853  2.92         5.2 0.38             61            242 236 
 SML  HZ EP        852 31.56                             113   -0.04 9  247 334 
 SML  HN ES        852 59.55                             113   -0.11 9  247 334 
 SML  HZ I         853  6.44         5.9 0.10             61            247 334 
 HEL  HZ EP        852 35.69                             110   -0.14 8  280 256 
 HEL  HZ I         853 15.59         2.7 0.24             60            280 256 
                                                                                
