 2016 1111 0026 42.0 L   6.809 -73.145144.7  RSN 13 0.5 2.2LRSN                1
 GAP=102        1.08       4.3     3.3  6.1 -0.1364E+01  0.4571E+01  0.1054E+02E
 Epicentro: LOS SANTOS - SANTANDER                                             3
 ACTION:UPD 17-10-26 21:06 OP:lp   STATUS:               ID:20161111002642 L   I
 OLDACT:UP  16-11-11 15:19 OP:ar   STATUS:               ID:20161111001742     3
 OLDACT:REG 16-11-11 13:16 OP:ar   STATUS:               ID:20161111001742     3
 2016-11-11-0018-00M.COL___336                                                 6
 STAT SP IPHASW D HRMM SECON CODA AMPLIT PERI AZIMU VELO AIN AR TRES W  DIS CAZ7
 BAR2 EZ IP     D  027  1.37                             170   -0.1810 24.3 190 
 BAR2 EZ ES        027 16.50                             170   -0.2810 24.3 190 
 BAR2 EZ I         027 17.60        44.3 0.18            166           24.3 190 
 BRR  HZ IP        027  3.19                             152    0.1410 70.9 298 
 BRR  HN ES        027 20.36                             152    0.9210 70.9 298 
 BRR  HZ I         027 23.18        20.9 0.36            152           70.9 298 
 PAM  EZ EP        027  4.20                             151    0.1110 76.6  40 
 PAM  EN ES        027 21.21                             151   -0.0810 76.6  40 
 PAM  EZ I         027 23.27        17.0 0.38            149           76.6  40 
 PTB  HZ EP        027  8.10                             132   -0.84 9  148 258 
 PTB  HN ES        027 29.18                             132   -0.75 9  148 258 
 PTB  HZ I         027 35.13        29.3 0.60            129            148 258 
 TAM  HZ EP        027  9.60                             130   -0.04 9  155 105 
 TAM  HZ I         027 30.52        10.5 0.32            126            155 105 
 TAM  HE ES        027 31.34                             130    0.17 9  155 105 
 ZAR  HZ EP        027 14.11                             122   -0.27 9  204 292 
 ZAR  HN ES        027 39.26                             122   -0.35 9  204 292 
 ZAR  HZ I         027 45.41        30.8 0.52            120            204 292 
 NOR  HZ EP        027 18.23                             118    0.46 8  235 234 
 NOR  HN ES        027 46.06                             118    0.42 8  235 234 
 NOR  HZ I         027 48.27        12.0 0.40            115            235 234 
 CHI  HZ EP   4    027 18.74                             117   -1.03 0  250 195 
 CHI  HN ES        027 49.11                             117   -0.10 8  250 195 
 CHI  HZ I         027 58.68         6.0 0.30            113            250 195 
 ELA  HZ EP   4    027 31.21                             110    2.29 0  330 229 
 ELA  HN ES   4    028 10.16                             110    4.67 0  330 229 
 ELA  HZ I         028 11.58         8.9 0.60            107            330 229 
 CBOC HZ EP        027 29.84                             110    0.89 7  334 252 
 CBOC HN ES   4    028  4.68                             110   -0.86 0  334 252 
 CBOC HZ I         028 18.02         4.1 0.68            107            334 252 
 PRA  HZ EP        027 35.17                             106   -0.45 6  393 210 
 PRA  HN ES        028 17.13                             106   -0.28 6  393 210 
 PRA  HZ I         028 23.79         6.9 0.32            104            393 210 
 ORTC HZ EP        027 35.64                             106   -0.37 6  396 216 
 ORTC HN ES        028 18.36                             106    0.24 6  396 216 
 ORTC HZ I         028 25.27         5.4 0.42            103            396 216 
 PAL  HZ EP        027 37.66                             106    0.44 6  406 239 
 PAL  HN ES        028 21.29                             106    1.02 6  406 239 
 PAL  HZ I         028 28.90         3.2 0.36            103            406 239 
                                                                                
