 2011 1211 0047 37.7 L   6.789 -73.092148.7  RSN  5 0.1 1.5LRSN                1
 GAP=144        0.31       2.0     3.4  3.5  0.5528E-01 -0.4256E+00 -0.1050E+01E
 Epicentro: LOS SANTOS - SANTANDER                                             3
 ACTION:UPD 12-07-13 16:15 OP:ep   STATUS:               ID:20111211004737 L   I
 2011-12-11-0040-00M.COL___186                                                 6
 STAT SP IPHASW D HRMM SECON CODA AMPLIT PERI AZIMU VELO AIN AR TRES W  DIS CAZ7
 BAR2 SZ EP   1    047 57.74                             170    0.03 7 24.0 205 
 BAR2 SZ ES   1    048 13.25                             170   -0.06 7 24.0 205 
 BAR2 SZ I         048 15.17         7.0 0.28                          24.0 205 
 GIR2 SZ EP   2    047 57.59                             166   -0.22 5 34.0 341 
 PAM  SZ EP   1    048  0.28                             152    0.19 7 74.7  35 
 PAM  SN ES   1    048 17.46                             152   -0.08 7 74.7  35 
 BRR  HZ EP   1    047 59.42                             151   -0.10 7 77.0 297 
 BRR  HZ I         047 59.70        14.9 0.21                          77.0 297 
 BRR  HN ES   1    048 16.61                             151    0.09 7 77.0 297 
 RUS  HZ EP   2    048  1.58                             145   -0.07 5 99.1 179 
 RUS  HN ES        048 20.35                             145    0.0310 99.1 179 
 RUS  HZ I         048 22.56         2.2 0.23                          99.1 179 
                                                                                
