 2016  711 0340 16.6 L   6.772 -73.146147.9  RSN  5 0.3 1.2LRSN                1
 GAP=235        0.79       5.2     5.2  6.1  0.2127E+01  0.9550E+00  0.6705E+01E
 Epicentro: LOS SANTOS - SANTANDER                                             3
 ACTION:UPD 17-03-29 16:49 OP:lp   STATUS:               ID:20160711034019 L   I
 OLDACT:UP  16-07-15 05:38 OP:edw  STATUS:               ID:20160711034019 L   3
 OLDACT:REG 16-07-11 12:33 OP:lv   STATUS:               ID:20160711033744     3
 2016-07-11-0337-44M.COL___331                                                 6
 STAT SP IPHASW D HRMM SECON CODA AMPLIT PERI AZIMU VELO AIN AR TRES W  DIS CAZ7
 BAR2 EZ EP        340 36.16                             172   -0.2410 20.2 191 
 BAR2 EZ ES        340 51.68                             172   -0.1910 20.2 191 
 BAR2 EZ I         340 52.65         6.0 0.22            170           20.2 191 
 BRR  HZ EP        340 38.10                             152    0.0610 72.7 301 
 BRR  HE ES        340 55.23                             152    0.4510 72.7 301 
 BRR  HZ I         340 56.23         2.7 0.10            151           72.7 301 
 RUS  HZ EP        340 40.28                             145   -0.0410 97.5 176 
 RUS  HE ES   2    340 58.85                             145    0.02 5 97.5 176 
 RUS  HZ I         340 59.76         1.0 0.09            146           97.5 176 
 PTB  HZ EP        340 43.76                             133    0.10 9  147 260 
 PTB  HN ES        341  4.13                             133   -0.65 9  147 260 
 PTB  HZ I         341  8.65         1.8 0.19            132            147 260 
 SPBC HZ EP        340 45.12                             130    0.11 9  161 220 
 SPBC HE ES        341  7.58                             130    0.40 9  161 220 
 SPBC HZ I         341  8.75         3.3 0.10            130            161 220 
                                                                                
