 2010  711 0823 31.8 L   6.725 -73.194146.7  RSN  5 0.3 1.5LRSN                1
 GAP=154        0.59       7.0    10.1  7.7 -0.3709E+02 -0.1552E+02  0.1859E+01E
 Epicentro: VILLANUEVA - SANTANDER                                             3
 ACTION:UPD 10-12-01 15:16 OP:pat  STATUS:               ID:20100711082331 L   I
 2010-07-11-0821-42S.COL___120                                                 6
 STAT SP IPHASW D HRMM SECON CODA AMPLIT PERI AZIMU VELO AIN AR TRES W  DIS CAZ7
 BAR2 SZ EP   1    823 51.26                             174    -0.1 7   15 176 
 BAR2 SZ ES   2    824  6.71                             174     0.1 5   15 176 
 BRR  HZ EP   1    823 52.58                             153    -0.4 7   71 306 
 BRR  HE ES   2    824 10.05                             153     0.5 5   71 306 
 BRR  HZ I         824 14.66         5.9 0.13                            71 306 
 BRI  SZ EP   1    823 56.78                             139     0.3 7  118  22 
 BRI  SZ ES   2    824 16.23                             139     0.4 5  118  22 
 GUE  SZ EP   1    823 57.54                             137     0.2 7  126  14 
 GUE  SZ ES   2    824 16.82                             137    -0.4 5  126  14 
 GRA  SZ EP   1    823 57.95                             135     0.1 7  135  19 
 GRA  SZ ES   2    824 17.72                             135    -0.6 5  135  19 
                                                                                
