 2017  211 0438 28.7 L   6.792 -73.121140.9  RSN 15 0.4 1.8LRSN                1
 GAP= 67        0.90       3.1     2.7  4.8 -0.7011E+00  0.2098E+01  0.5014E+01E
 Epicentro: LOS SANTOS - SANTANDER                                             3
 ACTION:UPD 17-05-24 15:35 OP:jn   STATUS:               ID:20170211043828 L   I
 OLDACT:UP  17-02-11 14:50 OP:and  STATUS:               ID:20170211043747     3
 OLDACT:UP  17-02-11 14:49 OP:and  STATUS:               ID:20170211043747     3
 OLDACT:UP  17-02-11 14:46 OP:and  STATUS:               ID:20170211043747     3
 OLDACT:UP  17-02-11 14:46 OP:and  STATUS:               ID:20170211043747     3
 OLDACT:REG 17-02-11 12:39 OP:and  STATUS:               ID:20170211043747     3
 2017-02-11-0438-00M.COL___346                                                 6
 STAT SP IPHASW D HRMM SECON CODA AMPLIT PERI AZIMU VELO AIN AR TRES W  DIS CAZ7
 BAR2 EZ IP     C  438 47.45                             170   -0.2910 23.1 197 
 BAR2 EZ ES        439  2.22                             170   -0.3710 23.1 197 
 BAR2 EZ I         439  5.34        14.5 0.30            165           23.1 197 
 BRR  HZ IP     C  438 49.29                             151   -0.2010 74.0 298 
 BRR  HN ES        439  6.39                             151    0.6910 74.0 298 
 BRR  HZ I         439  9.74         7.7 0.24            146           74.0 298 
 PAM  EZ EP     C  438 50.30                             150   -0.0410 76.4  38 
 PAM  EN ES        439  7.36                             150    0.1410 76.4  38 
 PAM  EZ I         439  9.69        13.8 0.50            149           76.4  38 
 RUS  HZ EP        438 51.71                             143   -0.1910 99.5 178 
 RUS  HN ES        439 10.02                             143    0.0310 99.5 178 
 RUS  HZ I         439 11.39         8.7 0.36            137           99.5 178 
 PTB  HZ EP   9    438 54.58                             130   -0.93 0  150 259 
 PTB  HN ES        439 15.15                             131   -0.33 9  150 259 
 PTB  HZ I         439 18.90         4.0 0.17            124            150 259 
 TAM  HZ IP     C  438 55.94                             130    0.21 9  152 105 
 TAM  HN ES        439 16.68                             130   -0.13 9  152 105 
 ZAR  HN ES        439 25.91                             121   -0.52 8  207 292 
 ZAR  HZ I         439 31.45         5.7 0.19            116            207 292 
 NOR  HZ EP   2    439  4.67                             117    0.33 4  236 235 
 NOR  HN ES        439 31.74                             117   -0.39 8  236 235 
 NOR  HZ I         439 37.11         3.6 0.20            112            236 235 
 CHI  HZ EP   2    439  5.30                             116   -0.82 4  248 196 
 CHI  HN ES        439 35.73                             116    0.43 8  248 196 
 CHI  HZ I         439 45.59         2.4 0.27            111            248 196 
 ROSC BZ EP        439  7.34                             115    0.71 8  253 212 
 ROSC BZ I         439 42.16         7.0 0.40            111            253 212 
 PTGC HZ EP   9    439 10.72                             111   -1.42 0  307 159 
 PTGC HN ES        439 44.28                                   -0.32 7  307 159 
 LL6C HN EP   9    438 54.99                             109   -19.3 0  326 357 
 LL6C HE ES        439 31.44                                    0.87 7  326 357 
 CBOC HN ES        439 52.38                             109    0.05 7  336 252 
 PRA  HZ EP        439 21.63                             106   -0.50 6  393 210 
 PRA  HN ES        440  3.77                             106   -0.02 6  393 210 
 PRA  HZ I         440  9.71         3.0 0.46            102            393 210 
 ORTC HZ EP        439 22.62                             105    0.06 6  396 217 
 ORTC HN ES        440  5.47                             105    0.90 6  396 217 
 ORTC HZ I         440 11.35         1.8 0.36            102            396 217 
                                                                                
