 2017  311 0158 32.5 L   6.768 -73.202152.0  RSN  4 0.3 1.1LRSN                1
 GAP=229        0.53       5.7     4.3  6.5  0.9372E+01  0.1875E+01 -0.5740E+01E
 Epicentro: ZAPATOCA - SANTANDER                                               3
 ACTION:UPD 17-05-25 18:38 OP:jn   STATUS:               ID:20170311015832 L   I
 OLDACT:UP  17-03-11 13:15 OP:and  STATUS:               ID:20170311014743d    3
 OLDACT:UP  17-03-11 13:15 OP:and  STATUS:               ID:20170311014743d    3
 OLDACT:UP  17-03-11 13:14 OP:and  STATUS:               ID:20170311014743d    3
 OLDACT:DUP 17-03-11 13:13 OP:and  STATUS:               ID:20170311014743d    3
 OLDACT:UP  17-03-11 13:13 OP:and  STATUS:               ID:20170311014742     3
 OLDACT:UP  17-03-11 13:12 OP:and  STATUS:               ID:20170311014742     3
 OLDACT:UP  17-03-11 13:12 OP:and  STATUS:               ID:20170311014742     3
 OLDACT:UP  17-03-11 13:11 OP:and  STATUS:               ID:20170311014742     3
 OLDACT:UP  17-03-11 13:11 OP:and  STATUS:               ID:20170311014742     3
 OLDACT:REG 17-03-11 12:23 OP:and  STATUS:               ID:20170311014742     3
 2017-03-11-0148-00M.COL___406                                                 6
 STAT SP IPHASW D HRMM SECON CODA AMPLIT PERI AZIMU VELO AIN AR TRES W  DIS CAZ7
 BAR2 EZ EP        158 52.50                             172   -0.3010 19.5 174 
 BAR2 EZ ES        159  8.64                             172   -0.0110 19.5 174 
 BAR2 EZ I         159  8.88         2.7 0.11            172           19.5 174 
 BRR  HZ EP   2    158 54.50                             155    0.37 5 67.7 304 
 BRR  HN ES   2    159 11.44                             155    0.43 5 67.7 304 
 RUS  HZ EP   2    158 56.51                             146   -0.15 5 97.7 172 
 RUS  HN ES        159 15.68                             146    0.1710 97.7 172 
 PTB  HZ EP   3    159  0.32                             135    0.94 2  141 260 
 PTB  HN ES        159 20.26                             135   -0.09 9  141 260 
                                                                                
