 2014  811 0513 47.1 L   6.817 -73.148144.8  RSN 19 0.5 2.5LRSN                1
 GAP=135        1.12       3.1     4.0  5.1 -0.1495E+01  0.6150E+01  0.2827E+01E
 Epicentro: LOS SANTOS - SANTANDER                                             3
 ACTION:UPD 14-09-15 21:48 OP:nd   STATUS:               ID:20140811051347 L   I
 OLDACT:UP  14-08-11 16:25 OP:cam  STATUS:               ID:20140811051000     3
 OLDACT:UP  14-08-11 16:25 OP:cam  STATUS:               ID:20140811051000     3
 OLDACT:UP  14-08-11 16:23 OP:cam  STATUS:               ID:20140811051000     3
 OLDACT:REG 14-08-11 13:50 OP:cam  STATUS:               ID:20140811051000     3
 2014-08-11-0510-00M.COL___285                                                 6
 STAT SP IPHASW D HRMM SECON CODA AMPLIT PERI AZIMU VELO AIN AR TRES W  DIS CAZ7
 BAR2 SZ IP     D  514  6.58                             170   -0.0810 25.2 189 
 BAR2 SZ ES        514 21.67                             170   -0.2410 25.2 189 
 BAR2 SZ I         514 22.98        86.6 0.18            166           25.2 189 
 BRR  HZ EP        514  8.42                             153    0.3310 70.0 297 
 BRR  HN ES        514 25.33                             153    0.8810 70.0 297 
 BRR  HZ I         514 29.22        25.6 0.40            149           70.0 297 
 PAM  SZ EP     C  514  9.49                             151    0.3510 76.1  41 
 PAM  SN ES        514 26.64                             151    0.3110 76.1  41 
 PAM  SZ I         514 27.23        18.5 0.18            157           76.1  41 
 RUS  HZ EP     C  514 10.51                             143   -0.4010  103 176 
 RUS  HN ES        514 29.31                             143   -0.1610  103 176 
 RUS  HZ I         514 30.30        18.4 0.30            144            103 176 
 PTB  HZ EP        514 13.48                             132   -0.53 9  148 258 
 PTB  HN ES        514 34.42                             132   -0.57 9  148 258 
 PTB  HZ I         514 37.30        33.1 0.14            130            148 258 
 SPBC HZ EP        514 15.46                             129   -0.20 9  165 218 
 SPBC HE ES        514 37.59                             129   -0.34 9  165 218 
 SPBC HZ I         514 42.82        23.2 0.22            128            165 218 
 ZAR  HZ EP        514 19.15                             122   -0.24 9  203 292 
 ZAR  HN ES        514 44.41                             122   -0.16 9  203 292 
 ZAR  HZ I         514 53.03        20.2 0.36            122            203 292 
 CTAB SZ EP        514 24.02                             119    1.06 8  231 210 
 NOR  HZ EP        514 22.84                             118   -0.04 8  236 234 
 NOR  HE ES        514 50.26                             118   -0.52 8  236 234 
 NOR  HZ I         514 55.79        24.7 0.34            118            236 234 
 SML  HZ EP        514 23.09                             117   -0.39 8  242 335 
 SML  HN ES        514 50.94                             117   -0.90 8  242 335 
 SML  HZ I         514 53.62        25.2 0.10            119            242 335 
 CHI  HZ EP        514 24.68                             117   -0.27 8  250 195 
 ROSC BZ EP        514 26.00                             116    0.66 8  254 211 
 ROSC BE ES        514 54.90                             116   -0.26 8  254 211 
 ROSC BZ I         515  4.43        30.3 0.40            117            254 211 
 HEL  HZ EP        514 27.81                             115    0.52 8  272 255 
 HEL  HN ES        514 59.45                             115    0.81 8  272 255 
 HEL  HZ I         515  5.02        10.1 0.32            115            272 255 
 URE  HN ES   4    514 57.18                             113   -2.75 0  283 292 
 URE  HZ I         515  7.01        14.5 0.20            114            283 292 
 GUY2CHZ EP        514 30.77                             112   -0.00 7  302 234 
 GUY2CHN ES        515  5.24                             112    0.41 7  302 234 
 GUY2CHZ I         515 13.05        23.5 0.36                           302 234 
 CBOC HZ EP        514 34.30                             110    0.28 7  334 252 
 TOL  SZ EP        514 36.17                             109    0.71 7  345 224 
 TOL  SZ ES   4    515 12.30                             109   -0.87 0  345 224 
 TOL  SZ I         515 23.10        32.5 0.48            110            345 224 
 PRA  HZ EP        514 40.27                             106   -0.50 6  394 209 
 PRA  HN ES        515 21.91                             106   -0.72 6  394 209 
 PRA  HZ I         515 28.94        16.3 0.28            107            394 209 
 ORTC HZ EP        514 40.77                             106   -0.39 6  397 216 
 ORTC HN ES        515 24.05                             106    0.74 6  397 216 
 ORTC HZ I         515 30.80        11.0 0.36            107            397 216 
                                                                                
