 2017  311 0353 56.6 L   6.793 -73.102140.4  RSN  8 0.5 1.1LRSN                1
 GAP=123        0.96       4.4     4.2  6.3  0.1064E+01  0.5396E+01  0.3971E+01E
 Epicentro: LOS SANTOS - SANTANDER                                             3
 ACTION:UPD 17-05-25 18:39 OP:jn   STATUS:               ID:20170311035356 L   I
 OLDACT:UP  17-03-11 14:08 OP:and  STATUS:               ID:20170311034748d    3
 OLDACT:UP  17-03-11 14:08 OP:and  STATUS:               ID:20170311034748d    3
 OLDACT:UP  17-03-11 14:08 OP:and  STATUS:               ID:20170311034748d    3
 OLDACT:DUP 17-03-11 14:06 OP:and  STATUS:               ID:20170311034748d    3
 2017-03-11-0348-00M.COL___400                                                 6
 STAT SP IPHASW D HRMM SECON CODA AMPLIT PERI AZIMU VELO AIN AR TRES W  DIS CAZ7
 BAR2 EZ EP        354 15.68                             170    0.0410 23.9 202 
 BAR2 EZ ES        354 30.74                             170    0.2810 23.9 202 
 BAR2 EZ I         354 32.87         3.5 0.23            169           23.9 202 
 PAM  EZ IP     C  354 18.61                             151    0.4610 75.1  36 
 PAM  EN ES        354 34.37                             151   -0.5610 75.1  36 
 PAM  EZ I         354 37.48         3.7 0.52            154           75.1  36 
 BRR  HZ EP        354 17.46                             150   -0.0410 75.9 297 
 BRR  HN ES   2    354 34.77                             150    1.01 5 75.9 297 
 BRR  HZ I         354 37.00         4.5 0.46            150           75.9 297 
 RUS  HZ EP        354 20.11                             143    0.3110 99.5 179 
 RUS  HN ES        354 37.90                             143    0.0510 99.5 179 
 RUS  HZ I         354 39.61         1.6 0.26            145           99.5 179 
 PTB  HZ EP        354 23.37                             130   -0.24 9  152 259 
 PTB  HN ES        354 44.39                             130   -0.25 9  152 259 
 PTB  HZ I         354 46.08         1.0 0.11            131            152 259 
 SPBC HZ EP        354 25.42                             127    0.44 9  166 220 
 SPBC HN ES   2    354 46.22                             127   -0.85 5  166 220 
 SPBC HZ I         354 51.82         1.4 0.08            129            166 220 
 ZAR  HZ EP   3    354 30.80                             121    1.55 2  209 292 
 ZAR  HN ES        354 54.30                             121   -0.38 8  209 292 
 ZAR  HZ I         354 59.48         1.5 0.26            122            209 292 
 PTGC HZ EP        354 39.24                             111   -0.74 7  306 159 
                                                                                
