 2013  511 0857 13.3 L   6.409 -73.664105.5  RSN  5 0.3 1.3LRSN                1
 GAP=148        0.79       4.5     3.6  8.9 -0.3154E+00  0.4373E+01  0.4308E+00E
 Epicentro: SANTA HELENA DEL OPON - SANTANDER                                  3
 ACTION:UPD 13-06-20 09:49 OP:ep   STATUS:               ID:20130511085713 L   I
 2013-05-11-0850-00M.COL___256                                                 6
 STAT SP IPHASW D HRMM SECON CODA AMPLIT PERI AZIMU VELO AIN AR TRES W  DIS CAZ7
 BAR2 SZ EP        857 30.01                             150    0.3910 57.0  69 
 BAR2 SZ ES   1    857 42.37                             150   -0.01 7 57.0  69 
 BAR2 SZ I         857 44.21         8.7 0.14            152           57.0  69 
 BRR  HZ EP        857 31.01                             141    0.3010 77.4 356 
 BRR  HN ES   1    857 44.73                             141    0.41 7 77.4 356 
 RUS  HZ EP   1    857 32.22                             138    0.14 7 86.0 132 
 RUS  HE ES   1    857 46.62                             138   -0.13 7 86.0 132 
 RUS  HZ I         857 48.06         3.1 0.66            140           86.0 132 
 PTB  HZ EP        857 31.35                             137   -0.3110 88.8 279 
 PTB  HE ES   1    857 45.75                             137   -0.25 7 88.8 279 
 PTB  HZ I         857 46.73         5.2 0.10            140           88.8 279 
 PAM  SN ES        857 56.67                             121   -0.55 9  148  46 
                                                                                
