 2014 1211 0817 36.1 L   6.790 -73.142143.4  RSN 13 0.5 1.7LRSN                1
 GAP=137        1.15       3.3     4.1  6.0 -0.3245E+01  0.9150E+01  0.7813E+00E
 Epicentro: LOS SANTOS - SANTANDER                                             3
 ACTION:UPD 15-02-10 17:02 OP:nd   STATUS:               ID:20141211081736 L   I
 OLDACT:REG 14-12-11 13:05 OP:fm   STATUS:               ID:20141211080739     3
 2014-12-11-0807-39M.COL___297                                                 6
 STAT SP IPHASW D HRMM SECON CODA AMPLIT PERI AZIMU VELO AIN AR TRES W  DIS CAZ7
 BAR2 EZ EP        817 55.97                             171    0.5110 22.3 192 
 BAR2 EZ ES        818 10.79                             171    0.2610 22.3 192 
 BAR2 EZ I         818 12.12        21.1 0.26            170           22.3 192 
 BRR  HZ EP        817 57.58                             152    0.5010 72.1 299 
 BRR  HE ES        818 13.70                             152    0.2810 72.1 299 
 BRR  HZ I         818 24.89         8.6 0.38            151           72.1 299 
 PAM  SZ EP        817 58.42                             150    0.2810 78.0  39 
 PAM  SN ES        818 15.51                             150    0.2210 78.0  39 
 PAM  SZ I         818 18.08        15.2 0.54            156           78.0  39 
 RUS  HZ EP        817 59.58                             144    0.0110 99.4 176 
 RUS  HE ES        818 17.34                             144   -0.5110 99.4 176 
 RUS  HZ I         818 20.99         3.4 0.32            148           99.4 176 
 PTB  HZ EP        818  2.69                             131   -0.24 9  148 259 
 PTB  HE ES        818 23.61                             131   -0.22 9  148 259 
 PTB  HZ I         818 25.18         9.1 0.20            133            148 259 
 OCA  HZ EP        818  2.97                             129   -1.40 9  161 353 
 OCA  HN ES        818 26.10                             129   -0.30 9  161 353 
 OCA  HZ I         818 31.94         6.7 0.28            132            161 353 
 SPBC HZ EP   1    818  3.78                             129   -0.62 7  163 219 
 SPBC HN ES        818 26.22                             129   -0.22 9  163 219 
 SPBC HZ I         818 31.11         8.5 0.22            131            163 219 
 ZAR  HZ EP        818  8.69                             122    0.18 9  205 292 
 ZAR  HN ES        818 33.58                             122   -0.18 9  205 292 
 ZAR  HZ I         818 38.57         5.7 0.30            124            205 292 
 NOR  HZ EP        818 11.88                             118    0.18 8  234 235 
 NOR  HE ES        818 39.49                             118    0.06 8  234 235 
 NOR  HZ I         818 45.39         5.0 0.34            121            234 235 
 CHI  HN ES        818 42.51                             117   -0.31 8  248 195 
 CHI  HZ I         818 49.67         1.4 0.34            120            248 195 
 HEL  HZ EP        818 17.49                             114    1.25 8  272 256 
 HEL  HE ES        818 47.23                             114   -0.30 8  272 256 
 HEL  HZ I         818 55.35         4.1 0.30            117            272 256 
 GUY2CHZ EP        818 19.53                             112   -0.07 7  301 235 
 GUY2CHE ES        818 53.61                             112    0.11 7  301 235 
 GUY2CHZ I         819  2.90         4.1 0.76                           301 235 
 CBOC HZ EP        818 23.62                             109    0.66 7  334 252 
 CBOC HN ES        818 59.29                             109   -0.19 7  334 252 
 CBOC HZ I         819 10.96         1.1 0.54            112            334 252 
 SJC  HE ES   4    819 10.81                             105   -4.33 0  410 327 
                                                                                
