 2017  211 0751 43.2 L   6.782 -73.118142.0  RSN  5 0.3 1.3LRSN                1
 GAP=141        0.68       3.7     4.7  6.0 -0.2040E+01 -0.2742E+01  0.2695E+01E
 Epicentro: LOS SANTOS - SANTANDER                                             3
 ACTION:UPD 17-05-24 15:35 OP:jn   STATUS:               ID:20170211075143 L   I
 OLDACT:DUP 17-02-11 17:13 OP:and  STATUS:               ID:20170211074744d    3
 OLDACT:UP  17-02-11 17:13 OP:and  STATUS:               ID:20170211074743     3
 OLDACT:REG 17-02-11 12:59 OP:and  STATUS:               ID:20170211074743     3
 2017-02-11-0748-00M.COL___346                                                 6
 STAT SP IPHASW D HRMM SECON CODA AMPLIT PERI AZIMU VELO AIN AR TRES W  DIS CAZ7
 BAR2 EZ ES        752 17.01                             171   -0.2510 22.2 199 
 BAR2 EZ I         752 18.41         3.5 0.22            170           22.2 199 
 BRR  HN ES        752 20.78                             150    0.3110 74.9 299 
 BRR  HZ I         752 24.82         4.4 0.24            148           74.9 299 
 PAM  EZ IP     D  752  4.80                             150   -0.1610 77.0  37 
 PAM  EE ES        752 21.96                             150   -0.0010 77.0  37 
 PAM  EZ I         752 23.95         5.4 0.50            152           77.0  37 
 RUS  HZ EP        752  6.79                             143    0.4010 98.4 178 
 RUS  HN ES        752 24.45                             143   -0.0610 98.4 178 
 RUS  HZ I         752 25.67         3.7 0.40            146           98.4 178 
 PTB  HZ EP   2    752  9.57                             130   -0.51 5  150 260 
 PTB  HN ES   2    752 30.46                             130   -0.60 5  150 260 
 PTB  HZ I         752 34.59         2.4 0.24            130            150 260 
                                                                                
