 2014 1011 0720 52.3 L   6.758 -73.134148.3  RSN  7 0.5 1.3LRSN                1
 GAP=140        1.13       5.3     5.4  8.4 -0.1728E+01  0.3990E+01  0.2258E+01E
 Epicentro: LOS SANTOS - SANTANDER                                             3
 ACTION:UPD 14-11-29 23:48 OP:nd   STATUS:               ID:20141011072052 L   I
 OLDACT:REG 14-10-11 13:02 OP:fm   STATUS:               ID:20141011071739     3
 2014-10-11-0717-39M.COL___291                                                 6
 STAT SP IPHASW D HRMM SECON CODA AMPLIT PERI AZIMU VELO AIN AR TRES W  DIS CAZ7
 BAR2 SZ EP        721 12.24                             172    0.1010 19.1 196 
 BAR2 SZ ES   1    721 27.51                             172   -0.12 7 19.1 196 
 BAR2 SZ I         721 29.94         8.5 0.28            172           19.1 196 
 BRR  HZ EP        721 14.42                             152    0.5210 74.7 301 
 BRR  HN ES        721 31.31                             152    0.5510 74.7 301 
 BRR  HZ I         721 31.85         5.2 0.32            155           74.7 301 
 PAM  SZ EP        721 15.29                             150    0.3510 80.2  37 
 PAM  SN ES   1    721 31.89                             150   -0.72 7 80.2  37 
 PAM  SZ I         721 38.85         2.2 0.34            154           80.2  37 
 RUS  HZ EP        721 15.32                             146   -0.6410 95.9 177 
 RUS  HE ES        721 34.39                             146   -0.0310 95.9 177 
 RUS  HZ I         721 35.98         2.1 0.34            148           95.9 177 
 PTB  HZ EP        721 19.47                             132   -0.03 9  148 261 
 PTB  HN ES        721 40.06                             132   -0.67 9  148 261 
 PTB  HZ I         721 43.68         2.5 0.38            136            148 261 
 SPBC HZ EP        721 20.78                             130    0.05 9  160 220 
 SPBC HN ES        721 43.49                             130    0.58 9  160 220 
 SPBC HZ I         721 50.33         3.7 0.14            133            160 220 
 ZAR  HN ES   1    721 50.16                             122   -0.72 6  207 293 
 GUY2CHZ EP   4    721 38.48                             113    2.64 0  300 236 
                                                                                
