 2017  111 0440 32.2 L   6.797 -73.115137.9  RSN 17 0.5 1.9LRSN                1
 GAP= 68        0.93       3.9     3.1  4.4  0.2383E+01  0.4194E+01  0.2509E+01E
 Epicentro: LOS SANTOS - SANTANDER                                             3
 ACTION:UPD 17-05-22 15:58 OP:jn   STATUS:               ID:20170111044032 L   I
 OLDACT:UP  17-01-11 15:25 OP:and  STATUS:               ID:20170111043745d    3
 OLDACT:UP  17-01-11 15:25 OP:and  STATUS:               ID:20170111043745d    3
 OLDACT:UP  17-01-11 15:24 OP:and  STATUS:               ID:20170111043745d    3
 OLDACT:UP  17-01-11 15:24 OP:and  STATUS:               ID:20170111043745d    3
 OLDACT:UP  17-01-11 15:23 OP:and  STATUS:               ID:20170111043745d    3
 OLDACT:UP  17-01-11 15:22 OP:and  STATUS:               ID:20170111043745d    3
 OLDACT:UP  17-01-11 15:22 OP:and  STATUS:               ID:20170111043745d    3
 OLDACT:UP  17-01-11 15:20 OP:and  STATUS:               ID:20170111043745d    3
 OLDACT:UP  17-01-11 15:19 OP:and  STATUS:               ID:20170111043745d    3
 OLDACT:UP  17-01-11 15:18 OP:and  STATUS:               ID:20170111043745d    3
 OLDACT:UP  17-01-11 15:18 OP:and  STATUS:               ID:20170111043745d    3
 OLDACT:UP  17-01-11 15:17 OP:and  STATUS:               ID:20170111043745d    3
 OLDACT:UP  17-01-11 15:16 OP:and  STATUS:               ID:20170111043745d    3
 OLDACT:UP  17-01-11 15:16 OP:and  STATUS:               ID:20170111043745d    3
 OLDACT:UP  17-01-11 15:16 OP:and  STATUS:               ID:20170111043745d    3
 OLDACT:UP  17-01-11 15:15 OP:and  STATUS:               ID:20170111043745d    3
 OLDACT:DUP 17-01-11 15:13 OP:and  STATUS:               ID:20170111043745d    3
 OLDACT:DUP 17-01-11 15:09 OP:and  STATUS:               ID:20170111043744d    3
 2017-01-11-0438-00M.COL___346                                                 6
 STAT SP IPHASW D HRMM SECON CODA AMPLIT PERI AZIMU VELO AIN AR TRES W  DIS CAZ7
 BAR2 EZ IP     C  440 50.76                             170   -0.1610 23.8 198 
 BAR2 EZ ES        441  5.02                             170   -0.4810 23.8 198 
 BAR2 EZ I         441  6.85        30.0 0.20            165           23.8 198 
 BRR  HZ IP     C  440 52.70                             150   -0.0210 74.4 298 
 BRR  HN ES        441  9.44                             150    0.7410 74.4 298 
 BRR  HZ I         441 14.07        21.5 0.14            148           74.4 298 
 PAM  EZ IP     C  440 53.66                             150    0.1710 75.5  37 
 PAM  EN ES        441 10.33                             150    0.2510 75.5  37 
 PAM  EZ I         441 12.17        10.9 0.19            156           75.5  37 
 RUS  HZ EP        440 54.70                             142   -0.4710  100 178 
 RUS  HN ES        441 12.99                             142   -0.0710  100 178 
 RUS  HZ I         441 14.32        13.3 0.30            141            100 178 
 PTB  HZ EP   9    440 57.69                             129   -1.18 0  151 259 
 PTB  HN ES        441 18.34                             130   -0.13 9  151 259 
 PTB  HZ I         441 20.77        15.5 0.22            128            151 259 
 TAM  HZ IP     C  440 59.16                             129    0.19 9  152 105 
 TAM  HN ES        441 19.64                             129   -0.19 9  152 105 
 TAM  HZ I         441 21.22         9.4 0.24            133            152 105 
 ZAR  HZ EP        441  3.96                             120   -0.56 8  207 292 
 ZAR  HN ES        441 29.41                             120   -0.29 8  207 292 
 ZAR  HZ I         441 37.82        15.3 0.19            120            207 292 
 CHI  HZ I         441 48.45         3.4 0.28            115            249 196 
 ROSC BZ EP        441 11.01                             115    0.92 8  254 212 
 ROSC BN ES   4    441 42.84                             115    3.22 0  254 212 
 ROSC BZ I         441 44.45         5.8 0.30            115            254 212 
 URE  HZ EP        441 12.85                             112   -0.45 7  287 292 
 URE  HN ES   3    441 43.61                             112   -1.72 2  287 292 
 GUY2CHZ EP        441 16.67                             110    0.89 7  304 235 
 GUY2CHN ES   3    441 51.36                             110    1.61 2  304 235 
 GUY2CHZ I         441 58.37         5.1 0.68                           304 235 
 PTGC HZ EP   9    441 14.38                             110   -1.18 0  307 159 
 PTGC HN ES        441 48.24                             110    0.06 7  307 159 
 LL6C HZ EP   9    440 57.82                             109   -19.8 0  325 357 
 LL6C HN ES   3    441 34.54                                    1.28 2  325 357 
 CBOC HZ EP        441 19.08                             108   -0.11 7  337 252 
 CBOC HN ES   4    441 53.26                             108   -2.56 0  337 252 
 CBOC HZ I         442 10.29         1.8 0.60            108            337 252 
 DBB  EZ EP        441 19.96                             108    0.17 7  343 274 
 DBB  EZ ES   3    441 55.36                             108   -1.53 2  343 274 
 DBB  EZ I         442  1.73         3.4 0.18            108            343 274 
 ORTC HZ EP        441 26.20                             105    0.11 6  397 217 
 ORTC HN ES   3    442  9.99                             105    1.88 1  397 217 
 ORTC HZ I         442 13.16         2.2 0.16            105            397 217 
 PAL  HZ EP        441 26.92                             104   -0.54 6  408 239 
                                                                                
