 2013  411 0538 32.8 L   6.774 -73.150148.1  RSN  5 0.3 1.5LRSN                1
 GAP=184        0.81       5.5     5.7  6.1  0.1186E+02  0.8606E+01  0.8244E+01E
 Epicentro: LOS SANTOS - SANTANDER                                             3
 ACTION:UPD 13-05-22 14:37 OP:EP   STATUS:               ID:20130411053832 L   I
 2013-04-11-0528-51M.COL___211                                                 6
 STAT SP IPHASW D HRMM SECON CODA AMPLIT PERI AZIMU VELO AIN AR TRES W  DIS CAZ7
 BAR2 SZ EP        538 52.55                             172   -0.1410 20.4 190 
 BAR2 SZ ES        539  7.70                             172   -0.4810 20.4 190 
 BAR2 SZ I         539  9.24         6.5 0.38            169           20.4 190 
 GIR2 SZ ES        539  8.36                             166   -0.1210 34.0 352 
 BRR  HZ EP        538 54.61                             153    0.3310 72.1 301 
 BRR  HN ES        539 11.43                             153    0.4110 72.1 301 
 BRR  HN I         539 16.15         6.4 0.18            149           72.1 301 
 RUS  HZ EP        538 56.66                             145    0.0510 97.8 176 
 RUS  HN ES        539 15.53                             145    0.3610 97.8 176 
 PTB  HZ EP        538 59.53                             133   -0.36 9  147 260 
 PTB  HN ES        539 20.90                             133   -0.11 9  147 260 
 PTB  HN I         539 26.18         3.4 0.24            131            147 260 
                                                                                
