 2012  111 0135 10.9 L   6.792 -73.082145.7  RSN 14 0.4 2.2LRSN                1
 GAP=145        0.70       2.8     3.9  4.3 -0.3320E+01  0.4160E+01  0.1452E+01E
 Epicentro: LOS SANTOS - SANTANDER                                             3
 ACTION:UP  12-02-03 08:16 OP:REBC STATUS:               ID:20120111013510 L   I
 2012-01-11-0130-00M.COL___186                                                 6
 STAT SP IPHASW D HRMM SECON CODA AMPLIT PERI AZIMU VELO SNR AR TRES W  DIS CAZ7
 BAR2 SZ EP   1    135 30.41                             170    -0.2 7   25 207 
 BAR2 SZ ES   1    135 45.59                             170    -0.3 7   25 207 
 BAR2 SZ I         135 46.51        27.6 0.19                            25 207 
 GIR2 SZ EP   1    135 30.56                             166    -0.1 7   34 339 
 GIR2 SZ ES   1    135 45.71                             166    -0.4 7   34 339 
 PAM  SZ EP        135 33.35                             152     0.410   74  35 
 PAM  SN ES   1    135 50.65                             152     0.5 7   74  35 
 BRR  HZ EP   1    135 32.30                             150    -0.2 7   78 297 
 BRR  HE ES   1    135 49.34                             150     0.1 7   78 297 
 BRR  HZ I         135 50.12        26.5 0.15                            78 297 
 RUS  HZ EP        135 34.42                             144    -0.210   99 180 
 RUS  HN ES   1    135 53.25                             144     0.2 7   99 180 
 RUS  HZ I         135 54.76        11.0 0.34                            99 180 
 PTB  HN ES   2    135 59.35                             131    -0.7 5  154 260 
 OCA  SZ EP   1    135 39.79                             129     0.4 7  162 351 
 OCA  SZ ES   2    136  1.71                             129     0.1 5  162 351 
 OCA  SZ I         136  8.95        24.0 0.26                           162 351 
 ZAR  HZ EP   2    135 43.93                             121    -0.2 4  211 292 
 ZAR  HZ I         136 13.63        17.6 0.36                           211 292 
 NOR  SZ EP   1    135 46.86                             118    -0.4 6  240 236 
 NOR  SN ES   1    136 15.81                             118     0.3 6  240 236 
 CHI  HZ EP   1    135 48.92                             117     0.2 6  250 197 
 CHI  HN ES   1    136 18.29                             117     0.0 6  250 197 
 CHI  HZ I         136 21.27        13.5 0.34                           250 197 
 HEL  HZ EP   1    135 52.22                             114     0.3 6  279 256 
 HEL  HN ES   1    136 24.55                             114     0.7 6  279 256 
 HEL  HZ I         136 28.87         7.7 0.40                           279 256 
 RREF HZ EP   1    135 57.65                             110     0.0 5  327 230 
 RREF HN ES   2    136 33.99                             110     0.0 3  327 230 
 RREF HZ I         136 39.98        11.9 0.32                           327 230 
 COD  HZ EP   1    135 58.64                             109    -0.9 5  350 353 
 COD  HN ES   2    136 36.76                             109    -0.6 3  350 353 
 PRA  HZ EP   1    136  4.52                             106    -0.3 4  395 211 
 PRA  HN ES   1    136 46.67                             106    -0.1 4  395 211 
                                                                                
