 2014  911 0412 22.8 L   6.804 -73.136145.7  RSN 20 0.4 2.5LRSN                1
 GAP= 71        0.77       2.5     2.3  4.3 -0.2191E-01  0.2692E+01  0.2497E+01E
 Epicentro: LOS SANTOS - SANTANDER                                             3
 ACTION:UPD 14-10-03 23:04 OP:nd   STATUS:               ID:20140911041222 L   I
 OLDACT:UP  14-09-11 14:32 OP:mh   STATUS:               ID:20140911041000     3
 OLDACT:UP  14-09-11 14:32 OP:mh   STATUS:               ID:20140911041000     3
 OLDACT:UP  14-09-11 14:19 OP:mh   STATUS:               ID:20140911041000     3
 OLDACT:UP  14-09-11 14:19 OP:mh   STATUS:               ID:20140911041000     3
 OLDACT:REG 14-09-11 12:16 OP:mh   STATUS:               ID:20140911041000     3
 2014-09-11-0410-00M.COL___285                                                 6
 STAT SP IPHASW D HRMM SECON CODA AMPLIT PERI AZIMU VELO AIN AR TRES W  DIS CAZ7
 BAR2 SZ IP     D  412 42.40                             170    0.0010 23.9 192 
 BAR2 SZ I         412 58.84        64.9 0.20            167           23.9 192 
 BRR  HZ EP     C  412 44.16                             152    0.2210 71.9 298 
 BRR  HN ES        413  1.17                             152    0.7010 71.9 298 
 BRR  HZ I         413  4.64        43.4 0.10            154           71.9 298 
 PAM  SZ EP   1    412 45.15                             151    0.24 7 76.4  39 
 PAM  SN ES        413  2.07                             151   -0.1210 76.4  39 
 PAM  SZ I         413  4.02        61.2 0.52            157           76.4  39 
 RUS  HZ EP     C  412 46.42                             144   -0.1110  101 177 
 RUS  HN ES        413  4.87                             144   -0.2010  101 177 
 PTB  HZ EP     D  412 49.04                             132   -0.78 9  149 259 
 PTB  HN ES   1    413 10.86                             132   -0.07 7  149 259 
 PTB  HZ I         413 17.71        46.7 0.40            133            149 259 
 TAM  HZ EP        412 50.63                             131    0.28 9  154 105 
 TAM  HN ES        413 11.79                             131   -0.09 9  154 105 
 TAM  HZ I         413 18.91        16.7 0.40            134            154 105 
 SPBC HZ EP   1    412 51.20                             129   -0.15 7  164 219 
 SPBC HN ES        413 13.26                             129   -0.38 9  164 219 
 SPBC HZ I         413 20.30        46.7 0.46            130            164 219 
 ZAR  HZ EP   1    412 55.02                             122   -0.26 6  205 292 
 ZAR  HN ES        413 20.17                             122   -0.48 9  205 292 
 ZAR  HZ I         413 25.54        41.2 0.36            125            205 292 
 CTAB SZ EP   4    412 59.97                             119    1.37 0  231 211 
 NOR  HZ EP   1    412 58.35                             118   -0.25 6  236 235 
 NOR  HN ES   1    413 26.84                             118    0.28 6  236 235 
 NOR  HZ I         413 29.50        28.5 0.24            120            236 235 
 SML  HZ EP   1    412 59.13                             117   -0.26 6  244 335 
 SML  HN ES   1    413 28.08                             117    0.12 6  244 335 
 SML  HZ I         413 31.16        53.8 0.22            121            244 335 
 CHI  HZ EP   1    413  0.66                             117    0.13 6  249 195 
 CHI  HN ES   1    413 29.82                             117   -0.17 6  249 195 
 CHI  HZ I         413 38.82        10.5 0.34            119            249 195 
 ROSC BZ EP   1    413  1.01                             117    0.04 6  254 211 
 ROSC BN ES   4    413 31.99                             117    1.21 0  254 211 
 ROSC BZ I         413 40.47        40.3 0.35            118            254 211 
 HEL  HZ EP        413  3.50                             115    0.41 8  273 256 
 HEL  HN ES        413 34.49                             115   -0.06 8  273 256 
 HEL  HZ I         413 42.24        14.4 0.22            117            273 256 
 URE  HZ EP   4    413  2.57                             113   -1.34 0  285 292 
 URE  HN ES   4    413 32.64                             113   -3.38 0  285 292 
 GUY2CHZ EP   1    413  6.74                             112    0.25 5  302 235 
 GUY2CHN ES   4    413 43.39                             112    2.80 0  302 235 
 GUY2CHZ I         413 48.83        23.2 0.36                           302 235 
 CBOC HZ EP   1    413 10.22                             110    0.42 5  335 252 
 CBOC HN ES   4    413 48.17                             110    1.68 0  335 252 
 CBOC HZ I         414  3.91         5.8 0.66            112            335 252 
 TOL  SZ EP        413 11.65                             109    0.52 7  345 225 
 TOL  SZ ES   4    413 53.19                             109    4.33 0  345 225 
 MON  HZ EP   4    413  6.85                             108   -4.97 0  354 308 
 MON  HN ES   4    413 47.59                             108   -2.50 0  354 308 
 MON  HZ I         413 49.99         5.8 0.36            111            354 308 
 PRA  HZ EP   1    413 16.12                             106   -0.26 4  393 210 
 PRA  HN ES   1    413 58.67                             106    0.47 4  393 210 
 PRA  HZ I         414  5.10        21.0 0.26            108            393 210 
 ORTC HZ EP        413 16.32                             106   -0.47 6  396 216 
 ORTC HN ES        413 59.89                             106    0.96 6  396 216 
 SJC  HZ EP   4    413 14.76                             106   -3.58 0  409 327 
 SJC  HN ES   4    413 56.71                             106   -4.99 0  409 327 
 SJC  HZ I         414  1.44         6.7 0.60            108            409 327 
                                                                                
