 2010  911 0336 47.8 L   6.805 -73.053143.4  RSN 11 0.5 1.9LRSN                1
 GAP=169        1.05       4.4     8.8  7.8 -0.1320E+02  0.2839E+01  0.1059E+01E
 Epicentro: LOS SANTOS - SANTANDER                                             3
 ACTION:UP  11-02-18 11:01 OP:tino STATUS:               ID:20100911033647 L   I
 2010-09-11-0334-46S.COL___120                                                 6
 STAT SP IPHASW D HRMM SECON CODA AMPLIT PERI AZIMU VELO SNR AR TRES W  DIS CAZ7
 BAR2 SZ EP        337  7.52                             169     0.210   28 211 
 BAR2 SZ ES   1    337 22.15                             169    -0.3 7   28 211 
 BAR2 SZ I         337 23.77        45.3 0.23                            28 211 
 GIR2 SZ EP   1    337  7.52                             166     0.2 7   34 333 
 BRR  HZ IP     D  337  9.29                             149     0.010   80 295 
 BRR  HZ I         337  9.47        70.1 0.09                            80 295 
 BRR  HE ES   1    337 26.32                             149     0.3 7   80 295 
 RUS  HZ EP   1    337 11.49                             143     0.1 7  101 182 
 RUS  HN ES   1    337 29.60                             143    -0.1 7  101 182 
 RUS  HZ I         337 31.16        13.6 0.40                           101 182 
 GUE  SZ EP        337 11.50                             139    -0.610  114   7 
 GUE  SZ I         337 12.40         4.6 0.15                           114   7 
 GRA  SZ EP        337 13.25                             137     0.710  123  13 
 GRA  SZ ES   2    337 31.42                             137    -0.5 5  123  13 
 GRA  SZ I         337 36.10         7.6 0.54                           123  13 
 OCA  SZ EP   1    337 15.85                             129    -0.2 7  161 350 
 OCA  SZ ES   2    337 37.59                             129    -0.5 5  161 350 
 OCA  SZ I         337 43.99         8.9 0.17                           161 350 
 CHI  HZ EP        337 25.64                             116    -0.1 8  252 197 
 CHI  HZ I         337 26.10         3.2 0.17                           252 197 
 CHI  HN ES   2    337 56.19                             116     0.8 4  252 197 
 HEL  HZ EP   1    337 29.76                             113     0.7 6  282 256 
 HEL  HZ I         338  6.85         4.1 0.11                           282 256 
 RREF HN ES   1    338 10.55                             110    -0.9 5  330 230 
 RREF HZ I         338 16.99         5.2 0.36                           330 230 
 PRA  HZ EP   1    337 41.32                             106    -0.6 4  398 211 
 PRA  HN ES   2    338 23.69                             106    -0.4 3  398 211 
 PRA  HZ I         338 29.59         2.4 0.30                           398 211 
                                                                                
