 2016  411 0423 44.8 L   6.812 -73.145140.0  RSN  8 0.4 1.7LRSN                1
 GAP=136        0.87       3.3     3.9  6.2 -0.2404E+01  0.8301E+01 -0.2674E+01E
 Epicentro: LOS SANTOS - SANTANDER                                             3
 ACTION:UPD 16-05-05 14:20 OP:rebc STATUS:               ID:20160411042344 L   I
 OLDACT:UP  16-04-11 17:23 OP:mh   STATUS:               ID:20160411041749d    3
 OLDACT:UP  16-04-11 17:23 OP:mh   STATUS:               ID:20160411041749d    3
 OLDACT:UP  16-04-11 17:23 OP:mh   STATUS:               ID:20160411041749d    3
 OLDACT:DUP 16-04-11 17:18 OP:mh   STATUS:               ID:20160411041749d    3
 OLDACT:UP  16-04-11 17:16 OP:mh   STATUS:               ID:20160411041748     3
 OLDACT:REG 16-04-11 13:13 OP:mh   STATUS:               ID:20160411041748     3
 2016-04-11-0417-48M.COL___285                                                 6
 STAT SP IPHASW D HRMM SECON CODA AMPLIT PERI AZIMU VELO AIN AR TRES W  DIS CAZ7
 BAR2 EZ EP        424  4.01                             170    0.2110 24.7 190 
 BAR2 EZ ES        424 18.72                             170    0.1310 24.7 190 
 BAR2 EZ I         424 21.75         5.4 0.19            168           24.7 190 
 PAM  EZ EP        424  6.06                             150   -0.3110 76.3  40 
 PAM  EN ES        424 23.50                             150    0.3310 76.3  40 
 PAM  EZ I         424 26.24         8.7 0.40            156           76.3  40 
 RUS  HZ EP        424  7.81                             143   -0.3110  102 176 
 RUS  HN ES        424 26.33                             143    0.0510  102 176 
 PTB  HZ EP   1    424 10.77                             131   -0.60 7  148 258 
 PTB  HN ES        424 31.80                             131   -0.27 9  148 258 
 PTB  HZ I         424 39.21         7.7 0.38            132            148 258 
 OCA  HZ EP   1    424 12.60                             129    0.03 7  159 353 
 OCA  HN ES   1    424 33.92                             129   -0.29 7  159 353 
 SPBC HZ EP   1    424 12.99                             128   -0.01 7  164 219 
 SPBC HN ES        424 34.96                             128   -0.01 9  164 219 
 SPBC HZ I         424 41.65        10.7 0.05            130            164 219 
 ZAR  HZ EP   1    424 16.34                             121   -0.52 6  204 292 
 ZAR  HN ES        424 42.32                             121    0.47 9  204 292 
 ZAR  HZ I         424 48.08         6.1 0.36            123            204 292 
 GUY2CHZ EP   1    424 29.72                             111    1.45 5  302 235 
 GUY2CHN ES   4    425  3.40                             111    1.24 0  302 235 
 GUY2CHZ I         425 10.26         1.5 0.41                           302 235 
                                                                                
