 2014  311 0031 18.9 L   6.776 -73.134144.1  RSN  4 0.4 1.1LRSN                1
 GAP=139        0.91       6.1     5.2 11.4 -0.4554E+01  0.2311E+02  0.6233E+01E
 Epicentro: LOS SANTOS - SANTANDER                                             3
 ACTION:UPD 14-04-09 23:16 OP:nd   STATUS:               ID:20140311003118 L   I
 OLDACT:REG 14-03-11 07:15 OP:fm   STATUS:               ID:20140311002816     3
 2014-03-11-0028-16M.COL___235                                                 6
 STAT SP IPHASW D HRMM SECON CODA AMPLIT PERI AZIMU VELO AIN AR TRES W  DIS CAZ7
 PAM  SZ EP   1    031 41.29                             150    0.22 7 78.7  38 
 PAM  SN ES        031 58.15                             150   -0.1710 78.7  38 
 RUS  HZ EP   1    031 42.82                             144    0.48 7 97.8 177 
 RUS  HZ I         031 57.63         1.3 0.46            122           97.8 177 
 RUS  HN ES   1    032  0.71                             144    0.13 7 97.8 177 
 PTB  HZ EP        031 45.27                             131   -0.58 9  148 260 
 PTB  HN ES        032  6.66                             131   -0.17 9  148 260 
 PTB  HZ I         032  8.34         2.4 0.18            118            148 260 
 ZAR  HN ES   1    032 17.78                             122    0.87 6  206 293 
                                                                                
