 2013 1111 0206  8.2 L   6.826 -73.187143.7  RSN  6 0.3 1.7LRSN                1
 GAP=198        0.77       3.2     5.0  5.2  0.4415E+01  0.1322E+01 -0.3386E+01E
 Epicentro: ZAPATOCA - SANTANDER                                               3
 ACTION:UPD 14-01-09 16:27 OP:ep   STATUS:               ID:20131111020608 L   I
 OLDACT:REG 13-11-11 07:45 OP:nd   STATUS:               ID:20131111020000     3
 2013-11-11-0200-00M.COL___273                                                 6
 STAT SP IPHASW D HRMM SECON CODA AMPLIT PERI AZIMU VELO AIN AR TRES W  DIS CAZ7
 BAR2 SZ EP        2 6 27.77                             169    0.0910 25.8 179 
 BAR2 SZ ES        2 6 42.64                             169   -0.2010 25.8 179 
 BAR2 SZ I         2 6 44.18        11.7 0.14            168           25.8 179 
 BRR  HZ EP        2 6 29.59                             154    0.7110 65.9 298 
 BRR  HN ES        2 6 45.06                             154    0.0910 65.9 298 
 BRR  HZ I         2 6 49.89         7.1 0.28            151           65.9 298 
 RUS  HZ EP        2 6 31.76                             142   -0.2810  104 174 
 RUS  HN ES        2 6 50.69                             142    0.1010  104 174 
 RUS  HZ I         2 6 51.75         4.5 0.26            144            104 174 
 PTB  HZ EP        2 6 34.64                             132   -0.06 9  144 257 
 PTB  HN ES        2 6 55.38                             132    0.05 9  144 257 
 PTB  HZ I         2 6 58.20         4.5 0.14            131            144 257 
 SPBC HZ EP        2 6 36.72                             129    0.18 9  163 217 
 SPBC HN ES   1    2 6 58.06                             129   -0.54 7  163 217 
 SPBC HZ I         2 7  5.08         7.3 0.26            129            163 217 
 SML  HZ EP        2 6 44.07                             117   -0.21 8  239 336 
 SML  HN ES        2 7 11.97                             117   -0.41 8  239 336 
 SML  HZ I         2 7 16.21         5.9 0.10            119            239 336 
                                                                                
