 2014 1111 0315 46.8 L   7.245 -73.252116.2  RSN  5 0.4 1.1LRSN                1
 GAP=187        0.95      12.2     5.9 12.6 -0.3366E+02  0.1112E+02  0.7258E+02E
 Epicentro: RIONEGRO - SANTANDER                                               3
 ACTION:UPD 14-12-19 15:41 OP:nd   STATUS:               ID:20141111031546 L   I
 OLDACT:ARG 14-11-11 12:37 OP:stll STATUS:               ID:20141111030740     3
 2014-11-11-0307-40M.COL___293                                                 6
 STAT SP IPHASW D HRMM SECON CODA AMPLIT PERI AZIMU VELO AIN AR TRES W  DIS CAZ7
 BRR  HZ EP        316  3.02                             154   -0.6710 53.1 253 
 PAM  SZ EP        316  5.26                             150    0.3610 61.8  80 
 PAM  SN ES        316 18.99                             150   -0.0610 61.8  80 
 PAM  SZ I         316 19.49         3.3 0.20            151           61.8  80 
 BAR2 SZ EP        316  5.54                             146    0.3110 72.6 174 
 RUS  HZ EP        316 12.02                             124   -0.40 9  151 173 
 PTB  HZ EP        316 12.40                             123    0.24 9  154 240 
 PTB  HN ES        316 32.19                             123    0.22 9  154 240 
                                                                                
