 2015 1011 0507 45.2 L   6.780 -73.122140.0  RSN 10 0.4 1.6LRSN                1
 GAP=140        1.00       3.1     4.5  5.7 -0.4385E+01  0.7885E+01  0.2638E+01E
 Epicentro: LOS SANTOS - SANTANDER                                             3
 ACTION:UPD 15-12-22 20:39 OP:cam  STATUS:               ID:20151011050745 L   I
 OLDACT:REG 15-10-11 13:15 OP:ak   STATUS:               ID:20151011045749     3
 2015-10-11-0457-49M.COL___340                                                 6
 STAT SP IPHASW D HRMM SECON CODA AMPLIT PERI AZIMU VELO AIN AR TRES W  DIS CAZ7
 BAR2 EZ EP        5 8  3.92                             171   -0.1410 21.8 198 
 BAR2 EZ ES        5 8 18.84                             171    0.0410 21.8 198 
 BAR2 EZ I         5 8 21.51         9.2 0.20            175           21.8 198 
 BRR  HZ EP        5 8  5.83                             150   -0.0510 74.6 299 
 BRR  HE ES        5 8 22.60                             150    0.5510 74.6 299 
 BRR  HZ I         5 8 25.94         3.6 0.14            145           74.6 299 
 PAM  EZ EP        5 8  6.77                             150    0.0110 77.5  37 
 PAM  EN ES        5 8 23.86                             150    0.2410 77.5  37 
 PAM  EZ I         5 8 25.93         7.3 0.48            144           77.5  37 
 RUS  HZ EP        5 8  7.93                             143   -0.2410 98.2 177 
 RUS  HN ES        5 8 26.23                             143    0.1110 98.2 177 
 RUS  HZ I         5 8 27.56         5.2 0.26            144           98.2 177 
 SPBC HZ EP        5 8 12.86                             128   -0.35 9  163 220 
 SPBC HN ES        5 8 34.33                             128   -0.77 9  163 220 
 SPBC HZ I         5 8 42.74         4.4 0.20            126            163 220 
 OCA  HZ EP   1    5 8 13.73                             128    0.47 7  163 352 
 OCA  HN ES        5 8 34.46                             128   -0.73 9  163 352 
 OCA  HZ I         5 8 37.69         8.1 0.46            122            163 352 
 NOR  HZ EP        5 8 21.25                             117    0.60 8  236 235 
 NOR  HE ES        5 8 48.50                             117    0.16 8  236 235 
 NOR  HZ I         5 8 49.27         4.7 0.14            115            236 235 
 CHI  HZ EP        5 8 22.04                             116   -0.34 8  247 196 
 CHI  HN ES        5 8 51.72                             116    0.30 8  247 196 
 HEL  HZ EP   1    5 8 25.88                             113    0.58 6  274 256 
 HEL  HE ES        5 8 56.01                             113   -0.61 8  274 256 
 GUY2CHZ EP   1    5 8 29.58                             111    0.98 5  302 235 
 GUY2CHN ES        5 9  2.87                             111    0.38 7  302 235 
 GUY2CHZ I         5 9 10.44         2.3 0.30                           302 235 
                                                                                
