 2015  611 0218 38.8 L   6.821 -73.159143.2  RSN  7 0.6 2.0LRSN                1
 GAP=134        1.55       5.0     9.4 11.0 -0.3819E+01  0.1893E+02 -0.4824E+00E
 Epicentro: LOS SANTOS - SANTANDER                                             3
 ACTION:UPD 15-09-10 22:11 OP:cam  STATUS:               ID:20150611021838 L   I
 OLDACT:DUP 15-06-11 16:15 OP:stll STATUS:               ID:20150611020747d    3
 2015-06-11-0207-46M.COL___291                                                 6
 STAT SP IPHASW D HRMM SECON CODA AMPLIT PERI AZIMU VELO AIN AR TRES W  DIS CAZ7
 BAR2 EZ EP        218 58.45                             169    0.2610 25.4 186 
 BAR2 EZ ES        219 12.89                             169   -0.4010 25.4 186 
 BAR2 EZ I         219 14.64        19.1 0.18            168           25.4 186 
 BRR  HZ EP        219  0.05                             153    0.4910 68.8 297 
 BRR  HZ I         219  0.20        22.6 0.18            150           68.8 297 
 BRR  HN ES        219 16.83                             153    1.1010 68.8 297 
 PAM  SZ EP        219  1.22                             151    0.5110 76.6  41 
 PAM  SZ I         219  1.38        17.3 0.20            154           76.6  41 
 PAM  SN ES        219 17.91                             151    0.1210 76.6  41 
 RUS  HZ EP        219  2.42                             143   -0.0810  103 175 
 RUS  HN ES        219 20.30                             143   -0.6610  103 175 
 RUS  HZ I         219 22.36         6.7 0.22            143            103 175 
 OCA  HN ES        219 27.96                             129   -0.48 9  158 354 
 OCA  HZ I         219 32.60        26.2 0.16            130            158 354 
 SPBC HZ EP        219  7.55                             128    0.34 9  164 218 
 SPBC HN ES        219 28.92                             128   -0.43 9  164 218 
 SPBC HZ I         219 36.29        10.9 0.30            128            164 218 
 SML  HE ES        219 41.86                             117   -1.37 8  241 335 
                                                                                
