 2016  111 0538 51.5 L   6.805 -73.144144.3  RSN  9 0.4 1.8LRSN                1
 GAP=150        1.07       3.1     5.0  6.1 -0.3361E+01  0.7708E+01  0.1033E+01E
 Epicentro: LOS SANTOS - SANTANDER                                             3
 ACTION:UPD 16-03-09 23:24 OP:cam  STATUS:               ID:20160111053851 L   I
 OLDACT:UP  16-01-11 16:20 OP:mh   STATUS:               ID:20160111053753     3
 OLDACT:UP  16-01-11 16:19 OP:mh   STATUS:               ID:20160111053753     3
 OLDACT:REG 16-01-11 12:24 OP:mh   STATUS:               ID:20160111053753     3
 2016-01-11-0537-53M.COL___229                                                 6
 STAT SP IPHASW D HRMM SECON CODA AMPLIT PERI AZIMU VELO AIN AR TRES W  DIS CAZ7
 BAR2 EZ EP        539 11.27                             170    0.3110 24.0 190 
 BAR2 EZ ES        539 25.83                             170   -0.3110 24.0 190 
 BAR2 EZ I         539 26.98         6.3 0.34            170           24.0 190 
 BRR  HZ EP        539 12.96                             152    0.4810 71.1 298 
 BRR  HN ES        539 29.09                             152    0.2510 71.1 298 
 BRR  HZ I         539 33.61         8.8 0.10            150           71.1 298 
 PAM  EZ EP        539 14.49                             151    0.9710 76.8  40 
 PAM  EN ES        539 30.57                             151   -0.1310 76.8  40 
 PAM  EZ I         539 32.53        13.6 0.50            154           76.8  40 
 OCA  HZ EP        539 19.37                             129   -0.27 9  160 353 
 OCA  HN ES        539 40.83                             129   -0.76 9  160 353 
 OCA  HZ I         539 44.83        15.4 0.18            131            160 353 
 SPBC HZ EP        539 20.06                             128    0.12 9  164 219 
 SPBC HN ES        539 41.63                             128   -0.49 9  164 219 
 SPBC HZ I         539 47.05         9.4 0.26            130            164 219 
 ZAR  HZ EP        539 23.89                             122    0.05 9  204 292 
 ZAR  HN ES        539 49.48                             122    0.41 9  204 292 
 ZAR  HZ I         539 55.44         5.1 0.26            122            204 292 
 NOR  HZ EP        539 27.14                             118   -0.06 8  235 234 
 NOR  HN ES        539 55.16                             118    0.12 8  235 234 
 NOR  HZ I         539 56.66         2.5 0.32            119            235 234 
 SML  HZ EP        539 27.23                             117   -0.76 8  243 335 
 SML  HE ES        539 56.49                             117    0.04 8  243 335 
 SML  HZ I         540  1.43         8.4 0.28            118            243 335 
 CHI  HZ EP        539 28.96                             117   -0.22 8  249 195 
 CHI  HN ES        539 58.31                             117   -0.27 8  249 195 
 CHI  HZ I         540  1.83         1.7 0.18            119            249 195 
                                                                                
