 2012 1011 0010 54.6 L   6.793 -73.127145.4  RSN  7 0.3 1.8LRSN                1
 GAP=139        0.59       3.9     4.2  5.9  0.2382E+01  0.2134E+01  0.5255E+01E
 Epicentro: LOS SANTOS - SANTANDER                                             3
 ACTION:UPD 12-11-22 17:03 OP:ep   STATUS:               ID:20121011001054 L   I
 2012-10-11-0010-00M.COL___229                                                 6
 STAT SP IPHASW D HRMM SECON CODA AMPLIT PERI AZIMU VELO AIN AR TRES W  DIS CAZ7
 BAR2 SZ EP   1    011 13.94                             171   -0.28 7 23.0 196 
 BAR2 SZ I         011 14.22         9.3 0.11                          23.0 196 
 GIR2 SZ ES   1    011 29.51                             167   -0.12 7 32.5 347 
 BRR  HZ EP   1    011 15.90                             152    0.03 7 73.4 298 
 BRR  HE ES   1    011 32.91                             152    0.47 7 73.4 298 
 BRR  HZ I         011 33.53        15.5 0.12                          73.4 298 
 PAM  SZ EP        011 16.93                             151    0.1610 76.7  38 
 PAM  SZ I         011 17.11        13.1 0.22                          76.7  38 
 PAM  SN ES   1    011 33.93                             151   -0.11 7 76.7  38 
 PAM  SN I         011 34.88        18.4 0.42                          76.7  38 
 RUS  HZ EP   1    011 18.05                             144   -0.24 7 99.7 177 
 RUS  HN ES   1    011 36.72                             144   -0.01 7 99.7 177 
 RUS  HN I         011 37.97        10.4 0.22                          99.7 177 
 ZAR  HZ I         011 30.33         2.2 0.09                           206 292 
 ZAR  HN ES   1    011 52.38                             122   -0.38 6  206 292 
 ZAR  HN I         011 56.42         8.9 0.14                           206 292 
 CHI  HZ EP   2    011 33.22                             117    0.93 4  248 196 
                                                                                
