 2010  211 0320 45.8 L   6.766 -73.110143.2  RSN  5 0.2 1.6LRSN                1
 GAP=204        0.38       3.0     8.3  4.7 -0.3188E+01  0.1884E+02  0.3033E+01E
 Epicentro: LOS SANTOS - SANTANDER                                             3
 ACTION:UP  10-08-24 09:48 OP:vdl  STATUS:               ID:20100211032045 L   I
 2010-02-11-0319-50S.COL___084                                                 6
 STAT SP IPHASW D HRMM SECON CODA AMPLIT PERI AZIMU VELO SNR AR TRES W  DIS CAZ7
 BAR2 SZ EP        321  5.14                             171     0.010   21 203 
 BAR2 SZ ES   1    321 20.02                             171    -0.1 7   21 203 
 GIR2 SZ EP        321  5.43                             165     0.110   36 345 
 GIR2 SZ ES   3    321 21.12                             165     0.6 2   36 345 
 OCA  SZ ES   2    321 36.21                             128    -0.4 5  165 352 
 CHI  HZ EP        321 23.05                             117    -0.1 8  246 196 
 CHI  HE ES   2    321 52.04                             117    -0.1 4  246 196 
 CHI  HZ I         321 56.23         2.4 0.44                           246 196 
 HEL  HZ EP   1    321 26.34                             114     0.1 6  275 257 
 HEL  HZ I         322  3.82         3.2 0.33                           275 257 
                                                                                
