 2017  311 0744 40.6 L   6.721 -73.129143.0  RSN  7 0.4 1.4LRSN                1
 GAP=142        0.93       3.8     4.0  5.9 -0.7421E+00  0.6130E+01 -0.1087E+00E
 Epicentro: JORDAN - SANTANDER                                                 3
 ACTION:UPD 17-05-25 18:39 OP:jn   STATUS:               ID:20170311074440 L   I
 OLDACT:UP  17-03-11 15:47 OP:and  STATUS:               ID:20170311073742d    3
 OLDACT:DUP 17-03-11 15:45 OP:and  STATUS:               ID:20170311073742d    3
 OLDACT:UP  17-03-11 15:45 OP:and  STATUS:               ID:20170311073741     3
 OLDACT:REG 17-03-11 12:45 OP:and  STATUS:               ID:20170311073741     3
 2017-03-11-0738-00M.COL___391                                                 6
 STAT SP IPHASW D HRMM SECON CODA AMPLIT PERI AZIMU VELO AIN AR TRES W  DIS CAZ7
 BAR2 EZ EP        744 59.65                             174   -0.1310 15.4 202 
 BAR2 EZ ES        745 14.79                             174    0.0710 15.4 202 
 BAR2 EZ I         745 16.41         6.4 0.24            173           15.4 202 
 BRR  HZ EP        745  2.08                             150    0.2510 77.2 304 
 BRR  HN ES        745 18.90                             150    0.5410 77.2 304 
 PAM  EZ IP     C  745  2.90                             148   -0.0010 83.2  35 
 PAM  EN ES        745 19.99                             148   -0.2910 83.2  35 
 PAM  EZ I         745 22.27         5.7 0.44            150           83.2  35 
 RUS  HZ EP        745  3.43                             146   -0.0510 91.8 177 
 RUS  HN ES        745 21.26                             146   -0.0410 91.8 177 
 RUS  HZ I         745 22.85         3.8 0.24            147           91.8 177 
 PTB  HZ EP        745  6.84                             131   -0.55 9  148 262 
 PTB  HN ES        745 27.56                             131   -0.72 9  148 262 
 PTB  HZ I         745 28.07         2.3 0.14            133            148 262 
 SPBC HZ EP        745  8.53                             129    0.14 9  158 221 
 SPBC HN ES        745 30.43                             129    0.39 9  158 221 
 SPBC HZ I         745 32.60         3.2 0.28            131            158 221 
 ZAR  HZ EP        745 14.03                             121    0.62 8  209 294 
 ZAR  HN ES        745 38.81                             121   -0.18 8  209 294 
 ZAR  HZ I         745 40.52         4.0 0.20            122            209 294 
                                                                                
