 2013  311 0845 37.1 L   6.747 -73.152155.5  RSN  5 0.4 1.7LRSN                1
 GAP=233        0.76       7.9     8.0  7.9  0.3776E+02  0.9459E+01  0.7962E+01E
 Epicentro: LOS SANTOS - SANTANDER                                             3
 ACTION:UPD 13-04-09 14:01 OP:ep   STATUS:               ID:20130311084537 L   I
 2013-03-11-0840-00M.COL___231                                                 6
 STAT SP IPHASW D HRMM SECON CODA AMPLIT PERI AZIMU VELO AIN AR TRES W  DIS CAZ7
 BAR2 SZ EP   2    845 57.39                             173   -0.36 5 17.4 191 
 BAR2 SZ ES   1    846 13.38                             173   -0.52 7 17.4 191 
 BAR2 SZ I         846 14.33         7.2 0.38            175           17.4 191 
 BRR  HZ EP   1    845 59.66                             153    0.27 7 73.6 303 
 BRR  HN ES        846 17.01                             153    0.2010 73.6 303 
 BRR  HN I         846 21.14        11.7 0.18            152           73.6 303 
 RUS  HZ EP   1    846  1.88                             147    0.50 7 94.8 175 
 RUS  HN ES   1    846 20.43                             147    0.07 7 94.8 175 
 RUS  HN I         846 20.91         5.0 0.34            151           94.8 175 
 PTB  HZ EP   1    846  3.95                             134   -0.73 7  146 261 
 PTB  HN ES   1    846 26.42                             134    0.19 7  146 261 
 PTB  HN I         846 28.04         9.4 0.18            136            146 261 
 ZAR  HN ES   2    846 36.11                             124   -0.15 4  206 294 
 ZAR  HN I         846 38.18         5.5 0.24            125            206 294 
                                                                                
