 2017  111 0338 44.2 L   6.778 -73.094141.6  RSN 11 0.5 1.8LRSN                1
 GAP=124        0.86       3.9     3.7  4.9  0.2379E+01  0.2566E+01  0.1874E+01E
 Epicentro: LOS SANTOS - SANTANDER                                             3
 ACTION:UPD 17-05-22 15:58 OP:jn   STATUS:               ID:20170111033844 L   I
 OLDACT:UP  17-01-11 14:43 OP:and  STATUS:               ID:20170111033749     3
 OLDACT:UP  17-01-11 14:43 OP:and  STATUS:               ID:20170111033749     3
 OLDACT:UP  17-01-11 14:42 OP:and  STATUS:               ID:20170111033749     3
 OLDACT:UP  17-01-11 14:41 OP:and  STATUS:               ID:20170111033749     3
 OLDACT:UP  17-01-11 14:40 OP:and  STATUS:               ID:20170111033749     3
 OLDACT:UP  17-01-11 14:40 OP:and  STATUS:               ID:20170111033749     3
 OLDACT:REG 17-01-11 12:38 OP:and  STATUS:               ID:20170111033749     3
 2017-01-11-0338-00M.COL___346                                                 6
 STAT SP IPHASW D HRMM SECON CODA AMPLIT PERI AZIMU VELO AIN AR TRES W  DIS CAZ7
 BAR2 EZ EP        339  3.50                             171    0.1410 22.7 205 
 BAR2 EZ ES        339 17.91                             171   -0.3610 22.7 205 
 BAR2 EZ I         339 19.28        22.5 0.22            172           22.7 205 
 PAM  EZ IP     C  339  6.60                             150    0.6810 75.9  35 
 PAM  EN ES        339 22.24                             150   -0.6010 75.9  35 
 PAM  EZ I         339 25.93         8.0 0.60            151           75.9  35 
 BRR  HZ IP     C  339  5.50                             149    0.1910 77.4 298 
 BRR  HN ES        339 22.11                             149    0.3610 77.4 298 
 BRR  HZ I         339 26.27        11.2 0.12            149           77.4 298 
 RUS  HZ EP        339  7.44                             143    0.0510 97.9 179 
 RUS  HN ES        339 25.56                             143    0.1110 97.9 179 
 RUS  HZ I         339 27.34         5.7 0.52            147           97.9 179 
 PTB  HZ EP   9    339 10.15                             130   -1.20 0  153 260 
 PTB  HN ES        339 30.92                             130   -0.38 9  153 260 
 PTB  HZ I         339 33.68         8.0 0.13            131            153 260 
 ZAR  HZ EP   3    339 18.16                             120    1.09 2  210 292 
 ZAR  HN ES        339 42.56                             120   -0.11 8  210 292 
 ZAR  HZ I         339 47.38         6.6 0.24            121            210 292 
 URE  HZ EP        339 25.36                             112   -0.45 7  290 292 
 URE  HN ES   4    339 55.35                             112   -2.89 0  290 292 
 PTGC HZ EP        339 27.11                             111   -0.31 7  304 159 
 PTGC HN ES   3    340  0.01                             111   -1.09 2  304 159 
 GUY2CHZ EP   4    339 29.80                             111    1.77 0  304 236 
 GUY2CHN ES   4    340  5.90                             111    3.71 0  304 236 
 GUY2CHZ I         340  8.87         2.6 0.24                           304 236 
 CBOC HZ EP   3    339 32.54                             109    1.01 2  338 253 
 CBOC HN ES        340  8.16                             109   -0.25 7  338 253 
 SJC  HZ EP   3    339 38.52                             104   -1.76 1  414 326 
 SJC  HN ES   4    340 20.64                             104   -3.35 0  414 326 
                                                                                
