 2016 1111 0822 39.5 L   6.863 -73.226154.3  RSN  8 0.4 1.5LRSN                1
 GAP=123        1.07       7.1     5.3  7.5 -0.6954E+01  0.3976E+01 -0.7319E+01E
 Epicentro: ZAPATOCA - SANTANDER                                               3
 ACTION:UPD 17-10-26 21:06 OP:lp   STATUS:               ID:20161111082239 L   I
 OLDACT:REG 16-11-11 14:41 OP:ar   STATUS:               ID:20161111081743     3
 2016-11-11-0818-00M.COL___331                                                 6
 STAT SP IPHASW D HRMM SECON CODA AMPLIT PERI AZIMU VELO AIN AR TRES W  DIS CAZ7
 BAR2 EZ EP        823  0.31                             168    0.0110 30.3 171 
 BAR2 EZ ES        823 16.52                             168   -0.0210 30.3 171 
 BRR  HZ EP        823  0.09                             158   -0.9210 60.1 297 
 BRR  HN ES        823 18.22                             158    0.4210 60.1 297 
 BRR  HZ I         823 23.06         6.0 0.11            154           60.1 297 
 PAM  EZ EP        823  3.07                             152    0.3810 78.5  48 
 PAM  EN ES        823 20.70                             152   -0.0810 78.5  48 
 PAM  EZ I         823 22.27         6.3 0.54            156           78.5  48 
 PTB  HZ EP        823  7.07                             135    0.52 9  141 255 
 PTB  HN ES        823 27.33                             135   -0.32 9  141 255 
 PTB  HZ I         823 30.93         2.5 0.14            133            141 255 
 ZAR  HZ EP   9    823 14.24                             126    2.82 0  193 291 
 ZAR  HE ES        823 38.65                                   -0.50 9  193 291 
 ZAR  HZ I         823 43.87         2.2 0.11            125            193 291 
 ROSC BZ EP   4    823 20.97                             118    2.70 0  254 208 
 ROSC BE ES   4    823 46.87                             118   -1.64 0  254 208 
 ROSC BZ I         823 54.82         4.3 0.45            118            254 208 
 PRA  HZ EP   9    823 31.97                             108   -1.56 0  394 208 
 PRA  HE ES        824 14.42                                    0.30 6  394 208 
 SJC  HN ES        824 16.81                             107    0.11 6  399 327 
                                                                                
