 2013 1011 0740 52.0 L   6.810 -73.153146.4  RSN 11 0.4 1.8LRSN                1
 GAP=135        0.80       3.1     4.0  6.8 -0.8454E-02  0.4061E+01  0.7654E+00E
 Epicentro: LOS SANTOS - SANTANDER                                             3
 ACTION:UPD 13-11-25 09:20 OP:ep   STATUS:               ID:20131011074052 L   I
 OLDACT:UP  13-10-11 11:40 OP:mh   STATUS:               ID:20131011073959     3
 OLDACT:REG 13-10-11 08:29 OP:mh   STATUS:               ID:20131011073959     3
 2013-10-11-0739-59M.COL___273                                                 6
 STAT SP IPHASW D HRMM SECON CODA AMPLIT PERI AZIMU VELO AIN AR TRES W  DIS CAZ7
 BAR2 SZ EP        741 11.94                             170    0.2010 24.3 188 
 BAR2 SZ ES   1    741 27.38                             170    0.26 7 24.3 188 
 BAR2 SZ I         741 30.23        14.0 0.38            168           24.3 188 
 PAM  SZ EP   1    741 14.86                             151    0.58 7 77.1  41 
 PAM  SZ I         741 34.07         8.1 0.54            143           77.1  41 
 RUS  HZ EP   1    741 15.45                             144   -0.46 7  102 176 
 RUS  HN ES   1    741 34.18                             144   -0.37 7  102 176 
 PTB  HZ EP   1    741 18.93                             132   -0.04 7  147 258 
 PTB  HN ES        741 39.83                             132   -0.17 9  147 258 
 PTB  HZ I         741 41.96        11.2 0.14            135            147 258 
 OCA  HN ES   1    741 41.84                             130   -0.45 7  159 353 
 OCA  HZ I         741 47.64         6.0 0.28            126            159 353 
 SPBC HZ EP   1    741 20.96                             129    0.37 7  164 219 
 SPBC HN ES   1    741 42.79                             129   -0.09 7  164 219 
 SPBC HZ I         741 46.95         8.9 0.16            130            164 219 
 ZAR  HN ES        741 49.97                             123    0.36 9  203 292 
 NOR  HZ EP   1    741 26.75                             119   -1.02 6  235 234 
 NOR  HN ES        741 55.81                             119    0.15 8  235 234 
 NOR  HZ I         741 59.64         4.4 0.12            119            235 234 
 SML  HN ES   1    741 56.60                             118   -0.40 6  242 335 
 CHI  HZ EP   1    741 29.65                             117   -0.19 6  249 195 
 CHI  HN ES   2    741 59.49                             117    0.15 4  249 195 
 CHI  HZ I         742  4.78         1.8 0.32            116            249 195 
 GUY2CHZ EP   1    741 36.46                             112    0.82 5  301 235 
 GUY2CHN ES   4    742 12.81                             112    3.14 0  301 235 
 GUY2CHZ I         742 18.49         3.5 0.74                           301 235 
 CBOC HZ EP   4    741 39.17                             110    0.27 0  333 252 
                                                                                
