 2010  711 0417 47.5 L   7.056 -73.090143.6  RSN  6 0.1 1.2LRSN                1
 GAP=156        0.40       2.6     4.6  3.9 -0.5878E+01 -0.3708E+01 -0.3262E-01E
 Epicentro: FLORIDABLANCA - SANTANDER                                          3
 ACTION:UPD 10-12-01 15:16 OP:pat  STATUS:               ID:20100711041747 L   I
 2010-07-11-0414-00S.COL___120                                                 6
 STAT SP IPHASW D HRMM SECON CODA AMPLIT PERI AZIMU VELO AIN AR TRES W  DIS CAZ7
 BAR2 SZ EP   1    418  7.79                             159     0.0 7   52 191 
 BAR2 SZ ES   1    418 23.47                             159    -0.2 7   52 191 
 BRR  HZ EP   1    418  8.25                             153     0.0 7   69 275 
 BRR  HZ I         418 11.08         4.0 0.12                            69 275 
 BRR  HN ES   1    418 24.61                             153     0.1 7   69 275 
 BRI  SZ EP        418  9.26                             149     0.110   80  24 
 BRI  SZ I         418  9.47         3.7 0.15                            80  24 
 BRI  SZ ES   1    418 26.39                             149     0.3 7   80  24 
 GUE  SZ EP        418  9.87                             147     0.010   88  12 
 GUE  SZ I         418 10.50         2.2 0.20                            88  12 
 GRA  SZ EP        418 10.22                             144    -0.110   97  19 
 GRA  SZ ES   1    418 27.89                             144    -0.2 7   97  19 
 GRA  SZ I         418 28.72         4.2 0.35                            97  19 
 RUS  HZ EP   2    418 13.51                             136     0.2 5  129 180 
 RUS  HN ES   2    418 33.47                             136     0.1 5  129 180 
 RUS  HZ I         418 35.33         1.4 0.50                           129 180 
                                                                                
