 2016 1011 0104 24.8 L   6.798 -73.128144.0  RSN 14 0.4 2.2LRSN                1
 GAP= 67        1.04       3.2     3.3  5.3 -0.1478E+01  0.1608E+01  0.1021E+01E
 Epicentro: LOS SANTOS - SANTANDER                                             3
 ACTION:UPD 16-11-09 19:18 OP:rebc STATUS:               ID:20161011010424 L   I
 OLDACT:UP  16-10-11 15:22 OP:ar   STATUS:               ID:20161011005749d    3
 OLDACT:DUP 16-10-11 14:40 OP:ar   STATUS:               ID:20161011005749d    3
 2016-10-11-0058-00M.COL___360                                                 6
 STAT SP IPHASW D HRMM SECON CODA AMPLIT PERI AZIMU VELO AIN AR TRES W  DIS CAZ7
 BAR2 EZ EP        1 4 44.31                             170    0.0810 23.5 195 
 BAR2 EZ ES        1 4 59.00                             170   -0.3810 23.5 195 
 BAR2 EZ I         1 5  1.12        23.8 0.28            170           23.5 195 
 BRR  HZ EP        1 4 46.32                             152    0.4510 73.0 298 
 BRR  HN ES        1 5  2.89                             152    0.5910 73.0 298 
 BRR  HZ I         1 5  7.79        19.0 0.34            151           73.0 298 
 PAM  EZ EP        1 4 47.18                             151    0.4110 76.3  38 
 PAM  EN ES        1 5  3.94                             151    0.0310 76.3  38 
 PAM  EZ I         1 5  6.15        42.4 0.50            153           76.3  38 
 RUS  HZ EP        1 4 48.56                             143    0.2010  100 177 
 RUS  HN ES        1 5  6.62                             143   -0.1110  100 177 
 RUS  HZ I         1 5  8.41        13.3 0.38            146            100 177 
 PTB  HZ EP        1 4 51.26                             131   -0.54 9  150 259 
 PTB  HN ES        1 5 12.60                             131   -0.26 9  150 259 
 PTB  HZ I         1 5 14.62        15.5 0.32            132            150 259 
 TAM  HZ EP        1 4 52.62                             130    0.46 9  153 105 
 OCA  HZ EP        1 4 52.62                             129   -0.41 9  161 352 
 OCA  HN ES        1 5 14.19                             129   -0.85 9  161 352 
 OCA  HZ I         1 5 19.68        35.4 0.34            131            161 352 
 SPBC HZ EP        1 4 53.42                             128    0.15 9  164 220 
 SPBC HE ES        1 5 15.43                             128   -0.04 9  164 220 
 SPBC HZ I         1 5 20.82        18.8 0.12            130            164 220 
 ZAR  HZ EP        1 4 57.48                             122    0.14 8  206 292 
 ZAR  HN ES        1 5 23.21                             122    0.50 8  206 292 
 ZAR  HZ I         1 5 28.43        19.3 0.32            123            206 292 
 NOR  HN ES        1 5 28.71                             118    0.21 8  236 235 
 NOR  HZ I         1 5 30.18         7.3 0.14            119            236 235 
 HEL  HZ EP        1 5  5.53                             114    0.40 8  274 256 
 HEL  HN ES        1 5 35.92                             114   -0.67 8  274 256 
 HEL  HZ I         1 5 44.14         5.1 0.26            116            274 256 
 URE  HZ EP   4    1 5  2.64                             113   -3.36 0  286 292 
 URE  HN ES   4    1 5 36.14                             113   -2.00 0  286 292 
 URE  HZ I         1 5 38.30        20.1 0.38            114            286 292 
 GUY2CHZ EP   9    1 5 10.73                             112    2.23 0  303 235 
 GUY2CHN ES        1 5 44.82                                    0.01 7  303 235 
 GUY2CHZ I         1 5 47.45         2.9 0.24                           303 235 
 PTGC HZ EP        1 5  7.59                             111   -0.89 7  308 159 
 PTGC HN ES   4    1 5 40.78                             111   -1.76 0  308 159 
 PTGC HZ I         1 5 43.27        14.5 0.52            114            308 159 
                                                                                
