 2012  911 0706 49.6 L   7.272 -73.296116.5  RSN  4 0.1 1.6LRSN                1
 GAP=264        0.30       4.2     2.6  3.7  0.2905E+00  0.6859E+00 -0.3180E+01E
 Epicentro: RIONEGRO - SANTANDER                                               3
 ACTION:UPD 12-10-22 14:18 OP:ep   STATUS:               ID:20120911070649 L   I
 2012-09-11-0700-00M.COL___227                                                 6
 STAT SP IPHASW D HRMM SECON CODA AMPLIT PERI AZIMU VELO AIN AR TRES W  DIS CAZ7
 GIR2 SZ EP   1    7 7  5.51                             167   -0.06 7 24.2 152 
 BRR  HZ EP   1    7 7  6.30                             155   -0.04 7 49.5 248 
 BRR  HZ I         7 7  6.56         8.2 0.16                          49.5 248 
 BRR  HE ES   1    7 7 19.48                             155    0.06 7 49.5 248 
 BAR2 SZ EP   1    7 7  8.34                             145    0.01 7 76.2 171 
 BAR2 SZ ES   1    7 7 22.97                             145    0.01 7 76.2 171 
 BAR2 SZ I         7 7 24.40        13.7 0.13                          76.2 171 
 PTB  HZ EP   1    7 7 14.84                             123    0.11 7  152 238 
 PTB  HE ES   1    7 7 34.26                             123   -0.09 7  152 238 
 PTB  HZ I         7 7 40.27         4.5 0.80                           152 238 
                                                                                
