 2012 1011 0821 21.8 L   6.857 -73.225138.1  RSN 11 0.5 2.6LRSN                1
 GAP=123        0.87       4.0     4.8  9.2  0.1213E+01  0.1559E+02  0.7677E+01E
 Epicentro: ZAPATOCA - SANTANDER                                               3
 ACTION:UPD 12-11-22 17:03 OP:ep   STATUS:               ID:20121011082121 L   I
 2012-10-11-0820-00M.COL___229                                                 6
 STAT SP IPHASW D HRMM SECON CODA AMPLIT PERI AZIMU VELO AIN AR TRES W  DIS CAZ7
 GIR2 SZ EP   1    821 40.00                             169   -0.39 7 24.7   8 
 BAR2 SZ EP        821 40.51                             167   -0.1410 29.7 171 
 BAR2 SZ ES   2    821 55.31                             167   -0.06 5 29.7 171 
 BAR2 SZ I         821 57.33        77.3 0.16                          29.7 171 
 BRR  HZ IP     C  821 41.70                             155    0.1810 60.5 297 
 PAM  SZ EP   1    821 42.63                             149   -0.66 7 78.8  47 
 PAM  SN ES   2    821 59.99                             149   -0.07 5 78.8  47 
 PAM  SN I         822  0.87        71.4 0.16                          78.8  47 
 RUS  HZ EP   1    821 45.10                             140   -0.25 7  108 172 
 RUS  HN ES   2    822  4.38                             140    0.65 5  108 172 
 GRA  SZ EP   1    821 47.16                             136    1.05 7  123  22 
 ZAR  HZ EP   1    821 51.80                             122   -0.85 6  194 291 
 ZAR  HN ES        822 16.91                             122    0.18 9  194 291 
 ZAR  HN I         822 22.19        50.7 0.20                           194 291 
 NOR  SZ EP   1    821 56.67                             117   -0.06 6  231 232 
 NOR  SN ES   2    822 23.19                             117   -0.80 4  231 232 
 NOR  SN I         822 28.26        58.2 0.14                           231 232 
 CHI  HZ EP   1    821 59.19                             115   -0.33 6  253 193 
 CHI  HN ES        822 29.18                             115    0.24 8  253 193 
 CHI  HN I         822 33.13        17.9 0.57                           253 193 
 ROSC BZ EP   1    821 59.94                             115    0.31 6  254 209 
 ROSC BZ I         822 36.31        13.9 0.51                           254 209 
 HEL  HZ EP   1    822  1.51                             114    0.65 6  265 254 
 HEL  HE ES   2    822 31.58                             114    0.25 4  265 254 
                                                                                
