 2012 1111 0330  8.4 L   6.799 -73.153143.5  RSN  6 0.4 1.7LRSN                1
 GAP=136        1.13       5.8     5.8  7.6 -0.3247E+01  0.5958E+01  0.6950E+01E
 Epicentro: LOS SANTOS - SANTANDER                                             3
 ACTION:UPD 12-12-05 15:32 OP:}ep  STATUS:               ID:20121111033008 L   I
 2012-11-11-0330-00M.COL___230                                                 6
 STAT SP IPHASW D HRMM SECON CODA AMPLIT PERI AZIMU VELO AIN AR TRES W  DIS CAZ7
 BAR2 SZ EP        330 27.78                             170   -0.0110 23.1 188 
 BAR2 SZ ES        330 42.56                             170   -0.3310 23.1 188 
 BAR2 SZ I         330 45.02        10.8 0.24                          23.1 188 
 GIR2 SZ ES        330 42.69                             167   -0.2910 31.2 352 
 BRR  HZ EP        330 29.56                             152    0.2510 70.6 299 
 BRR  HN ES        330 46.53                             152    0.9410 70.6 299 
 BRR  HN I         330 46.79        20.4 0.20                          70.6 299 
 PAM  SZ EP        330 30.66                             150    0.2110 77.9  40 
 PAM  SN ES        330 47.23                             150   -0.3910 77.9  40 
 RUS  HZ EP        330 32.22                             143    0.2510  101 176 
 RUS  HN ES        330 50.57                             143    0.2510  101 176 
 RUS  HN I         330 52.19         4.6 0.32                           101 176 
 PTB  HZ EP        330 34.53                             132   -0.62 9  147 259 
 PTB  HN ES        330 55.58                             132   -0.41 9  147 259 
 PTB  HN I         330 57.90         5.5 0.26                           147 259 
                                                                                
