 2014  311 0125  5.7 L   6.791 -73.180154.8  RSN  4 0.2 1.5LRSN                1
 GAP=198        0.48       3.9     4.0  7.3  0.8962E+01 -0.9373E+01 -0.1744E+02E
 Epicentro: LOS SANTOS - SANTANDER                                             3
 ACTION:UPD 14-04-09 23:16 OP:nd   STATUS:               ID:20140311012505 L   I
 OLDACT:REG 14-03-11 07:18 OP:fm   STATUS:               ID:20140311011812     3
 2014-03-11-0118-12M.COL___232                                                 6
 STAT SP IPHASW D HRMM SECON CODA AMPLIT PERI AZIMU VELO AIN AR TRES W  DIS CAZ7
 RUS  HN EP        125 30.49                             146    0.2210 99.9 174 
 RUS  HE ES        125 49.33                             146   -0.1210 99.9 174 
 RUS  HN I         125 49.57         2.8 0.18            153           99.9 174 
 PTB  HZ EP        125 33.04                             135   -0.00 9  144 259 
 PTB  HN ES        125 54.32                             135   -0.07 9  144 259 
 PTB  HZ I         125 55.94         2.9 0.42            137            144 259 
 ZAR  HN ES   1    126  4.05                             125    0.12 6  201 293 
 ZAR  HZ I         126 12.76         3.7 0.42            126            201 293 
 SML  HZ EP   1    125 42.28                             119   -0.47 6  243 336 
 SML  HE ES   1    126 11.90                             119    0.23 6  243 336 
 SML  HZ I         126 15.91         3.7 0.42            120            243 336 
                                                                                
