 2014  311 0943 58.9 L   6.806 -73.159146.0  RSN 10 0.4 2.2LRSN                1
 GAP=135        0.80       2.5     3.4  4.9 -0.1374E+01  0.5523E+01 -0.1057E+00E
 Epicentro: LOS SANTOS - SANTANDER                                             3
 ACTION:UPD 14-04-09 23:16 OP:nd   STATUS:               ID:20140311094358 L   I
 OLDACT:REG 14-03-11 07:56 OP:fm   STATUS:               ID:20140311093820     3
 2014-03-11-0938-20M.COL___229                                                 6
 STAT SP IPHASW D HRMM SECON CODA AMPLIT PERI AZIMU VELO AIN AR TRES W  DIS CAZ7
 BAR2 SZ EP        944 18.84                             170    0.2310 23.8 186 
 BAR2 SZ ES        944 33.91                             170   -0.0410 23.8 186 
 BAR2 SZ I         944 36.63        57.3 0.54            168           23.8 186 
 PAM  SZ EP        944 21.66                             151    0.4510 77.8  41 
 PAM  SN ES        944 38.81                             151    0.2410 77.8  41 
 RUS  HZ IP        944 22.81                             144    0.0410  101 175 
 RUS  HN ES        944 41.16                             144   -0.2010  101 175 
 PTB  HZ EP        944 25.62                             132   -0.19 9  146 258 
 PTB  HN ES        944 46.38                             132   -0.38 9  146 258 
 PTB  HZ I         944 49.30        12.8 0.09            133            146 258 
 OCA  HZ EP   1    944 26.29                             130   -0.90 7  159 354 
 OCA  HN ES   1    944 48.90                             130   -0.33 7  159 354 
 SPBC HZ EP        944 27.38                             129   -0.04 9  163 218 
 SPBC HN ES   1    944 49.14                             129   -0.49 7  163 218 
 SPBC HZ I         944 54.89        18.1 0.21            130            163 218 
 ZAR  HZ EP        944 31.52                             123    0.28 9  202 292 
 ZAR  HN ES        944 56.76                             123    0.34 9  202 292 
 NOR  HZ EP        944 35.05                             119    0.45 8  234 234 
 NOR  HN ES        945  2.74                             119    0.33 8  234 234 
 NOR  HZ I         945  8.51         7.8 0.13            120            234 234 
 SML  HZ EP   1    944 34.89                             118   -0.56 6  242 336 
 CHI  HZ EP        944 36.36                             117   -0.32 8  249 195 
 CHI  HN ES        945  6.20                             117    0.08 8  249 195 
 HEL  HZ EP   4    944 40.86                             115    1.83 0  271 256 
 HEL  HN ES   4    945 13.35                             115    3.06 0  271 256 
 URE  HZ EP   4    944 39.11                             114   -0.73 0  282 292 
 URE  HN ES   4    945  8.11                             114   -3.63 0  282 292 
                                                                                
