 2011  911 0558 13.0 L   6.783 -73.087149.1  RSN  4 0.1 1.3LRSN                1
 GAP=200        0.31       5.2     6.5  6.1  0.2367E+02  0.1068E+02  0.8077E+01E
 Epicentro: LOS SANTOS - SANTANDER                                             3
 ACTION:UPD 12-07-13 15:56 OP:ep   STATUS:               ID:20110911055813 L   I
 2011-09-11-0555-07S.COL___168                                                 6
 STAT SP IPHASW D HRMM SECON CODA AMPLIT PERI AZIMU VELO AIN AR TRES W  DIS CAZ7
 GIR2 SZ EP   3    558 32.92                             166   -0.23 2 34.8 340 
 GIR2 SZ ES   2    558 48.82                             166   -0.05 5 34.8 340 
 BRR  HZ EP   2    558 34.82                             151   -0.05 5 77.8 297 
 BRR  HZ I         558 35.19         4.5 0.18                          77.8 297 
 BRR  HE ES   2    558 52.13                             151    0.19 5 77.8 297 
 RUS  HZ EP   2    558 37.08                             145    0.17 5 98.5 180 
 RUS  HN ES   2    558 55.46                             145   -0.12 5 98.5 180 
 RUS  HZ I         558 56.07         1.7 0.48                          98.5 180 
 ZAR  HN ES   2    559 12.25                             122   -0.11 4  211 292 
 ZAR  HZ I         559 20.00         2.7 0.13                           211 292 
                                                                                
