 2010  511 0753 53.4 L   6.712 -73.012146.2  RSN  6 0.4 1.8LRSN                1
 GAP=223        0.94       7.7    11.3  9.8 -0.3393E+02 -0.3865E+02 -0.2613E+01E
 Epicentro: ARATOCA - SANTANDER                                                3
 ACTION:UP  10-08-24 10:04 OP:vdl  STATUS:               ID:20100511075353 L   I
 2010-05-11-0750-31S.COL___104                                                 6
 STAT SP IPHASW D HRMM SECON CODA AMPLIT PERI AZIMU VELO AIN AR TRES W  DIS CAZ7
 BAR2 SZ EP        754 12.99                             171    -0.110   23 235 
 BAR2 SZ ES   1    754 28.31                             171    -0.1 7   23 235 
 BRR  HZ IP     C  754 15.72                             147     0.010   89 300 
 BRR  HZ I         754 15.98        15.6 0.14                            89 300 
 BRR  HN ES   1    754 33.45                             147     0.4 7   89 300 
 BRI  SZ EP        754 17.62                             140    -0.110  114  12 
 BRI  SZ ES   2    754 36.46                             140    -0.3 5  114  12 
 GUE  SZ EP        754 18.49                             138    -0.310  124   4 
 GRA  SZ EP        754 19.83                             136     0.610  132  10 
 GRA  SZ ES   1    754 39.69                             136     0.4 7  132  10 
 OCA  SZ ES   2    754 44.53                             128    -1.4 4  172 349 
 OCA  SZ I         754 49.38         5.4 0.26                           172 349 
                                                                                
