 2012  711 0957 50.5 L   7.347 -73.113 11.0  RSN  6 0.4 1.6LRSN                1
 GAP=176        1.07       5.6     2.8  5.4  0.8368E+00  0.4159E+01  0.7637E+01E
 Epicentro: RIONEGRO - SANTANDER                                               3
 ACTION:UP  12-08-14 11:44 OP:ep   STATUS:               ID:20120711095750 L   I
 2012-07-11-0950-00M.COL___188                                                 6
 STAT SP IPHASW D HRMM SECON CODA AMPLIT PERI AZIMU VELO AIN AR TRES W  DIS CAZ7
 PAM  SZ EP   1    957 58.77                             100     0.2 7   46  91 
 PAM  SE ES   1    958  4.26                             100    -0.7 7   46  91 
 PAM  SZ I         958  5.61        26.3 0.18            106             46  91 
 BRR  HZ EP        958  2.15                              96     0.210   71 248 
 BRR  HN ES        958 10.41                              96    -0.410   71 248 
 BRR  HZ I         958 11.99        25.5 0.13             99             71 248 
 BAR2 SZ EP   1    958  4.56                              95     0.5 7   84 185 
 BAR2 SZ I         958 16.55        19.4 0.14             98             84 185 
 RUS  HZ EP   1    958 16.43                              56     0.6 7  161 179 
 RUS  HZ I         958 18.72         5.8 0.17             56            161 179 
 RUS  HN ES        958 35.34                              56    -0.3 9  161 179 
 PTB  HZ EP   1    958 16.90                              56     0.1 7  173 239 
 PTB  HN ES   1    958 37.13                              56    -0.2 7  173 239 
 PTB  HZ I         958 38.33         9.0 0.32             56            173 239 
 ZAR  HZ EP   1    958 19.96                              56     0.7 7  193 275 
 ZAR  HN ES        958 41.53                              56    -0.2 9  193 275 
 ZAR  HZ I         958 43.67        10.9 0.19             56            193 275 
