 2011  611 0041 34.1 L   6.325 -73.578111.1  RSN  9 0.3 2.3LRSN                1
 GAP=111        0.53       2.3     3.4  4.5 -0.4584E+01  0.4330E+01 -0.2057E+00E
 Epicentro: SANTA HELENA DEL OPON - SANTANDER                                  3
 ACTION:UP  11-07-14 19:04 OP:ep   STATUS:               ID:20110611004134 L   I
 2011-06-11-0037-03S.COL___133                                                 6
 STAT SP IPHASW D HRMM SECON CODA AMPLIT PERI AZIMU VELO SNR AR TRES W  DIS CAZ7
 BAR2 SZ EP   1    041 50.78                             153    -0.1 7   53  56 
 BAR2 SZ ES   1    042  4.08                             153     0.2 7   53  56 
 BAR2 SZ I         042  5.09        83.2 0.16                            53  56 
 RUS  HZ EP   1    041 52.06                             145    -0.4 7   73 131 
 RUS  HN ES   2    042  7.05                             145     0.3 5   73 131 
 BRR  HZ EP   1    041 52.65                             139    -0.3 7   88 350 
 BRR  HE ES   1    042  7.47                             139    -0.1 7   88 350 
 BRR  HZ I         042 12.78        29.5 0.12                            88 350 
 NOR  SZ EP   1    042  0.22                             119    -0.3 7  166 240 
 NOR  SN ES   1    042 21.00                             119     0.0 7  166 240 
 BRI  SZ EP   1    042  2.00                             118     0.2 7  176  29 
 BRI  SZ ES   1    042 23.19                             118    -0.1 7  176  29 
 BRI  SZ I         042 30.15        15.6 0.48                           176  29 
 GRA  SZ EP   1    042  3.15                             115    -0.3 7  193  26 
 GRA  SZ ES   1    042 26.51                             115     0.1 7  193  26 
 GRA  SZ I         042 31.96        22.2 0.31                           193  26 
 OCA  SZ EP   1    042  6.23                             112     0.4 6  214   8 
 OCA  SZ ES   1    042 30.87                             112     0.3 6  214   8 
 OCA  SZ I         042 35.18        32.7 0.28                           214   8 
 TOL  SZ EP   1    042 13.06                             107     0.2 6  273 225 
 TOL  SZ ES   2    042 43.18                             107     0.1 4  273 225 
 PRA  HZ EP   1    042 18.35                             103    -0.1 5  323 207 
 PRA  HE ES   1    042 53.52                             103     0.5 5  323 207 
                                                                                
