 2016 1011 0154 27.4 L   6.737 -73.155140.0  RSN  6 0.5 1.6LRSN                1
 GAP=138        1.23       6.0     5.4  8.3  0.3098E+01  0.1187E+02 -0.2644E+01E
 Epicentro: LOS SANTOS - SANTANDER                                             3
 ACTION:UPD 16-11-09 19:18 OP:rebc STATUS:               ID:20161011015427 L   I
 OLDACT:REG 16-10-11 13:14 OP:ar   STATUS:               ID:20161011014742     3
 2016-10-11-0148-00M.COL___363                                                 6
 STAT SP IPHASW D HRMM SECON CODA AMPLIT PERI AZIMU VELO AIN AR TRES W  DIS CAZ7
 BAR2 EZ EP        154 45.76                             173   -0.4710 16.3 191 
 BAR2 EZ ES        155  0.78                             173   -0.1210 16.3 191 
 BAR2 EZ I         155  2.14        12.6 0.30            174           16.3 191 
 BRR  HZ EP        154 48.21                             151    0.1010 73.9 304 
 BRR  HE ES        155  5.03                             151    0.7810 73.9 304 
 PAM  EZ EP        154 49.01                             148   -0.4010 83.4  37 
 PAM  EE ES        155  6.41                             148   -0.1510 83.4  37 
 PAM  EZ I         155  8.57        11.1 0.60            149           83.4  37 
 RUS  HZ EP        154 50.55                             145    0.4410 93.7 175 
 RUS  HN ES        155  8.06                             145    0.2510 93.7 175 
 RUS  HZ I         155  9.68         3.2 0.18            147           93.7 175 
 PTB  HZ EP        154 53.33                             131   -0.39 9  146 261 
 PTB  HN ES        155 13.53                             131   -0.71 9  146 261 
 PTB  HZ I         155 15.73         4.5 0.34            132            146 261 
 ZAR  HZ EP        155  0.62                             121    0.94 8  206 294 
 ZAR  HN ES        155 24.64                             121   -0.21 8  206 294 
 ZAR  HZ I         155 31.10         5.4 0.34            121            206 294 
                                                                                
