 2010  511 0443 14.3 L   6.792 -73.006140.8  RSN  7 0.4 1.7LRSN                1
 GAP=172        0.84       4.3     9.2  8.6 -0.6184E+01 -0.3193E+02 -0.4147E+01E
 Epicentro: CEPITA - SANTANDER                                                 3
 ACTION:UP  10-08-24 10:04 OP:vdl  STATUS:               ID:20100511044314 L   I
 2010-05-11-0441-39S.COL___104                                                 6
 STAT SP IPHASW D HRMM SECON CODA AMPLIT PERI AZIMU VELO AIN AR TRES W  DIS CAZ7
 BAR2 SZ IP     D  443 33.46                             167     0.010   30 222 
 BAR2 SZ ES   1    443 48.29                             167    -0.1 7   30 222 
 BRR  HZ IP     C  443 35.93                             147     0.210   85 294 
 BRR  HZ I         443 36.28        20.1 0.11                            85 294 
 BRR  HN ES   1    443 52.65                             147     0.1 7   85 294 
 RUS  HZ EP        443 37.42                             143    -0.110  100 185 
 RUS  HN ES   2    443 55.45                             143    -0.1 5  100 185 
 RUS  HZ I         443 57.68         4.8 0.23                           100 185 
 BRI  SZ EP        443 36.92                             141    -0.510  105  13 
 GUE  SZ EP        443 38.72                             139     0.310  115   4 
 GRA  SZ IP        443 39.24                             136     0.410  123  10 
 GRA  SZ ES   1    443 58.18                             136     0.2 7  123  10 
 OCA  SZ EP   2    443 41.72                             128    -0.8 5  164 348 
 OCA  SZ ES   2    444  3.54                             128    -1.0 5  164 348 
 OCA  SZ I         444  8.51         5.7 0.48                           164 348 
                                                                                
