 2015  711 0609 45.1 L   6.854 -73.150131.9  RSN 11 0.4 1.8LRSN                1
 GAP=183        0.77       2.5     4.4  6.0 -0.2341E+01  0.1245E+02 -0.1525E+01E
 Epicentro: LOS SANTOS - SANTANDER                                             3
 ACTION:UPD 15-09-08 21:48 OP:cam  STATUS:               ID:20150711060945 L   I
 OLDACT:DUP 15-07-11 19:01 OP:spq  STATUS:               ID:20150711060749d    3
 2015-07-11-0607-48M.COL___337                                                 6
 STAT SP IPHASW D HRMM SECON CODA AMPLIT PERI AZIMU VELO AIN AR TRES W  DIS CAZ7
 BAR2 EZ EP        610  2.97                             167   -0.2610 29.2 187 
 BAR2 EZ ES   1    610 17.16                             167   -0.20 7 29.2 187 
 BAR2 EZ I         610 19.85        12.7 0.24            161           29.2 187 
 RUS  HE ES   1    610 26.47                             139    0.62 7  107 176 
 RUS  HZ I         610 27.37         5.8 0.32            132            107 176 
 OCA  HZ EP        610 11.82                             127    0.02 9  154 353 
 OCA  HN ES        610 32.21                             127   -0.41 9  154 353 
 OCA  HZ I         610 35.90        17.8 0.28            123            154 353 
 ZAR  HZ EP        610 15.99                             119   -0.43 9  201 291 
 ZAR  HN ES        610 41.32                             119    0.48 9  201 291 
 ZAR  HZ I         610 46.60         7.7 0.34            114            201 291 
 NOR  HZ EP   1    610 20.85                             115    0.42 6  238 233 
 NOR  HN ES        610 47.53                             115   -0.45 8  238 233 
 NOR  HZ I         610 52.98         5.4 0.18            110            238 233 
 SML  HZ EP        610 20.76                             115    0.38 8  238 335 
 SML  HE ES   1    610 48.29                             115    0.40 6  238 335 
 SML  HZ I         610 51.23         9.2 0.10            111            238 335 
 HEL  HZ EP        610 25.14                             112    0.36 8  273 255 
 HEL  HN ES   1    610 55.47                             112   -0.26 6  273 255 
 HEL  HZ I         611  1.31         4.7 0.48            107            273 255 
 GUY2CHZ EP   1    610 28.51                             109    0.03 5  304 234 
 GUY2CHE ES   4    611  3.87                             109    1.57 0  304 234 
 GUY2CHZ I         611  9.62         3.8 0.54                           304 234 
 CBOC HZ EP        610 31.92                             107    0.26 7  335 251 
 CBOC HE ES   1    611  7.73                             107   -0.24 5  335 251 
 CBOC HZ I         611 14.45         1.1 0.42            103            335 251 
 PRA  HZ EP   1    610 37.89                             104   -0.89 4  397 209 
 PRA  HN ES        611 20.79                             104    0.15 6  397 209 
 PRA  HZ I         611 23.42         2.7 0.24            100            397 209 
 SJC  HZ EP   4    610 37.42                             104   -2.21 0  404 327 
 SJC  HN ES   4    611 18.78                             104   -3.38 0  404 327 
 SJC  HZ I         611 24.77         1.1 0.33            100            404 327 
                                                                                
