 2010 1111 0326 10.7 L   6.801 -73.120148.8  RSN  5 0.2 1.6LRSN                1
 GAP=161        0.49       2.9     5.4  5.2 -0.7320E+00 -0.1262E+02  0.1241E+00E
 Epicentro: LOS SANTOS - SANTANDER                                             3
 ACTION:UP  10-12-17 16:51 OP:REBC STATUS:               ID:20101111032611 L   I
 2010-11-11-0322-02S.COL___129                                                 6
 STAT SP IPHASW D HRMM SECON CODA AMPLIT PERI AZIMU VELO SNR AR TRES W  DIS CAZ7
 BAR2 SZ EP   1    326 30.67                             170     0.0 7   24 197 
 BAR2 SZ I         326 31.56         9.6 0.86                            24 197 
 BAR2 SZ ES   2    326 46.74                             170     0.4 5   24 197 
 BRR  HZ EP        326 32.33                             152     0.010   74 297 
 BRR  HN ES        326 49.12                             152     0.010   74 297 
 BRR  HZ I         326 52.67         8.0 0.23                            74 297 
 RUS  HZ EP        326 34.72                             144     0.010  100 178 
 RUS  HZ I         326 36.02         3.3 0.38                           100 178 
 RUS  HN ES   2    326 53.15                             144    -0.3 5  100 178 
 GRA  SZ EP        326 36.34                             138     0.210  125  16 
 GRA  SZ ES   1    326 55.78                             138    -0.2 7  125  16 
 GRA  SZ I         326 57.01         6.5 0.29                           125  16 
 OCA  SZ EP   1    326 39.10                             130    -0.2 7  161 352 
 OCA  SZ I         327  3.59         5.9 0.03                           161 352 
                                                                                
