 2015  211 0804 28.9 L   6.776 -73.125148.2  RSN  6 0.5 1.3LRSN                1
 GAP=202        1.27       5.5     7.8 10.2  0.6912E+01  0.3229E+01 -0.9396E+01E
 Epicentro: LOS SANTOS - SANTANDER                                             3
 ACTION:UPD 15-04-30 21:25 OP:nd   STATUS:               ID:20150211080428 L   I
 OLDACT:REG 15-02-11 13:24 OP:fm   STATUS:               ID:20150211075741     3
 2015-02-11-0757-41M.COL___281                                                 6
 STAT SP IPHASW D HRMM SECON CODA AMPLIT PERI AZIMU VELO AIN AR TRES W  DIS CAZ7
 BAR2 EZ EP        8 4 48.97                             172    0.1910 21.3 197 
 BAR2 EZ I         8 5  7.94         1.6 0.14            173           21.3 197 
 BRR  HZ EP        8 4 50.44                             152   -0.0610 74.5 299 
 BRR  HN ES        8 5  8.00                             152    0.6610 74.5 299 
 BRR  HZ I         8 5 13.67         4.1 0.12            157           74.5 299 
 RUS  HZ EP        8 4 53.60                             145    0.9010 97.8 177 
 RUS  HE ES        8 5 10.36                             145   -0.8910 97.8 177 
 RUS  HZ I         8 5 14.28         1.0 0.30            148           97.8 177 
 PTB  HZ EP        8 4 56.03                             132   -0.20 9  150 260 
 PTB  HN ES        8 5 17.28                             132   -0.27 9  150 260 
 PTB  HZ I         8 5 25.07         4.0 0.38            138            150 260 
 SML  HZ EP        8 5  5.82                             117   -0.21 8  247 335 
 SML  HN ES        8 5 34.52                             117   -0.46 8  247 335 
 SML  HZ I         8 5 37.39         4.4 0.10            121            247 335 
 GUY2CHZ EP   1    8 5 12.19                             113   -0.48 5  302 235 
 GUY2CHE ES        8 5 47.14                             113    0.33 7  302 235 
 GUY2CHZ I         8 5 54.29         1.6 0.26                           302 235 
                                                                                
