 2010  511 0237 58.1 L   7.218 -73.756 28.2  RSN  8 0.6 2.2LRSN                1
 GAP=143        1.41       4.8     6.8  5.2 -0.7584E+01 -0.6763E+01 -0.5403E+01E
 Epicentro: PUERTO WILCHES - SANTANDER                                         3
 ACTION:UP  10-08-24 10:04 OP:vdl  STATUS:               ID:20100511023758 L   I
 2010-05-11-0236-14S.COL___104                                                 6
 STAT SP IPHASW D HRMM SECON CODA AMPLIT PERI AZIMU VELO AIN AR TRES W  DIS CAZ7
 BRR  HZ IP     C  238  2.73                             152    -0.310   13 159 
 BRR  HN ES   1    238  7.12                             152     0.2 7   13 159 
 BRR  HZ I         238  8.64       256.9 0.13                            13 159 
 BAR2 SZ EP        238 12.81                              61    -0.510   94 138 
 BAR2 SZ ES   1    238 24.53                              61    -0.7 7   94 138 
 GUE  SZ EP        238 15.34                              61    -0.610  114  53 
 BRI  SZ IP        238 17.50                              61     1.110  119  62 
 OCA  SZ EP        238 16.44                              61    -0.410  123  23 
 OCA  SZ ES   2    238 31.27                              61    -0.2 5  123  23 
 OCA  SZ I         238 34.66        47.6 0.39                           123  23 
 GRA  SZ IP        238 17.55                              61     0.010  128  55 
 GRA  SZ ES   1    238 33.20                              61     0.5 7  128  55 
 RUS  HZ EP        238 22.86                              61     0.4 9  164 153 
 RUS  HN ES   2    238 42.58                              61     1.1 5  164 153 
 RUS  HZ I         238 44.69        36.6 0.49                           164 153 
 HEL  HZ EP        238 30.64                              61     0.6 8  227 240 
 HEL  HN ES   2    238 54.37                              61    -0.7 4  227 240 
 HEL  HZ I         239  3.08        10.3 0.34                           227 240 
                                                                                
