 2015  211 0031 58.5 L   6.802 -73.254144.7  RSN  6 0.3 1.3LRSN                1
 GAP=115        0.69       3.2     3.4  5.4 -0.1695E+00  0.1876E+01  0.3072E-01E
 Epicentro: ZAPATOCA - SANTANDER                                               3
 ACTION:UPD 15-04-30 21:24 OP:nd   STATUS:               ID:20150211003158 L   I
 OLDACT:REG 15-02-11 12:56 OP:fm   STATUS:               ID:20150211002738     3
 2015-02-11-0027-38M.COL___290                                                 6
 STAT SP IPHASW D HRMM SECON CODA AMPLIT PERI AZIMU VELO AIN AR TRES W  DIS CAZ7
 BAR2 EZ EP        032 18.42                             170    0.4110 24.5 161 
 BAR2 EZ ES   1    032 33.35                             170    0.11 7 24.5 161 
 BAR2 EZ I         032 34.87         4.5 0.16            172           24.5 161 
 BRR  HZ EP   1    032 19.12                             156    0.16 7 60.8 304 
 BRR  HN ES        032 35.31                             156    0.3710 60.8 304 
 BRR  HZ I         032 38.36         6.8 0.52            154           60.8 304 
 PAM  SZ EP        032 21.24                             148    0.1610 85.3  46 
 PAM  SN ES        032 38.31                             148   -0.3910 85.3  46 
 PAM  SZ I         032 41.45         2.2 0.28            152           85.3  46 
 RUS  HZ EP        032 22.28                             143    0.0310  102 169 
 RUS  HN ES        032 40.60                             143   -0.2010  102 169 
 RUS  HZ I         032 43.03         1.6 0.28            147            102 169 
 PTB  HZ EP        032 24.07                             134   -0.25 9  136 258 
 PTB  HN ES        032 44.26                             134   -0.22 9  136 258 
 PTB  HZ I         032 51.69         2.9 0.58            135            136 258 
 SML  HN ES   1    033  2.31                             118   -0.30 6  239 338 
 SML  HZ I         033  5.96         2.7 0.10            120            239 338 
                                                                                
