 2014 1111 0645 33.1 L   6.772 -73.219138.7  RSN  7 0.4 1.2LRSN                1
 GAP=126        1.04       4.6     4.5  8.0 -0.1451E+01  0.1050E+02  0.4904E+01E
 Epicentro: ZAPATOCA - SANTANDER                                               3
 ACTION:UPD 14-12-19 15:41 OP:nd   STATUS:               ID:20141111064533 L   I
 OLDACT:DUP 14-11-11 21:57 OP:fm   STATUS:               ID:20141111063750d    3
 2014-11-11-0637-49M.COL___296                                                 6
 STAT SP IPHASW D HRMM SECON CODA AMPLIT PERI AZIMU VELO AIN AR TRES W  DIS CAZ7
 BAR2 SZ EP        645 51.44                             171   -0.3310 20.3 168 
 BRR  HZ EP        645 53.79                             153    0.6510 65.9 304 
 BRR  HN ES        646  9.34                             153    0.5410 65.9 304 
 BRR  HZ I         646 15.16         4.1 0.28            155           65.9 304 
 PAM  SZ EP        645 55.23                             147    0.2210 85.0  42 
 PAM  SN ES        646 11.53                             147   -0.6110 85.0  42 
 PAM  SZ I         646 15.18         2.4 0.56            152           85.0  42 
 RUS  HZ EP        645 56.36                             143    0.4110 98.4 171 
 RUS  HN ES        646 13.65                             143   -0.1610 98.4 171 
 RUS  HZ I         646 16.34         1.9 0.32            148           98.4 171 
 PTB  HZ EP   1    645 58.44                             132   -0.23 7  139 259 
 PTB  HE ES        646 18.52                             132   -0.13 9  139 259 
 PTB  HZ I         646 22.60         2.0 0.18            136            139 259 
 GUY2CHZ EP        646 15.43                             112    0.04 7  293 234 
 GUY2CHN ES        646 47.98                             112   -0.43 7  293 234 
 GUY2CHZ I         646 58.71         1.4 0.60                           293 234 
 MON  HN ES        646 58.21                             107   -0.69 6  349 310 
 MON  HZ I         646 58.83         0.5 0.36            111            349 310 
                                                                                
