 2016  711 0511 28.4 L   6.927 -73.104130.6  RSN 11 0.4 2.0LRSN                1
 GAP=214        0.80       3.5     4.0  7.0  0.2563E+01  0.1733E+01 -0.9565E+01E
 Epicentro: PIEDECUESTA - SANTANDER                                            3
 ACTION:UPD 17-03-29 16:49 OP:lp   STATUS:               ID:20160711051128 L   I
 OLDACT:REG 16-07-11 12:40 OP:lv   STATUS:               ID:20160711050740     3
 2016-07-11-0507-40M.COL___331                                                 6
 STAT SP IPHASW D HRMM SECON CODA AMPLIT PERI AZIMU VELO AIN AR TRES W  DIS CAZ7
 RUS  HZ EP        511 51.97                             136    0.1210  114 179 
 RUS  HE ES        512 10.37                             136    0.2510  114 179 
 RUS  HZ I         512 11.46        12.1 0.30            141            114 179 
 PTB  HZ EP        511 55.03                             127    0.06 9  156 254 
 PTB  HN ES        512 15.60                             127   -0.06 9  156 254 
 PTB  HZ I         512 17.92        15.6 0.20            128            156 254 
 SPBC HZ EP        511 56.87                             123   -0.36 9  177 217 
 SPBC HE ES        512 19.35                             123   -0.33 9  177 217 
 SPBC HZ I         512 24.06        14.7 0.30            126            177 217 
 ZAR  HZ EP        511 59.38                             119   -0.51 9  204 288 
 ZAR  HE ES   4    512 26.51                             119    2.09 0  204 288 
 ZAR  HZ I         512 35.03        17.1 0.15            121            204 288 
 NOR  HZ EP        512  4.63                             114   -0.05 8  247 232 
 NOR  HN ES        512 32.44                             114   -0.50 8  247 232 
 NOR  HZ I         512 34.78         8.8 0.18            116            247 232 
 CHI  HZ EP     C  512  6.48                             112   -0.52 8  263 195 
 CHI  HE ES        512 37.50                             112    0.42 8  263 195 
 CHI  HZ I         512 45.71         3.4 0.20            116            263 195 
 HEL  HZ EP        512  9.39                             111    0.53 8  280 253 
 HEL  HE ES        512 40.55                             111    0.17 8  280 253 
 HEL  HZ I         512 47.31         6.5 0.30            113            280 253 
 GUY2CHZ EP        512 13.60                             108    0.82 7  313 233 
 GUY2CHE ES        512 47.72                             108    0.36 7  313 233 
 GUY2CHZ I         512 55.54         5.2 0.66                           313 233 
 CBOC HZ EP        512 16.04                             106    0.23 7  343 250 
 CBOC HE ES        512 53.14                             106    0.38 7  343 250 
 CBOC HZ I         512 56.76         1.6 0.41            109            343 250 
 SJC  HZ EP        512 22.88                             103    0.42 6  400 325 
 SJC  HN ES        513  4.39                             103   -0.20 6  400 325 
 SJC  HZ I         513  9.00         2.1 0.31            106            400 325 
 PRA  HZ EP        512 22.74                             103   -0.46 6  407 209 
 PRA  HE ES        513  5.34                             103   -0.57 6  407 209 
 PRA  HZ I         513  8.50         4.0 0.28            106            407 209 
                                                                                
