 2016  211 0444 18.2 L   6.817 -73.173143.4  RSN  6 0.4 1.5LRSN                1
 GAP=199        0.98       4.2     5.5  7.7  0.6183E+01  0.4805E+01 -0.1242E+02E
 Epicentro: LOS SANTOS - SANTANDER                                             3
 ACTION:UPD 16-03-04 21:25 OP:rebc STATUS:               ID:20160211044418 L   I
 OLDACT:UP  16-02-11 18:01 OP:ak   STATUS:               ID:20160211043750     3
 OLDACT:REG 16-02-11 13:18 OP:ak   STATUS:               ID:20160211043750     3
 2016-02-11-0437-50M.COL___316                                                 6
 STAT SP IPHASW D HRMM SECON CODA AMPLIT PERI AZIMU VELO AIN AR TRES W  DIS CAZ7
 BAR2 EZ EP        444 37.86                             170    0.2410 24.9 182 
 BAR2 EZ ES        444 52.66                             170   -0.0710 24.9 182 
 BAR2 EZ I         444 56.27         5.8 0.25            170           24.9 182 
 RUS  HZ EP        444 42.17                             143    0.2610  103 174 
 RUS  HN ES        445  0.47                             143    0.0910  103 174 
 RUS  HZ I         445  1.32         3.3 0.26            147            103 174 
 PTB  HZ EP   2    444 44.03                             132   -0.75 5  145 258 
 PTB  HN ES        445  5.30                             132   -0.19 9  145 258 
 PTB  HZ I         445  8.89         3.7 0.32            133            145 258 
 SPBC HZ EP        444 46.01                             129   -0.51 9  163 218 
 SPBC HN ES        445  8.28                             129   -0.30 9  163 218 
 SPBC HZ I         445 13.32         4.5 0.16            131            163 218 
 ZAR  HZ EP        444 50.99                             122    0.82 9  201 292 
 ZAR  HN ES        445 15.64                             122    0.56 9  201 292 
 ZAR  HZ I         445 22.46         3.8 0.48            124            201 292 
 SML  HZ EP        444 54.12                             117   -0.29 8  241 336 
 SML  HN ES        445 22.08                             117   -0.55 8  241 336 
 SML  HZ I         445 26.27         4.9 0.22            119            241 336 
                                                                                
