 2012  111 0122 56.9 L   5.725 -73.910106.3  RSN  8 0.3 1.4LRSN                1
 GAP= 92        0.57       2.5     2.7  7.9 -0.1050E+01  0.4410E+01 -0.5042E+01E
 Epicentro: ALBANIA - SANTANDER                                                3
 ACTION:UP  12-02-03 08:16 OP:REBC STATUS:               ID:20120111012256 L   I
 2012-01-11-0120-00M.COL___186                                                 6
 STAT SP IPHASW D HRMM SECON CODA AMPLIT PERI AZIMU VELO SNR AR TRES W  DIS CAZ7
 RUS  HZ EP   1    123 16.20                             136    -0.2 7   93  79 
 RUS  HZ I         123 17.13         2.7 0.16                            93  79 
 RUS  HN ES   1    123 31.25                             136    -0.4 7   93  79 
 NOR  SZ EP   1    123 17.15                             131     0.1 7  108 261 
 NOR  SE ES   2    123 32.84                             131     0.0 5  108 261 
 PTB  HZ EP   1    123 17.04                             131    -0.1 7  109 326 
 PTB  HN ES   2    123 33.26                             131     0.4 5  109 326 
 CHI  HZ EP   1    123 19.02                             127     0.0 7  123 171 
 CHI  HZ I         123 19.53         2.4 0.11                           123 171 
 CHI  HN ES   1    123 36.59                             127     0.4 7  123 171 
 BRR  HZ EP   1    123 21.61                             120    -0.1 7  154   8 
 BRR  HZ I         123 22.08         8.2 0.11                           154   8 
 BRR  HE ES   2    123 41.35                             120     0.4 5  154   8 
 GIR2 SZ EP   1    123 23.75                             117     0.3 7  169  28 
 RREF HN ES   1    123 47.68                             115    -0.4 7  184 240 
 RREF HZ I         123 52.02         3.2 0.63                           184 240 
 ZAR  HN ES   2    123 53.97                             110    -0.3 4  222 332 
 ZAR  HZ I         123 58.81         2.7 0.28                           222 332 
                                                                                
