 2012  311 0623 51.3 L   6.696 -73.160156.0  RSN  6 0.3 1.6LRSN                1
 GAP=139        0.65       5.4     5.0  7.5  0.1109E+02 -0.8233E+01 -0.5591E+01E
 ACTION:UP  12-03-31 23:18 OP:EP   STATUS:               ID:20120311062351 L   I
 2012-03-11-0620-00M.COL___193                                                 6
 STAT SP IPHASW D HRMM SECON CODA AMPLIT PERI AZIMU VELO SNR AR TRES W  DIS CAZ7
 BAR2 SZ EP   1    624 11.84                             175    -0.2 7   12 192 
 BAR2 SZ I         624 28.92         7.6 0.31                            12 192 
 BRR  HZ EP        624 13.94                             153     0.110   76 307 
 BRR  HZ I         624 14.35        10.9 0.08                            76 307 
 BRR  HN ES        624 31.65                             153     0.210   76 307 
 PAM  SZ EP   1    624 14.89                             150    -0.3 7   87  36 
 RUS  HZ EP   1    624 15.58                             149     0.2 7   89 175 
 RUS  HN ES   1    624 33.94                             149    -0.1 7   89 175 
 RUS  HZ I         624 35.99         3.4 0.40                            89 175 
 PTB  HZ EP   1    624 19.19                             135     0.4 7  144 263 
 PTB  HE ES   1    624 40.00                             135    -0.3 7  144 263 
 ZAR  HN ES   1    624 50.53                             124    -0.3 6  207 295 
 ZAR  HZ I         624 56.16         2.9 0.20                           207 295 
                                                                                
