 2017  711 0617 23.4 L   5.804 -73.637120.8  RSN  4 0.1 1.4LRSN                1
 GAP=221        0.40       3.1     3.2  4.0 -0.7376E+01 -0.4448E+00 -0.1444E+01E
 Epicentro: PUENTE NACIONAL - SANTANDER                                        3
 ACTION:UPD 17-08-30 15:31 OP:rebc STATUS:               ID:20170711061723 L   I
 OLDACT:REG 17-07-11 13:05 OP:dnl  STATUS:               ID:20170711060738     3
 2017-07-11-0608-00M.COL___365                                                 6
 STAT SP IPHASW D HRMM SECON CODA AMPLIT PERI AZIMU VELO AIN AR TRES W  DIS CAZ7
 SPBC HZ EP        617 40.92                             156    0.0510 51.0 251 
 SPBC HE ES        617 54.33                             156   -0.1610 51.0 251 
 SPBC HZ I         617 59.45         4.5 0.10            157           51.0 251 
 BAR2 EZ EP        617 44.46                             138    0.0110  101  30 
 BAR2 EZ ES        618  1.00                             138    0.1410  101  30 
 BAR2 EZ I         618  2.54         7.4 0.46            143            101  30 
 NOR  HZ EP   2    617 47.90                             127    0.24 5  139 259 
 NOR  HN ES        618  6.69                             127    0.12 9  139 259 
 NOR  HZ I         618 10.21         3.2 0.26            131            139 259 
 BRR  HZ EP        617 47.88                             126   -0.23 9  144 357 
 BRR  HN ES        618  7.38                             126    0.01 9  144 357 
 BRR  HZ I         618  8.24         3.1 0.20            131            144 357 
                                                                                
