 2015  311 0449  6.6 L   6.788 -73.133143.4  RSN  6 0.4 1.9LRSN                1
 GAP=139        0.94       3.4     5.7  6.1 -0.1812E+01  0.7542E+01 -0.2780E+01E
 Epicentro: LOS SANTOS - SANTANDER                                             3
 ACTION:UPD 15-04-30 16:25 OP:nd   STATUS:               ID:20150311044906 L   I
 OLDACT:UP  15-03-11 15:13 OP:cam  STATUS:               ID:20150311044753d    3
 OLDACT:DUP 15-03-11 15:11 OP:cam  STATUS:               ID:20150311044753d    3
 OLDACT:UP  15-03-11 15:11 OP:cam  STATUS:               ID:20150311044752d    3
 OLDACT:UP  15-03-11 15:10 OP:cam  STATUS:               ID:20150311044752d    3
 OLDACT:DUP 15-03-11 15:06 OP:cam  STATUS:               ID:20150311044752d    3
 2015-03-11-0447-50M.COL___284                                                 6
 STAT SP IPHASW D HRMM SECON CODA AMPLIT PERI AZIMU VELO AIN AR TRES W  DIS CAZ7
 BAR2 EZ IP     C  449 26.03                             171    0.0810 22.3 194 
 BAR2 EZ ES        449 40.32                             171   -0.7010 22.3 194 
 BAR2 EZ I         449 41.73         8.9 0.26            168           22.3 194 
 BRR  HZ EP     C  449 27.93                             151    0.3010 73.1 299 
 BRR  HN ES        449 44.35                             151    0.3410 73.1 299 
 BRR  HN I         449 49.45        44.3 0.18            146           73.1 299 
 PAM  SZ EP        449 29.06                             150    0.4610 77.5  38 
 PAM  SN ES        449 45.94                             150    0.2010 77.5  38 
 PAM  SZ I         449 47.92         7.6 0.38            153           77.5  38 
 RUS  HZ EP        449 29.89                             144   -0.1510 99.1 177 
 RUS  HN ES        449 48.13                             144   -0.1710 99.1 177 
 RUS  HZ I         449 49.05         6.8 0.24            147           99.1 177 
 SPBC HZ EP        449 34.89                             128   -0.04 9  163 220 
 SPBC HE ES        449 57.37                             128    0.36 9  163 220 
 SPBC HZ I         450  3.66         9.4 0.40            129            163 220 
 SML  HZ EP        449 42.70                             117   -0.62 8  246 335 
 SML  HN ES        450 11.61                             117   -0.33 8  246 335 
 SML  HZ I         450 20.81         9.7 0.10            117            246 335 
                                                                                
