 2010  111 0140 53.4 L   6.779 -73.054149.2  RSN  5 0.1 1.6LRSN                1
 GAP=192        0.35       2.7    14.8  3.6 -0.5657E+01  0.5706E+01  0.3523E+00E
 Epicentro: LOS SANTOS - SANTANDER                                             3
 ACTION:UP  10-08-24 09:43 OP:vdl  STATUS:               ID:20100111014053 L   I
 2010-01-11-0135-54S.COL___097                                                 6
 STAT SP IPHASW D HRMM SECON CODA AMPLIT PERI AZIMU VELO SNR AR TRES W  DIS CAZ7
 BAR2 SZ EP   1    141 13.23                             170    -0.2 7   25 215 
 BAR2 SZ ES   1    141 29.00                             170    -0.1 7   25 215 
 GIR2 SZ EP   1    141 13.80                             166     0.2 7   37 335 
 GIR2 SZ ES   2    141 29.43                             166     0.1 5   37 335 
 RUS  BZ EP   1    141 17.23                             145     0.0 7   98 182 
 RUS  BN ES   1    141 36.03                             145     0.1 7   98 182 
 RUS  BZ I         141 37.63         4.9 0.29                            98 182 
 OCA  SZ EP   2    141 22.27                             130     0.0 5  164 350 
 OCA  SZ I         141 54.97         9.4 0.27                           164 350 
 CHI  HZ EP   1    141 31.31                             118     0.0 6  249 198 
 CHI  HE ES   2    142  0.99                             118     0.1 4  249 198 
 CHI  HZ I         142  6.60         2.1 0.73                           249 198 
                                                                                
