 2010  611 0317 56.6 L   6.774 -73.150138.0  RSN  6 0.5 1.8LRSN                1
 GAP=182        1.02       4.9     9.3 10.3 -0.6553E+01  0.3423E+02  0.2487E+01E
 Epicentro: LOS SANTOS - SANTANDER                                             3
 ACTION:UP  10-08-24 10:09 OP:vdl  STATUS:               ID:20100611031756 L   I
 2010-06-11-0300-00S.COL___114                                                 6
 STAT SP IPHASW D HRMM SECON CODA AMPLIT PERI AZIMU VELO SNR AR TRES W  DIS CAZ7
 BAR2 SZ EP        318 15.19                             171     0.010   21 191 
 BAR2 SZ ES   1    318 30.12                             171     0.4 7   21 191 
 RUS  HZ EP        318 19.35                             143     0.010   98 176 
 RUS  HZ I         318 39.04         9.8 0.35                            98 176 
 OCA  SZ EP        318 24.17                             127    -0.4 9  163 353 
 OCA  SZ ES   1    318 46.39                             127     0.0 7  163 353 
 OCA  SZ I         318 51.43        13.7 0.27                           163 353 
 CHI  HZ EP   1    318 33.51                             116     0.0 6  246 195 
 CHI  HE ES   1    319  1.61                             116    -0.7 6  246 195 
 CHI  HZ I         319  8.48         5.1 0.49                           246 195 
 HEL  HZ EP   1    318 37.28                             113     1.0 6  271 256 
 HEL  HN ES   1    319  6.64                             113    -0.6 6  271 256 
 HEL  HZ I         319 14.26         3.9 0.34                           271 256 
 RREF BZ EP   1    318 42.78                             110     0.7 5  320 230 
 RREF BZ I         318 46.39         1.8 0.17                           320 230 
                                                                                
