 2010 1111 0617 27.8 L   6.797 -73.016146.0  RSN  8 0.5 2.0LRSN                1
 GAP=173        1.25       5.6    11.3 12.2 -0.1958E+02 -0.4315E+02  0.1184E+02E
 Epicentro: CEPITA - SANTANDER                                                 3
 ACTION:UP  10-12-17 16:51 OP:REBC STATUS:               ID:20101111061727 L   I
 2010-11-11-0616-15S.COL___129                                                 6
 STAT SP IPHASW D HRMM SECON CODA AMPLIT PERI AZIMU VELO SNR AR TRES W  DIS CAZ7
 BAR2 SZ EP        617 47.44                             168    -0.210   29 219 
 BAR2 SZ ES   2    618  2.32                             168    -0.7 5   29 219 
 BAR2 SZ I         618  4.25        33.3 0.94                            29 219 
 BTL  SZ EP        617 47.69                             168     0.010   31 296 
 BRR  HZ IP     C  617 49.31                             149    -0.510   84 294 
 BRR  HN ES        618  6.89                             149     0.010   84 294 
 BRR  HZ I         618  8.05        25.2 0.11                            84 294 
 RUS  HZ EP        617 51.31                             144    -0.310  100 184 
 RUS  HZ I         617 52.51         5.4 0.22                           100 184 
 RUS  HN ES   2    618 10.85                             144     0.7 5  100 184 
 GRA  SZ EP        617 53.20                             138     0.410  123  11 
 GRA  SZ ES   1    618 13.16                             138     0.8 7  123  11 
 GRA  SZ I         618 14.49        13.0 0.44                           123  11 
 OCA  SZ EP        617 55.87                             130    -0.5 9  163 348 
 OCA  SZ ES   1    618 18.97                             130     0.3 7  163 348 
 OCA  SZ I         618 22.70        10.0 1.09                           163 348 
 ROSC BN ES   1    618 37.90                             116     0.8 6  260 214 
 ROSC BZ I         618 41.32         7.4 0.40                           260 214 
 RREF HN ES   2    618 53.64                             110     1.5 3  333 231 
 RREF HZ I         619  0.02         7.5 0.28                           333 231 
                                                                                
