 2011  811 0624 24.0 L   6.789 -73.104142.2  RSN 15 0.4 2.8LRSN                1
 GAP=129        0.77       2.9     4.2  4.7 -0.4892E+01  0.3793E+01  0.2372E+01E
 Epicentro: LOS SANTOS - SANTANDER                                             3
 ACTION:UPD 12-07-13 15:51 OP:ep   STATUS:               ID:20110811062424 L   I
 2011-08-11-0622-24S.COL___150                                                 6
 STAT SP IPHASW D HRMM SECON CODA AMPLIT PERI AZIMU VELO AIN AR TRES W  DIS CAZ7
 BAR2 SZ IP        624 43.39                             170    0.1910 23.4 202 
 BAR2 SZ ES   1    624 57.82                             170   -0.36 7 23.4 202 
 BAR2 SZ I         624 59.53       168.3 0.27                          23.4 202 
 PAM  SZ EP        624 46.31                             151    0.5810 75.6  36 
 PAM  SN ES   1    625  3.08                             151    0.40 7 75.6  36 
 PAM  SZ I         625  5.42        30.8 0.28                          75.6  36 
 BRR  HZ IP     C  624 45.21                             150    0.1710 75.8 298 
 BRR  HE ES   1    625  1.59                             150    0.14 7 75.8 298 
 BRR  HZ I         625  6.37       148.4 0.23                          75.8 298 
 RUS  HZ EP        624 47.37                             143    0.0810 99.1 179 
 RUS  HN ES   1    625  5.11                             143   -0.36 7 99.1 179 
 RUS  HZ I         625  7.91        70.0 0.24                          99.1 179 
 OCA  SZ EP   1    624 51.96                             128   -0.25 7  162 352 
 OCA  SZ ES   1    625 13.38                             128   -0.84 7  162 352 
 OCA  SZ I         625 16.99       100.6 0.16                           162 352 
 NOR  SZ EP   1    624 59.53                             117   -0.32 6  238 235 
 NOR  SE ES   1    625 27.22                             117   -0.59 6  238 235 
 CHI  HZ EP   1    625  1.57                             116    0.07 6  249 196 
 CHI  HE ES   1    625 30.56                             116   -0.20 6  249 196 
 CHI  HZ I         625 38.24        35.0 0.50                           249 196 
 ROSC BZ EP   1    625  2.05                             116   -0.02 6  254 212 
 ROSC BZ I         625 37.92        72.8 0.44                           254 212 
 VIL  SZ EP   2    625  6.32                             111   -0.90 4  303 192 
 VIL  SE ES   2    625 40.78                             111   -0.16 4  303 192 
 VIL  SZ I         625 51.26        26.6 0.61                           303 192 
 GUY  SZ EP        625  8.65                             111    0.60 7  307 236 
 GUY  SE ES   1    625 42.77                             111    0.35 5  307 236 
 GUY  SZ I         625 49.03        64.4 0.34                           307 236 
 RREF HZ EP   1    625 10.50                             110    0.21 5  324 230 
 RREF HN ES   1    625 46.20                             110   -0.20 5  324 230 
 RREF HZ I         625 55.52        33.7 0.49                           324 230 
 DBB  SZ EP   1    625 11.51                             108   -0.36 5  344 274 
 TOL  SZ EP   1    625 13.14                             108    0.76 5  346 225 
 SDV  BZ EP        625 12.95                             108   -0.64 6  358  50 
 SDV  BZ I         625 14.03        19.7 0.13                           358  50 
 PRA  HZ EP   1    625 16.77                             106   -0.76 4  393 210 
 PRA  HN ES   1    625 59.34                             106    0.05 4  393 210 
                                                                                
