 2016  211 0744 45.0 L   6.613 -73.516102.0  RSN  4 0.3 1.1LRSN                1
 GAP=150        0.61       5.7     3.9  7.4  0.5588E+01  0.1701E+02 -0.1904E+01E
 Epicentro: EL CARMEN - SANTANDER                                              3
 ACTION:UPD 16-03-04 21:25 OP:rebc STATUS:               ID:20160211074445 L   I
 OLDACT:UP  16-02-11 18:48 OP:ak   STATUS:               ID:20160211073749d    3
 OLDACT:DUP 16-02-11 18:44 OP:ak   STATUS:               ID:20160211073749d    3
 OLDACT:REG 16-02-11 13:37 OP:ak   STATUS:               ID:20160211073748     3
 2016-02-11-0737-48M.COL___313                                                 6
 STAT SP IPHASW D HRMM SECON CODA AMPLIT PERI AZIMU VELO AIN AR TRES W  DIS CAZ7
 BAR2 EZ EP   2    744 59.93                             159    0.07 5 36.9  93 
 BAR2 EZ ES        745 11.50                             159    0.0110 36.9  93 
 BAR2 EZ I         745 13.44         8.4 0.28            160           36.9  93 
 PTB  HZ EP        745  4.03                             131   -0.4010  104 266 
 PTB  HN ES        745 19.60                             131   -0.0110  104 266 
 PTB  HZ I         745 20.44         1.2 0.40            129            104 266 
 SPBC HZ EP   2    745  7.08                             126    0.77 5  123 210 
 SPBC HN ES   3    745 23.56                             126    0.61 2  123 210 
 SPBC HZ I         745 27.90         7.1 0.04            124            123 210 
 ZAR  HZ EP   2    745 11.85                             115   -0.14 4  177 303 
 ZAR  HN ES        745 33.30                             115    0.23 9  177 303 
 ZAR  HZ I         745 37.39         0.9 0.09            115            177 303 
                                                                                
