 2016  311 0828 18.0 L   6.800 -73.106147.0  RSN  4 0.1 1.1LRSN                1
 GAP=177        0.41       3.2     4.9  3.5 -0.1183E+02  0.4615E+01 -0.1079E+01E
 Epicentro: LOS SANTOS - SANTANDER                                             3
 ACTION:UPD 16-05-13 21:23 OP:cam  STATUS:               ID:20160311082818 L   I
 OLDACT:REG 16-03-11 14:05 OP:cara STATUS:               ID:20160311082747     3
 2016-03-11-0827-47M.COL___261                                                 6
 STAT SP IPHASW D HRMM SECON CODA AMPLIT PERI AZIMU VELO AIN AR TRES W  DIS CAZ7
 BAR2 EZ ES        828 53.12                             170   -0.1610 24.4 200 
 BAR2 EZ I         829  1.11         2.2 0.50            172           24.4 200 
 PAM  EZ EP        828 40.26                             152    0.0310 74.7  37 
 PAM  EE ES        828 57.62                             152    0.0810 74.7  37 
 PAM  EZ I         829  0.30         2.0 0.34            155           74.7  37 
 RUS  HZ EP        828 41.70                             144   -0.2010  100 179 
 RUS  HN ES        829  0.64                             144    0.1410  100 179 
 RUS  HZ I         829  1.36         1.7 0.24            151            100 179 
 SPBC HZ EP        828 46.98                             129    0.08 9  166 220 
 SPBC HE ES        829  9.45                             129    0.05 9  166 220 
 SPBC HZ I         829  9.69         2.2 0.52            134            166 220 
                                                                                
