 2013  111 0547 53.5 L   6.713 -73.173134.8  RSN  5 0.1 1.3LRSN                1
 GAP=227        0.38       3.7     3.5  4.1  0.5658E+01  0.7597E+01  0.1688E+01E
 Epicentro: VILLANUEVA - SANTANDER                                             3
 ACTION:UPD 13-02-15 09:13 OP:ep   STATUS:               ID:20130111054753 L   I
 2013-01-11-0540-00M.COL___242                                                 6
 STAT SP IPHASW D HRMM SECON CODA AMPLIT PERI AZIMU VELO AIN AR TRES W  DIS CAZ7
 BAR2 SZ ES        548 25.83                             174    0.0710 13.4 184 
 BAR2 SZ I         548 27.40         5.0 0.26            175           13.4 184 
 BRR  HZ EP   1    548 13.61                             150    0.01 7 73.8 306 
 BRR  HN ES        548 29.31                             150    0.0110 73.8 306 
 BRR  HN I         548 34.53         6.1 0.20            149           73.8 306 
 RUS  HE ES   2    548 32.22                             144   -0.41 5 91.2 174 
 RUS  HE I         548 35.69         2.4 0.36            147           91.2 174 
 PTB  HZ EP        548 19.23                             130    0.10 9  143 262 
 PTB  HN ES        548 39.20                             130    0.05 9  143 262 
 PTB  HN I         548 41.40         2.8 0.26            131            143 262 
 ZAR  HN ES        548 50.01                             120   -0.17 9  205 295 
 ZAR  HN I         548 56.89         2.8 0.28            121            205 295 
                                                                                
