 2010  311 0804  5.4 L   6.959 -73.160121.1  RSN  4 0.1 1.8LRSN                1
 GAP=183        0.44       3.7     6.7  5.7  0.1084E+02 -0.2206E+02 -0.1105E+02E
 Epicentro: FLORIDABLANCA - SANTANDER                                          3
 ACTION:UP  10-08-24 09:53 OP:vdl  STATUS:               ID:20100311080405 L   I
 2010-03-11-0800-21S.COL___091                                                 6
 STAT SP IPHASW D HRMM SECON CODA AMPLIT PERI AZIMU VELO SNR AR TRES W  DIS CAZ7
 BAR2 SZ EP   1    8 4 22.82                             160     0.2 7   41 184 
 BAR2 SZ ES   1    8 4 36.02                             160    -0.1 7   41 184 
 BRR  HZ EP        8 4 23.23                             151    -0.210   63 285 
 BRR  HE ES        8 4 37.64                             151     0.110   63 285 
 BRR  HZ I         8 4 38.81         9.3 0.10                            63 285 
 RUS  BZ EP   2    8 4 28.40                             133     0.1 5  118 176 
 OCA  SZ EP        8 4 30.29                             127     0.1 9  143 353 
 OCA  SZ I         8 4 30.68        14.2 0.09                           143 353 
 OCA  SZ ES   2    8 4 49.32                             127    -0.2 5  143 353 
                                                                                
