 2017  511 0557 30.8 L   6.667 -73.216144.0  RSN  4 0.3 1.1LRSN                1
 GAP=219        0.79       6.6     6.4  8.4  0.2579E+02  0.4701E+00  0.2781E+01E
 Epicentro: BARICHARA - SANTANDER                                              3
 ACTION:UPD 17-06-16 13:35 OP:jn   STATUS:               ID:20170511055730 L   I
 OLDACT:REG 17-05-11 13:20 OP:osc  STATUS:               ID:20170511054735     3
 2017-05-11-0548-00M.COL___356                                                 6
 STAT SP IPHASW D HRMM SECON CODA AMPLIT PERI AZIMU VELO AIN AR TRES W  DIS CAZ7
 BRR  HZ EP        557 51.45                             152   -0.3810 73.3 312 
 BRR  HE ES        558  8.65                             152    0.3810 73.3 312 
 RUS  HZ EP        557 53.50                             148    0.1210 86.9 170 
 RUS  HN ES   1    558 10.70                             148   -0.33 7 86.9 170 
 RUS  HZ I         558 13.75         1.0 0.19            147           86.9 170 
 PTB  HZ EP        557 57.06                             134    0.38 9  138 264 
 PTB  HN ES        558 16.91                             134   -0.00 9  138 264 
 PTB  HZ I         558 19.37         1.5 0.23            133            138 264 
 ZAR  HN ES        558 27.73                             122   -0.38 9  203 297 
 ZAR  HZ I         558 32.90         2.8 0.15            123            203 297 
                                                                                
