 2016  211 0627  2.6 L   6.746 -73.051152.7  RSN  4 0.2 1.2LRSN                1
 GAP=249        0.36       2.3     6.9 11.1  0.5313E+01 -0.5436E+02 -0.1472E+02E
 Epicentro: JORDAN - SANTANDER                                                 3
 ACTION:UPD 16-03-04 21:25 OP:rebc STATUS:               ID:20160211062702 L   I
 OLDACT:DUP 16-02-11 18:17 OP:ak   STATUS:               ID:20160211061748d    3
 OLDACT:UP  16-02-11 18:16 OP:ak   STATUS:               ID:20160211061747     3
 OLDACT:REG 16-02-11 13:26 OP:ak   STATUS:               ID:20160211061747     3
 2016-02-11-0617-47M.COL___313                                                 6
 STAT SP IPHASW D HRMM SECON CODA AMPLIT PERI AZIMU VELO AIN AR TRES W  DIS CAZ7
 PTB  HZ EP   2    627 30.64                             132   -0.32 5  157 262 
 PTB  HN ES        627 53.04                             132   -0.0510  157 262 
 PTB  HZ I         627 59.35         1.5 0.46            149            157 262 
 SPBC HZ EP   2    627 31.94                             130    0.10 5  166 223 
 SPBC HE ES        627 54.69                             130    0.0410  166 223 
 SPBC HZ I         628  2.72         1.4 0.16            145            166 223 
 ZAR  HZ EP   2    627 37.12                             122    0.41 5  216 293 
 ZAR  HN ES        628  3.32                             122   -0.01 9  216 293 
 SML  HZ EP   2    627 40.34                             118   -0.33 4  254 334 
 SML  HN ES        628 10.45                             118    0.07 8  254 334 
 SML  HZ I         628 13.83         1.6 0.10            130            254 334 
                                                                                
