 2013  311 0536 29.0 L   6.695 -73.170141.7  RSN  4 0.3 1.3LRSN                1
 GAP=227        0.57       5.6     5.3  7.7  0.1796E+02 -0.1466E+01 -0.4961E+01E
 Epicentro: VILLANUEVA - SANTANDER                                             3
 ACTION:UPD 13-04-09 14:01 OP:ep   STATUS:               ID:20130311053629 L   I
 2013-03-11-0530-00M.COL___231                                                 6
 STAT SP IPHASW D HRMM SECON CODA AMPLIT PERI AZIMU VELO AIN AR TRES W  DIS CAZ7
 BRR  HZ EP   1    536 50.32                             150    0.39 8 75.3 307 
 BRR  HN ES   1    537  6.02                             150   -0.25 8 75.3 307 
 BRR  HN I         537  9.86         5.4 0.18            151           75.3 307 
 RUS  HZ EP   1    536 51.59                             146    0.06 8 89.3 174 
 RUS  HN ES   1    537  9.11                             146   -0.02 8 89.3 174 
 RUS  HN I         537 11.97         1.9 0.20            149           89.3 174 
 PTB  HZ EP   1    536 54.70                             132   -0.51 7  143 263 
 PTB  HN ES        537 15.83                             132    0.1610  143 263 
 PTB  HN I         537 21.61         3.2 0.28            134            143 263 
 ZAR  HN ES   1    537 26.72                             121    0.04 7  206 295 
 ZAR  HN I         537 29.41         2.9 0.14            124            206 295 
                                                                                
