 2012  311 0325 16.8 L   6.643 -73.711 99.0  RSN  5 0.3 1.0LRSN                1
 GAP=122        0.78       5.5     4.4  9.3  0.1066E+02  0.1350E+02  0.1593E+02E
 ACTION:UP  12-03-31 23:18 OP:EP   STATUS:               ID:20120311032516 L   I
 2012-03-11-0320-00M.COL___193                                                 6
 STAT SP IPHASW D HRMM SECON CODA AMPLIT PERI AZIMU VELO SNR AR TRES W  DIS CAZ7
 BRR  HZ EP        325 31.75                             151     0.010   51 360 
 BRR  HZ I         325 32.00         5.2 0.19                            51 360 
 BRR  HE ES   1    325 43.87                             151     0.4 7   51 360 
 BAR2 SZ ES   1    325 44.26                             147    -0.6 7   59  95 
 PTB  HZ EP        325 33.94                             137    -0.210   83 262 
 PTB  HE ES   1    325 47.64                             137     0.0 7   83 262 
 PTB  HZ I         325 50.88         1.4 0.17                            83 262 
 RUS  HZ EP   1    325 37.18                             129     0.2 7  108 140 
 RUS  HE ES   1    325 53.13                             129     0.3 7  108 140 
 RUS  HZ I         325 54.84         1.7 0.22                           108 140 
 ZAR  HN ES   2    326  0.71                             118     0.0 5  158 307 
 ZAR  HZ I         326  5.95         1.6 0.78                           158 307 
                                                                                
