 2013  511 0233  8.4 L   6.852 -73.172147.8  RSN 10 0.4 2.0LRSN                1
 GAP=131        0.98       3.2     5.5  7.1 -0.2764E+01  0.1001E+02  0.3663E+01E
 Epicentro: ZAPATOCA - SANTANDER                                               3
 ACTION:UPD 13-06-20 09:49 OP:ep   STATUS:               ID:20130511023308 L   I
 2013-05-11-0230-00M.COL___256                                                 6
 STAT SP IPHASW D HRMM SECON CODA AMPLIT PERI AZIMU VELO AIN AR TRES W  DIS CAZ7
 BAR2 SZ EP        233 28.37                             168   -0.0710 28.8 182 
 BAR2 SZ ES   1    233 43.54                             168   -0.49 7 28.8 182 
 BAR2 SZ I         233 45.73        58.4 0.94            169           28.8 182 
 BRR  HZ EP        233 30.11                             155    0.5810 66.0 295 
 BRR  HN ES   1    233 46.94                             155    0.96 7 66.0 295 
 BRR  HZ I         233 47.50        29.5 0.32            151           66.0 295 
 PAM  SZ IP     C  233 31.18                             152    0.4510 75.0  44 
 PAM  SN ES   1    233 48.25                             152    0.12 7 75.0  44 
 PAM  SZ I         233 50.51         9.2 0.40            155           75.0  44 
 RUS  HZ EP        233 32.38                             143   -0.4510  107 175 
 RUS  HE ES   1    233 51.55                             143   -0.30 7  107 175 
 RUS  HZ I         233 52.86         7.9 0.36            145            107 175 
 PTB  HZ EP        233 34.86                             133   -0.57 9  146 256 
 PTB  HN ES   1    233 56.16                             133   -0.33 7  146 256 
 PTB  HZ I         234  3.02         9.6 0.52            132            146 256 
 OCA  HN ES        233 57.59                             131   -0.53 9  154 354 
 NOR  HZ EP   1    233 44.28                             119   -0.12 6  236 233 
 NOR  HN ES   1    234 12.30                             119   -0.16 6  236 233 
 NOR  HZ I         234 14.19         5.4 0.16            119            236 233 
 SML  HZ EP   1    233 44.40                             119   -0.09 6  237 335 
 SML  HN ES   1    234 12.80                             119    0.19 6  237 335 
 SML  HZ I         234 20.73        10.6 0.10            119            237 335 
 CHI  HN ES        234 17.23                             117    0.55 8  253 194 
 PRA  HZ EP   1    234  2.84                             107    0.39 4  396 209 
 PRA  HN ES        234 44.84                             107    0.25 6  396 209 
 PRA  HZ I         234 51.84         3.5 0.42            108            396 209 
                                                                                
