 2017  511 0854 20.5 L   6.674 -73.069153.8  RSN  4 0.4 1.0LRSN                1
 GAP=152        1.02       6.3     6.0  9.6 -0.9116E+01  0.1176E+02 -0.5905E+01E
 Epicentro: ARATOCA - SANTANDER                                                3
 ACTION:UPD 17-06-16 13:35 OP:jn   STATUS:               ID:20170511085420 L   I
 OLDACT:DUP 17-05-11 15:42 OP:edw  STATUS:               ID:20170511084741d    3
 OLDACT:REG 17-05-11 13:42 OP:osc  STATUS:               ID:20170511084740     3
 2017-05-11-0848-00M.COL___353                                                 6
 STAT SP IPHASW D HRMM SECON CODA AMPLIT PERI AZIMU VELO AIN AR TRES W  DIS CAZ7
 PAM  EZ EP        854 43.91                             150   -0.0310 84.1  29 
 PAM  EN ES        855  1.98                             150   -0.2710 84.1  29 
 PAM  EZ I         855  3.92         1.9 0.74            152           84.1  29 
 BRR  HZ EP        854 44.11                             149    0.7810 85.6 304 
 BRR  HN ES        855  1.20                             149    0.0410 85.6 304 
 RUS  HZ EP   4    854 40.78                             149   -3.31 0 86.4 181 
 RUS  HN ES        855  2.58                             149    0.0710 86.4 181 
 RUS  HZ I         855  5.75         2.3 0.30            149           86.4 181 
 PTB  HZ EP        854 48.03                             132   -0.64 9  154 265 
 PTB  HN ES        855 10.59                             132   -0.07 9  154 265 
 PTB  HZ I         855 11.37         0.9 0.36            135            154 265 
                                                                                
