 2017  211 0910 45.3 L   6.741 -73.212147.9  RSN  4 0.3 1.1LRSN                1
 GAP=222        0.68       6.6     5.0  6.5  0.1232E+02  0.3793E+01 -0.1213E+02E
 Epicentro: VILLANUEVA - SANTANDER                                             3
 ACTION:UPD 17-05-24 15:35 OP:jn   STATUS:               ID:20170211091045 L   I
 OLDACT:REG 17-02-11 13:04 OP:and  STATUS:               ID:20170211090741     3
 2017-02-11-0908-00M.COL___334                                                 6
 STAT SP IPHASW D HRMM SECON CODA AMPLIT PERI AZIMU VELO AIN AR TRES W  DIS CAZ7
 BAR2 EZ IP     C  911  4.78                             173   -0.2910 16.7 169 
 BAR2 EZ ES        911 20.38                             173   -0.1210 16.7 169 
 BAR2 EZ I         911 21.47         2.7 0.28            172           16.7 169 
 BRR  HZ EP        911  6.91                             154    0.3810 68.5 306 
 RUS  HZ EP        911  9.06                             146    0.2010 94.9 171 
 RUS  HN ES        911 27.30                             146    0.0610 94.9 171 
 RUS  HZ I         911 28.25         2.5 0.34            146           94.9 171 
 PTB  HZ EP        911 11.32                             134   -0.37 9  139 261 
 PTB  HN ES        911 32.39                             134    0.10 9  139 261 
 PTB  HZ I         911 34.92         1.3 0.23            134            139 261 
                                                                                
