 2015 1211 0612 48.1 L   6.802 -73.161149.1  RSN 10 0.4 1.8LRSN                1
 GAP=134        0.77       3.6     4.0  5.2 -0.3889E+01  0.3627E+01  0.1900E+01E
 Epicentro: LOS SANTOS - SANTANDER                                             3
 ACTION:UPD 16-02-04 15:04 OP:cam  STATUS:               ID:20151211061248 L   I
 OLDACT:REG 15-12-11 11:46 OP:ar   STATUS:               ID:20151211060748     3
 2015-12-11-0607-48M.COL___328                                                 6
 STAT SP IPHASW D HRMM SECON CODA AMPLIT PERI AZIMU VELO AIN AR TRES W  DIS CAZ7
 BAR2 EZ EP        613  8.13                             171   -0.0310 23.3 186 
 BAR2 EZ ES        613 23.87                             171    0.0910 23.3 186 
 BAR2 EZ I         613 24.71        16.3 0.30            171           23.3 186 
 BRR  HZ EP        613  9.89                             154    0.3410 69.6 299 
 BRR  HN ES        613 26.91                             154    0.6510 69.6 299 
 BRR  HZ I         613 30.86         9.0 0.44            150           69.6 299 
 PAM  EZ EP        613 11.04                             151    0.2810 78.4  41 
 PAM  EN ES        613 28.00                             151   -0.4110 78.4  41 
 PAM  EZ I         613 30.19         9.0 0.58            153           78.4  41 
 RUS  HZ EP   2    613 12.00                             144   -0.23 5  101 175 
 RUS  HN ES   2    613 30.52                             144   -0.51 5  101 175 
 RUS  HZ I         613 32.14         4.3 0.18            147            101 175 
 PTB  HZ EP        613 14.80                             133   -0.42 9  146 259 
 PTB  HN ES        613 35.84                             133   -0.51 9  146 259 
 OCA  HZ EP   2    613 16.45                             130   -0.21 5  160 354 
 OCA  HE ES   2    613 38.80                             130   -0.12 5  160 354 
 OCA  HZ I         613 46.49        10.0 0.46            130            160 354 
 SPBC HZ EP   2    613 17.22                             130    0.42 5  162 218 
 SPBC HN ES   2    613 38.97                             130   -0.19 5  162 218 
 SPBC HZ I         613 43.53         7.0 0.64            130            162 218 
 ZAR  HZ EP   4    613 23.15                             123    2.53 0  202 292 
 ZAR  HE ES   2    613 45.98                             123    0.01 4  202 292 
 ZAR  HZ I         613 52.73         6.0 0.36            122            202 292 
 SML  HZ EP   2    613 24.60                             118   -0.25 4  243 336 
 SML  HE ES   2    613 53.07                             118   -0.42 4  243 336 
 SML  HZ I         613 55.24         8.1 0.28            118            243 336 
 PRA  HZ EP   2    613 42.54                             107    0.86 3  391 209 
 PRA  HN ES        614 23.85                             107    0.39 6  391 209 
 PRA  HZ I         614 29.94         3.1 0.70            108            391 209 
                                                                                
