 2016  711 0656 16.2 L   6.810 -73.169143.7  RSN  6 0.3 1.6LRSN                1
 GAP=242        0.65       4.9     4.2  7.7  0.1059E+02 -0.4879E+01 -0.1819E+02E
 Epicentro: LOS SANTOS - SANTANDER                                             3
 ACTION:UPD 17-03-29 16:49 OP:lp   STATUS:               ID:20160711065616 L   I
 OLDACT:REG 16-07-11 12:49 OP:lv   STATUS:               ID:20160711064744     3
 2016-07-11-0647-44M.COL___327                                                 6
 STAT SP IPHASW D HRMM SECON CODA AMPLIT PERI AZIMU VELO AIN AR TRES W  DIS CAZ7
 BAR2 EZ EP        656 35.56                             170   -0.0310 24.1 183 
 BAR2 EZ ES   3    656 50.38                             170   -0.34 2 24.1 183 
 BAR2 EZ I         656 52.57         7.3 0.24            172           24.1 183 
 RUS  HZ EP        656 39.95                             143    0.1110  102 175 
 RUS  HE ES        656 58.33                             143    0.0510  102 175 
 RUS  HZ I         656 59.75         4.0 0.26            148            102 175 
 PTB  HZ EP        656 42.24                             132   -0.54 9  145 258 
 PTB  HN ES        657  3.24                             132   -0.28 9  145 258 
 PTB  HZ I         657  5.71         6.6 0.40            134            145 258 
 SPBC HZ EP        656 44.64                             129    0.18 9  162 218 
 SPBC HN ES        657  6.61                             129    0.10 9  162 218 
 SPBC HZ I         657  8.80         4.0 0.16            132            162 218 
 ZAR  HZ EP        656 48.27                             122    0.05 9  201 292 
 ZAR  HE ES        657 13.65                             122    0.46 9  201 292 
 ZAR  HZ I         657 19.46        10.3 0.34            124            201 292 
 SJC  HZ EP   4    657  9.71                             105   -1.71 0  407 327 
 SJC  HN ES   4    657 50.24                             105   -4.25 0  407 327 
 SJC  HZ I         657 55.41         0.7 0.30            108            407 327 
                                                                                
