 2013  411 0428 44.9 L   6.764 -73.174149.3  RSN  7 0.3 1.6LRSN                1
 GAP=136        0.80       3.7     4.6  6.1  0.2141E+00 -0.3096E+01 -0.5135E+01E
 Epicentro: LOS SANTOS - SANTANDER                                             3
 ACTION:UPD 13-05-22 14:37 OP:EP   STATUS:               ID:20130411042844 L   I
 2013-04-11-0418-37M.COL___211                                                 6
 STAT SP IPHASW D HRMM SECON CODA AMPLIT PERI AZIMU VELO AIN AR TRES W  DIS CAZ7
 BAR2 SZ EP   1    429  4.88                             172    0.05 7 19.1 183 
 BAR2 SZ ES        429 20.14                             172   -0.2710 19.1 183 
 BAR2 SZ I         429 21.26         6.7 0.60            172           19.1 183 
 GIR2 SZ EP   1    429  4.23                             166   -0.81 7 34.8 356 
 BRR  HZ EP        429  6.69                             153    0.3510 70.5 303 
 BRR  HN ES        429 23.41                             153    0.3010 70.5 303 
 BRR  HN I         429 24.01        19.6 0.30            154           70.5 303 
 RUS  HZ EP   1    429  9.04                             146    0.35 7 96.9 174 
 RUS  HN ES        429 27.48                             146    0.1910 96.9 174 
 RUS  HN I         429 29.41         1.8 0.56            146           96.9 174 
 PTB  HZ EP     D  429 11.79                             134    0.02 9  144 260 
 PTB  HZ I         429 12.35         2.7 0.58            135            144 260 
 PTB  HN ES        429 32.39                             134   -0.38 9  144 260 
 CAPV BZ EP        429 12.80                             132   -0.19 9  154  38 
 OCA  HN ES        429 36.48                             130    0.15 9  164 354 
 OCA  HN I         429 37.66        10.0 0.18            131            164 354 
                                                                                
