 2013  211 0737 55.5 L   6.783 -73.153145.1  RSN  5 0.4 1.2LRSN                1
 GAP=136        0.66       4.8     4.7  6.6 -0.5256E+01  0.4931E+01 -0.3176E+01E
 Epicentro: LOS SANTOS - SANTANDER                                             3
 ACTION:UPD 13-03-12 09:32 OP:ep   STATUS:               ID:20130211073755 L   I
 2013-02-11-0730-00M.COL___240                                                 6
 STAT SP IPHASW D HRMM SECON CODA AMPLIT PERI AZIMU VELO AIN AR TRES W  DIS CAZ7
 BAR2 SZ EP   1    738 14.94                             171   -0.08 7 21.3 189 
 BAR2 SZ ES   1    738 30.12                             171   -0.12 7 21.3 189 
 BAR2 SZ I         738 30.75         7.3 0.46            173           21.3 189 
 BRR  HZ EP   1    738 17.00                             152    0.40 7 71.4 300 
 BRR  HN ES   2    738 34.01                             152    0.96 5 71.4 300 
 BRR  HZ I         738 36.99         3.2 0.30            152           71.4 300 
 PAM  SZ EP        738 17.72                             150   -0.0510 79.3  39 
 PAM  SN ES   1    738 34.80                             150   -0.34 7 79.3  39 
 PAM  SZ I         738 36.90         3.1 0.54            152           79.3  39 
 RUS  HZ EP   1    738 19.26                             144    0.20 7 98.8 176 
 RUS  HN ES   1    738 37.61                             144    0.17 7 98.8 176 
 RUS  HZ I         738 38.60         1.4 0.34            148           98.8 176 
 PTB  HZ EP   1    738 22.15                             132   -0.17 7  147 259 
 PTB  HE ES   1    738 42.75                             132   -0.48 7  147 259 
                                                                                
