 2015  911 0339 27.5 L   6.810 -73.116144.6  RSN  8 0.4 1.6LRSN                1
 GAP=186        0.98       3.4     5.4  6.3 -0.6023E-03  0.8163E+01  0.8262E-01E
 Epicentro: LOS SANTOS - SANTANDER                                             3
 ACTION:UPD 15-10-28 16:25 OP:cam  STATUS:               ID:20150911033927 L   I
 OLDACT:DUP 15-09-11 15:23 OP:drio STATUS:               ID:20150911033749d    3
 2015-09-11-0337-48M.COL___350                                                 6
 STAT SP IPHASW D HRMM SECON CODA AMPLIT PERI AZIMU VELO AIN AR TRES W  DIS CAZ7
 BAR2 EZ EP        339 47.23                             170    0.2310 25.2 197 
 BAR2 EZ ES        340  1.80                             170   -0.4310 25.2 197 
 BAR2 EZ I         340  3.01        12.2 0.20            168           25.2 197 
 BRR  HZ EP        339 49.28                             151    0.6510 73.6 296 
 BRR  HN ES        340  5.81                             151    0.6710 73.6 296 
 BRR  HZ I         340  7.04         7.0 0.32            151           73.6 296 
 RUS  HZ EP        339 51.05                             143   -0.1310  102 178 
 RUS  HE ES        340  9.81                             143    0.1410  102 178 
 RUS  HZ I         340 11.40         2.9 0.32            144            102 178 
 PTB  HZ EP        339 54.13                             131   -0.53 9  151 259 
 PTB  HN ES   4    340 14.04                             131   -1.83 0  151 259 
 PTB  HZ I         340 17.70         6.8 0.14            131            151 259 
 OCA  HZ EP        339 55.47                             129   -0.15 9  160 352 
 OCA  HE ES        340 17.18                             129   -0.40 9  160 352 
 OCA  HZ I         340 21.85        12.0 0.36            131            160 352 
 SPBC HZ EP        339 56.18                             128    0.01 9  166 220 
 SPBC HN ES        340 18.22                             128   -0.33 9  166 220 
 SPBC HZ I         340 28.45         3.8 0.48            129            166 220 
 ZAR  HE ES        340 25.32                             122   -0.26 8  207 291 
 GUY2CHZ EP        340 11.90                             112    0.49 7  305 235 
 GUY2CHN ES        340 45.65                             112   -0.03 7  305 235 
 GUY2CHZ I         340 52.60         1.8 0.30                           305 235 
                                                                                
