 2012  411 0836 39.3 L   6.788 -73.334120.7  RSN  4 0.3 1.6LRSN                1
 GAP=192        0.87       7.1     6.5  7.3  0.2533E+02  0.1330E+02  0.1494E+02E
 Epicentro: ZAPATOCA - SANTANDER                                               3
 ACTION:UPD 12-07-05 11:52 OP:tino STATUS:               ID:20120411083639 L   I
 2012-04-11-0830-00M.COL___176                                                 6
 STAT SP IPHASW D HRMM SECON CODA AMPLIT PERI AZIMU VELO AIN AR TRES W  DIS CAZ7
 BAR2 SZ EP        836 56.29                             166     0.310   27 142 
 BAR2 SZ ES        837  8.68                             166    -0.410   27 142 
 BAR2 SZ I         837 10.58        14.3 0.31                            27 142 
 BRR  HZ EP        836 56.91                             154     0.110   55 310 
 BRR  HN ES        837 10.58                             154     0.110   55 310 
 BRR  HZ I         837 11.62         7.7 0.14                            55 310 
 RUS  HZ EP        837  1.01                             137     0.210  103 164 
 RUS  HN ES   1    837 17.82                             137     0.1 7  103 164 
 PTB  HZ EP        837  1.76                             130    -0.610  127 258 
 PTB  HN ES   1    837 20.66                             130     0.3 7  127 258 
                                                                                
