 2016  811 0810 40.4 L   6.759 -73.140146.6  RSN  6 0.4 1.4LRSN                1
 GAP=235        1.09       6.2     7.5  9.1  0.2272E+02 -0.2236E+01 -0.7258E+01E
 Epicentro: LOS SANTOS - SANTANDER                                             3
 ACTION:UPD 16-10-29 15:34 OP:rebc STATUS:               ID:20160811081040 L   I
 OLDACT:UP  16-08-11 14:13 OP:dani STATUS:               ID:20160811080245d    3
 OLDACT:UP  16-08-11 14:11 OP:dani STATUS:               ID:20160811080245d    3
 OLDACT:DUP 16-08-11 14:07 OP:dani STATUS:               ID:20160811080245d    3
 2016-08-11-0808-00M.COL___368                                                 6
 STAT SP IPHASW D HRMM SECON CODA AMPLIT PERI AZIMU VELO AIN AR TRES W  DIS CAZ7
 BRR  HZ EP        811  1.96                             152    0.1510 74.0 301 
 BRR  HN ES        811 18.72                             152    0.2210 74.0 301 
 BRR  HZ I         811 22.94         4.1 0.11                          74.0 301 
 RUS  HZ EP        811  3.44                             145   -0.4710 96.0 176 
 RUS  HE ES        811 22.18                             145   -0.0710 96.0 176 
 RUS  HZ I         811 24.24         2.4 0.36                          96.0 176 
 PTB  HZ EP        811  7.98                             132    0.55 9  148 261 
 PTB  HN ES        811 28.95                             132    0.45 9  148 261 
 PTB  HZ I         811 30.96         3.1 0.21                           148 261 
 SPBC HZ EP        811  9.15                             130    0.47 9  160 220 
 SPBC HE ES        811 30.32                             130   -0.41 9  160 220 
 SPBC HZ I         811 34.36         2.8 0.11                           160 220 
 ZAR  HZ EP        811 12.97                             122   -0.18 8  206 293 
 ZAR  HE ES        811 37.80                             122   -0.89 8  206 293 
 ZAR  HZ I         811 44.81         2.2 0.30                           206 293 
 URE  HZ EP   4    811 18.82                             113   -2.96 0  286 293 
 URE  HZ I         811 53.34         2.8 0.14                           286 293 
                                                                                
