 2014  811 0830 59.7 L   6.835 -73.143144.6  RSN 16 0.5 2.2LRSN                1
 GAP=135        1.08       3.0     4.0  5.2 -0.6845E+00  0.6124E+01  0.2475E+01E
 Epicentro: LOS SANTOS - SANTANDER                                             3
 ACTION:UPD 14-09-15 21:48 OP:nd   STATUS:               ID:20140811083059 L   I
 OLDACT:UP  14-08-11 17:28 OP:cam  STATUS:               ID:20140811083000     3
 OLDACT:REG 14-08-11 14:02 OP:cam  STATUS:               ID:20140811083000     3
 2014-08-11-0830-00M.COL___285                                                 6
 STAT SP IPHASW D HRMM SECON CODA AMPLIT PERI AZIMU VELO AIN AR TRES W  DIS CAZ7
 BAR2 SZ EP        831 19.25                             169   -0.0710 27.2 189 
 BAR2 SZ ES        831 34.74                             169    0.1610 27.2 189 
 BAR2 SZ I         831 35.95        40.6 0.18            168           27.2 189 
 BRR  HZ EP     C  831 20.93                             153    0.2410 69.8 296 
 BRR  HN ES        831 37.82                             153    0.8010 69.8 296 
 BRR  HZ I         831 41.70        21.3 0.14            150           69.8 296 
 PAM  SZ EP        831 21.82                             152    0.1710 74.2  41 
 PAM  SN ES        831 38.57                             152   -0.1710 74.2  41 
 PAM  SZ I         831 41.05        19.1 0.44            156           74.2  41 
 RUS  HZ EP        831 23.27                             142   -0.3910  104 176 
 RUS  HE ES        831 41.96                             142   -0.3510  104 176 
 RUS  HZ I         831 43.33        12.8 0.30            145            104 176 
 PTB  HZ EP        831 26.12                             131   -0.60 9  149 257 
 PTB  HN ES        831 47.25                             131   -0.51 9  149 257 
 PTB  HZ I         831 54.75        15.8 0.20            131            149 257 
 SPBC HZ EP        831 28.22                             128   -0.24 9  166 218 
 SPBC HN ES        831 50.72                             128   -0.14 9  166 218 
 SPBC HZ I         831 53.12        20.3 0.22            129            166 218 
 ZAR  HZ EP        831 32.09                             122    0.09 9  203 291 
 ZAR  HN ES        831 57.58                             122    0.42 9  203 291 
 ZAR  HZ I         832  2.62        16.7 0.36            122            203 291 
 CTAB SZ EP        831 37.26                             119    1.46 8  233 210 
 NOR  HZ EP        831 36.00                             118    0.32 8  237 234 
 NOR  HN ES        832  3.21                             118   -0.49 8  237 234 
 NOR  HZ I         832  6.82        11.8 0.16            119            237 234 
 SML  HZ EP        831 35.59                             118   -0.35 8  240 335 
 SML  HN ES        832  3.59                             118   -0.59 8  240 335 
 SML  HZ I         832 10.98        18.8 0.10            119            240 335 
 CHI  HZ EP        831 38.04                             116    0.25 8  252 195 
 CHI  HN ES        832  7.69                             116    0.22 8  252 195 
 CHI  HZ I         832 13.85         4.5 0.36            118            252 195 
 HEL  HZ EP        831 40.51                             114    0.47 8  273 255 
 HEL  HN ES        832 11.20                             114   -0.27 8  273 255 
 HEL  HZ I         832 18.94         8.0 0.50            115            273 255 
 GUY2CHZ EP   4    831 44.99                             112    1.41 0  304 234 
 GUY2CHN ES   4    832 19.62                             112    1.85 0  304 234 
 GUY2CHZ I         832 26.00         5.4 0.34                           304 234 
 CBOC HZ EP   4    831 48.12                             110    1.33 0  335 251 
 ARGC HZ EP   4    831 49.88                             108    0.93 0  356 340 
 PRA  HZ EP        831 53.13                             106   -0.50 6  396 209 
 PRA  HN ES        832 35.27                             106   -0.40 6  396 209 
 PRA  HZ I         832 42.05         7.7 0.28            107            396 209 
 ORTC HZ EP        831 53.99                             106   -0.02 6  399 216 
 ORTC HN ES        832 36.79                             106    0.45 6  399 216 
 ORTC HZ I         832 43.51         5.9 0.64            107            399 216 
 SJC  HZ EP   4    831 50.15                             106   -4.76 0  406 327 
 SJC  HN ES   4    832 34.27                             106   -3.67 0  406 327 
 SJC  HZ I         832 38.55         4.2 0.50            107            406 327 
                                                                                
