 2010 1011 0730 18.1 L   5.773 -73.998106.0  RSN  9 0.4 2.1LRSN                1
 GAP=122        0.86       3.4     4.5  9.5 -0.8071E+01 -0.3785E+01 -0.2327E+01E
 Epicentro: FLORIAN - SANTANDER                                                3
 ACTION:UP  11-02-18 11:09 OP:tino STATUS:               ID:20101011073018 L   I
 2010-10-11-0726-13S.COL___121                                                 6
 STAT SP IPHASW D HRMM SECON CODA AMPLIT PERI AZIMU VELO SNR AR TRES W  DIS CAZ7
 NOR  SZ IP        730 37.27                             133    -0.210  100 257 
 NOR  SE ES   1    730 52.25                             133    -0.4 7  100 257 
 ROSC BZ EP   1    730 39.66                             131     0.8 7  109 199 
 ROSC BE ES   1    730 55.17                             131     0.2 7  109 199 
 ROSC BZ I         730 58.59        14.4 0.37                           109 199 
 BAR2 SZ IP        730 40.46                             125     0.110  128  45 
 BAR2 SZ ES   1    730 58.23                             125     0.4 7  128  45 
 BAR2 SZ I         731  0.03        22.9 0.33                           128  45 
 CHI  HZ EP   2    730 40.31                             125    -0.5 5  130 167 
 CHI  HE ES   2    730 57.67                             125    -0.9 5  130 167 
 CHI  HZ I         730 59.60        10.3 0.32                           130 167 
 BRR  HZ EP        730 42.33                             120    -0.1 9  151  12 
 BRR  HZ I         730 43.42        48.9 0.12                           151  12 
 BRR  HE ES   1    731  1.30                             120    -0.2 7  151  12 
 HEL  HZ EP   2    730 45.37                             116    -0.2 4  176 285 
 HEL  HN ES   2    731  7.27                             116     0.2 4  176 285 
 HEL  HZ I         731 11.30        10.7 0.28                           176 285 
 RREF HZ EP   2    730 46.32                             116     0.1 4  178 237 
 RREF HE ES   2    731  8.70                             116     0.6 4  178 237 
 RREF HZ I         731 14.50         7.8 0.27                           178 237 
 PRA  HZ EP   1    730 52.96                             107    -0.4 6  248 203 
 PRA  HN ES   1    731 21.05                             107     0.1 6  248 203 
 PRA  HZ I         731 29.12        19.9 0.35                           248 203 
 OCA  SZ EP   1    730 58.06                             104     0.4 6  283  15 
 OCA  SZ I         731 33.99         8.3 0.29                           283  15 
                                                                                
