 2012  311 0932 17.6 L   6.754 -73.112148.8  RSN  5 0.4 1.7LRSN                1
 GAP=143        0.87       7.6     7.2  8.9  0.1128E+02 -0.5257E+01 -0.1551E+02E
 ACTION:UP  12-03-31 23:18 OP:EP   STATUS:               ID:20120311093217 L   I
 2012-03-11-0930-00M.COL___193                                                 6
 STAT SP IPHASW D HRMM SECON CODA AMPLIT PERI AZIMU VELO SNR AR TRES W  DIS CAZ7
 BAR2 SZ EP   1    932 37.39                             172    -0.1 7   20 203 
 BAR2 SZ ES   1    932 52.70                             172    -0.3 7   20 203 
 BAR2 SZ I         932 54.31        11.3 0.19                            20 203 
 BRR  HZ EP        932 39.81                             151     0.410   77 301 
 BRR  HN ES        932 56.60                             151     0.210   77 301 
 BRR  HZ I         932 57.66         9.1 0.11                            77 301 
 PAM  SZ EP   1    932 39.74                             151    -0.5 7   79  35 
 RUS  HE ES   1    933  0.07                             146     0.3 7   95 178 
 PTB  HZ EP   1    932 45.01                             132     0.0 7  151 261 
 PTB  HE ES   1    933  5.87                             132    -0.6 7  151 261 
                                                                                
