 2016  611 0817 18.9 L   6.202 -73.760 98.0  RSN  9 0.4 1.4LRSN                1
 GAP= 67        1.07       4.9     5.3  8.6 -0.5731E+01  0.4481E+01 -0.9547E+01E
 Epicentro: LANDAZURI - SANTANDER                                              3
 ACTION:UPD 16-07-21 22:17 OP:rebc STATUS:               ID:20160611081718 L   I
 OLDACT:UP  16-06-11 19:28 OP:dani STATUS:               ID:20160611080746d    3
 OLDACT:UP  16-06-11 19:23 OP:dani STATUS:               ID:20160611080746d    3
 OLDACT:DUP 16-06-11 19:18 OP:dani STATUS:               ID:20160611080746d    3
 2016-06-11-0807-45M.COL___331                                                 6
 STAT SP IPHASW D HRMM SECON CODA AMPLIT PERI AZIMU VELO AIN AR TRES W  DIS CAZ7
 SPBC HZ EP        817 34.52                             142   -0.6710 69.9 210 
 SPBC HE ES        817 47.85                             142   -0.0510 69.9 210 
 SPBC HZ I         817 49.13        11.8 0.22                          69.9 210 
 BAR2 EZ EP     D  817 36.09                             139    0.1310 77.1  56 
 BAR2 EZ I         817 51.28         8.4 0.48                          77.1  56 
 RUS  HZ EP        817 36.23                             138   -0.5110 82.4 115 
 RUS  HE ES        817 51.14                             138    0.4910 82.4 115 
 RUS  HZ I         817 51.61         2.3 0.19                          82.4 115 
 PTB  HZ EP   9    817 35.04                             136   -1.32 0 85.6 296 
 PTB  HN ES        817 48.79                             136    0.1410 85.6 296 
 PTB  HZ I         817 49.20         8.7 0.10                          85.6 296 
 BRR  HZ EP     D  817 37.64                             131   -0.0110  100   3 
 BRR  HN ES   4    817 53.43                             131    1.16 0  100   3 
 BRR  HZ I         817 54.29         4.1 0.23                           100   3 
 NOR  HE ES   4    818  1.92                             121    2.11 0  142 240 
 NOR  HZ I         818  2.36        10.4 0.18                           142 240 
 CHI  HZ EP   4    817 44.47                             116   -1.39 0  174 179 
 CHI  HE ES        818  6.97                             116    0.08 9  174 179 
 CHI  HZ I         818  8.39         2.3 0.19                           174 179 
 HEL  HN ES   4    818 10.05                             113   -1.13 0  196 270 
 GUY2CHZ EP        817 50.61                             111    0.79 8  208 239 
 GUY2CHN ES   4    818 15.26                             111    1.33 0  208 239 
 GUY2CHZ I         818 20.29         1.7 0.78                           208 239 
 OCA  HN ES   4    818 18.74                             109    0.91 0  230  12 
 OCA  HZ I         818 21.97         5.6 0.46                           230  12 
 ORTC HN ES   4    818 35.28                             104    2.51 0  302 213 
                                                                                
