 2014  211 0234 14.4 L   6.743 -73.223143.6  RSN  5 0.4 1.3LRSN                1
 GAP=218        0.97       5.7     7.2  7.2  0.1871E+02  0.1329E+02  0.1474E+02E
 Epicentro: VILLANUEVA - SANTANDER                                             3
 ACTION:UPD 14-03-10 08:09 OP:ep   STATUS:               ID:20140211023414 L   I
 OLDACT:REG 14-02-11 07:35 OP:carl STATUS:               ID:20140211023000     3
 2014-02-11-0230-00M.COL___167                                                 6
 STAT SP IPHASW D HRMM SECON CODA AMPLIT PERI AZIMU VELO AIN AR TRES W  DIS CAZ7
 BAR2 SZ ES        234 48.26                             173   -0.4810 17.3 165 
 BAR2 SZ I         234 49.74        11.2 0.32            168           17.3 165 
 BRR  HZ EP        234 34.89                             153   -0.2610 67.4 307 
 BRR  HN ES        234 52.07                             153    0.7710 67.4 307 
 BRR  HZ I         234 52.59         3.5 0.28            154           67.4 307 
 RUS  HZ EP        234 37.65                             145    0.0410 95.3 171 
 RUS  HN ES        234 55.75                             145    0.0710 95.3 171 
 RUS  HZ I         234 57.27         2.4 0.26            143           95.3 171 
 PTB  HZ EP        234 40.08                             134   -0.30 9  138 261 
 PTB  HN ES        235  0.33                             134   -0.28 9  138 261 
 CHI  HZ EP        234 51.54                             118    0.40 8  240 194 
 CHI  HN ES        235 19.93                             118    0.18 8  240 194 
 CHI  HZ I         235 26.95         1.0 0.36            117            240 194 
                                                                                
