 2013  211 0526  1.6 L   6.735 -73.156144.5  RSN  8 0.4 2.0LRSN                1
 GAP=138        0.93       4.1     5.0  6.7  0.1900E+01  0.7475E+01 -0.1082E+01E
 Epicentro: VILLANUEVA - SANTANDER                                             3
 ACTION:UPD 13-03-12 09:32 OP:ep   STATUS:               ID:20130211052601 L   I
 2013-02-11-0520-00M.COL___241                                                 6
 STAT SP IPHASW D HRMM SECON CODA AMPLIT PERI AZIMU VELO AIN AR TRES W  DIS CAZ7
 BAR2 SZ IP     C  526 21.17                             173    0.2410 16.0 191 
 BAR2 SZ ES   1    526 35.62                             173   -0.41 7 16.0 191 
 BAR2 SZ I         526 37.15        50.0 0.26            172           16.0 191 
 BRR  HZ IP     D  526 23.08                             151    0.3310 74.0 304 
 BRR  HN ES   1    526 39.83                             151    0.56 7 74.0 304 
 BRR  HZ I         526 44.08        13.8 0.12            151           74.0 304 
 PAM  SZ IP     C  526 24.07                             149    0.0210 83.7  37 
 PAM  SN ES   1    526 40.95                             149   -0.63 7 83.7  37 
 PAM  SZ I         526 41.60         7.0 0.38            153           83.7  37 
 RUS  HZ EP        526 25.07                             146    0.3610 93.5 175 
 RUS  HN ES        526 42.95                             146    0.2110 93.5 175 
 RUS  HZ I         526 44.58        12.8 0.38            147           93.5 175 
 PTB  HZ EP        526 27.86                             132   -0.37 9  145 262 
 PTB  HN ES   1    526 48.25                             132   -0.77 7  145 262 
 PTB  HZ I         526 50.76        12.9 0.16            133            145 262 
 ZAR  HZ EP   1    526 34.37                             122    0.24 6  206 294 
 ZAR  HE ES   1    527  0.12                             122    0.60 6  206 294 
 ZAR  HZ I         527  2.33         6.1 0.14            123            206 294 
 CHI  HZ EP   1    526 38.26                             118   -0.16 6  241 195 
 CHI  HN ES   1    527  6.61                             118   -0.55 6  241 195 
 CHI  HZ I         527 10.21         4.1 0.46            119            241 195 
 SML  HZ EP   1    526 38.04                             116   -0.76 6  250 336 
 SML  HN ES   4    527  4.89                             116   -2.94 0  250 336 
 SML  HZ I         527  8.54        14.3 0.38            118            250 336 
                                                                                
