 2012 1211 0356  7.4 L   6.806 -73.157143.5  RSN 10 0.3 1.9LRSN                1
 GAP=135        0.64       2.8     3.9  4.8  0.6095E+00  0.5437E+01 -0.1594E+01E
 Epicentro: LOS SANTOS - SANTANDER                                             3
 ACTION:UPD 13-01-04 14:26 OP:ep   STATUS:               ID:20121211035607 L   I
 2012-12-11-0350-00M.COL___242                                                 6
 STAT SP IPHASW D HRMM SECON CODA AMPLIT PERI AZIMU VELO AIN AR TRES W  DIS CAZ7
 BAR2 SZ EP   1    356 26.73                             170   -0.02 7 23.8 187 
 BAR2 SZ ES   1    356 42.02                             170    0.17 7 23.8 187 
 BAR2 SZ I         356 43.20        20.4 0.22                          23.8 187 
 GIR2 SZ ES   1    356 41.21                             167   -0.66 7 30.4 352 
 GIR2 SZ I         356 44.41        14.7 0.24                          30.4 352 
 BRR  HZ EP   1    356 28.68                             153    0.47 7 69.8 299 
 BRR  HN ES   4    356 46.24                             153    1.79 0 69.8 299 
 BRR  HZ I         356 49.18        15.7 0.17                          69.8 299 
 PAM  SZ EP   1    356 29.46                             150    0.09 7 77.7  41 
 PAM  SN ES   1    356 46.90                             150    0.38 7 77.7  41 
 PAM  SZ I         356 49.06        28.7 0.56                          77.7  41 
 RUS  HZ EP   1    356 30.56                             143   -0.41 7  101 175 
 RUS  HN ES   1    356 49.65                             143    0.29 7  101 175 
 RUS  HZ I         356 52.00         8.5 0.56                           101 175 
 PTB  HN ES   1    356 54.52                             132   -0.36 7  147 258 
 PTB  HZ I         357  0.69        10.8 0.24                           147 258 
 OCA  HZ EP   1    356 35.11                             129   -0.33 7  159 354 
 OCA  HE ES   1    356 57.27                             129   -0.05 7  159 354 
 OCA  HZ I         357  1.82        14.2 0.30                           159 354 
 ZAR  HZ EP   1    356 39.79                             122    0.26 6  203 292 
 ZAR  HN ES   1    357  5.03                             122    0.42 6  203 292 
 SML  HZ EP   1    356 43.71                             117   -0.05 6  243 335 
 SML  HE ES   1    357 12.01                             117   -0.12 6  243 335 
 CHI  HZ EP   1    356 44.90                             117   -0.09 6  249 195 
                                                                                
