 2015  411 0621 19.9 L   6.400 -73.244 19.2  RSN  5 0.4 1.3LRSN                1
 GAP=132        0.96       2.1     4.0  5.3  0.2134E+01  0.1493E+02  0.3181E+01E
 Epicentro: CONFINES - SANTANDER                                               3
 ACTION:UPD 15-06-03 16:54 OP:cam  STATUS:               ID:20150411062119 L   I
 OLDACT:REG 15-04-11 14:07 OP:carl STATUS:               ID:20150411061748     3
 2015-04-11-0617-48M.COL___263                                                 6
 STAT SP IPHASW D HRMM SECON CODA AMPLIT PERI AZIMU VELO AIN AR TRES W  DIS CAZ7
 BAR2 EZ EP        621 25.02                             130   -0.0110 22.3  18 
 BAR2 EZ ES        621 28.86                             130   -0.1410 22.3  18 
 BAR2 EZ I         621 29.22        47.6 0.26            133           22.3  18 
 RUS  HZ EP        621 30.45                             107    0.1510 58.9 162 
 RUS  HN ES        621 38.11                             107   -0.2710 58.9 162 
 RUS  HZ I         621 39.16         4.6 0.32            110           58.9 162 
 BRR  HZ EP        621 35.40                             100    0.4710 93.7 327 
 BRR  HN ES        621 46.47                             100   -0.1610 93.7 327 
 BRR  HZ I         621 52.60         6.4 0.10            101           93.7 327 
 PAM  SZ EP        621 40.02                              98    0.6310  120  30 
 PAM  SN ES        621 54.05                              98   -0.5110  120  30 
 PAM  SZ I         621 55.20         9.7 0.16             56            120  30 
 PTB  HZ EP        621 41.09                              56    0.3110  135 277 
 PTB  HN ES        621 56.57                              56   -0.4710  135 277 
 PTB  HZ I         621 57.66        15.7 0.44             56            135 277 
                                                                                
