 2012 1211 0730 39.9 L   6.786 -73.142147.3  RSN  9 0.5 1.8LRSN                1
 GAP=183        0.91       5.0     7.1  7.9  0.6847E+01  0.1168E+02  0.2961E+00E
 Epicentro: LOS SANTOS - SANTANDER                                             3
 ACTION:UPD 13-01-04 14:27 OP:ep   STATUS:               ID:20121211073039 L   I
 2012-12-11-0730-00M.COL___242                                                 6
 STAT SP IPHASW D HRMM SECON CODA AMPLIT PERI AZIMU VELO AIN AR TRES W  DIS CAZ7
 BAR2 SZ EP   1    730 59.90                             171    0.20 7 21.9 192 
 BAR2 SZ ES   1    731 14.44                             171   -0.69 7 21.9 192 
 BAR2 SZ I         731 16.45        39.1 0.18                          21.9 192 
 GIR2 SZ EP   1    730 59.86                             167    0.05 7 32.9 350 
 GIR2 SZ ES   1    731 15.52                             167    0.19 7 32.9 350 
 GIR2 SZ I         731 17.32         9.3 0.40                          32.9 350 
 BRR  HZ IP     C  731  1.53                             152    0.2410 72.3 299 
 BRR  HN ES   1    731 18.88                             152    0.92 7 72.3 299 
 BRR  HZ I         731 21.86        13.3 0.32                          72.3 299 
 RUS  HZ EP   1    731  3.80                             145    0.10 7 99.0 176 
 RUS  HN ES   1    731 22.41                             145    0.16 7 99.0 176 
 RUS  HZ I         731 23.41         7.1 0.26                          99.0 176 
 PTB  HZ EP   1    731  6.35                             132   -0.66 7  148 259 
 PTB  HN ES   1    731 27.58                             132   -0.57 7  148 259 
 PTB  HZ I         731 30.55         6.2 0.14                           148 259 
 OCA  HN ES   1    731 30.08                             130   -0.70 7  162 353 
 OCA  HZ I         731 34.98         7.2 0.52                           162 353 
 ZAR  HE ES   2    731 38.26                             123    0.24 4  205 293 
 SML  HE ES   2    731 45.70                             118    0.14 4  245 335 
 HEL  HZ EP   2    731 20.90                             115    0.70 4  272 256 
 HEL  HZ I         732  0.02         3.5 0.22                           272 256 
                                                                                
