 2014 1011 0903  1.3 L   6.741 -73.173145.2  RSN  8 0.3 1.3LRSN                1
 GAP=145        0.71       3.7     3.4  5.8 -0.3439E+01  0.5640E+01 -0.1777E+01E
 Epicentro: VILLANUEVA - SANTANDER                                             3
 ACTION:UPD 14-11-29 23:48 OP:nd   STATUS:               ID:20141011090301 L   I
 OLDACT:REG 14-10-11 13:08 OP:fm   STATUS:               ID:20141011085747     3
 2014-10-11-0857-47M.COL___290                                                 6
 STAT SP IPHASW D HRMM SECON CODA AMPLIT PERI AZIMU VELO AIN AR TRES W  DIS CAZ7
 BAR2 SZ EP   1    9 3 20.87                             173    0.11 7 16.5 184 
 BAR2 SZ ES   1    9 3 35.97                             173    0.04 7 16.5 184 
 BAR2 SZ I         9 3 36.79         5.2 0.40            173           16.5 184 
 BRR  HZ EP   1    9 3 22.89                             152    0.43 7 72.0 304 
 BRR  HN ES        9 3 39.39                             152    0.4510 72.0 304 
 BRR  HZ I         9 3 44.74         4.6 0.70            147           72.0 304 
 PAM  SZ EP        9 3 23.98                             148    0.0810 84.3  38 
 PAM  SN ES        9 3 41.12                             148   -0.4010 84.3  38 
 PAM  SZ I         9 3 42.90         2.7 0.32            149           84.3  38 
 PTB  HZ EP   1    9 3 27.88                             133    0.01 7  144 261 
 PTB  HN ES        9 3 48.16                             133   -0.43 9  144 261 
 PTB  HZ I         9 3 50.93         2.4 0.18            132            144 261 
 OCA  HN ES   1    9 3 52.78                             128    0.11 7  166 354 
 ZAR  HZ EP   1    9 3 33.21                             122   -0.50 6  204 294 
 ZAR  HN ES        9 3 58.78                             122   -0.19 9  204 294 
 ZAR  HZ I         9 4  7.81         1.8 0.28            122            204 294 
 SML  HZ EP   4    9 3 36.01                             117   -2.42 0  248 337 
 SML  HE ES        9 4  7.52                             117    0.15 8  248 337 
 SML  HZ I         9 4 13.96         2.1 0.34            117            248 337 
 GUY2CHZ EP   4    9 3 46.79                             113    2.58 0  295 235 
 GUY2CHN ES   1    9 4 18.09                             113    0.43 5  295 235 
 GUY2CHZ I         9 4 28.21         0.6 0.66                           295 235 
 SJC  HZ EP   4    9 3 55.43                             105   -1.89 0  413 328 
 SJC  HN ES   4    9 4 38.30                             105   -2.70 0  413 328 
                                                                                
