 2011  711 0510 20.1 L   6.792 -73.112148.7  RSN  5 0.2 1.3LRSN                1
 GAP=159        0.46       5.1     8.2  7.3  0.2252E+02 -0.3328E+02 -0.2372E+02E
 Epicentro: LOS SANTOS - SANTANDER                                             3
 ACTION:UPD 12-07-25 13:59 OP:epov STATUS:               ID:20110711051020 L   I
 2011-07-11-0508-01S.COL___140                                                 6
 STAT SP IPHASW D HRMM SECON CODA AMPLIT PERI AZIMU VELO AIN AR TRES W  DIS CAZ7
 BAR2 SZ EP   1    510 39.92                             171   -0.13 7 23.4 199 
 BAR2 SZ ES   1    510 55.43                             171   -0.21 7 23.4 199 
 BAR2 SZ I         510 56.63         4.4 0.23                          23.4 199 
 GIR2 SZ EP   1    510 39.91                             167   -0.22 7 32.9 344 
 BRR  HZ EP   1    510 41.67                             152   -0.07 7 74.9 298 
 BRR  HZ I         510 41.91         4.5 0.14                          74.9 298 
 BRR  HN ES   1    510 58.82                             152    0.17 7 74.9 298 
 RUS  HN ES   1    511  2.95                             145    0.22 7 99.5 178 
 RUS  HZ I         511  3.58         1.8 0.27                          99.5 178 
 BRI  SZ EP   1    510 44.46                             142    0.26 7  108  19 
                                                                                
