 2012  411 0938 46.3 L   6.742 -73.066147.9  RSN  5 0.3 1.4LRSN                1
 GAP=150        0.71       4.8     5.7  6.3  0.3408E+00  0.1262E+00  0.8426E+00E
 Epicentro: JORDAN - SANTANDER                                                 3
 ACTION:UP  12-07-05 11:52 OP:tino STATUS:               ID:20120411093846 L   I
 2012-04-11-0930-00M.COL___176                                                 6
 STAT SP IPHASW D HRMM SECON CODA AMPLIT PERI AZIMU VELO AIN AR TRES W  DIS CAZ7
 BAR2 SZ EP   1    939  6.21                             172     0.1 7   21 218 
 BAR2 SZ ES   1    939 21.55                             172     0.0 7   21 218 
 BAR2 SZ I         939 22.34         5.9 0.17                            21 218 
 PAM  SZ EP        939  9.11                             151     0.410   77  32 
 PAM  SE ES   1    939 25.68                             151    -0.6 7   77  32 
 BRR  HZ EP        939  8.13                             149    -0.210   82 300 
 BRR  HN ES        939 25.71                             149     0.210   82 300 
 RUS  HZ EP   1    939  9.79                             146     0.0 7   94 181 
 RUS  HN ES   1    939 28.15                             146     0.0 7   94 181 
 PTB  HZ EP   1    939 13.62                             131    -0.5 7  155 262 
                                                                                
