 2012 1211 0506 15.1 L   6.677 -73.191143.9  RSN  5 0.2 1.1LRSN                1
 GAP=222        0.46       5.1     4.5  5.2  0.1520E+02  0.6885E+01  0.4556E+01E
 Epicentro: VILLANUEVA - SANTANDER                                             3
 ACTION:UPD 13-01-04 14:26 OP:ep   STATUS:               ID:20121211050615 L   I
 2012-12-11-0500-00M.COL___242                                                 6
 STAT SP IPHASW D HRMM SECON CODA AMPLIT PERI AZIMU VELO AIN AR TRES W  DIS CAZ7
 BAR2 SZ EP   1    5 6 33.93                             176   -0.34 7 9.39 174 
 BAR2 SZ ES   1    5 6 49.12                             176   -0.13 7 9.39 174 
 BAR2 SZ I         5 6 50.52         4.4 0.21                          9.39 174 
 BRR  HN ES   1    5 6 52.96                             151    0.25 7 74.7 310 
 RUS  HZ EP   1    5 6 38.05                             147    0.33 7 87.5 172 
 RUS  HN ES   1    5 6 55.41                             147    0.01 7 87.5 172 
 RUS  HZ I         5 6 58.12         1.2 0.42                          87.5 172 
 PTB  HZ EP   1    5 6 41.18                             133   -0.06 7  141 264 
 PTB  HN ES   1    5 7  1.57                             133   -0.09 7  141 264 
 PTB  HZ I         5 7  3.84         1.5 0.23                           141 264 
 ZAR  HN ES   1    5 7 12.77                             122   -0.01 6  205 296 
 ZAR  HZ I         5 7 18.79         1.6 0.13                           205 296 
                                                                                
