 2016  211 0747 38.9 L   6.816 -73.172144.0  RSN 10 0.4 1.8LRSN                1
 GAP=199        0.96       3.2     4.3  6.3  0.3122E+01  0.7026E+01 -0.2778E+01E
 Epicentro: LOS SANTOS - SANTANDER                                             3
 ACTION:UPD 16-03-04 21:25 OP:rebc STATUS:               ID:20160211074738 L   I
 OLDACT:REG 16-02-11 13:37 OP:ak   STATUS:               ID:20160211073748     3
 2016-02-11-0737-48M.COL___313                                                 6
 STAT SP IPHASW D HRMM SECON CODA AMPLIT PERI AZIMU VELO AIN AR TRES W  DIS CAZ7
 BAR2 EZ EP        747 58.45                             170    0.1310 24.8 183 
 BAR2 EZ ES        748 13.71                             170    0.2210 24.8 183 
 BAR2 EZ I         748 15.01        13.4 0.14            170           24.8 183 
 RUS  HZ EP        748  2.09                             143   -0.5110  103 174 
 RUS  HN ES        748 21.00                             143   -0.1110  103 174 
 RUS  HZ I         748 22.77         5.4 0.28            147            103 174 
 PTB  HZ EP        748  5.09                             132   -0.38 9  145 258 
 PTB  HN ES        748 25.63                             132   -0.58 9  145 258 
 PTB  HZ I         748 33.51         8.3 0.38            133            145 258 
 SPBC HZ EP        748  7.58                             129    0.38 9  163 218 
 SPBC HN ES        748 29.53                             129    0.24 9  163 218 
 SPBC HZ I         748 36.42         9.0 0.22            131            163 218 
 ZAR  HZ EP        748 10.97                             123    0.12 9  201 292 
 ZAR  HE ES        748 36.43                             123    0.63 9  201 292 
 ZAR  HZ I         748 42.72         4.8 0.36            124            201 292 
 SML  HZ EP        748 14.48                             117   -0.61 8  241 336 
 SML  HN ES        748 43.89                             117    0.55 8  241 336 
 SML  HZ I         748 52.83         4.8 0.08            119            241 336 
 CHI  HZ EP        748 16.70                             117    0.12 8  250 194 
 CHI  HN ES        748 45.99                             117   -0.00 8  250 194 
 CHI  HZ I         748 49.19         2.3 0.34            120            250 194 
 URE  HE ES        748 50.62                             114   -0.53 7  280 292 
 GUY2CHZ EP   2    748 23.34                             112    1.09 4  300 234 
 GUY2CHN ES        748 56.61                             112    0.53 7  300 234 
 GUY2CHZ I         749  3.71         2.8 0.44                           300 234 
 CBOC HZ EP   2    748 26.33                             110    0.87 3  331 252 
 CBOC HN ES        749  1.33                             110   -0.46 7  331 252 
 CBOC HZ I         749  5.10         5.6 0.04            112            331 252 
                                                                                
