 2012  911 0252 54.8 L   6.762 -73.142139.9  RSN  9 0.3 2.1LRSN                1
 GAP=185        0.49       3.1     3.1  4.3  0.2700E+01  0.1712E+01  0.3134E+01E
 Epicentro: LOS SANTOS - SANTANDER                                             3
 ACTION:UPD 12-10-22 14:18 OP:ep   STATUS:               ID:20120911025254 L   I
 2012-09-11-0250-00M.COL___227                                                 6
 STAT SP IPHASW D HRMM SECON CODA AMPLIT PERI AZIMU VELO AIN AR TRES W  DIS CAZ7
 BAR2 SZ IP        253 13.58                             172   -0.1110 19.3 193 
 BAR2 SZ ES   1    253 28.32                             172   -0.07 7 19.3 193 
 BAR2 SZ I         253 30.12        38.8 0.23                          19.3 193 
 GIR2 SZ EP   1    253 14.05                             165    0.11 7 35.5 351 
 BRR  HZ EP        253 15.45                             151   -0.0510 73.6 301 
 BRR  HZ I         253 16.97        23.9 0.12                          73.6 301 
 BRR  HN ES   1    253 31.96                             151    0.35 7 73.6 301 
 RUS  HZ EP        253 17.72                             144    0.0110 96.4 176 
 RUS  HN ES   1    253 35.45                             144   -0.10 7 96.4 176 
 RUS  HZ I         253 38.48        11.5 0.32                          96.4 176 
 PTB  HE ES   1    253 41.56                             131   -0.38 7  147 260 
 ZAR  HN ES   1    253 52.10                             121   -0.19 6  206 293 
 ZAR  HZ I         253 57.54        10.3 0.24                           206 293 
 NOR  SN ES   1    253 58.00                             117    0.56 6  233 235 
 NOR  SZ I         254  2.73        10.0 0.20                           233 235 
 CHI  HZ EP   1    253 32.10                             116    0.31 6  245 196 
 PRA  HZ EP   1    253 47.59                             106   -0.17 4  389 210 
 PRA  HN ES   2    254 28.50                             106   -0.53 3  389 210 
                                                                                
