 2014  811 0728 19.8 L   6.787 -73.158160.4  RSN  4 0.5 1.1LRSN                1
 GAP=247        1.13       9.6    12.1 14.0 -0.4427E+02 -0.8004E+02  0.5558E+02E
 Epicentro: LOS SANTOS - SANTANDER                                             3
 ACTION:UPD 14-09-15 21:48 OP:nd   STATUS:               ID:20140811072819 L   I
 OLDACT:UP  14-08-11 17:22 OP:cam  STATUS:               ID:20140811072000     3
 OLDACT:REG 14-08-11 13:58 OP:cam  STATUS:               ID:20140811072000     3
 2014-08-11-0720-00M.COL___285                                                 6
 STAT SP IPHASW D HRMM SECON CODA AMPLIT PERI AZIMU VELO AIN AR TRES W  DIS CAZ7
 BAR2 SZ EP        728 40.58                             172   -0.5610 21.7 187 
 BRR  HZ EP        728 42.99                             155    0.4910 70.7 300 
 BRR  HN ES        729  0.40                             155    0.1710 70.7 300 
 BRR  HZ I         729  4.62         2.2 0.28            158           70.7 300 
 PTB  HZ EP        728 48.09                             135    0.26 9  146 259 
 PTB  HN ES        729  9.05                             135   -0.67 9  146 259 
 PTB  HZ I         729 10.05         1.5 0.28            140            146 259 
 SPBC HZ EP        728 49.02                             133   -0.23 9  161 219 
 SPBC HN ES        729 12.78                             133    0.53 9  161 219 
                                                                                
