 2015  111 0247 48.1 L   6.816 -73.142148.3  RSN  9 0.5 1.9LRSN                1
 GAP=183        1.14       3.6     5.8  6.8  0.2205E+01  0.2791E+01 -0.6708E+01E
 Epicentro: LOS SANTOS - SANTANDER                                             3
 ACTION:UPD 15-03-02 15:38 OP:nd   STATUS:               ID:20150111024748 L   I
 OLDACT:UP  15-01-11 17:47 OP:cam  STATUS:               ID:20150111024643     3
 OLDACT:REG 15-01-11 17:42 OP:cam  STATUS:               ID:20150111024643     3
 2015-01-11-0246-43M.COL___259                                                 6
 STAT SP IPHASW D HRMM SECON CODA AMPLIT PERI AZIMU VELO AIN AR TRES W  DIS CAZ7
 BAR2 EZ EP        248  8.19                             170    0.1310 25.1 190 
 BAR2 EZ ES        248 23.51                             170   -0.1310 25.1 190 
 BAR2 EZ I         248 25.86        15.6 0.22            171           25.1 190 
 BRR  HZ IP     C  248 10.08                             153    0.5910 70.7 297 
 BRR  HN ES        248 26.36                             153    0.1810 70.7 297 
 BRR  HZ I         248 31.24         7.2 0.14            152           70.7 297 
 RUS  HZ EP        248 12.73                             144    0.5210  102 176 
 RUS  HN ES        248 30.96                             144   -0.0710  102 176 
 RUS  HN I         248 31.83        11.9 0.52            148            102 176 
 PTB  HZ EP        248 14.85                             132   -0.48 9  148 258 
 PTB  HN ES        248 36.24                             132   -0.34 9  148 258 
 PTB  HN I         248 41.80        17.3 0.42            134            148 258 
 OCA  HZ EP        248 15.67                             130   -0.77 9  159 353 
 OCA  HE ES        248 38.32                             130   -0.24 9  159 353 
 OCA  HZ I         248 43.83         9.9 0.44            133            159 353 
 SPBC HZ EP        248 17.40                             129    0.47 9  165 219 
 SPBC HN ES        248 38.66                             129   -0.77 9  165 219 
 SPBC HZ I         248 43.80         8.8 0.38            132            165 219 
 ZAR  HZ EP        248 20.97                             123    0.30 9  204 292 
 ZAR  HN ES        248 46.77                             123    0.68 9  204 292 
 ZAR  HZ I         248 48.37         5.0 0.24            125            204 292 
 SML  HZ EP        248 24.93                             118    0.22 8  242 335 
 SML  HN ES        248 53.34                             118    0.07 8  242 335 
 SML  HZ I         248 57.09        10.4 0.10            120            242 335 
 SJC  HZ EP        248 42.57                             106   -1.02 6  408 327 
                                                                                
