 2011  511 0752 17.8 L   6.783 -73.095141.9  RSN 12 0.4 1.8LRSN                1
 GAP=162        0.90       4.8     9.0  7.4 -0.1756E+02  0.1380E+02 -0.1771E+01E
 Epicentro: LOS SANTOS - SANTANDER                                             3
 ACTION:UP  11-06-29 08:52 OP:tino STATUS:               ID:20110511075217 L   I
 2011-05-11-0748-29S.COL___132                                                 6
 STAT SP IPHASW D HRMM SECON CODA AMPLIT PERI AZIMU VELO SNR AR TRES W  DIS CAZ7
 BAR2 SZ EP        752 36.77                             170    -0.210   23 204 
 BAR2 SZ ES   1    752 51.58                             170    -0.3 7   23 204 
 BAR2 SZ I         752 54.68        20.3 0.10                            23 204 
 BTL  SZ EP        752 37.23                             170     0.310   24 308 
 GIR2 SZ EP        752 37.64                             166     0.610   34 342 
 GIR2 SZ ES   3    752 51.29                             166    -0.8 2   34 342 
 BRR  HZ EP        752 38.78                             150    -0.110   77 298 
 BRR  HN ES   2    752 56.06                             150     0.8 5   77 298 
 BRR  HZ I         753  1.13        12.1 0.19                            77 298 
 RUS  HZ EP        752 41.07                             143     0.110   99 179 
 RUS  HN ES   2    752 59.27                             143     0.2 5   99 179 
 RUS  HZ I         753  0.84         6.3 0.44                            99 179 
 BRI  SZ EP   3    752 41.37                             141     0.1 2  108  18 
 GRA  SZ EP        752 42.66                             136     0.010  126  15 
 GRA  SZ ES   1    753  1.77                             136    -0.4 7  126  15 
 GRA  SZ I         753  4.22         7.0 0.39                           126  15 
 OCA  SZ EP        752 45.51                             128    -0.5 9  163 351 
 OCA  SZ I         753 12.83        10.1 0.26                           163 351 
 NOR  SZ EP   3    752 53.46                             117    -0.2 2  238 236 
 NOR  SN ES   2    753 20.45                             117    -1.2 4  238 236 
 HEL  HZ EP   3    752 58.59                             113     0.2 2  277 256 
 HEL  HZ I         753 35.79         4.8 0.41                           277 256 
 RREF HZ EP        753  4.62                             110     0.5 7  325 230 
 RREF HZ I         753 46.79         3.9 0.40                           325 230 
 PRA  HZ EP   1    753 10.71                             106    -0.6 4  393 210 
                                                                                
