 2016  211 0032 26.4 L   5.919 -73.783108.8  RSN 11 0.4 1.8LRSN                1
 GAP= 86        0.92       2.4     2.5  5.1 -0.1443E+01  0.3462E+01 -0.1534E+01E
 Epicentro: SUCRE - SANTANDER                                                  3
 ACTION:UPD 16-03-04 21:25 OP:rebc STATUS:               ID:20160211003226 L   I
 OLDACT:REG 16-02-11 12:27 OP:ak   STATUS:               ID:20160211002749     3
 2016-02-11-0027-49M.COL___322                                                 6
 STAT SP IPHASW D HRMM SECON CODA AMPLIT PERI AZIMU VELO AIN AR TRES W  DIS CAZ7
 SPBC HZ EP        032 42.39                             157    0.2010 43.6 227 
 SPBC HN ES        032 54.88                             157    0.3910 43.6 227 
 SPBC HZ I         032 55.80        34.4 0.30            156           43.6 227 
 RUS  HZ EP        032 44.74                             142   -0.1510 77.5  92 
 RUS  HN ES        032 58.99                             142   -0.3010 77.5  92 
 RUS  HZ I         033  0.84         7.1 0.29            143           77.5  92 
 BAR2 EZ EP        032 46.02                             134   -0.3310 99.8  42 
 BAR2 EZ ES        033  1.98                             134    0.1010 99.8  42 
 PTB  HZ EP        032 45.93                             134   -0.2510  101 313 
 PTB  HN ES        033  1.90                             134    0.3210  101 313 
 PTB  HZ I         033  4.66         8.2 0.10            134            101 313 
 NOR  HZ EP        032 48.67                             127    0.0810  127 252 
 NOR  HN ES        033  5.44                             127   -0.4410  127 252 
 NOR  HZ I         033  8.41        26.5 0.14            127            127 252 
 CHI  HZ EP   2    032 50.73                             123    0.05 5  143 178 
 CHI  HN ES        033  9.50                             123   -0.09 9  143 178 
 CHI  HZ I         033 14.11         6.0 0.38            124            143 178 
 GUY2CHZ EP        032 55.73                             115   -0.23 9  191 246 
 GUY2CHN ES        033 19.06                             115    0.07 9  191 246 
 GUY2CHZ I         033 24.45         4.2 0.24                           191 246 
 HEL  HZ EP        032 57.07                             114    0.78 9  196 279 
 HEL  HN ES        033 19.16                             114   -0.42 9  196 279 
 HEL  HZ I         033 24.55         4.3 0.38            114            196 279 
 ZAR  HZ EP   1    032 56.56                             112   -0.97 6  211 326 
 ZAR  HN ES        033 21.38                             112   -0.40 8  211 326 
 ZAR  HZ I         033 21.95         7.1 0.38            112            211 326 
 OCA  HZ EP        033  3.83                             107    0.26 8  262  11 
 OCA  HN ES        033 33.33                             107    0.80 8  262  11 
 OCA  HZ I         033 39.45        13.2 0.52            107            262  11 
 ORTC HZ EP        033  5.16                             106    0.15 8  275 216 
 ORTC HN ES        033 35.56                             106    0.45 8  275 216 
 ORTC HZ I         033 39.57         3.1 0.72            106            275 216 
 MACC HZ EP   4    033 20.40                              98   -1.56 0  417 181 
 MACC HN ES   4    034  2.05                              98   -3.23 0  417 181 
                                                                                
