 2013  411 0603  6.8 L   6.845 -73.152144.0  RSN  5 0.5 1.3LRSN                1
 GAP=186        1.20       9.8     9.4 11.7  0.4357E+02  0.3967E+02  0.5685E+02E
 Epicentro: LOS SANTOS - SANTANDER                                             3
 ACTION:UPD 13-05-22 14:37 OP:EP   STATUS:               ID:20130411060306 L   I
 2013-04-11-0558-35M.COL___211                                                 6
 STAT SP IPHASW D HRMM SECON CODA AMPLIT PERI AZIMU VELO AIN AR TRES W  DIS CAZ7
 GIR2 SZ ES        6 3 40.58                             169   -0.6510 26.3 350 
 BAR2 SZ ES   2    6 3 41.47                             168   -0.10 5 28.1 187 
 BAR2 SZ I         6 3 44.71         5.1 0.50            164           28.1 187 
 BRR  HN ES        6 3 44.73                             153    0.9010 68.3 295 
 RUS  HZ EP        6 3 30.91                             142    0.1510  106 176 
 RUS  HN ES        6 3 49.58                             142    0.1410  106 176 
 RUS  HN I         6 3 49.97         3.1 0.24            142            106 176 
 PTB  HZ EP        6 3 33.56                             131   -0.11 9  148 257 
 PTB  HN ES        6 3 54.15                             131   -0.47 9  148 257 
 PTB  HN I         6 3 59.70         3.2 0.42            131            148 257 
                                                                                
