 2011  911 0636 24.6 L   6.749 -73.138147.7  RSN  7 0.3 1.6LRSN                1
 GAP=140        0.40       3.3     4.5  5.5  0.2239E+01  0.2712E+01 -0.2720E+01E
 Epicentro: LOS SANTOS - SANTANDER                                             3
 ACTION:UPD 12-07-13 15:56 OP:ep   STATUS:               ID:20110911063624 L   I
 2011-09-11-0620-00M.COL___169                                                 6
 STAT SP IPHASW D HRMM SECON CODA AMPLIT PERI AZIMU VELO AIN AR TRES W  DIS CAZ7
 BAR2 SZ EP   2    636 44.20                             173   -0.13 5 18.1 196 
 BAR2 SZ ES   2    636 59.40                             173   -0.34 5 18.1 196 
 BAR2 SZ I         637  1.42         8.4 0.51                          18.1 196 
 GIR2 SZ EP   3    636 44.33                             165   -0.29 2 36.9 350 
 GIR2 SZ ES   3    637  0.53                             165    0.26 2 36.9 350 
 BRR  HZ EP   1    636 46.27                             152    0.15 7 74.8 302 
 BRR  HN ES   2    637  3.43                             152    0.50 5 74.8 302 
 BRR  HZ I         637 10.55         9.0 0.11                          74.8 302 
 PAM  SZ EP   2    636 47.28                             150    0.07 5 81.2  37 
 PAM  SN ES   2    637  4.87                             150   -0.01 5 81.2  37 
 RUS  HZ EP   2    636 47.95                             146   -0.15 5 94.9 176 
 RUS  HN ES   2    637  6.56                             146    0.09 5 94.9 176 
 RUS  HZ I         637  8.69         2.6 0.48                          94.9 176 
 OCA  SZ EP   2    636 53.90                             129    0.35 5  166 353 
 OCA  SZ ES   2    637 15.74                             129   -0.42 5  166 353 
 OCA  SZ I         637 23.59         4.4 0.54                           166 353 
 ZAR  HE ES   2    637 22.65                             122   -0.43 4  207 293 
 ZAR  HZ I         637 28.00         5.8 0.61                           207 293 
                                                                                
