 2016  311 0657 25.1 L   6.810 -73.151142.3  RSN  6 0.3 1.4LRSN                1
 GAP=135        0.84       3.2     4.5  5.9 -0.1421E+01  0.1067E+02  0.1262E+01E
 Epicentro: LOS SANTOS - SANTANDER                                             3
 ACTION:UPD 16-05-13 21:23 OP:cam  STATUS:               ID:20160311065725 L   I
 OLDACT:DUP 16-03-11 18:34 OP:cara STATUS:               ID:20160311064751d    3
 OLDACT:REG 16-03-11 13:49 OP:cara STATUS:               ID:20160311064750     3
 2016-03-11-0647-50M.COL___261                                                 6
 STAT SP IPHASW D HRMM SECON CODA AMPLIT PERI AZIMU VELO AIN AR TRES W  DIS CAZ7
 BAR2 EZ IP        657 44.52                             170    0.1810 24.3 188 
 BAR2 EZ ES        657 59.19                             170   -0.1510 24.3 188 
 BAR2 EZ I         658  0.53         2.6 0.26            168           24.3 188 
 PAM  EZ EP        657 47.31                             150    0.3810 76.9  40 
 PAM  EN ES        658  3.74                             150   -0.2010 76.9  40 
 PAM  EZ I         658  6.36         5.2 0.48            155           76.9  40 
 RUS  HZ EP        657 48.59                             143   -0.0110  102 176 
 RUS  HN ES        658  6.97                             143    0.0510  102 176 
 RUS  HZ I         658  8.61         4.3 0.20            145            102 176 
 SPBC HZ EP        657 53.11                             128   -0.28 9  164 219 
 SPBC HN ES        658 15.42                             128   -0.02 9  164 219 
 SPBC HZ I         658 22.60         3.7 0.26            129            164 219 
 ZAR  HZ EP        657 56.40                             122   -0.83 9  203 292 
 ZAR  HN ES        658 22.84                             122    0.55 9  203 292 
 ZAR  HZ I         658 28.87         3.9 0.42            122            203 292 
 CHI  HZ EP        658  3.07                             116    0.36 8  250 195 
 CHI  HN ES        658 32.00                             116   -0.04 8  250 195 
 CHI  HZ I         658 35.21         0.8 0.28            118            250 195 
                                                                                
