 2010  511 0505 49.6 L   7.151 -73.178115.0  RSN  4 0.1 1.5LRSN                1
 GAP=149        0.29       2.0     3.4  4.0 -0.3180E+01 -0.3487E+01  0.2993E+01E
 Epicentro: LEBRIJA - SANTANDER                                                3
 ACTION:UP  10-08-24 10:04 OP:vdl  STATUS:               ID:20100511050549 L   I
 2010-05-11-0503-22S.COL___104                                                 6
 STAT SP IPHASW D HRMM SECON CODA AMPLIT PERI AZIMU VELO AIN AR TRES W  DIS CAZ7
 BRR  HZ IP     C  5 6  6.78                             151     0.010   59 265 
 BRR  HZ I         5 6  6.96         8.6 0.22                            59 265 
 BRR  HN ES   2    5 6 20.05                             151    -0.1 5   59 265 
 BAR2 SZ EP        5 6  7.31                             150     0.110   62 181 
 BAR2 SZ ES   2    5 6 20.96                             150    -0.1 5   62 181 
 GRA  SZ EP        5 6  9.16                             139    -0.110   91  27 
 GRA  SZ ES   1    5 6 24.57                             139     0.0 7   91  27 
 RUS  HZ EP        5 6 14.05                             126     0.0 9  140 176 
                                                                                
