 2017  411 0708 51.2 L   6.735 -73.076144.0  RSN  5 0.4 1.2LRSN                1
 GAP=149        1.07       5.5     7.4  9.7 -0.5938E+01 -0.1848E+02  0.5669E+01E
 Epicentro: JORDAN - SANTANDER                                                 3
 ACTION:UPD 17-05-30 21:10 OP:jn   STATUS:               ID:20170411070851 L   I
 OLDACT:UP  17-04-11 17:41 OP:edw  STATUS:               ID:20170411070639     3
 OLDACT:UP  17-04-11 17:40 OP:edw  STATUS:               ID:20170411070639     3
 OLDACT:REG 17-04-11 12:11 OP:edw  STATUS:               ID:20170411070639     3
 2017-04-11-0707-00M.COL___371                                                 6
 STAT SP IPHASW D HRMM SECON CODA AMPLIT PERI AZIMU VELO AIN AR TRES W  DIS CAZ7
 PAM  EZ EP     C  7 9 13.17                             150   -0.1210 78.8  32 
 PAM  EN ES        7 9 30.48                             150   -0.0610 78.8  32 
 PAM  EZ I         7 9 32.01        10.0 0.96            152           78.8  32 
 BRR  HZ EP        7 9 12.16                             149   -0.5910 81.4 300 
 BRR  HN ES        7 9 30.00                             149    0.4210 81.4 300 
 RUS  HZ EP        7 9 14.96                             145    0.7310 93.1 180 
 RUS  HN ES        7 9 31.89                             145   -0.3210 93.1 180 
 RUS  HZ I         7 9 33.88         1.9 0.52            146           93.1 180 
 PTB  HZ EP   9    7 9 17.13                             130   -1.46 0  154 262 
 PTB  HN ES        7 9 38.15                             132   -0.36 9  154 262 
 PTB  HZ I         7 9 45.73         0.9 0.24            129            154 262 
 SPBC HN ES   2    7 9 41.29                             128   -0.30 5  163 223 
                                                                                
