 2013  811 0433 40.2 L   6.814 -73.179144.0  RSN 13 0.5 2.2LRSN                1
 GAP=132        1.13       3.4     4.4  5.8 -0.2599E+01  0.5800E+01  0.4167E+01E
 Epicentro: LOS SANTOS - SANTANDER                                             3
 ACTION:UPD 14-01-14 09:00 OP:ep   STATUS:               ID:20130811043340 L   I
 OLDACT:REG 13-08-11 07:30 OP:jn   STATUS:               ID:20130811042959     3
 2013-08-11-0429-59M.COL___270                                                 6
 STAT SP IPHASW D HRMM SECON CODA AMPLIT PERI AZIMU VELO AIN AR TRES W  DIS CAZ7
 BAR2 SZ EP        433 59.58                             170   -0.0610 24.5 181 
 BAR2 SZ ES        434 14.71                             170   -0.1010 24.5 181 
 BAR2 SZ I         434 16.44        46.7 0.34            170           24.5 181 
 GIR2 SZ EP        433 59.77                             168    0.1610 29.3 357 
 GIR2 SZ ES        434 14.58                             168   -0.1710 29.3 357 
 GIR2 SZ I         434 16.67        40.1 0.42            165           29.3 357 
 BRR  HZ IP     C  434  1.53                             154    0.6010 67.2 299 
 BRR  HN ES        434 18.20                             154    1.0910 67.2 299 
 BRR  HZ I         434 21.73        27.4 0.34            150           67.2 299 
 PAM  SZ EP        434  2.51                             150    0.2110 78.6  42 
 PAM  SN ES   1    434 19.43                             150   -0.11 7 78.6  42 
 PAM  SZ I         434 21.86        41.6 0.52            154           78.6  42 
 RUS  HZ EP        434  3.69                             143   -0.2210  102 174 
 RUS  HN ES        434 22.51                             143    0.1010  102 174 
 RUS  HZ I         434 23.52        18.0 0.26            146            102 174 
 PTB  HZ EP        434  6.47                             132   -0.25 9  144 258 
 PTB  HN ES        434 27.20                             132   -0.20 9  144 258 
 PTB  HZ I         434 34.81        14.5 0.46            131            144 258 
 OCA  HZ EP        434  7.81                             130   -0.38 9  158 354 
 OCA  HN ES        434 29.11                             130   -0.91 9  158 354 
 OCA  HZ I         434 35.26        16.8 0.14            131            158 354 
 ZAR  HN ES   1    434 37.47                             123    0.47 6  200 292 
 ZAR  HZ I         434 43.86        15.7 0.26            122            200 292 
 NOR  HZ EP        434 15.52                             118   -0.08 8  233 234 
 NOR  HE ES        434 42.95                             118   -0.26 8  233 234 
 NOR  HZ I         434 46.34        11.8 0.16            119            233 234 
 CHI  HZ EP        434 17.88                             117    0.02 8  249 194 
 CHI  HN ES        434 47.07                             117   -0.16 8  249 194 
 CHI  HZ I         434 50.79        13.1 0.64            119            249 194 
 ROSC BZ EP        434 18.82                             116    0.66 8  252 210 
 ROSC BN ES   1    434 47.06                             116   -0.71 6  252 210 
 HEL  HE ES   1    434 50.53                             115   -0.45 6  269 255 
 HEL  HZ I         434 58.76         8.7 0.46            115            269 255 
 CBOC HZ EP   1    434 27.96                             110    1.27 5  331 252 
 CBOC HN ES   1    435  1.79                             110   -1.16 5  331 252 
 CBOC HZ I         435  7.30         2.4 0.20            111            331 252 
                                                                                
