 2013  911 0126 29.2 L   6.790 -73.179147.9  RSN  6 0.3 1.8LRSN                1
 GAP=133        0.70       3.0     3.9  5.7  0.1539E+01 -0.1225E+01 -0.1748E+01E
 Epicentro: LOS SANTOS - SANTANDER                                             3
 ACTION:UPD 13-10-22 09:21 OP:ep   STATUS:               ID:20130911012629 L   I
 OLDACT:UP  13-09-11 09:03 OP:cam  STATUS:               ID:20130911011959     3
 OLDACT:REG 13-09-11 07:38 OP:cam  STATUS:               ID:20130911011959     3
 2013-09-11-0119-59M.COL___269                                                 6
 STAT SP IPHASW D HRMM SECON CODA AMPLIT PERI AZIMU VELO AIN AR TRES W  DIS CAZ7
 BRR  HZ EP        126 50.53                             154    0.0910 68.5 301 
 BRR  HN ES        127  7.23                             154    0.2310 68.5 301 
 BRR  HZ I         127 10.90        11.7 0.16            153           68.5 301 
 PAM  SZ EP        126 51.69                             150   -0.1510 80.6  41 
 PAM  SN ES   1    127  9.11                             150   -0.39 7 80.6  41 
 PAM  SZ I         127 11.77        10.0 0.32            155           80.6  41 
 RUS  HZ EP        126 52.95                             145   -0.1610 99.8 174 
 RUS  HN ES        127 12.08                             145    0.3210 99.8 174 
 RUS  HZ I         127 12.63         6.8 0.26            148           99.8 174 
 PTB  HZ EP   2    126 55.64                             133   -0.36 5  144 259 
 PTB  HN ES        127 16.44                             133   -0.46 9  144 259 
 PTB  HZ I         127 23.71         9.4 0.34            134            144 259 
 SML  HZ EP   1    127  5.77                             118   -0.12 6  243 336 
 SML  HN ES        127 34.94                             118    0.43 8  243 336 
 CHI  HZ EP   1    127  7.20                             118    0.40 6  247 194 
                                                                                
