 2010  811 0507 32.1 L   6.800 -73.064144.0  RSN  5 0.1 1.2LRSN                1
 GAP=168        0.37       2.2     4.4  4.4 -0.6377E+00 -0.5081E+01 -0.1608E+01E
 Epicentro: LOS SANTOS - SANTANDER                                             3
 ACTION:UP  10-09-07 10:54 OP:vdl  STATUS:               ID:20100811050731 L   I
 2010-08-11-0504-36S.COL___125                                                 6
 STAT SP IPHASW D HRMM SECON CODA AMPLIT PERI AZIMU VELO SNR AR TRES W  DIS CAZ7
 BAR2 SZ EP   2    5 7 51.67                             169     0.1 5   27 210 
 BAR2 SZ ES   2    5 8  6.66                             169    -0.1 5   27 210 
 BAR2 SZ I         5 8  8.12         4.5 0.19                            27 210 
 BRR  HZ EP        5 7 53.38                             150    -0.210   79 295 
 BRR  HE ES   1    5 8 10.42                             150     0.2 7   79 295 
 BRR  HZ I         5 8 11.00         5.5 0.11                            79 295 
 RUS  HZ EP   1    5 7 55.65                             144     0.0 7  100 181 
 RUS  HZ I         5 7 56.35         1.9 0.12                           100 181 
 RUS  HN ES   1    5 8 14.06                             144     0.0 7  100 181 
 GUE  SZ EP   1    5 7 56.48                             140     0.0 7  115   8 
 GRA  SZ EP   1    5 7 57.20                             138     0.2 7  123  13 
 GRA  SZ ES   1    5 8 16.31                             138    -0.1 7  123  13 
 GRA  SZ I         5 8 17.65         1.6 0.49                           123  13 
                                                                                
