 2011 1111 0422 24.7 L   6.708 -73.180148.8  RSN  5 0.2 1.6LRSN                1
 GAP=136        0.42       4.1     4.4  4.8  0.1083E+02 -0.4236E+01 -0.5909E+01E
 Epicentro: VILLANUEVA - SANTANDER                                             3
 ACTION:UPD 12-07-13 16:09 OP:ep   STATUS:               ID:20111111042224 L   I
 2011-11-11-0420-01S.COL___178                                                 6
 STAT SP IPHASW D HRMM SECON CODA AMPLIT PERI AZIMU VELO AIN AR TRES W  DIS CAZ7
 BAR2 SZ EP   1    422 44.72                             175    0.18 7 12.8 181 
 BAR2 SZ ES   1    422 59.74                             175   -0.27 7 12.8 181 
 BAR2 SZ I         423  2.58        12.2 0.21                          12.8 181 
 BRR  HZ EP   1    422 46.41                             152    0.10 7 73.5 307 
 BRR  HN ES   1    423  3.31                             152    0.15 7 73.5 307 
 BRR  HZ I         423  5.12         8.1 0.16                          73.5 307 
 PAM  SZ EP   1    422 47.85                             148   -0.03 7 87.7  37 
 RUS  HZ EP   1    422 47.86                             147   -0.22 7 90.8 173 
 RUS  HN ES   1    423  6.50                             147    0.18 7 90.8 173 
 RUS  HZ I         423  8.95         5.1 0.35                          90.8 173 
 ZAR  HN ES   1    423 22.78                             123   -0.14 6  205 295 
                                                                                
