 2013  311 0011 57.2 L   6.753 -73.147149.9  RSN  4 0.4 1.6LRSN                1
 GAP=234        0.70       8.3     9.6  9.3  0.3629E+02  0.2042E+02 -0.1481E+02E
 Epicentro: LOS SANTOS - SANTANDER                                             3
 ACTION:UPD 13-04-09 14:01 OP:ep   STATUS:               ID:20130311001157 L   I
 2013-03-11-0010-00M.COL___231                                                 6
 STAT SP IPHASW D HRMM SECON CODA AMPLIT PERI AZIMU VELO AIN AR TRES W  DIS CAZ7
 BAR2 SZ EP   2    012 17.28                             173    0.02 5 18.2 192 
 BAR2 SZ ES   2    012 32.30                             173   -0.60 5 18.2 192 
 BAR2 SZ I         012 33.22         8.5 0.36            155           18.2 192 
 BRR  HZ EP     D  012 19.10                             152    0.1410 73.7 302 
 BRR  HZ I         012 25.20         9.6 0.66            133           73.7 302 
 BRR  HN ES   2    012 36.17                             152    0.25 5 73.7 302 
 RUS  HZ EP   2    012 21.83                             146    0.80 5 95.4 176 
 RUS  HN ES   1    012 39.52                             146   -0.07 7 95.4 176 
 RUS  HZ I         012 40.49         3.3 0.54            131           95.4 176 
 PTB  HZ EP        012 24.03                             133   -0.41 9  147 261 
 PTB  HZ I         012 43.02         6.7 0.52            115            147 261 
 PTB  HN ES   2    012 46.29                             133    0.63 5  147 261 
                                                                                
