 2014  911 0942 44.7 L   6.419 -73.608104.3  RSN  4 0.4 1.4LRSN                1
 GAP=143        0.82       6.7     4.3  8.8  0.1195E+02  0.1613E+02 -0.1174E+02E
 Epicentro: SANTA HELENA DEL OPON - SANTANDER                                  3
 ACTION:UPD 14-10-03 23:04 OP:nd   STATUS:               ID:20140911094244 L   I
 OLDACT:REG 14-09-11 12:24 OP:mh   STATUS:               ID:20140911094000     3
 2014-09-11-0940-00M.COL___285                                                 6
 STAT SP IPHASW D HRMM SECON CODA AMPLIT PERI AZIMU VELO AIN AR TRES W  DIS CAZ7
 BAR2 SZ EP   1    943  0.37                             152   -0.21 7 50.8  68 
 BAR2 SZ ES        943 12.78                             152   -0.1710 50.8  68 
 BAR2 SZ I         943 14.29        17.9 0.38            152           50.8  68 
 RUS  HN ES        943 17.87                             138    0.4110 82.2 135 
 PTB  HZ EP        943  3.33                             134   -0.1810 94.8 278 
 PTB  HN ES        943 17.92                             134   -0.2610 94.8 278 
 PTB  HZ I         943 19.16         5.0 0.32            135           94.8 278 
 ZAR  HZ EP        943 12.32                             114   -0.07 9  182 311 
 ZAR  HN ES   1    943 34.83                             114    0.85 7  182 311 
 ZAR  HZ I         943 37.47         2.3 0.33            115            182 311 
                                                                                
