 2013  911 0000 39.9 L   7.081 -73.309127.6  RSN  7 0.5 1.9LRSN                1
 GAP= 99        1.07       5.0     4.1  7.3  0.1762E+01  0.7895E+01 -0.5470E+01E
 Epicentro: LEBRIJA - SANTANDER                                                3
 ACTION:UPD 13-10-22 09:21 OP:ep   STATUS:               ID:20130911000039 L   I
 OLDACT:UP  13-09-11 08:47 OP:cam  STATUS:               ID:20130911000000     3
 OLDACT:REG 13-09-11 07:34 OP:cam  STATUS:               ID:20130911000000     3
 2013-09-11-0000-00M.COL___269                                                 6
 STAT SP IPHASW D HRMM SECON CODA AMPLIT PERI AZIMU VELO AIN AR TRES W  DIS CAZ7
 BRR  HZ IP     D  0 0 57.48                             159   -0.1710 44.6 274 
 BRR  HN ES        0 1 11.34                             159   -0.2010 44.6 274 
 BRR  HZ I         0 1 11.92        15.7 0.44            150           44.6 274 
 BAR2 SZ EP        0 0 58.76                             155    0.2310 55.8 165 
 BAR2 SZ ES        0 1 13.02                             155   -0.0810 55.8 165 
 BAR2 SZ I         0 1 14.37        54.1 0.24            156           55.8 165 
 PAM  SZ EP        0 0 59.78                             148   -0.1110 73.1  67 
 PAM  SN ES        0 1 15.72                             148    0.2010 73.1  67 
 PAM  SZ I         0 1 17.58         8.5 0.54            135           73.1  67 
 RUS  HZ EP   1    0 1  5.64                             131    0.92 7  134 169 
 RUS  HN ES        0 1 23.99                             131   -0.1210  134 169 
 RUS  HZ I         0 1 25.08         5.3 0.38            125            134 169 
 PTB  HZ EP        0 1  4.07                             129   -0.61 9  140 245 
 PTB  HN ES        0 1 23.71                             129   -0.34 9  140 245 
 PTB  HZ I         0 1 28.89         9.4 0.24            121            140 245 
 ZAR  HZ EP        0 1  8.75                             122    0.43 9  177 285 
 ZAR  HN ES        0 1 31.34                             122    0.81 9  177 285 
 ZAR  HZ I         0 1 36.28        10.6 0.38            112            177 285 
 SML  HZ EP   1    0 1 10.71                             117   -0.88 6  208 336 
 SML  HZ I         0 1 42.46        19.1 0.10            108            208 336 
                                                                                
