 2016 1011 0122 40.9 L   6.782 -73.141144.9  RSN 18 0.4 2.3LRSN                1
 GAP= 72        1.01       2.8     3.1  4.9 -0.1681E+01  0.3162E+01  0.2456E+01E
 Epicentro: LOS SANTOS - SANTANDER                                             3
 ACTION:UPD 16-11-09 19:18 OP:rebc STATUS:               ID:20161011012240 L   I
 OLDACT:UP  16-10-11 15:36 OP:ar   STATUS:               ID:20161011011742     3
 OLDACT:UP  16-10-11 15:35 OP:ar   STATUS:               ID:20161011011742     3
 OLDACT:UP  16-10-11 15:34 OP:ar   STATUS:               ID:20161011011742     3
 OLDACT:REG 16-10-11 13:06 OP:ar   STATUS:               ID:20161011011742     3
 2016-10-11-0118-00M.COL___360                                                 6
 STAT SP IPHASW D HRMM SECON CODA AMPLIT PERI AZIMU VELO AIN AR TRES W  DIS CAZ7
 BAR2 EZ EP        123  0.41                             171   -0.0110 21.5 192 
 BAR2 EZ ES        123 15.46                             171   -0.1610 21.5 192 
 BAR2 EZ I         123 17.19        39.8 0.46            169           21.5 192 
 BRR  HZ EP        123  2.27                             152    0.2010 72.6 300 
 BRR  HN ES        123 19.15                             152    0.6010 72.6 300 
 BRR  HZ I         123 24.46        24.3 0.14            150           72.6 300 
 PAM  EZ EP        123  3.18                             150    0.0610 78.5  38 
 PAM  EN ES        123 20.40                             150   -0.0310 78.5  38 
 PAM  EZ I         123 22.52        16.9 0.54            155           78.5  38 
 RUS  HZ EP        123  4.49                             144    0.0410 98.6 176 
 RUS  HN ES        123 23.08                             144    0.2810 98.6 176 
 RUS  HZ I         123 25.60        24.1 0.50            146           98.6 176 
 PTB  HZ EP        123  7.15                             132   -0.69 9  148 260 
 PTB  HN ES        123 28.16                             132   -0.68 9  148 260 
 PTB  HZ I         123 35.82        33.3 0.40            132            148 260 
 TAM  HZ EP        123  8.46                             131    0.02 9  154 104 
 OCA  HZ EP        123  8.98                             129   -0.38 9  162 353 
 OCA  HN ES        123 31.71                             129    0.17 9  162 353 
 OCA  HZ I         123 41.09        31.2 0.32            132            162 353 
 SPBC HZ EP        123  9.31                             129    0.06 9  162 220 
 SPBC HN ES        123 31.64                             129    0.30 9  162 220 
 SPBC HZ I         123 38.09        29.1 0.38            130            162 220 
 ZAR  HZ EP        123 12.91                             122   -0.54 8  205 293 
 ZAR  HE ES        123 38.53                             122   -0.28 8  205 293 
 ZAR  HZ I         123 44.10        31.4 0.62            123            205 293 
 NOR  HZ EP        123 16.45                             118   -0.09 8  234 235 
 NOR  HN ES        123 44.14                             118   -0.17 8  234 235 
 NOR  HZ I         123 48.62        19.6 0.20            120            234 235 
 CHI  HZ EP        123 18.42                             117    0.03 8  247 195 
 CHI  HE ES        123 46.76                             117   -0.85 8  247 195 
 CHI  HZ I         123 53.61        10.5 0.28            119            247 195 
 ROSC BZ EP   4    123 21.21                             117    2.36 0  251 211 
 ROSC BN ES   4    123 52.70                             117    4.27 0  251 211 
 ROSC BZ I         123 53.71        20.5 0.45            118            251 211 
 HEL  HZ EP   4    123 22.36                             115    1.25 0  272 256 
 HEL  HN ES        123 52.98                             115    0.54 8  272 256 
 HEL  HZ I         123 59.60         7.1 0.22            116            272 256 
 GUY2CHZ EP        123 25.57                             112    1.15 7  301 235 
 GUY2CHN ES        123 58.04                             112   -0.31 7  301 235 
 GUY2CHZ I         124  5.85        11.0 0.60                           301 235 
 PTGC HZ EP   4    123 23.18                             112   -1.34 0  307 159 
 PTGC HN ES   4    123 56.45                             112   -2.07 0  307 159 
 ELA  HZ EP   4    123 30.76                             110    3.11 0  328 230 
 ELA  HN ES   4    124  6.14                             110    2.05 0  328 230 
 ELA  HZ I         124 12.74         8.6 0.36            112            328 230 
 CBOC HZ EP        123 28.69                             110    0.89 7  334 252 
 CBOC HN ES        124  4.47                             110    0.11 7  334 252 
 CBOC HZ I         124 10.83         4.0 0.38            111            334 252 
 PRA  HZ EP        123 34.01                             106   -0.24 6  391 210 
 PRA  HN ES        124 16.60                             106    0.75 6  391 210 
 PRA  HZ I         124 24.67         8.5 0.50            108            391 210 
 SJC  HZ EP   4    123 34.55                             105   -2.14 0  411 327 
 SJC  HN ES   4    124 15.81                             105   -4.37 0  411 327 
 SJC  HZ I         124 20.74         3.5 0.34            107            411 327 
                                                                                
