 2014 1011 0531  8.5 L   6.750 -73.200146.1  RSN  5 0.5 1.3LRSN                1
 GAP=227        1.14       7.4     7.7 10.4  0.1786E+02 -0.1435E+01  0.7952E-01E
 Epicentro: VILLANUEVA - SANTANDER                                             3
 ACTION:UPD 14-11-29 23:48 OP:nd   STATUS:               ID:20141011053108 L   I
 OLDACT:DUP 14-10-11 17:05 OP:fm   STATUS:               ID:20141011052740d    3
 2014-10-11-0527-39M.COL___291                                                 6
 STAT SP IPHASW D HRMM SECON CODA AMPLIT PERI AZIMU VELO AIN AR TRES W  DIS CAZ7
 BAR2 SZ EP        531 27.28                             173   -0.7610 17.6 174 
 BAR2 SZ ES   1    531 43.49                             173    0.20 7 17.6 174 
 BAR2 SZ I         531 44.29         5.2 0.20            170           17.6 174 
 BRR  HZ EP        531 29.57                             153    0.0410 69.0 305 
 BRR  HN ES        531 46.38                             153    0.4210 69.0 305 
 BRR  HZ I         531 47.41         4.1 0.44            154           69.0 305 
 RUS  HZ EP        531 32.30                             145    0.3910 95.7 172 
 RUS  HN ES        531 50.05                             145   -0.1310 95.7 172 
 RUS  HZ I         531 51.92         2.8 0.24            145           95.7 172 
 PTB  HZ EP   1    531 35.44                             134    0.59 7  141 261 
 PTB  HN ES        531 54.74                             134   -0.68 9  141 261 
 PTB  HZ I         531 57.00         2.1 0.34            133            141 261 
 SPBC HN ES   1    531 58.39                             131    0.49 7  155 219 
 SPBC HZ I         532  1.51         2.5 0.26            130            155 219 
 OCA  HN ES   4    531 56.35                             129   -3.38 0  165 355 
                                                                                
