 2010  811 0007 48.1 L   6.713 -73.662110.0  RSN  5 0.4 1.4LRSN                1
 GAP=208        0.92       5.7    12.8 12.3  0.1886E+02 -0.6363E+02 -0.1552E+02E
 Epicentro: EL CARMEN DE CHUCURI - SANTANDER                                   3
 ACTION:UP  10-09-07 10:54 OP:vdl  STATUS:               ID:20100811000748 L   I
 2010-08-11-0003-52S.COL___125                                                 6
 STAT SP IPHASW D HRMM SECON CODA AMPLIT PERI AZIMU VELO SNR AR TRES W  DIS CAZ7
 BRR  HZ EP   1    0 8  4.04                             157     0.2 8   44 353 
 BRR  HN ES   1    0 8 16.11                             157     0.0 8   44 353 
 BRR  HZ I         0 8 17.12         8.9 0.10                            44 353 
 BAR2 SZ EP   2    0 8  5.08                             152     0.3 5   55 104 
 BAR2 SZ I         0 8  5.55         4.9 0.18                            55 104 
 RUS  HZ EP   2    0 8 10.07                             132     0.7 5  111 145 
 RUS  HE ES   1    0 8 25.87                             132    -0.2 8  111 145 
 RUS  HZ I         0 8 29.95         3.1 0.67                           111 145 
 GUE  SZ EP        0 8 12.28                             123    -0.510  148  33 
 GUE  SZ I         0 8 31.81         5.2 0.19                           148  33 
 GRA  SZ ES   1    0 8 34.48                             120     0.4 7  161  36 
 GRA  SZ I         0 8 36.36         7.5 0.42                           161  36 
                                                                                
