 2013  711 0529 58.3 L   6.816 -73.131139.1  RSN  7 0.5 1.7LRSN                1
 GAP=185        1.19       4.4     7.7  8.4  0.5671E+01  0.1383E+02 -0.7895E+01E
 Epicentro: LOS SANTOS - SANTANDER                                             3
 ACTION:UPD 13-08-12 10:36 OP:ep   STATUS:               ID:20130711052958 L   I
 OLDACT:REG 13-07-11 07:33 OP:nd   STATUS:               ID:20130711052959     3
 2013-07-11-0529-59M.COL___266                                                 6
 STAT SP IPHASW D HRMM SECON CODA AMPLIT PERI AZIMU VELO AIN AR TRES W  DIS CAZ7
 BAR2 SZ EP        530 17.26                             169    0.0610 25.4 193 
 BAR2 SZ ES        530 32.04                             169    0.1110 25.4 193 
 BAR2 SZ I         530 34.04         8.8 0.22            168           25.4 193 
 BRR  HZ EP        530 19.30                             151    0.5010 71.8 297 
 BRR  HN ES   1    530 35.45                             151    0.69 7 71.8 297 
 BRR  HZ I         530 39.86        11.6 0.46            147           71.8 297 
 RUS  HZ EP        530 21.38                             142   -0.1810  102 177 
 RUS  HN ES        530 39.63                             142   -0.0410  102 177 
 RUS  HZ I         530 40.95         3.2 0.34            146            102 177 
 PTB  HZ EP        530 24.29                             130   -0.65 9  150 258 
 PTB  HN ES        530 45.07                             130   -0.63 9  150 258 
 PTB  HZ I         530 48.26         9.3 0.36            129            150 258 
 OCA  HZ EP   4    530 29.64                             128    3.65 0  159 352 
 OCA  HN ES        530 47.28                             128   -0.28 9  159 352 
 OCA  HZ I         530 51.56         8.6 0.18            129            159 352 
 SML  HZ EP        530 34.13                             116   -0.36 8  243 335 
 SML  HN ES        531  2.69                             116   -0.01 8  243 335 
 SML  HZ I         531  9.58        10.2 0.32            117            243 335 
 HEL  HZ EP        530 39.72                             113    1.29 8  274 256 
 HEL  HN ES   4    531 14.02                             113    4.31 0  274 256 
 HEL  HZ I         531 18.09         2.3 0.32            114            274 256 
                                                                                
