 2017  811 0035  4.6 L   6.569 -73.407115.1  RSN  7 0.4 1.6LRSN                1
 GAP=142        0.86       3.8     3.6  6.2  0.5290E+01  0.1119E+02  0.7474E+01E
 Epicentro: HATO - SANTANDER                                                   3
 ACTION:UPD 17-09-04 20:18 OP:rebc STATUS:               ID:20170811003504 L   I
 OLDACT:UP  17-08-11 13:57 OP:dhb  STATUS:               ID:20170811002742     3
 OLDACT:REG 17-08-11 12:14 OP:dhb  STATUS:               ID:20170811002742     3
 2017-08-11-0028-00M.COL___410                                                 6
 STAT SP IPHASW D HRMM SECON CODA AMPLIT PERI AZIMU VELO AIN AR TRES W  DIS CAZ7
 BAR2 EZ IP     C  035 20.41                             167   -0.1610 25.0  84 
 BAR2 EZ ES        035 33.06                             167    0.0010 25.0  84 
 BAR2 EZ I         035 34.90        17.6 0.25            167           25.0  84 
 RUS  HZ EP        035 23.69                             142   -0.3510 83.0 154 
 RUS  HE ES        035 39.52                             142    0.2910 83.0 154 
 RUS  HZ I         035 40.44        11.9 0.26            143           83.0 154 
 YPLC HZ EP        035 31.61                             119   -0.27 9  172 139 
 YPLC HE ES        035 53.32                             119    0.14 9  172 139 
 YPLC HZ I         035 55.65        11.7 0.32            121            172 139 
 ZAR  HZ EP   1    035 34.52                             117    0.84 7  190 303 
 ZAR  HN ES        035 56.42                             117    0.03 9  190 303 
 ZAR  HZ I         035 57.98         2.5 0.08            118            190 303 
 NOR  HZ EP        035 34.20                             116   -0.23 9  196 236 
 NOR  HE ES        035 57.01                             116   -0.71 9  196 236 
 NOR  HZ I         035 58.71         3.7 0.12            117            196 236 
 CHI  HZ EP        035 37.09                             113   -0.14 8  217 190 
 CHI  HN ES        036  3.10                             113    0.39 8  217 190 
 GUY2CHZ EP        035 42.97                             109    0.48 8  263 236 
 GUY2CHN ES   1    036 12.63                             109    0.57 6  263 236 
 GUY2CHZ I         036 17.62         1.3 0.09                           263 236 
                                                                                
