 2013 1111 0732 30.5 L   6.793 -73.147141.8  RSN 12 0.5 2.0LRSN                1
 GAP=137        1.36       4.1     5.6  7.9 -0.1951E+01  0.1034E+02 -0.5790E+01E
 Epicentro: LOS SANTOS - SANTANDER                                             3
 ACTION:UPD 14-01-09 16:27 OP:ep   STATUS:               ID:20131111073230 L   I
 OLDACT:DUP 13-11-11 11:35 OP:nd   STATUS:               ID:20131111073001d    3
 2013-11-11-0730-00M.COL___273                                                 6
 STAT SP IPHASW D HRMM SECON CODA AMPLIT PERI AZIMU VELO AIN AR TRES W  DIS CAZ7
 BAR2 SZ EP        732 49.92                             171    0.3310 22.6 190 
 BAR2 SZ ES        733  4.18                             171   -0.3410 22.6 190 
 BAR2 SZ I         733  5.90        41.2 0.24            169           22.6 190 
 BRR  HZ EP        732 51.80                             152    0.6110 71.4 299 
 BRR  HN ES        733  8.44                             152    1.0810 71.4 299 
 BRR  HZ I         733 14.12        14.8 0.12            149           71.4 299 
 PAM  SZ EP        732 52.90                             150    0.6110 78.1  39 
 PAM  SN ES        733  9.27                             150   -0.0510 78.1  39 
 PAM  SZ I         733 11.23         7.4 0.16            155           78.1  39 
 RUS  HZ EP        732 53.89                             143    0.1310 99.8 176 
 RUS  HN ES        733 11.44                             143   -0.5010 99.8 176 
 RUS  HZ I         733 13.13         9.4 0.26            146           99.8 176 
 PTB  HZ EP        732 56.77                             131   -0.30 9  147 259 
 PTB  HN ES        733 17.08                             131   -0.76 9  147 259 
 PTB  HZ I         733 20.85        12.1 0.26            131            147 259 
 OCA  HZ EP        732 58.28                             129   -0.25 9  161 353 
 OCA  HN ES        733 19.81                             129   -0.62 9  161 353 
 OCA  HZ I         733 22.21        13.7 0.42            131            161 353 
 SPBC HZ EP        732 58.73                             128    0.15 9  162 219 
 SPBC HN ES        733 20.27                             128   -0.26 9  162 219 
 SPBC HZ I         733 27.10         8.2 0.22            129            162 219 
 ZAR  HZ EP        733  3.10                             121    0.44 9  204 292 
 ZAR  HN ES        733 28.40                             121    0.62 9  204 292 
 ZAR  HZ I         733 34.76        13.2 0.28            122            204 292 
 SML  HZ EP        733  6.40                             116   -0.53 8  244 335 
 SML  HN ES        733 34.48                             116   -0.90 8  244 335 
 SML  HZ I         733 37.87        16.5 0.10            118            244 335 
 HEL  HZ EP   4    733 11.66                             114    1.23 0  272 256 
 HEL  HN ES   4    733 41.19                             114   -0.42 0  272 256 
 HEL  HZ I         733 48.30         3.4 0.24            115            272 256 
 GUY2CHZ EP   4    733 14.00                             112    0.18 0  301 235 
 GUY2CHN ES   4    733 47.75                             112    0.11 0  301 235 
 GUY2CHZ I         733 55.36         3.4 0.26                           301 235 
 SJC  HZ EP   4    733 24.79                             105   -1.16 0  410 327 
 SJC  HN ES   4    734  6.12                             105   -3.12 0  410 327 
 SJC  HZ I         734 10.15         3.5 0.62            107            410 327 
                                                                                
