 2012  711 0312 30.1 L   6.802 -73.152143.4  RSN  9 0.5 2.0LRSN                1
 GAP=136        1.24       4.9     5.5  8.7 -0.4206E+01  0.1515E+02 -0.1366E+01E
 Epicentro: LOS SANTOS - SANTANDER                                             3
 ACTION:UPD 12-08-14 11:44 OP:ep   STATUS:               ID:20120711031230 L   I
 2012-07-11-0310-00M.COL___188                                                 6
 STAT SP IPHASW D HRMM SECON CODA AMPLIT PERI AZIMU VELO AIN AR TRES W  DIS CAZ7
 BAR2 SZ EP   1    312 49.61                             170     0.2 7   23 188 
 BAR2 SZ ES   1    313  3.95                             170    -0.6 7   23 188 
 BAR2 SZ I         313  5.71        24.2 0.35            170             23 188 
 BRR  HZ EP   1    312 51.41                             152     0.5 7   70 299 
 BRR  HN ES        313  8.18                             152     1.010   70 299 
 BRR  HZ I         313  9.10        24.5 0.11            150             70 299 
 PAM  SZ EP   1    312 52.39                             150     0.3 7   78  40 
 PAM  SZ I         312 52.84        19.3 0.20            152             78  40 
 PAM  SN ES   1    313  9.11                             150    -0.1 7   78  40 
 RUS  HZ EP   1    312 53.69                             143     0.0 7  101 176 
 RUS  HN ES        313 12.07                             143     0.110  101 176 
 RUS  HZ I         313 14.15        10.7 0.29            145            101 176 
 PTB  HZ EP   1    312 56.38                             132    -0.4 7  147 259 
 PTB  HN ES        313 16.97                             132    -0.7 9  147 259 
 PTB  HZ I         313 20.25         6.3 0.12            131            147 259 
 OCA  HZ EP   1    312 57.76                             129    -0.4 7  160 353 
 OCA  HN ES        313 19.64                             129    -0.5 9  160 353 
 OCA  HZ I         313 23.43        20.0 0.20            129            160 353 
 ZAR  HZ EP   1    313  3.12                             122     0.8 6  203 292 
 ZAR  HN ES   1    313 27.36                             122    -0.1 6  203 292 
 ZAR  HZ I         313 33.25        13.8 0.34            122            203 292 
 NOR  SZ EP   1    313  5.21                             118    -0.4 6  234 234 
 NOR  SN ES   1    313 33.59                             118     0.2 6  234 234 
 HEL  HZ EP   1    313 10.71                             114     0.6 6  271 256 
 HEL  HE ES        313 41.13                             114    -0.2 8  271 256 
 HEL  HZ I         313 47.95         5.4 0.40            114            271 256 
