 2011 1111 0852 59.4 L   6.825 -73.104146.0  RSN  7 0.4 1.5LRSN                1
 GAP=141        0.81       3.9     5.4  7.8 -0.1055E+01  0.1891E+02  0.6667E+00E
 Epicentro: LOS SANTOS - SANTANDER                                             3
 ACTION:UPD 12-07-13 16:09 OP:ep   STATUS:               ID:20111111085259 L   I
 2011-11-11-0851-50S.COL___178                                                 6
 STAT SP IPHASW D HRMM SECON CODA AMPLIT PERI AZIMU VELO AIN AR TRES W  DIS CAZ7
 BAR2 SZ EP   1    853 19.49                             169    0.33 7 27.2 198 
 BAR2 SZ I         853 20.00         9.9 0.10                          27.2 198 
 BAR2 SZ ES   1    853 34.28                             169   -0.28 7 27.2 198 
 PAM  SN ES        853 38.17                             152   -0.3210 72.3  38 
 PAM  SZ I         853 40.21         2.1 0.42                          72.3  38 
 BRR  HZ EP   1    853 21.56                             151    0.80 7 74.0 295 
 BRR  HZ I         853 22.01        11.9 0.10                          74.0 295 
 BRR  HN ES   1    853 37.96                             151    0.56 7 74.0 295 
 RUS  HZ EP   1    853 23.67                             143    0.28 7  103 179 
 RUS  HN ES   1    853 41.86                             143   -0.21 7  103 179 
 RUS  HZ I         853 43.34         3.7 0.21                           103 179 
 OCA  SZ EP   2    853 27.29                             130   -0.26 5  158 351 
 OCA  SZ ES   1    853 49.45                             130   -0.03 7  158 351 
 OCA  SZ I         853 54.40         4.9 0.36                           158 351 
 ZAR  HZ EP   1    853 31.60                             122   -0.62 6  207 291 
 ZAR  HN ES   1    853 57.56                             122   -0.23 6  207 291 
 ZAR  HZ I         854  3.74         4.0 0.19                           207 291 
 NOR  SN ES   1    854  3.78                             118   -0.29 6  240 235 
                                                                                
