 2014  311 0932 26.2 L   6.809 -73.196137.8  RSN 16 0.4 2.1LRSN                1
 GAP=130        0.88       2.8     3.9  5.9 -0.2668E+01  0.8674E+01 -0.1487E+01E
 Epicentro: ZAPATOCA - SANTANDER                                               3
 OLDACT:UP  14-03-11 11:25 OP:mh   STATUS:               ID:20140311092347     3
 OLDACT:UP  14-03-11 11:14 OP:mh   STATUS:               ID:20140311092347     3
 OLDACT:REG 14-03-11 10:38 OP:mh   STATUS:               ID:20140311092347     3
 OLDACT:UP  14-03-11 12:02 OP:mh   STATUS:               ID:20140311092348d    3
 OLDACT:UP  14-03-11 12:02 OP:mh   STATUS:               ID:20140311092348d    3
 OLDACT:DUP 14-03-11 11:38 OP:mh   STATUS:               ID:20140311092348d    3
 OLDACT:UP  14-03-11 11:35 OP:mh   STATUS:               ID:20140311092347     3
 OLDACT:UP  14-03-11 11:34 OP:mh   STATUS:               ID:20140311092347     3
 OLDACT:UP  14-03-11 11:30 OP:mh   STATUS:               ID:20140311092347     3
 OLDACT:UP  14-03-11 11:29 OP:mh   STATUS:               ID:20140311092347     3
 ACTION:UPD 14-04-09 23:16 OP:nd   STATUS:               ID:20140311093226 L   I
 OLDACT:UP  14-03-11 12:56 OP:mh   STATUS:               ID:20140311092349d    3
 OLDACT:UP  14-03-11 12:55 OP:mh   STATUS:               ID:20140311092349d    3
 OLDACT:UP  14-03-11 12:51 OP:mh   STATUS:               ID:20140311092349d    3
 OLDACT:DUP 14-03-11 12:41 OP:mh   STATUS:               ID:20140311092349d    3
 OLDACT:UP  14-03-11 12:39 OP:mh   STATUS:               ID:20140311092348d    3
 OLDACT:UP  14-03-11 12:39 OP:mh   STATUS:               ID:20140311092348d    3
 2014-03-11-0923-47M.COL___235                                                 6
 OLDACT:UP  14-03-11 12:30 OP:mh   STATUS:               ID:20140311092348d    3
 OLDACT:UP  14-03-11 12:09 OP:mh   STATUS:               ID:20140311092348d    3
 STAT SP IPHASW D HRMM SECON CODA AMPLIT PERI AZIMU VELO AIN AR TRES W  DIS CAZ7
 BAR2 SZ EP   1    932 44.96                             170    0.12 7 24.0 176 
 BAR2 SZ ES   1    932 59.40                             170   -0.02 7 24.0 176 
 BAR2 SZ I         933  2.79        40.2 0.47            168           24.0 176 
 PAM  SZ EP        932 47.79                             149    0.0810 80.3  43 
 PAM  SN ES   1    933  5.02                             149    0.49 7 80.3  43 
 RUS  HZ EP   1    932 48.92                             142   -0.33 7  102 173 
 RUS  HN ES   2    933  6.41                             142   -0.85 5  102 173 
 RUS  HZ I         933  8.74        12.0 0.33            149            102 173 
 PTB  HZ EP        932 51.87                             131   -0.13 9  142 258 
 PTB  HN ES   1    933 11.40                             131   -0.75 7  142 258 
 PTB  HZ I         933 17.36        10.0 0.23            131            142 258 
 OCA  HZ EP   2    932 53.32                             128   -0.39 5  159 355 
 OCA  HN ES   2    933 14.69                             128   -0.51 5  159 355 
 OCA  HZ I         933 23.12        12.7 0.49            131            159 355 
 SPBC HZ EP        932 53.36                             128   -0.44 9  161 217 
 SPBC HN ES        933 15.57                             128    0.21 9  161 217 
 SPBC HZ I         933 27.25         9.8 0.09            131            161 217 
 ZAR  HZ EP        932 58.18                             121    0.67 9  199 292 
 ZAR  HN ES   1    933 22.28                             121    0.31 6  199 292 
 ZAR  HZ I         933 30.08        15.8 0.17            122            199 292 
 NOR  HZ EP        933  1.21                             117    0.20 8  231 233 
 NOR  HN ES        933 28.94                             117    0.75 8  231 233 
 NOR  HZ I         933 35.31        13.6 0.28            120            231 233 
 SML  HZ EP        933  1.44                             116   -0.55 8  240 336 
 SML  HN ES        933 30.26                             116    0.31 8  240 336 
 SML  HZ I         933 38.50         9.5 0.13            119            240 336 
 CHI  HZ EP        933  3.13                             116   -0.25 8  248 194 
 CHI  HN ES   2    933 32.62                             116    0.21 4  248 194 
 HEL  HZ EP   1    933  5.34                             114   -0.06 6  267 255 
 HEL  HN ES   2    933 35.32                             114   -0.69 4  267 255 
 HEL  HZ I         933 45.36         4.6 0.64            116            267 255 
 URE  HZ EP        933  5.72                             112   -0.50 7  278 292 
 URE  HN ES   4    933 35.33                             112   -2.14 0  278 292 
 URE  HZ I         933 46.79         6.7 0.11            115            278 292 
 GUY2CHZ EP        933  9.74                             111    0.78 7  297 234 
 GUY2CHN ES   4    933 43.83                             111    1.49 0  297 234 
 GUY2CHZ I         933 51.63         7.0 0.45                           297 234 
 CBOC HZ EP   1    933 12.09                             109   -0.08 5  329 252 
 CBOC HN ES   1    933 47.64                             109   -0.43 5  329 252 
 ORTC HZ EP   4    933 17.70                             105   -1.82 0  393 215 
 ORTC HN ES   4    934  2.83                             105    1.68 0  393 215 
 ORTC HZ I         934  9.23         3.2 0.16            109            393 215 
 SJC  HZ EP   4    933 18.69                             105   -2.32 0  405 328 
 SJC  HN ES   4    933 58.09                             105   -5.70 0  405 328 
 SJC  HZ I         934 17.91         4.1 0.06            107            405 328 
                                                                                
