 2013  111 0045 49.9 L   6.793 -73.158144.9  RSN  6 0.4 2.0LRSN                1
 GAP=247        1.03       6.4     7.2  8.3  0.1933E+02  0.1350E+02  0.2010E+02E
 Epicentro: LOS SANTOS - SANTANDER                                             3
 ACTION:UPD 13-02-15 09:13 OP:ep   STATUS:               ID:20130111004549 L   I
 2013-01-11-0040-00M.COL___242                                                 6
 STAT SP IPHASW D HRMM SECON CODA AMPLIT PERI AZIMU VELO AIN AR TRES W  DIS CAZ7
 BAR2 SZ EP        046  9.21                             171   -0.2410 22.3 187 
 BAR2 SZ ES        046 24.23                             171   -0.4310 22.3 187 
 BAR2 SZ I         046 26.92        21.6 0.28            166           22.3 187 
 BRR  HZ EP        046 11.28                             153    0.3210 70.4 300 
 BRR  HN ES        046 28.03                             153    0.6910 70.4 300 
 BRR  HN I         046 30.12        19.5 0.22            149           70.4 300 
 RUS  HN I         046 33.85        14.2 0.52            144           99.9 175 
 PTB  HZ EP        046 16.22                             132   -0.49 9  146 259 
 PTB  HN ES        046 37.21                             132   -0.37 9  146 259 
 PTB  HN I         046 42.93        16.2 0.38            130            146 259 
 ZAR  HN ES        046 47.41                             122   -0.01 9  203 292 
 ZAR  HN I         046 55.88        10.5 0.12            122            203 292 
 CHI  HZ EP        046 27.66                             117    0.19 8  248 195 
 CHI  HN ES        046 57.24                             117    0.50 8  248 195 
 CHI  HN I         046 59.27         5.0 0.28            118            248 195 
                                                                                
