 2015  911 0255 15.4 L   6.828 -73.132139.3  RSN 14 0.5 2.7LRSN                1
 GAP=114        1.13       3.7     4.5  9.2  0.1158E+01  0.1589E+02  0.1334E+02E
 Epicentro: LOS SANTOS - SANTANDER                                             3
 ACTION:UPD 15-10-28 16:25 OP:cam  STATUS:               ID:20150911025515 L   I
 OLDACT:DUP 15-09-11 14:13 OP:drio STATUS:               ID:20150911024749d    3
 2015-09-11-0247-48M.COL___350                                                 6
 STAT SP IPHASW D HRMM SECON CODA AMPLIT PERI AZIMU VELO AIN AR TRES W  DIS CAZ7
 BAR2 EZ EP        255 33.73                             169   -0.6010 26.6 192 
 BAR2 EZ ES        255 48.90                             169   -0.1910 26.6 192 
 BAR2 EZ I         255 50.04       110.7 0.32            167           26.6 192 
 BRR  HN ES        255 52.47                             151    0.6710 71.2 296 
 BRR  HZ I         255 53.43       120.7 0.38            148           71.2 296 
 RUS  HE ES        255 56.60                             142   -0.3510  104 177 
 RUS  HZ I         255 58.14        28.2 0.36            141            104 177 
 PTB  HN ES   4    256  1.57                             130   -1.26 0  150 258 
 PTB  HZ I         256  9.77        52.3 0.16            128            150 258 
 TAM  HE ES        256  4.38                             129    0.73 9  154 106 
 TAM  HZ I         256  5.27        33.2 0.66            130            154 106 
 OCA  HN ES        256  4.12                             129   -0.31 9  157 352 
 OCA  HZ I         256  7.05       132.7 0.18            127            157 352 
 SPBC HN ES        256  5.91                             127    0.08 9  167 219 
 SPBC HZ I         256 12.28        66.3 0.26            125            167 219 
 ZAR  HE ES        256 12.22                             121   -0.25 9  204 291 
 ZAR  HZ I         256 18.50        83.1 0.46            119            204 291 
 CHI  HN ES        256 21.74                             115   -0.79 8  252 195 
 CHI  HZ I         256 26.41        12.2 0.24            114            252 195 
 ROSC BE ES        256 23.69                             115    0.38 8  256 211 
 GUY2CHE ES        256 33.91                             111    0.79 7  304 234 
 TOL  SE ES        256 41.25                             108   -0.27 6  347 224 
 PRA  HE ES        256 51.10                             105    0.10 6  395 210 
 PRA  HZ I         256 54.37        20.3 0.22            104            395 210 
 ORTC HE ES        256 52.16                             105    0.46 6  399 216 
 ORTC HZ I         256 56.97        16.0 0.56            104            399 216 
                                                                                
