 2017  811 0024  8.9 L   6.784 -73.092146.5  RSN 16 0.4 2.0LRSN                1
 GAP=118        0.92       3.0     3.0  4.4 -0.4015E+00  0.2203E+01  0.3705E+01E
 Epicentro: LOS SANTOS - SANTANDER                                             3
 ACTION:UPD 17-09-04 20:18 OP:rebc STATUS:               ID:20170811002408 L   I
 OLDACT:REG 17-08-11 12:13 OP:dhb  STATUS:               ID:20170811001740     3
 2017-08-11-0018-00M.COL___410                                                 6
 STAT SP IPHASW D HRMM SECON CODA AMPLIT PERI AZIMU VELO AIN AR TRES W  DIS CAZ7
 BAR2 EZ IP     C  024 28.49                             170   -0.1310 23.4 205 
 BAR2 EZ ES        024 43.47                             170   -0.5310 23.4 205 
 BAR2 EZ I         024 44.90        29.2 0.27            166           23.4 205 
 PAM  EZ IP     C  024 31.35                             152    0.2910 75.2  35 
 PAM  EE ES        024 48.57                             152    0.2210 75.2  35 
 PAM  EZ I         024 50.80         8.7 0.24            157           75.2  35 
 BRR  HZ IP     D  024 30.30                             151   -0.1810 77.2 298 
 BRR  HN ES        024 47.49                             151    0.1810 77.2 298 
 BRR  HZ I         024 50.03        10.5 0.28            149           77.2 298 
 RUS  HZ IP     C  024 32.39                             145   -0.1910 98.6 179 
 RUS  HN ES        024 51.12                             145    0.0710 98.6 179 
 RUS  HZ I         024 52.25        19.6 0.30            143           98.6 179 
 SPBC HZ EP        024 37.34                             129   -0.34 9  166 221 
 SPBC HN ES        024 59.96                             129   -0.18 9  166 221 
 SPBC HZ I         025  2.26        26.8 0.40            127            166 221 
 YPLC HZ EP        024 38.69                             128    0.36 9  172 153 
 YPLC HN ES        025  1.85                             128    0.57 9  172 153 
 YPLC HZ I         025  3.59         8.4 0.20            128            172 153 
 NOR  HZ EP        024 45.15                             118    0.07 8  239 236 
 NOR  HN ES        025 12.78                             118   -0.52 8  239 236 
 NOR  HZ I         025 17.86         8.1 0.38            118            239 236 
 CHI  HZ EP        024 46.30                             117   -0.33 8  249 197 
 CHI  HN ES        025 16.74                             117    0.68 8  249 197 
 CHI  HZ I         025 24.80         2.8 0.12            117            249 197 
 ROSC BZ EP   9    024 48.40                             117    1.17 0  254 212 
 ROSC BN ES        025 18.18                                   -0.12 8  254 212 
 ROSC BZ I         025 24.46         9.3 0.28            116            254 212 
 HEL  HZ EP        024 49.96                             114    0.23 7  277 256 
 HEL  HN ES        025 22.30                             114    0.71 7  277 256 
 HEL  HZ I         025 30.41         4.4 0.24            114            277 256 
 GUY2CHZ EP   9    024 55.29                             112    2.32 0  305 236 
 GUY2CHN ES        025 30.48                                    0.81 7  305 236 
 GUY2CHZ I         025 34.82         7.2 0.34                           305 236 
 PTGC HZ IP     C  024 51.46                             112   -0.90 7  305 160 
 PTGC HN ES        025 25.93                             112   -0.33 7  305 160 
 PTGC HZ I         025 27.07         6.4 0.32            113            305 160 
 ELA  HZ EP   9    024 57.09                             110    0.93 0  332 230 
 ELA  HN ES        025 34.61                                    0.65 7  332 230 
 ELA  HZ I         025 39.91         4.3 0.36            110            332 230 
 CBOC HZ EP        024 56.60                             110    0.18 7  339 253 
 CBOC HN ES        025 32.87                             110   -0.63 7  339 253 
 CBOC HZ I         025 42.20         1.4 0.28            110            339 253 
 PRA  HZ EP        025  2.83                             107    0.22 6  393 210 
 PRA  HN ES        025 44.56                             107    0.06 6  393 210 
 PRA  HZ I         025 50.90         3.8 0.46            107            393 210 
 ORTC HZ EP        025  3.23                             106    0.14 6  398 217 
 ORTC HN ES   1    025 46.19                             106    0.84 4  398 217 
 ORTC HZ I         025 51.51         2.7 0.43            106            398 217 
                                                                                
