 2010  111 0748  6.7 L   6.810 -73.023145.5  RSN  9 0.3 2.2LRSN                1
 GAP=135        0.72       3.0     5.8  5.3 -0.6436E+01  0.5317E+01 -0.8284E+00E
 Epicentro: CEPITA - SANTANDER                                                 3
 ACTION:UP  10-08-24 09:43 OP:vdl  STATUS:               ID:20100111074806 L   I
 2010-01-11-0744-40S.COL___097                                                 6
 STAT SP IPHASW D HRMM SECON CODA AMPLIT PERI AZIMU VELO SNR AR TRES W  DIS CAZ7
 BAR2 SZ EP        748 26.48                             168     0.010   30 216 
 BAR2 SZ ES   1    748 41.65                             168    -0.2 7   30 216 
 RUS  BZ EP   1    748 30.61                             143     0.1 7  102 184 
 RUS  BN ES   1    748 49.09                             143     0.0 7  102 184 
 RUS  BZ I         748 50.02        10.7 0.16                           102 184 
 OCA  SZ IP        748 34.74                             129    -0.3 9  161 348 
 OCA  SZ ES   1    748 57.64                             129     0.4 7  161 348 
 OCA  SZ I         749  4.96        35.2 0.46                           161 348 
 CHI  HZ EP        748 44.84                             116    -0.1 8  254 198 
 CHI  HE ES        749 14.79                             116     0.1 8  254 198 
 CHI  HZ I         749 16.51         6.9 0.39                           254 198 
 ROSC BZ EP   1    748 46.64                             116     0.9 6  261 213 
 ROSC BZ I         749 21.18         9.2 0.43                           261 213 
 HEL  HZ EP   1    748 48.78                             113     0.4 6  285 256 
 HEL  HN ES   2    749 20.65                             113    -0.3 4  285 256 
 HEL  HZ I         749 24.96         5.3 0.24                           285 256 
 RREF BZ IP        748 53.86                             110    -0.2 7  333 231 
 RREF BN ES   1    749 30.97                             110    -0.1 5  333 231 
 RREF BZ I         749 36.38         7.7 0.27                           333 231 
 SDV  BZ IP        748 55.48                             109     0.0 6  349  49 
 PRA  HZ IP        749  0.62                             106    -0.5 6  400 211 
 PRA  HZ I         749 47.28         6.0 0.76                           400 211 
                                                                                
