 2013  711 0207 14.1 L   6.805 -73.215140.1  RSN  7 0.4 2.0LRSN                1
 GAP=127        0.80       3.6     4.1  5.7 -0.1530E+01  0.6366E+01 -0.2580E+01E
 Epicentro: ZAPATOCA - SANTANDER                                               3
 ACTION:UPD 13-08-12 10:36 OP:ep   STATUS:               ID:20130711020714 L   I
 OLDACT:REG 13-07-11 07:22 OP:nd   STATUS:               ID:20130711015959     3
 2013-07-11-0159-59M.COL___266                                                 6
 STAT SP IPHASW D HRMM SECON CODA AMPLIT PERI AZIMU VELO AIN AR TRES W  DIS CAZ7
 BAR2 SZ EP        2 7 33.14                             170    0.0410 23.8 171 
 BAR2 SZ ES        2 7 47.66                             170   -0.2210 23.8 171 
 BAR2 SZ I         2 7 49.13        38.2 0.36            173           23.8 171 
 GIR2 SZ EP     D  2 7 33.35                             167    0.2410 30.4   4 
 GIR2 SZ ES   1    2 7 47.75                             167   -0.16 7 30.4   4 
 GIR2 SZ I         2 7 49.33        12.0 0.10            166           30.4   4 
 BRR  HZ IP     C  2 7 35.07                             154    0.7810 64.3 301 
 BRR  HN ES   2    2 7 50.12                             154    0.11 5 64.3 301 
 BRR  HZ I         2 7 55.44        13.5 0.58            153           64.3 301 
 PAM  SZ IP     D  2 7 36.16                             148    0.1110 82.0  44 
 PAM  SN ES        2 7 53.25                             148    0.1210 82.0  44 
 PAM  SZ I         2 7 55.49        22.0 0.48            151           82.0  44 
 RUS  HZ EP        2 7 37.17                             142   -0.2710  102 172 
 RUS  HN ES        2 7 55.45                             142   -0.1610  102 172 
 RUS  HZ I         2 7 56.56        11.9 0.24            147            102 172 
 PTB  HZ EP        2 7 39.79                             132   -0.19 9  140 258 
 PTB  HN ES        2 8  0.12                             132   -0.01 9  140 258 
 PTB  HZ I         2 8  2.59        11.9 0.36            134            140 258 
 SML  HZ EP   2    2 7 49.13                             116   -0.93 4  240 337 
 SML  HN ES   1    2 8 17.41                             116   -0.67 6  240 337 
 SML  HZ I         2 8 20.54         9.7 0.44            118            240 337 
                                                                                
