 2016  611 0939 34.4 L   6.798 -73.081156.8  RSN  8 0.3 1.8LRSN                1
 GAP=244        0.86       4.8     6.2  6.9 -0.1250E+01  0.2967E+01 -0.1910E+01E
 Epicentro: LOS SANTOS - SANTANDER                                             3
 ACTION:UPD 16-07-21 22:17 OP:rebc STATUS:               ID:20160611093934 L   I
 OLDACT:UP  16-06-11 20:25 OP:dani STATUS:               ID:20160611093745     3
 OLDACT:UP  16-06-11 20:24 OP:dani STATUS:               ID:20160611093745     3
 OLDACT:REG 16-06-11 13:36 OP:dani STATUS:               ID:20160611093745     3
 2016-06-11-0937-45M.COL___328                                                 6
 STAT SP IPHASW D HRMM SECON CODA AMPLIT PERI AZIMU VELO AIN AR TRES W  DIS CAZ7
 BAR2 EZ EP        939 55.45                             170    0.0610 25.4 206 
 BAR2 EZ I         940 12.28        12.4 0.18                          25.4 206 
 BRR  HZ EP        939 57.49                             152    0.3910 77.7 296 
 BRR  HN ES        940 14.85                             152    0.0410 77.7 296 
 BRR  HZ I         940 17.16        13.6 0.14                          77.7 296 
 RUS  HZ EP        939 59.32                             146    0.1110  100 180 
 RUS  HE ES        940 18.19                             146   -0.3810  100 180 
 RUS  HZ I         940 19.41         6.4 0.22                           100 180 
 PTB  HZ EP        940  2.16                             133   -0.73 9  155 259 
 PTB  HN ES   4    940 23.45                             133   -1.68 0  155 259 
 PTB  HZ I         940 29.14         6.7 0.12                           155 259 
 SPBC HZ EP        940  4.31                             131    0.15 9  168 221 
 SPBC HE ES        940 27.75                             131    0.36 9  168 221 
 SPBC HZ I         940 33.16        13.1 0.32                           168 221 
 NOR  HZ EP        940 11.59                             120    0.20 8  240 236 
 NOR  HE ES        940 39.99                             120   -0.25 8  240 236 
 NOR  HZ I         940 46.09         5.6 0.24                           240 236 
 CHI  HZ EP   9    940 10.84                             119   -2.07 0  250 197 
 CHI  HE ES        940 41.35                             119    0.47 8  250 197 
 CHI  HZ I         940 49.33         2.7 0.20                           250 197 
 GUY2CHZ EP   4    940 20.75                             114    1.58 0  307 236 
 GUY2CHN ES   4    940 58.81                             114    4.71 0  307 236 
 GUY2CHZ I         941  1.54         3.8 0.26                           307 236 
 CBOC HN ES   4    940 57.59                             111   -2.52 0  340 253 
                                                                                
