 2016 1211 0936  8.9 L   6.609 -73.493115.6  RSN  4 0.1 0.4LRSN                1
 GAP=117        0.37       3.0     2.9  5.5  0.5200E+01  0.1082E+02  0.8656E+01E
 Epicentro: EL CARMEN - SANTANDER                                              3
 ACTION:UPD 17-01-11 20:14 OP:rebc STATUS:               ID:20161211093608 L   I
 OLDACT:DUP 16-12-11 15:44 OP:lv   STATUS:               ID:20161211092746d    3
 2016-12-11-0928-00M.COL___364                                                 6
 STAT SP IPHASW D HRMM SECON CODA AMPLIT PERI AZIMU VELO AIN AR TRES W  DIS CAZ7
 BAR2 EZ ES        936 37.90                             162   -0.1310 34.4  93 
 BRR  HZ EP   4    936 24.43                             150   -1.75 0 60.2 336 
 BRR  HN ES        936 39.75                             150    0.1010 60.2 336 
 RUS  HE ES        936 44.87                             139    0.0810 91.2 150 
 RUS  HZ I         936 46.30         0.6 0.26            138           91.2 150 
 PTB  HZ EP        936 29.68                             134   -0.0310  107 266 
 PTB  HE ES        936 45.92                             134   -0.0210  107 266 
 LL6C HZ EP   4    936 35.67                             103   -20.4 0  347   4 
 LL6C HN ES   4    936 51.29                             103   -41.6 0  347   4 
                                                                                
