 2013  711 0148 17.2 L   6.788 -73.139137.6  RSN  5 0.3 1.7LRSN                1
 GAP=187        0.86       4.8     5.0  6.8  0.6143E+00  0.9634E+01  0.9033E+01E
 Epicentro: LOS SANTOS - SANTANDER                                             3
 ACTION:UPD 13-08-12 10:36 OP:ep   STATUS:               ID:20130711014817 L   I
 OLDACT:REG 13-07-11 07:21 OP:nd   STATUS:               ID:20130711013959     3
 2013-07-11-0139-59M.COL___266                                                 6
 STAT SP IPHASW D HRMM SECON CODA AMPLIT PERI AZIMU VELO AIN AR TRES W  DIS CAZ7
 GIR2 SZ EP        148 35.86                             166   -0.0710 32.7 349 
 GIR2 SZ ES        148 50.68                             166    0.1310 32.7 349 
 GIR2 SZ I         148 51.86        12.6 0.10            166           32.7 349 
 BRR  HZ EP        148 37.80                             151    0.2710 72.5 299 
 BRR  HN ES   1    148 53.66                             151    0.26 7 72.5 299 
 BRR  HZ I         148 59.65         7.6 0.14            150           72.5 299 
 RUS  HZ EP        148 39.82                             142   -0.2210 99.2 176 
 RUS  HN ES        148 57.82                             142   -0.0410 99.2 176 
 RUS  HZ I         148 59.59         7.0 0.32            146           99.2 176 
 PTB  HZ EP        148 43.42                             130   -0.12 9  148 259 
 PTB  HN ES        149  3.37                             130   -0.73 9  148 259 
 PTB  HZ I         149  6.92         6.2 0.18            131            148 259 
 NOR  HZ EP        148 52.50                             117    0.07 8  235 235 
 NOR  HN ES        149 20.64                             117    0.71 8  235 235 
 NOR  HZ I         149 23.51         4.4 0.16            119            235 235 
                                                                                
