 2017  411 0221 55.3 L   6.781 -73.088150.4  RSN  9 0.4 1.8LRSN                1
 GAP=145        1.10       3.9     5.2  6.1 -0.1403E+01  0.4462E+01  0.5241E+01E
 Epicentro: LOS SANTOS - SANTANDER                                             3
 ACTION:UPD 17-05-30 21:10 OP:jn   STATUS:               ID:20170411022155 L   I
 OLDACT:UP  17-04-11 15:53 OP:edw  STATUS:               ID:20170411021743     3
 OLDACT:UP  17-04-11 15:47 OP:edw  STATUS:               ID:20170411021743     3
 OLDACT:REG 17-04-11 11:51 OP:edw  STATUS:               ID:20170411021743     3
 2017-04-11-0218-00M.COL___371                                                 6
 STAT SP IPHASW D HRMM SECON CODA AMPLIT PERI AZIMU VELO AIN AR TRES W  DIS CAZ7
 BAR2 EZ EP        222 15.27                             171   -0.2510 23.3 207 
 BAR2 EZ ES        222 31.04                             171   -0.2210 23.3 207 
 PAM  EZ EP     C  222 18.00                             152    0.0910 75.2  35 
 PAM  EN ES        222 35.48                             152   -0.0510 75.2  35 
 PAM  EZ I         222 37.41        11.3 0.56            154           75.2  35 
 BRR  HZ EP        222 17.19                             151   -0.1710 77.8 298 
 BRR  HE ES        222 35.53                             151    0.9910 77.8 298 
 RUS  HZ EP        222 19.25                             145   -0.1310 98.3 180 
 RUS  HN ES        222 37.83                             145   -0.3010 98.3 180 
 RUS  HZ I         222 39.12         6.2 0.26            145           98.3 180 
 PTB  HZ EP   9    222 22.14                             132   -1.07 0  154 260 
 PTB  HN ES        222 42.96                             134   -0.92 9  154 260 
 PTB  HZ I         222 45.05         7.1 0.40            130            154 260 
 SPBC HZ EP        222 24.28                             129   -0.14 9  166 221 
 SPBC HN ES        222 46.74                             129   -0.37 9  166 221 
 SPBC HZ I         222 50.31        11.5 0.36            128            166 221 
 ZAR  HZ EP        222 28.82                             122    0.05 8  211 292 
 ZAR  HN ES        222 54.44                             122   -0.41 8  211 292 
 ZAR  HZ I         223  0.39        10.0 0.22            122            211 292 
 NOR  HN ES   4    222 57.25                             119   -2.93 0  239 236 
 CHI  HZ EP        222 33.10                             118   -0.16 8  248 197 
 CHI  HN ES        223  3.37                             118    0.52 8  248 197 
 CHI  HZ I         223  7.58         1.5 0.32            118            248 197 
 PRA  HZ EP        222 50.11                             107    0.93 6  393 211 
 PRA  HE ES        223 31.66                             107    0.49 6  393 211 
 PRA  HZ I         223 36.98         2.3 0.66            107            393 211 
 SJC  HZ EP   4    222 49.33                             106   -2.33 0  414 326 
 SJC  HN ES   4    223 29.92                             106   -5.68 0  414 326 
                                                                                
