 2017  111 0757 24.8 L   6.784 -73.079145.5  RSN 10 0.5 1.5LRSN                1
 GAP=126        0.95       3.6     4.2  5.3  0.9574E+00  0.2452E+01  0.4670E+01E
 Epicentro: LOS SANTOS - SANTANDER                                             3
 ACTION:UPD 17-05-22 15:58 OP:jn   STATUS:               ID:20170111075724 L   I
 OLDACT:UP  17-01-11 17:12 OP:and  STATUS:               ID:20170111074749d    3
 OLDACT:UP  17-01-11 17:12 OP:and  STATUS:               ID:20170111074749d    3
 OLDACT:UP  17-01-11 17:10 OP:and  STATUS:               ID:20170111074749d    3
 OLDACT:DUP 17-01-11 17:08 OP:and  STATUS:               ID:20170111074749d    3
 OLDACT:UP  17-01-11 17:05 OP:and  STATUS:               ID:20170111074747     3
 OLDACT:UP  17-01-11 17:05 OP:and  STATUS:               ID:20170111074747     3
 OLDACT:UP  17-01-11 17:04 OP:and  STATUS:               ID:20170111074747     3
 OLDACT:UP  17-01-11 17:03 OP:and  STATUS:               ID:20170111074747     3
 OLDACT:UP  17-01-11 17:02 OP:and  STATUS:               ID:20170111074747     3
 OLDACT:UP  17-01-11 17:02 OP:and  STATUS:               ID:20170111074747     3
 OLDACT:UP  17-01-11 17:02 OP:and  STATUS:               ID:20170111074747     3
 OLDACT:UP  17-01-11 17:01 OP:and  STATUS:               ID:20170111074747     3
 OLDACT:UP  17-01-11 17:01 OP:and  STATUS:               ID:20170111074747     3
 OLDACT:UP  17-01-11 17:01 OP:and  STATUS:               ID:20170111074747     3
 OLDACT:UP  17-01-11 17:01 OP:and  STATUS:               ID:20170111074747     3
 OLDACT:UP  17-01-11 17:00 OP:and  STATUS:               ID:20170111074747     3
 OLDACT:REG 17-01-11 12:54 OP:and  STATUS:               ID:20170111074747     3
 2017-01-11-0748-00M.COL___340                                                 6
 STAT SP IPHASW D HRMM SECON CODA AMPLIT PERI AZIMU VELO AIN AR TRES W  DIS CAZ7
 BAR2 EZ EP        757 44.32                             170   -0.0710 24.1 208 
 BAR2 EZ ES        757 59.42                             170   -0.2710 24.1 208 
 BAR2 EZ I         758  0.86         7.8 0.24            166           24.1 208 
 PAM  EZ EP        757 47.00                             151    0.2210 74.4  34 
 PAM  EN ES        758  4.24                             151    0.2910 74.4  34 
 PAM  EZ I         758  6.46         4.9 0.50            156           74.4  34 
 BRR  HZ EP        757 46.13                             150   -0.2010 78.6 297 
 BRR  HN ES        758  3.03                             150   -0.1110 78.6 297 
 BRR  HZ I         758  7.18         4.0 0.16            148           78.6 297 
 RUS  HZ EP        757 48.18                             144   -0.1810 98.6 180 
 RUS  HN ES        758  6.91                             144    0.1610 98.6 180 
 RUS  HZ I         758  8.17         4.5 0.28            144           98.6 180 
 PTB  HZ EP   9    757 51.32                             130   -1.04 0  155 260 
 PTB  HN ES        758 12.38                             130   -0.45 9  155 260 
 PTB  HZ I         758 19.30         2.2 0.27            129            155 260 
 ZAR  HZ EP        757 58.84                             121    0.86 8  212 292 
 ZAR  HN ES        758 23.24                             121   -0.64 8  212 292 
 ZAR  HZ I         758 28.11         2.8 0.34            121            212 292 
 CHI  HZ EP        758  2.55                             117    0.06 8  249 197 
 CHI  HN ES        758 31.96                             117    0.05 8  249 197 
 CHI  HZ I         758 38.07         1.4 0.21            117            249 197 
 ROSC BZ EP   4    758  4.84                             116    1.70 0  255 213 
 ROSC BN ES   4    758 37.39                             116    4.33 0  255 213 
 ROSC BZ I         758 41.63         3.5 0.40            116            255 213 
 PTGC HZ EP        758  7.37                             112   -0.76 7  304 160 
 PTGC HN ES   3    758 40.29                             112   -1.66 2  304 160 
 GUY2CHZ EP   3    758  7.88                             112   -1.06 2  306 236 
 GUY2CHN ES        758 44.21                             112    0.82 7  306 236 
 GUY2CHZ I         758 50.24         1.4 0.34                           306 236 
                                                                                
