 2011  811 0435 56.8 L   6.747 -73.182142.9  RSN  5 0.5 1.4LRSN                1
 GAP=179        0.87       6.4     9.9  8.5  0.8119E+01  0.1610E+02 -0.7026E+01E
 Epicentro: VILLANUEVA - SANTANDER                                             3
 ACTION:UPD 12-07-13 15:51 OP:ep   STATUS:               ID:20110811043556 L   I
 2011-08-11-0420-00M.COL___151                                                 6
 STAT SP IPHASW D HRMM SECON CODA AMPLIT PERI AZIMU VELO AIN AR TRES W  DIS CAZ7
 BAR2 SZ EP   1    436 15.89                             173   -0.09 7 17.1 180 
 BAR2 SZ ES   1    436 30.08                             173   -0.85 7 17.1 180 
 BAR2 SZ I         436 33.57         4.2 0.27                          17.1 180 
 BRR  HZ EP   1    436 17.60                             152   -0.02 7 70.8 304 
 BRR  HN ES   1    436 34.48                             152    0.62 7 70.8 304 
 BRR  HZ I         436 37.90         5.9 0.17                          70.8 304 
 RUS  HZ EP   2    436 20.62                             145    0.74 5 95.1 173 
 RUS  HE ES   1    436 38.27                             145    0.39 7 95.1 173 
 RUS  HZ I         436 40.15         1.7 0.48                          95.1 173 
 OCA  SZ EP   1    436 25.32                             128   -0.09 7  166 355 
 OCA  SZ I         436 50.96         8.0 0.95                           166 355 
 NOR  SZ EP   1    436 31.19                             119   -0.46 6  228 235 
 NOR  SN ES   2    436 58.77                             119   -0.05 4  228 235 
                                                                                
