 2010  811 0921  9.4 L   6.816 -73.013136.0  RSN  5 0.4 1.4LRSN                1
 GAP=173        1.10       5.8    10.8 11.5 -0.1268E+01 -0.5463E+02 -0.1460E+02E
 Epicentro: CEPITA - SANTANDER                                                 3
 ACTION:UP  10-09-07 10:54 OP:vdl  STATUS:               ID:20100811092109 L   I
 2010-08-11-0919-42S.COL___125                                                 6
 STAT SP IPHASW D HRMM SECON CODA AMPLIT PERI AZIMU VELO SNR AR TRES W  DIS CAZ7
 BAR2 SZ EP        921 28.23                             167     0.210   31 217 
 BAR2 SZ ES   1    921 41.73                             167    -0.8 7   31 217 
 BAR2 SZ I         921 44.25         8.3 0.26                            31 217 
 BRR  HZ EP        921 29.91                             147    -0.410   84 293 
 BRR  HE ES        921 46.86                             147     0.310   84 293 
 BRR  HZ I         921 47.89         8.4 0.10                            84 293 
 RUS  HZ EP   1    921 32.52                             141     0.2 7  102 184 
 RUS  HZ I         921 33.40         2.6 0.12                           102 184 
 RUS  HN ES   1    921 50.56                             141     0.4 7  102 184 
 GUE  SZ EP        921 33.07                             138     0.210  113   5 
 GRA  SZ EP        921 32.87                             136    -0.410  120  11 
 GRA  SZ ES   1    921 52.41                             136     0.4 7  120  11 
 GRA  SZ I         921 53.97         2.3 0.44                           120  11 
                                                                                
