 2014 1211 0229 46.7 L   6.820 -73.363118.0  RSN  9 0.6 1.5LRSN                1
 GAP=111        1.46       4.1     5.1 10.1 -0.2101E+01  0.7617E+01 -0.8626E+01E
 Epicentro: SAN VICENTE DE CHUCURI - SANTANDER                                 3
 ACTION:UPD 15-02-10 17:02 OP:nd   STATUS:               ID:20141211022946 L   I
 OLDACT:REG 14-12-11 12:47 OP:fm   STATUS:               ID:20141211022745     3
 2014-12-11-0227-45M.COL___300                                                 6
 STAT SP IPHASW D HRMM SECON CODA AMPLIT PERI AZIMU VELO AIN AR TRES W  DIS CAZ7
 BRR  HZ EP     D  230  4.62                             155    0.9110 50.0 309 
 BRR  HN ES        230 17.84                             155    0.8910 50.0 309 
 BRR  HZ I         230 19.53         7.5 0.12            153           50.0 309 
 PAM  SZ EP        230  7.51                             139    0.2510 93.1  52 
 PAM  SE ES        230 22.85                             139   -0.4210 93.1  52 
 PAM  SZ I         230 27.05         3.2 0.26            143           93.1  52 
 RUS  HZ EP        230  9.22                             135    0.7910  107 163 
 RUS  HE ES        230 24.91                             135   -0.4410  107 163 
 RUS  HZ I         230 27.71         2.8 0.22            140            107 163 
 PTB  HZ EP        230  9.45                             130    0.0710  125 256 
 PTB  HN ES        230 26.15                             130   -0.8910  125 256 
 PTB  HZ I         230 30.31         3.2 0.28            131            125 256 
 SPBC HE ES        230 31.22                             124   -0.56 9  151 211 
 SPBC HZ I         230 36.17         3.6 0.28            127            151 211 
 OCA  HZ EP        230 12.34                             123   -0.37 9  157   2 
 OCA  HE ES        230 32.45                             123   -0.52 9  157   2 
 OCA  HZ I         230 39.04         7.1 0.28            125            157   2 
 ZAR  HZ EP        230 15.42                             119    0.37 9  181 294 
 ZAR  HN ES        230 37.42                             119    0.28 9  181 294 
 ZAR  HZ I         230 46.83         3.7 0.10            120            181 294 
 SML  HZ EP        230 20.39                             112   -0.32 8  233 340 
 SML  HN ES        230 46.80                             112   -0.41 8  233 340 
 SML  HZ I         230 53.99         8.4 0.10            114            233 340 
 SJC  HZ EP   4    230 38.21                             101   -1.58 0  395 330 
 SJC  HN ES   4    231 13.63                             101   -7.54 0  395 330 
 SJC  HZ I         231 27.04         1.3 0.52            103            395 330 
                                                                                
