 2011  911 0232 56.3 L   6.794 -73.046143.3  RSN 14 0.3 2.5LRSN                1
 GAP=150        0.42       2.2     3.2  3.8 -0.1664E+01  0.4127E+01  0.1446E+01E
 Epicentro: LOS SANTOS - SANTANDER                                             3
 ACTION:UPD 12-07-13 15:56 OP:ep   STATUS:               ID:20110911023256 L   I
 2011-09-11-0230-25S.COL___168                                                 6
 STAT SP IPHASW D HRMM SECON CODA AMPLIT PERI AZIMU VELO AIN AR TRES W  DIS CAZ7
 BAR2 SZ IP        233 15.81                             169    0.0810 26.9 214 
 BAR2 SZ I         233 16.38        74.1 0.35                          26.9 214 
 BAR2 SZ ES   2    233 30.43                             169   -0.44 5 26.9 214 
 GIR2 SZ EP   1    233 15.93                             165    0.12 7 35.5 333 
 GIR2 SZ ES   2    233 31.39                             165    0.36 5 35.5 333 
 PAM  SZ EP   2    233 18.39                             152    0.47 5 71.5  32 
 PAM  SN ES   2    233 35.00                             152    0.23 5 71.5  32 
 BRR  HZ IP     C  233 17.74                             149   -0.0710 81.3 295 
 BRR  HZ I         233 18.08       129.2 0.15                          81.3 295 
 BRR  HN ES   2    233 34.78                             149    0.21 5 81.3 295 
 RUS  HZ EP   2    233 19.69                             143   -0.07 5 99.7 182 
 RUS  HN ES   2    233 37.70                             143   -0.35 5 99.7 182 
 RUS  HZ I         233 39.49        20.0 0.50                          99.7 182 
 OCA  SZ EP   1    233 24.62                             129   -0.04 7  163 349 
 OCA  SZ ES   2    233 46.15                             129   -0.62 5  163 349 
 OCA  SZ I         233 53.37        25.7 0.40                           163 349 
 ZAR  HZ EP   2    233 29.54                             120   -0.15 4  215 291 
 ZAR  HN ES   2    233 55.51                             120   -0.22 4  215 291 
 ZAR  HZ I         234  0.36        43.3 0.59                           215 291 
 NOR  SZ EP   2    233 32.41                             117   -0.43 4  243 236 
 NOR  SN ES   2    234  0.65                             117   -0.68 4  243 236 
 CHI  HZ EP   2    233 34.05                             116   -0.09 4  251 198 
 CHI  HN ES   2    234  3.94                             116    0.29 4  251 198 
 CHI  HZ I         234 10.43         6.4 0.22                           251 198 
 ROSC BZ EP   2    233 34.99                             116    0.11 4  258 213 
 ROSC BN ES   2    234  4.79                             116   -0.17 4  258 213 
 ROSC BZ I         234 13.50        20.5 0.42                           258 213 
 HEL  HZ EP   2    233 37.43                             113   -0.15 4  283 256 
 HEL  HN ES   2    234 10.36                             113    0.60 4  283 256 
 HEL  HZ I         234 15.71        15.1 0.36                           283 256 
 GUY  SZ EP   2    233 41.32                             111    0.26 3  312 236 
 GUY  SN ES   2    234 16.86                             111    0.90 3  312 236 
 GUY  SZ I         234 21.37        21.4 0.43                           312 236 
 RREF HZ EP   2    233 43.19                             110   -0.07 3  330 231 
 RREF HN ES   2    234 20.02                             110    0.13 3  330 231 
 RREF HZ I         234 27.00        12.4 0.46                           330 231 
 PRA  HZ EP   2    233 50.21                             106   -0.12 3  397 211 
 PRA  HN ES   2    234 32.17                             106   -0.29 3  397 211 
                                                                                
