 2010  611 0803 17.4 L   6.802 -73.014145.5  RSN  9 0.4 1.8LRSN                1
 GAP=171        0.89       5.4    10.2  9.1 -0.3504E+02  0.4034E+02 -0.1971E+02E
 Epicentro: CEPITA - SANTANDER                                                 3
 ACTION:UP  10-08-24 10:09 OP:vdl  STATUS:               ID:20100611080317 L   I
 2010-06-11-0801-51S.COL___117                                                 6
 STAT SP IPHASW D HRMM SECON CODA AMPLIT PERI AZIMU VELO SNR AR TRES W  DIS CAZ7
 BAR2 SZ EP        8 3 36.97                             168    -0.210   30 219 
 BAR2 SZ ES   1    8 3 52.14                             168    -0.4 7   30 219 
 GIR2 SZ EP   2    8 3 37.13                             165     0.0 5   37 327 
 RUS  HZ EP   1    8 3 40.98                             144    -0.1 7  101 184 
 RUS  HN ES   1    8 4  0.13                             144     0.5 7  101 184 
 RUS  HZ I         8 4  0.53         6.0 0.26                           101 184 
 BRI  SZ EP   1    8 3 41.61                             142     0.7 7  104  13 
 GUE  SZ EP   1    8 3 42.33                             140     0.5 7  114   5 
 GRA  SZ EP        8 3 41.77                             138    -0.510  122  11 
 GRA  SZ ES   2    8 4  1.42                             138    -0.3 5  122  11 
 OCA  SZ EP   1    8 3 45.60                             129    -0.3 7  162 348 
 OCA  SZ ES   2    8 4  8.99                             129     0.9 5  162 348 
 OCA  SZ I         8 4 12.13         7.0 0.47                           162 348 
 HEL  HZ EP   2    8 3 58.88                             113    -0.3 4  286 256 
 HEL  HZ I         8 4 35.75         4.9 0.38                           286 256 
 RREF BZ EP   1    8 4  5.19                             110     0.4 5  333 231 
 RREF BN ES        8 4 41.73                             110    -0.1 7  333 231 
 RREF BZ I         8 4 45.86         3.0 0.25                           333 231 
                                                                                
