 2017  811 0556 21.2 L   6.792 -73.099153.0  RSN  7 0.5 1.5LRSN                1
 GAP=222        0.98       4.9     6.9  6.7  0.8321E+01 -0.5504E+01  0.1028E+02E
 Epicentro: LOS SANTOS - SANTANDER                                             3
 ACTION:UPD 17-09-04 20:19 OP:rebc STATUS:               ID:20170811055621 L   I
 OLDACT:REG 17-08-11 12:43 OP:dhb  STATUS:               ID:20170811054741     3
 2017-08-11-0548-00M.COL___413                                                 6
 STAT SP IPHASW D HRMM SECON CODA AMPLIT PERI AZIMU VELO AIN AR TRES W  DIS CAZ7
 BAR2 EZ IP     C  556 41.81                             170    0.1210 23.9 203 
 BAR2 EZ ES        556 57.33                             170   -0.3610 23.9 203 
 BAR2 EZ I         556 59.61         6.4 0.26            166           23.9 203 
 BRR  HZ EP        556 43.48                             152    0.1010 76.1 297 
 BRR  HN ES        557  0.44                             152   -0.2710 76.1 297 
 BRR  HZ I         557  2.52         4.0 0.15            154           76.1 297 
 RUS  HZ IP     C  556 45.93                             145    0.3610 99.5 179 
 RUS  HN ES        557  4.79                             145    0.2010 99.5 179 
 RUS  HZ I         557  5.54         5.4 0.34            143           99.5 179 
 SPBC HZ IP     C  556 50.95                             130    0.47 9  166 221 
 SPBC HN ES        557 13.40                             130    0.06 9  166 221 
 SPBC HZ I         557 17.61         3.9 0.22            129            166 221 
 NOR  HE ES   2    557 24.52                             119   -1.71 4  238 235 
 CHI  HZ EP        556 58.77                             118   -0.57 8  249 196 
 CHI  HN ES        557 29.77                             118    0.66 8  249 196 
 CHI  HZ I         557 35.47         1.0 0.16            118            249 196 
 PTGC HZ IP     D  557  4.88                             113   -0.18 7  306 159 
 PTGC HN ES        557 38.73                             113   -0.57 7  306 159 
 PTGC HZ I         557 48.26         2.7 0.64            113            306 159 
                                                                                
