 2015 1111 0503 47.2 L   5.878 -73.655126.7  RSN 22 0.5 2.3LRSN                1
 GAP= 49        0.96       2.1     2.4  4.5 -0.1374E+01  0.1979E+01 -0.8307E+00E
 Epicentro: PUENTE NACIONAL - SANTANDER                                        3
 ACTION:UPD 15-12-28 16:10 OP:cam  STATUS:               ID:20151111050347 L   I
 OLDACT:UP  15-11-11 18:15 OP:dnl  STATUS:               ID:20151111045749     3
 OLDACT:REG 15-11-11 13:31 OP:dnl  STATUS:               ID:20151111045749     3
 2015-11-11-0457-49M.COL___319                                                 6
 STAT SP IPHASW D HRMM SECON CODA AMPLIT PERI AZIMU VELO AIN AR TRES W  DIS CAZ7
 SPBC HZ EP     C  5 4  5.41                             156    0.0210 52.6 242 
 SPBC HN ES        5 4 19.54                             156   -0.0510 52.6 242 
 SPBC HZ I         5 4 21.00        80.6 0.14            152           52.6 242 
 RUS  HZ EP     C  5 4  6.51                             152   -0.0410 63.3  89 
 RUS  HE ES        5 4 21.55                             152   -0.0910 63.3  89 
 RUS  HZ I         5 4 22.33        35.5 0.25            149           63.3  89 
 BAR2 EZ EP     D  5 4  8.62                             141    0.3210 94.7  33 
 BAR2 EZ ES        5 4 24.51                             141   -0.2610 94.7  33 
 ROSC BN ES   2    5 4 32.53                             130    0.99 5  136 213 
 ROSC BZ I         5 4 37.50        17.4 0.38            125            136 213 
 BRR  HZ EP        5 4 11.78                             130    0.25 9  136 357 
 BRR  HN ES        5 4 30.93                             130    0.41 9  136 357 
 BRR  HZ I         5 4 35.12        32.7 0.03            125            136 357 
 CHI  HZ EP        5 4 11.97                             129   -0.34 9  138 184 
 CHI  HN ES        5 4 31.16                             129   -0.74 9  138 184 
 CHI  HZ I         5 4 37.18        21.8 0.38            125            138 184 
 NOR  HZ EP        5 4 11.65                             129   -0.23 9  139 256 
 NOR  HN ES        5 4 30.78                             129   -0.36 9  139 256 
 NOR  HZ I         5 4 33.33                             124            139 256 
 PAM  EZ EP        5 4 18.20                             120    0.29 9  193  33 
 PAM  EE ES   3    5 4 43.68                             120    1.81 2  193  33 
 PAM  EZ I         5 4 50.42         8.7 0.13            115            193  33 
 VIL  SZ EP        5 4 17.40                             119   -0.30 9  195 181 
 VIL  SE ES        5 4 42.38                             119    0.88 9  195 181 
 GUY2CHZ EP        5 4 19.42                             118    0.48 9  203 249 
 GUY2CHN ES        5 4 43.82                             118    0.11 9  203 249 
 GUY2CHZ I         5 4 49.71        16.0 0.36                           203 249 
 HEL  HZ EP        5 4 19.98                             117    0.36 8  210 280 
 HEL  HN ES        5 4 44.58                             117   -0.33 8  210 280 
 HEL  HZ I         5 4 53.06        13.1 0.26            113            210 280 
 TAM  HZ EP        5 4 19.83                             116    0.10 8  215  73 
 TAM  HN ES   4    5 4 43.18                             116   -1.93 0  215  73 
 TAM  HZ I         5 4 45.93        18.8 0.14            112            215  73 
 ZAR  HZ EP        5 4 20.87                             115    0.38 8  223 323 
 ZAR  HN ES   4    5 4 44.55                             115   -1.92 0  223 323 
 ZAR  HZ I         5 4 53.37        29.0 0.28            111            223 323 
 ELA  HZ EP   2    5 4 20.85                             115   -0.45 4  224 240 
 ELA  HN ES        5 4 48.03                             115    0.13 8  224 240 
 ELA  HZ I         5 4 54.01         6.1 0.63            111            224 240 
 ANIL HN ES        5 4 52.42                             113    0.43 8  247 232 
 ANIL HZ I         5 5  3.11        30.2 0.38            109            247 232 
 PTGC HZ EP        5 4 22.86                             112   -0.77 8  251 138 
 PTGC HN ES   4    5 4 50.27                             112   -1.79 0  251 138 
 PTGC HZ I         5 5  0.12        13.8 0.32            109            251 138 
 CBOC HZ EP        5 4 25.66                             111    0.65 8  261 270 
 CBOC HN ES        5 4 54.30                             111   -0.21 8  261 270 
 CBOC HZ I         5 5  7.59         4.8 0.31            107            261 270 
 OCA  HZ EP   2    5 4 26.13                             111    0.85 4  264   8 
 OCA  HN ES   4    5 4 56.17                             111    1.19 0  264   8 
 OCA  HZ I         5 5  2.70        39.1 0.22            107            264   8 
 ORTC HZ EP        5 4 26.69                             110   -0.34 7  280 219 
 ORTC HN ES        5 4 58.25                             110    0.14 7  280 219 
 ORTC HZ I         5 5  0.60        13.8 0.38            106            280 219 
 URE  HZ EP   4    5 4 27.20                             109   -1.29 0  293 315 
 URE  HN ES   4    5 4 58.48                             109   -2.23 0  293 315 
 URE  HZ I         5 5  1.49        16.9 0.26            105            293 315 
 SML  HZ EP        5 4 31.75                             106   -0.58 7  326 352 
 SML  HN ES        5 5  7.05                             106   -0.49 7  326 352 
 SML  HZ I         5 5  9.68        28.9 0.08            103            326 352 
 MON  HZ EP   4 D  5 4 38.19                             103   -1.63 0  390 325 
 MON  HN ES     D  5 5 19.94                             103   -0.94 6  390 325 
 MON  HZ I         5 5 21.16         4.2 0.60            100            390 325 
                                                                                
