 2013  311 0417  4.0 L   6.801 -73.154144.6  RSN  6 0.4 1.4LRSN                1
 GAP=135        0.80       4.4     6.1  8.8 -0.3193E+01  0.8972E+01  0.3276E+01E
 Epicentro: LOS SANTOS - SANTANDER                                             3
 ACTION:UPD 13-04-09 14:01 OP:ep   STATUS:               ID:20130311041704 L   I
 2013-03-11-0410-00M.COL___231                                                 6
 STAT SP IPHASW D HRMM SECON CODA AMPLIT PERI AZIMU VELO AIN AR TRES W  DIS CAZ7
 BAR2 SZ ES   2    417 38.18                             170   -0.52 5 23.3 188 
 BAR2 SZ I         417 39.68         8.1 0.28            171           23.3 188 
 BRR  HZ EP   1    417 25.34                             152    0.36 7 70.3 299 
 BRR  HN ES   1    417 42.16                             152    0.82 7 70.3 299 
 BRR  HZ I         417 43.82         5.0 0.14            152           70.3 299 
 PAM  SZ EP   1    417 26.34                             151    0.22 7 77.9  40 
 PAM  SN ES        417 43.21                             151   -0.1710 77.9  40 
 PAM  SZ I         417 45.36         6.6 0.42            153           77.9  40 
 RUS  HZ EP   1    417 27.67                             144    0.02 7  101 176 
 RUS  HE ES   1    417 46.07                             144   -0.03 7  101 176 
 RUS  HZ I         417 47.11         1.9 0.24            146            101 176 
 PTB  HZ EP   2    417 30.36                             132   -0.43 5  147 259 
 PTB  HN ES   2    417 50.89                             132   -0.80 5  147 259 
 PTB  HZ I         417 53.98         3.2 0.13            133            147 259 
 OCA  HN ES   1    417 53.75                             129   -0.45 7  160 353 
                                                                                
