 2011 1111 0715  0.2 L   6.750 -73.152145.3  RSN  5 0.3 1.5LRSN                1
 GAP=138        0.70       4.6     5.6  7.7 -0.2773E+00  0.2149E+02 -0.3069E+01E
 Epicentro: LOS SANTOS - SANTANDER                                             3
 ACTION:UPD 12-07-13 16:09 OP:ep   STATUS:               ID:20111111071500 L   I
 2011-11-11-0713-02S.COL___178                                                 6
 STAT SP IPHASW D HRMM SECON CODA AMPLIT PERI AZIMU VELO AIN AR TRES W  DIS CAZ7
 BAR2 SZ EP   1    715 19.92                             173    0.22 7 17.7 191 
 BAR2 SZ I         715 20.86         6.3 0.18                          17.7 191 
 BAR2 SZ ES   1    715 34.95                             173    0.06 7 17.7 191 
 BRR  HZ EP   1    715 22.28                             152    0.83 7 73.4 303 
 BRR  HZ I         715 42.02        11.1 0.16                          73.4 303 
 PAM  SZ EP   1    715 22.57                             149   -0.12 7 82.2  37 
 PAM  SN ES        715 40.06                             149   -0.1510 82.2  37 
 RUS  HZ EP   1    715 23.45                             145   -0.09 7 95.1 175 
 RUS  HZ I         715 24.88         2.5 0.21                          95.1 175 
 RUS  HN ES   1    715 41.57                             145   -0.16 7 95.1 175 
 ZAR  HZ EP   1    715 32.27                             122   -0.53 6  206 294 
 ZAR  HN ES   1    715 58.08                             122   -0.12 6  206 294 
 ZAR  HZ I         716  4.96         4.2 0.15                           206 294 
                                                                                
