 2017  811 0158 43.0 L   6.781 -73.119138.9  RSN 14 0.5 1.8LRSN                1
 GAP=115        1.14       3.5     3.8  6.1  0.1017E+01  0.7341E+01  0.2609E+01E
 Epicentro: LOS SANTOS - SANTANDER                                             3
 ACTION:UPD 17-09-04 20:18 OP:rebc STATUS:               ID:20170811015843 L   I
 OLDACT:UP  17-08-11 15:12 OP:dhb  STATUS:               ID:20170811015741     3
 OLDACT:UP  17-08-11 15:08 OP:dhb  STATUS:               ID:20170811015741     3
 OLDACT:REG 17-08-11 12:22 OP:dhb  STATUS:               ID:20170811015741     3
 2017-08-11-0158-00M.COL___413                                                 6
 STAT SP IPHASW D HRMM SECON CODA AMPLIT PERI AZIMU VELO AIN AR TRES W  DIS CAZ7
 BAR2 EZ IP     C  159  1.51                             171   -0.3110 22.0 199 
 BAR2 EZ ES        159 16.54                             171    0.0710 22.0 199 
 BAR2 EZ I         159 17.44        33.9 0.32            169           22.0 199 
 BRR  HZ IP     C  159  3.05                             150   -0.6210 74.9 299 
 BRR  HN ES        159 20.30                             150    0.5310 74.9 299 
 BRR  HZ I         159 24.13        11.8 0.24            147           74.9 299 
 PAM  HZ IP     D  159  4.33                             150   -0.1910 77.2  37 
 PAM  EN ES        159 21.27                             150   -0.0110 77.2  37 
 PAM  HZ I         159 23.79        12.5 0.52            151           77.2  37 
 RUS  HZ EP        159  5.52                             143   -0.4310 98.3 178 
 RUS  HN ES        159 23.94                             143    0.1110 98.3 178 
 RUS  HZ I         159 24.97        13.7 0.24            142           98.3 178 
 SPBC HZ EP        159 11.09                             127    0.04 9  163 220 
 SPBC HN ES        159 32.36                             127   -0.53 9  163 220 
 SPBC HZ I         159 33.52        10.6 0.07            126            163 220 
 YPLC HZ IP     D  159 11.73                             126   -0.28 9  173 152 
 YPLC HN ES        159 35.53                             126    0.91 9  173 152 
 YPLC HZ I         159 38.46         5.5 0.34            125            173 152 
 ZAR  HZ EP        159 15.79                             120    0.37 8  208 292 
 ZAR  HN ES   2    159 39.07                             120   -1.62 4  208 292 
 ZAR  HZ I         159 46.12         9.3 0.06            119            208 292 
 NOR  HN ES        159 46.35                             117    0.17 8  236 235 
 NOR  HZ I         159 53.27         5.5 0.16            115            236 235 
 CHI  HZ EP        159 19.60                             116   -0.63 8  247 196 
 CHI  HN ES        159 49.39                             116    0.16 8  247 196 
 CHI  HZ I         159 52.19         1.7 0.31            115            247 196 
 HEL  HZ EP   1    159 23.53                             113    0.35 6  274 256 
 HEL  HN ES        159 54.90                             113    0.41 8  274 256 
 HEL  HZ I         2 0  0.93         3.3 0.47            112            274 256 
 URE  HZ EP        159 25.53                             112    1.34 7  287 292 
 URE  HN ES   1    159 56.36                             112    0.07 5  287 292 
 URE  HZ I         2 0  8.24         5.0 0.24            111            287 292 
 GUY2CHZ EP   9    159 28.91                             111    2.43 0  302 235 
 GUY2CHN ES        2 0  2.22                                   -0.57 7  302 235 
 GUY2CHZ I         2 0  6.00         2.0 0.54                           302 235 
 PTGC HZ IP   9    159 24.54                             111   -1.70 0  306 159 
 PTGC HN ES        159 58.43                                    0.19 7  306 159 
 PTGC HZ I         2 0 10.73         6.1 0.58            110            306 159 
 CBOC HN ES        2 0  6.22                             109   -0.29 7  336 253 
 CBOC HZ I         2 0 13.58         0.8 0.19            107            336 253 
                                                                                
