 2016  911 0817 29.5 L   6.804 -73.117148.7  RSN  8 0.3 1.7LRSN                1
 GAP=186        0.76       2.7     4.2  5.4  0.2110E+01  0.3013E+01  0.1992E+01E
 Epicentro: LOS SANTOS - SANTANDER                                             3
 ACTION:UPD 17-08-17 21:08 OP:lp   STATUS:               ID:20160911081729 L   I
 OLDACT:UP  16-09-11 16:34 OP:dani STATUS:               ID:20160911080733     3
 OLDACT:REG 16-09-11 12:54 OP:dani STATUS:               ID:20160911080733     3
 2016-09-11-0808-00M.COL___339                                                 6
 STAT SP IPHASW D HRMM SECON CODA AMPLIT PERI AZIMU VELO AIN AR TRES W  DIS CAZ7
 BAR2 EZ EP        817 49.59                             170    0.1310 24.5 197 
 BAR2 EZ ES        818  4.56                             170   -0.5010 24.5 197 
 BAR2 EZ I         818  5.93        17.0 0.18            169           24.5 197 
 BRR  HZ EP        817 51.35                             152    0.2810 73.8 297 
 BRR  HZ I         818  8.09         3.4 0.66            148           73.8 297 
 BRR  HE ES        818  8.62                             152    0.6910 73.8 297 
 RUS  HZ EP        817 53.58                             144    0.0710  101 178 
 RUS  HE ES        818 12.35                             144    0.0710  101 178 
 RUS  HZ I         818 13.49         5.8 0.33            141            101 178 
 PTB  HZ EP        817 56.72                             132   -0.23 9  151 259 
 PTB  HE ES        818 18.29                             132   -0.11 9  151 259 
 PTB  HZ I         818 21.61         4.4 0.17            128            151 259 
 OCA  HE ES        818 19.96                             130   -0.30 9  160 352 
 SPBC HZ EP        817 58.46                             129    0.06 9  166 220 
 SPBC HE ES        818 20.99                             129    0.01 9  166 220 
 SPBC HZ I         818 26.43         9.4 0.07            125            166 220 
 ZAR  HN ES        818 27.79                             123   -0.27 8  207 292 
 CHI  HZ EP   2    818  7.69                             118    0.24 4  250 196 
 CHI  HN ES        818 36.95                             118   -0.14 8  250 196 
 CHI  HZ I         818 44.04         3.2 0.46            114            250 196 
                                                                                
