 2010  511 0013 55.2 L   6.817 -73.076131.1  RSN  6 0.5 1.5LRSN                1
 GAP=163        1.11       6.4    13.6 18.2 -0.9985E+01 -0.8162E+02 -0.2562E+02E
 Epicentro: LOS SANTOS - SANTANDER                                             3
 ACTION:UP  10-08-24 10:04 OP:vdl  STATUS:               ID:20100511001355 L   I
 2010-05-11-0009-50S.COL___104                                                 6
 STAT SP IPHASW D HRMM SECON CODA AMPLIT PERI AZIMU VELO AIN AR TRES W  DIS CAZ7
 BRR  HZ EP        014 15.88                             147     0.710   77 295 
 BRR  HN ES   2    014 29.84                             147    -0.9 5   77 295 
 RUS  HZ EP        014 17.26                             140    -0.410  102 180 
 RUS  HN ES   2    014 35.61                             140     0.4 5  102 180 
 RUS  HZ I         014 37.05         3.4 0.37                           102 180 
 BRI  SZ EP        014 17.37                             139     0.010  104  17 
 GUE  SZ EP        014 18.44                             137     0.110  113   8 
 GRA  SZ EP        014 18.97                             135     0.210  122  14 
 GRA  SZ ES   2    014 37.02                             135    -0.2 5  122  14 
 OCA  SZ EP        014 21.73                             126    -0.6 9  159 350 
 OCA  SZ I         014 52.08         6.0 0.53                           159 350 
                                                                                
