 2011 1211 0129 36.9 L   6.772 -73.157143.3  RSN  8 0.4 1.7LRSN                1
 GAP=136        0.81       4.2     5.0  7.3 -0.6289E+01  0.7228E+01 -0.4034E+01E
 Epicentro: LOS SANTOS - SANTANDER                                             3
 ACTION:UPD 12-07-13 16:15 OP:ep   STATUS:               ID:20111211012936 L   I
 2011-12-11-0127-42S.COL___155                                                 6
 STAT SP IPHASW D HRMM SECON CODA AMPLIT PERI AZIMU VELO AIN AR TRES W  DIS CAZ7
 BAR2 SZ EP        129 56.18                             172    0.0410 20.1 188 
 BAR2 SZ ES   1    130 10.96                             172   -0.21 7 20.1 188 
 BAR2 SZ I         130 14.06        10.2 0.51                          20.1 188 
 GIR2 SZ EP   1    129 56.33                             166    0.00 7 34.2 353 
 BRR  HZ EP   1    129 58.21                             152    0.43 7 71.7 301 
 BRR  HN ES   1    130 15.05                             152    0.96 7 71.7 301 
 BRR  HZ I         130 16.35        15.2 0.14                          71.7 301 
 PAM  SZ EP   1    129 59.11                             149    0.09 7 80.6  39 
 PAM  SN ES   1    130 15.75                             149   -0.54 7 80.6  39 
 RUS  HZ EP   2    130  0.21                             144    0.05 5 97.6 175 
 RUS  HE ES   1    130 18.53                             144    0.20 7 97.6 175 
 RUS  HZ I         130 20.13         3.8 0.25                          97.6 175 
 PTB  HZ EP   1    130  3.30                             132   -0.18 7  146 260 
 PTB  HN ES   1    130 23.44                             132   -0.79 7  146 260 
 OCA  SZ EP   1    130  5.39                             128    0.12 7  163 354 
 OCA  SZ ES   1    130 27.18                             128   -0.25 7  163 354 
 OCA  SZ I         130 28.33         8.6 0.30                           163 354 
 NOR  SN ES   1    130 39.61                             118   -0.07 6  232 235 
                                                                                
