 2015 1211 0301 18.6 L   6.814 -73.141142.0  RSN 14 0.5 2.0LRSN                1
 GAP=136        0.92       3.4     4.0  5.0 -0.3566E+01  0.5159E+01  0.8844E+00E
 Epicentro: LOS SANTOS - SANTANDER                                             3
 ACTION:UPD 16-02-04 15:04 OP:cam  STATUS:               ID:20151211030118 L   I
 OLDACT:UP  15-12-11 17:07 OP:ar   STATUS:               ID:20151211025748     3
 OLDACT:REG 15-12-11 11:38 OP:ar   STATUS:               ID:20151211025748     3
 2015-12-11-0257-48M.COL___328                                                 6
 STAT SP IPHASW D HRMM SECON CODA AMPLIT PERI AZIMU VELO AIN AR TRES W  DIS CAZ7
 BAR2 EZ EP     C  3 1 37.85                             170    0.0410 24.9 191 
 BAR2 EZ ES        3 1 52.43                             170   -0.3610 24.9 191 
 BAR2 EZ I         3 1 54.02        21.5 0.18            169           24.9 191 
 BRR  HZ EP     C  3 1 39.63                             152    0.3110 71.0 297 
 BRR  HN ES        3 1 56.15                             152    0.6610 71.0 297 
 BRR  HZ I         3 2  0.50        17.9 0.14            150           71.0 297 
 PAM  EZ EP        3 1 40.80                             151    0.4810 75.8  40 
 PAM  EN ES        3 1 57.47                             151    0.2110 75.8  40 
 PAM  EZ I         3 1 59.88        22.7 0.30            155           75.8  40 
 RUS  HZ EP   2    3 1 42.45                             143    0.36 5  102 176 
 RUS  HE ES   2    3 1 59.68                             143   -0.73 5  102 176 
 RUS  HZ I         3 2  1.69         7.2 0.32            145            102 176 
 PTB  HZ EP        3 1 44.58                             131   -0.75 9  149 258 
 PTB  HN ES        3 2  6.03                             131   -0.16 9  149 258 
 PTB  HZ I         3 2  6.45         6.4 0.54            131            149 258 
 OCA  HZ EP        3 1 46.20                             129   -0.27 9  159 353 
 OCA  HN ES        3 2  7.57                             129   -0.65 9  159 353 
 OCA  HZ I         3 2  8.77        21.8 0.34            131            159 353 
 SPBC HZ EP   2    3 1 47.02                             128    0.07 5  165 219 
 SPBC HN ES   2    3 2  8.53                             128   -0.55 5  165 219 
 SPBC HZ I         3 2 12.34        13.2 0.24            129            165 219 
 ZAR  HZ EP   4    3 1 52.44                             122    1.65 0  204 292 
 ZAR  HN ES        3 2 16.45                             122    0.55 9  204 292 
 ZAR  HZ I         3 2 22.71        18.6 0.22            122            204 292 
 NOR  HZ EP   2    3 1 54.23                             118   -0.02 4  236 234 
 NOR  HE ES   2    3 2 22.26                             118    0.19 4  236 234 
 NOR  HZ I         3 2 27.51         7.5 0.22            118            236 234 
 SML  HZ EP        3 1 54.54                             117   -0.34 8  243 335 
 SML  HE ES   2    3 2 22.47                             117   -0.72 4  243 335 
 SML  HZ I         3 2 27.13        11.8 0.10            118            243 335 
 HEL  HZ EP        3 1 58.88                             114    0.16 8  273 256 
 HEL  HN ES   2    3 2 29.67                             114   -0.35 4  273 256 
 HEL  HZ I         3 2 36.28         5.6 0.50            115            273 256 
 URE  HZ EP   4    3 2  1.86                             113    2.38 0  284 292 
 URE  HE ES   4    3 2 29.79                             113   -1.58 0  284 292 
 URE  HZ I         3 2 31.33        10.7 0.12            114            284 292 
 SOCV BZ EP   4    3 1 59.78                             112   -1.54 0  300  57 
 SOCV BE ES   4    3 2 31.61                             112   -3.04 0  300  57 
 GUY2CHZ EP        3 2  2.55                             111    0.37 7  303 235 
 GUY2CHE ES   2    3 2 36.33                             111    0.15 4  303 235 
 GUY2CHZ I         3 2 40.05         7.1 0.92                           303 235 
 PRA  HZ EP        3 2 12.71                             106    0.54 6  394 210 
 PRA  HN ES   2    3 2 52.87                             106   -1.10 3  394 210 
 PRA  HZ I         3 2 56.88         2.9 0.24            107            394 210 
                                                                                
