 2012  111 0649 17.7 L   6.790 -73.139147.9  RSN  8 0.3 1.5LRSN                1
 GAP=138        0.61       3.7     4.6  5.9  0.4490E+00 -0.1260E+01  0.4818E+01E
 Epicentro: LOS SANTOS - SANTANDER                                             3
 ACTION:UP  12-02-03 08:16 OP:REBC STATUS:               ID:20120111064917 L   I
 2012-01-11-0647-59S.COL___186                                                 6
 STAT SP IPHASW D HRMM SECON CODA AMPLIT PERI AZIMU VELO SNR AR TRES W  DIS CAZ7
 BAR2 SZ EP   1    649 37.34                             171    -0.2 7   22 192 
 BAR2 SZ ES   2    649 52.43                             171    -0.6 5   22 192 
 BAR2 SZ I         649 54.90         7.8 0.27                            22 192 
 GIR2 SZ EP   1    649 37.39                             167    -0.2 7   32 349 
 GIR2 SZ ES   2    649 53.02                             167    -0.2 5   32 349 
 BRR  HZ EP   1    649 39.15                             153     0.0 7   72 299 
 BRR  HE ES   1    649 56.41                             153     0.6 7   72 299 
 BRR  HZ I         649 58.64         5.2 0.51                            72 299 
 PAM  SZ EP        649 40.21                             151     0.110   78  39 
 RUS  HZ EP   1    649 41.81                             145     0.3 7   99 176 
 RUS  HN ES   2    650  0.17                             145     0.0 5   99 176 
 RUS  HZ I         650  1.37         4.0 0.41                            99 176 
 PTB  HZ EP   1    649 44.38                             132    -0.5 7  148 259 
 PTB  HE ES   2    650  5.93                             132    -0.1 5  148 259 
 ZAR  HZ EP   2    649 50.50                             123     0.1 4  205 292 
 ZAR  HE ES   2    650 15.62                             123    -0.2 4  205 292 
 ZAR  HZ I         650 21.24         2.8 0.38                           205 292 
 CHI  HZ EP   1    649 55.65                             118     0.3 6  248 195 
 CHI  HZ I         649 57.96         1.7 0.44                           248 195 
 CHI  HE ES   1    650 24.88                             118     0.1 6  248 195 
                                                                                
