 2013  511 0828 55.7 L   6.734 -73.131151.4  RSN  5 0.5 1.3LRSN                1
 GAP=141        1.04       7.3     6.9  9.2 -0.7230E+01  0.8508E+01 -0.2375E+01E
 Epicentro: JORDAN - SANTANDER                                                 3
 ACTION:UPD 13-06-20 09:49 OP:ep   STATUS:               ID:20130511082855 L   I
 2013-05-11-0820-00M.COL___256                                                 6
 STAT SP IPHASW D HRMM SECON CODA AMPLIT PERI AZIMU VELO AIN AR TRES W  DIS CAZ7
 BAR2 SZ EP        829 16.06                             174    0.1710 16.6 200 
 BAR2 SZ ES   1    829 30.99                             174   -0.66 7 16.6 200 
 BAR2 SZ I         829 35.55         4.3 0.38            172           16.6 200 
 BRR  HZ EP        829 18.02                             152    0.2710 76.4 303 
 BRR  HN ES   1    829 35.91                             152    0.96 7 76.4 303 
 BRR  HZ I         829 38.26         4.5 0.18            152           76.4 303 
 PAM  SZ EP        829 18.85                             150    0.0510 82.2  35 
 PAM  SN ES   1    829 36.33                             150   -0.49 7 82.2  35 
 PAM  SZ I         829 38.23         5.7 0.58            156           82.2  35 
 RUS  HZ EP   1    829 19.82                             147    0.32 7 93.1 177 
 RUS  HN ES   1    829 38.33                             147    0.27 7 93.1 177 
 RUS  HZ I         829 39.89         2.1 0.40            150           93.1 177 
 PTB  HZ EP        829 22.55                             133   -0.61 9  148 262 
 PTB  HN ES   1    829 44.20                             133   -0.39 7  148 262 
 PTB  HZ I         829 49.88         2.5 0.30            135            148 262 
                                                                                
