 2015  411 0450 33.6 L   6.405 -73.244 19.2  RSN  4 0.3 1.2LRSN                1
 GAP=132        0.83       2.0     5.2  5.8  0.6274E+00  0.2518E+02  0.1629E+01E
 Epicentro: CONFINES - SANTANDER                                               3
 ACTION:UPD 15-06-03 16:54 OP:cam  STATUS:               ID:20150411045033 L   I
 OLDACT:REG 15-04-11 14:05 OP:carl STATUS:               ID:20150411044748     3
 2015-04-11-0447-48M.COL___263                                                 6
 STAT SP IPHASW D HRMM SECON CODA AMPLIT PERI AZIMU VELO AIN AR TRES W  DIS CAZ7
 BAR2 EZ EP        450 38.70                             130    0.1010 21.8  18 
 BAR2 EZ ES        450 42.43                             130   -0.0810 21.8  18 
 BAR2 EZ I         450 43.53        40.7 0.44            125           21.8  18 
 RUS  HZ EP        450 44.55                             106    0.5410 59.4 163 
 RUS  HZ I         450 51.69         4.2 0.24            101           59.4 163 
 RUS  HN ES        450 51.71                             106   -0.4410 59.4 163 
 PAM  SN ES        451  7.94                              98   -0.1210  120  30 
 PAM  SZ I         451  8.69         9.5 0.16             96            120  30 
 PTB  HZ EP        450 54.69                              56    0.2810  135 276 
 PTB  HN ES        451 10.38                              56   -0.2910  135 276 
                                                                                
