 2012  111 0057 23.1 L   6.771 -73.119143.6  RSN  7 0.3 1.6LRSN                1
 GAP=141        0.59       3.9     4.2  5.7  0.1095E+01  0.4450E+01  0.3459E+01E
 Epicentro: LOS SANTOS - SANTANDER                                             3
 ACTION:UP  12-02-03 08:16 OP:REBC STATUS:               ID:20120111005723 L   I
 2012-01-11-0050-00M.COL___186                                                 6
 STAT SP IPHASW D HRMM SECON CODA AMPLIT PERI AZIMU VELO SNR AR TRES W  DIS CAZ7
 BAR2 SZ EP   1    057 42.48                             171     0.0 7   21 199 
 GIR2 SZ EP   1    057 42.56                             166    -0.1 7   35 346 
 GIR2 SZ ES   1    057 57.62                             166    -0.2 7   35 346 
 BRR  HZ EP        057 44.30                             151     0.010   75 300 
 BRR  HE ES   1    058  1.22                             151     0.5 7   75 300 
 BRR  HZ I         058  5.67        13.9 0.17                            75 300 
 PAM  SZ EP   1    057 45.48                             150     0.3 7   78  36 
 PAM  SN ES   1    058  1.96                             150    -0.4 7   78  36 
 RUS  HZ EP   1    057 46.44                             144     0.0 7   97 178 
 RUS  HZ I         057 47.29         2.7 0.14                            97 178 
 RUS  HN ES   1    058  4.69                             144     0.1 7   97 178 
 PTB  HZ EP   2    057 49.59                             131    -0.5 5  150 260 
 PTB  HN ES   2    058 10.64                             131    -0.5 5  150 260 
 ZAR  HZ EP   2    057 55.55                             121    -0.3 4  208 293 
 ZAR  HN ES   2    058 21.65                             121     0.3 4  208 293 
 ZAR  HZ I         058 26.34         5.6 0.33                           208 293 
                                                                                
