 2012 1011 0350 11.6 L   6.809 -72.986140.2  RSN  4 0.1 1.2LRSN                1
 GAP=224        0.37       4.3     8.2  5.0  0.2436E+02 -0.6887E+01  0.1429E+01E
 Epicentro: CEPITA - SANTANDER                                                 3
 ACTION:UPD 12-11-22 17:03 OP:ep   STATUS:               ID:20121011035011 L   I
 2012-10-11-0350-00M.COL___229                                                 6
 STAT SP IPHASW D HRMM SECON CODA AMPLIT PERI AZIMU VELO AIN AR TRES W  DIS CAZ7
 BAR2 SZ EP   1    350 30.97                             166    0.16 7 32.4 222 
 BAR2 SZ I         350 47.50         4.0 0.18                          32.4 222 
 GIR2 SZ ES   1    350 45.75                             164   -0.05 7 37.6 322 
 BRR  HZ EP   1    350 33.23                             146    0.08 7 86.7 292 
 BRR  HZ I         350 33.41         2.1 0.11                          86.7 292 
 BRR  HN ES   1    350 49.88                             146   -0.05 7 86.7 292 
 RUS  HZ EP   1    350 34.71                             142   -0.22 7  102 186 
 RUS  HN ES   1    350 53.19                             142    0.08 7  102 186 
 RUS  HN I         350 54.71         2.8 0.28                           102 186 
                                                                                
