 2015  911 0403 30.7 L   6.791 -73.129136.3  RSN 10 0.5 2.0LRSN                1
 GAP=185        1.13       3.6     4.8  6.4 -0.1724E+01  0.8813E+01 -0.2515E+00E
 Epicentro: LOS SANTOS - SANTANDER                                             3
 ACTION:UPD 15-10-28 16:25 OP:cam  STATUS:               ID:20150911040330 L   I
 OLDACT:REG 15-09-11 12:44 OP:drio STATUS:               ID:20150911035749     3
 2015-09-11-0357-49M.COL___350                                                 6
 STAT SP IPHASW D HRMM SECON CODA AMPLIT PERI AZIMU VELO AIN AR TRES W  DIS CAZ7
 BAR2 EZ EP        4 3 49.23                             170    0.0810 22.7 195 
 BAR2 EZ ES        4 4  3.34                             170   -0.2310 22.7 195 
 BAR2 EZ I         4 4  5.23        30.8 0.20            169           22.7 195 
 BRR  HZ EP        4 3 51.16                             150    0.2310 73.3 299 
 BRR  HE ES        4 4  7.21                             150    0.4710 73.3 299 
 BRR  HZ I         4 4  8.68        18.3 0.10            147           73.3 299 
 RUS  HZ EP        4 3 53.17                             142   -0.2510 99.4 177 
 RUS  HN ES        4 4 11.99                             142    0.8310 99.4 177 
 RUS  HZ I         4 4 12.60        11.9 0.20            145           99.4 177 
 PTB  HZ EP   4    4 3 55.89                             129   -1.14 0  149 259 
 PTB  HE ES        4 4 16.80                             129   -0.80 9  149 259 
 PTB  HZ I         4 4 20.20        10.6 0.16            129            149 259 
 OCA  HZ EP        4 3 58.11                             127   -0.27 9  162 353 
 OCA  HN ES        4 4 19.62                             127   -0.38 9  162 353 
 OCA  HZ I         4 4 23.59        19.3 0.22            128            162 353 
 SPBC HZ EP        4 3 58.09                             127   -0.40 9  164 220 
 SPBC HE ES        4 4 19.61                             127   -0.59 9  164 220 
 SPBC HZ I         4 4 23.75        14.1 0.10            127            164 220 
 ZAR  HZ EP        4 4  3.38                             120    0.65 8  206 292 
 ZAR  HN ES        4 4 27.93                             120    0.18 8  206 292 
 ZAR  HZ I         4 4 36.10        10.7 0.26            120            206 292 
 NOR  HZ EP        4 4  5.37                             116   -0.59 8  236 235 
 NOR  HE ES        4 4 33.19                             116   -0.31 8  236 235 
 NOR  HZ I         4 4 37.45         9.6 0.22            117            236 235 
 HEL  HZ EP        4 4 11.08                             113    0.49 8  274 256 
 HEL  HN ES        4 4 42.27                             113    0.54 8  274 256 
 HEL  HZ I         4 4 48.84         5.1 0.22            113            274 256 
 URE  HZ EP   4    4 4 10.20                             111   -1.33 0  286 292 
 GUY2CHZ EP        4 4 14.34                             110    0.38 7  302 235 
 GUY2CHE ES        4 4 47.97                             110    0.24 7  302 235 
 GUY2CHZ I         4 4 55.81         6.2 0.48                           302 235 
                                                                                
