 2017  411 0155 31.7 L   6.790 -73.040143.2  RSN  4 0.2 1.2LRSN                1
 GAP=151        0.54       4.2     8.9  5.6 -0.2502E+02 -0.2709E+02  0.8560E+01E
 Epicentro: LOS SANTOS - SANTANDER                                             3
 ACTION:UPD 17-05-30 21:10 OP:jn   STATUS:               ID:20170411015531 L   I
 OLDACT:DUP 17-04-11 15:24 OP:edw  STATUS:               ID:20170411014744d    3
 OLDACT:UP  17-04-11 15:23 OP:edw  STATUS:               ID:20170411014743     3
 OLDACT:REG 17-04-11 11:49 OP:edw  STATUS:               ID:20170411014743     3
 2017-04-11-0148-00M.COL___370                                                 6
 STAT SP IPHASW D HRMM SECON CODA AMPLIT PERI AZIMU VELO AIN AR TRES W  DIS CAZ7
 BAR2 EZ ES        156  5.95                             169   -0.2910 27.0 216 
 PAM  EZ EP     D  155 53.47                             152    0.1710 71.4  32 
 PAM  EN ES        156 10.18                             152    0.0410 71.4  32 
 PAM  EZ I         156 12.32         4.5 0.58            152           71.4  32 
 RUS  HZ EP        155 55.02                             144   -0.1010 99.4 183 
 RUS  HN ES        156 13.57                             144    0.1910 99.4 183 
 RUS  HZ I         156 13.81         1.7 0.30            145           99.4 183 
 PTB  HZ EP   9    155 57.00                             129   -2.53 0  159 260 
 PTB  HN ES        156 18.92                             131    0.23 9  159 260 
 PTB  HZ I         156 20.48         2.8 0.32            131            159 260 
                                                                                
