 2011 1011 0626  1.6 L   6.763 -73.107140.1  RSN  6 0.4 1.6LRSN                1
 GAP=143        0.73       4.6     5.3  6.9  0.4018E+01  0.2373E+01 -0.5467E+01E
 Epicentro: LOS SANTOS - SANTANDER                                             3
 ACTION:UPD 12-07-13 16:03 OP:ep   STATUS:               ID:20111011062601 L   I
 2011-10-11-0620-00M.COL___171                                                 6
 STAT SP IPHASW D HRMM SECON CODA AMPLIT PERI AZIMU VELO AIN AR TRES W  DIS CAZ7
 BAR2 SZ EP        626 20.53                             171    0.0210 20.6 204 
 BAR2 SZ ES   1    626 34.48                             171   -0.77 7 20.6 204 
 BAR2 SZ I         626 36.66         8.8 0.23                          20.6 204 
 BRR  HZ EP   1    626 22.51                             150    0.01 7 76.9 300 
 BRR  HE ES   1    626 39.40                             150    0.62 7 76.9 300 
 BRR  HZ I         626 45.20         9.1 0.14                          76.9 300 
 PAM  SZ EP   1    626 23.49                             149    0.21 7 78.1  35 
 PAM  SN ES   1    626 40.23                             149    0.06 7 78.1  35 
 RUS  HZ EP   1    626 24.49                             144   -0.01 7 96.3 178 
 RUS  HN ES   1    626 42.63                             144    0.28 7 96.3 178 
 RUS  HZ I         626 44.70         4.5 0.37                          96.3 178 
 OCA  SZ EP   1    626 29.65                             127   -0.29 7  165 352 
 OCA  SZ I         626 58.93         5.5 0.21                           165 352 
 ZAR  HN ES   1    626 59.47                             120   -0.27 6  210 293 
                                                                                
