 2012  611 0854 23.4 L   6.735 -73.217145.4  RSN  4 0.3 1.2LRSN                1
 GAP=231        0.48       9.0     6.4  7.6  0.2722E+02  0.1819E+02 -0.8634E+01E
 Epicentro: VILLANUEVA - SANTANDER                                             3
 ACTION:UPD 12-08-06 17:48 OP:ep   STATUS:               ID:20120611085421 L   I
 2012-06-11-0850-00M.COL___201                                                 6
 STAT SP IPHASW D HRMM SECON CODA AMPLIT PERI AZIMU VELO AIN AR TRES W  DIS CAZ7
 BAR2 SZ EP   1    854 42.79                             173   -0.11 7 16.3 166 
 BAR2 SZ ES   1    854 58.03                             173   -0.06 7 16.3 166 
 BAR2 SZ I         854 58.80         4.6 0.19            170           16.3 166 
 RUS  HN ES   2    855  5.27                             145    0.40 5 94.4 171 
 PTB  HZ EP   1    854 49.55                             134   -0.02 7  139 261 
 PTB  HN ES   2    855  9.53                             134   -0.42 5  139 261 
 PTB  HZ I         855 13.12         1.3 0.12            132            139 261 
 ZAR  HE ES   2    855 20.89                             123    0.55 4  200 295 
                                                                                
