 2017  311 0154 42.9 L   6.772 -73.121144.4  RSN 11 0.4 1.5LRSN                1
 GAP=122        0.92       3.8     3.8  5.6 -0.1036E+01  0.5189E+01  0.3495E+01E
 Epicentro: LOS SANTOS - SANTANDER                                             3
 ACTION:UPD 17-05-25 18:38 OP:jn   STATUS:               ID:20170311015442 L   I
 OLDACT:UP  17-03-11 13:13 OP:and  STATUS:               ID:20170311014742     3
 OLDACT:UP  17-03-11 13:12 OP:and  STATUS:               ID:20170311014742     3
 OLDACT:UP  17-03-11 13:12 OP:and  STATUS:               ID:20170311014742     3
 OLDACT:UP  17-03-11 13:11 OP:and  STATUS:               ID:20170311014742     3
 OLDACT:UP  17-03-11 13:11 OP:and  STATUS:               ID:20170311014742     3
 OLDACT:REG 17-03-11 12:23 OP:and  STATUS:               ID:20170311014742     3
 2017-03-11-0148-00M.COL___406                                                 6
 STAT SP IPHASW D HRMM SECON CODA AMPLIT PERI AZIMU VELO AIN AR TRES W  DIS CAZ7
 BAR2 EZ IP     C  155  2.21                             171   -0.0610 21.0 199 
 BAR2 EZ ES        155 16.79                             171   -0.6310 21.0 199 
 BAR2 EZ I         155 18.33         6.6 0.18            170           21.0 199 
 BRR  HZ EP        155  4.19                             151    0.1110 75.1 300 
 BRR  HN ES        155 21.03                             151    0.3910 75.1 300 
 PAM  EZ EP        155  5.27                             150    0.3010 78.2  37 
 PAM  EN ES        155 22.04                             150   -0.1810 78.2  37 
 PAM  EZ I         155 25.15         3.5 0.32            153           78.2  37 
 RUS  HZ EP        155  6.15                             144   -0.0910 97.3 178 
 RUS  HN ES        155 25.25                             144    0.7710 97.3 178 
 RUS  HZ I         155 25.59         3.4 0.30            146           97.3 178 
 PTB  HZ EP        155  9.23                             131   -0.67 9  150 260 
 PTB  HE ES        155 30.71                             131   -0.29 9  150 260 
 PTB  HZ I         155 32.92         4.6 0.24            131            150 260 
 SPBC HZ EP        155 11.20                             129    0.02 9  163 220 
 SPBC HN ES        155 33.04                             129   -0.24 9  163 220 
 SPBC HZ I         155 40.28         6.0 0.22            129            163 220 
 ZAR  HN ES        155 41.40                             121    0.27 8  208 293 
 ZAR  HZ I         155 49.26         3.9 0.15            122            208 293 
 NOR  HZ EP        155 18.89                             118    0.34 8  235 235 
 NOR  HN ES   2    155 46.29                             118   -0.10 4  235 235 
 NOR  HZ I         155 48.09         3.3 0.24            119            235 235 
 GUY2CHZ EP   2    155 26.74                             112    0.29 4  302 236 
 GUY2CHN ES   4    156  4.65                             112    4.20 0  302 236 
 GUY2CHZ  IAML     156  9.66         2.3 0.68                           302 236 
 PTGC HZ EP   2    155 25.37                             112   -0.84 4  305 159 
 CBOC HZ EP   2    155 29.86                             109   -0.04 3  335 253 
 CBOC HE ES   2    156  7.36                             109    0.76 3  335 253 
 CBOC HZ I         156 10.09         1.1 0.35            110            335 253 
                                                                                
