 2016  511 0358 50.6 L   6.797 -73.125150.0  RSN  8 0.4 1.5LRSN                1
 GAP=139        0.98       4.4     4.7  5.9 -0.7109E+01  0.4862E+01  0.6018E+01E
 Epicentro: LOS SANTOS - SANTANDER                                             3
 ACTION:UPD 16-08-18 17:44 OP:cam  STATUS:               ID:20160511035850 L   I
 OLDACT:REG 16-05-11 12:27 OP:drio STATUS:               ID:20160511034748     3
 2016-05-11-0347-48M.COL___288                                                 6
 STAT SP IPHASW D HRMM SECON CODA AMPLIT PERI AZIMU VELO AIN AR TRES W  DIS CAZ7
 BAR2 EZ EP        359 10.23                             171   -0.5110 23.5 196 
 BAR2 EZ ES        359 26.55                             171    0.1010 23.5 196 
 BAR2 EZ I         359 27.38         5.1 0.38            168           23.5 196 
 BRR  HZ EP        359 12.42                             153    0.0910 73.4 298 
 BRR  HN ES        359 29.99                             153    0.7210 73.4 298 
 BRR  HZ I         359 37.76         4.6 0.28            149           73.4 298 
 PAM  EZ EP        359 13.22                             152    0.0310 76.2  38 
 PAM  EN ES        359 30.86                             152    0.0410 76.2  38 
 PAM  EZ I         359 32.78         5.0 0.56            157           76.2  38 
 RUS  HZ EP        359 14.58                             145   -0.1510  100 177 
 RUS  HN ES        359 33.56                             145    0.0010  100 177 
 RUS  HZ I         359 34.80         2.5 0.42            148            100 177 
 PTB  HZ EP        359 17.60                             133   -0.51 9  150 259 
 PTB  HN ES        359 38.89                             133   -0.68 9  150 259 
 PTB  HZ I         359 44.57         4.7 0.60            132            150 259 
 SPBC HZ EP        359 19.55                             130    0.01 9  164 220 
 SPBC HN ES        359 42.17                             130    0.06 9  164 220 
 SPBC HZ I         359 48.58         8.2 0.16            131            164 220 
 NOR  HZ EP        359 26.66                             119   -0.09 8  236 235 
 NOR  HE ES        359 55.32                             119    0.36 8  236 235 
 NOR  HZ I         4 0  1.85         2.9 0.22            120            236 235 
 PRA  HZ EP        359 45.57                             107    1.20 6  393 210 
 PRA  HN ES        4 0 26.51                             107    0.20 6  393 210 
 PRA  HZ I         4 0 32.70         1.4 0.30            109            393 210 
                                                                                
