 2014  811 0315 47.4 L   6.847 -73.349122.7  RSN  7 0.4 1.5LRSN                1
 GAP= 94        1.11       3.8     4.9  8.0 -0.3418E+00  0.1131E+02  0.1223E+01E
 Epicentro: SAN VICENTE DE CHUCURI - SANTANDER                                 3
 ACTION:UPD 14-09-15 21:48 OP:nd   STATUS:               ID:20140811031547 L   I
 OLDACT:UP  14-08-11 14:50 OP:cam  STATUS:               ID:20140811031000     3
 OLDACT:UP  14-08-11 14:50 OP:cam  STATUS:               ID:20140811031000     3
 OLDACT:REG 14-08-11 12:58 OP:cam  STATUS:               ID:20140811031000     3
 2014-08-11-0310-00M.COL___285                                                 6
 STAT SP IPHASW D HRMM SECON CODA AMPLIT PERI AZIMU VELO AIN AR TRES W  DIS CAZ7
 BAR2 SZ EP        316  4.65                             164    0.1210 33.6 147 
 BAR2 SZ ES        316 17.82                             164   -0.1010 33.6 147 
 BAR2 SZ I         316 18.79        23.3 0.42            164           33.6 147 
 BRR  HZ EP        316  5.09                             157    0.2610 49.4 306 
 BRR  HN ES        316 19.17                             157    0.7210 49.4 306 
 BRR  HN I         316 19.83         9.7 0.36            157           49.4 306 
 PAM  SE ES        316 23.90                             142   -0.3710 90.1  53 
 PAM  SE I         316 27.46         7.2 0.58            146           90.1  53 
 RUS  HZ EP        316  9.67                             136   -0.0010  110 164 
 RUS  HN ES        316 26.88                             136   -0.1910  110 164 
 PTB  HZ EP        316 10.23                             131   -0.3610  127 255 
 PTB  HN ES        316 27.79                             131   -0.9010  127 255 
 PTB  HZ I         316 33.61         3.6 0.28            131            127 255 
 SPBC HZ EP   1    316 13.85                             125    0.52 7  154 211 
 SPBC HN ES        316 34.10                             125    0.53 9  154 211 
 SPBC HZ I         316 41.15         2.3 0.46            125            154 211 
 SML  HE ES        316 47.84                             114    0.05 8  230 340 
                                                                                
