 2015  211 0703 26.6 L   6.782 -73.185134.9  RSN  4 0.5 1.2LRSN                1
 GAP=138        1.25      11.8     7.2 10.0 -0.4124E+02  0.9152E+01  0.5781E+01E
 Epicentro: LOS SANTOS - SANTANDER                                             3
 ACTION:UPD 15-04-30 21:25 OP:nd   STATUS:               ID:20150211070326 L   I
 OLDACT:DUP 15-02-11 17:38 OP:fm   STATUS:               ID:20150211065737d    3
 2015-02-11-0657-36M.COL___284                                                 6
 STAT SP IPHASW D HRMM SECON CODA AMPLIT PERI AZIMU VELO AIN AR TRES W  DIS CAZ7
 BAR2 EZ EP        7 3 45.02                             171    0.1410 21.0 179 
 BAR2 EZ ES        7 3 59.38                             171    0.2510 21.0 179 
 BAR2 EZ I         7 4  0.78         2.4 0.26            171           21.0 179 
 BRR  HZ EP        7 3 46.86                             151    0.4410 68.4 302 
 BRR  HN ES        7 4  2.49                             151    0.6110 68.4 302 
 BRR  HZ I         7 4  4.62         4.2 0.32            150           68.4 302 
 PAM  SZ EP     D  7 3 47.96                             147    0.0110 81.7  41 
 PAM  SE ES        7 4  3.93                             147   -0.6810 81.7  41 
 PAM  SZ I         7 4  5.53         2.8 0.18            151           81.7  41 
 PTB  HZ EP        7 3 52.30                             130    0.03 9  143 259 
 PTB  HN ES        7 4 11.40                             130   -0.89 9  143 259 
 PTB  HZ I         7 4 18.23         2.4 0.60            130            143 259 
                                                                                
