 2012 1111 0938 19.4 L   5.839 -73.673117.5  RSN  5 0.2 1.5LRSN                1
 GAP=227        0.60       5.7     3.4  5.5  0.7369E+01  0.5111E+01 -0.6898E+00E
 Epicentro: PUENTE NACIONAL - SANTANDER                                        3
 ACTION:UPD 12-12-05 15:32 OP:}ep  STATUS:               ID:20121111093819 L   I
 2012-11-11-0930-00M.COL___230                                                 6
 STAT SP IPHASW D HRMM SECON CODA AMPLIT PERI AZIMU VELO AIN AR TRES W  DIS CAZ7
 RUS  HZ EP        938 38.31                             149    0.4110 65.5  85 
 RUS  HN ES        938 52.03                             149   -0.3110 65.5  85 
 RUS  HN I         938 53.40         5.2 0.18                          65.5  85 
 BAR2 SZ EP        938 39.95                             137   -0.0910 99.4  33 
 BAR2 SZ ES        938 56.37                             137    0.2310 99.4  33 
 BAR2 SZ I         938 57.72        11.2 0.24                          99.4  33 
 PTB  HZ EP        938 41.16                             132   -0.0410  116 312 
 PTB  HN ES        938 58.25                             132    0.0410  116 312 
 PTB  HN I         939  3.48         6.2 0.30                           116 312 
 BRR  HZ EP        938 43.34                             126   -0.12 9  140 358 
 GIR2 SZ EP        938 44.15                             125   -0.16 9  147  21 
                                                                                
