 2013 1111 0112 52.2 L   6.807 -73.152138.3  RSN 19 0.5 2.5LRSN                1
 GAP= 70        1.08       3.0     3.6  5.5 -0.1941E+01  0.5015E+01  0.9512E+00E
 Epicentro: LOS SANTOS - SANTANDER                                             3
 ACTION:UPD 14-01-09 16:27 OP:ep   STATUS:               ID:20131111011252 L   I
 OLDACT:REG 13-11-11 07:43 OP:nd   STATUS:               ID:20131111011000     3
 2013-11-11-0110-00M.COL___273                                                 6
 STAT SP IPHASW D HRMM SECON CODA AMPLIT PERI AZIMU VELO AIN AR TRES W  DIS CAZ7
 BAR2 SZ IP     C  113 11.23                             170    0.2810 24.0 188 
 BAR2 SZ ES        113 24.73                             170   -0.8410 24.0 188 
 BAR2 SZ I         113 27.80       125.8 0.20            170           24.0 188 
 BRR  HZ EP        113 13.12                             151    0.6310 70.2 298 
 BRR  HN ES        113 28.35                             151    0.0410 70.2 298 
 BRR  HZ I         113 33.60        85.8 0.40            150           70.2 298 
 PAM  SZ EP        113 14.09                             149    0.4610 77.3  40 
 PAM  SN ES        113 30.80                             149    0.4710 77.3  40 
 PAM  SZ I         113 33.81        94.5 0.68            153           77.3  40 
 RUS  HZ IP     D  113 15.07                             142   -0.2210  101 176 
 RUS  HN ES        113 33.38                             142    0.0810  101 176 
 RUS  HZ I         113 36.70        36.3 0.36            145            101 176 
 PTB  HZ EP        113 17.82                             130   -0.70 9  147 258 
 PTB  HN ES        113 39.04                             130   -0.01 9  147 258 
 PTB  HZ I         113 45.06        40.9 0.16            131            147 258 
 TAM  HZ IP   1 D  113 19.44                             129    0.05 7  156 105 
 TAM  HN ES   2    113 40.33                             129   -0.26 5  156 105 
 TAM  HZ I         113 43.71        15.2 0.52            133            156 105 
 OCA  HZ EP        113 19.38                             128   -0.49 9  159 353 
 OCA  HN ES        113 41.31                             128   -0.13 9  159 353 
 OCA  HZ I         113 46.06        54.8 0.20            129            159 353 
 SPBC HZ EP        113 20.20                             127    0.04 9  163 219 
 SPBC HN ES        113 42.11                             127    0.15 9  163 219 
 SPBC HZ I         113 44.97        88.3 0.26            129            163 219 
 ZAR  HZ EP        113 23.49                             121   -0.58 9  203 292 
 ZAR  HN ES        113 49.57                             121    0.64 9  203 292 
 ZAR  HZ I         113 56.17        41.8 0.28            121            203 292 
 NOR  HZ EP        113 26.95                             117   -0.55 8  235 234 
 NOR  HN ES        113 54.90                             117   -0.12 8  235 234 
 NOR  HZ I         114  2.77        36.9 0.16            118            235 234 
 SML  HZ EP   2    113 27.43                             116   -0.88 4  243 335 
 SML  HN ES   2    113 55.77                             116   -0.71 4  243 335 
 SML  HZ I         114  0.13        59.7 0.26            117            243 335 
 ROSC BZ EP   2    113 31.36                             115    1.40 4  253 211 
 ROSC BN ES        113 59.54                             115    0.13 8  253 211 
 HEL  HZ EP        113 32.91                             113    0.92 8  272 256 
 HEL  HN ES   2    114  2.61                             113   -0.41 4  272 256 
 HEL  HZ I         114 11.54        14.6 0.24            114            272 256 
 GUY2CHZ EP   4    113 36.19                             111    0.73 0  301 235 
 GUY2CHN ES   4    114 11.90                             111    2.70 0  301 235 
 GUY2CHZ I         114 19.09        22.3 0.48                           301 235 
 PTGC HZ EP   4    113 34.13                             110   -1.72 0  310 159 
 PTGC HN ES   4    114  6.11                             110   -3.79 0  310 159 
 PTGC HZ I         114  9.06        21.0 0.48            112            310 159 
 CBOC HZ EP   4    113 39.12                             108    0.35 0  333 252 
 CBOC HN ES   4    114 13.69                             108   -1.40 0  333 252 
 CBOC HZ I         114 21.40         5.2 0.24            110            333 252 
 COD  HZ EP   4    113 38.83                             108   -1.37 0  347 355 
 COD  HN ES   4    114 16.46                             108   -1.18 0  347 355 
 COD  HZ I         114 24.12         6.1 0.22            109            347 355 
 ORTC HZ EP   1    113 45.30                             105   -0.60 4  396 216 
 ORTC HN ES   1    114 28.46                             105    0.67 4  396 216 
 ORTC HZ I         114 35.01        10.6 0.24            106            396 216 
 SJC  HZ EP   4    113 45.37                             104   -2.04 0  408 327 
 SJC  HN ES   4    114 26.04                             104   -4.43 0  408 327 
 SJC  HZ I         114 31.16         8.4 0.60            106            408 327 
                                                                                
