 2015 1211 0148 49.9 L   6.793 -73.096155.3  RSN 12 0.4 2.1LRSN                1
 GAP=188        0.69       3.5     4.2  4.8  0.3394E+00  0.3721E+01  0.1774E+01E
 Epicentro: LOS SANTOS - SANTANDER                                             3
 ACTION:UPD 16-02-04 15:04 OP:cam  STATUS:               ID:20151211014849 L   I
 OLDACT:UP  15-12-11 15:19 OP:ar   STATUS:               ID:20151211014748     3
 OLDACT:REG 15-12-11 11:34 OP:ar   STATUS:               ID:20151211014748     3
 2015-12-11-0147-48M.COL___328                                                 6
 STAT SP IPHASW D HRMM SECON CODA AMPLIT PERI AZIMU VELO AIN AR TRES W  DIS CAZ7
 BAR2 EZ EP        149 10.88                             171    0.1710 24.2 203 
 BAR2 EZ ES        149 26.46                             171   -0.4710 24.2 203 
 BAR2 EZ I         149 27.47        10.8 0.32            166           24.2 203 
 BRR  HZ EP        149 12.77                             152    0.3710 76.4 297 
 BRR  HN ES        149 30.42                             152    0.5010 76.4 297 
 BRR  HZ I         149 34.95        12.0 0.24            147           76.4 297 
 RUS  HZ EP   2    149 14.52                             146   -0.03 5 99.6 179 
 RUS  HN ES   2    149 33.71                             146   -0.05 5 99.6 179 
 RUS  HZ I         149 34.68         5.3 0.36            147           99.6 179 
 PTB  HZ EP        149 17.69                             133   -0.46 9  153 260 
 PTB  HN ES   4    149 38.24                             133   -1.93 0  153 260 
 PTB  HZ I         149 44.76        11.8 0.36            130            153 260 
 OCA  HZ EP   4    149 15.94                             131   -3.19 0  162 351 
 OCA  HE ES   2    149 41.69                             131   -0.21 5  162 351 
 OCA  HZ I         149 46.64        24.9 0.38            131            162 351 
 SPBC HZ EP   2    149 19.77                             131    0.33 5  166 221 
 SPBC HN ES   2    149 42.53                             131    0.07 5  166 221 
 SPBC HZ I         149 48.94        22.4 0.32            129            166 221 
 ZAR  HZ EP   4    149 20.21                             124   -3.34 0  209 292 
 ZAR  HN ES        149 49.65                             124   -0.13 8  209 292 
 ZAR  HZ I         149 55.34        12.1 0.50            122            209 292 
 NOR  HZ EP        149 26.75                             120    0.10 8  239 235 
 NOR  HN ES        149 55.34                             120    0.04 8  239 235 
 NOR  HZ I         149 58.48         8.3 0.18            119            239 235 
 SML  HZ EP   2    149 27.57                             119    0.15 4  247 334 
 SML  HN ES   2    149 55.63                             119   -1.04 4  247 334 
 SML  HZ I         150  0.52        19.3 0.10            119            247 334 
 HEL  HZ EP   9    149 33.23                             116    2.03 0  277 256 
 HEL  HN ES        150  5.21                             117   -0.22 7  277 256 
 HEL  HZ I         150 11.49         3.8 0.26            115            277 256 
 GUY2CHZ EP   4    149 35.80                             114    1.36 0  305 235 
 GUY2CHN ES   2    150  9.10                             114   -0.07 4  305 235 
 GUY2CHZ I         150 17.44         8.4 0.82                           305 235 
 PRA  HZ EP   2    149 43.63                             108   -0.40 3  394 210 
 PRA  HE ES   4    150 24.85                             108   -1.38 0  394 210 
 PRA  HZ I         150 32.13         4.6 0.60            108            394 210 
                                                                                
