 2015  611 0545 59.1 L   6.810 -73.129145.1  RSN  6 0.4 1.3LRSN                1
 GAP=138        1.02       3.8     6.3  7.3 -0.2315E+01  0.8093E+01 -0.1817E+00E
 Epicentro: LOS SANTOS - SANTANDER                                             3
 ACTION:UPD 15-09-10 22:11 OP:cam  STATUS:               ID:20150611054559 L   I
 OLDACT:REG 15-06-11 13:39 OP:stll STATUS:               ID:20150611053746     3
 2015-06-11-0537-46M.COL___279                                                 6
 STAT SP IPHASW D HRMM SECON CODA AMPLIT PERI AZIMU VELO AIN AR TRES W  DIS CAZ7
 BAR2 EZ EP        546 18.75                             170    0.0310 24.8 194 
 BAR2 EZ ES        546 33.59                             170   -0.4010 24.8 194 
 BAR2 EZ I         546 36.40         3.9 0.26            167           24.8 194 
 BRR  HZ EP        546 20.56                             152    0.2710 72.4 297 
 BRR  HN ES        546 37.36                             152    0.5910 72.4 297 
 BRR  HZ I         546 42.05         2.9 0.12            150           72.4 297 
 PAM  SZ EP        546 21.57                             151    0.4010 75.4  39 
 PAM  SZ I         546 21.81         7.6 0.22            157           75.4  39 
 PAM  SN ES        546 38.45                             151    0.1110 75.4  39 
 RUS  HZ EP        546 22.88                             143   -0.0210  102 177 
 RUS  HN ES        546 41.00                             143   -0.4210  102 177 
 RUS  HZ I         546 44.66         1.7 0.54            144            102 177 
 SPBC HZ EP        546 27.76                             128   -0.02 9  165 219 
 SPBC HN ES        546 50.23                             128    0.11 9  165 219 
 SPBC HZ I         546 56.81         3.5 0.10            129            165 219 
 SML  HE ES        547  3.23                             117   -1.00 8  244 335 
                                                                                
