 2011  411 0721 56.7 L   6.772 -73.034149.8  RSN  8 0.3 1.7LRSN                1
 GAP=168        0.61       7.8     5.9  7.5 -0.5983E+01  0.5399E+01  0.3364E+02E
 Epicentro: CEPITA - SANTANDER                                                 3
 ACTION:UP  11-06-22 15:30 OP:REBC STATUS:               ID:20110411072156 L   I
 2011-04-11-0721-29S.COL___138                                                 6
 STAT SP IPHASW D HRMM SECON CODA AMPLIT PERI AZIMU VELO SNR AR TRES W  DIS CAZ7
 BAR2 SZ IP        722 16.87                                     0.010   26 219 
 BAR2 SZ ES   2    722 32.59                             170     0.0 5   26 219 
 BAR2 SZ I         722 34.94        16.0 0.29                            26 219 
 BTL  SZ EP        722 17.04                             168     0.010   30 302 
 PAM  SZ EP   2    722 19.75                             153     0.6 5   73  31 
 PAM  SN ES   2    722 36.51                             153    -0.1 5   73  31 
 PAM  SZ I         722 39.22         2.5 0.19                            73  31 
 BRR  HZ EP        722 18.79                             149    -0.210   84 296 
 BRR  HZ I         722 20.39        28.1 0.12                            84 296 
 BRR  HN ES   1    722 36.43                             149     0.0 7   84 296 
 NOR  SZ EP   2    722 32.87                             118    -0.7 4  243 237 
 NOR  SZ I         723  5.16         1.6 0.21                           243 237 
 CHI  HZ EP   2    722 34.65                             118    -0.1 4  249 198 
 HEL  HZ EP   1    722 38.32                             115    -0.1 6  283 257 
 HEL  HN ES   2    723 11.79                             115     0.9 4  283 257 
 HEL  HZ I         723 16.62         5.4 0.14                           283 257 
 PRA  HZ EP   1    722 51.21                             107     0.4 4  396 211 
                                                                                
