 2012 1211 0316 37.8 L   6.777 -73.137141.0  RSN 16 0.5 2.5LRSN                1
 GAP= 72        0.98       3.0     3.5  5.5 -0.3591E+00  0.3523E+01  0.1039E+01E
 Epicentro: LOS SANTOS - SANTANDER                                             3
 ACTION:UPD 13-01-04 14:26 OP:ep   STATUS:               ID:20121211031637 L   I
 2012-12-11-0310-00M.COL___242                                                 6
 STAT SP IPHASW D HRMM SECON CODA AMPLIT PERI AZIMU VELO AIN AR TRES W  DIS CAZ7
 BAR2 SZ EP        316 56.93                             171    0.0910 21.0 194 
 BAR2 SZ ES   1    317 11.15                             171   -0.52 7 21.0 194 
 BAR2 SZ I         317 12.98       136.8 0.18                          21.0 194 
 GIR2 SZ EP     D  316 57.06                             166    0.0510 34.0 349 
 GIR2 SZ ES   1    317 11.64                             166   -0.34 7 34.0 349 
 GIR2 SZ I         317 14.09        95.2 0.42                          34.0 349 
 BRR  HZ EP   1    316 58.84                             151    0.25 7 73.3 300 
 BRR  HN ES   1    317 15.76                             151    0.98 7 73.3 300 
 BRR  HZ I         317 16.85        72.6 0.22                          73.3 300 
 PAM  SZ EP        316 59.82                             149    0.1910 78.8  38 
 PAM  SN ES   1    317 16.82                             149    0.19 7 78.8  38 
 PAM  SZ I         317 19.28       101.4 0.66                          78.8  38 
 RUS  HZ EP   1    317  0.83                             144   -0.09 7 98.0 177 
 RUS  HN ES   1    317 18.93                             144   -0.01 7 98.0 177 
 RUS  HZ I         317 20.60        41.5 0.32                          98.0 177 
 PTB  HZ EP        317  3.63                             131   -0.83 9  148 260 
 PTB  HN ES   1    317 24.81                             131   -0.41 7  148 260 
 PTB  HZ I         317 27.00        55.7 0.14                           148 260 
 TAM  HZ IP     D  317  5.29                             130    0.30 9  154 104 
 TAM  HE ES   1    317 26.24                             130    0.07 7  154 104 
 TAM  HZ I         317 27.79        23.8 0.40                           154 104 
 OCA  HZ EP   1    317  5.26                             128   -0.77 7  163 353 
 OCA  HE ES   1    317 27.47                             128   -0.56 7  163 353 
 OCA  HZ I         317 30.32        39.2 0.32                           163 353 
 ZAR  HZ EP   1    317 10.22                             121    0.06 6  206 293 
 ZAR  HE ES   1    317 36.20                             121    0.82 6  206 293 
 ZAR  HZ I         317 41.52        58.1 0.50                           206 293 
 CTAB SZ EP   1    317 14.03                             118    0.91 6  228 211 
 SML  HN ES   1    317 43.80                             116    0.71 6  246 335 
 CHI  HZ I         317 50.32         9.9 0.40                           246 196 
 SML  HZ EP   1    317 13.47                             116   -1.02 6  246 335 
 CHI  HZ EP   1    317 14.95                             116   -0.07 6  246 196 
 CHI  HN ES   1    317 44.01                             116   -0.03 6  246 196 
 ROSC BZ EP   1    317 16.56                             116    1.05 6  251 212 
 ROSC BE ES   1    317 44.39                             116   -0.50 6  251 212 
 ROSC BZ I         317 51.89        18.3 0.34                           251 212 
 HEL  HZ EP   1    317 17.94                             114    0.10 6  272 256 
 HEL  HN ES   1    317 48.92                             114   -0.12 6  272 256 
 HEL  HZ I         317 56.17        22.5 0.48                           272 256 
 TOL  SZ ES   2    318  2.78                             108   -0.37 3  342 225 
 TOL  SZ I         318  9.89         6.4 0.25                           342 225 
 COD  HZ EP   1    317 25.82                             108   -0.51 5  351 354 
 COD  HE ES   1    318  4.51                             108    0.35 5  351 354 
 COD  HZ I         318  8.83         5.8 0.70                           351 354 
 MON  HN ES   4    318  3.08                             108   -2.13 0  356 309 
 SJC  HN ES   4    318 12.93                             105   -4.09 0  412 327 
                                                                                
