 2015  211 0439 10.5 L   6.826 -73.199146.7  RSN 12 0.4 1.6LRSN                1
 GAP=129        0.96       2.7     3.8  5.4 -0.2359E+01  0.6361E+01  0.1391E+01E
 Epicentro: ZAPATOCA - SANTANDER                                               3
 ACTION:UPD 15-04-30 21:24 OP:nd   STATUS:               ID:20150211043910 L   I
 OLDACT:REG 15-02-11 13:11 OP:fm   STATUS:               ID:20150211043744     3
 2015-02-11-0437-44M.COL___287                                                 6
 STAT SP IPHASW D HRMM SECON CODA AMPLIT PERI AZIMU VELO AIN AR TRES W  DIS CAZ7
 BAR2 EZ EP        439 30.85                             169    0.5210 26.0 176 
 BAR2 EZ ES        439 45.48                             169   -0.3010 26.0 176 
 BAR2 EZ I         439 48.61        14.0 0.32            172           26.0 176 
 BRR  HZ EP        439 31.42                             155   -0.0110 64.6 299 
 BRR  HE ES        439 48.13                             155    0.4010 64.6 299 
 BRR  HZ I         439 52.47         5.6 0.18            153           64.6 299 
 PAM  SZ EP        439 33.64                             150    0.6910 79.2  44 
 PAM  SE ES        439 50.24                             150   -0.2110 79.2  44 
 PAM  SZ I         439 52.59         4.8 0.64            153           79.2  44 
 RUS  HZ EP        439 34.70                             143    0.0710  104 173 
 RUS  HE ES        439 53.18                             143   -0.2510  104 173 
 RUS  HZ I         439 54.48         4.8 0.26            147            104 173 
 PTB  HZ EP        439 37.63                             133    0.52 9  143 257 
 PTB  HN ES        439 57.54                             133   -0.30 9  143 257 
 PTB  HZ I         440  1.74         6.3 0.10            134            143 257 
 OCA  HE ES        439 59.80                             130   -0.67 9  157 355 
 OCA  HZ I         440  8.59         2.7 0.26            131            157 355 
 SPBC HN ES        440  1.62                             129    0.45 9  162 217 
 SPBC HZ I         440  4.48         9.2 0.24            131            162 217 
 NOR  HZ EP        439 45.60                             119   -0.39 8  232 233 
 NOR  HE ES        440 13.65                             119    0.00 8  232 233 
 NOR  HZ I         440 20.22         4.8 0.48            120            232 233 
 SML  HZ EP   1    439 46.36                             118   -0.30 6  239 336 
 SML  HE ES        440 14.81                             118   -0.03 8  239 336 
 SML  HZ I         440 22.46         5.1 0.26            119            239 336 
 CHI  HZ EP        439 47.89                             117   -0.54 8  250 194 
 CHI  HN ES        440 17.51                             117   -0.48 8  250 194 
 CHI  HZ I         440 24.15         1.8 0.36            119            250 194 
 GUY2CHZ EP        439 53.80                             113   -0.03 7  298 234 
 GUY2CHN ES        440 28.05                             113    0.44 7  298 234 
 GUY2CHZ I         440 37.44         3.6 0.32                           298 234 
 CBOC HE ES        440 32.88                             110   -0.27 7  329 251 
                                                                                
