 2015  511 0600 16.8 L   6.813 -73.131141.9  RSN 19 0.4 2.7LRSN                1
 GAP= 71        0.98       2.5     2.8  4.7 -0.5458E+00  0.4407E+01  0.1508E+01E
 Epicentro: LOS SANTOS - SANTANDER                                             3
 ACTION:UPD 15-09-10 22:03 OP:cam  STATUS:               ID:20150511060016 L   I
 OLDACT:UP  15-05-11 16:46 OP:mh   STATUS:               ID:20150511055749     3
 OLDACT:UP  15-05-11 16:36 OP:mh   STATUS:               ID:20150511055749     3
 OLDACT:REG 15-05-11 12:53 OP:mh   STATUS:               ID:20150511055749     3
 2015-05-11-0557-49M.COL___270                                                 6
 STAT SP IPHASW D HRMM SECON CODA AMPLIT PERI AZIMU VELO AIN AR TRES W  DIS CAZ7
 BAR2 EZ EP        6 0 36.02                             169   -0.0110 25.0 193 
 BAR2 EZ ES        6 0 50.46                             169   -0.5410 25.0 193 
 BAR2 EZ I         6 0 51.77       146.5 0.18            169           25.0 193 
 BRR  HZ EP        6 0 37.96                             152    0.3610 72.0 297 
 BRR  HN ES        6 0 54.55                             152    0.7410 72.0 297 
 BRR  HZ I         6 0 58.74       116.2 0.12            150           72.0 297 
 PAM  SZ EP        6 0 38.86                             151    0.3610 75.2  39 
 PAM  SN ES        6 0 55.75                             151    0.3510 75.2  39 
 PAM  SZ I         6 0 57.97        92.4 0.54            153           75.2  39 
 RUS  HZ EP        6 0 40.12                             143   -0.1710  102 177 
 RUS  HN ES        6 0 58.48                             143   -0.1110  102 177 
 RUS  HZ I         6 0 59.28        52.0 0.34            143            102 177 
 TAM  HZ IP     C  6 0 44.38                             130    0.30 9  154 106 
 TAM  HN ES        6 1  5.25                             130   -0.09 9  154 106 
 TAM  HZ I         6 1 14.40        24.7 0.42            132            154 106 
 OCA  HZ EP        6 0 44.41                             129   -0.32 9  159 352 
 OCA  HN ES        6 1  5.83                             129   -0.66 9  159 352 
 OCA  HZ I         6 1  9.28       167.9 0.24            130            159 352 
 SPBC HZ EP        6 0 45.04                             128   -0.20 9  165 219 
 SPBC HN ES   1    6 1  6.96                             128   -0.43 7  165 219 
 SPBC HZ I         6 1 10.39        51.0 0.48            128            165 219 
 ZAR  HZ EP        6 0 48.99                             121   -0.14 9  205 292 
 ZAR  HN ES        6 1 14.99                             121    0.67 9  205 292 
 ZAR  HZ I         6 1 20.43        66.4 0.32            121            205 292 
 NOR  HZ EP        6 0 52.41                             117   -0.16 8  237 234 
 NOR  HN ES        6 1 20.04                             117   -0.41 8  237 234 
 NOR  HZ I         6 1 22.15        39.5 0.36            117            237 234 
 SML  HZ EP        6 0 52.67                             117   -0.51 8  243 335 
 SML  HN ES        6 1 21.19                             117   -0.34 8  243 335 
 SML  HZ I         6 1 29.22        57.1 0.26            117            243 335 
 ROSC BZ EP        6 0 55.35                             116    0.39 8  255 211 
 ROSC BN ES   4    6 1 26.52                             116    1.81 0  255 211 
 ROSC BZ I         6 1 32.36        37.2 0.35            116            255 211 
 HEL  HZ EP   1    6 0 57.51                             114    0.45 6  274 256 
 HEL  HN ES   1    6 1 27.38                             114   -1.07 6  274 256 
 HEL  HZ I         6 1 40.16        12.6 0.22            114            274 256 
 URE  HZ EP   4    6 0 56.36                             113   -1.47 0  285 292 
 URE  HN ES   4    6 1 28.16                             113   -1.65 0  285 292 
 URE  HZ I         6 1 35.59        33.9 0.14            113            285 292 
 GUY2CHZ EP        6 1  0.94                             111    0.43 7  303 235 
 GUY2CHN ES        6 1 35.24                             111    0.67 7  303 235 
 GUY2CHZ I         6 1 41.22        25.7 0.26                           303 235 
 VIL  SZ EP   1    6 0 59.82                             111   -0.44 5  305 192 
 VIL  SN ES   4    6 1 35.51                             111    1.37 0  305 192 
 VIL  SZ I         6 1 37.56        19.9 0.28            112            305 192 
 PTGC HZ EP   4    6 0 59.21                             111   -1.38 0  309 159 
 PTGC HN ES   4    6 1 32.22                             111   -2.51 0  309 159 
 PTGC HZ I         6 1 37.22        14.1 0.22            112            309 159 
 CBOC HZ EP        6 1  4.40                             109    0.58 7  336 252 
 CBOC HN ES        6 1 39.91                             109   -0.56 7  336 252 
 CBOC HZ I         6 1 51.82        10.6 0.44            109            336 252 
 ANIL HZ EP   4    6 1  8.18                             108    1.44 0  360 225 
 ANIL HN ES   4    6 1 48.13                             108    2.46 0  360 225 
 ANIL HZ I         6 1 49.69        33.7 0.40            108            360 225 
 ORTC HZ EP        6 1 10.91                             106    0.04 6  398 216 
 ORTC HN ES        6 1 53.20                             106    0.19 6  398 216 
 ORTC HZ I         6 1 58.87        14.3 0.42            106            398 216 
                                                                                
