 2013  911 0451 39.3 L   6.758 -73.157150.2  RSN  8 0.5 1.9LRSN                1
 GAP=137        1.03       4.3     4.5  6.9 -0.9215E-02  0.5871E+01 -0.1760E+00E
 Epicentro: LOS SANTOS - SANTANDER                                             3
 ACTION:UPD 13-10-22 09:21 OP:ep   STATUS:               ID:20130911045139 L   I
 OLDACT:UP  13-09-11 10:13 OP:cam  STATUS:               ID:20130911044959     3
 OLDACT:REG 13-09-11 08:35 OP:cam  STATUS:               ID:20130911044959     3
 2013-09-11-0449-59M.COL___269                                                 6
 STAT SP IPHASW D HRMM SECON CODA AMPLIT PERI AZIMU VELO AIN AR TRES W  DIS CAZ7
 BAR2 SZ EP        451 59.27                             173   -0.0710 18.5 189 
 BAR2 SZ ES   1    452 14.96                             173   -0.03 7 18.5 189 
 BAR2 SZ I         452 15.48        16.3 0.20            174           18.5 189 
 BRR  HZ EP   1    452  1.66                             153    0.70 7 72.5 302 
 BRR  HN ES        452 18.69                             153    0.8110 72.5 302 
 BRR  HZ I         452 23.18        14.1 0.14            151           72.5 302 
 PAM  SZ EP        452  2.41                             150    0.2010 81.8  38 
 PAM  SN ES        452 19.66                             150   -0.4510 81.8  38 
 PAM  SZ I         452 21.85         9.7 0.42            152           81.8  38 
 RUS  HZ EP        452  3.09                             146   -0.0410 96.0 175 
 RUS  HN ES        452 21.67                             146   -0.0810 96.0 175 
 RUS  HZ I         452 23.00         8.4 0.34            150           96.0 175 
 PTB  HZ EP        452  6.12                             133   -0.29 9  146 261 
 PTB  HN ES        452 26.80                             133   -0.78 9  146 261 
 PTB  HZ I         452 27.92         9.9 0.12            134            146 261 
 SPBC HZ EP        452  8.19                             131    0.50 9  159 220 
 SPBC HN ES   1    452 29.80                             131   -0.07 7  159 220 
 SPBC HZ I         452 32.13         9.8 0.18            133            159 220 
 ZAR  HZ EP   2    452 12.54                             123    0.48 4  205 293 
 ZAR  HN ES        452 37.73                             123    0.08 9  205 293 
 ZAR  HZ I         452 43.72        12.1 0.36            124            205 293 
 SML  HZ EP   1    452 15.93                             118   -0.61 6  247 336 
 SML  HN ES   2    452 44.80                             118   -0.81 4  247 336 
 SML  HZ I         452 48.71         6.4 0.10            119            247 336 
 GUY2CHZ EP   4    452 24.39                             113    1.73 0  297 235 
                                                                                
