 2011  211 0509  4.0 L   7.417 -73.515102.1  RSN  4 0.4 1.3LRSN                1
 GAP=252        0.81       8.9    25.0 14.2 -0.1845E+03  0.2260E+03 -0.6621E+02E
 Epicentro: SABANA DE TORRES - SANTANDER                                       3
 ACTION:UP  11-03-28 15:07 OP:jfem STATUS:               ID:20110211050904 L   I
 2011-02-11-0507-18S.COL___136                                                 6
 STAT SP IPHASW D HRMM SECON CODA AMPLIT PERI AZIMU VELO SNR AR TRES W  DIS CAZ7
 BTL  SZ EP   1    5 9 20.75                             146     0.4 7   61 154 
 BTL  SZ ES   1    5 9 32.54                             146    -0.5 7   61 154 
 GRA  SZ EP   1    5 9 22.70                             133    -0.1 7   94  57 
 GRA  SZ ES   1    5 9 37.38                             133     0.0 7   94  57 
 GRA  SZ I         5 9 39.29         6.8 0.30                            94  57 
 BAR2 SZ EP   1    5 9 23.34                             132     0.1 7   98 158 
 BAR2 SZ ES   2    5 9 39.09                             132     0.8 5   98 158 
 BAR2 SZ I         5 9 40.60         4.2 0.09                            98 158 
 RUS  HZ EP   2    5 9 30.59                             115    -0.9 4  175 164 
 RUS  HE ES   2    5 9 52.78                             115     0.0 4  175 164 
                                                                                
