 2013  511 0819 48.1 L   6.815 -73.136146.2  RSN  8 0.4 1.7LRSN                1
 GAP=202        0.73       3.0     5.3  6.0  0.1223E+01  0.6150E+01 -0.1232E+01E
 Epicentro: LOS SANTOS - SANTANDER                                             3
 ACTION:UPD 13-06-20 09:49 OP:ep   STATUS:               ID:20130511081948 L   I
 2013-05-11-0820-00M.COL___256                                                 6
 STAT SP IPHASW D HRMM SECON CODA AMPLIT PERI AZIMU VELO AIN AR TRES W  DIS CAZ7
 BAR2 SZ EP        820  7.85                             170    0.0310 25.1 192 
 BAR2 SZ ES   1    820 22.87                             170   -0.33 7 25.1 192 
 BAR2 SZ I         820 24.68         8.2 0.46            164           25.1 192 
 BRR  HZ EP        820  9.67                             153    0.3610 71.4 297 
 BRR  HN ES   2    820 26.87                             153    1.02 5 71.4 297 
 BRR  HZ I         820 31.96         4.8 0.16            146           71.4 297 
 RUS  HZ EP        820 12.14                             144    0.1310  102 177 
 RUS  HN ES   1    820 30.68                             144    0.03 7  102 177 
 RUS  HZ I         820 31.47         4.3 0.32            146            102 177 
 PTB  HZ EP        820 14.73                             132   -0.49 9  149 258 
 PTB  HN ES   1    820 36.07                             132   -0.31 7  149 258 
 PTB  HZ I         820 43.40         6.0 0.38            129            149 258 
 NOR  HN ES   1    820 52.37                             118    0.29 6  236 234 
 NOR  HZ I         820 58.87         3.2 0.14            119            236 234 
 SML  HZ EP        820 24.65                             118    0.01 8  243 335 
 SML  HN ES   1    820 52.94                             118   -0.20 6  243 335 
 SML  HZ I         820 57.46         6.5 0.10            119            243 335 
 CHI  HN ES        820 55.30                             117   -0.30 8  250 195 
 PRA  HZ EP        820 41.71                             107   -0.15 6  394 210 
 PRA  HE ES   1    821 24.64                             107    0.85 4  394 210 
 PRA  HZ I         821 29.10         2.1 0.36            108            394 210 
                                                                                
