 2014 1011 0636 59.5 L   6.521 -73.597112.0  RSN  6 0.5 1.4LRSN                1
 GAP= 91        1.08       3.9     5.1  8.5  0.2698E+00  0.3801E+01 -0.6200E+01E
 Epicentro: SANTA HELENA DEL OPON - SANTANDER                                  3
 ACTION:UPD 14-11-29 23:48 OP:nd   STATUS:               ID:20141011063659 L   I
 OLDACT:DUP 14-10-11 18:23 OP:fm   STATUS:               ID:20141011062746d    3
 2014-10-11-0627-45M.COL___291                                                 6
 STAT SP IPHASW D HRMM SECON CODA AMPLIT PERI AZIMU VELO AIN AR TRES W  DIS CAZ7
 BAR2 SZ EP        637 15.82                             156   -0.1110 46.5  80 
 BAR2 SZ ES   1    637 28.60                             156   -0.18 7 46.5  80 
 BRR  HZ EP        637 16.63                             147   -0.1010 66.1 349 
 BRR  HN ES        637 30.64                             147    0.4410 66.1 349 
 RUS  HZ EP   1    637 19.61                             139    0.45 7 89.7 141 
 RUS  HN ES   1    637 33.84                             139   -0.69 7 89.7 141 
 PTB  HZ EP     D  637 18.66                             137   -0.2810 95.1 271 
 PTB  HN ES        637 33.54                             137   -0.6110 95.1 271 
 PTB  HZ I         637 35.02         3.4 0.28            133           95.1 271 
 SPBC HZ EP   1    637 20.20                             132   -0.10 7  110 209 
 SPBC HN ES        637 37.39                             132    0.8310  110 209 
 SPBC HZ I         637 39.31         4.1 0.28            130            110 209 
 OCA  HN ES   4    637 49.51                             115   -2.28 0  192   9 
 SML  HZ EP   1    637 35.69                             108   -0.35 6  258 348 
 SML  HE ES        638  5.03                             108    0.46 8  258 348 
 SML  HZ I         638 11.75         2.8 0.26            106            258 348 
                                                                                
