 2017  311 0233 50.8 L   6.766 -73.093138.0  RSN  9 0.4 1.5LRSN                1
 GAP= 95        0.82       3.4     3.3  4.9 -0.9217E+00 -0.6135E+00  0.1613E+01E
 Epicentro: LOS SANTOS - SANTANDER                                             3
 ACTION:UPD 17-05-25 18:38 OP:jn   STATUS:               ID:20170311023350 L   I
 OLDACT:UP  17-03-11 13:44 OP:and  STATUS:               ID:20170311022746d    3
 OLDACT:UP  17-03-11 13:44 OP:and  STATUS:               ID:20170311022746d    3
 OLDACT:UP  17-03-11 13:44 OP:and  STATUS:               ID:20170311022746d    3
 OLDACT:DUP 17-03-11 13:41 OP:and  STATUS:               ID:20170311022746d    3
 OLDACT:UP  17-03-11 13:41 OP:and  STATUS:               ID:20170311022745     3
 OLDACT:UP  17-03-11 13:41 OP:and  STATUS:               ID:20170311022745     3
 OLDACT:REG 17-03-11 12:25 OP:and  STATUS:               ID:20170311022745     3
 2017-03-11-0228-00M.COL___406                                                 6
 STAT SP IPHASW D HRMM SECON CODA AMPLIT PERI AZIMU VELO AIN AR TRES W  DIS CAZ7
 BAR2 EZ IP     C  234  9.27                             171   -0.1910 21.6 207 
 BAR2 EZ ES        234 23.52                             171   -0.5010 21.6 207 
 BAR2 EZ I         234 24.99         7.6 0.28            169           21.6 207 
 PAM  EZ EP        234 12.27                             150    0.1110 76.9  34 
 PAM  EN ES        234 29.06                             150    0.2310 76.9  34 
 PAM  EZ I         234 30.12         4.4 0.18            152           76.9  34 
 BRR  HZ EP        234 11.18                             149   -0.3510 78.1 299 
 BRR  HN ES        234 28.03                             149    0.3210 78.1 299 
 BRR  HZ I         234 32.76         6.6 0.12            147           78.1 299 
 RUS  HZ EP        234 13.29                             144   -0.2110 96.6 179 
 RUS  HN ES        234 31.54                             144    0.3410 96.6 179 
 RUS  HZ I         234 32.55         2.4 0.26            145           96.6 179 
 TAM  HZ EP        234 17.55                             130    0.30 9  149 104 
 PTB  HZ EP   9    234 16.16                             129   -1.46 0  153 261 
 PTB  HN ES        234 37.47                             130    0.39 9  153 261 
 PTB  HZ I         234 39.11         4.6 0.30            129            153 261 
 SPBC HZ EP        234 18.39                             127   -0.41 9  164 221 
 SPBC HN ES        234 40.87                             127    0.23 9  164 221 
 SPBC HZ I         234 43.89         3.9 0.11            127            164 221 
 ZAR  HZ EP   2    234 24.38                             120    0.91 4  211 293 
 ZAR  HN ES        234 48.76                             120   -0.19 8  211 293 
 ZAR  HZ I         234 54.05         3.2 0.12            120            211 293 
 NOR  HZ EP   2    234 26.12                             117   -0.25 4  237 236 
 NOR  HN ES   2    234 55.01                             117    0.89 4  237 236 
 NOR  HZ I         234 57.83         2.1 0.16            117            237 236 
                                                                                
