 2012  911 0047 18.9 L   6.751 -73.140144.0  RSN  9 0.3 2.2LRSN                1
 GAP= 73        0.67       4.0     3.6  5.4  0.1462E+01 -0.1224E+01  0.2608E+01E
 Epicentro: LOS SANTOS - SANTANDER                                             3
 ACTION:UPD 12-10-22 14:18 OP:ep   STATUS:               ID:20120911004718 L   I
 2012-09-11-0040-00M.COL___227                                                 6
 STAT SP IPHASW D HRMM SECON CODA AMPLIT PERI AZIMU VELO AIN AR TRES W  DIS CAZ7
 BAR2 SZ EP        047 38.23                             172    0.0510 18.2 195 
 BAR2 SZ ES   2    047 53.01                             172   -0.25 5 18.2 195 
 BAR2 SZ I         047 54.66        44.7 0.22                          18.2 195 
 GIR2 SZ EP        047 38.25                             165   -0.2310 36.7 351 
 BRR  HZ EP        047 40.01                             151    0.0110 74.4 302 
 BRR  HN ES        047 57.06                             151    0.5710 74.4 302 
 BRR  HZ I         047 59.41        27.0 0.25                          74.4 302 
 PAM  SZ EP        047 41.09                             149   -0.0310 81.2  37 
 PAM  SZ I         047 41.48        38.8 0.19                          81.2  37 
 PAM  SE ES   1    047 58.05                             149   -0.44 7 81.2  37 
 RUS  HZ EP        047 42.11                             145    0.0610 95.2 176 
 RUS  HN ES   1    047 59.94                             145   -0.20 7 95.2 176 
 RUS  HZ I         048  2.40        17.3 0.28                          95.2 176 
 PTB  HZ EP   1    047 45.21                             132   -0.44 7  147 261 
 TAM  HZ EP        047 46.61                             131    0.39 9  153 103 
 TAM  HZ I         047 46.96        23.2 0.18                           153 103 
 ZAR  HZ EP   1    047 51.45                             122   -0.01 6  207 293 
 ZAR  HN ES   2    048 16.30                             122   -0.59 4  207 293 
 ZAR  HZ I         048 22.81        14.1 0.32                           207 293 
 NOR  SN ES   2    048 21.78                             118    0.00 4  232 236 
                                                                                
