 2017  111 0328 32.9 L   6.773 -73.060151.9  RSN  9 0.4 1.6LRSN                1
 GAP=128        0.99       4.4     5.3  6.1  0.8369E+01  0.5487E+01  0.9816E+01E
 Epicentro: LOS SANTOS - SANTANDER                                             3
 ACTION:UPD 17-05-22 15:58 OP:jn   STATUS:               ID:20170111032832 L   I
 OLDACT:UP  17-01-11 14:20 OP:and  STATUS:               ID:20170111031749d    3
 OLDACT:UP  17-01-11 14:19 OP:and  STATUS:               ID:20170111031749d    3
 OLDACT:UP  17-01-11 14:18 OP:and  STATUS:               ID:20170111031749d    3
 OLDACT:UP  17-01-11 14:18 OP:and  STATUS:               ID:20170111031749d    3
 OLDACT:UP  17-01-11 14:17 OP:and  STATUS:               ID:20170111031749d    3
 OLDACT:UP  17-01-11 14:16 OP:and  STATUS:               ID:20170111031749d    3
 OLDACT:UP  17-01-11 14:15 OP:and  STATUS:               ID:20170111031749d    3
 OLDACT:DUP 17-01-11 14:13 OP:and  STATUS:               ID:20170111031749d    3
 OLDACT:UP  17-01-11 14:08 OP:and  STATUS:               ID:20170111031746d    3
 OLDACT:UP  17-01-11 14:08 OP:and  STATUS:               ID:20170111031746d    3
 OLDACT:UP  17-01-11 14:08 OP:and  STATUS:               ID:20170111031746d    3
 OLDACT:UP  17-01-11 14:08 OP:and  STATUS:               ID:20170111031746d    3
 OLDACT:UP  17-01-11 14:08 OP:and  STATUS:               ID:20170111031746d    3
 OLDACT:UP  17-01-11 14:07 OP:and  STATUS:               ID:20170111031746d    3
 OLDACT:UP  17-01-11 14:07 OP:and  STATUS:               ID:20170111031746d    3
 OLDACT:DUP 17-01-11 14:05 OP:and  STATUS:               ID:20170111031746d    3
 2017-01-11-0318-00M.COL___346                                                 6
 STAT SP IPHASW D HRMM SECON CODA AMPLIT PERI AZIMU VELO AIN AR TRES W  DIS CAZ7
 BAR2 EZ EP        328 53.22                             171   -0.0410 24.1 214 
 BAR2 EZ ES        329  9.03                             171   -0.1310 24.1 214 
 BAR2 EZ I         329 12.12         6.9 0.33            168           24.1 214 
 PAM  EZ EP        328 55.69                             153    0.1210 74.2  32 
 PAM  EN ES        329 13.35                             153    0.0810 74.2  32 
 PAM  EZ I         329 15.89         4.6 0.54            156           74.2  32 
 BRR  HZ EP        328 54.87                             150   -0.3810 80.9 297 
 BRR  HN ES        329 13.22                             150    0.5210 80.9 297 
 RUS  HZ EP        328 57.24                             146    0.2210 97.4 181 
 RUS  HN ES        329 15.75                             146   -0.0910 97.4 181 
 RUS  HZ I         329 16.90         3.8 0.30            147           97.4 181 
 PTB  HZ EP   4    328 59.94                             132   -1.20 0  157 261 
 PTB  HN ES   4    329 20.88                             132   -2.30 0  157 261 
 PTB  HZ I         329 28.33         6.0 0.36            131            157 261 
 ZAR  HZ EP   2    329  6.86                             122    0.12 4  214 292 
 ZAR  HN ES        329 32.30                             122   -0.85 8  214 292 
 ZAR  HZ I         329 38.16         7.2 0.32            123            214 292 
 CHI  HZ EP        329 11.32                             118    0.42 8  248 197 
 CHI  HN ES   4    329 41.92                             118    1.36 0  248 197 
 PTGC HZ EP        329 15.81                             113   -0.52 7  303 160 
 PTGC HN ES        329 49.78                             113   -0.44 7  303 160 
 GUY2CHZ EP        329 18.44                             113    0.98 7  307 236 
 GUY2CHN ES   4    329 53.79                             113    1.56 0  307 236 
 GUY2CHZ I         330  0.44         1.6 0.40                           307 236 
                                                                                
