 2015  611 0111  5.0 L   6.761 -73.105133.2  RSN  4 0.1 1.3LRSN                1
 GAP=144        0.45       2.2     3.3  3.8 -0.1402E+00 -0.8972E+00  0.1116E+00E
 Epicentro: LOS SANTOS - SANTANDER                                             3
 ACTION:UPD 15-09-10 22:11 OP:cam  STATUS:               ID:20150611011105 L   I
 OLDACT:REG 15-06-11 13:21 OP:stll STATUS:               ID:20150611010750     3
 2015-06-11-0107-50M.COL___297                                                 6
 STAT SP IPHASW D HRMM SECON CODA AMPLIT PERI AZIMU VELO AIN AR TRES W  DIS CAZ7
 BAR2 EZ ES        111 37.00                             171   -0.2010 20.5 205 
 BAR2 EZ I         111 38.91         6.4 0.10            169           20.5 205 
 BRR  HZ EP        111 25.01                             148   -0.2210 77.2 300 
 BRR  HN ES        111 41.16                             148    0.1910 77.2 300 
 PAM  SZ IP     C  111 26.01                             148    0.0310 78.1  35 
 PAM  SZ I         111 26.16         6.4 0.20            150           78.1  35 
 PAM  SN ES        111 42.36                             148    0.0410 78.1  35 
 RUS  HZ EP        111 27.34                             142    0.1010 96.1 179 
 RUS  HN ES        111 44.62                             142    0.0610 96.1 179 
 RUS  HZ I         111 46.92         2.1 0.40            142           96.1 179 
                                                                                
