 2015  111 0104 29.4 L   6.026 -73.720110.0  RSN  9 0.5 1.6LRSN                1
 GAP= 79        1.25       3.3     4.1  7.8 -0.1038E+01  0.1040E+02  0.1496E+01E
 Epicentro: VELEZ - SANTANDER                                                  3
 ACTION:UPD 15-03-02 15:38 OP:nd   STATUS:               ID:20150111010429 L   I
 OLDACT:REG 15-01-11 13:22 OP:cam  STATUS:               ID:20150111005821     3
 2015-01-11-0058-21M.COL___209                                                 6
 STAT SP IPHASW D HRMM SECON CODA AMPLIT PERI AZIMU VELO AIN AR TRES W  DIS CAZ7
 SPBC HE ES        1 4 59.23                             151    0.2410 56.8 223 
 SPBC HZ I         1 5  5.73        12.2 0.10            151           56.8 223 
 RUS  HZ EP        1 4 47.41                             145   -0.2010 72.1 102 
 RUS  HN ES        1 5  1.71                             145   -0.0810 72.1 102 
 BAR2 EZ ES        1 5  3.56                             139    0.4910 86.4  44 
 PTB  HZ EP        1 4 48.72                             135   -0.3810 99.3 305 
 PTB  HN ES        1 5  3.69                             135   -0.7510 99.3 305 
 PTB  HZ I         1 5  6.93         7.1 0.10            139           99.3 305 
 BRR  HZ EP        1 4 50.57                             129   -0.3610  120   0 
 BRR  HN ES        1 5  7.93                             129    0.2410  120   0 
 NOR  HZ EP        1 4 52.76                             125    0.04 9  137 248 
 NOR  HN ES        1 5 11.55                             125    0.67 9  137 248 
 NOR  HZ I         1 5 13.26         9.0 0.20            128            137 248 
 CHI  HZ EP        1 4 54.26                             121   -0.70 9  154 180 
 CHI  HN ES        1 5 14.88                             121    0.00 9  154 180 
 CHI  HZ I         1 5 20.04         3.0 0.38            125            154 180 
 ZAR  HZ EP        1 5  1.10                             113    1.14 9  205 322 
 ZAR  HN ES        1 5 23.38                             113   -0.39 9  205 322 
 ZAR  HZ I         1 5 24.78        11.6 0.26            118            205 322 
 TOL  SZ EP        1 5  4.76                             110    0.62 8  238 228 
 TOL  SN ES        1 5 30.94                             110   -0.28 8  238 228 
                                                                                
