 2014  611 0413 58.9 L   6.825 -73.184141.5  RSN  9 0.4 1.9LRSN                1
 GAP=131        0.75       2.9     3.6  5.9 -0.1320E+01  0.9660E+01 -0.1920E+01E
 Epicentro: ZAPATOCA - SANTANDER                                               3
 ACTION:UPD 14-07-01 22:52 OP:nd   STATUS:               ID:20140611041358 L   I
 OLDACT:REG 14-06-11 13:25 OP:mh   STATUS:               ID:20140611040814     3
 2014-06-11-0408-14M.COL___253                                                 6
 STAT SP IPHASW D HRMM SECON CODA AMPLIT PERI AZIMU VELO AIN AR TRES W  DIS CAZ7
 BAR2 SZ EP        414 17.98                             169   -0.1110 25.7 180 
 BAR2 SZ ES   1    414 32.93                             169   -0.11 7 25.7 180 
 BAR2 SZ I         414 35.25        17.4 0.24            171           25.7 180 
 PAM  SZ EP        414 20.99                             150    0.2710 78.1  43 
 PAM  SN ES        414 38.12                             150    0.3810 78.1  43 
 PAM  SZ I         414 40.29        12.8 0.42            154           78.1  43 
 RUS  HZ EP        414 22.26                             142   -0.2210  104 174 
 RUS  HN ES   1    414 40.74                             142   -0.12 7  104 174 
 RUS  HZ I         414 42.25         8.9 0.41            148            104 174 
 PTB  HZ EP   1    414 24.81                             132   -0.40 7  144 257 
 PTB  HN ES   1    414 45.50                             132   -0.22 7  144 257 
 SPBC HZ EP   1    414 26.87                             128   -0.18 7  163 217 
 SPBC HN ES   1    414 48.72                             128   -0.27 7  163 217 
 SPBC HZ I         414 51.73        10.1 0.28            132            163 217 
 ZAR  HZ EP        414 30.49                             122   -0.08 9  199 292 
 ZAR  HN ES   1    414 55.54                             122    0.27 6  199 292 
 ZAR  HZ I         415  6.62         4.6 0.25            124            199 292 
 NOR  HN ES   4    415  2.17                             118    0.44 0  233 233 
 SML  HZ EP   1    414 34.51                             117   -0.33 6  239 336 
 SML  HN ES        415  2.44                             117   -0.43 8  239 336 
 SML  HZ I         415  7.66        13.4 0.09            119            239 336 
 HEL  HZ EP   4    414 40.30                             114    1.76 0  269 255 
 HEL  HN ES   1    415 10.13                             114    0.69 6  269 255 
 GUY2CHZ EP        414 42.98                             112    0.86 7  299 234 
 GUY2CHN ES   4    415 18.93                             112    3.11 0  299 234 
 GUY2CHZ I         415 24.45         2.9 0.27                           299 234 
                                                                                
