 2014 1111 0949  6.7 L   6.824 -73.163140.2  RSN  4 0.4 1.4LRSN                1
 GAP=216        1.01       8.6     6.6 10.5 -0.3363E+02 -0.5497E+01  0.2840E+02E
 Epicentro: LOS SANTOS - SANTANDER                                             3
 ACTION:UPD 14-12-19 15:42 OP:nd   STATUS:               ID:20141111094906 L   I
 OLDACT:ARG 14-11-11 12:38 OP:stll STATUS:               ID:20141111094745     3
 2014-11-11-0947-45M.COL___289                                                 6
 STAT SP IPHASW D HRMM SECON CODA AMPLIT PERI AZIMU VELO AIN AR TRES W  DIS CAZ7
 BRR  HZ EP        949 27.52                             152    0.4910 68.2 297 
 BRR  HE ES        949 43.38                             152    0.4610 68.2 297 
 BRR  HZ I         949 47.94         9.1 0.14            148           68.2 297 
 PAM  SZ EP        949 28.54                             150    0.3110 76.6  42 
 PAM  SE ES        949 44.62                             150   -0.4410 76.6  42 
 PAM  SZ I         949 46.53         1.9 0.18            149           76.6  42 
 PTB  HZ EP        949 32.64                             131   -0.40 9  146 258 
 PTB  HN ES        949 53.29                             131   -0.34 9  146 258 
 PTB  HZ I         949 55.06         4.0 0.16            132            146 258 
 OCA  HN ES        949 55.57                             129   -0.22 9  157 354 
 OCA  HZ I         950  1.31         4.0 0.46            128            157 354 
                                                                                
