 2015  311 0243 55.8 L   6.757 -73.148146.5  RSN 10 0.4 2.0LRSN                1
 GAP= 96        0.88       3.6     3.4  5.7 -0.4086E+01  0.4854E+00  0.7197E+01E
 Epicentro: LOS SANTOS - SANTANDER                                             3
 ACTION:UPD 15-04-30 16:24 OP:nd   STATUS:               ID:20150311024355 L   I
 OLDACT:UP  15-03-11 14:25 OP:cam  STATUS:               ID:20150311023750     3
 OLDACT:REG 15-03-11 12:57 OP:cam  STATUS:               ID:20150311023750     3
 2015-03-11-0237-50M.COL___287                                                 6
 STAT SP IPHASW D HRMM SECON CODA AMPLIT PERI AZIMU VELO AIN AR TRES W  DIS CAZ7
 BAR2 EZ EP        244 15.28                             172   -0.1110 18.6 192 
 BAR2 EZ ES   1    244 30.43                             172   -0.28 7 18.6 192 
 BAR2 EZ I         244 31.78        33.6 0.16            169           18.6 192 
 BRR  HZ IP     D  244 17.08                             152   -0.0310 73.4 302 
 BRR  HN ES        244 34.44                             152    0.6810 73.4 302 
 BRR  HZ I         244 36.72        11.0 0.28            154           73.4 302 
 PAM  SZ EP        244 17.99                             150   -0.2910 81.3  38 
 PAM  SN ES        244 35.26                             150   -0.6010 81.3  38 
 PAM  SZ I         244 37.67        12.0 0.62            155           81.3  38 
 RUS  HZ EP        244 19.21                             145   -0.0310 95.8 176 
 RUS  HN ES        244 37.68                             145    0.1110 95.8 176 
 RUS  HZ I         244 38.98        14.5 0.22            145           95.8 176 
 TAM  HZ EP        244 23.55                             131    0.14 9  154 103 
 TAM  HN ES        244 45.48                             131    0.50 9  154 103 
 TAM  HN I         244 46.07        18.9 0.34            134            154 103 
 SPBC HZ EP        244 24.16                             130    0.21 9  159 220 
 SPBC HN ES        244 46.00                             130    0.06 9  159 220 
 SPBC HZ I         244 53.93        20.1 0.48            130            159 220 
 NOR  HN ES   2    244 59.04                             119    0.17 4  232 235 
 CHI  HZ EP        244 33.37                             118    0.38 8  244 195 
 CHI  HN ES        245  1.28                             118   -0.75 8  244 195 
 CHI  HZ I         245 11.23         4.0 0.28            119            244 195 
 GUY2CHN ES        245 12.37                             113   -0.48 7  298 235 
 PRA  HZ EP   1    244 48.71                             107   -0.09 4  388 210 
 PRA  HN ES        245 30.51                             107    0.33 6  388 210 
 PRA  HZ I         245 35.71         4.4 0.54            108            388 210 
                                                                                
