 2014  811 0502 53.4 L   7.451 -73.229132.2  RSN 15 0.5 3.1LRSN 3.7WRSN        1
 SPEC AVERAGE  MO 14.7 ST0.751 OM  2.8 f0 1.26 R1.8178 AL 0.00 WI 60.0 MW  3.7 3
 SPEC SD       MO  0.4 ST0.892 OM  0.4 f00.615 R0.6508 AL      WI      MW  0.3 3
 GAP=134        1.19       3.7     3.5  6.5  0.2389E+01  0.5874E+01 -0.5809E+00E
 Epicentro: EL PLAYON - SANTANDER                                              3
 SPEC PAM SH Z MO 14.3 ST0.847 OM  2.4 f0 1.94 R0.9918 AL-0.00 WI 60.0 MW  3.5 3
 SPEC PAM SH Z T 5 327 K 0.000 GD  145 VS 5.20 DE 3.50 Q0750.0 QA 1.50 VS 5.20 3
 SPEC BAR2SH Z MO 14.4 ST  3.0 OM  2.5 f0 2.63 R0.7316 AL-0.00 WI 60.0 MW  3.6 3
 SPEC BAR2SH Z T 5 330 K 0.000 GD  162 VS 5.20 DE 3.50 Q0750.0 QA 1.50 VS 5.20 3
 SPEC CTABSH Z MO 14.6 ST0.227 OM  2.4 f00.961 R2.0021 AL-0.00 WI 60.0 MW  3.7 3
 SPEC CTABSH Z T 5 410 K 0.000 GD  319 VS 5.20 DE 3.50 Q0750.0 QA 1.50 VS 5.20 3
 SPEC ROSCBH Z MO 14.6 ST0.150 OM  2.4 f00.820 R2.3463 AL-0.00 WI 60.0 MW  3.7 3
 SPEC ROSCBH Z T 5 413 K 0.000 GD  339 VS 5.20 DE 3.50 Q0750.0 QA 1.50 VS 5.20 3
 SPEC DBB SH Z MO 15.3 ST  1.1 OM  3.0 f00.976 R1.9713 AL-0.00 WI 60.0 MW  4.1 3
 SPEC DBB SH Z T 5 415 K 0.000 GD  358 VS 5.20 DE 3.50 Q0750.0 QA 1.50 VS 5.20 3
 SPECGUY2CHH Z MO 14.6 ST  0.1 OM  2.4 f00.745 R  2.58 AL-0.00 WI 60.0 MW  3.7 3
 SPECGUY2CHH Z T 5 421 K       GD366.9 VS 5.20 DE 3.50 Q0750.0 QA 1.50 VS 5.20 3
 SPEC VIL SH Z MO 14.4 ST0.248 OM  2.1 f0 1.16 R1.6586 AL-0.00 WI 60.0 MW  3.6 3
 SPEC VIL SH Z T 5 423 K 0.000 GD  395 VS 5.20 DE 3.50 Q0750.0 QA 1.50 VS 5.20 3
 SPEC TOL SH Z MO 15.1 ST0.344 OM  2.8 f00.745 R2.5826 AL-0.00 WI 60.0 MW  4.0 3
 SPEC TOL SH Z T 5 429 K 0.000 GD  413 VS 5.20 DE 3.50 Q0750.0 QA 1.50 VS 5.20 3
 SPEC ORTCHH Z MO 14.6 ST0.147 OM  2.2 f00.852 R2.2582 AL-0.00 WI 60.0 MW  3.7 3
 SPEC ORTCHH Z T 5 438 K 0.000 GD  469 VS 5.20 DE 3.50 Q0750.0 QA 1.50 VS 5.20 3
 2014-08-11-0500-00M.COL___285                                                 6
 OLDACT:UP  14-08-11 16:07 OP:cam  STATUS:               ID:20140811050000     3
 OLDACT:UP  14-08-11 16:07 OP:cam  STATUS:               ID:20140811050000     3
 OLDACT:UP  14-08-11 16:07 OP:cam  STATUS:               ID:20140811050000     3
 OLDACT:UP  14-08-11 16:06 OP:cam  STATUS:               ID:20140811050000     3
 OLDACT:UP  14-08-11 16:05 OP:cam  STATUS:               ID:20140811050000     3
 OLDACT:UP  14-08-11 15:52 OP:cam  STATUS:               ID:20140811050000     3
 OLDACT:UP  14-08-11 15:51 OP:cam  STATUS:               ID:20140811050000     3
 OLDACT:REG 14-08-11 13:43 OP:cam  STATUS:               ID:20140811050000     3
 ACTION:UPD 14-09-15 21:48 OP:nd   STATUS:               ID:20140811050253 L   I
 OLDACT:UP  14-08-12 09:06 OP:CF   STATUS:               ID:20140811050253 L   3
 OLDACT:UP  14-08-11 16:08 OP:cam  STATUS:               ID:20140811050000     3
 STAT SP IPHASW D HRMM SECON CODA AMPLIT PERI AZIMU VELO AIN AR TRES W  DIS CAZ7
 PAM  SZ IP     C  5 3 13.43                             155    0.2910 59.7 102 
 PAM  SN ES        5 3 28.58                             155    0.0410 59.7 102 
 PAM  SZ I         5 3 31.34       262.3 0.34            158           59.7 102 
 BRR  HZ IP     D  5 3 13.22                             152    0.4710 65.5 235 
 BRR  HE ES        5 3 28.45                             152    0.6110 65.5 235 
 BRR  HZ I         5 3 28.93       432.9 0.12            147           65.5 235 
 BAR2 SZ IP     C  5 3 15.11                             142    0.0510 95.1 177 
 BAR2 SZ ES        5 3 31.54                             142   -0.4110 95.1 177 
 BAR2 SZ I         5 3 32.67       609.2 0.16            140           95.1 177 
 PTB  HZ EP     D  5 3 21.27                             125   -0.09 9  169 233 
 PTB  HE ES        5 3 43.06                             125   -0.12 9  169 233 
 PTB  HZ I         5 3 46.28       128.9 0.20            122            169 233 
 RUS  HZ EP        5 3 21.84                             124   -0.56 9  173 175 
 RUS  HN ES        5 3 44.45                             124   -0.58 9  173 175 
 RUS  HZ I         5 3 45.37        66.4 0.34            123            173 175 
 SML  HZ EP        5 3 22.13                             123    0.10 9  176 328 
 SML  HN ES        5 3 43.75                             123   -0.61 9  176 328 
 SML  HZ I         5 3 45.31       238.9 0.10            124            176 328 
 ZAR  HZ IP     C  5 3 23.29                             123    0.83 9  180 272 
 ZAR  HN ES   1    5 3 45.95                             123    0.82 7  180 272 
 ZAR  HZ I         5 3 51.08       162.7 0.34            121            180 272 
 TAM  HZ IP     C  5 3 24.03                             121    0.01 9  195 125 
 TAM  HN ES        5 3 47.75                             121   -0.17 9  195 125 
 TAM  HZ I         5 3 48.71       108.5 0.22            121            195 125 
 SPBC HZ EP        5 3 26.52                             117   -0.25 8  220 205 
 SPBC HN ES        5 3 53.03                             117    0.22 8  220 205 
 SPBC HZ I         5 3 59.08       129.9 0.34            116            220 205 
 URE  HZ EP        5 3 30.55                             113   -0.18 8  256 278 
 URE  HE ES        5 3 58.38                             113   -1.48 8  256 278 
 URE  HZ I         5 4  4.62        70.3 0.12            112            256 278 
 NOR  HZ EP        5 3 33.52                             111    0.47 7  277 221 
 NOR  HN ES        5 4  4.16                             111    0.17 7  277 221 
 NOR  HZ I         5 4 10.35        56.2 0.18            110            277 221 
 ARGC HN EP   4    5 3 37.68                             110    3.29 0  289 337 
 HEL  HZ EP        5 3 35.72                             110    0.74 7  290 241 
 HEL  HN ES   1    5 4  6.84                             110   -0.57 5  290 241 
 HEL  HZ I         5 4 18.30        39.8 0.28            109            290 241 
 CTAB SZ EP   4    5 3 37.60                             110    2.43 0  291 202 
 ROSC BZ EP   4    5 3 39.23                             109    1.58 0  313 203 
 ROSC BN ES   4    5 4 15.31                             109    3.13 0  313 203 
 ROSC BZ I         5 4 19.91        67.0 0.40            108            313 203 
 CHI  HZ EP   4    5 3 38.38                             108    0.24 0  317 190 
 DBB  SZ EP   4    5 3 40.14                             107    0.58 0  333 262 
 CVER SZ EP   4    5 3 43.29                             107    2.72 0  337 196 
 GUY2CHZ EP   4    5 3 42.59                             107    1.54 0  341 224 
 GUY2CHN ES   4    5 4 22.54                             107    4.31 0  341 224 
 GUY2CHZ I         5 4 30.55        47.5 0.62                           341 224 
 SJC  HZ EP   4    5 3 41.04                             107    0.03 0  345 322 
 CBOC HZ EP   4    5 3 43.23                             106    1.04 0  354 240 
 VIL  SZ EP   4    5 3 45.12                             105    0.81 0  373 188 
 TOL  SZ EP   4    5 3 48.25                             104    1.36 0  392 216 
 ANIL HZ EP   4    5 3 50.72                             104    2.25 0  406 216 
 SMAR HZ EP   4    5 3 50.55                             103    0.22 0  425 345 
 ORTC HZ EP   4    5 3 53.55                             102    0.08 0  451 210 
 PRA  HZ EP   4    5 3 54.06                             102    0.43 0  452 204 
 PRA  HN ES   4    5 4 39.83                             102   -0.78 0  452 204 
 PRA  HZ I         5 4 52.95        29.0 0.32            101            452 204 
 CAP2 HZ EP   4    5 3 54.70                             101   -1.51 0  474 286 
 URI  HZ EP   4    5 3 56.44                             100   -1.57 0  489  16 
 YOT  HZ EP   4    5 4  1.13                             100   -0.23 0  516 222 
 MACC HZ EP   4    5 4  8.24                              98   -2.01 0  591 187 
 FLO2 HZ EP   4    5 4 24.14                              96    0.35 0  702 203 
 BBAC HZ EP   4    5 4 29.94                              95    0.43 0  748 217 
                                                                                
