 2015  911 0114 37.5 L   6.749 -73.178141.2  RSN  6 0.4 1.7LRSN                1
 GAP=230        1.00       5.4     5.7  7.3  0.1239E+02  0.8490E+01  0.3503E+01E
 Epicentro: LOS SANTOS - SANTANDER                                             3
 ACTION:UPD 15-10-28 16:25 OP:cam  STATUS:               ID:20150911011437 L   I
 OLDACT:UP  15-09-11 13:43 OP:drio STATUS:               ID:20150911010747     3
 OLDACT:UP  15-09-11 13:41 OP:drio STATUS:               ID:20150911010747     3
 OLDACT:REG 15-09-11 12:31 OP:drio STATUS:               ID:20150911010747     3
 2015-09-11-0107-47M.COL___356                                                 6
 STAT SP IPHASW D HRMM SECON CODA AMPLIT PERI AZIMU VELO AIN AR TRES W  DIS CAZ7
 BAR2 EZ EP        114 56.21                             173   -0.2110 17.3 181 
 BAR2 EZ ES        115 11.11                             173   -0.1110 17.3 181 
 BAR2 EZ I         115 11.99        11.5 0.36            171           17.3 181 
 BRR  HZ EP        114 58.28                             152    0.1810 71.1 304 
 BRR  HN ES        115 14.60                             152    0.4010 71.1 304 
 BRR  HZ I         115 18.13         9.7 0.26            150           71.1 304 
 RUS  HZ EP        115  0.22                             144   -0.1510 95.3 174 
 RUS  HE ES        115 18.18                             144   -0.0610 95.3 174 
 RUS  HZ I         115 19.80         2.8 0.28            146           95.3 174 
 PTB  HZ EP        115  3.19                             132   -0.44 9  143 261 
 PTB  HN ES        115 23.25                             132   -0.80 9  143 261 
 PTB  HZ I         115 26.24         5.9 0.16            131            143 261 
 SPBC HZ EP        115  5.46                             129    0.50 9  157 219 
 SPBC HE ES        115 26.96                             129    0.54 9  157 219 
 SPBC HZ I         115 31.16         7.0 0.12            129            157 219 
 ZAR  HN ES        115 34.70                             121    0.23 9  203 294 
 ZAR  HZ I         115 40.15         7.9 0.28            122            203 294 
                                                                                
