 2017  211 0041 42.6 L   6.797 -73.158145.6  RSN 20 0.5 2.4LRSN                1
 GAP= 65        0.99       3.4     2.8  5.0 -0.8631E-01  0.3423E+01  0.3299E+01E
 Epicentro: LOS SANTOS - SANTANDER                                             3
 ACTION:UPD 17-05-24 15:35 OP:jn   STATUS:               ID:20170211004142 L   I
 OLDACT:UP  17-02-11 13:35 OP:and  STATUS:               ID:20170211003746     3
 OLDACT:UP  17-02-11 13:35 OP:and  STATUS:               ID:20170211003746     3
 OLDACT:UP  17-02-11 13:33 OP:and  STATUS:               ID:20170211003746     3
 OLDACT:UP  17-02-11 13:31 OP:and  STATUS:               ID:20170211003746     3
 OLDACT:UP  17-02-11 13:31 OP:and  STATUS:               ID:20170211003746     3
 OLDACT:UP  17-02-11 13:29 OP:and  STATUS:               ID:20170211003746     3
 OLDACT:UP  17-02-11 13:27 OP:and  STATUS:               ID:20170211003746     3
 OLDACT:REG 17-02-11 12:21 OP:and  STATUS:               ID:20170211003746     3
 2017-02-11-0038-00M.COL___358                                                 6
 STAT SP IPHASW D HRMM SECON CODA AMPLIT PERI AZIMU VELO AIN AR TRES W  DIS CAZ7
 BAR2 EZ EP        042  2.15                             171   -0.0710 22.8 187 
 BAR2 EZ ES        042 17.28                             171   -0.2210 22.8 187 
 BAR2 EZ I         042 18.31        97.0 0.24            170           22.8 187 
 BRR  HZ IP     C  042  3.88                             153    0.1910 70.2 299 
 BRR  HN ES        042 21.07                             153    0.9410 70.2 299 
 BRR  HZ I         042 25.31        35.3 0.17            148           70.2 299 
 PAM  EZ EP        042  5.04                             150    0.1610 78.5  40 
 PAM  EN ES        042 21.91                             150   -0.3410 78.5  40 
 PAM  EZ I         042 24.91        31.2 0.52            152           78.5  40 
 RUS  HZ IP     C  042  6.15                             144   -0.1910  100 175 
 RUS  HN ES        042 24.88                             144    0.0510  100 175 
 RUS  HZ I         042 25.83        28.6 0.32            144            100 175 
 PTB  HZ EP     C  042  8.46                             132   -0.99 9  146 259 
 PTB  HN ES        042 29.89                             132   -0.48 9  146 259 
 PTB  HZ I         042 31.82        27.1 0.13            130            146 259 
 TAM  HZ IP     D  042 10.55                             130    0.16 9  156 105 
 TAM  HN ES        042 32.14                             130    0.08 9  156 105 
 ZAR  HZ EP   2    042 15.18                             122    0.24 4  203 292 
 ZAR  HE ES        042 40.17                             122    0.02 9  203 292 
 ZAR  HZ I         042 48.90        28.4 0.12            120            203 292 
 NOR  HZ EP        042 18.38                             119    0.18 8  233 234 
 NOR  HE EP        042 18.40                             119            233 234 
 NOR  HN ES        042 45.83                             119   -0.12 8  233 234 
 NOR  HZ I         042 51.09        17.4 0.18            117            233 234 
 CHI  HZ EP        042 20.35                             117    0.12 8  248 195 
 CHI  HN ES        042 49.61                             117    0.04 8  248 195 
 CHI  HZ I         042 52.00        20.6 0.34            117            248 195 
 ROSC BZ EP   9    042 22.20                             117    1.58 0  252 211 
 ROSC BN ES        042 52.65                             117    0.81 8  252 211 
 ROSC BZ I         042 56.82        39.8 0.40            116            252 211 
 URE  HZ EP   3    042 22.13                             114   -1.42 2  283 292 
 URE  HE ES   4    042 53.35                             114   -2.13 0  283 292 
 URE  HZ I         043  4.34        24.9 0.16            112            283 292 
 PTGC HZ IP   9 D  042 25.29                             111   -1.20 0  309 158 
 PTGC HN ES        042 58.62                             112   -0.89 7  309 158 
 PTGC HZ I         043  3.06        10.4 0.23            112            309 158 
 LL6C HN EP   9    042  9.65                             110   -18.7 0  325 358 
 LL6C HE ES   2    042 44.77                                   -0.55 3  325 358 
 ELA  HZ EP   4    042 31.70                             110    2.38 0  328 229 
 ELA  HN ES   2    043  6.97                             110    1.22 3  328 229 
 ELA  HZ I         043 13.93         8.9 0.38            109            328 229 
 CBOC HZ EP        042 30.03                             110    0.66 7  332 252 
 CBOC HN ES        043  5.13                             110   -0.70 7  332 252 
 CBOC HZ I         043 10.97         2.9 0.17            109            332 252 
 DBB  EZ EP        042 30.37                             109    0.44 7  338 274 
 DBB  EN ES   3    043  5.33                             109   -1.51 2  338 274 
 DBB  EZ I         043  9.64         7.6 0.22            108            338 274 
 ANIL HZ EP   4    042 36.00                             108    3.72 0  356 224 
 ANIL HN ES   3    043 13.22                             108    2.21 2  356 224 
 ORTC HZ EP        042 36.56                             106    0.15 6  394 216 
 ORTC HN ES   2    043 18.75                             106    0.39 3  394 216 
 ORTC HZ I         043 26.11         6.0 0.18            106            394 216 
 SJC  HZ EP   9    042 36.32                             106   -1.80 0  409 327 
 SJC  HE ES        043 19.32                             106   -0.29 6  409 327 
 SJC  HZ I         043 32.47         3.9 0.43            105            409 327 
 CRJC HZ EP   9    042 42.61                             103   -2.55 0  468   4 
 CRJC HN ES        043 31.04                             104   -0.35 5  468   4 
                                                                                
