 2016 1111 0956 22.3 L   6.662 -74.101 14.5  RSN  9 0.3 1.9LRSN                1
 GAP=122        0.74       2.4     1.5  2.7 -0.1713E+01  0.5271E+00 -0.1330E+00E
 Epicentro: PUERTO PARRA - SANTANDER                                           3
 ACTION:UPD 17-10-26 21:06 OP:lp   STATUS:               ID:20161111095622 L   I
 OLDACT:REG 16-11-11 14:47 OP:ar   STATUS:               ID:20161111094746     3
 2016-11-11-0948-00M.COL___331                                                 6
 STAT SP IPHASW D HRMM SECON CODA AMPLIT PERI AZIMU VELO AIN AR TRES W  DIS CAZ7
 PTB  HZ EP        956 29.23                             106   -0.2410 41.5 251 
 PTB  HN ES        956 35.12                             106    0.1010 41.5 251 
 PTB  HZ I         956 35.51       159.4 0.08             47           41.5 251 
 BRR  HZ EP        956 32.85                             100   -0.1310 65.4  41 
 BRR  HN ES        956 41.66                             100    0.3910 65.4  41 
 BRR  HZ I         956 44.63        41.9 0.14             47           65.4  41 
 BAR2 EZ EP        956 38.65                              96   -0.0710  102  94 
 BAR2 EZ ES        956 51.31                              96   -0.1710  102  94 
 BAR2 EZ I         956 53.81        53.3 0.26             47            102  94 
 ZAR  HZ EP   9    956 40.04                              95   -1.79 0  124 318 
 ZAR  HN ES        956 54.82                                   -0.4210  124 318 
 ZAR  HZ I         956 55.64        45.2 0.10             47            124 318 
 PAM  EZ EP        956 49.21                              56    0.41 9  172  64 
 PAM  EN ES        957  9.09                              56   -0.34 9  172  64 
 PAM  EZ I         957 10.32        34.3 0.24             47            172  64 
 URE  HZ EP        956 51.65                              56    0.09 9  199 307 
 URE  HN ES   4    957 15.65                              56    1.30 0  199 307 
 URE  HZ I         957 19.68         7.6 0.28             37            199 307 
 CBOC HZ EP        956 55.01                              56   -0.54 8  229 247 
 CBOC HN ES        957 21.57                              56    0.12 8  229 247 
 CBOC HZ I         957 28.05         2.5 0.25             37            229 247 
 ELA  HZ EP   4    957  3.86                              56    5.80 0  246 216 
 ELA  HN ES        957 26.28                              56    0.37 8  246 216 
 ELA  HZ I         957 26.92         4.4 0.38             37            246 216 
 SJC  HZ EP        957 14.20                              55    0.47 6  377 342 
 SJC  HN ES        957 53.47                              55   -0.35 6  377 342 
 SJC  HZ I         957 55.79         2.2 0.62             36            377 342 
                                                                                
