 2012  811 0223 34.4 L   6.760 -73.129139.5  RSN  8 0.4 1.8LRSN                1
 GAP=141        0.76       4.1     4.3  5.7  0.7135E+00  0.7321E+01  0.4967E+01E
 Epicentro: LOS SANTOS - SANTANDER                                             3
 ACTION:UPD 12-09-10 11:55 OP:ep   STATUS:               ID:20120811022334 L   I
 2012-08-11-0220-00M.COL___218                                                 6
 STAT SP IPHASW D HRMM SECON CODA AMPLIT PERI AZIMU VELO AIN AR TRES W  DIS CAZ7
 BAR2 SZ EP        223 53.22                             172    0.0210 19.4 198 
 BAR2 SZ ES   1    224  7.60                             172   -0.27 7 19.4 198 
 BAR2 SZ I         224  9.69        22.6 0.33                          19.4 198 
 GIR2 SZ EP   1    223 53.29                             165   -0.18 7 36.0 349 
 GIR2 SZ ES   1    224  8.24                             165   -0.11 7 36.0 349 
 BRR  HZ EP   1    223 55.12                             150    0.01 7 75.0 301 
 BRR  HN ES   1    224 12.16                             150    0.91 7 75.0 301 
 BRR  HZ I         224 13.08        17.7 0.10                          75.0 301 
 PAM  SZ EP   1    223 56.07                             149   -0.03 7 79.8  36 
 PAM  SN ES   1    224 12.84                             149   -0.19 7 79.8  36 
 RUS  HZ EP   1    223 57.16                             144   -0.05 7 96.0 177 
 RUS  HN ES   1    224 15.36                             144    0.36 7 96.0 177 
 RUS  HZ I         224 16.86        11.4 0.34                          96.0 177 
 PTB  HZ EP   1    224  0.47                             130   -0.49 7  149 261 
 PTB  HZ I         224  2.06         3.3 0.24                           149 261 
 PTB  HN ES   1    224 20.89                             130   -0.79 7  149 261 
 ZAR  HZ EP   1    224  7.34                             120    0.53 6  207 293 
 ZAR  HE ES   1    224 32.12                             120    0.04 6  207 293 
 PRA  HZ EP   1    224 27.70                             106    0.33 4  389 210 
 PRA  HN ES   1    225  8.95                             106    0.27 4  389 210 
                                                                                
