 2011  211 0910 25.2 L   6.917 -72.430 95.9  RSN  4 0.3 1.2LRSN                1
 GAP=234        0.70      10.0    34.3 44.2 -0.2049E+03 -0.1409E+04  0.2074E+03E
 Epicentro: CERRITO - SANTANDER                                                3
 ACTION:UP  11-03-28 15:07 OP:jfem STATUS:               ID:20110211091025 L   I
 2011-02-11-0900-00M.COL___138                                                 6
 STAT SP IPHASW D HRMM SECON CODA AMPLIT PERI AZIMU VELO SNR AR TRES W  DIS CAZ7
 BAR2 SZ EP   1    910 43.11                             132    -0.1 7   91 247 
 BAR2 SZ ES   2    910 57.75                             132     0.4 5   91 247 
 BAR2 SZ I         910 59.87         4.2 0.22                            91 247 
 BTL  SZ EP        910 43.66                             131     0.210   93 270 
 BTL  SZ ES   2    910 56.91                             131    -0.7 5   93 270 
 GRA  SZ EP   1    910 45.40                             125     0.0 7  115 339 
 GRA  SZ I         910 50.22         4.0 0.30                           115 339 
 RUS  HZ EP   2    910 47.55                             120    -0.3 5  134 213 
 RUS  HZ I         911  7.39         2.8 0.26                           134 213 
                                                                                
