 2012  311 0647 35.7 L   7.554 -73.051151.1  RSN  6 0.3 1.3LRSN                1
 GAP=202        0.69       5.5     6.5  8.2  0.8978E+01 -0.1612E+02 -0.1449E+02E
 ACTION:UP  12-03-31 23:18 OP:EP   STATUS:               ID:20120311064735 L   I
 2012-03-11-0640-00M.COL___193                                                 6
 STAT SP IPHASW D HRMM SECON CODA AMPLIT PERI AZIMU VELO SNR AR TRES W  DIS CAZ7
 OCA  SZ EP   1    647 58.49                             150     0.2 7   81 339 
 BRR  HZ EP        647 58.73                             148     0.310   88 236 
 BRR  HN ES        648 16.03                             148    -0.210   88 236 
 BRR  HZ I         648 19.74         4.5 0.17                            88 236 
 BAR2 SZ EP   1    647 59.59                             143    -0.5 7  107 188 
 BAR2 SZ ES   2    648 18.97                             143    -0.2 5  107 188 
 BAR2 SZ I         648 20.36         5.0 0.22                           107 188 
 RUS  HZ EP   1    648  7.02                             127    -0.1 7  184 181 
 RUS  HZ I         648  7.10         0.9 0.15                           184 181 
 RUS  HE ES   1    648 31.99                             127     0.4 7  184 181 
 PTB  HZ EP   1    648  7.58                             125     0.3 7  192 234 
 PTB  HN ES   1    648 31.90                             125     0.0 7  192 234 
 ZAR  HZ EP   1    648  7.58                             124    -0.5 6  200 268 
 ZAR  HE ES   2    648 33.46                             124     0.2 4  200 268 
 ZAR  HZ I         648 36.99         1.9 0.34                           200 268 
                                                                                
