 2017  311 0648 22.0 L   6.787 -73.131140.5  RSN 16 0.4 1.7LRSN                1
 GAP= 99        0.87       2.7     2.4  4.4 -0.4137E+00  0.2717E+01  0.1234E+01E
 Epicentro: LOS SANTOS - SANTANDER                                             3
 ACTION:UPD 17-05-25 18:39 OP:jn   STATUS:               ID:20170311064822 L   I
 OLDACT:UP  17-03-11 15:14 OP:and  STATUS:               ID:20170311064743     3
 OLDACT:UP  17-03-11 15:11 OP:and  STATUS:               ID:20170311064743     3
 OLDACT:UP  17-03-11 15:11 OP:and  STATUS:               ID:20170311064743     3
 OLDACT:UP  17-03-11 15:08 OP:and  STATUS:               ID:20170311064743     3
 OLDACT:REG 17-03-11 12:41 OP:and  STATUS:               ID:20170311064743     3
 2017-03-11-0648-00M.COL___391                                                 6
 STAT SP IPHASW D HRMM SECON CODA AMPLIT PERI AZIMU VELO AIN AR TRES W  DIS CAZ7
 BAR2 EZ IP     C  648 40.85                             171   -0.1510 22.3 195 
 BAR2 EZ ES        648 55.56                             171   -0.2410 22.3 195 
 BAR2 EZ I         648 56.83        11.6 0.17            168           22.3 195 
 BRR  HZ EP        648 42.95                             151    0.2210 73.3 299 
 BRR  HN ES        648 59.55                             151    0.6710 73.3 299 
 BRR  HZ I         649  4.11        11.2 0.10            150           73.3 299 
 PAM  EZ IP     C  648 43.72                             150    0.0310 77.5  38 
 PAM  EN ES        649  0.30                             150   -0.2910 77.5  38 
 PAM  EZ I         649  3.04        23.0 0.66            153           77.5  38 
 RUS  HZ EP        648 45.33                             143    0.1810 99.0 177 
 RUS  HN ES        649  2.74                             143   -0.4510 99.0 177 
 RUS  HZ I         649  4.61         7.6 0.26            143           99.0 177 
 PTB  HZ EP        648 48.06                             130   -0.63 9  149 259 
 PTB  HN ES        649  9.37                             130   -0.12 9  149 259 
 PTB  HZ I         649 10.90         6.6 0.12            130            149 259 
 TAM  HZ IP     C  648 49.27                             130    0.16 9  153 105 
 TAM  HN ES        649 10.67                             130    0.43 9  153 105 
 TAM  HZ I         649 14.09         4.0 0.26            132            153 105 
 SPBC HZ EP        648 49.92                             128   -0.19 9  163 220 
 SPBC HN ES        649 11.90                             128   -0.13 9  163 220 
 SPBC HZ I         649 15.19         6.3 0.09            127            163 220 
 ZAR  HZ EP        648 54.47                             121    0.13 8  206 292 
 ZAR  HN ES        649 19.91                             121    0.36 8  206 292 
 ZAR  HZ I         649 24.95        10.4 0.44            121            206 292 
 CHI  HZ EP   2    648 59.13                             116   -0.20 4  248 196 
 CHI  HE ES        649 28.95                             116    0.52 8  248 196 
 CHI  HZ I         649 32.84         1.1 0.21            116            248 196 
 ROSC BZ EP   9    649  1.31                             116    1.49 0  252 212 
 ROSC BN ES        649 31.04                                    0.25 8  252 212 
 ROSC BZ I         649 38.69         5.2 0.40            116            252 212 
 HEL  HZ EP   3    649  3.52                             113    1.41 2  273 256 
 HEL  HN ES        649 32.90                             113   -0.47 8  273 256 
 HEL  HZ I         649 41.10         1.6 0.56            114            273 256 
 URE  HZ EP        649  2.34                             112   -0.73 7  286 292 
 URE  HN ES   4    649 32.91                             112   -2.18 0  286 292 
 GUY2CHZ EP   4    649  8.20                             111    2.75 0  302 235 
 GUY2CHN ES        649 39.57                             111    0.25 7  302 235 
 GUY2CHZ  IAML     649 45.92         2.2 0.28                           302 235 
 PTGC HZ EP   9    649  4.17                             111   -1.26 0  307 159 
 PTGC HN ES        649 37.31                                   -0.72 7  307 159 
 PTGC HZ I         649 39.72         3.9 0.38            111            307 159 
 CBOC HN ES        649 45.77                             109    0.40 7  335 252 
 CBOC HZ I         649 56.84         1.1 0.54            109            335 252 
 PRA  HZ EP        649 15.54                             106    0.23 6  392 210 
 PRA  HN ES        649 56.95                             106    0.07 6  392 210 
 PRA  HZ I         650  1.16         2.1 0.34            106            392 210 
                                                                                
