 2013  711 0331 13.7 L   6.775 -73.142142.1  RSN  5 0.4 1.4LRSN                1
 GAP=186        1.14       7.0     7.4  8.1  0.1482E+02  0.1012E+02  0.8713E+01E
 Epicentro: LOS SANTOS - SANTANDER                                             3
 ACTION:UPD 13-08-12 10:36 OP:ep   STATUS:               ID:20130711033113 L   I
 OLDACT:REG 13-07-11 07:25 OP:nd   STATUS:               ID:20130711032959     3
 2013-07-11-0329-59M.COL___266                                                 6
 STAT SP IPHASW D HRMM SECON CODA AMPLIT PERI AZIMU VELO AIN AR TRES W  DIS CAZ7
 BAR2 SZ EP        331 32.43                             171   -0.4410 20.7 192 
 BAR2 SZ ES        331 47.97                             171    0.1810 20.7 192 
 BAR2 SZ I         331 49.87         7.3 0.16            167           20.7 192 
 GIR2 SZ EP        331 33.25                             166    0.2010 34.1 350 
 GIR2 SZ ES        331 47.37                             166   -0.7410 34.1 350 
 GIR2 SZ I         331 50.09         3.8 0.10            165           34.1 350 
 BRR  HZ EP     C  331 34.94                             151    0.3610 72.9 300 
 BRR  HN ES        331 51.54                             151    0.6910 72.9 300 
 BRR  HZ I         331 55.21         8.5 0.34            148           72.9 300 
 RUS  HZ EP        331 37.29                             144    0.3710 97.8 176 
 RUS  HN ES        331 55.02                             144    0.0110 97.8 176 
 RUS  HZ I         331 56.74         1.6 0.24            145           97.8 176 
 PTB  HZ EP        331 39.90                             131   -0.49 9  148 260 
 PTB  HN ES        332  0.95                             131   -0.23 9  148 260 
 PTB  HZ I         332  8.25         3.8 0.36            130            148 260 
                                                                                
