 2013  511 0523 30.6 L   6.816 -73.140148.5  RSN  9 0.5 1.7LRSN                1
 GAP=136        0.96       4.4     5.8  6.5  0.1117E+01  0.9744E+01  0.3790E+01E
 Epicentro: LOS SANTOS - SANTANDER                                             3
 ACTION:UPD 13-06-20 09:49 OP:ep   STATUS:               ID:20130511052330 L   I
 2013-05-11-0520-00M.COL___256                                                 6
 STAT SP IPHASW D HRMM SECON CODA AMPLIT PERI AZIMU VELO AIN AR TRES W  DIS CAZ7
 BAR2 SZ EP        523 50.55                             170   -0.0910 25.1 191 
 BAR2 SZ ES   1    524  5.73                             170   -0.51 7 25.1 191 
 BAR2 SZ I         524  6.95         6.5 0.28            168           25.1 191 
 GIR2 SZ EP   1    523 51.22                             168    0.62 7 29.7 349 
 GIR2 SZ ES   1    524  6.77                             168    0.60 7 29.7 349 
 GIR2 SZ I         524  8.07         4.6 0.36            166           29.7 349 
 BRR  HZ EP        523 52.63                             153    0.5510 70.9 297 
 BRR  HN ES   1    524  8.97                             153    0.18 7 70.9 297 
 BRR  HZ I         524 12.92         8.3 0.30            150           70.9 297 
 PAM  SZ EP   1    523 53.37                             152    0.31 7 75.7  40 
 PAM  SN ES   1    524 10.25                             152   -0.29 7 75.7  40 
 PAM  SZ I         524 12.80        11.3 0.58            156           75.7  40 
 RUS  HZ EP        523 54.47                             144   -0.3210  102 176 
 RUS  HN ES   1    524 13.40                             144   -0.22 7  102 176 
 PTB  HZ EP        523 57.14                             132   -0.78 9  149 258 
 PTB  HE ES   1    524 19.25                             132    0.05 7  149 258 
 PTB  HZ I         524 26.00         4.0 0.42            132            149 258 
 ZAR  HN ES   2    524 28.47                             123   -0.23 4  204 292 
 SML  HZ EP   1    524  6.95                             118   -0.34 6  242 335 
 SML  HN ES   1    524 35.50                             118   -0.36 6  242 335 
 SML  HZ I         524 38.49         9.2 0.10            119            242 335 
 PRA  HZ EP        524 25.32                             107    0.85 6  394 210 
 PRA  HE ES   1    525  7.13                             107    0.68 4  394 210 
 PRA  HZ I         525 11.89         1.7 0.28            108            394 210 
                                                                                
