 2017  211 0143 18.4 L   6.530 -73.527113.7  RSN  9 0.4 1.6LRSN                1
 GAP= 89        0.63       3.1     2.4  5.0 -0.2321E+01  0.1049E+01  0.4753E+01E
 Epicentro: EL CARMEN - SANTANDER                                              3
 ACTION:UPD 17-05-24 15:35 OP:jn   STATUS:               ID:20170211014318 L   I
 OLDACT:UP  17-02-11 13:57 OP:and  STATUS:               ID:20170211013740     3
 OLDACT:UP  17-02-11 13:57 OP:and  STATUS:               ID:20170211013740     3
 OLDACT:UP  17-02-11 13:56 OP:and  STATUS:               ID:20170211013740     3
 OLDACT:UP  17-02-11 13:56 OP:and  STATUS:               ID:20170211013740     3
 OLDACT:UP  17-02-11 13:55 OP:and  STATUS:               ID:20170211013740     3
 OLDACT:UP  17-02-11 13:54 OP:and  STATUS:               ID:20170211013740     3
 OLDACT:REG 17-02-11 12:28 OP:and  STATUS:               ID:20170211013740     3
 2017-02-11-0138-00M.COL___352                                                 6
 STAT SP IPHASW D HRMM SECON CODA AMPLIT PERI AZIMU VELO AIN AR TRES W  DIS CAZ7
 BAR2 EZ IP     D  143 34.95                             160    0.2610 38.8  80 
 BAR2 EZ ES        143 47.38                             160   -0.0410 38.8  80 
 BRR  HZ IP     C  143 35.92                             147    0.0410 67.0 342 
 BRR  HN ES        143 49.58                             147    0.0410 67.0 342 
 RUS  HZ EP        143 37.86                             141   -0.0710 85.9 145 
 RUS  HE ES   2    143 53.61                             141    0.42 5 85.9 145 
 RUS  HZ I         143 59.76         6.2 0.24            140           85.9 145 
 PTB  HZ IP   3 D  143 37.76                             135   -0.90 2  103 271 
 PTB  HN ES   3    143 52.62                             135   -1.87 2  103 271 
 PTB  HZ I         143 53.96        12.6 0.20            136            103 271 
 PAM  EZ EP        143 41.76                             128    0.1510  128  46 
 PAM  EN ES        143 59.46                             128   -0.2810  128  46 
 PAM  EZ I         144  0.77         7.2 0.26            132            128  46 
 ZAR  HZ EP   9    143 47.70                             117    1.22 0  182 306 
 ZAR  HE ES        144  9.96                             117    0.33 9  182 306 
 ZAR  HZ I         144 11.67         9.4 0.12            120            182 306 
 NOR  HN ES        144  8.49                             117   -0.30 9  183 234 
 NOR  HZ I         144 14.09         3.0 0.13            118            183 234 
 TAM  HN ES   2    144 10.58                             116    0.00 4  192  93 
 CBOC HZ EP   4    144  1.29                             106    2.90 0  285 255 
 CBOC HN ES        144 29.97                             106    0.36 7  285 255 
                                                                                
