 2013 1111 0311  1.7 L   6.771 -73.152143.5  RSN  7 0.4 1.6LRSN                1
 GAP=200        1.05       4.7     5.8  6.7  0.8679E+01  0.3646E+01 -0.6672E+01E
 Epicentro: LOS SANTOS - SANTANDER                                             3
 ACTION:UPD 14-01-09 16:27 OP:ep   STATUS:               ID:20131111031101 L   I
 OLDACT:REG 13-11-11 07:47 OP:nd   STATUS:               ID:20131111031000     3
 2013-11-11-0310-00M.COL___273                                                 6
 STAT SP IPHASW D HRMM SECON CODA AMPLIT PERI AZIMU VELO AIN AR TRES W  DIS CAZ7
 BAR2 SZ EP        311 21.38                             172    0.4310 20.1 190 
 BAR2 SZ ES        311 35.67                             172   -0.3310 20.1 190 
 BAR2 SZ I         311 37.12        14.2 0.20            170           20.1 190 
 BRR  HZ EP        311 22.96                             152    0.3510 72.2 301 
 BRR  HN ES        311 39.59                             152    0.6310 72.2 301 
 BRR  HZ I         311 44.95         7.4 0.12            149           72.2 301 
 RUS  HZ EP        311 25.02                             144    0.0610 97.4 176 
 RUS  HN ES        311 42.75                             144   -0.3810 97.4 176 
 RUS  HZ I         311 44.33         3.3 0.26            148           97.4 176 
 PTB  HZ EP        311 28.55                             132    0.23 9  146 260 
 PTB  HN ES        311 48.40                             132   -0.72 9  146 260 
 PTB  HZ I         311 51.98         4.5 0.16            131            146 260 
 SPBC HZ EP        311 29.91                             129    0.21 9  160 220 
 SPBC HN ES        311 51.76                             129    0.18 9  160 220 
 SPBC HZ I         311 58.30         3.5 0.20            130            160 220 
 ZAR  HZ EP        311 33.37                             122   -0.64 9  205 293 
 ZAR  HN ES        311 59.53                             122    0.28 9  205 293 
 ZAR  HZ I         312  5.97         6.2 0.30            122            205 293 
 SML  HZ EP        311 38.00                             117   -0.44 8  246 336 
 SML  HN ES   2    312  6.41                             117   -0.72 4  246 336 
 SML  HZ I         312 12.21         5.1 0.24            118            246 336 
                                                                                
