 2011  511 0742 44.8 L   6.650 -73.169148.0  RSN  5 0.2 1.4LRSN                1
 GAP=176        0.44      13.1    12.7  5.5  0.1339E+03 -0.1843E+02 -0.1658E+02E
 Epicentro: VILLANUEVA - SANTANDER                                             3
 ACTION:UP  11-06-29 08:52 OP:tino STATUS:               ID:20110511074244 L   I
 2011-05-11-0740-00S.COL___132                                                 6
 STAT SP IPHASW D HRMM SECON CODA AMPLIT PERI AZIMU VELO SNR AR TRES W  DIS CAZ7
 BAR2 SZ EP        743  4.52                             178     0.010    7 193 
 BAR2 SZ ES   1    743 19.92                             178     0.1 7    7 193 
 BAR2 SZ I         743 22.55         8.6 0.41                             7 193 
 BTL  SZ EP        743  4.93                             167     0.010   32 340 
 GIR2 SZ ES   3    743 20.55                             161    -0.7 2   48 357 
 BRR  HZ EP        743  6.47                             151    -0.210   78 310 
 BRR  HN ES   1    743 23.81                             151     0.2 7   78 310 
 BRR  HZ I         743 25.50         5.1 0.06                            78 310 
 GRA  SZ EP   3    743 12.23                             134     0.5 2  142  16 
 GRA  SZ I         743 31.06         2.1 0.12                           142  16 
                                                                                
