 2012 1211 0204 26.2 L   6.752 -73.186144.0  RSN  6 0.4 1.5LRSN                1
 GAP=175        0.77       6.1     6.1  7.6  0.1581E+02  0.1283E+02  0.6302E+01E
 Epicentro: VILLANUEVA - SANTANDER                                             3
 ACTION:UPD 13-01-04 14:26 OP:ep   STATUS:               ID:20121211020426 L   I
 2012-12-11-0200-00M.COL___242                                                 6
 STAT SP IPHASW D HRMM SECON CODA AMPLIT PERI AZIMU VELO AIN AR TRES W  DIS CAZ7
 BAR2 SZ ES   2    2 5  0.41                             173   -0.21 5 17.7 179 
 BAR2 SZ I         2 5  1.33        10.0 0.27                          17.7 179 
 GIR2 SZ EP   1    2 4 45.80                             165   -0.04 7 36.1 359 
 GIR2 SZ ES   1    2 5  0.63                             165   -0.50 7 36.1 359 
 GIR2 SZ I         2 5  2.20         6.6 0.14                          36.1 359 
 BRR  HZ EP   1    2 4 47.00                             153   -0.14 7 70.2 304 
 BRR  HN ES   1    2 5  4.22                             153    0.78 7 70.2 304 
 BRR  HZ I         2 5  7.66         5.8 0.36                          70.2 304 
 RUS  HZ EP   1    2 4 49.70                             145    0.23 7 95.7 173 
 RUS  HN ES   1    2 5  7.84                             145    0.25 7 95.7 173 
 RUS  HZ I         2 5  9.59         1.9 0.46                          95.7 173 
 PTB  HZ EP   1    2 4 52.02                             133   -0.56 7  142 261 
 PTB  HN ES   1    2 5 12.76                             133   -0.37 7  142 261 
 PTB  HZ I         2 5 16.43         5.8 0.24                           142 261 
 ZAR  HZ EP   2    2 4 58.80                             122    0.44 4  202 294 
 ZAR  HE ES   1    2 5 23.65                             122    0.24 6  202 294 
 ZAR  HZ I         2 5 25.90         4.2 0.18                           202 294 
                                                                                
