 2012  311 0931 20.4 L   6.286 -73.712101.9  RSN  5 0.2 1.1LRSN                1
 GAP=167        0.46       3.2     2.7  5.4  0.4015E+01  0.6149E+01  0.1544E+01E
 ACTION:UP  12-03-31 23:18 OP:EP   STATUS:               ID:20120311093120 L   I
 2012-03-11-0930-00M.COL___193                                                 6
 STAT SP IPHASW D HRMM SECON CODA AMPLIT PERI AZIMU VELO SNR AR TRES W  DIS CAZ7
 BAR2 SZ ES   1    931 50.08                             144     0.0 7   68  60 
 RUS  HZ EP   1    931 38.60                             138     0.1 7   82 122 
 RUS  HN ES   1    931 52.64                             138     0.0 7   82 122 
 RUS  HZ I         931 55.10         2.9 0.22                            82 122 
 PTB  HZ EP        931 38.03                             136    -0.210   87 289 
 PTB  HE ES   1    931 52.45                             136     0.2 7   87 289 
 PTB  HZ I         931 55.70         1.7 0.10                            87 289 
 BRR  HZ EP        931 38.64                             135     0.110   91 360 
 BRR  HZ I         931 46.99         4.7 0.17                            91 360 
 BRR  HE ES   1    931 52.75                             135     0.0 7   91 360 
 ZAR  HZ EP   1    931 48.42                             113     0.3 7  184 317 
 ZAR  HN ES   1    932  9.61                             113    -0.2 7  184 317 
 ZAR  HZ I         932 13.84         1.8 0.44                           184 317 
                                                                                
