 2013  311 0758 11.7 L   6.777 -73.141140.3  RSN  7 0.5 1.9LRSN                1
 GAP=138        1.13       5.9     6.5 10.5  0.1536E+01  0.1098E+02 -0.8413E-01E
 Epicentro: LOS SANTOS - SANTANDER                                             3
 ACTION:UPD 13-04-09 14:01 OP:ep   STATUS:               ID:20130311075811 L   I
 2013-03-11-0750-00M.COL___231                                                 6
 STAT SP IPHASW D HRMM SECON CODA AMPLIT PERI AZIMU VELO AIN AR TRES W  DIS CAZ7
 BAR2 SZ ES   1    758 44.61                             171   -0.77 7 20.9 192 
 BAR2 SZ I         758 47.05        14.5 0.24            169           20.9 192 
 BRR  HZ EP   1    758 32.75                             151    0.40 7 72.9 300 
 BRR  HN ES        758 49.39                             151    0.9310 72.9 300 
 BRR  HN I         758 52.82        15.6 0.18            149           72.9 300 
 PAM  SZ EP   1    758 33.64                             149    0.21 7 79.1  38 
 PAM  SN ES   1    758 49.97                             149   -0.42 7 79.1  38 
 PAM  SN I         758 51.78        11.4 0.64            154           79.1  38 
 RUS  HZ EP   1    758 35.01                             144    0.30 7 98.0 176 
 RUS  HN ES   1    758 52.88                             144    0.20 7 98.0 176 
 RUS  HN I         758 55.11         7.0 0.42            146           98.0 176 
 PTB  HZ EP   1    758 37.60                             131   -0.61 7  148 260 
 PTB  HN ES   1    758 58.34                             131   -0.56 7  148 260 
 PTB  HN I         759  3.96         8.0 0.24            131            148 260 
 OCA  HN ES   1    759  1.48                             128   -0.30 7  163 353 
 OCA  HN I         759  3.65        18.5 0.22            130            163 353 
 ZAR  HN ES   1    759  8.64                             121   -0.44 6  205 293 
 ZAR  HN I         759 14.96         7.6 0.20            122            205 293 
                                                                                
