 2015 1211 0211 20.5 L   6.802 -73.178140.9  RSN  7 0.6 2.1LRSN                1
 GAP=140        1.45       6.0     6.4 10.3 -0.7961E+01  0.2919E+02 -0.1701E+02E
 Epicentro: LOS SANTOS - SANTANDER                                             3
 ACTION:UPD 16-02-04 15:04 OP:cam  STATUS:               ID:20151211021120 L   I
 OLDACT:UP  15-12-11 15:46 OP:ar   STATUS:               ID:20151211020749d    3
 OLDACT:DUP 15-12-11 15:45 OP:ar   STATUS:               ID:20151211020749d    3
 OLDACT:REG 15-12-11 11:35 OP:ar   STATUS:               ID:20151211020748     3
 2015-12-11-0207-48M.COL___328                                                 6
 STAT SP IPHASW D HRMM SECON CODA AMPLIT PERI AZIMU VELO AIN AR TRES W  DIS CAZ7
 BAR2 EZ EP        211 39.31                             170   -0.1910 23.2 181 
 BAR2 EZ ES        211 54.19                             170   -0.1610 23.2 181 
 BAR2 EZ I         211 56.71        20.9 0.18            172           23.2 181 
 PAM  EZ EP        211 42.28                             149   -0.0010 79.5  42 
 PAM  EN ES        211 59.54                             149    0.2310 79.5  42 
 PAM  EZ I         212  0.80        10.4 0.40            152           79.5  42 
 PTB  HZ EP        211 46.11                             131   -0.61 9  144 258 
 PTB  HN ES        212  6.72                             131   -0.48 9  144 258 
 SPBC HZ EP        211 48.56                             128    0.17 9  161 218 
 SPBC HE ES        212 10.38                             128    0.19 9  161 218 
 SPBC HZ I         212 11.41        16.5 0.14            131            161 218 
 ZAR  HZ EP        211 54.00                             122    1.76 9  201 292 
 ZAR  HN ES        212 17.86                             122    0.83 9  201 292 
 ZAR  HZ I         212 23.67        15.0 0.44            122            201 292 
 SML  HZ EP        211 56.06                             116   -0.57 8  242 336 
 SML  HE ES        212 24.57                             116   -0.27 8  242 336 
 SML  HZ I         212 29.16        10.4 0.26            118            242 336 
 URE  HZ EP        212  0.44                             113   -0.47 7  280 292 
 URE  HN ES        212 31.87                             113   -0.60 7  280 292 
 URE  HZ I         212 46.39         8.2 0.16            114            280 292 
                                                                                
