 2013  611 0226 34.4 L   6.292 -73.625114.8  RSN  7 0.4 1.7LRSN                1
 GAP=113        0.98       4.4     4.1  8.4 -0.1689E+01  0.9391E+01  0.1313E+00E
 Epicentro: SANTA HELENA DEL OPON - SANTANDER                                  3
 ACTION:UPD 14-01-08 09:54 OP:ep   STATUS:               ID:20130611022634 L   I
 OLDACT:UP  13-06-11 09:02 OP:cam  STATUS:               ID:20130611021959     3
 OLDACT:REG 13-06-11 07:28 OP:cam  STATUS:               ID:20130611021959     3
 2013-06-11-0219-59M.COL___260                                                 6
 STAT SP IPHASW D HRMM SECON CODA AMPLIT PERI AZIMU VELO AIN AR TRES W  DIS CAZ7
 BAR2 SZ IP     C  226 52.07                             151    0.1710 59.2  56 
 BAR2 SZ ES   1    227  5.76                             151    0.23 7 59.2  56 
 BAR2 SZ I         227  6.93        23.6 0.30            155           59.2  56 
 RUS  HZ EP        226 52.98                             145   -0.2710 74.5 126 
 RUS  HN ES        227  7.76                             145   -0.1810 74.5 126 
 RUS  HZ I         227  9.67         5.4 0.26            148           74.5 126 
 BRR  HZ EP        226 53.85                             139    0.0810 90.6 354 
 BRR  HN ES        227  9.17                             139    0.3010 90.6 354 
 BRR  HZ I         227  9.94        11.9 0.28            143           90.6 354 
 PTB  HZ EP     D  226 53.69                             137   -0.5410 95.9 287 
 PTB  HN ES   1    227  8.84                             137   -0.84 7 95.9 287 
 PTB  HZ I         227 11.35         6.2 0.22            139           95.9 287 
 GIR2 SZ EP        226 54.81                             136    0.1310 99.2  29 
 NOR  HZ EP   1    227  0.21                             122   -0.11 7  160 240 
 NOR  HN ES        227 21.37                             122    0.84 9  160 240 
 NOR  HZ I         227 25.11         9.6 0.72            124            160 240 
 SML  HZ EP   2    227 13.93                             107    0.01 4  282 350 
                                                                                
