 2011  111 0220 27.7 L   6.779 -73.142139.2  RSN  6 0.1 1.7LRSN                1
 GAP=159        0.36       2.3     4.0  4.2 -0.3877E+01  0.6001E+01 -0.4426E+01E
 Epicentro: LOS SANTOS - SANTANDER                                             3
 ACTION:UP  11-02-08 08:40 OP:pat  STATUS:               ID:20110111022027 L   I
 2011-01-11-0217-24S.COL___136                                                 6
 STAT SP IPHASW D HRMM SECON CODA AMPLIT PERI AZIMU VELO SNR AR TRES W  DIS CAZ7
 BTL  SZ EP   1    220 46.70                             171     0.2 7   21 318 
 BAR2 SZ EP   1    220 46.54                             171     0.0 7   21 192 
 BAR2 SZ ES   1    221  1.07                             171    -0.1 7   21 192 
 BAR2 SZ I         221  2.76        16.5 0.26                            21 192 
 RUS  HZ EP   1    220 50.68                             143     0.0 7   98 176 
 RUS  HE ES   1    221  8.57                             143     0.0 7   98 176 
 RUS  HZ I         221 10.54         6.5 0.21                            98 176 
 GRA  SZ EP   1    220 52.42                             135    -0.1 7  128  17 
 OCA  SZ EP   1    220 55.57                             128    -0.2 7  163 353 
 OCA  SZ ES   2    221 17.87                             128     0.3 5  163 353 
 OCA  SZ I         221 20.67         5.9 0.09                           163 353 
 NOR  SZ EP   2    221  3.20                             117     0.2 4  234 235 
 NOR  SN ES   1    221 30.36                             117    -0.1 6  234 235 
                                                                                
