 2014  311 0630 11.2 L   6.776 -73.151151.6  RSN  5 0.4 1.5LRSN                1
 GAP=137        0.97       4.3     4.7  9.2  0.2400E+00  0.1228E+02 -0.9916E+01E
 Epicentro: LOS SANTOS - SANTANDER                                             3
 ACTION:UPD 14-04-09 23:16 OP:nd   STATUS:               ID:20140311063011 L   I
 OLDACT:REG 14-03-11 07:43 OP:fm   STATUS:               ID:20140311062814     3
 2014-03-11-0628-14M.COL___230                                                 6
 STAT SP IPHASW D HRMM SECON CODA AMPLIT PERI AZIMU VELO AIN AR TRES W  DIS CAZ7
 PAM  SZ EP        630 34.29                             151    0.0610 79.8  39 
 PAM  SN ES        630 51.87                             151   -0.2810 79.8  39 
 RUS  HZ EP        630 35.39                             146    0.0010 97.9 176 
 RUS  HN ES        630 54.62                             146    0.4010 97.9 176 
 PTB  HZ EP        630 38.77                             133    0.17 9  147 260 
 PTB  HN ES        630 59.27                             133   -0.67 9  147 260 
 PTB  HZ I         631  5.47         2.7 0.38            133            147 260 
 ZAR  HN ES        631 10.14                             123    0.37 9  205 293 
 SML  HZ EP        630 47.84                             118   -0.60 8  246 336 
 SML  HN ES        631 18.03                             118    0.58 8  246 336 
 SML  HZ I         631 22.73         3.5 0.28            119            246 336 
                                                                                
