 2013  411 0107 43.0 L   7.130 -74.008 89.7  RSN  7 0.2 2.0LRSN                1
 GAP=175        0.47       1.8     1.8  3.6 -0.1359E+01  0.3992E+00  0.9079E+00E
 Epicentro: BARRANCABERMEJA - SANTANDER                                        3
 ACTION:UPD 13-05-22 14:37 OP:EP   STATUS:               ID:20130411010743 L   I
 2013-04-11-0058-40M.COL___212                                                 6
 STAT SP IPHASW D HRMM SECON CODA AMPLIT PERI AZIMU VELO AIN AR TRES W  DIS CAZ7
 BRR  HZ IP     D  1 7 56.10                             158    0.1610 32.8  94 
 BRR  HN ES        1 8  6.24                             158    0.2010 32.8  94 
 PTB  HZ EP        1 7 59.53                             134    0.1310 82.0 217 
 PTB  HN ES        1 8 11.93                             134   -0.2710 82.0 217 
 PTB  HN I         1 8 13.36        50.0 0.34            134           82.0 217 
 GIR2 SZ EP        1 8  0.38                             131    0.0610 90.2  94 
 GIR2 SZ ES        1 8 13.54                             131   -0.2910 90.2  94 
 GIR2 SZ I         1 8 14.72        15.6 0.50            131           90.2  94 
 BAR2 SZ ES        1 8 17.41                             126    0.1210  109 123 
 OCA  HN ES        1 8 23.64                             117   -0.09 9  144  32 
 OCA  HN I         1 8 23.99        66.9 0.18            118            144  32 
 RUS  HZ EP        1 8  9.17                             113   -0.11 9  171 143 
 RUS  HN ES        1 8 29.79                             113    0.01 9  171 143 
 RUS  HN I         1 8 31.58         5.9 0.22            113            171 143 
 NOR  HN ES        1 8 34.35                             110    0.06 9  198 209 
                                                                                
