 2011  911 0039 17.9 L   6.736 -73.126143.8  RSN  8 0.3 1.7LRSN                1
 GAP=142        0.45       3.3     4.1  5.5 -0.1685E+01  0.3478E+01 -0.1818E+01E
 Epicentro: JORDAN - SANTANDER                                                 3
 ACTION:UPD 12-07-13 15:56 OP:ep   STATUS:               ID:20110911003917 L   I
 2011-09-11-0034-51S.COL___169                                                 6
 STAT SP IPHASW D HRMM SECON CODA AMPLIT PERI AZIMU VELO AIN AR TRES W  DIS CAZ7
 BAR2 SZ ES   2    039 51.77                             173   -0.39 5 17.1 201 
 BAR2 SZ I         039 52.98         6.9 0.34                          17.1 201 
 GIR2 SZ EP   3    039 37.35                             164   -0.15 2 38.6 349 
 GIR2 SZ ES   2    039 52.96                             164    0.13 5 38.6 349 
 BRR  HZ EP   1    039 39.11                             150    0.01 7 76.6 302 
 BRR  HE ES   2    039 56.19                             150    0.52 5 76.6 302 
 BRR  HZ I         040  1.30        11.5 0.40                          76.6 302 
 PAM  SZ EP   1    039 40.14                             149    0.03 7 81.7  35 
 PAM  SN ES   2    039 56.99                             149   -0.49 5 81.7  35 
 RUS  HZ EP   2    039 41.13                             145    0.23 5 93.4 177 
 RUS  HN ES   2    039 59.04                             145    0.17 5 93.4 177 
 RUS  HZ I         040  0.12         3.5 0.71                          93.4 177 
 OCA  SZ EP   2    039 46.49                             128   -0.21 5  168 353 
 OCA  SZ ES   2    040  9.68                             128    0.48 5  168 353 
 OCA  SZ I         040 12.90         8.1 0.34                           168 353 
 ZAR  HE ES   2    040 15.73                             121   -0.51 4  209 294 
 ZAR  HZ I         040 21.90         7.8 0.47                           209 294 
 NOR  SN ES   2    040 20.71                             118   -0.10 4  232 236 
                                                                                
