 2014 1111 0306 58.1 L   6.780 -73.148154.7  RSN  4 0.5 1.1LRSN                1
 GAP=137        1.34       7.7     7.3 11.7 -0.6581E+01  0.6522E+01  0.1090E+02E
 Epicentro: LOS SANTOS - SANTANDER                                             3
 ACTION:UPD 14-12-19 15:41 OP:nd   STATUS:               ID:20141111030658 L   I
 OLDACT:ARG 14-11-11 12:37 OP:stll STATUS:               ID:20141111025744     3
 2014-11-11-0257-44M.COL___302                                                 6
 STAT SP IPHASW D HRMM SECON CODA AMPLIT PERI AZIMU VELO AIN AR TRES W  DIS CAZ7
 BRR  HZ EP        3 7 20.71                             154    0.4010 72.1 300 
 BRR  HE ES        3 7 38.47                             154    0.8710 72.1 300 
 BRR  HZ I         3 7 41.32         3.1 0.28            154           72.1 300 
 PAM  SZ EP        3 7 21.51                             152    0.0910 79.3  39 
 PAM  SZ I         3 7 21.69         2.7 0.42            155           79.3  39 
 PAM  SN ES        3 7 38.89                             152   -0.6910 79.3  39 
 RUS  HZ EP        3 7 22.76                             146    0.1310 98.3 176 
 RUS  HE ES        3 7 41.86                             146    0.1310 98.3 176 
 RUS  HZ I         3 7 44.08         1.2 0.42            148           98.3 176 
 PTB  HZ EP        3 7 25.57                             134   -0.22 9  147 260 
 PTB  HN ES        3 7 46.52                             134   -0.84 9  147 260 
 PTB  HZ I         3 7 49.93         1.4 0.16            135            147 260 
                                                                                
