 2017  111 0633 28.3 L   6.757 -73.232144.0  RSN  5 0.3 1.0LRSN                1
 GAP=217        0.74       6.1     5.0  6.6  0.1846E+02  0.4017E+01 -0.5753E+01E
 Epicentro: ZAPATOCA - SANTANDER                                               3
 ACTION:UPD 17-05-22 15:58 OP:jn   STATUS:               ID:20170111063328 L   I
 OLDACT:UP  17-01-11 16:29 OP:and  STATUS:               ID:20170111062747     3
 OLDACT:REG 17-01-11 12:48 OP:and  STATUS:               ID:20170111062747     3
 2017-01-11-0628-00M.COL___346                                                 6
 STAT SP IPHASW D HRMM SECON CODA AMPLIT PERI AZIMU VELO AIN AR TRES W  DIS CAZ7
 BAR2 EZ EP        633 47.38                             172   -0.2510 19.1 163 
 BAR2 EZ ES        634  2.30                             172   -0.4110 19.1 163 
 BRR  HZ EP        633 49.29                             154    0.3510 65.6 306 
 BRR  HN ES   2    634  5.90                             154    0.85 5 65.6 306 
 RUS  HZ EP        633 51.79                             144    0.1710 97.0 170 
 RUS  HN ES        634 10.01                             144    0.2010 97.0 170 
 RUS  HZ I         634 10.78         0.8 0.22            145           97.0 170 
 PTB  HZ EP        633 53.97                             134   -0.22 9  137 260 
 PTB  HN ES        634 14.38                             134   -0.01 9  137 260 
 PTB  HZ I         634 18.51         1.3 0.16            131            137 260 
 ZAR  HN ES        634 24.48                             123   -0.09 9  197 294 
 ZAR  HZ I         634 31.92         1.6 0.26            122            197 294 
                                                                                
