 2017  211 0020 27.9 L   6.792 -73.121151.0  RSN  7 0.3 1.4LRSN                1
 GAP=140        0.61       3.2     3.4  6.1  0.3277E+00  0.6483E+01 -0.1364E+00E
 Epicentro: LOS SANTOS - SANTANDER                                             3
 ACTION:UPD 17-05-24 15:35 OP:jn   STATUS:               ID:20170211002027 L   I
 OLDACT:UP  17-02-11 13:18 OP:and  STATUS:               ID:20170211001739     3
 OLDACT:UP  17-02-11 13:15 OP:and  STATUS:               ID:20170211001739     3
 OLDACT:REG 17-02-11 12:19 OP:and  STATUS:               ID:20170211001739     3
 2017-02-11-0018-00M.COL___358                                                 6
 STAT SP IPHASW D HRMM SECON CODA AMPLIT PERI AZIMU VELO AIN AR TRES W  DIS CAZ7
 BAR2 EZ EP   2    020 48.01                             171   -0.15 5 23.1 197 
 BAR2 EZ ES   2    021  3.94                             171   -0.02 5 23.1 197 
 BAR2 EZ I         021  4.77         6.3 0.10            168           23.1 197 
 BRR  HZ EP        020 49.88                             152    0.1010 74.1 298 
 BRR  HN ES   2    021  7.57                             152    0.73 5 74.1 298 
 PAM  EZ EP        020 51.00                             152    0.3810 76.4  38 
 PAM  EN ES        021  8.01                             152   -0.3310 76.4  38 
 PAM  EZ I         021 10.30         3.8 0.19            157           76.4  38 
 RUS  HZ EP        020 51.97                             145   -0.1310 99.5 178 
 RUS  HN ES        021 11.03                             145    0.0610 99.5 178 
 RUS  HZ I         021 12.18         3.4 0.40            145           99.5 178 
 PTB  HZ EP   2    020 55.12                             132   -0.41 5  150 259 
 PTB  HN ES   2    021 16.40                             132   -0.68 5  150 259 
 PTB  HZ I         021 21.99         3.8 0.17            131            150 259 
 ZAR  HE ES        021 26.77                             123   -0.03 8  207 292 
 NOR  HN ES   2    021 32.62                             119    0.25 4  236 235 
 NOR  HZ I         021 39.85         2.6 0.16            119            236 235 
                                                                                
