 2015  411 0849 33.7 L   6.339 -73.572114.9  RSN 10 0.4 2.2LRSN                1
 GAP= 84        1.09       3.0     3.4  6.3 -0.2654E+01  0.5221E+01 -0.6012E+01E
 Epicentro: SANTA HELENA DEL OPON - SANTANDER                                  3
 ACTION:UPD 15-06-03 16:54 OP:cam  STATUS:               ID:20150411084933 L   I
 OLDACT:REG 15-04-11 14:08 OP:carl STATUS:               ID:20150411084741     3
 2015-04-11-0847-41M.COL___263                                                 6
 STAT SP IPHASW D HRMM SECON CODA AMPLIT PERI AZIMU VELO AIN AR TRES W  DIS CAZ7
 BAR2 EZ IP     D  849 50.90                             154    0.1910 51.4  57 
 BAR2 EZ ES        850  4.11                             154    0.1010 51.4  57 
 BAR2 EZ I         850  5.23        85.2 0.26            159           51.4  57 
 RUS  HZ EP        849 52.36                             145   -0.0510 73.2 132 
 RUS  HN ES        850  7.01                             145   -0.0210 73.2 132 
 RUS  HZ I         850  8.42        25.7 0.18            153           73.2 132 
 BRR  HZ EP        849 52.63                             140   -0.0510 86.4 350 
 BRR  HN ES        850  7.81                             140    0.2910 86.4 350 
 BRR  HZ I         850 14.86        31.0 0.16            143           86.4 350 
 SPBC HZ EP        849 53.91                             138    0.4910 94.0 216 
 SPBC HN ES        850  9.22                             138    0.3910 94.0 216 
 SPBC HZ I         850 13.89        34.2 0.22            142           94.0 216 
 PTB  HZ EP        849 53.45                             136   -0.3910  100 283 
 PTB  HN ES        850  8.78                             136   -0.8010  100 283 
 PTB  HZ I         850 11.68        29.7 0.14            138            100 283 
 PAM  SZ EP        849 58.65                             124   -0.18 9  147  41 
 PAM  SE ES        850 17.84                             124   -0.63 9  147  41 
 PAM  SZ I         850 20.39         9.1 0.24            130            147  41 
 NOR  HZ EP        850  0.87                             120    0.50 9  167 239 
 NOR  HN ES        850 20.79                             120   -0.42 9  167 239 
 NOR  HZ I         850 23.38        18.3 0.54            124            167 239 
 ZAR  HZ EP        850  3.13                             116    0.27 9  191 312 
 ZAR  HN ES        850 25.88                             116    0.24 9  191 312 
 ZAR  HZ I         850 31.11        32.0 0.24            120            191 312 
 OCA  HZ EP        850  4.90                             114   -0.47 8  212   8 
 OCA  HN ES        850 30.95                             114    0.85 8  212   8 
 SML  HZ EP        850 12.01                             107   -0.69 7  278 349 
 SML  HN ES        850 43.53                             107    0.38 7  278 349 
                                                                                
