 2017  511 0827 42.3 L   6.790 -73.154144.8  RSN 10 0.5 1.8LRSN                1
 GAP=111        1.14       4.4     4.0  7.2  0.3487E+01  0.7316E+01  0.7838E+01E
 Epicentro: LOS SANTOS - SANTANDER                                             3
 ACTION:UPD 17-06-16 13:35 OP:jn   STATUS:               ID:20170511082742 L   I
 OLDACT:DUP 17-05-11 20:39 OP:osc  STATUS:               ID:20170511081739d    3
 OLDACT:REG 17-05-11 13:39 OP:osc  STATUS:               ID:20170511081737     3
 2017-05-11-0818-00M.COL___353                                                 6
 STAT SP IPHASW D HRMM SECON CODA AMPLIT PERI AZIMU VELO AIN AR TRES W  DIS CAZ7
 BRR  HZ EP        828  3.33                             152   -0.0210 70.9 300 
 BRR  HE ES        828 20.48                             152    0.7210 70.9 300 
 BRR  HZ I         828 24.95        10.3 0.14            153           70.9 300 
 PAM  EZ EP        828  4.52                             150    0.0010 78.8  40 
 PAM  EN ES        828 21.31                             150   -0.5210 78.8  40 
 PAM  EZ I         828 22.89         7.7 0.24            156           78.8  40 
 RUS  HZ EP        828  5.54                             144   -0.3610 99.6 175 
 RUS  HE ES        828 24.08                             144   -0.2210 99.6 175 
 RUS  HZ I         828 24.98         9.2 0.40            145           99.6 175 
 PTB  HZ EP     D  828  8.53                             132   -0.58 9  147 259 
 PTB  HN ES        828 29.30                             132   -0.71 9  147 259 
 PTB  HZ I         828 34.67         7.0 0.28            133            147 259 
 SPBC HN ES   2    828 32.17                             129   -0.51 5  162 219 
 YPLC HZ IP     C  828 12.01                             126    0.02 9  176 151 
 YPLC HN ES        828 36.07                             126    0.93 9  176 151 
 YPLC HZ I         828 42.36         3.2 0.26            130            176 151 
 ZAR  HZ EP        828 15.33                             122    0.67 9  204 293 
 ZAR  HE ES        828 40.36                             122    0.48 9  204 293 
 ZAR  HZ I         828 46.42         9.3 0.38            124            204 293 
 NOR  HZ EP        828 17.68                             118   -0.16 8  233 235 
 NOR  HN ES        828 45.85                             118    0.29 8  233 235 
 NOR  HZ I         828 51.43         4.8 0.20            120            233 235 
 ROSC BZ EP        828 20.42                             117    0.19 8  251 211 
 ROSC BE ES   4    828 22.06                             117   -27.7 0  251 211 
 HEL  HZ EP        828 21.98                             115   -0.37 8  271 256 
 HEL  HE ES   2    828 53.81                             115    0.23 4  271 256 
 HEL  HZ I         829  1.16         4.4 0.34            116            271 256 
                                                                                
