 2010  711 0305 13.5 L   6.778 -73.121148.2  RSN  8 0.3 1.9LRSN                1
 GAP=159        0.68       3.0     6.7  5.4 -0.7116E+01 -0.3555E+01  0.1550E+00E
 Epicentro: LOS SANTOS - SANTANDER                                             3
 ACTION:UPD 10-12-01 15:16 OP:pat  STATUS:               ID:20100711030513 L   I
 2010-07-11-0302-41S.COL___120                                                 6
 STAT SP IPHASW D HRMM SECON CODA AMPLIT PERI AZIMU VELO AIN AR TRES W  DIS CAZ7
 BAR2 SZ EP   1    3 5 33.33                             171     0.0 7   22 199 
 BAR2 SZ ES   1    3 5 48.30                             171    -0.6 7   22 199 
 BAR2 SZ I         3 5 49.90        33.7 0.22                            22 199 
 BRR  HZ EP        3 5 35.09                             152     0.010   75 299 
 BRR  HN ES   1    3 5 52.01                             152     0.1 7   75 299 
 BRR  HZ I         3 5 54.49        13.9 0.12                            75 299 
 RUS  HZ EP        3 5 37.17                             145    -0.110   98 178 
 RUS  HE ES   1    3 5 56.24                             145     0.4 7   98 178 
 RUS  HZ I         3 5 56.99         7.9 0.43                            98 178 
 BRI  SZ EP        3 5 37.84                             142     0.210  110  19 
 BRI  SZ ES   2    3 5 57.20                             142     0.6 5  110  19 
 BRI  SZ I         3 6  2.15         7.7 0.54                           110  19 
 GUE  SZ EP        3 5 38.28                             139    -0.310  118  11 
 GRA  SZ IP        3 5 39.08                             137     0.010  127  16 
 GRA  SZ ES        3 5 58.99                             137     0.010  127  16 
 GRA  SZ I         3 6  0.08         8.9 0.41                           127  16 
 OCA  SZ EP   2    3 5 41.68                             130    -0.5 5  163 352 
 OCA  SZ ES   2    3 6  5.12                             130     0.5 5  163 352 
 OCA  SZ I         3 6  8.56        10.1 0.31                           163 352 
 PRA  HZ EP   1    3 6  7.03                             107     0.1 4  391 210 
 PRA  HE ES   2    3 6 49.39                             107     0.7 3  391 210 
 PRA  HZ I         3 6 54.87         5.7 0.44                           391 210 
                                                                                
