 2016  811 0433 48.4 L   6.707 -73.937 75.4  RSN  5 0.4 1.3LRSN                1
 GAP=158        1.01       4.8     5.0  9.2 -0.7710E+01  0.7234E+01  0.1664E+02E
 Epicentro: PUERTO PARRA - SANTANDER                                           3
 ACTION:UPD 16-10-29 15:34 OP:rebc STATUS:               ID:20160811043348 L   I
 OLDACT:UP  16-08-11 13:14 OP:dani STATUS:               ID:20160811042336     3
 OLDACT:REG 16-08-11 12:19 OP:dani STATUS:               ID:20160811042336     3
 2016-08-11-0428-00M.COL___380                                                 6
 STAT SP IPHASW D HRMM SECON CODA AMPLIT PERI AZIMU VELO AIN AR TRES W  DIS CAZ7
 BRR  HZ EP        434  0.53                             143   -0.3510 50.7  29 
 BRR  HE ES        434 11.14                             143    0.5110 50.7  29 
 BRR  HZ I         434 11.61        11.0 0.40                          50.7  29 
 PTB  HZ EP        434  1.06                             138   -0.6110 60.3 252 
 PTB  HE ES        434 11.74                             138   -0.2910 60.3 252 
 PTB  HZ I         434 12.47         6.9 0.18                          60.3 252 
 SPBC HZ EP        434  7.35                             117   -0.1110  118 187 
 SPBC HN ES        434 22.56                             117    0.2210  118 187 
 SPBC HZ I         434 24.25         3.8 0.19                           118 187 
 ZAR  HZ EP   4    434  7.31                             114   -1.84 0  134 311 
 ZAR  HE ES   4    434 26.66                             114    1.31 0  134 311 
 ZAR  HZ I         434 29.02         4.7 0.29                           134 311 
 HEL  HZ EP        434 15.89                             106    0.32 9  185 252 
 HEL  HN ES        434 37.28                             106    0.50 9  185 252 
 HEL  HZ I         434 40.52         1.7 0.22                           185 252 
                                                                                
