 2011  311 0836  7.2 L   6.798 -73.128145.1  RSN 12 0.4 3.0LRSN                1
 GAP=137        0.92       4.0     6.3  7.2 -0.7673E+01  0.1754E+02  0.2444E+01E
 Epicentro: LOS SANTOS - SANTANDER                                             3
 ACTION:UP  11-06-16 14:33 OP:jfem STATUS:               ID:20110311083607 L   I
 2011-03-11-0832-57S.COL___135                                                 6
 STAT SP IPHASW D HRMM SECON CODA AMPLIT PERI AZIMU VELO SNR AR TRES W  DIS CAZ7
 BAR2 SZ IP        836 26.81                             170     0.110   24 195 
 BAR2 SZ ES   1    836 42.17                             170     0.2 7   24 195 
 BAR2 SZ I         836 44.86       214.5 0.28                            24 195 
 RUS  HZ EP        836 30.63                             144    -0.210  100 177 
 RUS  HN ES   2    836 49.00                             144    -0.3 5  100 177 
 RUS  HZ I         836 52.22        73.9 0.14                           100 177 
 GRA  SZ IP        836 32.63                             137     0.310  125  17 
 GRA  SZ ES   1    836 52.01                             137     0.1 7  125  17 
 GRA  SZ I         836 54.94       146.3 0.48                           125  17 
 OCA  SZ EP        836 35.11                             129    -0.4 9  161 352 
 OCA  SZ ES   2    836 57.58                             129     0.0 5  161 352 
 OCA  SZ I         837  0.54       121.4 0.41                           161 352 
 YOP  SZ IP        836 37.29                             126     0.2 9  178 154 
 YOP  SZ I         837  1.93        66.0 0.09                           178 154 
 NOR  SZ EP        836 42.60                             118    -0.4 8  236 235 
 NOR  SN ES   1    837 10.23                             118    -0.8 6  236 235 
 CHI  HZ EP   1    836 44.67                             117    -0.2 6  249 196 
 CHI  HZ I         837 22.00        54.5 0.35                           249 196 
 HEL  HZ EP   2    836 47.93                             114     0.4 4  274 256 
 HEL  HZ I         837 24.90        48.3 0.31                           274 256 
 GUY  SZ EP        836 51.58                             112     0.7 7  303 235 
 GUY  SN ES   2    837 26.13                             112     1.1 4  303 235 
 GUY  SZ I         837 33.42       129.4 0.34                           303 235 
 DBB  SZ EP        836 54.42                             109    -0.4 7  341 274 
 TOL  SZ EP        836 56.16                             109     0.6 7  345 225 
 PRA  HZ EP        837  0.19                             106    -0.6 6  393 210 
                                                                                
