 2010  111 0203 47.6 L   6.791 -72.921148.4  RSN 10 0.4 2.2LRSN                1
 GAP=206        0.88       3.5     9.9  6.1 -0.1225E+02  0.2096E+02  0.1497E+01E
 Epicentro: CEPITA - SANTANDER                                                 3
 ACTION:UP  10-08-24 09:43 OP:vdl  STATUS:               ID:20100111020347 L   I
 2010-01-11-0200-37S.COL___097                                                 6
 STAT SP IPHASW D HRMM SECON CODA AMPLIT PERI AZIMU VELO SNR AR TRES W  DIS CAZ7
 BAR2 SZ IP        2 4  8.01                             165     0.110   36 233 
 BAR2 SZ ES        2 4 23.41                             165    -0.310   36 233 
 GIR2 SZ IP        2 4  8.17                             163     0.110   44 317 
 RUS  BZ EP   1    2 4 11.86                             144     0.2 7  101 190 
 RUS  BN ES   1    2 4 30.74                             144     0.3 7  101 190 
 RUS  BZ I         2 4 32.04        10.2 0.22                           101 190 
 OCA  SZ IP        2 4 16.37                             129    -0.3 9  166 345 
 OCA  SZ ES        2 4 39.46                             129     0.1 9  166 345 
 OCA  SZ I         2 4 43.30        42.1 0.29                           166 345 
 CHI  HZ EP        2 4 26.06                             117    -0.1 8  255 201 
 CHI  HN ES   1    2 4 55.58                             117    -0.7 6  255 201 
 CHI  HZ I         2 4 59.29         5.6 0.42                           255 201 
 ROSC BZ IP        2 4 28.09                             116     0.8 8  266 216 
 ROSC BZ I         2 5  4.32        11.7 0.47                           266 216 
 HEL  HZ EP   2    2 4 30.01                             113    -0.6 4  296 257 
 HEL  HZ I         2 5  6.32         5.5 0.25                           296 257 
 RREF BZ IP        2 4 36.22                             110     0.2 7  340 232 
 RREF BE ES   1    2 5 13.90                             110     0.1 5  340 232 
 RREF BZ I         2 5 17.51        11.1 0.24                           340 232 
 TOL  SZ EP   1    2 4 38.14                             109     0.2 5  361 228 
 TOL  SZ ES   1    2 5 17.79                             109     0.5 5  361 228 
 PRA  HZ IP        2 4 41.85                             106    -0.8 6  404 213 
 PRA  HN ES   1    2 5 25.18                             106    -0.4 4  404 213 
 PRA  HZ I         2 5 29.41         9.5 0.29                           404 213 
                                                                                
