 2012  511 0718 37.0 L   6.809 -73.159145.4  RSN  7 0.4 1.7LRSN                1
 GAP=134        0.90       4.7     5.3  9.5 -0.4478E+00  0.4681E+01 -0.5911E+00E
 Epicentro: LOS SANTOS - SANTANDER                                             3
 ACTION:UP  12-07-05 12:04 OP:pat  STATUS:               ID:20120511071837 L   I
 2012-05-11-0710-00M.COL___195                                                 6
 STAT SP IPHASW D HRMM SECON CODA AMPLIT PERI AZIMU VELO SNR AR TRES W  DIS CAZ7
 BAR2 SZ EP   1    718 56.46                             170    -0.1 7   24 186 
 BAR2 SZ I         719 14.27         9.2 0.29                            24 186 
 BRR  HZ EP   1    718 58.57                             153     0.6 7   69 298 
 BRR  HN ES   1    719 15.11                             153     0.7 7   69 298 
 BRR  HZ I         719 22.42        11.5 0.16                            69 298 
 PAM  SZ EP   1    718 59.23                             151     0.1 7   78  41 
 PAM  SZ I         718 59.64         6.0 0.20                            78  41 
 PAM  SN ES   1    719 16.10                             151    -0.4 7   78  41 
 RUS  HZ EP   1    719  0.48                             143    -0.3 7  102 175 
 RUS  HN ES   1    719 19.27                             143     0.0 7  102 175 
 PTB  HZ EP   1    719  3.80                             132     0.0 7  147 258 
 PTB  HN ES   1    719 24.43                             132    -0.3 7  147 258 
 PTB  HZ I         719 26.21         4.8 0.29                           147 258 
 OCA  HZ EP   1    719  5.51                             130     0.4 7  159 354 
 OCA  HE ES   1    719 26.73                             130    -0.4 7  159 354 
 OCA  HZ I         719 31.65        11.5 0.37                           159 354 
 ZAR  HN ES   1    719 33.82                             122    -0.5 6  202 292 
                                                                                
