 2017  111 0938 55.9 L   6.779 -73.177139.5  RSN  5 0.2 0.9LRSN                1
 GAP=232        0.63       5.4     4.4  5.6  0.1362E+02  0.1893E+01 -0.1014E+02E
 Epicentro: LOS SANTOS - SANTANDER                                             3
 ACTION:UPD 17-05-22 15:58 OP:jn   STATUS:               ID:20170111093855 L   I
 OLDACT:UP  17-01-11 18:30 OP:and  STATUS:               ID:20170111093743     3
 OLDACT:REG 17-01-11 13:01 OP:and  STATUS:               ID:20170111093743     3
 2017-01-11-0938-00M.COL___338                                                 6
 STAT SP IPHASW D HRMM SECON CODA AMPLIT PERI AZIMU VELO AIN AR TRES W  DIS CAZ7
 BAR2 EZ EP        939 14.58                             171   -0.1910 20.7 182 
 BAR2 EZ ES        939 29.52                             171    0.0710 20.7 182 
 BAR2 EZ I         939 31.95         4.7 0.52            168           20.7 182 
 BRR  HZ EP        939 16.26                             152   -0.0510 69.4 302 
 RUS  HZ EP        939 18.82                             143   -0.1210 98.6 174 
 RUS  HN ES        939 37.03                             143    0.1610 98.6 174 
 RUS  HZ I         939 38.49         1.2 0.43            144           98.6 174 
 PTB  HZ EP        939 21.83                             131   -0.23 9  144 259 
 PTB  HN ES        939 42.43                             131    0.00 9  144 259 
 PTB  HZ I         939 47.12         0.6 0.15            132            144 259 
 ZAR  HZ EP        939 28.39                             121    0.64 9  202 293 
 ZAR  HN ES        939 52.37                             121   -0.19 9  202 293 
                                                                                
