 2011  711 0404 55.4 L   6.844 -73.327122.7  RSN  5 0.1 1.5LRSN                1
 GAP=154        0.30       3.8     3.9  2.8  0.3410E+01 -0.1834E+01 -0.2466E+01E
 Epicentro: ZAPATOCA - SANTANDER                                               3
 ACTION:UPD 12-07-25 13:59 OP:epov STATUS:               ID:20110711040455 L   I
 2011-07-11-0400-51S.COL___139                                                 6
 STAT SP IPHASW D HRMM SECON CODA AMPLIT PERI AZIMU VELO AIN AR TRES W  DIS CAZ7
 BTL  SZ EP   1    4 5 12.27                             175    0.20 7 10.6  39 
 BTL  SZ ES   1    4 5 25.05                             175    0.01 7 10.6  39 
 GIR2 SZ EP   1    4 5 12.18                             165   -0.15 7 29.9  30 
 GIR2 SZ ES   1    4 5 25.52                             165    0.02 7 29.9  30 
 BAR2 SZ EP   1    4 5 12.54                             164    0.00 7 32.1 150 
 BAR2 SZ ES   1    4 5 25.84                             164   -0.04 7 32.1 150 
 BAR2 SZ I         4 5 26.86        13.1 0.22                          32.1 150 
 BRR  HZ EP   1    4 5 12.95                             156   -0.05 7 51.5 304 
 BRR  HN ES   1    4 5 26.70                             156    0.01 7 51.5 304 
 BRR  HZ I         4 5 27.71         6.9 0.11                          51.5 304 
 BRI  SZ EP   1    4 5 17.59                             135    0.00 7  113  31 
                                                                                
