 2016 1111 0055 24.5 L   6.808 -73.092150.2  RSN  4 0.3 1.4LRSN                1
 GAP=166        0.79       8.2     5.0  6.3 -0.2075E+02  0.3066E+01  0.4586E+01E
 Epicentro: LOS SANTOS - SANTANDER                                             3
 ACTION:UPD 17-10-26 21:06 OP:lp   STATUS:               ID:20161111005524 L   I
 OLDACT:DUP 16-11-11 15:38 OP:ar   STATUS:               ID:20161111004742d    3
 2016-11-11-0048-00M.COL___336                                                 6
 STAT SP IPHASW D HRMM SECON CODA AMPLIT PERI AZIMU VELO AIN AR TRES W  DIS CAZ7
 BAR2 EZ EP        055 44.96                             170    0.2310 25.9 203 
 BAR2 EZ ES        056  0.50                             170    0.0110 25.9 203 
 BAR2 EZ I         056  1.21         4.5 0.24            170           25.9 203 
 PAM  EZ EP        055 46.45                             153   -0.5010 73.0  36 
 PAM  EN ES        056  4.46                             153    0.0010 73.0  36 
 PAM  EZ I         056  6.50         7.7 0.44            154           73.0  36 
 BRR  HZ EP        055 46.79                             152    0.3810 76.0 296 
 BRR  HN ES        056  3.65                             152    0.1610 76.0 296 
 PTB  HZ EP        055 52.51                             132    0.13 9  154 259 
 PTB  HN ES        056 13.66                             132   -0.45 9  154 259 
 PTB  HZ I         056 17.72         1.9 0.22            132            154 259 
                                                                                
