 2016  311 0819  9.9 L   6.808 -73.157148.2  RSN 10 0.3 1.8LRSN                1
 GAP= 64        0.80       2.3     2.7  4.7 -0.5804E+00  0.2380E+01  0.8665E+00E
 Epicentro: LOS SANTOS - SANTANDER                                             3
 ACTION:UPD 16-05-13 21:23 OP:cam  STATUS:               ID:20160311081909 L   I
 OLDACT:REG 16-03-11 14:04 OP:cara STATUS:               ID:20160311081750     3
 2016-03-11-0817-50M.COL___261                                                 6
 STAT SP IPHASW D HRMM SECON CODA AMPLIT PERI AZIMU VELO AIN AR TRES W  DIS CAZ7
 BAR2 EZ EP        819 29.48                             170   -0.3510 24.0 187 
 BAR2 EZ ES        819 45.03                             170   -0.3510 24.0 187 
 BAR2 EZ I         819 46.10        12.3 0.20            169           24.0 187 
 PAM  EZ EP        819 32.58                             151    0.2010 77.6  41 
 PAM  EE ES        819 49.76                             151   -0.1610 77.6  41 
 PAM  EZ I         819 52.45         6.4 0.60            155           77.6  41 
 RUS  HZ EP        819 33.80                             144   -0.1610  102 175 
 RUS  HE ES        819 52.89                             144    0.1710  102 175 
 RUS  HZ I         819 54.27         4.3 0.30            145            102 175 
 TAM  HZ EP        819 38.05                             131    0.14 9  157 105 
 TAM  HE ES        820  0.26                             131    0.51 9  157 105 
 OCA  HZ EP        819 38.39                             130    0.08 9  159 354 
 OCA  HN ES        820  0.57                             130    0.11 9  159 354 
 OCA  HZ I         820  4.85        11.8 0.46            132            159 354 
 SPBC HZ EP        819 38.73                             129    0.16 9  163 218 
 SPBC HN ES        820  0.93                             129   -0.00 9  163 218 
 SPBC HZ I         820  6.75        11.1 0.24            130            163 218 
 ZAR  HZ EP        819 42.45                             123    0.10 9  203 292 
 ZAR  HE ES        820  7.38                             123   -0.27 9  203 292 
 ZAR  HZ I         820 13.04         6.8 0.42            123            203 292 
 NOR  HE ES        820 14.32                             119    0.68 8  234 234 
 NOR  HZ I         820 20.39         5.9 0.18            119            234 234 
 CHI  HZ EP        819 47.91                             117    0.12 8  249 195 
 CHI  HE ES        820 17.18                             117   -0.16 8  249 195 
 CHI  HZ I         820 23.43         2.1 0.62            119            249 195 
 PTGC HZ EP        819 53.03                             112   -0.98 7  310 158 
 PTGC HE ES   4    820 25.67                             112   -2.75 0  310 158 
 PTGC HZ I         820 27.47         6.0 0.42            114            310 158 
                                                                                
