 2017  211 0615 59.0 L   6.728 -73.095143.3  RSN  5 0.2 0.9LRSN                1
 GAP=146        0.49       3.0     4.2  5.7  0.2948E+01 -0.7567E+01 -0.2550E+01E
 Epicentro: JORDAN - SANTANDER                                                 3
 ACTION:UPD 17-05-24 15:35 OP:jn   STATUS:               ID:20170211061559 L   I
 OLDACT:UP  17-02-11 16:07 OP:and  STATUS:               ID:20170211060746d    3
 OLDACT:UP  17-02-11 16:06 OP:and  STATUS:               ID:20170211060746d    3
 OLDACT:UP  17-02-11 16:06 OP:and  STATUS:               ID:20170211060746d    3
 OLDACT:UP  17-02-11 16:06 OP:and  STATUS:               ID:20170211060746d    3
 OLDACT:DUP 17-02-11 16:03 OP:and  STATUS:               ID:20170211060746d    3
 OLDACT:UP  17-02-11 16:03 OP:and  STATUS:               ID:20170211060745     3
 OLDACT:UP  17-02-11 16:02 OP:and  STATUS:               ID:20170211060745     3
 OLDACT:UP  17-02-11 16:02 OP:and  STATUS:               ID:20170211060745     3
 OLDACT:REG 17-02-11 12:53 OP:and  STATUS:               ID:20170211060745     3
 2017-02-11-0608-00M.COL___346                                                 6
 STAT SP IPHASW D HRMM SECON CODA AMPLIT PERI AZIMU VELO AIN AR TRES W  DIS CAZ7
 BAR2 EZ IP     C  616 18.12                             173   -0.1510 17.8 213 
 BRR  HZ EP        616 20.41                             149   -0.0410 80.1 302 
 BRR  HN ES        616 37.35                             149    0.2010 80.1 302 
 PAM  EZ IP     C  616 21.31                             149    0.1310 80.5  33 
 PAM  EN ES   2    616 37.96                             149   -0.50 5 80.5  33 
 PAM  EZ I         616 41.36         1.5 0.48            150           80.5  33 
 RUS  HZ EP        616 22.05                             146    0.0910 92.4 179 
 RUS  HN ES     D  616 39.87                             146    0.0310 92.4 179 
 RUS  HZ I         616 41.38         1.8 0.34            149           92.4 179 
 PTB  HN ES   2    616 46.82                             131   -0.55 5  152 262 
 PTB  HZ I         616 48.12         0.9 0.16            134            152 262 
                                                                                
