 2017  711 0250 47.3 L   6.735 -73.109152.6  RSN  5 0.3 1.5LRSN                1
 GAP=266        0.90       6.9     8.8  7.6 -0.1770E+02  0.4049E+01  0.1395E+01E
 Epicentro: JORDAN - SANTANDER                                                 3
 ACTION:UPD 17-08-30 15:31 OP:rebc STATUS:               ID:20170711025047 L   I
 OLDACT:UP  17-07-11 14:04 OP:dnl  STATUS:               ID:20170711024739     3
 OLDACT:UP  17-07-11 14:04 OP:dnl  STATUS:               ID:20170711024739     3
 OLDACT:REG 17-07-11 13:00 OP:dnl  STATUS:               ID:20170711024739     3
 2017-07-11-0248-00M.COL___365                                                 6
 STAT SP IPHASW D HRMM SECON CODA AMPLIT PERI AZIMU VELO AIN AR TRES W  DIS CAZ7
 BAR2 EZ EP        251  7.74                             173    0.0610 17.8 207 
 BAR2 EZ ES        251 23.44                             173   -0.1210 17.8 207 
 BRR  HZ EP        251  9.79                             152    0.1710 78.3 302 
 BRR  HE ES        251 27.11                             152    0.1010 78.3 302 
 BRR  HZ I         251 32.62         6.2 0.68            150           78.3 302 
 PTB  HZ EP        251 14.51                             133   -0.60 9  151 262 
 PTB  HN ES   4    251 35.06                             133   -1.72 0  151 262 
 PTB  HZ I         251 37.80         2.1 0.12            133            151 262 
 SPBC HZ EP   2    251 16.61                             131    0.51 5  160 222 
 SPBC HN ES        251 38.78                             131    0.24 9  160 222 
 SPBC HZ I         251 43.68         4.6 0.34            132            160 222 
 GUY2CHZ EP   9    251 33.02                             114    1.84 0  301 236 
 GUY2CHN ES        252  6.32                             113   -0.91 7  301 236 
 GUY2CHZ I         252 13.33         1.6 0.34                           301 236 
                                                                                
