 2012  711 0316  2.6 L   6.469 -73.624104.2  RSN  4 0.4 1.3LRSN                1
 GAP=138        0.89       7.5     5.1 13.4  0.9497E+01  0.4201E+01  0.2883E+02E
 Epicentro: SANTA HELENA DEL OPON - SANTANDER                                  3
 ACTION:UPD 12-08-14 11:44 OP:ep   STATUS:               ID:20120711031602 L   I
 2012-07-11-0310-00M.COL___188                                                 6
 STAT SP IPHASW D HRMM SECON CODA AMPLIT PERI AZIMU VELO AIN AR TRES W  DIS CAZ7
 BAR2 SZ ES   1    316 30.34                             152    -0.5 7   51  74 
 BAR2 SZ I         316 32.20        33.8 0.34            147             51  74 
 BRR  HZ EP   1    316 19.17                             142    -0.3 7   71 352 
 BRR  HE ES   1    316 33.21                             142     0.6 7   71 352 
 BRR  HZ I         316 41.94         3.4 0.13                            71 352 
 RUS  HZ EP   1    316 21.67                             137     0.2 7   87 137 
 RUS  HN ES   2    316 36.45                             137     0.3 5   87 137 
 PTB  HN ES        316 35.61                             135    -0.110   92 275 
 PTB  HZ I         316 37.46         2.0 0.09                            92 275 
