 2015  911 0254 57.0 L   6.828 -73.186138.6  RSN 19 0.4 2.5LRSN                1
 GAP=111        0.84       2.9     3.1  4.8 -0.1769E+01  0.5892E+01 -0.2079E+01E
 Epicentro: ZAPATOCA - SANTANDER                                               3
 ACTION:UPD 15-10-28 16:25 OP:cam  STATUS:               ID:20150911025457 L   I
 OLDACT:UP  15-09-11 14:48 OP:drio STATUS:               ID:20150911024748     3
 OLDACT:REG 15-09-11 12:39 OP:drio STATUS:               ID:20150911024748     3
 2015-09-11-0247-48M.COL___350                                                 6
 STAT SP IPHASW D HRMM SECON CODA AMPLIT PERI AZIMU VELO AIN AR TRES W  DIS CAZ7
 BAR2 EZ EP     C  255 16.05                             169    0.1810 26.1 179 
 BAR2 EZ I         255 16.44       126.8 0.10            168           26.1 179 
 BAR2 EZ ES        255 30.85                             169    0.2910 26.1 179 
 BRR  HZ IP     C  255 17.98                             153    0.8710 65.7 298 
 RUS  HZ IP     C  255 20.02                             141   -0.3410  104 174 
 RUS  HZ I         255 20.96        51.2 0.48            140            104 174 
 RUS  HN ES        255 38.28                             141   -0.2710  104 174 
 PTB  HZ EP        255 22.67                             131   -0.42 9  144 257 
 PTB  HZ I         255 24.09        21.5 0.10            130            144 257 
 PTB  HE ES   4    255 41.22                             131   -2.18 0  144 257 
 OCA  HZ EP        255 24.29                             129   -0.17 9  157 355 
 OCA  HN ES   4    255 42.07                             129   -3.78 0  157 355 
 TAM  HZ EP        255 24.35                             128   -0.31 9  160 106 
 TAM  HN ES   4    255 42.48                             128   -3.72 0  160 106 
 SPBC HZ EP        255 24.95                             127   -0.02 9  163 217 
 SPBC HZ I         255 28.10        48.1 0.10            126            163 217 
 SPBC HN ES        255 46.48                             127   -0.27 9  163 217 
 ZAR  HZ EP        255 28.12                             121   -0.35 9  199 292 
 ZAR  HN ES   4    255 48.14                             121   -4.85 0  199 292 
 NOR  HZ EP        255 32.49                             117    0.32 8  233 233 
 NOR  HZ I         255 32.78        22.3 0.24            116            233 233 
 NOR  HN ES        255 59.54                             117   -0.03 8  233 233 
 CHI  HZ EP        255 34.22                             115   -0.34 8  251 194 
 CHI  HZ I         255 35.27        13.1 0.46            114            251 194 
 CHI  HN ES        256  3.75                             115   -0.08 8  251 194 
 ROSC BZ EP   4    255 35.79                             115    0.96 0  253 210 
 ROSC BZ I         255 37.35        20.9 0.50            114            253 210 
 ROSC BN ES        256  4.29                             115   -0.01 8  253 210 
 HEL  HZ EP        255 36.46                             114   -0.04 8  269 255 
 HEL  HN ES        256  7.28                             114    0.00 8  269 255 
 GUY2CHZ EP        255 40.40                             111    0.28 7  299 234 
 GUY2CHE ES        256 14.09                             111    0.37 7  299 234 
 GUY2CHZ I         256 22.59        43.4 0.36                           299 234 
 ELA  HZ EP        255 43.84                             109    0.39 7  328 229 
 ELA  HN ES   4    256 18.51                             109   -1.13 0  328 229 
 CBOC HZ EP        255 43.95                             109    0.66 7  330 251 
 CBOC HE ES        256 18.84                             109   -0.52 7  330 251 
 DBB  SZ EP        255 43.93                             108    0.24 7  335 274 
 DBB  SZ I         255 45.05        21.0 0.16            107            335 274 
 DBB  SZ ES        256 19.21                             108   -0.87 7  335 274 
 TOL  SZ EP        255 45.48                             108    0.56 7  343 224 
 TOL  SZ I         255 47.81        10.1 0.12            107            343 224 
 TOL  SN ES        256 22.77                             108    0.51 7  343 224 
 PRA  HZ EP        255 49.79                             105   -0.60 6  393 209 
 PRA  HZ I         255 50.83        10.8 0.10            104            393 209 
 PRA  HE ES        256 31.91                             105   -0.09 6  393 209 
 ORTC HZ EP        255 50.85                             105    0.13 6  395 215 
 ORTC HZ I         255 53.83         8.0 0.16            104            395 215 
 ORTC HN ES        256 32.84                             105    0.26 6  395 215 
                                                                                
