 2015 1111 0213  4.8 L   6.778 -73.094148.0  RSN 13 0.5 2.1LRSN                1
 GAP=144        0.86       4.3     5.1  6.3 -0.5848E+01  0.6696E+01  0.8553E+01E
 Epicentro: LOS SANTOS - SANTANDER                                             3
 ACTION:UPD 15-12-28 16:10 OP:cam  STATUS:               ID:20151111021304 L   I
 OLDACT:UP  15-11-11 16:07 OP:dnl  STATUS:               ID:20151111020751     3
 OLDACT:REG 15-11-11 13:04 OP:dnl  STATUS:               ID:20151111020751     3
 2015-11-11-0207-51M.COL___319                                                 6
 STAT SP IPHASW D HRMM SECON CODA AMPLIT PERI AZIMU VELO AIN AR TRES W  DIS CAZ7
 BAR2 EZ EP        213 24.49                             171   -0.2010 22.8 205 
 BAR2 EZ I         213 42.17        18.4 0.20            171           22.8 205 
 PAM  EZ EP        213 27.45                             152    0.2910 75.8  35 
 PAM  EN ES        213 44.73                             152    0.1310 75.8  35 
 PAM  EZ I         213 46.86        14.1 0.27            152           75.8  35 
 BRR  HZ EP   2    213 26.37                             151   -0.17 5 77.3 298 
 BRR  HN ES        213 44.00                             151    0.5010 77.3 298 
 BRR  HZ I         213 46.32        17.2 0.19            148           77.3 298 
 RUS  HZ EP   2    213 28.39                             145   -0.19 5 98.0 179 
 RUS  HN ES   2    213 46.88                             145   -0.26 5 98.0 179 
 OCA  HZ EP        213 32.91                             130   -0.67 9  163 351 
 SPBC HZ EP        213 33.63                             130   -0.01 9  165 221 
 SPBC HN ES   2    213 56.22                             130    0.08 5  165 221 
 ZAR  HZ EP   2    213 39.09                             122    1.06 4  210 292 
 ZAR  HE ES   2    214  2.37                             122   -1.57 4  210 292 
 ZAR  HZ I         214  8.82        18.0 0.26            121            210 292 
 CHI  HZ EP        213 42.39                             118   -0.15 8  248 197 
 CHI  HN ES   2    214 11.63                             118   -0.35 4  248 197 
 CHI  HZ I         214 15.78         5.3 0.39            118            248 197 
 SML  HZ EP   2    213 41.43                             118   -0.62 4  248 334 
 SML  HE ES   4    214  9.59                             118   -1.51 0  248 334 
 SML  HZ I         214 16.79        24.8 0.08            117            248 334 
 ROSC BZ EP   4    213 44.61                             117    1.47 0  254 212 
 ROSC BE ES   4    214 14.86                             117    1.81 0  254 212 
 HEL  HZ E         212 31.82                                            277 257 
 HEL  HZ EP        213 46.26                             115    0.59 7  277 257 
 HEL  HN ES   2    214 16.75                             115   -0.81 4  277 257 
 HEL  HZ I         214 23.27         5.2 0.19            115            277 257 
 GUY2CHZ EP        213 49.17                             113    0.29 7  304 236 
 GUY2CHN ES   2    214 22.97                             113   -0.30 4  304 236 
 GUY2CHZ I         214 31.20         6.6 0.37                           304 236 
 MON  HZ EP   4    213 51.82                             109   -2.75 0  360 308 
 MON  HN ES   4    214 30.38                             109   -3.02 0  360 308 
 MON  HZ I         214 46.17         3.8 0.50            108            360 308 
 SJC  HZ EP   4    213 58.55                             106   -2.49 0  414 326 
 SJC  HE ES   4    214 35.30                             106   -9.60 0  414 326 
 SJC  HZ I         214 44.52         2.2 0.34            106            414 326 
                                                                                
