 2010  111 0636 23.3 L   6.567 -73.506113.2  RSN  6 0.4 1.7LRSN                1
 GAP=107        0.77       3.3     6.3  8.6 -0.6918E+01  0.3782E+02 -0.6597E+01E
 Epicentro: EL CARMEN DE CHUCURI - SANTANDER                                   3
 ACTION:UP  10-08-24 09:43 OP:vdl  STATUS:               ID:20100111063623 L   I
 2010-01-11-0634-41S.COL___097                                                 6
 STAT SP IPHASW D HRMM SECON CODA AMPLIT PERI AZIMU VELO SNR AR TRES W  DIS CAZ7
 BAR2 SZ IP        636 39.47                             162     0.010   36  86 
 BAR2 SZ ES   1    636 52.13                             162     0.1 7   36  86 
 RUS  BZ EP   1    636 42.39                             140    -0.6 7   88 148 
 RUS  BE ES   1    636 58.16                             140    -0.2 7   88 148 
 RUS  BZ I         636 59.16         6.0 0.32                            88 148 
 OCA  SZ IP        636 52.07                             117     0.0 9  186   6 
 OCA  SZ ES   1    637 14.84                             117     0.3 7  186   6 
 OCA  SZ I         637 20.92        20.7 0.21                           186   6 
 CHI  HZ EP   1    636 55.48                             113    -0.2 6  216 187 
 CHI  HE ES   1    637 21.71                             113     0.8 6  216 187 
 CHI  HZ I         637 26.50         2.4 0.41                           216 187 
 HEL  HZ EP   1    636 56.69                             112    -0.3 6  228 260 
 HEL  HE ES   2    637 22.62                             112    -0.6 4  228 260 
 HEL  HZ I         637 25.76         3.4 0.19                           228 260 
 RREF BZ IP        637  3.01                             107     0.3 8  275 228 
 RREF BN ES   1    637 33.60                             107     0.1 6  275 228 
 RREF BZ I         637 38.27         3.1 0.24                           275 228 
                                                                                
