 2015  311 0343 53.2 L   6.818 -73.125149.4  RSN 16 0.5 2.3LRSN                1
 GAP= 72        1.20       2.9     4.0  5.7 -0.2762E+01  0.6313E+01  0.2446E+01E
 Epicentro: LOS SANTOS - SANTANDER                                             3
 ACTION:UPD 15-04-30 16:24 OP:nd   STATUS:               ID:20150311034353 L   I
 OLDACT:UP  15-03-11 14:35 OP:cam  STATUS:               ID:20150311033744     3
 OLDACT:UP  15-03-11 14:35 OP:cam  STATUS:               ID:20150311033744     3
 OLDACT:REG 15-03-11 13:01 OP:cam  STATUS:               ID:20150311033744     3
 2015-03-11-0337-44M.COL___284                                                 6
 STAT SP IPHASW D HRMM SECON CODA AMPLIT PERI AZIMU VELO AIN AR TRES W  DIS CAZ7
 BAR2 EZ EP     C  344 13.14                             170   -0.2210 25.7 194 
 BAR2 EZ ES        344 28.94                             170   -0.1010 25.7 194 
 BAR2 EZ I         344 30.97        28.3 0.54            167           25.7 194 
 BRR  HZ IP     C  344 15.02                             153    0.1710 72.4 296 
 BRR  HN ES        344 32.51                             153    0.8110 72.4 296 
 BRR  HZ I         344 36.82        28.4 0.26            149           72.4 296 
 PAM  SZ EP        344 16.02                             152    0.3510 74.4  39 
 PAM  SN ES        344 33.31                             152    0.1410 74.4  39 
 PAM  SZ I         344 35.00        27.9 0.20            148           74.4  39 
 RUS  HZ EP        344 16.95                             144   -0.5310  102 177 
 RUS  HN ES        344 35.84                             144   -0.5410  102 177 
 RUS  HZ I         344 37.75        11.0 0.26            138            102 177 
 TAM  HZ IP     C  344 21.31                             132    0.26 9  153 106 
 TAM  HZ I         344 42.04        16.0 0.40            126            153 106 
 TAM  HN ES        344 43.16                             132    0.42 9  153 106 
 OCA  HZ EP        344 22.24                             131    0.55 9  159 352 
 OCA  HN ES        344 43.23                             131   -0.64 9  159 352 
 OCA  HZ I         344 48.93        17.7 0.28            126            159 352 
 SPBC HZ EP        344 21.97                             129   -0.33 9  166 219 
 SPBC HN ES        344 44.75                             129   -0.21 9  166 219 
 SPBC HZ I         344 50.99        46.8 0.38            124            166 219 
 NOR  HZ EP        344 29.09                             119   -0.42 8  238 234 
 NOR  HN ES        344 57.59                             119   -0.20 8  238 234 
 NOR  HZ I         345  0.51        16.8 0.30            114            238 234 
 SML  HZ EP        344 29.66                             118   -0.33 8  243 335 
 SML  HN ES        344 57.86                             118   -0.79 8  243 335 
 SML  HZ I         345  1.61        38.4 0.10            114            243 335 
 CHI  HZ EP        344 30.88                             118   -0.53 8  251 196 
 CHI  HN ES        345  0.28                             118   -0.90 8  251 196 
 CHI  HZ I         345 10.62         4.5 0.62            113            251 196 
 ROSC BZ EP        344 32.60                             117    0.73 8  256 211 
 ROSC BE ES        345  2.90                             117    0.90 8  256 211 
 ROSC BZ I         345 10.71        20.8 0.45            112            256 211 
 HEL  HZ EP   4    344 32.99                             115   -0.95 0  275 256 
 HEL  HN ES   4    345  6.60                             115    0.91 0  275 256 
 HEL  HZ I         345 11.59        11.9 0.34            111            275 256 
 GUY2CHZ EP        344 38.30                             113    0.94 7  304 235 
 GUY2CHN ES        345 12.49                             113    0.72 7  304 235 
 GUY2CHZ I         345 19.76        19.1 0.76                           304 235 
 TOL  SZ EP        344 42.57                             110    0.58 6  347 225 
 TOL  SN ES        345 20.20                             110    0.18 6  347 225 
 TOL  SZ I         345 30.01         8.6 0.70            106            347 225 
 PRA  HZ EP        344 46.63                             107   -0.59 6  395 210 
 PRA  HN ES        345 29.36                             107    0.04 6  395 210 
 PRA  HZ I         345 34.65         8.4 0.38            103            395 210 
 PAL  HZ EP        344 48.59                             106   -0.29 6  409 239 
 PAL  HZ I         345 41.90         3.6 0.30            103            409 239 
                                                                                
