 2012  111 0229 44.4 L   6.821 -73.102145.6  RSN 12 0.3 2.1LRSN                1
 GAP=141        0.59       3.0     3.6  4.4 -0.1728E+01  0.3971E+01  0.2078E+01E
 Epicentro: LOS SANTOS - SANTANDER                                             3
 ACTION:UP  12-02-03 08:16 OP:REBC STATUS:               ID:20120111022944 L   I
 2012-01-11-0230-00M.COL___186                                                 6
 STAT SP IPHASW D HRMM SECON CODA AMPLIT PERI AZIMU VELO SNR AR TRES W  DIS CAZ7
 BAR2 SZ EP        230  3.96                             169    -0.110   27 199 
 BAR2 SZ ES   1    230 19.15                             169    -0.3 7   27 199 
 BAR2 SZ I         230 21.60        26.9 0.24                            27 199 
 GIR2 SZ EP        230  3.99                             168     0.010   30 340 
 GIR2 SZ ES   2    230 18.94                             168    -0.4 5   30 340 
 PAM  SZ EP   1    230  6.69                             152     0.4 7   73  38 
 PAM  SN ES   1    230 23.66                             152     0.3 7   73  38 
 BRR  HZ EP        230  5.74                             151     0.010   74 295 
 BRR  HE ES   1    230 22.71                             151     0.4 7   74 295 
 BRR  HZ I         230 23.53        40.3 0.12                            74 295 
 RUS  HZ EP   1    230  8.06                             143    -0.2 7  103 179 
 RUS  HN ES   2    230 26.95                             143     0.1 5  103 179 
 RUS  HZ I         230 28.48        16.3 0.27                           103 179 
 PTB  HZ EP   2    230 10.97                             131    -0.8 5  153 258 
 PTB  HE ES   2    230 32.96                             131    -0.2 5  153 258 
 OCA  SZ EP   1    230 12.29                             130    -0.2 7  159 351 
 OCA  SZ ES   2    230 34.23                             130    -0.2 5  159 351 
 OCA  SZ I         230 37.01        15.4 0.28                           159 351 
 ZAR  HZ EP   1    230 16.91                             122    -0.3 6  208 291 
 ZAR  HN ES   2    230 42.40                             122    -0.4 4  208 291 
 ZAR  HZ I         230 47.60        15.7 0.24                           208 291 
 NOR  SZ EP   2    230 20.99                             118     0.3 4  240 235 
 NOR  SN ES   2    230 49.38                             118     0.4 4  240 235 
 CHI  HZ EP   1    230 22.60                             117     0.2 6  252 196 
 CHI  HE ES   2    230 52.06                             117    -0.1 4  252 196 
 CHI  HZ I         230 59.49         4.0 0.39                           252 196 
 HEL  HZ EP   2    230 25.89                             114     0.7 4  277 256 
 HEL  HN ES   2    230 57.74                             114     0.8 4  277 256 
 HEL  HZ I         231  2.31         6.3 0.22                           277 256 
 RREF HZ EP   2    230 31.21                             110     0.1 3  327 230 
 RREF HN ES   2    231  7.52                             110     0.0 3  327 230 
 RREF HZ I         231 12.34         4.8 0.38                           327 230 
                                                                                
