 2013  111 0301 24.7 L   6.797 -73.128147.3  RSN  8 0.4 2.4LRSN                1
 GAP=185        1.07       3.6     5.1  6.5  0.2934E+01  0.5640E+01  0.6312E+00E
 Epicentro: LOS SANTOS - SANTANDER                                             3
 ACTION:UPD 13-02-15 09:13 OP:ep   STATUS:               ID:20130111030124 L   I
 2013-01-11-0300-00M.COL___242                                                 6
 STAT SP IPHASW D HRMM SECON CODA AMPLIT PERI AZIMU VELO AIN AR TRES W  DIS CAZ7
 BAR2 SZ EP        3 1 44.52                             171   -0.0210 23.5 195 
 BAR2 SZ ES        3 1 59.47                             171   -0.5310 23.5 195 
 BAR2 SZ I         3 2  2.06        36.2 0.44            168           23.5 195 
 BRR  HZ IP     D  3 1 46.41                             152    0.2710 73.0 298 
 BRR  HN ES        3 2  3.68                             152    0.8410 73.0 298 
 BRR  HN I         3 2  4.51        56.5 0.24            149           73.0 298 
 RUS  HZ EP        3 1 48.45                             144   -0.1510  100 177 
 RUS  HN ES        3 2  7.55                             144    0.3310  100 177 
 RUS  HN I         3 2  8.59        24.4 0.16            146            100 177 
 PTB  HZ EP        3 1 51.42                             132   -0.56 9  150 259 
 PTB  HN ES        3 2 12.49                             132   -0.75 9  150 259 
 PTB  HN I         3 2 18.03        85.9 0.38            131            150 259 
 OCA  HZ EP        3 1 53.16                             130   -0.04 9  161 352 
 OCA  HN ES        3 2 15.48                             130    0.07 9  161 352 
 OCA  HN I         3 2 19.54        66.0 0.34            131            161 352 
 ZAR  HZ EP        3 1 57.18                             123   -0.28 8  206 292 
 ZAR  HN ES        3 2 22.74                             123   -0.26 8  206 292 
 ZAR  HN I         3 2 28.68        31.4 0.60            122            206 292 
 CHI  HZ EP        3 2  2.56                             117    0.03 8  249 196 
 CHI  HN ES        3 2 32.26                             117    0.24 8  249 196 
 CHI  HN I         3 2 34.26        12.7 0.32            118            249 196 
 HEL  HZ EP   1    3 2  6.01                             115    0.80 6  274 256 
 HEL  HN ES        3 2 37.39                             115    0.60 8  274 256 
 HEL  HN I         3 2 46.18         8.3 0.24            115            274 256 
                                                                                
