 2015  211 0807 55.9 L   6.836 -73.164141.1  RSN 14 0.5 2.0LRSN                1
 GAP=181        1.28       3.4     5.9  6.7 -0.1971E+01  0.1047E+02  0.2716E+01E
 Epicentro: LOS SANTOS - SANTANDER                                             3
 ACTION:UPD 15-04-30 21:25 OP:nd   STATUS:               ID:20150211080755 L   I
 OLDACT:DUP 15-02-11 18:39 OP:fm   STATUS:               ID:20150211075742d    3
 2015-02-11-0757-41M.COL___281                                                 6
 STAT SP IPHASW D HRMM SECON CODA AMPLIT PERI AZIMU VELO AIN AR TRES W  DIS CAZ7
 BAR2 EZ EP        8 8 15.29                             169    0.1910 27.0 184 
 BAR2 EZ ES        8 8 29.93                             169   -0.1110 27.0 184 
 BAR2 EZ I         8 8 31.71        21.4 0.54            167           27.0 184 
 BRR  HZ EP     C  8 8 17.07                             153    0.6910 67.6 296 
 BRR  HE ES        8 8 33.92                             153    1.5910 67.6 296 
 BRR  HZ I         8 8 34.61        23.1 0.30            148           67.6 296 
 RUS  HZ EP        8 8 19.64                             142    0.0910  105 175 
 RUS  HE ES        8 8 37.40                             142   -0.5610  105 175 
 RUS  HZ I         8 8 39.83        12.2 0.22            142            105 175 
 PTB  HZ EP        8 8 22.19                             131   -0.24 9  147 257 
 PTB  HN ES        8 8 42.32                             131   -0.77 9  147 257 
 PTB  HZ I         8 8 45.28        13.4 0.56            128            147 257 
 OCA  HE ES        8 8 44.08                             129   -0.92 9  156 354 
 OCA  HZ I         8 8 50.16        15.9 0.18            129            156 354 
 SPBC HZ EP        8 8 24.35                             128    0.08 9  165 218 
 SPBC HE ES        8 8 45.98                             128   -0.38 9  165 218 
 SPBC HZ I         8 8 50.15        17.5 0.22            126            165 218 
 NOR  HZ EP        8 8 31.39                             117   -0.09 8  235 233 
 NOR  HE ES        8 8 58.89                             117   -0.31 8  235 233 
 NOR  HZ I         8 9  6.33         8.3 0.26            116            235 233 
 SML  HZ EP        8 8 31.56                             117   -0.27 8  239 335 
 SML  HE ES        8 8 59.50                             117   -0.32 8  239 335 
 SML  HZ I         8 9  5.90        21.4 0.30            116            239 335 
 CHI  HZ EP        8 8 33.94                             116    0.19 8  252 194 
 CHI  HN ES        8 9  3.11                             116   -0.13 8  252 194 
 CHI  HZ I         8 9 10.36         3.5 0.38            116            252 194 
 ROSC BZ EP        8 8 34.58                             115    0.51 8  255 210 
 ROSC BN ES        8 9  3.79                             115   -0.03 8  255 210 
 ROSC BZ I         8 9 12.16        10.2 0.45            115            255 210 
 GUY2CHZ EP        8 8 39.55                             111    0.14 7  302 234 
 GUY2CHE ES        8 9 13.25                             111   -0.07 7  302 234 
 GUY2CHZ I         8 9 21.96         5.1 0.28                           302 234 
 CBOC HZ EP        8 8 42.88                             109    0.29 7  333 251 
 CBOC HN ES        8 9 18.92                             109   -0.05 7  333 251 
 CBOC HZ I         8 9 26.73         1.8 0.20            108            333 251 
 MON  HZ EP   4    8 8 41.89                             108   -2.41 0  350 308 
 MON  HN ES   4    8 9 18.86                             108   -3.15 0  350 308 
 MON  HZ I         8 9 35.30         2.6 0.38            107            350 308 
 ORTC HE ES        8 9 32.54                             105    0.48 6  397 216 
 ORTC HZ I         8 9 38.08         3.2 0.36            105            397 216 
                                                                                
