 2013  211 0911 58.1 L   6.714 -73.185151.3  RSN  4 0.2 0.9LRSN                1
 GAP=226        0.45       5.6     5.1  6.0  0.1498E+02  0.1407E+01 -0.4948E+01E
 Epicentro: VILLANUEVA - SANTANDER                                             3
 ACTION:UPD 13-03-12 09:32 OP:ep   STATUS:               ID:20130211091158 L   I
 2013-02-11-0910-00M.COL___240                                                 6
 STAT SP IPHASW D HRMM SECON CODA AMPLIT PERI AZIMU VELO AIN AR TRES W  DIS CAZ7
 BAR2 SZ ES   2    912 33.57                             175   -0.38 5 13.5 179 
 BRR  HZ EP   1    912 19.76                             153   -0.17 7 72.7 307 
 BRR  HN ES   2    912 37.38                             153    0.42 5 72.7 307 
 RUS  HZ EP   1    912 22.05                             147    0.27 7 91.5 173 
 RUS  HE ES   1    912 40.25                             147   -0.01 7 91.5 173 
 RUS  HZ I         912 41.26         0.8 0.30            144           91.5 173 
 PTB  HZ EP   1    912 24.90                             134   -0.11 7  142 262 
 PTB  HN ES   1    912 45.98                             134   -0.02 7  142 262 
 PTB  HZ I         912 50.56         1.5 0.14            131            142 262 
                                                                                
