 2013  711 0145 28.2 L   6.767 -73.176150.7  RSN  4 0.1 1.4LRSN                1
 GAP=177        0.34       2.4     2.5  3.1  0.2010E+01  0.5733E+00  0.1022E+01E
 Epicentro: LOS SANTOS - SANTANDER                                             3
 ACTION:UPD 13-08-12 10:36 OP:ep   STATUS:               ID:20130711014528 L   I
 OLDACT:DUP 13-07-11 07:55 OP:nd   STATUS:               ID:20130711013960d    3
 2013-07-11-0139-59M.COL___266                                                 6
 STAT SP IPHASW D HRMM SECON CODA AMPLIT PERI AZIMU VELO AIN AR TRES W  DIS CAZ7
 GIR2 SZ EP   1    145 48.38                             166   -0.20 7 34.5 357 
 GIR2 SZ ES   1    146  4.42                             166   -0.03 7 34.5 357 
 GIR2 SZ I         146  5.12         6.7 0.26            161           34.5 357 
 BRR  HZ EP        145 50.02                             154    0.1610 70.1 302 
 BRR  HN ES        146  6.76                             154    0.0310 70.1 302 
 BRR  HZ I         146 26.43         7.7 0.30            150           70.1 302 
 RUS  HZ EP        145 52.31                             146    0.0610 97.3 174 
 RUS  HN ES        146 10.96                             146   -0.0110 97.3 174 
 RUS  HZ I         146 11.89         1.9 0.46            156           97.3 174 
 PTB  HZ EP        145 55.17                             134   -0.09 9  144 260 
 PTB  HN ES        146 16.30                             134   -0.03 9  144 260 
 PTB  HZ I         146 20.59         3.0 0.14            136            144 260 
                                                                                
