 2012 1011 0516 59.4 L   6.791 -73.146147.0  RSN 15 0.4 3.2LRSN 3.5WRSN        1
 SPEC AVERAGE  MO 14.3 ST 40.1 OM  3.0 f0 4.86 R0.3079 AL 3.94 WI  8.8 MW  3.5 3
 SPEC SD       MO  0.2 ST 21.6 OM  0.5 f00.662 R0.0407 AL      WI      MW  0.1 3
 GAP= 66        0.74       3.0     2.7  4.9  0.5671E+00  0.3301E+01  0.4108E+01E
 Epicentro: LOS SANTOS - SANTANDER                                             3
 SPEC ZAR HH N MO 14.4 ST 71.1 OM  2.6 f0 5.91 R0.2487 AL 3.48 WI 10.7 MW  3.5 3
 SPEC ZAR HH N T 51757 K 0.000 GD  251 VS 4.20 DE 3.20 Q0230.0 QA 0.60 VS 4.20 3
 SPEC TAM HH N MO 14.1 ST 12.9 OM  2.4 f0 4.12 R0.3568 AL 4.76 WI  5.5 MW  3.4 3
 SPEC TAM HH N T 51748 K 0.000 GD  213 VS 4.20 DE 3.20 Q0230.0 QA 0.60 VS 4.20 3
 SPEC RUS HH N MO 14.1 ST 20.8 OM  2.5 f0 4.76 R0.3088 AL 3.71 WI  6.4 MW  3.4 3
 SPEC RUS HH N T 51740 K 0.000 GD  177 VS 4.20 DE 3.20 Q0230.0 QA 0.60 VS 4.20 3
 SPEC PRA HH N MO 14.4 ST 38.9 OM  2.4 f0 4.76 R0.3088 AL 3.65 WI 13.5 MW  3.6 3
 SPEC PRA HH N T 51833 K 0.000 GD  417 VS 4.20 DE 3.20 Q0230.0 QA 0.60 VS 4.20 3
 SPEC CHI HH N MO 14.5 ST 65.7 OM  2.6 f0 5.50 R0.2673 AL 5.65 WI 10.2 MW  3.6 3
 SPEC CHI HH N T 518 6 K 0.000 GD  288 VS 4.20 DE 3.20 Q0230.0 QA 0.60 VS 4.20 3
 SPEC BRR HH N MO 14.5 ST 31.2 OM  2.9 f0 4.12 R0.3568 AL 2.39 WI  6.7 MW  3.6 3
 SPEC BRR HH N T 51737 K 0.000 GD  163 VS 4.20 DE 3.20 Q0230.0 QA 0.60 VS 4.20 3
 ACTION:UPD 12-11-22 17:03 OP:ep   STATUS:               ID:20121011051659 L   I
 2012-10-11-0515-29S.COL___226                                                 6
 STAT SP IPHASW D HRMM SECON CODA AMPLIT PERI AZIMU VELO AIN AR TRES W  DIS CAZ7
 BAR2 SZ IP        517 19.08                             171   -0.0810 22.3 190 
 BAR2 SZ ES   1    517 34.35                             171   -0.22 7 22.3 190 
 BAR2 SZ I         517 35.83      1056.7 0.22                          22.3 190 
 GIR2 SZ EP        517 19.15                             167   -0.1010 32.3 351 
 BRR  HZ IP     C  517 20.89                             152    0.1810 71.7 299 
 BRR  HZ I         517 22.44       361.1 0.12                          71.7 299 
 BRR  HN ES   1    517 38.20                             152    0.87 7 71.7 299 
 PAM  SZ EP        517 21.85                             151    0.0510 78.2  39 
 PAM  SN ES   1    517 38.81                             151   -0.45 7 78.2  39 
 PAM  SN I         517 41.44       350.8 0.54                          78.2  39 
 RUS  HZ IP        517 22.90                             144   -0.3010 99.6 176 
 RUS  HN ES   1    517 41.24                             144   -0.53 7 99.6 176 
 RUS  HZ I         517 43.55       157.3 0.26                          99.6 176 
 TAM  HZ EP        517 27.34                             131    0.19 9  155 105 
 TAM  HN ES   1    517 49.14                             131    0.34 7  155 105 
 TAM  HN I         517 49.95       321.5 0.34                           155 105 
 YOP  SZ EP   1    517 29.59                             127    0.14 7  178 153 
 YOP  SZ I         517 32.45        67.8 0.22                           178 153 
 YOP  SN ES   1    517 53.13                             127    0.25 7  178 153 
 ZAR  HZ EP   1    517 31.30                             122   -0.67 6  204 292 
 ZAR  HN ES   1    517 57.32                             122   -0.05 6  204 292 
 ZAR  HN I         518  5.09       275.6 0.18                           204 292 
 NOR  SZ EP   1    517 35.11                             119   -0.03 6  234 235 
 NOR  SN ES   1    518  3.07                             119    0.06 6  234 235 
 CHI  HZ EP   1    517 36.72                             117   -0.34 6  248 195 
 CHI  HZ I         517 37.94        74.9 0.26                           248 195 
 CHI  HN ES   1    518  6.74                             117    0.30 6  248 195 
 CHI  HN I         518  8.87       248.9 0.40                           248 195 
 ROSC BZ EP   1    517 38.52                             117    1.02 6  252 211 
 ROSC BZ I         518 14.22       213.3 0.50                           252 211 
 HEL  HZ EP   1    517 39.46                             115   -0.19 6  272 256 
 HEL  HZ I         517 42.78        27.4 0.22                           272 256 
 HEL  HN ES   1    518 11.11                             115    0.07 6  272 256 
 HEL  HN I         518 24.39        95.3 0.42                           272 256 
 URE  HZ EP   9    517 38.67                             114   -1.90 0  284 292 
 URE  HZ I         517 39.86        52.9 0.14                           284 292 
 URE  HE ES   9    518 10.07                                   -0.71 0  284 292 
 GUY  SZ EP   1    517 43.66                             112    0.39 5  303 235 
 GUY  SZ I         517 47.23        73.0 0.14                           303 235 
 SDV  BZ EP   9    517 48.33                             108   -1.24 0  361  50 
 SDV  BN ES   9    518 24.74                                   -2.72 0  361  50 
 PRA  HZ EP   1    517 52.38                             107   -0.48 4  391 210 
 PRA  HZ I         517 54.34        44.9 0.18                           391 210 
 PRA  HN ES   1    518 34.03                             107   -0.53 4  391 210 
 PRA  HN I         518 40.22        78.6 0.30                           391 210 
                                                                                
