 2016  111 0622 12.6 L   6.815 -73.161147.3  RSN 16 0.4 2.1LRSN                1
 GAP= 70        0.93       2.3     2.6  4.4 -0.4035E+00  0.2754E+01  0.1263E+01E
 Epicentro: LOS SANTOS - SANTANDER                                             3
 ACTION:UPD 16-03-09 23:24 OP:cam  STATUS:               ID:20160111062212 L   I
 OLDACT:UP  16-01-11 16:40 OP:mh   STATUS:               ID:20160111061755     3
 OLDACT:UP  16-01-11 16:40 OP:mh   STATUS:               ID:20160111061755     3
 OLDACT:UP  16-01-11 16:39 OP:mh   STATUS:               ID:20160111061755     3
 OLDACT:UP  16-01-11 16:38 OP:mh   STATUS:               ID:20160111061755     3
 OLDACT:REG 16-01-11 12:25 OP:mh   STATUS:               ID:20160111061755     3
 2016-01-11-0617-55M.COL___231                                                 6
 STAT SP IPHASW D HRMM SECON CODA AMPLIT PERI AZIMU VELO AIN AR TRES W  DIS CAZ7
 BAR2 EZ EP        622 32.55                             170    0.0710 24.8 186 
 BAR2 EZ ES        622 47.35                             170   -0.6110 24.8 186 
 BAR2 EZ I         622 48.44        40.3 0.36            169           24.8 186 
 BRR  HZ IP     C  622 34.28                             154    0.4610 68.9 298 
 BRR  HN ES        622 51.33                             154    0.9710 68.9 298 
 BRR  HZ I         622 54.27        25.5 0.36            152           68.9 298 
 PAM  EZ EP        622 35.20                             151    0.2010 77.2  41 
 PAM  EN ES        622 52.58                             151    0.1310 77.2  41 
 PAM  EZ I         622 54.51        30.7 0.84            154           77.2  41 
 RUS  HZ EP        622 36.43                             144   -0.2410  102 175 
 RUS  HN ES        622 55.42                             144    0.0010  102 175 
 RUS  HZ I         622 56.69        11.4 0.18            145            102 175 
 PTB  HZ EP        622 38.86                             133   -0.75 9  146 258 
 PTB  HN ES        623  0.29                             133   -0.37 9  146 258 
 PTB  HZ I         623  3.68        10.2 0.26            132            146 258 
 TAM  HZ IP     D  622 40.97                             130    0.35 9  157 105 
 TAM  HN ES        623  2.31                             130   -0.14 9  157 105 
 TAM  HZ I         623  3.12         5.2 0.28            134            157 105 
 OCA  HZ EP   1    622 41.14                             130    0.25 7  158 354 
 OCA  HN ES        623  2.64                             130   -0.29 9  158 354 
 OCA  HZ I         623  7.50        27.3 0.34            131            158 354 
 SPBC HZ EP        622 41.58                             129    0.30 9  163 218 
 SPBC HN ES        623  3.29                             129   -0.33 9  163 218 
 SPBC HZ I         623  8.32        25.6 0.20            129            163 218 
 ZAR  HZ EP   1    622 44.60                             123   -0.35 6  202 292 
 ZAR  HN ES        623 10.35                             123    0.18 9  202 292 
 ZAR  HZ I         623 11.56        13.2 0.52            123            202 292 
 NOR  HZ EP        622 48.63                             119    0.22 8  234 234 
 NOR  HN ES        623 16.21                             119   -0.11 8  234 234 
 NOR  HZ I         623 19.94         8.1 0.46            119            234 234 
 SML  HZ EP        622 48.89                             118   -0.21 8  241 335 
 SML  HN ES        623 16.84                             118   -0.71 8  241 335 
 SML  HZ I         623 21.34        16.6 0.28            119            241 335 
 CHI  HZ EP        622 50.44                             117   -0.11 8  250 195 
 CHI  HN ES        623 20.40                             117    0.28 8  250 195 
 CHI  HZ I         623 22.10         7.9 0.30            118            250 195 
 HEL  HZ EP        622 52.86                             115    0.07 8  271 255 
 HEL  HN ES        623 24.56                             115    0.44 8  271 255 
 HEL  HZ I         623 30.42         6.3 0.28            115            271 255 
 GUY2CHZ EP   1    622 56.88                             113    0.61 5  301 234 
 GUY2CHN ES   4    623 31.99                             113    1.68 0  301 234 
 GUY2CHZ I         623 38.60         4.8 0.56                           301 234 
 CBOC HZ EP   1    622 59.87                             110    0.38 5  333 252 
 CBOC HN ES   1    623 36.19                             110    0.15 5  333 252 
 CBOC HZ I         623 51.61         2.0 0.52            111            333 252 
 PRA  HZ EP        623  5.82                             107   -0.46 6  393 209 
 PRA  HN ES        623 47.95                             107   -0.18 6  393 209 
 PRA  HZ I         623 53.25         4.0 0.42            107            393 209 
                                                                                
