 2016  311 0112 16.2 L   6.850 -73.088150.6  RSN  7 0.3 1.5LRSN                1
 GAP=250        0.64       3.3     4.0  4.7  0.3629E+01  0.5707E+01  0.2184E-01E
 Epicentro: LOS SANTOS - SANTANDER                                             3
 ACTION:UPD 16-05-13 21:23 OP:cam  STATUS:               ID:20160311011216 L   I
 OLDACT:REG 16-03-11 12:41 OP:cara STATUS:               ID:20160311010753     3
 2016-03-11-0107-53M.COL___274                                                 6
 STAT SP IPHASW D HRMM SECON CODA AMPLIT PERI AZIMU VELO AIN AR TRES W  DIS CAZ7
 BAR2 EZ IP        112 36.34                             168   -0.1910 30.3 200 
 BAR2 EZ ES        112 52.60                             168    0.1810 30.3 200 
 BAR2 EZ I         112 53.18         6.5 0.40            162           30.3 200 
 RUS  HZ EP        112 40.83                             143    0.0610  106 180 
 RUS  HE ES        112 59.68                             143   -0.2810  106 180 
 RUS  HZ I         113  1.10         1.8 0.18            142            106 180 
 SPBC HZ IP        112 45.88                             129    0.06 9  171 219 
 SPBC HN ES        113  9.07                             129    0.12 9  171 219 
 SPBC HZ I         113 15.02         7.9 0.20            127            171 219 
 ZAR  HZ EP        112 49.43                             123    0.09 8  208 290 
 ZAR  HN ES        113 15.31                             123    0.10 8  208 290 
 ZAR  HZ I         113 20.75         5.0 0.38            122            208 290 
 NOR  HZ EP        112 53.15                             118    0.08 8  243 234 
 NOR  HN ES        113 21.31                             118   -0.55 8  243 234 
 NOR  HZ I         113 24.19         2.8 0.14            118            243 234 
 CHI  HZ IP        112 54.69                             117   -0.20 8  256 196 
 CHI  HN ES        113 25.70                             117    0.60 8  256 196 
 CHI  HZ I         113 31.89         1.0 0.24            117            256 196 
 GUY2CHZ EP   4    113  4.05                             113    3.11 0  310 235 
 GUY2CHN ES   4    113 34.25                             113   -1.62 0  310 235 
 GUY2CHZ I         113 43.87         1.7 0.38                           310 235 
                                                                                
