 2014 1111 0641 19.3 L   5.889 -73.806 90.7  RSN  4 0.3 0.9LRSN                1
 GAP=225        0.86       5.7     4.1  9.9  0.1001E+02  0.1174E+02  0.5694E+01E
 Epicentro: JESUS MARIA - SANTANDER                                            3
 ACTION:UPD 14-12-19 15:41 OP:nd   STATUS:               ID:20141111064119 L   I
 OLDACT:ARG 14-11-11 12:38 OP:stll STATUS:               ID:20141111063749     3
 2014-11-11-0637-49M.COL___296                                                 6
 STAT SP IPHASW D HRMM SECON CODA AMPLIT PERI AZIMU VELO AIN AR TRES W  DIS CAZ7
 RUS  HZ EP        641 36.80                             136    0.4810 80.0  90 
 RUS  HN ES        641 49.18                             136   -0.3910 80.0  90 
 RUS  HZ I         641 51.11         1.0 0.60            144           80.0  90 
 PTB  HZ EP        641 37.90                             128    0.2210  102 315 
 PTB  HN ES        641 51.91                             128   -0.0710  102 315 
 PTB  HZ I         641 57.05         2.2 0.40            132            102 315 
 BAR2 SZ EP        641 37.96                             127   -0.2310  104  42 
 BAR2 SZ ES        641 53.27                             127    0.3810  104  42 
 BRR  HZ EP        641 40.63                             119   -0.4610  135   4 
 BRR  HN ES        641 58.09                             119    0.0310  135   4 
 BRR  HZ I         642  1.92         2.5 0.20            124            135   4 
                                                                                
