 2010  711 0209 42.2 L   6.787 -73.110145.8  RSN  6 0.2 1.7LRSN                1
 GAP=163        0.37       2.2     5.0  4.5 -0.1921E+01 -0.2440E+01 -0.8896E+00E
 Epicentro: LOS SANTOS - SANTANDER                                             3
 ACTION:UPD 10-12-01 15:16 OP:pat  STATUS:               ID:20100711020942 L   I
 2010-07-11-0207-39S.COL___120                                                 6
 STAT SP IPHASW D HRMM SECON CODA AMPLIT PERI AZIMU VELO AIN AR TRES W  DIS CAZ7
 BAR2 SZ EP   1    210  1.79                             171    -0.1 7   23 201 
 BAR2 SZ ES   2    210 16.96                             171    -0.2 5   23 201 
 BAR2 SZ I         210 17.89        13.7 0.26                            23 201 
 BRR  HZ IP     D  210  3.64                             151     0.010   75 298 
 BRR  HZ I         210  3.91        26.7 0.14                            75 298 
 BRR  HE ES   2    210 20.54                             151     0.2 5   75 298 
 RUS  HZ EP   1    210  5.93                             144     0.1 7   99 178 
 RUS  HE ES   2    210 24.26                             144     0.0 5   99 178 
 RUS  HZ I         210 26.12         5.0 0.20                            99 178 
 GUE  SZ EP   1    210  6.92                             139    -0.1 7  117  10 
 GUE  SZ I         210 28.42         2.2 0.26                           117  10 
 GRA  SZ EP   1    210  7.62                             137     0.1 7  126  16 
 GRA  SZ ES   1    210 27.35                             137     0.1 7  126  16 
 GRA  SZ I         210 28.43         6.2 0.30                           126  16 
 OCA  SZ EP   2    210 10.54                             129    -0.2 5  162 352 
 OCA  SZ ES   2    210 32.59                             129    -0.4 5  162 352 
 OCA  SZ I         210 37.35         8.0 0.35                           162 352 
                                                                                
