 2013  211 0646 47.3 L   6.779 -73.165143.3  RSN  5 0.4 1.2LRSN                1
 GAP=135        1.04       6.8     6.4  8.4 -0.2092E+01  0.1091E+01 -0.5142E+00E
 Epicentro: LOS SANTOS - SANTANDER                                             3
 ACTION:UPD 13-03-12 09:32 OP:ep   STATUS:               ID:20130211064647 L   I
 2013-02-11-0640-00M.COL___241                                                 6
 STAT SP IPHASW D HRMM SECON CODA AMPLIT PERI AZIMU VELO AIN AR TRES W  DIS CAZ7
 BAR2 SZ EP        647  6.28                             171   -0.3510 20.7 185 
 BAR2 SZ ES        647 21.01                             171   -0.6610 20.7 185 
 BAR2 SZ I         647 22.58        10.5 0.34            171           20.7 185 
 BRR  HZ EP        647  8.18                             152   -0.0110 70.5 301 
 BRR  HN ES        647 25.01                             152    0.5710 70.5 301 
 BRR  HZ I         647 25.97         3.4 0.42            153           70.5 301 
 PAM  SZ EP        647  9.72                             149    0.2210 80.6  40 
 PAM  SN ES   1    647 26.65                             149   -0.12 7 80.6  40 
 PAM  SZ I         647 28.65         3.1 0.44            152           80.6  40 
 RUS  HZ EP   1    647 11.17                             144    0.47 7 98.4 175 
 RUS  HN ES   1    647 29.60                             144    0.69 7 98.4 175 
 RUS  HZ I         647 31.18         1.3 0.38            145           98.4 175 
 PTB  HZ EP   1    647 13.27                             132   -0.61 7  145 260 
 PTB  HN ES   1    647 34.46                             132   -0.11 7  145 260 
 PTB  HZ I         647 37.59         1.6 0.28            133            145 260 
                                                                                
