 2010  211 0558 28.5 L   6.809 -73.030142.2  RSN  9 0.5 2.3LRSN                1
 GAP=149        1.14       5.5     9.1  7.8 -0.2215E+02  0.8100E+01  0.6375E+01E
 Epicentro: CEPITA - SANTANDER                                                 3
 ACTION:UP  10-08-24 09:48 OP:vdl  STATUS:               ID:20100211055828 L   I
 2010-02-11-0557-55S.COL___094                                                 6
 STAT SP IPHASW D HRMM SECON CODA AMPLIT PERI AZIMU VELO SNR AR TRES W  DIS CAZ7
 BAR2 SZ IP        558 47.82                             168     0.010   29 215 
 BAR2 SZ ES   1    559  2.06                             168    -0.9 7   29 215 
 GIR2 SZ EP        558 48.87                             166     1.010   35 329 
 GIR2 SZ ES   1    559  3.27                             166     0.3 7   35 329 
 OCA  SZ IP        558 56.18                             129    -0.5 9  161 349 
 OCA  SZ ES   1    559 18.35                             129    -0.2 7  161 349 
 CHI  HZ EP        559  6.16                             116    -0.4 8  253 198 
 CHI  HN ES   1    559 35.92                             116    -0.2 6  253 198 
 CHI  HZ I         559 42.98         7.3 0.41                           253 198 
 HEL  HZ EP        559  9.84                             113    -0.1 7  285 256 
 HEL  HE ES   2    559 42.36                             113     0.1 4  285 256 
 HEL  HZ I         559 46.47         8.5 0.38                           285 256 
 RREF BZ EP   1    559 16.23                             109     0.5 5  332 231 
 RREF BN ES   1    559 53.30                             109     0.8 5  332 231 
 RREF BZ I         6 0  0.06         7.9 0.35                           332 231 
 SDV  BZ IP        559 17.32                             108     0.1 6  350  49 
 DBB  SZ EP   1    559 16.42                             108    -0.9 5  352 274 
 PRA  HZ EP   1    559 22.45                             106    -0.3 4  399 211 
 PRA  HN ES   1    6 0  5.33                             106     0.2 4  399 211 
 PRA  HZ I         6 0 10.93         9.3 0.28                           399 211 
                                                                                
