 2015  211 0838  1.3 L   6.190 -73.686109.0  RSN 16 0.5 2.3LRSN                1
 GAP= 65        1.13       2.4     3.3  5.9 -0.2299E+01  0.7065E+01 -0.8444E+00E
 Epicentro: LA PAZ - SANTANDER                                                 3
 ACTION:UPD 15-04-30 21:25 OP:nd   STATUS:               ID:20150211083801 L   I
 OLDACT:DUP 15-02-11 18:50 OP:fm   STATUS:               ID:20150211082742d    3
 OLDACT:REG 15-02-11 13:25 OP:fm   STATUS:               ID:20150211082741     3
 2015-02-11-0827-41M.COL___281                                                 6
 STAT SP IPHASW D HRMM SECON CODA AMPLIT PERI AZIMU VELO AIN AR TRES W  DIS CAZ7
 BAR2 EZ IP     C  838 19.41                             144    0.4610 71.3  51 
 BAR2 EZ ES        838 32.90                             144    0.1710 71.3  51 
 BAR2 EZ I         838 34.71       188.5 0.38            144           71.3  51 
 SPBC HZ EP        838 19.13                             143    0.2410 73.3 216 
 SPBC HE ES        838 32.84                             143    0.2310 73.3 216 
 SPBC HZ I         838 36.49        63.5 0.24            144           73.3 216 
 RUS  HZ EP        838 19.47                             143   -0.0610 74.4 116 
 RUS  HE ES        838 33.22                             143   -0.5410 74.4 116 
 RUS  HZ I         838 34.71        27.2 0.30            145           74.4 116 
 PTB  HZ EP     C  838 20.05                             136   -0.3410 93.6 294 
 PTB  HE ES        838 34.48                             136   -0.8010 93.6 294 
 PTB  HZ I         838 37.86        40.9 0.12            135           93.6 294 
 BRR  HZ IP     C  838 21.55                             133    0.5110  101 358 
 BRR  HE ES        838 37.15                             133    0.7010  101 358 
 BRR  HZ I         838 41.65        31.9 0.10            132            101 358 
 NOR  HZ EP        838 25.89                             122    0.25 9  148 242 
 NOR  HN ES        838 44.62                             122   -0.02 9  148 242 
 NOR  HZ I         838 47.25        36.8 0.22            122            148 242 
 ROSC BN ES        838 48.74                             119    0.18 9  165 205 
 ROSC BZ I         838 54.49        14.0 0.50            119            165 205 
 CHI  HZ EP        838 28.40                             118   -0.29 9  173 182 
 CHI  HN ES        838 49.30                             118   -0.77 9  173 182 
 CHI  HZ I         838 53.75         7.3 0.26            118            173 182 
 GUY2CHZ EP        838 34.35                             112    0.94 8  214 240 
 GUY2CHN ES        838 58.64                             112    0.18 8  214 240 
 GUY2CHZ I         839  6.11        15.9 0.48                           214 240 
 OCA  HE ES        839  0.34                             110   -0.58 8  230  10 
 OCA  HZ I         839 12.27        14.7 0.44            110            230  10 
 RREF HZ EP        838 35.23                             110   -0.47 8  233 232 
 RREF HE ES        839  3.03                             110    0.49 8  233 232 
 RREF HZ I         839  7.12        11.6 0.24            110            233 232 
 URE  HZ EP        838 38.23                             106   -0.70 8  267 310 
 URE  HN ES   4    839  7.10                             106   -1.18 0  267 310 
 URE  HZ I         839 11.68        26.2 0.24            106            267 310 
 SML  HZ EP        838 41.66                             104   -0.12 7  292 352 
 SML  HE ES        839 13.50                             104    0.13 7  292 352 
 SML  HZ I         839 24.41        19.4 0.24            104            292 352 
 DBB  SZ ES        839 13.49                             104   -0.46 7  294 288 
 DBB  SZ I         839 17.55        22.7 0.28            104            294 288 
 ORTC HZ EP        838 43.72                             104    0.23 7  306 215 
 ORTC HE ES        839 16.50                             104    0.09 7  306 215 
 ORTC HZ I         839 23.29         7.7 0.40            104            306 215 
 MON  HZ EP   4    838 48.48                             100   -1.42 0  360 323 
 MON  HN ES   4    839 23.81                             100   -4.01 0  360 323 
 MON  HZ I         839 29.29         4.4 0.38            100            360 323 
                                                                                
