 2014  511 0055  7.4 L   6.811 -73.193142.3  RSN  5 0.3 1.3LRSN                1
 GAP=197        0.67       3.4     4.3  9.9  0.1481E+01  0.4116E+01 -0.1489E+02E
 Epicentro: ZAPATOCA - SANTANDER                                               3
 ACTION:UPD 15-03-16 16:56 OP:nd   STATUS:               ID:20140511005507 L   I
 OLDACT:DUP 14-05-11 15:35 OP:carl STATUS:               ID:20140511004820d    3
 2014-05-11-0048-19M.COL___242                                                 6
 STAT SP IPHASW D HRMM SECON CODA AMPLIT PERI AZIMU VELO AIN AR TRES W  DIS CAZ7
 RUS  HZ EP        055 30.94                             143   -0.0310  102 173 
 RUS  HN ES        055 49.33                             143    0.0110  102 173 
 RUS  HZ I         055 50.91         2.0 0.22            145            102 173 
 PTB  HZ EP        055 34.08                             132    0.41 9  143 258 
 PTB  HN ES        055 54.44                             132    0.30 9  143 258 
 PTB  HZ I         055 57.40         2.1 0.40            134            143 258 
 SPBC HN ES        055 57.09                             129   -0.21 9  161 217 
 SPBC HZ I         056  1.39         4.0 0.18            131            161 217 
 NOR  HE ES        056  9.64                             118   -0.36 8  231 233 
 SML  HN ES        056 11.35                             117   -0.30 8  240 336 
                                                                                
