 2010 1011 0355 28.7 L   6.793 -73.103146.1  RSN  7 0.4 1.6LRSN                1
 GAP=181        0.71       5.1     7.1  9.1 -0.2162E+02 -0.1828E+02  0.2105E+02E
 Epicentro: LOS SANTOS - SANTANDER                                             3
 ACTION:UP  11-02-18 11:09 OP:tino STATUS:               ID:20101011035528 L   I
 2010-10-11-0351-02S.COL___121                                                 6
 STAT SP IPHASW D HRMM SECON CODA AMPLIT PERI AZIMU VELO SNR AR TRES W  DIS CAZ7
 BAR2 SZ EP   1    355 48.51                             170     0.1 7   24 202 
 BAR2 SZ I         355 48.83         9.3 0.08                            24 202 
 BRR  HZ IP     C  355 50.31                             152     0.110   76 297 
 BRR  HZ I         355 50.53        18.5 0.16                            76 297 
 BRR  HE ES   1    356  7.21                             152     0.3 7   76 297 
 GRA  SZ IP        355 54.21                             137     0.310  125  15 
 GRA  SZ ES   1    356 13.59                             137     0.0 7  125  15 
 GRA  SZ I         356 15.94         4.4 0.40                           125  15 
 OCA  SZ EP   1    355 56.86                             130    -0.3 7  162 352 
 OCA  SZ ES   1    356 18.78                             130    -0.6 7  162 352 
 OCA  SZ I         356 23.22         4.2 0.62                           162 352 
 NOR  SZ EP   2    356  4.86                             118     0.0 4  238 235 
 NOR  SN ES   2    356 32.22                             118    -0.8 4  238 235 
 CHI  HZ EP   2    356  6.62                             117     0.1 4  249 196 
 CHI  HE ES   2    356 35.43                             117    -0.5 4  249 196 
 CHI  HZ I         356 40.09         1.7 0.22                           249 196 
 HEL  HZ EP   2    356 10.03                             115     0.6 4  276 256 
 HEL  HN ES   2    356 41.37                             115     0.2 4  276 256 
 HEL  HZ I         356 47.58         1.9 0.30                           276 256 
                                                                                
