 2011  111 0314 26.5 L   5.903 -73.766106.0  RSN 14 0.5 2.3LRSN                1
 GAP= 91        1.04       3.6     4.4  9.1 -0.7745E+01  0.1427E+02 -0.5871E+01E
 Epicentro: JESUS MARIA - SANTANDER                                            3
 ACTION:UP  11-02-08 08:40 OP:pat  STATUS:               ID:20110111031426 L   I
 2011-01-11-0312-20S.COL___136                                                 6
 STAT SP IPHASW D HRMM SECON CODA AMPLIT PERI AZIMU VELO SNR AR TRES W  DIS CAZ7
 RUS  HZ EP        314 44.70                             142     0.210   76  91 
 RUS  HN ES   1    314 58.01                             142    -0.6 7   76  91 
 RUS  HZ I         315  0.63        27.1 0.15                            76  91 
 BAR2 SZ IP        314 46.25                             133     0.110  100  40 
 BAR2 SZ ES   1    315  1.60                             133     0.1 7  100  40 
 BAR2 SZ I         315  3.33        90.1 0.25                           100  40 
 BTL  SZ IP        314 48.32                             126    -0.210  125  26 
 NOR  SZ EP   1    314 47.76                             125    -0.8 7  128 253 
 NOR  SE ES   1    315  6.37                             125     0.6 7  128 253 
 ROSC BZ EP   1    314 50.42                             125     0.9 7  133 208 
 ROSC BZ I         315 14.21        24.4 0.35                           133 208 
 CHI  HZ EP   1    314 50.20                             123    -0.1 7  141 178 
 CHI  HN ES   1    315  9.02                             123     0.1 7  141 178 
 CHI  HZ I         315 15.53        12.9 0.34                           141 178 
 GIR2 SZ EP   1    314 50.40                             122     0.0 7  145  26 
 HEL  HZ EP   1    314 56.40                             113     0.0 6  198 279 
 HEL  HE ES   1    315 19.26                             113    -0.5 6  198 279 
 HEL  HZ I         315 24.74        11.3 0.31                           198 279 
 RREF HZ EP   1    314 57.82                             112     0.0 6  207 238 
 RREF HZ I         315 27.25        19.9 0.17                           207 238 
 TOL  SZ EP   1    314 59.78                             110     0.2 6  226 230 
 GRA  SZ EP        315  1.03                             108    -0.4 8  244  26 
 GRA  SZ ES   1    315 29.34                             108     0.7 6  244  26 
 GRA  SZ I         315 32.94        31.8 0.27                           244  26 
 OCA  SZ EP   1    315  2.79                             106    -0.9 6  263  11 
 OCA  SZ ES   1    315 33.56                             106     0.9 6  263  11 
 OCA  SZ I         315 36.90        21.7 0.29                           263  11 
 PRA  HZ EP   1    315  5.15                             105     0.6 6  272 207 
 PRA  HE ES   1    315 33.84                             105    -0.5 6  272 207 
 SJA  SZ EP   1    315  6.90                             104    -0.1 5  292 184 
                                                                                
