 2012 1111 0145 52.3 L   6.773 -73.166151.8  RSN  7 0.1 1.5LRSN                1
 GAP= 75        0.33       2.1     1.8  3.2  0.8058E+00 -0.2453E+01 -0.1275E+01E
 Epicentro: LOS SANTOS - SANTANDER                                             3
 ACTION:UPD 12-12-05 15:32 OP:}ep  STATUS:               ID:20121111014552 L   I
 2012-11-11-0140-00M.COL___229                                                 6
 STAT SP IPHASW D HRMM SECON CODA AMPLIT PERI AZIMU VELO AIN AR TRES W  DIS CAZ7
 BAR2 SZ EP        146 12.57                             172   -0.0610 20.1 185 
 BAR2 SZ I         146 12.74         9.1 0.34                          20.1 185 
 GIR2 SZ EP        146 12.86                             167    0.0710 34.0 355 
 BRR  HZ EP        146 14.32                             154    0.2110 70.8 302 
 BRR  HZ I         146 14.58         4.8 0.26                          70.8 302 
 BRR  HE ES        146 31.09                             154   -0.0110 70.8 302 
 PAM  SZ EP        146 15.28                             151   -0.1310 81.1  39 
 PAM  SZ I         146 15.53         5.7 0.22                          81.1  39 
 RUS  HZ EP        146 16.50                             146    0.0110 97.8 175 
 RUS  HE ES        146 35.36                             146    0.0310 97.8 175 
 RUS  HE I         146 36.30         3.9 0.24                          97.8 175 
 PTB  HZ EP        146 19.51                             134   -0.04 9  145 260 
 PTB  HN ES        146 40.71                             134   -0.08 9  145 260 
 PTB  HN I         146 45.63         5.2 0.34                           145 260 
 TAM  HZ EP        146 20.61                             132   -0.01 9  157 104 
                                                                                
