 2010  511 0138 19.0 L   7.282 -73.845  4.1  RSN  7 0.3 1.6LRSN                1
 GAP=237        0.83       3.3     7.3  4.3 -0.2214E+01  0.7615E+01 -0.9732E+01E
 Epicentro: PUERTO WILCHES - SANTANDER                                         3
 ACTION:UP  10-08-24 10:04 OP:vdl  STATUS:               ID:20100511013819 L   I
 2010-05-11-0133-25S.COL___104                                                 6
 STAT SP IPHASW D HRMM SECON CODA AMPLIT PERI AZIMU VELO AIN AR TRES W  DIS CAZ7
 BRR  HZ IP     C  138 24.24                             136     0.110   24 143 
 BRR  HZ I         138 24.46       278.5 0.10                            24 143 
 BRR  HE ES   1    138 28.18                             136     0.0 7   24 143 
 BAR2 SZ EP        138 35.77                              56     0.010  106 136 
 GUE  SZ EP        138 36.75                              56    -0.510  118  59 
 OCA  SZ EP   2    138 37.57                              56     0.2 5  121  29 
 OCA  SZ ES   2    138 51.84                              56     0.2 5  121  29 
 OCA  SZ I         138 54.60         9.4 0.27                           121  29 
 BRI  SZ EP        138 38.83                              56     0.810  125  67 
 BRI  SZ ES   3    138 52.59                              56    -0.3 2  125  67 
 GRA  SZ IP     D  138 38.98                              56    -0.110  133  60 
 GRA  SZ ES   1    138 54.42                              56    -0.3 7  133  60 
 RUS  HZ EP        138 44.70                              56    -0.1 9  175 151 
 RUS  HN ES   2    139  4.53                              56    -0.4 4  175 151 
 RUS  HZ I         139  5.53         2.7 0.17                           175 151 
                                                                                
