 2011 1111 0358 39.3 L   5.967 -73.866 97.3  RSN  4 0.1 1.1LRSN                1
 GAP=232        0.33       3.8     4.7  8.1  0.1378E+02  0.2854E+02  0.1553E+02E
 Epicentro: SUCRE - SANTANDER                                                  3
 ACTION:UPD 12-07-13 16:09 OP:ep   STATUS:               ID:20111111035839 L   I
 2011-11-11-0356-10S.COL___178                                                 6
 STAT SP IPHASW D HRMM SECON CODA AMPLIT PERI AZIMU VELO AIN AR TRES W  DIS CAZ7
 RUS  HZ EP   1    358 57.44                             136   -0.08 7 87.1  95 
 RUS  HN ES   1    359 11.76                             136    0.07 7 87.1  95 
 RUS  HZ I         359 13.53         1.1 0.11                          87.1  95 
 BAR2 SZ EP   1    358 58.69                             130    0.12 7  102  48 
 BAR2 SZ ES   1    359 13.40                             130   -0.15 7  102  48 
 BAR2 SZ I         359 16.40         4.4 0.18                           102  48 
 BRR  HZ EP   1    359  0.66                             124   -0.03 7  127   8 
 BRR  HZ I         359  0.94         4.9 0.11                           127   8 
 BRR  HN ES   1    359 17.45                             124    0.11 7  127   8 
 ZAR  HN ES   1    359 31.80                             111   -0.04 6  201 327 
                                                                                
