 2011 1211 0842 21.9 L   6.748 -73.179150.5  RSN  4 0.3 1.2LRSN                1
 GAP=135        0.58       5.6     5.6  7.7  0.1178E+02 -0.7303E+01 -0.5609E+01E
 Epicentro: VILLANUEVA - SANTANDER                                             3
 ACTION:UPD 12-07-13 16:15 OP:ep   STATUS:               ID:20111211084221 L   I
 2011-12-11-0840-00M.COL___185                                                 6
 STAT SP IPHASW D HRMM SECON CODA AMPLIT PERI AZIMU VELO AIN AR TRES W  DIS CAZ7
 BRR  HZ EP   1    842 43.78                             153    0.22 7 71.1 304 
 BRR  HN ES   1    843  0.66                             153    0.21 7 71.1 304 
 BRR  HZ I         843  1.01         5.5 0.32                          71.1 304 
 PAM  SZ EP   2    842 44.39                             149   -0.64 5 84.1  39 
 RUS  HZ EP   1    842 46.09                             146    0.34 7 95.2 174 
 RUS  HN ES   1    843  4.20                             146   -0.15 7 95.2 174 
 RUS  HZ I         843  6.39         1.6 0.24                          95.2 174 
 PTB  HZ EP   1    842 48.78                             134   -0.07 7  143 261 
 PTB  HN ES   1    843  9.57                             134   -0.31 7  143 261 
                                                                                
