 2011  511 0613  4.7 L   6.815 -73.058138.0  RSN  5 0.3 1.8LRSN                1
 GAP=168        0.52       9.0    11.5  6.5  0.3625E+02 -0.3837E+01 -0.8832E+01E
 Epicentro: LOS SANTOS - SANTANDER                                             3
 ACTION:UP  11-06-29 08:52 OP:tino STATUS:               ID:20110511061304 L   I
 2011-05-11-0609-36S.COL___132                                                 6
 STAT SP IPHASW D HRMM SECON CODA AMPLIT PERI AZIMU VELO SNR AR TRES W  DIS CAZ7
 BTL  SZ EP        613 23.67                             169     0.210   26 296 
 BTL  SZ ES   1    613 38.09                             169     0.0 7   26 296 
 BAR2 SZ EP   2    613 23.82                             168     0.3 5   28 209 
 BAR2 SZ ES   2    613 37.99                             168    -0.2 5   28 209 
 BRR  HZ EP        613 25.26                             149    -0.210   79 294 
 BRR  HZ I         613 25.48        11.4 0.08                            79 294 
 BRR  HN ES   2    613 41.92                             149     0.2 5   79 294 
 RUS  HN ES   3    613 44.96                             142    -0.9 2  102 182 
 GRA  SZ ES   3    613 47.08                             136    -0.7 2  122  13 
                                                                                
