 2013  711 0648  0.2 L   6.810 -73.124149.2  RSN 10 0.5 1.8LRSN                1
 GAP=185        1.19       3.9     5.4  7.0 -0.7885E+00  0.8758E+01 -0.4154E+01E
 Epicentro: LOS SANTOS - SANTANDER                                             3
 ACTION:UPD 13-08-12 10:36 OP:ep   STATUS:               ID:20130711064800 L   I
 OLDACT:DUP 13-07-11 08:28 OP:nd   STATUS:               ID:20130711063960d    3
 2013-07-11-0639-59M.COL___266                                                 6
 STAT SP IPHASW D HRMM SECON CODA AMPLIT PERI AZIMU VELO AIN AR TRES W  DIS CAZ7
 BAR2 SZ IP     C  648 20.30                             170   -0.0210 25.0 195 
 BAR2 SZ ES        648 36.18                             170    0.2010 25.0 195 
 BAR2 SZ I         648 38.32         9.6 0.38            171           25.0 195 
 BRR  HZ IP     C  648 22.31                             153    0.4610 72.8 297 
 BRR  HN ES        648 39.53                             153    0.8310 72.8 297 
 BRR  HZ I         648 42.11         9.7 0.14            150           72.8 297 
 RUS  HZ EP        648 24.15                             144   -0.2510  102 177 
 RUS  HN ES        648 42.76                             144   -0.4910  102 177 
 RUS  HZ I         648 43.96         4.7 0.26            148            102 177 
 PTB  HZ EP        648 27.19                             132   -0.53 9  150 259 
 PTB  HN ES        648 48.31                             132   -0.84 9  150 259 
 PTB  HZ I         648 50.37        10.6 0.10            132            150 259 
 OCA  HZ EP        648 29.10                             131    0.36 9  159 352 
 OCA  HN ES        648 50.85                             131   -0.12 9  159 352 
 OCA  HZ I         648 55.29         6.1 0.20            131            159 352 
 ZAR  HZ EP        648 32.97                             123   -0.12 8  206 292 
 ZAR  HE ES        648 58.76                             123    0.04 8  206 292 
 ZAR  HZ I         649  5.47        11.9 0.32            123            206 292 
 NOR  HZ EP        648 36.39                             119   -0.06 8  237 235 
 NOR  HN ES        649  5.00                             119    0.31 8  237 235 
 NOR  HZ I         649  8.58         6.0 0.20            120            237 235 
 SML  HZ EP        648 36.95                             118   -0.10 8  244 335 
 SML  HN ES        649  5.03                             118   -0.74 8  244 335 
 SML  HZ I         649 14.58        10.7 0.10            119            244 335 
 HEL  HZ EP        648 42.11                             115    1.20 8  275 256 
 HEL  HN ES        649 12.63                             115   -0.01 8  275 256 
 HEL  HZ I         649 18.50         2.9 0.22            116            275 256 
 GUY2CHZ EP   4    648 45.15                             113    0.85 0  304 235 
 GUY2CHE ES   4    649 18.69                             113    0.02 0  304 235 
 GUY2CHZ I         649 25.14         3.2 0.28                           304 235 
                                                                                
