 2016  111 0917 57.6 L   6.809 -73.146150.0  RSN 12 0.4 2.1LRSN                1
 GAP=136        0.98       2.6     3.6  5.0 -0.1316E+01  0.4829E+01  0.1698E-01E
 Epicentro: LOS SANTOS - SANTANDER                                             3
 ACTION:UPD 16-03-09 23:24 OP:cam  STATUS:               ID:20160111091757 L   I
 OLDACT:UP  16-01-11 17:18 OP:mh   STATUS:               ID:20160111091753     3
 OLDACT:UP  16-01-11 17:17 OP:mh   STATUS:               ID:20160111091753     3
 OLDACT:REG 16-01-11 12:28 OP:mh   STATUS:               ID:20160111091753     3
 2016-01-11-0917-53M.COL___220                                                 6
 STAT SP IPHASW D HRMM SECON CODA AMPLIT PERI AZIMU VELO AIN AR TRES W  DIS CAZ7
 BAR2 EZ EP        918 17.71                             170   -0.0810 24.3 189 
 BAR2 EZ ES        918 33.24                             170   -0.2710 24.3 189 
 BAR2 EZ I         918 34.15        44.4 0.16            171           24.3 189 
 BRR  HZ EP        918 19.56                             153    0.3510 70.7 298 
 BRR  HE ES        918 36.85                             153    0.8210 70.7 298 
 BRR  HZ I         918 37.32        14.0 0.40            150           70.7 298 
 PAM  EZ EP        918 20.47                             152    0.2210 76.6  40 
 PAM  EN ES        918 37.83                             152   -0.0710 76.6  40 
 PAM  EZ I         918 40.11        15.9 0.64            153           76.6  40 
 RUS  HZ EP        918 21.64                             144   -0.2310  102 176 
 RUS  HN ES        918 40.75                             144   -0.0310  102 176 
 RUS  HZ I         918 41.30        15.6 0.24            147            102 176 
 PTB  HZ EP        918 24.33                             133   -0.63 9  148 258 
 PTB  HN ES        918 45.65                             133   -0.62 9  148 258 
 PTB  HZ I         918 47.52        16.9 0.18            131            148 258 
 OCA  HZ EP        918 26.37                             131    0.19 9  159 353 
 OCA  HN ES        918 48.83                             131    0.39 9  159 353 
 OCA  HZ I         918 52.39        28.9 0.32            130            159 353 
 SPBC HZ EP        918 26.65                             130    0.13 9  164 219 
 SPBC HN ES        918 48.54                             130   -0.52 9  164 219 
 SPBC HZ I         918 51.25        32.3 0.28            130            164 219 
 ZAR  HZ EP        918 29.93                             123   -0.38 9  204 292 
 ZAR  HN ES        918 56.06                             123    0.26 9  204 292 
 ZAR  HZ I         919  6.21        10.4 0.34            122            204 292 
 NOR  HZ EP        918 33.79                             119    0.13 8  235 234 
 NOR  HN ES        919  2.06                             119    0.29 8  235 234 
 NOR  HZ I         919  4.88        14.3 0.16            119            235 234 
 SML  HZ EP        918 33.90                             118   -0.49 8  243 335 
 SML  HN ES        919  2.42                             118   -0.65 8  243 335 
 SML  HZ I         919 13.17        11.7 0.20            118            243 335 
 CHI  HZ EP        918 35.79                             118    0.12 8  250 195 
 CHI  HE ES        919  5.59                             118    0.25 8  250 195 
 CHI  HZ I         919 10.95         4.2 0.64            119            250 195 
 HEL  HZ EP        918 38.79                             116    0.71 8  272 256 
 HEL  HN ES        919  9.78                             116    0.15 8  272 256 
 HEL  HZ I         919 16.41         6.3 0.22            115            272 256 
 GUY2CHZ EP   4    918 42.63                             113    1.14 0  302 235 
 GUY2CHN ES   4    919 18.76                             113    3.05 0  302 235 
                                                                                
