 2017  811 0611 15.7 L   6.780 -73.085148.2  RSN  6 0.4 1.6LRSN                1
 GAP=222        1.09       6.3     7.9  7.7  0.2630E+02 -0.5166E+01  0.7907E+01E
 Epicentro: LOS SANTOS - SANTANDER                                             3
 ACTION:UPD 17-09-04 20:19 OP:rebc STATUS:               ID:20170811061115 L   I
 OLDACT:REG 17-08-11 12:47 OP:dhb  STATUS:               ID:20170811060745     3
 2017-08-11-0608-00M.COL___413                                                 6
 STAT SP IPHASW D HRMM SECON CODA AMPLIT PERI AZIMU VELO AIN AR TRES W  DIS CAZ7
 BAR2 EZ IP     C  611 35.84                             171    0.2510 23.4 208 
 BAR2 EZ ES        611 50.32                             171   -0.8210 23.4 208 
 BAR2 EZ I         611 51.67         7.6 0.32            171           23.4 208 
 BRR  HZ IP     C  611 37.69                             151    0.2010 78.2 298 
 BRR  HN ES        611 54.89                             151    0.3810 78.2 298 
 RUS  HZ EP        611 40.00                             145    0.5110 98.1 180 
 RUS  HN ES        611 58.34                             145    0.2710 98.1 180 
 SPBC HZ IP     C  611 44.09                             129   -0.52 9  166 221 
 SPBC HE ES        612  7.42                             129    0.24 9  166 221 
 ZAR  HN ES   1    612 14.29                             122   -0.72 6  211 292 
 PTGC HZ EP        611 58.83                             112   -0.30 7  304 160 
 PTGC HE ES        612 32.74                             112   -0.29 7  304 160 
 PTGC HZ I         612 34.15         1.9 0.13            112            304 160 
                                                                                
