 2012  511 0824 44.1 L   6.799 -73.120146.0  RSN 10 0.4 1.6LRSN                1
 GAP=140        0.75       3.2     4.1  5.9 -0.4528E+00  0.7828E+01  0.6132E+01E
 Epicentro: LOS SANTOS - SANTANDER                                             3
 ACTION:UP  12-07-05 12:04 OP:pat  STATUS:               ID:20120511082444 L   I
 2012-05-11-0820-00M.COL___195                                                 6
 STAT SP IPHASW D HRMM SECON CODA AMPLIT PERI AZIMU VELO SNR AR TRES W  DIS CAZ7
 BAR2 SZ EP   1    825  3.38                             170    -0.4 7   24 197 
 BAR2 SZ ES   1    825 19.15                             170     0.0 7   24 197 
 BRR  HZ EP   1    825  5.99                             152     0.5 7   74 298 
 BRR  HN ES   1    825 22.46                             152     0.4 7   74 298 
 BRR  HZ I         825 25.75         9.4 0.16                            74 298 
 PAM  SZ EP   1    825  6.17                             151    -0.1 7   76  38 
 PAM  SZ I         825  7.32         5.4 0.10                            76  38 
 PAM  SN ES        825 23.59                             151     0.110   76  38 
 RUS  HZ EP   1    825  8.26                             144     0.4 7  100 178 
 RUS  HN ES   1    825 26.45                             144     0.0 7  100 178 
 RUS  HZ I         825 27.91         6.2 0.29                           100 178 
 PTB  HZ EP   1    825 10.78                             132    -0.6 7  150 259 
 PTB  HN ES   1    825 32.16                             132    -0.4 7  150 259 
 PTB  HZ I         825 39.45         4.4 0.17                           150 259 
 OCA  HN ES   1    825 34.24                             130    -0.4 7  161 352 
 ZAR  HN ES   1    825 42.50                             122     0.1 6  207 292 
 CHI  HZ EP   1    825 21.43                             117    -0.5 6  249 196 
 CHI  HZ I         825 24.45         2.2 0.15                           249 196 
 CHI  HN ES   1    825 51.32                             117    -0.1 6  249 196 
 HEL  HZ EP   1    825 25.31                             115     0.7 6  275 256 
 HEL  HN ES   2    825 56.41                             115     0.2 4  275 256 
 PRA  HZ EP   1    825 38.28                             106     0.5 4  393 210 
 PRA  HN ES   1    826 19.60                             106    -0.1 4  393 210 
                                                                                
