 2011  911 0738  2.3 L   6.757 -73.086143.6  RSN 10 0.2 1.9LRSN                1
 GAP=146        0.28       1.7     2.3  3.1 -0.1615E+00  0.2122E+01  0.5203E+00E
 Epicentro: LOS SANTOS - SANTANDER                                             3
 ACTION:UPD 12-07-13 15:56 OP:ep   STATUS:               ID:20110911073802 L   I
 2011-09-11-0720-00M.COL___169                                                 6
 STAT SP IPHASW D HRMM SECON CODA AMPLIT PERI AZIMU VELO AIN AR TRES W  DIS CAZ7
 BAR2 SZ IP        738 21.63                             171   -0.0210 21.1 210 
 BAR2 SZ I         738 21.96        19.3 0.10                          21.1 210 
 BAR2 SZ ES   2    738 36.70                             171   -0.02 5 21.1 210 
 GIR2 SZ EP   2    738 21.84                             165   -0.08 5 37.6 342 
 GIR2 SZ ES   2    738 37.13                             165   -0.08 5 37.6 342 
 PAM  SZ EP   2    738 24.18                             150   -0.12 5 77.3  33 
 PAM  SN ES   2    738 41.45                             150    0.01 5 77.3  33 
 BRR  HZ EP   1    738 23.65                             149   -0.07 7 79.3 299 
 BRR  HE ES   2    738 40.60                             149    0.19 5 79.3 299 
 BRR  HZ I         738 41.89        16.9 0.16                          79.3 299 
 RUS  HZ EP   1    738 25.55                             145    0.05 7 95.5 180 
 RUS  HN ES   2    738 43.86                             145    0.28 5 95.5 180 
 RUS  HZ I         738 45.73        12.1 0.43                          95.5 180 
 OCA  SZ EP   2    738 31.06                             128    0.06 5  166 351 
 OCA  SZ ES   2    738 53.41                             128    0.04 5  166 351 
 OCA  SZ I         738 57.66         9.6 0.19                           166 351 
 ZAR  HZ EP   2    738 35.72                             121    0.27 4  212 293 
 ZAR  HN ES   2    739  0.93                             121   -0.36 4  212 293 
 ZAR  HZ I         739  5.56         8.5 0.45                           212 293 
 NOR  SN ES   2    739  6.18                             118   -0.04 4  237 236 
 CHI  HE ES   2    739  8.23                             117   -0.44 4  246 197 
 CHI  HZ I         739 12.04         3.8 0.42                           246 197 
 HEL  HZ EP   2    738 43.27                             114    0.26 4  277 257 
 HEL  HN ES   2    739 14.86                             114    0.11 4  277 257 
 HEL  HZ I         739 20.59         6.1 0.42                           277 257 
                                                                                
