 2015 1211 0607 26.7 L   6.801 -73.099147.0  RSN 15 0.4 2.0LRSN                1
 GAP=123        0.72       3.0     3.4  4.2 -0.2468E+01  0.2474E+01 -0.1998E+01E
 Epicentro: LOS SANTOS - SANTANDER                                             3
 ACTION:UPD 16-02-04 15:04 OP:cam  STATUS:               ID:20151211060726 L   I
 OLDACT:UP  15-12-11 19:24 OP:ar   STATUS:               ID:20151211055747     3
 OLDACT:REG 15-12-11 11:46 OP:ar   STATUS:               ID:20151211055747     3
 2015-12-11-0557-47M.COL___328                                                 6
 STAT SP IPHASW D HRMM SECON CODA AMPLIT PERI AZIMU VELO AIN AR TRES W  DIS CAZ7
 BAR2 EZ EP     C  6 7 46.53                             170    0.0410 24.8 202 
 BAR2 EZ ES        6 8  1.52                             170   -0.4210 24.8 202 
 BAR2 EZ I         6 8  2.16        10.4 0.14            168           24.8 202 
 PAM  EZ EP        6 7 49.43                             152    0.5910 74.1  37 
 PAM  EN ES        6 8  6.12                             152   -0.0010 74.1  37 
 PAM  EZ I         6 8  9.31        13.3 0.52            154           74.1  37 
 BRR  HZ EP     C  6 7 48.47                             151    0.2510 75.7 297 
 BRR  HE ES        6 8  5.24                             151    0.2210 75.7 297 
 BRR  HZ I         6 8  6.94        12.8 0.12            146           75.7 297 
 RUS  HZ EP   2    6 7 50.60                             144    0.05 5  100 179 
 RUS  HN ES   2    6 8  9.14                             144   -0.02 5  100 179 
 RUS  HZ I         6 8 10.61         8.9 0.28            145            100 179 
 PTB  HZ EP   2    6 7 53.27                             131   -0.94 5  153 259 
 PTB  HN ES   4    6 8 13.76                             131   -1.92 0  153 259 
 PTB  HZ I         6 8 16.44        14.2 0.18            129            153 259 
 OCA  HZ EP        6 7 55.31                             130    0.17 9  161 351 
 OCA  HN ES   2    6 8 16.54                             130   -0.80 5  161 351 
 OCA  HZ I         6 8 20.07        11.5 0.22            129            161 351 
 SPBC HZ EP   2    6 7 55.57                             129   -0.02 5  167 220 
 SPBC HN ES   4    6 8 16.68                             129   -1.46 0  167 220 
 SPBC HZ I         6 8 20.64        15.8 0.22            128            167 220 
 ZAR  HZ EP        6 7 59.77                             122    0.08 8  209 292 
 ZAR  HN ES   2    6 8 25.47                             122    0.03 4  209 292 
 ZAR  HZ I         6 8 34.78        10.1 0.42            120            209 292 
 NOR  HN ES        6 8 31.31                             118    0.09 8  239 235 
 NOR  HZ I         6 8 36.29         8.2 0.36            117            239 235 
 SML  HZ EP        6 8  3.37                             117   -0.23 8  246 334 
 SML  HN ES        6 8 32.49                             117    0.09 8  246 334 
 SML  HZ I         6 8 41.14         8.6 0.24            117            246 334 
 HEL  HZ EP   4    6 8  9.00                             114    1.49 0  277 256 
 HEL  HN ES   2    6 8 38.75                             114   -0.61 4  277 256 
 HEL  HZ I         6 8 45.58         7.3 0.48            114            277 256 
 SOCV BZ EP        6 8  8.53                             113   -0.77 7  297  56 
 SOCV BN ES   4    6 8 39.27                             113   -3.27 0  297  56 
 GUY2CHZ EP   4    6 8 12.43                             112    1.60 0  305 235 
 GUY2CHE ES   4    6 8 43.79                             112   -1.47 0  305 235 
 GUY2CHZ I         6 8 53.49         5.3 0.50                           305 235 
 PRA  HZ EP   2    6 8 20.72                             107    0.17 3  395 210 
 PRA  HN ES   2    6 9  2.46                             107   -0.11 3  395 210 
 PRA  HZ I         6 9  8.27         3.7 0.42            107            395 210 
 SJC  HZ EP   4    6 8 21.12                             106   -1.49 0  412 326 
 SJC  HN ES   4    6 9  3.77                             106   -2.45 0  412 326 
 SJC  HZ I         6 9  6.88         1.6 0.58            105            412 326 
                                                                                
