 2013  311 0112  3.1 L   7.450 -73.455110.5  RSN  7 0.5 1.7LRSN                1
 GAP= 89        0.79       4.7     4.4 10.2 -0.3807E+01  0.8590E+01  0.1101E+02E
 Epicentro: SABANA DE TORRES - SANTANDER                                       3
 ACTION:UPD 13-04-09 14:01 OP:ep   STATUS:               ID:20130311011203 L   I
 2013-03-11-0110-00M.COL___231                                                 6
 STAT SP IPHASW D HRMM SECON CODA AMPLIT PERI AZIMU VELO AIN AR TRES W  DIS CAZ7
 BRR  HZ EP   1    112 19.16                             155    0.06 7 47.3 217 
 BRR  HN ES   2    112 32.07                             155    0.48 5 47.3 217 
 BRR  HZ I         112 32.80        14.3 0.12            148           47.3 217 
 PAM  SZ EP     D  112 22.48                             140    0.2510 84.3  98 
 PAM  SN ES   2    112 37.46                             140    0.30 5 84.3  98 
 PAM  SZ I         112 39.38         5.8 0.66            125           84.3  98 
 OCA  HN ES   1    112 36.25                             138   -0.68 7 88.5  10 
 OCA  HN I         112 40.30        23.1 0.18            126           88.5  10 
 BAR2 SZ EP   2    112 22.96                             134   -0.18 5 99.5 162 
 BAR2 SZ I         112 39.79         7.7 0.34            122           99.5 162 
 PTB  HZ EP   1    112 27.26                             122   -0.38 7  150 228 
 PTB  HN ES   1    112 46.19                             122   -0.59 7  150 228 
 PTB  HZ I         112 47.54         6.1 0.78            113            150 228 
 ZAR  HZ EP   1    112 28.58                             121    0.40 7  155 272 
 ZAR  HN ES   2    112 48.65                             121    0.90 5  155 272 
 ZAR  HZ I         112 50.41         5.0 0.32            112            155 272 
 SML  HN ES   2    112 49.66                             119    0.20 5  164 336 
 SML  HN I         112 55.22        23.4 0.10            110            164 336 
                                                                                
