 2017  211 0737 18.4 L   7.077 -73.319123.7  RSN  6 0.4 1.5LRSN                1
 GAP=142        0.67       3.5     2.9  4.9 -0.8700E+00  0.2183E+01  0.1412E+01E
 Epicentro: LEBRIJA - SANTANDER                                                3
 ACTION:UPD 17-05-24 15:35 OP:jn   STATUS:               ID:20170211073718 L   I
 OLDACT:UP  17-02-11 17:06 OP:and  STATUS:               ID:20170211072749d    3
 OLDACT:DUP 17-02-11 17:04 OP:and  STATUS:               ID:20170211072749d    3
 2017-02-11-0728-00M.COL___346                                                 6
 STAT SP IPHASW D HRMM SECON CODA AMPLIT PERI AZIMU VELO AIN AR TRES W  DIS CAZ7
 BRR  HZ EP        737 35.59                             159   -0.1610 43.5 274 
 BRR  HN ES        737 49.33                             159    0.0810 43.5 274 
 BRR  HZ I         737 49.48         9.5 0.10            157           43.5 274 
 BAR2 EZ IP     D  737 36.87                             154    0.1810 55.7 164 
 BAR2 EZ ES        737 50.77                             154   -0.1510 55.7 164 
 BAR2 EZ I         737 52.04        18.9 0.26            155           55.7 164 
 PAM  EZ EP        737 38.43                             147    0.2710 74.3  67 
 PAM  EN ES        737 53.34                             147   -0.1910 74.3  67 
 PAM  EZ I         737 55.77         9.1 0.42            151           74.3  67 
 RUS  HZ EP        737 42.77                             130   -0.2210  134 169 
 RUS  HN ES        738  2.44                             130    0.3110  134 169 
 RUS  HZ I         738  5.32         2.1 0.24            131            134 169 
 PTB  HZ EP        737 42.49                             128   -0.38 9  139 245 
 PTB  HN ES        738  1.93                             128    0.01 9  139 245 
 PTB  HZ I         738  7.91         4.4 0.10            128            139 245 
 ZAR  HZ EP   2    737 47.29                             121    0.72 4  176 285 
 ZAR  HN ES   3    738 10.14                             121    1.64 2  176 285 
 ZAR  HZ I         738 12.98         4.4 0.13            121            176 285 
 NOR  HZ EP   4    737 57.52                             113    3.97 0  240 226 
 NOR  HN ES   4    738 22.86                             113    1.92 0  240 226 
                                                                                
