 2015  211 0052 47.8 L   7.032 -73.043154.2  RSN  7 0.5 1.5LRSN                1
 GAP=134        1.24       4.7     7.0  9.3 -0.5198E+00  0.1553E+02 -0.3477E+01E
 Epicentro: PIEDECUESTA - SANTANDER                                            3
 ACTION:UPD 15-04-30 21:24 OP:nd   STATUS:               ID:20150211005247 L   I
 OLDACT:REG 15-02-11 12:57 OP:fm   STATUS:               ID:20150211004743     3
 2015-02-11-0047-43M.COL___293                                                 6
 STAT SP IPHASW D HRMM SECON CODA AMPLIT PERI AZIMU VELO AIN AR TRES W  DIS CAZ7
 PAM  SZ EP        053 10.11                             161    0.4810 50.9  48 
 PAM  SE ES        053 26.20                             161   -0.4710 50.9  48 
 PAM  SZ I         053 29.82         4.5 0.36            162           50.9  48 
 BAR2 EZ ES   1    053 26.33                             161    0.31 7 51.0 198 
 BAR2 EZ I         053 28.51         5.9 0.28            162           51.0 198 
 BRR  HZ EP        053 10.54                             153    0.5010 74.4 276 
 BRR  HN ES        053 28.34                             153    0.9510 74.4 276 
 BRR  HZ I         053 29.16         7.1 0.40            154           74.4 276 
 RUS  HZ EP   1    053 14.07                             139   -0.23 7  126 182 
 RUS  HE ES        053 34.51                             139   -0.4610  126 182 
 RUS  HZ I         053 37.00         2.4 0.22            141            126 182 
 OCA  HE ES        053 35.45                             136   -0.27 9  137 347 
 PTB  HZ EP        053 16.95                             130   -0.12 9  165 251 
 PTB  HE ES        053 39.29                             130   -0.61 9  165 251 
 PTB  HZ I         053 41.99         2.7 0.38            132            165 251 
 SML  HZ EP   1    053 23.47                             121    0.41 6  226 330 
 SML  HN ES        053 49.96                             121   -0.60 8  226 330 
 SML  HZ I         053 53.45         5.2 0.22            123            226 330 
                                                                                
