 2016  411 0743 36.5 L   6.825 -73.180139.1  RSN  5 0.4 1.2LRSN                1
 GAP=145        0.94       5.5     5.8  8.1 -0.1622E+02  0.2026E+02 -0.7995E+01E
 Epicentro: ZAPATOCA - SANTANDER                                               3
 ACTION:UPD 16-05-05 14:20 OP:rebc STATUS:               ID:20160411074336 L   I
 OLDACT:UP  16-04-11 18:13 OP:ak   STATUS:               ID:20160411073747     3
 OLDACT:UP  16-04-11 18:12 OP:ak   STATUS:               ID:20160411073747     3
 OLDACT:REG 16-04-11 13:21 OP:mh   STATUS:               ID:20160411073747     3
 2016-04-11-0737-47M.COL___282                                                 6
 STAT SP IPHASW D HRMM SECON CODA AMPLIT PERI AZIMU VELO AIN AR TRES W  DIS CAZ7
 BAR2 EZ EP   2    743 55.42                             169    0.07 5 25.7 181 
 BAR2 EZ ES        744 10.11                             169    0.0310 25.7 181 
 BAR2 EZ I         744 11.07         5.2 0.14            169           25.7 181 
 PAM  EZ EP        743 58.27                             149    0.2610 77.8  43 
 PAM  EE ES        744 14.87                             149    0.0710 77.8  43 
 PAM  EZ I         744 17.37         2.8 0.48            153           77.8  43 
 RUS  HN ES        744 17.50                             141   -0.5010  104 174 
 PTB  HZ EP        744  2.26                             131   -0.36 9  145 257 
 PTB  HN ES        744 22.77                             131   -0.24 9  145 257 
 PTB  HZ I         744 28.30         1.9 0.22            131            145 257 
 SPBC HZ EP        744  4.39                             127   -0.06 9  163 217 
 SPBC HN ES        744 27.13                             127    0.85 9  163 217 
 SPBC HZ I         744 32.71         2.2 0.15            129            163 217 
                                                                                
