 2015  311 0217 53.0 L   6.792 -73.104140.2  RSN  4 0.5 1.3LRSN                1
 GAP=142        1.31       6.4     8.6 11.8 -0.1727E+02  0.3986E+01  0.1775E+02E
 Epicentro: LOS SANTOS - SANTANDER                                             3
 ACTION:UPD 15-04-30 16:24 OP:nd   STATUS:               ID:20150311021753 L   I
 OLDACT:UP  15-03-11 14:17 OP:cam  STATUS:               ID:20150311020746     3
 OLDACT:REG 15-03-11 12:50 OP:cam  STATUS:               ID:20150311020746     3
 2015-03-11-0207-46M.COL___287                                                 6
 STAT SP IPHASW D HRMM SECON CODA AMPLIT PERI AZIMU VELO AIN AR TRES W  DIS CAZ7
 PAM  SZ EP        218 14.95                             150    0.5010 75.2  36 
 PAM  SN ES        218 30.37                             150   -0.8410 75.2  36 
 PAM  SZ I         218 33.41         5.0 0.22            154           75.2  36 
 BRR  HZ EP        218 13.83                             150    0.0610 75.7 297 
 BRR  HN ES        218 30.50                             150    0.4910 75.7 297 
 RUS  HZ EP        218 16.32                             143    0.2410 99.5 179 
 RUS  HN ES        218 34.59                             143    0.4710 99.5 179 
 RUS  HZ I         218 35.39         1.4 0.30            144           99.5 179 
 SPBC HZ EP        218 20.80                             127   -0.45 9  165 220 
 SPBC HN ES        218 42.67                             127   -0.66 9  165 220 
 SPBC HZ I         218 49.71         3.7 0.22            128            165 220 
                                                                                
