 2017  511 0342 52.5 L   6.786 -73.090144.0  RSN  5 0.2 1.3LRSN                1
 GAP=144        0.65       3.4     3.7  5.5 -0.3726E+01 -0.1776E+01  0.3908E+01E
 Epicentro: LOS SANTOS - SANTANDER                                             3
 ACTION:UPD 17-06-16 13:34 OP:jn   STATUS:               ID:20170511034252 L   I
 OLDACT:UP  17-05-11 18:13 OP:osc  STATUS:               ID:20170511033737     3
 OLDACT:UP  17-05-11 18:06 OP:edw  STATUS:               ID:20170511033737     3
 OLDACT:REG 17-05-11 13:09 OP:osc  STATUS:               ID:20170511033737     3
 2017-05-11-0338-00M.COL___359                                                 6
 STAT SP IPHASW D HRMM SECON CODA AMPLIT PERI AZIMU VELO AIN AR TRES W  DIS CAZ7
 PAM  EZ EP        343 14.57                             151    0.1510 74.9  35 
 PAM  EN ES        343 31.65                             151    0.1710 74.9  35 
 PAM  EZ I         343 33.73         4.5 0.52            151           74.9  35 
 BRR  HZ EP     D  343 13.39                             150   -0.4710 77.4 297 
 BRR  HE ES        343 30.51                             150    0.0210 77.4 297 
 RUS  HZ EP        343 16.10                             144    0.1210 98.7 180 
 RUS  HN ES        343 34.09                             144   -0.1810 98.7 180 
 RUS  HZ I         343 34.64         2.6 0.48            145           98.7 180 
 PTB  HZ EP   9    343 19.17                             130   -0.72 0  154 260 
 PTB  HN ES        343 40.26                             134   -0.24 9  154 260 
 PTB  HZ I         343 42.39         2.1 0.42            131            154 260 
 SPBC HE ES   4    343 40.38                             128   -3.11 0  166 221 
 ZAR  HZ EP   4    343 26.51                             121    0.98 0  210 292 
 ZAR  HE ES   4    343 49.09                             121   -2.16 0  210 292 
 NOR  HN ES        343 57.05                             117    0.30 8  239 236 
 SJC  HZ EP   4    343 40.67                             105   -7.93 0  414 326 
 SJC  HN ES   4    344 26.35                             105   -5.98 0  414 326 
                                                                                
