 2016 1211 0153 59.8 L   6.843 -73.100149.9  RSN 14 0.4 2.0LRSN                1
 GAP=121        1.06       4.2     4.9  5.3  0.2775E+01  0.5869E+01  0.5233E+01E
 Epicentro: LOS SANTOS - SANTANDER                                             3
 ACTION:UPD 17-01-11 20:13 OP:rebc STATUS:               ID:20161211015359 L   I
 OLDACT:UP  16-12-11 14:07 OP:edw  STATUS:               ID:20161211014744d    3
 OLDACT:UP  16-12-11 14:06 OP:edw  STATUS:               ID:20161211014744d    3
 OLDACT:UP  16-12-11 14:05 OP:edw  STATUS:               ID:20161211014744d    3
 OLDACT:UP  16-12-11 14:04 OP:edw  STATUS:               ID:20161211014744d    3
 OLDACT:DUP 16-12-11 13:58 OP:edw  STATUS:               ID:20161211014744d    3
 OLDACT:UP  16-12-11 13:57 OP:edw  STATUS:               ID:20161211014743     3
 OLDACT:UP  16-12-11 13:55 OP:edw  STATUS:               ID:20161211014743     3
 OLDACT:REG 16-12-11 12:24 OP:edw  STATUS:               ID:20161211014743     3
 2016-12-11-0148-00M.COL___376                                                 6
 STAT SP IPHASW D HRMM SECON CODA AMPLIT PERI AZIMU VELO AIN AR TRES W  DIS CAZ7
 BAR2 EZ IP     D  154 20.16                             168    0.0910 29.1 198 
 BAR2 EZ ES        154 35.37                             168   -0.5010 29.1 198 
 BAR2 EZ I         154 36.40        28.8 0.22            167           29.1 198 
 PAM  EZ EP   2    154 22.44                             154    0.35 5 70.5  39 
 PAM  EN ES        154 39.97                             154    0.5110 70.5  39 
 PAM  EZ I         154 42.32        34.7 0.56            155           70.5  39 
 BRR  HZ IP     D  154 21.96                             152    0.4110 73.7 293 
 BRR  HE ES        154 38.91                             152    0.4010 73.7 293 
 BRR  HZ I         154 39.67        17.5 0.10            151           73.7 293 
 RUS  HZ EP        154 24.30                             143    0.0010  105 179 
 RUS  HE ES        154 43.20                             143   -0.1910  105 179 
 RUS  HZ I         154 44.06        23.0 0.28            143            105 179 
 TAM  HZ EP   4    154 28.52                             132    1.02 0  152 107 
 PTB  HZ EP   9    154 27.25                             132   -0.41 0  154 257 
 PTB  HN ES        154 47.89                             131   -1.07 9  154 257 
 PTB  HZ I         154 50.89         8.0 0.10            131            154 257 
 ZAR  HZ EP        154 32.56                             123   -0.29 8  207 290 
 ZAR  HN ES        154 58.06                             123   -0.54 8  207 290 
 ZAR  HZ I         155  4.80         7.6 0.30            122            207 290 
 CHI  HZ EP        154 38.43                             117    0.04 8  255 196 
 CHI  HN ES   4    155  7.06                             117   -1.41 0  255 196 
 CHI  HZ I         155 11.40         5.7 0.54            117            255 196 
 ROSC BZ EP   4    154 40.46                             117    1.57 0  259 211 
 ROSC BN ES   2    155 10.42                             117    1.06 4  259 211 
 ROSC BZ I         155 12.26        11.3 0.35            117            259 211 
 GUY2CHZ EP        154 44.35                             113   -0.04 7  308 235 
 GUY2CHN ES   4    155 22.27                             113    3.11 0  308 235 
 GUY2CHZ I         155 26.29         5.6 0.34                           308 235 
 PTGC HZ EP        154 43.22                             112   -0.94 7  311 160 
 PTGC HN ES   4    155 15.56                             112   -3.18 0  311 160 
 LL6C HZ EP   4    154 25.33                             111   -19.9 0  320 357 
 LL6C HN ES   4    155  2.37                             111   -18.2 0  320 357 
 ELA  HN ES   4    155 26.00                             111    1.07 0  336 229 
 CBOC HZ EP   2    154 47.81                             110    0.18 3  340 252 
 CBOC HN ES   2    155 24.68                             110   -0.23 3  340 252 
 CBOC HZ I         155 28.28         1.7 0.22            110            340 252 
 PRA  HZ EP   9    154 53.98                             107   -0.28 0  399 210 
 PRA  HN ES        155 35.66                             107   -0.78 6  399 210 
 PRA  HZ I         155 40.50         3.9 0.20            107            399 210 
 ORTC HZ EP        154 55.14                             107    0.46 6  402 216 
 ORTC HN ES        155 37.75                             107    0.29 6  402 216 
 ORTC HZ I         155 40.96         3.6 0.16            107            402 216 
 SJC  HZ EP        154 54.91                             106   -0.48 6  408 326 
 SJC  HN ES   4    155 33.28                             106   -5.45 0  408 326 
 SJC  HZ I         155 39.87         2.6 0.62            106            408 326 
 CRJC HZ EP   4    155  0.57                             104   -1.28 0  463   3 
 CRJC HN ES   4    155 46.57                             104   -3.66 0  463   3 
                                                                                
