 2015  411 0628 27.9 L   6.404 -73.260 12.4  RSN 10 0.5 2.2LRSN                1
 GAP=130        1.30       2.3     3.3  5.3 -0.7936E+00  0.9759E+01  0.2022E+01E
 Epicentro: PALMAS DEL SOCORRO - SANTANDER                                     3
 ACTION:UPD 15-06-03 16:54 OP:cam  STATUS:               ID:20150411062827 L   I
 OLDACT:DUP 15-04-11 16:31 OP:carl STATUS:               ID:20150411061749d    3
 2015-04-11-0617-48M.COL___263                                                 6
 STAT SP IPHASW D HRMM SECON CODA AMPLIT PERI AZIMU VELO AIN AR TRES W  DIS CAZ7
 BAR2 EZ IP     D  628 32.64                             116    0.2210 22.5  22 
 BAR2 EZ ES        628 36.24                             116    0.2710 22.5  22 
 BAR2 EZ I         628 37.39       615.8 0.48            129           22.5  22 
 RUS  HZ EP        628 38.13                              99   -0.0210 59.9 161 
 RUS  HE ES        628 45.63                              99   -0.5310 59.9 161 
 BRR  HZ EP        628 42.94                              95    0.4110 92.4 327 
 BRR  HN ES        628 54.13                              95    0.1710 92.4 327 
 BRR  HZ I         628 57.25        37.6 0.32             98           92.4 327 
 PAM  SZ EP        628 47.38                              94    0.0910  121  31 
 PAM  SN ES        629  1.92                              94   -0.5210  121  31 
 PAM  SZ I         629  2.55        58.3 0.16             97            121  31 
 SPBC HZ EP        628 47.89                              94    0.7310  122 227 
 SPBC HN ES        629  1.77                              94   -0.4410  122 227 
 SPBC HZ I         629  6.79        48.3 0.36             96            122 227 
 PTB  HZ IP     D  628 48.70                              94   -0.0010  133 277 
 PTB  HN ES        629  4.38                              94   -0.5710  133 277 
 PTB  HZ I         629  5.43       128.5 0.16             56            133 277 
 NOR  HZ EP        628 57.39                              56   -0.21 9  201 243 
 NOR  HN ES        629 22.10                              56    1.32 9  201 243 
 NOR  HZ I         629 24.23        18.3 0.52             56            201 243 
 ZAR  HE ES        629 22.58                              56   -0.94 8  214 304 
 ZAR  HZ I         629 25.67        17.4 0.38             56            214 304 
 HEL  HZ EP        629  4.51                              56    0.13 8  252 265 
 HEL  HE ES        629 32.01                              56   -0.84 8  252 265 
 HEL  HZ I         629 38.04        11.7 0.26             56            252 265 
 GUY2CHZ EP        629  6.68                              56    0.30 8  267 241 
 GUY2CHN ES        629 36.84                              56    0.42 8  267 241 
 GUY2CHZ I         629 44.08         9.3 0.48                           267 241 
                                                                                
