 2012  211 0038 43.8 L   6.761 -73.129142.9  RSN  7 0.3 1.8LRSN                1
 GAP=140        0.52       4.7     4.2  4.8  0.3060E+01  0.7092E+00  0.3863E+01E
 ACTION:UP  12-03-07 16:29 OP:epov STATUS:               ID:20120211003843 L   I
 2012-02-11-0030-00M.COL___188                                                 6
 STAT SP IPHASW D HRMM SECON CODA AMPLIT PERI AZIMU VELO AIN AR TRES W  DIS CAZ7
 BAR2 SZ ES   1    039 17.76                             172   -0.23 7 19.6 197 
 BAR2 SZ I         039 18.90        23.6 0.22                          19.6 197 
 GIR2 SZ EP        039  3.09                             165   -0.1710 35.8 349 
 GIR2 SZ ES   2    039 18.20                             165   -0.24 5 35.8 349 
 BRR  HZ EP        039  4.95                             151    0.1110 74.9 301 
 BRR  HZ I         039  5.22        27.1 0.26                          74.9 301 
 BRR  HE ES   1    039 21.65                             151    0.38 7 74.9 301 
 PAM  SZ EP        039  5.93                             149    0.0910 79.7  37 
 RUS  HZ EP        039  6.98                             144    0.0410 96.2 177 
 RUS  HZ I         039 26.40         6.7 0.20                          96.2 177 
 PTB  HZ EP        039 10.69                             131    0.07 9  149 261 
 PTB  HZ I         039 37.34         3.8 0.22                           149 261 
 ZAR  HZ EP   3    039 15.02                             121   -1.37 2  207 293 
 ZAR  HN ES   2    039 41.29                             121   -0.53 4  207 293 
                                                                                
