 2015 1011 0351 42.4 L   6.815 -73.117147.6  RSN 19 0.4 2.3LRSN                1
 GAP= 72        0.94       2.2     2.5  4.2 -0.8100E+00  0.2991E+01  0.9649E+00E
 Epicentro: LOS SANTOS - SANTANDER                                             3
 ACTION:UPD 15-12-22 20:38 OP:cam  STATUS:               ID:20151011035142 L   I
 OLDACT:REG 15-10-11 13:08 OP:ak   STATUS:               ID:20151011034750     3
 2015-10-11-0347-50M.COL___340                                                 6
 STAT SP IPHASW D HRMM SECON CODA AMPLIT PERI AZIMU VELO AIN AR TRES W  DIS CAZ7
 BAR2 EZ EP        352  2.38                             170    0.0610 25.7 196 
 BAR2 EZ ES        352 17.66                             170   -0.1810 25.7 196 
 BAR2 EZ I         352 20.27        29.4 0.48            168           25.7 196 
 BRR  HZ EP        352  4.01                             152    0.1310 73.2 296 
 BRR  HN ES        352 21.17                             152    0.5510 73.2 296 
 BRR  HZ I         352 29.17        15.2 0.23            152           73.2 296 
 PAM  EZ EP        352  5.12                             152    0.4810 74.1  38 
 PAM  EN ES        352 22.40                             152    0.4410 74.1  38 
 PAM  EZ I         352 24.65        33.3 0.50            158           74.1  38 
 RUS  HZ EP        352  6.41                             144   -0.0510  102 178 
 RUS  HN ES        352 24.73                             144   -0.4810  102 178 
 RUS  HZ I         352 27.86        14.3 0.32            145            102 178 
 TAM  HZ EP        352  9.76                             131   -0.25 9  152 106 
 TAM  HN ES        352 31.58                             131    0.06 9  152 106 
 OCA  HZ EP        352 10.68                             130   -0.08 9  159 352 
 OCA  HN ES        352 32.59                             130   -0.26 9  159 352 
 OCA  HZ I         352 38.14        47.0 0.42            134            159 352 
 SPBC HZ EP        352 11.35                             129   -0.03 9  167 219 
 SPBC HN ES        352 34.03                             129    0.07 9  167 219 
 SPBC HZ I         352 39.22        33.8 0.20            130            167 219 
 ZAR  HZ EP   2    352 14.73                             122   -0.50 4  206 291 
 ZAR  HE ES        352 40.73                             122   -0.08 8  206 291 
 NOR  HZ EP        352 18.50                             118   -0.14 8  238 235 
 NOR  HN ES        352 46.58                             118   -0.31 8  238 235 
 NOR  HZ I         352 50.11        20.0 0.24            120            238 235 
 SML  HZ EP        352 19.10                             118   -0.03 8  244 334 
 SML  HN ES        352 47.20                             118   -0.56 8  244 334 
 SML  HZ I         352 50.31        16.5 0.12            121            244 334 
 CHI  HZ EP        352 20.27                             117   -0.22 8  251 196 
 CHI  HN ES        352 49.38                             117   -0.81 8  251 196 
 CHI  HZ I         352 59.74         5.9 0.38            119            251 196 
 ROSC BZ EP        352 21.02                             117    0.04 8  256 211 
 ROSC BN ES   4    352 54.27                             117    3.22 0  256 211 
 ROSC BZ I         353  0.24        22.6 0.40            119            256 211 
 HEL  HZ EP   1    352 23.89                             115    0.77 6  276 256 
 HEL  HE ES        352 55.28                             115    0.42 7  276 256 
 HEL  HZ I         353  1.59         8.9 0.34            117            276 256 
 GUY2CHZ EP        352 27.44                             112    0.92 7  305 235 
 GUY2CHN ES        353  0.99                             112    0.08 7  305 235 
 GUY2CHZ I         353  9.25        16.9 0.78                           305 235 
 ELA  HZ EP   1    352 30.48                             110    0.73 5  333 230 
 ELA  HE ES        353  7.26                             110    0.59 7  333 230 
 ELA  HZ I         353 22.12         9.8 0.50            112            333 230 
 CBOC HZ EP        352 30.35                             110    0.53 7  337 252 
 CBOC HE ES        353  5.90                             110   -0.89 7  337 252 
 CBOC HZ I         353 10.60         4.1 0.22            112            337 252 
 DBB  SZ EP        352 29.92                             110   -0.40 7  343 274 
 DBB  SZ ES        353  6.75                             110   -0.93 7  343 274 
 DBB  SZ I         353 10.38        22.4 0.58            111            343 274 
 SDV  BZ EP        352 31.63                             109   -0.50 6  357  50 
 SDV  BN ES   4    353  8.83                             109   -2.06 0  357  50 
 SDV  BZ I         353 11.03         3.5 0.45            112            357  50 
 ORTC HZ EP        352 37.27                             106    0.48 6  399 216 
 ORTC HN ES        353 19.89                             106    0.70 6  399 216 
 ORTC HZ I         353 23.80         6.3 0.50            108            399 216 
 CRJC HZ EP   4    352 42.54                             104   -2.21 0  466   3 
 CRJC HN ES   4    353 29.24                             104   -4.12 0  466   3 
                                                                                
