 2013  711 0135 34.6 L   6.279 -73.699 96.7  RSN  5 0.5 1.5LRSN                1
 GAP=130        1.22       7.3     4.1 11.9 -0.1721E+01  0.1893E+02  0.2745E+02E
 Epicentro: SANTA HELENA DEL OPON - SANTANDER                                  3
 ACTION:UPD 13-08-12 10:36 OP:ep   STATUS:               ID:20130711013534 L   I
 OLDACT:REG 13-07-11 07:21 OP:nd   STATUS:               ID:20130711012959     3
 2013-07-11-0129-59M.COL___266                                                 6
 STAT SP IPHASW D HRMM SECON CODA AMPLIT PERI AZIMU VELO AIN AR TRES W  DIS CAZ7
 BAR2 SZ EP        135 51.24                             143    0.5210 66.8  59 
 BAR2 SZ ES   1    136  4.16                             143    0.86 7 66.8  59 
 BAR2 SZ I         136  6.24        21.3 0.32            149           66.8  59 
 RUS  HZ EP        135 51.94                             138   -0.2010 80.4 122 
 RUS  HN ES        136  5.34                             138   -0.5010 80.4 122 
 RUS  HZ I         136  8.11         3.8 0.18            141           80.4 122 
 PTB  HZ EP        135 51.48                             134   -0.7110 88.6 289 
 PTB  HN ES        136  5.66                             134   -0.2610 88.6 289 
 PTB  HZ I         136  7.00         3.6 0.10            139           88.6 289 
 NOR  HZ EP        135 58.18                             118   -0.39 9  152 239 
 NOR  HN ES        136 17.72                             118    0.44 9  152 239 
 NOR  HZ I         136 21.22        10.0 0.14            122            152 239 
 GUY2CHZ EP        136  7.01                             110    0.39 8  218 238 
 GUY2CHN ES        136 32.10                             110    0.50 8  218 238 
 GUY2CHZ I         136 36.64         3.5 0.52                           218 238 
                                                                                
