 2015  211 0715 27.5 L   6.811 -73.174138.9  RSN 24 0.5 2.3LRSN                1
 GAP= 69        1.17       2.4     3.0  5.0 -0.1260E+01  0.4422E+01 -0.1275E+00E
 Epicentro: LOS SANTOS - SANTANDER                                             3
 ACTION:UPD 15-04-30 21:25 OP:nd   STATUS:               ID:20150211071527 L   I
 OLDACT:REG 15-02-11 13:22 OP:fm   STATUS:               ID:20150211070736     3
 2015-02-11-0707-36M.COL___284                                                 6
 STAT SP IPHASW D HRMM SECON CODA AMPLIT PERI AZIMU VELO AIN AR TRES W  DIS CAZ7
 BAR2 EZ EP        715 46.82                             170    0.4810 24.2 182 
 BAR2 EZ ES        716  0.38                             170   -0.6410 24.2 182 
 BAR2 EZ I         716  2.77        97.2 0.22            169           24.2 182 
 BRR  HZ IP     C  715 48.66                             152    0.9210 67.9 299 
 BRR  HE ES        716  4.72                             152    1.2210 67.9 299 
 BRR  HZ I         716  6.73        56.2 0.14            152           67.9 299 
 PAM  SZ IP     D  715 49.63                             149    0.5510 78.5  42 
 PAM  SE ES        716  5.76                             149   -0.1210 78.5  42 
 PAM  SZ I         716  8.99        53.0 0.66            153           78.5  42 
 RUS  HZ EP        715 50.73                             142    0.0210  102 174 
 RUS  HE ES        716  8.44                             142   -0.3610  102 174 
 RUS  HZ I         716 10.26        23.6 0.26            143            102 174 
 PTB  HZ EP        715 53.43                             131   -0.25 9  145 258 
 PTB  HN ES        716 13.85                             131   -0.23 9  145 258 
 PTB  HZ I         716 18.52        48.1 0.10            131            145 258 
 TAM  HZ IP     D  715 55.14                             128    0.16 9  158 105 
 TAM  HE ES        716 16.34                             128   -0.06 9  158 105 
 TAM  HZ I         716 17.22        11.9 0.22            131            158 105 
 OCA  HZ EP        715 55.60                             128    0.45 9  159 354 
 OCA  HE ES        716 15.79                             128   -0.91 9  159 354 
 OCA  HZ I         716 20.13        26.3 0.42            130            159 354 
 SPBC HZ EP        715 55.63                             128    0.22 9  162 218 
 SPBC HE ES        716 16.28                             128   -0.88 9  162 218 
 SPBC HZ I         716 22.89        36.9 0.38            128            162 218 
 NOR  HZ EP        716  2.96                             117    0.29 8  233 234 
 NOR  HE ES        716 30.42                             117    0.34 8  233 234 
 NOR  HZ I         716 34.77        27.1 0.34            118            233 234 
 SML  HZ EP        716  3.36                             116   -0.15 8  241 336 
 SML  HN ES        716 31.05                             116   -0.52 8  241 336 
 SML  HZ I         716 33.79        32.6 0.26            118            241 336 
 CHI  HZ EP        716  4.80                             116   -0.09 8  249 194 
 CHI  HN ES        716 33.74                             116   -0.30 8  249 194 
 CHI  HZ I         716 41.39         7.5 0.50            117            249 194 
 ROSC BE ES        716 34.38                             115   -0.24 8  252 210 
 URE  HZ EP        716  7.88                             112   -0.01 7  280 292 
 URE  HN ES        716 39.06                             112   -0.31 7  280 292 
 URE  HZ I         716 47.19        20.3 0.26            113            280 292 
 GUY2CHZ EP        716 10.55                             111   -0.07 7  299 234 
 GUY2CHN ES        716 44.31                             111    0.08 7  299 234 
 GUY2CHZ I         716 51.21        12.2 0.32                           299 234 
 PTGC HZ EP   4    716  9.99                             110   -1.35 0  311 158 
 PTGC HN ES   4    716 42.70                             110   -2.82 0  311 158 
 PTGC HZ I         716 48.57         8.9 0.22            111            311 158 
 RREF HZ EP   4    716 14.74                             110    1.54 0  320 229 
 RREF HN ES        716 48.63                             110   -0.19 7  320 229 
 RREF HZ I         716 56.84         9.9 0.22            110            320 229 
 CBOC HZ EP   4    716 15.65                             109    1.79 0  331 252 
 CBOC HN ES   4    716 48.02                             109   -1.99 0  331 252 
 CBOC HZ I         716 52.61         5.4 0.40            109            331 252 
 DBB  SZ EP        716 14.33                             108   -0.03 7  336 274 
 TOL  SZ EP   1    716 15.19                             108   -0.17 5  342 224 
 TOL  SN ES        716 53.22                             108    0.55 7  342 224 
 TOL  SZ I         717  2.32         8.6 0.64            109            342 224 
 MON  HZ EP   4    716 14.40                             107   -1.49 0  350 309 
 MON  HN ES        716 52.94                             107   -0.68 6  350 309 
 MON  HZ I         716 53.74         7.8 0.18            108            350 309 
 ARGC HZ EP        716 16.89                             107    0.22 6  357 341 
 ARGC HE ES        716 55.63                             107    0.63 6  357 341 
 ARGC HZ I         716 57.99         5.3 0.24            108            357 341 
 SDV  BZ EP        716 16.52                             107   -0.98 6  362  51 
 SDV  BE ES   4    716 52.49                             107   -3.98 0  362  51 
 SDV  BZ I         716 56.64         4.3 0.30            108            362  51 
 ORTC HZ EP        716 20.58                             105   -0.54 6  395 216 
 ORTC HE ES        717  3.92                             105    1.00 6  395 216 
 ORTC HZ I         717  8.24         6.9 0.38            106            395 216 
 PAL  HZ EP        716 21.83                             105   -0.39 6  404 239 
 PAL  HE ES        717  4.82                             105   -0.07 6  404 239 
 PAL  HZ I         717  7.20         4.4 0.34            106            404 239 
                                                                                
