 2013  111 0312 10.1 L   6.763 -73.101130.1  RSN  5 0.3 1.5LRSN                1
 GAP=257        0.85       6.4     6.5 11.2  0.1125E+02  0.8964E+00  0.2621E+02E
 Epicentro: LOS SANTOS - SANTANDER                                             3
 ACTION:UPD 13-02-15 09:13 OP:ep   STATUS:               ID:20130111031210 L   I
 2013-01-11-0310-00M.COL___242                                                 6
 STAT SP IPHASW D HRMM SECON CODA AMPLIT PERI AZIMU VELO AIN AR TRES W  DIS CAZ7
 BAR2 SZ EP        312 27.49                             170   -0.2610 20.9 206 
 BAR2 SZ I         312 46.15         5.1 0.40            166           20.9 206 
 BRR  HZ EP        312 30.59                             147    0.6610 77.5 299 
 BRR  HN ES        312 45.28                             147   -0.1610 77.5 299 
 BRR  HN I         312 49.09         6.7 0.28            160           77.5 299 
 PTB  HZ EP        312 35.80                             127   -0.39 9  152 261 
 PTB  HN ES        312 56.77                             127    0.20 9  152 261 
 PTB  HN I         313  2.23         8.4 0.36            138            152 261 
 ZAR  HN ES        313  7.08                             118   -0.17 8  210 293 
 CHI  HN ES   1    313 15.27                             114    0.10 6  246 197 
 CHI  HN I         313 18.39         1.9 0.38            117            246 197 
                                                                                
