 2017  411 0201 25.8 L   6.857 -73.326121.5  RSN  4 0.4 1.1LRSN                1
 GAP=219        1.00       9.2     6.6  9.8  0.3998E+02  0.1224E+02 -0.7898E+01E
 Epicentro: BETULIA - SANTANDER                                                3
 ACTION:UPD 17-05-30 21:10 OP:jn   STATUS:               ID:20170411020125 L   I
 OLDACT:DUP 17-04-11 15:28 OP:edw  STATUS:               ID:20170411015511d    3
 2017-04-11-0158-00M.COL___368                                                 6
 STAT SP IPHASW D HRMM SECON CODA AMPLIT PERI AZIMU VELO AIN AR TRES W  DIS CAZ7
 BAR2 EZ EP        2 1 42.98                             164    0.1910 33.3 151 
 BAR2 EZ ES        2 1 56.21                             164    0.1410 33.3 151 
 BAR2 EZ I         2 1 57.14         8.2 0.28            164           33.3 151 
 RUS  HZ EP        2 1 48.35                             135    0.3310  110 166 
 RUS  HN ES        2 2  4.74                             135   -0.6210  110 166 
 RUS  HZ I         2 2  5.68         1.4 0.62            137            110 166 
 PTB  HZ EP        2 1 49.05                             130   -0.1110  130 254 
 PTB  HE ES        2 2  7.89                             130    0.5010  130 254 
 PTB  HZ I         2 2  9.23         1.5 0.10            130            130 254 
 ZAR  HN ES        2 2 16.42                             119   -0.53 9  183 293 
                                                                                
