 2017  511 0853 34.9 L   6.779 -73.144149.5  RSN  4 0.2 1.3LRSN                1
 GAP=138        0.60       3.4     3.2  5.3 -0.1242E+01  0.1463E+01  0.2293E+01E
 Epicentro: LOS SANTOS - SANTANDER                                             3
 ACTION:UPD 17-06-16 13:35 OP:jn   STATUS:               ID:20170511085334 L   I
 OLDACT:REG 17-05-11 13:42 OP:osc  STATUS:               ID:20170511084740     3
 2017-05-11-0848-00M.COL___353                                                 6
 STAT SP IPHASW D HRMM SECON CODA AMPLIT PERI AZIMU VELO AIN AR TRES W  DIS CAZ7
 BRR  HZ EP        853 56.66                             153    0.1710 72.5 300 
 BRR  HN ES        854 13.59                             153    0.2210 72.5 300 
 BRR  HZ I         854 14.36         4.5 0.54            153           72.5 300 
 PAM  EZ EP     C  853 57.72                             151    0.1410 79.1  38 
 PAM  EN ES        854 15.02                             151   -0.2810 79.1  38 
 PAM  EZ I         854 16.40         2.6 0.16            154           79.1  38 
 RUS  HZ EP        853 59.01                             145    0.1910 98.2 176 
 RUS  HN ES        854 17.46                             145   -0.0410 98.2 176 
 RUS  HZ I         854 19.27         2.8 0.30            146           98.2 176 
 PTB  HZ EP        854  1.71                             133   -0.41 9  148 260 
 PTB  HN ES        854 23.33                             133   -0.05 9  148 260 
 PTB  HZ I         854 28.31         2.4 0.34            133            148 260 
                                                                                
