 2012 1111 0555 16.3 L   6.790 -73.147152.7  RSN  7 0.4 1.8LRSN                1
 GAP=137        1.09       4.1    10.0  7.9  0.5179E+01  0.3873E+02 -0.1924E+01E
 Epicentro: LOS SANTOS - SANTANDER                                             3
 ACTION:UPD 12-12-05 15:32 OP:}ep  STATUS:               ID:20121111055516 L   I
 2012-11-11-0550-00M.COL___230                                                 6
 STAT SP IPHASW D HRMM SECON CODA AMPLIT PERI AZIMU VELO AIN AR TRES W  DIS CAZ7
 BAR2 SZ EP        555 36.55                             171   -0.1610 22.2 190 
 BAR2 SZ ES        555 52.75                             171    0.0910 22.2 190 
 BAR2 SZ I         555 52.94        12.7 0.40                          22.2 190 
 GIR2 SZ EP        555 37.25                             167    0.4610 32.3 351 
 GIR2 SZ ES        555 53.06                             167    0.2610 32.3 351 
 PAM  SZ EP   1    555 39.45                             152    0.17 7 78.3  39 
 PAM  SN ES        555 56.56                             152   -0.6710 78.3  39 
 RUS  HZ EP        555 40.87                             145    0.2410 99.5 176 
 RUS  HN ES        555 59.36                             145   -0.2810 99.5 176 
 RUS  HN I         556  1.08         3.5 0.14                          99.5 176 
 PTB  HZ EP        555 43.76                             133   -0.01 9  147 259 
 PTB  HN I         556 10.43        16.3 0.32                           147 259 
 OCA  HN ES        556  8.61                             131    0.81 9  161 353 
 SML  HZ EP        555 53.14                             119   -0.24 8  245 335 
 SML  HN ES        556 21.49                             119   -0.85 8  245 335 
                                                                                
