 2011  911 0651 12.6 L   6.033 -73.652117.9  RSN  7 0.3 1.7LRSN                1
 GAP=145        0.43       4.4     3.3  7.0 -0.4776E+01  0.1140E+02 -0.7981E+01E
 Epicentro: CHIPATA - SANTANDER                                                3
 ACTION:UPD 12-07-13 15:56 OP:ep   STATUS:               ID:20110911065112 L   I
 2011-09-11-0646-52S.COL___168                                                 6
 STAT SP IPHASW D HRMM SECON CODA AMPLIT PERI AZIMU VELO AIN AR TRES W  DIS CAZ7
 RUS  HZ EP   2    651 31.41                             150    0.30 5 64.8 104 
 RUS  HZ I         651 31.94         5.2 0.25                          64.8 104 
 RUS  HN ES   2    651 45.35                             150   -0.20 5 64.8 104 
 BAR2 SZ EP   1    651 32.00                             143    0.18 7 80.7  40 
 BAR2 SZ ES   2    651 46.50                             143   -0.32 5 80.7  40 
 BAR2 SZ I         651 48.03        17.3 0.34                          80.7  40 
 BRR  HZ EP   1    651 34.37                             131   -0.29 7  119 357 
 BRR  HN ES   2    651 52.40                             131    0.53 5  119 357 
 BRR  HZ I         651 54.94         8.1 0.15                           119 357 
 GIR2 SZ EP   2    651 35.59                             130    0.06 5  126  24 
 NOR  SN ES   2    651 56.43                             125    0.08 5  144 249 
 HEL  HN ES   2    652  8.96                             115   -0.16 4  209 275 
 HEL  HZ I         652 12.24         4.5 0.32                           209 275 
 ZAR  HZ EP   2    651 43.72                             115   -0.26 4  209 320 
 ZAR  HZ I         652  8.97         5.3 0.28                           209 320 
 HEL  HZ EP   2    651 44.50                             115    0.15 4  209 275 
                                                                                
