 2017  411 0408  9.5 L   6.835 -73.189123.4  RSN  5 0.3 1.2LRSN                1
 GAP=147        0.75       4.7     4.5  8.8 -0.4031E+01  0.9933E+01  0.1027E+02E
 Epicentro: ZAPATOCA - SANTANDER                                               3
 ACTION:UPD 17-05-30 21:10 OP:jn   STATUS:               ID:20170411040809 L   I
 OLDACT:UP  17-04-11 16:31 OP:edw  STATUS:               ID:20170411035744d    3
 OLDACT:UP  17-04-11 16:29 OP:edw  STATUS:               ID:20170411035744d    3
 OLDACT:DUP 17-04-11 16:26 OP:edw  STATUS:               ID:20170411035744d    3
 OLDACT:UP  17-04-11 16:25 OP:edw  STATUS:               ID:20170411035743     3
 OLDACT:REG 17-04-11 11:56 OP:edw  STATUS:               ID:20170411035743     3
 2017-04-11-0358-00M.COL___371                                                 6
 STAT SP IPHASW D HRMM SECON CODA AMPLIT PERI AZIMU VELO AIN AR TRES W  DIS CAZ7
 BAR2 EZ ES        4 8 40.24                             167    0.3710 26.9 178 
 BAR2 EZ I         4 8 41.79         6.4 0.40            171           26.9 178 
 PAM  EN ES        4 8 44.79                             146   -0.1810 77.6  44 
 PAM  EZ I         4 8 46.82         1.7 0.18            136           77.6  44 
 RUS  HZ EP        4 8 31.79                             137    0.2710  105 174 
 RUS  HN ES        4 8 48.30                             137   -0.3610  105 174 
 RUS  HZ I         4 8 48.66         1.8 0.66            134            105 174 
 PTB  HZ EP   4    4 8 38.35                             127    3.94 0  144 257 
 PTB  HN ES        4 8 53.68                             127   -0.12 9  144 257 
 PTB  HZ I         4 8 56.39         2.8 0.16            118            144 257 
 ZAR  HZ EP   4    4 8 40.05                             118    0.05 0  198 292 
 ZAR  HZ I         4 8 52.88         2.0 0.22            110            198 292 
                                                                                
