 2016  411 0742 48.8 L   6.839 -73.197145.7  RSN  5 0.3 1.0LRSN                1
 GAP=148        0.74       4.2     4.3  5.8 -0.7881E+01  0.7465E+01 -0.1312E+01E
 Epicentro: ZAPATOCA - SANTANDER                                               3
 ACTION:UPD 16-05-05 14:20 OP:rebc STATUS:               ID:20160411074248 L   I
 OLDACT:UP  16-04-11 18:17 OP:ak   STATUS:               ID:20160411073748d    3
 OLDACT:DUP 16-04-11 18:14 OP:ak   STATUS:               ID:20160411073748d    3
 OLDACT:UP  16-04-11 18:12 OP:ak   STATUS:               ID:20160411073747     3
 OLDACT:REG 16-04-11 13:21 OP:mh   STATUS:               ID:20160411073747     3
 2016-04-11-0737-47M.COL___282                                                 6
 STAT SP IPHASW D HRMM SECON CODA AMPLIT PERI AZIMU VELO AIN AR TRES W  DIS CAZ7
 BAR2 EZ EP   2    743  7.42                             169   -1.04 5 27.4 177 
 BAR2 EZ ES        743 24.20                             169    0.3710 27.4 177 
 BAR2 EZ I         743 24.95         2.3 0.30            169           27.4 177 
 PAM  EZ EP        743 11.21                             151    0.2210 77.9  45 
 PAM  EN ES        743 28.11                             151   -0.2310 77.9  45 
 PAM  EZ I         743 31.49         1.8 0.60            154           77.9  45 
 RUS  HZ EP        743 12.75                             142   -0.1010  105 173 
 RUS  HE ES        743 31.62                             142   -0.0310  105 173 
 RUS  HZ I         743 33.07         1.0 0.40            144            105 173 
 PTB  HZ EP        743 15.71                             133    0.41 9  143 257 
 PTB  HN ES        743 35.76                             133   -0.25 9  143 257 
 PTB  HZ I         743 38.56         1.4 0.25            134            143 257 
 SPBC HZ EP        743 17.20                             129   -0.05 9  163 216 
 SPBC HE ES        743 39.39                             129   -0.08 9  163 216 
 SPBC HZ I         743 46.19         1.9 0.21            130            163 216 
                                                                                
