 2015 1011 0125 17.9 L   6.338 -73.222140.1  RSN  7 0.4 1.4LRSN                1
 GAP=154        0.97       3.4     5.9  6.8 -0.2507E+01  0.2045E+02  0.1456E+00E
 Epicentro: CONFINES - SANTANDER                                               3
 ACTION:UPD 15-12-22 20:38 OP:cam  STATUS:               ID:20151011012517 L   I
 OLDACT:UP  15-10-11 14:40 OP:ak   STATUS:               ID:20151011011749     3
 OLDACT:UP  15-10-11 14:38 OP:ak   STATUS:               ID:20151011011749     3
 OLDACT:REG 15-10-11 12:38 OP:ak   STATUS:               ID:20151011011749     3
 2015-10-11-0117-49M.COL___340                                                 6
 STAT SP IPHASW D HRMM SECON CODA AMPLIT PERI AZIMU VELO AIN AR TRES W  DIS CAZ7
 BAR2 EZ EP   1    125 36.43                             168   -0.53 7 28.5   9 
 BAR2 EZ ES        125 51.10                             168   -0.7410 28.5   9 
 BAR2 EZ I         125 53.92         4.8 0.15            169           28.5   9 
 RUS  HZ EP        125 38.44                             159    0.2910 51.6 163 
 RUS  HN ES        125 54.21                             159    0.2710 51.6 163 
 RUS  HZ I         125 58.00         3.3 0.36            162           51.6 163 
 BRR  HZ EP        125 40.96                             142    0.5410  101 328 
 BRR  HN ES        125 58.54                             142    0.5510  101 328 
 BRR  HZ I         126  2.65         7.9 0.42            144            101 328 
 CHI  HZ EP   2    125 49.50                             122   -0.29 4  197 197 
 CHI  HE ES        126 14.69                             122    0.03 9  197 197 
 NOR  HZ EP        125 49.66                             121   -0.10 9  201 245 
 NOR  HN ES        126 14.15                             121   -0.47 9  201 245 
 NOR  HZ I         126 19.95         4.1 0.39            124            201 245 
 GUY2CHZ EP        125 57.62                             114    0.19 8  267 243 
 GUY2CHE ES        126 28.33                             114    0.06 8  267 243 
 GUY2CHZ I         126 38.45         1.3 0.50                           267 243 
 SML  HZ EP   1    125 58.60                             112   -0.55 5  288 341 
 SML  HE ES        126 31.08                             112   -0.25 7  288 341 
                                                                                
