 2016  211 0943 16.7 L   6.828 -73.172142.5  RSN  4 0.2 1.5LRSN                1
 GAP=277        0.45       4.1     3.2  4.4  0.6185E+00  0.4011E+01 -0.5696E+00E
 Epicentro: ZAPATOCA - SANTANDER                                               3
 ACTION:UPD 16-03-04 21:25 OP:rebc STATUS:               ID:20160211094316 L   I
 OLDACT:DUP 16-02-11 19:04 OP:ak   STATUS:               ID:20160211093752d    3
 OLDACT:UP  16-02-11 19:04 OP:ak   STATUS:               ID:20160211093751     3
 OLDACT:REG 16-02-11 13:49 OP:ak   STATUS:               ID:20160211093751     3
 2016-02-11-0937-51M.COL___276                                                 6
 STAT SP IPHASW D HRMM SECON CODA AMPLIT PERI AZIMU VELO AIN AR TRES W  DIS CAZ7
 BAR2 EZ EP        943 36.07                             169    0.0810 26.1 183 
 BAR2 EZ ES        943 50.93                             169   -0.1110 26.1 183 
 BAR2 EZ I         943 52.30         6.2 0.22            166           26.1 183 
 RUS  HZ EP   2    943 40.31                             142   -0.06 5  104 175 
 RUS  HN ES        943 58.86                             142    0.0310  104 175 
 RUS  HZ I         943 59.98         4.7 0.22            142            104 175 
 PTB  HZ EP   2    943 42.53                             132   -0.66 5  146 257 
 PTB  HN ES        944  3.99                             132    0.12 9  146 257 
 PTB  HZ I         944  7.16         3.2 0.34            131            146 257 
 SPBC HZ EP        943 45.17                             128    0.17 9  164 218 
 SPBC HN ES        944  6.98                             128   -0.10 9  164 218 
 SPBC HZ I         944 10.96         6.2 0.20            128            164 218 
                                                                                
