 2012 1211 0625 19.3 L   6.784 -73.133141.6  RSN  8 0.4 1.3LRSN                1
 GAP= 72        0.85       6.1     4.7  7.0  0.4105E+01  0.1667E+00 -0.2566E+01E
 Epicentro: LOS SANTOS - SANTANDER                                             3
 ACTION:UPD 13-01-04 14:27 OP:ep   STATUS:               ID:20121211062519 L   I
 2012-12-11-0620-00M.COL___242                                                 6
 STAT SP IPHASW D HRMM SECON CODA AMPLIT PERI AZIMU VELO AIN AR TRES W  DIS CAZ7
 BAR2 SZ EP   1    625 38.38                             171    0.00 7 21.9 195 
 BAR2 SZ ES   1    625 53.20                             171   -0.09 7 21.9 195 
 BAR2 SZ I         625 54.29         8.3 0.20                          21.9 195 
 GIR2 SZ EP   1    625 38.36                             166   -0.16 7 33.3 348 
 GIR2 SZ ES   1    625 53.38                             166   -0.14 7 33.3 348 
 GIR2 SZ I         625 55.32         4.2 0.48                          33.3 348 
 BRR  HZ EP        625 40.31                             151    0.2010 73.3 299 
 BRR  HE ES   1    625 57.10                             151    0.75 7 73.3 299 
 BRR  HZ I         626  0.27         3.9 0.14                          73.3 299 
 PAM  SZ EP   1    625 41.25                             150    0.17 7 77.8  38 
 PAM  SE ES   2    625 57.07                             150   -1.02 5 77.8  38 
 PAM  SZ I         626  0.28         5.5 0.56                          77.8  38 
 RUS  HE ES   1    626  0.93                             144    0.33 7 98.8 177 
 RUS  HZ I         626  2.16         2.7 0.26                          98.8 177 
 PTB  HZ EP   1    625 45.45                             131   -0.56 7  149 260 
 PTB  HN ES   1    626  6.06                             131   -0.81 7  149 260 
 PTB  HZ I         626  8.76         2.5 0.18                           149 260 
 TAM  HZ EP   1    625 46.65                             130    0.19 7  153 104 
 ZAR  HN ES   1    626 17.27                             121    0.34 6  206 292 
                                                                                
