 2014 1211 0717 49.2 L   6.723 -73.163142.2  RSN  5 0.4 1.3LRSN                1
 GAP=229        1.09       8.1     7.6  7.9  0.3818E+02  0.9594E+01 -0.4510E+01E
 Epicentro: VILLANUEVA - SANTANDER                                             3
 ACTION:UPD 15-02-10 17:02 OP:nd   STATUS:               ID:20141211071749 L   I
 OLDACT:DUP 14-12-11 18:22 OP:fm   STATUS:               ID:20141211070743d    3
 OLDACT:REG 14-12-11 13:03 OP:fm   STATUS:               ID:20141211070741     3
 2014-12-11-0707-41M.COL___299                                                 6
 STAT SP IPHASW D HRMM SECON CODA AMPLIT PERI AZIMU VELO AIN AR TRES W  DIS CAZ7
 BAR2 EZ EP        718  8.42                             174    0.1610 14.6 188 
 BAR2 EZ ES        718 22.57                             174   -0.5610 14.6 188 
 BAR2 EZ I         718 28.87        10.2 0.72            174           14.6 188 
 BRR  HZ EP        718 10.64                             151    0.5010 74.0 305 
 BRR  HN ES        718 26.68                             151    0.2210 74.0 305 
 BRR  HZ I         718 31.35         3.5 0.40            152           74.0 305 
 RUS  HZ EP        718 11.53                             145   -0.4810 92.2 174 
 RUS  HN ES        718 30.24                             145    0.4310 92.2 174 
 RUS  HZ I         718 32.77         1.9 0.22            151           92.2 174 
 PTB  HZ EP        718 16.05                             132    0.47 9  144 262 
 PTB  HE ES        718 35.92                             132   -0.23 9  144 262 
 PTB  HZ I         718 40.16         2.2 0.18            135            144 262 
 ZAR  HZ EP        718 20.88                             121   -0.71 8  206 295 
 ZAR  HN ES        718 46.88                             121    0.04 8  206 295 
 ZAR  HZ I         718 52.63         1.9 0.50            125            206 295 
                                                                                
