 2011  311 0026 33.1 L   6.846 -73.527114.8  RSN 15 0.3 3.0LRSN                1
 GAP= 95        0.64       2.3     3.1  6.2 -0.2543E+01  0.5955E+01 -0.2167E+00E
 Epicentro: SAN VICENTE DE CHUCURI - SANTANDER                                 3
 ACTION:UP  11-06-16 14:32 OP:jfem STATUS:               ID:20110311002633 L   I
 2011-03-11-0023-56S.COL___135                                                 6
 STAT SP IPHASW D HRMM SECON CODA AMPLIT PERI AZIMU VELO SNR AR TRES W  DIS CAZ7
 BAR2 SZ IP        026 50.36                             156     0.410   47 127 
 BAR2 SZ ES   2    027  3.06                             156     0.0 5   47 127 
 BAR2 SZ I         027  5.31       530.6 0.22                            47 127 
 RUS  HZ EP   1    026 55.12                             131    -0.3 7  116 155 
 RUS  HN ES   2    027 12.68                             131    -0.1 5  116 155 
 RUS  HZ I         027 14.45       141.8 0.27                           116 155 
 GUE  SZ EP   1    026 56.12                             128    -0.1 7  128  31 
 GRA  SZ EP   1    026 57.34                             125     0.2 7  140  35 
 GRA  SZ I         027 18.36       267.1 0.28                           140  35 
 OCA  SZ EP   1    026 58.52                             122    -0.3 7  156   8 
 OCA  SZ ES   1    027 18.87                             122     0.1 7  156   8 
 NOR  SZ EP        027  3.74                             114    -0.3 8  205 227 
 NOR  SN ES        027 27.52                             114    -0.5 8  205 227 
 YOP  SZ EP   1    027  4.36                             114     0.3 6  206 143 
 YOP  SN ES   2    027 28.12                             114    -0.1 4  206 143 
 YOP  SZ I         027 31.69       133.6 0.24                           206 143 
 HEL  HZ EP   1    027  7.91                             111     0.4 6  233 252 
 HEL  HN ES   2    027 34.25                             111     0.0 4  233 252 
 HEL  HZ I         027 40.47       138.2 0.33                           233 252 
 CHI  HZ EP   1    027  8.98                             110    -0.1 6  246 185 
 CHI  HN ES   1    027 37.32                             110     0.3 6  246 185 
 CHI  HZ I         027 42.94        52.3 0.37                           246 185 
 GUY  SZ EP   1    027 12.08                             108     0.0 6  271 229 
 GUY  SN ES   2    027 42.47                             108     0.1 4  271 229 
 DBB  SZ EP   1    027 14.65                             106     0.1 5  297 274 
 DBB  SZ I         027 48.27        19.8 0.40                           297 274 
 VIL  SZ EP   1    027 15.23                             105    -0.1 5  303 184 
 VIL  SN ES   2    027 48.08                             105    -0.1 4  303 184 
 VIL  SZ I         027 54.79        64.0 0.47                           303 184 
 TOL  SZ EP   1    027 18.55                             104     1.1 5  319 219 
 PRA  HZ EP   1    027 23.72                             101    -0.3 5  378 204 
 PRA  HN ES   2    028  3.61                             101    -0.2 3  378 204 
 SDV  BZ EP   1    027 25.31                             100    -0.5 4  391  55 
 SDV  BE ES   2    028  6.70                             100    -0.2 3  391  55 
 SDV  BZ I         028  7.92        17.5 0.38                           391  55 
                                                                                
