 2017  411 0023 32.9 L   6.792 -73.145143.6  RSN 19 0.4 2.4LRSN                1
 GAP=112        0.99       3.0     3.0  4.8  0.2312E+01  0.5250E+01  0.3241E+01E
 Epicentro: LOS SANTOS - SANTANDER                                             3
 ACTION:UPD 17-05-30 21:10 OP:jn   STATUS:               ID:20170411002332 L   I
 OLDACT:UP  17-04-11 14:52 OP:edw  STATUS:               ID:20170411001743d    3
 OLDACT:DUP 17-04-11 14:34 OP:edw  STATUS:               ID:20170411001743d    3
 OLDACT:UP  17-04-11 14:32 OP:edw  STATUS:               ID:20170411001742     3
 OLDACT:REG 17-04-11 11:42 OP:edw  STATUS:               ID:20170411001742     3
 2017-04-11-0018-00M.COL___371                                                 6
 STAT SP IPHASW D HRMM SECON CODA AMPLIT PERI AZIMU VELO AIN AR TRES W  DIS CAZ7
 BAR2 EZ EP        023 52.11                             171   -0.1310 22.5 191 
 BAR2 EZ ES        024  6.83                             171   -0.5110 22.5 191 
 BAR2 EZ I         024  8.08       109.6 0.24            168           22.5 191 
 BRR  HZ IP     C  023 53.96                             152    0.1310 71.7 299 
 BRR  HN ES        024 10.91                             152    0.7410 71.7 299 
 BRR  HZ I         024 11.94        49.9 0.24            151           71.7 299 
 PAM  EZ EP     D  023 54.98                             150    0.0710 78.0  39 
 PAM  EN ES        024 11.88                             150   -0.2110 78.0  39 
 PAM  EZ I         024 14.36        67.8 0.68            154           78.0  39 
 RUS  HZ EP     D  023 56.01                             144   -0.3510 99.7 176 
 RUS  HN ES        024 14.70                             144    0.0210 99.7 176 
 RUS  HZ I         024 15.59        39.5 0.34            143           99.7 176 
 PTB  HZ EP   9    023 58.69                             131   -0.98 0  148 259 
 PTB  HN ES        024 19.50                             131   -0.08 9  148 259 
 PTB  HZ I         024 21.91        39.0 0.16            130            148 259 
 SPBC HZ EP        024  1.13                             129   -0.03 9  163 219 
 SPBC HN ES   4    024 22.46                             129   -0.75 0  163 219 
 SPBC HZ I         024 25.09        36.5 0.24            128            163 219 
 YPLC HZ IP     D  024  2.46                             126    0.01 9  176 151 
 YPLC HN ES        024 26.03                             126    0.53 9  176 151 
 YPLC HZ I         024 28.97        13.9 0.30            127            176 151 
 ZAR  HZ EP        024  5.52                             122    0.29 9  204 292 
 ZAR  HN ES        024 30.64                             122    0.18 9  204 292 
 ZAR  HZ I         024 36.87        36.5 0.28            122            204 292 
 NOR  HZ EP   4    024  9.53                             118    1.09 0  234 235 
 NOR  HN ES        024 36.02                             118   -0.15 8  234 235 
 NOR  HZ I         024 37.80        15.1 0.30            118            234 235 
 CHI  HZ EP        024 10.23                             117   -0.14 8  248 195 
 CHI  HN ES        024 39.31                             117   -0.31 8  248 195 
 CHI  HZ I         024 43.49         6.6 0.70            116            248 195 
 ROSC BZ EP        024 11.54                             116    0.73 8  252 211 
 ROSC BN ES   4    024 42.10                             116    1.71 0  252 211 
 ROSC BZ I         024 46.22        14.5 0.30            116            252 211 
 HEL  HZ EP   4    024 14.48                             114    1.51 0  272 256 
 HEL  HN ES        024 44.46                             114    0.22 8  272 256 
 HEL  HZ I         024 52.90        11.2 0.26            114            272 256 
 URE  HZ EP        024 13.52                             113   -0.37 7  284 292 
 URE  HN ES        024 44.90                             113   -0.98 7  284 292 
 PTGC HZ IP   9 C  024 15.30                             111   -1.25 0  308 159 
 PTGC HN ES        024 48.37                             111   -0.99 7  308 159 
 PTGC HZ I         024 54.14        11.0 0.46            111            308 159 
 CBOC HZ EP   4    024 20.74                             109    1.05 0  333 252 
 CBOC HN ES        024 56.51                             109    0.32 7  333 252 
 CBOC HZ I         025  5.65         3.2 0.40            109            333 252 
 DBB  EZ EP        024 20.87                             109    0.58 7  340 274 
 DBB  EN ES        024 56.79                             109   -0.47 7  340 274 
 DBB  EZ I         024 57.92         8.7 0.20            109            340 274 
 PRA  HZ EP        024 25.32                             106   -0.93 6  391 210 
 PRA  HN ES        025  8.49                             106    0.62 6  391 210 
 PRA  HZ I         025 14.90         5.8 0.46            106            391 210 
 APAC HN ES   2    025  8.52                             106   -0.76 3  399 288 
 SJC  HZ EP   4    024 26.56                             105   -1.90 0  410 327 
 SJC  HN ES   4    025  7.50                             105   -4.32 0  410 327 
 SJC  HZ I         025 12.08         8.8 0.72            106            410 327 
                                                                                
