 2010  411 0546 25.4 L   6.611 -73.495116.3  RSN 11 0.4 2.8LRSN                1
 GAP=112        1.06       3.3     4.5  6.1 -0.4120E+01  0.1178E+02  0.3003E+01E
 Epicentro: EL CARMEN DE CHUCURI - SANTANDER                                   3
 ACTION:UPD 10-08-24 09:58 OP:vdl  STATUS:               ID:20100411054625 L   I
 2010-04-11-0545-04S.COL___097                                                 6
 STAT SP IPHASW D HRMM SECON CODA AMPLIT PERI AZIMU VELO AIN AR TRES W  DIS CAZ7
 BAR2 SZ IP        546 41.54                             162    -0.410   34  93 
 BAR2 SZ ES        546 54.43                             162    -0.310   34  93 
 BRR  HZ EP        546 42.82                             151     0.010   60 336 
 BRR  HE ES        546 56.88                             151     0.610   60 336 
 BRR  HZ I         547  2.62       155.5 0.14                            60 336 
 OCA  SZ EP        546 54.01                             118     0.2 9  181   6 
 OCA  SZ ES        547 16.12                             118     0.1 9  181   6 
 OCA  SZ I         547 24.08       181.9 0.38                           181   6 
 HEL  HZ EP        546 59.08                             112    -0.4 8  230 258 
 HEL  HN ES        547 25.27                             112    -0.8 8  230 258 
 HEL  HZ I         547 32.42        44.3 0.40                           230 258 
 RREF BZ EP        547  5.65                             108     0.2 7  279 227 
 RREF BE ES   1    547 36.63                             108    -0.1 6  279 227 
 RREF BZ I         547 44.39        29.6 0.31                           279 227 
 TOL  SZ EP        547  8.62                             106     0.9 7  302 222 
 TOL  SZ ES   1    547 41.63                             106     0.9 5  302 222 
 DBB  SZ EP        547  7.48                             106    -0.2 7  303 279 
 DBB  SZ ES        547 40.68                             106     0.1 7  303 279 
 ANIL BZ EP        547  9.96                             105     0.6 7  316 222 
 ANIL BE ES        547 43.39                             105    -0.2 7  316 222 
 MON  HZ EP        547 11.00                             104    -0.7 7  338 315 
 MON  HN ES        547 47.91                             104     0.2 7  338 315 
 MON  HZ I         548  4.84        16.3 0.60                           338 315 
 PRA  HZ EP        547 13.13                             103    -0.6 6  356 206 
 PRA  HE ES        547 51.87                             103     0.4 6  356 206 
 PRA  HZ I         547 51.97        24.3 0.27                           356 206 
 SDV  BZ EP        547 19.73                             100     0.0 6  404  51 
 SDV  BZ I         548  5.99        16.7 0.20                           404  51 
                                                                                
