 2012  111 0831 35.3 L   6.721 -73.204153.1  RSN  5 0.2 1.3LRSN                1
 GAP=223        0.49       6.6     6.6  6.2  0.2863E+02  0.7789E+01  0.8740E+01E
 Epicentro: VILLANUEVA - SANTANDER                                             3
 ACTION:UP  12-02-03 08:16 OP:REBC STATUS:               ID:20120111083135 L   I
 2012-01-11-0830-00M.COL___186                                                 6
 STAT SP IPHASW D HRMM SECON CODA AMPLIT PERI AZIMU VELO SNR AR TRES W  DIS CAZ7
 BAR2 SZ ES   2    832 11.21                             174    -0.4 5   14 170 
 BAR2 SZ I         832 11.84         3.8 0.22                            14 170 
 BRR  HZ EP   1    831 56.98                             154    -0.3 7   71 307 
 BRR  HZ I         831 57.23         3.7 0.23                            71 307 
 BRR  HE ES   1    832 14.52                             154     0.2 7   71 307 
 RUS  HZ EP   1    831 59.44                             147     0.2 7   93 172 
 RUS  HN ES   2    832 18.12                             147     0.2 5   93 172 
 PTB  HZ EP   1    832  2.19                             135     0.0 7  140 262 
 PTB  HN ES   2    832 22.86                             135    -0.3 5  140 262 
 ZAR  HN ES   2    832 33.83                             124     0.3 4  202 295 
                                                                                
