 2016  911 0839 36.1 L   6.747 -73.151146.6  RSN  5 0.4 1.3LRSN                1
 GAP=249        0.94       6.2     6.3  8.2  0.3694E+01  0.1256E+02 -0.1952E+01E
 Epicentro: LOS SANTOS - SANTANDER                                             3
 ACTION:UPD 17-08-17 21:08 OP:lp   STATUS:               ID:20160911083936 L   I
 OLDACT:REG 16-09-11 12:55 OP:dani STATUS:               ID:20160911083742     3
 2016-09-11-0838-00M.COL___330                                                 6
 STAT SP IPHASW D HRMM SECON CODA AMPLIT PERI AZIMU VELO AIN AR TRES W  DIS CAZ7
 BAR2 EZ EP        839 55.68                             173   -0.0310 17.4 191 
 BAR2 EZ ES        840 10.59                             173   -0.4310 17.4 191 
 BAR2 EZ I         840 14.21         4.1 0.48            173           17.4 191 
 BRR  HZ EP        839 57.68                             152    0.2210 73.6 303 
 BRR  HE ES        840 14.67                             152    0.5310 73.6 303 
 BRR  HZ I         840 19.68         2.8 0.66            150           73.6 303 
 PTB  HZ EP        840  2.67                             132   -0.30 9  146 261 
 PTB  HN ES        840 23.42                             132   -0.52 9  146 261 
 PTB  HZ I         840 25.58         2.5 0.32            134            146 261 
 SPBC HZ EP   4    840  5.47                             130    1.28 0  158 220 
 SPBC HE ES        840 26.66                             130    0.56 9  158 220 
 SPBC HZ I         840 29.18         1.7 0.26            133            158 220 
 ZAR  HZ EP   2    840  8.96                             122    0.20 4  206 294 
 ZAR  HN ES        840 34.15                             122   -0.10 8  206 294 
 ZAR  HZ I         840 42.55         2.5 0.50            124            206 294 
                                                                                
