 2017  111 0320 35.4 L   6.785 -73.101144.2  RSN  7 0.4 1.3LRSN                1
 GAP=143        0.93       4.4     4.6  6.8  0.3139E+00  0.1037E+02  0.3069E+01E
 Epicentro: LOS SANTOS - SANTANDER                                             3
 ACTION:UPD 17-05-22 15:58 OP:jn   STATUS:               ID:20170111032035 L   I
 OLDACT:UP  17-01-11 14:08 OP:and  STATUS:               ID:20170111031746d    3
 OLDACT:UP  17-01-11 14:08 OP:and  STATUS:               ID:20170111031746d    3
 OLDACT:UP  17-01-11 14:08 OP:and  STATUS:               ID:20170111031746d    3
 OLDACT:UP  17-01-11 14:08 OP:and  STATUS:               ID:20170111031746d    3
 OLDACT:UP  17-01-11 14:08 OP:and  STATUS:               ID:20170111031746d    3
 OLDACT:UP  17-01-11 14:07 OP:and  STATUS:               ID:20170111031746d    3
 OLDACT:UP  17-01-11 14:07 OP:and  STATUS:               ID:20170111031746d    3
 OLDACT:DUP 17-01-11 14:05 OP:and  STATUS:               ID:20170111031746d    3
 2017-01-11-0318-00M.COL___346                                                 6
 STAT SP IPHASW D HRMM SECON CODA AMPLIT PERI AZIMU VELO AIN AR TRES W  DIS CAZ7
 BAR2 EZ EP        320 54.92                             170    0.1110 23.2 203 
 BAR2 EZ ES        321  9.48                             170   -0.4910 23.2 203 
 BAR2 EZ I         321 10.70         6.8 0.11            171           23.2 203 
 PAM  EZ IP     C  320 57.68                             151    0.3610 75.7  36 
 PAM  EN ES        321 14.33                             151   -0.1110 75.7  36 
 PAM  EZ I         321 16.98         3.3 0.56            152           75.7  36 
 BRR  HZ EP        320 56.70                             151    0.0510 76.3 298 
 BRR  HN ES        321 13.44                             151    0.1910 76.3 298 
 RUS  HZ EP        320 58.79                             144   -0.0410 98.7 179 
 RUS  HN ES        321 17.47                             144    0.3310 98.7 179 
 RUS  HZ I         321 18.06         1.7 0.30            146           98.7 179 
 PTB  HZ EP        321  1.76                             131   -0.87 9  152 260 
 PTB  HN ES   4    321 22.45                             131   -1.44 0  152 260 
 PTB  HZ I         321 26.22         2.5 0.16            132            152 260 
 ZAR  HN ES        321 34.13                             121    0.23 8  209 292 
 GUY2CHZ EP   4    321 21.49                             112    2.23 0  304 236 
 GUY2CHN ES        321 53.82                             112    0.33 7  304 236 
 GUY2CHZ I         322  1.59         1.1 0.48                           304 236 
                                                                                
