 2013  111 0217 55.4 L   6.774 -73.202142.0  RSN  6 0.3 2.1LRSN                1
 GAP=229        0.64       3.4     4.2  5.2  0.7882E+01  0.1147E+01  0.2642E+01E
 Epicentro: ZAPATOCA - SANTANDER                                               3
 ACTION:UPD 13-02-15 09:13 OP:ep   STATUS:               ID:20130111021755 L   I
 2013-01-11-0210-00M.COL___242                                                 6
 STAT SP IPHASW D HRMM SECON CODA AMPLIT PERI AZIMU VELO AIN AR TRES W  DIS CAZ7
 BAR2 SZ EP        218 14.29                             172   -0.2710 20.2 174 
 BAR2 SZ I         218 31.13        51.3 0.30            174           20.2 174 
 BRR  HZ IP     D  218 16.18                             153    0.2110 67.4 303 
 BRR  HN ES        218 32.23                             153    0.2510 67.4 303 
 BRR  HN I         218 34.19        39.5 0.16            152           67.4 303 
 RUS  HZ EP        218 18.67                             144    0.0110 98.3 172 
 RUS  HN ES        218 36.65                             144   -0.1210 98.3 172 
 RUS  HN I         218 37.69        19.2 0.22            145           98.3 172 
 PTB  HZ EP        218 21.18                             133   -0.33 9  141 260 
 PTB  HN ES        218 41.80                             133   -0.03 9  141 260 
 PTB  HN I         218 46.42        14.8 0.24            134            141 260 
 ZAR  HZ EP   1    218 27.78                             122    0.61 6  199 294 
 ZAR  HN ES        218 51.63                             122   -0.29 9  199 294 
 ZAR  HN I         218 59.00        13.6 0.20            121            199 294 
 CHI  HZ EP        218 32.48                             117    0.02 8  244 194 
 CHI  HN ES        219  1.65                             117    0.32 8  244 194 
 CHI  HN I         219  4.09         3.6 0.40            117            244 194 
                                                                                
