 2014  711 0540 25.1 L   6.803 -73.156137.2  RSN  4 0.4 1.5LRSN                1
 GAP=277        0.99       8.4     6.4  8.4  0.6050E+01  0.1340E+02 -0.7025E+01E
 Epicentro: LOS SANTOS - SANTANDER                                             3
 ACTION:UPD 15-03-16 20:42 OP:nd   STATUS:               ID:20140711054025 L   I
 OLDACT:REG 14-07-11 12:43 OP:stll STATUS:               ID:20140711053819     3
 2014-07-11-0538-19M.COL___253                                                 6
 STAT SP IPHASW D HRMM SECON CODA AMPLIT PERI AZIMU VELO AIN AR TRES W  DIS CAZ7
 BAR2 SZ EP        540 43.97                             170    0.2610 23.4 187 
 BAR2 SZ ES        540 58.52                             170    0.3010 23.4 187 
 BAR2 SZ I         541  0.71        10.7 0.26            162           23.4 187 
 RUS  HZ EP        540 47.97                             142   -0.0810  101 175 
 RUS  HE ES        541  5.33                             142   -0.6210  101 175 
 RUS  HZ I         541  9.86         2.4 0.26            140            101 175 
 PTB  HZ EP        540 51.13                             130   -0.16 9  147 259 
 PTB  HN ES        541 11.27                             130   -0.44 9  147 259 
 PTB  HZ I         541 17.92         5.6 0.40            129            147 259 
 SPBC HZ EP        540 53.03                             127    0.12 9  163 219 
 SPBC HE ES        541 15.26                             127    0.66 9  163 219 
 SPBC HZ I         541 21.82         6.9 0.26            126            163 219 
                                                                                
