 2014  211 0504 34.2 L   6.810 -73.134145.9  RSN 13 0.4 2.2LRSN                1
 GAP=138        0.89       2.2     3.5  4.7 -0.1467E+01  0.6074E+01  0.3134E+00E
 Epicentro: LOS SANTOS - SANTANDER                                             3
 ACTION:UPD 14-03-10 08:09 OP:ep   STATUS:               ID:20140211050434 L   I
 OLDACT:REG 14-02-11 07:39 OP:carl STATUS:               ID:20140211050000     3
 2014-02-11-0500-00M.COL___167                                                 6
 STAT SP IPHASW D HRMM SECON CODA AMPLIT PERI AZIMU VELO AIN AR TRES W  DIS CAZ7
 BAR2 SZ IP     C  5 4 53.95                             170    0.1210 24.6 193 
 BAR2 SZ ES        5 5  9.33                             170    0.1610 24.6 193 
 BAR2 SZ I         5 5 10.67        37.1 0.28            169           24.6 193 
 PAM  SZ EP        5 4 56.63                             151    0.3410 75.7  39 
 PAM  SN ES        5 5 13.82                             151    0.2710 75.7  39 
 PAM  SZ I         5 5 16.12        22.4 0.22            155           75.7  39 
 RUS  HZ EP        5 4 57.79                             143   -0.2010  102 177 
 RUS  HN ES        5 5 16.21                             143   -0.3710  102 177 
 RUS  HZ I         5 5 17.99         7.9 0.30            146            102 177 
 PTB  HZ EP        5 5  0.83                             132   -0.44 9  149 259 
 PTB  HN ES        5 5 22.13                             132   -0.29 9  149 259 
 PTB  HZ I         5 5 27.92        23.8 0.40            132            149 259 
 OCA  HZ EP        5 5  3.10                             130    0.71 9  159 353 
 OCA  HN ES        5 5 23.97                             130   -0.44 9  159 353 
 OCA  HZ I         5 5 32.45        12.1 0.20            132            159 353 
 SPBC HZ EP        5 5  2.94                             129    0.12 9  165 219 
 SPBC HN ES        5 5 25.58                             129    0.40 9  165 219 
 SPBC HZ I         5 5 32.09        28.5 0.32            130            165 219 
 ZAR  HZ EP        5 5  6.61                             122   -0.08 9  205 292 
 ZAR  HE ES        5 5 32.26                             122    0.19 9  205 292 
 ZAR  HZ I         5 5 38.29        19.9 0.30            123            205 292 
 NOR  HZ EP        5 5 10.11                             118    0.04 8  236 234 
 NOR  HE ES        5 5 38.76                             118    0.67 8  236 234 
 NOR  HZ I         5 5 41.68        12.4 0.20            120            236 234 
 SML  HZ EP        5 5 10.56                             117   -0.18 8  243 335 
 SML  HN ES        5 5 38.57                             117   -0.71 8  243 335 
 SML  HZ I         5 5 43.55        22.5 0.10            119            243 335 
 CHI  HZ EP        5 5 11.89                             117   -0.12 8  250 195 
 CHI  HN ES        5 5 40.71                             117   -0.83 8  250 195 
 CHI  HZ I         5 5 47.05         5.0 0.44            119            250 195 
 ROSC BZ EP   4    5 5 13.26                             116    0.81 0  254 211 
 ROSC BN ES   4    5 5 43.39                             116    1.06 0  254 211 
 CBOC HZ EP        5 5 21.60                             110    0.35 7  335 252 
 CBOC HN ES        5 5 57.97                             110   -0.02 7  335 252 
 CBOC HZ I         5 6  2.11         2.4 0.22            111            335 252 
 PRA  HZ EP        5 5 27.33                             106   -0.53 6  394 210 
 PRA  HN ES        5 6  9.97                             106    0.21 6  394 210 
 PRA  HZ I         5 6 15.70         6.5 0.38            108            394 210 
 ORTC HZ EP        5 5 28.75                             106    0.48 6  397 216 
 ORTC HN ES        5 6 10.63                             106    0.15 6  397 216 
 ORTC HZ I         5 6 16.90         4.2 0.42            108            397 216 
                                                                                
