 2014 1011 0740 51.4 L   6.778 -73.140152.5  RSN 10 0.4 1.7LRSN                1
 GAP=138        0.94       3.0     4.0  6.3 -0.1271E+01  0.5450E+01 -0.1229E+01E
 Epicentro: LOS SANTOS - SANTANDER                                             3
 ACTION:UPD 14-11-29 23:48 OP:nd   STATUS:               ID:20141011074051 L   I
 OLDACT:REG 14-10-11 13:03 OP:fm   STATUS:               ID:20141011073739     3
 2014-10-11-0737-39M.COL___291                                                 6
 STAT SP IPHASW D HRMM SECON CODA AMPLIT PERI AZIMU VELO AIN AR TRES W  DIS CAZ7
 BAR2 SZ EP        741 11.96                             172    0.2010 21.1 193 
 BAR2 SZ ES   1    741 27.35                             172   -0.31 7 21.1 193 
 BAR2 SZ I         741 28.26        17.1 0.30            171           21.1 193 
 BRR  HZ EP        741 13.88                             153    0.5510 73.0 300 
 BRR  HN ES        741 31.05                             153    0.5810 73.0 300 
 BRR  HZ I         741 35.69         9.1 0.12            151           73.0 300 
 PAM  SZ EP        741 14.85                             152    0.4710 78.8  38 
 PAM  SE ES        741 32.09                             152   -0.2410 78.8  38 
 PAM  SZ I         741 34.18         8.7 0.56            155           78.8  38 
 RUS  HZ EP        741 15.39                             146   -0.2210 98.1 176 
 RUS  HN ES        741 34.56                             146    0.0410 98.1 176 
 RUS  HZ I         741 36.68         3.2 0.36            149           98.1 176 
 PTB  HZ EP        741 18.46                             133   -0.44 9  148 260 
 PTB  HN ES        741 39.95                             133   -0.43 9  148 260 
 PTB  HZ I         741 45.17         5.8 0.38            134            148 260 
 SPBC HZ EP   1    741 19.98                             131   -0.27 7  162 220 
 SPBC HE ES        741 42.60                             131   -0.18 9  162 220 
 SPBC HZ I         741 47.92         5.9 0.24            133            162 220 
 OCA  HZ EP   1    741 20.43                             131    0.00 7  163 353 
 OCA  HN ES        741 42.88                             131   -0.22 9  163 353 
 OCA  HZ I         741 47.77         3.9 0.20            133            163 353 
 ZAR  HZ EP   1    741 24.65                             124    0.24 6  206 293 
 ZAR  HN ES        741 50.64                             124    0.46 8  206 293 
 ZAR  HZ I         741 55.69         5.6 0.40            125            206 293 
 SML  HZ EP   4    741 26.99                             119   -1.64 0  246 335 
 SML  HN ES        741 56.90                             119   -0.81 8  246 335 
 SML  HZ I         742  1.52         8.5 0.10            120            246 335 
 GUY2CHZ EP   4    741 36.53                             114    1.34 0  300 235 
 GUY2CHN ES   1    742  9.69                             114    0.31 5  300 235 
 GUY2CHZ I         742 22.25         1.6 0.60                           300 235 
                                                                                
