 2012  311 0758 55.0 L   6.678 -73.166154.8  RSN  4 0.1 1.3LRSN                1
 GAP=242        0.42       6.3     4.3  5.1  0.5346E+01  0.1867E+01  0.7427E+01E
 ACTION:UP  12-03-31 23:18 OP:EP   STATUS:               ID:20120311075855 L   I
 2012-03-11-0754-45M.COL___178                                                 6
 STAT SP IPHASW D HRMM SECON CODA AMPLIT PERI AZIMU VELO SNR AR TRES W  DIS CAZ7
 BAR2 SZ EP   2    759 15.26                             176    -0.2 5   10 190 
 BAR2 SZ ES   2    759 31.45                             176    -0.1 5   10 190 
 BAR2 SZ I         759 32.57         3.7 0.44                            10 190 
 BRR  HZ EP        759 17.35                             152     0.010   77 308 
 BRR  HZ I         759 17.63         5.8 0.17                            77 308 
 BRR  HN ES        759 34.98                             152     0.110   77 308 
 PTB  HZ EP   1    759 22.55                             135     0.3 7  143 264 
 PTB  HE ES   1    759 43.54                             135    -0.1 7  143 264 
 PTB  HZ I         759 45.46         1.1 0.08                           143 264 
 ZAR  HN ES   1    759 54.23                             124    -0.2 6  207 296 
 ZAR  HZ I         8 0  0.55         2.7 0.24                           207 296 
                                                                                
