 2011  711 0654 50.0 L   6.713 -73.148144.0  RSN  6 0.2 1.6LRSN                1
 GAP=159        0.52       2.6     6.5  4.3  0.1572E+01 -0.6935E+01 -0.2429E+01E
 Epicentro: VILLANUEVA - SANTANDER                                             3
 ACTION:UPD 12-07-25 13:59 OP:epov STATUS:               ID:20110711065450 L   I
 2011-07-11-0640-00M.COL___130                                                 6
 STAT SP IPHASW D HRMM SECON CODA AMPLIT PERI AZIMU VELO AIN AR TRES W  DIS CAZ7
 BAR2 SZ EP   1    655  9.24                             174   -0.01 7 13.9 196 
 BAR2 SZ ES   1    655 24.10                             174   -0.17 7 13.9 196 
 BAR2 SZ I         655 25.34        12.6 0.12                          13.9 196 
 BTL  SZ EP   1    655  9.41                             169   -0.06 7 26.3 330 
 BTL  SZ ES        655 24.39                             169   -0.2810 26.3 330 
 BRR  HZ EP   1    655 11.08                             150   -0.15 7 76.1 305 
 BRR  HE ES   1    655 28.25                             150    0.45 7 76.1 305 
 BRR  HZ I         655 30.50         8.7 0.12                          76.1 305 
 RUS  HZ EP   1    655 13.08                             146    0.19 7 91.0 175 
 RUS  HN ES   1    655 30.88                             146    0.13 7 91.0 175 
 RUS  HZ I         655 32.76         5.4 0.26                          91.0 175 
 GRA  SZ EP   1    655 16.10                             134    0.23 7  135  16 
 GRA  SZ ES   1    655 36.30                             134    0.25 7  135  16 
 GRA  SZ I         655 37.20         4.3 0.39                           135  16 
 OCA  SZ EP   1    655 18.69                             127   -0.38 7  170 354 
 OCA  SZ ES   1    655 41.76                             127    0.00 7  170 354 
 OCA  SZ I         655 43.40         6.1 0.16                           170 354 
                                                                                
