 2017  311 0516 21.1 L   6.804 -73.121152.7  RSN 14 0.5 1.5LRSN                1
 GAP=121        0.96       3.7     3.8  5.5 -0.1141E+01  0.4799E+01 -0.1407E+01E
 Epicentro: LOS SANTOS - SANTANDER                                             3
 ACTION:UPD 17-05-25 18:39 OP:jn   STATUS:               ID:20170311051621 L   I
 OLDACT:UP  17-03-11 14:40 OP:and  STATUS:               ID:20170311050741     3
 OLDACT:UP  17-03-11 14:40 OP:and  STATUS:               ID:20170311050741     3
 OLDACT:UP  17-03-11 14:39 OP:and  STATUS:               ID:20170311050741     3
 OLDACT:UP  17-03-11 14:39 OP:and  STATUS:               ID:20170311050741     3
 OLDACT:UP  17-03-11 14:37 OP:and  STATUS:               ID:20170311050741     3
 OLDACT:UP  17-03-11 14:37 OP:and  STATUS:               ID:20170311050741     3
 OLDACT:UP  17-03-11 14:36 OP:and  STATUS:               ID:20170311050741     3
 OLDACT:REG 17-03-11 12:37 OP:and  STATUS:               ID:20170311050741     3
 2017-03-11-0508-00M.COL___388                                                 6
 STAT SP IPHASW D HRMM SECON CODA AMPLIT PERI AZIMU VELO AIN AR TRES W  DIS CAZ7
 BAR2 EZ EP        516 41.67                             170    0.0510 24.4 196 
 BAR2 EZ ES        516 56.94                             170   -0.6610 24.4 196 
 BAR2 EZ I         516 57.86         8.4 0.28            168           24.4 196 
 BRR  HZ EP        516 43.46                             153    0.3010 73.4 297 
 BRR  HN ES   2    517  1.24                             153    0.90 5 73.4 297 
 BRR  HZ I         517  3.99         4.6 0.14            151           73.4 297 
 PAM  EZ IP     D  516 44.49                             152    0.5210 75.3  38 
 PAM  EN ES        517  1.73                             152   -0.0610 75.3  38 
 PAM  EZ I         517  3.77         2.4 0.44            156           75.3  38 
 RUS  HZ EP        516 45.98                             145    0.3910  101 178 
 RUS  HN ES        517  4.44                             145   -0.2310  101 178 
 RUS  HZ I         517  5.46         2.7 0.24            144            101 178 
 PTB  HZ EP        516 48.56                             133   -0.37 9  151 259 
 PTB  HN ES        517 10.00                             133   -0.60 9  151 259 
 PTB  HZ I         517 14.28         2.7 0.11            132            151 259 
 SPBC HZ EP        516 50.62                             130    0.25 9  165 220 
 SPBC HN ES        517 13.65                             130    0.48 9  165 220 
 SPBC HZ I         517 14.61         6.7 0.10            129            165 220 
 ZAR  HZ EP        516 54.27                             123   -0.01 8  206 292 
 ZAR  HN ES        517 20.28                             123    0.14 8  206 292 
 ZAR  HZ I         517 25.96         4.1 0.26            123            206 292 
 CHI  HZ EP   3    516 58.09                             118   -1.26 2  250 196 
 CHI  HN ES   2    517 30.18                             118    1.02 4  250 196 
 CHI  HZ I         517 36.69         1.0 0.20            118            250 196 
 ROSC BZ EP   9    517  1.44                             118    1.60 0  255 212 
 ROSC BN ES        517 31.41                             117   -0.22 8  255 212 
 ROSC BZ I         517 36.17         2.9 0.35            118            255 212 
 GUY2CHZ EP   4    517  8.16                             113    2.81 0  304 235 
 GUY2CHN ES   4    517 43.96                             113    4.12 0  304 235 
 GUY2CHZ  IAML     517 48.29         2.1 0.48                           304 235 
 PTGC HZ EP        517  4.73                             113   -0.51 7  308 159 
 CBOC HZ EP   3    517 10.12                             111    1.46 2  336 252 
 CBOC HN ES        517 45.81                             111    0.08 7  336 252 
 PRA  HZ EP   9    517 16.59                             107    1.48 0  394 210 
 PRA  HE ES   2    517 58.73                             108    0.04 3  394 210 
 PRA  HZ I         518  2.48         1.7 0.32            108            394 210 
 SJC  HZ EP        517 16.04                             106   -1.03 6  410 327 
 SJC  HN ES   4    517 57.88                             106   -2.81 0  410 327 
                                                                                
