 2017  111 1410 52.9 L   6.283 -74.024 20.7  RSN  5 0.3 1.2LRSN                1
 GAP=188        0.72       2.8     2.0  5.2  0.2626E+01 -0.3922E+00 -0.1710E+01E
 Epicentro: CIMITARRA - SANTANDER                                              3
 ACTION:UPD 17-05-22 15:58 OP:jn   STATUS:               ID:20170111141052 L   I
 OLDACT:UP  17-04-20 12:28 OP:nlst STATUS:               ID:20170111141052 L   3
 OLDACT:REG 17-01-11 19:34 OP:ar   STATUS:               ID:20170111140759     3
 2017-01-11-1407-59S.COL___309                                                 6
 STAT SP IPHASW D HRMM SECON CODA AMPLIT PERI AZIMU VELO AIN AR TRES W  DIS CAZ7
 PTB  HZ IP     D 1411  2.38                             108   -0.0110 55.6 301 
 PTB  HN ES       1411  9.77                             108    0.0210 55.6 301 
 PTB  HZ I        1411 10.62        13.2 0.10            107           55.6 301 
 BRR  HZ EP       1411  8.03                             100   -0.5110 97.5  21 
 BRR  HN ES       1411 20.97                             100    0.2610 97.5  21 
 BRR  HZ I        1411 21.44        10.0 0.34             61           97.5  21 
 BAR2 EZ EP   2   1411  9.95                             100    0.90 5 99.2  70 
 BAR2 EZ ES   2   1411 21.23                             100   -0.38 5 99.2  70 
 BAR2 EZ I        1411 24.47         7.6 0.38             61           99.2  70 
 RUS  HZ EP       1411 11.53                              99    0.1910  113 112 
 RUS  HN ES       1411 25.58                              99   -0.1010  113 112 
 RUS  HZ I        1411 26.32         3.3 0.24             61            113 112 
 ZAR  HN ES   1   1411 35.94                              56    0.03 7  162 325 
                                                                                
