 2016  611 1028 49.9 L   6.449 -73.748 95.9  RSN  7 0.3 1.4LRSN                1
 GAP= 86        0.74       2.7     2.4  5.6 -0.1356E+01  0.3301E+01  0.4671E+01E
 Epicentro: SANTA HELENA DEL OPON - SANTANDER                                  3
 ACTION:UPD 16-07-21 22:17 OP:rebc STATUS:               ID:20160611102849 L   I
 OLDACT:UP  16-06-11 22:19 OP:edw  STATUS:               ID:20160611102742     3
 OLDACT:REG 16-06-11 20:41 OP:edw  STATUS:               ID:20160611102742     3
 2016-06-11-1027-42M.COL___331                                                 6
 STAT SP IPHASW D HRMM SECON CODA AMPLIT PERI AZIMU VELO AIN AR TRES W  DIS CAZ7
 BAR2 EZ EP       1029  5.71                             144   -0.0310 64.6  76 
 BAR2 EZ ES       1029 18.22                             144    0.0910 64.6  76 
 BAR2 EZ I        1029 20.43         9.2 0.28                          64.6  76 
 BRR  HZ EP       1029  5.91                             140   -0.1310 72.9   3 
 BRR  HN ES       1029 19.14                             140    0.4810 72.9   3 
 PTB  HZ EP   4   1029  5.65                             138   -0.91 0 78.9 277 
 PTB  HN ES       1029 18.99                             138   -0.5910 78.9 277 
 PTB  HZ I        1029 19.91         7.5 0.17                          78.9 277 
 SPBC HZ EP       1029  7.93                             132   -0.1510 95.1 202 
 SPBC HN ES       1029 22.34                             132    0.0510 95.1 202 
 SPBC HZ I        1029 24.59         7.9 0.11                          95.1 202 
 RUS  HZ EP       1029  8.68                             132   -0.0210 95.9 130 
 RUS  HN ES       1029 23.27                             132   -0.1210 95.9 130 
 RUS  HZ I        1029 24.81         2.8 0.24                          95.9 130 
 NOR  HZ EP       1029 14.29                             117   -0.19 9  158 232 
 NOR  HE ES       1029 33.93                             117    0.24 9  158 232 
 NOR  HZ I        1029 35.43         6.3 0.14                           158 232 
 GUY2CHZ EP       1029 22.59                             109    0.01 8  224 233 
 GUY2CHE ES       1029 48.67                             109    0.56 8  224 233 
 GUY2CHZ I        1029 56.17         2.9 0.34                           224 233 
 PRA  HZ EP   4   1029 34.19                             102   -0.15 0  328 203 
 PRA  HN ES   4   1030  8.77                             102   -0.26 0  328 203 
                                                                                
