 2014 1211 1245 33.3 L   6.831 -73.179138.5  RSN 11 0.6 1.9LRSN                1
 GAP=131        1.46       4.1     5.5  7.7 -0.1831E+01  0.1270E+02  0.3836E+01E
 Epicentro: ZAPATOCA - SANTANDER                                               3
 ACTION:UPD 15-02-10 17:02 OP:nd   STATUS:               ID:20141211124533 L   I
 OLDACT:DUP 14-12-12 00:02 OP:stll STATUS:               ID:20141211123746d    3
 OLDACT:ARG 14-12-11 21:09 OP:stll STATUS:               ID:20141211123745     3
 2014-12-11-1237-45M.COL___298                                                 6
 STAT SP IPHASW D HRMM SECON CODA AMPLIT PERI AZIMU VELO AIN AR TRES W  DIS CAZ7
 BAR2 EZ EP       1245 52.33                             169    0.1610 26.4 181 
 BAR2 EZ ES       1246  7.09                             169    0.2410 26.4 181 
 BAR2 EZ I        1246  8.80        30.6 0.32            167           26.4 181 
 BRR  HZ EP       1245 54.24                             153    0.8010 66.4 297 
 BRR  HN ES       1246  9.48                             153    0.3810 66.4 297 
 PAM  SZ EP       1245 55.27                             149    0.4910 77.2  43 
 PAM  SN ES       1246 11.66                             149    0.1610 77.2  43 
 RUS  HZ EP       1245 56.41                             141   -0.2610  104 174 
 RUS  HN ES       1246 14.46                             141   -0.4010  104 174 
 RUS  HZ I        1246 15.87         4.6 0.26            141            104 174 
 PTB  HZ EP       1245 59.21                             131   -0.26 9  145 257 
 PTB  HN ES       1246 19.49                             131   -0.35 9  145 257 
 PTB  HZ I        1246 22.03         7.2 0.18            130            145 257 
 SPBC HZ EP       1246  1.35                             127    0.01 9  164 217 
 SPBC HN ES       1246 23.16                             127   -0.02 9  164 217 
 SPBC HZ I        1246 27.60        16.5 0.42            127            164 217 
 ZAR  HN ES       1246 28.94                             121   -0.47 9  199 292 
 ZAR  HZ I        1246 35.42         7.7 0.36            121            199 292 
 SML  HZ EP       1246  8.99                             116   -0.08 8  239 336 
 SML  HE ES       1246 35.55                             116   -1.38 8  239 336 
 CHI  HZ EP       1246 11.00                             115    0.08 8  251 194 
 CHI  HN ES       1246 38.48                             115   -1.74 8  251 194 
 CHI  HZ I        1246 43.31         5.5 0.58            116            251 194 
 GUY2CHZ EP       1246 16.64                             111    0.12 7  300 234 
 GUY2CHE ES       1246 50.60                             111    0.41 7  300 234 
 GUY2CHZ I        1246 58.58         3.5 0.58                           300 234 
 RREF HZ EP       1246 19.94                             109    0.81 7  321 228 
 RREF HE ES       1246 56.15                             109    1.31 7  321 228 
 RREF HZ I        1247  4.23         4.2 0.42            110            321 228 
                                                                                
