 2012  811 1930 12.6 L   6.759 -73.124140.6  RSN  8 0.3 2.1LRSN                1
 GAP=141        0.61       2.7     3.0  4.0  0.1548E+00  0.2506E+01  0.2069E+01E
 Epicentro: LOS SANTOS - SANTANDER                                             3
 ACTION:UP  12-09-10 11:55 OP:ep   STATUS:               ID:20120811193012 L   I
 2012-08-11-1930-00M.COL___219                                                 6
 STAT SP IPHASW D HRMM SECON CODA AMPLIT PERI AZIMU VELO AIN AR TRES W  DIS CAZ7
 BAR2 SZ EP       1930 31.69                             172    0.1110 19.5 199 
 BAR2 SZ ES       1930 46.22                             172   -0.1210 19.5 199 
 BAR2 SZ I        1930 48.04        64.5 0.07                          19.5 199 
 BRR  HZ EP       1930 33.49                             150    0.0010 75.5 301 
 BRR  HN ES       1930 50.25                             150    0.5010 75.5 301 
 BRR  HZ I        1930 54.82        19.9 0.24                          75.5 301 
 PAM  SZ EP       1930 34.45                             149    0.0110 79.5  36 
 PAM  SZ I        1930 34.84        34.4 0.22                          79.5  36 
 PAM  SN ES   1   1930 50.92                             149   -0.52 7 79.5  36 
 RUS  HZ EP       1930 35.68                             144    0.1310 95.9 177 
 RUS  HN ES       1930 53.48                             144    0.0710 95.9 177 
 RUS  HZ I        1930 55.57        13.0 0.37                          95.9 177 
 PTB  HZ EP   1   1930 39.37                             130    0.03 7  149 261 
 PTB  HE ES   1   1930 59.57                             130   -0.59 7  149 261 
 ZAR  HN ES   1   1931 10.31                             121   -0.23 6  208 293 
 ZAR  HZ I        1931 16.57        12.6 0.12                           208 293 
 NOR  SZ EP       1930 48.18                             117    0.17 8  234 236 
 NOR  SN ES   1   1931 15.50                             117   -0.09 6  234 236 
 NOR  SZ I        1931 17.46         7.1 0.17                           234 236 
 CHI  HZ EP   1   1930 49.38                             116   -0.27 6  245 196 
 CHI  HN ES   1   1931 18.42                             116   -0.09 6  245 196 
 CHI  HZ I        1931 25.26         5.4 0.37                           245 196 
                                                                                
