 2013  711 1613 39.7 L   6.730 -73.193140.9  RSN  4 0.3 1.5LRSN                1
 GAP=227        0.83       7.0     6.8  7.2  0.2752E+02  0.1333E+02  0.1008E+02E
 Epicentro: VILLANUEVA - SANTANDER                                             3
 ACTION:UPD 13-08-12 10:37 OP:ep   STATUS:               ID:20130711161339 L   I
 OLDACT:DUP 13-07-11 18:23 OP:stll STATUS:               ID:20130711160853d    3
 2013-07-11-1608-51M.COL___227                                                 6
 STAT SP IPHASW D HRMM SECON CODA AMPLIT PERI AZIMU VELO AIN AR TRES W  DIS CAZ7
 BAR2 SZ ES       1614 12.92                             174   -0.4610 15.3 176 
 BAR2 SZ I        1614 14.77         6.1 0.18            168           15.3 176 
 BRR  HZ EP   1   1614  0.28                             152   -0.06 7 70.9 306 
 BRR  HE ES       1614 16.80                             152    0.3810 70.9 306 
 BRR  HE I        1614 17.95        12.4 0.44            150           70.9 306 
 RUS  HZ EP       1614  2.84                             145    0.3510 93.4 173 
 RUS  HN ES       1614 20.33                             145    0.0910 93.4 173 
 RUS  HN I        1614 21.60         4.0 0.36            144           93.4 173 
 PTB  HZ EP       1614  5.28                             132   -0.44 9  141 262 
 PTB  HN ES       1614 26.05                             132    0.06 9  141 262 
 PTB  HN I        1614 31.62         3.7 0.20            130            141 262 
                                                                                
