 2013  311 1808 55.7 L   6.803 -73.157144.0  RSN  4 0.3 1.7LRSN                1
 GAP=135        0.56       4.9     4.4  9.0  0.1074E+01 -0.7203E+01 -0.1564E+02E
 Epicentro: LOS SANTOS - SANTANDER                                             3
 ACTION:UPD 13-04-09 14:01 OP:ep   STATUS:               ID:20130311180855 L   I
 2013-03-11-1804-49M.COL___210                                                 6
 STAT SP IPHASW D HRMM SECON CODA AMPLIT PERI AZIMU VELO AIN AR TRES W  DIS CAZ7
 BRR  HZ EP   1   18 9 17.01                             153    0.42 7 69.9 299 
 BRR  HE ES   2   18 9 32.47                             153   -0.41 5 69.9 299 
 BRR  HZ I        18 9 51.22        19.2 0.42            151           69.9 299 
 PAM  SZ EP       18 9 17.74                             150   -0.0210 77.9  40 
 RUS  HZ EP   1   18 9 18.92                             143   -0.39 7  101 175 
 RUS  HN ES   1   18 9 37.97                             143    0.24 7  101 175 
 RUS  HN I        18 9 39.66         4.1 0.27            171            101 175 
 PTB  HZ EP   1   18 9 22.40                             132   -0.02 7  147 259 
 PTB  HE ES   1   18 9 43.22                             132   -0.04 7  147 259 
                                                                                
