 2015 1011 1510 57.6 L   6.815 -73.127149.8  RSN  9 0.3 1.6LRSN                1
 GAP=138        0.62       2.3     3.7  4.5  0.1151E+01  0.2900E+01  0.1049E+01E
 Epicentro: LOS SANTOS - SANTANDER                                             3
 ACTION:UPD 15-12-22 20:39 OP:cam  STATUS:               ID:20151011151057 L   I
 OLDACT:REG 15-10-11 20:49 OP:spq  STATUS:               ID:20151011150748     3
 2015-10-11-1507-48M.COL___337                                                 6
 STAT SP IPHASW D HRMM SECON CODA AMPLIT PERI AZIMU VELO AIN AR TRES W  DIS CAZ7
 BAR2 EZ EP       1511 17.46                             170   -0.3010 25.4 194 
 BAR2 EZ ES   1   1511 32.90                             170   -0.59 7 25.4 194 
 BAR2 EZ I        1511 34.07         7.7 0.22            169           25.4 194 
 BRR  HZ EP       1511 19.40                             153    0.1510 72.3 297 
 BRR  HN ES       1511 36.43                             153    0.3010 72.3 297 
 BRR  HZ I        1511 38.91         7.2 0.18            150           72.3 297 
 PAM  EN ES   1   1511 38.10                             152    0.45 7 74.8  39 
 PAM  EZ I        1511 39.89         6.8 0.32            154           74.8  39 
 RUS  HZ EP   1   1511 21.83                             144   -0.03 7  102 177 
 RUS  HN ES   1   1511 40.87                             144    0.08 7  102 177 
 RUS  HZ I        1511 41.56         4.4 0.24            145            102 177 
 OCA  HZ EP   1   1511 25.95                             131   -0.15 7  159 352 
 OCA  HE ES   1   1511 47.98                             131   -0.35 7  159 352 
 OCA  HZ I        1511 51.73        10.1 0.15            131            159 352 
 ZAR  HN ES       1511 55.83                             123   -0.24 8  205 291 
 ZAR  HZ I        1512  1.26         2.5 0.23            122            205 291 
 NOR  HN ES   1   1512  2.14                             119    0.01 6  237 234 
 NOR  HZ I        1512  6.38         3.1 0.24            118            237 234 
 SML  HZ EP   1   1511 34.51                             118    0.12 6  243 335 
 SML  HE ES   1   1512  3.37                             118    0.29 6  243 335 
 SML  HZ I        1512  6.62         7.0 0.10            118            243 335 
 CHI  HZ EP       1511 35.76                             118   -0.00 8  251 196 
 CHI  HN ES   1   1512  5.98                             118    0.46 6  251 196 
 CHI  HZ I        1512 11.32         1.6 0.34            118            251 196 
                                                                                
