 2012  711 1822  5.1 L   6.805 -73.138146.8  RSN  6 0.3 2.0LRSN                1
 GAP=137        0.93       5.3     4.7  6.6  0.1028E+01  0.6980E+01  0.2190E+01E
 Epicentro: LOS SANTOS - SANTANDER                                             3
 ACTION:UPD 12-08-14 11:44 OP:ep   STATUS:               ID:20120711182205 L   I
 2012-07-11-1820-00M.COL___193                                                 6
 STAT SP IPHASW D HRMM SECON CODA AMPLIT PERI AZIMU VELO AIN AR TRES W  DIS CAZ7
 BAR2 SZ EP       1822 25.00                             170     0.110   24 192 
 BAR2 SZ I        1822 25.35        15.2 0.39            171             24 192 
 BAR2 SZ ES       1822 40.45                             170     0.110   24 192 
 BRR  HZ EP       1822 26.60                             153     0.210   72 298 
 BRR  HE ES       1822 43.39                             153     0.410   72 298 
 BRR  HZ I        1822 47.95        27.9 0.44            149             72 298 
 PAM  SZ EP       1822 27.52                             151     0.110   76  39 
 PAM  SE ES       1822 44.30                             151    -0.510   76  39 
 RUS  HZ EP       1822 29.22                             144     0.210  101 177 
 RUS  HE ES   1   1822 47.53                             144    -0.1 7  101 177 
 PTB  HZ EP       1822 31.61                             132    -0.7 9  149 259 
 PTB  HN ES   1   1822 53.04                             132    -0.4 7  149 259 
 PTB  HZ I        1822 55.38         7.1 0.14            131            149 259 
 ZAR  HZ EP   1   1822 38.22                             123     0.5 6  205 292 
 ZAR  HN ES   1   1823  2.93                             123    -0.2 6  205 292 
 ZAR  HZ I        1823  9.14        12.4 0.21            122            205 292 
