 2017  511 1906 58.9 L   6.817 -73.176144.7  RSN  4 0.2 0.9LRSN                1
 GAP=132        0.59       3.2     2.8  6.5 -0.1077E+00  0.5834E+01  0.6705E-01E
 Epicentro: ZAPATOCA - SANTANDER                                               3
 ACTION:UPD 17-06-16 13:35 OP:jn   STATUS:               ID:20170511190658 L   I
 OLDACT:DUP 17-05-12 00:06 OP:lv   STATUS:               ID:20170511185741d    3
 2017-05-11-1858-00M.COL___371                                                 6
 STAT SP IPHASW D HRMM SECON CODA AMPLIT PERI AZIMU VELO AIN AR TRES W  DIS CAZ7
 PAM  EZ EP       19 7 21.26                             150    0.1910 78.1  42 
 PAM  EN ES       19 7 38.19                             150   -0.1610 78.1  42 
 PAM  EZ I        19 7 40.50         0.9 0.18            152           78.1  42 
 RUS  HZ EP       19 7 22.45                             143   -0.2810  103 174 
 RUS  HN ES       19 7 41.57                             143    0.2710  103 174 
 RUS  HZ I        19 7 42.08         1.9 0.14            146            103 174 
 PTB  HZ EP       19 7 25.57                             132    0.03 9  145 258 
 PTB  HN ES       19 7 46.07                             132   -0.24 9  145 258 
 PTB  HZ I        19 7 47.96         1.1 0.14            134            145 258 
 ZAR  HN ES       19 7 56.08                             123    0.23 9  200 292 
                                                                                
