 2011  411 1234 45.0 L   6.719 -73.059145.2  RSN  5 0.3 1.6LRSN                1
 GAP=194        0.65       7.0     7.0  7.4 -0.1708E+02 -0.1372E+02 -0.2251E+01E
 Epicentro: ARATOCA - SANTANDER                                                3
 ACTION:UP  11-06-22 15:30 OP:REBC STATUS:               ID:20110411123445 L   I
 2011-04-11-1229-42S.COL___138                                                 6
 STAT SP IPHASW D HRMM SECON CODA AMPLIT PERI AZIMU VELO SNR AR TRES W  DIS CAZ7
 BAR2 SZ ES   1   1235 19.75                             172     0.0 7   20 224 
 BAR2 SZ I        1235 21.84         7.5 0.72                            20 224 
 BTL  SZ EP       1235  5.14                             167     0.310   32 314 
 PAM  SZ EP   2   1235  7.06                             150    -0.2 5   79  30 
 PAM  SN ES   2   1235 24.23                             150    -0.4 5   79  30 
 BRR  HZ EP   1   1235  6.79                             149    -0.1 7   84 301 
 BRR  HZ I        1235 18.15        13.0 0.40                            84 301 
 BRR  HE ES       1235 23.79                             149    -0.110   84 301 
 GRA  SZ EP   1   1235 10.45                             135    -0.3 7  132  12 
 GRA  SZ ES   1   1235 31.17                             135     0.4 7  132  12 
 GRA  SZ I        1235 32.75         3.8 0.30                           132  12 
                                                                                
