 2013  811 1452 22.9 L   6.310 -73.638106.1  RSN  6 0.3 1.5LRSN                1
 GAP=103        0.80       3.5     3.8  8.0  0.5418E+01  0.8283E+01  0.6074E+01E
 Epicentro: SANTA HELENA DEL OPON - SANTANDER                                  3
 ACTION:UPD 14-01-14 09:01 OP:ep   STATUS:               ID:20130811145222 L   I
 OLDACT:REG 13-08-11 17:28 OP:jn   STATUS:               ID:20130811144959     3
 2013-08-11-1449-59M.COL___271                                                 6
 STAT SP IPHASW D HRMM SECON CODA AMPLIT PERI AZIMU VELO AIN AR TRES W  DIS CAZ7
 BAR2 SZ EP       1452 39.62                             148    0.1510 59.3  58 
 BAR2 SZ ES       1452 52.63                             148    0.2410 59.3  58 
 BAR2 SZ I        1452 53.98        20.9 0.40            150           59.3  58 
 RUS  HZ EP       1452 40.89                             141   -0.1610 76.8 127 
 RUS  HN ES       1452 54.91                             141   -0.2910 76.8 127 
 RUS  HZ I        1452 57.04         2.7 0.29            140           76.8 127 
 BRR  HZ EP       1452 40.98                             137   -0.3210 88.6 355 
 BRR  HN ES       1452 55.89                             137    0.2410 88.6 355 
 BRR  HZ I        1452 56.86         7.9 0.12            137           88.6 355 
 PTB  HN ES       1452 56.18                             135   -0.3410 94.0 286 
 PTB  HZ I        1452 56.99         9.5 0.32            133           94.0 286 
 CHI  HN ES   1   1453 14.76                             115    0.73 7  186 183 
 CHI  HZ I        1453 19.47         1.6 0.20            114            186 183 
 ZAR  HE ES   1   1453 13.88                             114    0.42 7  188 314 
 ZAR  HZ I        1453 18.37         7.4 0.42            114            188 314 
                                                                                
