 2012  911 1440 34.1 L   6.798 -73.114146.3  RSN 10 0.4 2.3LRSN                1
 GAP=141        0.78       3.9     4.3  5.9 -0.8696E+00  0.5145E+01  0.7830E+01E
 Epicentro: LOS SANTOS - SANTANDER                                             3
 ACTION:UPD 12-10-22 14:18 OP:ep   STATUS:               ID:20120911144034 L   I
 2012-09-11-1440-00M.COL___227                                                 6
 STAT SP IPHASW D HRMM SECON CODA AMPLIT PERI AZIMU VELO AIN AR TRES W  DIS CAZ7
 BAR2 SZ EP   1   1440 53.75                             170   -0.01 7 23.9 198 
 BAR2 SZ ES   1   1441  8.86                             170   -0.28 7 23.9 198 
 BAR2 SZ I        1441 11.50        90.1 0.32                          23.9 198 
 GIR2 SZ EP   1   1440 53.99                             167    0.17 7 32.3 344 
 GIR2 SZ ES   1   1441  8.48                             167   -0.76 7 32.3 344 
 BRR  HZ EP       1440 55.56                             151    0.1210 74.4 297 
 BRR  HZ I        1440 55.78        21.2 0.14                          74.4 297 
 BRR  HN ES   1   1441 12.89                             151    0.76 7 74.4 297 
 PAM  SZ EP   1   1440 56.48                             151    0.27 7 75.4  37 
 PAM  SZ I        1440 56.82        52.5 0.24                          75.4  37 
 PAM  SN ES   1   1441 13.79                             151    0.29 7 75.4  37 
 RUS  HZ EP   1   1440 57.59                             144   -0.24 7  100 178 
 RUS  HN ES   1   1441 16.19                             144   -0.18 7  100 178 
 RUS  HZ I        1441 19.28        16.8 0.34                           100 178 
 PTB  HE ES   1   1441 22.58                             131   -0.10 7  151 259 
 PTB  HN I        1441 27.37        57.2 0.42                           151 259 
 ZAR  HE ES   1   1441 32.05                             122   -0.43 6  207 292 
 NOR  SZ EP   1   1441  9.56                             118   -0.54 6  237 235 
 NOR  SN ES   1   1441 38.57                             118    0.35 6  237 235 
 CHI  HZ EP   1   1441 11.64                             117   -0.22 6  249 196 
 CHI  HZ I        1441 12.99         7.7 0.17                           249 196 
 CHI  HE ES   1   1441 42.15                             117    0.81 6  249 196 
 PRA  HZ EP   1   1441 27.53                             106   -0.24 4  394 210 
 PRA  HZ I        1442 16.66         9.0 0.22                           394 210 
                                                                                
