 2010 1111 1129 12.8 L   6.793 -73.090146.5  RSN 12 0.4 2.6LRSN                1
 GAP=189        0.76       3.4     5.2  5.6 -0.6248E+01  0.6204E+01  0.3521E+01E
 Epicentro: LOS SANTOS - SANTANDER                                             3
 ACTION:UP  10-12-17 16:51 OP:REBC STATUS:               ID:20101111112912 L   I
 2010-11-11-1126-00S.COL___124                                                 6
 STAT SP IPHASW D HRMM SECON CODA AMPLIT PERI AZIMU VELO SNR AR TRES W  DIS CAZ7
 BAR2 SZ IP       1129 32.60                             170     0.010   25 205 
 BAR2 SZ ES   1   1129 47.61                             170    -0.3 7   25 205 
 BAR2 SZ I        1129 50.58        62.8 0.41                            25 205 
 BRR  HZ EP       1129 34.45                             150     0.110   77 297 
 BRR  HN ES   1   1129 51.62                             150     0.4 7   77 297 
 BRR  HZ I        1129 53.74        62.2 0.17                            77 297 
 RUS  HZ EP       1129 36.46                             144    -0.110  100 180 
 RUS  HN ES   2   1129 54.98                             144    -0.1 5  100 180 
 RUS  HZ I        1129 56.54        23.5 0.29                           100 180 
 OCA  SZ EP       1129 41.23                             129    -0.1 9  162 351 
 OCA  SZ ES   1   1130  3.58                             129     0.0 7  162 351 
 OCA  SZ I        1130  9.09        38.1 0.33                           162 351 
 NOR  SZ EP       1129 48.55                             118    -0.5 8  239 236 
 NOR  SN ES   1   1130 16.89                             118    -0.5 6  239 236 
 ROSC BZ EP   1   1129 51.63                             116     0.4 6  255 212 
 ROSC BN ES   1   1130 22.00                             116     0.8 6  255 212 
 ROSC BZ I        1130 30.43        26.9 0.47                           255 212 
 HEL  HZ EP   2   1129 53.90                             114     0.2 4  278 256 
 HEL  HN ES   2   1130 25.00                             114    -0.6 4  278 256 
 HEL  HZ I        1130 31.87        17.7 0.36                           278 256 
 GUY  SZ EP   1   1129 57.68                             112     0.7 5  306 236 
 GUY  SN ES       1130 31.75                             112     0.3 7  306 236 
 GUY  SZ I        1130 40.11        39.9 0.45                           306 236 
 RREF HZ EP   1   1129 59.86                             111     0.4 5  326 230 
 RREF HN ES   2   1130 34.92                             111    -0.9 3  326 230 
 RREF HZ I        1130 43.71        22.4 0.26                           326 230 
 TOL  SZ EP   2   1130  1.79                             109     0.2 3  347 225 
 ANIL HZ EP   2   1130  2.75                             108    -0.3 3  361 225 
 ANIL HN ES   2   1130 43.09                             108     0.8 3  361 225 
 ANIL HZ I        1130 49.27        43.1 0.47                           361 225 
 PRA  HZ EP   1   1130  6.17                             106    -0.5 4  394 210 
 PRA  HE ES   2   1130 48.19                             106    -0.4 3  394 210 
                                                                                
