 2013  811 1033 57.0 L   6.786 -73.158145.7  RSN 14 0.3 2.2LRSN                1
 GAP=136        0.78       2.7     3.5  4.4 -0.1572E+01  0.3937E+01  0.3018E+01E
 Epicentro: LOS SANTOS - SANTANDER                                             3
 ACTION:UPD 14-01-14 09:01 OP:ep   STATUS:               ID:20130811103357 L   I
 OLDACT:REG 13-08-11 17:06 OP:jn   STATUS:               ID:20130811102959     3
 2013-08-11-1029-59M.COL___270                                                 6
 STAT SP IPHASW D HRMM SECON CODA AMPLIT PERI AZIMU VELO AIN AR TRES W  DIS CAZ7
 BAR2 SZ EP       1034 16.58                             171    0.0110 21.6 187 
 BAR2 SZ ES       1034 31.66                             171   -0.1910 21.6 187 
 BAR2 SZ I        1034 33.20        50.2 0.22            167           21.6 187 
 GIR2 SZ EP       1034 16.57                             167   -0.1110 32.6 353 
 GIR2 SZ ES       1034 32.28                             167    0.2310 32.6 353 
 GIR2 SZ I        1034 33.23        25.3 0.12            167           32.6 353 
 BRR  HZ EP       1034 18.40                             153    0.3010 70.8 300 
 BRR  HN ES       1034 35.07                             153    0.5010 70.8 300 
 BRR  HZ I        1034 38.10        33.1 0.30            150           70.8 300 
 PAM  SZ EP       1034 19.54                             150    0.2310 79.4  40 
 PAM  SN ES       1034 36.60                             150   -0.1310 79.4  40 
 PAM  SZ I        1034 39.70        20.2 0.30            156           79.4  40 
 RUS  HZ EP       1034 20.54                             144   -0.0810 99.2 175 
 RUS  HN ES   1   1034 39.06                             144   -0.00 7 99.2 175 
 RUS  HZ I        1034 40.54        16.8 0.28            144           99.2 175 
 PTB  HZ EP       1034 23.23                             132   -0.57 9  146 259 
 PTB  HN ES   1   1034 43.99                             132   -0.72 7  146 259 
 PTB  HZ I        1034 46.99        26.7 0.16            131            146 259 
 SPBC HZ EP       1034 25.27                             129   -0.01 9  161 219 
 SPBC HN ES   1   1034 46.89                             129   -0.47 7  161 219 
 SPBC HZ I        1034 52.53        28.5 0.18            129            161 219 
 OCA  HN ES   1   1034 46.67                             129   -0.92 7  162 354 
 ZAR  HN ES   1   1034 54.95                             122    0.35 6  203 293 
 ZAR  HZ I        1034 59.83        16.9 0.30            123            203 293 
 NOR  HZ EP       1034 32.69                             119    0.20 8  233 235 
 NOR  HN ES       1035  0.33                             119    0.14 8  233 235 
 NOR  HZ I        1035  8.49        15.1 0.20            119            233 235 
 SML  HN ES   1   1035  2.59                             117    0.27 6  245 336 
 CHI  HZ EP   1   1034 34.69                             117    0.21 6  247 195 
 CHI  HN ES   1   1035  4.13                             117    0.41 6  247 195 
 CHI  HZ I        1035 10.18         8.2 0.42            118            247 195 
 HEL  HN ES   4   1035  8.42                             115    0.20 0  270 256 
 HEL  HZ I        1035 16.93        11.0 0.36            115            270 256 
 GUY2CHZ EP   1   1034 40.59                             112    0.23 5  299 235 
 GUY2CHZ I        1035 22.84        12.5 0.36                           299 235 
                                                                                
