 2010  911 1354  3.2 L   6.799 -73.038149.9  RSN 16 0.5 3.2LRSN                1
 GAP=171        0.78       3.7     6.7  6.3 -0.1093E+02  0.1019E+02  0.4592E+01E
 Epicentro: CEPITA - SANTANDER                                                 3
 ACTION:UP  11-02-18 11:02 OP:tino STATUS:               ID:20100911135403 L   I
 2010-09-11-1351-25S.COL___120                                                 6
 STAT SP IPHASW D HRMM SECON CODA AMPLIT PERI AZIMU VELO SNR AR TRES W  DIS CAZ7
 BAR2 SZ IP     C 1354 23.33                             169    -0.110   28 215 
 BAR2 SZ ES   2   1354 38.68                             169    -0.5 5   28 215 
 BAR2 SZ I        1354 40.88       224.6 0.21                            28 215 
 GIR2 SZ EP   1   1354 23.37                             166    -0.1 7   35 331 
 GIR2 SZ ES   2   1354 39.44                             166     0.2 5   35 331 
 BRR  HZ EP   1   1354 25.19                             150    -0.2 7   82 295 
 BRR  HE ES   2   1354 42.72                             150     0.0 5   82 295 
 BRR  HZ I        1354 47.30       262.0 0.05                            82 295 
 RUS  HZ IP     D 1354 27.26                             145     0.010  100 183 
 RUS  HN ES   2   1354 45.94                             145    -0.2 5  100 183 
 RUS  HZ I        1354 47.79       144.6 0.32                           100 183 
 GUE  SZ EP   1   1354 28.29                             141     0.2 7  115   6 
 GRA  SZ EP   1   1354 29.00                             138     0.5 7  123  12 
 GRA  SZ ES   2   1354 48.74                             138     0.4 5  123  12 
 GRA  SZ I        1354 49.78       241.0 0.36                           123  12 
 OCA  SZ EP   1   1354 31.64                             130    -0.3 7  162 349 
 OCA  SZ ES   2   1354 54.25                             130    -0.2 5  162 349 
 OCA  SZ I        1354 57.92       139.3 0.55                           162 349 
 CHI  HZ EP   1   1354 41.36                             118    -0.1 6  252 198 
 CHI  HE ES   2   1355 10.87                             118    -0.4 4  252 198 
 CHI  HZ I        1355 16.89        60.0 0.40                           252 198 
 ROSC BZ EP   1   1354 42.97                             117     0.8 6  259 213 
 ROSC BN ES   2   1355 14.03                             117     1.4 4  259 213 
 ROSC BZ I        1355 20.23        71.3 0.35                           259 213 
 HEL  HZ EP   1   1354 44.78                             114    -0.1 6  284 256 
 HEL  HN ES   3   1355 16.33                             114    -1.1 2  284 256 
 HEL  HZ I        1355 23.05        76.6 0.38                           284 256 
 GUY  SZ EP   1   1354 47.85                             112    -0.2 5  311 236 
 GUY  SE ES   2   1355 24.14                             112     1.0 3  311 236 
 GUY  SZ I        1355 28.75       200.8 0.47                           311 236 
 RREF HZ EP   1   1354 50.43                             111    -0.1 5  331 231 
 RREF HN ES   2   1355 26.20                             111    -1.3 3  331 231 
 RREF HZ I        1355 33.27        74.3 0.20                           331 231 
 TOL  SZ EP   1   1354 52.00                             109    -0.6 5  352 226 
 TOL  SZ ES   2   1355 32.47                             109     1.4 3  352 226 
 ANIL HZ EP   1   1354 54.62                             109     0.5 5  366 226 
 ANIL HE ES   2   1355 33.87                             109     0.0 3  366 226 
 ANIL HZ I        1355 40.58       152.1 0.57                           366 226 
 PRA  HZ EP   1   1354 56.89                             107    -0.6 4  398 211 
 PRA  HN ES   2   1355 39.31                             107    -0.6 3  398 211 
 PRA  HZ I        1355 44.84        52.1 0.55                           398 211 
 HORQ SZ EP   1   1355 14.41                             102    -0.3 3  541 227 
                                                                                
