 2016  911 1620 35.2 L   6.759 -73.160136.3  RSN  5 0.2 1.4LRSN                1
 GAP=137        0.55       2.8     2.5  4.3 -0.1817E+00  0.4187E+01 -0.2023E+01E
 Epicentro: LOS SANTOS - SANTANDER                                             3
 ACTION:UPD 17-08-17 21:08 OP:lp   STATUS:               ID:20160911162035 L   I
 OLDACT:REG 16-09-11 20:25 OP:lv   STATUS:               ID:20160911161736     3
 2016-09-11-1618-00M.COL___309                                                 6
 STAT SP IPHASW D HRMM SECON CODA AMPLIT PERI AZIMU VELO AIN AR TRES W  DIS CAZ7
 BAR2 EZ EP       1620 53.53                             172   -0.0210 18.6 188 
 BAR2 EZ ES       1621  7.87                             172   -0.0410 18.6 188 
 BAR2 EZ I        1621  9.84         5.5 0.26            171           18.6 188 
 PAM  EZ EP       1620 56.39                             147   -0.2710 81.9  38 
 PAM  EE ES       1621 13.53                             147    0.0910 81.9  38 
 PAM  EZ I        1621 15.00         6.0 0.18            152           81.9  38 
 RUS  HZ EP       1620 57.68                             143    0.0310 96.1 175 
 RUS  HE ES       1621 15.40                             143    0.1910 96.1 175 
 RUS  HZ I        1621 17.68         1.8 0.22            146           96.1 175 
 PTB  HZ EP       1621  1.20                             130    0.06 9  145 260 
 PTB  HN ES       1621 21.02                             130   -0.40 9  145 260 
 PTB  HZ I        1621 26.17         2.6 0.14            132            145 260 
 ZAR  HZ EP       1621  7.15                             120    0.12 9  204 293 
 ZAR  HN ES       1621 32.24                             120    0.34 9  204 293 
 ZAR  HZ I        1621 35.15         4.1 0.10            122            204 293 
                                                                                
