 2010  911 1907 44.1 L   6.757 -73.155156.5  RSN  4 0.3 1.7LRSN                1
 GAP=163        0.49       5.4    11.7  9.9  0.2658E+02 -0.6068E+02 -0.2009E+02E
 Epicentro: LOS SANTOS - SANTANDER                                             3
 ACTION:UP  11-02-18 11:02 OP:tino STATUS:               ID:20100911190744 L   I
 2010-09-11-1905-59S.COL___120                                                 6
 STAT SP IPHASW D HRMM SECON CODA AMPLIT PERI AZIMU VELO SNR AR TRES W  DIS CAZ7
 GIR2 SZ EP   2   19 8  5.74                             166     0.6 5   36 353 
 GIR2 SZ ES   3   19 8 21.81                             166     0.2 2   36 353 
 BRR  HZ EP   1   19 8  6.41                             154    -0.1 7   73 302 
 BRR  HE ES   2   19 8 23.93                             154     0.0 5   73 302 
 BRR  HZ I        19 8 27.96        12.1 0.09                            73 302 
 RUS  HZ EP   1   19 8  8.69                             147     0.1 7   96 175 
 RUS  HE ES   2   19 8 27.43                             147    -0.3 5   96 175 
 RUS  HZ I        19 8 28.87         5.6 0.54                            96 175 
 GUE  SZ EP   1   19 8  9.98                             140    -0.2 7  121  12 
                                                                                
