 2014 1011 1428 20.5 L   6.820 -73.154140.5  RSN 10 0.6 2.3LRSN                1
 GAP=118        2.18       6.4     8.8 12.5 -0.5807E+01  0.2897E+02 -0.1318E+02E
 Epicentro: LOS SANTOS - SANTANDER                                             3
 ACTION:UPD 14-11-29 23:48 OP:nd   STATUS:               ID:20141011142820 L   I
 OLDACT:REG 14-10-11 22:05 OP:stll STATUS:               ID:20141011141745     3
 2014-10-11-1417-45M.COL___291                                                 6
 STAT SP IPHASW D HRMM SECON CODA AMPLIT PERI AZIMU VELO AIN AR TRES W  DIS CAZ7
 BAR2 SZ IP     D 1428 39.84                             169    0.3210 25.4 187 
 BAR2 SZ ES       1428 54.28                             169   -0.0910 25.4 187 
 BAR2 SZ I        1428 55.98        75.3 0.14            169           25.4 187 
 BRR  HZ IP     C 1428 41.67                             151    0.7210 69.3 297 
 BRR  HZ I        1428 41.89        44.7 0.24            149           69.3 297 
 BRR  HN ES       1428 57.92                             151    1.0010 69.3 297 
 PAM  SZ IP     C 1428 42.64                             150    0.5710 76.3  41 
 PAM  SZ I        1428 42.91        68.9 0.20            153           76.3  41 
 PAM  SN ES       1428 59.08                             150    0.1710 76.3  41 
 RUS  HZ EP       1428 44.00                             142    0.1210  103 176 
 RUS  HN ES       1429  1.22                             142   -0.9210  103 176 
 RUS  HZ I        1429  4.14        13.6 0.26            144            103 176 
 PTB  HZ EP       1428 46.68                             130   -0.30 9  147 258 
 PTB  HE ES       1429  6.68                             130   -0.96 9  147 258 
 PTB  HZ I        1429 12.63        21.7 0.22            130            147 258 
 OCA  HZ EP       1428 47.92                             129   -0.25 9  158 353 
 OCA  HE ES       1429  9.23                             129   -0.53 9  158 353 
 OCA  HZ I        1429 11.76        20.2 0.16            129            158 353 
 SPBC HZ EP       1428 48.86                             127    0.17 9  164 218 
 SPBC HN ES       1429 10.28                             127   -0.41 9  164 218 
 SPBC HZ I        1429 13.22        14.7 0.14            128            164 218 
 ZAR  HZ EP       1428 52.63                             121    0.22 9  202 292 
 ZAR  HE ES       1429 18.42                             121    1.11 9  202 292 
 ZAR  HZ I        1429 24.62        26.0 0.22            121            202 292 
 SML  HZ EP       1428 55.96                             116   -0.59 8  241 335 
 SML  HE ES       1429 23.81                             116   -0.88 8  241 335 
 SML  HZ I        1429 31.53        16.3 0.32            117            241 335 
 SOCV BZ EP   9   1429  2.68                             111   -0.57 0  301  57 
 SOCV BN ES       1429 32.47                                   -3.57 7  301  57 
                                                                                
