 2011  411 1442 36.9 L   6.813 -73.379117.9  RSN  5 0.1 1.7LRSN                1
 GAP=173        0.40       6.5     6.8  6.0  0.2562E+02 -0.2266E+02 -0.2332E+02E
 Epicentro: SAN VICENTE DE CHUCURI - SANTANDER                                 3
 ACTION:UP  11-06-22 15:30 OP:REBC STATUS:               ID:20110411144236 L   I
 2011-04-11-1441-40S.COL___138                                                 6
 STAT SP IPHASW D HRMM SECON CODA AMPLIT PERI AZIMU VELO SNR AR TRES W  DIS CAZ7
 BTL  SZ EP       1442 53.13                             171     0.010   17  47 
 BAR2 SZ EP   1   1442 53.48                             164     0.0 7   33 138 
 BAR2 SZ ES   1   1443  6.53                             164     0.1 7   33 138 
 BAR2 SZ I        1443  7.90        20.7 0.28                            33 138 
 GIR2 SZ EP   1   1442 53.20                             162    -0.3 7   36  35 
 BRR  HZ EP   1   1442 53.98                             156     0.1 7   49 311 
 BRR  HE ES   1   1443  7.02                             156     0.0 7   49 311 
 BRR  HZ I        1443  8.89        17.6 0.15                            49 311 
 GRA  SZ EP   1   1443  0.79                             128     0.1 7  134  28 
 GRA  SZ I        1443 20.91         3.7 0.32                           134  28 
                                                                                
