 2011  311 1754 26.9 L   6.795 -73.182148.0  RSN  8 0.3 2.2LRSN                1
 GAP=155        0.61       2.7     4.4  5.4 -0.5040E+01  0.1099E+02 -0.2120E+01E
 Epicentro: LOS SANTOS - SANTANDER                                             3
 ACTION:UP  11-06-16 14:33 OP:jfem STATUS:               ID:20110311175426 L   I
 2011-03-11-1749-43S.COL___135                                                 6
 STAT SP IPHASW D HRMM SECON CODA AMPLIT PERI AZIMU VELO SNR AR TRES W  DIS CAZ7
 BAR2 SZ EP   1   1754 46.78                             171     0.0 8   23 181 
 BAR2 SZ ES   1   1755  2.83                             171     0.5 8   23 181 
 BAR2 SZ I        1755  4.91        25.3 0.17                            23 181 
 RUS  HZ EP       1754 50.70                             144    -0.210  100 174 
 RUS  HE ES   1   1755  9.14                             144    -0.4 7  100 174 
 RUS  HZ I        1755 13.04        10.7 0.57                           100 174 
 GRA  SZ EP       1754 52.60                             137     0.110  127  19 
 GRA  SZ ES   1   1755 12.13                             137    -0.3 7  127  19 
 GRA  SZ I        1755 15.27        24.6 0.32                           127  19 
 OCA  SZ EP   1   1754 55.47                             130     0.1 7  160 355 
 OCA  SZ ES   1   1755 17.68                             130     0.1 7  160 355 
 OCA  SZ I        1755 21.92        35.4 0.32                           160 355 
 NOR  SZ EP   1   1755  2.63                             119     0.2 6  231 234 
 NOR  SE ES   1   1755 30.01                             119    -0.1 6  231 234 
 HEL  HZ EP   1   1755  6.74                             116     0.0 6  268 256 
 HEL  HN ES   1   1755 37.70                             116    -0.2 6  268 256 
 HEL  HZ I        1755 46.56        11.5 0.24                           268 256 
 DBB  SZ EP   1   1755 13.52                             110    -0.5 5  336 274 
 PRA  HZ EP   1   1755 20.67                             107     0.5 4  390 209 
 PRA  HN ES   1   1756  2.20                             107     0.4 4  390 209 
                                                                                
