 2010  811 1315 23.8 L   6.842 -73.079141.8  RSN 16 0.6 2.7LRSN                1
 GAP=130        1.53       4.9     8.7  8.5 -0.1645E+02  0.1849E+01  0.8330E+01E
 Epicentro: LOS SANTOS - SANTANDER                                             3
 ACTION:UP  10-09-07 10:54 OP:vdl  STATUS:               ID:20100811131523 L   I
 2010-08-11-1311-45S.COL___126                                                 6
 STAT SP IPHASW D HRMM SECON CODA AMPLIT PERI AZIMU VELO SNR AR TRES W  DIS CAZ7
 BAR2 SZ IP       1315 42.93                             167    -0.210   30 203 
 BAR2 SZ I        1315 43.50        98.8 0.85                            30 203 
 BAR2 SZ ES   1   1315 57.48                             167    -0.7 7   30 203 
 BRR  HZ EP       1315 44.53                             150    -0.310   76 293 
 BRR  HN ES       1316  1.23                             150     0.010   76 293 
 BRR  HZ I        1316  5.57       146.5 0.20                            76 293 
 BRI  SZ EP   1   1315 47.17                             142     0.4 7  102  18 
 RUS  HZ EP       1315 47.12                             142    -0.410  105 180 
 RUS  HZ I        1315 47.80        40.1 0.50                           105 180 
 RUS  HN ES   1   1316  5.91                             142    -0.1 7  105 180 
 GUE  SZ EP       1315 47.45                             140    -0.210  111   9 
 GUE  SZ I        1316 10.95        19.1 0.33                           111   9 
 GRA  SZ IP       1315 49.35                             138     1.210  119  15 
 GRA  SZ ES   1   1316  8.00                             138     0.8 7  119  15 
 GRA  SZ I        1316 11.40        90.0 0.08                           119  15 
 OCA  SZ EP       1315 50.99                             129    -0.5 9  157 350 
 OCA  SZ ES   1   1316 12.69                             129    -0.4 7  157 350 
 OCA  SZ I        1316 17.18        58.9 0.09                           157 350 
 CHI  HZ EP       1316  1.57                             115    -0.4 8  255 197 
 CHI  HN ES       1316 32.47                             115     0.7 8  255 197 
 CHI  HZ I        1316 37.75        25.2 0.73                           255 197 
 ROSC BZ EP       1316  3.56                             115     1.0 8  261 212 
 ROSC BZ I        1316 37.61        29.4 0.39                           261 212 
 HEL  HZ EP   1   1316  4.51                             113    -0.2 6  280 255 
 HEL  HN ES   2   1316 37.93                             113     1.2 4  280 255 
 HEL  HZ I        1316 41.90        54.2 0.03                           280 255 
 RREF HZ EP       1316 11.28                             109     0.5 7  330 230 
 RREF HZ I        1316 54.30        37.2 0.51                           330 230 
 DBB  SZ EP       1316 10.72                             108    -1.2 6  347 273 
 TOL  SZ EP       1316 13.33                             108     0.4 6  352 225 
 TOL  SZ ES   2   1316 51.31                             108     0.1 3  352 225 
 SDV  BZ EP       1316 12.18                             108    -0.5 6  352  50 
 SDV  BZ I        1316 12.94        16.3 0.10                           352  50 
 ANIL HZ EP   1   1316 15.11                             107     0.7 5  366 225 
 ANIL HZ I        1316 59.30        42.6 0.60                           366 225 
 PRA  HZ EP       1316 17.20                             105    -0.9 6  400 210 
 PRA  HN ES   1   1317  0.50                             105     0.1 4  400 210 
 PRA  HZ I        1317  6.45        31.6 0.81                           400 210 
                                                                                
