 2010  511 1317 43.6 L   6.769 -73.056144.6  RSN  7 0.4 1.9LRSN                1
 GAP=169        0.71       4.3    10.3  7.4 -0.1836E+02 -0.5547E+01  0.9636E+01E
 Epicentro: LOS SANTOS - SANTANDER                                             3
 ACTION:UP  10-08-24 10:04 OP:vdl  STATUS:               ID:20100511131743 L   I
 2010-05-11-1315-11S.COL___104                                                 6
 STAT SP IPHASW D HRMM SECON CODA AMPLIT PERI AZIMU VELO AIN AR TRES W  DIS CAZ7
 BAR2 SZ EP   1   1318  2.79                             170    -0.310   24 216 
 BAR2 SZ ES   2   1318 17.79                             170    -0.5 6   24 216 
 BRR  HZ EP   1   1318  4.91                             149    -0.310   82 297 
 BRR  HE ES   2   1318 22.49                             149     0.4 6   82 297 
 BRR  HZ I        1318 25.89        20.2 0.13                            82 297 
 RUS  HZ EP   1   1318  6.91                             145    -0.110   97 182 
 RUS  HN ES   2   1318 25.47                             145     0.3 6   97 182 
 RUS  HZ I        1318 26.23         6.5 0.28                            97 182 
 GUE  SZ EP   1   1318  8.18                             139    -0.1 9  118   7 
 GUE  SZ ES   2   1318 27.72                             139     0.1 6  118   7 
 GRA  SZ EP   1   1318  9.02                             137     0.2 9  126  13 
 GRA  SZ ES   2   1318 28.89                             137     0.5 6  126  13 
 CHI  HZ EP       1318 21.47                             117     0.310  248 198 
 PRA  HZ EP   1   1318 36.47                             106    -0.8 6  394 211 
 PRA  HN ES   2   1319 20.67                             106     1.5 4  394 211 
 PRA  HZ I        1319 25.94         3.7 0.26                           394 211 
                                                                                
