 2015  211 1126 32.7 L   6.548 -73.305 17.7  RSN  4 0.4 1.4LRSN                1
 GAP=108        0.98       6.6    12.6 14.4  0.7659E+02  0.1764E+03  0.8613E+02E
 Epicentro: HATO - SANTANDER                                                   3
 ACTION:UPD 15-04-30 21:25 OP:nd   STATUS:               ID:20150211112632 L   I
 OLDACT:ARG 15-02-11 20:08 OP:stll STATUS:               ID:20150211111744     3
 2015-02-11-1117-44M.COL___281                                                 6
 STAT SP IPHASW D HRMM SECON CODA AMPLIT PERI AZIMU VELO AIN AR TRES W  DIS CAZ7
 BAR2 EZ EP       1126 36.99                             140    0.2010 14.4  70 
 BAR2 EZ ES       1126 40.23                             140    0.2610 14.4  70 
 BAR2 EZ I        1126 41.99        68.8 0.24            165           14.4  70 
 RUS  HZ EP       1126 45.96                             101    0.3510 76.5 161 
 RUS  HZ I        1126 46.14         5.9 0.30             61           76.5 161 
 RUS  HN ES       1126 55.06                             101   -0.6010 76.5 161 
 BRR  HZ EP       1126 44.65                             101   -0.4410 76.5 324 
 BRR  HZ I        1126 44.99        14.3 0.26             61           76.5 324 
 BRR  HN ES       1126 54.43                             101   -0.3210 76.5 324 
 PTB  HZ EP       1126 52.91                              56    0.1810  127 270 
 PTB  HN ES       1127  8.76                              56    0.4110  127 270 
 PTB  HZ I        1127 10.96        14.0 0.14             61            127 270 
                                                                                
