 2012  511 1827 45.9 L   6.795 -73.194148.6  RSN  4 0.5 1.4LRSN                1
 GAP=131        1.34      11.4    10.3 16.2 -0.9837E+01 -0.1076E+02  0.4648E+02E
 Epicentro: ZAPATOCA - SANTANDER                                               3
 ACTION:UP  12-07-05 12:04 OP:pat  STATUS:               ID:20120511182745 L   I
 2012-05-11-1820-00M.COL___195                                                 6
 STAT SP IPHASW D HRMM SECON CODA AMPLIT PERI AZIMU VELO SNR AR TRES W  DIS CAZ7
 BRR  HZ EP       1828  6.29                             155    -0.910   67 301 
 BRR  HN ES   1   1828 24.49                             155     0.8 7   67 301 
 BRR  HZ I        1828 30.27         8.5 0.14                            67 301 
 PAM  SZ EP       1828  8.92                             150     0.210   81  42 
 PAM  SN ES   2   1828 25.87                             150    -0.6 5   81  42 
 RUS  HZ EP       1828 10.38                             144     0.410  101 173 
 RUS  HE ES   2   1828 28.12                             144    -0.6 5  101 173 
 RUS  HZ I        1828 29.96         2.7 0.26                           101 173 
 PTB  HZ EP       1828 12.79                             134     0.1 9  142 259 
 PTB  HN ES   2   1828 33.18                             134    -0.3 5  142 259 
 PTB  HZ I        1828 38.70         2.4 0.66                           142 259 
                                                                                
