 2011  211 1126 23.9 L   7.006 -72.993  4.0  RSN  6 0.5 1.4LRSN                1
 GAP=172        1.28       2.9     5.9  8.9 -0.2525E+01  0.8632E+00 -0.1352E+01E
 Epicentro: PIEDECUESTA - SANTANDER                                            3
 ACTION:UP  11-03-28 15:07 OP:jfem STATUS:               ID:20110211112623 L   I
 2011-02-11-1122-42S.COL___136                                                 6
 STAT SP IPHASW D HRMM SECON CODA AMPLIT PERI AZIMU VELO SNR AR TRES W  DIS CAZ7
 GIR2 SZ EP       1126 28.95                              47     0.710   24 290 
 GIR2 SZ ES   1   1126 31.04                              47    -0.6 7   24 290 
 BTL  SZ IP       1126 29.43                              47    -0.210   32 252 
 BAR2 SZ EP   1   1126 32.55                              47     0.1 7   50 205 
 BAR2 SZ ES   1   1126 38.45                              47    -0.6 7   50 205 
 BAR2 SZ I        1126 39.86        22.8 0.16                            50 205 
 GRA  SZ EP   1   1126 39.76                              47     0.0 7   99  12 
 GRA  SZ ES   1   1126 51.15                              47    -0.9 7   99  12 
 GRA  SZ I        1126 51.79         5.8 0.30                            99  12 
 RUS  HZ EP   1   1126 44.44                              47     0.7 7  124 185 
 RUS  HN ES   1   1126 58.89                              47    -0.3 7  124 185 
 RUS  HZ I        1127  0.37         5.3 0.32                           124 185 
 OCA  SZ EP   1   1126 46.55                              47     0.5 7  141 345 
 OCA  SZ ES   1   1127  3.48                              47     0.2 7  141 345 
 OCA  SZ I        1127  5.66         9.8 0.17                           141 345 
                                                                                
