 2017  511 1619 14.9 L   6.802 -73.206138.0  RSN  6 0.3 1.5LRSN                1
 GAP=129        0.63       4.0     3.4  7.3 -0.3159E+01  0.4377E+01  0.6220E+00E
 Epicentro: ZAPATOCA - SANTANDER                                               3
 ACTION:UPD 17-06-16 13:35 OP:jn   STATUS:               ID:20170511161914 L   I
 OLDACT:REG 17-05-11 21:15 OP:lv   STATUS:               ID:20170511160745     3
 2017-05-11-1608-00M.COL___368                                                 6
 STAT SP IPHASW D HRMM SECON CODA AMPLIT PERI AZIMU VELO AIN AR TRES W  DIS CAZ7
 PAM  EZ EP       1619 36.50                             148   -0.0210 81.6  43 
 PAM  EN ES   1   1619 53.62                             148    0.20 7 81.6  43 
 PAM  EZ I        1619 56.02         4.8 0.42            153           81.6  43 
 RUS  HZ EP       1619 37.48                             142   -0.4410  102 172 
 RUS  HN ES   1   1619 56.09                             142    0.17 7  102 172 
 RUS  HZ I        1619 57.49         4.2 0.24            146            102 172 
 PTB  HZ EP       1619 40.81                             132    0.21 9  141 258 
 PTB  HN ES       1620  0.45                             132   -0.23 9  141 258 
 PTB  HZ I        1620  3.47         3.9 0.23            132            141 258 
 SPBC HZ EP   2   1619 42.75                             128    0.36 5  159 217 
 SPBC HN ES   2   1620  4.50                             128    0.63 5  159 217 
 SPBC HZ I        1620  7.39        12.1 0.17            130            159 217 
 ZAR  HZ EP   4   1619 48.65                             122    2.50 0  198 293 
 ZAR  HE ES   2   1620 10.42                             122   -0.14 4  198 293 
 ZAR  HZ I        1620 16.74         2.9 0.25            123            198 293 
 NOR  HZ EP   2   1619 50.17                             117    0.59 4  229 233 
 NOR  HN ES   4   1620 17.98                             117    1.32 0  229 233 
 NOR  HZ I        1620 23.12         2.3 0.38            120            229 233 
                                                                                
