 2013  411 1635 29.5 L   6.791 -73.171146.2  RSN  7 0.5 2.1LRSN                1
 GAP=179        1.01       5.7     7.9  7.2  0.1379E+02  0.1368E+02  0.5549E+01E
 Epicentro: LOS SANTOS - SANTANDER                                             3
 ACTION:UPD 13-05-22 14:37 OP:EP   STATUS:               ID:20130411163529 L   I
 2013-04-11-1630-00M.COL___245                                                 6
 STAT SP IPHASW D HRMM SECON CODA AMPLIT PERI AZIMU VELO AIN AR TRES W  DIS CAZ7
 BAR2 SZ EP       1635 49.23                             171    0.0610 22.0 183 
 BAR2 SZ ES       1636  4.37                             171   -0.1310 22.0 183 
 BAR2 SZ I        1636  5.22        60.7 0.36            156           22.0 183 
 GIR2 SZ EP       1635 49.41                             167    0.1610 31.9 356 
 GIR2 SZ ES   1   1636  4.73                             167    0.08 7 31.9 356 
 GIR2 SZ I        1636  6.42        16.7 0.12            164           31.9 356 
 BRR  HZ IP     D 1635 51.04                             153    0.4410 69.2 300 
 BRR  HN ES   1   1636  7.90                             153    0.86 7 69.2 300 
 BRR  HZ I        1636 12.15        20.2 0.12            141           69.2 300 
 RUS  HZ EP       1635 53.24                             144   -0.0110 99.8 174 
 RUS  HN ES   1   1636 11.14                             144   -0.63 7 99.8 174 
 RUS  HZ I        1636 13.29        13.9 0.31            132           99.8 174 
 PTB  HZ EP       1635 55.82                             133   -0.43 9  145 259 
 PTB  HN ES   1   1636 16.78                             133   -0.32 7  145 259 
 PTB  HZ I        1636 22.86        14.4 0.32            120            145 259 
 SML  HE ES   1   1636 33.59                             117   -1.10 6  243 336 
 PRA  HZ EP       1636 23.44                             107    0.66 6  390 209 
 PRA  HZ I        1637 12.69         3.7 0.32            100            390 209 
                                                                                
