 2011  911 1556 11.4 L   6.763 -73.078146.4  RSN  9 0.4 2.2LRSN                1
 GAP=147        0.74       4.1     5.8  5.8 -0.8027E+01  0.1073E+02  0.8800E+00E
 Epicentro: LOS SANTOS - SANTANDER                                             3
 ACTION:UPD 12-07-13 15:56 OP:ep   STATUS:               ID:20110911155611 L   I
 2011-09-11-1540-00M.COL___169                                                 6
 STAT SP IPHASW D HRMM SECON CODA AMPLIT PERI AZIMU VELO AIN AR TRES W  DIS CAZ7
 BAR2 SZ EP   1   1556 31.08                             171    0.00 7 22.1 212 
 BAR2 SZ ES   1   1556 45.56                             171   -0.87 7 22.1 212 
 BAR2 SZ I        1556 47.47        62.8 0.21                          22.1 212 
 GIR2 SZ EP   1   1556 31.29                             165   -0.03 7 37.2 340 
 PAM  SZ EP   1   1556 33.80                             151    0.19 7 76.2  33 
 PAM  SN ES   1   1556 50.93                             151   -0.01 7 76.2  33 
 PAM  SZ I        1556 53.38        11.2 0.44                          76.2  33 
 BRR  HZ EP       1556 33.07                             150   -0.0510 79.8 299 
 BRR  HZ I        1556 33.31        36.5 0.15                          79.8 299 
 BRR  HN ES   1   1556 50.33                             150    0.27 7 79.8 299 
 RUS  HZ EP   1   1556 35.05                             145    0.15 7 96.2 180 
 RUS  HN ES   1   1556 53.88                             145    0.64 7 96.2 180 
 RUS  HZ I        1556 55.63        25.4 0.36                          96.2 180 
 OCA  SZ EP   1   1556 40.20                             129   -0.04 7  165 351 
 OCA  SZ I        1557  8.10        19.8 0.28                           165 351 
 NOR  SZ EP   1   1556 47.23                             118   -0.34 6  239 236 
 NOR  SN ES   1   1557 15.87                             118    0.08 6  239 236 
 NOR  SZ I        1557 17.14         0.7 0.15                           239 236 
 HEL  HZ EP   1   1556 52.98                             114    0.64 6  278 257 
 HEL  HZ I        1557 29.12         8.3 0.35                           278 257 
 PRA  HZ EP   1   1557  4.14                             106   -0.82 4  392 211 
 PRA  HZ I        1557  7.06        32.4 0.17                           392 211 
 PRA  HN ES   1   1557 46.38                             106   -0.36 4  392 211 
                                                                                
