 2015 1011 1403 15.9 L   6.392 -73.458124.8  RSN 18 0.4 2.4LRSN                1
 GAP= 89        1.03       2.6     3.7  5.9 -0.3817E+01  0.8938E+01 -0.3533E+01E
 Epicentro: CHIMA - SANTANDER                                                  3
 ACTION:UPD 15-12-22 20:39 OP:cam  STATUS:               ID:20151011140315 L   I
 OLDACT:REG 15-10-11 20:45 OP:spq  STATUS:               ID:20151011135748     3
 2015-10-11-1357-48M.COL___337                                                 6
 STAT SP IPHASW D HRMM SECON CODA AMPLIT PERI AZIMU VELO AIN AR TRES W  DIS CAZ7
 BAR2 EZ IP     C 14 3 33.38                             162   -0.0810 37.7  54 
 BAR2 EZ ES   1   14 3 47.73                             162    0.58 7 37.7  54 
 BAR2 EZ I        14 3 47.87        39.7 0.10            151           37.7  54 
 RUS  HZ EP       14 3 35.14                             149   -0.2710 69.1 143 
 RUS  HE ES       14 3 50.15                             149   -0.4710 69.1 143 
 RUS  HZ I        14 3 51.88        47.3 0.34            129           69.1 143 
 BRR  HZ EP     C 14 3 35.67                             144   -0.0310 83.9 340 
 BRR  HN ES       14 3 51.09                             144   -0.0410 83.9 340 
 BRR  HZ I        14 3 52.73        52.7 0.12            127           83.9 340 
 SPBC HZ EP       14 3 37.51                             137   -0.0710  106 220 
 SPBC HE ES       14 3 54.26                             137   -0.2210  106 220 
 SPBC HZ I        14 3 57.04        81.7 0.14            116            106 220 
 PAM  EZ EP       14 3 40.73                             130    0.1510  134  39 
 PAM  EE ES       14 4  0.62                             130    0.7910  134  39 
 PAM  EZ I        14 4  1.70        20.0 0.26            112            134  39 
 NOR  HZ EP       14 3 44.76                             121    0.07 9  181 240 
 NOR  HN ES       14 4  6.49                             121   -0.65 9  181 240 
 NOR  HZ I        14 4 11.46        23.5 0.18            105            181 240 
 ROSC BN ES   4   14 4 11.94                             119    1.13 0  196 209 
 ROSC BZ I        14 4 16.67        20.2 0.35            103            196 209 
 ZAR  HZ I        14 4 15.02        48.7 0.32            104            197 308 
 CHI  HZ EP     C 14 3 47.16                             118    0.29 9  197 189 
 CHI  HN ES       14 4 11.19                             118    0.17 9  197 189 
 CHI  HZ I        14 4 16.55        11.0 0.32            103            197 189 
 ZAR  HZ EP       14 3 46.17                             118   -0.13 9  197 308 
 ZAR  HE ES   4   14 4 11.66                             118    1.66 0  197 308 
 OCA  HZ EP       14 3 46.66                             117   -0.68 9  205   4 
 OCA  HN ES       14 4 11.46                             117   -0.41 9  205   4 
 OCA  HZ I        14 4 18.08        74.2 0.28            103            205   4 
 HEL  HZ EP       14 3 51.19                             114    0.78 8  230 265 
 HEL  HN ES       14 4 17.64                             114    0.31 8  230 265 
 HEL  HZ I        14 4 21.89        17.8 0.34            101            230 265 
 GUY2CHZ EP   4   14 3 53.68                             112    1.19 0  248 239 
 GUY2CHE ES   4   14 4 22.21                             112    1.19 0  248 239 
 GUY2CHZ I        14 4 28.16        17.6 0.74                           248 239 
 ELA  HN ES       14 4 27.32                             110    0.86 8  274 232 
 ELA  HZ I        14 4 35.07        13.5 0.42             99            274 232 
 URE  HZ EP       14 3 54.35                             110   -0.57 8  274 303 
 URE  HN ES   4   14 4 24.20                             110   -1.16 0  274 303 
 URE  HZ I        14 4 32.84        16.2 0.38             99            274 303 
 SML  HZ EP       14 3 54.86                             110   -0.13 8  275 346 
 SML  HE ES   1   14 4 26.04                             110    0.57 6  275 346 
 SML  HZ I        14 4 30.84        22.7 0.10             99            275 346 
 ANIL HN ES   4   14 4 33.76                             108    2.23 0  301 226 
 ANIL HZ I        14 4 37.79        27.7 0.48             98            301 226 
 ORTC HZ EP   4   14 4  4.06                             105    1.59 0  339 216 
 ORTC HN ES   4   14 4 40.65                             105    1.87 0  339 216 
 ORTC HZ I        14 4 45.48         7.2 0.42             97            339 216 
 SOCV BZ EP   4   14 4  2.95                             104   -1.47 0  355  54 
 SOCV BN ES   4   14 4 38.56                             104   -3.69 0  355  54 
 SJC  HN ES   4   14 4 56.15                             101   -2.30 0  431 334 
 SJC  HZ I        14 5  0.59         2.4 0.59             95            431 334 
                                                                                
