 2016  611 1056 30.3 L   6.776 -73.154147.2  RSN  8 0.4 1.6LRSN                1
 GAP=235        0.96       4.5     4.9  5.8  0.1119E+01  0.6425E+01  0.6962E+01E
 Epicentro: LOS SANTOS - SANTANDER                                             3
 ACTION:UPD 16-07-21 22:17 OP:rebc STATUS:               ID:20160611105630 L   I
 OLDACT:REG 16-06-11 20:43 OP:edw  STATUS:               ID:20160611104743     3
 2016-06-11-1047-43M.COL___331                                                 6
 STAT SP IPHASW D HRMM SECON CODA AMPLIT PERI AZIMU VELO AIN AR TRES W  DIS CAZ7
 BAR2 EZ EP       1056 49.73                             172   -0.2710 20.6 189 
 BAR2 EZ ES       1057  5.45                             172    0.0410 20.6 189 
 BAR2 EZ I        1057  6.24         8.8 0.20                          20.6 189 
 BRR  HZ EP       1056 51.79                             153    0.2110 71.7 301 
 BRR  HN ES       1057  8.85                             153    0.6310 71.7 301 
 RUS  HZ EP       1056 54.25                             145    0.2910 98.0 175 
 RUS  HE ES       1057 12.19                             145   -0.2710 98.0 175 
 RUS  HZ I        1057 13.68         7.1 0.32                          98.0 175 
 PTB  HZ EP       1056 56.39                             133   -0.82 9  146 260 
 PTB  HN ES       1057 17.47                             133   -0.77 9  146 260 
 PTB  HZ I        1057 22.58         3.9 0.20                           146 260 
 SPBC HZ EP       1056 58.63                             130    0.02 9  161 219 
 SPBC HE ES       1057 20.84                             130    0.10 9  161 219 
 SPBC HZ I        1057 24.17         7.6 0.10                           161 219 
 NOR  HZ EP       1057  6.03                             119    0.21 8  232 235 
 NOR  HN ES       1057 33.76                             119    0.20 8  232 235 
 CHI  HZ EP       1057  7.71                             118   -0.02 8  246 195 
 CHI  HN ES       1057 37.08                             118    0.12 8  246 195 
 GUY2CHZ EP       1057 13.93                             113    0.26 7  299 235 
 GUY2CHN ES       1057 47.95                             113    0.41 7  299 235 
                                                                                
