 2012  711 1123 36.9 L   7.226 -73.424117.0  RSN  5 0.3 1.5LRSN                1
 GAP=238        0.70       6.4     5.2  6.0  0.2213E+02  0.1252E+01  0.4521E+01E
 Epicentro: SABANA DE TORRES - SANTANDER                                       3
 ACTION:UPD 12-08-14 11:44 OP:ep   STATUS:               ID:20120711112336 L   I
 2012-07-11-1120-00M.COL___187                                                 6
 STAT SP IPHASW D HRMM SECON CODA AMPLIT PERI AZIMU VELO AIN AR TRES W  DIS CAZ7
 BRR  HZ EP       1123 53.09                             162     0.010   34 248 
 BRR  HZ I        1124  0.56         9.8 0.45            167             34 248 
 BRR  HN ES       1124  5.94                             162     0.210   34 248 
 BAR2 SZ EP   1   1123 55.60                             145    -0.1 7   75 159 
 BAR2 SZ ES   1   1124  9.73                             145    -0.5 7   75 159 
 BAR2 SZ I        1124 11.45        14.9 0.39            150             75 159 
 PTB  HZ EP       1124  0.82                             127     0.2 9  137 236 
 PTB  HE ES   1   1124 18.81                             127    -0.4 7  137 236 
 RUS  HZ EP       1124  2.66                             124    -0.1 9  152 166 
 RUS  HN ES       1124 23.34                             124     0.4 9  152 166 
 ZAR  HN ES   1   1124 23.46                             122     0.0 7  161 281 
 ZAR  HZ I        1124 26.95         2.0 0.27            121            161 281 
