 2014  111 1038 36.1 L   6.803 -73.202137.7  RSN  8 0.4 1.6LRSN                1
 GAP=129        0.82       3.3     3.9  5.2 -0.4784E+01  0.8414E+01 -0.7627E+00E
 Epicentro: ZAPATOCA - SANTANDER                                               3
 ACTION:UPD 14-03-13 09:54 OP:ep   STATUS:               ID:20140111103836 L   I
 OLDACT:REG 14-01-11 15:44 OP:stll STATUS:               ID:20140111102809     3
 2014-01-11-1028-09M.COL___237                                                 6
 STAT SP IPHASW D HRMM SECON CODA AMPLIT PERI AZIMU VELO AIN AR TRES W  DIS CAZ7
 BAR2 SZ EP       1038 54.92                             170    0.1710 23.4 175 
 BAR2 SZ ES       1039  8.93                             170   -0.3810 23.4 175 
 BAR2 SZ I        1039 10.76        18.7 0.38            170           23.4 175 
 PAM  SZ EP       1038 57.64                             148   -0.0510 81.2  43 
 PAM  SN ES       1039 14.75                             148    0.2010 81.2  43 
 RUS  HZ EP       1038 59.05                             142   -0.0710  102 173 
 RUS  HN ES       1039 17.35                             142    0.2510  102 173 
 RUS  HZ I        1039 18.69         4.8 0.42            144            102 173 
 PTB  HZ EP       1039  1.86                             131    0.01 9  142 258 
 PTB  HN ES       1039 22.05                             131    0.11 9  142 258 
 PTB  HZ I        1039 26.96         6.6 0.44            131            142 258 
 NOR  HZ EP       1039 10.98                             117    0.15 8  230 233 
 NOR  HN ES       1039 38.40                             117    0.47 8  230 233 
 NOR  HZ I        1039 42.73         3.2 0.30            118            230 233 
 SML  HZ EP       1039 11.46                             116   -0.49 8  241 337 
 CHI  HZ EP       1039 13.17                             115   -0.04 8  247 194 
 CHI  HZ I        1039 13.85         1.4 0.52            117            247 194 
 CHI  HN ES       1039 41.70                             115   -0.47 8  247 194 
 GUY2CHZ EP       1039 19.51                             111    0.74 7  296 234 
 GUY2CHE ES       1039 51.33                             111   -0.75 7  296 234 
 GUY2CHZ I        1040  2.72         2.1 0.54                           296 234 
                                                                                
