 2010  511 1642 42.2 L   6.850 -73.224119.7  RSN 10 0.5 2.5LRSN                1
 GAP=145        0.82       3.6     7.8  7.6 -0.1064E+02  0.1237E+02  0.2708E+01E
 Epicentro: ZAPATOCA - SANTANDER                                               3
 ACTION:UP  10-08-24 10:04 OP:vdl  STATUS:               ID:20100511164242 L   I
 2010-05-11-1640-01S.COL___104                                                 6
 STAT SP IPHASW D HRMM SECON CODA AMPLIT PERI AZIMU VELO AIN AR TRES W  DIS CAZ7
 BAR2 SZ IP     C 1642 58.81                             166    -0.110   29 171 
 BAR2 SZ ES   2   1643 11.61                             166    -0.3 5   29 171 
 BRR  HZ EP   1   1642 59.98                             151     0.0 7   61 298 
 BRR  HE ES   2   1643 14.21                             151     0.4 5   61 298 
 BRR  HZ I        1643 15.06       179.0 0.15                            61 298 
 RUS  HZ EP   1   1643  3.75                             136    -0.3 7  107 172 
 RUS  HN ES   2   1643 21.11                             136     0.0 5  107 172 
 RUS  HZ I        1643 22.33        31.6 0.18                           107 172 
 BRI  SZ EP   1   1643  3.83                             136     0.2 7  107  26 
 BRI  SZ ES   2   1643 19.57                             136    -0.7 5  107  26 
 GUE  SZ EP   1   1643  4.99                             134     0.6 7  113  17 
 GUE  SZ ES   2   1643 22.24                             134     0.6 5  113  17 
 GRA  SZ EP   1   1643  5.24                             131     0.2 7  123  22 
 GRA  SZ ES   2   1643 23.40                             131     0.6 5  123  22 
 OCA  SZ EP   1   1643  7.26                             124    -0.7 7  154 356 
 OCA  SZ ES   2   1643 26.87                             124    -1.2 5  154 356 
 OCA  SZ I        1643 30.26        57.2 0.44                           154 356 
 CHI  HZ EP   1   1643 18.79                             111    -0.2 6  252 193 
 CHI  HN ES   2   1643 47.88                             111     0.2 4  252 193 
 CHI  HZ I        1643 50.66        13.1 0.60                           252 193 
 HEL  HZ EP   1   1643 20.81                             110     0.4 6  265 254 
 PRA  HZ EP   1   1643 34.87                             102    -0.2 4  393 208 
 PRA  HN ES   2   1644 16.53                             102     0.3 3  393 208 
 PRA  HZ I        1644 21.06         6.7 0.70                           393 208 
                                                                                
