 2012  111 1606 46.7 L   6.795 -73.161142.3  RSN  9 0.4 2.1LRSN                1
 GAP=135        0.91       4.9     4.8  7.2  0.2486E+00  0.8054E+01  0.5714E+01E
 Epicentro: LOS SANTOS - SANTANDER                                             3
 ACTION:UP  12-02-03 08:16 OP:REBC STATUS:               ID:20120111160646 L   I
 2012-01-11-1600-00M.COL___188                                                 6
 STAT SP IPHASW D HRMM SECON CODA AMPLIT PERI AZIMU VELO SNR AR TRES W  DIS CAZ7
 BAR2 SZ EP   1   16 7  5.93                             171     0.0 7   23 186 
 BAR2 SZ ES   1   16 7 20.54                             171    -0.3 7   23 186 
 BAR2 SZ I        16 7 21.76        35.3 0.16                            23 186 
 GIR2 SZ EP   1   16 7  5.91                             167    -0.1 7   32 354 
 BRR  HZ EP       16 7  7.73                             152     0.310   70 300 
 BRR  HN ES   1   16 7 24.51                             152     1.0 7   70 300 
 BRR  HZ I        16 7 25.39        30.0 0.10                            70 300 
 PAM  SZ EP   1   16 7  8.46                             150    -0.2 7   79  40 
 PAM  SN ES   1   16 7 25.50                             150    -0.3 7   79  40 
 RUS  HZ EP   1   16 7 10.22                             143     0.1 7  100 175 
 RUS  HN ES   1   16 7 28.25                             143    -0.1 7  100 175 
 RUS  HZ I        16 7 30.50        22.4 0.24                           100 175 
 PTB  HZ EP   1   16 7 12.45                             132    -0.8 7  146 259 
 PTB  HN ES   1   16 7 33.36                             132    -0.5 7  146 259 
 ZAR  HZ EP   1   16 7 18.74                             122     0.0 6  203 292 
 ZAR  HN ES   1   16 7 43.57                             122    -0.2 6  203 292 
 NOR  SN ES   1   16 7 49.85                             118     0.2 6  233 234 
 CHI  HZ EP       16 7 24.46                             116     0.4 8  248 195 
 CHI  HZ I        16 7 57.53         5.1 0.35                           248 195 
                                                                                
