 2010  911 1515 28.5 L   6.779 -73.108148.7  RSN  6 0.4 1.8LRSN                1
 GAP=163        0.77       5.8    12.7 10.4 -0.5865E+01 -0.3929E+02 -0.1053E+02E
 Epicentro: LOS SANTOS - SANTANDER                                             3
 ACTION:UP  11-02-18 11:02 OP:tino STATUS:               ID:20100911151528 L   I
 2010-09-11-1512-25S.COL___120                                                 6
 STAT SP IPHASW D HRMM SECON CODA AMPLIT PERI AZIMU VELO SNR AR TRES W  DIS CAZ7
 BAR2 SZ EP   1   1515 48.47                             171     0.0 7   22 202 
 BAR2 SZ ES   2   1516  3.44                             171    -0.6 5   22 202 
 BAR2 SZ I        1516  4.52        14.7 0.35                            22 202 
 GIR2 SZ EP   2   1515 49.64                             166     1.0 5   35 344 
 GIR2 SZ ES   3   1516  5.15                             166     0.9 2   35 344 
 BRR  HZ EP   1   1515 50.18                             151    -0.1 7   76 299 
 BRR  HE ES   2   1516  7.20                             151     0.0 5   76 299 
 BRR  HZ I        1516 11.81        18.9 0.13                            76 299 
 RUS  HZ EP   1   1515 52.52                             145     0.2 7   98 178 
 RUS  HN ES   2   1516 10.84                             145    -0.1 5   98 178 
 RUS  HZ I        1516 13.01         6.5 0.28                            98 178 
 GUE  SZ EP   1   1515 53.01                             140    -0.6 7  118  10 
 GRA  SZ EP   1   1515 54.19                             137     0.1 7  127  15 
 GRA  SZ ES   2   1516 14.32                             137     0.3 5  127  15 
 GRA  SZ I        1516 15.57         5.6 0.17                           127  15 
                                                                                
