 2012  211 1516 19.1 L   7.399 -73.156138.0  RSN 11 0.5 2.2LRSN                1
 GAP=108        0.85       3.8     4.5  6.4  0.8544E+00  0.8319E+01  0.4131E+01E
 ACTION:UP  12-03-07 16:29 OP:epov STATUS:               ID:20120211151619 L   I
 2012-02-11-1510-00M.COL___188                                                 6
 STAT SP IPHASW D HRMM SECON CODA AMPLIT PERI AZIMU VELO AIN AR TRES W  DIS CAZ7
 GIR2 SZ EP   1   1516 38.28                             165    0.30 7 35.6 187 
 PAM  SZ IP       1516 39.58                             159    0.5010 50.8  97 
 PAM  SZ EP       1516 39.58                             159           50.8  97 
 PAM  SN ES   1   1516 54.79                             159    0.13 7 50.8  97 
 PAM  SZ I        1516 57.18        38.9 0.48                          50.8  97 
 BRR  HZ EP   1   1516 39.62                             152    0.31 7 69.4 242 
 BRR  HZ I        1516 39.93        81.5 0.13                          69.4 242 
 BRR  HN ES   1   1516 55.03                             152   -0.04 7 69.4 242 
 BAR2 SZ EP   1   1516 40.57                             145   -0.35 7 89.3 182 
 BAR2 SZ ES   1   1516 57.44                             145   -0.50 7 89.3 182 
 OCA  SZ EP   1   1516 40.37                             144   -0.81 7 94.6 349 
 OCA  SZ ES   1   1516 58.57                             144    0.17 7 94.6 349 
 RUS  HZ EP   1   1516 47.01                             127   -0.89 7  167 177 
 RUS  HE ES   1   1517 10.30                             127   -0.06 7  167 177 
 RUS  HZ I        1517 16.63         6.5 0.15                           167 177 
 PTB  HZ EP   1   1516 47.76                             125   -0.05 7  172 237 
 PTB  HN ES   1   1517 10.28                             125    0.08 7  172 237 
 ZAR  HZ EP   1   1516 49.49                             123    0.08 7  188 273 
 ZAR  HN ES   1   1517 13.06                             123    0.02 7  188 273 
 ZAR  HZ I        1517 17.37        33.1 0.08                           188 273 
 HEL  HZ EP   1   1517  0.79                             111   -0.66 5  294 243 
 HEL  HZ I        1517 46.64         9.2 0.38                           294 243 
 CHI  HZ EP   1   1517  4.27                             110    0.66 5  313 192 
 CHI  HN ES   1   1517 39.08                             110    0.75 5  313 192 
 CHI  HZ I        1517 54.85         5.2 0.28                           313 192 
 DBB  SZ EP   1   1517  6.86                             108    0.54 5  340 263 
                                                                                
