 2014  611 1038 36.9 L   6.773 -73.156143.4  RSN  7 0.5 1.7LRSN                1
 GAP=137        1.08       4.3     5.0  8.5 -0.1514E+01  0.1559E+02 -0.1207E+02E
 Epicentro: LOS SANTOS - SANTANDER                                             3
 ACTION:UPD 14-07-01 22:52 OP:nd   STATUS:               ID:20140611103836 L   I
 OLDACT:REG 14-06-11 20:11 OP:spq  STATUS:               ID:20140611103820     3
 2014-06-11-1038-20M.COL___253                                                 6
 STAT SP IPHASW D HRMM SECON CODA AMPLIT PERI AZIMU VELO AIN AR TRES W  DIS CAZ7
 BAR2 SZ EP       1038 56.66                             172    0.4610 20.2 188 
 BAR2 SZ ES   1   1039 11.32                             172    0.07 7 20.2 188 
 BAR2 SZ I        1039 12.51        16.8 0.30            173           20.2 188 
 PAM  SZ EP       1038 59.51                             149    0.4410 80.4  39 
 PAM  SN ES       1039 16.46                             149    0.1210 80.4  39 
 PAM  SZ I        1039 18.44        11.1 0.48            152           80.4  39 
 RUS  HZ EP   1   1039  0.16                             144   -0.07 7 97.7 175 
 RUS  HE ES       1039 17.73                             144   -0.6810 97.7 175 
 RUS  HZ I        1039 21.14         2.8 0.32            147           97.7 175 
 PTB  HZ EP       1039  3.65                             132    0.11 9  146 260 
 PTB  HN ES       1039 24.32                             132    0.01 9  146 260 
 PTB  HZ I        1039 25.66         3.8 0.20            133            146 260 
 OCA  HZ EP   1   1039  5.43                             128    0.11 7  163 354 
 OCA  HN ES   1   1039 27.59                             128    0.12 7  163 354 
 ZAR  HZ EP       1039  9.80                             122    0.58 9  204 293 
 ZAR  HE ES       1039 34.61                             122    0.19 9  204 293 
 ZAR  HZ I        1039 40.53         4.6 0.54            123            204 293 
 SML  HZ EP       1039 12.55                             117   -1.11 8  246 336 
 SML  HN ES       1039 41.65                             117   -0.67 8  246 336 
 SML  HZ I        1039 45.78         6.5 0.24            118            246 336 
                                                                                
