 2014  211 1019 55.8 L   7.432 -73.331123.7  RSN 10 0.5 2.2LRSN                1
 GAP= 98        0.85       2.6     4.3  7.3  0.1156E+01  0.1054E+02  0.2996E+01E
 Epicentro: EL PLAYON - SANTANDER                                              3
 ACTION:UPD 14-03-10 08:09 OP:ep   STATUS:               ID:20140211101955 L   I
 OLDACT:UP  14-02-11 16:37 OP:mh   STATUS:               ID:20140211101857     3
 OLDACT:UP  14-02-11 16:31 OP:mh   STATUS:               ID:20140211101857     3
 OLDACT:UP  14-02-11 16:28 OP:mh   STATUS:               ID:20140211101857     3
 OLDACT:REG 14-02-11 16:22 OP:mh   STATUS:               ID:20140211101857     3
 2014-02-11-1018-57M.COL___083                                                 6
 STAT SP IPHASW D HRMM SECON CODA AMPLIT PERI AZIMU VELO AIN AR TRES W  DIS CAZ7
 PAM  SN ES   1   1020 30.03                             149   -0.44 8 70.5  98 
 OCA  HN ES   1   1020 32.42                             142    0.47 8 89.2   1 
 OCA  HZ I        1020 38.73        25.0 0.17            149           89.2   1 
 PTB  HZ EP       1020 21.83                             124   -0.3610  159 232 
 PTB  HN ES       1020 42.83                             124    0.0810  159 232 
 PTB  HZ I        1020 47.16        13.7 0.16            128            159 232 
 ZAR  HZ EP   4   1020 24.65                             122    1.46 0  169 272 
 ZAR  HN ES   4   1020 46.32                             122    1.79 0  169 272 
 ZAR  HZ I        1020 50.52        26.9 0.26            126            169 272 
 SML  HZ EP   1   1020 23.64                             122    0.13 7  172 332 
 SML  HN ES       1020 45.45                             122    0.3510  172 332 
 SML  HZ I        1020 49.76        27.0 0.26            128            172 332 
 TAM  HZ EP   1   1020 26.52                             117   -0.32 7  203 123 
 SPBC HZ EP   1   1020 28.19                             116    0.14 7  213 203 
 SPBC HN ES       1020 52.86                             116   -0.32 9  213 203 
 SPBC HZ I        1020 59.40        11.3 0.16            121            213 203 
 URE  HZ EP   1   1020 31.87                             112    0.32 6  246 278 
 URE  HN ES   1   1020 59.18                             112   -0.22 6  246 278 
 URE  HZ I        1021  7.74        30.1 0.32            117            246 278 
 HEL  HZ EP   4   1020 37.44                             109    1.62 0  279 241 
 HEL  HN ES   4   1021 10.33                             109    3.32 0  279 241 
 CHI  HZ EP   1   1020 40.77                             107    0.95 6  313 188 
 CHI  HN ES   1   1021 15.01                             107    0.88 6  313 188 
 CHI  HZ I        1021 23.80         3.8 0.37            112            313 188 
 SJC  HZ EP       1020 42.62                             105    0.07 7  340 323 
 SJC  HN ES       1021 18.09                             105   -0.90 7  340 323 
 SJC  HZ I        1021 20.69         4.8 0.10            110            340 323 
                                                                                
