 2015  611 1142 22.4 L   6.817 -73.132144.6  RSN 14 0.5 1.9LRSN                1
 GAP=137        1.10       3.2     4.3  5.7 -0.1953E+01  0.1010E+02  0.2464E+01E
 Epicentro: LOS SANTOS - SANTANDER                                             3
 ACTION:UPD 15-09-10 22:11 OP:cam  STATUS:               ID:20150611114222 L   I
 OLDACT:REG 15-06-11 20:55 OP:ak   STATUS:               ID:20150611113750     3
 2015-06-11-1137-50M.COL___282                                                 6
 STAT SP IPHASW D HRMM SECON CODA AMPLIT PERI AZIMU VELO AIN AR TRES W  DIS CAZ7
 BAR2 EZ EP       1142 41.82                             170   -0.0910 25.5 192 
 BAR2 EZ ES       1142 56.83                             170   -0.3210 25.5 192 
 BAR2 EZ I        1142 58.18        21.8 0.18            167           25.5 192 
 BRR  HZ EP       1142 43.76                             152    0.3410 71.6 297 
 BRR  HN ES       1143  0.21                             152    0.3710 71.6 297 
 BRR  HZ I        1143  4.83        12.0 0.15            150           71.6 297 
 PAM  SZ EP       1142 44.68                             151    0.3510 75.0  40 
 PAM  SN ES       1143  2.26                             151    0.8210 75.0  40 
 PAM  SZ I        1143  3.31         9.6 0.40            157           75.0  40 
 RUS  HZ EP       1142 45.87                             143   -0.2810  102 177 
 RUS  HN ES       1143  4.29                             143   -0.3910  102 177 
 RUS  HZ I        1143  5.61         8.0 0.25            145            102 177 
 SPBC HZ EP       1142 50.81                             128   -0.21 9  166 219 
 SPBC HN ES       1143 12.49                             128   -0.86 9  166 219 
 SPBC HZ I        1143 18.27        12.9 0.12            129            166 219 
 ZAR  HZ EP   1   1142 54.71                             122   -0.11 6  205 291 
 ZAR  HN ES       1143 19.51                             122   -0.60 9  205 291 
 ZAR  HZ I        1143 28.21         7.5 0.13            123            205 291 
 NOR  HZ EP       1142 58.09                             118   -0.20 8  237 234 
 NOR  HN ES       1143 26.14                             118   -0.15 8  237 234 
 NOR  HZ I        1143 31.08         7.4 0.38            119            237 234 
 SML  HZ EP   1   1142 57.96                             117   -0.86 6  243 335 
 SML  HN ES       1143 26.53                             117   -0.71 8  243 335 
 SML  HZ I        1143 30.61        12.3 0.10            119            243 335 
 CHI  HZ EP   1   1142 59.44                             117   -0.81 6  251 195 
 CHI  HN ES       1143 30.00                             117    0.21 8  251 195 
 CHI  HZ I        1143 36.37         4.1 0.34            118            251 195 
 HEL  HZ EP       1143  3.37                             114    0.63 8  274 255 
 HEL  HN ES       1143 34.43                             114    0.21 8  274 255 
 HEL  HZ I        1143 37.87         3.9 0.38            115            274 255 
 GUY2CHZ EP       1143  6.32                             112    0.13 7  303 235 
 GUY2CHN ES       1143 41.17                             112    0.80 7  303 235 
 GUY2CHZ I        1143 48.22         7.1 0.34                           303 235 
 RREF HZ EP   1   1143  8.47                             110   -0.27 5  324 229 
 RREF HZ IPg      1143  8.82                             110    0.08 7  324 229 
 RREF HN ES       1143 45.74                             110    0.84 7  324 229 
 RREF HZ I        1143 53.90         1.6 0.46            112            324 229 
 TOL  SZ EP       1143 11.46                             109    0.60 6  346 225 
 TOL  SN ES       1143 48.99                             109    0.31 6  346 225 
 TOL  SZ I        1143 54.90         4.1 0.36            110            346 225 
 MON  HZ EP   4   1143  6.55                             108   -4.78 0  354 308 
 MON  HN ES   4   1143 47.39                             108   -2.12 0  354 308 
 MON  HZ I        1143 48.18         2.1 0.31            110            354 308 
 SJC  HZ EP   4   1143 16.02                             105   -1.79 0  408 327 
 SJC  HN ES   4   1143 56.70                             105   -4.35 0  408 327 
                                                                                
