 2013 1211 1656 47.2 L   6.805 -73.134153.2  RSN 12 0.4 2.6LRSN                1
 GAP=120        0.99       3.3     4.0  5.4 -0.1019E+01  0.5524E+01 -0.1139E+01E
 Epicentro: LOS SANTOS - SANTANDER                                             3
 ACTION:UPD 14-01-13 10:17 OP:ep   STATUS:               ID:20131211165647 L   I
 OLDACT:REG 13-12-11 14:51 OP:cam  STATUS:               ID:20131211165000     3
 2013-12-11-1650-00M.COL___285                                                 6
 STAT SP IPHASW D HRMM SECON CODA AMPLIT PERI AZIMU VELO AIN AR TRES W  DIS CAZ7
 BAR2 SZ IP       1657  7.82                             171    0.0710 24.2 193 
 BAR2 SZ ES       1657 23.41                             171   -0.3610 24.2 193 
 BAR2 SZ I        1657 24.52       119.1 0.20            171           24.2 193 
 BRR  HZ EP       1657  9.73                             153    0.5210 72.1 298 
 BRR  HN ES       1657 27.14                             153    0.7610 72.1 298 
 BRR  HZ I        1657 30.01        63.8 0.30            150           72.1 298 
 PAM  SZ EP       1657 10.63                             152    0.4910 76.1  39 
 PAM  SN ES       1657 27.97                             152   -0.0610 76.1  39 
 PAM  SZ I        1657 29.77        35.7 0.56            154           76.1  39 
 RUS  HZ EP       1657 11.70                             145   -0.0310  101 177 
 RUS  HN ES       1657 30.34                             145   -0.5210  101 177 
 RUS  HZ I        1657 31.43        34.3 0.30            149            101 177 
 PTB  HZ EP       1657 14.40                             133   -0.52 9  149 259 
 PTB  HN ES       1657 36.07                             133   -0.46 9  149 259 
 PTB  HZ I        1657 42.73        54.1 0.50            133            149 259 
 SPBC HZ EP       1657 16.72                             130    0.32 9  164 219 
 SPBC HN ES       1657 39.21                             130    0.03 9  164 219 
 SPBC HZ I        1657 41.50        51.0 0.42            132            164 219 
 ZAR  HZ EP       1657 20.21                             124   -0.04 9  205 292 
 ZAR  HE ES       1657 46.21                             124    0.19 9  205 292 
 ZAR  HZ I        1657 52.76        52.5 0.32            124            205 292 
 NOR  HZ EP       1657 23.78                             120    0.25 8  236 235 
 NOR  HN ES       1657 52.05                             120    0.19 8  236 235 
 NOR  HZ I        1657 53.98        21.9 0.36            121            236 235 
 SML  HZ EP       1657 24.16                             119   -0.10 8  244 335 
 SML  HN ES       1657 52.27                             119   -0.90 8  244 335 
 SML  HZ I        1658  0.31        59.3 0.12            119            244 335 
 CHI  HZ EP   4   1657 25.45                             118    0.03 0  250 195 
 HEL  HZ EP   4   1657 30.14                             116    2.17 0  274 256 
 GUY2CHZ EP   4   1657 33.91                             113    2.58 0  303 235 
 PTGC HZ EP   2   1657 31.13                             113   -0.28 4  309 159 
 COD  HZ EP   4   1657 35.87                             110    0.03 0  348 354 
 PRA  HZ EP   2   1657 41.56                             108    0.43 3  393 210 
 SJC  HZ EP   2   1657 42.00                             107   -1.05 3  409 327 
                                                                                
