 2011  511 1357 25.9 L   6.802 -73.099145.7  RSN  6 0.2 1.7LRSN                1
 GAP=161        0.52       3.5     7.4  5.8 -0.9552E+01 -0.8757E+01  0.1598E+01E
 Epicentro: LOS SANTOS - SANTANDER                                             3
 ACTION:UP  11-06-29 08:52 OP:tino STATUS:               ID:20110511135725 L   I
 2011-05-11-1355-54S.COL___129                                                 6
 STAT SP IPHASW D HRMM SECON CODA AMPLIT PERI AZIMU VELO SNR AR TRES W  DIS CAZ7
 BTL  SZ EP   1   1357 45.57                             171     0.0 7   23 305 
 BTL  SZ ES   2   1358  1.02                             171     0.2 5   23 305 
 BAR2 SZ EP   1   1357 45.46                             170    -0.1 7   25 202 
 BAR2 SZ ES   2   1358  1.28                             170     0.4 5   25 202 
 BAR2 SZ I        1358  3.72        10.2 0.61                            25 202 
 BRR  HZ EP   1   1357 47.34                             151     0.0 7   76 297 
 BRR  HN ES   2   1358  3.84                             151    -0.2 5   76 297 
 BRR  HZ I        1358  5.20        18.3 0.44                            76 297 
 RUS  HZ EP   1   1357 49.74                             144     0.1 7  101 179 
 RUS  HN ES   2   1358  7.85                             144    -0.3 5  101 179 
 RUS  HZ I        1358  9.24         4.5 0.42                           101 179 
 BRI  SZ EP   1   1357 50.07                             142     0.4 7  107  18 
 BRI  SZ ES   2   1358  8.41                             142     0.2 5  107  18 
 BRI  SZ I        1358 14.88         9.3 0.46                           107  18 
 GRA  SZ EP   1   1357 50.85                             137    -0.2 7  124  15 
 GRA  SZ ES   1   1358 10.28                             137    -0.3 7  124  15 
 GRA  SZ I        1358 11.86         6.6 0.47                           124  15 
                                                                                
