 2011 1111 1913 16.9 L   6.797 -73.089142.0  RSN  5 0.1 1.6LRSN                1
 GAP=144        0.32       2.2     2.7  4.0  0.8121E+00  0.1133E+01  0.1039E+01E
 Epicentro: LOS SANTOS - SANTANDER                                             3
 ACTION:UPD 12-07-13 16:09 OP:ep   STATUS:               ID:20111111191316 L   I
 2011-11-11-1911-01S.COL___179                                                 6
 STAT SP IPHASW D HRMM SECON CODA AMPLIT PERI AZIMU VELO AIN AR TRES W  DIS CAZ7
 BAR2 SZ EP       1913 35.98                             170   -0.1610 24.9 204 
 BAR2 SZ I        1913 36.28         6.5 0.20                          24.9 204 
 PAM  SZ EP   1   1913 38.59                             151    0.06 7 73.8  36 
 PAM  SN ES   1   1913 55.42                             151    0.04 7 73.8  36 
 BRR  HZ EP       1913 38.03                             150    0.0210 76.9 297 
 BRR  HZ I        1913 39.79        12.8 0.52                          76.9 297 
 BRR  HN ES   1   1913 54.40                             150   -0.05 7 76.9 297 
 RUS  HZ EP   1   1913 40.33                             143    0.06 7  100 180 
 RUS  HE ES   1   1913 58.56                             143    0.08 7  100 180 
 ZAR  HN ES   2   1914 15.52                             121    0.18 4  210 292 
 ZAR  HZ I        1914 20.05         3.5 0.18                           210 292 
                                                                                
