 2011  311 1136 52.6 L   6.802 -73.141138.8  RSN  4 0.3 1.2LRSN                1
 GAP=159        0.68       4.7     8.2  9.0 -0.2471E+02  0.3496E+02 -0.1501E+02E
 Epicentro: LOS SANTOS - SANTANDER                                             3
 ACTION:UP  11-06-16 14:33 OP:jfem STATUS:               ID:20110311113652 L   I
 2011-03-11-1132-36S.COL___135                                                 6
 STAT SP IPHASW D HRMM SECON CODA AMPLIT PERI AZIMU VELO SNR AR TRES W  DIS CAZ7
 BAR2 SZ EP   1   1137 10.72                             170    -0.6 8   24 191 
 BAR2 SZ ES   2   1137 26.09                             170     0.1 5   24 191 
 RUS  HZ EP   1   1137 15.63                             142     0.0 8  101 176 
 RUS  HN ES   1   1137 33.86                             142     0.2 8  101 176 
 RUS  HZ I        1137 34.83         1.7 0.15                           101 176 
 GRA  SZ EP       1137 17.15                             135     0.010  125  17 
 GRA  SZ I        1137 18.37         4.7 0.32                           125  17 
 GRA  SZ ES   1   1137 36.53                             135     0.2 7  125  17 
 NOR  SZ EP   1   1137 28.48                             117     0.5 6  235 235 
 NOR  SE ES   1   1137 55.40                             117    -0.2 6  235 235 
                                                                                
