 2010  511 1838 47.1 L   6.734 -73.084145.5  RSN  4 0.2 1.5LRSN                1
 GAP=172        0.51       5.6    11.3  8.7  0.2921E+02 -0.4750E+02 -0.2214E+02E
 Epicentro: JORDAN - SANTANDER                                                 3
 ACTION:UP  10-08-24 10:04 OP:vdl  STATUS:               ID:20100511183847 L   I
 2010-05-11-1837-32S.COL___104                                                 6
 STAT SP IPHASW D HRMM SECON CODA AMPLIT PERI AZIMU VELO AIN AR TRES W  DIS CAZ7
 BAR2 SZ EP   1   1839  6.17                             172    -0.4 7   19 215 
 BAR2 SZ ES   2   1839 21.76                             172    -0.1 5   19 215 
 BRR  HZ EP   1   1839  8.91                             149     0.1 7   81 301 
 BRR  HN ES   2   1839 25.63                             149    -0.1 5   81 301 
 BRR  HZ I        1839 27.16        14.5 0.40                            81 301 
 RUS  HZ EP   1   1839 10.29                             146     0.0 7   93 180 
 RUS  HE ES   2   1839 28.71                             146     0.4 5   93 180 
 RUS  HZ I        1839 29.74         1.9 0.37                            93 180 
 GUE  SZ EP   1   1839 12.40                             138     0.2 7  122   8 
                                                                                
