 2016  511 1752 18.4 L   6.810 -73.125150.7  RSN 16 0.4 2.2LRSN                1
 GAP=120        0.95       3.0     3.4  4.5 -0.7020E+00  0.3400E+01  0.2680E+01E
 Epicentro: LOS SANTOS - SANTANDER                                             3
 ACTION:UPD 16-08-18 17:44 OP:cam  STATUS:               ID:20160511175218 L   I
 OLDACT:UP  16-05-11 22:19 OP:edw  STATUS:               ID:20160511174743     3
 OLDACT:UP  16-05-11 22:17 OP:edw  STATUS:               ID:20160511174743     3
 OLDACT:REG 16-05-11 18:49 OP:ak   STATUS:               ID:20160511174743     3
 2016-05-11-1747-43M.COL___298                                                 6
 STAT SP IPHASW D HRMM SECON CODA AMPLIT PERI AZIMU VELO AIN AR TRES W  DIS CAZ7
 BAR2 EZ EP       1752 38.58                             170   -0.0210 24.8 195 
 BAR2 EZ ES       1752 53.86                             170   -0.5410 24.8 195 
 BAR2 EZ I        1752 54.78        40.9 0.24            168           24.8 195 
 BRR  HZ IP     C 1752 40.34                             153    0.2310 72.7 297 
 BRR  HN ES       1752 57.75                             153    0.6610 72.7 297 
 BRR  HZ I        1753  0.85        27.2 0.31            150           72.7 297 
 PAM  EZ EP       1752 41.36                             152    0.4010 75.1  39 
 PAM  EN ES       1752 58.93                             152    0.3310 75.1  39 
 PAM  EZ I        1753  1.83        16.3 0.38            156           75.1  39 
 RUS  HZ EP       1752 42.63                             145   -0.0210  102 177 
 RUS  HN ES       1753  1.58                             145   -0.0310  102 177 
 RUS  HZ I        1753  2.34        11.7 0.19            146            102 177 
 PTB  HZ EP       1752 45.14                             133   -0.80 9  150 259 
 PTB  HE ES       1753  7.11                             133   -0.34 9  150 259 
 PTB  HZ I        1753 11.50        21.2 0.44            132            150 259 
 OCA  HZ EP   2   1752 46.35                             131   -0.63 5  160 352 
 SPBC HZ EP       1752 47.69                             130    0.25 9  165 219 
 SPBC HN ES       1753  9.82                             130   -0.31 9  165 219 
 SPBC HZ I        1753 15.18        25.5 0.18            130            165 219 
 ZAR  HZ EP       1752 51.50                             123    0.21 8  206 292 
 ZAR  HN ES       1753 16.66                             123   -0.33 8  206 292 
 ZAR  HZ I        1753 22.99        15.9 0.07            123            206 292 
 NOR  HZ EP       1752 54.76                             119    0.13 8  237 235 
 NOR  HN ES       1753 22.68                             119   -0.24 8  237 235 
 NOR  HZ I        1753 27.54        12.4 0.18            119            237 235 
 CHI  HZ EP       1752 56.73                             118    0.23 8  250 196 
 CHI  HN ES       1753 26.10                             118   -0.15 8  250 196 
 CHI  HZ I        1753 31.23        10.3 0.36            119            250 196 
 HEL  HZ EP       1752 59.63                             115    0.55 8  275 256 
 HEL  HN ES       1753 31.01                             115    0.15 8  275 256 
 HEL  HZ I        1753 37.31         9.0 0.48            116            275 256 
 URE  HZ EP   2   1752 58.86                             114   -0.99 4  286 292 
 URE  HE ES   4   1753 28.52                             114   -3.70 0  286 292 
 URE  HZ I        1753 40.84        11.7 0.18            115            286 292 
 PTGC HZ EP       1753  1.86                             112   -0.59 7  309 159 
 PTGC HE ES   4   1753 35.61                             112   -1.24 0  309 159 
 ANIL HN ES   4   1753 49.09                             109    1.27 0  360 225 
 PRA  HZ EP       1753 12.31                             107    0.03 6  394 210 
 PRA  HN ES       1753 54.69                             107    0.35 6  394 210 
 PRA  HZ I        1754  1.05         8.2 0.24            108            394 210 
 ORTC HZ EP       1753 13.17                             107    0.48 6  398 216 
 ORTC HN ES       1753 55.99                             107    0.91 6  398 216 
 SJC  HZ EP       1753 13.15                             106   -0.97 6  410 327 
 SJC  HN ES   4   1753 52.95                             106   -4.67 0  410 327 
 SJC  HN IPn      1753 52.95                                            410 327 
                                                                                
