 2014 1211 1216 57.0 L   6.267 -73.618100.9  RSN  4 0.1 1.6LRSN                1
 GAP=163        0.44       3.3     2.1  4.5  0.2641E+01  0.2912E+01 -0.5664E+00E
 Epicentro: SANTA HELENA DEL OPON - SANTANDER                                  3
 ACTION:UPD 15-02-10 17:02 OP:nd   STATUS:               ID:20141211121657 L   I
 OLDACT:DUP 14-12-11 23:27 OP:stll STATUS:               ID:20141211120746d    3
 2014-12-11-1207-45M.COL___298                                                 6
 STAT SP IPHASW D HRMM SECON CODA AMPLIT PERI AZIMU VELO AIN AR TRES W  DIS CAZ7
 BAR2 EZ EP       1217 12.93                             147   -0.1510 60.2  53 
 BAR2 EZ ES       1217 25.65                             147    0.0310 60.2  53 
 BAR2 EZ I        1217 27.30        26.6 0.28             90           60.2  53 
 RUS  HZ EP       1217 14.53                             142    0.2310 72.3 125 
 RUS  HN ES       1217 27.69                             142   -0.1010 72.3 125 
 RUS  HZ I        1217 30.34         3.3 0.28             90           72.3 125 
 BRR  HZ EP       1217 15.44                             133    0.0810 93.5 354 
 BRR  HZ I        1217 49.24        21.1 0.26             90           93.5 354 
 PTB  HZ EP       1217 15.57                             132   -0.1810 97.5 288 
 PTB  HN ES       1217 30.45                             132    0.0810 97.5 288 
                                                                                
