 2013  111 1246 16.4 L   6.721 -73.202142.0  RSN  5 0.4 1.5LRSN                1
 GAP=224        1.17       8.7     8.0  9.4  0.4313E+02  0.1379E+02  0.2846E+01E
 Epicentro: VILLANUEVA - SANTANDER                                             3
 ACTION:UPD 13-02-15 09:13 OP:ep   STATUS:               ID:20130111124616 L   I
 2013-01-11-1238-42M.COL___189                                                 6
 STAT SP IPHASW D HRMM SECON CODA AMPLIT PERI AZIMU VELO AIN AR TRES W  DIS CAZ7
 BAR2 SZ EP       1246 35.04                             174   -0.4110 14.5 171 
 BAR2 SZ ES       1246 49.51                             174   -0.7810 14.5 171 
 BAR2 SZ I        1246 51.14         8.6 0.16            167           14.5 171 
 BRR  HZ EP       1246 37.27                             152    0.1410 70.7 307 
 BRR  HN ES       1246 54.02                             152    0.7310 70.7 307 
 RUS  HZ EP       1246 39.45                             145    0.2210 92.6 172 
 RUS  HE ES       1246 57.54                             145    0.5210 92.6 172 
 RUS  HN I        1246 59.38         3.9 0.34            143           92.6 172 
 PTB  HZ EP       1246 42.25                             133   -0.14 9  140 262 
 PTB  HN ES       1247  2.35                             133   -0.30 9  140 262 
 PTB  HN I        1247  7.72         6.8 0.36            131            140 262 
 ZAR  HN ES       1247 13.28                             122   -0.04 9  202 295 
                                                                                
