 2012  711 1304 52.1 L   6.441 -73.678102.4  RSN  5 0.4 1.5LRSN                1
 GAP=179        1.02       6.4     7.1 11.2  0.2696E+02  0.4256E+02  0.2569E+02E
 Epicentro: SANTA HELENA DEL OPON - SANTANDER                                  3
 ACTION:UPD 12-08-14 11:44 OP:ep   STATUS:               ID:20120711130452 L   I
 2012-07-11-1300-00M.COL___187                                                 6
 STAT SP IPHASW D HRMM SECON CODA AMPLIT PERI AZIMU VELO AIN AR TRES W  DIS CAZ7
 BAR2 SZ EP       13 5  8.48                             149     0.310   57  73 
 BAR2 SZ ES       13 5 20.91                             149     0.210   57  73 
 BAR2 SZ I        13 5 22.24        16.1 0.21            154             57  73 
 BRR  HZ EP       13 5  8.83                             141    -0.210   74 357 
 BRR  HN ES       13 5 22.22                             141     0.110   74 357 
 RUS  HZ EP       13 5 11.44                             136     0.510   90 133 
 RUS  HZ I        13 5 12.05         3.9 0.13            139             90 133 
 RUS  HN ES   1   13 5 24.83                             136    -0.8 7   90 133 
 PAM  SN ES   1   13 5 35.12                             120    -0.4 7  147  47 
 ZAR  HZ EP   1   13 5 18.31                             115    -0.6 7  175 312 
 ZAR  HN ES   1   13 5 39.82                             115     0.1 7  175 312 
 ZAR  HZ I        13 5 43.26         4.0 0.34            116            175 312 
