 2011  411 1018 32.7 L   6.717 -73.094139.4  RSN  5 0.3 1.4LRSN                1
 GAP=183        0.67       7.6     7.8  8.0 -0.1385E+02 -0.1224E+02 -0.5679E+01E
 Epicentro: JORDAN - SANTANDER                                                 3
 ACTION:UP  11-06-22 15:30 OP:REBC STATUS:               ID:20110411101832 L   I
 2011-04-11-1000-00M.COL___140                                                 6
 STAT SP IPHASW D HRMM SECON CODA AMPLIT PERI AZIMU VELO SNR AR TRES W  DIS CAZ7
 BAR2 SZ EP   1   1018 51.38                             173    -0.1 7   17 215 
 BAR2 SZ ES   1   1019  6.05                             173     0.0 7   17 215 
 BAR2 SZ I        1019 20.34         6.4 0.71                            17 215 
 BTL  SZ EP   1   1018 52.36                             168     0.7 7   29 319 
 BRR  HZ EP   1   1018 53.42                             148    -0.3 7   81 302 
 BRR  HZ I        1018 55.36         7.4 0.13                            81 302 
 BRR  HN ES   1   1019 10.11                             148    -0.1 7   81 302 
 PAM  SZ EP   1   1018 54.21                             148    -0.3 7   81  32 
 PAM  SE ES   2   1019 11.24                             148    -0.2 5   81  32 
 GRA  SZ EP   2   1018 58.13                             134     0.1 5  133  14 
 GRA  SZ ES   2   1019 18.04                             134     0.3 5  133  14 
 GRA  SZ I        1019 18.92         2.9 0.32                           133  14 
                                                                                
