 2015  711 1403  9.0 L   6.821 -73.077142.0  RSN  7 0.6 2.2LRSN                1
 GAP=223        0.97       3.9     7.2  7.2  0.3561E+01  0.1985E+02  0.2755E+01E
 Epicentro: LOS SANTOS - SANTANDER                                             3
 ACTION:UPD 15-09-08 21:48 OP:cam  STATUS:               ID:20150711140309 L   I
 OLDACT:REG 15-07-11 21:29 OP:ar   STATUS:               ID:20150711135746     3
 2015-07-11-1357-46M.COL___343                                                 6
 STAT SP IPHASW D HRMM SECON CODA AMPLIT PERI AZIMU VELO AIN AR TRES W  DIS CAZ7
 BAR2 EZ EP       14 3 28.48                             168    0.1610 27.8 205 
 BAR2 EZ ES       14 3 43.40                             168    0.0510 27.8 205 
 BAR2 EZ I        14 3 44.98        83.0 0.14            161           27.8 205 
 ZAR  HZ EP       14 3 41.67                             121   -0.21 8  210 291 
 ZAR  HE ES       14 4  6.86                             121   -0.64 8  210 291 
 ZAR  HZ I        14 4 16.92         9.3 0.24            120            210 291 
 SML  HZ EP       14 3 45.15                             116   -0.43 8  245 333 
 SML  HN ES       14 4 14.61                             116    0.52 8  245 333 
 SML  HZ I        14 4 16.81        24.2 0.26            117            245 333 
 CHI  HZ EP       14 3 46.75                             116   -0.25 8  253 197 
 CHI  HN ES   2   14 4 15.86                             116   -0.75 4  253 197 
 CHI  HZ I        14 4 19.12         4.4 0.40            117            253 197 
 GUY2CHZ EP       14 3 54.16                             111    0.84 7  309 235 
 GUY2CHN ES   1   14 4 29.05                             111    1.18 5  309 235 
 GUY2CHZ I        14 4 34.60         7.5 0.26                           309 235 
 TOL  SZ EP       14 3 58.37                             108    0.42 6  350 225 
 TOL  SN ES       14 4 35.71                             108   -0.39 6  350 225 
 TOL  SZ I        14 4 42.00         4.7 0.48            109            350 225 
 PRA  HZ EP   2   14 4  2.25                             106   -0.85 3  398 210 
 PRA  HN ES   2   14 4 44.39                             106   -0.89 3  398 210 
 PRA  HZ I        14 4 50.68         4.9 0.38            106            398 210 
                                                                                
