 2010  911 1936 46.0 L   6.792 -73.122148.0  RSN  6 0.2 2.0LRSN                1
 GAP=161        0.37       2.8     6.1  5.8 -0.1308E+01 -0.1121E+02 -0.2298E+01E
 Epicentro: LOS SANTOS - SANTANDER                                             3
 ACTION:UP  11-02-18 11:02 OP:tino STATUS:               ID:20100911193646 L   I
 2010-09-11-1935-24S.COL___120                                                 6
 STAT SP IPHASW D HRMM SECON CODA AMPLIT PERI AZIMU VELO SNR AR TRES W  DIS CAZ7
 GIR2 SZ EP   2   1937  5.79                             167    -0.2 5   33 346 
 GIR2 SZ ES   3   1937 20.94                             167    -0.6 2   33 346 
 BRR  HZ EP   1   1937  7.47                             152    -0.1 7   74 298 
 BRR  HZ I        1937  7.71        42.4 0.10                            74 298 
 BRR  HE ES   2   1937 24.63                             152     0.3 5   74 298 
 RUS  HZ EP   1   1937  9.94                             145     0.0 7  100 178 
 RUS  HE ES   2   1937 28.59                             145     0.1 5  100 178 
 RUS  HZ I        1937 29.52         7.2 0.31                           100 178 
 GUE  SZ EP   1   1937 10.82                             140    -0.1 7  117  11 
 GRA  SZ EP   1   1937 11.56                             138     0.1 7  126  16 
 GRA  SZ ES   2   1937 31.56                             138     0.3 5  126  16 
 OCA  SZ EP   2   1937 14.39                             130    -0.2 5  161 352 
                                                                                
