 2016  911 1104 16.4 L   7.201 -74.122  4.0  RSN  5 0.3 0.9LRSN                1
 GAP=171        0.73       2.6     1.5  4.2  0.1341E+01 -0.3317E-01  0.2816E+01E
 Epicentro: PUERTO WILCHES - SANTANDER                                         3
 ACTION:UPD 17-08-17 21:08 OP:lp   STATUS:               ID:20160911110416 L   I
 OLDACT:DUP 16-09-11 21:50 OP:lv   STATUS:               ID:20160911105734d    3
 2016-09-11-1058-00M.COL___306                                                 6
 STAT SP IPHASW D HRMM SECON CODA AMPLIT PERI AZIMU VELO AIN AR TRES W  DIS CAZ7
 BRR  HZ EP       11 4 23.63                              47   -0.4410 46.4 103 
 BRR  HN ES       11 4 29.69                              47   -0.3310 46.4 103 
 BRR  HZ I        11 4 31.17         6.5 0.20             47           46.4 103 
 PTB  HZ EP       11 4 29.46                              47   -0.0110 82.0 207 
 PTB  HN ES       11 4 39.40                              47   -0.2410 82.0 207 
 PTB  HZ I        11 4 39.98         4.0 0.18             47           82.0 207 
 ZAR  HZ EP       11 4 30.51                              47    0.2210 87.4 292 
 ZAR  HN ES       11 4 41.05                              47   -0.0510 87.4 292 
 ZAR  HZ I        11 4 41.90         4.9 0.10             47           87.4 292 
 BAR2 EZ EP       11 4 36.44                              47    0.4110  124 123 
 BAR2 EZ ES       11 4 51.65                              47    0.3410  124 123 
 BAR2 EZ I        11 4 54.21         1.6 0.15             47            124 123 
 RUS  HZ EP       11 4 45.41                              37    0.03 9  185 142 
 RUS  HN ES       11 5  8.11                              37    0.15 9  185 142 
 RUS  HZ I        11 5  9.84         2.9 0.36             37            185 142 
                                                                                
