 2015  611 1621 45.8 L   6.822 -73.114141.5  RSN 18 0.5 2.2LRSN                1
 GAP=139        1.04       2.9     4.1  5.2 -0.1113E+01  0.8177E+01  0.2996E+01E
 Epicentro: LOS SANTOS - SANTANDER                                             3
 ACTION:UPD 15-09-10 22:11 OP:cam  STATUS:               ID:20150611162145 L   I
 OLDACT:REG 15-06-11 21:31 OP:ak   STATUS:               ID:20150611161748     3
 2015-06-11-1617-48M.COL___306                                                 6
 STAT SP IPHASW D HRMM SECON CODA AMPLIT PERI AZIMU VELO AIN AR TRES W  DIS CAZ7
 BAR2 EZ EP       1622  5.13                             169    0.1210 26.5 197 
 BAR2 EZ ES       1622 20.22                             169    0.2410 26.5 197 
 BAR2 EZ I        1622 21.53        32.3 0.18            166           26.5 197 
 BRR  HZ EP       1622  6.90                             151    0.2710 73.2 296 
 BRR  HN ES       1622 23.34                             151    0.4810 73.2 296 
 BRR  HZ I        1622 26.22        23.1 0.14            150           73.2 296 
 PAM  SZ EP   1   1622  7.75                             151    0.41 7 73.3  39 
 PAM  SN ES   1   1622 24.48                             151    0.36 7 73.3  39 
 PAM  SZ I        1622 27.59        18.8 0.44            158           73.3  39 
 RUS  HZ EP       1622  9.13                             142   -0.1910  103 178 
 RUS  HN ES       1622 26.83                             142   -0.8210  103 178 
 RUS  HZ I        1622 29.66        14.3 0.30            143            103 178 
 SPBC HZ EP       1622 14.22                             127   -0.17 9  167 219 
 SPBC HN ES       1622 36.38                             127   -0.30 9  167 219 
 SPBC HZ I        1622 41.48        33.2 0.10            128            167 219 
 ZAR  HZ EP       1622 17.73                             121   -0.51 8  206 291 
 ZAR  HN ES       1622 43.91                             121    0.38 8  206 291 
 ZAR  HZ I        1622 50.54        18.7 0.24            122            206 291 
 NOR  HZ EP       1622 21.83                             117    0.06 8  239 234 
 NOR  HN ES       1622 49.10                             117   -0.71 8  239 234 
 NOR  HZ I        1622 55.17        16.1 0.16            118            239 234 
 SML  HZ EP   1   1622 21.29                             117   -0.85 6  243 334 
 SML  HN ES       1622 49.73                             117   -0.73 8  243 334 
 CHI  HZ EP       1622 23.53                             116   -0.12 8  252 196 
 CHI  HN ES   1   1622 53.50                             116    0.35 6  252 196 
 CHI  HZ I        1623  0.69         7.7 0.42            118            252 196 
 HEL  HZ EP   1   1622 26.64                             113    0.37 6  276 255 
 HEL  HN ES       1622 57.20                             113   -0.62 7  276 255 
 HEL  HZ I        1623  5.49        11.4 0.50            115            276 255 
 GUY2CHZ EP       1622 30.60                             111    0.88 7  305 235 
 GUY2CHN ES       1623  4.52                             111    0.56 7  305 235 
 GUY2CHZ I        1623 11.89         9.0 0.28                           305 235 
 RREF HZ EP   1   1622 32.76                             110    0.49 5  326 229 
 RREF HN ES       1623  7.93                             110   -0.57 7  326 229 
 RREF HZ I        1623 15.78         3.5 0.24            111            326 229 
 TOL  SZ EP       1622 35.09                             108    0.69 6  348 225 
 TOL  SN ES       1623 13.18                             108    0.90 6  348 225 
 TOL  SZ I        1623 19.18        10.0 0.42            110            348 225 
 MON  HZ EP   4   1622 32.38                             108   -2.43 0  355 308 
 MON  HN ES   4   1623 10.79                             108   -2.23 0  355 308 
 MON  HZ I        1623 13.56         2.4 0.30            109            355 308 
 ANIL HZ EP   1   1622 36.74                             107    0.79 5  362 225 
 ANIL HE ES   1   1623 15.02                             107   -0.04 5  362 225 
 PRA  HZ EP       1622 39.23                             106   -0.42 6  396 210 
 PRA  HN ES       1623 21.47                             106   -0.17 6  396 210 
 PRA  HZ I        1623 27.62         6.4 0.28            107            396 210 
 ORTC HZ EP       1622 40.54                             105    0.47 6  399 216 
 ORTC HN ES       1623 23.14                             105    0.75 6  399 216 
 ORTC HZ I        1623 30.57         4.4 0.28            107            399 216 
 PAL  HZ EP       1622 40.50                             105   -0.85 6  410 239 
 PAL  HN ES       1623 24.52                             105   -0.13 6  410 239 
 PAL  HZ I        1623 29.16         4.4 0.24            106            410 239 
                                                                                
