 2012 1111 1054 43.3 L   6.774 -73.156144.8  RSN 12 0.5 2.2LRSN                1
 GAP=136        0.99       3.7     4.6  6.4 -0.2147E+01  0.8511E+01  0.4594E+01E
 Epicentro: LOS SANTOS - SANTANDER                                             3
 ACTION:UPD 12-12-05 15:32 OP:}ep  STATUS:               ID:20121111105443 L   I
 2012-11-11-1050-00M.COL___230                                                 6
 STAT SP IPHASW D HRMM SECON CODA AMPLIT PERI AZIMU VELO AIN AR TRES W  DIS CAZ7
 BAR2 SZ IP     C 1055  2.68                             172   -0.0310 20.3 188 
 BAR2 SZ ES   1   1055 17.57                             172   -0.31 7 20.3 188 
 BAR2 SZ I        1055 19.57        44.8 0.28                          20.3 188 
 GIR2 SZ EP       1055  2.99                             166    0.1010 34.0 353 
 GIR2 SZ ES   1   1055 18.02                             166   -0.18 7 34.0 353 
 BRR  HZ EP       1055  4.80                             152    0.4810 71.7 301 
 BRR  HN ES   1   1055 21.96                             152    1.20 7 71.7 301 
 BRR  HN I        1055 27.11        57.4 0.18                          71.7 301 
 PAM  SZ EP       1055  5.81                             150    0.2610 80.4  39 
 PAM  SN ES   1   1055 23.05                             150    0.12 7 80.4  39 
 PAM  SZ I        1055 25.30        17.3 0.50                          80.4  39 
 RUS  HZ EP       1055  6.44                             144   -0.2710 97.7 175 
 RUS  HE ES   1   1055 25.07                             144    0.07 7 97.7 175 
 RUS  HZ I        1055 26.45        17.1 0.34                          97.7 175 
 PTB  HZ EP       1055  9.26                             132   -0.73 9  146 260 
 PTB  HN ES   1   1055 30.04                             132   -0.81 7  146 260 
 PTB  HZ I        1055 31.45        19.2 0.12                           146 260 
 OCA  HZ EP   1   1055 11.34                             129   -0.41 7  163 354 
 OCA  HN ES   1   1055 33.33                             129   -0.65 7  163 354 
 ZAR  HZ EP   1   1055 16.10                             122    0.46 6  204 293 
 ZAR  HN ES   1   1055 40.53                             122   -0.38 6  204 293 
 ZAR  HN I        1055 46.39        26.1 0.14                           204 293 
 CHI  HZ EP   1   1055 20.44                             117   -0.12 6  246 195 
 CHI  HN ES   1   1055 49.48                             117   -0.18 6  246 195 
 CHI  HN I        1055 51.56        13.3 0.50                           246 195 
 HEL  HZ EP   1   1055 24.12                             115    0.90 6  270 256 
 HEL  HN ES   1   1055 54.18                             115   -0.21 6  270 256 
 HEL  HZ I        1056  1.66         7.8 0.22                           270 256 
 RREF HZ EP   1   1055 29.26                             111    0.22 5  319 230 
 RREF HN ES   1   1056  5.61                             111    0.86 5  319 230 
 RREF HZ I        1056 11.80         6.8 0.56                           319 230 
 PRA  HN ES   1   1056 18.04                             106    0.23 4  389 210 
 PRA  HN I        1056 23.08         6.1 0.58                           389 210 
                                                                                
