 2014  711 1632 58.9 L   6.487 -73.603109.7  RSN  6 0.3 1.8LRSN                1
 GAP=135        0.70       3.2     3.3  5.1  0.3653E+01  0.3691E+01 -0.2311E+01E
 Epicentro: SANTA HELENA DEL OPON - SANTANDER                                  3
 ACTION:UPD 15-03-16 20:43 OP:nd   STATUS:               ID:20140711163258 L   I
 OLDACT:UP  14-07-11 22:11 OP:cam  STATUS:               ID:20140711163000     3
 OLDACT:REG 14-07-11 20:00 OP:cam  STATUS:               ID:20140711163000     3
 2014-07-11-1630-00M.COL___282                                                 6
 STAT SP IPHASW D HRMM SECON CODA AMPLIT PERI AZIMU VELO AIN AR TRES W  DIS CAZ7
 BAR2 SZ IP     D 1633 15.09                             155   -0.0810 47.9  76 
 BAR2 SZ ES       1633 28.03                             155    0.1510 47.9  76 
 BAR2 SZ I        1633 28.60        26.4 0.18            144           47.9  76 
 BRR  HZ EP       1633 15.95                             145   -0.2110 69.6 350 
 BRR  HE ES       1633 29.72                             145    0.0910 69.6 350 
 BRR  HE I        1633 32.17        21.1 0.22            130           69.6 350 
 RUS  HZ EP       1633 18.51                             139    0.3310 87.3 139 
 RUS  HN ES       1633 33.07                             139   -0.1610 87.3 139 
 RUS  HZ I        1633 34.73         4.9 0.36            126           87.3 139 
 PTB  HZ EP     C 1633 17.90                             136   -0.2210 94.6 274 
 PTB  HN ES       1633 33.03                             136   -0.1010 94.6 274 
 PTB  HZ I        1633 33.95         8.4 0.30            121           94.6 274 
 ZAR  HZ EP   1   1633 27.21                             117    0.85 7  178 309 
 ZAR  HZ I        1633 51.60         7.2 0.36            105            178 309 
 SML  HZ EP   1   1633 35.23                             107   -0.55 6  261 349 
 SML  HN ES       1634  4.57                             107    0.00 8  261 349 
 SML  HZ I        1634  9.21        11.1 0.10            100            261 349 
                                                                                
