 2016 1111 1115 48.2 L   6.743 -73.111144.3  RSN  7 0.4 1.9LRSN                1
 GAP=171        0.94       5.0     4.4  6.1 -0.5910E+01  0.5866E+01  0.9316E+01E
 Epicentro: LOS SANTOS - SANTANDER                                             3
 ACTION:UPD 17-10-26 21:06 OP:lp   STATUS:               ID:20161111111548 L   I
 OLDACT:REG 16-11-11 21:12 OP:dnl  STATUS:               ID:20161111110745     3
 2016-11-11-1108-00M.COL___337                                                 6
 STAT SP IPHASW D HRMM SECON CODA AMPLIT PERI AZIMU VELO AIN AR TRES W  DIS CAZ7
 BAR2 EZ IP     C 1116  7.83                             172    0.3010 18.5 205 
 BAR2 EZ ES       1116 22.32                             172   -0.3110 18.5 205 
 BAR2 EZ I        1116 23.69        11.1 0.16            170           18.5 205 
 BRR  HZ EP       1116  9.76                             150    0.2210 77.7 301 
 BRR  HE ES       1116 26.46                             150    0.2510 77.7 301 
 BRR  HZ I        1116 30.77        21.0 0.12            148           77.7 301 
 PAM  EZ EP     C 1116 10.84                             150    0.4510 80.1  35 
 PAM  EN ES       1116 27.37                             150   -0.3510 80.1  35 
 PAM  EZ I        1116 28.29        11.2 0.24            152           80.1  35 
 PTB  HZ EP       1116 14.60                             131   -0.67 9  151 261 
 PTB  HE ES       1116 36.41                             131    0.01 9  151 261 
 PTB  HZ I        1116 39.28         7.2 0.54            131            151 261 
 ZAR  HZ EP       1116 20.87                             121   -0.27 8  210 293 
 ZAR  HE ES       1116 46.63                             121   -0.23 8  210 293 
 ZAR  HZ I        1116 51.60         9.0 0.44            121            210 293 
 NOR  HZ EP       1116 24.28                             118    0.51 8  234 236 
 NOR  HN ES       1116 52.10                             118    0.56 8  234 236 
 NOR  HZ I        1116 56.20         4.0 0.28            119            234 236 
 PRA  HZ EP       1116 40.64                             106   -0.59 6  388 211 
 PRA  HN ES       1117 22.19                             106   -0.42 6  388 211 
 PRA  HZ I        1117 23.39         2.9 0.26            108            388 211 
                                                                                
