 2013  611 1747 34.1 L   6.786 -73.114148.0  RSN  8 0.4 2.2LRSN                1
 GAP=186        0.64       4.6     5.7  5.8  0.2298E+01  0.5689E+01  0.1043E+02E
 Epicentro: LOS SANTOS - SANTANDER                                             3
 ACTION:UPD 14-01-08 09:54 OP:ep   STATUS:               ID:20130611174734 L   I
 OLDACT:DUP 13-06-11 18:59 OP:mh   STATUS:               ID:20130611173960d    3
 2013-06-11-1739-59M.COL___260                                                 6
 STAT SP IPHASW D HRMM SECON CODA AMPLIT PERI AZIMU VELO AIN AR TRES W  DIS CAZ7
 BAR2 SZ EP   1   1747 54.05                             171    0.11 7 22.7 199 
 BAR2 SZ ES   1   1748  9.42                             171   -0.03 7 22.7 199 
 BAR2 SZ I        1748 11.74        13.4 0.20            168           22.7 199 
 BRR  HZ EP   1   1747 55.66                             152    0.00 7 75.0 298 
 BRR  HN ES       1748 12.91                             152    0.4010 75.0 298 
 BRR  HN I        1748 13.96        37.0 0.32            149           75.0 298 
 RUS  HZ EP   1   1747 57.87                             145   -0.03 7 98.8 178 
 RUS  HN ES   2   1748 16.27                             145   -0.23 5 98.8 178 
 RUS  HN I        1748 18.29        18.2 0.32            145           98.8 178 
 PTB  HZ EP   1   1748  0.88                             132   -0.60 7  151 260 
 PTB  HN ES   2   1748 22.06                             132   -0.82 5  151 260 
 PTB  HN I        1748 27.50        28.0 0.24            130            151 260 
 OCA  HN ES   2   1748 24.71                             130   -0.38 5  162 352 
 OCA  HN I        1748 27.96        45.0 0.32            131            162 352 
 NOR  HZ EP   1   1748  9.95                             119   -0.17 6  237 235 
 NOR  HN ES   2   1748 38.03                             119   -0.21 4  237 235 
 NOR  HN I        1748 42.77        22.7 0.16            118            237 235 
 GUY2CHZ EP   4   1748 20.36                             113    2.38 0  303 235 
 GUY2CHN ES   2   1748 53.17                             113    0.93 4  303 235 
 GUY2CHZ I        1749  0.42         4.8 0.26                           303 235 
 PRA  HZ EP   1   1748 28.24                             107    0.55 4  392 210 
 PRA  HN ES   2   1749 10.01                             107    0.48 3  392 210 
 PRA  HN I        1749 15.73         3.9 0.30            107            392 210 
                                                                                
