 2014  911 1207  5.0 L   6.476 -73.590112.9  RSN  6 0.5 1.8LRSN                1
 GAP=136        1.22       5.2     5.8 10.0 -0.4027E+01  0.1626E+02 -0.1838E+02E
 Epicentro: SANTA HELENA DEL OPON - SANTANDER                                  3
 ACTION:UPD 14-10-03 23:04 OP:nd   STATUS:               ID:20140911120705 L   I
 OLDACT:DUP 14-09-11 22:04 OP:carl STATUS:               ID:20140911115821d    3
 2014-09-11-1158-20M.COL___287                                                 6
 STAT SP IPHASW D HRMM SECON CODA AMPLIT PERI AZIMU VELO AIN AR TRES W  DIS CAZ7
 BAR2 SZ EP       12 7 21.50                             156   -0.1010 46.8  74 
 BAR2 SZ ES       12 7 34.38                             156   -0.1610 46.8  74 
 BAR2 SZ I        12 7 35.11        31.7 0.46            153           46.8  74 
 BRR  HN ES       12 7 36.82                             145    0.3110 71.0 349 
 PTB  HZ IP     C 12 7 24.33                             136   -0.3310 96.1 274 
 PTB  HN ES       12 7 39.09                             136   -0.9010 96.1 274 
 PTB  HZ I        12 7 40.36         9.5 0.28            135           96.1 274 
 SPBC HN ES       12 7 42.34                             134    0.7010  106 210 
 ZAR  HN ES       12 7 55.25                             117    0.65 9  180 309 
 SML  HZ EP       12 7 41.99                             108   -0.21 8  263 348 
 SML  HN ES       12 8 11.38                             108    0.18 8  263 348 
 SML  HZ I        12 8 18.72         4.9 0.10            106            263 348 
                                                                                
