 2011  411 1044 27.7 L   5.894 -73.382  3.9  RSN 15 0.5 3.5LRSN                1
 GAP= 94        1.30       2.8     3.9  6.6 -0.3937E+01  0.5486E+01 -0.1123E+01E
 Epicentro: GAMBITA - SANTANDER                                                3
 ACTION:UP  11-06-22 15:30 OP:REBC STATUS:               ID:20110411104427 L   I
 2011-04-11-1043-05S.COL___138                                                 6
 STAT SP IPHASW D HRMM SECON CODA AMPLIT PERI AZIMU VELO SNR AR TRES W  DIS CAZ7
 BAR2 SZ IP       1044 39.90                              90    -0.810   80  16 
 BAR2 SZ ES   1   1044 50.26                              90    -0.6 7   80  16 
 BAR2 SZ I        1044 54.73       628.6 0.15                            80  16 
 YOP  SZ EP       1044 47.34                              90     0.410  122 119 
 YOP  SE ES   2   1045  0.89                              90    -1.0 5  122 119 
 YOP  SZ I        1045  7.47       495.6 0.49                           122 119 
 GIR2 SZ EP       1044 48.34                              90    -0.210  133   9 
 BRR  HZ IP     C 1044 50.02                              90     0.7 9  139 345 
 BRR  HN ES   1   1045  7.02                              90     0.8 7  139 345 
 BRR  HZ I        1045 14.20       793.8 0.14                           139 345 
 CHI  HN ES   1   1045  8.97                              90     0.3 7  145 196 
 CHI  HZ I        1045 17.89       308.4 0.39                           145 196 
 NOR  SZ EP       1044 53.08                              90    -0.8 9  169 258 
 PAM  SZ EP       1044 56.07                              90     0.5 9  177  25 
 PAM  SZ I        1044 56.80       429.6 0.12                           177  25 
 PAM  SN ES   1   1045 17.15                              90    -0.2 7  177  25 
 VIL  SZ EP   1   1044 58.37                              56     0.3 6  200 190 
 VIL  SZ I        1045 31.03       318.9 0.38                           200 190 
 GRA  SZ ES   1   1045 28.83                              56     0.4 6  229  16 
 GRA  SZ I        1045 37.64      1041.0 0.27                           229  16 
 GUY  SZ EP   1   1045  3.29                              56     0.5 6  234 252 
 GUY  SN ES   1   1045 29.69                              56    -0.6 6  234 252 
 GUY  SZ I        1045 33.94       544.3 0.35                           234 252 
 HEL  HZ EP   1   1045  2.94                              56    -0.4 6  240 278 
 HEL  HN ES   1   1045 30.90                              56    -0.3 6  240 278 
 HEL  HZ I        1045 33.04       248.7 0.29                           240 278 
 RREF HZ EP   1   1045  4.60                              56     0.4 6  244 243 
 RREF HE ES   2   1045 32.30                              56    -0.4 4  244 243 
 RREF HZ I        1045 36.45       265.2 0.30                           244 243 
 TOL  SZ EP   1   1045  5.99                              56     0.3 6  259 236 
 ANIL HZ EP   1   1045  8.06                              56     0.7 6  272 235 
 ANIL HZ I        1045 48.63       462.8 0.33                           272 235 
 PRA  HZ EP       1045  9.73                              55     0.1 7  293 215 
 PRA  HE ES   1   1045 42.08                              55    -0.3 5  293 215 
                                                                                
