 2017  911 1322  6.4 L   6.812 -73.120141.8  RSN 19 0.6 2.4LRSN                1
 GAP=102        1.24       3.7     3.1  5.9  0.1167E+00  0.4957E+01  0.6265E+01E
 Epicentro: LOS SANTOS - SANTANDER                                             3
 ACTION:UPD 17-10-05 19:11 OP:rebc STATUS:               ID:20170911132206 L   I
 OLDACT:UP  17-09-11 23:19 OP:dnl  STATUS:               ID:20170911131746     3
 OLDACT:REG 17-09-11 20:39 OP:dnl  STATUS:               ID:20170911131746     3
 2017-09-11-1318-00M.COL___418                                                 6
 STAT SP IPHASW D HRMM SECON CODA AMPLIT PERI AZIMU VELO AIN AR TRES W  DIS CAZ7
 BAR2 EZ IP     C 1322 25.24                             169   -0.3110 25.3 196 
 BAR2 EZ ES       1322 39.96                             169   -0.5610 25.3 196 
 BAR2 EZ I        1322 41.42        46.8 0.40            167           25.3 196 
 BRR  HZ IP     C 1322 27.10                             151   -0.0810 73.1 297 
 BRR  HE ES       1322 43.94                             151    0.5110 73.1 297 
 BRR  HZ I        1322 48.04        43.9 0.12            150           73.1 297 
 PAM  EZ EP       1322 28.11                             151    0.1410 74.5  39 
 PAM  EN ES       1322 44.77                             151   -0.0710 74.5  39 
 PAM  EZ I        1322 45.54        53.2 0.32            156           74.5  39 
 RUS  HZ EP       1322 29.28                             143   -0.5210  102 178 
 RUS  HE ES       1322 48.05                             143   -0.0510  102 178 
 RUS  HZ I        1322 48.91        19.6 0.32            143            102 178 
 TAM  HZ EP       1322 33.68                             130    0.19 9  153 106 
 TAM  HE ES       1322 55.03                             130    0.36 9  153 106 
 TAM  HZ I        1322 55.66        26.6 0.22            134            153 106 
 SPBC HZ EP       1322 34.16                             128   -0.66 9  166 219 
 SPBC HE ES       1322 56.31                             128   -0.72 9  166 219 
 SPBC HZ I        1323  1.66        47.7 0.26            128            166 219 
 YPLC HZ IP     C 1322 35.84                             126   -0.01 9  177 152 
 YPLC HN ES       1322 59.74                             126    0.89 9  177 152 
 YPLC HZ I        1323  1.57        20.3 0.24            127            177 152 
 ZAR  HZ EP       1322 38.81                             121    0.05 8  206 291 
 ZAR  HE ES       1323  4.36                             121    0.32 8  206 291 
 ZAR  HZ I        1323  9.53        37.9 0.50            122            206 291 
 TABC EZ EP   4   1322 43.64                             118    1.49 0  233 211 
 TABC EZ ES   4   1323 12.41                             118    2.34 0  233 211 
 TABC EZ I        1323 14.70        31.3 0.38            119            233 211 
 NOR  HZ EP       1322 41.47                             117   -0.72 8  238 235 
 NOR  HN ES       1323  9.80                             117   -0.34 8  238 235 
 NOR  HZ I        1323 14.70        24.9 0.56            118            238 235 
 CHI  HZ EP   2   1322 43.67                             116   -0.39 4  251 196 
 CHI  HN ES       1323 13.27                             116   -0.20 8  251 196 
 CHI  HZ I        1323 20.56         9.8 0.26            117            251 196 
 ROSC BZ EP       1322 45.53                             115    0.98 8  255 211 
 ROSC BE ES       1323 15.91                             115    1.57 8  255 211 
 ROSC BZ I        1323 19.11        18.6 0.35            116            255 211 
 HEL  HZ EP       1322 47.35                             114    0.64 8  275 256 
 HEL  HE ES       1323 17.56                             114   -0.63 8  275 256 
 HEL  HZ I        1323 23.64        16.6 0.34            114            275 256 
 URE  HZ EP   9   1322 45.36                             113   -2.11 0  286 291 
 URE  HN ES       1323 17.62                             113    0.19 7  286 291 
 URE  HZ I        1323 22.57        17.2 0.14            113            286 291 
 GUY2CHZ EP       1322 50.43                             111    0.30 7  304 235 
 GUY2CHE ES       1323 24.99                             111    0.71 7  304 235 
 GUY2CHZ I        1323 32.49        13.1 0.46                           304 235 
 PTGC HN EP       1322 48.98                             111   -1.08 7  309 159 
 PTGC HE ES   4   1323 21.05                             111   -3.10 0  309 159 
 PTGC HN I        1323 23.50        31.5 0.42            112            309 159 
 CBOC HZ EP       1322 53.52                             109    0.05 7  337 252 
 CBOC HE ES       1323 30.52                             109    0.31 7  337 252 
 CBOC HZ I        1323 39.02         4.3 0.56            110            337 252 
 PRA  HZ EP       1322 59.81                             106   -0.23 6  395 210 
 PRA  HE ES       1323 41.32                             106   -0.60 6  395 210 
 PRA  HZ I        1323 46.80         8.5 0.38            107            395 210 
 ORTC HE ES       1323 43.01                             105    0.34 6  398 216 
 ORTC HZ I        1323 48.21         7.7 0.24            106            398 216 
                                                                                
