 2013  811 1430 29.9 L   6.742 -73.130145.1  RSN  5 0.3 1.2LRSN                1
 GAP=141        0.61       4.8     4.3  6.6 -0.5658E+01  0.3834E+01 -0.5242E+01E
 Epicentro: JORDAN - SANTANDER                                                 3
 ACTION:UPD 14-01-14 09:01 OP:ep   STATUS:               ID:20130811143029 L   I
 OLDACT:REG 13-08-11 17:27 OP:jn   STATUS:               ID:20130811142959     3
 2013-08-11-1429-59M.COL___271                                                 6
 STAT SP IPHASW D HRMM SECON CODA AMPLIT PERI AZIMU VELO AIN AR TRES W  DIS CAZ7
 BAR2 SZ ES   1   1431  4.36                             173   -0.12 7 17.6 199 
 BAR2 SZ I        1431  6.50         4.2 0.28            174           17.6 199 
 BRR  HN ES   1   1431  8.25                             151    0.38 7 76.0 302 
 PAM  SZ EP       1430 52.50                             149    0.2610 81.3  36 
 PAM  SN ES   1   1431  9.27                             149   -0.44 7 81.3  36 
 PAM  SZ I        1431 11.97         2.5 0.36            150           81.3  36 
 RUS  HN ES   1   1431 11.33                             145    0.12 7 94.1 177 
 PTB  HZ EP   1   1430 56.53                             132   -0.30 7  148 261 
 PTB  HN ES   1   1431 17.71                             132   -0.16 7  148 261 
 PTB  HZ I        1431 19.01         2.7 0.20            134            148 261 
                                                                                
