 2016  911 1906 33.3 L   6.849 -73.316117.2  RSN  6 0.2 1.4LRSN                1
 GAP=108        0.53       2.3     2.0  3.9  0.4877E+00  0.1591E+01  0.4268E+00E
 Epicentro: ZAPATOCA - SANTANDER                                               3
 ACTION:UPD 17-08-17 21:08 OP:lp   STATUS:               ID:20160911190633 L   I
 OLDACT:REG 16-09-11 20:30 OP:lv   STATUS:               ID:20160911185736     3
 2016-09-11-1858-00M.COL___303                                                 6
 STAT SP IPHASW D HRMM SECON CODA AMPLIT PERI AZIMU VELO AIN AR TRES W  DIS CAZ7
 BAR2 EZ EP       19 6 49.79                             164    0.0610 32.0 152 
 BAR2 EZ ES       19 7  2.94                             164    0.3810 32.0 152 
 BRR  HZ EP       19 6 50.24                             154   -0.0210 52.2 303 
 BRR  HN ES       19 7  3.31                             154   -0.2110 52.2 303 
 BRR  HZ I        19 7  5.14        12.6 0.12            154           52.2 303 
 PAM  EZ EP       19 6 53.07                             141   -0.1810 87.1  51 
 PAM  EE ES       19 7  8.82                             141   -0.0110 87.1  51 
 PAM  EZ I        19 7 11.79         3.6 0.50            143           87.1  51 
 RUS  HZ EP       19 6 55.16                             134    0.1310  109 166 
 RUS  HN ES       19 7 11.77                             134   -0.2410  109 166 
 RUS  HZ I        19 7 14.10         2.8 0.36            137            109 166 
 PTB  HZ EP       19 6 56.49                             128    0.1010  131 255 
 PTB  HE ES       19 7 14.23                             128   -0.1910  131 255 
 PTB  HZ I        19 7 17.02         5.3 0.16            130            131 255 
 ZAR  HE ES       19 7 24.44                             118    0.20 9  185 293 
 ZAR  HZ I        19 7 27.53         3.3 0.12            119            185 293 
                                                                                
