 2014 1111 1542  6.9 L   6.490 -73.809 83.5  RSN  4 0.3 1.2LRSN                1
 GAP=138        0.85       4.0     2.7  9.1 -0.2992E+01 -0.4989E+01 -0.1235E+00E
 Epicentro: CIMITARRA - SANTANDER                                              3
 ACTION:UPD 14-12-19 15:42 OP:nd   STATUS:               ID:20141111154206 L   I
 OLDACT:UP  14-11-11 23:17 OP:cam  STATUS:               ID:20141111153817     3
 OLDACT:REG 14-11-11 19:44 OP:cam  STATUS:               ID:20141111153817     3
 2014-11-11-1538-17M.COL___306                                                 6
 STAT SP IPHASW D HRMM SECON CODA AMPLIT PERI AZIMU VELO AIN AR TRES W  DIS CAZ7
 PTB  HZ EP     D 1542 21.50                             136   -0.3510 71.8 274 
 PTB  HE ES       1542 33.77                             136    0.2410 71.8 274 
 PTB  HZ I        1542 34.30         5.6 0.10            138           71.8 274 
 RUS  HZ EP       1542 25.43                             125   -0.1110  104 129 
 RUS  HN ES       1542 40.21                             125    0.1110  104 129 
 RUS  HZ I        1542 42.44         2.2 0.24            126            104 129 
 PAM  SZ EP       1542 31.00                             114    0.01 9  154  52 
 PAM  SE ES       1542 49.73                             114   -0.08 9  154  52 
 PAM  SZ I        1542 53.46         2.6 0.46            115            154  52 
 NOR  HZ EP       1542 31.26                             113    0.67 9  156 229 
 NOR  HE ES       1542 48.61                             113   -0.48 9  156 229 
 NOR  HZ I        1542 52.16         4.7 0.16            115            156 229 
                                                                                
