 2013  911 1040 43.4 L   6.057 -73.688119.1  RSN  6 0.2 1.5LRSN                1
 GAP= 83        0.59       2.1     2.4  4.9 -0.5553E+00  0.4143E+01 -0.7748E+00E
 Epicentro: BOLIVAR - SANTANDER                                                3
 ACTION:UPD 13-10-22 09:21 OP:ep   STATUS:               ID:20130911104043 L   I
 OLDACT:REG 13-09-11 15:15 OP:carl STATUS:               ID:20130911103959     3
 2013-09-11-1039-59M.COL___269                                                 6
 STAT SP IPHASW D HRMM SECON CODA AMPLIT PERI AZIMU VELO AIN AR TRES W  DIS CAZ7
 SPBC HZ EP       1041  1.16                             151   -0.1010 61.8 224 
 SPBC HN ES   1   1041 14.83                             151   -0.37 7 61.8 224 
 SPBC HZ I        1041 16.97         5.9 0.18            151           61.8 224 
 RUS  HZ EP       1041  2.31                             148    0.0010 69.4 105 
 RUS  HN ES   1   1041 17.22                             148    0.15 7 69.4 105 
 RUS  HZ I        1041 17.98         4.7 0.26            152           69.4 105 
 BAR2 SZ EP       1041  3.14                             143    0.3710 81.4  43 
 BAR2 SZ ES       1041 17.78                             143   -0.1210 81.4  43 
 BAR2 SZ I        1041 18.64        21.5 0.12            146           81.4  43 
 NOR  HZ EP       1041  8.00                             126    0.23 9  142 247 
 NOR  HE ES       1041 27.10                             126    0.30 9  142 247 
 NOR  HZ I        1041 28.50         9.8 0.18            128            142 247 
 CHI  HZ EP       1041  9.60                             123   -0.27 9  158 182 
 CHI  HE ES       1041 30.53                             123   -0.01 9  158 182 
 CHI  HZ I        1041 32.04         2.2 0.16            126            158 182 
 ZAR  HZ EP       1041 14.00                             116   -0.31 9  205 321 
 ZAR  HN ES       1041 38.38                             116   -0.06 9  205 321 
 ZAR  HZ I        1041 42.98         3.8 0.18            117            205 321 
                                                                                
