 2013 1211 1717 28.4 L   6.802 -73.168141.0  RSN 12 0.4 2.5LRSN                1
 GAP=134        0.91       2.5     3.7  5.3 -0.1304E+01  0.6969E+01  0.2661E+00E
 Epicentro: LOS SANTOS - SANTANDER                                             3
 ACTION:UPD 14-01-13 10:17 OP:ep   STATUS:               ID:20131211171728 L   I
 OLDACT:DUP 13-12-11 15:39 OP:cam  STATUS:               ID:20131211171002d    3
 OLDACT:UP  13-12-11 15:36 OP:cam  STATUS:               ID:20131211171000     3
 OLDACT:REG 13-12-11 14:51 OP:cam  STATUS:               ID:20131211171000     3
 2013-12-11-1710-00M.COL___285                                                 6
 STAT SP IPHASW D HRMM SECON CODA AMPLIT PERI AZIMU VELO AIN AR TRES W  DIS CAZ7
 BAR2 SZ EP       1717 47.56                             170    0.1110 23.3 184 
 BAR2 SZ ES       1718  2.18                             170   -0.1410 23.3 184 
 BAR2 SZ I        1718  5.34       117.8 0.28            169           23.3 184 
 BRR  HZ EP       1717 49.33                             152    0.4310 68.9 299 
 BRR  HN ES   4   1718  6.53                             152    1.64 0 68.9 299 
 BRR  HZ I        1718 10.35        52.4 0.28            151           68.9 299 
 PAM  SZ EP       1717 50.53                             149    0.3410 78.8  41 
 PAM  SN ES       1718  7.62                             149    0.4210 78.8  41 
 PAM  SZ I        1718 10.75        36.4 0.48            156           78.8  41 
 RUS  HZ EP       1717 51.54                             143   -0.1710  101 175 
 RUS  HN ES       1718  9.50                             143   -0.4110  101 175 
 RUS  HZ I        1718 11.58        27.5 0.28            147            101 175 
 PTB  HZ EP       1717 54.30                             131   -0.46 9  145 259 
 PTB  HN ES       1718 15.02                             131   -0.30 9  145 259 
 PTB  HZ I        1718 20.30        33.4 0.40            132            145 259 
 OCA  HZ EP   2   1717 56.76                             128    0.47 5  160 354 
 OCA  HN ES       1718 17.80                             128   -0.25 9  160 354 
 SPBC HZ EP       1717 56.67                             128    0.27 9  162 218 
 SPBC HN ES       1718 18.01                             128   -0.24 9  162 218 
 SPBC HZ I        1718 25.47        44.3 0.22            131            162 218 
 ZAR  HZ EP       1718  0.19                             122   -0.09 9  202 292 
 ZAR  HN ES       1718 25.97                             122    0.82 9  202 292 
 ZAR  HZ I        1718 31.33        31.9 0.28            124            202 292 
 NOR  HZ EP       1718  3.74                             118    0.09 8  233 234 
 NOR  HN ES       1718 31.47                             118    0.32 8  233 234 
 NOR  HZ I        1718 39.41        20.7 0.18            120            233 234 
 SML  HZ EP   1   1718  3.92                             116   -0.70 6  242 336 
 SML  HE ES       1718 32.08                             116   -0.79 8  242 336 
 SML  HZ I        1718 35.90        42.9 0.10            120            242 336 
 CHI  HZ EP       1718  5.89                             116    0.10 8  248 195 
 HEL  HZ EP   4   1718  8.04                             114   -0.06 0  270 256 
 GUY2CHZ EP   4   1718 12.50                             111    0.93 0  299 234 
 RREF HZ EP   4   1718 15.30                             110    1.17 0  320 229 
 PRA  HZ EP       1718 21.44                             106   -0.19 6  391 209 
 PRA  HN ES       1719  3.51                             106    0.35 6  391 209 
 PRA  HZ I        1719  7.84        17.9 0.37            109            391 209 
 ORTC HZ EP   4   1718 22.22                             105    0.22 0  394 216 
 SJC  HZ EP   4   1718 21.73                             105   -1.89 0  408 327 
                                                                                
