 2013  211 1848 27.4 L   6.754 -73.127146.6  RSN  8 0.5 2.2LRSN                1
 GAP= 95        1.11       5.5     4.2  6.5  0.2436E+01  0.4481E+01  0.7435E+00E
 Epicentro: LOS SANTOS - SANTANDER                                             3
 ACTION:UPD 13-03-12 09:32 OP:ep   STATUS:               ID:20130211184827 L   I
 2013-02-11-1847-51M.COL___194                                                 6
 STAT SP IPHASW D HRMM SECON CODA AMPLIT PERI AZIMU VELO AIN AR TRES W  DIS CAZ7
 BAR2 SZ EP       1848 46.84                             172   -0.1910 18.9 199 
 BAR2 SZ ES       1849  2.74                             172    0.3810 18.9 199 
 BAR2 SZ I        1849  3.56        43.3 0.26            170           18.9 199 
 BRR  HZ EP       1848 48.89                             151    0.0210 75.5 301 
 BRR  HN ES       1849  6.17                             151    0.5510 75.5 301 
 BRR  HZ I        1849  7.52        35.1 0.12            148           75.5 301 
 PAM  SZ IP     C 1848 49.92                             150    0.0710 80.2  36 
 PAM  SN ES       1849  6.90                             150   -0.4810 80.2  36 
 PAM  SZ I        1849  9.08        17.1 0.52            153           80.2  36 
 RUS  HZ IP     C 1848 50.71                             145   -0.1410 95.4 177 
 RUS  HN ES       1849  9.33                             145    0.1810 95.4 177 
 RUS  HZ I        1849 10.11        20.5 0.26            147           95.4 177 
 PTB  HZ EP       1848 53.70                             132   -0.82 9  149 261 
 PTB  HN ES       1849 14.85                             132   -0.83 9  149 261 
 PTB  HN I        1849 20.20        47.3 0.38            130            149 261 
 TAM  HZ IP     D 1848 55.05                             131    0.22 9  152 103 
 ZAR  HZ EP       1849  0.57                             122    0.29 8  208 293 
 ZAR  HN ES       1849 26.07                             122    0.14 8  208 293 
 ZAR  HN I        1849 33.68        25.0 0.16            121            208 293 
 HEL  HZ EP       1849  8.61                             115    0.89 8  273 257 
 HEL  HN ES   2   1849 39.50                             115    0.31 4  273 257 
 HEL  HN I        1849 47.64         6.5 0.46            114            273 257 
                                                                                
