 2016  911 1359 22.2 L   5.870 -73.728121.0  RSN  8 0.3 1.7LRSN                1
 GAP=161        0.67       2.7     2.1  5.0 -0.1518E+01  0.3951E+01  0.4250E+00E
 Epicentro: PUENTE NACIONAL - SANTANDER                                        3
 ACTION:UPD 17-08-17 21:08 OP:lp   STATUS:               ID:20160911135922 L   I
 OLDACT:REG 16-09-11 20:19 OP:lv   STATUS:               ID:20160911135732     3
 2016-09-11-1358-00M.COL___309                                                 6
 STAT SP IPHASW D HRMM SECON CODA AMPLIT PERI AZIMU VELO AIN AR TRES W  DIS CAZ7
 RUS  HZ EP       1359 41.25                             148   -0.2210 71.5  88 
 RUS  HE ES       1359 56.61                             148    0.1310 71.5  88 
 BAR2 EZ EP       1359 43.39                             138    0.1610  100  37 
 BAR2 EZ ES       1359 59.39                             138   -0.2310  100  37 
 PTB  HZ EP       1359 43.25                             135   -0.4610  109 313 
 PTB  HE ES       14 0  0.70                             135    0.2310  109 313 
 PTB  HZ I        14 0  0.83         7.1 0.10            134            109 313 
 NOR  HZ EP       1359 45.73                             129    0.0310  131 255 
 NOR  HN ES       14 0  3.92                             129   -0.1010  131 255 
 NOR  HZ I        14 0  6.89        12.0 0.16            130            131 255 
 BRR  HZ EP       1359 46.25                             128    0.05 9  137   1 
 BRR  HN ES       14 0  5.26                             128    0.36 9  137   1 
 BRR  HZ I        14 0  7.71         5.7 0.16            128            137   1 
 GUY2CHZ EP       1359 53.16                             118    0.37 9  195 249 
 GUY2CHN ES       14 0 16.38                             118   -0.25 9  195 249 
 GUY2CHZ I        14 0 20.80         4.0 0.36                           195 249 
 HEL  HZ EP       1359 53.72                             117    0.25 9  202 280 
 HEL  HE ES       14 0 18.06                             117    0.21 9  202 280 
 HEL  HZ I        14 0 21.81         4.2 0.28            117            202 280 
 ZAR  HZ EP       1359 54.79                             114    0.01 8  219 325 
 ZAR  HN ES       14 0 19.70                             114   -0.48 8  219 325 
 ZAR  HZ I        14 0 24.31         5.2 0.13            115            219 325 
                                                                                
