 2014 1211 1014 24.7 L   6.809 -73.144141.5  RSN 20 0.6 2.2LRSN                1
 GAP= 71        1.44       3.3     3.7  6.5 -0.1681E+01  0.6693E+01  0.2690E+01E
 Epicentro: LOS SANTOS - SANTANDER                                             3
 ACTION:UPD 15-02-10 17:02 OP:nd   STATUS:               ID:20141211101424 L   I
 OLDACT:ARG 14-12-11 21:09 OP:stll STATUS:               ID:20141211100745     3
 2014-12-11-1007-45M.COL___298                                                 6
 STAT SP IPHASW D HRMM SECON CODA AMPLIT PERI AZIMU VELO AIN AR TRES W  DIS CAZ7
 BAR2 EZ EP       1014 44.18                             170    0.3110 24.3 190 
 BAR2 EZ ES       1014 58.83                             170    0.0310 24.3 190 
 BAR2 EZ I        1015  0.87        53.9 0.44            169           24.3 190 
 BRR  HZ IP     C 1014 46.02                             152    0.6210 70.9 298 
 BRR  HZ I        1014 46.31        39.5 0.24            150           70.9 298 
 BRR  HE ES       1015  2.62                             152    1.0910 70.9 298 
 PAM  SZ EP       1014 45.76                             150   -0.6810 76.5  40 
 PAM  SE ES       1015  3.70                             150    0.3210 76.5  40 
 PAM  SZ I        1015  8.62        17.9 0.82            154           76.5  40 
 RUS  HZ EP       1014 48.10                             143   -0.0310  102 176 
 RUS  HE ES       1015  6.15                             143   -0.2410  102 176 
 RUS  HZ I        1015  7.68        16.0 0.28            145            102 176 
 PTB  HZ EP       1014 50.72                             131   -0.66 9  148 258 
 PTB  HN ES       1015 11.95                             131   -0.23 9  148 258 
 PTB  HZ I        1015 15.49        20.5 0.12            131            148 258 
 TAM  HZ IP     D 1014 52.28                             129    0.20 9  155 105 
 TAM  HZ I        1014 52.40        18.7 0.18            134            155 105 
 TAM  HN ES       1015 12.76                             129   -0.66 9  155 105 
 OCA  HZ EP       1014 52.65                             129    0.03 9  159 353 
 OCA  HN ES       1015 14.33                             129   -0.05 9  159 353 
 OCA  HZ I        1015 19.97        19.1 0.30            130            159 353 
 SPBC HZ EP       1014 53.14                             128    0.16 9  164 219 
 SPBC HE ES       1015 14.40                             128   -0.63 9  164 219 
 SPBC HZ I        1015 17.48        22.1 0.30            129            164 219 
 ZAR  HZ EP       1014 56.85                             121   -0.03 9  204 292 
 ZAR  HN ES       1015 21.89                             121   -0.06 9  204 292 
 ZAR  HZ I        1015 28.13        24.7 0.40            122            204 292 
 NOR  HZ EP       1015  0.06                             117   -0.23 8  235 234 
 NOR  HE ES       1015 27.45                             117   -0.58 8  235 234 
 NOR  HZ I        1015 35.11        13.5 0.42            119            235 234 
 SML  HZ EP       1015  0.43                             117   -0.60 8  243 335 
 SML  HN ES       1015 29.13                             117   -0.21 8  243 335 
 SML  HZ I        1015 36.85        25.1 0.24            118            243 335 
 CHI  HZ EP       1015  2.28                             116   -0.02 8  250 195 
 CHI  HN ES       1015 31.25                             116   -0.36 8  250 195 
 CHI  HZ I        1015 37.30         7.3 0.34            118            250 195 
 ROSC BE ES       1015 32.79                             116    0.44 8  254 211 
 ROSC BZ I        1015 37.60        16.5 0.35            117            254 211 
 HEL  HZ EP       1015  5.44                             114    0.67 8  272 256 
 HEL  HN ES       1015 35.41                             114   -0.59 8  272 256 
 HEL  HZ I        1015 43.17         6.0 0.56            115            272 256 
 GUY2CHZ EP       1015  8.68                             111    0.46 7  302 235 
 GUY2CHN ES       1015 42.51                             111    0.37 7  302 235 
 GUY2CHZ I        1015 52.74         6.2 0.34                           302 235 
 RREF HZ EP       1015 12.70                             110    1.93 7  323 229 
 RREF HN ES       1015 46.85                             110    0.16 7  323 229 
 RREF HZ I        1015 55.49         9.8 0.30            111            323 229 
 CBOC HZ EP       1015 11.18                             109   -0.34 7  334 252 
 CBOC HN ES       1015 46.61                             109   -1.41 7  334 252 
 CBOC HZ I        1016  0.48         2.9 0.52            110            334 252 
 TOL  SZ EP       1015 13.09                             108    0.18 7  344 225 
 TOL  SN ES       1015 51.58                             108    1.09 7  344 225 
 MON  HZ EP   9   1015 11.44                             108   -2.07 0  353 308 
 MON  HN ES       1015 48.66                                   -0.83 6  353 308 
 MON  HZ I        1015 52.53         3.6 0.28            109            353 308 
 SJC  HZ EP   9   1015 18.23                             105   -1.83 0  408 327 
 SJC  HZ I        1015 18.42         2.7 0.22            106            408 327 
 SJC  HE ES       1015 59.03                                   -2.36 6  408 327 
                                                                                
