 2016  611 1403 47.9 L   6.826 -73.126148.3  RSN  8 0.3 1.8LRSN                1
 GAP=138        0.75       3.2     3.6  4.6 -0.2431E+01  0.2867E+01  0.4947E+01E
 Epicentro: LOS SANTOS - SANTANDER                                             3
 ACTION:UPD 16-07-21 22:17 OP:rebc STATUS:               ID:20160611140347 L   I
 OLDACT:REG 16-06-11 21:00 OP:edw  STATUS:               ID:20160611135742     3
 2016-06-11-1357-42M.COL___340                                                 6
 STAT SP IPHASW D HRMM SECON CODA AMPLIT PERI AZIMU VELO AIN AR TRES W  DIS CAZ7
 BAR2 EZ EP       14 4  8.19                             169    0.3410 26.6 193 
 BAR2 EZ ES       14 4 23.40                             169   -0.0510 26.6 193 
 BAR2 EZ I        14 4 24.74        18.2 0.26                          26.6 193 
 BRR  HZ EP       14 4  9.22                             153   -0.0810 71.8 296 
 BRR  HE ES       14 4 26.11                             153    0.0810 71.8 296 
 PAM  EZ EP       14 4 10.53                             152    0.4010 73.8  40 
 PAM  EE ES       14 4 26.96                             152   -0.5410 73.8  40 
 RUS  HZ EP       14 4 12.48                             143    0.4310  103 177 
 RUS  HE ES       14 4 30.86                             143   -0.0610  103 177 
 RUS  HZ I        14 4 32.27         6.4 0.24                           103 177 
 PTB  HZ EP       14 4 14.81                             132   -0.45 9  150 258 
 PTB  HE ES       14 4 36.95                             132    0.31 9  150 258 
 PTB  HZ I        14 4 41.07         4.3 0.12                           150 258 
 NOR  HZ EP       14 4 24.13                             119    0.04 8  238 234 
 NOR  HE ES       14 4 52.20                             119   -0.16 8  238 234 
 NOR  HZ I        14 4 57.69         3.9 0.28                           238 234 
 CHI  HZ EP       14 4 25.67                             117   -0.38 8  252 195 
 CHI  HN ES       14 4 55.86                             117    0.01 8  252 195 
 PRA  HZ EP       14 4 41.54                             107   -0.34 6  396 210 
 PRA  HN ES       14 5 24.11                             107    0.10 6  396 210 
 PRA  HZ I        14 5 30.43         4.3 0.40                           396 210 
                                                                                
