 2017  111 1544  4.7 L   6.782 -73.144144.8  RSN  6 0.4 1.5LRSN                1
 GAP=138        1.01       5.1     4.8  6.8 -0.6077E+01  0.7493E+01  0.4556E+01E
 Epicentro: LOS SANTOS - SANTANDER                                             3
 ACTION:UPD 17-05-22 15:58 OP:jn   STATUS:               ID:20170111154404 L   I
 OLDACT:REG 17-01-11 20:14 OP:ar   STATUS:               ID:20170111153759     3
 2017-01-11-1537-59S.COL___303                                                 6
 STAT SP IPHASW D HRMM SECON CODA AMPLIT PERI AZIMU VELO AIN AR TRES W  DIS CAZ7
 BAR2 EZ EP       1544 24.11                             171   -0.0810 21.4 191 
 BAR2 EZ ES       1544 39.13                             171   -0.2610 21.4 191 
 BAR2 EZ I        1544 42.27        10.0 0.36            169           21.4 191 
 BRR  HZ EP       1544 26.03                             152    0.2110 72.3 300 
 BRR  HN ES       1544 42.98                             152    0.6910 72.3 300 
 PAM  EZ EP       1544 27.04                             150    0.1310 78.8  39 
 PAM  EN ES       1544 44.02                             150   -0.2110 78.8  39 
 PAM  EZ I        1544 44.98         5.5 0.18            155           78.8  39 
 RUS  HZ EP       1544 28.06                             144   -0.1710 98.6 176 
 RUS  HN ES       1544 46.80                             144    0.2310 98.6 176 
 RUS  HZ I        1544 48.07         2.9 0.48            146           98.6 176 
 PTB  HZ EP       1544 31.25                             132   -0.34 9  148 260 
 PTB  HN ES       1544 51.69                             132   -0.86 9  148 260 
 PTB  HZ I        1545  0.52         4.7 0.32            132            148 260 
 NOR  HZ EP       1544 40.55                             118    0.27 8  234 235 
 NOR  HE ES       1545  8.53                             118    0.51 8  234 235 
 NOR  HZ I        1545 12.44         3.5 0.22            120            234 235 
                                                                                
