 2012 1011 1741 29.8 L   6.822 -73.108139.6  RSN 10 0.4 2.3LRSN                1
 GAP= 72        0.61       3.3     3.4  4.3  0.8822E+00  0.1465E+01  0.2390E+01E
 Epicentro: LOS SANTOS - SANTANDER                                             3
 ACTION:UPD 12-11-22 17:03 OP:ep   STATUS:               ID:20121011174129 L   I
 2012-10-11-1740-00M.COL___232                                                 6
 STAT SP IPHASW D HRMM SECON CODA AMPLIT PERI AZIMU VELO AIN AR TRES W  DIS CAZ7
 BAR2 SZ EP       1741 48.63                             169   -0.1410 26.7 198 
 BAR2 SZ ES   1   1742  3.31                             169   -0.25 7 26.7 198 
 BAR2 SZ I        1742  5.64        40.5 0.12                          26.7 198 
 GIR2 SZ EP       1741 48.46                             167   -0.2510 29.9 342 
 GIR2 SZ ES   3   1742  3.47                             167    0.02 2 29.9 342 
 PAM  SZ EP       1741 51.06                             151   -0.0410 72.8  38 
 PAM  SZ I        1741 51.30        63.8 0.16                          72.8  38 
 PAM  SN ES   1   1742  7.85                             151    0.15 7 72.8  38 
 BRR  HZ EP       1741 50.20                             150   -0.2510 73.8 295 
 BRR  HN ES   1   1742  6.90                             150    0.35 7 73.8 295 
 BRR  HZ I        1742  7.90        36.1 0.50                          73.8 295 
 RUS  HZ EP       1741 52.89                             142   -0.2410  103 178 
 RUS  HE ES   1   1742 11.81                             142    0.50 7  103 178 
 RUS  HN I        1742 13.62        21.2 0.58                           103 178 
 TAM  HZ EP       1741 57.04                             130    0.35 9  152 106 
 TAM  HZ I        1741 57.21        18.6 0.18                           152 106 
 TAM  HE ES   3   1742 16.84                             130   -0.81 2  152 106 
 ZAR  HZ EP       1742  2.65                             121    0.47 8  207 291 
 ZAR  HE ES   3   1742 26.76                             121   -0.66 2  207 291 
 ZAR  HN I        1742 31.30        96.9 0.46                           207 291 
 CHI  HZ EP       1742  7.39                             115   -0.17 8  252 196 
 CHI  HZ I        1742  8.65         5.1 0.48                           252 196 
 CHI  HE ES   3   1742 37.46                             115    0.46 2  252 196 
 HEL  HZ EP   2   1742 10.13                             113   -0.11 4  277 256 
 HEL  HN ES   3   1742 40.70                             113   -1.08 2  277 256 
 GUY  SZ EP   3   1742 15.24                             111    1.28 2  308 235 
 GUY  SE ES   3   1742 49.25                             111    0.86 2  308 235 
                                                                                
