 2014 1011 1435 49.5 L   6.756 -73.171140.6  RSN  5 0.4 2.1LRSN                1
 GAP=135        1.14       5.9     5.7  8.4 -0.2987E+01  0.6114E+01  0.1866E+01E
 Epicentro: LOS SANTOS - SANTANDER                                             3
 ACTION:UPD 14-11-29 23:48 OP:nd   STATUS:               ID:20141011143549 L   I
 OLDACT:DUP 14-10-12 01:34 OP:stll STATUS:               ID:20141011142741d    3
 2014-10-11-1427-40M.COL___292                                                 6
 STAT SP IPHASW D HRMM SECON CODA AMPLIT PERI AZIMU VELO AIN AR TRES W  DIS CAZ7
 BAR2 SZ EP       1436  8.72                             172    0.3310 18.1 184 
 BAR2 SZ ES       1436 23.59                             172    0.4510 18.1 184 
 BAR2 SZ I        1436 24.46        48.8 0.26            173           18.1 184 
 BRR  HZ EP       1436 10.50                             151    0.4310 71.2 303 
 BRR  HN ES       1436 26.53                             151    0.4010 71.2 303 
 BRR  HZ I        1436 31.65        21.6 0.16            151           71.2 303 
 PAM  SZ EP       1436 11.44                             148   -0.0510 83.0  39 
 PAM  SZ I        1436 11.73        56.1 0.24            151           83.0  39 
 PAM  SN ES       1436 28.00                             148   -0.6710 83.0  39 
 RUS  HZ EP       1436 12.75                             144    0.3710 96.0 174 
 RUS  HN ES       1436 29.83                             144   -0.4310 96.0 174 
 RUS  HZ I        1436 31.98        15.2 0.28            147           96.0 174 
 PTB  HZ EP       1436 15.25                             131   -0.44 9  144 261 
 PTB  HN ES       1436 35.62                             131   -0.51 9  144 261 
 PTB  HZ I        1436 39.12        12.6 0.10            132            144 261 
                                                                                
