 2010  211 1935  4.3 L   6.804 -73.090151.0  RSN 11 0.4 3.5LRSN                1
 GAP=147        0.51       3.2     4.4  4.8 -0.5731E+01  0.4729E+01  0.2765E+01E
 Epicentro: LOS SANTOS - SANTANDER                                             3
 ACTION:UP  10-08-24 09:48 OP:vdl  STATUS:               ID:20100211193504 L   I
 2010-02-11-1933-19S.COL___094                                                 6
 STAT SP IPHASW D HRMM SECON CODA AMPLIT PERI AZIMU VELO SNR AR TRES W  DIS CAZ7
 BAR2 SZ EP   1   1935 24.54                             170     0.0 7   26 204 
 BAR2 SZ ES   2   1935 40.19                             170    -0.2 5   26 204 
 GIR2 SZ EP   1   1935 24.70                             167     0.1 7   32 339 
 GIR2 SZ ES   2   1935 41.04                             167     0.6 5   32 339 
 OCA  SZ EP   1   1935 32.98                             131    -0.1 7  161 351 
 OCA  SZ ES   2   1935 55.06                             131    -0.4 5  161 351 
 CHI  HZ EP   1   1935 42.56                             118     0.1 6  251 196 
 CHI  HE ES   2   1936 11.29                             118    -1.0 4  251 196 
 CHI  HZ I        1936 21.54       115.6 0.55                           251 196 
 HEL  HZ EP   1   1935 45.66                             115     0.2 6  278 256 
 HEL  HE ES   2   1936 17.26                             115    -0.3 4  278 256 
 GUY  HZ EP   1   1935 48.89                             113     0.1 5  307 235 
 RREF BZ EP   1   1935 51.57                             111     0.4 5  327 230 
 RREF BN ES   2   1936 28.23                             111     0.4 3  327 230 
 RREF BZ I        1936 37.17       133.9 0.43                           327 230 
 DBB  SZ EP   1   1935 52.40                             110    -0.3 5  346 274 
 DBB  SZ ES   2   1936 29.87                             110    -0.5 3  346 274 
 TOL  SZ EP   1   1935 53.48                             110     0.2 5  348 225 
 TOL  SZ ES   2   1936 32.33                             110     0.8 3  348 225 
 SDV  BZ EP   1   1935 54.00                             109     0.0 5  355  50 
 PRA  HZ EP   1   1935 57.97                             107    -0.4 4  395 210 
 PRA  HE ES   2   1936 40.36                             107    -0.2 3  395 210 
 PRA  HZ I        1936 44.55       147.2 0.53                           395 210 
                                                                                
