 2016  511 1011 38.7 L   6.806 -73.156146.4  RSN 16 0.4 1.8LRSN                1
 GAP=135        0.96       2.4     3.5  4.9 -0.8954E+00  0.4647E+01  0.1469E+01E
 Epicentro: LOS SANTOS - SANTANDER                                             3
 ACTION:UPD 16-08-18 17:44 OP:cam  STATUS:               ID:20160511101138 L   I
 OLDACT:REG 16-05-11 18:17 OP:ak   STATUS:               ID:20160511100746     3
 2016-05-11-1007-46M.COL___279                                                 6
 STAT SP IPHASW D HRMM SECON CODA AMPLIT PERI AZIMU VELO AIN AR TRES W  DIS CAZ7
 BAR2 EZ EP       1011 58.42                             170    0.0010 23.8 187 
 BAR2 EZ ES       1012 13.54                             170   -0.2510 23.8 187 
 BAR2 EZ I        1012 15.06        13.9 0.20            168           23.8 187 
 BRR  HZ EP       1012  0.25                             153    0.4010 69.9 299 
 BRR  HN ES       1012 17.00                             153    0.6610 69.9 299 
 BRR  HZ I        1012 21.87         7.3 0.18            149           69.9 299 
 PAM  EZ EP       1012  1.26                             151    0.2610 77.7  40 
 PAM  EN ES       1012 18.47                             151    0.0810 77.7  40 
 PAM  EZ I        1012 20.57         6.4 0.18            156           77.7  40 
 RUS  HZ EP       1012  2.25                             144   -0.3210  101 175 
 RUS  HE ES       1012 21.16                             144   -0.0210  101 175 
 RUS  HZ I        1012 22.06         4.9 0.34            146            101 175 
 PTB  HZ EP       1012  5.31                             132   -0.32 9  147 259 
 PTB  HN ES       1012 26.06                             132   -0.57 9  147 259 
 PTB  HZ I        1012 34.14         5.6 0.28            131            147 259 
 OCA  HZ EP   2   1012  7.54                             130    0.55 5  160 354 
 OCA  HE ES       1012 28.81                             130   -0.25 9  160 354 
 OCA  HZ I        1012 32.69        17.8 0.22            132            160 354 
 SPBC HZ EP       1012  7.47                             129    0.24 9  163 219 
 SPBC HN ES       1012 29.06                             129   -0.41 9  163 219 
 ZAR  HZ EP       1012 11.98                             123    0.92 9  203 292 
 ZAR  HE ES       1012 36.46                             123    0.17 9  203 292 
 ZAR  HZ I        1012 41.92         7.8 0.46            123            203 292 
 NOR  HZ EP       1012 14.81                             119    0.40 8  234 234 
 NOR  HE ES       1012 42.74                             119    0.49 8  234 234 
 NOR  HZ I        1012 51.09         5.4 0.18            119            234 234 
 SML  HZ EP       1012 14.80                             118   -0.45 8  243 335 
 SML  HN ES       1012 43.00                             118   -0.76 8  243 335 
 SML  HZ I        1012 47.83         8.5 0.08            119            243 335 
 CHI  HZ EP       1012 15.94                             117   -0.53 8  249 195 
 CHI  HN ES       1012 46.38                             117    0.46 8  249 195 
 CHI  HZ I        1012 51.80         2.2 0.27            119            249 195 
 HEL  HZ EP   2   1012 18.75                             115   -0.09 4  271 256 
 HEL  HE ES       1012 49.87                             115   -0.28 8  271 256 
 HEL  HZ I        1012 58.08         3.1 0.68            115            271 256 
 ELA  HZ EP   2   1012 26.34                             110    0.81 3  329 229 
 ELA  HE ES   4   1013  5.43                             110    3.38 0  329 229 
 ELA  HZ I        1013 11.88         3.2 0.50            111            329 229 
 PRA  HZ EP       1012 31.71                             107   -0.53 6  392 209 
 PRA  HE ES       1013 13.70                             107   -0.30 6  392 209 
 PRA  HZ I        1013 19.30         3.1 0.33            108            392 209 
 ORTC HN ES   1   1013 14.69                             106    0.01 4  395 216 
 SJC  HZ EP   9   1012 31.80                             106   -2.35 0  408 327 
 SJC  HE ES       1013 14.62                                   -0.43 6  408 327 
                                                                                
