 2011  711 1654 17.3 L   6.923 -73.120144.7  RSN  6 0.4 1.8LRSN                1
 GAP=156        0.83       4.7     9.1  8.5 -0.6835E+01 -0.1960E+02 -0.6305E+01E
 Epicentro: PIEDECUESTA - SANTANDER                                            3
 ACTION:UPD 12-07-25 14:00 OP:epov STATUS:               ID:20110711165417 L   I
 2011-07-11-1651-21S.COL___143                                                 6
 STAT SP IPHASW D HRMM SECON CODA AMPLIT PERI AZIMU VELO AIN AR TRES W  DIS CAZ7
 BTL  SZ EP       1654 36.86                             174    0.2210 16.3 268 
 BAR2 SZ EP   1   1654 36.83                             165   -0.29 7 37.2 191 
 BAR2 SZ ES   1   1654 52.16                             165   -0.46 7 37.2 191 
 BAR2 SZ I        1654 54.23         9.2 0.25                          37.2 191 
 BRR  HZ EP       1654 37.65                             154   -0.4910 68.5 287 
 BRR  HZ I        1654 38.67        48.2 0.09                          68.5 287 
 BRR  HN ES   1   1654 54.87                             154    0.44 7 68.5 287 
 BRI  SZ EP   1   1654 39.55                             145   -0.49 7 94.7  22 
 GRA  SZ EP       1654 41.61                             140    0.3210  112  18 
 GRA  SZ ES   1   1655  0.21                             140    0.18 7  112  18 
 GRA  SZ I        1655  4.21        12.7 0.37                           112  18 
 RUS  HZ EP   1   1654 42.31                             140    0.39 7  114 178 
 RUS  HN ES   1   1655  1.34                             140    0.18 7  114 178 
 RUS  HZ I        1655  3.08         2.7 0.21                           114 178 
                                                                                
