 2014  611 1545  5.1 L   6.803 -73.145145.5  RSN 18 0.6 2.5LRSN                1
 GAP=136        1.24       3.2     4.5  6.2 -0.1967E+01  0.8707E+01  0.2714E+01E
 Epicentro: LOS SANTOS - SANTANDER                                             3
 ACTION:UPD 14-07-01 22:53 OP:nd   STATUS:               ID:20140611154505 L   I
 OLDACT:REG 14-06-11 20:46 OP:spq  STATUS:               ID:20140611153820     3
 2014-06-11-1538-20M.COL___259                                                 6
 STAT SP IPHASW D HRMM SECON CODA AMPLIT PERI AZIMU VELO AIN AR TRES W  DIS CAZ7
 BAR2 SZ IP     C 1545 24.63                             170   -0.0310 23.7 190 
 BAR2 SZ ES   1   1545 40.01                             170    0.06 7 23.7 190 
 BAR2 SZ I        1545 41.11       130.6 0.12            168           23.7 190 
 BRR  HZ IP     C 1545 26.46                             152    0.2910 71.1 298 
 BRR  HN ES       1545 43.68                             152    1.0510 71.1 298 
 BRR  HZ I        1545 46.88        58.6 0.30            148           71.1 298 
 PAM  SZ EP       1545 27.55                             151    0.3310 77.0  40 
 PAM  SN ES       1545 44.69                             151    0.1810 77.0  40 
 PAM  SZ I        1545 46.87        19.2 0.20            155           77.0  40 
 RUS  HZ EP       1545 28.56                             144   -0.2410  101 176 
 RUS  HN ES       1545 46.38                             144   -0.9510  101 176 
 RUS  HZ I        1545 48.28        28.3 0.22            145            101 176 
 PTB  HZ IP       1545 31.20                             132   -0.81 9  148 259 
 PTB  HN ES       1545 52.49                             132   -0.55 9  148 259 
 PTB  HZ I        1545 54.38        31.2 0.18            130            148 259 
 OCA  HN ES       1545 55.39                             130    0.04 9  160 353 
 OCA  HZ I        1545 59.50        22.0 0.40            130            160 353 
 SPBC HZ EP       1545 33.57                             129    0.01 9  164 219 
 SPBC HN ES       1545 55.86                             129    0.06 9  164 219 
 SPBC HZ I        1545 58.41        48.8 0.40            128            164 219 
 ZAR  HZ EP       1545 37.10                             122   -0.37 9  204 292 
 ZAR  HE ES       1546  2.77                             122    0.01 9  204 292 
 ZAR  HZ I        1546  7.87        33.9 0.46            121            204 292 
 NOR  HZ EP       1545 40.46                             118   -0.33 8  235 234 
 NOR  HN ES       1546  9.00                             118    0.33 8  235 234 
 NOR  HZ I        1546 14.98        25.6 0.14            118            235 234 
 SML  HZ EP       1545 41.41                             117   -0.22 8  243 335 
 SML  HN ES       1546  9.30                             117   -0.86 8  243 335 
 SML  HZ I        1546 15.74        31.5 0.24            118            243 335 
 CHI  HZ EP       1545 42.77                             117   -0.01 8  249 195 
 CHI  HE ES       1546 11.93                             117   -0.27 8  249 195 
 CHI  HZ I        1546 17.79        13.3 0.42            118            249 195 
 ROSC BZ EP   2   1545 43.64                             117    0.44 4  253 211 
 ROSC BN ES   1   1546 14.57                             117    1.62 6  253 211 
 ROSC BZ I        1546 18.72        29.3 0.40            117            253 211 
 HEL  HZ EP       1545 45.94                             115    0.67 8  272 256 
 HEL  HN ES       1546 15.93                             115   -0.71 8  272 256 
 HEL  HZ I        1546 22.79        14.7 0.52            114            272 256 
 URE  HE ES   4   1546 15.10                             113   -3.02 0  284 292 
 URE  HZ I        1546 27.06        17.0 0.14            113            284 292 
 GUY2CHZ EP       1545 49.75                             112    1.07 7  301 235 
 GUY2CHN ES       1546 22.68                             112   -0.03 7  301 235 
 GUY2CHZ I        1546 33.70        12.3 0.44                           301 235 
 RREF HZ EP       1545 51.78                             111    0.56 7  322 229 
 RREF HN ES   4   1546 29.51                             111    2.29 0  322 229 
 RREF HZ I        1546 35.35        13.7 0.32            111            322 229 
 CBOC HZ EP       1545 52.15                             110    0.17 7  334 252 
 CBOC HN ES   4   1546 27.41                             110   -1.17 0  334 252 
 CBOC HZ I        1546 42.54         4.3 0.44            110            334 252 
 TOL  SZ EP       1545 53.46                             109    0.13 7  344 225 
 TOL  SN ES   4   1546 32.51                             109    1.52 0  344 225 
 TOL  SZ I        1546 36.86        24.4 0.20            110            344 225 
 ANIL HE ES   4   1546 36.05                             108    2.30 0  358 224 
 SJC  HN ES   4   1546 39.09                             106   -4.79 0  409 327 
                                                                                
