 2010 1011 1314 31.2 L   6.777 -73.015148.3  RSN  8 0.4 2.4LRSN                1
 GAP=210        0.68       4.6    10.4  7.6 -0.8674E+01  0.1877E+02  0.1042E+02E
 Epicentro: CEPITA - SANTANDER                                                 3
 ACTION:UP  11-02-18 11:09 OP:tino STATUS:               ID:20101011131431 L   I
 2010-10-11-1300-00S.COL___116                                                 6
 STAT SP IPHASW D HRMM SECON CODA AMPLIT PERI AZIMU VELO SNR AR TRES W  DIS CAZ7
 BAR2 SZ IP     C 1314 51.56                             169     0.310   28 222 
 BAR2 SZ ES   2   1315  6.31                             169    -0.5 5   28 222 
 BAR2 SZ I        1315  7.79        41.4 0.45                            28 222 
 BRR  HZ EP   1   1314 53.45                             149     0.0 7   85 295 
 BRR  HZ I        1314 53.75        78.3 0.18                            85 295 
 BRR  HE ES   2   1315 10.83                             149     0.0 5   85 295 
 OCA  SZ EP   1   1315  0.07                             129    -0.1 7  165 348 
 OCA  SZ ES   2   1315 22.53                             129    -0.2 5  165 348 
 NOR  SZ EP   1   1315  7.60                             118    -0.6 6  245 237 
 CHI  HZ EP   1   1315  9.18                             117     0.0 6  250 199 
 CHI  HN ES   2   1315 39.25                             117     0.4 4  250 199 
 CHI  HZ I        1315 46.67         5.8 0.30                           250 199 
 HEL  HZ EP   1   1315 13.52                             114     0.5 6  286 257 
 HEL  HZ I        1315 50.27        10.1 0.42                           286 257 
 RREF HZ EP   1   1315 18.64                             111     0.1 5  331 231 
 PRA  HZ EP   1   1315 24.65                             107    -0.8 4  397 212 
 PRA  HE ES   2   1316  8.22                             107     0.5 3  397 212 
 PRA  HZ I        1316 10.34        18.5 0.77                           397 212 
                                                                                
