 2016  711 1758  1.3 L   6.822 -73.040141.6  RSN  4 0.1 1.5LRSN                1
 GAP=250        0.44       5.0     5.7  4.1  0.2255E+02 -0.5186E+00 -0.5992E+01E
 Epicentro: LOS SANTOS - SANTANDER                                             3
 ACTION:UPD 17-03-29 16:49 OP:lp   STATUS:               ID:20160711175801 L   I
 OLDACT:REG 16-07-11 23:37 OP:dani STATUS:               ID:20160711173553     3
 2016-07-11-1747-00M.COL___481                                                 6
 STAT SP IPHASW D HRMM SECON CODA AMPLIT PERI AZIMU VELO AIN AR TRES W  DIS CAZ7
 BAR2 EZ EP       1758 20.36                             167   -0.1710 29.9 212 
 BAR2 EZ ES       1758 35.74                             167    0.1710 29.9 212 
 BAR2 EZ I        1758 36.30         7.0 0.12            156           29.9 212 
 BRR  HZ EP       1758 22.49                             149   -0.0410 80.7 293 
 BRR  BN ES       1758 39.06                             149   -0.0610 80.7 293 
 BRR  HZ I        1758 39.40         8.7 0.58            142           80.7 293 
 RUS  HN ES       1758 43.07                             142   -0.0310  103 183 
 RUS  HZ I        1758 44.21         2.1 0.30            137            103 183 
 ZAR  BZ EP       1758 34.77                             120    0.29 8  214 290 
 ZAR  HE ES       1759  0.28                             120   -0.11 8  214 290 
 ZAR  BZ I        1759  6.28         6.3 0.30            117            214 290 
                                                                                
