 2016  211 1214  8.8 L   6.773 -73.184130.8  RSN  7 0.4 1.8LRSN                1
 GAP=139        0.57       7.0     3.9  7.4 -0.6463E+01  0.4296E+01  0.2500E+02E
 Epicentro: LOS SANTOS - SANTANDER                                             3
 ACTION:UPD 16-03-04 21:25 OP:rebc STATUS:               ID:20160211121408 L   I
 OLDACT:REG 16-02-11 20:28 OP:dnl  STATUS:               ID:20160211120748     3
 2016-02-11-1207-48M.COL___309                                                 6
 STAT SP IPHASW D HRMM SECON CODA AMPLIT PERI AZIMU VELO AIN AR TRES W  DIS CAZ7
 BAR2 EZ EP       1214 26.75                             170    0.1610 20.0 179 
 BAR2 EZ ES   2   1214 40.98                             170    0.53 5 20.0 179 
 BAR2 EZ I        1214 42.58        11.9 0.30            172           20.0 179 
 PAM  EZ EP   4   1214 32.75                             146    2.94 0 82.4  40 
 PAM  EE ES   2   1214 45.54                             146   -0.64 5 82.4  40 
 PAM  EZ I        1214 47.23        11.3 0.40            144           82.4  40 
 PTB  HZ EP   2   1214 33.90                             129   -0.27 5  143 260 
 PTB  HN ES       1214 53.73                             129   -0.21 9  143 260 
 PTB  HZ I        1214 57.19         8.0 0.12            127            143 260 
 ZAR  HZ EP   4   1214 41.93                             119    1.88 0  201 293 
 ZAR  HN ES   2   1215  4.73                             119    0.32 4  201 293 
 ZAR  HZ I        1215 13.50         6.2 0.14            117            201 293 
 NOR  HZ EP       1214 43.41                             116    0.25 8  229 234 
 NOR  HE ES   2   1215  9.87                             116   -0.07 4  229 234 
 CHI  HZ EP   2   1214 44.73                             114   -0.57 4  245 194 
 CHI  HZ I    4   1215  3.60         3.6 0.10            117            245 194 
 GUY2CHZ EP   2   1214 51.74                             110    0.55 4  296 235 
 GUY2CHE ES   2   1215 23.65                             110   -0.58 4  296 235 
 GUY2CHZ I        1215 32.21         3.6 0.24                           296 235 
                                                                                
