 2013 1111 1620 43.9 L   6.844 -73.113141.1  RSN  5 0.6 1.4LRSN                1
 GAP=138        1.50      11.0    17.6 18.2  0.1289E+03 -0.1620E+03 -0.1320E+03E
 Epicentro: LOS SANTOS - SANTANDER                                             3
 ACTION:UPD 14-01-09 16:27 OP:ep   STATUS:               ID:20131111162043 L   I
 OLDACT:REG 13-11-11 15:51 OP:stll STATUS:               ID:20131111161818     3
 2013-11-11-1618-18M.COL___219                                                 6
 STAT SP IPHASW D HRMM SECON CODA AMPLIT PERI AZIMU VELO AIN AR TRES W  DIS CAZ7
 BAR2 SZ EP       1621  3.09                             168   -0.0010 28.9 195 
 BAR2 SZ ES       1621 17.41                             168   -0.6610 28.9 195 
 BAR2 SZ I        1621 18.86         9.6 0.32            167           28.9 195 
 PAM  SZ EP       1621  5.84                             152    0.5910 71.3  40 
 BRR  HZ EP       1621  4.78                             151    0.1710 72.3 294 
 BRR  HN ES       1621 21.62                             151    0.8610 72.3 294 
 BRR  HZ I        1621 22.15         5.3 0.12            151           72.3 294 
 RUS  HN ES       1621 25.72                             141   -0.2710  105 178 
 RUS  HZ I        1621 27.23         2.7 0.48            142            105 178 
 SML  HN ES       1621 47.00                             117   -1.07 8  241 334 
                                                                                
