 2012 1111 1615 27.2 L   6.510 -73.594108.2  RSN  6 0.4 1.6LRSN                1
 GAP= 90        0.84       4.4     4.7  8.7  0.9325E+01  0.1635E+02  0.1582E+02E
 Epicentro: SANTA HELENA DEL OPON - SANTANDER                                  3
 ACTION:UPD 12-12-05 15:32 OP:}ep  STATUS:               ID:20121111161527 L   I
 2012-11-11-1610-00M.COL___230                                                 6
 STAT SP IPHASW D HRMM SECON CODA AMPLIT PERI AZIMU VELO AIN AR TRES W  DIS CAZ7
 BAR2 SZ IP     D 1615 43.30                             155    0.0010 46.4  79 
 BAR2 SZ ES   1   1615 55.47                             155   -0.35 7 46.4  79 
 BRR  HZ IP     C 1615 44.22                             145    0.0110 67.3 349 
 BRR  HN ES   1   1615 58.01                             145    0.56 7 67.3 349 
 BRR  HZ I        1615 59.41        14.7 0.32                          67.3 349 
 RUS  HZ EP   1   1615 46.21                             138   -0.31 7 88.6 140 
 RUS  HE ES   1   1616  1.73                             138    0.18 7 88.6 140 
 RUS  HZ I        1616  3.45         7.1 0.28                          88.6 140 
 PTB  HZ IP       1615 46.11                             135   -0.3210 95.4 272 
 PTB  HN ES   1   1616  0.85                             135   -0.54 7 95.4 272 
 PTB  HZ I        1616  2.21        20.0 0.24                          95.4 272 
 ZAR  HE ES   1   1616 16.46                             116    0.61 7  177 308 
 ZAR  HZ I        1616 25.57         7.3 0.28                           177 308 
 CHI  HZ EP   1   1615 58.44                             112   -0.13 6  208 184 
 CHI  HN ES   1   1616 23.84                             112    0.83 6  208 184 
 CHI  HZ I        1616 30.40         1.7 0.32                           208 184 
                                                                                
