 2012 1111 1917 54.3 L   6.808 -73.182142.0  RSN  7 0.5 1.8LRSN                1
 GAP=132        0.96       5.1     6.2  7.5 -0.6420E+01  0.1905E+01  0.9885E+01E
 Epicentro: LOS SANTOS - SANTANDER                                             3
 ACTION:UPD 12-12-05 15:32 OP:}ep  STATUS:               ID:20121111191754 L   I
 2012-11-11-1910-00M.COL___230                                                 6
 STAT SP IPHASW D HRMM SECON CODA AMPLIT PERI AZIMU VELO AIN AR TRES W  DIS CAZ7
 BAR2 SZ EP   1   1918 13.20                             170   -0.24 7 23.8 180 
 BAR2 SZ ES   1   1918 28.51                             170    0.10 7 23.8 180 
 BAR2 SZ I        1918 29.20        34.6 0.38                          23.8 180 
 GIR2 SZ EP       1918 13.37                             168   -0.0810 30.0 357 
 GIR2 SZ ES   1   1918 28.81                             168    0.40 7 30.0 357 
 BRR  HZ EP   1   1918 15.23                             153    0.45 7 67.3 299 
 BRR  HN ES   1   1918 31.38                             153    0.59 7 67.3 299 
 BRR  HZ I        1918 33.79        25.9 0.20                          67.3 299 
 PAM  SZ EP       1918 16.12                             150   -0.0710 79.3  42 
 PAM  SN ES   1   1918 33.07                             150   -0.23 7 79.3  42 
 PAM  SZ I        1918 37.49         9.0 0.42                          79.3  42 
 RUS  HZ EP   1   1918 17.16                             143   -0.57 7  102 174 
 RUS  HN ES   1   1918 35.83                             143   -0.21 7  102 174 
 RUS  HZ I        1918 37.48         4.3 0.28                           102 174 
 PTB  HZ EP   1   1918 19.99                             132   -0.59 7  144 258 
 PTB  HN ES   1   1918 40.47                             132   -0.64 7  144 258 
 PTB  HZ I        1918 43.95        17.7 0.18                           144 258 
 CHI  HZ EP   1   1918 33.06                             116    1.33 6  248 194 
 CHI  HN ES   1   1919  1.32                             116    0.36 6  248 194 
 CHI  HZ I        1919  6.23         2.6 0.40                           248 194 
                                                                                
