 2015  311 1105 12.0 L   6.810 -73.157147.7  RSN 20 0.4 2.5LRSN                1
 GAP=112        0.79       2.3     2.6  4.4  0.5813E-01  0.2153E+01  0.7001E-01E
 Epicentro: LOS SANTOS - SANTANDER                                             3
 ACTION:UPD 15-04-30 16:25 OP:nd   STATUS:               ID:20150311110512 L   I
 OLDACT:DUP 15-03-11 22:50 OP:spq  STATUS:               ID:20150311105749d    3
 2015-03-11-1057-48M.COL___287                                                 6
 STAT SP IPHASW D HRMM SECON CODA AMPLIT PERI AZIMU VELO AIN AR TRES W  DIS CAZ7
 BAR2 EZ EP       11 5 31.77                             170   -0.1110 24.3 187 
 BAR2 EZ ES   1   11 5 46.65                             170   -0.74 7 24.3 187 
 BAR2 EZ I        11 5 47.85        78.2 0.22            169           24.3 187 
 BRR  HZ IP     C 11 5 33.46                             153    0.1910 69.5 298 
 BRR  HE ES       11 5 50.65                             153    0.8010 69.5 298 
 BRR  HZ I        11 5 51.66        60.8 0.20            151           69.5 298 
 RUS  HZ EP       11 5 35.71                             144   -0.3210  102 175 
 RUS  HN ES       11 5 54.69                             144   -0.0810  102 175 
 RUS  HZ I        11 5 55.46        41.5 0.26            144            102 175 
 TAM  HZ EP     D 11 5 40.15                             131    0.18 9  157 105 
 TAM  HN ES       11 6  1.90                             131    0.11 9  157 105 
 TAM  HZ I        11 6  2.58        18.3 0.54            133            157 105 
 OCA  HZ EP       11 5 40.46                             130    0.11 9  159 354 
 OCA  HE ES       11 6  2.55                             130    0.10 9  159 354 
 OCA  HZ I        11 6 10.10        38.8 0.28            131            159 354 
 SPBC HZ EP   1   11 5 40.36                             130   -0.30 7  163 218 
 SPBC HN ES       11 6  3.08                             130    0.07 9  163 218 
 SPBC HZ I        11 6  7.77        69.4 0.22            128            163 218 
 ZAR  HZ EP   1   11 5 44.76                             123    0.35 6  202 292 
 ZAR  HE ES       11 6  9.58                             123   -0.11 9  202 292 
 ZAR  HZ I        11 6 15.10        44.1 0.28            122            202 292 
 NOR  HZ EP       11 5 47.81                             119    0.00 8  234 234 
 NOR  HN ES       11 6 15.70                             119   -0.03 8  234 234 
 NOR  HZ I        11 6 17.36        19.6 0.26            118            234 234 
 SML  HZ EP       11 5 48.06                             118   -0.51 8  242 335 
 SML  HE ES   1   11 6 16.41                             118   -0.68 6  242 335 
 SML  HZ I        11 6 20.68        49.9 0.26            118            242 335 
 ROSC BZ EP   4   11 5 52.74                             117    2.47 0  253 211 
 ROSC BE ES   4   11 6 22.20                             117    2.09 0  253 211 
 ROSC BZ I        11 6 25.80        33.8 0.30            117            253 211 
 HEL  HZ EP   4   11 5 53.51                             115    1.30 0  271 256 
 HEL  HN ES   1   11 6 23.88                             115    0.31 6  271 256 
 HEL  HZ I        11 6 30.15        18.1 0.30            115            271 256 
 GUY2CHZ EP       11 5 55.92                             113    0.26 7  301 234 
 GUY2CHN ES   4   11 6 33.63                             113    3.92 0  301 234 
 GUY2CHZ I        11 6 38.23        13.9 0.54                           301 234 
 PTGC HZ EP   4   11 5 55.00                             112   -1.12 0  310 159 
 PTGC HN ES   4   11 6 28.70                             112   -1.83 0  310 159 
 PTGC HZ I        11 6 31.04        18.9 0.32            112            310 159 
 CBOC HZ EP   4   11 6  0.13                             110    1.23 0  333 252 
 CBOC HE ES   1   11 6 34.63                             110   -0.85 5  333 252 
 CBOC HZ I        11 6 41.36         5.2 0.20            110            333 252 
 DBB  SZ EP   1   11 5 59.14                             110   -0.26 5  338 274 
 DBB  SZ ES   4   11 6 34.91                             110   -1.46 0  338 274 
 DBB  SZ I        11 6 37.47        39.9 0.72            110            338 274 
 TOL  SZ EP   1   11 6  1.18                             110    0.85 5  343 224 
 TOL  SN ES   4   11 6 39.45                             110    1.43 0  343 224 
 TOL  SZ I        11 6 46.14        13.5 0.34            109            343 224 
 MON  HZ EP   4   11 5 59.19                             109   -1.70 0  352 308 
 MON  HN ES   4   11 6 37.33                             109   -1.68 0  352 308 
 MON  HZ I        11 6 37.84         9.1 0.68            109            352 308 
 ANIL HZ EP   4   11 6  4.09                             109    2.22 0  357 224 
 ANIL HN ES   4   11 6 42.63                             109    1.86 0  357 224 
 ANIL HZ I        11 6 46.39         4.2 0.30            109            357 224 
 PRA  HZ EP       11 6  5.65                             107    0.01 6  392 209 
 PRA  HN ES   1   11 6 47.22                             107   -0.24 4  392 209 
 PRA  HZ I        11 6 52.40        14.0 0.62            107            392 209 
 ORTC HZ EP   4   11 6  4.73                             107   -1.28 0  396 216 
 ORTC HN ES   4   11 6 49.65                             107    1.52 0  396 216 
 ORTC HZ I        11 6 52.62         7.1 0.40            107            396 216 
                                                                                
