 2015  311 1925 34.2 L   6.822 -73.205146.5  RSN  7 0.2 1.6LRSN                1
 GAP=130        0.43       2.5     3.1  3.9 -0.4368E+01  0.4278E+01 -0.1081E+01E
 Epicentro: ZAPATOCA - SANTANDER                                               3
 ACTION:UPD 15-04-30 16:25 OP:nd   STATUS:               ID:20150311192534 L   I
 OLDACT:REG 15-03-11 21:58 OP:spq  STATUS:               ID:20150311191748     3
 2015-03-11-1917-48M.COL___287                                                 6
 STAT SP IPHASW D HRMM SECON CODA AMPLIT PERI AZIMU VELO AIN AR TRES W  DIS CAZ7
 BAR2 EZ ES   1   1926  9.55                             170    0.17 7 25.5 174 
 BAR2 EZ I        1926 11.39         6.9 0.28            171           25.5 174 
 PAM  SZ EP       1925 56.56                             150   -0.0910 80.0  44 
 PAM  SN ES   1   1926 14.08                             150   -0.08 7 80.0  44 
 PAM  SZ I        1926 16.04         4.3 0.62            154           80.0  44 
 PTB  HZ EP       1926  0.83                             133    0.13 9  142 257 
 PTB  HE ES   1   1926 21.54                             133    0.18 7  142 257 
 PTB  HZ I        1926 23.79         3.4 0.38            134            142 257 
 SPBC HZ EP       1926  2.57                             129    0.02 9  161 217 
 SPBC HN ES       1926 24.49                             129   -0.18 9  161 217 
 SPBC HZ I        1926 26.82         5.1 0.12            131            161 217 
 NOR  HZ EP       1926  9.80                             119    0.24 8  231 233 
 NOR  HE ES   1   1926 36.77                             119   -0.37 6  231 233 
 NOR  HZ I        1926 43.17         3.2 0.16            121            231 233 
 SML  HE ES   1   1926 38.37                             118   -0.16 6  239 336 
 SML  HZ I        1926 40.82         5.4 0.28            120            239 336 
 GUY2CHZ EP   4   1926 20.92                             113    3.52 0  297 234 
 GUY2CHE ES   4   1926 54.42                             113    3.32 0  297 234 
 GUY2CHZ I        1926 59.81         2.0 0.36                           297 234 
                                                                                
