 2016  711 1807 40.5 L   6.804 -73.108144.1  RSN  6 0.3 2.2LRSN                1
 GAP=242        0.71       3.7     4.7  4.8  0.6868E+01  0.8792E+01  0.4480E+01E
 Epicentro: LOS SANTOS - SANTANDER                                             3
 ACTION:UPD 17-03-29 16:49 OP:lp   STATUS:               ID:20160711180740 L   I
 OLDACT:REG 16-07-11 23:38 OP:dani STATUS:               ID:20160711175613     3
 2016-07-11-1807-00M.COL___481                                                 6
 STAT SP IPHASW D HRMM SECON CODA AMPLIT PERI AZIMU VELO AIN AR TRES W  DIS CAZ7
 BAR2 EZ EP       18 7 59.94                             170   -0.0510 24.8 199 
 BAR2 HN ES       18 8 14.94                             170   -0.2210 24.8 199 
 BAR2 EZ I        18 8 16.02        53.0 0.20            165           24.8 199 
 BRR  HZ IP       18 8  1.79                             151    0.0910 74.7 297 
 BRR  BN ES       18 8 18.65                             151    0.4410 74.7 297 
 BRR  HZ I        18 8 23.23        29.9 0.66            149           74.7 297 
 RUS  HZ EP       18 8  3.89                             143   -0.2410  101 178 
 RUS  HN ES       18 8 22.62                             143    0.0810  101 178 
 RUS  HZ I        18 8 24.02        11.1 0.28            143            101 178 
 ZAR  HZ EP       18 8 13.11                             121   -0.14 8  208 292 
 ZAR  HN ES       18 8 38.44                             121   -0.33 8  208 292 
 ZAR  HZ I        18 8 41.33        20.4 0.70            122            208 292 
 NOR  HZ EP       18 8 17.14                             118    0.59 8  238 235 
 NOR  HN ES       18 8 44.25                             118   -0.40 8  238 235 
 NOR  HZ I        18 8 49.84         9.1 0.22            118            238 235 
 PRA  HZ EP       18 8 34.20                             106   -0.07 6  394 210 
 PRA  HN ES       18 9 16.58                             106    0.39 6  394 210 
 PRA  HZ I        18 9 21.65         5.8 0.30            107            394 210 
                                                                                
