 2011 1111 1956 32.1 L   6.770 -73.096139.7  RSN  4 0.1 1.5LRSN                1
 GAP=144        0.30       3.4     3.8  5.5  0.1235E+01 -0.2608E+01  0.2443E+00E
 Epicentro: LOS SANTOS - SANTANDER                                             3
 ACTION:UPD 12-07-13 16:09 OP:ep   STATUS:               ID:20111111195632 L   I
 2011-11-11-1953-24S.COL___179                                                 6
 STAT SP IPHASW D HRMM SECON CODA AMPLIT PERI AZIMU VELO AIN AR TRES W  DIS CAZ7
 BAR2 SZ EP   2   1956 50.94                             171   -0.06 5 21.9 206 
 BAR2 SZ I        1957  7.58         6.1 0.10                          21.9 206 
 PAM  SZ EP   2   1956 53.78                             150    0.12 5 76.7  35 
 PAM  SN ES   2   1957 10.39                             150   -0.06 5 76.7  35 
 BRR  HZ EP   1   1956 52.97                             149   -0.04 7 77.6 299 
 BRR  HZ I        1956 53.27        17.2 0.21                          77.6 299 
 BRR  HN ES   1   1957  9.32                             149    0.03 7 77.6 299 
 RUS  HE ES   2   1957 12.91                             144    0.02 5 97.1 179 
 RUS  HZ I        1957 14.88         3.0 0.46                          97.1 179 
                                                                                
