 2013  411 1317 20.5 L   6.834 -73.207139.3  RSN  5 0.4 1.3LRSN                1
 GAP=169        0.77       6.7     6.3  7.3  0.1219E+02  0.1225E+02  0.1311E+02E
 Epicentro: ZAPATOCA - SANTANDER                                               3
 ACTION:UPD 13-05-22 14:37 OP:EP   STATUS:               ID:20130411131720 L   I
 2013-04-11-1310-00M.COL___245                                                 6
 STAT SP IPHASW D HRMM SECON CODA AMPLIT PERI AZIMU VELO AIN AR TRES W  DIS CAZ7
 BAR2 SZ EP   1   1317 39.35                             169   -0.13 8 26.9 174 
 BAR2 SZ ES   1   1317 54.03                             169   -0.22 8 26.9 174 
 BAR2 SZ I        1317 56.34         5.5 0.34            168           26.9 174 
 GIR2 SZ EP   1   1317 38.99                             168   -0.35 8 27.1   3 
 GIR2 SZ ES   1   1317 53.87                             168   -0.12 8 27.1   3 
 GIR2 SZ I        1317 55.68         5.7 0.70            170           27.1   3 
 BRR  HN ES   1   1317 56.82                             154    0.65 8 63.4 298 
 RUS  HZ EP   1   1317 44.75                             141    0.75 8  105 172 
 RUS  HN ES   1   1318  2.18                             141   -0.12 8  105 172 
 RUS  HZ I        1318  3.03         1.1 0.16            143            105 172 
 PTB  HZ EP       1317 46.27                             132   -0.1910  142 257 
 PTB  HN ES   1   1318  6.48                             132   -0.18 7  142 257 
 PTB  HZ I        1318  9.54         4.9 0.14            133            142 257 
                                                                                
