 2010 1111 1543 21.7 L   6.768 -73.056147.2  RSN  5 0.3 1.8LRSN                1
 GAP=169        0.83       4.5     9.7  8.4 -0.1642E+01 -0.2338E+02 -0.5689E+01E
 Epicentro: LOS SANTOS - SANTANDER                                             3
 ACTION:UP  10-12-17 16:51 OP:REBC STATUS:               ID:20101111154321 L   I
 2010-11-11-1542-01S.COL___129                                                 6
 STAT SP IPHASW D HRMM SECON CODA AMPLIT PERI AZIMU VELO SNR AR TRES W  DIS CAZ7
 BAR2 SZ EP       1543 41.40                             170    -0.110   24 216 
 BAR2 SZ ES   1   1543 56.33                             170    -0.6 7   24 216 
 BAR2 SZ I        1543 58.42        12.9 0.20                            24 216 
 BRR  HZ EP       1543 43.30                             149    -0.310   82 297 
 BRR  HZ I        1543 51.90        26.0 0.32                            82 297 
 BRR  HN ES   1   1544  1.17                             149     0.5 7   82 297 
 RUS  HZ EP       1543 45.41                             145     0.110   97 182 
 RUS  HE ES   1   1544  4.14                             145     0.4 7   97 182 
 RUS  HZ I        1544  5.74         5.7 0.44                            97 182 
 GUE  SZ EP   2   1543 46.97                             139     0.3 5  118   7 
 GRA  SZ EP       1543 47.15                             137     0.010  127  13 
 GRA  SZ ES   1   1544  7.13                             137     0.2 7  127  13 
 GRA  SZ I        1544  8.11         5.6 0.47                           127  13 
                                                                                
