 2013 1011 1802 42.0 L   6.774 -73.157133.8  RSN  7 0.5 1.7LRSN                1
 GAP=136        1.16       5.7     5.2  9.1  0.1685E+00  0.1553E+02 -0.5321E+01E
 Epicentro: LOS SANTOS - SANTANDER                                             3
 ACTION:UPD 13-11-25 09:20 OP:ep   STATUS:               ID:20131011180242 L   I
 OLDACT:DUP 13-10-11 17:30 OP:nd   STATUS:               ID:20131011175960d    3
 2013-10-11-1759-59M.COL___273                                                 6
 STAT SP IPHASW D HRMM SECON CODA AMPLIT PERI AZIMU VELO AIN AR TRES W  DIS CAZ7
 BAR2 SZ IP     C 18 3  0.42                             171    0.2510 20.3 188 
 BAR2 SZ ES       18 3 14.65                             171    0.3410 20.3 188 
 BAR2 SZ I        18 3 16.43        19.2 0.22            174           20.3 188 
 BRR  HZ EP       18 3  2.54                             150    0.6210 71.5 301 
 BRR  HN ES   2   18 3 18.01                             150    0.57 5 71.5 301 
 BRR  HZ I        18 3 19.26        13.1 0.32            149           71.5 301 
 PAM  SZ EP       18 3  3.56                             148    0.3810 80.4  39 
 PAM  SN ES       18 3 18.85                             148   -0.8310 80.4  39 
 PAM  SZ I        18 3 23.08         8.9 0.44            149           80.4  39 
 RUS  HZ EP       18 3  4.12                             142   -0.3010 97.8 175 
 RUS  HN ES       18 3 22.07                             142    0.1910 97.8 175 
 RUS  HZ I        18 3 23.77        11.0 0.30            147           97.8 175 
 PTB  HZ EP       18 3  7.26                             129   -0.63 9  146 260 
 PTB  HN ES       18 3 27.53                             129   -0.53 9  146 260 
 PTB  HZ I        18 3 28.62         5.7 0.14            131            146 260 
 ZAR  HZ EP   2   18 3 14.13                             120    0.41 4  204 293 
 ZAR  HN ES       18 3 38.64                             120    0.20 9  204 293 
 ZAR  HZ I        18 3 48.31         8.4 0.36            121            204 293 
 GUY2CHZ EP   4   18 3 26.57                             110    1.75 0  299 235 
 GUY2CHN ES   4   18 3 58.76                             110    0.58 0  299 235 
 GUY2CHZ I        18 4  5.76         1.8 0.58                           299 235 
                                                                                
