 2015  111 1534  5.0 L   6.860 -73.145148.0  RSN  5 0.5 1.6LRSN                1
 GAP=246        1.04       8.4     7.0 10.2  0.2622E+02  0.2374E+02 -0.1844E+01E
 Epicentro: LOS SANTOS - SANTANDER                                             3
 ACTION:UPD 15-03-02 15:38 OP:nd   STATUS:               ID:20150111153405 L   I
 OLDACT:REG 15-01-11 20:40 OP:mh   STATUS:               ID:20150111152745     3
 2015-01-11-1527-45M.COL___256                                                 6
 STAT SP IPHASW D HRMM SECON CODA AMPLIT PERI AZIMU VELO AIN AR TRES W  DIS CAZ7
 BAR2 EZ EP   1   1534 25.72                             168    0.65 7 29.9 188 
 BAR2 EZ ES       1534 40.94                             168    0.2410 29.9 188 
 RUS  HZ EP       1534 28.93                             142   -0.5410  107 176 
 RUS  HN ES       1534 48.42                             142   -0.1310  107 176 
 RUS  HZ I        1534 49.34         5.2 0.34            167            107 176 
 PTB  HZ EP       1534 32.51                             132    0.21 9  149 256 
 PTB  HN ES   1   1534 52.72                             132   -0.87 7  149 256 
 PTB  HZ I        1534 57.86         3.9 0.26            131            149 256 
 ZAR  HN ES       1535  2.49                             123   -0.11 9  202 290 
 ZAR  HZ I        1535 48.86         5.0 0.14            120            202 290 
 NOR  HN ES       1535 10.20                             119    0.59 8  239 233 
 NOR  HZ I        1535 10.86         3.8 0.16            124            239 233 
                                                                                
