 2016  111 1144  6.6 L   6.810 -73.115150.0  RSN  8 0.5 1.7LRSN                1
 GAP=158        1.29       4.6     6.8  7.6 -0.7824E+01  0.8452E+01  0.4198E+01E
 Epicentro: LOS SANTOS - SANTANDER                                             3
 ACTION:UPD 16-03-09 23:24 OP:cam  STATUS:               ID:20160111114406 L   I
 OLDACT:REG 16-01-11 19:35 OP:drio STATUS:               ID:20160111113753     3
 2016-01-11-1137-53M.COL___252                                                 6
 STAT SP IPHASW D HRMM SECON CODA AMPLIT PERI AZIMU VELO AIN AR TRES W  DIS CAZ7
 BAR2 EZ EP       1144 27.08                             170    0.2910 25.2 197 
 BAR2 EZ ES       1144 42.47                             170   -0.0610 25.2 197 
 BAR2 EZ I        1144 44.86         5.5 0.48            167           25.2 197 
 BRR  HZ EP       1144 29.13                             152    0.7610 73.7 297 
 BRR  HN ES       1144 46.08                             152    0.7510 73.7 297 
 PAM  EZ EP       1144 28.11                             153   -1.0010 74.4  38 
 PAM  EN ES       1144 46.81                             153    0.1510 74.4  38 
 PAM  EZ I        1144 47.73         5.5 0.34            157           74.4  38 
 PTB  HZ EP       1144 33.68                             132   -0.57 9  151 259 
 PTB  HN ES       1144 55.24                             132   -0.57 9  151 259 
 PTB  HZ I        1145  2.58         5.2 0.34            132            151 259 
 SPBC HZ EP       1144 35.91                             130    0.18 9  166 220 
 SPBC HN ES       1144 58.12                             130   -0.31 9  166 220 
 SPBC HZ I        1145  3.38        16.9 0.10            130            166 220 
 SML  HZ EP       1144 43.55                             118    0.02 8  244 334 
 SML  HN ES       1145 11.92                             118   -0.40 8  244 334 
 SML  HZ I        1145 15.82         6.8 0.10            120            244 334 
 CHI  HZ EP       1144 45.32                             118    0.55 8  251 196 
 CHI  HN ES       1145 14.23                             118   -0.29 8  251 196 
 CHI  HZ I        1145 20.50         1.5 0.32            119            251 196 
 GUY2CHZ EP       1144 51.36                             113    0.55 7  305 235 
 GUY2CHE ES   4   1145 28.62                             113    3.34 0  305 235 
 GUY2CHZ I        1145 33.79         3.1 0.40                           305 235 
                                                                                
