 2017  611 1140 34.6 L   6.768 -73.225149.6  RSN  6 0.2 1.7LRSN                1
 GAP=249        0.57       2.8     5.4  5.3  0.4063E+01 -0.4897E+01  0.2523E+01E
 Epicentro: ZAPATOCA - SANTANDER                                               3
 ACTION:UPD 17-09-14 16:51 OP:jn   STATUS:               ID:20170611114034 L   I
 OLDACT:UP  17-06-11 22:24 OP:edw  STATUS:               ID:20170611113746     3
 OLDACT:REG 17-06-11 20:05 OP:edw  STATUS:               ID:20170611113746     3
 2017-06-11-1138-00M.COL___350                                                 6
 STAT SP IPHASW D HRMM SECON CODA AMPLIT PERI AZIMU VELO AIN AR TRES W  DIS CAZ7
 BRR  HN ES       1141 12.40                             155   -0.0210 65.6 305 
 PTB  HZ EP       1141  0.49                             135   -0.55 9  139 260 
 PTB  HN ES       1141 21.63                             135   -0.05 9  139 260 
 PTB  HZ I        1141 24.24         5.2 0.18            131            139 260 
 SPBC HZ EP       1141  2.75                             131    0.14 9  155 217 
 SPBC HN ES       1141 24.57                             131    0.09 9  155 217 
 SPBC HZ I        1141 32.08         8.3 0.40            129            155 217 
 ZAR  HZ EP       1141  6.80                             124    0.21 9  197 294 
 ZAR  HE ES       1141 31.80                             124    0.23 9  197 294 
 ZAR  HZ I        1141 39.89         5.1 0.28            123            197 294 
 NOR  HN ES       1141 36.75                             120   -0.10 8  226 234 
 CHI  HZ EP   2   1141 12.15                             118    0.26 4  243 193 
 CHI  HE ES       1141 41.09                             118    0.10 8  243 193 
 CHI  HZ I        1141 44.88         2.3 0.50            118            243 193 
                                                                                
