 2015  811 1327 34.8 L   6.794 -73.186143.4  RSN  9 0.5 2.2LRSN                1
 GAP=184        0.99       4.1     5.9  6.9 -0.7438E+00  0.1751E+02  0.6490E+01E
 Epicentro: ZAPATOCA - SANTANDER                                               3
 ACTION:UPD 15-09-15 23:01 OP:cam  STATUS:               ID:20150811132734 L   I
 OLDACT:DUP 15-08-12 00:19 OP:ar   STATUS:               ID:20150811131753d    3
 OLDACT:UP  15-08-12 00:12 OP:ar   STATUS:               ID:20150811131751d    3
 OLDACT:DUP 15-08-11 23:51 OP:ar   STATUS:               ID:20150811131751d    3
 2015-08-11-1317-50M.COL___340                                                 6
 STAT SP IPHASW D HRMM SECON CODA AMPLIT PERI AZIMU VELO AIN AR TRES W  DIS CAZ7
 BAR2 EZ EP       1327 53.66                             171   -0.4310 22.4 179 
 BAR2 EZ ES       1328  9.08                             171   -0.0810 22.4 179 
 BAR2 EZ I        1328  9.70        29.6 0.22            168           22.4 179 
 BRR  HZ EP       1327 55.41                             153   -0.0410 67.7 301 
 BRR  HN ES       1328 12.24                             153    0.6410 67.7 301 
 BRR  HZ I        1328 16.60        20.4 0.38            151           67.7 301 
 OCA  HE ES       1328 24.61                             129   -0.24 9  160 355 
 ZAR  HZ EP       1328  7.28                             122    0.63 9  200 293 
 ZAR  HN ES       1328 31.35                             122   -0.18 9  200 293 
 ZAR  HZ I        1328 36.78        14.8 0.42            123            200 293 
 NOR  HZ EP       1328  9.79                             118   -0.13 8  231 234 
 NOR  HN ES       1328 36.85                             118   -0.50 8  231 234 
 NOR  HZ I        1328 42.26         8.5 0.22            119            231 234 
 CHI  HZ EP   2   1328 11.93                             117   -0.21 4  247 194 
 CHI  HN ES   2   1328 40.92                             117   -0.37 4  247 194 
 CHI  HZ I        1328 43.43        10.8 0.38            119            247 194 
 GUY2CHZ EP   4   1328 19.06                             112    1.25 0  297 234 
 GUY2CHN ES   4   1328 53.80                             112    2.41 0  297 234 
 GUY2CHZ I        1329  1.39         5.5 0.24                           297 234 
 DBB  SZ EP       1328 21.65                             109    0.02 7  335 274 
 DBB  SZ ES       1328 57.37                             109   -0.83 7  335 274 
 DBB  SZ I        1328 59.13        18.0 0.30            111            335 274 
 TOL  SZ EP       1328 23.40                             109    0.89 7  340 224 
 TOL  SN ES       1329  0.37                             109    0.62 7  340 224 
 TOL  SZ I        1329  5.38         4.4 0.30            110            340 224 
                                                                                
