 2016 1111 1427  4.8 L   6.750 -73.133144.8  RSN  7 0.4 2.2LRSN                1
 GAP=161        1.09       7.1     5.2  7.8 -0.1278E+02  0.9140E+01  0.1087E+02E
 Epicentro: LOS SANTOS - SANTANDER                                             3
 ACTION:UPD 17-10-26 21:06 OP:lp   STATUS:               ID:20161111142704 L   I
 OLDACT:DUP 16-11-11 23:06 OP:dnl  STATUS:               ID:20161111141748d    3
 2016-11-11-1418-00M.COL___343                                                 6
 STAT SP IPHASW D HRMM SECON CODA AMPLIT PERI AZIMU VELO AIN AR TRES W  DIS CAZ7
 BAR2 EZ IP     C 1427 24.37                             172    0.1510 18.3 197 
 BAR2 EZ ES       1427 39.15                             172   -0.2310 18.3 197 
 BAR2 EZ I        1427 40.96        38.3 0.40            172           18.3 197 
 BRR  HZ IP     C 1427 26.30                             151    0.2210 75.2 302 
 BRR  HN ES       1427 43.16                             151    0.4810 75.2 302 
 BRR  HZ I        1427 44.74        29.9 0.12            147           75.2 302 
 PAM  EZ EP       1427 27.30                             149    0.1810 80.8  36 
 PAM  EN ES       1427 44.39                             149   -0.1510 80.8  36 
 PAM  EZ I        1427 45.42        18.9 0.16            150           80.8  36 
 PTB  HZ EP       1427 30.85                             132   -0.88 9  148 261 
 PTB  HN ES       1427 52.06                             132   -0.68 9  148 261 
 PTB  HZ I        1427 55.99        15.7 0.36            130            148 261 
 ZAR  HZ EP   2   1427 37.50                             122   -0.04 4  208 293 
 ZAR  HE ES       1428  3.18                             122    0.10 8  208 293 
 ZAR  HZ I        1428  8.57        27.7 0.60            120            208 293 
 NOR  HZ EP       1427 40.38                             118    0.12 8  233 236 
 NOR  HN ES       1428  8.76                             118    0.84 8  233 236 
 NOR  HZ I        1428 12.70        12.7 0.18            118            233 236 
 SJC  HZ EP   4   1427 58.09                             105   -2.87 0  415 327 
 SJC  HN ES   4   1428 39.62                             105   -5.16 0  415 327 
 SJC  HZ I        1428 51.19         1.7 0.64            105            415 327 
                                                                                
