 2015 1111 1140  9.2 L   6.797 -73.107148.0  RSN 16 0.4 2.5LRSN                1
 GAP= 68        0.94       2.3     2.7  4.4 -0.3961E+00  0.3013E+01  0.1376E+01E
 Epicentro: LOS SANTOS - SANTANDER                                             3
 ACTION:UPD 15-12-28 16:10 OP:cam  STATUS:               ID:20151111114009 L   I
 OLDACT:UP  15-11-19 06:51 OP:CARA STATUS:               ID:20151111114009 L   3
 OLDACT:DUP 15-11-11 23:57 OP:cara STATUS:               ID:20151111112751d    3
 OLDACT:DUP 15-11-11 23:40 OP:cara STATUS:               ID:20151111112750d    3
 OLDACT:REG 15-11-11 20:51 OP:cara STATUS:               ID:20151111112749     3
 2015-11-11-1127-49M.COL___316                                                 6
 STAT SP IPHASW D HRMM SECON CODA AMPLIT PERI AZIMU VELO AIN AR TRES W  DIS CAZ7
 BAR2 EZ EP       1140 29.01                             170   -0.1510 24.1 200 
 BAR2 EZ ES       1140 44.03                             170   -0.6610 24.1 200 
 BAR2 EZ I        1140 45.23        85.7 0.14            171           24.1 200 
 PAM  EZ EP       1140 31.93                             152    0.3710 75.0  37 
 PAM  EN ES       1140 49.10                             152    0.1410 75.0  37 
 PAM  EZ I        1140 51.52        28.4 0.58            149           75.0  37 
 BRR  HZ EP       1140 30.97                             152    0.1110 75.2 297 
 BRR  HN ES       1140 48.09                             152    0.3710 75.2 297 
 BRR  HZ I        1140 51.45        56.5 0.16            151           75.2 297 
 RUS  HZ EP       1140 32.46                             144   -0.7210  100 178 
 RUS  HN ES       1140 51.84                             144    0.0010  100 178 
 RUS  HZ I        1140 52.49        27.4 0.22            143            100 178 
 TAM  HZ EP       1140 37.30                             132    0.59 9  151 105 
 TAM  HZ I        1140 58.03        21.7 0.34            129            151 105 
 TAM  HN ES       1140 58.60                             132    0.47 9  151 105 
 OCA  HZ EP       1140 37.68                             130   -0.14 9  161 352 
 OCA  HN ES       1140 59.86                             130   -0.24 9  161 352 
 OCA  HZ I        1141  4.10        99.8 0.34            128            161 352 
 SPBC HZ EP       1140 37.91                             129   -0.24 9  166 220 
 SPBC HN ES       1141  0.57                             129   -0.12 9  166 220 
 SPBC HZ I        1141  2.11        67.8 0.10            128            166 220 
 ZAR  HZ EP       1140 41.84                             122   -0.42 8  208 292 
 ZAR  HN ES       1141  7.98                             122   -0.03 8  208 292 
 ZAR  HZ I        1141 14.04        49.1 0.44            121            208 292 
 NOR  HZ EP       1140 45.29                             118   -0.17 8  238 235 
 NOR  HN ES       1141 13.46                             118   -0.24 8  238 235 
 NOR  HZ I        1141 19.06        35.0 0.20            117            238 235 
 SML  HZ EP       1140 45.88                             118   -0.35 8  246 334 
 SML  HE ES       1141 15.39                             118    0.31 8  246 334 
 SML  HZ I        1141 17.30        44.3 0.10            116            246 334 
 CHI  HZ EP       1140 47.09                             117   -0.07 8  249 196 
 CHI  HN ES       1141 17.13                             117    0.41 8  249 196 
 CHI  HZ I        1141 21.80        16.6 0.24            116            249 196 
 HEL  HZ EP       1140 50.20                             115    0.18 7  276 256 
 HEL  HN ES       1141 22.40                             115    0.57 7  276 256 
 HEL  HN I        1141 28.87        26.6 0.30            114            276 256 
 URE  HZ EP   4   1140 49.18                             114   -1.71 0  288 292 
 URE  HN ES   4   1141 21.10                             114   -2.26 0  288 292 
 GUY2CHZ EP       1140 53.56                             112    0.23 7  304 235 
 GUY2CHN ES       1141 27.91                             112    0.19 7  304 235 
 GUY2CHZ I        1141 35.46        22.7 0.64                           304 235 
 PTGC HZ EP       1140 52.06                             112   -0.93 7  307 159 
 PTGC HN ES   4   1141 25.11                             112   -2.00 0  307 159 
 PTGC HZ I        1141 27.17        21.4 0.50            111            307 159 
 MON  HZ EP   4   1140 56.18                             109   -2.57 0  357 308 
 MON  HN ES   4   1141 34.86                             109   -2.50 0  357 308 
 MON  HZ I        1141 37.30         4.0 0.26            107            357 308 
 ORTC HZ EP       1141  3.89                             107    0.38 6  398 217 
 ORTC HZ I        1141  6.80         4.1 0.28            105            398 217 
 ORTC HE ES       1141 46.85                             107    1.02 6  398 217 
                                                                                
