 2016  511 1345 55.6 L   6.829 -73.194150.9  RSN  6 0.4 1.4LRSN                1
 GAP=276        0.92       6.8     5.5  7.8 -0.3738E+01  0.1243E+02  0.2003E+01E
 Epicentro: ZAPATOCA - SANTANDER                                               3
 ACTION:UPD 16-08-18 17:44 OP:cam  STATUS:               ID:20160511134555 L   I
 OLDACT:REG 16-05-11 18:34 OP:ak   STATUS:               ID:20160511133747     3
 2016-05-11-1337-47M.COL___297                                                 6
 STAT SP IPHASW D HRMM SECON CODA AMPLIT PERI AZIMU VELO AIN AR TRES W  DIS CAZ7
 BAR2 EZ EP       1346 15.94                             170    0.0210 26.3 177 
 BAR2 EZ ES       1346 32.17                             170    0.4110 26.3 177 
 BAR2 EZ I        1346 33.09         5.0 0.20            165           26.3 177 
 RUS  HZ EP       1346 19.76                             144   -0.3810  104 173 
 RUS  HE ES       1346 38.91                             144   -0.3610  104 173 
 RUS  HZ I        1346 39.56         2.5 0.34            143            104 173 
 PTB  HZ EP       1346 22.79                             134    0.18 9  143 257 
 PTB  HN ES       1346 43.52                             134   -0.14 9  143 257 
 PTB  HZ I        1346 49.76         3.6 0.14            132            143 257 
 SPBC HZ EP   2   1346 24.69                             131    0.24 5  162 217 
 SPBC HE ES       1346 47.52                             131    0.58 9  162 217 
 SPBC HZ I        1346 53.87         5.7 0.14            128            162 217 
 NOR  HE ES       1346 58.56                             120   -0.75 8  232 233 
 PRA  HZ EP   2   1346 50.24                             107    0.89 3  392 209 
 PRA  HE ES       1347 31.70                             107    0.44 6  392 209 
 PRA  HZ I        1347 39.76         0.8 0.50            108            392 209 
                                                                                
