 2016 1211 1651 13.7 L   6.776 -73.128141.3  RSN  9 0.5 2.3LRSN                1
 GAP=140        1.20       4.5     5.0  7.2  0.8375E+00  0.1127E+02  0.7105E+01E
 Epicentro: LOS SANTOS - SANTANDER                                             3
 ACTION:UPD 17-01-11 20:14 OP:rebc STATUS:               ID:20161211165113 L   I
 OLDACT:REG 16-12-11 21:08 OP:dnl  STATUS:               ID:20161211164745     3
 2016-12-11-1648-00M.COL___389                                                 6
 STAT SP IPHASW D HRMM SECON CODA AMPLIT PERI AZIMU VELO AIN AR TRES W  DIS CAZ7
 BAR2 EZ EP       1651 32.51                             171   -0.2410 21.2 197 
 BAR2 EZ ES       1651 47.47                             171   -0.1510 21.2 197 
 BAR2 EZ I        1651 48.52        72.7 0.24            171           21.2 197 
 BRR  HZ IP     C 1651 34.41                             151   -0.1410 74.2 300 
 BRR  HE ES       1651 51.51                             151    0.7010 74.2 300 
 BRR  HZ I        1651 54.46        42.7 0.28            150           74.2 300 
 PAM  EZ EP       1651 35.49                             150   -0.0010 78.2  37 
 PAM  EN ES       1651 52.53                             150    0.0410 78.2  37 
 PAM  EZ I        1651 54.80        51.3 0.68            152           78.2  37 
 RUS  HZ EP       1651 36.47                             144   -0.3410 97.8 177 
 RUS  HN ES       1651 55.13                             144    0.2810 97.8 177 
 RUS  HZ I        1651 56.02        15.9 0.22            145           97.8 177 
 PTB  HZ EP       1651 39.50                             131   -0.94 9  149 260 
 PTB  HE ES       1652  0.95                             131   -0.35 9  149 260 
 PTB  HZ I        1652  2.11        34.7 0.46            131            149 260 
 ZAR  HZ EP       1651 46.08                             121   -0.07 8  207 293 
 ZAR  HN ES       1652 11.45                             121   -0.02 8  207 293 
 ZAR  HZ I        1652 17.26        27.2 0.40            122            207 293 
 CHI  HZ EP       1651 51.57                             116    0.64 8  247 196 
 CHI  HN ES       1652 19.70                             116   -0.28 8  247 196 
 CHI  HZ I        1652 24.28         4.7 0.42            118            247 196 
 GUY2CHZ EP       1651 58.63                             111    1.51 7  301 235 
 GUY2CHN ES       1652 31.07                             111    0.08 7  301 235 
 GUY2CHZ I        1652 37.56         8.0 0.30                           301 235 
 SJC  HZ EP   4   1652  7.19                             105   -2.31 0  413 327 
 SJC  HN ES   4   1652 48.00                             105   -5.03 0  413 327 
 SJC  HZ I        1652 52.48         5.4 0.72            106            413 327 
                                                                                
