 2016  711 1848 17.6 L   6.829 -73.136148.0  RSN  7 0.2 2.2LRSN                1
 GAP=246        0.46       2.7     2.7  3.4  0.7086E+00  0.2823E+01  0.6529E+00E
 Epicentro: LOS SANTOS - SANTANDER                                             3
 ACTION:UPD 17-03-29 16:49 OP:lp   STATUS:               ID:20160711184817 L   I
 OLDACT:REG 16-07-11 23:40 OP:dani STATUS:               ID:20160711183558     3
 2016-07-11-1847-00M.COL___481                                                 6
 STAT SP IPHASW D HRMM SECON CODA AMPLIT PERI AZIMU VELO AIN AR TRES W  DIS CAZ7
 BAR2 EZ EP       1848 37.77                             169    0.2210 26.7 191 
 BAR2 HN ES       1848 52.94                             169   -0.1810 26.7 191 
 BAR2 EZ I        1848 54.39        33.9 0.22            164           26.7 191 
 RUS  HZ EP       1848 41.62                             143   -0.1510  104 177 
 RUS  HN ES       1849  0.66                             143    0.0110  104 177 
 RUS  HZ I        1849  2.14         8.4 0.52            142            104 177 
 SPBC HZ EP       1848 46.92                             129    0.38 9  166 219 
 SPBC HN ES       1849  9.19                             129    0.05 9  166 219 
 SPBC HZ I        1849 13.76        25.2 0.20            127            166 219 
 ZAR  HZ EP   4   1848 51.39                             123    1.25 0  204 291 
 ZAR  HN ES       1849 15.51                             123   -0.03 9  204 291 
 ZAR  HZ I        1849 20.99        14.3 0.34            122            204 291 
 NOR  HZ EP       1848 53.45                             119   -0.28 8  237 234 
 NOR  BE ES       1849 21.96                             119    0.04 8  237 234 
 NOR  HZ I        1849 31.36         6.3 0.18            117            237 234 
 GUY2CHZ EP   9   1849  2.94                             112    1.35 0  304 234 
 GUY2CHN ES       1849 37.21                                   -0.06 7  304 234 
 GUY2CHZ I        1849 44.13         8.4 0.36                           304 234 
 PRA  HZ EP       1849 11.37                             107   -0.19 6  395 209 
 PRA  HN ES       1849 53.65                             107   -0.02 6  395 209 
 PRA  HZ I        1850  0.04         8.6 0.42            107            395 209 
                                                                                
