 2013  111 1336 35.6 L   6.879 -73.079145.4  RSN  7 0.6 2.2LRSN                1
 GAP=190        1.50       6.8     9.0 11.1  0.2152E+02  0.1038E+02  0.1010E+02E
 Epicentro: LOS SANTOS - SANTANDER                                             3
 ACTION:UPD 13-02-15 09:13 OP:ep   STATUS:               ID:20130111133635 L   I
 2013-01-11-1328-42M.COL___193                                                 6
 STAT SP IPHASW D HRMM SECON CODA AMPLIT PERI AZIMU VELO AIN AR TRES W  DIS CAZ7
 BAR2 SZ EP       1336 56.21                             166    0.7510 33.7 200 
 BAR2 SZ ES       1337 10.94                             166    0.0010 33.7 200 
 BAR2 SZ I        1337 12.39        42.0 0.20            155           33.7 200 
 BRR  HN ES       1337 14.20                             151    0.6810 74.4 290 
 BRR  HN I        1337 15.43        48.4 0.26            144           74.4 290 
 RUS  HZ EP       1337  0.27                             141    0.3010  109 180 
 RUS  HN ES       1337 18.52                             141   -0.4310  109 180 
 RUS  HN I        1337 20.37        17.3 0.22            126            109 180 
 OCA  HN ES       1337 23.92                             131   -0.80 9  153 350 
 PTB  HZ EP       1337  2.88                             130   -0.52 9  157 256 
 PTB  HE ES       1337 24.16                             130   -0.91 9  157 256 
 PTB  HE I        1337 26.65        15.3 0.28            119            157 256 
 ZAR  HN ES       1337 34.86                             122    0.82 8  208 289 
 CHI  HZ EP       1337 14.45                             116    0.01 8  259 196 
 CHI  HN I        1337 49.83         5.3 0.38            106            259 196 
                                                                                
