 2017  211 1307 31.2 L   6.777 -73.145143.3  RSN  6 0.4 1.6LRSN                1
 GAP=138        1.12       5.6     5.0  8.9  0.2824E+01  0.9968E+01  0.2094E+01E
 Epicentro: LOS SANTOS - SANTANDER                                             3
 ACTION:UPD 17-05-24 15:35 OP:jn   STATUS:               ID:20170211130731 L   I
 OLDACT:DUP 17-02-11 22:43 OP:ar   STATUS:               ID:20170211125746d    3
 2017-02-11-1258-00M.COL___346                                                 6
 STAT SP IPHASW D HRMM SECON CODA AMPLIT PERI AZIMU VELO AIN AR TRES W  DIS CAZ7
 BAR2 EZ EP       13 7 50.38                             171   -0.0610 20.8 192 
 BAR2 EZ I        13 8  6.22        18.2 0.07            169           20.8 192 
 BRR  HZ EP       13 7 52.26                             152    0.1410 72.5 300 
 BRR  HN ES       13 8  8.96                             152    0.4910 72.5 300 
 PAM  EZ EP       13 7 53.10                             150   -0.1310 79.3  38 
 PAM  EN ES       13 8 10.03                             150   -0.4210 79.3  38 
 PAM  EZ I        13 8 11.57         5.2 0.46            149           79.3  38 
 RUS  HZ EP       13 7 54.76                             144    0.2810 98.0 176 
 RUS  HE ES       13 8 12.98                             144    0.3010 98.0 176 
 RUS  HZ I        13 8 13.70         4.5 0.24            141           98.0 176 
 PTB  HZ EP       13 7 57.21                             131   -0.68 9  147 260 
 PTB  HN ES       13 8 17.95                             131   -0.80 9  147 260 
 PTB  HZ I        13 8 23.46         6.0 0.42            130            147 260 
 ZAR  HZ EP       13 8  4.14                             122    0.58 9  205 293 
 ZAR  HN ES       13 8 29.19                             122    0.36 9  205 293 
                                                                                
