 2016  511 1329  1.2 L   6.816 -73.132151.8  RSN 15 0.5 2.0LRSN                1
 GAP=120        1.05       2.8     3.7  5.2  0.9558E-01  0.5036E+01  0.1890E+01E
 Epicentro: LOS SANTOS - SANTANDER                                             3
 ACTION:UPD 16-08-18 17:44 OP:cam  STATUS:               ID:20160511132901 L   I
 OLDACT:REG 16-05-11 18:34 OP:ak   STATUS:               ID:20160511132744     3
 2016-05-11-1327-44M.COL___298                                                 6
 STAT SP IPHASW D HRMM SECON CODA AMPLIT PERI AZIMU VELO AIN AR TRES W  DIS CAZ7
 BAR2 EZ EP       1329 21.45                             170   -0.1210 25.3 193 
 BAR2 EZ ES       1329 37.29                             170   -0.1810 25.3 193 
 BAR2 EZ I        1329 37.99        21.5 0.24            168           25.3 193 
 BRR  HZ EP       1329 23.21                             153    0.2010 71.7 297 
 BRR  HN ES       1329 40.98                             153    0.9510 71.7 297 
 BRR  HZ I        1329 46.11        24.5 0.31            153           71.7 297 
 PAM  EZ EP       1329 24.20                             153    0.3010 75.1  39 
 PAM  EN ES       1329 41.27                             153   -0.3610 75.1  39 
 PAM  EZ I        1329 43.48        21.7 0.52            158           75.1  39 
 RUS  HZ EP       1329 25.46                             145   -0.1810  102 177 
 RUS  HE ES       1329 44.62                             145   -0.1010  102 177 
 RUS  HZ I        1329 45.35         8.5 0.32            145            102 177 
 PTB  HZ EP       1329 28.40                             133   -0.40 9  150 258 
 PTB  HE ES       1329 49.78                             133   -0.57 9  150 258 
 PTB  HZ I        1329 52.79         9.3 0.06            133            150 258 
 SPBC HZ EP       1329 30.43                             130    0.07 9  165 219 
 SPBC HN ES       1329 52.67                             130   -0.45 9  165 219 
 SPBC HZ I        1330  0.65                             130            165 219 
 ZAR  HZ EP   2   1329 34.84                             124    0.74 4  205 292 
 ZAR  HE ES       1329 59.82                             124    0.04 9  205 292 
 ZAR  HZ I        1330  5.51        11.4 0.25            125            205 292 
 NOR  HZ EP   2   1329 38.08                             119    0.58 4  237 234 
 NOR  HE ES       1330  6.60                             119    0.77 8  237 234 
 NOR  HZ I        1330 10.12         8.4 0.16            120            237 234 
 SML  HZ EP       1329 37.99                             119   -0.06 8  243 335 
 SML  HE ES       1330  7.43                             119    0.63 8  243 335 
 CHI  HZ EP       1329 39.60                             118    0.16 8  251 195 
 CHI  HN ES       1330  9.77                             118    0.49 8  251 195 
 CHI  HZ I        1330 14.02         3.0 0.40            119            251 195 
 HEL  HZ EP   2   1329 41.60                             116   -0.31 4  274 256 
 HEL  HN ES       1330 12.99                             116   -0.69 8  274 256 
 HEL  HZ I        1330 17.19         5.3 0.26            117            274 256 
 URE  HZ EP       1329 42.31                             115   -0.32 7  285 291 
 URE  HN ES       1330 14.04                             115   -0.92 7  285 291 
 URE  HZ I        1330 14.91        11.1 0.14            116            285 291 
 PTGC HZ EP   1   1329 44.52                             113   -0.91 5  310 159 
 PRA  HZ EP   1   1329 54.83                             107   -0.34 4  394 210 
 PRA  HE ES       1330 37.52                             107    0.23 6  394 210 
 PRA  HZ I        1330 42.63         4.6 0.46            109            394 210 
 ORTC HZ EP       1329 56.21                             107    0.64 6  398 216 
 ORTC HN ES       1330 38.79                             107    0.79 6  398 216 
 ORTC HZ I        1330 45.32         3.9 0.39            108            398 216 
 SJC  HZ EP   4   1329 54.99                             107   -1.88 0  409 327 
 SJC  HN ES   4   1330 37.32                             107   -2.99 0  409 327 
                                                                                
