 2016 1011 1442 11.1 L   6.781 -73.134141.7  RSN  8 0.3 1.5LRSN                1
 GAP=139        0.89       3.7     3.8  5.7 -0.4562E+00  0.5738E+01  0.2560E+00E
 Epicentro: LOS SANTOS - SANTANDER                                             3
 ACTION:UPD 16-11-09 19:18 OP:rebc STATUS:               ID:20161011144211 L   I
 OLDACT:REG 16-10-11 22:11 OP:lv   STATUS:               ID:20161011143746     3
 2016-10-11-1438-00M.COL___372                                                 6
 STAT SP IPHASW D HRMM SECON CODA AMPLIT PERI AZIMU VELO AIN AR TRES W  DIS CAZ7
 BAR2 EZ EP       1442 30.09                             171   -0.1010 21.6 194 
 BAR2 EZ ES       1442 45.24                             171    0.1510 21.6 194 
 BAR2 EZ I        1442 47.95         4.1 0.21            170           21.6 194 
 BRR  HZ EP       1442 32.25                             151    0.3310 73.3 299 
 BRR  HN ES       1442 47.96                             151   -0.2110 73.3 299 
 PAM  EZ EP       1442 33.19                             150    0.2810 78.2  38 
 PAM  EN ES       1442 49.81                             150   -0.1310 78.2  38 
 PAM  EZ I        1442 52.33         5.2 0.24            153           78.2  38 
 RUS  HZ EP       1442 34.17                             144   -0.1110 98.4 177 
 RUS  HE ES       1442 52.30                             144   -0.0710 98.4 177 
 RUS  HZ I        1442 53.60         4.1 0.32            146           98.4 177 
 PTB  HZ EP       1442 37.23                             131   -0.57 9  149 260 
 PTB  HE ES       1442 58.10                             131   -0.54 9  149 260 
 PTB  HZ I        1443  0.10         3.2 0.28            132            149 260 
 SPBC HZ EP       1442 39.38                             128    0.19 9  162 220 
 SPBC HE ES       1443  1.59                             128    0.46 9  162 220 
 SPBC HZ I        1443  6.83         4.5 0.18            130            162 220 
 ZAR  HZ EP       1442 43.15                             121   -0.32 8  206 293 
 ZAR  HE ES       1443  9.45                             121    0.71 8  206 293 
 ZAR  HZ I        1443 14.45         3.4 0.26            123            206 293 
 GUY2CHZ EP   4   1442 56.79                             111    2.30 0  301 235 
 GUY2CHN ES   4   1443 32.16                             111    3.81 0  301 235 
 GUY2CHZ I        1443 35.59         1.8 0.25                           301 235 
                                                                                
