 2012 1111 1708 55.8 L   6.862 -73.282127.0  RSN  7 0.4 1.6LRSN                1
 GAP=138        0.95       4.9     5.6  7.8  0.6291E+01  0.1356E+02  0.2092E+01E
 Epicentro: ZAPATOCA - SANTANDER                                               3
 ACTION:UPD 12-12-05 15:32 OP:}ep  STATUS:               ID:20121111170855 L   I
 2012-11-11-1700-00M.COL___230                                                 6
 STAT SP IPHASW D HRMM SECON CODA AMPLIT PERI AZIMU VELO AIN AR TRES W  DIS CAZ7
 GIR2 SZ EP       17 9 13.42                             168    0.2910 25.8  22 
 GIR2 SZ ES   1   17 9 26.18                             168   -0.44 7 25.8  22 
 BAR2 SZ EP       17 9 13.86                             165    0.4210 31.8 160 
 BAR2 SZ ES   1   17 9 26.92                             165   -0.26 7 31.8 160 
 BRR  HZ EP       17 9 14.20                             155    0.1610 54.7 300 
 BRR  HZ I        17 9 28.65        13.4 0.14                          54.7 300 
 BRR  HN ES   1   17 9 28.72                             155    0.48 7 54.7 300 
 RUS  HZ EP   1   17 9 18.60                             137    0.09 7  109 168 
 RUS  HE ES   1   17 9 36.22                             137    0.03 7  109 168 
 RUS  HZ I        17 9 37.62         3.2 0.16                           109 168 
 PTB  HZ EP       17 9 19.15                             130   -0.9410  135 255 
 PTB  HN ES   1   17 9 39.03                             130    0.01 7  135 255 
 PTB  HZ I        17 9 40.95        10.3 0.30                           135 255 
 OCA  HN ES   1   17 9 41.85                             126   -0.50 7  152 358 
 ZAR  HZ EP   1   17 9 25.78                             120    0.41 7  188 292 
 ZAR  HN ES   1   17 9 48.61                             120    0.21 7  188 292 
 ZAR  HZ I        17 9 53.49         6.2 0.28                           188 292 
                                                                                
