 2014 1211 1148 32.3 L   6.810 -73.148149.6  RSN  7 0.5 1.7LRSN                1
 GAP=136        1.24       4.7     6.1  8.3 -0.3359E+01  0.9525E+01 -0.4601E+00E
 Epicentro: LOS SANTOS - SANTANDER                                             3
 ACTION:UPD 15-02-10 17:02 OP:nd   STATUS:               ID:20141211114832 L   I
 OLDACT:ARG 14-12-11 21:09 OP:stll STATUS:               ID:20141211113748     3
 2014-12-11-1137-48M.COL___298                                                 6
 STAT SP IPHASW D HRMM SECON CODA AMPLIT PERI AZIMU VELO AIN AR TRES W  DIS CAZ7
 BAR2 EZ EP       1148 52.48                             170    0.0610 24.3 189 
 BAR2 EZ ES       1149  7.37                             170   -0.7310 24.3 189 
 BAR2 EZ I        1149 10.14        16.2 0.22            170           24.3 189 
 BRR  HZ EP       1148 54.65                             153    0.8210 70.4 298 
 BRR  HN ES       1149 11.50                             153    0.8810 70.4 298 
 PAM  SZ EP       1148 54.80                             152   -0.0910 76.7  40 
 PAM  SN ES       1149 12.60                             152    0.0910 76.7  40 
 PAM  SZ I        1149 14.27         5.5 0.18            154           76.7  40 
 RUS  HZ EP       1148 56.55                             144    0.0410  102 176 
 RUS  HN ES       1149 15.33                             144   -0.0610  102 176 
 RUS  HZ I        1149 16.64         4.8 0.48            145            102 176 
 PTB  HZ EP       1148 59.13                             133   -0.45 9  148 258 
 PTB  HN ES       1149 20.46                             133   -0.40 9  148 258 
 PTB  HZ I        1149 21.51         4.6 0.28            134            148 258 
 SPBC HZ EP       1149  1.29                             130    0.13 9  164 219 
 SPBC HE ES       1149 23.81                             130    0.14 9  164 219 
 SPBC HZ I        1149 27.36         8.8 0.34            131            164 219 
 SML  HE ES       1149 36.90                             118   -0.78 8  243 335 
                                                                                
