 2010 1111 1742 16.4 L   6.793 -73.103144.4  RSN 11 0.3 2.4LRSN                1
 GAP=163        0.77       2.9     4.6  4.7 -0.5566E+01  0.2131E+01  0.1001E+01E
 Epicentro: LOS SANTOS - SANTANDER                                             3
 ACTION:UP  10-12-17 16:51 OP:REBC STATUS:               ID:20101111174216 L   I
 2010-11-11-1739-47S.COL___129                                                 6
 STAT SP IPHASW D HRMM SECON CODA AMPLIT PERI AZIMU VELO SNR AR TRES W  DIS CAZ7
 BAR2 SZ EP       1742 35.91                             170     0.010   24 202 
 BAR2 SZ ES       1742 50.93                             170    -0.210   24 202 
 BAR2 SZ I        1742 53.53        80.4 0.29                            24 202 
 BRR  HZ EP       1742 37.69                             151     0.010   76 297 
 BRR  HE ES       1742 54.61                             151     0.310   76 297 
 BRR  HZ I        1742 58.50        53.3 0.25                            76 297 
 RUS  HZ EP       1742 39.94                             144     0.010  100 179 
 RUS  HN ES   1   1742 58.05                             144    -0.3 7  100 179 
 RUS  HZ I        1743  0.06        28.8 0.35                           100 179 
 GUE  SZ EP       1742 40.92                             139    -0.110  116  10 
 GRA  SZ EP       1742 41.73                             137     0.210  125  15 
 GRA  SZ ES       1743  1.38                             137     0.310  125  15 
 GRA  SZ I        1743  2.64        33.5 0.13                           125  15 
 OCA  SZ EP   1   1742 44.47                             129    -0.3 7  162 352 
 OCA  SZ ES   1   1743  5.89                             129    -1.0 7  162 352 
 OCA  SZ I        1743 10.06        36.6 0.26                           162 352 
 NOR  SZ EP   1   1742 52.24                             118    -0.2 6  238 235 
 NOR  SE ES       1743 20.70                             118     0.2 8  238 235 
 HEL  HZ EP   1   1742 56.88                             114    -0.2 6  276 256 
 HEL  HN ES   2   1743 28.11                             114    -0.6 4  276 256 
 HEL  HZ I        1743 36.28        14.8 0.33                           276 256 
 VIL  SZ EP   2   1742 59.82                             112     0.2 4  302 191 
 TOL  SZ EP   1   1743  5.77                             109     0.8 5  346 225 
 PRA  HZ EP   1   1743  9.98                             106    -0.1 4  394 210 
 PRA  HN ES   2   1743 51.49                             106    -0.4 3  394 210 
                                                                                
