 2017  711 1255 51.7 L   6.668 -73.164145.1  RSN  4 0.2 1.4LRSN                1
 GAP=245        0.58       6.5     4.2  4.7  0.9857E+01  0.5010E+01 -0.6966E+00E
 Epicentro: VILLANUEVA - SANTANDER                                             3
 ACTION:UPD 17-08-30 15:32 OP:rebc STATUS:               ID:20170711125551 L   I
 OLDACT:REG 17-07-11 20:44 OP:dhb  STATUS:               ID:20170711124740     3
 2017-07-11-1248-00M.COL___380                                                 6
 STAT SP IPHASW D HRMM SECON CODA AMPLIT PERI AZIMU VELO AIN AR TRES W  DIS CAZ7
 BAR2 EZ EP       1256 11.25                             176    0.1510 8.59 193 
 BAR2 EZ ES       1256 26.00                             176   -0.1910 8.59 193 
 BAR2 EZ I        1256 27.11         4.1 0.14            178           8.59 193 
 BRR  HZ EP       1256 13.14                             150   -0.0610 77.6 309 
 BRR  HN ES       1256 30.12                             150    0.1810 77.6 309 
 BRR  HZ I        1256 33.44         6.1 0.16            150           77.6 309 
 PTB  HZ EP       1256 18.02                             133   -0.27 9  144 264 
 PTB  HE ES       1256 39.20                             133    0.21 9  144 264 
 PTB  HZ I        1256 40.16         2.1 0.09            134            144 264 
 ZAR  HZ EP       1256 24.85                             122    0.27 8  208 296 
 ZAR  HE ES       1256 49.85                             122   -0.33 8  208 296 
 ZAR  HZ I        1256 50.96         3.0 0.11            123            208 296 
                                                                                
