 2016  411 1016 46.1 L   6.549 -73.618101.3  RSN  4 0.3 1.1LRSN                1
 GAP=137        0.48       6.4     3.2  7.0  0.1073E+02 -0.2709E+00 -0.1065E+02E
 Epicentro: EL CARMEN - SANTANDER                                              3
 ACTION:UPD 16-05-05 14:20 OP:rebc STATUS:               ID:20160411101646 L   I
 OLDACT:REG 16-04-11 22:38 OP:ar   STATUS:               ID:20160411100747     3
 2016-04-11-1007-47M.COL___282                                                 6
 STAT SP IPHASW D HRMM SECON CODA AMPLIT PERI AZIMU VELO AIN AR TRES W  DIS CAZ7
 BAR2 EZ EP   2   1017  1.16                             153   -0.39 5 48.4  84 
 BAR2 EZ ES   2   1017 13.57                             153    0.01 5 48.4  84 
 BAR2 EZ I        1017 15.47         5.9 0.18            163           48.4  84 
 PTB  HZ EP       1017  4.36                             134   -0.1410 92.7 269 
 PTB  HN ES       1017 18.82                             134    0.0010 92.7 269 
 PTB  HZ I        1017 25.64         2.4 0.32            138           92.7 269 
 RUS  HZ EP   2   1017  5.78                             134    0.55 5 93.6 141 
 RUS  HN ES   2   1017 20.16                             134    0.04 5 93.6 141 
 RUS  HZ I        1017 24.19         1.5 0.32            142           93.6 141 
 ZAR  HZ EP   2   1017 12.41                             115   -0.16 4  172 307 
 ZAR  HE ES   2   1017 33.75                             115    0.58 4  172 307 
 ZAR  HZ I        1017 36.91         2.1 0.30            122            172 307 
                                                                                
