 2013  811 1004  4.1 L   6.779 -73.139140.2  RSN 12 0.5 2.1LRSN                1
 GAP=138        1.23       3.6     4.8  7.8 -0.3800E+01  0.9853E+01  0.1789E+01E
 Epicentro: LOS SANTOS - SANTANDER                                             3
 ACTION:UPD 14-01-14 09:01 OP:ep   STATUS:               ID:20130811100404 L   I
 OLDACT:REG 13-08-11 17:04 OP:jn   STATUS:               ID:20130811100006     3
 2013-08-11-1000-06M.COL___236                                                 6
 STAT SP IPHASW D HRMM SECON CODA AMPLIT PERI AZIMU VELO AIN AR TRES W  DIS CAZ7
 GIR2 SZ EP       10 4 23.37                             166    0.1810 33.7 350 
 GIR2 SZ ES       10 4 38.38                             166    0.3110 33.7 350 
 GIR2 SZ I        10 4 40.22        27.5 0.30            166           33.7 350 
 BRR  HZ EP       10 4 25.24                             151    0.4810 73.0 300 
 BRR  HN ES   1   10 4 41.63                             151    0.76 7 73.0 300 
 BRR  HZ I        10 4 46.52        24.2 0.10            150           73.0 300 
 PAM  SZ EP       10 4 26.32                             149    0.5010 78.7  38 
 PAM  SN ES       10 4 42.91                             149    0.1610 78.7  38 
 PAM  SZ I        10 4 45.44        42.9 0.64            154           78.7  38 
 RUS  HZ EP       10 4 27.49                             143    0.3410 98.2 176 
 RUS  HN ES       10 4 44.70                             143   -0.4110 98.2 176 
 RUS  HZ I        10 4 47.01        12.9 0.24            146           98.2 176 
 PTB  HZ EP       10 4 30.17                             131   -0.49 9  148 260 
 PTB  HN ES       10 4 50.90                             131   -0.46 9  148 260 
 PTB  HZ I        10 4 53.41        18.2 0.22            131            148 260 
 SPBC HN ES       10 4 53.03                             128   -0.83 9  162 220 
 SPBC HZ I        10 4 58.16        13.9 0.18            129            162 220 
 OCA  HZ EP       10 4 31.68                             128   -0.54 9  163 353 
 OCA  HN ES       10 4 53.26                             128   -0.89 9  163 353 
 OCA  HZ I        10 4 56.94        18.4 0.52            130            163 353 
 ZAR  HN ES       10 5  2.09                             121    0.57 8  206 293 
 ZAR  HZ I        10 5  7.60        21.3 0.49            122            206 293 
 NOR  HE ES       10 5  7.58                             117    0.58 8  234 235 
 SML  HE ES   1   10 5  8.43                             116   -0.80 6  246 335 
 CHI  HZ EP   1   10 4 41.60                             116    0.31 6  247 195 
 CHI  HN ES   1   10 5  9.85                             116   -0.43 6  247 195 
 CHI  HZ I        10 5 14.98         2.8 0.34            118            247 195 
 CBOC HZ EP   1   10 4 51.50                             109    0.70 5  334 253 
 CBOC HE ES   1   10 5 27.49                             109    0.27 5  334 253 
 CBOC HZ I        10 5 36.95         2.6 0.44            110            334 253 
                                                                                
