 2014  311 1042 50.3 L   6.850 -73.335119.4  RSN  5 0.3 1.2LRSN                1
 GAP=170        0.63       3.2     4.8  5.9  0.6428E+01  0.1003E+02 -0.5896E+01E
 Epicentro: ZAPATOCA - SANTANDER                                               3
 ACTION:UPD 14-04-09 23:16 OP:nd   STATUS:               ID:20140311104250 L   I
 OLDACT:REG 14-03-11 17:08 OP:nd   STATUS:               ID:20140311104049     3
 2014-03-11-1040-49M.COL___231                                                 6
 STAT SP IPHASW D HRMM SECON CODA AMPLIT PERI AZIMU VELO AIN AR TRES W  DIS CAZ7
 BAR2 SZ EP       1043  7.24                             163    0.1310 33.2 149 
 BAR2 SZ ES       1043 19.94                             163   -0.2410 33.2 149 
 BAR2 SZ I        1043 22.26         5.4 0.36            167           33.2 149 
 RUS  HZ EP       1043 12.24                             135   -0.1210  110 165 
 RUS  HN ES       1043 29.84                             135    0.3010  110 165 
 PTB  HZ EP       1043 13.22                             129   -0.2210  129 255 
 PTB  HN ES   2   1043 31.28                             129   -0.18 5  129 255 
 PTB  HZ I        1043 34.43         2.1 0.22            130            129 255 
 ZAR  HZ EP       1043 19.24                             119    0.35 9  183 293 
 ZAR  HN ES   2   1043 41.20                             119    0.04 4  183 293 
 ZAR  HZ I        1043 45.78         2.6 0.24            120            183 293 
 SML  HZ EP       1043 23.73                             113   -0.41 8  230 339 
 SML  HN ES       1043 50.78                             113    0.27 8  230 339 
                                                                                
