 2011  511 1407 45.9 L   5.864 -73.948104.0  RSN  8 0.2 1.9LRSN                1
 GAP=147        0.42       3.3     2.3  6.6 -0.4599E+01  0.4005E+01 -0.2183E+01E
 Epicentro: LA BELLEZA - SANTANDER                                             3
 ACTION:UP  11-06-29 08:52 OP:tino STATUS:               ID:20110511140745 L   I
 2011-05-11-1402-33S.COL___129                                                 6
 STAT SP IPHASW D HRMM SECON CODA AMPLIT PERI AZIMU VELO SNR AR TRES W  DIS CAZ7
 RUS  HZ EP   1   14 8  5.37                             134     0.0 7   96  88 
 RUS  HZ I        14 8  5.64        11.0 0.08                            96  88 
 RUS  HN ES   2   14 8 20.54                             134    -0.1 5   96  88 
 NOR  SZ EP   2   14 8  5.64                             130    -0.2 5  107 252 
 NOR  SN ES   2   14 8 21.25                             130    -0.2 5  107 252 
 BAR2 SZ EP   1   14 8  7.16                             128     0.1 7  117  46 
 BAR2 SZ ES   2   14 8 23.77                             128     0.3 5  117  46 
 BAR2 SZ I        14 8 25.98        30.9 0.25                           117  46 
 BTL  SZ EP   1   14 8  9.28                             122     0.1 7  139  33 
 BRR  HZ EP   1   14 8  8.90                             122    -0.1 7  140  11 
 BRR  HZ I        14 8 22.20        13.0 0.34                           140  11 
 BRR  HN ES   2   14 8 26.67                             122    -0.3 5  140  11 
 GUY  SZ EP   2   14 8 13.60                             116     0.3 4  175 246 
 GUY  SN ES   2   14 8 34.71                             116     0.0 4  175 246 
 GUY  SZ I        14 8 39.27        13.4 0.31                           175 246 
 HEL  HZ EP   1   14 8 13.39                             115    -0.2 7  179 282 
 HEL  HN ES   2   14 8 35.89                             115     0.6 4  179 282 
 HEL  HZ I        14 8 37.87        13.5 0.46                           179 282 
 RREF HZ EP   1   14 8 15.04                             114     0.0 7  188 236 
 RREF HN ES   2   14 8 37.83                             114     0.1 4  188 236 
 RREF HZ I        14 8 43.57         6.1 0.22                           188 236 
                                                                                
