 2012  811 1525 49.3 L   6.758 -73.136144.7  RSN  4 0.2 1.5LRSN                1
 GAP=235        0.52       4.7     5.3  5.6  0.1400E+02 -0.5224E+01 -0.5457E+01E
 Epicentro: LOS SANTOS - SANTANDER                                             3
 ACTION:UPD 12-09-10 11:55 OP:ep   STATUS:               ID:20120811152549 L   I
 2012-08-11-1520-00M.COL___219                                                 6
 STAT SP IPHASW D HRMM SECON CODA AMPLIT PERI AZIMU VELO AIN AR TRES W  DIS CAZ7
 BAR2 SZ EP       1526  8.42                             172   -0.2810 19.0 196 
 BAR2 SZ ES   1   1526 23.65                             172   -0.20 7 19.0 196 
 BAR2 SZ I        1526 25.13         9.4 0.23                          19.0 196 
 BRR  HZ EP       1526 10.69                             151    0.1910 74.4 301 
 BRR  HN ES   1   1526 27.24                             151    0.19 7 74.4 301 
 BRR  HZ I        1526 30.16        10.1 0.37                          74.4 301 
 RUS  HZ EP       1526 12.58                             145   -0.0110 95.9 176 
 RUS  HN ES       1526 30.97                             145    0.2010 95.9 176 
 RUS  HZ I        1526 32.60         2.9 0.25                          95.9 176 
 PTB  HN ES   1   1526 37.01                             132   -0.15 7  148 261 
                                                                                
