 2010  611 1743 56.7 L   6.784 -73.007136.0  RSN  5 0.3 1.3LRSN                1
 GAP=174        0.45       4.1    23.7  6.6 -0.6350E+02 -0.8715E+02  0.6196E+01E
 Epicentro: CEPITA - SANTANDER                                                 3
 ACTION:UP  10-08-24 10:09 OP:vdl  STATUS:               ID:20100611174356 L   I
 2010-06-11-1741-12S.COL___117                                                 6
 STAT SP IPHASW D HRMM SECON CODA AMPLIT PERI AZIMU VELO SNR AR TRES W  DIS CAZ7
 BAR2 SZ EP       1744 15.12                             168    -0.110   29 223 
 BAR2 SZ ES   1   1744 29.84                             168     0.1 7   29 223 
 GIR2 SZ EP   3   1744 16.42                             163     1.0 2   39 328 
 RUS  HZ EP       1744 19.47                             142     0.110   99 185 
 RUS  HN ES   2   1744 36.82                             142    -0.2 5   99 185 
 RUS  HZ I        1744 38.56         3.8 0.43                            99 185 
 GUE  SZ EP       1744 20.39                             137    -0.110  116   4 
 GRA  SZ ES   2   1744 39.87                             135     0.1 5  124  10 
                                                                                
