 2014  111 1525 49.1 L   6.803 -73.177142.0  RSN  6 0.4 1.6LRSN                1
 GAP=143        0.90       4.3     4.7  6.2 -0.6526E+01  0.9702E+01  0.3988E+01E
 Epicentro: LOS SANTOS - SANTANDER                                             3
 ACTION:UPD 14-03-13 09:54 OP:ep   STATUS:               ID:20140111152549 L   I
 OLDACT:DUP 14-01-11 18:04 OP:stll STATUS:               ID:20140111151811d    3
 2014-01-11-1518-10M.COL___246                                                 6
 STAT SP IPHASW D HRMM SECON CODA AMPLIT PERI AZIMU VELO AIN AR TRES W  DIS CAZ7
 BAR2 SZ EP       1526  8.43                             170    0.1210 23.3 181 
 BAR2 SZ ES       1526 23.66                             170    0.4010 23.3 181 
 BAR2 SZ I        1526 26.41        10.5 0.26            172           23.3 181 
 PAM  SZ EP       1526 11.20                             149    0.1310 79.4  42 
 PAM  SN ES       1526 28.11                             149   -0.0710 79.4  42 
 PAM  SZ I        1526 30.50         7.2 0.20            152           79.4  42 
 RUS  HZ EP       1526 12.12                             143   -0.4410  101 174 
 RUS  HN ES       1526 30.36                             143   -0.4810  101 174 
 PTB  HZ EP       1526 15.28                             132   -0.21 9  144 258 
 PTB  HN ES       1526 36.04                             132   -0.01 9  144 258 
 PTB  HZ I        1526 42.17         5.6 0.24            132            144 258 
 CHI  HZ EP       1526 26.57                             116    0.00 8  248 194 
 CHI  HZ I        1526 27.81         2.6 0.48            119            248 194 
 CHI  HN ES       1526 56.52                             116    0.76 8  248 194 
 GUY2CHZ EP       1526 32.86                             112    0.58 7  299 234 
 GUY2CHN ES       1527  5.46                             112   -0.46 7  299 234 
 GUY2CHZ I        1527 15.02         2.8 0.36                           299 234 
                                                                                
