 2013  311 1652 21.3 L   6.663 -73.231148.3  RSN  4 0.3 1.4LRSN                1
 GAP=193        0.60       6.4     6.3  6.7  0.2094E+02  0.1005E+02  0.5292E+01E
 Epicentro: BARICHARA - SANTANDER                                              3
 ACTION:UPD 13-04-09 14:01 OP:ep   STATUS:               ID:20130311165221 L   I
 2013-03-11-1650-00M.COL___231                                                 6
 STAT SP IPHASW D HRMM SECON CODA AMPLIT PERI AZIMU VELO AIN AR TRES W  DIS CAZ7
 BAR2 SZ ES   1   1652 56.00                             176   -0.42 7 9.55 145 
 BAR2 SZ I        1652 56.58         9.7 0.14            174           9.55 145 
 BRR  HZ EP   1   1652 42.54                             153   -0.23 7 72.3 313 
 BRR  HZ I        1652 45.96         8.6 0.44            150           72.3 313 
 BRR  HN ES   1   1652 59.99                             153    0.46 7 72.3 313 
 RUS  HZ EP   1   1652 44.42                             148    0.07 7 86.8 169 
 RUS  HE ES   1   1653  2.57                             148    0.23 7 86.8 169 
 RUS  HE I        1653  3.98         3.0 0.18            147           86.8 169 
 PTB  HZ EP   1   1652 47.51                             135    0.08 7  136 264 
 PTB  HE ES   1   1653  7.63                             135   -0.21 7  136 264 
 PTB  HZ I        1653 12.79         2.0 0.12            131            136 264 
                                                                                
