 2017  211 1733 29.4 L   6.783 -73.143145.2  RSN  7 0.4 2.1LRSN                1
 GAP= 99        1.01       5.3     4.2  6.4 -0.5940E+01  0.3785E+00  0.7867E+01E
 Epicentro: LOS SANTOS - SANTANDER                                             3
 ACTION:UPD 17-05-24 15:35 OP:jn   STATUS:               ID:20170211173329 L   I
 OLDACT:REG 17-02-11 22:08 OP:edw  STATUS:               ID:20170211172746     3
 2017-02-11-1728-00M.COL___352                                                 6
 STAT SP IPHASW D HRMM SECON CODA AMPLIT PERI AZIMU VELO AIN AR TRES W  DIS CAZ7
 BAR2 EZ EP       1733 48.73                             171   -0.2010 21.6 192 
 BAR2 EZ ES       1734  3.74                             171   -0.4110 21.6 192 
 BAR2 EZ I        1734  4.91        41.4 0.24            171           21.6 192 
 BRR  HE ES       1734  7.85                             152    0.8010 72.4 300 
 PAM  EZ EP       1733 51.63                             150    0.0010 78.6  39 
 PAM  EN ES       1734  8.72                             150   -0.2410 78.6  39 
 PAM  EZ I        1734 10.81        44.1 0.52            152           78.6  39 
 RUS  HZ EP       1733 52.73                             144   -0.2310 98.7 176 
 RUS  HE ES       1734 11.75                             144    0.4110 98.7 176 
 RUS  HZ I        1734 12.43        16.3 0.26            145           98.7 176 
 PTB  HZ EP       1733 56.53                             132    0.21 9  148 260 
 PTB  HN ES       1734 16.61                             132   -0.70 9  148 260 
 PTB  HZ I        1734 19.39        12.5 0.14            132            148 260 
 TAM  HZ EP       1733 57.19                             131    0.23 9  154 104 
 NOR  HZ EP       1734  4.94                             118   -0.07 8  234 235 
 NOR  HN ES       1734 32.99                             118    0.21 8  234 235 
 NOR  HZ I        1734 35.22         8.2 0.28            119            234 235 
                                                                                
