 2016  511 1051 19.6 L   6.810 -73.144148.3  RSN 10 0.4 1.6LRSN                1
 GAP=136        1.01       3.1     4.1  6.0 -0.1058E+01  0.6152E+01 -0.1599E+00E
 Epicentro: LOS SANTOS - SANTANDER                                             3
 ACTION:UPD 16-08-18 17:44 OP:cam  STATUS:               ID:20160511105119 L   I
 OLDACT:REG 16-05-11 18:21 OP:ak   STATUS:               ID:20160511104749     3
 2016-05-11-1047-49M.COL___279                                                 6
 STAT SP IPHASW D HRMM SECON CODA AMPLIT PERI AZIMU VELO AIN AR TRES W  DIS CAZ7
 BAR2 EZ EP       1051 39.72                             170    0.1310 24.4 190 
 BAR2 EZ ES       1051 55.01                             170   -0.1410 24.4 190 
 BAR2 EZ I        1051 56.25         9.7 0.22            170           24.4 190 
 BRR  HZ EP   2   1051 41.36                             153    0.33 5 70.9 298 
 BRR  HE ES       1051 58.26                             153    0.5310 70.9 298 
 BRR  HZ I        1052  0.96         9.0 0.20            151           70.9 298 
 PAM  EZ EP       1051 42.56                             151    0.5010 76.4  40 
 PAM  EN ES       1051 59.90                             151    0.3510 76.4  40 
 PAM  EZ I        1052  1.23         2.8 0.18            154           76.4  40 
 RUS  HZ EP       1051 43.51                             144   -0.2010  102 176 
 RUS  HE ES       1052  1.63                             144   -0.8510  102 176 
 RUS  HZ I        1052  3.87         3.2 0.38            146            102 176 
 PTB  HZ EP       1051 46.76                             133   -0.08 9  148 258 
 PTB  HN ES       1052  7.58                             133   -0.48 9  148 258 
 PTB  HZ I        1052 10.10         3.6 0.12            132            148 258 
 SPBC HE ES       1052 11.22                             129    0.36 9  164 219 
 ZAR  HN ES       1052 17.53                             123   -0.11 9  204 292 
 ZAR  HZ I        1052 22.99         5.4 0.22            123            204 292 
 NOR  HZ EP       1051 55.73                             119    0.14 8  235 234 
 NOR  HE ES       1052 24.08                             119    0.44 8  235 234 
 NOR  HZ I        1052 31.10         2.3 0.18            120            235 234 
 SML  HZ EP       1051 55.73                             118   -0.57 8  243 335 
 SML  HN ES       1052 24.39                             118   -0.52 8  243 335 
 SML  HZ I        1052 26.87         5.0 0.11            119            243 335 
 CHI  HZ EP   2   1051 58.41                             118    0.82 4  250 195 
 CHI  HN ES       1052 27.25                             118    0.06 8  250 195 
                                                                                
