 2011  711 1700 37.4 L   6.600 -73.470172.9  RSN  5 0.6 1.6LRSN                1
 GAP=147        1.16       8.2    21.3 14.3  0.4612E+02  0.2772E+02  0.2784E+02E
 Epicentro: EL CARMEN DE CHUCURI - SANTANDER                                   3
 ACTION:UPD 12-07-25 14:00 OP:epov STATUS:               ID:20110711170037 L   I
 2011-07-11-1659-46S.COL___143                                                 6
 STAT SP IPHASW D HRMM SECON CODA AMPLIT PERI AZIMU VELO AIN AR TRES W  DIS CAZ7
 BAR2 SZ EP   1   17 0 59.68                             169   -0.81 7 31.8  92 
 BTL  SZ EP   1   17 1  0.61                             166   -0.15 7 41.7  32 
 BRR  HZ EP   1   17 1  1.98                             159    0.83 7 62.1 334 
 BRR  HZ I        17 1  9.88        11.3 0.13                          62.1 334 
 BRR  HN ES   1   17 1 19.39                             159   -0.26 7 62.1 334 
 RUS  HZ EP   1   17 1  4.08                             152    0.84 7 89.2 151 
 RUS  HN ES   1   17 1 23.36                             152   -0.01 7 89.2 151 
 RUS  HZ I        17 1 25.73         3.0 0.22                          89.2 151 
 CHI  HZ EP   1   17 1 12.97                             126   -0.89 6  220 188 
 CHI  HN ES   1   17 1 42.52                             126    0.25 6  220 188 
                                                                                
