 2011 1011 1749 52.9 L   6.785 -73.134140.2  RSN  4 0.1 1.6LRSN                1
 GAP=139        0.33       2.3     3.1  4.1 -0.3212E+00 -0.4613E+00  0.1611E-01E
 Epicentro: LOS SANTOS - SANTANDER                                             3
 ACTION:UPD 12-07-13 16:03 OP:ep   STATUS:               ID:20111011174952 L   I
 2011-10-11-1747-01S.COL___168                                                 6
 STAT SP IPHASW D HRMM SECON CODA AMPLIT PERI AZIMU VELO AIN AR TRES W  DIS CAZ7
 BAR2 SZ EP       1750 11.76                             171   -0.0510 22.0 194 
 BAR2 SZ I        1750 12.03         7.9 0.37                          22.0 194 
 BRR  HZ EP       1750 13.55                             151    0.0110 73.1 299 
 BRR  HZ I        1750 14.95         9.1 0.12                          73.1 299 
 BRR  HN ES   1   1750 29.65                             151    0.00 7 73.1 299 
 PAM  SZ EP       1750 14.63                             150    0.1010 77.9  38 
 PAM  SN ES   1   1750 31.32                             150   -0.10 7 77.9  38 
 RUS  HZ EP   2   1750 15.72                             143   -0.23 5 98.8 177 
 RUS  HE ES   1   1750 34.03                             143    0.08 7 98.8 177 
                                                                                
