 2012  511 1505  9.8 L   6.779 -73.166146.5  RSN  6 0.3 1.9LRSN                1
 GAP=135        0.87       5.6     6.2  7.7  0.2310E+01  0.1028E+02  0.2562E+01E
 Epicentro: LOS SANTOS - SANTANDER                                             3
 ACTION:UP  12-07-05 12:04 OP:pat  STATUS:               ID:20120511150509 L   I
 2012-05-11-1500-00M.COL___195                                                 6
 STAT SP IPHASW D HRMM SECON CODA AMPLIT PERI AZIMU VELO SNR AR TRES W  DIS CAZ7
 BAR2 SZ EP       15 5 29.50                             172     0.010   21 185 
 BAR2 SZ ES   1   15 5 44.49                             172    -0.3 7   21 185 
 BAR2 SZ I        15 5 45.69        27.7 0.22                            21 185 
 BRR  HZ EP       15 5 31.35                             153     0.410   70 301 
 BRR  HZ I        15 5 35.75        19.8 0.32                            70 301 
 BRR  HN ES   1   15 5 48.03                             153     0.5 7   70 301 
 PAM  SZ EP       15 5 32.43                             150     0.110   81  40 
 PAM  SN ES   1   15 5 49.35                             150    -0.5 7   81  40 
 RUS  HZ EP       15 5 33.48                             144     0.010   99 175 
 RUS  HN ES   1   15 5 52.10                             144     0.1 7   99 175 
 RUS  HZ I        15 5 53.53         9.4 0.26                            99 175 
 PTB  HZ EP       15 5 36.27                             133    -0.3 9  145 260 
 PTB  HZ I        15 5 59.63         6.1 0.22                           145 260 
 ZAR  HE ES   2   15 6  6.73                             123    -0.7 4  203 293 
 ZAR  HZ I        15 6 13.73        10.0 0.84                           203 293 
                                                                                
