 2010  611 1616 26.3 L   6.794 -73.151141.9  RSN  6 0.3 2.0LRSN                1
 GAP=162        0.70       4.6    21.7  9.8 -0.3626E+02  0.4315E+02 -0.2518E+02E
 Epicentro: LOS SANTOS - SANTANDER                                             3
 ACTION:UP  10-08-24 10:09 OP:vdl  STATUS:               ID:20100611161626 L   I
 2010-06-11-1612-37S.COL___117                                                 6
 STAT SP IPHASW D HRMM SECON CODA AMPLIT PERI AZIMU VELO SNR AR TRES W  DIS CAZ7
 BAR2 SZ EP       1616 45.17                             170    -0.310   23 189 
 BAR2 SZ ES   2   1616 59.85                             170    -0.5 5   23 189 
 GIR2 SZ EP   2   1616 46.43                             167     0.9 5   32 352 
 RUS  HZ EP       1616 49.56                             143    -0.110  100 176 
 RUS  HN ES   1   1617  8.17                             143     0.4 7  100 176 
 RUS  HZ I        1617  9.31        10.1 0.31                           100 176 
 GUE  SZ EP       1616 50.70                             138     0.010  117  12 
 GRA  SZ EP       1616 51.12                             136    -0.110  127  18 
 GRA  SZ ES   2   1617 10.94                             136     0.2 5  127  18 
 OCA  SZ EP       1616 54.50                             129     0.1 9  161 353 
 OCA  SZ I        1617  6.88        19.2 0.67                           161 353 
                                                                                
