 2011 1011 1209  8.5 L   6.846 -73.100144.8  RSN  4 0.3 1.6LRSN                1
 GAP=140        0.60       8.5     6.0  8.8 -0.1410E+02 -0.7988E+01  0.3182E+02E
 Epicentro: LOS SANTOS - SANTANDER                                             3
 ACTION:UPD 12-07-13 16:03 OP:ep   STATUS:               ID:20111011120908 L   I
 2011-10-11-1206-53S.COL___167                                                 6
 STAT SP IPHASW D HRMM SECON CODA AMPLIT PERI AZIMU VELO AIN AR TRES W  DIS CAZ7
 BAR2 SZ EP       12 9 28.56                             167    0.4310 29.5 198 
 BAR2 SZ I        12 9 47.62         9.3 0.68                          29.5 198 
 PAM  SZ EP       12 9 30.20                             153    0.0210 70.2  39 
 PAM  SN ES   1   12 9 46.89                             153   -0.21 7 70.2  39 
 BRR  HZ EP       12 9 29.41                             152   -0.2410 73.5 293 
 BRR  HE ES   1   12 9 46.14                             152   -0.03 7 73.5 293 
 RUS  HZ EP   3   12 9 31.90                             141   -0.59 2  105 179 
 RUS  HE ES   3   12 9 50.62                             141   -0.61 2  105 179 
                                                                                
