 2013  811 1311 17.5 L   6.804 -73.248118.4  RSN  7 0.4 1.3LRSN                1
 GAP=117        0.85       4.0     4.3  6.6  0.2128E+01  0.4072E+01  0.3792E+01E
 Epicentro: ZAPATOCA - SANTANDER                                               3
 ACTION:UPD 14-01-14 09:01 OP:ep   STATUS:               ID:20130811131117 L   I
 OLDACT:REG 13-08-11 17:14 OP:jn   STATUS:               ID:20130811130959     3
 2013-08-11-1309-59M.COL___271                                                 6
 STAT SP IPHASW D HRMM SECON CODA AMPLIT PERI AZIMU VELO AIN AR TRES W  DIS CAZ7
 BAR2 SZ EP       1311 34.23                             168    0.3210 24.5 163 
 BAR2 SZ ES       1311 45.98                             168   -0.7010 24.5 163 
 BAR2 SZ I        1311 48.58         8.7 0.19            168           24.5 163 
 GIR2 SZ EP       1311 33.89                             164   -0.0610 31.0  11 
 GIR2 SZ ES       1311 47.15                             164    0.3810 31.0  11 
 BRR  HN ES   1   1311 49.29                             151    0.36 7 61.3 303 
 PAM  SZ EP   1   1311 37.15                             142   -0.29 7 84.7  46 
 PAM  SN ES   1   1311 52.95                             142   -0.03 7 84.7  46 
 PAM  SZ I        1311 55.88         4.3 0.22            144           84.7  46 
 RUS  HZ EP       1311 39.02                             136    0.1710  102 170 
 RUS  HN ES       1311 55.52                             136    0.0410  102 170 
 RUS  HZ I        1311 58.38         2.3 0.40            138            102 170 
 PTB  HN ES   1   1312  0.05                             127    0.14 7  137 258 
 PTB  HZ I        1312  1.75         3.1 0.28            128            137 258 
 ZAR  HN ES   1   1312  9.75                             117   -0.59 7  194 293 
 ZAR  HZ I        1312 13.13         1.9 0.34            118            194 293 
                                                                                
