 2017  611 1435 44.0 L   6.674 -73.399133.6  RSN  6 0.4 1.7LRSN                1
 GAP=225        1.02       4.4     7.3  9.3  0.3725E+01 -0.1040E+02  0.1379E+02E
 Epicentro: EL CARMEN - SANTANDER                                              3
 ACTION:UPD 17-09-14 16:51 OP:jn   STATUS:               ID:20170611143544 L   I
 OLDACT:UP  17-06-11 23:26 OP:edw  STATUS:               ID:20170611142742d    3
 OLDACT:UP  17-06-11 23:26 OP:edw  STATUS:               ID:20170611142742d    3
 OLDACT:DUP 17-06-11 23:22 OP:edw  STATUS:               ID:20170611142742d    3
 2017-06-11-1428-00M.COL___341                                                 6
 STAT SP IPHASW D HRMM SECON CODA AMPLIT PERI AZIMU VELO AIN AR TRES W  DIS CAZ7
 BRR  HZ IP     C 1436  3.16                             155   -0.0010 59.1 324 
 BRR  HE ES       1436 18.40                             155    0.2910 59.1 324 
 BRR  HZ I        1436 18.99        17.3 0.12            157           59.1 324 
 PTB  HZ IP     C 1436  6.61                             136   -0.7010  118 263 
 PTB  HE ES       1436 24.78                             136   -0.7110  118 263 
 PTB  HZ I        1436 26.82         5.5 0.20            136            118 263 
 SPBC HZ EP   2   1436  9.11                             132    0.16 5  135 213 
 SPBC HN ES   2   1436 28.53                             132    0.12 5  135 213 
 SPBC HZ I        1436 35.10        11.0 0.26            132            135 213 
 ZAR  HZ EP       1436 14.08                             122    0.41 9  185 299 
 ZAR  HE ES       1436 37.07                             122    0.25 9  185 299 
 ZAR  HZ I        1436 42.95         9.4 0.28            124            185 299 
 NOR  HN ES       1436 41.14                             120    0.68 9  204 233 
 NOR  HZ I        1436 41.55         3.6 0.36            120            204 233 
 CHI  HZ EP       1436 18.79                             117   -0.10 8  229 189 
 CHI  HN ES       1436 46.20                             117    0.09 8  229 189 
 CHI  HZ I        1436 52.70         1.7 0.32            117            229 189 
                                                                                
