 2016  811 1025 25.7 L   6.799 -73.141144.8  RSN 10 0.4 2.0LRSN                1
 GAP=120        1.09       4.4     4.1  6.4 -0.1118E+01  0.2962E+01  0.6885E+01E
 Epicentro: LOS SANTOS - SANTANDER                                             3
 ACTION:UPD 16-10-29 15:34 OP:rebc STATUS:               ID:20160811102525 L   I
 OLDACT:DUP 16-08-11 19:42 OP:lv   STATUS:               ID:20160811101760d    3
 2016-08-11-1017-59S.COL___352                                                 6
 STAT SP IPHASW D HRMM SECON CODA AMPLIT PERI AZIMU VELO AIN AR TRES W  DIS CAZ7
 BAR2 EZ EP       1025 45.13                             170   -0.0910 23.3 191 
 BAR2 EZ ES       1025 59.89                             170   -0.5510 23.3 191 
 BAR2 EZ I        1026  1.11        17.8 0.17                          23.3 191 
 BRR  HZ IP     D 1025 46.88                             152    0.1110 71.7 298 
 BRR  HE ES       1026  3.85                             152    0.6410 71.7 298 
 BRR  HZ I        1026  6.74        20.6 0.26                          71.7 298 
 PAM  EZ EP       1025 48.04                             151    0.2410 77.2  39 
 PAM  EN ES       1026  5.01                             151   -0.0310 77.2  39 
 PAM  EZ I        1026  6.99        25.2 0.48                          77.2  39 
 RUS  HZ EP       1025 49.71                             143    0.3610  100 176 
 RUS  HN ES       1026  8.01                             143    0.2210  100 176 
 PTB  HZ EP       1025 51.98                             132   -0.65 9  148 259 
 PTB  HN ES       1026 12.91                             132   -0.73 9  148 259 
 PTB  HZ I        1026 16.22        10.0 0.12                           148 259 
 SPBC HZ EP       1025 54.50                             129    0.35 9  163 219 
 SPBC HE ES       1026 16.56                             129    0.22 9  163 219 
 SPBC HZ I        1026 23.36         8.3 0.10                           163 219 
 ZAR  HZ EP   4   1025 59.54                             122    1.40 0  205 292 
 ZAR  HE ES       1026 23.26                             122   -0.17 9  205 292 
 ZAR  HZ I        1026 32.75         8.2 0.09                           205 292 
 NOR  HZ EP       1026  1.72                             118    0.31 8  235 235 
 NOR  HE ES       1026 29.56                             118    0.30 8  235 235 
 NOR  HZ I        1026 34.99         5.4 0.20                           235 235 
 URE  HZ EP   9   1026  5.03                             113   -1.75 0  284 292 
 URE  HE ES       1026 36.45                                   -0.62 7  284 292 
 URE  HZ I        1026 47.42         5.9 0.28                           284 292 
 PTGC HZ EP       1026  8.58                             111   -0.90 7  308 159 
 PTGC HE ES   4   1026 42.36                             111   -1.27 0  308 159 
 PTGC HZ I        1026 44.80         6.8 0.36                           308 159 
                                                                                
