 2010  211 1553 59.4 L   6.760 -72.789138.6  RSN  4 0.4 1.9LRSN                1
 GAP=211        0.56      10.6    33.3  9.7 -0.3156E+03 -0.1687E+03  0.6453E+02E
 Epicentro: SAN ANDRES - SANTANDER                                             3
 ACTION:UP  10-08-24 09:48 OP:vdl  STATUS:               ID:20100211155359 L   I
 2010-02-11-1539-50S.COL___086                                                 6
 STAT SP IPHASW D HRMM SECON CODA AMPLIT PERI AZIMU VELO SNR AR TRES W  DIS CAZ7
 BAR2 SZ EP   1   1554 19.01                             162     0.1 7   47 247 
 BAR2 SZ ES   2   1554 34.04                             162    -0.1 5   47 247 
 GUE  SZ EP   1   1554 23.81                             138     0.1 7  119 353 
 GUE  SZ ES   2   1554 42.51                             138    -0.1 5  119 353 
 CHI  HZ EP   1   1554 37.80                             115     0.1 6  258 204 
 CHI  HE ES   3   1555  7.61                             115     0.0 2  258 204 
 CHI  HZ I        1555 13.88         3.1 0.58                           258 204 
 PRA  HZ EP   1   1554 53.70                             105    -1.0 4  409 215 
 PRA  HZ I        1555  1.23         4.1 0.41                           409 215 
 PRA  HE ES   2   1555 38.57                             105     0.7 3  409 215 
                                                                                
