 2014  511 1411 54.0 L   6.817 -73.230145.2  RSN  5 0.3 1.5LRSN                1
 GAP=126        0.57       2.5     2.9  6.2 -0.1010E+01  0.5466E+01 -0.4226E+01E
 Epicentro: ZAPATOCA - SANTANDER                                               3
 ACTION:UPD 15-03-16 16:56 OP:nd   STATUS:               ID:20140511141154 L   I
 OLDACT:UP  14-05-11 23:26 OP:com  STATUS:               ID:20140511141001d    3
 OLDACT:UP  14-05-11 23:25 OP:com  STATUS:               ID:20140511141001d    3
 OLDACT:DUP 14-05-11 23:25 OP:com  STATUS:               ID:20140511141001d    3
 2014-05-11-1410-00M.COL___273                                                 6
 STAT SP IPHASW D HRMM SECON CODA AMPLIT PERI AZIMU VELO AIN AR TRES W  DIS CAZ7
 PAM  SZ EP       1412 16.32                             149   -0.1010 82.3  45 
 PAM  SN ES       1412 33.97                             149    0.0410 82.3  45 
 PAM  SZ I        1412 36.35         8.8 0.40            152           82.3  45 
 RUS  HZ EP       1412 17.95                             143    0.0710  104 171 
 RUS  HN ES       1412 36.40                             143   -0.1310  104 171 
 RUS  HZ I        1412 39.72         2.1 0.26            144            104 171 
 PTB  HN ES       1412 40.78                             134    0.29 9  139 257 
 SML  HZ EP   1   1412 30.42                             118    0.46 6  238 337 
 SML  HN ES       1412 57.83                             118   -0.20 8  238 337 
 HEL  HN ES   1   1413  3.26                             115   -0.55 6  264 255 
 HEL  HZ I        1413  7.80         3.0 0.31            117            264 255 
                                                                                
