 2015  211 1201 40.6 L   6.823 -73.141140.9  RSN  8 0.5 2.1LRSN                1
 GAP=202        1.36       5.0     7.4  8.3  0.3514E+01  0.1051E+02 -0.3404E+01E
 Epicentro: LOS SANTOS - SANTANDER                                             3
 ACTION:UPD 15-04-30 21:25 OP:nd   STATUS:               ID:20150211120140 L   I
 OLDACT:ARG 15-02-11 20:09 OP:stll STATUS:               ID:20150211115750     3
 2015-02-11-1157-50M.COL___284                                                 6
 STAT SP IPHASW D HRMM SECON CODA AMPLIT PERI AZIMU VELO AIN AR TRES W  DIS CAZ7
 BAR2 EZ IP     D 12 2  0.05                             169    0.3110 25.9 190 
 BAR2 EZ I        12 2  0.11        20.2 0.20            169           25.9 190 
 BAR2 EZ ES       12 2 14.81                             169    0.1710 25.9 190 
 BRR  HZ IP     C 12 2  2.06                             152    0.8410 70.5 296 
 BRR  HN ES       12 2 17.69                             152    0.4110 70.5 296 
 BRR  HZ I        12 2 22.18        29.0 0.38            145           70.5 296 
 RUS  HZ EP       12 2  3.78                             142   -0.3210  103 176 
 RUS  HZ I        12 2  4.48         7.2 0.18            147            103 176 
 RUS  HE ES       12 2 21.78                             142   -0.6210  103 176 
 PTB  HZ EP       12 2  6.56                             131   -0.75 9  149 258 
 PTB  HN ES       12 2 27.99                             131   -0.12 9  149 258 
 PTB  HZ I        12 2 33.90        18.7 0.40            128            149 258 
 SPBC HZ EP       12 2  9.15                             128    0.16 9  166 219 
 SPBC HZ I        12 2  9.24        22.2 0.22            128            166 219 
 SPBC HN ES       12 2 30.91                             128   -0.20 9  166 219 
 SML  HZ EP       12 2 16.50                             117   -0.27 8  242 335 
 SML  HN ES       12 2 44.51                             117   -0.44 8  242 335 
 SML  HZ I        12 2 51.61        19.4 0.22            115            242 335 
 GUY2CHZ EP       12 2 24.97                             111    0.73 7  303 234 
 GUY2CHN ES       12 2 58.36                             111    0.11 7  303 234 
 GUY2CHZ I        12 3  7.93         5.7 0.42                           303 234 
 MON  HZ EP   9   12 2 29.94                             108    0.62 0  353 308 
 MON  HN ES       12 3  6.10                                   -1.81 6  353 308 
 MON  HZ I        12 3 21.43         5.2 0.46            107            353 308 
                                                                                
