 2010  411 1236 25.7 L   6.800 -73.057141.7  RSN  7 0.4 2.0LRSN                1
 GAP=162        0.62       4.8     5.4  5.4 -0.9818E+01 -0.6022E+01  0.3052E+01E
 Epicentro: LOS SANTOS - SANTANDER                                             3
 ACTION:UPD 10-08-24 09:58 OP:vdl  STATUS:               ID:20100411123625 L   I
 2010-04-11-1233-48S.COL___097                                                 6
 STAT SP IPHASW D HRMM SECON CODA AMPLIT PERI AZIMU VELO AIN AR TRES W  DIS CAZ7
 BAR2 SZ IP       1236 45.08                             169     0.110   27 211 
 BAR2 SZ ES   1   1236 59.53                             169    -0.4 7   27 211 
 BRR  HZ IP     C 1236 47.28                             148     0.310   80 295 
 BRR  HZ I        1236 47.62        14.3 0.13                            80 295 
 BRR  HN ES   1   1237  3.74                             148     0.2 7   80 295 
 OCA  SZ EP   2   1236 53.78                             128    -0.1 5  162 350 
 OCA  SZ ES   2   1237 14.85                             128    -1.0 5  162 350 
 HEL  HZ EP   3   1237  6.65                             113    -0.1 2  282 256 
 HEL  HN ES   2   1237 38.94                             113     0.1 4  282 256 
 HEL  HZ I        1237 43.50         4.8 0.33                           282 256 
 RREF BZ EP   1   1237 12.28                             109    -0.3 5  329 230 
 RREF BN ES   2   1237 48.83                             109    -0.2 3  329 230 
 RREF BZ I        1237 53.79         4.4 0.25                           329 230 
 SDV  BZ IP     C 1237 14.84                             108     0.1 6  353  49 
 PRA  HZ EP   2   1237 19.14                             105    -0.5 3  397 211 
 PRA  HE ES   2   1238  1.58                             105    -0.2 3  397 211 
 PRA  HZ I        1238  8.62         4.2 0.44                           397 211 
                                                                                
