 2014  511 1654 38.7 L   6.801 -73.163149.0  RSN  6 0.5 1.6LRSN                1
 GAP=134        1.24       4.6     7.2 10.8 -0.9402E+01  0.2580E+02 -0.5701E+01E
 Epicentro: LOS SANTOS - SANTANDER                                             3
 ACTION:UPD 15-03-16 16:56 OP:nd   STATUS:               ID:20140511165438 L   I
 OLDACT:UP  14-05-12 00:25 OP:com  STATUS:               ID:20140511165000     3
 OLDACT:REG 14-05-11 21:04 OP:mh   STATUS:               ID:20140511165000     3
 2014-05-11-1650-00M.COL___273                                                 6
 STAT SP IPHASW D HRMM SECON CODA AMPLIT PERI AZIMU VELO AIN AR TRES W  DIS CAZ7
 BRR  HZ EP       1655  1.01                             154    0.8810 69.5 299 
 BRR  HN ES   1   1655 17.41                             154    0.59 7 69.5 299 
 BRR  HZ I        1655 44.10         5.0 0.22            148           69.5 299 
 PAM  SZ EP       1655  2.00                             151    0.6510 78.6  41 
 PAM  SN ES       1655 18.58                             151   -0.4210 78.6  41 
 PAM  SZ I        1655 21.34         6.2 0.55            159           78.6  41 
 RUS  HZ EP       1655  2.73                             144   -0.0810  101 175 
 RUS  HN ES       1655 21.34                             144   -0.2610  101 175 
 RUS  HZ I        1655 22.99         4.8 0.22            155            101 175 
 SPBC HZ EP       1655  7.02                             130   -0.34 9  162 218 
 SPBC HN ES       1655 29.49                             130   -0.21 9  162 218 
 SPBC HZ I        1655 36.58         6.2 0.31            137            162 218 
 NOR  HN ES       1655 42.41                             119    0.04 8  233 234 
 SML  HZ EP   1   1655 15.25                             118   -0.19 6  243 336 
 SML  HN ES       1655 43.12                             118   -0.95 8  243 336 
 SML  HZ I        1655 46.31         5.0 0.18            124            243 336 
                                                                                
