 2017  611 1026 53.5 L   6.809 -73.170158.3  RSN 10 0.5 1.9LRSN                1
 GAP=191        1.00       5.1     7.4  8.5  0.5903E+01 -0.2480E+02  0.9617E+01E
 Epicentro: LOS SANTOS - SANTANDER                                             3
 ACTION:UPD 17-09-14 16:51 OP:jn   STATUS:               ID:20170611102653 L   I
 OLDACT:UP  17-06-11 21:25 OP:edw  STATUS:               ID:20170611101742d    3
 OLDACT:UP  17-06-11 21:25 OP:edw  STATUS:               ID:20170611101742d    3
 OLDACT:UP  17-06-11 21:24 OP:edw  STATUS:               ID:20170611101742d    3
 OLDACT:DUP 17-06-11 21:12 OP:edw  STATUS:               ID:20170611101742d    3
 OLDACT:UP  17-06-11 21:11 OP:edw  STATUS:               ID:20170611101741d    3
 OLDACT:DUP 17-06-11 20:53 OP:edw  STATUS:               ID:20170611101741d    3
 2017-06-11-1018-00M.COL___347                                                 6
 STAT SP IPHASW D HRMM SECON CODA AMPLIT PERI AZIMU VELO AIN AR TRES W  DIS CAZ7
 BRR  HZ EP     D 1027 16.35                             156    0.4410 68.4 299 
 BRR  HE ES       1027 33.43                             156    0.0710 68.4 299 
 BRR  HZ I        1027 37.47        15.1 0.16            153           68.4 299 
 PTB  HZ EP       1027 21.44                             135    0.10 9  145 258 
 PTB  HN ES       1027 42.32                             135   -0.72 9  145 258 
 PTB  HZ I        1027 49.15         5.1 0.46            133            145 258 
 SPBC HZ EP   2   1027 22.24                             132   -0.71 5  162 218 
 SPBC HN ES   4   1027 44.69                             132   -1.20 0  162 218 
 ZAR  HZ EP       1027 26.57                             125    0.03 9  201 292 
 ZAR  HN ES       1027 52.17                             125   -0.12 9  201 292 
 ZAR  HZ I        1027 57.78         8.3 0.38            126            201 292 
 NOR  HZ EP       1027 29.78                             121   -0.08 8  233 234 
 NOR  HN ES       1027 58.89                             121    0.70 8  233 234 
 NOR  HZ I        1028  1.44         5.8 0.20            121            233 234 
 CHI  HZ EP       1027 32.71                             119    0.72 8  249 195 
 CHI  HN ES   1   1028  1.37                             119   -0.62 6  249 195 
 CHI  HZ I        1028  5.87         4.2 0.50            120            249 195 
 ROSC BZ EP   4   1027 34.86                             119    2.54 0  252 210 
 ROSC BN ES   4   1028  5.52                             119    2.95 0  252 210 
 ROSC BZ I        1028  9.34        11.7 0.45            119            252 210 
 HEL  HZ EP   4   1027 36.63                             117    2.47 0  270 255 
 HEL  HN ES   4   1028  3.43                             117   -2.42 0  270 255 
 HEL  HZ I        1028 13.03         3.6 0.42            118            270 255 
 PTGC HZ IP     D 1027 37.72                             114   -0.47 7  311 158 
 PTGC HE ES   4   1028 10.41                             114   -2.62 0  311 158 
 SJC  HZ EP       1027 48.74                             108   -0.52 6  407 327 
 SJC  HN ES   4   1028 30.05                             108   -2.68 0  407 327 
                                                                                
