 2013  511 1057 45.8 L   6.793 -73.169147.0  RSN  4 0.2 1.4LRSN                1
 GAP=142        0.41       3.0     2.6  4.3 -0.3162E+01  0.2983E+01 -0.1955E+00E
 Epicentro: LOS SANTOS - SANTANDER                                             3
 ACTION:UPD 13-06-20 09:49 OP:ep   STATUS:               ID:20130511105745 L   I
 2013-05-11-1050-00M.COL___256                                                 6
 STAT SP IPHASW D HRMM SECON CODA AMPLIT PERI AZIMU VELO AIN AR TRES W  DIS CAZ7
 BAR2 SZ EP   1   1058  5.18                             171   -0.33 7 22.3 184 
 BAR2 SZ ES   2   1058 21.02                             171    0.11 5 22.3 184 
 PAM  SZ EP       1058  8.14                             150   -0.0910 79.6  41 
 PAM  SZ I        1058  8.17         5.6 0.18            153           79.6  41 
 PAM  SN ES       1058 25.84                             150    0.0810 79.6  41 
 RUS  HZ EP   1   1058  9.77                             144    0.19 7  100 175 
 RUS  HE ES   1   1058 28.13                             144   -0.04 7  100 175 
 RUS  HZ I        1058 30.49         2.7 0.46            144            100 175 
 PTB  HZ EP       1058 12.73                             133    0.15 9  145 259 
 PTB  HN ES       1058 33.44                             133   -0.06 9  145 259 
 PTB  HZ I        1058 35.34         4.5 0.36            134            145 259 
                                                                                
