 2012 1011 1522 55.4 L   6.755 -73.048140.0  RSN  5 0.3 2.1LRSN                1
 GAP=207        0.63       5.6    11.2  6.9  0.3744E+02 -0.1769E+02 -0.2030E+01E
 Epicentro: CEPITA - SANTANDER                                                 3
 ACTION:UPD 12-11-22 17:03 OP:ep   STATUS:               ID:20121011152255 L   I
 2012-10-11-1520-00M.COL___229                                                 6
 STAT SP IPHASW D HRMM SECON CODA AMPLIT PERI AZIMU VELO AIN AR TRES W  DIS CAZ7
 BAR2 SZ EP       1523 14.47                             170    0.0910 23.4 220 
 BAR2 SZ ES   2   1523 28.31                             170   -0.84 5 23.4 220 
 BAR2 SZ I        1523 31.91        29.7 0.32                          23.4 220 
 GIR2 SZ EP       1523 14.77                             164    0.0910 39.3 336 
 GIR2 SZ ES   3   1523 29.06                             164   -0.62 2 39.3 336 
 BRR  HZ EP       1523 16.52                             148   -0.1910 83.1 298 
 BRR  HN ES   1   1523 33.62                             148    0.32 7 83.1 298 
 BRR  HN I        1523 34.34        73.9 0.16                          83.1 298 
 RUS  HZ EP       1523 18.32                             144    0.0710 95.4 182 
 RUS  HE ES   1   1523 36.35                             144    0.30 7 95.4 182 
 RUS  HZ I        1523 37.82        14.6 0.32                          95.4 182 
 CHI  HZ EP   1   1523 32.18                             116   -0.46 6  247 198 
 CHI  HZ I        1523 33.10         2.9 0.24                           247 198 
                                                                                
