 2013  411 1309 53.7 L   6.816 -73.173144.1  RSN  9 0.4 2.0LRSN                1
 GAP=179        0.96       4.1     5.5  6.1  0.1167E+01  0.9193E+01  0.5429E+01E
 Epicentro: LOS SANTOS - SANTANDER                                             3
 ACTION:UPD 13-05-22 14:37 OP:EP   STATUS:               ID:20130411130953 L   I
 2013-04-11-1310-00M.COL___245                                                 6
 STAT SP IPHASW D HRMM SECON CODA AMPLIT PERI AZIMU VELO AIN AR TRES W  DIS CAZ7
 BAR2 SZ EP       1310 13.08                             170   -0.0410 24.8 182 
 BAR2 SZ ES       1310 28.72                             170    0.4310 24.8 182 
 BAR2 SZ I        1310 28.98        39.2 0.22            166           24.8 182 
 GIR2 SZ EP       1310 12.98                             168   -0.1010 29.1 356 
 GIR2 SZ ES   1   1310 27.90                             168   -0.32 7 29.1 356 
 GIR2 SZ I        1310 30.04         9.2 0.13            162           29.1 356 
 BRR  HZ EP       1310 14.72                             154    0.2910 67.6 298 
 BRR  HN ES   1   1310 31.50                             154    0.87 7 67.6 298 
 BRR  HZ I        1310 35.68        25.7 0.30            143           67.6 298 
 RUS  HZ EP       1310 17.22                             143   -0.1810  103 174 
 RUS  HN ES       1310 35.62                             143   -0.2910  103 174 
 RUS  HZ I        1310 37.58        12.4 0.34            137            103 174 
 PTB  HZ EP       1310 19.68                             132   -0.57 9  145 258 
 PTB  HN ES       1310 40.28                             132   -0.71 9  145 258 
 PTB  HZ I        1310 42.42        15.2 0.14            123            145 258 
 OCA  HN ES   1   1310 43.29                             130   -0.17 7  158 354 
 NOR  HZ EP       1310 29.41                             118    0.27 8  233 234 
 NOR  HE ES   1   1310 56.94                             118    0.13 6  233 234 
 NOR  HZ I        1311  0.16         6.6 0.23            111            233 234 
 CHI  HZ EP       1310 31.67                             117    0.30 8  250 194 
 CHI  HN ES   1   1311  1.09                             117    0.31 6  250 194 
 CHI  HZ I        1311  8.51         5.4 0.32            110            250 194 
 HEL  HZ EP   1   1310 34.30                             115    0.79 6  270 255 
 HEL  HZ I        1311 11.46         7.3 0.28            108            270 255 
                                                                                
