 2016  911 1129 39.6 L   6.216 -73.654100.3  RSN  4 0.3 1.4LRSN                1
 GAP=190        0.75       3.7     4.2  8.6 -0.4448E+01  0.2045E+02  0.2143E+01E
 Epicentro: LA PAZ - SANTANDER                                                 3
 ACTION:UPD 17-08-17 21:08 OP:lp   STATUS:               ID:20160911112939 L   I
 OLDACT:REG 16-09-11 20:13 OP:lv   STATUS:               ID:20160911112741     3
 2016-09-11-1128-00M.COL___306                                                 6
 STAT SP IPHASW D HRMM SECON CODA AMPLIT PERI AZIMU VELO AIN AR TRES W  DIS CAZ7
 BAR2 EZ EP       1129 56.10                             144   -0.0110 66.7  51 
 BAR2 EZ ES       1130  9.17                             144    0.2010 66.7  51 
 BAR2 EZ I        1130 10.58        15.7 0.13            151           66.7  51 
 BRR  HZ EP       1129 57.90                             131   -0.5210 98.7 356 
 BRR  HE ES       1130 13.04                             131   -0.0410 98.7 356 
 BRR  HZ I        1130 13.81         4.8 0.38            136           98.7 356 
 NOR  HZ EP       1130  4.35                             118    0.43 9  153 242 
 NOR  HE ES       1130 22.57                             118   -0.30 9  153 242 
 NOR  HZ I        1130 26.89         2.4 0.20            121            153 242 
 ZAR  HZ EP       1130  8.52                             111    0.08 9  194 317 
 ZAR  HN ES       1130 31.17                             111    0.26 9  194 317 
 ZAR  HZ I        1130 35.27         1.9 0.09            115            194 317 
                                                                                
