 2016  211 1246 13.9 L   6.797 -72.831  4.0  RSN 14 0.8 2.5LRSN                1
 GAP= 95        1.66       3.7     6.0  8.9 -0.1071E+02  0.2026E+02 -0.3603E+01E
 Epicentro: SAN ANDRES - SANTANDER                                             3
 ACTION:UPD 16-03-04 21:25 OP:rebc STATUS:               ID:20160211124613 L   I
 OLDACT:UP  16-02-11 21:35 OP:dnl  STATUS:               ID:20160211123748     3
 OLDACT:REG 16-02-11 20:31 OP:dnl  STATUS:               ID:20160211123748     3
 2016-02-11-1237-48M.COL___315                                                 6
 STAT SP IPHASW D HRMM SECON CODA AMPLIT PERI AZIMU VELO AIN AR TRES W  DIS CAZ7
 BAR2 EZ IP     D 1246 21.07                              47   -0.4410 44.9 240 
 BAR2 EZ ES       1246 25.96                              47   -1.5110 44.9 240 
 BAR2 EZ I        1246 27.38       326.5 0.40             47           44.9 240 
 PAM  EZ EP       1246 24.03                              47   -0.2810 61.7  14 
 PAM  EN ES       1246 31.55                              47   -0.9110 61.7  14 
 PAM  EZ I        1246 33.23       159.7 0.12             47           61.7  14 
 RUS  HZ EP     C 1246 31.03                              47    0.3410  104 196 
 RUS  HN ES   1   1246 43.09                              47   -0.73 7  104 196 
 RUS  HZ I        1246 44.64        40.6 0.22             47            104 196 
 TAM  HZ EP   4   1246 37.13                              47    4.18 0  122 109 
 TAM  HE ES   2   1246 48.67                              47    0.84 5  122 109 
 TAM  HZ I        1246 56.05        55.8 0.36             47            122 109 
 OCA  HZ EP       1246 41.12                              47    1.01 9  168 341 
 OCA  HN IS       1247  0.73                              47    0.14 9  168 341 
 OCA  HZ I        1247  5.31        92.4 0.20             47            168 341 
 PTB  HZ EP   4 D 1246 43.13                              37    1.25 0  182 261 
 PTB  HN ES       1247  4.22                              37    0.49 9  182 261 
 PTB  HZ I        1247  6.72        49.7 0.24             37            182 261 
 PTB  HN I        1247  7.91        46.6 0.30                           182 261 
 SPBC HZ EP   2   1246 43.87                              37    1.30 4  187 227 
 SPBC HN ES   2   1247  5.26                              37    0.29 4  187 227 
 SPBC HZ I        1247 12.40        86.8 0.34             37            187 227 
 ZAR  HZ EP   2   1246 49.81                              37    1.10 4  237 289 
 ZAR  HE ES   4   1247 17.07                              37    1.17 0  237 289 
 ZAR  HZ I        1247 19.90        72.7 0.36             37            237 289 
 CHI  HZ EP   4   1246 56.41                              37    4.34 0  260 203 
 CHI  HN ES   4   1247 26.73                              37    4.86 0  260 203 
 CHI  HZ I        1247 35.92        10.6 0.66             37            260 203 
 NOR  HZ EP   4   1246 55.45                              37    3.32 0  264 239 
 NOR  HE ES       1247 22.86                              37    0.88 8  264 239 
 NOR  HZ I        1247 27.69        29.3 0.36             37            264 239 
 SOCV BZ EP   4   1246 56.17                              37    2.89 0  273  53 
 SOCV BN ES   4   1247 27.77                              37    3.75 0  273  53 
 HEL  HZ EP   2   1246 58.96                              36    1.19 4  306 257 
 HEL  HN ES   4   1247 30.66                              36   -1.36 0  306 257 
 HEL  HZ I        1247 35.28         8.6 0.46             36            306 257 
 URE  HZ EP   2   1247  0.16                              36    1.51 3  316 290 
 URE  HN ES   2   1247 33.65                              36    0.07 3  316 290 
 URE  HZ I        1247 43.77         9.7 0.16             36            316 290 
 GUY2CHZ EP   4   1247  2.68                              36    1.79 0  330 238 
 GUY2CHN ES       1247 38.39                              36    0.82 7  330 238 
 GUY2CHZ I        1247 50.75        11.6 0.32                           330 238 
 SDV  BZ EP   4   1247  7.62                              36    6.49 0  335  46 
 SDV  BE ES   4   1247 41.75                              36    3.75 0  335  46 
 ANIL HN ES   4   1247 52.84                              36    4.17 0  382 228 
 ANIL HZ I        1248  4.59        25.9 0.26             36            382 228 
                                                                                
