 2011 1011 1133  2.9 L   6.777 -73.154138.1  RSN  7 0.1 1.7LRSN                1
 GAP=137        0.38       2.7     4.3  3.8 -0.1962E+01  0.3728E+01  0.1995E+00E
 Epicentro: LOS SANTOS - SANTANDER                                             3
 ACTION:UPD 12-07-13 16:03 OP:ep   STATUS:               ID:20111011113302 L   I
 2011-10-11-1120-00M.COL___171                                                 6
 STAT SP IPHASW D HRMM SECON CODA AMPLIT PERI AZIMU VELO AIN AR TRES W  DIS CAZ7
 BTL  SZ EP       1133 21.43                             171   -0.0610 20.0 321 
 BAR2 SZ EP       1133 21.35                             171   -0.1510 20.7 189 
 BAR2 SZ ES   1   1133 35.85                             171   -0.20 7 20.7 189 
 BAR2 SZ I        1133 39.45        13.3 0.74                          20.7 189 
 GIR2 SZ EP       1133 21.52                             166   -0.1610 33.6 353 
 GIR2 SZ ES   2   1133 36.58                             166    0.22 5 33.6 353 
 BRR  HZ EP       1133 23.35                             151    0.1510 71.6 301 
 BRR  HZ I        1133 43.63        11.6 0.30                          71.6 301 
 PAM  SZ EP       1133 24.42                             148    0.0110 79.9  39 
 PAM  SN ES   1   1133 41.36                             148    0.13 7 79.9  39 
 RUS  HZ EP       1133 25.81                             143    0.1410 98.1 175 
 RUS  HN ES   2   1133 43.65                             143    0.18 5 98.1 175 
 ZAR  HN ES   3   1133 59.89                             120    0.14 2  204 293 
 ZAR  HZ I        1134  8.11         2.8 0.42                           204 293 
                                                                                
