 2017  311 1151 47.7 L   6.785 -73.103148.0  RSN  5 0.3 1.4LRSN                1
 GAP=143        0.68       6.1     4.3  5.7 -0.6268E+00 -0.1617E+01 -0.4463E+01E
 Epicentro: LOS SANTOS - SANTANDER                                             3
 ACTION:UPD 17-05-25 18:39 OP:jn   STATUS:               ID:20170311115147 L   I
 OLDACT:REG 17-03-11 21:15 OP:ar   STATUS:               ID:20170311114743     3
 2017-03-11-1148-00M.COL___403                                                 6
 STAT SP IPHASW D HRMM SECON CODA AMPLIT PERI AZIMU VELO AIN AR TRES W  DIS CAZ7
 BAR2 EZ EP       1152  7.46                             171   -0.1110 23.0 202 
 BAR2 EZ ES       1152 22.91                             171   -0.1810 23.0 202 
 BAR2 EZ I        1152 23.34        10.6 0.38            166           23.0 202 
 PAM  EZ EP       1152 10.33                             152    0.2910 75.8  36 
 BRR  HZ EP       1152  9.30                             151   -0.0410 76.1 298 
 BRR  HN ES       1152 26.24                             151   -0.0110 76.1 298 
 RUS  HZ EP   2   1152 12.09                             145    0.58 5 98.7 179 
 RUS  HN ES   2   1152 30.15                             145    0.04 5 98.7 179 
 RUS  HZ I        1152 31.40         3.7 0.42            142           98.7 179 
 PTB  HZ EP       1152 14.72                             132   -0.49 9  152 260 
 PTB  HE ES       1152 37.06                             132    0.37 9  152 260 
 PTB  HZ I        1152 41.15         2.1 0.22            129            152 260 
                                                                                
