 2016  911 1737  8.0 L   6.767 -73.234141.0  RSN  5 0.2 1.2LRSN                1
 GAP=218        0.54       4.1     3.9  4.3  0.7882E+01  0.2184E+01  0.1230E+01E
 Epicentro: ZAPATOCA - SANTANDER                                               3
 ACTION:UPD 17-08-17 21:08 OP:lp   STATUS:               ID:20160911173708 L   I
 OLDACT:DUP 16-09-11 23:26 OP:cara STATUS:               ID:20160911172738d    3
 2016-09-11-1728-00M.COL___309                                                 6
 STAT SP IPHASW D HRMM SECON CODA AMPLIT PERI AZIMU VELO AIN AR TRES W  DIS CAZ7
 BAR2 EZ EP       1737 27.10                             171    0.1010 20.1 163 
 BAR2 EZ ES       1737 41.60                             171   -0.2210 20.1 163 
 BAR2 EZ I        1737 42.37         3.9 0.22            172           20.1 163 
 BRR  HZ EP       1737 28.51                             154    0.2210 64.9 306 
 BRR  HN ES       1737 44.11                             154    0.0010 64.9 306 
 BRR  HZ I        1737 49.31         7.3 0.48            152           64.9 306 
 PAM  EZ I        1737 47.93         2.0 0.16            152           86.6  43 
 RUS  HZ EP       1737 31.12                             143    0.0110 98.1 170 
 RUS  HN ES       1737 49.23                             143    0.1010 98.1 170 
 RUS  HZ I        1737 50.68         2.0 0.34            147           98.1 170 
 PTB  HZ EP       1737 33.27                             133   -0.39 9  137 260 
 PTB  HE ES       1737 53.82                             133    0.16 9  137 260 
 PTB  HZ I        1737 59.28         3.0 0.50            133            137 260 
                                                                                
