 2015 1011 1102 45.9 L   6.323 -73.585111.7  RSN 12 0.2 1.7LRSN                1
 GAP= 74        0.56       1.6     2.1  4.1 -0.3771E+00  0.3526E+01 -0.4770E+00E
 Epicentro: SANTA HELENA DEL OPON - SANTANDER                                  3
 ACTION:UPD 15-12-22 20:39 OP:cam  STATUS:               ID:20151011110245 L   I
 OLDACT:REG 15-10-11 20:37 OP:spq  STATUS:               ID:20151011105748     3
 2015-10-11-1057-48M.COL___340                                                 6
 STAT SP IPHASW D HRMM SECON CODA AMPLIT PERI AZIMU VELO AIN AR TRES W  DIS CAZ7
 BAR2 EZ EP     D 11 3  2.91                             153    0.1710 53.5  56 
 BAR2 EZ ES   1   11 3 15.96                             153    0.10 7 53.5  56 
 BAR2 EZ I        11 3 17.48        15.4 0.36            153           53.5  56 
 RUS  HZ EP       11 3  4.17                             145   -0.1810 73.1 131 
 RUS  HE ES   1   11 3 18.63                             145   -0.09 7 73.1 131 
 BRR  HZ EP       11 3  4.65                             139   -0.1210 87.8 351 
 BRR  HN ES       11 3 19.43                             139   -0.0410 87.8 351 
 BRR  HZ I        11 3 22.29         8.3 0.27            137           87.8 351 
 SPBC HZ EP       11 3  5.16                             138   -0.0510 91.7 216 
 SPBC HN ES       11 3 20.43                             138    0.1710 91.7 216 
 SPBC HZ I        11 3 22.37        17.8 0.22            137           91.7 216 
 NOR  HZ EP       11 3 12.42                             120    0.19 9  165 240 
 NOR  HE ES       11 3 32.52                             120   -0.22 9  165 240 
 NOR  HZ I        11 3 34.58        12.1 0.20            119            165 240 
 CHI  HZ EP   1   11 3 15.20                             116    0.05 7  188 185 
 CHI  HE ES   1   11 3 37.68                             116   -0.26 7  188 185 
 CHI  HZ I        11 3 44.70         1.4 0.28            116            188 185 
 ZAR  HZ EP       11 3 14.57                             115   -0.40 9  191 313 
 ZAR  HE ES       11 3 37.29                             115   -0.34 9  191 313 
 ZAR  HZ I        11 3 44.63         9.7 0.26            114            191 313 
 OCA  HN ES   1   11 3 42.93                             113    0.45 6  214   8 
 OCA  HZ I        11 3 48.43        10.2 0.27            112            214   8 
 HEL  HZ EP       11 3 18.56                             112    0.39 8  216 266 
 HEL  HN ES       11 3 43.65                             112    0.33 8  216 266 
 HEL  HZ I        11 3 51.41         3.2 0.24            112            216 266 
 GUY2CHZ EP   4   11 3 21.36                             111    1.25 0  232 238 
 GUY2CHE ES   4   11 3 49.38                             111    2.60 0  232 238 
 GUY2CHZ I        11 3 54.30         4.2 0.22                           232 238 
 URE  HN ES   4   11 3 50.46                             107   -2.55 0  267 306 
 URE  HZ I        11 3 52.05         5.2 0.16            106            267 306 
 SML  HN ES   1   11 3 55.63                             106    0.11 6  279 349 
 SML  HZ I        11 4  3.43         4.8 0.10            106            279 349 
                                                                                
