 2013 1211 1711 28.3 L   6.836 -73.173142.4  RSN 13 0.4 2.5LRSN                1
 GAP= 68        1.02       3.0     4.6  6.3 -0.4373E+01  0.1103E+02 -0.2594E+01E
 Epicentro: LOS SANTOS - SANTANDER                                             3
 ACTION:UPD 14-01-13 10:17 OP:ep   STATUS:               ID:20131211171128 L   I
 OLDACT:UP  13-12-11 15:36 OP:cam  STATUS:               ID:20131211171000     3
 OLDACT:REG 13-12-11 14:51 OP:cam  STATUS:               ID:20131211171000     3
 2013-12-11-1710-00M.COL___285                                                 6
 STAT SP IPHASW D HRMM SECON CODA AMPLIT PERI AZIMU VELO AIN AR TRES W  DIS CAZ7
 BAR2 SZ EP     C 1711 47.60                             169   -0.0210 27.0 182 
 BAR2 SZ ES       1712  3.09                             169    0.4110 27.0 182 
 BAR2 SZ I        1712  4.57       130.5 0.30            170           27.0 182 
 BRR  HZ EP       1711 49.57                             154    0.7310 66.7 297 
 BRR  HE ES   4   1712  6.48                             154    1.62 0 66.7 297 
 BRR  HZ I        1712  9.46        29.7 0.28            151           66.7 297 
 PAM  SZ EP       1711 50.47                             151    0.3610 76.3  43 
 PAM  SN ES       1712  7.18                             151    0.0710 76.3  43 
 PAM  SZ I        1712  9.44       120.4 0.50            155           76.3  43 
 RUS  HZ EP   1   1711 52.13                             142    0.08 7  105 175 
 RUS  HN ES       1712 10.00                             142   -0.5610  105 175 
 RUS  HZ I        1712 10.95        58.5 0.36            146            105 175 
 PTB  HZ EP       1711 54.42                             132   -0.39 9  146 257 
 PTB  HN ES   4   1712 14.98                             132   -0.50 0  146 257 
 PTB  HZ I        1712 18.37        33.3 0.50            132            146 257 
 OCA  HZ EP       1711 55.85                             130   -0.10 9  156 354 
 OCA  HN ES       1712 17.44                             130   -0.07 9  156 354 
 OCA  HZ I        1712 22.76        44.9 0.28            132            156 354 
 TAM  HZ IP     D 1711 55.96                             129   -0.14 9  159 106 
 SPBC HZ EP       1711 56.75                             128    0.07 9  164 217 
 SPBC HN ES       1712 18.36                             128   -0.45 9  164 217 
 SPBC HZ I        1712 24.07        38.7 0.30            130            164 217 
 ZAR  HZ EP   4   1712  2.05                             122    1.96 0  200 291 
 ZAR  HE ES   4   1712 27.25                             122    2.37 0  200 291 
 ZAR  HZ I        1712 31.74        30.8 0.26            123            200 291 
 NOR  HZ EP       1712  4.19                             118    0.35 8  235 233 
 NOR  HN ES       1712 31.12                             118   -0.43 8  235 233 
 NOR  HZ I        1712 38.68        18.0 0.18            120            235 233 
 SML  HZ EP       1712  4.05                             117   -0.17 8  239 336 
 SML  HN ES       1712 31.56                             117   -0.66 8  239 336 
 SML  HZ I        1712 35.10        41.8 0.80            119            239 336 
 CHI  HZ EP   1   1712  5.89                             116   -0.28 6  252 194 
 ROSC BZ EP   4   1712  7.62                             116    1.16 0  255 210 
 GUY2CHZ EP   4   1712 12.99                             112    1.23 0  301 234 
 GUY2CHN ES       1712 46.72                             112    1.08 7  301 234 
 GUY2CHZ I        1712 54.11        14.8 0.32                           301 234 
 RREF HZ EP   4   1712 14.91                             110    0.56 0  322 228 
 PRA  HZ EP   4   1712 21.66                             106   -0.30 0  394 209 
 ORTC HZ EP   4   1712 22.65                             106    0.36 0  397 215 
 SJC  HZ EP   4   1712 22.42                             105   -0.75 0  404 327 
                                                                                
