 2013  811 1009 25.7 L   6.809 -73.115144.3  RSN  8 0.4 1.9LRSN                1
 GAP=140        0.99       4.2     5.8  7.3 -0.2044E+01  0.4158E+01  0.1967E-01E
 Epicentro: LOS SANTOS - SANTANDER                                             3
 ACTION:UPD 14-01-14 09:01 OP:ep   STATUS:               ID:20130811100925 L   I
 OLDACT:REG 13-08-11 20:36 OP:jn   STATUS:               ID:20130811100746     3
 2013-08-11-1007-46M.COL___236                                                 6
 STAT SP IPHASW D HRMM SECON CODA AMPLIT PERI AZIMU VELO AIN AR TRES W  DIS CAZ7
 BAR2 SZ EP   1   10 9 45.24                             170    0.03 7 25.0 197 
 BAR2 SZ ES       10 9 59.98                             170   -0.4310 25.0 197 
 BAR2 SZ I        1010  1.58        14.2 0.14            169           25.0 197 
 GIR2 SZ EP       10 9 45.27                             167    0.0510 31.1 344 
 GIR2 SZ ES       1010  0.72                             167    0.3010 31.1 344 
 GIR2 SZ I        1010  2.21        10.7 0.50            166           31.1 344 
 BRR  HZ EP       10 9 47.00                             151    0.1410 73.8 297 
 BRR  HN ES       1010  3.96                             151    0.6110 73.8 297 
 BRR  HZ I        1010  4.63        12.8 0.44            149           73.8 297 
 PAM  SZ EP       10 9 48.07                             151    0.4610 74.5  38 
 PAM  SN ES       1010  4.75                             151    0.0610 74.5  38 
 PAM  SZ I        1010  7.22        15.1 0.50            153           74.5  38 
 RUS  HZ EP   1   10 9 49.35                             143   -0.04 7  101 178 
 RUS  HN ES   1   1010  7.32                             143   -0.52 7  101 178 
 RUS  HZ I        1010  9.22        13.2 0.28            145            101 178 
 OCA  HN ES       1010 14.95                             129   -0.88 9  160 352 
 OCA  HZ I        1010 18.32         7.9 0.24            129            160 352 
 SPBC HN ES   1   1010 16.71                             128   -0.03 7  166 220 
 SPBC HZ I        1010 18.82        11.9 0.24            128            166 220 
 ZAR  HN ES   1   1010 23.46                             122   -0.36 6  207 292 
 ZAR  HZ I        1010 29.14        10.7 0.40            121            207 292 
                                                                                
