 2015 1111 1130 27.7 L   6.788 -73.081149.6  RSN  8 0.4 1.7LRSN                1
 GAP=243        1.04       4.9     6.8  6.9  0.1319E+02  0.1333E+02  0.6788E+01E
 Epicentro: LOS SANTOS - SANTANDER                                             3
 ACTION:UPD 15-12-28 16:10 OP:cam  STATUS:               ID:20151111113027 L   I
 OLDACT:UP  15-11-19 06:51 OP:CARA STATUS:               ID:20151111113027 L   3
 OLDACT:REG 15-11-11 20:51 OP:cara STATUS:               ID:20151111112749     3
 2015-11-11-1127-49M.COL___316                                                 6
 STAT SP IPHASW D HRMM SECON CODA AMPLIT PERI AZIMU VELO AIN AR TRES W  DIS CAZ7
 BAR2 EZ IP     D 1130 48.15                             170    0.3610 24.4 207 
 BAR2 EZ ES       1131  3.12                             170   -0.3610 24.4 207 
 BAR2 EZ I        1131  4.18         7.7 0.24            164           24.4 207 
 BRR  HZ EP       1130 49.78                             151    0.1410 78.2 297 
 BRR  HE ES       1131  7.44                             151    0.6610 78.2 297 
 BRR  HZ I        1131  9.21         9.5 0.54            145           78.2 297 
 RUS  HZ EP       1130 51.08                             145   -0.6210 99.0 180 
 RUS  HN ES       1131 10.31                             145   -0.1210 99.0 180 
 RUS  HZ I        1131 11.61         6.8 0.28            145           99.0 180 
 SPBC HN ES   2   1131 19.09                             129   -0.45 5  167 221 
 ZAR  HZ EP       1131  0.49                             122   -0.62 8  211 292 
 ZAR  HN ES       1131 26.85                             122   -0.34 8  211 292 
 ZAR  HZ I        1131 36.90         4.6 0.38            120            211 292 
 NOR  HZ EP       1131  4.58                             119    0.40 8  240 236 
 NOR  HN ES       1131 32.50                             119   -0.15 8  240 236 
 NOR  HZ I        1131 39.07         4.8 0.28            117            240 236 
 SML  HZ EP   4   1131  0.36                             118   -4.62 0  248 334 
 SML  HE ES   4   1131 33.19                             118   -0.89 0  248 334 
 SML  HZ I        1131 38.30         5.3 0.10            117            248 334 
 CHI  HZ EP       1131  6.26                             118    0.59 8  249 197 
 CHI  HN ES       1131 35.61                             118    0.31 8  249 197 
 CHI  HZ I        1131 38.69         2.3 0.46            117            249 197 
 MON  HE ES   4   1131 54.96                             109   -1.54 0  360 308 
                                                                                
