 2013 1011 1136 25.4 L   6.831 -73.189129.0  RSN  5 0.5 1.4LRSN                1
 GAP=147        1.27       8.0     7.0 10.7 -0.1359E+02  0.1677E+02 -0.2162E+02E
 Epicentro: ZAPATOCA - SANTANDER                                               3
 ACTION:UPD 13-11-25 09:20 OP:ep   STATUS:               ID:20131011113625 L   I
 OLDACT:REG 13-10-11 15:04 OP:nd   STATUS:               ID:20131011112959     3
 2013-10-11-1129-59M.COL___273                                                 6
 STAT SP IPHASW D HRMM SECON CODA AMPLIT PERI AZIMU VELO AIN AR TRES W  DIS CAZ7
 BAR2 SZ EP       1136 43.47                             168    0.3710 26.5 178 
 BAR2 SZ ES       1136 56.72                             168   -0.1810 26.5 178 
 BAR2 SZ I        1136 59.56        15.2 0.16            173           26.5 178 
 PAM  SZ EP       1136 46.40                             147    0.5010 78.0  44 
 PAM  SZ I        1137  7.25         3.6 0.50            133           78.0  44 
 RUS  HZ EP       1136 47.39                             139   -0.4610  104 174 
 RUS  HN ES       1137  5.03                             139   -0.3410  104 174 
 RUS  HZ I        1137  7.05         1.8 0.46            141            104 174 
 PTB  HZ EP       1136 50.27                             129   -0.40 9  144 257 
 PTB  HN ES       1137 10.07                             129   -0.32 9  144 257 
 PTB  HZ I        1137 13.70         4.1 0.20            127            144 257 
 SPBC HZ EP       1136 52.41                             125   -0.24 9  163 217 
 SPBC HN ES       1137 15.02                             125    1.12 9  163 217 
 SPBC HZ I        1137 19.00         3.6 0.10            125            163 217 
                                                                                
