 2012  211 1214  1.4 L   6.766 -73.192130.7  RSN  6 0.2 1.6LRSN                1
 GAP=132        0.46       3.0     2.7  4.8 -0.4270E+00  0.5094E+01 -0.2853E+01E
 ACTION:UP  12-03-07 16:29 OP:epov STATUS:               ID:20120211121401 L   I
 2012-02-11-1210-00M.COL___188                                                 6
 STAT SP IPHASW D HRMM SECON CODA AMPLIT PERI AZIMU VELO AIN AR TRES W  DIS CAZ7
 BAR2 SZ EP   1   1214 19.47                             171    0.29 7 19.3 177 
 BAR2 SZ ES   1   1214 33.04                             171    0.02 7 19.3 177 
 BAR2 SZ I        1214 35.71        14.0 0.20                          19.3 177 
 GIR2 SZ E        1214 19.52                                           34.6 360 
 GIR2 SZ EP   1   1214 19.54                             164    0.11 7 34.6 360 
 PAM  SZ EP   1   1214 22.25                             146   -0.24 7 83.6  41 
 PAM  SZ I        1214 22.72         6.1 0.17                          83.6  41 
 PAM  SN ES   1   1214 38.86                             146   -0.05 7 83.6  41 
 RUS  HZ EP   1   1214 23.62                             141    0.13 7 97.4 173 
 RUS  HN ES   1   1214 40.62                             141   -0.08 7 97.4 173 
 RUS  HZ I        1214 43.16         5.4 0.25                          97.4 173 
 PTB  HZ EP   1   1214 26.20                             130   -0.48 7  142 260 
 PTB  HN ES   1   1214 46.35                             130   -0.01 7  142 260 
 ZAR  HZ EP   1   1214 32.92                             119    0.32 6  201 294 
 ZAR  HN ES   1   1214 56.92                             119    0.02 6  201 294 
 ZAR  HZ I        1215  5.48         4.4 0.20                           201 294 
                                                                                
