 2012  511 1408  0.8 L   6.756 -73.144141.1  RSN  5 0.5 1.7LRSN                1
 GAP=139        1.08       8.2     9.2 11.3  0.2173E+01 -0.2079E+02  0.3237E+01E
 Epicentro: LOS SANTOS - SANTANDER                                             3
 ACTION:UP  12-07-05 12:04 OP:pat  STATUS:               ID:20120511140800 L   I
 2012-05-11-1400-00M.COL___195                                                 6
 STAT SP IPHASW D HRMM SECON CODA AMPLIT PERI AZIMU VELO SNR AR TRES W  DIS CAZ7
 BAR2 SZ EP       14 8 19.76                             172     0.010   19 193 
 BAR2 SZ ES   1   14 8 33.91                             172    -0.7 7   19 193 
 BAR2 SZ I        14 8 37.03         9.3 0.28                            19 193 
 BRR  HZ EP       14 8 21.31                             151    -0.310   74 302 
 BRR  HN ES   1   14 8 38.79                             151     1.0 7   74 302 
 BRR  HZ I        14 8 43.16        13.9 0.16                            74 302 
 PAM  SZ EP       14 8 22.82                             149     0.110   81  37 
 PAM  SN ES   2   14 8 39.51                             149    -0.4 5   81  37 
 RUS  HZ EP       14 8 23.95                             144     0.210   96 176 
 RUS  HN ES   2   14 8 42.19                             144     0.6 5   96 176 
 PTB  HN ES   2   14 8 47.10                             131    -0.9 5  147 261 
                                                                                
