 2017  811 1725 40.9 L   6.814 -73.330138.1  RSN  5 0.4 1.4LRSN                1
 GAP=129        0.71       3.8     3.7  7.0  0.3348E+01  0.9376E+00  0.4419E+01E
 Epicentro: ZAPATOCA - SANTANDER                                               3
 ACTION:UPD 17-09-04 20:19 OP:rebc STATUS:               ID:20170811172540 L   I
 OLDACT:UP  17-08-22 13:50 OP:nlst STATUS:               ID:20170811172540 L   3
 OLDACT:UP  17-08-11 23:44 OP:dani STATUS:               ID:20170811171742     3
 OLDACT:UP  17-08-11 23:44 OP:dani STATUS:               ID:20170811171742     3
 OLDACT:UP  17-08-11 23:43 OP:dani STATUS:               ID:20170811171742     3
 OLDACT:UP  17-08-11 23:43 OP:dani STATUS:               ID:20170811171742     3
 OLDACT:UP  17-08-11 23:43 OP:dani STATUS:               ID:20170811171742     3
 OLDACT:UP  17-08-11 23:42 OP:dani STATUS:               ID:20170811171742     3
 OLDACT:REG 17-08-11 20:55 OP:dani STATUS:               ID:20170811171742     3
 2017-08-11-1718-00M.COL___410                                                 6
 STAT SP IPHASW D HRMM SECON CODA AMPLIT PERI AZIMU VELO AIN AR TRES W  DIS CAZ7
 BAR2 EZ EP       1725 59.91                             167    0.1610 29.4 146 
 BRR  HZ EP   3   1726  1.76                             158    1.49 2 53.3 308 
 BRR  HN ES       1726 15.09                             158   -0.2910 53.3 308 
 BRR  HZ I        1726 16.98        17.1 0.35            160           53.3 308 
 PAM  EZ EP       1726  2.75                             145   -0.4310 90.7  50 
 PAM  EN ES       1726 20.83                             145    0.2810 90.7  50 
 PAM  EZ I        1726 23.01         3.1 0.31            146           90.7  50 
 RUS  HZ EP       1726  4.32                             141    0.0510  105 165 
 RUS  HN ES       1726 22.53                             141    0.0310  105 165 
 RUS  HZ I        1726 23.68         1.9 0.23            143            105 165 
 ZAR  HN ES       1726 34.34                             124    0.12 9  185 294 
                                                                                
