 2012  811 1147 16.1 L   6.753 -73.167144.0  RSN  5 0.1 1.6LRSN                1
 GAP=231        0.28       2.9     2.6  3.3  0.4529E+01 -0.8116E-01 -0.9350E+00E
 Epicentro: VILLANUEVA - SANTANDER                                             3
 ACTION:UPD 12-09-10 11:55 OP:ep   STATUS:               ID:20120811114716 L   I
 2012-08-11-1140-00M.COL___219                                                 6
 STAT SP IPHASW D HRMM SECON CODA AMPLIT PERI AZIMU VELO AIN AR TRES W  DIS CAZ7
 BAR2 SZ EP       1147 35.32                             173   -0.0510 17.9 185 
 BAR2 SZ ES   1   1147 50.42                             173   -0.02 7 17.9 185 
 BAR2 SZ I        1147 51.49         8.6 0.27                          17.9 185 
 BRR  HZ EP   1   1147 37.16                             152    0.11 7 71.8 303 
 BRR  HZ I        1147 38.84        12.9 0.60                          71.8 303 
 BRR  HN ES   1   1147 53.41                             152   -0.01 7 71.8 303 
 RUS  HZ EP   1   1147 39.24                             145   -0.04 7 95.6 174 
 RUS  HE ES   1   1147 57.46                             145    0.07 7 95.6 174 
 RUS  HZ I        1147 59.19         3.8 0.33                          95.6 174 
 PTB  HE ES   1   1148  3.24                             132   -0.04 7  145 261 
 ZAR  HN ES   1   1148 13.59                             122    0.01 6  204 294 
                                                                                
