 2013  311 1401 46.7 L   5.911 -73.663122.7  RSN  4 0.1 1.8LRSN                1
 GAP=148        0.31       2.6     2.8  5.2 -0.1539E-01  0.1422E+01  0.7498E+01E
 Epicentro: PUENTE NACIONAL - SANTANDER                                        3
 ACTION:UPD 13-04-09 14:01 OP:ep   STATUS:               ID:20130311140146 L   I
 2013-03-11-1400-00M.COL___231                                                 6
 STAT SP IPHASW D HRMM SECON CODA AMPLIT PERI AZIMU VELO AIN AR TRES W  DIS CAZ7
 BAR2 SZ ES   1   14 2 23.29                             141   -0.01 8 92.1  35 
 BAR2 SZ I        14 2 24.33        15.7 0.20            147           92.1  35 
 PTB  HZ EP   1   14 2  8.50                             135   -0.11 8  112 308 
 PTB  HN ES   1   14 2 25.70                             135    0.04 8  112 308 
 PTB  HN I        14 2 29.07         6.0 0.07            137            112 308 
 BRR  HZ EP       14 2 10.49                             129    0.0610  132 358 
 BRR  HE ES   1   14 2 28.87                             129   -0.03 7  132 358 
 BRR  HE I        14 2 30.01        16.0 0.25            134            132 358 
 CHI  HZ EP   1   14 2 11.91                             128    0.01 7  142 183 
                                                                                
