 2015  311 1525 55.4 L   6.805 -73.132149.2  RSN 13 0.4 2.1LRSN                1
 GAP=138        0.88       3.4     4.6  5.2 -0.5085E+01  0.5869E+01  0.2855E+01E
 Epicentro: LOS SANTOS - SANTANDER                                             3
 ACTION:UPD 15-04-30 16:25 OP:nd   STATUS:               ID:20150311152555 L   I
 OLDACT:UP  15-03-12 01:06 OP:spq  STATUS:               ID:20150311151748     3
 OLDACT:REG 15-03-11 21:10 OP:spq  STATUS:               ID:20150311151748     3
 2015-03-11-1517-48M.COL___284                                                 6
 STAT SP IPHASW D HRMM SECON CODA AMPLIT PERI AZIMU VELO AIN AR TRES W  DIS CAZ7
 BAR2 EZ EP       1526 15.31                             170   -0.1710 24.2 193 
 BAR2 EZ ES   1   1526 30.51                             170   -0.62 7 24.2 193 
 BAR2 EZ I        1526 31.96        24.0 0.16            169           24.2 193 
 BRR  HZ EP       1526 17.22                             153    0.2110 72.3 298 
 BRR  HN ES       1526 34.37                             153    0.5310 72.3 298 
 BRR  HZ I        1526 37.30        20.8 0.30            152           72.3 298 
 PAM  SZ EP       1526 18.19                             152    0.2710 76.0  39 
 PAM  SN ES       1526 35.66                             152    0.1910 76.0  39 
 PAM  SZ I        1526 37.57        14.0 0.52            155           76.0  39 
 RUS  HZ EP   1   1526 19.35                             144   -0.19 7  101 177 
 RUS  HE ES   1   1526 38.25                             144   -0.11 7  101 177 
 RUS  HZ I        1526 39.22        15.1 0.26            144            101 177 
 PTB  HZ EP       1526 22.34                             132   -0.48 9  149 259 
 PTB  HE ES   1   1526 44.04                             132   -0.14 7  149 259 
 PTB  HZ I        1526 45.04        15.8 0.12            132            149 259 
 SPBC HZ EP       1526 24.25                             130   -0.07 9  165 219 
 SPBC HN ES   1   1526 46.32                             130   -0.53 7  165 219 
 SPBC HZ I        1526 48.05        19.6 0.22            129            165 219 
 NOR  HZ EP   1   1526 31.41                             119   -0.11 6  236 235 
 NOR  HN ES       1527  0.01                             119    0.34 8  236 235 
 NOR  HZ I        1527  3.63         7.5 0.26            119            236 235 
 SML  HZ EP       1526 31.99                             118   -0.27 8  244 335 
 SML  HN ES   1   1527  0.30                             118   -0.70 6  244 335 
 SML  HZ I        1527  2.84        17.7 0.24            119            244 335 
 GUY2CHE ES   4   1527 15.35                             113    1.71 0  303 235 
 GUY2CHZ I        1527 21.04         5.4 0.40                           303 235 
 TOL  SZ EP       1526 45.00                             110    1.01 7  345 225 
 TOL  SN ES   4   1527 23.70                             110    1.84 0  345 225 
 TOL  SZ I        1527 30.00         3.4 0.44            110            345 225 
 MON  HZ EP   4   1526 42.38                             109   -2.28 0  355 308 
 MON  HN ES   4   1527 21.19                             109   -1.88 0  355 308 
 MON  HZ I        1527 23.25         1.7 0.68            110            355 308 
 PRA  HZ EP       1526 49.01                             107   -0.20 6  393 210 
 PRA  HN ES       1527 31.91                             107    0.75 6  393 210 
 PRA  HZ I        1527 37.38         5.1 0.44            107            393 210 
 ORTC HZ EP   1   1526 49.91                             107    0.29 4  397 216 
 ORTC HE ES   1   1527 31.02                             107   -0.87 4  397 216 
 ORTC HZ I        1527 38.20         3.8 0.40            107            397 216 
                                                                                
