 2014  511 1221 44.0 L   6.780 -73.155148.3  RSN  8 0.4 2.1LRSN                1
 GAP=136        1.04       3.5     4.6  8.2  0.1581E+00  0.1325E+02  0.3479E+01E
 Epicentro: LOS SANTOS - SANTANDER                                             3
 ACTION:UPD 15-03-16 16:56 OP:nd   STATUS:               ID:20140511122144 L   I
 OLDACT:UP  14-05-12 02:23 OP:mh   STATUS:               ID:20140511122000     3
 OLDACT:UP  14-05-11 23:16 OP:com  STATUS:               ID:20140511122000     3
 OLDACT:UP  14-05-11 23:15 OP:com  STATUS:               ID:20140511122000     3
 OLDACT:UP  14-05-11 23:15 OP:com  STATUS:               ID:20140511122000     3
 OLDACT:REG 14-05-11 20:49 OP:mh   STATUS:               ID:20140511122000     3
 2014-05-11-1220-00M.COL___273                                                 6
 STAT SP IPHASW D HRMM SECON CODA AMPLIT PERI AZIMU VELO AIN AR TRES W  DIS CAZ7
 PAM  SZ EP       1222  6.98                             150    0.4010 79.7  39 
 PAM  SN ES       1222 23.86                             150   -0.3710 79.7  39 
 PAM  SZ I        1222 24.90         7.9 0.16            159           79.7  39 
 RUS  HZ EP       1222  8.06                             145    0.2510 98.5 175 
 RUS  HN ES       1222 26.66                             145    0.2510 98.5 175 
 RUS  HZ I        1222 28.32         3.4 0.15            147           98.5 175 
 PTB  HZ EP       1222 10.79                             133   -0.22 9  146 260 
 PTB  HN ES       1222 31.47                             133   -0.63 9  146 260 
 PTB  HZ I        1222 39.23         5.5 0.14            133            146 260 
 SPBC HZ EP       1222 12.35                             130   -0.08 9  161 219 
 ZAR  HZ EP       1222 16.84                             123    0.28 9  204 293 
 ZAR  HN ES       1222 41.85                             123   -0.14 9  204 293 
 ZAR  HZ I        1222 48.43        15.7 0.04            125            204 293 
 NOR  HZ EP       1222 19.42                             119   -0.19 8  233 235 
 NOR  HN ES       1222 48.40                             119    0.98 8  233 235 
 NOR  HZ I        1222 57.70      1050.0 0.03            121            233 235 
 SML  HN ES       1222 50.00                             118    0.29 8  245 336 
 CHI  HZ EP       1222 20.68                             118   -0.86 8  246 195 
 CHI  HN ES       1222 50.85                             118   -0.00 8  246 195 
 CHI  HZ I        1222 55.55         3.0 0.16            121            246 195 
 RREF HZ EP   4   1222 31.87                             111    1.91 0  320 230 
 RREF HN ES   4   1223  9.68                             111    3.84 0  320 230 
                                                                                
