 2013  711 1133 53.3 L   6.852 -73.144145.1  RSN 13 0.5 2.4LRSN                1
 GAP= 68        1.22       3.8     3.5  6.7 -0.2001E+01  0.1156E+01  0.6303E+01E
 Epicentro: LOS SANTOS - SANTANDER                                             3
 ACTION:UPD 13-08-12 10:37 OP:ep   STATUS:               ID:20130711113353 L   I
 OLDACT:REG 13-07-11 15:44 OP:stll STATUS:               ID:20130711112850     3
 2013-07-11-1128-50M.COL___229                                                 6
 STAT SP IPHASW D HRMM SECON CODA AMPLIT PERI AZIMU VELO AIN AR TRES W  DIS CAZ7
 GIR2 SZ EP       1134 13.10                             170    0.3410 25.7 348 
 BAR2 SZ IP     C 1134 13.14                             168    0.1510 29.0 188 
 BAR2 SZ I        1134 13.68        28.2 0.14            166           29.0 188 
 BAR2 SZ ES       1134 28.55                             168    0.2110 29.0 188 
 BRR  HZ IP     D 1134 14.92                             153    0.6710 68.9 294 
 BRR  HN ES       1134 31.34                             153    0.7510 68.9 294 
 BRR  HN I        1134 34.94        68.9 0.16            152           68.9 294 
 RUS  HZ EP       1134 17.32                             142   -0.0910  106 176 
 RUS  HN ES       1134 36.16                             142   -0.0610  106 176 
 RUS  HN I        1134 37.71        33.8 0.42            142            106 176 
 CAPV BZ EP       1134 19.76                             133   -0.47 9  145  39 
 CAPV BZ ES       1134 40.70                             133   -0.53 9  145  39 
 PTB  HZ EP       1134 19.71                             132   -0.64 9  149 257 
 PTB  HN ES       1134 40.22                             132   -1.22 9  149 257 
 PTB  HN I        1134 43.48        27.6 0.40            131            149 257 
 OCA  HN ES       1134 42.39                             131   -0.27 9  155 353 
 TAM  HZ IP     D 1134 21.53                             130    0.47 9  156 107 
 TAM  HZ I        1134 21.64        40.2 0.34            132            156 107 
 TAM  HE ES       1134 42.53                             130   -0.17 9  156 107 
 ZAR  HE ES       1134 51.03                             123    0.39 9  202 291 
 AGZ  SZ EP       1134 27.82                             120   -0.07 8  225 161 
 NOR  HZ EP       1134 29.59                             118    0.21 8  238 233 
 NOR  HE ES       1134 56.89                             118   -0.63 8  238 233 
 NOR  HE I        1135  6.30        22.1 0.50            118            238 233 
 RREF HZ EP       1134 40.46                             110    0.59 7  326 229 
 RREF HN ES       1135 16.74                             110    0.55 7  326 229 
 RREF HZ I        1135 25.67         6.3 0.28            111            326 229 
 PRA  HZ EP       1134 47.69                             106    0.29 6  397 209 
 PRA  HN ES       1135 29.24                             106   -0.36 6  397 209 
                                                                                
