 2015 1011 1257 56.9 L   6.789 -73.092153.8  RSN 12 0.4 2.1LRSN                1
 GAP=144        0.76       2.5     3.8  4.9 -0.1501E+01  0.4694E+01 -0.6913E+00E
 Epicentro: LOS SANTOS - SANTANDER                                             3
 ACTION:UPD 15-12-22 20:39 OP:cam  STATUS:               ID:20151011125756 L   I
 OLDACT:REG 15-10-11 20:42 OP:spq  STATUS:               ID:20151011124748     3
 2015-10-11-1247-48M.COL___337                                                 6
 STAT SP IPHASW D HRMM SECON CODA AMPLIT PERI AZIMU VELO AIN AR TRES W  DIS CAZ7
 BAR2 EZ EP     D 1258 17.17                             171   -0.3010 24.0 205 
 BAR2 EZ ES   1   1258 33.26                             171   -0.28 7 24.0 205 
 BAR2 EZ I        1258 34.88        14.8 0.44            168           24.0 205 
 PAM  EN ES   1   1258 38.32                             153    0.65 7 74.7  35 
 BRR  HZ EP       1258 19.24                             152    0.0310 77.0 297 
 BRR  HN ES       1258 36.62                             152   -0.0210 77.0 297 
 BRR  HZ I        1258 40.27         9.9 0.32            150           77.0 297 
 RUS  HZ EP       1258 21.58                             146    0.2710 99.1 179 
 RUS  HE ES   1   1258 40.50                             146    0.12 7 99.1 179 
 RUS  HZ I        1258 42.67         8.8 0.40            148           99.1 179 
 OCA  HZ EP       1258 25.97                             131   -0.02 9  162 351 
 OCA  HE ES       1258 48.63                             131   -0.08 9  162 351 
 OCA  HZ I        1258 52.15        28.1 0.20            133            162 351 
 SPBC HZ EP       1258 26.17                             130   -0.09 9  166 221 
 SPBC HN ES       1258 48.81                             130   -0.37 9  166 221 
 SPBC HZ I        1258 54.77        16.9 0.21            131            166 221 
 ZAR  HZ EP       1258 30.07                             123   -0.38 8  210 292 
 ZAR  HN ES       1258 57.26                             123    0.61 8  210 292 
 ZAR  HZ I        1259  1.25         7.8 0.39            124            210 292 
 NOR  HE ES   1   1259  1.90                             120   -0.20 6  239 236 
 NOR  HZ I        1259  4.95        10.8 0.18            121            239 236 
 SML  HZ EP       1258 34.15                             119   -0.19 8  247 334 
 SML  HE ES   1   1259  3.09                             119   -0.48 6  247 334 
 SML  HZ I        1259  5.52        16.1 0.28            120            247 334 
 HEL  HE ES   1   1259 10.20                             116   -0.06 6  278 256 
 HEL  HZ I        1259 16.36         7.5 0.34            117            278 256 
 GUY2CHZ EP   1   1258 42.34                             113    1.02 5  305 236 
 GUY2CHE ES   1   1259 16.51                             113    0.51 5  305 236 
 GUY2CHZ I        1259 24.07         6.8 0.78                           305 236 
 SJC  HZ EP   4   1258 51.47                             107   -1.73 0  414 326 
 SJC  HN ES   4   1259 32.78                             107   -4.36 0  414 326 
 SJC  HZ I        1259 36.92         1.9 0.52            108            414 326 
                                                                                
