 2016 1011 1239 46.3 L   6.826 -73.160141.7  RSN 15 0.4 2.2LRSN                1
 GAP=133        1.01       2.8     3.8  5.0 -0.2041E+01  0.3887E+01  0.1525E+01E
 Epicentro: LOS SANTOS - SANTANDER                                             3
 ACTION:UPD 16-11-09 19:18 OP:rebc STATUS:               ID:20161011123946 L   I
 OLDACT:REG 16-10-11 22:07 OP:lv   STATUS:               ID:20161011123741     3
 2016-10-11-1238-00M.COL___372                                                 6
 STAT SP IPHASW D HRMM SECON CODA AMPLIT PERI AZIMU VELO AIN AR TRES W  DIS CAZ7
 BAR2 EZ EP       1240  5.44                             169   -0.0910 26.0 185 
 BAR2 EZ ES       1240 20.44                             169   -0.0710 26.0 185 
 BAR2 EZ I        1240 21.75        47.6 0.20            168           26.0 185 
 BRR  HZ IP     C 1240  7.11                             153    0.2310 68.4 297 
 BRR  HE ES       1240 23.30                             153    0.3810 68.4 297 
 BRR  HZ I        1240 27.49        32.3 0.14            151           68.4 297 
 PAM  EZ EP       1240  8.29                             151    0.2510 76.2  42 
 PAM  EN ES       1240 25.22                             151    0.2410 76.2  42 
 PAM  EZ I        1240 27.21        21.0 0.50            155           76.2  42 
 RUS  HZ EP       1240  9.86                             142   -0.0510  104 175 
 RUS  HN ES       1240 28.39                             142    0.0910  104 175 
 RUS  HZ I        1240 29.46        12.4 0.26            143            104 175 
 PTB  HZ EP       1240 12.07                             131   -0.81 9  147 258 
 PTB  HN ES       1240 32.96                             131   -0.63 9  147 258 
 PTB  HZ I        1240 38.03        15.2 0.14            131            147 258 
 OCA  HZ EP       1240 13.52                             129   -0.52 9  157 354 
 OCA  HN ES       1240 35.33                             129   -0.32 9  157 354 
 OCA  HZ I        1240 39.03        58.4 0.18            131            157 354 
 SPBC HZ EP       1240 14.75                             128    0.11 9  164 218 
 SPBC HN ES       1240 36.68                             128   -0.04 9  164 218 
 SPBC HZ I        1240 38.51        19.3 0.15            128            164 218 
 ZAR  HZ EP       1240 18.74                             122    0.50 9  201 292 
 ZAR  HN ES       1240 43.33                             122    0.19 9  201 292 
 ZAR  HZ I        1240 45.55        17.3 0.11            122            201 292 
 NOR  HZ EP       1240 21.73                             118   -0.14 8  235 234 
 NOR  HN ES       1240 49.57                             118   -0.02 8  235 234 
 NOR  HZ I        1240 56.35        12.4 0.13            118            235 234 
 CHI  HZ EP       1240 23.94                             116   -0.13 8  251 195 
 CHI  HE ES       1240 52.96                             116   -0.54 8  251 195 
 CHI  HZ I        1241  0.87         5.9 0.40            117            251 195 
 ROSC BZ EP   9   1240 26.03                             116    1.62 0  254 210 
 ROSC BN ES       1240 56.49                                    0.75 8  254 210 
 ROSC BZ I        1240 59.61        13.5 0.30            116            254 210 
 HEL  HZ EP       1240 27.39                             114    1.15 8  271 255 
 HEL  HN ES   4   1240 59.67                             114    2.29 0  271 255 
 HEL  HZ I        1241  3.62        11.3 0.36            115            271 255 
 GUY2CHZ EP   9   1240 31.14                             112    1.35 0  302 234 
 GUY2CHN ES       1241  5.48                                    0.44 7  302 234 
 GUY2CHZ I        1241 12.21         8.0 0.38                           302 234 
 PTGC HZ EP   4   1240 28.84                             111   -1.54 0  312 159 
 PTGC HN ES   4   1241  2.67                             111   -2.07 0  312 159 
 PRA  HZ EP       1240 39.99                             106    0.08 6  394 209 
 PRA  HN ES       1241 22.44                             106    0.73 6  394 209 
 PRA  HZ I        1241 26.65         5.5 0.18            107            394 209 
 SJC  HZ EP   4   1240 39.70                             105   -1.67 0  406 327 
 SJC  HN ES   4   1241 20.99                             105   -3.31 0  406 327 
 SJC  HZ I        1241 25.26         4.5 0.29            106            406 327 
                                                                                
