 2010  411 1316 13.9 L   6.812 -72.993144.0  RSN  9 0.4 2.6LRSN                1
 GAP=150        0.86       4.5     6.7  6.9 -0.1458E+02 -0.5988E+01  0.6799E+01E
 Epicentro: CEPITA - SANTANDER                                                 3
 ACTION:UPD 10-08-24 09:58 OP:vdl  STATUS:               ID:20100411131613 L   I
 2010-04-11-1314-50S.COL___097                                                 6
 STAT SP IPHASW D HRMM SECON CODA AMPLIT PERI AZIMU VELO AIN AR TRES W  DIS CAZ7
 BAR2 SZ IP       1316 33.96                             167     0.410   32 221 
 BAR2 SZ ES   1   1316 48.42                             167    -0.4 7   32 221 
 BRR  HZ EP       1316 36.03                             147     0.210   86 292 
 BRR  HN ES   1   1316 53.29                             147     0.5 7   86 292 
 BRR  HZ I        1316 57.67        35.5 0.30                            86 292 
 OCA  SZ EP       1316 41.85                             129    -0.4 9  162 347 
 OCA  SZ ES   1   1317  3.75                             129    -0.6 7  162 347 
 OCA  SZ I        1317 12.51        50.1 0.29                           162 347 
 CHI  HZ EP   2   1316 52.35                             116     0.2 4  255 199 
 CHI  HN ES   2   1317 21.65                             116    -0.4 4  255 199 
 CHI  HZ I        1317 25.19        18.8 0.45                           255 199 
 HEL  HZ EP   1   1316 56.00                             113     0.1 5  289 256 
 HEL  HN ES   2   1317 28.51                             113    -0.2 4  289 256 
 HEL  HZ I        1317 32.47        14.8 0.34                           289 256 
 RREF BZ EP   1   1317  1.76                             110     0.2 5  336 231 
 RREF BN ES   1   1317 38.84                             110     0.1 5  336 231 
 RREF BZ I        1317 45.66        15.5 0.50                           336 231 
 SDV  BZ EP   1   1317  3.15                             109     0.8 5  347  49 
 SDV  BZ I        1317  4.57        22.2 0.16                           347  49 
 SDV  BE ES   2   1317 39.37                             109    -0.7 3  347  49 
 ANIL BE ES   2   1317 44.73                             107    -0.4 3  370 226 
 ANIL BZ I        1317 54.12        28.1 0.33                           370 226 
 PRA  HZ EP   1   1317  7.88                             106    -0.6 4  402 212 
 PRA  HE ES   1   1317 50.67                             106    -0.4 4  402 212 
 PRA  HZ I        1317 54.63        15.4 0.62                           402 212 
                                                                                
