 2016 1211 1644 31.5 L   6.761 -73.165145.7  RSN  6 0.5 1.7LRSN                1
 GAP=232        1.19       7.0     6.8  8.6  0.1872E+02  0.1693E+02  0.1977E+01E
 Epicentro: LOS SANTOS - SANTANDER                                             3
 ACTION:UPD 17-01-11 20:14 OP:rebc STATUS:               ID:20161211164431 L   I
 OLDACT:REG 16-12-11 21:08 OP:dnl  STATUS:               ID:20161211163744     3
 2016-12-11-1638-00M.COL___377                                                 6
 STAT SP IPHASW D HRMM SECON CODA AMPLIT PERI AZIMU VELO AIN AR TRES W  DIS CAZ7
 BAR2 EZ EP       1644 50.98                             172   -0.0610 18.7 186 
 BAR2 EZ ES       1645  6.25                             172   -0.0310 18.7 186 
 BAR2 EZ I        1645  7.58        17.5 0.16            175           18.7 186 
 BRR  HZ EP       1644 52.65                             152   -0.0110 71.5 302 
 BRR  HE ES       1645  9.93                             152    0.7710 71.5 302 
 BRR  HZ I        1645 14.16         9.2 0.13            152           71.5 302 
 RUS  HZ EP       1644 54.97                             145    0.0210 96.4 175 
 RUS  HN ES       1645 13.09                             145   -0.1510 96.4 175 
 RUS  HZ I        1645 15.23         5.5 0.22            149           96.4 175 
 PTB  HZ EP       1644 57.67                             133   -0.53 9  145 260 
 PTB  HN ES       1645 18.40                             133   -0.62 9  145 260 
 PTB  HZ I        1645 20.68         6.5 0.40            134            145 260 
 ZAR  HZ EP       1645  4.51                             122    0.60 9  204 294 
 ZAR  HE ES       1645 28.56                             122   -0.62 9  204 294 
 ZAR  HZ I        1645 34.15         7.9 0.26            124            204 294 
 GUY2CHZ EP   4   1645 15.98                             113    1.36 0  297 235 
 GUY2CHE ES       1645 49.17                             113    0.92 7  297 235 
 GUY2CHZ I        1645 56.37         2.7 0.44                           297 235 
                                                                                
