 2010 1111 1459 37.1 L   6.789 -73.077152.2  RSN  4 0.2 1.5LRSN                1
 GAP=166        0.49       3.4     6.6  5.7 -0.2760E+01 -0.1107E+02  0.3284E-01E
 Epicentro: LOS SANTOS - SANTANDER                                             3
 ACTION:UP  10-12-17 16:51 OP:REBC STATUS:               ID:20101111145937 L   I
 2010-11-11-1456-52S.COL___129                                                 6
 STAT SP IPHASW D HRMM SECON CODA AMPLIT PERI AZIMU VELO SNR AR TRES W  DIS CAZ7
 BAR2 SZ EP   1   1459 57.74                             170     0.2 7   25 208 
 BAR2 SZ ES   1   15 0 13.68                             170     0.2 7   25 208 
 BAR2 SZ I        15 0 15.19         8.0 0.30                            25 208 
 BRR  HZ EP   1   1459 59.24                             151    -0.1 7   79 297 
 BRR  HZ I        1459 59.70        13.4 0.22                            79 297 
 BRR  HE ES   1   15 0 16.73                             151     0.0 7   79 297 
 RUS  HZ EP   1   15 0  1.27                             145    -0.1 7   99 180 
 RUS  HN ES   2   15 0 20.11                             145    -0.2 5   99 180 
 RUS  HZ I        15 0 21.36         2.0 0.28                            99 180 
 GRA  SZ EP   1   15 0  3.14                             139     0.3 7  125  14 
 GRA  SZ ES   1   15 0 22.73                             139    -0.2 7  125  14 
 GRA  SZ I        15 0 25.49         3.4 0.18                           125  14 
                                                                                
