 2013  611 1450 24.0 L   6.731 -73.182146.0  RSN  6 0.3 2.1LRSN                1
 GAP=175        0.60       5.7     4.0  6.0  0.4765E+01  0.1696E+01 -0.7961E+01E
 Epicentro: VILLANUEVA - SANTANDER                                             3
 ACTION:UPD 14-01-08 09:54 OP:ep   STATUS:               ID:20130611145024 L   I
 OLDACT:UP  13-06-11 20:40 OP:mh   STATUS:               ID:20130611144950     3
 OLDACT:REG 13-06-11 20:21 OP:mh   STATUS:               ID:20130611144950     3
 2013-06-11-1449-50M.COL___222                                                 6
 STAT SP IPHASW D HRMM SECON CODA AMPLIT PERI AZIMU VELO AIN AR TRES W  DIS CAZ7
 BAR2 SZ EP       1450 43.55                             174    0.0610 15.3 180 
 BAR2 SZ ES   1   1450 58.17                             174   -0.55 7 15.3 180 
 BAR2 SZ I        1451  0.23        16.1 0.12            175           15.3 180 
 GIR2 SZ EP       1450 43.71                             164   -0.1810 38.5 358 
 GIR2 SZ I        1451  1.31         8.6 0.20            156           38.5 358 
 BRR  HZ EP       1450 45.40                             152    0.2210 71.9 305 
 BRR  HN ES   2   1451  2.48                             152    0.75 5 71.9 305 
 BRR  HN I        1451  3.14        67.2 0.22            149           71.9 305 
 RUS  HZ EP   1   1450 47.54                             146    0.31 7 93.3 173 
 RUS  HN ES   2   1451  5.65                             146    0.27 5 93.3 173 
 RUS  HN I        1451  8.29         7.6 0.44            149           93.3 173 
 PTB  HZ EP       1450 50.34                             133   -0.14 9  142 262 
 PTB  HN ES       1451 11.11                             133   -0.05 9  142 262 
 PTB  HN I        1451 16.26        34.9 0.50            134            142 262 
 ZAR  HZ EP   1   1450 56.28                             122   -0.09 6  203 295 
 ZAR  HN ES   2   1451 21.60                             122   -0.03 4  203 295 
 ZAR  HN I        1451 26.83        24.8 0.32            121            203 295 
                                                                                
