 2011  611 1712 59.3 L   6.791 -73.103141.8  RSN  5 0.2 1.8LRSN                1
 GAP=160        0.51       2.9     5.7  5.3 -0.1210E+01 -0.8476E+01 -0.3737E+01E
 Epicentro: LOS SANTOS - SANTANDER                                             3
 ACTION:UP  11-07-14 19:04 OP:ep   STATUS:               ID:20110611171259 L   I
 2011-06-11-1710-13S.COL___133                                                 6
 STAT SP IPHASW D HRMM SECON CODA AMPLIT PERI AZIMU VELO SNR AR TRES W  DIS CAZ7
 BAR2 SZ EP   1   1713 18.41                             170    -0.1 7   24 202 
 BAR2 SZ ES   1   1713 33.04                             170    -0.4 7   24 202 
 BAR2 SZ I        1713 34.53        15.6 0.26                            24 202 
 BRR  HZ EP       1713 20.24                             150    -0.110   76 297 
 BRR  HE ES   1   1713 36.84                             150     0.2 7   76 297 
 BRR  HZ I        1713 37.98        22.1 0.15                            76 297 
 RUS  HZ EP   1   1713 22.49                             143    -0.1 7   99 179 
 RUS  HN ES   1   1713 41.06                             143     0.3 7   99 179 
 RUS  HZ I        1713 43.00         4.4 0.16                            99 179 
 BRI  SZ EP   1   1713 22.86                             141     0.1 7  108  18 
 BRI  SZ I        1713 47.35         9.5 0.43                           108  18 
 GRA  SZ EP       1713 24.13                             136     0.010  125  15 
 GRA  SZ ES   1   1713 43.65                             136     0.1 7  125  15 
 GRA  SZ I        1713 44.84        10.9 0.25                           125  15 
                                                                                
