 2013  211 1046 34.6 L   6.789 -73.158150.9  RSN  9 0.4 2.1LRSN                1
 GAP=182        0.75       3.0     4.4  5.1  0.3934E+01  0.3470E+01 -0.5123E+00E
 Epicentro: LOS SANTOS - SANTANDER                                             3
 ACTION:UPD 13-03-12 09:32 OP:ep   STATUS:               ID:20130211104634 L   I
 2013-02-11-1040-00M.COL___240                                                 6
 STAT SP IPHASW D HRMM SECON CODA AMPLIT PERI AZIMU VELO AIN AR TRES W  DIS CAZ7
 BAR2 SZ EP       1046 54.62                             171   -0.2310 21.9 187 
 BAR2 SZ ES       1047 10.62                             171   -0.0110 21.9 187 
 BRR  HZ EP     C 1046 56.58                             154    0.2710 70.6 300 
 BRR  HN ES   1   1047 13.82                             154    0.60 7 70.6 300 
 BRR  HN I        1047 18.02        27.3 0.20            149           70.6 300 
 RUS  HZ EP       1046 58.80                             145   -0.0110 99.4 175 
 RUS  HN ES       1047 17.52                             145   -0.1510 99.4 175 
 PTB  HZ EP       1047  1.51                             134   -0.37 9  146 259 
 PTB  HN ES       1047 22.80                             134   -0.34 9  146 259 
 PTB  HZ I        1047 24.45        15.4 0.14            131            146 259 
 OCA  HN ES   1   1047 26.42                             131    0.50 7  161 354 
 ZAR  HZ EP   1   1047  7.75                             124    0.41 6  203 293 
 ZAR  HN ES   1   1047 32.72                             124   -0.13 6  203 293 
 SML  HZ EP   1   1047 11.58                             118   -0.03 6  244 336 
 SML  HN ES   1   1047 39.60                             118   -0.86 6  244 336 
 SML  HZ I        1047 49.33         7.3 0.10            117            244 336 
 CHI  HZ EP       1047 12.74                             118    0.29 8  247 195 
 CHI  HN ES   1   1047 42.32                             118    0.37 6  247 195 
 CHI  HN I        1047 46.99         7.1 0.50            118            247 195 
 HEL  HE ES   2   1047 46.89                             116    0.52 4  270 256 
 HEL  HN I        1047 54.19         4.6 0.22            115            270 256 
                                                                                
