 2014  211 1311 33.4 L   6.824 -73.137141.9  RSN  5 0.4 1.6LRSN                1
 GAP=202        0.73       4.3     5.9 11.0  0.1432E+02 -0.2502E+02 -0.1916E+02E
 Epicentro: LOS SANTOS - SANTANDER                                             3
 ACTION:UPD 14-03-10 08:09 OP:ep   STATUS:               ID:20140211131133 L   I
 OLDACT:REG 14-02-11 16:05 OP:mh   STATUS:               ID:20140211131000     3
 2014-02-11-1310-00M.COL___192                                                 6
 STAT SP IPHASW D HRMM SECON CODA AMPLIT PERI AZIMU VELO AIN AR TRES W  DIS CAZ7
 RUS  HZ EP       1311 56.87                             142   -0.0810  103 177 
 RUS  HN ES   1   1312 15.64                             142    0.31 7  103 177 
 RUS  HZ I        1312 16.56         5.1 0.24            146            103 177 
 PTB  HN ES       1312 20.67                             131   -0.40 9  149 258 
 PTB  HZ I        1312 23.07         7.3 0.16            133            149 258 
 ZAR  HN ES       1312 31.20                             122    0.53 9  204 291 
 ZAR  HZ I        1312 32.88         4.1 0.09            122            204 291 
 SML  HZ EP   1   1312  9.95                             117    0.38 6  242 335 
 SML  HN ES   1   1312 37.24                             117   -0.57 6  242 335 
 SML  HZ I        1312 46.36         6.3 0.08            117            242 335 
 CHI  HZ EP   1   1312 11.06                             116   -0.12 6  251 195 
 CHI  HN ES   1   1312 40.60                             116   -0.06 6  251 195 
 CHI  HZ I        1312 43.28         1.5 0.31            118            251 195 
 PRA  HZ EP   4   1312 16.74                             106   -10.4 0  395 209 
 PRA  HE ES   4   1313  8.89                             106   -0.11 0  395 209 
                                                                                
