 2012  311 1356  9.5 L   6.781 -73.211139.3  RSN  6 0.4 1.8LRSN                1
 GAP=129        1.09       6.9     5.8  9.6  0.2041E+01  0.1109E+02 -0.6216E+01E
 ACTION:UP  12-03-31 23:19 OP:EP   STATUS:               ID:20120311135609 L   I
 2012-03-11-1350-00M.COL___193                                                 6
 STAT SP IPHASW D HRMM SECON CODA AMPLIT PERI AZIMU VELO SNR AR TRES W  DIS CAZ7
 BAR2 SZ EP   1   1356 28.43                             171     0.1 7   21 171 
 BAR2 SZ ES   1   1356 42.47                             171    -0.5 7   21 171 
 BAR2 SZ I        1356 44.82        13.0 0.14                            21 171 
 BRR  HZ EP   1   1356 30.21                             153     0.6 7   66 303 
 BRR  HN ES   1   1356 46.18                             153     0.8 7   66 303 
 BRR  HZ I        1356 47.89        18.3 0.09                            66 303 
 PAM  SZ EP       1356 31.43                             147     0.010   84  42 
 PAM  SN ES   1   1356 48.00                             147    -0.5 7   84  42 
 PAM  SZ I        1356 50.50        10.3 0.30                            84  42 
 RUS  HZ EP   1   1356 32.82                             143     0.3 7   99 172 
 RUS  HZ I        1356 33.73         6.9 0.18                            99 172 
 RUS  HN ES   1   1356 50.65                             143     0.2 7   99 172 
 PTB  HZ EP   1   1356 34.93                             132    -0.3 7  140 259 
 PTB  HN ES   1   1356 54.71                             132    -0.6 7  140 259 
 PTB  HZ I        1357  3.60         5.6 0.17                           140 259 
 ZAR  HZ EP   1   1356 40.36                             122    -0.5 6  198 293 
 ZAR  HN ES   1   1357  5.60                             122     0.2 6  198 293 
 ZAR  HZ I        1357 12.51        11.3 0.29                           198 293 
                                                                                
