 2015 1011 1239 42.3 L   6.773 -73.104144.0  RSN  5 0.3 1.6LRSN                1
 GAP=168        0.64       6.9     5.1  7.5  0.1831E+02 -0.1148E+02 -0.2284E+02E
 Epicentro: LOS SANTOS - SANTANDER                                             3
 ACTION:UPD 15-12-22 20:39 OP:cam  STATUS:               ID:20151011123942 L   I
 OLDACT:REG 15-10-11 20:41 OP:spq  STATUS:               ID:20151011123748     3
 2015-10-11-1237-48M.COL___337                                                 6
 STAT SP IPHASW D HRMM SECON CODA AMPLIT PERI AZIMU VELO AIN AR TRES W  DIS CAZ7
 BAR2 EZ EP       1240  1.59                             171   -0.1010 21.7 203 
 BAR2 EZ ES   1   1240 16.48                             171   -0.33 7 21.7 203 
 BAR2 EZ I        1240 17.93         5.1 0.20            170           21.7 203 
 BRR  HZ EP     C 1240  3.47                             151   -0.1110 76.6 299 
 BRR  HN ES       1240 20.51                             151    0.3310 76.6 299 
 BRR  HZ I        1240 22.56         7.1 0.72            147           76.6 299 
 PAM  EZ EP       1240  4.55                             151    0.2410 77.0  36 
 ZAR  HE ES       1240 40.86                             121    0.02 8  209 292 
 ZAR  HZ I        1240 46.55         3.1 0.38            120            209 292 
 SML  HE ES   1   1240 47.66                             117   -0.56 6  248 335 
 SML  HZ I        1240 51.52         3.7 0.16            116            248 335 
                                                                                
