 2013  311 1852  2.0 L   6.770 -73.165142.0  RSN 10 0.3 2.4LRSN                1
 GAP= 71        0.70       2.8     3.1  4.2 -0.7908E-01  0.1841E+01  0.1073E+01E
 Epicentro: LOS SANTOS - SANTANDER                                             3
 ACTION:UPD 13-04-09 14:01 OP:ep   STATUS:               ID:20130311185202 L   I
 2013-03-11-1850-00M.COL___231                                                 6
 STAT SP IPHASW D HRMM SECON CODA AMPLIT PERI AZIMU VELO AIN AR TRES W  DIS CAZ7
 BAR2 SZ IP       1852 21.31                             172    0.1910 19.7 186 
 BAR2 SZ ES       1852 35.86                             172   -0.1710 19.7 186 
 BAR2 SZ I        1852 37.36       105.2 0.33            169           19.7 186 
 BRR  HZ IP     D 1852 23.07                             152    0.3210 71.0 302 
 BRR  HE ES   1   1852 39.65                             152    0.73 7 71.0 302 
 BRR  HZ I        1852 42.96        46.5 0.20            150           71.0 302 
 PAM  SZ EP       1852 24.21                             149    0.1310 81.3  39 
 PAM  SN ES       1852 41.02                             149   -0.2610 81.3  39 
 PAM  SZ I        1852 43.44        47.7 0.43            154           81.3  39 
 RUS  HZ EP       1852 25.39                             144    0.2210 97.4 175 
 RUS  HN ES       1852 43.06                             144   -0.1710 97.4 175 
 RUS  HN I        1852 47.01        22.4 0.23            145           97.4 175 
 PTB  HZ EP   1   1852 28.13                             132   -0.30 7  145 260 
 PTB  HE ES   1   1852 48.58                             132   -0.45 7  145 260 
 PTB  HZ I        1852 56.29        24.4 0.46            131            145 260 
 TAM  HZ EP       1852 29.56                             129    0.05 9  156 104 
 ZAR  HZ EP   1   1852 34.18                             121    0.03 6  203 293 
 ZAR  HN ES   1   1852 59.12                             121   -0.09 6  203 293 
 ZAR  HZ I        1853  4.89        19.0 0.24            122            203 293 
 CHI  HZ EP   1   1852 39.19                             117    0.10 6  245 195 
 CHI  HE ES   1   1853  7.63                             117   -0.38 6  245 195 
 SML  HZ EP   1   1852 37.80                             116   -0.87 6  246 336 
 PRA  HZ EP   1   1852 55.00                             106    0.06 4  388 210 
 PRA  HN ES   1   1853 36.63                             106    0.41 4  388 210 
 PRA  HZ I        1853 45.10        10.0 0.58            107            388 210 
                                                                                
