 2014  411 1531 37.1 L   6.820 -73.148149.8  RSN  7 0.3 2.1LRSN                1
 GAP=201        0.65       2.7     4.0  6.3  0.4033E-01  0.3892E+01 -0.4557E+01E
 Epicentro: LOS SANTOS - SANTANDER                                             3
 ACTION:UPD 14-05-13 23:07 OP:nd   STATUS:               ID:20140411153137 L   I
 OLDACT:UP  14-04-11 22:00 OP:cam  STATUS:               ID:20140411152820     3
 OLDACT:REG 14-04-11 21:12 OP:cam  STATUS:               ID:20140411152820     3
 2014-04-11-1528-20M.COL___259                                                 6
 STAT SP IPHASW D HRMM SECON CODA AMPLIT PERI AZIMU VELO AIN AR TRES W  DIS CAZ7
 RUS  HZ EP     D 1532  1.27                             144   -0.1610  103 176 
 RUS  HN ES       1532 20.52                             144    0.1310  103 176 
 PTB  HZ EP   1   1532  4.26                             133   -0.19 7  148 258 
 PTB  HN ES   1   1532 25.45                             133   -0.30 7  148 258 
 PTB  HZ I        1532 31.02        14.9 0.24            133            148 258 
 SPBC HZ EP     D 1532  6.14                             130    0.05 9  165 218 
 SPBC HN ES       1532 28.99                             130    0.32 9  165 218 
 SPBC HZ I        1532 35.28        23.6 0.30            131            165 218 
 NOR  HZ EP     D 1532 13.36                             119    0.15 8  236 234 
 NOR  HE ES       1532 41.65                             119    0.30 8  236 234 
 NOR  HZ I        1532 44.85        11.4 0.18            121            236 234 
 SML  HZ EP   1   1532 14.25                             118    0.49 6  242 335 
 SML  HN ES       1532 42.13                             118   -0.21 8  242 335 
 CHI  HZ EP   1   1532 15.23                             118   -0.04 6  251 195 
 CHI  HN ES   1   1532 44.19                             118   -0.83 6  251 195 
 CHI  HZ I        1532 50.22         3.2 0.42            120            251 195 
 GUY2CHZ EP   1   1532 21.48                             113    0.43 5  302 234 
 GUY2CHN ES       1532 54.93                             113   -0.37 7  302 234 
 GUY2CHZ I        1533  4.35         5.9 0.30                           302 234 
                                                                                
