 2015  911 1740 48.8 L   6.780 -73.146148.1  RSN  8 0.5 1.7LRSN                1
 GAP=137        1.29       5.0     5.9 10.2 -0.5349E+01  0.1687E+02 -0.7375E+01E
 Epicentro: LOS SANTOS - SANTANDER                                             3
 ACTION:UPD 15-10-28 16:25 OP:cam  STATUS:               ID:20150911174048 L   I
 OLDACT:DUP 15-09-12 00:57 OP:stll STATUS:               ID:20150911173750d    3
 2015-09-11-1737-49M.COL___350                                                 6
 STAT SP IPHASW D HRMM SECON CODA AMPLIT PERI AZIMU VELO AIN AR TRES W  DIS CAZ7
 BAR2 EZ EP       1741  8.62                             171   -0.0210 21.2 191 
 BAR2 EZ ES       1741 23.60                             171   -0.5410 21.2 191 
 BAR2 EZ I        1741 26.29         9.3 0.24            170           21.2 191 
 BRR  HZ EP       1741 10.43                             153    0.2010 72.2 300 
 BRR  HZ I        1741 10.68        14.2 0.22            151           72.2 300 
 BRR  HN ES       1741 27.82                             153    0.8510 72.2 300 
 PAM  EZ EP       1741 11.40                             151    0.0610 79.1  39 
 PAM  EZ I        1741 11.65        17.5 0.22            154           79.1  39 
 PAM  EN ES       1741 28.80                             151   -0.1310 79.1  39 
 RUS  HN ES       1741 31.11                             145   -0.0810 98.4 176 
 RUS  HZ I        1741 34.69         3.7 0.34            146           98.4 176 
 PTB  HZ EP       1741 15.52                             133   -0.37 9  147 260 
 PTB  HN ES       1741 36.09                             133   -0.96 9  147 260 
 PTB  HZ I        1741 42.79         4.3 0.24            132            147 260 
 OCA  HE ES       1741 39.93                             130    0.09 9  162 353 
 SPBC HE ES       1741 40.49                             130    0.95 9  162 219 
 ZAR  HN ES       1741 46.89                             123   -0.06 9  205 293 
 ZAR  HZ I        1741 53.13         6.1 0.36            123            205 293 
                                                                                
