 2010  311 1311 28.2 L   6.832 -73.013142.0  RSN 13 0.6 2.9LRSN                1
 GAP=135        1.07       3.6     5.5  6.0 -0.6974E+01  0.1306E+01  0.1777E+01E
 Epicentro: CEPITA - SANTANDER                                                 3
 ACTION:UP  10-08-24 09:53 OP:vdl  STATUS:               ID:20100311131128 L   I
 2010-03-11-1308-11S.COL___094                                                 6
 STAT SP IPHASW D HRMM SECON CODA AMPLIT PERI AZIMU VELO SNR AR TRES W  DIS CAZ7
 BAR2 SZ IP       1311 47.82                             166     0.210   33 215 
 BAR2 SZ ES   1   1312  2.55                             166    -0.2 7   33 215 
 BRR  HZ EP       1311 49.61                             148    -0.110   83 292 
 BRR  HN ES       1312  6.58                             148     0.110   83 292 
 BRR  HZ I        1312  7.55       281.1 0.60                            83 292 
 RUS  BZ EP       1311 51.85                             142     0.010  104 184 
 RUS  BN ES       1312 10.17                             142    -0.210  104 184 
 RUS  BZ I        1312 12.36        86.8 0.45                           104 184 
 OCA  SZ EP       1311 56.24                             129     0.1 9  159 348 
 OCA  SZ ES   1   1312 18.19                             129     0.2 7  159 348 
 CHI  HZ EP   1   1312  6.07                             115    -0.5 6  256 198 
 CHI  HE ES   1   1312 35.79                             115    -0.7 6  256 198 
 CHI  HZ I        1312 39.48        32.5 0.55                           256 198 
 ROSC BZ EP       1312  8.25                             115     0.9 8  264 213 
 ROSC BN ES       1312 38.25                             115     0.4 8  264 213 
 ROSC BZ I        1312 41.82        60.3 0.56                           264 213 
 HEL  HZ EP   1   1312  9.75                             113    -0.2 5  287 256 
 HEL  HE ES   2   1312 41.73                             113    -0.8 4  287 256 
 HEL  HZ I        1312 46.21        64.2 0.55                           287 256 
 RREF BZ EP       1312 15.47                             109    -0.3 7  335 231 
 RREF BN ES   1   1312 53.73                             109     0.9 5  335 231 
 RREF BZ I        1313  1.97        39.4 0.37                           335 231 
 SDV  BZ EP       1312 17.35                             108     0.8 6  347  49 
 SDV  BZ I        1312 18.25        26.0 0.15                           347  49 
 SDV  B1 ES   1   1312 53.81                             108    -0.5 5  347  49 
 DBB  SZ EP       1312 15.83                             108    -1.4 6  354 274 
 TOL  SZ EP   1   1312 17.73                             108    -0.1 5  356 226 
 TOL  SZ ES   1   1312 56.83                             108     0.3 5  356 226 
 ANIL BZ EP   1   1312 19.50                             107     0.1 5  370 226 
 ANIL BN ES       1313  0.18                             107     0.9 6  370 226 
 PRA  HZ EP   1   1312 22.06                             105    -0.8 4  402 211 
 PRA  HN ES   2   1313  4.02                             105    -1.4 3  402 211 
                                                                                
