 2016  211 1754 55.0 L   6.683 -73.198135.0  RSN  7 0.3 1.6LRSN                1
 GAP=267        0.41       4.9     4.7  5.8  0.9457E+00  0.4787E+01  0.3052E+01E
 Epicentro: VILLANUEVA - SANTANDER                                             3
 ACTION:UPD 16-03-04 21:25 OP:rebc STATUS:               ID:20160211175455 L   I
 OLDACT:DUP 16-02-11 23:25 OP:dnl  STATUS:               ID:20160211174748d    3
 2016-02-11-1747-47M.COL___311                                                 6
 STAT SP IPHASW D HRMM SECON CODA AMPLIT PERI AZIMU VELO AIN AR TRES W  DIS CAZ7
 BAR2 EZ EP   2   1755 12.75                             175   -0.36 5 10.2 170 
 BAR2 EZ ES   2   1755 27.28                             175    0.03 5 10.2 170 
 BAR2 EZ I        1755 29.47         9.1 0.24            156           10.2 170 
 RUS  HZ EP   2   1755 16.69                             145   -0.11 5 88.4 172 
 RUS  HN ES   2   1755 34.25                             145    0.43 5 88.4 172 
 RUS  HZ I        1755 39.23         2.3 0.31            137           88.4 172 
 PTB  HZ EP   2   1755 20.35                             131   -0.02 5  140 264 
 PTB  HN ES   2   1755 40.40                             131    0.22 5  140 264 
 PTB  HZ I        1755 46.75         7.0 0.54            127            140 264 
 SPBC HZ EP   2   1755 21.52                             129    0.16 5  150 220 
 SPBC HN ES   2   1755 41.54                             129   -0.40 5  150 220 
 SPBC HZ I        1755 51.06        10.0 0.24            124            150 220 
 NOR  HZ EP   3   1755 28.82                             118    0.03 2  223 236 
 NOR  HE ES   4   1755 51.08                             118   -4.08 0  223 236 
 NOR  HZ I        1756  2.04         4.9 0.14            116            223 236 
 CHI  HZ EP   2   1755 31.01                             116    0.44 4  235 195 
 CHI  HE ES   2   1755 57.94                             116   -0.39 4  235 195 
 CHI  HZ I        1756  8.83         2.5 0.54            115            235 195 
 GUY2CHZ EP   9   1755 38.71                             111    1.98 0  289 236 
 GUY2CHN ES   2   1756 11.69                                    0.41 4  289 236 
 GUY2CHZ I        1756 19.86         3.2 0.34                           289 236 
                                                                                
