 2012  711 1843 29.7 L   6.696 -73.151147.7  RSN  6 0.3 1.7LRSN                1
 GAP=140        0.73       4.8     4.1  6.3  0.7961E+00  0.4952E+01 -0.3597E+01E
 Epicentro: VILLANUEVA - SANTANDER                                             3
 ACTION:UPD 12-08-14 11:44 OP:ep   STATUS:               ID:20120711184329 L   I
 2012-07-11-1840-00M.COL___193                                                 6
 STAT SP IPHASW D HRMM SECON CODA AMPLIT PERI AZIMU VELO AIN AR TRES W  DIS CAZ7
 BAR2 SZ EP   1   1843 49.52                             175     0.2 7   12 197 
 BAR2 SZ ES   1   1844  4.60                             175    -0.1 7   12 197 
 BAR2 SZ I        1844  7.12         5.4 0.19            175             12 197 
 BRR  HZ EP       1843 51.77                             151     0.410   77 306 
 BRR  HZ I        1844  6.03        19.8 0.45            145             77 306 
 BRR  HN ES   1   1844  8.85                             151     0.6 7   77 306 
 PAM  SZ EP       1843 52.63                             148    -0.110   87  35 
 PAM  SE ES   1   1844 10.21                             148    -0.4 7   87  35 
 RUS  HZ EP   1   1843 52.96                             147     0.1 7   89 175 
 RUS  HE ES   1   1844 10.79                             147    -0.1 7   89 175 
 PTB  HZ EP   1   1843 56.34                             133    -0.3 7  145 263 
 PTB  HE ES   1   1844 17.31                             133    -0.3 7  145 263 
 PTB  HZ I        1844 20.13         4.7 0.18            129            145 263 
 ZAR  HZ EP   1   1844  2.47                             122    -0.2 6  208 295 
 ZAR  HN ES   1   1844 28.08                             122    -0.3 6  208 295 
 ZAR  HZ I        1844 33.97         7.5 0.30            118            208 295 
