 2013  411 1450 21.7 L   6.323 -73.606110.1  RSN 10 0.4 2.5LRSN                1
 GAP= 68        1.05       4.1     3.5  7.3 -0.2993E+01  0.6495E+01  0.9295E+01E
 Epicentro: SANTA HELENA DEL OPON - SANTANDER                                  3
 ACTION:UPD 13-05-22 14:37 OP:EP   STATUS:               ID:20130411145021 L   I
 2013-04-11-1450-00M.COL___245                                                 6
 STAT SP IPHASW D HRMM SECON CODA AMPLIT PERI AZIMU VELO AIN AR TRES W  DIS CAZ7
 BAR2 SZ EP       1450 38.67                             151    0.2110 55.5  58 
 BAR2 SZ ES       1450 51.53                             151    0.0010 55.5  58 
 BAR2 SZ I        1450 53.46       226.9 0.38            149           55.5  58 
 RUS  HZ EP       1450 40.06                             144   -0.0410 75.0 129 
 RUS  HN ES   1   1450 54.35                             144   -0.10 7 75.0 129 
 RUS  HZ I        1450 56.92        72.2 0.26            143           75.0 129 
 BRR  HZ EP       1450 40.26                             139   -0.1110 87.4 352 
 BRR  HZ I        1451  0.46        41.4 0.12            134           87.4 352 
 GIR2 SZ EP       1450 41.39                             136    0.1910 95.2  29 
 GIR2 SZ ES       1450 56.81                             136    0.4010 95.2  29 
 GIR2 SZ I        1450 57.71        46.0 0.34            132           95.2  29 
 PTB  HZ IP     C 1450 40.40                             135   -0.7910 97.0 284 
 PTB  HN ES   1   1450 55.54                             135   -0.85 7 97.0 284 
 PTB  HZ I        1450 58.33        99.1 0.12            131           97.0 284 
 CTAB SZ EP   4   1450 49.16                             120    1.32 0  160 205 
 NOR  HZ EP       1450 47.25                             119   -0.44 9  163 239 
 NOR  HE ES       1451  8.51                             119    0.54 9  163 239 
 NOR  HZ I        1451 10.63        86.1 0.18            117            163 239 
 CHI  HZ EP       1450 50.82                             116   -0.01 9  188 184 
 CHI  HN ES   1   1451 13.69                             116    0.15 7  188 184 
 CHI  HZ I        1451 18.32        11.3 0.60            114            188 184 
 TAM  HZ EP       1450 51.50                             114   -0.33 9  201  86 
 TAM  HE ES   4   1451 13.07                             114   -2.26 0  201  86 
 HEL  HZ EP       1450 54.51                             112    0.90 8  213 266 
 HEL  HN ES   1   1451 19.04                             112    0.55 6  213 266 
 HEL  HZ I        1451 22.66        26.7 0.20            109            213 266 
 PRA  HZ EP       1451  5.64                             103   -0.17 7  322 206 
 PRA  HE ES   4   1451 42.16                             103    1.95 0  322 206 
 PRA  HZ I        1451 46.58        28.1 0.20            101            322 206 
                                                                                
