 2011  311 1803 11.3 L   6.339 -73.620105.9  RSN  6 0.2 1.5LRSN                1
 GAP=109        0.54       3.8     3.5  6.9 -0.8050E+01  0.1393E+02 -0.9532E+01E
 Epicentro: SANTA HELENA DEL OPON - SANTANDER                                  3
 ACTION:UP  11-06-16 14:33 OP:jfem STATUS:               ID:20110311180311 L   I
 2011-03-11-1800-03S.COL___135                                                 6
 STAT SP IPHASW D HRMM SECON CODA AMPLIT PERI AZIMU VELO SNR AR TRES W  DIS CAZ7
 BAR2 SZ EP       18 3 27.75                             150     0.110   56  60 
 BAR2 SZ ES   1   18 3 40.25                             150    -0.1 7   56  60 
 BAR2 SZ I        18 3 41.95        17.9 0.14                            56  60 
 RUS  HZ EP       18 3 29.64                             141     0.210   77 130 
 RUS  HZ I        18 3 29.74         3.6 0.22                            77 130 
 RUS  HN ES   2   18 3 43.42                             141    -0.2 5   77 130 
 NOR  SZ EP   1   18 3 36.97                             118    -0.1 7  163 238 
 NOR  SN ES   1   18 3 56.81                             118    -0.3 7  163 238 
 GRA  SZ EP   1   18 3 39.95                             113    -0.5 7  193  28 
 GRA  SZ ES   1   18 4  3.44                             113     0.2 7  193  28 
 GRA  SZ I        18 4  5.19         4.8 0.26                           193  28 
 HEL  HZ EP   1   18 3 43.13                             111     0.3 6  212 266 
 HEL  HN ES   2   18 4  7.67                             111     0.2 4  212 266 
 HEL  HZ I        18 4 18.45         4.4 0.35                           212 266 
 OCA  SZ EP   3   18 3 42.23                             111    -0.5 2  213   9 
                                                                                
