 2013  511 1121 55.2 L   6.791 -73.141152.5  RSN  6 0.3 1.8LRSN                1
 GAP=137        0.74       4.1     4.5  6.2 -0.8196E+00  0.3326E+01 -0.4576E+00E
 Epicentro: LOS SANTOS - SANTANDER                                             3
 ACTION:UPD 13-06-20 09:49 OP:ep   STATUS:               ID:20130511112155 L   I
 2013-05-11-1120-00M.COL___256                                                 6
 STAT SP IPHASW D HRMM SECON CODA AMPLIT PERI AZIMU VELO AIN AR TRES W  DIS CAZ7
 BAR2 SZ EP   1   1122 15.53                             171   -0.07 7 22.5 192 
 BAR2 SZ ES   1   1122 31.54                             171    0.00 7 22.5 192 
 BAR2 SZ I        1122 33.90        11.9 0.36            172           22.5 192 
 BRR  HZ EP       1122 17.50                             153    0.3910 72.1 299 
 BRR  HN ES       1122 34.73                             153    0.5210 72.1 299 
 BRR  HZ I        1122 40.29         8.8 0.30            154           72.1 299 
 PAM  SZ EP       1122 18.22                             152    0.0810 77.8  39 
 PAM  SZ I        1122 18.43        12.1 0.18            156           77.8  39 
 PAM  SN ES       1122 35.78                             152   -0.2710 77.8  39 
 RUS  HZ EP   1   1122 19.45                             146   -0.08 7 99.6 176 
 RUS  HE ES   1   1122 38.38                             146   -0.14 7 99.6 176 
 RUS  HZ I        1122 40.67         6.3 0.46            149           99.6 176 
 PTB  HZ EP   1   1122 22.58                             133   -0.15 7  148 259 
 PTB  HN ES   1   1122 43.65                             133   -0.57 7  148 259 
 PTB  HZ I        1122 45.56         9.0 0.12            136            148 259 
 SML  HE ES   1   1123  0.70                             119   -0.57 6  245 335 
                                                                                
