 2011  311 1741  6.2 L   6.793 -73.174136.3  RSN  4 0.3 1.2LRSN                1
 GAP=156        0.43       4.4     8.2  5.5 -0.2719E+02  0.1331E+02 -0.8267E+01E
 Epicentro: LOS SANTOS - SANTANDER                                             3
 ACTION:UP  11-06-16 14:33 OP:jfem STATUS:               ID:20110311174106 L   I
 2011-03-11-1738-27S.COL___135                                                 6
 STAT SP IPHASW D HRMM SECON CODA AMPLIT PERI AZIMU VELO SNR AR TRES W  DIS CAZ7
 BAR2 SZ EP   1   1741 24.85                             170     0.2 8   22 183 
 BAR2 SZ ES   1   1741 38.89                             170    -0.2 8   22 183 
 BAR2 SZ I        1741 41.80        11.1 0.19                            22 183 
 RUS  HZ EP   2   1741 28.79                             141    -0.2 5  100 174 
 RUS  HE ES   3   1741 46.78                             141     0.0 3  100 174 
 GRA  SZ EP       1741 30.84                             134     0.110  127  19 
 GRA  SZ ES   1   1741 49.76                             134    -0.1 7  127  19 
 GRA  SZ I        1741 51.72         3.5 0.35                           127  19 
 NOR  SZ EP   3   1741 40.09                             116    -1.0 2  232 234 
 NOR  SE ES   2   1742  8.38                             116     0.1 4  232 234 
 NOR  SZ I        1742 12.77         0.3 0.38                           232 234 
                                                                                
