 2015 1011 1015 12.5 L   6.782 -73.146154.6  RSN  8 0.3 1.7LRSN                1
 GAP=137        0.76       2.9     3.9  5.7 -0.1584E+00  0.4663E+01 -0.3278E+01E
 Epicentro: LOS SANTOS - SANTANDER                                             3
 ACTION:UPD 15-12-22 20:39 OP:cam  STATUS:               ID:20151011101512 L   I
 OLDACT:REG 15-10-11 20:34 OP:spq  STATUS:               ID:20151011100743     3
 2015-10-11-1007-43M.COL___340                                                 6
 STAT SP IPHASW D HRMM SECON CODA AMPLIT PERI AZIMU VELO AIN AR TRES W  DIS CAZ7
 BAR2 EZ EP       1015 33.12                             172   -0.0810 21.4 191 
 BAR2 EZ ES   1   1015 48.90                             172   -0.41 7 21.4 191 
 BAR2 EZ I        1015 49.26        10.5 0.28            172           21.4 191 
 BRR  HZ EP     C 1015 34.97                             154    0.2610 72.2 300 
 BRR  HE ES       1015 52.53                             154    0.5410 72.2 300 
 BRR  HZ I        1015 56.83         5.7 0.46            151           72.2 300 
 PAM  EZ EP       1015 36.03                             152    0.2410 78.9  39 
 PAM  EN ES       1015 53.77                             152   -0.1610 78.9  39 
 PAM  EZ I        1015 55.79         5.1 0.44            154           78.9  39 
 RUS  HZ EP   1   1015 37.48                             146    0.44 7 98.6 176 
 RUS  HN ES   1   1015 55.88                             146   -0.26 7 98.6 176 
 RUS  HZ I        1015 56.61         3.6 0.26            149           98.6 176 
 OCA  HE ES   1   1016  4.74                             131    0.24 7  162 353 
 OCA  HZ I        1016  6.50         8.9 0.28            132            162 353 
 SPBC HN ES       1016  4.00                             131   -0.26 9  162 219 
 SPBC HZ I        1016  6.50         5.1 0.12            133            162 219 
 ZAR  HZ EP   1   1015 45.77                             124    0.11 6  205 293 
 ZAR  HE ES       1016 11.46                             124   -0.03 9  205 293 
 ZAR  HZ I        1016 17.19         3.6 0.26            124            205 293 
 SML  HZ EP       1015 49.52                             119   -0.35 8  245 335 
 SML  HE ES       1016 18.40                             119   -0.59 8  245 335 
 SML  HZ I        1016 22.13         5.4 0.10            120            245 335 
                                                                                
