 2015 1111 1800 31.0 L   6.840 -73.110140.7  RSN  7 0.4 1.9LRSN                1
 GAP=139        1.01       3.7     4.8  6.2  0.1186E+01  0.1138E+02 -0.1625E+01E
 Epicentro: LOS SANTOS - SANTANDER                                             3
 ACTION:UPD 15-12-28 16:10 OP:cam  STATUS:               ID:20151111180031 L   I
 OLDACT:UP  15-11-12 00:53 OP:ak   STATUS:               ID:20151111175749     3
 OLDACT:UP  15-11-12 00:52 OP:ak   STATUS:               ID:20151111175749     3
 OLDACT:UP  15-11-12 00:51 OP:ak   STATUS:               ID:20151111175749     3
 OLDACT:REG 15-11-11 22:16 OP:cara STATUS:               ID:20151111175749     3
 2015-11-11-1757-49M.COL___313                                                 6
 STAT SP IPHASW D HRMM SECON CODA AMPLIT PERI AZIMU VELO AIN AR TRES W  DIS CAZ7
 BAR2 EZ EP       18 0 50.14                             168   -0.0110 28.5 196 
 BAR2 EZ ES       18 1  4.65                             168   -0.4310 28.5 196 
 BAR2 EZ I        18 1  6.51        14.5 0.20            170           28.5 196 
 PAM  EZ EP       18 0 53.06                             152    0.7210 71.4  39 
 PAM  EN ES       18 1  9.25                             152    0.2810 71.4  39 
 PAM  EZ I        18 1 12.58         8.3 0.34            152           71.4  39 
 BRR  HZ EP       18 0 51.99                             151    0.2810 72.8 294 
 BRR  HE ES       18 1  7.97                             151    0.1210 72.8 294 
 RUS  HZ EP       18 0 54.22                             141   -0.3610  105 178 
 RUS  HE ES       18 1 12.76                             141   -0.2110  105 178 
 RUS  HZ I        18 1 14.64         5.5 0.34            146            105 178 
 ZAR  HZ EP       18 1  2.86                             121   -0.49 8  206 291 
 ZAR  HE ES       18 1 28.41                             121   -0.16 8  206 291 
 ZAR  HZ I        18 1 35.69         8.1 0.29            122            206 291 
 SML  HZ EP       18 1  6.53                             117   -0.58 8  241 334 
 SML  HN ES       18 1 35.13                             117   -0.13 8  241 334 
 SML  HZ I        18 1 42.30        12.3 0.09            117            241 334 
 GUY2CHZ EP       18 1 15.16                             111    0.11 7  307 235 
 GUY2CHE ES       18 1 50.33                             111    0.93 7  307 235 
 GUY2CHZ I        18 1 56.54         4.7 0.58                           307 235 
 MON  HZ EP   4   18 1 17.11                             108   -2.76 0  354 307 
 MON  HE ES   4   18 1 54.57                             108   -3.41 0  354 307 
                                                                                
