 2010 1011 1229  4.9 L   6.745 -73.067137.2  RSN  6 0.4 1.9LRSN                1
 GAP=185        0.80       6.3    13.4 11.0 -0.2792E+02 -0.5120E+02  0.1153E+02E
 Epicentro: JORDAN - SANTANDER                                                 3
 ACTION:UP  11-02-18 11:09 OP:tino STATUS:               ID:20101011122904 L   I
 2010-10-11-1226-30S.COL___121                                                 6
 STAT SP IPHASW D HRMM SECON CODA AMPLIT PERI AZIMU VELO SNR AR TRES W  DIS CAZ7
 BAR2 SZ EP   1   1229 23.41                             171     0.0 7   21 217 
 BAR2 SZ ES   2   1229 37.90                             171     0.0 5   21 217 
 BAR2 SZ I        1229 39.63        11.7 0.37                            21 217 
 BTL  SZ EP   1   1229 23.37                             169    -0.2 7   29 311 
 BRR  HZ IP     C 1229 25.25                             149    -0.510   82 299 
 BRR  HZ I        1229 25.53        23.3 0.16                            82 299 
 BRR  HN ES   2   1229 42.88                             149     0.8 5   82 299 
 GUE  SZ EP   1   1229 29.34                             137     0.2 7  121   7 
 GRA  SZ EP   1   1229 30.09                             134     0.4 7  129  13 
 CHI  HZ EP   1   1229 42.07                             116     0.3 6  245 198 
 CHI  HN ES   2   1230 10.81                             116     0.3 4  245 198 
                                                                                
