 2013  611 1127 26.5 L   6.777 -73.220152.7  RSN  4 0.1 1.5LRSN                1
 GAP=224        0.40       3.9     3.6  4.8  0.7578E+01 -0.1219E+00  0.2283E+01E
 Epicentro: ZAPATOCA - SANTANDER                                               3
 ACTION:UPD 14-01-08 09:54 OP:ep   STATUS:               ID:20130611112727dL   I
 OLDACT:DUP 13-06-11 16:31 OP:mh   STATUS:               ID:20130611111960d    3
 OLDACT:REG 13-06-11 14:25 OP:mh   STATUS:               ID:20130611111959     3
 2013-06-11-1119-59M.COL___260                                                 6
 STAT SP IPHASW D HRMM SECON CODA AMPLIT PERI AZIMU VELO AIN AR TRES W  DIS CAZ7
 BAR2 SZ EP   1   1127 46.69                             172   -0.26 7 20.8 168 
 BRR  HN ES       1128  5.05                             156    0.0710 65.5 304 
 RUS  HZ EP   1   1127 50.96                             146    0.10 7 99.0 171 
 RUS  HN ES       1128  9.86                             146    0.0310 99.0 171 
 RUS  HZ I        1128 10.89         2.0 0.28            142           99.0 171 
 PTB  HZ EP   1   1127 53.49                             135    0.16 7  139 259 
 PTB  HN ES       1128 14.12                             135   -0.10 9  139 259 
 PTB  HN I        1128 19.80        11.3 0.26            131            139 259 
                                                                                
