 2014  511 1911 40.8 L   6.680 -73.120141.6  RSN  4 0.1 1.2LRSN                1
 GAP=145        0.40       2.2     2.6  4.4 -0.2108E+01  0.2852E+01 -0.4158E+00E
 Epicentro: JORDAN - SANTANDER                                                 3
 ACTION:UPD 15-03-16 16:56 OP:nd   STATUS:               ID:20140511191140 L   I
 OLDACT:UP  14-05-12 01:24 OP:mh   STATUS:               ID:20140511191000     3
 OLDACT:UP  14-05-12 01:24 OP:mh   STATUS:               ID:20140511191000     3
 OLDACT:REG 14-05-11 21:15 OP:mh   STATUS:               ID:20140511191000     3
 2014-05-11-1910-00M.COL___273                                                 6
 STAT SP IPHASW D HRMM SECON CODA AMPLIT PERI AZIMU VELO AIN AR TRES W  DIS CAZ7
 BRR  HZ EP       1912  2.07                             149   -0.0010 80.7 306 
 BRR  HN ES       1912 18.78                             149    0.1110 80.7 306 
 BRR  HZ I        1912 19.64         4.7 0.09            154           80.7 306 
 PAM  SZ EP       1912  3.26                             147    0.1210 86.4  32 
 PAM  SN ES       1912 20.39                             147   -0.1810 86.4  32 
 PAM  SZ I        1912 22.97         3.9 0.39            150           86.4  32 
 RUS  HN ES       1912 20.73                             147    0.0510 87.2 177 
 RUS  HZ I        1912 24.76         1.3 0.22            147           87.2 177 
 NOR  HN ES       1912 42.86                             118   -0.15 8  230 238 
                                                                                
