 2013  311 1032 48.9 L   6.737 -73.183139.9  RSN  5 0.2 1.6LRSN                1
 GAP=228        0.49       5.6     5.0  5.5  0.1718E+02  0.7515E+01  0.5029E+01E
 Epicentro: VILLANUEVA - SANTANDER                                             3
 ACTION:UPD 13-04-09 14:01 OP:ep   STATUS:               ID:20130311103248 L   I
 2013-03-11-1030-00M.COL___231                                                 6
 STAT SP IPHASW D HRMM SECON CODA AMPLIT PERI AZIMU VELO AIN AR TRES W  DIS CAZ7
 BAR2 SZ ES   1   1033 22.00                             173   -0.33 7 16.0 180 
 BAR2 SZ I        1033 24.24         9.5 0.22            165           16.0 180 
 BRR  HZ EP   1   1033  9.70                             151    0.29 7 71.4 305 
 BRR  HN ES   1   1033 25.59                             151    0.17 7 71.4 305 
 BRR  HN I        1033 27.07        10.7 0.26            148           71.4 305 
 RUS  HZ EP   1   1033 11.61                             144    0.03 7 94.0 173 
 RUS  HN ES   2   1033 29.55                             144    0.27 5 94.0 173 
 RUS  HN I        1033 31.14         2.8 0.24            143           94.0 173 
 PTB  HZ EP   1   1033 14.58                             132   -0.31 7  143 261 
 PTB  HN ES   1   1033 35.31                             132    0.13 7  143 261 
 PTB  HN I        1033 40.53         4.7 0.30            129            143 261 
 ZAR  HE ES   1   1033 45.61                             121   -0.17 6  203 294 
 ZAR  HE I        1033 51.86         5.2 0.29            121            203 294 
                                                                                
