 2013 1111 1600 13.5 L   6.673 -73.232127.7  RSN  5 0.5 1.6LRSN                1
 GAP=196        1.26       8.8     8.5 10.1  0.3802E+02  0.2978E+02 -0.7398E+01E
 Epicentro: BARICHARA - SANTANDER                                              3
 ACTION:UPD 14-01-09 16:27 OP:ep   STATUS:               ID:20131111160013 L   I
 OLDACT:REG 13-11-11 16:02 OP:stll STATUS:               ID:20131111160000     3
 2013-11-11-1600-00M.COL___273                                                 6
 STAT SP IPHASW D HRMM SECON CODA AMPLIT PERI AZIMU VELO AIN AR TRES W  DIS CAZ7
 BAR2 SZ EP       16 0 30.57                             175   -0.1310 10.5 148 
 BAR2 SZ ES       16 0 43.55                             175   -0.6110 10.5 148 
 BAR2 SZ I        16 0 46.79        11.7 0.38            175           10.5 148 
 BRR  HZ IP     C 16 0 32.48                             149   -0.2310 71.5 312 
 BRR  HZ I        16 0 32.71         9.4 0.26            146           71.5 312 
 BRR  HN ES       16 0 48.65                             149    0.9310 71.5 312 
 RUS  HN ES       16 0 51.14                             144    0.2010 87.9 169 
 PTB  HZ EP       16 0 38.23                             130    0.31 9  136 264 
 PTB  HN ES       16 0 56.93                             130   -0.06 9  136 264 
 PTB  HZ I        16 1  0.42         5.7 0.18            130            136 264 
 ZAR  HZ EP       16 0 44.82                             118    0.33 9  201 297 
 ZAR  HN ES       16 1  7.83                             118   -0.86 9  201 297 
 ZAR  HZ I        16 1 18.35         4.2 0.12            119            201 297 
                                                                                
