 2011  311 1556 55.5 L   6.782 -73.135138.9  RSN 13 0.5 2.8LRSN                1
 GAP=104        0.97       3.4     4.7  5.8 -0.1568E+01  0.7559E+01 -0.1969E+00E
 Epicentro: LOS SANTOS - SANTANDER                                             3
 ACTION:UP  11-06-16 14:33 OP:jfem STATUS:               ID:20110311155655 L   I
 2011-03-11-1556-00S.COL___132                                                 6
 STAT SP IPHASW D HRMM SECON CODA AMPLIT PERI AZIMU VELO SNR AR TRES W  DIS CAZ7
 BAR2 SZ IP       1557 14.74                             171     0.510   22 194 
 BAR2 SZ I        1557 15.08       210.8 0.10                            22 194 
 BAR2 SZ ES       1557 29.04                             171     0.110   22 194 
 RUS  HZ EP       1557 18.69                             143     0.310   99 177 
 RUS  HZ I        1557 19.42        63.8 0.27                            99 177 
 RUS  HN ES   1   1557 35.83                             143    -0.5 7   99 177 
 OCA  SZ EP       1557 23.13                             128    -0.4 9  162 353 
 OCA  SZ ES   1   1557 45.30                             128     0.0 7  162 353 
 OCA  SZ I        1557 48.36        81.4 0.37                           162 353 
 YOP  SZ EP       1557 25.26                             125     0.4 9  177 153 
 YOP  SN ES   1   1557 47.44                             125    -0.3 7  177 153 
 YOP  SZ I        1557 51.40        42.6 0.48                           177 153 
 NOR  SZ EP       1557 30.73                             117    -0.1 8  235 235 
 NOR  SN ES   1   1557 58.02                             117    -0.4 6  235 235 
 CHI  HZ EP   1   1557 33.10                             116     0.4 6  247 196 
 CHI  HE ES   1   1558  1.71                             116     0.1 6  247 196 
 CHI  HZ I        1558  8.91        25.4 0.43                           247 196 
 HEL  HZ EP   1   1557 36.24                             113     0.8 6  273 256 
 HEL  HE ES   1   1558  6.18                             113    -0.4 6  273 256 
 HEL  HZ I        1558 13.85        60.7 0.47                           273 256 
 GUY  SZ EP   2   1557 38.95                             111     0.1 4  301 235 
 GUY  SN ES   2   1558 11.74                             111    -0.8 4  301 235 
 GUY  SZ I        1558 18.86        63.0 0.40                           301 235 
 VIL  SZ EP   1   1557 37.76                             111    -0.7 5  302 192 
 VIL  SN ES   1   1558 11.24                             111    -0.7 5  302 192 
 VIL  SZ I        1558 17.56        25.2 0.42                           302 192 
 DBB  SZ EP       1557 42.98                             108     0.1 7  341 275 
 TOL  SZ EP       1557 44.23                             108     0.8 7  343 225 
 SDV  BZ EP       1557 44.55                             107    -0.8 6  361  50 
 SDV  BZ I        1557 45.32        22.9 0.13                           361  50 
 PRA  HZ EP       1557 48.21                             105    -0.5 6  391 210 
 PRA  HN ES   1   1558 30.10                             105     0.0 4  391 210 
                                                                                
