 2016  811 1614 51.9 L   6.748 -73.155144.7  RSN  6 0.3 1.7LRSN                1
 GAP=138        1.12       5.9     5.1  8.4 -0.1687E+01  0.1328E+02 -0.1024E+02E
 Epicentro: LOS SANTOS - SANTANDER                                             3
 ACTION:UPD 16-10-29 15:34 OP:rebc STATUS:               ID:20160811161451 L   I
 OLDACT:REG 16-08-11 20:56 OP:lv   STATUS:               ID:20160811160759     3
 2016-08-11-1607-59S.COL___340                                                 6
 STAT SP IPHASW D HRMM SECON CODA AMPLIT PERI AZIMU VELO AIN AR TRES W  DIS CAZ7
 BAR2 EZ EP       1615 11.18                             173   -0.1310 17.5 190 
 BAR2 EZ ES       1615 26.94                             173    0.5010 17.5 190 
 PAM  EZ EP       1615 14.30                             149   -0.0310 82.5  38 
 PAM  EN ES       1615 31.73                             149   -0.0910 82.5  38 
 PAM  EZ I        1615 34.62         6.4 0.38                          82.5  38 
 RUS  HZ EP       1615 15.38                             146    0.2310 94.9 175 
 RUS  HE ES       1615 33.03                             146   -0.2510 94.9 175 
 RUS  HZ I        1615 33.91         5.3 0.40                          94.9 175 
 PTB  HZ EP       1615 18.14                             132   -0.47 9  146 261 
 PTB  HN ES       1615 38.95                             132   -0.48 9  146 261 
 PTB  HZ I        1615 44.23         5.8 0.15                           146 261 
 ZAR  HZ EP       1615 24.96                             122    0.54 8  205 294 
 ZAR  HN ES       1615 50.08                             122    0.30 8  205 294 
 ZAR  HZ I        1615 55.46         7.0 0.19                           205 294 
 GUY2CHZ EP   9   1615 37.38                             113    2.38 0  297 236 
 GUY2CHN ES       1616 12.27                                    1.28 7  297 236 
 GUY2CHZ I        1616 17.64         3.5 0.60                           297 236 
                                                                                
