 2014 1111 1131 34.3 L   7.464 -73.500111.3  RSN  5 0.3 1.4LRSN                1
 GAP=147        0.81       3.7     3.8  6.7 -0.4088E+01 -0.1802E+00  0.9207E+01E
 Epicentro: SABANA DE TORRES - SANTANDER                                       3
 ACTION:UPD 14-12-19 15:42 OP:nd   STATUS:               ID:20141111113134 L   I
 OLDACT:UP  14-11-11 22:31 OP:cam  STATUS:               ID:20141111112813d    3
 OLDACT:DUP 14-11-11 22:28 OP:cam  STATUS:               ID:20141111112813d    3
 OLDACT:REG 14-11-11 19:30 OP:cam  STATUS:               ID:20141111112812     3
 2014-11-11-1128-12M.COL___292                                                 6
 STAT SP IPHASW D HRMM SECON CODA AMPLIT PERI AZIMU VELO AIN AR TRES W  DIS CAZ7
 BRR  HZ EP       1131 50.44                             156    0.0810 45.9 211 
 BRR  HN ES       1132  3.35                             156    0.4910 45.9 211 
 BRR  HZ I        1132  4.30        15.1 0.34            157           45.9 211 
 OCA  HN ES       1132  8.18                             139   -0.0310 87.9  13 
 OCA  HZ I        1132 10.08         7.4 0.22            140           87.9  13 
 PAM  SZ EP     D 1131 53.97                             139    0.0210 89.4  99 
 PAM  SN ES       1132  8.88                             139   -0.3710 89.4  99 
 PAM  SZ I        1132 10.22         4.4 0.16            141           89.4  99 
 PTB  HZ EP     D 1131 58.63                             123   -0.05 9  147 226 
 PTB  HN ES       1132 17.13                             123   -0.53 9  147 226 
 PTB  HZ I        1132 18.78         3.8 0.26            125            147 226 
 RUS  HZ EP       1132  3.19                             117    0.44 9  180 165 
 RUS  HN ES       1132 24.85                             117   -0.06 9  180 165 
 RUS  HZ I        1132 25.30         1.3 0.26            119            180 165 
                                                                                
