 2011  311 1233  4.6 L   6.773 -73.060140.6  RSN  4 0.5 1.7LRSN                1
 GAP=169        1.13       7.8    12.0 13.8 -0.5700E+02  0.5624E+02 -0.2552E+02E
 Epicentro: LOS SANTOS - SANTANDER                                             3
 ACTION:UP  11-06-16 14:33 OP:jfem STATUS:               ID:20110311123304 L   I
 2011-03-11-1231-30S.COL___135                                                 6
 STAT SP IPHASW D HRMM SECON CODA AMPLIT PERI AZIMU VELO SNR AR TRES W  DIS CAZ7
 BAR2 SZ EP       1233 23.58                             170     0.010   24 214 
 BAR2 SZ ES   1   1233 38.37                             170    -0.1 7   24 214 
 BAR2 SZ I        1233 39.98        15.7 0.28                            24 214 
 RUS  HZ EP   1   1233 28.34                             144     0.8 7   97 181 
 RUS  HN ES   1   1233 45.16                             144    -0.4 7   97 181 
 RUS  HZ I        1233 46.87         4.7 0.28                            97 181 
 GRA  SZ EP   1   1233 28.54                             136    -0.8 7  126  13 
 GRA  SZ ES   1   1233 49.26                             136     0.5 7  126  13 
 GRA  SZ I        1233 50.23         7.8 0.38                           126  13 
 NOR  SE ES       1234  8.87                             117     0.0 8  241 236 
                                                                                
