 2011  511 1447 19.4 L   6.750 -73.086146.0  RSN 11 0.3 1.9LRSN                1
 GAP=163        0.59       3.8     5.3  4.9 -0.8188E+01 -0.1825E+01  0.3516E+01E
 Epicentro: LOS SANTOS - SANTANDER                                             3
 ACTION:UP  11-06-29 08:52 OP:tino STATUS:               ID:20110511144719 L   I
 2011-05-11-1445-47S.COL___129                                                 6
 STAT SP IPHASW D HRMM SECON CODA AMPLIT PERI AZIMU VELO SNR AR TRES W  DIS CAZ7
 BAR2 SZ EP   1   1447 39.01                             172     0.0 7   20 211 
 BAR2 SZ ES   2   1447 54.34                             172     0.0 5   20 211 
 BAR2 SZ I        1447 56.86        21.1 0.40                            20 211 
 BTL  SZ EP   1   1447 39.27                             169     0.1 7   27 313 
 BTL  SZ ES   1   1447 54.71                             169     0.1 7   27 313 
 GIR2 SZ EP   2   1447 39.28                             165    -0.1 5   38 342 
 BRR  HZ IP     C 1447 40.89                             150    -0.210   80 300 
 BRR  HZ I        1447 41.09        31.5 0.13                            80 300 
 BRR  HN ES   1   1447 57.99                             150     0.0 7   80 300 
 RUS  HZ EP   1   1447 42.38                             145    -0.4 7   95 180 
 RUS  HN ES   2   1448  1.49                             145     0.5 5   95 180 
 RUS  HZ I        1448  3.71         6.8 0.22                            95 180 
 BRI  SZ EP   1   1447 44.10                             141     0.5 7  112  17 
 BRI  SZ ES   2   1448  1.87                             141    -0.5 5  112  17 
 BRI  SZ I        1448  7.29         7.6 0.42                           112  17 
 GRA  SZ EP   1   1447 45.01                             136     0.0 7  129  14 
 GRA  SZ ES   2   1448  4.87                             136    -0.1 5  129  14 
 GRA  SZ I        1448 11.84         8.5 0.40                           129  14 
 NOR  SN ES   2   1448 23.10                             118    -0.4 4  237 236 
 HEL  HZ EP   2   1448  0.84                             114     0.6 4  277 257 
 HEL  HZ I        1448 37.95         7.3 0.49                           277 257 
 RREF HE ES   2   1448 42.07                             111     0.2 3  323 231 
 RREF HZ I        1448 50.87         5.5 0.31                           323 231 
 PRA  HZ EP   1   1448 12.83                             107     0.1 4  390 211 
                                                                                
