 2013  711 1810 28.8 L   6.774 -73.171150.6  RSN  8 0.4 2.3LRSN                1
 GAP=136        1.07       4.5     5.1  6.9  0.2531E+01 -0.1695E+00 -0.2833E+01E
 Epicentro: LOS SANTOS - SANTANDER                                             3
 ACTION:UPD 13-08-12 10:37 OP:ep   STATUS:               ID:20130711181028 L   I
 OLDACT:REG 13-07-11 16:02 OP:stll STATUS:               ID:20130711180851     3
 2013-07-11-1808-51M.COL___219                                                 6
 STAT SP IPHASW D HRMM SECON CODA AMPLIT PERI AZIMU VELO AIN AR TRES W  DIS CAZ7
 BAR2 SZ IP     D 1810 49.02                             172    0.1110 20.2 184 
 BAR2 SZ ES       1811  4.17                             172   -0.4610 20.2 184 
 BAR2 SZ I        1811  5.58        16.3 0.36            172           20.2 184 
 GIR2 SZ EP       1810 48.99                             167   -0.0810 33.8 356 
 GIR2 SZ ES       1811  4.81                             167   -0.1110 33.8 356 
 BRR  HZ IP     C 1810 50.88                             154    0.5010 70.2 302 
 BRR  HN ES       1811  8.06                             154    0.8210 70.2 302 
 BRR  HN I        1811  9.22        58.3 0.20            152           70.2 302 
 RUS  HZ EP       1810 53.34                             145    0.5310 98.0 174 
 RUS  HN ES       1811 11.28                             145   -0.2910 98.0 174 
 RUS  HN I        1811 12.22        17.8 0.36            147           98.0 174 
 PTB  HZ EP       1810 55.64                             134   -0.20 9  145 260 
 PTB  HN ES       1811 16.94                             134   -0.02 9  145 260 
 PTB  HN I        1811 22.22        33.0 0.34            133            145 260 
 CAPV BZ EP       1810 56.55                             132   -0.35 9  153  38 
 OCA  HN ES       1811 20.22                             130   -0.02 9  163 354 
 OCA  HN I        1811 22.78        71.1 0.22            131            163 354 
 ZAR  HE ES       1811 26.12                             124   -0.69 9  203 293 
                                                                                
