 2012  611 1930 28.4 L   6.780 -73.157143.8  RSN  5 0.2 1.5LRSN                1
 GAP=136        0.52       5.1     3.8  7.4  0.6730E+01 -0.2981E+01 -0.1609E+02E
 Epicentro: LOS SANTOS - SANTANDER                                             3
 ACTION:UPD 12-08-06 17:48 OP:ep   STATUS:               ID:20120611193028 L   I
 2012-06-11-1930-00M.COL___201                                                 6
 STAT SP IPHASW D HRMM SECON CODA AMPLIT PERI AZIMU VELO AIN AR TRES W  DIS CAZ7
 BAR2 SZ EP   1   1930 47.55                             171   -0.16 7 20.9 188 
 BAR2 SZ ES   1   1931  3.06                             171    0.26 7 20.9 188 
 BAR2 SZ I        1931  4.17        11.3 0.34            166           20.9 188 
 PAM  SZ EP   1   1930 50.40                             150   -0.12 7 79.9  39 
 RUS  HZ EP   1   1930 52.15                             144    0.39 7 98.4 175 
 RUS  HE ES   1   1931  9.68                             144   -0.34 7 98.4 175 
 RUS  HZ I        1931 11.36         4.7 0.27            143           98.4 175 
 PTB  HN ES   1   1931 15.81                             132    0.01 7  146 260 
 PTB  HZ I        1931 22.63         3.2 0.38            128            146 260 
 ZAR  HE ES   1   1931 25.76                             122   -0.06 6  204 293 
 ZAR  HZ I        1931 31.43         3.6 0.21            120            204 293 
                                                                                
