 2015  811 1954  9.9 L   7.076 -73.455102.7  RSN  7 0.4 2.1LRSN                1
 GAP= 91        1.03       3.5     4.0  6.9  0.1110E+01  0.7549E+01 -0.2006E+01E
 Epicentro: SAN VICENTE DE CHUCURI - SANTANDER                                 3
 ACTION:UPD 15-09-15 23:01 OP:cam  STATUS:               ID:20150811195409 L   I
 OLDACT:UP  15-08-12 01:54 OP:ar   STATUS:               ID:20150811194750     3
 OLDACT:REG 15-08-11 21:52 OP:ar   STATUS:               ID:20150811194750     3
 2015-08-11-1947-50M.COL___301                                                 6
 STAT SP IPHASW D HRMM SECON CODA AMPLIT PERI AZIMU VELO AIN AR TRES W  DIS CAZ7
 BRR  HZ EP     C 1954 23.69                             163   -0.5110 28.6 277 
 BRR  HN ES       1954 35.46                             163    0.1110 28.6 277 
 BRR  HZ I        1954 38.68        31.6 0.22            163           28.6 277 
 BAR2 EZ EP       1954 25.85                             147   -0.4110 61.4 151 
 BAR2 EZ ES       1954 38.58                             147   -0.4210 61.4 151 
 BAR2 EZ I        1954 40.28        48.3 0.20            154           61.4 151 
 PAM  EZ EP       1954 28.94                             136    0.2810 88.4  71 
 PAM  EE ES       1954 43.87                             136    0.5810 88.4  71 
 PAM  EZ I        1954 45.50        12.0 0.18            139           88.4  71 
 OCA  HN ES       1954 49.23                             124   -0.1110  129   7 
 OCA  HZ I        1954 57.13        39.2 0.30            125            129   7 
 ZAR  HZ EP       1954 35.17                             117   -0.08 9  162 287 
 ZAR  HN ES       1954 55.55                             117    0.53 9  162 287 
 ZAR  HZ I        1954 57.86        22.7 0.24            120            162 287 
 SML  HZ EP       1954 39.30                             111   -0.49 9  203 340 
 SML  HN ES   2   1955  3.45                             111    0.36 4  203 340 
 SML  HZ I        1955  6.05        32.0 0.10            113            203 340 
 URE  HN ES   4   1955 13.92                             107    2.84 0  241 288 
 CHI  HN ES       1955 19.12                             104    0.68 8  272 186 
                                                                                
