 2012  111 1021 48.3 L   6.756 -73.180145.5  RSN  5 0.2 1.3LRSN                1
 GAP=134        0.54       3.9     3.3  6.0 -0.1896E+00  0.5571E+01 -0.2028E+01E
 Epicentro: VILLANUEVA - SANTANDER                                             3
 ACTION:UP  12-02-03 08:16 OP:REBC STATUS:               ID:20120111102148 L   I
 2012-01-11-1020-00M.COL___187                                                 6
 STAT SP IPHASW D HRMM SECON CODA AMPLIT PERI AZIMU VELO SNR AR TRES W  DIS CAZ7
 BAR2 SZ EP       1022  7.85                             173     0.010   18 181 
 BAR2 SZ ES   1   1022 23.20                             173     0.2 7   18 181 
 BAR2 SZ I        1022 24.61         4.6 0.26                            18 181 
 PAM  SZ EP   1   1022 11.06                             149     0.2 7   84  39 
 PAM  SE ES   1   1022 28.18                             149    -0.3 7   84  39 
 RUS  HZ EP   1   1022 11.56                             145    -0.2 7   96 174 
 RUS  HN ES   1   1022 30.14                             145     0.2 7   96 174 
 RUS  HZ I        1022 31.68         3.0 0.37                            96 174 
 PTB  HZ EP   1   1022 14.76                             133    -0.1 7  143 260 
 PTB  HN ES   1   1022 35.14                             133    -0.4 7  143 260 
 ZAR  HE ES   1   1022 46.12                             122     0.4 6  202 294 
                                                                                
