 2012  111 1417 53.9 L   6.768 -73.156149.4  RSN  6 0.4 1.9LRSN                1
 GAP=182        0.88       6.4     7.8  8.0  0.1688E+02  0.1368E+01  0.6571E+01E
 Epicentro: LOS SANTOS - SANTANDER                                             3
 ACTION:UP  12-02-03 08:16 OP:REBC STATUS:               ID:20120111141753 L   I
 2012-01-11-1410-00M.COL___187                                                 6
 STAT SP IPHASW D HRMM SECON CODA AMPLIT PERI AZIMU VELO SNR AR TRES W  DIS CAZ7
 BAR2 SZ EP   1   1418 13.80                             173    -0.1 7   20 189 
 BAR2 SZ ES   1   1418 29.14                             173    -0.4 7   20 189 
 BAR2 SZ I        1418 30.57        28.4 0.23                            20 189 
 GIR2 SZ EP   1   1418 14.11                             166     0.0 7   35 353 
 BRR  HZ EP       1418 15.70                             153     0.210   72 301 
 BRR  HZ I        1418 15.96        40.5 0.19                            72 301 
 BRR  HN ES   1   1418 33.16                             153     0.8 7   72 301 
 RUS  HZ EP       1418 17.75                             146    -0.110   97 175 
 RUS  HN ES   1   1418 36.38                             146    -0.1 7   97 175 
 RUS  HZ I        1418 37.66         5.4 0.25                            97 175 
 PTB  HZ EP   1   1418 20.66                             133    -0.4 7  146 260 
 PTB  HN ES   1   1418 41.69                             133    -0.5 7  146 260 
 CHI  HZ EP   1   1418 31.78                             118     0.3 6  245 195 
 CHI  HE ES   2   1419  1.53                             118     0.8 4  245 195 
 CHI  HZ I        1419  4.77         2.4 0.52                           245 195 
                                                                                
