 2017  511 1814 58.4 L   6.830 -73.309120.9  RSN  9 0.2 1.8LRSN                1
 GAP=116        0.70       3.6     2.8  5.2 -0.5921E+00  0.1841E+01  0.6028E+01E
 Epicentro: ZAPATOCA - SANTANDER                                               3
 ACTION:UPD 17-06-16 13:35 OP:jn   STATUS:               ID:20170511181458 L   I
 OLDACT:DUP 17-05-11 23:50 OP:lv   STATUS:               ID:20170511180731d    3
 2017-05-11-1808-00M.COL___371                                                 6
 STAT SP IPHASW D HRMM SECON CODA AMPLIT PERI AZIMU VELO AIN AR TRES W  DIS CAZ7
 BRR  HZ EP       1815 15.60                             154   -0.3310 54.1 305 
 BRR  HN ES       1815 29.79                             154    0.2110 54.1 305 
 BRR  HZ I        1815 32.36        15.6 0.10            155           54.1 305 
 PAM  EZ EP       1815 18.71                             141   -0.1010 87.8  50 
 PAM  EN ES       1815 34.73                             141    0.0210 87.8  50 
 PAM  EZ I        1815 37.00        22.5 0.15            147           87.8  50 
 RUS  HZ EP       1815 20.26                             136   -0.0710  107 166 
 RUS  HN ES   2   1815 37.28                             136   -0.12 5  107 166 
 PTB  HZ EP   9   1815 20.54                             129   -1.32 0  131 256 
 PTB  HN ES       1815 38.05                                   -0.7610  131 256 
 PTB  HZ I        1815 42.69        13.1 0.17            130            131 256 
 SPBC HZ EP   2   1815 24.61                             124    0.27 5  155 213 
 SPBC HN ES   2   1815 44.58                             124    0.03 5  155 213 
 SPBC HZ I        1815 46.42        10.9 0.09            125            155 213 
 ZAR  HZ EP       1815 27.29                             118   -0.16 9  186 293 
 ZAR  HE ES       1815 50.22                             118    0.13 9  186 293 
 ZAR  HZ I        1815 52.93        11.6 0.09            121            186 293 
 NOR  HZ EP       1815 31.84                             114    0.37 8  222 231 
 NOR  HN ES   2   1815 56.90                             114   -0.33 4  222 231 
 NOR  HZ I        1816  1.42         3.7 0.21            115            222 231 
 HEL  HZ EP   2   1815 35.99                             110    0.38 4  256 254 
 HEL  HN ES   4   1816  6.78                             110    2.17 0  256 254 
 HEL  HZ I        1816  9.80         4.7 0.23            112            256 254 
 SJC  HZ EP   4   1815 50.01                             101   -1.80 0  397 329 
 SJC  HN ES   4   1816 29.61                             101   -3.83 0  397 329 
 SJC  HZ I        1816 31.66         1.4 0.28            104            397 329 
                                                                                
