 2013  411 1913 27.3 L   6.773 -73.169145.8  RSN  5 0.4 1.3LRSN                1
 GAP=233        0.82       8.6     7.5 10.2  0.2568E+02  0.3058E+02  0.3301E+02E
 Epicentro: LOS SANTOS - SANTANDER                                             3
 ACTION:UPD 13-05-22 14:37 OP:EP   STATUS:               ID:20130411191327 L   I
 2013-04-11-1910-00M.COL___245                                                 6
 STAT SP IPHASW D HRMM SECON CODA AMPLIT PERI AZIMU VELO AIN AR TRES W  DIS CAZ7
 BAR2 SZ ES   1   1914  1.69                             172   -0.42 7 20.1 184 
 BRR  HN ES   1   1914  5.48                             153    0.64 7 70.4 302 
 RUS  HZ EP   1   1913 51.02                             145    0.19 7 97.8 174 
 RUS  HN ES   1   1914  9.26                             145    0.06 7 97.8 174 
 RUS  HZ I        1914 10.87         2.5 0.46            144           97.8 174 
 PTB  HZ EP   1   1913 53.60                             133   -0.36 7  145 260 
 PTB  HN ES   1   1914 14.23                             133   -0.55 7  145 260 
 PTB  HZ I        1914 16.28         3.5 0.26            133            145 260 
 NOR  HN ES   1   1914 30.65                             119    0.51 6  231 235 
                                                                                
