 2011  211 1003 29.9 L   6.786 -73.212133.0  RSN  7 0.3 1.5LRSN                1
 GAP=151        0.73       4.1    13.0  7.8 -0.3437E+02  0.5592E+02 -0.1260E+02E
 Epicentro: ZAPATOCA - SANTANDER                                               3
 ACTION:UP  11-03-28 15:07 OP:jfem STATUS:               ID:20110211100329 L   I
 2011-02-11-1002-04S.COL___136                                                 6
 STAT SP IPHASW D HRMM SECON CODA AMPLIT PERI AZIMU VELO SNR AR TRES W  DIS CAZ7
 BTL  SZ EP   1   10 3 48.20                             173     0.3 7   16 337 
 BAR2 SZ EP       10 3 48.04                             170     0.110   22 172 
 BAR2 SZ ES   1   10 4  2.04                             170     0.0 7   22 172 
 BAR2 SZ I        10 4  3.87         6.1 0.09                            22 172 
 RUS  HZ EP   1   10 3 52.06                             141    -0.3 7  100 172 
 RUS  HE ES   1   10 4  9.99                             141     0.1 7  100 172 
 RUS  HZ I        10 4 12.48         5.8 0.35                           100 172 
 GRA  SZ EP       10 3 54.20                             133    -0.210  130  20 
 GRA  SZ ES   1   10 4 13.11                             133    -0.3 7  130  20 
 GRA  SZ I        10 4 15.35         4.3 0.25                           130  20 
 OCA  SZ EP   1   10 3 57.95                             126     0.6 7  161 356 
 NOR  SZ EP   1   10 4  3.57                             116    -0.6 6  228 234 
 CHI  HZ EP   1   10 4  6.80                             115     0.3 6  245 194 
 CHI  HE ES   1   10 4 35.16                             115     0.0 6  245 194 
 CHI  HZ I        10 4 36.21         2.2 0.71                           245 194 
                                                                                
