 2014  611 1052  5.8 L   6.826 -73.136142.0  RSN  5 0.4 1.6LRSN                1
 GAP=216        0.71       3.7     7.6  7.9  0.3883E+00  0.2086E+02 -0.2121E+01E
 Epicentro: LOS SANTOS - SANTANDER                                             3
 ACTION:UPD 14-07-01 22:52 OP:nd   STATUS:               ID:20140611105205 L   I
 OLDACT:REG 14-06-11 20:13 OP:spq  STATUS:               ID:20140611104816     3
 2014-06-11-1048-16M.COL___253                                                 6
 STAT SP IPHASW D HRMM SECON CODA AMPLIT PERI AZIMU VELO AIN AR TRES W  DIS CAZ7
 BAR2 SZ EP   1   1052 25.65                             169    0.5813 26.3 191 
 BAR2 SZ ES   1   1052 39.63                             169   -0.4513 26.3 191 
 BAR2 SZ I        1052 41.90         8.8 0.26            161           26.3 191 
 SPBC HN ES   1   1052 56.91                             127    0.3812  166 219 
 SPBC HZ I        1052 59.27         5.0 0.38            126            166 219 
 ZAR  HE ES   1   1053  3.25                             121    0.1311  204 291 
 ZAR  HZ I        1053 14.40         2.2 0.28            119            204 291 
 SML  HZ EP   1   1052 41.77                             117   -0.2310  242 335 
 SML  HE ES   1   1053 10.08                             117   -0.1410  242 335 
 SML  HZ I        1053 14.06         5.2 0.26            116            242 335 
 PRA  HZ EP   1   1052 59.76                             106    0.19 7  395 209 
 PRA  HE ES       1053 40.87                             106   -0.6210  395 209 
 PRA  HZ I        1053 46.59         1.2 0.52            106            395 209 
                                                                                
