 2015  811 1321 54.8 L   6.894 -73.083155.3  RSN  8 0.6 1.9LRSN                1
 GAP=251        0.99       6.7     7.8  9.3  0.1472E+02  0.2900E+02  0.1906E+02E
 Epicentro: PIEDECUESTA - SANTANDER                                            3
 ACTION:UPD 15-09-15 23:01 OP:cam  STATUS:               ID:20150811132154 L   I
 OLDACT:DUP 15-08-11 23:51 OP:ar   STATUS:               ID:20150811131751d    3
 2015-08-11-1317-50M.COL___340                                                 6
 STAT SP IPHASW D HRMM SECON CODA AMPLIT PERI AZIMU VELO AIN AR TRES W  DIS CAZ7
 BAR2 EZ EP       1322 16.22                             166    0.4110 35.1 198 
 BAR2 EZ ES       1322 32.04                             166   -0.1910 35.1 198 
 BAR2 EZ I        1322 33.12        10.5 0.30            159           35.1 198 
 BRR  HZ EP       1322 16.48                             153   -0.5810 73.4 289 
 BRR  HN ES       1322 35.04                             153    0.5810 73.4 289 
 RUS  HN ES   2   1322 39.20                             143   -0.80 5  111 180 
 ZAR  HN ES       1322 53.92                             124   -0.24 8  207 289 
 ZAR  HZ I        1323  0.14        10.6 0.34            122            207 289 
 NOR  HZ EP   2   1322 31.71                             119   -0.59 4  246 233 
 NOR  HE ES   2   1323  0.84                             119   -0.74 4  246 233 
 NOR  HZ I        1323  8.96         4.6 0.18            117            246 233 
 CHI  HE ES   2   1323  5.57                             118    0.47 4  260 196 
 GUY2CHZ EP   2   1322 40.81                             113    0.68 3  313 234 
 GUY2CHN ES   2   1323 14.72                             113   -0.80 3  313 234 
 GUY2CHZ I        1323 25.02         3.2 0.44                           313 234 
 TOL  SZ EP   4   1322 46.37                             110    1.56 0  356 224 
 TOL  SN ES       1323 24.60                             110    0.74 6  356 224 
 TOL  SZ I        1323 29.59         2.2 0.30            109            356 224 
                                                                                
