 2014  811 1003 22.5 L   6.820 -73.149146.0  RSN 21 0.4 2.1LRSN                1
 GAP=135        1.01       2.7     3.7  5.0 -0.1986E+01  0.3232E+01  0.2763E+01E
 Epicentro: LOS SANTOS - SANTANDER                                             3
 ACTION:UPD 14-09-15 21:48 OP:nd   STATUS:               ID:20140811100322 L   I
 OLDACT:REG 14-08-11 19:40 OP:spq  STATUS:               ID:20140811095816     3
 2014-08-11-0958-16M.COL___263                                                 6
 STAT SP IPHASW D HRMM SECON CODA AMPLIT PERI AZIMU VELO AIN AR TRES W  DIS CAZ7
 BAR2 SZ EP       10 3 42.07                             170   -0.1210 25.4 188 
 BAR2 SZ ES   1   10 3 57.12                             170   -0.44 7 25.4 188 
 BAR2 SZ I        10 3 58.36        31.0 0.26            167           25.4 188 
 BRR  HZ IP     C 10 3 43.97                             153    0.3810 69.9 297 
 BRR  HE ES       10 4  1.18                             153    1.1410 69.9 297 
 BRR  HZ I        10 4  4.14        24.8 0.32            151           69.9 297 
 PAM  SZ EP       10 3 45.16                             151    0.5110 76.0  41 
 PAM  SN ES   1   10 4  1.99                             151    0.06 7 76.0  41 
 PAM  SZ I        10 4  4.31        28.2 0.46            157           76.0  41 
 RUS  HZ EP       10 3 46.14                             143   -0.2810  103 176 
 RUS  HE ES   1   10 4  5.10                             143    0.01 7  103 176 
 RUS  HZ I        10 4  5.92        16.3 0.26            145            103 176 
 PTB  HZ EP       10 3 48.89                             132   -0.59 9  148 258 
 PTB  HN ES       10 4 10.02                             132   -0.51 9  148 258 
 PTB  HZ I        10 4 16.93        13.2 0.22            132            148 258 
 OCA  HZ EP       10 3 50.47                             130   -0.14 9  158 353 
 OCA  HN ES       10 4 12.10                             130   -0.45 9  158 353 
 OCA  HZ I        10 4 15.40        12.5 0.30            133            158 353 
 SPBC HZ EP       10 3 51.15                             129    0.01 9  165 218 
 SPBC HN ES       10 4 12.84                             129   -0.65 9  165 218 
 SPBC HZ I        10 4 17.66        19.4 0.24            129            165 218 
 ZAR  HZ EP       10 3 54.43                             123   -0.40 9  203 292 
 ZAR  HN ES       10 4 20.00                             123   -0.05 9  203 292 
 ZAR  HZ I        10 4 25.32         8.8 0.40            123            203 292 
 NOR  HZ EP       10 3 58.30                             118   -0.03 8  236 234 
 NOR  HE ES       10 4 26.69                             118    0.40 8  236 234 
 NOR  HZ I        10 4 31.61         9.5 0.18            119            236 234 
 SML  HZ EP       10 3 58.63                             118   -0.27 8  242 335 
 SML  HE ES   1   10 4 27.33                             118    0.03 6  242 335 
 SML  HZ I        10 4 30.92        14.2 0.07            120            242 335 
 CHI  HZ EP       10 4  0.40                             117   -0.01 8  251 195 
 CHI  HN ES   1   10 4 29.72                             117   -0.28 6  251 195 
 CHI  HZ I        10 4 33.76        10.0 0.68            119            251 195 
 ROSC BZ EP   4   10 4  2.65                             117    1.85 0  254 211 
 ROSC BE ES   4   10 4 32.25                             117    1.57 0  254 211 
 ROSC BZ I        10 4 36.68        24.2 0.45            118            254 211 
 HEL  HZ EP   4   10 4  3.78                             115    1.05 0  272 255 
 HEL  HN ES       10 4 34.21                             115    0.09 8  272 255 
 HEL  HZ I        10 4 40.26         9.0 0.26            116            272 255 
 GUY2CHZ EP       10 4  6.50                             112    0.29 7  302 234 
 GUY2CHN ES   4   10 4 42.07                             112    1.75 0  302 234 
 GUY2CHZ I        10 4 48.45         6.9 0.34                           302 234 
 CBOC HZ EP       10 4 10.05                             110    0.60 7  334 252 
 CBOC HN ES       10 4 45.82                             110   -0.25 7  334 252 
 CBOC HZ I        10 4 49.76         2.0 0.20            111            334 252 
 TOL  SZ EP       10 4 11.76                             109    0.86 7  345 224 
 TOL  SE ES   4   10 4 50.09                             109    1.43 0  345 224 
 TOL  SZ I        10 4 56.05        13.2 0.66            110            345 224 
 MON  HZ EP   4   10 4  9.26                             109   -2.05 0  352 308 
 MON  HN ES   4   10 4 47.92                             109   -1.47 0  352 308 
 MON  HZ I        10 4 49.92         2.8 0.36            110            352 308 
 ANIL HZ EP       10 4 12.02                             108   -0.43 6  359 224 
 ANIL HN ES   4   10 4 53.37                             108    1.95 0  359 224 
 ANIL HZ I        10 4 56.82         2.2 0.36            110            359 224 
 PRA  HZ EP       10 4 16.14                             106   -0.07 6  394 209 
 PRA  HN ES       10 4 58.79                             106    0.67 6  394 209 
 PRA  HZ I        10 5  4.69         6.9 0.24            108            394 209 
 ORTC HZ EP       10 4 16.29                             106   -0.30 6  397 216 
 ORTC HN ES       10 4 59.57                             106    0.78 6  397 216 
 ORTC HZ I        10 5  3.59         5.1 0.28            108            397 216 
 SJC  HZ EP   4   10 4 15.91                             106   -1.91 0  407 327 
 SJC  HN ES   4   10 4 59.99                             106   -0.99 0  407 327 
 SJC  HZ I        10 5  4.21         2.4 0.62            107            407 327 
                                                                                
