 2014  411 1948 30.2 L   6.792 -73.186144.9  RSN  6 0.4 1.6LRSN                1
 GAP=132        0.90       4.4     4.8  7.6 -0.3739E+01 -0.7457E-01  0.7398E+01E
 Epicentro: LOS SANTOS - SANTANDER                                             3
 ACTION:UPD 14-05-13 23:07 OP:nd   STATUS:               ID:20140411194830 L   I
 OLDACT:UP  14-04-11 22:17 OP:cam  STATUS:               ID:20140411194813d    3
 OLDACT:DUP 14-04-11 22:10 OP:cam  STATUS:               ID:20140411194813d    3
 2014-04-11-1948-12M.COL___269                                                 6
 STAT SP IPHASW D HRMM SECON CODA AMPLIT PERI AZIMU VELO AIN AR TRES W  DIS CAZ7
 BRR  HZ EP     C 1948 51.31                             153    0.2710 67.8 301 
 BRR  HN ES       1949  7.90                             153    0.5910 67.8 301 
 BRR  HZ I        1949 11.49         9.0 0.38            153           67.8 301 
 PAM  SZ EP     D 1948 52.55                             150    0.0410 80.9  42 
 PAM  SN ES       1949  9.63                             150   -0.3010 80.9  42 
 PAM  SZ I        1949 11.77         6.9 0.70            154           80.9  42 
 RUS  HZ EP       1948 54.12                             144    0.3210  100 174 
 RUS  HE ES   1   1949 11.67                             144   -0.56 7  100 174 
 RUS  HZ I        1949 13.67         4.0 0.28            147            100 174 
 PTB  HZ EP   1   1948 56.19                             133   -0.47 7  143 259 
 PTB  HN ES       1949 16.98                             133   -0.34 9  143 259 
 PTB  HZ I        1949 22.58         5.6 0.56            134            143 259 
 SML  HZ EP   1   1949  6.05                             117   -0.59 6  243 336 
 SML  HE ES   4   1949 33.69                             117   -1.39 0  243 336 
 CHI  HZ EP   2   1949  8.36                             117    0.75 4  247 194 
 CHI  HN ES   1   1949 36.86                             117    0.05 6  247 194 
                                                                                
