 2016  911 1725 54.6 L   6.485 -73.746 95.3  RSN  4 0.2 1.3LRSN                1
 GAP=165        0.63       3.5     2.3  6.2  0.2009E+00  0.1243E+01  0.2332E+01E
 Epicentro: SANTA HELENA DEL OPON - SANTANDER                                  3
 ACTION:UPD 17-08-17 21:08 OP:lp   STATUS:               ID:20160911172554 L   I
 OLDACT:REG 16-09-11 20:27 OP:lv   STATUS:               ID:20160911170912     3
 2016-09-11-1718-00M.COL___309                                                 6
 STAT SP IPHASW D HRMM SECON CODA AMPLIT PERI AZIMU VELO AIN AR TRES W  DIS CAZ7
 BAR2 HZ EP       1726 10.58                             144    0.2610 63.4  79 
 BAR2 HZ ES       1726 22.76                             144    0.1610 63.4  79 
 BAR2 HZ I        1726 24.13        13.8 0.24            149           63.4  79 
 PTB  HZ IP     C 1726 11.02                             137   -0.2010 78.8 274 
 PTB  HE ES       1726 24.05                             137   -0.1410 78.8 274 
 PTB  HZ I        1726 25.27         4.4 0.40            140           78.8 274 
 RUS  HZ EP       1726 13.50                             131   -0.0910 98.4 132 
 RUS  HN ES       1726 28.03                             131   -0.3910 98.4 132 
 RUS  HZ I        1726 29.65         2.5 0.16            133           98.4 132 
 SPBC HZ EP       1726 13.23                             130    0.1210 99.0 201 
 SPBC HN ES       1726 27.84                             130    0.2810 99.0 201 
 SPBC HZ I        1726 32.91         5.9 0.18            131           99.0 201 
                                                                                
