 2013  311 1224  9.8 L   6.374 -73.627119.0  RSN  4 0.4 1.6LRSN                1
 GAP=217        0.87       9.6     6.0 12.1  0.5966E+01 -0.2854E+01  0.2810E+02E
 Epicentro: SANTA HELENA DEL OPON - SANTANDER                                  3
 ACTION:UPD 13-04-09 14:01 OP:ep   STATUS:               ID:20130311122409 L   I
 2013-03-11-1220-00M.COL___231                                                 6
 STAT SP IPHASW D HRMM SECON CODA AMPLIT PERI AZIMU VELO AIN AR TRES W  DIS CAZ7
 BAR2 SZ EP       1224 27.49                             154    0.0410 54.7  64 
 BRR  HZ EP       1224 29.05                             143    0.2210 81.6 353 
 BRR  HN ES   1   1224 43.48                             143   -0.21 7 81.6 353 
 BRR  HN I        1224 51.54         6.6 0.16            136           81.6 353 
 PTB  HZ IP     C 1224 29.24                             139   -0.5310 93.6 281 
 PTB  HN ES   1   1224 45.82                             139    0.45 7 93.6 281 
 PTB  HN I        1224 46.98        11.4 0.27            139           93.6 281 
 ZAR  HZ EP   1   1224 39.12                             119    0.68 7  184 312 
 ZAR  HE ES   1   1225  0.41                             119   -0.39 7  184 312 
 ZAR  HZ I        1225  6.73         4.0 0.39            119            184 312 
                                                                                
