 2016 1211 1918 47.4 L   6.757 -73.152146.0  RSN  6 0.3 1.6LRSN                1
 GAP=233        0.85       6.0     5.8  5.7  0.2058E+02  0.8156E+01  0.1975E+01E
 Epicentro: LOS SANTOS - SANTANDER                                             3
 ACTION:UPD 17-01-11 20:14 OP:rebc STATUS:               ID:20161211191847 L   I
 OLDACT:UP  16-12-11 23:32 OP:dnl  STATUS:               ID:20161211191744     3
 OLDACT:REG 16-12-11 21:11 OP:dnl  STATUS:               ID:20161211191744     3
 2016-12-11-1918-00M.COL___390                                                 6
 STAT SP IPHASW D HRMM SECON CODA AMPLIT PERI AZIMU VELO AIN AR TRES W  DIS CAZ7
 BAR2 EZ EP       1919  6.69                             172   -0.2310 18.5 190 
 BAR2 EZ ES       1919 22.31                             172    0.1310 18.5 190 
 BAR2 EZ I        1919 24.48         6.4 0.28            168           18.5 190 
 BRR  HZ EP       1919  8.83                             152    0.2110 73.0 302 
 BRR  HN ES       1919 25.49                             152    0.2810 73.0 302 
 BRR  HZ I        1919 27.91         7.1 0.16            150           73.0 302 
 RUS  HZ EP       1919 10.68                             145   -0.1110 95.9 175 
 RUS  HN ES       1919 28.98                             145   -0.0910 95.9 175 
 RUS  HZ I        1919 30.57         1.9 0.22            146           95.9 175 
 PTB  HZ EP       1919 13.67                             132   -0.53 9  146 261 
 PTB  HN ES       1919 35.14                             132    0.01 9  146 261 
 PTB  HZ I        1919 40.63         5.1 0.26            131            146 261 
 ZAR  HZ EP       1919 20.21                             122    0.28 8  205 293 
 ZAR  HE ES       1919 44.84                             122   -0.50 8  205 293 
 ZAR  HZ I        1919 51.17         7.1 0.24            123            205 293 
 GUY2CHZ EP       1919 31.44                             113    0.84 7  298 235 
 GUY2CHE ES   4   1920  8.37                             113    4.04 0  298 235 
 GUY2CHZ I        1920 13.97         3.0 0.28                           298 235 
                                                                                
