 2012  511 1544 11.2 L   6.781 -73.156145.4  RSN  6 0.5 1.7LRSN                1
 GAP=136        1.24       7.8     7.4 10.9  0.6363E+01  0.1480E+02  0.3921E+01E
 Epicentro: LOS SANTOS - SANTANDER                                             3
 ACTION:UP  12-07-05 12:04 OP:pat  STATUS:               ID:20120511154411 L   I
 2012-05-11-1540-00M.COL___195                                                 6
 STAT SP IPHASW D HRMM SECON CODA AMPLIT PERI AZIMU VELO SNR AR TRES W  DIS CAZ7
 BAR2 SZ EP       1544 30.80                             171     0.110   21 188 
 BAR2 SZ I        1544 30.90        16.6 0.40                            21 188 
 BAR2 SZ ES   1   1544 45.67                             171    -0.3 7   21 188 
 BRR  HZ EP       1544 32.67                             152     0.410   71 300 
 BRR  HN ES   1   1544 49.77                             152     1.0 7   71 300 
 BRR  HZ I        1544 54.28        12.5 0.14                            71 300 
 PAM  SZ EP       1544 33.71                             150     0.210   80  39 
 PAM  SN ES   1   1544 50.07                             150    -0.9 7   80  39 
 RUS  HZ EP       1544 34.81                             144     0.010   99 175 
 RUS  HZ I        1544 35.36         4.4 0.30                            99 175 
 RUS  HN ES   1   1544 53.36                             144     0.2 7   99 175 
 PTB  HZ EP       1544 37.64                             132    -0.4 9  146 260 
 PTB  HN ES   2   1544 57.78                             132    -1.1 5  146 260 
 PTB  HZ I        1545  1.30         3.8 0.24                           146 260 
 ZAR  HN ES   1   1545  8.61                             122    -0.2 6  204 293 
 ZAR  HZ I        1545 14.40         9.0 0.42                           204 293 
                                                                                
