 2016 1211 1055 10.7 L   6.717 -73.167148.4  RSN  4 0.3 1.4LRSN                1
 GAP=229        0.75       5.9     5.7  6.0  0.1657E+02  0.3580E+01  0.7821E+00E
 Epicentro: VILLANUEVA - SANTANDER                                             3
 ACTION:UPD 17-01-11 20:14 OP:rebc STATUS:               ID:20161211105510 L   I
 OLDACT:DUP 16-12-11 21:29 OP:dnl  STATUS:               ID:20161211104749d    3
 2016-12-11-1048-00M.COL___373                                                 6
 STAT SP IPHASW D HRMM SECON CODA AMPLIT PERI AZIMU VELO AIN AR TRES W  DIS CAZ7
 BAR2 EZ EP       1055 30.12                             174   -0.3310 13.9 187 
 BAR2 EZ ES       1055 45.56                             174   -0.3310 13.9 187 
 BAR2 EZ I        1055 46.81         4.6 0.38            168           13.9 187 
 BRR  HZ EP       1055 32.28                             152    0.0210 74.1 306 
 BRR  HN ES       1055 49.50                             152    0.4010 74.1 306 
 BRR  HZ I        1055 52.72         6.3 0.30            149           74.1 306 
 RUS  HZ EP       1055 34.45                             147    0.4010 91.6 174 
 RUS  HE ES       1055 52.40                             147    0.1110 91.6 174 
 RUS  HZ I        1055 54.06         1.8 0.28            146           91.6 174 
 PTB  HZ EP       1055 37.29                             133   -0.21 9  144 262 
 PTB  HN ES       1055 58.35                             133   -0.09 9  144 262 
 PTB  HZ I        1056  5.48         4.2 0.36            131            144 262 
                                                                                
