 2014  611 1725  0.9 L   6.803 -73.142140.0  RSN 22 0.5 2.5LRSN                1
 GAP=137        1.15       3.1     4.0  5.6 -0.2347E+01  0.7335E+01  0.1423E+01E
 Epicentro: LOS SANTOS - SANTANDER                                             3
 ACTION:UPD 14-07-01 22:53 OP:nd   STATUS:               ID:20140611172500 L   I
 OLDACT:REG 14-06-11 20:56 OP:spq  STATUS:               ID:20140611171813     3
 2014-06-11-1718-13M.COL___259                                                 6
 STAT SP IPHASW D HRMM SECON CODA AMPLIT PERI AZIMU VELO AIN AR TRES W  DIS CAZ7
 BAR2 SZ IP     D 1725 19.95                             170    0.0810 23.7 191 
 BAR2 SZ ES   1   1725 34.53                             170   -0.12 7 23.7 191 
 BAR2 SZ I        1725 36.01       134.3 0.22            167           23.7 191 
 BRR  HZ IP       1725 21.84                             151    0.3710 71.4 298 
 BRR  HN ES       1725 38.27                             151    0.7810 71.4 298 
 BRR  HZ I        1725 39.89        90.1 0.18            149           71.4 298 
 PAM  SZ EP       1725 22.76                             150    0.2610 76.9  39 
 PAM  SN ES       1725 39.51                             150    0.1810 76.9  39 
 PAM  SZ I        1725 41.63        60.4 0.74            154           76.9  39 
 RUS  HZ EP       1725 23.88                             143   -0.2610  101 176 
 RUS  HE ES       1725 42.46                             143    0.2210  101 176 
 RUS  HZ I        1725 43.31        39.9 0.22            143            101 176 
 PTB  HZ EP       1725 26.72                             131   -0.75 9  148 259 
 PTB  HN ES       1725 47.85                             131   -0.32 9  148 259 
 PTB  HZ I        1725 50.89        50.6 0.20            129            148 259 
 OCA  HZ EP       1725 28.64                             129   -0.13 9  160 353 
 OCA  HN ES       1725 49.53                             129   -0.96 9  160 353 
 OCA  HZ I        1725 53.39        49.3 0.26            130            160 353 
 SPBC HZ EP       1725 28.73                             128   -0.31 9  164 219 
 SPBC HE ES       1725 50.81                             128   -0.15 9  164 219 
 SPBC HZ I        1725 56.87        46.3 0.32            127            164 219 
 ZAR  HZ EP       1725 33.53                             121    0.50 9  204 292 
 ZAR  HN ES       1725 58.38                             121    0.31 9  204 292 
 ZAR  HZ I        1726  0.88        45.1 0.20            121            204 292 
 NOR  HZ EP       1725 35.80                             117   -0.58 8  235 234 
 NOR  HN ES       1726  3.85                             117   -0.18 8  235 234 
 NOR  HZ I        1726  8.14        30.6 0.20            117            235 234 
 SML  HZ EP   1   1725 36.98                             116   -0.24 6  244 335 
 SML  HE ES   4   1726  3.80                             116   -1.73 0  244 335 
 SML  HZ I        1726 16.54        30.0 0.26            117            244 335 
 CHI  HZ EP       1725 38.78                             116    0.42 8  249 195 
 CHI  HN ES       1726  6.87                             116   -0.68 8  249 195 
 CHI  HZ I        1726 14.44        10.4 0.30            116            249 195 
 ROSC BZ EP   4   1725 41.24                             116    2.45 0  253 211 
 ROSC BN ES   4   1726 10.24                             116    1.92 0  253 211 
 ROSC BZ I        1726 15.39        19.2 0.50            115            253 211 
 HEL  HZ EP   1   1725 41.84                             114    0.94 6  273 256 
 HEL  HN ES   1   1726 12.53                             114    0.45 6  273 256 
 HEL  HZ I        1726 18.32        13.8 0.54            113            273 256 
 URE  HZ EP       1725 40.87                             113   -0.88 7  284 292 
 GUY2CHZ EP       1725 44.34                             111    0.01 7  302 235 
 GUY2CHN ES       1726 18.85                             111    0.67 7  302 235 
 GUY2CHZ I        1726 26.56        19.8 0.42                           302 235 
 RREF HZ EP   4   1725 48.11                             110    1.23 0  322 229 
 RREF HE ES   4   1726 24.44                             110    1.72 0  322 229 
 RREF HZ I        1726 32.83        14.6 0.40            110            322 229 
 CBOC HZ EP       1725 48.14                             109    0.48 7  334 252 
 CBOC HN ES       1726 23.24                             109   -0.87 7  334 252 
 CBOC HZ I        1726 35.64        10.1 0.78            109            334 252 
 DBB  SZ EP       1725 48.88                             108    0.66 7  340 274 
 DBB  SZ ES   4   1726 23.63                             108   -1.47 0  340 274 
 TOL  SZ EP       1725 49.95                             108    0.94 7  344 225 
 TOL  SN ES   4   1726 25.59                             108   -0.93 0  344 225 
 TOL  SZ I        1726 31.80        34.6 0.48            108            344 225 
 PRA  HZ EP   1   1725 54.25                             106   -0.06 4  392 210 
 PRA  HN ES   4   1726 34.54                             106   -1.40 0  392 210 
 PRA  HZ I        1726 43.37         8.6 0.34            106            392 210 
 ORTC HZ EP   4   1725 55.73                             105    1.02 0  396 216 
 ORTC HN ES   4   1726 38.29                             105    1.63 0  396 216 
 ORTC HZ I        1726 44.32         6.1 0.48            106            396 216 
 SJC  HZ EP   4   1725 56.23                             105   -0.07 0  409 327 
 SJC  HE ES   4   1726 33.86                             105   -5.63 0  409 327 
 SJC  HZ I        1726 39.53         6.1 0.72            105            409 327 
                                                                                
