 2011  811 1000 22.9 L   6.802 -72.960138.2  RSN  4 0.3 1.6LRSN                1
 GAP=202        0.68       5.2    12.7  8.9  0.3451E+02 -0.4053E+02 -0.1181E+02E
 Epicentro: CEPITA - SANTANDER                                                 3
 ACTION:UPD 12-07-25 14:07 OP:epov STATUS:               ID:20110811100022 L   I
 2011-08-11-0959-27S.COL___150                                                 6
 STAT SP IPHASW D HRMM SECON CODA AMPLIT PERI AZIMU VELO AIN AR TRES W  DIS CAZ7
 BAR2 SZ EP   1   10 0 42.50                             166    0.58 7 33.8 227 
 BAR2 SZ ES   1   10 0 56.78                             166    0.05 7 33.8 227 
 BAR2 SZ I        10 0 58.33        11.1 0.28                          33.8 227 
 BRR  HZ EP       10 0 44.61                             145    0.1510 89.7 292 
 BRR  HZ I        10 0 44.96        14.3 0.10                          89.7 292 
 BRR  HE ES   1   10 1  1.08                             145   -0.17 7 89.7 292 
 RUS  HZ EP   1   10 0 45.46                             142   -0.55 7  101 188 
 RUS  HE ES   2   10 1  3.94                             142   -0.07 5  101 188 
 RUS  HZ I        10 1  7.18         3.4 0.30                           101 188 
 OCA  SZ ES   1   10 1 12.70                             127   -0.20 7  164 346 
 OCA  SZ I        10 1 17.13         5.6 0.43                           164 346 
                                                                                
