 2012  911 1733 41.9 L   6.472 -73.534 18.0  RSN  4 0.2 1.1LRSN                1
 GAP=132        0.40       2.1     1.9 15.3  0.2292E+01  0.2115E+02  0.1869E+02E
 Epicentro: SANTA HELENA DEL OPON - SANTANDER                                  3
 ACTION:UPD 12-10-22 14:18 OP:ep   STATUS:               ID:20120911173341 L   I
 2012-09-11-1730-00M.COL___227                                                 6
 STAT SP IPHASW D HRMM SECON CODA AMPLIT PERI AZIMU VELO AIN AR TRES W  DIS CAZ7
 BAR2 SZ EP   1   1733 49.43                             110    0.03 7 41.1  71 
 BAR2 SZ ES   1   1733 55.30                             110    0.07 7 41.1  71 
 BAR2 SZ I        1733 56.51        11.5 0.17                          41.1  71 
 BRR  HZ EP   2   1733 53.64                             101   -0.15 5 72.9 344 
 BRR  HN ES   2   1734  2.84                             101   -0.19 5 72.9 344 
 RUS  HZ EP   1   1733 55.80                             100    0.26 7 81.2 142 
 RUS  HZ I        1734  4.68         3.6 0.58                          81.2 142 
 RUS  HN ES   1   1734  5.90                             100   -0.26 7 81.2 142 
 PTB  HN ES   1   1734 10.92                              98    0.05 7  102 274 
 PTB  HN I        1734 11.90         7.2 0.20                           102 274 
                                                                                
