 2016  711 1525  3.3 L   6.810 -73.125150.6  RSN 36 0.5 3.6LRSN                1
 GAP= 54        1.04       2.2     2.8  4.7 -0.1155E+01  0.2573E+01 -0.2608E+00E
 Epicentro: LOS SANTOS - SANTANDER                                             3
 ACTION:UPD 17-03-29 16:49 OP:lp   STATUS:               ID:20160711152503 L   I
 OLDACT:UP  16-07-12 01:54 OP:dani STATUS:               ID:20160711150500     3
 OLDACT:UP  16-07-12 01:51 OP:dani STATUS:               ID:20160711150500     3
 OLDACT:UP  16-07-12 01:51 OP:dani STATUS:               ID:20160711150500     3
 OLDACT:UP  16-07-12 01:50 OP:dani STATUS:               ID:20160711150500     3
 OLDACT:UP  16-07-12 01:50 OP:dani STATUS:               ID:20160711150500     3
 OLDACT:REG 16-07-11 23:27 OP:dani STATUS:               ID:20160711150500     3
 2016-07-11-1517-00M.COL___486                                                 6
 STAT SP IPHASW D HRMM SECON CODA AMPLIT PERI AZIMU VELO AIN AR TRES W  DIS CAZ7
 BRR  HZ EP       1525 25.30                             153    0.2910 72.6 297 
 BRR  BE ES       1525 42.23                             153    0.2610 72.6 297 
 BRR  HZ I        1525 46.44       580.2 0.14            153           72.6 297 
 PAM  EZ EP       1525 26.33                             152    0.4810 75.1  39 
 PAM  EN ES       1525 43.27                             152   -0.2110 75.1  39 
 PAM  EZ I        1525 45.63      1457.3 0.50            152           75.1  39 
 RUS  HZ EP       1525 27.39                             144   -0.1610  102 177 
 RUS  BN ES       1525 46.14                             144   -0.3710  102 177 
 RUS  HZ I        1525 47.34       650.3 0.30            144            102 177 
 TAM  HZ EP       1525 31.82                             132    0.67 9  153 106 
 TAM  BE ES       1525 53.45                             132    0.54 9  153 106 
 TAM  HZ I        1526 11.02        68.5 0.20            131            153 106 
 SPBC BZ EP       1525 32.13                             130   -0.21 9  165 219 
 SPBC HN ES       1525 54.68                             130   -0.35 9  165 219 
 SPBC HZ I        1525 56.27       663.8 0.16            129            165 219 
 ZAR  HZ EP       1525 35.60                             123   -0.58 8  206 292 
 ZAR  BN ES       1526  1.44                             123   -0.43 8  206 292 
 ZAR  HZ I        1526  8.44       230.5 0.12            123            206 292 
 NOR  HZ EP       1525 39.19                             119   -0.34 8  237 235 
 NOR  BE ES       1526  7.37                             119   -0.46 8  237 235 
 NOR  HZ I        1526 12.62       335.5 0.44            119            237 235 
 CHI  HZ EP       1525 41.43                             118    0.03 8  250 196 
 CHI  BN ES       1526 10.85                             118   -0.31 8  250 196 
 CHI  HZ I        1526 14.69       272.8 0.54            117            250 196 
 ROSC BZ EP   4   1525 43.18                             117    1.31 0  255 211 
 ROSC BN ES       1526 12.67                             117    0.68 8  255 211 
 ROSC BZ I        1526 17.28       450.1 0.40            117            255 211 
 HEL  HZ EP       1525 44.63                             115    0.65 8  275 256 
 HEL  BE ES   4   1526 14.09                             115   -1.67 0  275 256 
 HEL  HZ I        1526 22.48       184.3 0.40            115            275 256 
 URE  HZ EP   9   1525 43.33                             114   -1.41 0  285 292 
 URE  BE ES       1526 15.37                             114   -0.32 7  285 292 
 URE  HZ I        1526 23.92       198.2 0.20            114            285 292 
 SOCV BZ EP       1525 46.50                             113    0.26 7  299  57 
 SOCV BN ES   4   1526 17.90                             113   -1.88 0  299  57 
 GUY2CHZ EP       1525 47.40                             113    0.03 7  304 235 
 GUY2CBN ES   4   1526 22.84                             113    1.06 0  304 235 
 GUY2CHZ I        1526 29.59       237.8 0.32                           304 235 
 LL1C HZ EP       1525 48.02                             113    1.04 7  306 351 
 LL1C HN ES   4   1526 23.87                             113    2.79 0  306 351 
 LL1C HZ I        1526 29.44       660.3 0.34            112            306 351 
 PTGC HZ EP       1525 46.52                             112   -0.84 7  309 159 
 PTGC HN ES   4   1526 19.95                             112   -1.81 0  309 159 
 PTGC HZ I        1526 24.87       318.5 0.30            112            309 159 
 LL6C HZ EP       1525 47.90                             111   -1.14 7  324 357 
 LL6C HE ES       1526 23.33                             111   -1.43 7  324 357 
 LL6C HZ I        1526 30.40       119.1 0.45            111            324 357 
 LL5C HZ EP       1525 50.35                             111    0.44 7  332 349 
 LL5C HE ES       1526 26.56                             111    0.26 7  332 349 
 LL5C HZ I        1526 33.03       486.0 0.19            110            332 349 
 ELA  HZ EP   4   1525 52.26                             111    1.67 0  332 230 
 ELA  HN ES       1526 28.04                             111    0.53 7  332 230 
 ELA  HZ I        1526 36.68       139.8 0.64            110            332 230 
 CBOC BZ EP       1525 51.03                             111    0.38 7  336 252 
 CBOC BE ES       1526 27.93                             111    0.30 7  336 252 
 CBOC HZ I        1526 31.59        57.3 0.20            110            336 252 
 ARGC HZ EP   4   1525 54.17                             109    1.11 0  359 340 
 ARGC HN ES       1526 32.04                             109    0.13 6  359 340 
 ARGC HZ I        1526 41.93        61.6 0.26            109            359 340 
 ANIL HZ EP       1525 53.68                             109    0.16 6  360 225 
 ANIL HN ES   4   1526 33.78                             109    1.05 0  360 225 
 ANIL HZ I        1526 37.90       480.7 0.32            109            360 225 
 PRA  HZ EP       1525 56.84                             107   -0.35 6  394 210 
 PRA  BN ES       1526 39.05                             107   -0.21 6  394 210 
 PRA  HZ I        1526 45.94       135.7 0.18            107            394 210 
 PAL  HZ EP       1525 59.03                             106    0.16 6  408 239 
 PAL  HE ES       1526 42.92                             106    0.67 6  408 239 
 PAL  HZ I        1526 45.05        74.7 0.24            106            408 239 
 SJC  HZ EP   4   1525 57.66                             106   -1.35 0  409 327 
 SJC  BE ES   4   1526 37.77                             106   -4.73 0  409 327 
 SJC  HZ I        1526 45.51        72.5 0.62            106            409 327 
 LCBC BE ES       1526 45.74                             106    0.55 5  423 303 
 CRJC BZ EP   4   1526  3.56                             104   -2.18 0  466   3 
 CRJC HN ES   4   1526 51.21                             104   -3.27 0  466   3 
 CRJC HZ I        1526 54.31        95.8 0.18            104            466   3 
 YOT  HZ EP       1526  5.87                             104   -0.85 5  474 229 
 YOT  BE ES   4   1527  0.38                             104    4.15 0  474 229 
 YOT  HZ I        1527  8.09        40.5 0.90            103            474 229 
 SMAR HZ EP   4   1526  7.90                             103   -1.28 0  496 346 
 SMAR BE ES   4   1526 56.53                             103   -4.08 0  496 346 
 SMAR HZ I        1526 59.89        81.4 0.18            103            496 346 
 CAP2 HZ EP   4   1526  8.43                             103   -2.30 0  509 294 
 CAP2 BN ES   4   1527  0.17                             103   -3.19 0  509 294 
 CAP2 HZ I        1527  1.32        37.7 0.28            102            509 294 
 BET  EZ EP       1526 11.65                             102   -0.25 4  519 209 
 BET  EZ I        1527  9.77        36.7 0.68            102            519 209 
 MACC HZ EP   4   1526 10.43                             102   -1.83 0  522 189 
 MACC HZ E        1526 10.43                                            522 189 
 MACC BN ES   4   1526 59.67                             102   -6.41 0  522 189 
 MACC HZ I        1527  5.07        35.4 0.22            102            522 189 
 DABV BZ EP       1526 12.37                             102   -0.91 4  531  31 
 DABV BN ES   4   1527  5.00                             102   -2.90 0  531  31 
 GARC HZ EP   4   1526 17.49                             101   -1.37 0  575 207 
 GARC HN ES   4   1527 15.33                             101   -2.50 0  575 207 
 GARC HZ I        1527 19.91        68.2 0.24            100            575 207 
 POP2 HZ EP       1526 23.06                             100   -0.58 3  615 220 
 POP2 BN ES       1527 25.69                             100   -0.65 3  615 220 
 POP2 HZ I        1527 32.04         5.2 0.42             99            615 220 
 FLO2 HZ EP       1526 25.95                              99   -0.76 2  642 206 
 FLO2 BN ES   4   1527 29.59                              99   -2.21 0  642 206 
 BBAC HZ EP   4   1526 34.62                              98    0.79 0  700 221 
 BBAC HE ES   4   1527 42.46                              98   -2.01 0  700 221 
 BBAC HZ I        1527 50.40         7.2 0.28             98            700 221 
                                                                                
