 2010 1111 1013 16.6 L   6.771 -73.100139.8  RSN  8 0.4 1.6LRSN                1
 GAP=164        0.79       4.4     7.4  8.1 -0.8242E+01  0.1063E+01  0.1322E+01E
 Epicentro: LOS SANTOS - SANTANDER                                             3
 ACTION:UP  10-12-17 16:51 OP:REBC STATUS:               ID:20101111101316 L   I
 2010-11-11-1011-52S.COL___129                                                 6
 STAT SP IPHASW D HRMM SECON CODA AMPLIT PERI AZIMU VELO SNR AR TRES W  DIS CAZ7
 BAR2 SZ EP       1013 35.54                             171     0.010   22 205 
 BAR2 SZ I        1013 35.86         9.6 0.07                            22 205 
 BAR2 SZ ES   2   1013 49.98                             171    -0.2 5   22 205 
 BRR  HZ EP       1013 37.54                             149     0.110   77 299 
 BRR  HN ES   1   1013 53.95                             149     0.2 7   77 299 
 BRR  HZ I        1013 59.60        11.1 0.20                            77 299 
 RUS  HZ EP   1   1013 39.39                             143    -0.1 7   97 179 
 RUS  HZ I        1013 40.56         3.3 0.11                            97 179 
 RUS  HN ES   2   1013 57.86                             143     0.4 5   97 179 
 GUE  SZ EP   2   1013 41.16                             137     0.2 5  119   9 
 GRA  SZ EP   2   1013 40.74                             135    -0.7 5  127  15 
 GRA  SZ ES   1   1014  0.35                             135    -0.5 7  127  15 
 GRA  SZ I        1014  2.55         4.3 0.07                           127  15 
 OCA  SZ EP   1   1013 45.65                             127     0.8 7  164 352 
 OCA  SZ ES   2   1014  6.92                             127     0.1 5  164 352 
 OCA  SZ I        1014 10.32         4.7 0.14                           164 352 
 NOR  SZ EP   2   1013 51.65                             117    -0.6 4  237 236 
 NOR  SE ES   2   1014 19.49                             117    -0.6 4  237 236 
 HEL  HZ EP   2   1013 57.15                             113     0.2 4  276 257 
 HEL  HZ I        1014 28.85         2.6 0.52                           276 257 
                                                                                
