 2011 1011 1741 55.4 L   6.778 -73.136146.7  RSN  6 0.3 2.0LRSN                1
 GAP=139        0.76       3.8     5.3  6.5  0.3161E+01  0.4213E+00 -0.3839E+01E
 Epicentro: LOS SANTOS - SANTANDER                                             3
 ACTION:UPD 12-07-13 16:03 OP:ep   STATUS:               ID:20111011174155 L   I
 2011-10-11-1738-07S.COL___168                                                 6
 STAT SP IPHASW D HRMM SECON CODA AMPLIT PERI AZIMU VELO AIN AR TRES W  DIS CAZ7
 BAR2 SZ IP       1742 15.04                             172   -0.1010 21.1 194 
 BAR2 SZ ES   1   1742 30.09                             172   -0.42 7 21.1 194 
 BAR2 SZ I        1742 31.71        16.6 0.24                          21.1 194 
 BRR  HZ IP     C 1742 17.06                             152    0.2510 73.3 300 
 BRR  HN ES   1   1742 34.09                             152    0.61 7 73.3 300 
 BRR  HZ I        1742 36.58        26.1 0.36                          73.3 300 
 PAM  SZ EP       1742 18.10                             150    0.2710 78.6  38 
 PAM  SN ES   1   1742 35.36                             150    0.07 7 78.6  38 
 RUS  HZ EP       1742 18.80                             145   -0.3110 98.0 177 
 RUS  HN ES   1   1742 37.62                             145    0.06 7 98.0 177 
 OCA  SZ EP       1742 24.26                             129    0.19 9  163 353 
 OCA  SZ ES   1   1742 45.73                             129   -0.66 7  163 353 
 ZAR  HN ES   1   1742 53.32                             122   -0.34 6  206 293 
 ZAR  HZ I        1743  0.19        10.0 0.44                           206 293 
                                                                                
