 2017  211 1234  9.4 L   6.716 -73.735103.7  RSN  5 0.3 1.1LRSN                1
 GAP=115        0.60       5.8     5.4  8.7  0.1656E+00 -0.1571E+02  0.3123E+02E
 Epicentro: EL CARMEN - SANTANDER                                              3
 ACTION:UPD 17-05-24 15:35 OP:jn   STATUS:               ID:20170211123409 L   I
 OLDACT:REG 17-02-11 21:46 OP:edw  STATUS:               ID:20170211122747     3
 2017-02-11-1228-00M.COL___346                                                 6
 STAT SP IPHASW D HRMM SECON CODA AMPLIT PERI AZIMU VELO AIN AR TRES W  DIS CAZ7
 BRR  HZ EP   2   1234 24.31                             156   -0.13 5 43.3   3 
 BRR  HN ES       1234 36.29                             156    0.1110 43.3   3 
 BAR2 EZ EP       1234 25.85                             146   -0.0810 62.6 103 
 PTB  HZ EP   2   1234 27.07                             138    0.00 5 82.1 256 
 PTB  HN ES   2   1234 40.49                             138   -0.36 5 82.1 256 
 PTB  HZ I        1234 45.03         3.6 0.10            137           82.1 256 
 RUS  HZ EP       1234 31.13                             128    0.3810  116 142 
 RUS  HN ES   2   1234 46.89                             128   -0.52 5  116 142 
 RUS  HZ I        1234 49.85         2.3 0.24            130            116 142 
 PAM  EZ EP   2   1234 31.81                             124   -0.66 5  134  59 
                                                                                
