 2012 1211 1539 42.1 L   6.817 -73.161146.6  RSN  9 0.4 2.6LRSN                1
 GAP=134        1.06       3.4     4.6  5.6  0.1703E+01  0.7007E+01  0.9788E+00E
 Epicentro: LOS SANTOS - SANTANDER                                             3
 ACTION:UPD 13-01-04 14:27 OP:ep   STATUS:               ID:20121211153942 L   I
 2012-12-11-1537-37M.COL___206                                                 6
 STAT SP IPHASW D HRMM SECON CODA AMPLIT PERI AZIMU VELO AIN AR TRES W  DIS CAZ7
 BAR2 SZ ES       1540 16.70                             170   -0.5610 25.0 185 
 BAR2 SZ I        1540 18.19        75.9 0.42                          25.0 185 
 GIR2 SZ EP       1540  1.99                             168    0.2010 29.1 353 
 GIR2 SZ ES       1540 17.00                             168   -0.1710 29.1 353 
 GIR2 SZ I        1540 18.52        34.9 0.30                          29.1 353 
 BRR  HZ EP       1540  3.76                             153    0.5810 68.8 298 
 BRR  HN ES       1540 20.53                             153    0.8910 68.8 298 
 BRR  HN I        1540 21.52       113.4 0.18                          68.8 298 
 PAM  SZ EP     C 1540  4.84                             151    0.4810 77.0  41 
 PAM  SE ES       1540 21.48                             151   -0.2610 77.0  41 
 PAM  SE I        1540 23.80        64.6 0.52                          77.0  41 
 RUS  HZ EP       1540  5.92                             143   -0.1410  103 175 
 RUS  HN ES       1540 24.90                             143    0.1410  103 175 
 RUS  HN I        1540 26.11        59.1 0.38                           103 175 
 PTB  HZ EP       1540  8.72                             132   -0.27 9  146 258 
 PTB  HN ES       1540 29.63                             132   -0.36 9  146 258 
 PTB  HN I        1540 34.99        51.2 0.56                           146 258 
 ZAR  HZ EP       1540 14.43                             123    0.10 9  202 292 
 ZAR  HN ES       1540 39.64                             123    0.14 9  202 292 
 ZAR  HN I        1540 48.19        32.4 0.38                           202 292 
 SML  HZ EP       1540 18.18                             118   -0.30 8  241 335 
 SML  HN ES       1540 46.07                             118   -0.81 8  241 335 
 SML  HN I        1540 49.30        69.0 0.10                           241 335 
 CHI  HZ EP       1540 20.11                             117    0.14 8  250 195 
 CHI  HN ES       1540 49.29                             117   -0.24 8  250 195 
 CHI  HN I        1540 54.04        24.7 0.36                           250 195 
                                                                                
