 2014  611 1400 37.0 L   6.639 -73.581115.9  RSN  4 0.2 1.7LRSN                1
 GAP=117        0.48       3.6     2.8  6.0  0.2658E+01 -0.4666E+00  0.1809E+01E
 Epicentro: EL CARMEN DE CHUCURI - SANTANDER                                   3
 ACTION:UPD 14-07-01 22:52 OP:nd   STATUS:               ID:20140611140037 L   I
 OLDACT:REG 14-06-11 20:30 OP:spq  STATUS:               ID:20140611135818     3
 2014-06-11-1358-18M.COL___259                                                 6
 STAT SP IPHASW D HRMM SECON CODA AMPLIT PERI AZIMU VELO AIN AR TRES W  DIS CAZ7
 BAR2 SZ EP       14 0 53.63                             158   -0.1910 44.4  97 
 BAR2 SZ ES   1   14 1  6.72                             158   -0.22 7 44.4  97 
 BAR2 SZ I        14 1  7.99        42.4 0.46            167           44.4  97 
 BRR  HZ EP       14 0 54.08                             153    0.1410 53.7 344 
 BRR  HN ES       14 1  7.25                             153    0.1010 53.7 344 
 BRR  HZ I        14 1  9.01        11.2 0.36            156           53.7 344 
 PTB  HE ES       14 1 12.57                             137   -0.0810 97.4 264 
 PTB  HZ I        14 1 20.98         3.9 0.28            134           97.4 264 
 RUS  HN ES   1   14 1 14.39                             137    0.29 7 99.3 146 
                                                                                
