 2013  811 1103 19.1 L   7.440 -73.221133.5  RSN  6 0.3 1.3LRSN                1
 GAP=133        0.71       4.8     3.4  6.7 -0.2622E+01  0.6816E+01 -0.2187E+01E
 Epicentro: EL PLAYON - SANTANDER                                              3
 ACTION:UPD 14-01-14 09:01 OP:ep   STATUS:               ID:20130811110319 L   I
 OLDACT:REG 13-08-11 17:07 OP:jn   STATUS:               ID:20130811105959     3
 2013-08-11-1059-59M.COL___271                                                 6
 STAT SP IPHASW D HRMM SECON CODA AMPLIT PERI AZIMU VELO AIN AR TRES W  DIS CAZ7
 GIR2 SZ EP       11 3 37.59                             162   -0.0110 40.1 176 
 GIR2 SZ I        11 3 53.31         4.1 0.32            153           40.1 176 
 PAM  SZ EP       11 3 39.10                             155    0.1710 58.6 101 
 PAM  SN ES       11 3 54.32                             155   -0.0910 58.6 101 
 PAM  SZ I        11 3 55.37         5.0 0.42            145           58.6 101 
 BRR  HZ EP       11 3 38.75                             152    0.1610 65.5 236 
 BRR  HN ES       11 3 53.89                             152    0.0910 65.5 236 
 BRR  HZ I        11 3 54.46         6.6 0.32            147           65.5 236 
 PTB  HZ EP       11 3 47.06                             125   -0.09 9  169 234 
 PTB  HN ES       11 4  8.61                             125   -0.43 9  169 234 
 PTB  HZ I        11 4 11.66         2.2 0.26            119            169 234 
 SML  HN ES   1   11 4  9.99                             123   -0.50 7  177 328 
 ZAR  HN ES   1   11 4 11.91                             123    0.76 7  181 272 
                                                                                
