 2011  511 1348 33.0 L   6.729 -73.016135.6  RSN  4 0.4 1.5LRSN                1
 GAP=220        0.74      15.5    16.4 11.9  0.8435E+02 -0.8083E+02 -0.6644E+02E
 Epicentro: ARATOCA - SANTANDER                                                3
 ACTION:UP  11-06-29 08:52 OP:tino STATUS:               ID:20110511134833 L   I
 2011-05-11-1348-01S.COL___129                                                 6
 STAT SP IPHASW D HRMM SECON CODA AMPLIT PERI AZIMU VELO SNR AR TRES W  DIS CAZ7
 BAR2 SZ EP   1   1348 51.72                             170     0.3 7   24 231 
 BAR2 SZ ES   2   1349  5.03                             170    -0.8 5   24 231 
 BAR2 SZ I        1349  7.59         7.0 0.33                            24 231 
 BTL  SZ EP   1   1348 52.05                             165     0.3 7   35 307 
 BTL  SZ ES   2   1349  6.70                             165     0.4 5   35 307 
 BRR  HZ EP   1   1348 53.81                             145    -0.3 7   88 299 
 BRR  HN ES   2   1349 10.68                             145     0.1 5   88 299 
 BRR  HZ I        1349 20.24        15.0 0.30                            88 299 
 GRA  SZ EP   2   1348 57.49                             133    -0.2 5  130  10 
 GRA  SZ I        1349 22.60         2.6 0.45                           130  10 
                                                                                
