 2010 1211 1725 53.3 L   6.800 -73.082138.8  RSN  6 0.4 1.8LRSN                1
 GAP=166        0.67       5.9    16.8  6.9 -0.7664E+02  0.1228E+02  0.2371E+01E
 Epicentro: LOS SANTOS - SANTANDER                                             3
 ACTION:UP  11-01-14 15:24 OP:pat  STATUS:               ID:20101211172553 L   I
 2010-12-11-1720-00M.COL___136                                                 6
 STAT SP IPHASW D HRMM SECON CODA AMPLIT PERI AZIMU VELO SNR AR TRES W  DIS CAZ7
 BAR2 SZ EP       1726 12.12                             169     0.010   26 206 
 BAR2 SZ ES   1   1726 26.73                             169    -0.1 7   26 206 
 BAR2 SZ I        1726 28.33        27.1 0.27                            26 206 
 RUS  HZ EP       1726 16.29                             142     0.010  100 180 
 RUS  HZ I        1726 35.71        11.3 0.28                           100 180 
 GRA  SZ EP       1726 18.05                             136     0.310  124  14 
 GRA  SZ ES   1   1726 36.59                             136    -0.2 7  124  14 
 GRA  SZ I        1726 39.10         9.4 0.46                           124  14 
 CHI  HZ EP   2   1726 29.94                             115    -0.9 4  251 197 
 CHI  HN ES   2   1727  0.97                             115     0.9 4  251 197 
 CHI  HZ I        1727  7.74         3.6 0.56                           251 197 
 RREF HZ EP   2   1726 40.15                             109     0.4 3  327 230 
 RREF HN ES   3   1727 15.41                             109    -0.6 2  327 230 
 PRA  HZ EP   1   1726 46.66                             105    -0.3 4  395 210 
                                                                                
