 2014 1011 1827  5.4 L   6.771 -73.121146.0  RSN  7 0.4 1.8LRSN                1
 GAP=141        0.96       4.9     4.3  8.1  0.1548E+01  0.5979E+01  0.6057E+01E
 Epicentro: LOS SANTOS - SANTANDER                                             3
 ACTION:UPD 14-11-29 23:48 OP:nd   STATUS:               ID:20141011182705 L   I
 OLDACT:REG 14-10-11 22:21 OP:stll STATUS:               ID:20141011181750     3
 2014-10-11-1817-50M.COL___292                                                 6
 STAT SP IPHASW D HRMM SECON CODA AMPLIT PERI AZIMU VELO AIN AR TRES W  DIS CAZ7
 BAR2 SZ EP     D 1827 25.00                             171    0.0110 20.9 199 
 BAR2 SZ I        1827 43.85         8.3 0.12            170           20.9 199 
 BRR  HZ EP     C 1827 26.90                             151    0.1210 75.2 300 
 BRR  HE ES       1827 44.09                             151    0.6210 75.2 300 
 BRR  HE I        1827 45.28        26.7 0.24            151           75.2 300 
 PAM  SZ EP       1827 27.92                             151    0.2510 78.2  36 
 PAM  SE ES       1827 44.63                             151   -0.4210 78.2  36 
 PAM  SZ I        1827 47.18         9.9 0.20            149           78.2  36 
 RUS  HZ EP       1827 28.86                             145   -0.0510 97.2 178 
 RUS  HE ES       1827 47.29                             145    0.0210 97.2 178 
 RUS  HZ I        1827 48.82         4.8 0.66            142           97.2 178 
 PTB  HZ EP   1   1827 31.71                             132   -0.85 7  150 260 
 PTB  HN ES       1827 53.42                             132   -0.34 9  150 260 
 PTB  HZ I        1827 58.92        10.3 0.40            130            150 260 
 ZAR  HN ES       1828  3.67                             122   -0.18 8  208 293 
 GUY2CHZ EP   1   1827 50.01                             112    0.96 5  302 236 
 GUY2CHZ I        1828 34.47         3.3 0.74                           302 236 
                                                                                
