 2013  211 1802 48.4 L   6.796 -73.195153.0  RSN  5 0.5 1.5LRSN                1
 GAP=232        1.12       7.5     8.4  9.3  0.2282E+02  0.2233E+01  0.1007E+02E
 Epicentro: ZAPATOCA - SANTANDER                                               3
 ACTION:UPD 13-03-12 09:32 OP:ep   STATUS:               ID:20130211180247 L   I
 2013-02-11-1800-00M.COL___240                                                 6
 STAT SP IPHASW D HRMM SECON CODA AMPLIT PERI AZIMU VELO AIN AR TRES W  DIS CAZ7
 BAR2 SZ EP       18 3  8.52                             171   -0.3710 22.6 177 
 BAR2 SZ ES   1   18 3 24.13                             171   -0.73 7 22.6 177 
 BAR2 SZ I        18 3 26.53         6.5 0.24            154           22.6 177 
 BRR  HZ I        18 3 10.51        20.4 0.30            160           66.7 301 
 BRR  HZ EP     D 18 3 10.74                             155    0.6410 66.7 301 
 BRR  HE ES   1   18 3 27.23                             155    0.20 7 66.7 301 
 RUS  HZ EP       18 3 12.39                             145   -0.4910  101 173 
 RUS  HN ES       18 3 32.65                             145    0.6910  101 173 
 RUS  HZ I        18 3 33.76         2.6 0.22            130            101 173 
 PTB  HZ EP   1   18 3 15.13                             135   -0.37 7  142 259 
 PTB  HN ES       18 3 36.52                             135   -0.11 9  142 259 
 CHI  HZ EP       18 3 26.68                             119    0.36 8  247 194 
 CHI  HN ES   1   18 3 55.59                             119   -0.31 6  247 194 
 CHI  HZ I        18 4  3.15         1.5 0.48            111            247 194 
                                                                                
