 2010  811 1405 49.9 L   6.784 -73.031143.2  RSN  6 0.2 1.7LRSN                1
 GAP=178        0.67       3.7     6.0  6.1  0.3525E+01 -0.8317E+01 -0.4785E+01E
 Epicentro: CEPITA - SANTANDER                                                 3
 ACTION:UP  10-09-07 10:54 OP:vdl  STATUS:               ID:20100811140549 L   I
 2010-08-11-1401-43S.COL___127                                                 6
 STAT SP IPHASW D HRMM SECON CODA AMPLIT PERI AZIMU VELO SNR AR TRES W  DIS CAZ7
 BAR2 SZ EP       14 6  9.27                             169    -0.110   27 218 
 BAR2 SZ ES   1   14 6 24.38                             169    -0.1 7   27 218 
 BAR2 SZ I        14 6 25.23        17.0 0.23                            27 218 
 GIR2 SZ EP   1   14 6  9.62                             165     0.1 7   37 331 
 BRR  HZ EP       14 6 11.12                             148    -0.410   83 295 
 BRR  HZ I        14 6 11.40        27.6 0.09                            83 295 
 BRR  HN ES       14 6 28.61                             148     0.210   83 295 
 RUS  HZ EP       14 6 13.56                             144     0.310   99 183 
 RUS  HN ES       14 6 31.41                             144    -0.110   99 183 
 RUS  HZ I        14 6 32.63         5.5 0.31                            99 183 
 GUE  SZ EP       14 6 14.46                             139     0.110  116   6 
 GUE  SZ I        14 6 35.20         2.3 0.05                           116   6 
 RREF HN ES   1   14 7 13.68                             110     0.1 5  330 231 
 RREF HZ I        14 7 16.48         4.0 0.20                           330 231 
                                                                                
