 2017  411 1633 54.6 L   6.788 -73.153136.5  RSN 18 0.4 2.6LRSN                1
 GAP=111        1.01       2.9     2.9  4.9  0.1149E+01  0.5357E+01  0.3291E+01E
 Epicentro: LOS SANTOS - SANTANDER                                             3
 ACTION:UPD 17-05-30 21:11 OP:jn   STATUS:               ID:20170411163354 L   I
 OLDACT:REG 17-04-11 19:37 OP:cara STATUS:               ID:20170411162429     3
 2017-04-11-1628-00M.COL___374                                                 6
 STAT SP IPHASW D HRMM SECON CODA AMPLIT PERI AZIMU VELO AIN AR TRES W  DIS CAZ7
 BAR2 EZ IP     C 1634 13.14                             170    0.0610 21.9 188 
 BAR2 EZ ES       1634 27.74                             170    0.2410 21.9 188 
 BAR2 EZ I        1634 30.35        93.0 0.24            168           21.9 188 
 BRR  HZ EP       1634 15.10                             151    0.3610 71.1 300 
 BRR  HN ES       1634 29.84                             151   -0.6210 71.1 300 
 BRR  HZ I        1634 34.99        48.0 0.18            151           71.1 300 
 PAM  EZ EP       1634 16.09                             148    0.1610 78.9  39 
 PAM  EN ES       1634 32.71                             148    0.1410 78.9  39 
 PAM  EZ I        1634 35.56        71.8 0.56            154           78.9  39 
 RUS  HZ EP     C 1634 17.03                             142   -0.3210 99.3 176 
 RUS  HN ES       1634 34.97                             142   -0.1310 99.3 176 
 RUS  HZ I        1634 36.36        33.5 0.20            143           99.3 176 
 PTB  HZ EP       1634 19.71                             130   -1.01 9  147 259 
 PTB  HN ES       1634 40.61                             130   -0.49 9  147 259 
 PTB  HZ I        1634 43.11        64.6 0.16            131            147 259 
 SPBC HZ EP       1634 22.10                             127   -0.14 9  162 219 
 SPBC HN ES       1634 44.46                             127    0.65 9  162 219 
 SPBC HZ I        1634 48.87        38.4 0.22            128            162 219 
 YPLC HZ IP     C 1634 23.61                             124   -0.04 9  176 151 
 YPLC HN ES       1634 46.53                             124    0.21 9  176 151 
 YPLC HZ I        1634 49.90        79.1 0.24            127            176 151 
 ZAR  HZ EP       1634 26.70                             120    0.28 9  204 293 
 ZAR  HN ES       1634 52.09                             120    0.84 9  204 293 
 ZAR  HZ I        1635  0.17        41.1 0.54            122            204 293 
 NOR  HZ EP       1634 29.67                             117    0.03 8  233 235 
 NOR  HN ES       1634 57.26                             117    0.28 8  233 235 
 NOR  HZ I        1634 59.05        34.4 0.16            118            233 235 
 CHI  HZ EP       1634 31.58                             115   -0.05 8  247 195 
 CHI  HN ES       1635  0.17                             115   -0.35 8  247 195 
 CHI  HZ I        1635  8.00        11.8 0.54            117            247 195 
 HEL  HZ EP       1634 35.11                             113    0.89 8  271 256 
 HEL  HN ES       1635  5.27                             113    0.14 8  271 256 
 HEL  HZ I        1635 12.14        33.1 0.30            114            271 256 
 URE  HZ EP       1634 34.67                             112   -0.52 7  284 292 
 URE  HN ES       1635  6.23                             112   -0.63 7  284 292 
 URE  HZ I        1635  7.25        22.8 0.16            114            284 292 
 ELA  HZ EP   4   1634 42.51                             109    1.62 0  328 230 
 ELA  HN ES       1635 17.37                             109    0.36 7  328 230 
 ELA  HZ I        1635 24.47        17.1 0.70            110            328 230 
 CBOC HZ EP       1634 41.46                             108    0.46 7  332 252 
 CBOC HN ES       1635 17.11                             108   -0.08 7  332 252 
 CBOC HZ I        1635 20.94        10.5 0.28            110            332 252 
 ANIL HE ES   4   1635 21.82                             107   -0.50 0  356 225 
 ANIL HZ I        1635 30.42        24.5 0.56            108            356 225 
 PRA  HZ EP       1634 47.25                             105   -0.37 6  390 210 
 PRA  HE ES       1635 28.34                             105   -0.65 6  390 210 
 PRA  HZ I        1635 33.80        14.9 0.30            107            390 210 
 PAL  HZ EP       1634 49.41                             104    0.12 6  404 239 
 PAL  HN ES       1635 32.28                             104    0.32 6  404 239 
 PAL  HZ I        1635 34.49         8.5 0.26            106            404 239 
 SJC  HZ EP   4   1634 47.74                             104   -2.20 0  410 327 
 SJC  HN ES   4   1635 28.60                             104   -4.51 0  410 327 
 SJC  HZ I        1635 34.29         3.6 0.62            106            410 327 
                                                                                
