 2015 1011 1118 55.3 L   6.806 -73.132150.0  RSN 15 0.4 2.1LRSN                1
 GAP= 72        0.93       2.8     3.5  5.2 -0.9263E+00  0.3021E+01  0.7565E+00E
 Epicentro: LOS SANTOS - SANTANDER                                             3
 ACTION:UPD 15-12-22 20:39 OP:cam  STATUS:               ID:20151011111855 L   I
 OLDACT:REG 15-10-11 20:37 OP:spq  STATUS:               ID:20151011111748     3
 2015-10-11-1117-48M.COL___340                                                 6
 STAT SP IPHASW D HRMM SECON CODA AMPLIT PERI AZIMU VELO AIN AR TRES W  DIS CAZ7
 BAR2 EZ EP       1119 15.40                             170   -0.1110 24.3 193 
 BAR2 EZ ES   1   1119 30.67                             170   -0.56 7 24.3 193 
 BAR2 EZ I        1119 33.32        23.4 0.19            167           24.3 193 
 BRR  HZ EP     C 1119 17.26                             153    0.2510 72.2 297 
 BRR  HN ES       1119 34.71                             153    0.8110 72.2 297 
 BRR  HZ I        1119 43.27        12.9 0.22            149           72.2 297 
 PAM  EZ EP     C 1119 18.15                             152    0.2210 75.9  39 
 PAM  EN ES       1119 35.89                             152    0.3510 75.9  39 
 PAM  EZ I        1119 37.79        14.1 0.56            158           75.9  39 
 RUS  HZ EP       1119 19.45                             145   -0.1110  101 177 
 RUS  HE ES       1119 38.25                             145   -0.2010  101 177 
 RUS  HZ I        1119 40.87        13.9 0.40            147            101 177 
 TAM  HZ EP     C 1119 23.56                             132    0.31 9  154 105 
 OCA  HZ EP       1119 23.60                             131   -0.34 9  160 353 
 OCA  HN ES       1119 45.45                             131   -0.79 9  160 353 
 OCA  HZ I        1119 50.06        27.7 0.19            133            160 353 
 SPBC HZ EP       1119 24.37                             130    0.06 9  165 219 
 SPBC HE ES   1   1119 46.08                             130   -0.83 7  165 219 
 SPBC HZ I        1119 52.29        20.4 0.36            130            165 219 
 ZAR  HZ EP       1119 28.34                             123    0.16 9  205 292 
 ZAR  HE ES       1119 53.95                             123    0.15 9  205 292 
 ZAR  HZ I        1119 59.94        12.2 0.22            123            205 292 
 NOR  HZ EP   1   1119 31.77                             119    0.27 6  236 235 
 NOR  HE ES       1119 59.39                             119   -0.30 8  236 235 
 NOR  HZ I        1120  4.74        10.4 0.20            120            236 235 
 SML  HZ EP       1119 31.68                             118   -0.53 8  244 335 
 SML  HN ES   1   1120  1.01                             118    0.05 6  244 335 
 SML  HZ I        1120  7.06        17.7 0.10            120            244 335 
 CHI  HZ EP       1119 33.66                             118    0.26 8  250 195 
 CHI  HN ES   4   1120  4.68                             118    1.60 0  250 195 
 CHI  HZ I        1120 12.52         4.2 0.34            120            250 195 
 HEL  HZ EP   4   1119 37.58                             115    1.62 0  274 256 
 HEL  HN ES   1   1120  7.92                             115    0.29 6  274 256 
 HEL  HZ I        1120 13.86         6.3 0.30            116            274 256 
 URE  HE ES   4   1120  6.48                             114   -2.56 0  285 292 
 URE  HZ I        1120 20.97         6.2 0.18            115            285 292 
 GUY2CHZ EP   4   1119 41.54                             113    2.20 0  303 235 
 GUY2CHE ES   1   1120 13.89                             113    0.24 5  303 235 
 GUY2CHZ I        1120 19.61         5.6 0.32                           303 235 
 SJC  HE ES   4   1120 31.83                             106   -2.71 0  409 327 
 SJC  HZ I        1120 38.65         2.1 0.68            108            409 327 
                                                                                
