 2011  911 1040 37.7 L   6.891 -73.274159.5  RSN  5 0.2 2.1LRSN                1
 GAP=209        0.36       4.1     5.4  4.6 -0.1579E+02 -0.7830E+01  0.8650E+01E
 Epicentro: BETULIA - SANTANDER                                                3
 ACTION:UPD 12-07-13 15:56 OP:ep   STATUS:               ID:20110911104037 L   I
 2011-09-11-1040-00M.COL___169                                                 6
 STAT SP IPHASW D HRMM SECON CODA AMPLIT PERI AZIMU VELO AIN AR TRES W  DIS CAZ7
 BRR  HZ EP   1   1040 59.58                             160   -0.01 7 54.0 296 
 BRR  HN ES   1   1041 16.64                             160    0.01 7 54.0 296 
 BRR  HZ I        1041 18.15        11.8 0.15                          54.0 296 
 OCA  SZ EP   1   1041  6.13                             135   -0.05 7  149 358 
 NOR  SE ES   1   1041 42.06                             122    0.18 6  230 230 
 HEL  HZ EP   1   1041 17.51                             118    0.00 6  261 253 
 HEL  HN ES   1   1041 48.43                             118   -0.10 6  261 253 
 PRA  HZ EP   1   1041 32.38                             109    0.36 4  394 207 
 PRA  HN ES   1   1042 13.93                             109   -0.42 4  394 207 
 PRA  HZ I        1042 18.22         6.4 0.20                           394 207 
                                                                                
