 2013  211 1032 14.8 L   6.583 -73.721 86.8  RSN  8 0.6 1.8LRSN                1
 GAP=121        1.37       6.3     4.0 10.6  0.2143E+01  0.1122E+02  0.7136E+01E
 Epicentro: EL CARMEN DE CHUCURI - SANTANDER                                   3
 ACTION:UPD 13-03-12 09:32 OP:ep   STATUS:               ID:20130211103213 L   I
 2013-02-11-1030-00M.COL___240                                                 6
 STAT SP IPHASW D HRMM SECON CODA AMPLIT PERI AZIMU VELO AIN AR TRES W  DIS CAZ7
 BRR  HZ IP     D 1032 28.47                             143   -0.4610 57.9   1 
 BRR  HN ES   1   1032 40.21                             143    0.24 7 57.9   1 
 BRR  HZ I        1032 41.22        13.6 0.11            141           57.9   1 
 BAR2 SZ IP     C 1032 29.46                             142    0.0810 59.6  89 
 BAR2 SZ ES       1032 41.65                             142    0.8710 59.6  89 
 BAR2 SZ I        1032 43.04        30.5 0.32            142           59.6  89 
 PTB  HZ EP       1032 30.08                             133   -0.8110 81.5 267 
 PTB  HN ES       1032 42.70                             133   -0.7710 81.5 267 
 PTB  HZ I        1032 43.92        22.5 0.10            133           81.5 267 
 RUS  HZ EP       1032 33.65                             126   -0.0210  104 137 
 RUS  HN ES   1   1032 48.17                             126   -0.24 7  104 137 
 RUS  HZ I        1032 49.76         4.1 0.13            126            104 137 
 PAM  SZ EP   1   1032 37.20                             117   -0.30 7  140  53 
 PAM  SE ES   1   1032 54.95                             117   -0.29 7  140  53 
 PAM  SE I        1032 59.76         9.4 0.50            116            140  53 
 ZAR  HZ EP   1   1032 39.23                             113    0.05 7  161 309 
 ZAR  HN ES   1   1032 58.88                             113    0.67 7  161 309 
 ZAR  HN I        1033  2.35        17.5 0.12            112            161 309 
 HEL  HZ EP       1032 45.63                             108    0.95 9  205 258 
 HEL  HN ES   1   1033  8.97                             108    0.95 6  205 258 
 HEL  HN I        1033 12.48         5.8 0.26            108            205 258 
 URE  HZ EP   4   1032 46.43                             105   -1.78 0  238 303 
 URE  HN ES   4   1033 12.01                             105   -2.29 0  238 303 
 URE  HN I        1033 14.98         9.1 0.22            105            238 303 
                                                                                
