 2016  311 1545 35.7 L   6.815 -73.138130.0  RSN  7 0.5 2.3LRSN                1
 GAP=137        1.22       5.0     6.0  8.6 -0.8691E+01  0.2821E+02 -0.2862E+01E
 Epicentro: LOS SANTOS - SANTANDER                                             3
 ACTION:UPD 16-05-13 21:23 OP:cam  STATUS:               ID:20160311154535 L   I
 OLDACT:DUP 16-03-12 01:15 OP:ar   STATUS:               ID:20160311152726d    3
 OLDACT:UP  16-03-12 01:09 OP:ar   STATUS:               ID:20160311152725     3
 OLDACT:REG 16-03-11 23:24 OP:ar   STATUS:               ID:20160311152725     3
 2016-03-11-1534-00M.COL___2442                                                6
 STAT SP IPHASW D HRMM SECON CODA AMPLIT PERI AZIMU VELO AIN AR TRES W  DIS CAZ7
 BAR2 EZ EP       1545 52.99                             169   -0.5010 25.1 191 
 BAR2 EZ ES       1546  7.76                             169    0.4010 25.1 191 
 BAR2 EZ I        1546 10.07        18.6 0.18            170           25.1 191 
 PAM  HZ EP       1545 55.67                             149   -0.4910 75.6  40 
 PAM  EN ES       1546 12.57                             149    0.4710 75.6  40 
 PAM  HZ I        1546 14.71        37.1 0.46            150           75.6  40 
 RUS  BZ EP       1545 58.11                             140    0.0410  102 177 
 RUS  BN ES       1546 15.45                             140   -0.0710  102 177 
 RUS  BZ I        1546 16.82        99.7 0.40            143            102 177 
 SPBC HZ EP       1546  3.47                             125    0.24 9  165 219 
 SPBC HN ES       1546 24.25                             125   -0.44 9  165 219 
 ZAR  BZ EP       1546  6.54                             119   -0.65 9  204 292 
 ZAR  HN ES       1546 31.94                             119    0.19 9  204 292 
 NOR  BZ EP       1546 10.96                             115    0.20 8  236 234 
 NOR  BN ES       1546 37.33                             115   -0.76 8  236 234 
 GUY2CHZ EP       1546 19.86                             109    1.03 7  303 235 
 GUY2CHE ES       1546 53.42                             109    0.96 7  303 235 
                                                                                
