 2017  711 1910 28.1 L   6.762 -73.086145.5  RSN  6 0.4 1.7LRSN                1
 GAP=270        0.75       5.8     5.8  5.9 -0.7597E+01  0.9805E+01  0.1089E+02E
 Epicentro: LOS SANTOS - SANTANDER                                             3
 ACTION:UPD 17-08-30 15:32 OP:rebc STATUS:               ID:20170711191028 L   I
 OLDACT:REG 17-07-11 21:32 OP:dhb  STATUS:               ID:20170711190654     3
 2017-07-11-1908-00M.COL___378                                                 6
 STAT SP IPHASW D HRMM SECON CODA AMPLIT PERI AZIMU VELO AIN AR TRES W  DIS CAZ7
 BAR2 EZ IP     D 1910 47.77                             171    0.1210 21.6 209 
 BAR2 EZ ES       1911  2.76                             171   -0.1510 21.6 209 
 BAR2 EZ I        1911  3.93        12.5 0.24            167           21.6 209 
 BRR  HZ EP       1910 49.61                             150   -0.0510 78.9 299 
 BRR  HN ES       1911  6.82                             150    0.3310 78.9 299 
 BRR  HZ I        1911  7.62         8.5 0.33            149           78.9 299 
 PTB  HZ EP   2   1910 54.76                             131   -0.79 5  153 261 
 PTB  HN ES   2   1911 15.83                             131   -1.15 5  153 261 
 PTB  HZ I        1911 19.00         4.3 0.27            130            153 261 
 ZAR  HZ EP   2   1911  1.50                             121    0.20 4  212 293 
 ZAR  HN ES   2   1911 26.92                             121   -0.30 4  212 293 
 NOR  HZ EP       1911  4.18                             118    0.06 8  238 236 
 NOR  HN ES       1911 31.98                             118   -0.25 8  238 236 
 NOR  HZ I        1911 37.10         3.8 0.22            118            238 236 
 GUY2CHZ EP       1911 11.92                             112   -0.10 7  304 236 
 GUY2CHN ES       1911 46.99                             112    0.70 7  304 236 
 GUY2CHZ I        1911 54.34         2.8 0.40                           304 236 
                                                                                
