 2011  211 1112 23.7 L   7.030 -72.974  4.0  RSN  4 0.5 1.2LRSN                1
 GAP=174        1.11       3.1     5.5  9.4 -0.2975E+01  0.3244E+01  0.3317E+01E
 Epicentro: PIEDECUESTA - SANTANDER                                            3
 ACTION:UP  11-03-28 15:07 OP:jfem STATUS:               ID:20110211111224 L   I
 2011-02-11-1107-52S.COL___136                                                 6
 STAT SP IPHASW D HRMM SECON CODA AMPLIT PERI AZIMU VELO SNR AR TRES W  DIS CAZ7
 GIR2 SZ EP       1112 28.55                              47     0.410   25 282 
 GIR2 SZ ES   1   1112 31.45                              47    -0.2 7   25 282 
 BAR2 SZ EP   1   1112 33.04                              47     0.4 7   54 206 
 BAR2 SZ ES   1   1112 39.08                              47    -0.6 7   54 206 
 BAR2 SZ I        1112 40.47        19.3 0.20                            54 206 
 GRA  SZ EP   1   1112 39.49                              47     0.5 7   96  11 
 GRA  SZ ES   1   1112 50.27                              47    -0.7 7   96  11 
 GRA  SZ I        1112 52.64         6.5 0.21                            96  11 
 RUS  HZ EP   2   1112 44.68                              47     0.7 5  126 185 
 RUS  HN ES   1   1112 59.47                              47    -0.3 7  126 185 
 RUS  HZ I        1113  2.25         3.1 0.14                           126 185 
                                                                                
