 2013  311 1656 37.7 L   6.773 -73.162144.6  RSN  5 0.3 1.4LRSN                1
 GAP=136        0.69       5.4     4.8  7.0 -0.6493E+01  0.6586E+01 -0.8466E+01E
 Epicentro: LOS SANTOS - SANTANDER                                             3
 ACTION:UPD 13-04-09 14:01 OP:ep   STATUS:               ID:20130311165637 L   I
 2013-03-11-1650-00M.COL___231                                                 6
 STAT SP IPHASW D HRMM SECON CODA AMPLIT PERI AZIMU VELO AIN AR TRES W  DIS CAZ7
 BAR2 SZ ES   1   1657 12.29                             172   -0.02 7 20.1 186 
 BRR  HZ EP       1656 59.15                             152    0.4110 71.1 301 
 BRR  HE ES   1   1657 15.50                             152    0.37 7 71.1 301 
 BRR  HZ I        1657 19.67        10.7 0.26            149           71.1 301 
 PAM  SZ EP       1656 59.93                             149   -0.1010 80.9  39 
 PAM  SZ I        1657  0.23         6.5 0.20            154           80.9  39 
 PAM  SN ES   1   1657 17.07                             149   -0.35 7 80.9  39 
 RUS  HN ES   1   1657 19.57                             144    0.14 7 97.7 175 
 RUS  HZ I        1657 20.96         2.1 0.15            147           97.7 175 
 PTB  HZ EP   1   1657  4.13                             132   -0.25 7  145 260 
 PTB  HN ES   1   1657 24.65                             132   -0.53 7  145 260 
 PTB  HZ I        1657 31.03         2.7 0.41            131            145 260 
                                                                                
