 2017  511 1031 21.3 L   6.733 -73.150139.3  RSN  6 0.3 1.4LRSN                1
 GAP=139        0.77       3.5     3.6  7.0 -0.1672E+01  0.1167E+02 -0.1165E+01E
 Epicentro: LOS SANTOS - SANTANDER                                             3
 ACTION:UPD 17-06-16 13:35 OP:jn   STATUS:               ID:20170511103121 L   I
 OLDACT:REG 17-05-11 20:55 OP:lv   STATUS:               ID:20170511102728     3
 2017-05-11-1028-00M.COL___365                                                 6
 STAT SP IPHASW D HRMM SECON CODA AMPLIT PERI AZIMU VELO AIN AR TRES W  DIS CAZ7
 PAM  EZ EP   1   1031 42.64                             147   -0.56 7 83.5  37 
 PAM  EN ES       1032  0.51                             147    0.2110 83.5  37 
 PAM  EZ I        1032  2.91         5.5 0.38            153           83.5  37 
 RUS  HZ EP       1031 43.84                             144   -0.0210 93.2 175 
 RUS  HN ES       1032  1.58                             144    0.1010 93.2 175 
 RUS  HZ I        1032  3.97         2.8 0.27            148           93.2 175 
 PTB  HZ EP       1031 47.25                             131   -0.31 9  146 262 
 PTB  HN ES       1032  7.53                             131   -0.54 9  146 262 
 PTB  HZ I        1032 10.66         2.7 0.08            133            146 262 
 SPBC HN ES   2   1032 10.66                             129    0.55 5  157 221 
 SPBC HZ I        1032 13.74                             131            157 221 
 ZAR  HZ EP       1031 54.06                             120    0.49 8  206 294 
 ZAR  HE ES       1032 18.91                             120    0.16 8  206 294 
 ZAR  HZ I        1032 24.33         2.8 0.24            123            206 294 
 NOR  HZ EP       1031 56.29                             117    0.15 8  230 236 
 NOR  HN ES       1032 23.45                             117    0.13 8  230 236 
 NOR  HZ I        1032 29.12         2.4 0.27            120            230 236 
                                                                                
