 2013  511 1624 27.8 L   6.816 -73.163142.0  RSN  6 0.2 1.6LRSN                1
 GAP=237        0.43       5.8     3.8  8.9  0.2186E+01  0.4166E+01 -0.2361E+02E
 Epicentro: LOS SANTOS - SANTANDER                                             3
 ACTION:UPD 13-06-20 09:49 OP:ep   STATUS:               ID:20130511162427 L   I
 2013-05-11-1620-00M.COL___255                                                 6
 STAT SP IPHASW D HRMM SECON CODA AMPLIT PERI AZIMU VELO AIN AR TRES W  DIS CAZ7
 BAR2 SZ EP       1624 46.95                             170   -0.0910 24.8 185 
 BRR  HZ EP   2   1624 48.99                             153    0.56 5 68.7 298 
 PAM  SZ E        1624 55.73                                           77.3  41 
 RUS  HZ EP   2   1624 51.25                             143   -0.10 5  102 175 
 RUS  HN ES   1   1625  9.76                             143    0.06 7  102 175 
 RUS  HZ I        1625 12.15         3.4 0.48            139            102 175 
 PTB  HZ EP   2   1624 53.97                             131   -0.38 5  146 258 
 PTB  HN ES   1   1625 14.95                             131   -0.09 7  146 258 
 PTB  HZ I        1625 16.98         6.8 0.62            130            146 258 
 NOR  HZ EP   2   1625  3.48                             118    0.20 4  234 234 
 NOR  HE ES   2   1625 31.14                             118    0.20 4  234 234 
 NOR  HZ I        1625 34.58         4.1 0.16            117            234 234 
                                                                                
