 2016 1011 1117  7.3 L   6.800 -73.169141.0  RSN  9 0.2 1.8LRSN                1
 GAP=134        0.64       2.2     2.5  3.7 -0.3009E+00  0.2452E+01  0.1539E+01E
 Epicentro: LOS SANTOS - SANTANDER                                             3
 ACTION:UPD 16-11-09 19:18 OP:rebc STATUS:               ID:20161011111707 L   I
 OLDACT:DUP 16-10-11 22:38 OP:lv   STATUS:               ID:20161011110748d    3
 2016-10-11-1108-00M.COL___366                                                 6
 STAT SP IPHASW D HRMM SECON CODA AMPLIT PERI AZIMU VELO AIN AR TRES W  DIS CAZ7
 BAR2 EZ EP       1117 26.10                             170   -0.2210 23.0 184 
 BAR2 EZ ES       1117 40.90                             170   -0.2810 23.0 184 
 BAR2 EZ I        1117 43.48        11.5 0.17            170           23.0 184 
 BRR  HZ EP       1117 27.91                             152    0.1310 68.9 300 
 BRR  HN ES       1117 44.26                             152    0.4910 68.9 300 
 BRR  HZ I        1117 48.88        12.2 0.17            151           68.9 300 
 PAM  EZ EP       1117 29.05                             149   -0.0310 79.1  41 
 PAM  EN ES       1117 45.92                             149   -0.1810 79.1  41 
 PAM  EZ I        1117 47.93        10.3 0.44            153           79.1  41 
 RUS  HZ EP       1117 30.65                             143    0.0810  101 175 
 RUS  HN ES       1117 49.09                             143    0.3510  101 175 
 RUS  HZ I        1117 50.47         9.8 0.32            146            101 175 
 PTB  HZ EP       1117 33.12                             131   -0.50 9  145 259 
 PTB  HE ES       1117 53.88                             131   -0.29 9  145 259 
 PTB  HZ I        1117 56.33         7.3 0.13            132            145 259 
 SPBC HZ EP       1117 35.51                             128    0.26 9  162 218 
 SPBC HN ES       1117 57.01                             128   -0.06 9  162 218 
 SPBC HZ I        1117 59.72        11.5 0.12            130            162 218 
 ZAR  HZ EP       1117 39.24                             122    0.08 9  202 292 
 ZAR  HE ES       1118  4.17                             122    0.14 9  202 292 
 ZAR  HZ I        1118  9.83         8.9 0.23            123            202 292 
 NOR  HZ EP       1117 42.61                             118    0.11 8  233 234 
 NOR  HN ES       1118  9.86                             118   -0.12 8  233 234 
 NOR  HZ I        1118 16.18         5.1 0.16            120            233 234 
 CHI  HZ EP       1117 44.78                             116    0.14 8  248 195 
 CHI  HN ES       1118 13.69                             116   -0.09 8  248 195 
                                                                                
