 2012 1211 1956 47.3 L   6.794 -73.118147.3  RSN 10 0.5 2.5LRSN                1
 GAP=140        1.21       3.6     5.0  6.5  0.7344E-01  0.9188E+01  0.2692E+01E
 Epicentro: LOS SANTOS - SANTANDER                                             3
 ACTION:UPD 13-01-04 14:27 OP:ep   STATUS:               ID:20121211195647 L   I
 2012-12-11-1950-00M.COL___238                                                 6
 STAT SP IPHASW D HRMM SECON CODA AMPLIT PERI AZIMU VELO AIN AR TRES W  DIS CAZ7
 BAR2 SZ EP       1957  7.10                             171   -0.0310 23.5 198 
 BAR2 SZ ES       1957 22.25                             171   -0.3310 23.5 198 
 BAR2 SZ I        1957 26.37        43.2 0.40                          23.5 198 
 BRR  HZ IP     C 1957  9.23                             152    0.4310 74.2 298 
 BRR  HN ES       1957 26.29                             152    0.7410 74.2 298 
 BRR  HN I        1957 26.96        66.2 0.48                          74.2 298 
 PAM  SZ EP       1957 10.13                             151    0.5210 76.0  37 
 PAM  SE ES       1957 26.68                             151   -0.3210 76.0  37 
 PAM  SE I        1957 32.62        14.7 0.52                          76.0  37 
 RUS  HZ EP       1957 11.35                             144    0.1910 99.8 178 
 RUS  HN ES       1957 29.61                             144   -0.1510 99.8 178 
 RUS  HN I        1957 31.32        37.2 0.22                          99.8 178 
 PTB  HZ EP       1957 13.91                             132   -0.76 9  151 259 
 PTB  HN ES       1957 35.36                             132   -0.64 9  151 259 
 PTB  HN I        1957 40.84        69.0 0.50                           151 259 
 ZAR  HZ EP       1957 20.36                             122    0.19 8  207 292 
 ZAR  HN ES       1957 46.84                             122    1.04 8  207 292 
 ZAR  HN I        1957 53.44        27.1 0.30                           207 292 
 NOR  HZ EP       1957 23.06                             119   -0.30 8  237 235 
 NOR  HN ES       1957 51.10                             119   -0.38 8  237 235 
 NOR  HN I        1957 54.46        33.6 0.18                           237 235 
 SML  HZ EP       1957 23.45                             118   -0.78 8  246 335 
 SML  HN ES       1957 52.47                             118   -0.55 8  246 335 
 SML  HN I        1957 59.80        45.3 0.10                           246 335 
 CHI  HZ EP       1957 25.45                             117    0.33 8  249 196 
 CHI  HN ES       1957 55.03                             117    0.42 8  249 196 
 CHI  HN I        1958  1.05        14.9 0.40                           249 196 
 PRA  HZ EP       1957 41.52                             107    0.52 6  393 210 
 PRA  HN ES       1958 22.61                             107   -0.27 6  393 210 
 PRA  HN I        1958 28.83         6.7 0.76                           393 210 
                                                                                
