 2016  311 1733 30.9 L   6.974 -73.160146.0  RSN  9 0.3 2.2LRSN                1
 GAP=124        0.43       2.7     3.1  4.7 -0.2715E+01  0.8488E+01  0.7920E-01E
 Epicentro: GIRON - SANTANDER                                                  3
 ACTION:UPD 16-05-13 21:23 OP:cam  STATUS:               ID:20160311173330 L   I
 OLDACT:REG 16-03-11 23:29 OP:ar   STATUS:               ID:20160311171604     3
 2016-03-11-1722-00M.COL___1758                                                6
 STAT SP IPHASW D HRMM SECON CODA AMPLIT PERI AZIMU VELO AIN AR TRES W  DIS CAZ7
 BAR2 EZ IP     C 1733 51.13                             163    0.0910 42.3 183 
 BAR2 EZ ES   2   1734  6.34                             163   -0.45 5 42.3 183 
 BAR2 EZ I        1734  8.31        32.3 0.16            156           42.3 183 
 PAM  EZ EP       1733 52.54                             155    0.1410 64.9  52 
 PAM  EN ES       1734  9.23                             155    0.0210 64.9  52 
 PAM  EZ I        1734 10.54        48.2 0.32            155           64.9  52 
 RUS  HZ EP       1733 55.91                             139   -0.1910  120 176 
 RUS  HN ES   2   1734 15.91                             139    0.11 5  120 176 
 RUS  HZ I        1734 17.35        11.5 0.32            131            120 176 
 SPBC HZ EP   2   1734  0.93                             126    0.16 4  178 215 
 SPBC HZ I        1734 20.87         8.1 0.24            120            178 215 
 SPBC HE ES   2   1734 24.60                             126    0.50 4  178 215 
 ZAR  HZ EP       1734  2.37                             124   -0.13 9  196 287 
 ZAR  HN ES   2   1734 27.45                             124    0.27 4  196 287 
 ZAR  HZ I        1734 32.78        29.3 0.30            119            196 287 
 NOR  HZ EP   3   1734  8.19                             117    0.46 2  245 231 
 NOR  HE ES   2   1734 35.90                             117   -0.59 4  245 231 
 NOR  HZ I        1734 42.97        10.4 0.19            112            245 231 
 URE  HZ EP   4   1734 14.04                             114    3.01 0  276 288 
 URE  HN ES   4   1734 40.02                             114   -2.35 0  276 288 
 URE  HZ I        1734 41.30        13.8 0.16            110            276 288 
 GUY2CHZ EP   2   1734 16.12                             112    0.49 3  311 232 
 GUY2CHN ES       1734 50.58                             112    0.02 7  311 232 
 GUY2CHZ I        1735  0.82         5.8 0.56                           311 232 
 MON  HZ EP   2   1734 17.88                             109   -0.49 3  341 306 
 MON  HN ES   4   1734 53.44                             109   -2.00 0  341 306 
                                                                                
