 2013 1211 1348 13.1 L   6.789 -73.152148.1  RSN  6 0.5 1.6LRSN                1
 GAP=236        1.16       8.6     7.1  8.7  0.1721E+02  0.1798E+02  0.2358E+02E
 Epicentro: LOS SANTOS - SANTANDER                                             3
 ACTION:UPD 14-01-13 10:17 OP:ep   STATUS:               ID:20131211134813 L   I
 OLDACT:UP  13-12-11 15:10 OP:cam  STATUS:               ID:20131211134000     3
 OLDACT:REG 13-12-11 14:44 OP:cam  STATUS:               ID:20131211134000     3
 2013-12-11-1340-00M.COL___285                                                 6
 STAT SP IPHASW D HRMM SECON CODA AMPLIT PERI AZIMU VELO AIN AR TRES W  DIS CAZ7
 BAR2 SZ EP       1348 32.84                             171   -0.1610 22.0 189 
 BAR2 SZ ES       1348 48.65                             171    0.1410 22.0 189 
 BAR2 SZ I        1348 49.34        15.4 0.28            162           22.0 189 
 BRR  HN ES       1348 51.77                             153    0.5710 71.2 300 
 RUS  HZ EP       1348 37.28                             145    0.2610 99.4 176 
 RUS  HN ES       1348 55.26                             145   -0.4010 99.4 176 
 RUS  HZ I        1348 56.88         3.1 0.28            140           99.4 176 
 PTB  HZ EP       1348 39.71                             133   -0.49 9  147 259 
 PTB  HN ES       1349  0.47                             133   -0.84 9  147 259 
 PTB  HZ I        1349  3.16         5.1 0.16            129            147 259 
 NOR  HZ EP       1348 49.11                             119    0.26 8  233 235 
 NOR  HN ES       1349 17.52                             119    0.80 8  233 235 
 NOR  HZ I        1349 26.39         2.5 0.16            117            233 235 
 CHI  HZ EP   2   1348 51.14                             118    0.34 4  247 195 
                                                                                
