 2017  411 2344 56.9 L   6.800 -73.121151.7  RSN  9 0.5 1.8LRSN                1
 GAP=114        1.26       4.5     4.9  7.6  0.3390E+01  0.3682E+01  0.9068E+01E
 Epicentro: LOS SANTOS - SANTANDER                                             3
 ACTION:UPD 17-05-30 21:11 OP:jn   STATUS:               ID:20170411234456 L   I
 OLDACT:UP  17-04-12 10:22 OP:ar   STATUS:               ID:20170411232350d    3
 OLDACT:DUP 17-04-12 10:12 OP:ar   STATUS:               ID:20170411232350d    3
 OLDACT:REG 17-04-12 06:23 OP:ar   STATUS:               ID:20170411232349     3
 2017-04-11-2338-00M.COL___368                                                 6
 STAT SP IPHASW D HRMM SECON CODA AMPLIT PERI AZIMU VELO AIN AR TRES W  DIS CAZ7
 BAR2 HZ IP     C 2345 17.01                             171   -0.2710 23.9 196 
 BAR2 HZ ES       2345 33.14                             171   -0.0210 23.9 196 
 BAR2 HZ I        2345 35.80         9.1 0.10            168           23.9 196 
 BRR  HZ EP       2345 18.85                             153    0.0010 73.6 298 
 BRR  HN ES       2345 36.89                             153    0.9410 73.6 298 
 PAM  HZ EP       2345 19.85                             152    0.1710 75.7  38 
 PAM  EN ES       2345 37.15                             152   -0.2810 75.7  38 
 PAM  HZ I        2345 39.17        10.6 0.48            157           75.7  38 
 RUS  HZ EP       2345 20.81                             145   -0.4410  100 178 
 RUS  HN ES       2345 39.60                             145   -0.6310  100 178 
 RUS  HZ I        2345 40.82         4.4 0.16            145            100 178 
 PTB  HZ EP       2345 23.86                             133   -0.76 9  150 259 
 PTB  HE ES       2345 45.48                             133   -0.74 9  150 259 
 PTB  HZ I        2345 50.82        11.5 0.34            132            150 259 
 SPBC HZ EP       2345 26.00                             130   -0.04 9  165 220 
 SPBC HE ES       2345 49.14                             130    0.38 9  165 220 
 SPBC HZ I        2345 55.08        13.8 0.27            130            165 220 
 YPLC HZ EP       2345 27.12                             128    0.09 9  176 152 
 YPLC HE ES       2345 51.16                             128    0.65 9  176 152 
 YPLC HZ I        2345 53.81         4.5 0.24            130            176 152 
 ZAR  HZ EP   4   2345 32.25                             123    2.23 0  207 292 
 ZAR  HE ES       2345 56.26                             123    0.43 8  207 292 
 ZAR  HZ I        2346  1.80        11.8 0.24            124            207 292 
 CHI  HZ EP       2345 35.87                             118    0.84 8  249 196 
 CHI  HN ES       2346  4.93                             118    0.17 8  249 196 
 CHI  HZ I        2346 11.78         2.1 0.68            119            249 196 
                                                                                
