 2014  111 2232 21.5 L   6.793 -73.140151.4  RSN 10 0.5 1.7LRSN                1
 GAP=138        1.15       4.2     5.6  8.5  0.2031E+01  0.6613E+01  0.4737E+01E
 Epicentro: LOS SANTOS - SANTANDER                                             3
 ACTION:UPD 14-03-13 09:54 OP:ep   STATUS:               ID:20140111223221 L   I
 OLDACT:REG 14-01-11 23:59 OP:mh   STATUS:               ID:20140111223000     3
 2014-01-11-2230-00M.COL___285                                                 6
 STAT SP IPHASW D HRMM SECON CODA AMPLIT PERI AZIMU VELO AIN AR TRES W  DIS CAZ7
 BAR2 SZ EP       2232 41.14                             171   -0.6710 22.7 192 
 BAR2 SZ I        2233  0.19        26.9 0.39            169           22.7 192 
 BRR  HZ EP   1   2232 43.47                             153    0.14 7 72.1 299 
 BRR  HN ES       2233  0.81                             153    0.4710 72.1 299 
 BRR  HZ I        2233  5.14         9.1 0.19            153           72.1 299 
 PAM  SZ EP       2232 44.99                             152    0.6410 77.6  39 
 PAM  SN ES   1   2233  1.79                             152   -0.36 7 77.6  39 
 PAM  SZ I        2233  2.84         4.7 0.38            153           77.6  39 
 RUS  HZ EP   1   2232 45.85                             145    0.08 7 99.8 176 
 RUS  HN ES       2233  4.78                             145    0.0910 99.8 176 
 RUS  HZ I        2233  6.01         5.2 0.23            144           99.8 176 
 PTB  HZ EP       2232 48.21                             133   -0.78 9  148 259 
 PTB  HN ES   1   2233  9.40                             133   -1.02 7  148 259 
 PTB  HZ I        2233 13.65         6.7 0.22            132            148 259 
 ZAR  HN ES       2233 20.55                             124    0.46 9  205 292 
 ZAR  HZ I        2233 27.08         4.0 0.10            123            205 292 
 NOR  HZ EP   1   2232 58.13                             120    0.54 6  235 235 
 NOR  HE ES   1   2233 26.39                             120    0.67 6  235 235 
 NOR  HZ I        2233 30.26         6.2 0.07            119            235 235 
 SML  HZ EP   1   2232 58.26                             119   -0.31 6  245 335 
 SML  HN ES   1   2233 27.05                             119   -0.41 6  245 335 
 SML  HZ I        2233 29.64         6.8 0.10            118            245 335 
 CHI  HZ EP       2232 59.92                             118    0.44 8  248 195 
 CHI  HN ES       2233 28.95                             118   -0.13 8  248 195 
 CHI  HZ I        2233 37.28         2.2 0.26            118            248 195 
 GUY2CHZ EP   4   2233  6.97                             113    1.57 0  301 235 
 GUY2CHN ES   4   2233 41.62                             113    1.99 0  301 235 
 GUY2CHZ I        2233 48.65         3.3 0.24                           301 235 
                                                                                
