 2013  511 2126  0.2 L   6.758 -73.102141.8  RSN  5 0.4 1.8LRSN                1
 GAP=144        0.90       6.0     5.5  9.0 -0.6878E+01  0.7614E+01  0.1877E+02E
 Epicentro: LOS SANTOS - SANTANDER                                             3
 ACTION:UPD 13-06-20 09:49 OP:ep   STATUS:               ID:20130511212600 L   I
 2013-05-11-2120-00M.COL___256                                                 6
 STAT SP IPHASW D HRMM SECON CODA AMPLIT PERI AZIMU VELO AIN AR TRES W  DIS CAZ7
 BRR  HZ EP   1   2126 21.41                             150    0.12 7 77.7 300 
 BRR  HN ES       2126 38.34                             150    0.5910 77.7 300 
 BRR  HN I        2126 38.58        18.5 0.20            152           77.7 300 
 PAM  SZ EP   1   2126 22.32                             150    0.30 7 78.2  35 
 PAM  SN ES       2126 38.56                             150   -0.5010 78.2  35 
 PAM  SN I        2126 40.71         6.5 0.56            152           78.2  35 
 RUS  HZ EP   1   2126 23.46                             144    0.27 7 95.7 179 
 RUS  HN ES   1   2126 41.29                             144    0.15 7 95.7 179 
 RUS  HN I        2126 43.01         9.2 0.30            145           95.7 179 
 PTB  HZ EP   1   2126 26.81                             130   -0.38 7  152 261 
 PTB  HE ES   1   2126 47.47                             130   -0.79 7  152 261 
 PTB  HE I        2126 49.81         6.8 0.18            132            152 261 
 NOR  HZ EP   1   2126 36.00                             117    0.17 6  236 236 
 NOR  HN ES   2   2127  3.32                             117   -0.31 4  236 236 
 NOR  HN I        2127  4.54         7.5 0.16            119            236 236 
                                                                                
