 2014  911 2055 59.6 L   6.875 -73.126138.0  RSN  6 0.5 1.7LRSN                1
 GAP=204        1.12       5.6     7.2 12.9  0.1430E+01  0.3616E+01 -0.3806E+02E
 Epicentro: LOS SANTOS - SANTANDER                                             3
 ACTION:UPD 14-10-03 23:04 OP:nd   STATUS:               ID:20140911205559 L   I
 OLDACT:REG 14-09-12 04:11 OP:fm   STATUS:               ID:20140911204820     3
 2014-09-11-2048-20M.COL___284                                                 6
 STAT SP IPHASW D HRMM SECON CODA AMPLIT PERI AZIMU VELO AIN AR TRES W  DIS CAZ7
 RUS  HZ EP       2056 23.50                             140    0.3110  109 177 
 RUS  HN ES       2056 41.58                             140   -0.0410  109 177 
 RUS  HZ I        2056 43.47         2.5 0.26            146            109 177 
 PTB  HZ EP       2056 25.57                             130   -0.71 9  152 256 
 PTB  HN ES       2056 47.86                             130    0.74 9  152 256 
 PTB  HZ I        2056 54.80         6.8 0.38            131            152 256 
 SPBC HZ EP   1   2056 28.57                             126    0.31 7  171 218 
 SPBC HN ES   1   2056 49.82                             126   -0.81 7  171 218 
 SPBC HZ I        2056 56.72         6.1 0.30            130            171 218 
 SML  HZ IP       2056 34.80                             117   -0.26 8  237 334 
 SML  HZ EP   1   2056 34.93                             117   -0.13 6  237 334 
 SML  HN ES   1   2057  2.80                             117    0.07 6  237 334 
 SML  HZ I        2057  7.76         7.7 0.24            120            237 334 
 NOR  HE ES       2057  3.20                             116   -0.48 8  241 233 
 NOR  HZ I        2057  9.68         3.5 0.14            120            241 233 
 GUY2CHZ EP       2056 44.46                             110    0.87 7  308 234 
 GUY2CHN ES   4   2057 20.78                             110    2.87 0  308 234 
 GUY2CHZ I        2057 25.94         2.1 0.40                           308 234 
 SJC  HZ EP   4   2056 51.74                             105   -2.47 0  403 326 
 SJC  HN ES   4   2057 35.83                             105   -1.00 0  403 326 
                                                                                
