 2015  211 2122 34.6 L   7.529 -73.493111.2  RSN  6 0.3 2.0LRSN                1
 GAP= 94        0.71       2.5     3.5  8.5  0.1946E+01  0.1902E+02  0.9256E+01E
 Epicentro: SABANA DE TORRES - SANTANDER                                       3
 ACTION:UPD 15-04-30 21:25 OP:nd   STATUS:               ID:20150211212234 L   I
 OLDACT:REG 15-02-12 05:18 OP:cam  STATUS:               ID:20150211211745     3
 2015-02-11-2117-45M.COL___299                                                 6
 STAT SP IPHASW D HRMM SECON CODA AMPLIT PERI AZIMU VELO AIN AR TRES W  DIS CAZ7
 OCA  HZ EP       2122 53.40                             141    0.3710 80.8  14 
 OCA  HN ES       2123  7.63                             141    0.2010 80.8  14 
 OCA  HZ I        2123 10.20        32.1 0.24            147           80.8  14 
 PAM  SZ IP     D 2122 54.17                             138   -0.0410 90.0 103 
 PAM  SN ES       2123  9.27                             138   -0.2710 90.0 103 
 PAM  SZ I        2123 11.21        19.7 0.28            146           90.0 103 
 SML  HZ EP       2122 59.18                             121   -0.45 9  154 336 
 SML  HN ES       2123 19.28                             121    0.10 9  154 336 
 SML  HZ I        2123 23.80        31.3 0.10            126            154 336 
 SPBC HE ES       2123 31.47                             112   -0.11 8  217 197 
 URE  HN ES       2123 32.92                             111   -0.36 8  226 276 
 NOR  HZ EP       2123 12.36                             107    0.28 8  265 215 
 NOR  HN ES       2123 41.69                             107    0.34 8  265 215 
 NOR  HZ I        2123 47.56         4.2 0.14            111            265 215 
                                                                                
