 2013  311 2305  0.8 L   6.564 -73.557110.4  RSN 13 0.6 2.6LRSN                1
 GAP= 66        1.36       3.4     3.9  6.8 -0.4432E+01  0.4614E+01  0.7401E+00E
 Epicentro: EL CARMEN DE CHUCURI - SANTANDER                                   3
 ACTION:UPD 13-04-09 14:01 OP:ep   STATUS:               ID:20130311230500 L   I
 2013-03-11-2258-50M.COL___210                                                 6
 STAT SP IPHASW D HRMM SECON CODA AMPLIT PERI AZIMU VELO AIN AR TRES W  DIS CAZ7
 BAR2 SZ IP       23 5 17.13                             158    0.2710 41.5  86 
 BAR2 SZ ES       23 5 29.71                             158    0.3310 41.5  86 
 BAR2 SZ I        23 5 30.74       338.1 0.42            162           41.5  86 
 BRR  HZ EP       23 5 17.85                             148    0.1910 62.4 344 
 BRR  HE ES       23 5 31.71                             148    0.8910 62.4 344 
 BRR  HN I        23 5 37.35       158.9 0.18            149           62.4 344 
 RUS  HZ EP       23 5 20.12                             138   -0.3310 90.9 145 
 RUS  HE ES       23 5 35.58                             138   -0.2010 90.9 145 
 RUS  HN I        23 5 37.27        21.8 0.22            142           90.9 145 
 PTB  HZ IP     D 23 5 19.92                             135   -0.6010 99.5 268 
 PTB  HZ I        23 5 20.22        59.4 0.26            136           99.5 268 
 PTB  HN ES       23 5 34.84                             135   -1.0710 99.5 268 
 PAM  SZ EP       23 5 24.21                             127    0.4410  128  48 
 PAM  SE ES   1   23 5 41.52                             127   -0.16 7  128  48 
 NOR  HZ EP       23 5 28.79                             116   -0.12 9  183 233 
 NOR  HN ES       23 5 50.10                             116   -0.73 9  183 233 
 NOR  HE I        23 5 53.44        97.3 0.18            119            183 233 
 OCA  HZ EP       23 5 29.08                             116   -0.43 9  187   8 
 OCA  HE ES       23 5 52.38                             116    0.47 9  187   8 
 OCA  HN I        23 5 57.70       169.7 0.20            118            187   8 
 CAPV BZ EP       23 5 31.06                             114    0.15 9  199  44 
 CAPV BZ ES       23 5 53.35                             114   -1.04 9  199  44 
 CHI  HZ EP       23 5 32.90                             112   -0.05 8  215 185 
 CHI  HN ES       23 5 58.31                             112    0.29 8  215 185 
 HEL  HZ EP       23 5 34.65                             111    0.94 8  222 259 
 HEL  HE ES       23 5 59.95                             111    0.58 8  222 259 
 HEL  HN I        23 6  3.95        16.6 0.30            113            222 259 
 SML  HZ EP       23 5 36.88                             108    0.00 8  254 347 
 PRA  HZ EP       23 5 47.92                             102   -0.13 6  348 205 
 PRA  HE ES       23 6 25.96                             102    1.05 6  348 205 
 PRA  HN I        23 6 31.57         4.3 0.30            104            348 205 
 SJC  HE EP   2   23 5 54.00                              99   -1.48 3  410 334 
                                                                                
