 2015 1211 2151 10.8 L   6.738 -73.158145.8  RSN  4 0.4 1.6LRSN                1
 GAP=138        1.13       6.1     5.9 10.0 -0.3942E+01  0.5080E+01  0.6829E+01E
 Epicentro: LOS SANTOS - SANTANDER                                             3
 ACTION:UPD 16-02-04 15:04 OP:cam  STATUS:               ID:20151211215110 L   I
 OLDACT:REG 15-12-12 03:30 OP:drio STATUS:               ID:20151211214750     3
 2015-12-11-2147-50M.COL___340                                                 6
 STAT SP IPHASW D HRMM SECON CODA AMPLIT PERI AZIMU VELO AIN AR TRES W  DIS CAZ7
 BRR  HZ EP       2151 32.27                             152    0.1610 73.6 304 
 BRR  HN ES       2151 49.44                             152    0.7310 73.6 304 
 PAM  EZ EP       2151 33.13                             149   -0.2910 83.6  37 
 PAM  EN ES       2151 50.73                             149   -0.3210 83.6  37 
 PAM  EZ I        2151 52.46         6.0 0.62            155           83.6  37 
 RUS  HZ EP       2151 34.62                             146    0.5210 93.8 175 
 RUS  HN ES       2151 52.12                             146   -0.1410 93.8 175 
 RUS  HZ I        2151 55.86         6.2 0.32            147           93.8 175 
 PTB  HZ EP       2151 37.51                             133   -0.05 9  145 261 
 PTB  HE ES       2151 57.72                             133   -0.70 9  145 261 
 PTB  HZ I        2152  5.55         8.2 0.36            134            145 261 
                                                                                
