 2014  511 2326 21.1 L   6.783 -73.140154.0  RSN 10 0.5 1.7LRSN                1
 GAP=138        0.93       3.6     4.3  7.3 -0.2954E+01  0.7936E+01 -0.4221E+01E
 Epicentro: LOS SANTOS - SANTANDER                                             3
 OLDACT:DUP 14-05-12 07:08 OP:fm   STATUS:               ID:20140511231808d    3
 ACTION:UPD 15-03-16 16:56 OP:nd   STATUS:               ID:20140511232621 L   I
 OLDACT:UP  14-05-12 07:18 OP:fm   STATUS:               ID:20140511231808d    3
 2014-05-11-2318-07M.COL___254                                                 6
 STAT SP IPHASW D HRMM SECON CODA AMPLIT PERI AZIMU VELO AIN AR TRES W  DIS CAZ7
 BRR  HZ EP   1   2326 43.70                             153    0.46 7 72.7 300 
 BRR  HN ES       2327  0.39                             153   -0.1110 72.7 300 
 BRR  HZ I        2327  3.38         7.0 1.94            151           72.7 300 
 PAM  SZ EP       2326 44.86                             151    0.5910 78.4  38 
 PAM  SN ES       2327  2.01                             151   -0.3310 78.4  38 
 PAM  HZ I        2327  3.84         6.6 0.62            151           78.4  38 
 RUS  HZ EP   1   2326 45.59                             145    0.04 7 98.6 176 
 RUS  HN ES       2327  4.46                             145   -0.1510 98.6 176 
 PTB  HZ EP   1   2326 48.99                             133    0.20 7  148 260 
 PTB  HN ES       2327  9.77                             133   -0.61 9  148 260 
 PTB  HZ I        2327 12.09         5.8 0.22            134            148 260 
 SPBC HN ES   1   2327 12.83                             130    0.01 7  162 220 
 ZAR  HN ES   1   2327 20.83                             123    0.74 6  205 293 
 NOR  HN ES   1   2327 25.98                             120    0.50 6  234 235 
 SML  HZ EP   1   2326 57.47                             118   -0.96 6  246 335 
 SML  HE ES       2327 27.71                             118    0.17 8  246 335 
 SML  HZ I        2327 34.55         6.0 0.10            118            246 335 
 GUY2CHN ES   1   2327 39.46                             113    0.13 5  301 235 
 SJC  HZ EP   1   2327 16.40                             106   -0.79 4  411 327 
 SJC  HN ES   4   2327 58.96                             106   -1.97 0  411 327 
                                                                                
