 2013 1011 2230 53.2 L   6.801 -73.157144.7  RSN 10 0.6 1.9LRSN 2.5WRSN        1
 SPEC AVERAGE  MO 12.9 ST154.5 OM  1.2 f0 19.7 R0.2281 AL 0.00 WI 20.0 MW  2.5 3
 SPEC SD       MO  0.3 ST282.2 OM  0.4 f0 12.8 R0.2296 AL      WI      MW  0.2 3
 GAP=135        1.43       4.4     6.1  7.7 -0.5858E+01  0.1278E+02  0.2174E+01E
 Epicentro: LOS SANTOS - SANTANDER                                             3
 SPEC BAR2SH Z MO 12.9 ST 73.3 OM  1.1 f0 23.9 R0.0805 AL-0.00 WI 20.0 MW  2.6 3
 SPEC BAR2SH Z T223125 K 0.050 GD  146 VS 5.20 DE 3.20 Q0750.0 QA 1.50 VS 5.20 3
 SPEC BRR HH Z MO 13.0 ST 12.9 OM  1.1 f0 13.0 R0.1480 AL-0.00 WI 20.0 MW  2.6 3
 SPEC BRR HH Z T223130 K 0.050 GD  160 VS 5.20 DE 3.20 Q0750.0 QA 1.50 VS 5.20 3
 SPEC RUS HH Z MO 12.2 ST 13.1 OM  0.3 f0 23.4 R0.0822 AL-0.00 WI 20.0 MW  2.1 3
 SPEC RUS HH Z T223133 K 0.050 GD  176 VS 5.20 DE 3.20 Q0750.0 QA 1.50 VS 5.20 3
 SPEC PTB HH Z MO 12.9 ST0.191 OM  0.9 f0 3.42 R0.5626 AL-0.00 WI 20.0 MW  2.5 3
 SPEC PTB HH Z T223139 K 0.050 GD  206 VS 5.20 DE 3.20 Q0750.0 QA 1.50 VS 5.20 3
 SPEC SPBCHH Z MO 12.9 ST146.7 OM  0.9 f0 30.8 R0.0625 AL-0.00 WI 20.0 MW  2.6 3
 SPEC SPBCHH Z T223141 K 0.050 GD  217 VS 5.20 DE 3.20 Q0750.0 QA 1.50 VS 5.20 3
 SPEC SML HH Z MO 13.3 ST835.1 OM  1.2 f0 40.0 R0.0481 AL-0.00 WI 20.0 MW  2.8 3
 SPEC SML HH Z T223155 K 0.050 GD  282 VS 5.20 DE 3.20 Q0750.0 QA 1.50 VS 5.20 3
 SPEC CHI HH Z MO 12.8 ST0.130 OM  0.7 f0 3.14 R0.6127 AL-0.00 WI 20.0 MW  2.5 3
 SPEC CHI HH Z T223157 K 0.050 GD  287 VS 5.20 DE 3.20 Q0750.0 QA 1.50 VS 5.20 3
 OLDACT:REG 13-10-12 02:55 OP:stll STATUS:               ID:20131011222844     3
 ACTION:UPD 13-11-25 09:21 OP:ep   STATUS:               ID:20131011223053 L   I
 OLDACT:UP  13-10-12 05:03 OP:stll STATUS:               ID:20131011222844     3
 2013-10-11-2228-44M.COL___236                                                 6
 STAT SP IPHASW D HRMM SECON CODA AMPLIT PERI AZIMU VELO AIN AR TRES W  DIS CAZ7
 BAR2 SZ EP       2231 12.82                             171    0.0910 23.2 187 
 BAR2 SZ ES       2231 27.45                             171   -0.4810 23.2 187 
 BAR2 SZ I        2231 29.30        21.9 0.26            170           23.2 187 
 BRR  HZ EP       2231 14.82                             153    0.6210 70.1 299 
 BRR  HN ES       2231 31.66                             153    1.1110 70.1 299 
 BRR  SZ I        2231 34.94        16.2 0.16            152           70.1 299 
 PAM  SZ EP       2231 15.78                             150    0.4110 78.1  40 
 PAM  SE ES       2231 32.63                             150   -0.0110 78.1  40 
 PAM  SZ I        2231 34.50        21.0 0.62            155           78.1  40 
 RUS  HZ EP       2231 16.71                             144   -0.1710  101 175 
 RUS  HE ES       2231 35.35                             144    0.0210  101 175 
 RUS  SZ I        2231 37.83         4.6 0.60            146            101 175 
 PTB  HZ EP       2231 19.84                             132   -0.16 9  147 259 
 PTB  HE ES       2231 40.76                             132   -0.12 9  147 259 
 PTB  SZ I        2231 46.39        10.0 0.30            133            147 259 
 SPBC HZ EP       2231 21.66                             129    0.08 9  162 219 
 SPBC HN ES       2231 43.31                             129   -0.37 9  162 219 
 SPBC SZ I        2231 49.61        12.2 0.24            131            162 219 
 NOR  HZ EP       2231 28.38                             118   -0.41 8  234 234 
 NOR  HE ES       2231 55.74                             118   -0.79 8  234 234 
 NOR  SZ I        2231 59.26         4.7 0.22            120            234 234 
 SML  HZ EP       2231 29.27                             117   -0.46 8  243 336 
 SML  HN ES       2231 56.90                             117   -1.30 8  243 336 
 SML  SZ I        2232  1.56        14.3 0.08            120            243 336 
 CHI  HZ EP       2231 31.06                             117    0.22 8  248 195 
 CHI  HN ES       2231 59.47                             117   -0.70 8  248 195 
 CHI  SZ I        2232  3.79         2.4 1.12            119            248 195 
 GUY2CHZ EP       2231 37.95                             112    1.27 7  300 235 
 GUY2CHN ES       2232 11.47                             112    0.90 7  300 235 
 GUY2CSZ I        2232 20.33         4.4 0.50                           300 235 
                                                                                
