 2016  511 2319  2.9 L   6.780 -73.131143.6  RSN 18 0.4 2.4LRSN                1
 GAP=139        0.75       2.7     2.8  4.2 -0.9018E+00  0.4002E+01  0.1996E+01E
 Epicentro: LOS SANTOS - SANTANDER                                             3
 ACTION:UPD 16-08-18 17:44 OP:cam  STATUS:               ID:20160511231902 L   I
 OLDACT:REG 16-05-12 06:29 OP:dnl  STATUS:               ID:20160511231747     3
 2016-05-11-2317-47M.COL___309                                                 6
 STAT SP IPHASW D HRMM SECON CODA AMPLIT PERI AZIMU VELO AIN AR TRES W  DIS CAZ7
 BAR2 EZ EP     C 2319 22.28                             171    0.0110 21.5 195 
 BAR2 EZ ES       2319 37.00                             171   -0.3610 21.5 195 
 BAR2 EZ I        2319 38.12        32.2 0.22            169           21.5 195 
 BRR  HZ EP     C 2319 24.19                             151    0.1910 73.7 299 
 BRR  HN ES       2319 40.96                             151    0.5310 73.7 299 
 BRR  HZ I        2319 45.25        65.1 0.12            148           73.7 299 
 PAM  EZ EP       2319 25.31                             150    0.3410 78.1  38 
 PAM  EN ES       2319 41.89                             150   -0.2610 78.1  38 
 PAM  EZ I        2319 44.21        48.4 0.44            153           78.1  38 
 RUS  HZ EP     C 2319 26.26                             144   -0.0510 98.3 177 
 RUS  HN ES       2319 44.63                             144    0.0910 98.3 177 
 RUS  HZ I        2319 45.57        30.7 0.24            145           98.3 177 
 PTB  HZ EP       2319 28.87                             131   -0.97 9  149 260 
 PTB  HE ES       2319 50.74                             131   -0.09 9  149 260 
 PTB  HZ I        2319 52.53        24.8 0.24            130            149 260 
 SPBC HZ EP       2319 31.42                             129    0.21 9  163 220 
 SPBC HE ES       2319 53.29                             129    0.03 9  163 220 
 SPBC HZ I        2319 56.66        49.8 0.30            128            163 220 
 ZAR  HZ EP       2319 35.43                             122   -0.06 8  206 293 
 ZAR  HN ES       2320  1.16                             122    0.28 8  206 293 
 ZAR  HZ I        2320  6.33        37.5 0.46            121            206 293 
 NOR  HZ EP   2   2319 38.26                             118   -0.29 4  235 235 
 NOR  HE ES       2320  6.29                             118   -0.04 8  235 235 
 NOR  HZ I        2320 10.63        16.1 0.14            118            235 235 
 CHI  HZ EP   2   2319 40.65                             117    0.32 4  247 196 
 CHI  HN ES   2   2320  9.32                             117   -0.18 4  247 196 
 CHI  HZ I        2320 14.13         9.3 0.40            118            247 196 
 HEL  HZ EP   2   2319 42.84                             114   -0.32 4  273 256 
 HEL  HN ES   2   2320 14.29                             114   -0.24 4  273 256 
 HEL  HZ I        2320 21.09        14.4 0.42            114            273 256 
 URE  HZ EP   4   2319 46.80                             113    2.63 0  286 292 
 URE  HN ES   4   2320 14.95                             113   -1.38 0  286 292 
 URE  HZ I        2320 26.87        17.5 0.16            113            286 292 
 LL6C HZ EP   4   2319 47.14                             110   -1.67 0  327 357 
 LL6C HE ES   4   2320 20.58                             110   -4.01 0  327 357 
 LL6C HZ I        2320 25.37         7.6 0.48            111            327 357 
 CBOC HZ EP   2   2319 50.45                             109    0.58 3  335 253 
 CBOC HN ES       2320 26.03                             109   -0.44 7  335 253 
 CBOC HZ I        2320 30.08         4.8 0.26            109            335 253 
 DBB  SZ EP   2   2319 49.94                             109   -0.60 3  341 275 
 DBB  SZ ES   4   2320 25.85                             109   -1.81 0  341 275 
 DBB  SZ I        2320 31.06        28.2 0.70            109            341 275 
 ANIL HN ES   2   2320 32.43                             108    1.07 3  357 225 
 PRA  HZ EP       2319 56.57                             106    0.31 6  391 210 
 PRA  HN ES       2320 38.33                             106    0.49 6  391 210 
 PRA  HZ I        2320 40.83         9.8 0.28            107            391 210 
 ORTC HZ EP   3   2319 56.59                             106   -0.10 1  395 217 
 ORTC HN ES   2   2320 38.90                             106    0.28 3  395 217 
 ORTC HZ I        2320 45.57         8.9 0.32            106            395 217 
 SJC  HZ EP   4   2319 57.14                             105   -1.61 0  412 327 
 SJC  HN ES   4   2320 37.93                             105   -4.36 0  412 327 
 SJC  HZ I        2320 41.87         6.4 0.38            106            412 327 
                                                                                
