 2012  711 2318  1.9 L   6.772 -73.358123.7  RSN 12 0.4 2.4LRSN                1
 GAP= 65        1.01       4.3     3.8  6.7  0.2548E+01  0.3525E+01  0.2872E+01E
 Epicentro: ZAPATOCA - SANTANDER                                               3
 ACTION:UPD 12-08-14 11:44 OP:ep   STATUS:               ID:20120711231801 L   I
 2012-07-11-2316-40M.COL___211                                                 6
 STAT SP IPHASW D HRMM SECON CODA AMPLIT PERI AZIMU VELO AIN AR TRES W  DIS CAZ7
 BAR2 SZ EP   1   2318 19.17                             167     0.2 7   28 136 
 BAR2 SZ ES   1   2318 32.42                             167     0.1 7   28 136 
 BAR2 SZ I        2318 33.35       150.1 0.34            135             28 136 
 BRR  HZ EP   1   2318 19.93                             155     0.2 7   54 313 
 BRR  HE ES   1   2318 34.24                             155     0.6 7   54 313 
 BRR  HZ I        2318 36.01       119.7 0.15            136             54 313 
 PAM  SZ EP   1   2318 23.12                             140    -0.1 7   96  49 
 PAM  SE ES   1   2318 40.30                             140     0.5 7   96  49 
 RUS  HZ EP   1   2318 23.56                             138    -0.1 7  102 163 
 RUS  HN ES   1   2318 40.24                             138    -0.4 7  102 163 
 RUS  HZ I        2318 42.48        26.5 0.38            105            102 163 
 PTB  HZ EP   1   2318 24.11                             132    -0.8 7  124 258 
 PTB  HE ES   1   2318 42.25                             132    -0.7 7  124 258 
 PTB  HZ I        2318 46.85        57.8 0.29            104            124 258 
 OCA  HZ EP   1   2318 28.42                             124    -0.4 7  162   1 
 OCA  HN ES   1   2318 48.99                             124    -0.8 7  162   1 
 TAM  HZ EP   1   2318 30.27                             121     0.1 7  177 102 
 TAM  HZ I        2318 51.22        26.8 0.14             99            177 102 
 TAM  HN ES   1   2318 52.01                             121    -0.2 7  177 102 
 ZAR  HZ EP   1   2318 31.01                             120     0.1 7  184 296 
 ZAR  HN ES   1   2318 53.86                             120     0.4 7  184 296 
 YOP  SZ EP   1   2318 31.99                             119     0.6 7  188 146 
 YOP  SZ I        2318 56.23        23.8 0.49             97            188 146 
 CHI  HZ EP   1   2318 37.58                             113     0.0 6  240 190 
 CHI  HZ I        2319 13.51        10.5 0.50             95            240 190 
 HEL  HZ EP   1   2318 38.91                             112     0.5 6  249 255 
 HEL  HZ I        2319 12.35        26.1 0.45             95            249 255 
 DBB  SZ EP   1   2318 46.55                             107     0.7 5  316 275 
