 2017  111 2338 14.1 L   6.566 -73.587108.8  RSN  7 0.2 1.2LRSN                1
 GAP=141        0.65       3.3     2.4  5.2 -0.2970E+01  0.3496E+01 -0.1235E+01E
 Epicentro: EL CARMEN - SANTANDER                                              3
 ACTION:UPD 17-05-22 15:58 OP:jn   STATUS:               ID:20170111233814 L   I
 OLDACT:REG 17-01-12 00:47 OP:lv   STATUS:               ID:20170111232750     3
 2017-01-11-2328-00M.COL___340                                                 6
 STAT SP IPHASW D HRMM SECON CODA AMPLIT PERI AZIMU VELO AIN AR TRES W  DIS CAZ7
 BAR2 EZ EP       2338 30.51                             156    0.4010 44.9  86 
 BAR2 EZ ES       2338 42.75                             156    0.1310 44.9  86 
 RUS  HZ EP       2338 33.40                             137   -0.3610 93.0 143 
 RUS  HN ES       2338 49.02                             137   -0.0910 93.0 143 
 RUS  HZ I        2338 50.32         1.3 0.24            140           93.0 143 
 PTB  HZ EP       2338 33.29                             135   -0.0810 96.2 268 
 PTB  HN ES       2338 48.16                             135   -0.2710 96.2 268 
 PTB  HZ I        2338 49.50         3.0 0.10            133           96.2 268 
 PAM  EZ EP       2338 36.95                             126   -0.2110  130  49 
 PAM  EE ES       2338 55.27                             126    0.1010  130  49 
 PAM  EZ I        2338 56.61         3.9 0.27            127            130  49 
 ZAR  HN ES   4   2339  4.90                             117    2.76 0  174 306 
 ZAR  HZ I        2339  9.18         2.8 0.11            116            174 306 
 NOR  HZ EP       2338 42.06                             116    0.25 9  180 232 
 NOR  HN ES       2339  3.69                             116    0.24 9  180 232 
 NOR  HZ I        2339  7.96         2.2 0.24            116            180 232 
 CHI  HN ES   4   2339 13.06                             112    1.93 0  215 184 
 GUY2CHE ES   4   2339 21.82                             108    4.06 0  246 233 
 GUY2CHZ  IAML    2339 22.94         1.8 0.32                           246 233 
                                                                                
