 2016  611 2318 56.9 L   6.804 -73.155144.4  RSN 17 0.4 2.3LRSN                1
 GAP=135        0.96       2.7     3.4  4.7 -0.1705E+01  0.4146E+01  0.3450E+01E
 Epicentro: LOS SANTOS - SANTANDER                                             3
 ACTION:UPD 16-07-21 22:17 OP:rebc STATUS:               ID:20160611231856 L   I
 OLDACT:REG 16-06-12 03:47 OP:ak   STATUS:               ID:20160611231744     3
 2016-06-11-2317-44M.COL___337                                                 6
 STAT SP IPHASW D HRMM SECON CODA AMPLIT PERI AZIMU VELO AIN AR TRES W  DIS CAZ7
 BAR2 EZ EP       2319 16.32                             170   -0.0210 23.6 187 
 BAR2 EZ ES       2319 31.43                             170   -0.1110 23.6 187 
 BAR2 EZ I        2319 32.89        64.8 0.30                          23.6 187 
 BRR  HZ EP       2319 18.10                             153    0.2910 70.1 299 
 BRR  HN ES       2319 35.05                             153    0.9110 70.1 299 
 BRR  HZ I        2319 35.78        32.4 0.12                          70.1 299 
 PAM  EZ EP       2319 19.12                             150    0.1510 77.8  40 
 PAM  EN ES       2319 35.91                             150   -0.2910 77.8  40 
 PAM  EZ I        2319 38.49        34.8 0.52                          77.8  40 
 RUS  HZ EP       2319 20.28                             143   -0.2410  101 175 
 RUS  HN ES       2319 38.90                             143   -0.0810  101 175 
 RUS  HZ I        2319 39.96        14.8 0.28                           101 175 
 PTB  HZ EP       2319 23.07                             132   -0.57 9  147 259 
 PTB  HN ES       2319 43.73                             132   -0.79 9  147 259 
 PTB  HZ I        2319 46.51        11.9 0.11                           147 259 
 OCA  HZ EP   2   2319 24.31                             129   -0.72 5  160 354 
 OCA  HN ES       2319 47.01                             129    0.02 9  160 354 
 OCA  HZ I        2319 56.26        34.4 0.24                           160 354 
 SPBC HZ EP       2319 25.34                             129    0.11 9  163 219 
 SPBC HN ES       2319 47.56                             129    0.20 9  163 219 
 SPBC HZ I        2319 52.20        37.1 0.16                           163 219 
 NOR  HZ EP       2319 32.50                             118    0.05 8  234 234 
 NOR  HN ES       2320  0.26                             118    0.05 8  234 234 
 NOR  HZ I        2320  2.99                                            234 234 
 CHI  HZ EP       2319 34.63                             117    0.12 8  249 195 
 CHI  HN ES       2320  3.20                             117   -0.66 8  249 195 
 CHI  HZ I        2320  7.30        13.8 0.68                           249 195 
 HEL  HZ EP   9   2319 38.26                             114    1.35 0  271 256 
 HEL  HN ES       2320  8.93                                   -0.56 8  271 256 
 HEL  HZ I        2320 14.37         7.2 0.28                           271 256 
 GUY2CHZ EP   2   2319 40.69                             112    0.35 4  301 235 
 GUY2CHE ES       2320 14.57                             112    0.32 7  301 235 
 GUY2CHZ I        2320 22.58        10.9 0.34                           301 235 
 VIL  SZ EP       2319 40.89                             112    0.64 7  304 191 
 VIL  SN ES       2320 14.19                             112    0.11 7  304 191 
 CBOC HZ EP       2319 44.14                             110    0.51 7  333 252 
 CBOC HN ES       2320 20.95                             110    0.86 7  333 252 
 DBB  SZ IP       2319 43.70                             109   -0.46 7  338 274 
 DBB  SZ ES       2320 20.25                             109   -0.80 7  338 274 
 DBB  SZ I        2320 21.87        19.6 0.30                           338 274 
 ANIL HN ES   4   2320 29.33                             108    4.00 0  357 224 
 PRA  HZ EP       2319 50.63                             106    0.31 6  392 209 
 PRA  HN ES       2320 31.80                             106   -0.22 6  392 209 
 PRA  HZ I        2320 38.58        12.6 0.32                           392 209 
 ORTC HZ EP       2319 50.48                             106   -0.23 6  395 216 
 ORTC HN ES       2320 33.06                             106    0.36 6  395 216 
 ORTC HZ I        2320 37.71         6.0 0.28                           395 216 
 SJC  HZ EP   4   2319 50.64                             105   -1.64 0  408 327 
 SJC  HN ES   4   2320 31.84                             105   -3.66 0  408 327 
 SJC  HZ I        2320 39.47         4.4 0.44                           408 327 
                                                                                
