 2013  811 2016 35.7 L   6.807 -73.163150.4  RSN  8 0.4 1.8LRSN                1
 GAP=134        0.88       3.2     4.1  6.2  0.6927E+00  0.4690E+01  0.1519E+01E
 Epicentro: LOS SANTOS - SANTANDER                                             3
 ACTION:UPD 14-01-14 09:01 OP:ep   STATUS:               ID:20130811201635 L   I
 OLDACT:REG 13-08-11 21:43 OP:cam  STATUS:               ID:20130811201000     3
 2013-08-11-2010-00M.COL___269                                                 6
 STAT SP IPHASW D HRMM SECON CODA AMPLIT PERI AZIMU VELO AIN AR TRES W  DIS CAZ7
 BAR2 SZ ES   1   2017 11.52                             171   -0.10 7 23.8 185 
 BRR  HZ EP   1   2016 57.67                             154    0.46 7 69.2 299 
 BRR  HN ES       2017 14.65                             154    0.6310 69.2 299 
 BRR  HZ I        2017 16.97        10.0 0.30            152           69.2 299 
 PAM  SZ EP       2016 58.61                             151    0.1910 78.1  41 
 PAM  SZ I        2016 58.82        18.7 0.20            154           78.1  41 
 PAM  SN ES       2017 15.86                             151   -0.3110 78.1  41 
 RUS  HZ EP   1   2016 59.78                             144   -0.16 7  101 175 
 RUS  HE ES   1   2017 18.86                             144   -0.02 7  101 175 
 RUS  HZ I        2017 19.76         3.9 0.26            144            101 175 
 PTB  HZ EP       2017  2.66                             133   -0.21 9  146 258 
 PTB  HN ES       2017 23.31                             133   -0.77 9  146 258 
 PTB  HZ I        2017 26.03         6.7 0.14            132            146 258 
 ZAR  HN ES       2017 33.97                             124    0.37 9  202 292 
 ZAR  HZ I        2017 38.75         7.1 0.28            123            202 292 
 SML  HZ EP   1   2017 12.17                             119   -0.23 6  242 336 
 SML  HN ES       2017 40.78                             119   -0.27 8  242 336 
 SML  HZ I        2017 44.03         9.5 0.10            118            242 336 
 CHI  HZ EP   1   2017 13.99                             118    0.34 6  249 195 
 CHI  HN ES       2017 43.45                             118    0.17 8  249 195 
 CHI  HZ I        2017 48.52         2.8 0.28            118            249 195 
                                                                                
