 2012  411 2219 40.0 L   6.840 -73.434122.0  RSN  6 0.4 2.0LRSN                1
 GAP=119        0.92       7.8     7.3 12.1 -0.1841E+02 -0.8524E+01  0.3320E+02E
 Epicentro: SAN VICENTE DE CHUCURI - SANTANDER                                 3
 ACTION:UPD 12-07-05 11:52 OP:tino STATUS:               ID:20120411221940 L   I
 2012-04-11-2217-38M.COL___187                                                 6
 STAT SP IPHASW D HRMM SECON CODA AMPLIT PERI AZIMU VELO AIN AR TRES W  DIS CAZ7
 BAR2 SZ IP       2219 57.49                             161     0.210   39 135 
 BAR2 SZ I        2220 10.98        32.7 0.42                            39 135 
 BRR  HZ IP     D 2219 57.51                             160     0.410   43 314 
 BRR  HZ I        2220 10.58        19.2 0.32                            43 314 
 BRR  HN ES   1   2220 10.70                             160     0.3 7   43 314 
 PAM  SZ EP       2220  1.32                             140     0.010   98  56 
 PAM  SE ES   2   2220 17.33                             140    -0.6 5   98  56 
 PTB  HZ EP       2220  1.83                             134    -0.510  118 254 
 OCA  SZ ES   1   2220 26.25                             125    -0.2 7  155   5 
 ZAR  HZ EP   3   2220  9.04                             122     1.3 2  173 295 
 ZAR  HZ I        2220 32.21        13.0 0.24                           173 295 
                                                                                
