 2012  611 2223 19.2 L   6.804 -73.164142.1  RSN 10 0.4 2.5LRSN                1
 GAP=243        0.65       4.3     4.3  5.1  0.8021E+01  0.8235E+01  0.6587E+00E
 Epicentro: LOS SANTOS - SANTANDER                                             3
 ACTION:UPD 12-08-06 17:48 OP:ep   STATUS:               ID:20120611222331 L   I
 2012-06-11-2220-00M.COL___201                                                 6
 STAT SP IPHASW D HRMM SECON CODA AMPLIT PERI AZIMU VELO AIN AR TRES W  DIS CAZ7
 BAR2 SZ EP   1   2223 38.54                             170    0.19 8 23.5 185 
 BAR2 SZ ES   1   2223 53.06                             170   -0.26 8 23.5 185 
 BAR2 SZ I        2223 55.98        68.1 0.15            166           23.5 185 
 RUS  HZ EP   1   2223 42.64                             143    0.05 7  101 175 
 RUS  HN ES       2224  1.08                             143    0.2110  101 175 
 RUS  HZ I        2224  3.24        45.8 0.30            127            101 175 
 PTB  HZ EP   1   2223 45.11                             132   -0.54 7  146 258 
 PTB  HN ES   1   2224  6.42                             132    0.10 7  146 258 
 PTB  HZ I        2224  8.22        46.7 0.19            117            146 258 
 ZAR  HZ EP   1   2223 51.32                             122    0.17 6  202 292 
 ZAR  HN ES   1   2224 16.06                             122   -0.04 6  202 292 
 ZAR  HZ I        2224 22.21        37.4 0.20            108            202 292 
 NOR  SZ EP   1   2223 54.58                             118    0.06 6  233 234 
 NOR  SN ES   1   2224 21.85                             118   -0.26 6  233 234 
 CHI  HZ EP   1   2223 56.76                             116    0.12 6  249 195 
 CHI  HN ES   1   2224 25.71                             116   -0.17 6  249 195 
 CHI  HZ I        2224 31.39        14.5 0.22            104            249 195 
 ROSC BZ EP   1   2223 56.12                             116   -0.88 6  252 211 
 ROSC BZ I        2224 35.61        30.3 0.41            104            252 211 
 HEL  HZ EP   1   2223 59.48                             114    0.51 6  270 256 
 HEL  HN ES   1   2224 30.31                             114    0.28 6  270 256 
 HEL  HZ I        2224 37.95        20.0 0.42            103            270 256 
 DBB  SZ EP   1   2224  5.84                             109   -0.40 5  337 274 
 DBB  SZ I        2224 46.26         4.2 0.18            100            337 274 
 TOL  SZ EP   1   2224  8.01                             109    0.87 5  342 224 
                                                                                
