 2016  111 2249 32.2 L   6.536 -73.482115.9  RSN 10 0.3 1.5LRSN                1
 GAP= 70        0.74       2.0     3.0  4.7  0.4744E+00  0.6189E+01  0.5896E+00E
 Epicentro: EL CARMEN - SANTANDER                                              3
 ACTION:UPD 16-03-09 23:24 OP:cam  STATUS:               ID:20160111224932 L   I
 OLDACT:REG 16-01-12 04:41 OP:ak   STATUS:               ID:20160111224756     3
 2016-01-11-2247-56M.COL___260                                                 6
 STAT SP IPHASW D HRMM SECON CODA AMPLIT PERI AZIMU VELO AIN AR TRES W  DIS CAZ7
 BAR2 EZ EP       2249 48.68                             163    0.1110 33.7  79 
 BAR2 EZ ES       2250  1.65                             163    0.3110 33.7  79 
 BAR2 EZ I        2250  2.64        17.1 0.46            162           33.7  79 
 BRR  HZ EP       2249 49.63                             147   -0.3610 68.0 338 
 BRR  HE ES       2250  3.50                             147   -0.3810 68.0 338 
 RUS  HZ EP       2249 51.59                             142   -0.2110 83.8 148 
 RUS  HN ES       2250  6.99                             142   -0.1110 83.8 148 
 PTB  HZ EP   4 C 2249 51.60                             134   -1.50 0  108 270 
 PTB  HN ES   4   2250  6.60                             134   -2.82 0  108 270 
 PTB  HZ I        2250  8.02         5.7 0.17            134            108 270 
 PAM  EZ EP       2249 55.47                             130    0.2510  124  44 
 PAM  EE ES       2250 13.15                             130   -0.0310  124  44 
 PAM  EZ I        2250 14.25         5.8 0.44            130            124  44 
 ZAR  HZ EP       2250  0.88                             118    0.06 9  185 305 
 ZAR  HN ES       2250 23.55                             118    0.41 9  185 305 
 ZAR  HZ I        2250 25.36         7.9 0.32            117            185 305 
 NOR  HN ES   4   2250 22.30                             117   -1.40 0  187 235 
 NOR  HZ I        2250 24.80         4.5 0.16            116            187 235 
 CHI  HZ EP       2250  4.38                             114    0.02 8  213 187 
 CHI  HN ES       2250 29.83                             114    0.38 8  213 187 
 CHI  HZ I        2250 35.73         1.1 0.23            113            213 187 
 GUY2CHZ EP   2   2250  9.42                             110    0.30 4  254 235 
 GUY2CHN ES       2250 37.62                             110   -0.30 8  254 235 
 GUY2CHZ I        2250 43.70         2.7 0.34                           254 235 
 SML  HZ EP       2250  8.47                             109   -0.59 8  259 345 
 SML  HE ES       2250 38.28                             109    0.46 8  259 345 
                                                                                
