 2012  711 2052 32.1 L   6.826 -73.164145.5  RSN 10 0.4 2.7LRSN                1
 GAP=112        0.92       4.6     4.1  6.6  0.4941E+01  0.4900E+00  0.5358E+00E
 Epicentro: LOS SANTOS - SANTANDER                                             3
 ACTION:UPD 12-08-14 11:44 OP:ep   STATUS:               ID:20120711205232 L   I
 2012-07-11-2050-00M.COL___194                                                 6
 STAT SP IPHASW D HRMM SECON CODA AMPLIT PERI AZIMU VELO AIN AR TRES W  DIS CAZ7
 BAR2 SZ EP   1   2052 51.83                             169     0.0 8   26 184 
 BAR2 SZ ES   1   2053  6.70                             169    -0.4 8   26 184 
 BAR2 SZ I        2053  9.27       106.4 0.17             95             26 184 
 BRR  HZ EP   1   2052 53.60                             154     0.5 8   68 297 
 BRR  HZ I        2052 53.86       171.8 0.14             37             68 297 
 BRR  HN ES   1   2053 10.12                             154     0.7 8   68 297 
 RUS  HZ EP   1   2052 55.83                             143    -0.2 8  104 175 
 RUS  HN ES   1   2053 14.74                             143     0.0 8  104 175 
 RUS  HZ I        2053 15.63        68.9 0.24             37            104 175 
 PTB  HZ EP   1   2052 58.20                             132    -0.7 8  146 258 
 PTB  HN ES   1   2053 19.50                             132    -0.4 8  146 258 
 PTB  HZ I        2053 21.76        53.8 0.13             37            146 258 
 OCA  HZ EP   1   2052 59.96                             130    -0.2 8  157 354 
 OCA  HN ES   1   2053 21.42                             130    -0.5 8  157 354 
 TAM  HZ EP       2053  0.29                             130     0.210  158 106 
 TAM  HZ I        2053  0.44        60.0 0.18             37            158 106 
 TAM  HN ES   1   2053 21.95                             130     0.1 7  158 106 
 ZAR  HZ EP   1   2053  4.14                             123    -0.1 7  201 292 
 ZAR  HN ES   1   2053 29.66                             123     0.4 7  201 292 
 CHI  HZ EP   1   2053 10.05                             117     0.0 6  251 195 
 CHI  HZ I        2053 42.93        35.8 0.39             36            251 195 
 HEL  HZ EP   1   2053 12.77                             115     0.6 6  271 255 
 HEL  HZ I        2053 51.38        29.9 0.31             36            271 255 
 PRA  HZ EP   1   2053 25.75                             106    -0.1 5  394 209 
 PRA  HZ I        2054 12.59        16.2 0.47             36            394 209 
