 2010  811 2324 16.8 L   6.805 -73.072138.8  RSN  5 0.4 1.6LRSN                1
 GAP=167        1.16       4.8    11.1 10.6 -0.6438E+01 -0.3472E+02 -0.5192E+01E
 Epicentro: LOS SANTOS - SANTANDER                                             3
 ACTION:UP  10-09-07 10:54 OP:vdl  STATUS:               ID:20100811232416 L   I
 2010-08-11-2320-39S.COL___127                                                 6
 STAT SP IPHASW D HRMM SECON CODA AMPLIT PERI AZIMU VELO SNR AR TRES W  DIS CAZ7
 BAR2 SZ IP     D 2324 35.57                             169    -0.110   27 208 
 BAR2 SZ ES       2324 50.13                             169    -0.210   27 208 
 BAR2 SZ I        2324 51.58        13.7 0.33                            27 208 
 BRR  HZ EP   1   2324 37.55                             149     0.0 7   78 295 
 BRR  HN ES       2324 54.06                             149     0.210   78 295 
 BRR  HZ I        2324 58.69        18.5 0.16                            78 295 
 RUS  HZ EP   1   2324 39.52                             143    -0.3 7  101 181 
 RUS  HZ I        2324 40.50         5.2 0.07                           101 181 
 RUS  HE ES       2324 58.09                             143     0.210  101 181 
 GUE  SZ EP   1   2324 40.67                             138     0.0 7  115   8 
 GUE  SZ ES       2324 58.62                             138    -0.710  115   8 
 GUE  SZ I        2325  2.09         3.1 0.18                           115   8 
 GRA  SZ EP   1   2324 41.50                             136     0.3 7  123  14 
 GRA  SZ ES   1   2325  1.17                             136     1.0 7  123  14 
 GRA  SZ I        2325  1.83         7.5 0.29                           123  14 
                                                                                
