 2012 1111 2119 39.5 L   6.799 -73.186133.8  RSN  8 0.4 2.0LRSN                1
 GAP=132        0.96       3.6     3.9  6.4  0.3745E+00  0.6526E+01 -0.1518E+01E
 Epicentro: LOS SANTOS - SANTANDER                                             3
 ACTION:UPD 12-12-05 15:32 OP:}ep  STATUS:               ID:20121111211939 L   I
 2012-11-11-2118-45M.COL___225                                                 6
 STAT SP IPHASW D HRMM SECON CODA AMPLIT PERI AZIMU VELO AIN AR TRES W  DIS CAZ7
 BAR2 SZ EP       2119 57.82                             170    0.1010 22.9 179 
 BAR2 SZ ES       2120 11.49                             170   -0.4010 22.9 179 
 BAR2 SZ I        2120 13.29        27.7 0.36                          22.9 179 
 GIR2 SZ EP       2119 57.79                             166    0.0110 30.9 358 
 BRR  HZ EP       2119 59.68                             152    0.5010 67.4 300 
 BRR  HN ES       2120 14.94                             152    0.4410 67.4 300 
 PAM  SZ EP       2120  0.80                             147    0.1210 80.3  42 
 PAM  SN ES       2120 17.40                             147    0.2310 80.3  42 
 PAM  SN I        2120 18.66        20.2 0.48                          80.3  42 
 RUS  HZ EP       2120  1.81                             141   -0.3410  101 174 
 RUS  HN ES       2120 19.89                             141    0.1010  101 174 
 RUS  HN I        2120 21.60         8.4 0.36                           101 174 
 PTB  HZ EP       2120  4.68                             130   -0.47 9  143 259 
 PTB  HN ES       2120 25.11                             130   -0.01 9  143 259 
 PTB  HN I        2120 30.64        16.8 0.36                           143 259 
 OCA  HN ES       2120 27.58                             127   -0.68 9  160 355 
 ZAR  HZ EP       2120 11.40                             120    0.60 9  200 293 
 ZAR  HN ES       2120 34.89                             120   -0.30 9  200 293 
 ZAR  HN I        2120 38.11        11.7 0.12                           200 293 
                                                                                
