 2017  711 2331 41.2 L   6.770 -73.110144.8  RSN 11 0.8 2.2LRSN                1
 GAP=116        1.73       6.2     5.3  9.6  0.4532E+01  0.1037E+02  0.2142E+02E
 Epicentro: LOS SANTOS - SANTANDER                                             3
 ACTION:UPD 17-08-30 15:32 OP:rebc STATUS:               ID:20170711233141 L   I
 OLDACT:UP  17-07-12 08:15 OP:dani STATUS:               ID:20170711232745     3
 OLDACT:UP  17-07-12 08:15 OP:dani STATUS:               ID:20170711232745     3
 OLDACT:REG 17-07-12 04:55 OP:dani STATUS:               ID:20170711232745     3
 2017-07-11-2328-00M.COL___377                                                 6
 STAT SP IPHASW D HRMM SECON CODA AMPLIT PERI AZIMU VELO AIN AR TRES W  DIS CAZ7
 BAR2 EZ EP     C 2332  0.66                             171   -0.0210 21.3 202 
 BAR2 EZ ES       2332 15.75                             171   -0.1110 21.3 202 
 BAR2 EZ I        2332 21.70        23.3 0.50            168           21.3 202 
 BRR  HZ IP     C 2332  2.58                             151    0.0410 76.2 299 
 BRR  HN ES       2332 19.32                             151    0.1410 76.2 299 
 BRR  HZ I        2332 20.69        62.2 0.16            153           76.2 299 
 PAM  EZ EP       2332  3.49                             150    0.1610 77.6  36 
 PAM  EN ES       2332 20.54                             150   -0.0410 77.6  36 
 PAM  EZ I        2332 22.45        14.1 0.56            158           77.6  36 
 PTB  HZ EP       2332  7.27                             131   -1.12 9  151 260 
 PTB  HN ES       2332 28.54                             131   -1.06 9  151 260 
 PTB  HZ I        2332 35.81        12.3 0.16            133            151 260 
 SPBC HZ EP       2332  9.68                             129    0.05 9  163 221 
 SPBC HN ES       2332 31.54                             129   -0.26 9  163 221 
 SPBC HZ I        2332 37.60        18.7 0.28            130            163 221 
 YPLC HZ EP       2332 10.94                             127    0.47 9  172 152 
 YPLC HN ES       2332 34.46                             127    1.17 9  172 152 
 YPLC HZ I        2332 37.60        10.5 0.33            130            172 152 
 ZAR  HZ EP       2332 15.59                             121    1.50 8  209 293 
 ZAR  HN ES       2332 39.37                             121   -0.37 8  209 293 
 ZAR  HZ I        2332 44.70        23.0 0.42            125            209 293 
 NOR  HZ EP       2332 17.11                             118    0.09 8  236 236 
 NOR  HN ES       2332 45.09                             118    0.13 8  236 236 
 NOR  HZ I        2332 50.80        11.1 0.52            120            236 236 
 HEL  HZ EP       2332 22.10                             114    0.39 8  275 257 
 HEL  HE ES       2332 53.87                             114    0.58 8  275 257 
 HEL  HZ I        2333  1.16         6.9 0.27            117            275 257 
 GUY2CHZ EP       2332 23.45                             112   -1.47 7  303 236 
 GUY2CHE ES       2333  0.63                             112    1.61 7  303 236 
 GUY2CHZ I        2333  6.04         7.6 0.40                           303 236 
 PTGC HZ EP       2332 23.68                             112   -0.83 7  304 159 
 PTGC HN ES       2332 57.13                             112   -1.16 7  304 159 
 PTGC HZ I        2333  2.16         7.2 0.35            115            304 159 
                                                                                
