 2011  111 2324  1.7 L   6.750 -73.151144.9  RSN  6 0.3 1.7LRSN                1
 GAP=182        0.57       4.1     9.4  8.6 -0.1109E+02  0.3130E+02 -0.3573E+01E
 Epicentro: LOS SANTOS - SANTANDER                                             3
 ACTION:UP  11-02-08 08:40 OP:pat  STATUS:               ID:20110111232401 L   I
 2011-01-11-2318-23S.COL___136                                                 6
 STAT SP IPHASW D HRMM SECON CODA AMPLIT PERI AZIMU VELO SNR AR TRES W  DIS CAZ7
 BAR2 SZ EP   1   2324 20.88                             173    -0.2 7   18 192 
 BAR2 SZ ES   2   2324 36.56                             173     0.3 5   18 192 
 BAR2 SZ I        2324 37.63        13.4 0.24                            18 192 
 BTL  SZ EP   1   2324 21.43                             170     0.2 7   23 325 
 RUS  HZ EP   2   2324 24.83                             146    -0.1 5   95 175 
 RUS  HN ES   2   2324 42.66                             146    -0.5 5   95 175 
 RUS  HZ I        2324 45.21         5.8 0.21                            95 175 
 OCA  SZ EP   2   2324 30.19                             128    -0.3 5  166 354 
 OCA  SZ ES   2   2324 53.16                             128     0.3 5  166 354 
 OCA  SZ I        2324 57.14         8.6 0.36                           166 354 
 NOR  SZ EP   2   2324 37.20                             119     0.2 4  231 236 
 NOR  SN ES   2   2325  4.07                             119    -0.5 4  231 236 
 CHI  HZ EP   2   2324 38.91                             118     0.2 4  243 195 
 CHI  HE ES   2   2325  8.44                                     0.8 4  243 195 
 CHI  HZ I        2325 14.29         2.3 0.44                           243 195 
                                                                                
