 2013 1211 2033 24.1 L   6.780 -73.162140.0  RSN  9 0.5 2.0LRSN                1
 GAP=135        1.23       4.9     5.4  7.4 -0.8126E+01  0.1034E+02  0.7522E+01E
 Epicentro: LOS SANTOS - SANTANDER                                             3
 ACTION:UPD 14-01-13 10:17 OP:ep   STATUS:               ID:20131211203324 L   I
 OLDACT:REG 13-12-12 03:12 OP:stll STATUS:               ID:20131211202817     3
 2013-12-11-2028-17M.COL___253                                                 6
 STAT SP IPHASW D HRMM SECON CODA AMPLIT PERI AZIMU VELO AIN AR TRES W  DIS CAZ7
 BAR2 SZ EP       2033 43.07                             171    0.1210 20.9 186 
 BAR2 SZ ES       2033 57.28                             171   -0.4010 20.9 186 
 BAR2 SZ I        2033 58.87        46.4 0.34            169           20.9 186 
 BRR  HZ EP       2033 44.99                             152    0.4310 70.7 301 
 BRR  HN ES       2034  1.52                             152    0.9710 70.7 301 
 BRR  HZ I        2034  5.20        17.3 0.26            152           70.7 301 
 PAM  SZ EP       2033 45.91                             149    0.0710 80.2  40 
 PAM  SZ I        2033 46.08        18.1 0.22            154           80.2  40 
 PAM  SN ES       2034  2.41                             149   -0.4210 80.2  40 
 RUS  HZ EP       2033 46.96                             143   -0.1410 98.5 175 
 RUS  HN ES       2034  5.29                             143    0.2310 98.5 175 
 RUS  HZ I        2034  7.52        14.0 0.30            144           98.5 175 
 PTB  HZ EP       2033 49.73                             131   -0.64 9  146 260 
 PTB  HN ES       2034  9.76                             131   -1.12 9  146 260 
 PTB  HZ I        2034 13.42        13.2 0.42            132            146 260 
 SPBC HZ EP       2033 51.83                             128   -0.02 9  160 219 
 SPBC HN ES       2034 14.15                             128    0.62 9  160 219 
 SPBC HZ I        2034 18.63        14.8 0.48            129            160 219 
 NOR  HZ EP       2033 59.32                             118    0.15 8  232 235 
 NOR  HN ES       2034 26.59                             118    0.04 8  232 235 
 NOR  HZ I        2034 32.76         7.6 0.16            119            232 235 
 CHI  HN ES       2034 29.87                             116   -0.23 8  246 195 
 CHI  HZ I        2034 35.05         4.3 0.60            118            246 195 
 GUY2CHZ EP       2034  7.57                             111    0.47 7  298 235 
 GUY2CHN ES       2034 40.60                             111   -0.07 7  298 235 
 GUY2CHZ I        2034 46.20         4.2 0.22                           298 235 
                                                                                
