 2017  111 2227 11.5 L   6.729 -73.186152.0  RSN  5 0.3 1.1LRSN                1
 GAP=227        0.68       5.6     5.3  5.7  0.1921E+02  0.6902E+01  0.2187E+01E
 Epicentro: VILLANUEVA - SANTANDER                                             3
 ACTION:UPD 17-05-22 15:58 OP:jn   STATUS:               ID:20170111222712 L   I
 OLDACT:UP  17-04-20 12:28 OP:nlst STATUS:               ID:20170111222712 L   3
 OLDACT:REG 17-01-12 00:42 OP:lv   STATUS:               ID:20170111221743     3
 2017-01-11-2218-00M.COL___340                                                 6
 STAT SP IPHASW D HRMM SECON CODA AMPLIT PERI AZIMU VELO AIN AR TRES W  DIS CAZ7
 BAR2 EZ ES       2227 47.24                             174   -0.3210 15.1 179 
 BRR  HZ EP       2227 33.33                             153   -0.0410 71.6 306 
 BRR  HN ES       2227 50.52                             153    0.1110 71.6 306 
 RUS  HZ EP       2227 35.37                             147   -0.0110 93.2 173 
 RUS  HE ES       2227 54.38                             147    0.3810 93.2 173 
 RUS  HZ I        2227 54.86         2.0 0.30            146           93.2 173 
 PTB  HZ EP       2227 38.31                             135   -0.19 9  142 262 
 PTB  HN ES       2227 59.27                             135   -0.28 9  142 262 
 PTB  HZ I        2228  2.08         2.0 0.08            133            142 262 
 ZAR  HN ES       2228 10.25                             124    0.41 9  203 295 
                                                                                
