 2016  411 2305 57.9 L   6.795 -73.190141.2  RSN  9 0.4 2.1LRSN                1
 GAP=131        0.87       3.2     3.7  5.5 -0.4695E+00  0.7641E+01 -0.4697E-01E
 Epicentro: ZAPATOCA - SANTANDER                                               3
 ACTION:UPD 16-05-05 14:20 OP:rebc STATUS:               ID:20160411230557 L   I
 OLDACT:UP  16-04-12 04:27 OP:drio STATUS:               ID:20160411225750     3
 OLDACT:REG 16-04-12 03:13 OP:drio STATUS:               ID:20160411225750     3
 2016-04-11-2257-50M.COL___307                                                 6
 STAT SP IPHASW D HRMM SECON CODA AMPLIT PERI AZIMU VELO AIN AR TRES W  DIS CAZ7
 BAR2 EZ EP       23 6 16.97                             171    0.0110 22.5 178 
 BAR2 EZ ES       23 6 31.53                             171   -0.3010 22.5 178 
 BAR2 EZ I        23 6 33.60        45.6 0.34            170           22.5 178 
 PAM  EZ EP       23 6 19.73                             149   -0.1210 81.0  42 
 PAM  EN ES       23 6 37.16                             149    0.1910 81.0  42 
 PAM  EZ I        23 6 39.03        10.5 0.62            154           81.0  42 
 RUS  HZ EP       23 6 21.07                             143   -0.1210  101 173 
 RUS  HE ES       23 6 39.49                             143    0.1210  101 173 
 RUS  HZ I        23 6 41.01        16.5 0.22            145            101 173 
 PTB  HZ EP       23 6 23.76                             132   -0.28 9  143 259 
 PTB  HN ES       23 6 44.39                             132   -0.05 9  143 259 
 PTB  HZ I        23 6 50.25        14.3 0.16            132            143 259 
 SPBC HZ EP       23 6 26.10                             129    0.39 9  160 218 
 SPBC HE ES       23 6 47.71                             129    0.30 9  160 218 
 SPBC HZ I        23 6 52.12        21.6 0.16            130            160 218 
 ZAR  HZ EP       23 6 30.53                             122    0.94 9  200 293 
 ZAR  HN ES       23 6 54.22                             122   -0.10 9  200 293 
 ZAR  HZ I        23 7  1.52        16.8 0.34            123            200 293 
 CHI  HZ EP       23 6 35.07                             116   -0.08 8  247 194 
 CHI  HE ES       23 7  3.93                             116   -0.28 8  247 194 
 CHI  HZ I        23 7  9.73         7.5 0.34            118            247 194 
 URE  HZ EP       23 6 37.43                             113   -0.83 7  279 292 
 URE  HE ES   4   23 7  8.23                             113   -1.51 0  279 292 
 GUY2CHZ EP   4   23 6 42.10                             112    1.30 0  297 234 
 GUY2CHE ES   4   23 7 15.86                             112    1.58 0  297 234 
 GUY2CHZ I        23 7 23.14         5.4 0.36                           297 234 
                                                                                
