 2013  311 2216 17.0 L   6.985 -73.498  8.3  RSN  6 0.5 1.5LRSN                1
 GAP=113        1.09       2.6     2.6 31.3  0.5382E-01 -0.4103E+02  0.2190E+02E
 Epicentro: SAN VICENTE DE CHUCURI - SANTANDER                                 3
 ACTION:UPD 13-04-09 14:01 OP:ep   STATUS:               ID:20130311221617 L   I
 2013-03-11-2208-51M.COL___210                                                 6
 STAT SP IPHASW D HRMM SECON CODA AMPLIT PERI AZIMU VELO AIN AR TRES W  DIS CAZ7
 BRR  HZ IP       2216 21.59                             101   -0.1610 27.2 300 
 BRR  HN ES       2216 26.11                             101    0.6310 27.2 300 
 BRR  HN I        2216 26.85       127.1 0.54             47           27.2 300 
 BAR2 SZ EP       2216 26.65                              95    0.3810 55.7 141 
 BAR2 SZ ES       2216 33.76                              95    0.2310 55.7 141 
 BAR2 SZ I        2216 35.69        21.7 0.24             47           55.7 141 
 PAM  SZ EP       2216 32.16                              93   -0.5510 96.5  66 
 PAM  SE ES   2   2216 43.74                              93   -1.25 5 96.5  66 
 PAM  SN I        2216 48.72         6.4 0.18             47           96.5  66 
 PTB  HZ EP       2216 34.79                              92   -0.5010  117 245 
 PTB  HE ES   1   2216 48.94                              92   -0.64 7  117 245 
 PTB  HE I        2216 49.74         7.6 0.40             47            117 245 
 RUS  HZ EP       2216 37.85                              92    0.1910  129 159 
 RUS  HN ES       2216 53.78                              92   -0.0110  129 159 
 RUS  HN I        2216 58.13         7.4 0.20             47            129 159 
 CAPV BZ EP   1   2216 42.97                              92    0.48 7  163  53 
 CAPV BZ ES       2217  2.68                              92    0.28 9  163  53 
                                                                                
