 2013  211 2022 42.7 L   6.782 -73.126148.6  RSN  5 0.3 1.7LRSN                1
 GAP=140        0.63       3.6     3.8  5.4 -0.1540E+01  0.2432E+01 -0.9887E-01E
 Epicentro: LOS SANTOS - SANTANDER                                             3
 ACTION:UPD 13-03-12 09:32 OP:ep   STATUS:               ID:20130211202242 L   I
 2013-02-11-2020-00M.COL___240                                                 6
 STAT SP IPHASW D HRMM SECON CODA AMPLIT PERI AZIMU VELO AIN AR TRES W  DIS CAZ7
 BAR2 SZ ES   1   2023 18.10                             171   -0.08 7 21.8 196 
 BAR2 SZ I        2023 19.18        11.7 0.11            170           21.8 196 
 BRR  HZ EP       2023  4.63                             152    0.3410 74.1 299 
 BRR  HE ES       2023 21.43                             152    0.2710 74.1 299 
 BRR  HE I        2023 24.22        11.8 0.17            149           74.1 299 
 PAM  SZ EP       2023  5.23                             151    0.0210 77.6  37 
 PAM  SZ I        2023  5.58         7.9 0.16            154           77.6  37 
 PAM  SN ES       2023 22.53                             151   -0.2610 77.6  37 
 RUS  HZ EP   1   2023  6.55                             145   -0.01 7 98.4 177 
 RUS  HE ES       2023 25.28                             145    0.1010 98.4 177 
 PTB  HZ EP   1   2023  9.59                             132   -0.44 7  149 260 
 PTB  HE ES   1   2023 30.95                             132   -0.42 7  149 260 
 PTB  HZ I        2023 36.00         3.8 0.28            131            149 260 
                                                                                
