 2010  411 2138 45.5 L   6.884 -73.152156.7  RSN  5 0.3 2.7LRSN                1
 GAP=217        0.54       6.7    14.0  9.0 -0.7224E+02 -0.4287E+02  0.3393E+02E
 Epicentro: LOS SANTOS - SANTANDER                                             3
 ACTION:UPD 10-08-24 09:58 OP:vdl  STATUS:               ID:20100411213846 L   I
 2010-04-11-2136-06S.COL___097                                                 6
 STAT SP IPHASW D HRMM SECON CODA AMPLIT PERI AZIMU VELO AIN AR TRES W  DIS CAZ7
 BRR  HZ IP     C 2139  7.41                             160    -0.210   67 292 
 BRR  HZ I        2139  7.71        77.6 0.17                            67 292 
 BRR  HN ES   2   2139 24.94                             160     0.1 5   67 292 
 OCA  SZ EP   1   2139 13.64                             135    -0.2 7  151 353 
 OCA  SZ ES   2   2139 36.34                             135     0.4 5  151 353 
 OCA  SZ I        2139 40.67        69.5 0.29                           151 353 
 ROSC BZ EP   1   2139 25.24                             118     0.2 6  260 210 
 ROSC BN ES   2   2139 55.68                             118    -0.2 4  260 210 
 ROSC BZ I        2140  3.37        19.7 0.40                           260 210 
 HEL  HZ EP   1   2139 26.28                             118    -0.2 6  274 254 
 RREF BZ EP   1   2139 33.32                             113     0.6 5  327 228 
 RREF BN ES   2   2140  9.31                             113    -0.3 3  327 228 
 RREF BZ I        2140 17.75        18.3 0.33                           327 228 
                                                                                
