 2014  911 2255 44.7 L   6.815 -73.170145.7  RSN  8 0.5 1.7LRSN                1
 GAP=133        1.12       5.1     5.7  9.0 -0.5833E+01  0.9137E+01  0.2056E+00E
 Epicentro: LOS SANTOS - SANTANDER                                             3
 ACTION:UPD 14-10-03 23:04 OP:nd   STATUS:               ID:20140911225544 L   I
 OLDACT:DUP 14-09-12 05:07 OP:fm   STATUS:               ID:20140911224817d    3
 2014-09-11-2248-16M.COL___290                                                 6
 STAT SP IPHASW D HRMM SECON CODA AMPLIT PERI AZIMU VELO AIN AR TRES W  DIS CAZ7
 BRR  HN ES       2256 22.68                             154    0.6610 68.1 298 
 BRR  HZ I        2256 26.89         7.0 0.18            153           68.1 298 
 PAM  SZ EP       2256  7.33                             151    0.4010 77.9  42 
 PAM  SN ES       2256 24.28                             151   -0.0010 77.9  42 
 PAM  SZ I        2256 26.84         7.1 0.48            154           77.9  42 
 RUS  HZ EP   1   2256  8.83                             143    0.26 7  102 175 
 RUS  HN ES   1   2256 26.24                             143   -0.96 7  102 175 
 RUS  HZ I        2256 28.95         3.7 0.34            147            102 175 
 PTB  HZ EP   1   2256 10.85                             133   -0.59 7  145 258 
 PTB  HN ES       2256 32.10                             133   -0.21 9  145 258 
 PTB  HZ I        2256 37.05         5.5 0.10            134            145 258 
 NOR  HE ES   1   2256 48.34                             119    0.29 6  233 234 
 NOR  HZ I        2256 50.94         3.1 0.24            121            233 234 
 SML  HZ EP   1   2256 21.06                             118    0.03 6  241 336 
 SML  HE ES       2256 48.60                             118   -0.78 8  241 336 
 SML  HZ I        2256 54.15         7.0 0.26            120            241 336 
 GUY2CHZ EP   1   2256 28.83                             112    0.68 5  300 234 
 GUY2CHN ES   4   2257  3.54                             112    1.49 0  300 234 
 GUY2CHZ I        2257 12.48         2.5 0.38                           300 234 
 TOL  SN ES   4   2257  9.44                             109   -0.99 0  343 224 
 TOL  SZ  AMP     2257 19.05        10.9 0.64                           343 224 
 SJC  HZ EP   4   2256 38.78                             106   -1.14 0  406 327 
                                                                                
