 2012  511 2025 52.6 L   6.797 -73.140144.6  RSN 14 0.4 2.6LRSN                1
 GAP=126        0.94       3.6     4.2  5.7 -0.2814E+01  0.3643E+01  0.3030E+01E
 Epicentro: LOS SANTOS - SANTANDER                                             3
 ACTION:UP  12-07-05 12:04 OP:pat  STATUS:               ID:20120511202552 L   I
 2012-05-11-2024-42M.COL___190                                                 6
 STAT SP IPHASW D HRMM SECON CODA AMPLIT PERI AZIMU VELO SNR AR TRES W  DIS CAZ7
 BAR2 SZ EP       2026 12.17                             170     0.110   23 192 
 BAR2 SZ ES   1   2026 27.21                             170    -0.1 7   23 192 
 BAR2 SZ I        2026 28.56       137.6 0.20                            23 192 
 BRR  HZ EP       2026 14.00                             152     0.310   72 298 
 BRR  HE ES   1   2026 30.82                             152     0.7 7   72 298 
 BRR  HZ I        2026 33.52        86.0 0.22                            72 298 
 PAM  SZ EP   1   2026 14.85                             151     0.2 7   77  39 
 PAM  SN ES   1   2026 32.10                             151     0.2 7   77  39 
 RUS  HZ EP   1   2026 16.08                             144    -0.1 7  100 176 
 RUS  HN ES   1   2026 34.34                             144    -0.3 7  100 176 
 RUS  HZ I        2026 36.21        31.4 0.24                           100 176 
 PTB  HZ EP   1   2026 19.17                             132    -0.4 7  148 259 
 PTB  HN ES   1   2026 39.73                             132    -0.8 7  148 259 
 PTB  HZ I        2026 47.42        32.5 0.43                           148 259 
 OCA  HZ EP   1   2026 20.49                             129    -0.4 7  161 353 
 OCA  HN ES   1   2026 42.64                             129    -0.3 7  161 353 
 ZAR  HZ EP   1   2026 25.60                             122     0.6 6  205 292 
 ZAR  HN ES   1   2026 50.02                             122    -0.3 6  205 292 
 ZAR  HZ I        2026 55.50        36.8 0.41                           205 292 
 NOR  SZ EP       2026 28.43                             118     0.1 8  235 235 
 NOR  SN ES   1   2026 55.94                             118    -0.2 6  235 235 
 CHI  HZ EP       2026 30.36                             117     0.1 8  249 195 
 CHI  HN ES   1   2026 59.66                             117     0.1 6  249 195 
 CHI  HZ I        2027  6.86        23.2 0.40                           249 195 
 HEL  HZ EP   1   2026 33.35                             114     0.5 6  273 256 
 HEL  HN ES   1   2027  3.53                             114    -0.6 6  273 256 
 HEL  HZ I        2027 11.02        15.9 0.46                           273 256 
 GUY  SZ EP   1   2026 37.51                             112     1.0 5  304 235 
 GUY  SZ I        2027 21.02        32.3 0.39                           304 235 
 RREF HZ EP   1   2026 38.84                             111     0.1 5  322 229 
 RREF HZ I        2027 24.56        24.7 0.31                           322 229 
 SDV  BZ EP       2026 41.75                             108    -0.8 6  360  50 
 PRA  HZ EP   1   2026 45.75                             106    -0.3 4  392 210 
                                                                                
