 2014 1011 2346 60.0 L   6.738 -73.176152.2  RSN  4 0.3 1.4LRSN                1
 GAP=197        0.65       4.9     5.6  6.2  0.1369E+02 -0.6455E+01 -0.8020E+01E
 Epicentro: VILLANUEVA - SANTANDER                                             3
 ACTION:UPD 14-11-29 23:48 OP:nd   STATUS:               ID:20141011234660 L   I
 OLDACT:REG 14-10-12 02:54 OP:cam  STATUS:               ID:20141011233820     3
 2014-10-11-2338-20M.COL___295                                                 6
 STAT SP IPHASW D HRMM SECON CODA AMPLIT PERI AZIMU VELO AIN AR TRES W  DIS CAZ7
 BRR  HZ EP       2347 21.88                             153   -0.0010 71.9 305 
 BRR  HE ES       2347 39.19                             153    0.2410 71.9 305 
 BRR  HZ I        2347 42.69         6.8 0.32            155           71.9 305 
 RUS  HZ EP       2347 24.17                             147    0.2310 94.1 174 
 RUS  HN ES       2347 42.37                             147   -0.2510 94.1 174 
 RUS  HZ I        2347 44.12         2.2 0.26            151           94.1 174 
 PTB  HZ EP       2347 27.33                             134    0.23 9  143 261 
 PTB  HN ES       2347 47.99                             134   -0.26 9  143 261 
 PTB  HZ I        2347 49.46         3.8 0.18            138            143 261 
 SML  HZ EP   1   2347 36.95                             118   -0.56 6  249 337 
                                                                                
