 2010  811 2126 48.1 L   6.851 -73.053144.0  RSN  4 0.3 1.2LRSN                1
 GAP=251        0.63      10.6    22.4 11.5  0.1998E+03 -0.1464E+03 -0.7816E+02E
 Epicentro: LOS SANTOS - SANTANDER                                             3
 ACTION:UP  10-09-07 10:54 OP:vdl  STATUS:               ID:20100811212648 L   I
 2010-08-11-2124-05S.COL___126                                                 6
 STAT SP IPHASW D HRMM SECON CODA AMPLIT PERI AZIMU VELO SNR AR TRES W  DIS CAZ7
 BTL  SZ EP   1   2127  7.88                             171     0.4 8   25 287 
 BAR2 SZ EP   1   2127  7.67                             168     0.0 8   32 207 
 BAR2 SZ ES   2   2127 22.68                             168    -0.3 5   32 207 
 BAR2 SZ I        2127 25.44         6.0 0.24                            32 207 
 BRR  HZ EP   1   2127  9.45                             151     0.0 8   78 291 
 BRR  HE ES   2   2127 26.00                             151    -0.1 5   78 291 
 RUS  HZ EP   1   2127 11.55                             143    -0.5 7  106 182 
 RUS  HN ES       2127 30.94                             143     0.210  106 182 
 RUS  HZ I        2127 32.58         1.5 0.28                           106 182 
                                                                                
