 2010  611 2252 39.3 L   6.792 -73.181139.5  RSN  4 0.1 1.1LRSN                1
 GAP=193        0.30       3.4    19.0  5.0 -0.5454E+02  0.1093E+02 -0.6758E+00E
 Epicentro: LOS SANTOS - SANTANDER                                             3
 ACTION:UP  10-08-24 10:09 OP:vdl  STATUS:               ID:20100611225239 L   I
 2010-06-11-2249-32S.COL___117                                                 6
 STAT SP IPHASW D HRMM SECON CODA AMPLIT PERI AZIMU VELO SNR AR TRES W  DIS CAZ7
 BAR2 SZ EP   2   2252 58.20                             171     0.0 5   22 181 
 BAR2 SZ ES   2   2253 12.90                             171     0.0 5   22 181 
 RUS  HZ EP   1   2253  2.51                             143     0.1 7  100 174 
 RUS  HN ES   2   2253 20.33                             143    -0.1 5  100 174 
 RUS  HZ I        2253 22.66         2.3 0.19                           100 174 
 GUE  SZ EP   2   2253  3.46                             137    -0.2 5  118  14 
 GUE  SZ ES   2   2253 22.58                             137     0.0 5  118  14 
 GRA  SZ ES   1   2253 23.63                             135     0.0 7  128  19 
                                                                                
