 2016 1011 2335 39.4 L   6.785 -73.133146.0  RSN  9 0.4 2.0LRSN                1
 GAP=139        1.00       3.7     4.6  6.2 -0.1567E+01  0.7717E+01  0.5488E+01E
 Epicentro: LOS SANTOS - SANTANDER                                             3
 ACTION:UPD 16-11-09 19:18 OP:rebc STATUS:               ID:20161011233539 L   I
 OLDACT:UP  16-10-12 03:55 OP:drio STATUS:               ID:20161011232747     3
 OLDACT:REG 16-10-12 03:05 OP:drio STATUS:               ID:20161011232747     3
 2016-10-11-2328-00M.COL___369                                                 6
 STAT SP IPHASW D HRMM SECON CODA AMPLIT PERI AZIMU VELO AIN AR TRES W  DIS CAZ7
 BAR2 EZ EP       2335 58.98                             171   -0.0710 22.0 194 
 BAR2 EZ ES       2336 13.60                             171   -0.7710 22.0 194 
 BAR2 EZ I        2336 15.13        24.6 0.22            169           22.0 194 
 BRR  HZ EP       2336  0.84                             152    0.1310 73.3 299 
 BRR  HN ES       2336 18.09                             152    0.7710 73.3 299 
 BRR  HZ I        2336 21.89        16.8 0.14            149           73.3 299 
 PAM  HZ EP       2336  1.84                             151    0.1610 77.7  38 
 PAM  EE ES       2336 19.12                             151    0.0710 77.7  38 
 PAM  HZ I        2336 21.08        28.6 0.54            155           77.7  38 
 RUS  HZ EP       2336  3.01                             144   -0.0610 98.9 177 
 RUS  HE ES       2336 21.69                             144    0.1710 98.9 177 
 RUS  HZ I        2336 22.79        14.3 0.28            146           98.9 177 
 PTB  HZ EP       2336  5.79                             132   -0.72 9  149 260 
 PTB  HN ES   4   2336 26.34                             132   -1.30 0  149 260 
 PTB  HZ I        2336 31.81         8.6 0.16            131            149 260 
 SPBC HZ EP       2336  8.27                             129    0.36 9  163 220 
 SPBC HN ES       2336 29.91                             129   -0.21 9  163 220 
 SPBC HZ I        2336 34.72        17.5 0.26            130            163 220 
 ZAR  HZ EP   4   2336 14.23                             122    2.15 0  206 292 
 ZAR  HE ES       2336 37.15                             122   -0.41 8  206 292 
 ZAR  HZ I        2336 43.88         9.1 0.34            122            206 292 
 NOR  HZ EP       2336 15.08                             118   -0.11 8  235 235 
 NOR  HE ES       2336 43.57                             118    0.48 8  235 235 
 NOR  HZ I        2336 48.52        10.0 0.16            119            235 235 
 CHI  HZ EP       2336 17.10                             117    0.10 8  247 196 
 CHI  HN ES       2336 46.47                             117    0.15 8  247 196 
 CHI  HZ I        2336 49.85         5.1 0.56            119            247 196 
                                                                                
