 2012  411 2302 20.6 L   6.667 -73.118140.4  RSN  4 0.3 1.9LRSN                1
 GAP=189        0.38      13.2     7.5  8.0 -0.2897E+02 -0.2002E+02  0.5273E+02E
 Epicentro: JORDAN - SANTANDER                                                 3
 ACTION:UPD 12-07-05 11:52 OP:tino STATUS:               ID:20120411230220 L   I
 2012-04-11-2300-00M.COL___180                                                 6
 STAT SP IPHASW D HRMM SECON CODA AMPLIT PERI AZIMU VELO AIN AR TRES W  DIS CAZ7
 BAR2 SZ ES   3   23 2 54.25                             175     0.2 2   11 221 
 BRR  HZ EP       23 2 41.85                             148     0.110   82 307 
 BRR  HN ES   1   23 2 58.33                             148     0.0 7   82 307 
 BRR  HZ I        23 2 59.88        25.9 0.14                            82 307 
 PAM  SZ EP   3   23 2 42.84                             146     0.0 2   88  32 
 PAM  SN ES   3   23 2 59.65                             146    -0.6 2   88  32 
 PTB  HZ EP   3   23 2 46.70                             130    -0.5 2  149 265 
 PTB  HN ES   3   23 3  7.42                             130    -0.5 2  149 265 
 PTB  HZ I        23 3 11.25         6.1 0.34                           149 265 
                                                                                
