 2015  411 2025  0.4 L   6.827 -73.145140.4  RSN 22 0.5 2.9LRSN                1
 GAP=126        1.12       2.5     3.1  4.8 -0.2121E+01  0.4102E+01 -0.1862E+00E
 Epicentro: LOS SANTOS - SANTANDER                                             3
 ACTION:UPD 15-06-03 16:54 OP:cam  STATUS:               ID:20150411202500 L   I
 OLDACT:REG 15-04-12 04:40 OP:fm   STATUS:               ID:20150411201747     3
 2015-04-11-2017-47M.COL___269                                                 6
 STAT SP IPHASW D HRMM SECON CODA AMPLIT PERI AZIMU VELO AIN AR TRES W  DIS CAZ7
 BAR2 EZ EP       2025 19.52                             169    0.0910 26.3 189 
 BAR2 EZ ES       2025 34.08                             169   -0.2110 26.3 189 
 BAR2 EZ I        2025 35.28       255.8 0.18            169           26.3 189 
 BRR  HZ IP     C 2025 21.39                             152    0.5110 69.9 296 
 BRR  HE ES       2025 37.65                             152    0.7910 69.9 296 
 BRR  HZ I        2025 39.87       151.5 0.16            151           69.9 296 
 PAM  SZ IP     D 2025 22.37                             151    0.4910 75.0  41 
 PAM  SN ES       2025 39.26                             151    0.6110 75.0  41 
 PAM  SZ I        2025 41.65       137.4 0.54            153           75.0  41 
 RUS  HZ EP       2025 23.57                             142   -0.2610  104 176 
 RUS  HE ES       2025 41.44                             142   -0.6910  104 176 
 RUS  HZ I        2025 43.62        80.2 0.28            143            104 176 
 PTB  HZ EP       2025 26.15                             131   -0.83 9  148 258 
 PTB  HN ES       2025 47.51                             131   -0.22 9  148 258 
 PTB  HZ I        2025 49.91       133.3 0.14            131            148 258 
 OCA  HZ EP       2025 27.81                             129   -0.18 9  157 353 
 OCA  HE ES       2025 49.32                             129   -0.21 9  157 353 
 OCA  HZ I        2025 53.77       218.5 0.48            130            157 353 
 SPBC HZ EP       2025 28.41                             127   -0.30 9  166 218 
 SPBC HE ES       2025 50.28                             127   -0.52 9  166 218 
 SPBC HZ I        2025 54.49       102.7 0.18            128            166 218 
 ZAR  HZ EP       2025 32.49                             121    0.12 9  203 291 
 ZAR  HN ES       2025 57.79                             121    0.46 9  203 291 
 ZAR  HZ I        2026  1.02        53.4 0.14            122            203 291 
 NOR  HZ EP     D 2025 35.50                             117   -0.51 8  237 234 
 NOR  HE ES       2026  3.57                             117   -0.22 8  237 234 
 NOR  HZ I        2026  7.74        49.2 0.22            118            237 234 
 SML  HZ EP       2025 36.35                             117   -0.06 8  241 335 
 SML  HN ES       2026  4.29                             117   -0.23 8  241 335 
 SML  HZ I        2026  8.20        97.0 0.10            117            241 335 
 ROSC BZ EP       2025 38.84                             115    0.33 8  255 211 
 ROSC BN ES       2026  8.53                             115    0.29 8  255 211 
 ROSC BZ I        2026 15.68        50.1 0.40            116            255 211 
 HEL  HZ EP       2025 40.62                             114    0.20 8  273 255 
 HEL  HN ES       2026 10.90                             114   -0.76 8  273 255 
 HEL  HZ I        2026 18.95        28.6 0.26            114            273 255 
 URE  HZ EP       2025 40.92                             113   -0.16 7  283 291 
 URE  HE ES       2026 12.19                             113   -0.64 7  283 291 
 URE  HZ I        2026 15.36        50.0 0.14            113            283 291 
 GUY2CHZ EP       2025 44.86                             111    0.90 7  303 234 
 GUY2CHE ES       2026 18.02                             111    0.07 7  303 234 
 GUY2CHZ I        2026 24.80        43.9 0.26                           303 234 
 RREF HN EP       2025 47.00                             110    0.47 7  324 229 
 RREF HN ES       2026 23.45                             110    0.92 7  324 229 
 RREF HN I        2026 29.95        47.6 0.58            110            324 229 
 CBOC HZ EP       2025 48.17                             109    0.97 7  335 252 
 CBOC HE ES       2026 23.73                             109    0.01 7  335 252 
 CBOC HZ I        2026 28.43        13.4 0.30            109            335 252 
 DBB  SZ EP       2025 47.76                             108    0.13 7  339 274 
 MON  HZ EP   4   2025 47.42                             108   -1.55 0  352 308 
 MON  HE ES       2026 25.99                             108   -0.88 6  352 308 
 MON  HZ I        2026 27.93        14.6 0.18            108            352 308 
 SDV  BZ EP       2025 49.41                             107   -0.57 6  358  51 
 SDV  BE ES       2026 28.28                             107   -0.39 6  358  51 
 SDV  BZ I        2026 31.45        18.3 0.50            108            358  51 
 ORTC HZ EP       2025 55.07                             105    0.65 6  398 216 
 ORTC HN ES       2026 36.87                             105    0.30 6  398 216 
 ORTC HZ I        2026 41.17        13.1 0.48            106            398 216 
 SJC  HE ES   4   2026 35.58                             105   -2.87 0  407 327 
 SJC  HZ I        2026 38.79        12.8 0.50            106            407 327 
 CRJC HZ EP   4   2026  0.14                             103   -2.23 0  465   4 
 CRJC HE ES   4   2026 44.79                             103   -5.93 0  465   4 
 CRJC HZ I        2026 57.26        12.7 0.20            103            465   4 
                                                                                
