 2015  711 2103 14.8 L   6.828 -73.213136.4  RSN  7 0.3 1.8LRSN                1
 GAP=127        0.61       2.8     4.6  5.2 -0.6357E+01  0.1331E+02  0.1127E+01E
 Epicentro: ZAPATOCA - SANTANDER                                               3
 ACTION:UPD 15-09-08 21:48 OP:cam  STATUS:               ID:20150711210314 L   I
 OLDACT:UP  15-07-12 05:51 OP:mh   STATUS:               ID:20150711205749     3
 OLDACT:UP  15-07-12 05:49 OP:mh   STATUS:               ID:20150711205749     3
 OLDACT:REG 15-07-12 04:59 OP:mh   STATUS:               ID:20150711205749     3
 2015-07-11-2057-49M.COL___343                                                 6
 STAT SP IPHASW D HRMM SECON CODA AMPLIT PERI AZIMU VELO AIN AR TRES W  DIS CAZ7
 BAR2 EZ EP       21 3 33.07                             169   -0.2710 26.3 172 
 BAR2 EZ ES       21 3 47.77                             169   -0.0610 26.3 172 
 BAR2 EZ I        21 3 49.28        13.9 0.26            167           26.3 172 
 PAM  EZ EP   1   21 3 36.08                             148   -0.09 7 80.1  45 
 PAM  EN ES       21 3 53.10                             148    0.2310 80.1  45 
 PAM  EZ I        21 3 55.19        10.4 0.60            154           80.1  45 
 OCA  HN ES       21 4  3.22                             128   -0.02 9  156 356 
 NOR  HZ EP   1   21 3 49.05                             117   -0.47 6  230 233 
 NOR  HE ES   1   21 4 16.36                             117   -0.26 6  230 233 
 NOR  HZ I        21 4 23.15         6.8 0.20            118            230 233 
 CHI  HZ EP   1   21 3 51.68                             115   -0.41 6  250 193 
 CHI  HN ES       21 4 21.48                             115    0.27 8  250 193 
 CHI  HZ I        21 4 24.86         2.9 0.28            116            250 193 
 GUY2CHZ EP       21 3 57.85                             111    0.37 7  297 233 
 GUY2CHN ES       21 4 31.13                             111    0.34 7  297 233 
 GUY2CHZ I        21 4 39.41         4.6 0.32                           297 233 
 TOL  SZ EP       21 4  2.73                             108    0.41 7  341 223 
 TOL  SN ES       21 4 39.10                             108   -0.31 7  341 223 
 TOL  SZ I        21 4 49.87         3.6 0.32            109            341 223 
                                                                                
