 2010  211 2347 22.4 L   6.793 -73.060144.0  RSN  8 0.3 2.4LRSN                1
 GAP=148        0.60       2.9     5.7  3.8 -0.8147E+01  0.7114E+00  0.1867E+01E
 Epicentro: LOS SANTOS - SANTANDER                                             3
 ACTION:UP  10-08-24 09:48 OP:vdl  STATUS:               ID:20100211234722 L   I
 2010-02-11-2343-19S.COL___094                                                 6
 STAT SP IPHASW D HRMM SECON CODA AMPLIT PERI AZIMU VELO SNR AR TRES W  DIS CAZ7
 BAR2 SZ IP       2347 41.84                             169    -0.110   26 212 
 BAR2 SZ ES       2347 57.08                             169     0.010   26 212 
 GIR2 SZ IP       2347 42.05                             166     0.110   35 335 
 GIR2 SZ ES   1   2347 57.19                             166    -0.1 7   35 335 
 OCA  SZ EP       2347 50.58                             129    -0.2 9  162 350 
 OCA  SZ ES   1   2348 13.30                             129     0.4 7  162 350 
 OCA  SZ I        2348 16.88        52.2 0.26                           162 350 
 CHI  HZ IP       2348  0.11                             116    -0.1 8  251 197 
 CHI  HN ES   1   2348 29.95                             116     0.2 6  251 197 
 CHI  HZ I        2348 35.35         5.6 0.91                           251 197 
 HEL  HZ EP   2   2348  3.57                             114     0.0 4  281 256 
 HEL  HE ES   2   2348 34.68                             114    -1.0 4  281 256 
 TOL  SZ IP       2348 11.86                             109     0.5 6  350 226 
 TOL  SZ ES   2   2348 50.55                             109     1.1 3  350 226 
 SDV  BZ IP       2348 11.60                             108     0.0 6  354  49 
 PRA  HZ IP       2348 16.29                             106    -0.1 6  396 211 
 PRA  HE ES   1   2348 57.86                             106    -0.6 4  396 211 
 PRA  HZ I        2349  3.63        10.2 0.26                           396 211 
                                                                                
