 2011  811 2249 48.0 L   6.791 -73.134147.0  RSN  5 0.3 1.8LRSN                1
 GAP=138        0.44       4.0     4.8  5.7 -0.5034E+01  0.3434E+01  0.2526E+01E
 Epicentro: LOS SANTOS - SANTANDER                                             3
 ACTION:UPD 12-07-25 14:07 OP:epov STATUS:               ID:20110811224948 L   I
 2011-08-11-2247-07S.COL___149                                                 6
 STAT SP IPHASW D HRMM SECON CODA AMPLIT PERI AZIMU VELO AIN AR TRES W  DIS CAZ7
 BAR2 SZ EP   1   2250  7.64                             171   -0.09 7 22.6 194 
 BAR2 SZ ES   2   2250 22.94                             171   -0.21 5 22.6 194 
 BAR2 SZ I        2250 24.65        11.9 0.35                          22.6 194 
 BRR  HZ EP   1   2250  9.29                             152   -0.04 7 72.8 299 
 BRR  HN ES   2   2250 26.53                             152    0.52 5 72.8 299 
 BRR  HZ I        2250 28.39        25.2 0.31                          72.8 299 
 PAM  SZ EP   1   2250 10.34                             151    0.04 7 77.3  38 
 PAM  SN ES   2   2250 27.40                             151   -0.34 5 77.3  38 
 RUS  HZ EP   1   2250 11.89                             144    0.13 7 99.5 177 
 RUS  HN ES   2   2250 30.53                             144    0.21 5 99.5 177 
 RUS  HZ I        2250 32.02         4.9 0.40                          99.5 177 
 NOR  SZ EP   2   2250 24.02                             119    0.21 4  235 235 
 NOR  SN ES   2   2250 51.15                             119   -0.63 4  235 235 
                                                                                
