 2011  511 2308 35.7 L   6.786 -73.109145.1  RSN  6 0.1 1.4LRSN                1
 GAP=142        0.36       2.0     3.4  3.8 -0.1621E+01 -0.4780E+00  0.2167E+00E
 Epicentro: LOS SANTOS - SANTANDER                                             3
 ACTION:UP  11-06-29 08:52 OP:tino STATUS:               ID:20110511230835 L   I
 2011-05-11-2305-02S.COL___129                                                 6
 STAT SP IPHASW D HRMM SECON CODA AMPLIT PERI AZIMU VELO SNR AR TRES W  DIS CAZ7
 BTL  SZ EP   1   23 8 55.20                             171     0.0 7   23 310 
 BAR2 SZ EP       23 8 55.10                             171    -0.110   23 201 
 BAR2 SZ I        23 9 11.43         6.4 0.16                            23 201 
 BRR  HZ EP       23 8 56.92                             151    -0.110   75 298 
 BRR  HN ES   1   23 9 13.76                             151     0.1 7   75 298 
 BRR  HZ I        23 9 18.01         8.2 0.11                            75 298 
 PAM  SZ EP   1   23 8 57.92                             151     0.2 7   76  36 
 PAM  SN ES   1   23 9 14.94                             151     0.0 7   76  36 
 RUS  HZ EP   1   23 8 59.46                             144     0.2 7   99 178 
 RUS  HN ES   1   23 9 17.57                             144     0.0 7   99 178 
 RUS  HZ I        23 9 19.33         2.4 0.35                            99 178 
 GRA  SZ EP       23 9  0.86                             137     0.010  126  16 
 GRA  SZ ES   1   23 9 20.58                             137     0.0 7  126  16 
 GRA  SZ I        23 9 21.45         2.8 0.31                           126  16 
                                                                                
