 2012 1011 2356 22.1 L   7.246 -74.317 54.4  RSN  4 0.4 1.8LRSN                1
 GAP=192        0.76      14.0     5.5 12.8  0.6885E+02 -0.4491E+02 -0.1187E+03E
 Epicentro: PUERTO WILCHES - SANTANDER                                         3
 ACTION:UPD 12-11-22 17:03 OP:ep   STATUS:               ID:20121011235622 L   I
 2012-10-11-2350-00M.COL___232                                                 6
 STAT SP IPHASW D HRMM SECON CODA AMPLIT PERI AZIMU VELO AIN AR TRES W  DIS CAZ7
 ZAR  HZ EP       2356 34.02                             122   -0.1410 65.6 295 
 ZAR  HN ES   1   2356 43.25                             122   -0.35 7 65.6 295 
 ZAR  HZ I        2356 44.53        19.0 0.32                          65.6 295 
 BRR  HZ EP   1   2356 34.60                             120    0.14 7 68.6 103 
 BRR  HN ES   1   2356 44.63                             120    0.50 7 68.6 103 
 PAM  SZ EP       2356 48.13                              98    0.05 9  179  87 
 PAM  SZ I        2356 48.33        10.9 0.16                           179  87 
 PAM  SN ES   1   2357  7.61                              98   -0.77 7  179  87 
 PAM  SN I        2357  8.65        14.0 0.20                           179  87 
 MON  HZ EP   1   2356 53.48                              96    0.30 6  225 319 
 MON  HN ES   1   2357 17.89                              96    0.44 6  225 319 
                                                                                
