 2016 1011 2245 53.7 L   6.531 -73.566111.0  RSN  8 0.5 1.5LRSN                1
 GAP= 62        1.19       4.4     4.0  7.5 -0.2572E+01  0.7137E+01  0.5622E+01E
 Epicentro: EL CARMEN - SANTANDER                                              3
 ACTION:UPD 16-11-09 19:18 OP:rebc STATUS:               ID:20161011224553 L   I
 OLDACT:UP  16-10-12 03:26 OP:drio STATUS:               ID:20161011223743d    3
 OLDACT:DUP 16-10-12 03:22 OP:drio STATUS:               ID:20161011223743d    3
 2016-10-11-2238-00M.COL___375                                                 6
 STAT SP IPHASW D HRMM SECON CODA AMPLIT PERI AZIMU VELO AIN AR TRES W  DIS CAZ7
 BAR2 HZ EP       2246 10.09                             157    0.1710 43.0  81 
 BAR2 HZ ES       2246 22.91                             157    0.3610 43.0  81 
 BAR2 HZ I        2246 24.30        10.0 0.34            157           43.0  81 
 BRR  HZ EP       2246 10.99                             147    0.1210 65.7 346 
 BRR  HE ES       2246 24.96                             147    0.7110 65.7 346 
 RUS  HZ EP       2246 13.06                             139   -0.1810 88.5 143 
 RUS  HE ES       2246 28.54                             139    0.0710 88.5 143 
 RUS  HZ I        2246 29.99         5.1 0.42            136           88.5 143 
 PTB  HZ EP       2246 12.94                             135   -0.4710 98.5 271 
 PTB  HE ES       2246 28.04                             135   -0.7310 98.5 271 
 PTB  HZ I        2246 28.69        12.8 0.10            134           98.5 271 
 PAM  EZ EP       2246 16.99                             127   -0.0710  131  47 
 PAM  HN ES       2246 34.37                             127   -0.8910  131  47 
 PAM  EZ I        2246 36.05         7.9 0.26            127            131  47 
 ZAR  HZ EP       2246 22.01                             117    0.71 9  178 307 
 ZAR  HN ES   4   2246 44.58                             117    1.77 0  178 307 
 ZAR  HZ I        2246 47.43         4.5 0.12            117            178 307 
 NOR  HZ EP       2246 21.59                             117    0.06 9  180 234 
 NOR  HE ES       2246 43.14                             117   -0.08 9  180 234 
 CHI  HZ EP       2246 25.89                             113    0.42 8  211 185 
 CHI  HN ES   4   2246 52.72                             113    2.48 0  211 185 
 CHI  HZ I        2247  2.46         1.2 0.22            111            211 185 
                                                                                
