 2012  111 2103 13.0 L   6.817 -73.160141.6  RSN 13 0.5 2.5LRSN                1
 GAP=112        1.21       5.0     5.7  7.9 -0.1907E+01  0.1358E+02  0.4795E+01E
 Epicentro: LOS SANTOS - SANTANDER                                             3
 ACTION:UP  12-02-03 08:16 OP:REBC STATUS:               ID:20120111210313 L   I
 2012-01-11-2100-00M.COL___187                                                 6
 STAT SP IPHASW D HRMM SECON CODA AMPLIT PERI AZIMU VELO SNR AR TRES W  DIS CAZ7
 BAR2 SZ EP       21 3 32.17                             170     0.010   25 186 
 BAR2 SZ I        21 3 32.48        44.8 0.14                            25 186 
 BAR2 SZ ES   1   21 3 47.41                             170     0.3 7   25 186 
 GIR2 SZ EP       21 3 32.21                             168     0.110   29 353 
 GIR2 SZ ES   3   21 3 46.26                             168    -0.8 2   29 353 
 BRR  HZ IP     D 21 3 33.94                             153     0.410   69 298 
 BRR  HN ES   2   21 3 50.53                             153     0.9 5   69 298 
 BRR  HZ I        21 3 51.95       131.2 0.12                            69 298 
 PAM  SZ EP       21 3 35.01                             150     0.310   77  41 
 PAM  SN ES   1   21 3 51.83                             150     0.1 7   77  41 
 RUS  HZ IP     D 21 3 36.22                             142    -0.310  103 175 
 RUS  HN ES   1   21 3 54.51                             142    -0.3 7  103 175 
 RUS  HZ I        21 3 56.37        27.2 0.30                           103 175 
 PTB  HZ EP       21 3 38.71                             131    -0.8 9  147 258 
 PTB  HN ES   1   21 3 59.39                             131    -0.8 7  147 258 
 PTB  HZ I        21 4  7.02        27.7 0.44                           147 258 
 OCA  SZ EP       21 3 40.29                             129    -0.5 9  158 354 
 OCA  SZ I        21 4  6.64        35.1 0.30                           158 354 
 YOP  SZ EP       21 3 43.02                             125     0.0 9  181 153 
 ZAR  HZ EP       21 3 44.87                             122    -0.1 9  202 292 
 ZAR  HZ I        21 4 14.81        42.5 0.20                           202 292 
 NOR  SZ EP   1   21 3 47.92                             118    -0.6 6  234 234 
 CHI  HZ EP       21 3 50.64                             116     0.0 8  250 195 
 CHI  HN ES   1   21 4 19.92                             116    -0.1 6  250 195 
 CHI  HZ I        21 4 22.94        20.7 0.24                           250 195 
 HEL  HZ EP       21 3 53.42                             114     0.5 8  271 255 
 HEL  HN ES   1   21 4 24.83                             114     0.8 6  271 255 
 HEL  HZ I        21 4 31.98        13.2 0.40                           271 255 
 TOL  SZ EP       21 4  2.39                             108     1.3 7  344 224 
                                                                                
