 2011  411 2100 57.5 L   6.787 -73.120141.5  RSN 11 0.3 2.3LRSN                1
 GAP=104        0.72       4.4     5.5  5.6 -0.1282E+02 -0.7076E+01  0.1030E+02E
 Epicentro: LOS SANTOS - SANTANDER                                             3
 ACTION:UP  11-06-22 15:30 OP:REBC STATUS:               ID:20110411210057 L   I
 2011-04-11-2058-29S.COL___140                                                 6
 STAT SP IPHASW D HRMM SECON CODA AMPLIT PERI AZIMU VELO SNR AR TRES W  DIS CAZ7
 BAR2 SZ EP   1   21 1 16.50                             171    -0.1 7   23 198 
 BAR2 SZ ES   1   21 1 31.09                             171    -0.4 7   23 198 
 BAR2 SZ I        21 1 33.53        45.6 0.33                            23 198 
 GIR2 SZ EP   2   21 1 16.65                             166    -0.1 5   33 346 
 GIR2 SZ ES   2   21 1 31.38                             166    -0.3 5   33 346 
 BRR  HZ EP   1   21 1 17.90                             150    -0.5 7   74 298 
 BRR  HE ES   1   21 1 35.07                             150     0.4 7   74 298 
 BRR  HZ I        21 1 39.71        47.5 0.38                            74 298 
 PAM  SZ EP   1   21 1 19.42                             150     0.2 7   77  37 
 PAM  SN ES   1   21 1 36.15                             150     0.0 7   77  37 
 PAM  SZ I        21 1 38.69        29.4 0.43                            77  37 
 GRA  SZ EP   1   21 1 22.49                             136     0.1 7  126  16 
 GRA  SZ ES   1   21 1 42.39                             136     0.5 7  126  16 
 GRA  SZ I        21 1 42.92        47.8 0.29                           126  16 
 OCA  SZ EP   2   21 1 24.95                             128    -0.7 5  162 352 
 OCA  SZ I        21 1 50.43        37.5 0.47                           162 352 
 YOP  SZ EP   1   21 1 27.34                             126     0.3 7  176 154 
 YOP  SZ I        21 1 51.73        19.5 0.27                           176 154 
 NOR  SE ES   1   21 2  1.24                             117     0.3 6  236 235 
 CHI  HZ EP   1   21 1 34.94                             116     0.0 6  248 196 
 CHI  HZ I        21 2  8.24         7.1 0.22                           248 196 
 SDV  BZ EP   1   21 1 46.85                             107    -0.4 5  359  50 
 SDV  BZ I        21 2 28.21         7.0 0.57                           359  50 
 PRA  HZ EP   1   21 1 51.09                             106     0.2 4  392 210 
 PRA  HN ES   2   21 2 32.39                             106    -0.2 3  392 210 
                                                                                
