 2010 1111 2148 38.0 L   7.393 -73.502102.0  RSN  7 0.4 1.6LRSN                1
 GAP=155        0.78       4.8     7.6 10.3 -0.1704E+02  0.4359E+01 -0.5774E+01E
 Epicentro: SABANA DE TORRES - SANTANDER                                       3
 ACTION:UP  10-12-17 16:51 OP:REBC STATUS:               ID:20101111214838 L   I
 2010-11-11-2146-03S.COL___129                                                 6
 STAT SP IPHASW D HRMM SECON CODA AMPLIT PERI AZIMU VELO SNR AR TRES W  DIS CAZ7
 BRR  HZ EP       2148 52.47                             157    -0.110   39 216 
 BRR  HN ES   2   2149  4.60                             157     0.6 5   39 216 
 BRR  HZ I        2149 11.73        15.4 0.28                            39 216 
 BTL  SZ EP   1   2148 54.26                             147     0.2 7   59 154 
 GRA  SZ EP       2148 57.07                             133     0.410   94  55 
 GRA  SZ ES   1   2149 11.07                             133    -0.2 7   94  55 
 GRA  SZ I        2149 13.47         9.8 0.22                            94  55 
 BAR2 SZ ES   2   2149 10.92                             133    -0.8 5   95 158 
 BAR2 SZ I        2149 14.77        15.2 0.21                            95 158 
 OCA  SZ EP       2148 56.65                             133    -0.210   96  12 
 OCA  SZ ES   2   2149 11.36                             133    -0.2 5   96  12 
 OCA  SZ I        2149 12.82        14.2 0.23                            96  12 
 RUS  HZ EP   2   2149  5.40                             115     0.4 4  172 164 
 RUS  HZ I        2149 34.55         2.2 0.34                           172 164 
 NOR  SN ES   3   2149 40.69                             105    -0.8 2  253 217 
                                                                                
