 2013  411 2045 41.6 L   6.852 -73.071148.6  RSN 24 0.5 3.7LRSN 3.7WRSN        1
 SPEC AVERAGE  MO 14.7 ST 33.0 OM  3.1 f0 3.35 R0.4859 AL 1.57 WI 45.1 MW  3.7 3
 SPEC SD       MO  0.2 ST 29.1 OM  0.3 f0 1.00 R0.1661 AL      WI      MW  0.2 3
 GAP= 73        1.00       2.6     4.4  5.2 -0.2593E+01 -0.1398E+01  0.1253E+01E
 Epicentro: LOS SANTOS - SANTANDER                                             3
 SPEC VIL SH Z MO 14.9 ST 34.0 OM  3.0 f0 3.06 R0.4804 AL 2.24 WI 35.3 MW  3.9 3
 SPEC VIL SH Z T204657 K 0.000 GD  344 VS 4.20 DE 3.20 Q0300.0 QA 0.60 VS 4.20 3
 SPEC SDV BH Z MO 14.3 ST  4.5 OM  2.3 f0 2.58 R0.5698 AL 1.59 WI 68.1 MW  3.5 3
 SPEC SDV BH Z T204649 K 0.000 GD  380 VS 4.20 DE 3.20 Q0300.0 QA 0.60 VS 4.20 3
 SPEC ROSCBH Z MO 15.0 ST 35.9 OM  3.1 f0 3.02 R0.4868 AL 2.70 WI 35.2 MW  3.9 3
 SPEC ROSCBH Z T204644 K 0.000 GD  301 VS 4.20 DE 3.20 Q0300.0 QA 0.60 VS 4.20 3
 SPEC PTB HH Z MO 14.6 ST 36.1 OM  2.9 f0 3.94 R0.3731 AL 1.04 WI 21.7 MW  3.7 3
 SPEC PTB HH Z T204628 K 0.000 GD  216 VS 4.20 DE 3.20 Q0300.0 QA 0.60 VS 4.20 3
 SPEC TAM HH Z MO 14.7 ST  3.2 OM  3.0 f0 1.64 R0.8963 AL 0.95 WI 27.3 MW  3.8 3
 SPEC TAM HH Z T204626 K 0.000 GD  210 VS 4.20 DE 3.20 Q0300.0 QA 0.60 VS 4.20 3
 SPEC RUS HH Z MO 14.4 ST 25.7 OM  2.7 f0 4.34 R0.3387 AL 2.04 WI 25.2 MW  3.5 3
 SPEC RUS HH Z T204621 K 0.000 GD  182 VS 4.20 DE 3.20 Q0300.0 QA 0.60 VS 4.20 3
 SPEC PRA HH Z MO 15.0 ST 23.3 OM  3.0 f0 2.51 R0.5857 AL 1.48 WI 69.9 MW  4.0 3
 SPEC PRA HH Z T2047 6 K 0.000 GD  427 VS 4.20 DE 3.20 Q0300.0 QA 0.60 VS 4.20 3
 SPEC HEL HH Z MO 14.8 ST 36.7 OM  2.9 f0 3.48 R0.4224 AL 1.51 WI 66.3 MW  3.8 3
 SPEC HEL HH Z T204647 K 0.000 GD  318 VS 4.20 DE 3.20 Q0300.0 QA 0.60 VS 4.20 3
 SPEC NOR HH Z MO 14.7 ST 80.1 OM  2.8 f0 5.05 R0.2911 AL 1.63 WI 60.5 MW  3.7 3
 SPEC NOR HH Z T204635 K 0.000 GD  286 VS 4.20 DE 3.20 Q0300.0 QA 0.60 VS 4.20 3
 SPEC OCA HH Z MO 14.6 ST 45.8 OM  2.9 f0 4.27 R0.3443 AL 1.39 WI 52.3 MW  3.7 3
 SPEC OCA HH Z T204628 K 0.000 GD  215 VS 4.20 DE 3.20 Q0300.0 QA 0.60 VS 4.20 3
 SPEC COD HH Z MO 14.6 ST  7.3 OM  2.6 f0 2.43 R0.6049 AL 1.29 WI 51.7 MW  3.7 3
 SPEC COD HH Z T2047 3 K 0.000 GD  373 VS 4.20 DE 3.20 Q0300.0 QA 0.60 VS 4.20 3
 SPEC CHI HH Z MO 14.7 ST  5.7 OM  2.8 f0 2.07 R0.7101 AL 1.86 WI 76.3 MW  3.7 3
 SPEC CHI HH Z T204636 K 0.000 GD  296 VS 4.20 DE 3.20 Q0300.0 QA 0.60 VS 4.20 3
 SPEC BAR2SH Z MO 14.9 ST109.6 OM  3.3 f0 4.72 R0.3114 AL 1.30 WI 24.7 MW  3.9 3
 SPEC BAR2SH Z T204613 K 0.000 GD  151 VS 4.20 DE 3.20 Q0300.0 QA 0.60 VS 4.20 3
 SPEC GIR2SH Z MO 14.3 ST 14.2 OM  2.7 f0 3.79 R0.3879 AL 0.94 WI 16.6 MW  3.5 3
 SPEC GIR2SH Z T204615 K 0.000 GD  151 VS 4.20 DE 3.20 Q0300.0 QA 0.60 VS 4.20 3
 ACTION:UPD 13-05-22 14:37 OP:EP   STATUS:               ID:20130411204541 L   I
 2013-04-11-2040-00M.COL___245                                                 6
 STAT SP IPHASW D HRMM SECON CODA AMPLIT PERI AZIMU VELO AIN AR TRES W  DIS CAZ7
 GIR2 SZ IP     D 2046  1.67                             169    0.1510 28.5 332 
 GIR2 SZ ES   1   2046 17.31                             169    0.23 7 28.5 332 
 GIR2 SZ I        2046 18.30       843.8 0.28            167           28.5 332 
 BAR2 SZ IP     C 2046  1.57                             168   -0.1610 31.2 203 
 BAR2 SZ ES   1   2046 16.83                             168   -0.62 7 31.2 203 
 BAR2 SZ I        2046 18.22      3044.1 0.24            164           31.2 203 
 BRR  HZ IP     C 2046  3.34                             151    0.0210 76.3 292 
 BRR  HN ES   1   2046 20.57                             151    0.28 7 76.3 292 
 BRR  HZ I        2046 23.68       969.3 0.26            146           76.3 292 
 RUS  HZ IP     D 2046  5.45                             143   -0.5510  106 181 
 RUS  HN ES   1   2046 24.32                             143   -0.74 7  106 181 
 RUS  HZ I        2046 25.48       549.6 0.24            135            106 181 
 TAM  HZ IP     C 2046  9.92                             132    1.02 9  149 108 
 TAM  HZ I        2046 30.67       367.3 0.34            124            149 108 
 TAM  HE ES   2   2046 31.04                             132    0.82 5  149 108 
 OCA  HZ EP       2046  9.69                             131   -0.01 9  156 350 
 OCA  HN ES   1   2046 31.83                             131    0.19 7  156 350 
 OCA  HZ I        2046 36.96       508.5 0.16            124            156 350 
 PTB  HZ EP   4   2046  8.03                             131   -1.59 0  157 257 
 PTB  HN ES   4   2046 29.31                             131   -2.19 0  157 257 
 PTB  HZ I        2046 34.49       784.0 0.14            123            157 257 
 CTAU SZ EP       2046 16.20                             122    0.53 8  212 211 
 CTAU SZ ES   1   2046 42.91                             122    0.65 6  212 211 
 CTAB SZ EP       2046 18.77                             119    0.30 8  239 212 
 CTAB SZ ES   1   2046 48.01                             119    0.76 6  239 212 
 SML  HZ EP       2046 17.98                             118   -0.22 8  242 333 
 SML  HN ES   1   2046 46.49                             118   -0.27 6  242 333 
 SML  HZ I        2046 50.19       540.2 0.24            111            242 333 
 NOR  HZ IP   4 C 2046 17.42                             118   -1.13 0  245 235 
 NOR  HE ES   4   2046 45.39                             118   -2.00 0  245 235 
 NOR  HZ I        2046 50.73       402.7 0.36            111            245 235 
 CHI  HZ IP     D 2046 19.32                             117   -0.95 8  256 197 
 CHI  HN ES   4   2046 49.12                             117   -1.34 0  256 197 
 CHI  HZ I        2046 58.88       270.2 0.42            110            256 197 
 ROSC BZ EP       2046 21.31                             116    0.46 8  262 212 
 ROSC BE ES   1   2046 51.32                             116   -0.17 6  262 212 
 ROSC BZ I        2046 56.28       690.2 0.50            109            262 212 
 HEL  HZ EP   4   2046 21.36                             114   -1.62 0  282 255 
 HEL  HN ES   1   2046 55.56                             114    0.28 6  282 255 
 HEL  HZ I        2047  1.96       381.5 0.28            108            282 255 
 URE  HZ EP   4   2046 21.28                             114   -2.14 0  290 290 
 URE  HN ES   4   2046 52.93                             114   -3.13 0  290 290 
 VIL  SZ EP       2046 25.19                             112   -0.76 7  311 193 
 VIL  SE ES   1   2047  0.12                             112   -0.45 5  311 193 
 VIL  SZ I        2047  8.33       330.4 0.40            106            311 193 
 COD  HZ IP     C 2046 29.51                             110    0.00 7  343 353 
 COD  HN ES   2   2047  7.00                             110    0.09 3  343 353 
 COD  HZ I        2047 18.08       109.3 0.48            104            343 353 
 DBB  SZ IP   4 C 2046 28.87                             109   -1.20 0  347 273 
 DBB  SZ ES   4   2047  6.02                             109   -1.89 0  347 273 
 DBB  SZ I        2047  7.79       153.7 0.58            104            347 273 
 SDV  BZ IP     C 2046 30.92                             109    0.35 6  350  50 
 SDV  BN ES   1   2047  7.72                             109   -1.06 5  350  50 
 PRA  HZ EP   4   2046 35.15                             106   -1.11 0  401 210 
 PRA  HE ES   1   2047 18.82                             106   -0.09 4  401 210 
 PRA  HZ I        2047 23.69       342.0 0.40            101            401 210 
 SJA  SZ EP       2046 37.35                             106    0.25 6  408 194 
 SJA  SZ ES   1   2047 20.20                             106   -0.21 4  408 194 
 SJA  SZ I        2047 26.95       137.6 0.16            101            408 194 
 SJC  HZ EP   4   2046 35.84                             106   -1.37 0  409 326 
 SJC  HN ES   4   2047 16.65                             106   -3.96 0  409 326 
 GUA  SZ EP   4   2046 42.37                             103   -3.00 0  479 174 
 GUA  SN ES   4   2047 32.34                             103   -2.79 0  479 174 
 GUA  SZ I        2047 36.88        99.8 0.26             98            479 174 
 YOT  HZ IP   4 D 2046 43.98                             103   -1.90 0  482 229 
 YOT  HZ I        2047 46.83        10.0 0.30             98            482 229 
 SMAR HZ EP       2046 46.26                             103   -0.84 4  494 345 
 SMAR HE ES   4   2047 34.31                             103   -3.91 0  494 345 
 MARA HZ EP   4   2046 52.29                             101   -1.51 0  547 216 
 MARA HZ I        2048 11.26        24.1 0.36             96            547 216 
                                                                                
