 2016 1211 2345 28.7 L   6.786 -73.150148.9  RSN 13 0.3 2.3LRSN                1
 GAP= 99        0.79       3.4     2.8  4.3 -0.5430E+00  0.6757E+00  0.5319E+01E
 Epicentro: LOS SANTOS - SANTANDER                                             3
 ACTION:UPD 17-01-11 20:14 OP:rebc STATUS:               ID:20161211234528 L   I
 OLDACT:UP  16-12-12 06:00 OP:cog  STATUS:               ID:20161211233745     3
 OLDACT:REG 16-12-12 04:51 OP:cog  STATUS:               ID:20161211233745     3
 2016-12-11-2338-00M.COL___390                                                 6
 STAT SP IPHASW D HRMM SECON CODA AMPLIT PERI AZIMU VELO AIN AR TRES W  DIS CAZ7
 BAR2 EZ EP       2345 48.61                             171   -0.0910 21.7 189 
 BAR2 EZ ES       2346  3.78                             171   -0.5010 21.7 189 
 BAR2 EZ I        2346  4.86        46.4 0.27            168           21.7 189 
 BRR  HZ EP       2345 50.40                             153    0.1810 71.5 300 
 BRR  HE ES       2346  7.37                             153    0.3710 71.5 300 
 BRR  HZ I        2346  8.54        22.1 0.12            152           71.5 300 
 PAM  EZ EP       2345 51.62                             151    0.2610 78.9  39 
 PAM  EN ES       2346  8.85                             151   -0.1610 78.9  39 
 PAM  EZ I        2346 10.80        46.5 0.50            154           78.9  39 
 RUS  HZ EP       2345 52.49                             145   -0.1810 99.1 176 
 RUS  HN ES       2346 11.64                             145    0.2810 99.1 176 
 RUS  HZ I        2346 12.35        22.1 0.24            143           99.1 176 
 PTB  HZ EP       2345 55.29                             133   -0.58 9  147 259 
 PTB  HE ES       2346 17.04                             133   -0.02 9  147 259 
 PTB  HZ I        2346 18.34        18.7 0.16            131            147 259 
 TAM  HZ EP       2345 56.89                             131    0.24 9  155 104 
 TAM  HE ES       2346 18.54                             131    0.10 9  155 104 
 CHI  HZ EP       2346  6.69                             118    0.27 8  247 195 
 CHI  HN ES       2346 36.08                             118    0.25 8  247 195 
 CHI  HZ I        2346 39.60        15.4 0.58            117            247 195 
 ROSC BZ EP   4   2346  9.22                             117    2.38 0  251 211 
 ROSC BN ES   4   2346 37.89                             117    1.31 0  251 211 
 GUY2CHZ EP   4   2346 13.01                             113    0.68 0  300 235 
 GUY2CHN ES   4   2346 51.15                             113    4.80 0  300 235 
 GUY2CHZ I        2346 54.83         9.6 0.32                           300 235 
 PTGC HZ EP       2346 11.74                             112   -0.84 7  307 158 
 PTGC HN ES   4   2346 45.40                             112   -1.39 0  307 158 
 ELA  HZ EP   4   2346 18.21                             111    2.66 0  328 230 
 ELA  HN ES   4   2346 54.44                             111    2.36 0  328 230 
 ELA  HZ I        2347  5.14         8.4 0.50            110            328 230 
 PRA  HZ EP       2346 22.53                             107    0.36 6  390 210 
 PRA  HE ES   4   2347  2.26                             107   -1.59 0  390 210 
 PRA  HZ I        2347  8.58         5.8 0.48            107            390 210 
 ORTC HZ EP       2346 22.57                             107    0.00 6  394 216 
 ORTC HN ES   4   2347  5.42                             107    0.85 0  394 216 
 ORTC HZ I        2347  9.99         8.6 0.20            106            394 216 
 PAL  HZ EP       2346 23.96                             106    0.12 6  404 239 
                                                                                
