 2011 1211 2101 45.8 L   6.749 -73.123141.5  RSN  5 0.3 1.2LRSN                1
 GAP=142        0.51       4.9     4.4  5.7 -0.3671E+01  0.1675E+01  0.5858E+01E
 Epicentro: LOS SANTOS - SANTANDER                                             3
 ACTION:UPD 12-07-13 16:15 OP:ep   STATUS:               ID:20111211210145 L   I
 2011-12-11-2100-00M.COL___186                                                 6
 STAT SP IPHASW D HRMM SECON CODA AMPLIT PERI AZIMU VELO AIN AR TRES W  DIS CAZ7
 GIR2 SZ EP   2   21 2  4.98                             164   -0.14 5 37.3 348 
 GIR2 SZ ES   2   21 2 20.49                             164    0.28 5 37.3 348 
 BRR  HZ EP       21 2  6.98                             150    0.2210 76.2 301 
 BRR  HZ I        21 2  7.45         5.7 0.10                          76.2 301 
 BRR  HE ES   1   21 2 23.20                             150    0.07 7 76.2 301 
 PAM  SZ EP       21 2  7.78                             149    0.0610 80.3  36 
 PAM  SN ES   2   21 2 24.15                             149   -0.68 5 80.3  36 
 RUS  HZ EP   2   21 2  9.03                             145    0.34 5 94.8 177 
 RUS  HE ES   2   21 2 26.49                             145   -0.08 5 94.8 177 
 RUS  HZ I        21 2 28.64         1.4 0.16                          94.8 177 
 PTB  HZ EP       21 2 12.26                             131   -0.27 9  149 261 
 PTB  HE ES   3   21 2 33.06                             131   -0.35 2  149 261 
 PTB  HZ I        21 2 34.86         1.8 0.40                           149 261 
                                                                                
