 2016 1211 2251  3.8 L   6.835 -73.173144.0  RSN 13 0.6 2.2LRSN                1
 GAP=132        1.16       4.0     5.1  7.0 -0.1512E+01  0.1531E+02  0.6067E+01E
 Epicentro: ZAPATOCA - SANTANDER                                               3
 ACTION:UPD 17-01-11 20:14 OP:rebc STATUS:               ID:20161211225103 L   I
 OLDACT:UP  16-12-12 05:50 OP:cog  STATUS:               ID:20161211224746     3
 OLDACT:UP  16-12-12 05:50 OP:cog  STATUS:               ID:20161211224746     3
 OLDACT:REG 16-12-12 04:41 OP:cog  STATUS:               ID:20161211224746     3
 2016-12-11-2248-00M.COL___390                                                 6
 STAT SP IPHASW D HRMM SECON CODA AMPLIT PERI AZIMU VELO AIN AR TRES W  DIS CAZ7
 BAR2 EZ EP       2251 23.20                             169   -0.0710 26.8 182 
 BAR2 EZ ES       2251 37.61                             169   -0.8710 26.8 182 
 BAR2 EZ I        2251 40.21        39.8 0.30            168           26.8 182 
 BRR  HZ EP       2251 24.85                             154    0.3610 66.8 297 
 BRR  HE ES   2   2251 42.14                             154    1.49 5 66.8 297 
 BRR  HZ I        2251 43.02        20.3 0.18            151           66.8 297 
 PAM  EZ EP       2251 26.13                             151    0.3810 76.5  43 
 PAM  EN ES       2251 42.95                             151    0.0610 76.5  43 
 PAM  EZ I        2251 45.26        35.1 0.46            156           76.5  43 
 RUS  HN ES       2251 46.44                             142    0.1610  105 175 
 PTB  HZ EP       2251 29.86                             132   -0.55 9  146 257 
 PTB  HN ES       2251 50.52                             132   -0.66 9  146 257 
 PTB  HZ I        2251 58.05        17.0 0.29            131            146 257 
 ZAR  HZ EP       2251 36.35                             123    0.67 9  200 291 
 ZAR  HN ES       2252  0.44                             123   -0.12 9  200 291 
 ZAR  HZ I        2252  6.62        11.7 0.40            123            200 291 
 CHI  HZ EP       2251 41.29                             116   -0.41 8  252 194 
 CHI  HE ES       2252 11.16                             116   -0.12 8  252 194 
 CHI  HZ I        2252 14.70         8.9 0.66            118            252 194 
 ROSC BZ EP   3   2251 43.39                             116    1.39 2  255 210 
 ROSC BE ES       2252 12.42                             116    0.61 8  255 210 
 GUY2CHZ EP       2251 47.10                             112   -0.18 7  301 234 
 GUY2CHE ES   4   2252 24.03                             112    2.81 0  301 234 
 GUY2CHZ I        2252 29.13         7.4 0.28                           301 234 
 PTGC HZ EP   4   2251 46.21                             111   -1.87 0  313 158 
 PTGC HN ES   4   2252 19.82                             111   -2.82 0  313 158 
 LL6C HZ EP   9   2251 28.49                             110   -20.5 0  321 358 
 LL6C HE ES       2252  2.91                                   -0.82 7  321 358 
 ELA  HZ EP       2251 50.42                             110   -0.16 7  329 229 
 ELA  HN ES       2252 28.13                             110    1.04 7  329 229 
 ELA  HZ I        2252 34.91         6.0 0.38            111            329 229 
 ANIL HZ EP   4   2251 55.49                             108    1.90 0  358 224 
 ANIL HE ES   4   2252 35.82                             108    3.37 0  358 224 
 ORTC HZ EP       2251 57.43                             106   -0.37 6  397 215 
 ORTC HN ES       2252 39.95                             106    0.02 6  397 215 
 ORTC HZ I        2252 44.42         4.5 0.30            107            397 215 
 SJC  HZ EP   3   2251 57.03                             106   -1.68 1  404 327 
 SJC  HN ES   4   2252 38.60                             106   -2.96 0  404 327 
                                                                                
