 2010  911 2009 23.3 L   6.791 -73.008148.3  RSN  7 0.3 2.2LRSN                1
 GAP=197        0.57       2.7     6.5  4.7  0.1901E+01  0.9664E+00  0.1597E+01E
 Epicentro: CEPITA - SANTANDER                                                 3
 ACTION:UP  11-02-18 11:02 OP:tino STATUS:               ID:20100911200923 L   I
 2010-09-11-2005-14S.COL___120                                                 6
 STAT SP IPHASW D HRMM SECON CODA AMPLIT PERI AZIMU VELO SNR AR TRES W  DIS CAZ7
 BAR2 SZ EP   1   20 9 43.47                             168     0.1 7   29 221 
 BAR2 SZ ES   1   20 9 58.99                             168     0.0 7   29 221 
 BAR2 SZ I        2010  0.17        40.9 0.21                            29 221 
 BRR  HZ EP       20 9 45.28                             149    -0.210   85 294 
 BRR  HE ES   1   2010  2.82                             149    -0.1 7   85 294 
 BRR  HZ I        2010  6.04        23.4 0.15                            85 294 
 RUS  HZ EP       20 9 47.45                             144     0.310  100 185 
 RUS  HN ES   1   2010  5.79                             144    -0.1 7  100 185 
 RUS  HZ I        2010  7.27        11.2 0.28                           100 185 
 OCA  SZ EP   1   20 9 52.15                             129     0.1 7  164 348 
 OCA  SZ ES   1   2010 14.59                             129     0.0 7  164 348 
 OCA  SZ I        2010 18.13        13.1 0.25                           164 348 
 CHI  HZ EP   1   2010  1.56                             117     0.1 6  252 199 
 CHI  HE ES   2   2010 30.48                             117    -0.8 4  252 199 
 CHI  HZ I        2010 36.63         6.2 0.24                           252 199 
 GUY  SZ EP   2   2010  8.54                             112     0.2 3  313 237 
 GUY  SN ES   2   2010 44.33                             112     0.8 3  313 237 
 GUY  SZ I        2010 48.84        18.7 0.40                           313 237 
 PRA  HZ EP   1   2010 17.21                             107    -0.5 4  399 212 
 PRA  HN ES   2   2011  0.32                             107     0.2 3  399 212 
 PRA  HZ I        2011  4.91         7.4 0.41                           399 212 
                                                                                
