 2013  911 2153 57.8 L   7.466 -73.154138.3  RSN 16 0.5 2.7LRSN                1
 GAP=112        0.86       2.8     3.7  5.3 -0.1584E+01  0.3991E+01  0.1541E+01E
 Epicentro: EL PLAYON - SANTANDER                                              3
 ACTION:UPD 13-10-22 09:21 OP:ep   STATUS:               ID:20130911215357 L   I
 OLDACT:UP  13-09-11 23:27 OP:mh   STATUS:               ID:20130911214959     3
 OLDACT:UP  13-09-11 23:27 OP:mh   STATUS:               ID:20130911214959     3
 OLDACT:UP  13-09-11 22:42 OP:mh   STATUS:               ID:20130911214959     3
 OLDACT:REG 13-09-11 22:00 OP:mh   STATUS:               ID:20130911214959     3
 2013-09-11-2149-59M.COL___269                                                 6
 STAT SP IPHASW D HRMM SECON CODA AMPLIT PERI AZIMU VELO AIN AR TRES W  DIS CAZ7
 PAM  SZ EP       2154 18.23                             158    0.4110 52.0 106 
 PAM  SN ES       2154 33.62                             158    0.1610 52.0 106 
 PAM  SZ I        2154 34.34       151.3 0.24            161           52.0 106 
 BRR  HZ EP       2154 18.38                             151    0.1510 73.3 237 
 BRR  HN ES   2   2154 34.29                             151    0.10 5 73.3 237 
 BRR  HZ I        2154 35.61       123.2 0.10            147           73.3 237 
 OCA  HZ EP   1   2154 19.51                             146    0.15 7 87.4 348 
 OCA  HN ES   1   2154 36.73                             146    0.53 7 87.4 348 
 OCA  HZ I        2154 39.71        83.5 0.32            146           87.4 348 
 BAR2 SZ EP   1   2154 20.09                             143   -0.04 7 96.7 182 
 BAR2 SZ ES   1   2154 36.55                             143   -1.03 7 96.7 182 
 BAR2 SZ I        2154 38.70       100.3 0.20            141           96.7 182 
 RUS  HZ EP   1   2154 26.76                             126   -0.54 7  174 177 
 RUS  HN ES   4   2154 48.74                             126   -1.61 0  174 177 
 RUS  HZ I        2154 54.20        14.8 0.20            125            174 177 
 PTB  HZ EP   1   2154 26.52                             125   -0.40 7  177 235 
 PTB  HN ES       2154 49.84                             125    0.17 9  177 235 
 PTB  HZ I        2154 52.18        80.6 0.36            123            177 235 
 SML  HZ EP   1   2154 26.67                             124   -0.46 7  179 326 
 SML  HN ES   4   2154 48.32                             124   -1.72 0  179 326 
 ZAR  HZ EP   1   2154 27.99                             123   -0.09 7  188 271 
 ZAR  HN ES   1   2154 51.96                             123    0.23 7  188 271 
 ZAR  HZ I        2154 55.46        63.7 0.26            121            188 271 
 TAM  HZ IPg      2154 28.13                             123   -0.06 9  189 127 
 SPBC HZ EP   1   2154 31.96                             118   -0.08 6  225 207 
 SPBC HN ES       2154 58.45                             118   -0.33 8  225 207 
 SPBC HZ I        2155  5.40        55.0 0.22            117            225 207 
 URE  HZ EP   4   2154 35.10                             114   -1.19 0  264 277 
 URE  HN ES   4   2155  4.35                             114   -2.00 0  264 277 
 COD  HZ EP   1   2154 37.09                             113   -0.36 6  275 353 
 COD  HN ES   1   2155  7.77                             113   -0.63 6  275 353 
 COD  HZ I        2155 13.35        11.5 0.78            113            275 353 
 NOR  HZ EP   1   2154 38.58                             112    0.12 6  283 222 
 NOR  HN ES   1   2155  9.35                             112   -0.86 6  283 222 
 NOR  HZ I        2155 16.62        54.0 0.20            111            283 222 
 HEL  HZ EP   4   2154 41.79                             111    1.26 0  298 242 
 HEL  HE ES   4   2155 15.03                             111    1.14 0  298 242 
 HEL  HZ I        2155 22.19        21.8 0.20            110            298 242 
 ROSC BZ EP   4   2154 43.59                             110    0.77 0  318 204 
 ROSC BN ES   4   2155 23.32                             110    5.35 0  318 204 
 CHI  HZ EP   1   2154 43.40                             109    0.28 5  320 192 
 CHI  HN ES       2155 19.15                             109    0.66 7  320 192 
 CHI  HZ I        2155 29.19        15.9 0.54            109            320 192 
 SJC  HZ EP   4   2154 45.29                             107   -0.76 0  349 320 
 SJC  HN ES   4   2155 21.25                             107   -2.46 0  349 320 
 RREF HZ EP   4   2154 51.64                             106    2.07 0  373 221 
 RREF HE ES   4   2155 32.57                             106    2.58 0  373 221 
 ORTC HZ EP   1   2155  0.08                             103    1.42 4  456 211 
 ORTC HN ES   4   2155 50.38                             103    4.21 0  456 211 
 PRA  HZ EP   1   2154 59.85                             103    1.11 4  457 205 
 PRA  HN ES   2   2155 46.57                             103    0.26 2  457 205 
 PRA  HZ I        2155 52.80        18.5 0.68            102            457 205 
                                                                                
