 2012  811 2335  0.4 L   6.786 -73.132140.8  RSN  6 0.3 1.8LRSN                1
 GAP=139        0.51       3.9     5.1  6.1  0.8180E+00 -0.7765E+01  0.2219E+01E
 Epicentro: LOS SANTOS - SANTANDER                                             3
 ACTION:UPD 12-09-10 11:55 OP:ep   STATUS:               ID:20120811233500 L   I
 2012-08-11-2330-00M.COL___218                                                 6
 STAT SP IPHASW D HRMM SECON CODA AMPLIT PERI AZIMU VELO AIN AR TRES W  DIS CAZ7
 BAR2 SZ EP       2335 19.23                             171   -0.1510 22.1 194 
 BAR2 SZ ES   2   2335 33.89                             171   -0.32 5 22.1 194 
 BAR2 SZ I        2335 35.15        27.6 0.36                          22.1 194 
 GIR2 SZ EP       2335 19.32                             166   -0.1910 33.1 348 
 BRR  HZ EP       2335 21.05                             151   -0.0610 73.2 299 
 BRR  HZ I        2335 21.30        19.4 0.32                          73.2 299 
 BRR  HN ES   1   2335 37.65                             151    0.37 7 73.2 299 
 PAM  SZ EP       2335 22.15                             150    0.0710 77.7  38 
 PAM  SN ES   2   2335 39.07                             150    0.06 5 77.7  38 
 PAM  SZ I        2335 40.67         6.5 0.40                          77.7  38 
 RUS  HZ EP       2335 23.78                             143    0.2610 99.0 177 
 RUS  HN ES   2   2335 41.48                             143   -0.09 5 99.0 177 
 RUS  HZ I        2335 42.84         5.9 0.26                          99.0 177 
 PTB  HN ES   3   2335 46.79                             131   -1.06 2  149 260 
 PTB  HN I        2335 51.93         7.2 0.20                           149 260 
                                                                                
