 2014  311 2002 51.5 L   5.909 -73.776105.3  RSN  9 0.4 1.4LRSN                1
 GAP= 87        1.10       3.1     3.1  8.0 -0.3088E+01  0.5363E+01  0.1131E+01E
 Epicentro: JESUS MARIA - SANTANDER                                            3
 2014-03-11-1958-08M.COL___254                                                 6
 ACTION:UPD 14-04-09 23:16 OP:nd   STATUS:               ID:20140311200252dL   I
 OLDACT:REG 14-03-11 23:15 OP:stll STATUS:               ID:20140311195808     3
 STAT SP IPHASW D HRMM SECON CODA AMPLIT PERI AZIMU VELO AIN AR TRES W  DIS CAZ7
 RUS  HZ EP       20 3  9.33                             141   -0.1810 76.8  91 
 RUS  HZ I        20 3 23.18         4.5 2.70            143           76.8  91 
 RUS  HN ES       20 3 24.06                             141    0.4610 76.8  91 
 BAR2 SZ EP       20 3 11.22                             133    0.1210  100  41 
 BAR2 SZ ES       20 3 26.58                             133    0.1610  100  41 
 PTB  HZ EP       20 3 10.27                             132   -0.7410  103 313 
 PTB  HN ES       20 3 25.61                             132   -0.6710  103 313 
 PTB  HZ I        20 3 30.63         5.9 0.06            135            103 313 
 NOR  HZ EP       20 3 13.20                             125   -0.1910  127 253 
 NOR  HN ES       20 3 30.91                             125    0.4110  127 253 
 NOR  HZ I        20 3 34.55        10.2 0.14            131            127 253 
 BRR  HZ EP       20 3 13.95                             124    0.0610  133   3 
 BRR  HN ES       20 3 31.56                             124    0.1710  133   3 
 BRR  HZ I        20 3 43.17        14.2 0.28            126            133   3 
 CHI  HZ EP       20 3 14.65                             122   -0.70 9  142 178 
 CHI  HN ES       20 3 33.72                             122   -0.27 9  142 178 
 CHI  HZ I        20 3 36.42         2.4 1.18            127            142 178 
 GUY2CHZ EP       20 3 21.57                             114    0.75 9  192 247 
 GUY2CHE ES       20 3 44.07                             114    0.33 9  192 247 
 GUY2CHZ I        20 3 48.77         2.9 0.32                           192 247 
 HEL  HZ EP       20 3 21.81                             113    0.58 9  196 279 
 PAM  SZ EP       20 3 21.62                             113    0.07 9  198  37 
 PAM  SN ES       20 3 45.00                             113   -0.02 9  198  37 
 PAM  HZ I        20 3 51.79         1.8 1.34            115            198  37 
                                                                                
