 2012  611 2243  0.9 L   6.798 -73.157142.4  RSN  4 0.2 1.6LRSN                1
 GAP=243        0.45       6.2     4.6  5.8  0.1873E+02  0.2976E+01 -0.5907E+01E
 Epicentro: LOS SANTOS - SANTANDER                                             3
 ACTION:UPD 12-08-06 17:48 OP:ep   STATUS:               ID:20120611224259 L   I
 2012-06-11-2240-00M.COL___201                                                 6
 STAT SP IPHASW D HRMM SECON CODA AMPLIT PERI AZIMU VELO AIN AR TRES W  DIS CAZ7
 BAR2 SZ EP   1   2243 19.99                             170   -0.15 7 22.9 187 
 BAR2 SZ ES   1   2243 35.03                             170   -0.10 7 22.9 187 
 BAR2 SZ I        2243 37.60        10.4 0.40            167           22.9 187 
 RUS  HZ EP   1   2243 24.46                             143    0.13 7  100 175 
 RUS  HN ES   1   2243 42.81                             143    0.21 7  100 175 
 RUS  HZ I        2243 45.68         4.6 0.26            145            100 175 
 PTB  HZ EP   1   2243 27.34                             131   -0.16 7  146 259 
 PTB  HE ES   1   2243 48.00                             131   -0.23 7  146 259 
 PTB  HZ I        2243 53.30         3.7 0.13            131            146 259 
 ZAR  HN ES   1   2243 58.44                             122    0.35 6  203 292 
 ZAR  HZ I        2244  4.73         5.5 0.17            123            203 292 
                                                                                
