 2015 1111 2105  5.2 L   6.858 -73.298125.6  RSN  9 0.4 2.1LRSN                1
 GAP=105        0.97       2.4     4.1  5.6  0.4937E+00  0.5945E+01 -0.7708E+00E
 Epicentro: BETULIA - SANTANDER                                                3
 ACTION:UPD 15-12-28 16:10 OP:cam  STATUS:               ID:20151111210505 L   I
 OLDACT:REG 15-11-12 06:12 OP:ar   STATUS:               ID:20151111205749     3
 2015-11-11-2057-49M.COL___316                                                 6
 STAT SP IPHASW D HRMM SECON CODA AMPLIT PERI AZIMU VELO AIN AR TRES W  DIS CAZ7
 BAR2 EZ EP       21 5 22.70                             165    0.0110 32.0 157 
 BAR2 EZ ES       21 5 36.44                             165    0.1410 32.0 157 
 BAR2 EZ I        21 5 37.31        39.5 0.18            167           32.0 157 
 BRR  HZ EP       21 5 23.01                             155   -0.2110 53.4 301 
 BRR  HN ES       21 5 37.25                             155   -0.0010 53.4 301 
 BRR  HZ I        21 5 38.97        34.6 0.52            153           53.4 301 
 PAM  EZ EP       21 5 26.13                             144    0.2710 84.8  51 
 PAM  EN ES       21 5 42.24                             144    0.2910 84.8  51 
 PAM  EZ I        21 5 44.92        16.2 0.28            147           84.8  51 
 RUS  HZ EP       21 5 27.56                             137   -0.2210  109 167 
 RUS  HN ES       21 5 45.60                             137    0.2410  109 167 
 RUS  HZ I        21 5 47.03         8.3 0.30            138            109 167 
 OCA  HZ EP       21 5 30.90                             126   -0.41 9  153 359 
 OCA  HN ES       21 5 50.61                             126   -1.03 9  153 359 
 OCA  HZ I        21 5 57.12        44.4 0.16            127            153 359 
 SPBC HN ES       21 5 52.10                             125   -0.42 9  159 213 
 SPBC HZ I        21 5 56.50        14.0 0.10            125            159 213 
 ZAR  HZ EP       21 5 34.71                             120    0.18 9  186 292 
 ZAR  HE ES       21 5 57.61                             120    0.23 9  186 292 
 ZAR  HZ I        21 6  4.63        10.5 0.30            120            186 292 
 SML  HZ EP       21 5 39.62                             114    0.21 8  231 338 
 SML  HN ES       21 6  6.87                             114    0.80 8  231 338 
 SML  HZ I        21 6  9.46        28.0 0.10            115            231 338 
 CHI  HZ EP       21 5 42.54                             112    0.37 8  251 191 
 CHI  HE ES       21 6 10.76                             112   -0.22 8  251 191 
 CHI  HZ I        21 6 16.72         4.7 0.58            113            251 191 
                                                                                
