 2013 1111 2039 41.6 L   6.802 -73.135151.7  RSN 13 0.5 2.7LRSN 2.9WRSN        1
 SPEC AVERAGE  MO 13.4 ST 51.2 OM  1.8 f0 8.14 R0.2808 AL 0.00 WI 20.0 MW  2.9 3
 SPEC SD       MO  0.4 ST130.7 OM  0.4 f0 6.45 R0.3305 AL      WI      MW  0.3 3
 GAP=138        1.31       4.1     6.1  8.6 -0.1505E+01  0.1533E+02  0.1481E+01E
 Epicentro: LOS SANTOS - SANTANDER                                             3
 SPEC BAR2SH Z MO 13.9 ST  2.8 OM  2.3 f0 3.17 R0.4902 AL-0.00 WI 20.0 MW  3.2 3
 SPEC BAR2SH Z T204016 K 0.000 GD  153 VS 4.20 DE 3.20 Q0300.0 QA 0.60 VS 4.20 3
 SPEC BRR HH Z MO 13.2 ST  9.0 OM  1.6 f0 7.74 R0.2008 AL-0.00 WI 20.0 MW  2.8 3
 SPEC BRR HH Z T204019 K 0.000 GD  168 VS 4.20 DE 3.20 Q0300.0 QA 0.60 VS 4.20 3
 SPEC PAM SH Z MO 13.3 ST0.835 OM  1.7 f0 3.23 R0.4811 AL-0.00 WI 20.0 MW  2.8 3
 SPEC PAM SH Z T204020 K 0.000 GD  169 VS 4.20 DE 3.20 Q0300.0 QA 0.60 VS 4.20 3
 SPEC RUS HH Z MO 13.0 ST  2.2 OM  1.3 f0 5.90 R0.2634 AL-0.00 WI 20.0 MW  2.6 3
 SPEC RUS HH Z T204022 K 0.000 GD  182 VS 4.20 DE 3.20 Q0300.0 QA 0.60 VS 4.20 3
 SPEC PTB HH Z MO 13.3 ST 59.3 OM  1.6 f0 13.4 R0.1160 AL-0.00 WI 20.0 MW  2.8 3
 SPEC PTB HH Z T204028 K 0.000 GD  212 VS 4.20 DE 3.20 Q0300.0 QA 0.60 VS 4.20 3
 SPEC OCA HH Z MO 13.4 ST  7.3 OM  1.7 f0 6.10 R0.2548 AL-0.00 WI 20.0 MW  2.9 3
 SPEC OCA HH Z T204030 K 0.000 GD  220 VS 4.20 DE 3.20 Q0300.0 QA 0.60 VS 4.20 3
 SPEC SPBCHH Z MO 13.6 ST 19.8 OM  1.9 f0 7.26 R0.2140 AL-0.00 WI 20.0 MW  3.0 3
 SPEC SPBCHH Z T204032 K 0.000 GD  223 VS 4.20 DE 3.20 Q0300.0 QA 0.60 VS 4.20 3
 SPEC ZAR HH Z MO 13.4 ST 17.5 OM  1.6 f0 8.39 R0.1852 AL-0.00 WI 20.0 MW  2.9 3
 SPEC ZAR HH Z T204039 K 0.000 GD  255 VS 4.20 DE 3.20 Q0300.0 QA 0.60 VS 4.20 3
 SPEC NOR HH Z MO 13.3 ST  8.3 OM  1.5 f0 6.85 R0.2269 AL-0.00 WI 20.0 MW  2.8 3
 SPEC NOR HH Z T204044 K 0.000 GD  280 VS 4.20 DE 3.20 Q0300.0 QA 0.60 VS 4.20 3
 SPEC SML HH Z MO 13.4 ST481.1 OM  1.5 f0 26.3 R0.0591 AL-0.00 WI 20.0 MW  2.8 3
 SPEC SML HH Z T204045 K 0.000 GD  287 VS 4.20 DE 3.20 Q0300.0 QA 0.60 VS 4.20 3
 SPEC ROSCBH Z MO 13.9 ST  1.1 OM  2.0 f0 2.37 R0.6557 AL-0.00 WI 20.0 MW  3.2 3
 SPEC ROSCBH Z T204051 K 0.000 GD  295 VS 4.20 DE 3.20 Q0300.0 QA 0.60 VS 4.20 3
 SPECGUY2CHH Z MO 13.8 ST  0.8 OM  1.9 f0 2.21 R 0.702 AL-0.00 WI 20.0 MW  3.2 3
 SPECGUY2CHH Z T204058 K       GD338.0 VS 4.20 DE 3.20 Q0300.0 QA 0.60 VS 4.20 3
 SPEC SJC HH Z MO 13.1 ST  5.5 OM  1.1 f0 7.00 R0.2220 AL-0.00 WI 20.0 MW  2.7 3
 SPEC SJC HH Z T204115 K 0.000 GD  437 VS 4.20 DE 3.20 Q0300.0 QA 0.60 VS 4.20 3
 OLDACT:REG 13-11-11 21:48 OP:jn   STATUS:               ID:20131111203846     3
 ACTION:UPD 14-01-09 16:27 OP:ep   STATUS:               ID:20131111203941 L   I
 OLDACT:UP  13-11-11 21:54 OP:jn   STATUS:               ID:20131111203846     3
 2013-11-11-2038-46M.COL___222                                                 6
 STAT SP IPHASW D HRMM SECON CODA AMPLIT PERI AZIMU VELO AIN AR TRES W  DIS CAZ7
 BAR2 SZ EP       2040  2.19                             171    0.2110 23.8 193 
 BAR2 SZ ES       2040 17.55                             171   -0.3010 23.8 193 
 BAR2 SZ I        2040 18.68       164.3 0.36            165           23.8 193 
 BRR  HZ EP       2040  4.04                             153    0.5710 72.2 298 
 BRR  HN ES       2040 21.32                             153    0.8110 72.2 298 
 BRR  SZ I        2040 24.17        51.6 0.18            143           72.2 298 
 PAM  SZ EP       2040  4.95                             152    0.5310 76.4  39 
 PAM  SN ES       2040 22.22                             152    0.0210 76.4  39 
 PAM  SZ I        2040 24.14        65.9 0.32            143           76.4  39 
 RUS  HZ EP       2040  6.06                             145    0.0810  101 177 
 RUS  HN ES       2040 24.46                             145   -0.5110  101 177 
 RUS  SZ I        2040 26.15        25.7 0.42            133            101 177 
 PTB  HZ EP       2040  7.95                             133   -1.24 9  149 259 
 PTB  HN ES   2   2040 30.00                             133   -0.70 5  149 259 
 PTB  SZ I        2040 35.85        69.1 0.22            120            149 259 
 OCA  HZ EP   4   2040  9.97                             131   -0.43 0  160 353 
 OCA  HN ES       2040 32.07                             131   -0.77 9  160 353 
 OCA  SZ I        2040 38.25        46.0 0.38            119            160 353 
 SPBC HZ EP       2040 11.10                             130    0.43 9  164 219 
 SPBC HN ES       2040 33.52                             130    0.19 9  164 219 
 SPBC SZ I        2040 38.06        69.9 0.26            117            164 219 
 ZAR  HZ EP   4   2040 14.90                             123    0.33 0  205 292 
 ZAR  HE ES       2040 40.65                             123    0.38 9  205 292 
 ZAR  SZ I        2040 47.31        41.2 0.24            112            205 292 
 NOR  HZ EP   1   2040 17.83                             120    0.00 6  236 235 
 NOR  HE ES   1   2040 45.83                             120   -0.23 6  236 235 
 NOR  SZ I        2040 50.28        29.7 0.18            108            236 235 
 SML  HZ EP   4   2040 18.50                             119   -0.13 0  244 335 
 SML  HN ES       2040 47.12                             119   -0.37 8  244 335 
 SML  SZ I        2040 53.97        70.9 0.08            108            244 335 
 ROSC BZ EP   4   2040 21.89                             118    1.73 0  254 211 
 ROSC SZ I        2041  0.32        47.3 0.45            107            254 211 
 GUY2CHZ EP   4   2040 26.43                             113    0.79 0  302 235 
 GUY2CHN ES   4   2041  0.48                             113    0.51 0  302 235 
 GUY2CSZ I        2041  8.67        23.3 0.40                           302 235 
 SJC  HZ EP   4   2040 35.96                             107   -1.49 0  410 327 
 SJC  HN ES   4   2041 16.54                             107   -4.45 0  410 327 
 SJC  SZ I        2041 31.57         6.0 1.56             98            410 327 
                                                                                
