 2014 1011 2136  9.2 L   6.778 -73.179147.9  RSN  6 0.5 1.8LRSN                1
 GAP=133        1.14       4.3     5.6  8.9 -0.3397E+01  0.6853E+01  0.1114E+01E
 Epicentro: LOS SANTOS - SANTANDER                                             3
 ACTION:UPD 14-11-29 23:48 OP:nd   STATUS:               ID:20141011213609 L   I
 OLDACT:UP  14-10-12 07:57 OP:cam  STATUS:               ID:20141011212821d    3
 OLDACT:DUP 14-10-12 07:55 OP:cam  STATUS:               ID:20141011212821d    3
 OLDACT:REG 14-10-12 02:50 OP:cam  STATUS:               ID:20141011212820     3
 2014-10-11-2128-20M.COL___292                                                 6
 STAT SP IPHASW D HRMM SECON CODA AMPLIT PERI AZIMU VELO AIN AR TRES W  DIS CAZ7
 BRR  HZ EP       2136 30.91                             154    0.4410 69.2 302 
 BRR  HN ES       2136 47.63                             154    0.5710 69.2 302 
 BRR  HZ I        2136 52.06         8.8 0.20            154           69.2 302 
 PAM  SZ IP     D 2136 32.14                             150    0.2510 81.6  40 
 PAM  SN ES       2136 49.26                             150   -0.3410 81.6  40 
 PAM  SZ I        2136 51.32         8.0 0.44            153           81.6  40 
 RUS  HZ EP       2136 33.38                             145    0.3610 98.5 174 
 RUS  HN ES       2136 51.28                             145   -0.3110 98.5 174 
 RUS  HZ I        2136 52.98         6.8 0.30            148           98.5 174 
 PTB  HZ EP       2136 36.41                             133    0.43 9  144 259 
 PTB  HN ES       2136 56.57                             133   -0.29 9  144 259 
 PTB  HZ I        2136 59.42         6.1 0.16            135            144 259 
 SPBC HZ EP       2136 36.74                             130   -0.73 9  159 218 
 SPBC HN ES       2136 59.51                             130   -0.01 9  159 218 
 SPBC HZ I        2137  1.96         7.2 0.22            133            159 218 
 SML  HE ES       2137 13.96                             118   -0.77 8  244 336 
 SML  HZ I        2137 16.28         9.6 0.10            120            244 336 
                                                                                
