 2015  511 2114 49.1 L   6.810 -73.110147.5  RSN 13 0.5 2.3LRSN                1
 GAP=141        1.08       3.0     4.5  5.6 -0.1846E+01  0.9317E+01  0.1961E+01E
 Epicentro: LOS SANTOS - SANTANDER                                             3
 ACTION:UPD 15-09-10 22:03 OP:cam  STATUS:               ID:20150511211449 L   I
 OLDACT:UP  15-05-12 05:38 OP:AR   STATUS:               ID:20150511211449 L   3
 OLDACT:REG 15-05-12 03:02 OP:ar   STATUS:               ID:20150511210749     3
 2015-05-11-2107-49M.COL___285                                                 6
 STAT SP IPHASW D HRMM SECON CODA AMPLIT PERI AZIMU VELO AIN AR TRES W  DIS CAZ7
 BAR2 EZ EP     D 2115  9.01                             170    0.0610 25.4 198 
 BAR2 EZ ES       2115 23.51                             170   -0.9510 25.4 198 
 BAR2 EZ I        2115 25.70        28.7 0.38            167           25.4 198 
 PAM  SZ EP     D 2115 11.81                             152    0.5310 74.1  38 
 PAM  SE ES       2115 28.54                             152   -0.0610 74.1  38 
 PAM  SZ I        2115 33.10        13.4 0.46            157           74.1  38 
 BRR  HZ EP       2115 10.81                             152    0.2310 74.2 296 
 BRR  HE ES       2115 28.06                             152    0.7110 74.2 296 
 BRR  HZ I        2115 35.47        25.1 0.30            149           74.2 296 
 RUS  HZ EP       2115 13.26                             144    0.2010  101 178 
 RUS  HN ES       2115 31.80                             144    0.0310  101 178 
 SPBC HZ EP     C 2115 17.93                             129   -0.09 9  167 220 
 SPBC HN ES       2115 40.56                             129   -0.04 9  167 220 
 SPBC HZ I        2115 44.47        29.9 0.20            130            167 220 
 ZAR  HZ EP       2115 21.74                             122   -0.23 8  207 291 
 ZAR  HE ES       2115 47.29                             122   -0.33 8  207 291 
 ZAR  HZ I        2115 52.91        47.6 0.40            123            207 291 
 NOR  HZ EP       2115 24.92                             118   -0.40 8  239 235 
 NOR  HN ES       2115 53.67                             118    0.08 8  239 235 
 NOR  HZ I        2115 58.19        15.7 0.28            120            239 235 
 SML  HZ EP       2115 25.26                             118   -0.61 8  244 334 
 SML  HE ES       2115 54.63                             118    0.06 8  244 334 
 SML  HZ I        2116  1.01        12.5 0.32            119            244 334 
 CHI  HZ EP       2115 27.07                             117   -0.03 8  251 196 
 CHI  HN ES       2115 56.49                             117   -0.27 8  251 196 
 CHI  HZ I        2116  6.07        12.5 0.42            120            251 196 
 URE  HN ES   3   2116  0.05                             113   -2.93 2  287 291 
 URE  HZ I        2116 12.89        16.9 0.26            115            287 291 
 GUY2CHZ EP       2115 33.62                             112    0.42 7  305 235 
 GUY2CHN ES       2116  8.83                             112    1.22 7  305 235 
 GUY2CHZ I        2116 17.72        18.1 0.50                           305 235 
 RREF HZ EP       2115 35.64                             111   -0.07 7  325 230 
 RREF HN ES       2116 11.51                             111   -0.58 7  325 230 
 RREF HZ I        2116 20.35         8.5 0.34            112            325 230 
 ORTC HZ EP       2115 42.93                             106   -0.50 6  399 217 
 ORTC HN ES       2116 26.56                             106    0.73 6  399 217 
 ORTC HZ I        2116 30.72         5.8 0.42            108            399 217 
                                                                                
