 2011  511 2311 58.7 L   6.764 -73.085147.4  RSN 13 0.4 2.4LRSN                1
 GAP=146        0.84       3.5     5.2  5.1 -0.8586E+01  0.2475E+01  0.2069E+01E
 Epicentro: LOS SANTOS - SANTANDER                                             3
 ACTION:UP  11-06-29 08:52 OP:tino STATUS:               ID:20110511231158 L   I
 2011-05-11-2309-58S.COL___129                                                 6
 STAT SP IPHASW D HRMM SECON CODA AMPLIT PERI AZIMU VELO SNR AR TRES W  DIS CAZ7
 BAR2 SZ EP       2312 18.39                             171    -0.110   22 209 
 BAR2 SZ ES   1   2312 33.90                             171    -0.1 7   22 209 
 BAR2 SZ I        2312 36.84       114.2 0.40                            22 209 
 BTL  SZ EP       2312 18.57                             169     0.010   26 310 
 GIR2 SZ EP       2312 18.48                             165    -0.310   37 341 
 GIR2 SZ ES   1   2312 34.70                             165     0.3 7   37 341 
 PAM  SZ EP       2312 21.20                             151     0.110   77  34 
 PAM  SN ES   1   2312 38.49                             151     0.0 7   77  34 
 PAM  SZ I        2312 40.37        12.6 0.63                            77  34 
 BRR  HZ EP       2312 20.29                             150    -0.210   79 299 
 BRR  HE ES       2312 37.74                             150     0.310   79 299 
 BRR  HZ I        2312 39.95        87.4 0.12                            79 299 
 RUS  HZ EP   1   2312 22.33                             145     0.0 7   96 180 
 RUS  HN ES   1   2312 40.83                             145     0.1 7   96 180 
 RUS  HZ I        2312 42.30        27.4 0.29                            96 180 
 BRI  SZ EP       2312 22.92                             141     0.010  110  17 
 BRI  SZ ES   1   2312 41.93                             141     0.2 7  110  17 
 BRI  SZ I        2312 44.77        29.7 0.29                           110  17 
 GRA  SZ IP       2312 24.22                             137     0.010  128  14 
 GRA  SZ ES   1   2312 44.00                             137    -0.2 7  128  14 
 GRA  SZ I        2312 44.87        47.9 0.42                           128  14 
 OCA  SZ EP   1   2312 27.31                             129    -0.3 7  165 351 
 OCA  SZ ES   1   2312 49.94                             129    -0.2 7  165 351 
 OCA  SZ I        2312 53.58        37.8 0.19                           165 351 
 NOR  SZ EP   1   2312 34.68                             118    -0.2 6  238 236 
 NOR  SN ES   1   2313  2.06                             118    -1.0 6  238 236 
 HEL  HZ EP   1   2312 40.51                             115     0.9 6  278 257 
 HEL  HZ I        2313 16.79        11.5 0.40                           278 257 
 RREF HZ EP   1   2312 46.40                             111     1.2 5  324 231 
 RREF HZ I        2313 30.01        19.2 0.31                           324 231 
 PRA  HN ES   1   2313 34.38                             107     0.3 4  392 211 
                                                                                
