 2014  611 2057 28.7 L   6.773 -73.164142.7  RSN  7 0.6 2.0LRSN                1
 GAP=135        1.57       7.4     6.8 11.4  0.3644E+01  0.1526E+02 -0.8881E+01E
 Epicentro: LOS SANTOS - SANTANDER                                             3
 ACTION:UPD 14-07-01 22:53 OP:nd   STATUS:               ID:20140611205728 L   I
 OLDACT:REG 14-06-12 06:02 OP:stll STATUS:               ID:20140611204812     3
 2014-06-11-2048-12M.COL___253                                                 6
 STAT SP IPHASW D HRMM SECON CODA AMPLIT PERI AZIMU VELO AIN AR TRES W  DIS CAZ7
 BAR2 SZ EP       2057 48.19                             172    0.2610 20.1 186 
 BAR2 SZ I        2058  4.09        28.8 0.18            172           20.1 186 
 BRR  HZ EP       2057 50.14                             152    0.6110 70.9 301 
 BRR  HN ES       2058  6.77                             152    1.0110 70.9 301 
 BRR  HZ I        2058 10.75        17.6 0.44            152           70.9 301 
 PAM  SZ IP     C 2057 51.16                             149    0.3210 81.0  39 
 PAM  SN ES       2058  7.55                             149   -0.5410 81.0  39 
 PAM  SZ I        2058 10.17        25.6 0.60            150           81.0  39 
 RUS  HZ EP       2057 52.11                             144    0.1310 97.8 175 
 RUS  HN ES       2058  9.40                             144   -0.7110 97.8 175 
 RUS  HZ I        2058 11.61         9.4 0.38            145           97.8 175 
 PTB  HZ EP       2057 55.64                             132    0.43 9  145 260 
 PTB  HN ES       2058 15.72                             132   -0.15 9  145 260 
 PTB  HZ I        2058 19.08        10.7 0.14            132            145 260 
 ZAR  HZ EP       2058  1.08                             122    0.18 9  203 293 
 ZAR  HE ES       2058 24.76                             122   -1.23 9  203 293 
 ZAR  HZ I        2058 32.29        10.4 0.64            123            203 293 
 SML  HZ EP       2058  4.51                             117   -0.88 8  246 336 
                                                                                
