 2014  811 2222 57.3 L   6.822 -73.176141.0  RSN 13 0.5 2.3LRSN                1
 GAP=132        1.17       3.1     4.5  6.6 -0.2120E+01  0.8254E+01 -0.2178E+01E
 Epicentro: ZAPATOCA - SANTANDER                                               3
 ACTION:UPD 14-09-15 21:49 OP:nd   STATUS:               ID:20140811222257 L   I
 OLDACT:REG 14-08-12 07:41 OP:carl STATUS:               ID:20140811221949     3
 2014-08-11-2219-49M.COL___269                                                 6
 STAT SP IPHASW D HRMM SECON CODA AMPLIT PERI AZIMU VELO AIN AR TRES W  DIS CAZ7
 BAR2 SZ EP       2223 16.69                             169    0.2910 25.4 182 
 BAR2 SZ ES       2223 30.99                             169   -0.3110 25.4 182 
 BAR2 SZ I        2223 32.55        29.8 0.30            169           25.4 182 
 BRR  HZ EP       2223 18.38                             153    0.6810 67.1 298 
 BRR  HN ES       2223 34.09                             153    0.4810 67.1 298 
 BRR  HZ I        2223 39.20        43.6 0.12            150           67.1 298 
 PAM  SZ EP       2223 19.40                             150    0.3810 77.7  43 
 PAM  SN ES       2223 36.31                             150    0.3410 77.7  43 
 PAM  SZ I        2223 38.74        33.3 0.36            154           77.7  43 
 RUS  HZ EP       2223 20.86                             142    0.0810  103 174 
 RUS  HN ES       2223 38.94                             142   -0.1610  103 174 
 RUS  HZ I        2223 40.82        29.5 0.24            145            103 174 
 PTB  HZ EP       2223 23.15                             131   -0.47 9  145 258 
 PTB  HN ES       2223 44.02                             131   -0.14 9  145 258 
 PTB  HZ I        2223 49.41        20.5 0.40            131            145 258 
 OCA  HZ EP       2223 24.17                             129   -0.80 9  157 354 
 OCA  HN ES       2223 46.05                             129   -0.51 9  157 354 
 OCA  HZ I        2223 50.24        23.0 0.18            131            157 354 
 SPBC HN ES       2223 46.56                             128   -0.79 9  163 218 
 ZAR  HZ EP       2223 29.83                             122    0.82 9  200 292 
 ZAR  HN ES       2223 54.00                             122    0.24 9  200 292 
 ZAR  HZ I        2224  0.86        25.6 0.38            122            200 292 
 NOR  HZ EP       2223 33.02                             118    0.41 8  233 233 
 NOR  HE ES       2224  0.40                             118    0.24 8  233 233 
 NOR  HZ I        2224  6.55        11.4 0.22            119            233 233 
 SML  HZ EP       2223 33.08                             117   -0.18 8  240 336 
 SML  HN ES       2224  0.70                             117   -0.62 8  240 336 
 SML  HZ I        2224  7.29        27.8 0.26            118            240 336 
 CHI  HN ES       2224  3.92                             116   -0.31 8  250 194 
 CHI  HZ I        2224  9.87         7.5 0.36            118            250 194 
 URE  HZ EP   4   2223 40.39                             113    2.71 0  280 292 
 GUY2CHZ EP   4   2223 42.73                             111    2.19 0  300 234 
 GUY2CHN ES   4   2224 17.77                             111    3.50 0  300 234 
 GUY2CHZ I        2224 25.04         8.8 0.62                           300 234 
 TOL  SZ EP   4   2223 47.56                             108    2.27 0  343 224 
 TOL  SN ES   4   2224 24.39                             108    1.66 0  343 224 
 TOL  SZ I        2224 27.67        17.5 0.32            110            343 224 
                                                                                
