 2017  911 2334  7.2 L   6.778 -73.150146.0  RSN  7 0.4 1.6LRSN                1
 GAP=137        0.76       3.2     3.8  5.3 -0.9887E-02  0.2660E+01  0.2472E+01E
 Epicentro: LOS SANTOS - SANTANDER                                             3
 ACTION:UPD 17-10-05 19:11 OP:rebc STATUS:               ID:20170911233407 L   I
 OLDACT:UP  17-09-12 06:25 OP:dani STATUS:               ID:20170911232746d    3
 OLDACT:UP  17-09-12 06:24 OP:dani STATUS:               ID:20170911232746d    3
 OLDACT:DUP 17-09-12 06:22 OP:dani STATUS:               ID:20170911232746d    3
 OLDACT:REG 17-09-12 02:53 OP:dani STATUS:               ID:20170911232745     3
 2017-09-11-2328-00M.COL___431                                                 6
 STAT SP IPHASW D HRMM SECON CODA AMPLIT PERI AZIMU VELO AIN AR TRES W  DIS CAZ7
 BAR2 EZ EP       2334 26.63                             171   -0.1710 20.8 190 
 BAR2 EZ ES       2334 41.99                             171   -0.1110 20.8 190 
 BAR2 EZ I        2334 44.56        10.0 0.31            170           20.8 190 
 BRR  HZ EP     C 2334 28.39                             153   -0.0210 72.0 300 
 BRR  HN ES       2334 45.54                             153    0.5810 72.0 300 
 BRR  HZ I        2334 48.40         6.4 0.14            151           72.0 300 
 PAM  EZ EP       2334 29.55                             151   -0.0210 79.6  39 
 PAM  EN ES       2334 46.81                             151   -0.2110 79.6  39 
 PAM  EZ I        2334 48.76        11.3 0.48            153           79.6  39 
 RUS  HZ EP       2334 31.00                             145    0.2110 98.1 176 
 RUS  HN ES       2334 49.28                             145    0.0810 98.1 176 
 RUS  HZ I        2334 50.50         7.3 0.31            146           98.1 176 
 SPBC HE ES       2334 57.70                             130    0.13 9  161 219 
 ZAR  HZ EP   3   2334 40.99                             123    1.29 2  205 293 
 ZAR  HE ES       2335  4.50                             123   -0.56 9  205 293 
 ZAR  HZ I        2335 10.30         4.7 0.29            123            205 293 
 CHI  HZ EP       2334 44.62                             118   -0.01 8  246 195 
 CHI  HN ES   3   2335 11.65                             118   -2.18 2  246 195 
 CHI  HZ I        2335 18.24         1.7 0.25            119            246 195 
                                                                                
