 2017  311 2328 59.8 L   6.104 -73.616116.0  RSN  7 0.4 1.2LRSN                1
 GAP=132        0.96       4.1     3.9  9.4 -0.2930E+01  0.1326E+02  0.3738E+01E
 Epicentro: CHIPATA - SANTANDER                                                3
 ACTION:UPD 17-05-25 18:39 OP:jn   STATUS:               ID:20170311232900 L   I
 OLDACT:UP  17-04-27 13:02 OP:nlst STATUS:               ID:20170311232900 L   3
 OLDACT:REG 17-03-12 02:48 OP:lv   STATUS:               ID:20170311232746     3
 2017-03-11-2328-00M.COL___397                                                 6
 STAT SP IPHASW D HRMM SECON CODA AMPLIT PERI AZIMU VELO AIN AR TRES W  DIS CAZ7
 RUS  HZ EP   1   2329 17.62                             150   -0.41 8 63.5 112 
 RUS  HN ES   1   2329 32.10                             150   -0.14 8 63.5 112 
 RUS  HZ I        2329 33.80         1.9 0.17            154           63.5 112 
 BAR2 EZ EP   1   2329 18.36                             146    0.13 8 72.2  42 
 BAR2 EZ ES   1   2329 32.96                             146    0.35 8 72.2  42 
 BAR2 EZ I        2329 36.38        10.8 0.44            152           72.2  42 
 PTB  HZ EP       2329 20.73                             135    0.2710  105 297 
 PTB  HN ES       2329 36.01                             135   -0.5610  105 297 
 PTB  HZ I        2329 39.16         3.7 0.18            139            105 297 
 BRR  HZ EP       2329 20.39                             133   -0.6310  111 355 
 BRR  HE ES       2329 38.14                             133    0.5610  111 355 
 NOR  HN ES       2329 44.83                             124    0.33 9  151 247 
 NOR  HZ I        2329 48.38         3.0 0.11            128            151 247 
 ZAR  HN ES       2329 54.74                             115   -0.08 9  206 318 
 GUY2CHZ EP   1   2329 33.11                             114    0.60 6  217 243 
 GUY2CHN ES       2329 57.91                             114   -0.12 8  217 243 
 GUY2CHZ  IAML    2330  1.89         1.0 0.26                           217 243 
                                                                                
