 2013  311 2319 53.7 L   6.188 -73.631114.0  RSN  7 0.4 2.3LRSN                1
 GAP= 70        0.99       4.4     4.1  9.3 -0.5325E+00  0.1059E+02  0.1177E+02E
 Epicentro: LA PAZ - SANTANDER                                                 3
 ACTION:UPD 13-04-09 14:01 OP:ep   STATUS:               ID:20130311231953 L   I
 2013-03-11-2318-50M.COL___210                                                 6
 STAT SP IPHASW D HRMM SECON CODA AMPLIT PERI AZIMU VELO AIN AR TRES W  DIS CAZ7
 BAR2 SZ ES       2320 25.67                             148    0.1310 66.8  48 
 BAR2 SZ I        2320 27.22       146.3 0.46            152           66.8  48 
 RUS  HZ EP       2320 12.26                             147    0.1510 68.9 118 
 PTB  HZ EP       2320 12.76                             136   -1.0010 99.2 293 
 PTB  HN ES       2320 29.59                             136    0.2210 99.2 293 
 BRR  HZ EP       2320 13.95                             135   -0.0210  102 355 
 BRR  HZ I        2320 14.49        29.8 0.16            138            102 355 
 NOR  HZ EP       2320 19.14                             123    0.17 9  154 243 
 NOR  HN ES       2320 38.71                             123    0.06 9  154 243 
 NOR  HN I        2320 42.50        42.1 0.16            124            154 243 
 CHI  HZ EP   2   2320 21.81                             119    0.35 4  173 184 
 CHI  HN ES       2320 42.84                             119   -0.23 9  173 184 
 HEL  HZ EP       2320 26.13                             114    0.66 8  210 270 
 HEL  HN ES   1   2320 50.14                             114   -0.07 6  210 270 
 HEL  HN I        2320 55.41         5.8 0.18            116            210 270 
                                                                                
