 2017  211 2341 47.5 L   6.767 -73.167137.7  RSN  4 0.3 1.2LRSN                1
 GAP=135        0.61       3.7     3.6  7.8 -0.4100E+01  0.5793E+01 -0.3400E+01E
 Epicentro: LOS SANTOS - SANTANDER                                             3
 ACTION:UPD 17-05-24 15:35 OP:jn   STATUS:               ID:20170211234147 L   I
 OLDACT:DUP 17-02-12 07:58 OP:dnl  STATUS:               ID:20170211233750d    3
 2017-02-11-2338-00M.COL___346                                                 6
 STAT SP IPHASW D HRMM SECON CODA AMPLIT PERI AZIMU VELO AIN AR TRES W  DIS CAZ7
 BRR  HZ EP   2   2342  7.94                             151    0.13 5 71.0 302 
 BRR  HE ES   2   2342 24.43                             151    0.81 5 71.0 302 
 BRR  HZ I        2342 28.70         3.9 0.30            153           71.0 302 
 PAM  EZ EP       2342  9.03                             148   -0.1510 81.7  39 
 PAM  EN ES       2342 26.00                             148   -0.0510 81.7  39 
 PAM  EZ I        2342 28.08         4.4 0.58            152           81.7  39 
 RUS  HZ EP   2   2342 10.80                             143    0.55 5 97.1 175 
 RUS  HN ES       2342 27.94                             143   -0.0210 97.1 175 
 RUS  HZ I        2342 29.96         1.5 0.26            149           97.1 175 
 PTB  HZ EP   2   2342 14.01                             131    0.43 5  145 260 
 PTB  HN ES       2342 33.62                             131   -0.27 9  145 260 
 PTB  HZ I        2342 35.55         1.8 0.32            135            145 260 
                                                                                
