 2017  911 2212 22.1 L   6.761 -73.075139.8  RSN  5 0.5 1.4LRSN                1
 GAP=148        0.73       3.8     5.4  6.0  0.3987E-01 -0.8651E+00 -0.8035E-01E
 Epicentro: LOS SANTOS - SANTANDER                                             3
 ACTION:UPD 17-10-05 19:11 OP:rebc STATUS:               ID:20170911221222 L   I
 OLDACT:UP  17-09-12 05:30 OP:dani STATUS:               ID:20170911220740     3
 OLDACT:UP  17-09-12 05:30 OP:dani STATUS:               ID:20170911220740     3
 OLDACT:REG 17-09-12 02:41 OP:dani STATUS:               ID:20170911220740     3
 2017-09-11-2208-00M.COL___431                                                 6
 STAT SP IPHASW D HRMM SECON CODA AMPLIT PERI AZIMU VELO AIN AR TRES W  DIS CAZ7
 BAR2 EZ ES       2212 55.49                             171   -0.2610 22.1 213 
 PAM  EZ EP       2212 43.69                             150    0.0510 76.2  33 
 PAM  EN ES       2213  0.52                             150    0.1010 76.2  33 
 PAM  EZ I        2213  3.04         3.8 0.21            152           76.2  33 
 BRR  HZ EP       2212 42.82                             149   -0.3610 80.1 299 
 BRR  HN ES       2212 59.91                             149    0.3110 80.1 299 
 BRR  HZ I        2213  3.67         5.7 0.12            146           80.1 299 
 RUS  HZ EP       2212 44.97                             144    0.0110 96.0 181 
 RUS  HN ES       2213  2.90                             144    0.1310 96.0 181 
 RUS  HZ I        2213  4.49         2.3 0.48            147           96.0 181 
 ZAR  HZ EP   3   2212 57.30                             120    2.17 2  213 292 
 ZAR  HN ES   3   2213 19.34                             120   -1.52 2  213 292 
 ZAR  HZ I        2213 25.73         4.4 0.23            120            213 292 
                                                                                
