 2013  111 2104 54.5 L   6.748 -73.181148.0  RSN  4 0.2 1.5LRSN                1
 GAP=229        0.48       4.0     4.0  4.8  0.1014E+02 -0.6525E+00 -0.1154E+01E
 Epicentro: VILLANUEVA - SANTANDER                                             3
 ACTION:UPD 13-02-15 09:13 OP:ep   STATUS:               ID:20130111210454 L   I
 2013-01-11-2100-00M.COL___241                                                 6
 STAT SP IPHASW D HRMM SECON CODA AMPLIT PERI AZIMU VELO AIN AR TRES W  DIS CAZ7
 BRR  HZ EP       21 5 16.08                             153    0.1810 70.8 304 
 BRR  HZ I        21 5 29.06         7.6 0.44            146           70.8 304 
 BRR  HE ES       21 5 32.46                             153   -0.1110 70.8 304 
 RUS  HZ EP       21 5 18.23                             146    0.1110 95.2 173 
 RUS  HN ES       21 5 36.48                             146   -0.0510 95.2 173 
 RUS  HN I        21 5 38.26         4.5 0.28            149           95.2 173 
 PTB  HZ EP       21 5 20.93                             133   -0.31 9  143 261 
 PTB  HE ES       21 5 42.24                             133    0.16 9  143 261 
 PTB  HZ I        21 5 44.91         4.0 0.26            131            143 261 
 ZAR  HN ES   1   21 5 52.34                             123    0.04 6  203 294 
 ZAR  HZ I        21 6  1.61         3.1 0.41            118            203 294 
                                                                                
