 2015  111 2234 34.9 L   6.820 -73.077146.9  RSN  7 0.4 1.6LRSN                1
 GAP=207        0.90       3.9     5.0  6.2  0.5057E+01  0.3461E+01 -0.6691E+01E
 Epicentro: LOS SANTOS - SANTANDER                                             3
 ACTION:UPD 15-03-02 15:38 OP:nd   STATUS:               ID:20150111223434 L   I
 OLDACT:DUP 15-01-12 07:55 OP:stll STATUS:               ID:20150111222745d    3
 OLDACT:REG 15-01-12 04:40 OP:stll STATUS:               ID:20150111222744     3
 2015-01-11-2227-44M.COL___253                                                 6
 STAT SP IPHASW D HRMM SECON CODA AMPLIT PERI AZIMU VELO AIN AR TRES W  DIS CAZ7
 BAR2 EZ EP       2234 54.64                             169   -0.0910 27.7 205 
 BAR2 EZ ES       2235 10.03                             169   -0.1910 27.7 205 
 BAR2 EZ I        2235 13.06         8.9 0.22            167           27.7 205 
 BRR  HZ EP       2234 57.13                             151    0.6610 77.0 294 
 BRR  HN ES       2235 13.60                             151    0.2810 77.0 294 
 BRR  HZ I        2235 21.89         5.0 0.28            149           77.0 294 
 RUS  HZ EP       2234 58.61                             143   -0.2710  103 180 
 RUS  HZ I        2235  0.18         2.7 0.46            147            103 180 
 RUS  HE ES       2235 17.78                             143    0.1810  103 180 
 PTB  HZ EP       2235  2.43                             131   -0.22 9  156 259 
 PTB  HE ES       2235 23.54                             131   -0.77 9  156 259 
 PTB  HZ I        2235 30.52         5.3 0.40            131            156 259 
 ZAR  HZ EP       2235  8.22                             122    0.19 8  210 291 
 ZAR  HE ES       2235 33.98                             122    0.08 8  210 291 
 ZAR  HZ I        2235 39.40         5.0 0.42            123            210 291 
 NOR  HE ES       2235 40.49                             118    0.48 8  242 235 
 NOR  HZ I        2235 45.46         2.9 0.14            120            242 235 
 SML  HZ EP       2235 11.44                             117   -0.26 8  245 333 
 SML  HE ES       2235 40.32                             117   -0.10 8  245 333 
 SML  HZ I        2235 45.05         4.4 0.10            120            245 333 
                                                                                
