 2013  611 2138 13.1 L   6.751 -73.189144.0  RSN  8 0.2 1.9LRSN                1
 GAP=174        0.54       2.7     3.5  4.1  0.3643E+01 -0.1902E-01 -0.2747E+01E
 Epicentro: VILLANUEVA - SANTANDER                                             3
 ACTION:UPD 14-01-08 09:54 OP:ep   STATUS:               ID:20130611213813 L   I
 OLDACT:DUP 13-06-11 22:15 OP:nd   STATUS:               ID:20130611212901d    3
 2013-06-11-2129-59M.COL___260                                                 6
 STAT SP IPHASW D HRMM SECON CODA AMPLIT PERI AZIMU VELO AIN AR TRES W  DIS CAZ7
 BAR2 SZ EP     D 2138 32.38                             173   -0.0510 17.6 178 
 BAR2 SZ ES       2138 47.36                             173   -0.1410 17.6 178 
 BAR2 SZ I        2138 48.70        22.2 0.16            173           17.6 178 
 GIR2 SZ EP       2138 32.60                             165   -0.1210 36.2 359 
 GIR2 SZ I        2138 49.47         6.5 0.18            161           36.2 359 
 BRR  HZ EP       2138 34.22                             153    0.2210 69.9 304 
 BRR  HN ES       2138 50.19                             153   -0.1110 69.9 304 
 BRR  HZ I        2138 54.78        15.7 0.36            153           69.9 304 
 RUS  HZ EP       2138 36.42                             145    0.0710 95.7 173 
 RUS  HN ES       2138 54.63                             145    0.1610 95.7 173 
 RUS  HZ I        2138 56.86         6.8 0.30            146           95.7 173 
 PTB  HZ EP       2138 39.29                             133   -0.14 9  142 261 
 PTB  HN ES       2138 59.91                             133   -0.04 9  142 261 
 PTB  HZ I        2139  2.53        11.1 0.16            135            142 261 
 OCA  HZ EP   4   2138 43.53                             128    1.78 0  165 355 
 OCA  HN ES   4   2139  2.06                             128   -2.03 0  165 355 
 OCA  HZ I        2139  6.65        11.1 0.24            126            165 355 
 SML  HZ EP   2   2138 49.11                             117   -0.86 4  247 337 
 SML  HN ES       2139 19.14                             117    0.43 8  247 337 
 SML  HZ I        2139 20.68        16.0 0.28            116            247 337 
 GUY2CHZ EP   4   2138 57.74                             112    1.89 0  294 235 
 GUY2CHN ES   4   2139 35.66                             112    6.47 0  294 235 
 GUY2CHZ I        2139 38.25         3.9 0.28                           294 235 
                                                                                
