 2015  411 2059 22.6 L   6.398 -73.265  4.0  RSN 12 0.5 2.1LRSN                1
 GAP=129        1.15       1.9     2.5  4.6 -0.1256E+01  0.2947E+01 -0.7998E+00E
 Epicentro: PALMAS DEL SOCORRO - SANTANDER                                     3
 ACTION:UPD 15-06-03 16:54 OP:cam  STATUS:               ID:20150411205922 L   I
 OLDACT:REG 15-04-12 04:42 OP:fm   STATUS:               ID:20150411205748     3
 2015-04-11-2057-48M.COL___269                                                 6
 STAT SP IPHASW D HRMM SECON CODA AMPLIT PERI AZIMU VELO AIN AR TRES W  DIS CAZ7
 BAR2 EZ IP     D 2059 27.40                              47    0.3710 23.4  23 
 BAR2 EZ ES   1   2059 31.23                              47    0.78 7 23.4  23 
 BAR2 EZ I        2059 32.17       556.1 0.50             96           23.4  23 
 RUS  HZ EP       2059 32.76                              47    0.0210 59.4 160 
 RUS  HE ES       2059 40.19                              47   -0.4310 59.4 160 
 BRR  HZ EP       2059 37.69                              47    0.4110 92.7 328 
 BRR  HE ES       2059 48.70                              47   -0.0110 92.7 328 
 BRR  HZ I        2059 54.10        34.8 0.14             47           92.7 328 
 PAM  SZ EP       2059 42.04                              47   -0.1110  121  31 
 PAM  SN ES       2059 56.73                              47   -0.6410  121  31 
 PAM  SZ I        2059 57.72        35.1 0.16             47            121  31 
 SPBC HZ EP       2059 41.58                              47   -0.1710  122 227 
 SPBC HE ES       2059 57.39                              47    0.7310  122 227 
 SPBC HZ I        21 0  1.91        58.6 0.26             47            122 227 
 PTB  HZ IP     D 2059 43.41                              47    0.0510  133 277 
 PTB  HE ES       2059 58.62                              47   -0.9010  133 277 
 PTB  HZ I        21 0  0.10        83.3 0.16             47            133 277 
 NOR  HZ EP       2059 52.64                              37   -0.34 9  200 243 
 NOR  HE ES       21 0 17.42                              37    0.77 9  200 243 
 NOR  HZ I        21 0 18.86        14.0 0.20             37            200 243 
 OCA  HE ES       21 0 17.98                              37    0.32 9  204 358 
 ZAR  HZ EP       2059 54.40                              37   -0.21 8  214 305 
 ZAR  HN ES       21 0 19.22                              37   -0.34 8  214 305 
 ZAR  HZ I        21 0 20.53        13.1 0.34             37            214 305 
 HEL  HZ EP       2059 59.21                              37   -0.58 8  252 265 
 HEL  HE ES   4   21 0 26.64                              37   -2.12 0  252 265 
 HEL  HZ I        21 0 31.59         8.0 0.38             37            252 265 
 GUY2CHZ EP       21 0  2.57                              37    0.81 8  266 241 
 GUY2CHN ES       21 0 32.43                              37    0.15 8  266 241 
 GUY2CHZ I        21 0 41.32         5.8 0.42                           266 241 
 RREF HN EP       21 0  3.87                              37   -0.28 7  284 234 
 RREF HN ES       21 0 36.40                              37   -0.13 7  284 234 
 RREF HN I        21 0 45.18         7.5 0.28             37            284 234 
                                                                                
