 2010  411 2122 22.8 L   6.768 -72.950146.8  RSN  4 0.4 2.1LRSN                1
 GAP=227        0.64       5.6    14.1  8.5 -0.1805E+02 -0.1854E+02  0.6941E+01E
 Epicentro: CEPITA - SANTANDER                                                 3
 ACTION:UPD 10-08-24 09:58 OP:vdl  STATUS:               ID:20100411212222 L   I
 2010-04-11-2118-47S.COL___097                                                 6
 STAT SP IPHASW D HRMM SECON CODA AMPLIT PERI AZIMU VELO AIN AR TRES W  DIS CAZ7
 BAR2 SZ EP   1   2122 43.11                             167     0.3 7   32 233 
 BAR2 SZ ES   2   2122 58.11                             167    -0.3 5   32 233 
 BRR  HZ IP     C 2122 45.28                             146    -0.110   92 294 
 BRR  HZ I        2122 45.60        24.6 0.18                            92 294 
 BRR  HN ES   2   2123  3.20                             146     0.2 5   92 294 
 OCA  SZ EP   1   2122 51.57                             129    -0.4 7  168 346 
 OCA  SZ ES   2   2123 15.05                             129     0.4 5  168 346 
 OCA  SZ I        2123 19.34        21.6 0.30                           168 346 
 PRA  HZ EP   1   2123 17.94                             106     0.6 4  400 213 
 PRA  HE ES   2   2123 59.13                             106    -0.7 3  400 213 
 PRA  HZ I        2124  4.87         2.3 1.07                           400 213 
                                                                                
