 2016 1111 2158 39.3 L   6.790 -73.186147.7  RSN  9 0.5 2.1LRSN                1
 GAP=238        1.08       5.3     5.9  7.1  0.6300E+01  0.1051E+02  0.1365E+02E
 Epicentro: ZAPATOCA - SANTANDER                                               3
 ACTION:UPD 17-10-26 21:07 OP:lp   STATUS:               ID:20161111215839 L   I
 OLDACT:UP  16-11-12 04:57 OP:dani STATUS:               ID:20161111213113d    3
 OLDACT:REG 16-11-12 04:08 OP:dani STATUS:               ID:20161111213113d    3
 2016-11-11-2158-00M.COL___340                                                 6
 STAT SP IPHASW D HRMM SECON CODA AMPLIT PERI AZIMU VELO AIN AR TRES W  DIS CAZ7
 BAR2 EZ EP     D 2158 58.79                             171   -0.3610 21.9 179 
 BAR2 HE ES       2159 14.18                             171   -0.4410 21.9 179 
 BAR2 EZ I        2159 15.20        48.5 0.20            166           21.9 179 
 BRR  HZ EP       2159  0.62                             154    0.1310 67.9 301 
 BRR  HE ES       2159 17.77                             154    0.7610 67.9 301 
 BRR  HZ I        2159 20.24        28.1 0.21            150           67.9 301 
 PTB  HZ EP       2159  5.84                             133   -0.20 9  143 259 
 PTB  HN ES       2159 26.63                             133   -0.25 9  143 259 
 PTB  HZ I        2159 32.47        14.2 0.30            131            143 259 
 ZAR  HZ EP       2159 11.87                             123    0.36 9  200 293 
 ZAR  HN ES       2159 36.49                             123   -0.13 9  200 293 
 ZAR  HZ I        2159 42.88        15.8 0.30            123            200 293 
 NOR  HZ EP       2159 15.26                             119    0.55 8  230 234 
 NOR  HE ES       2159 41.85                             119   -0.47 8  230 234 
 NOR  HZ I        2159 44.42         9.7 0.20            118            230 234 
 CHI  HZ EP       2159 16.26                             118   -0.63 8  246 194 
 CHI  HN ES       2159 47.14                             118    0.95 8  246 194 
 CHI  HZ I        2159 52.14         8.3 0.24            118            246 194 
 CBOC HZ EP   3   2159 27.48                             110    1.69 2  329 252 
 CBOC HE ES       22 0  1.59                             110   -0.46 7  329 252 
 CBOC HZ I        22 0 11.10         1.8 0.21            110            329 252 
 PRA  HZ EP       2159 32.54                             107   -0.00 6  389 209 
 PRA  HN ES   3   22 0 15.77                             107    1.71 1  389 209 
 PRA  HZ I        22 0 21.56         9.5 0.26            107            389 209 
 SJC  HZ EP   4   2159 33.14                             106   -1.63 0  408 328 
 SJC  HN ES   4   22 0 14.64                             106   -3.38 0  408 328 
 SJC  HZ I        22 0 17.80         2.8 0.29            107            408 328 
                                                                                
