 2016  211 2122 49.6 L   6.796 -73.130142.5  RSN  9 0.2 2.3LRSN                1
 GAP=139        0.61       1.8     2.6  3.7 -0.9153E+00  0.3320E+01  0.9208E-01E
 Epicentro: LOS SANTOS - SANTANDER                                             3
 ACTION:UPD 16-03-04 21:25 OP:rebc STATUS:               ID:20160211212249 L   I
 OLDACT:REG 16-02-12 04:00 OP:cara STATUS:               ID:20160211211749     3
 2016-02-11-2117-49M.COL___292                                                 6
 STAT SP IPHASW D HRMM SECON CODA AMPLIT PERI AZIMU VELO AIN AR TRES W  DIS CAZ7
 BAR2 EZ EP       2123  8.93                             170    0.0510 23.3 194 
 BAR2 EZ ES       2123 23.86                             170   -0.0310 23.3 194 
 BAR2 EZ I        2123 24.65        48.6 0.36            169           23.3 194 
 PAM  EZ EP     C 2123 11.76                             150    0.2910 76.6  38 
 PAM  EN ES       2123 28.70                             150    0.2110 76.6  38 
 PAM  EZ I        2123 30.67        29.3 0.54            154           76.6  38 
 RUS  HZ EP       2123 12.90                             143   -0.1410  100 177 
 RUS  HN ES       2123 31.31                             143    0.0210  100 177 
 RUS  HZ I        2123 32.98        19.8 0.48            145            100 177 
 PTB  HZ EP       2123 16.03                             131   -0.46 9  149 259 
 PTB  HN ES       2123 37.49                             131    0.06 9  149 259 
 PTB  HZ I        2123 39.78        29.5 0.16            131            149 259 
 OCA  HZ EP       2123 17.53                             129   -0.23 9  161 353 
 OCA  HE ES       2123 39.39                             129   -0.30 9  161 353 
 OCA  HZ I        2123 40.96        60.7 0.18            131            161 353 
 SPBC HZ IP       2123 18.12                             128    0.15 9  164 220 
 SPBC HN ES       2123 39.67                             128   -0.39 9  164 220 
 SPBC HZ I        2123 46.09        27.3 0.22            129            164 220 
 ZAR  HZ EP       2123 21.99                             121   -0.07 8  206 292 
 ZAR  HN ES       2123 47.68                             121    0.34 8  206 292 
 ZAR  HZ I        2123 53.74        40.3 0.32            122            206 292 
 CHI  HZ EP       2123 27.14                             116   -0.03 8  249 196 
 CHI  HN ES       2123 56.45                             116    0.01 8  249 196 
 CHI  HZ I        2123 59.74         7.8 0.58            118            249 196 
 GUY2CHZ EP       2123 33.72                             112    0.49 7  302 235 
 GUY2CHN ES       2124  7.52                             112    0.29 7  302 235 
 GUY2CHZ I        2124 14.97         6.8 0.40                           302 235 
                                                                                
