 2015 1011 2039 15.6 L   6.802 -73.114152.0  RSN  9 0.5 1.9LRSN                1
 GAP=140        0.98       3.8     5.0  7.5  0.1430E+01  0.1405E+02  0.1045E+02E
 Epicentro: LOS SANTOS - SANTANDER                                             3
 ACTION:UPD 15-12-22 20:39 OP:cam  STATUS:               ID:20151011203915 L   I
 OLDACT:REG 15-10-12 02:56 OP:ar   STATUS:               ID:20151011203747     3
 2015-10-11-2037-47M.COL___337                                                 6
 STAT SP IPHASW D HRMM SECON CODA AMPLIT PERI AZIMU VELO AIN AR TRES W  DIS CAZ7
 BRR  HZ EP       2039 37.15                             153   -0.4810 74.2 297 
 BRR  HN ES       2039 55.19                             153    0.4110 74.2 297 
 BRR  HZ I        2039 55.82        14.9 0.32            150           74.2 297 
 PAM  EE ES       2039 56.30                             153    0.1810 75.0  38 
 PAM  EZ I        2039 57.21         7.1 0.15            153           75.0  38 
 RUS  HZ EP       2039 39.81                             145   -0.2010  101 178 
 RUS  HN ES       2039 58.61                             145   -0.4110  101 178 
 RUS  HZ I        2039 59.71         6.0 0.30            146            101 178 
 SPBC HZ EP   2   2039 44.96                             130    0.11 5  166 220 
 SPBC HN ES   2   2040  7.53                             130   -0.10 5  166 220 
 ZAR  HN ES       2040 15.05                             123    0.35 8  207 292 
 ZAR  HZ I        2040 21.19         7.9 0.25            122            207 292 
 NOR  HZ EP       2039 52.30                             119    0.24 8  238 235 
 NOR  HN ES       2040 20.05                             119   -0.41 8  238 235 
 NOR  HZ I        2040 21.55         7.0 0.16            119            238 235 
 SML  HZ EP   2   2039 52.88                             118    0.13 4  245 335 
 SML  HN ES   2   2040 20.70                             118   -1.00 4  245 335 
 SML  HZ I        2040 25.08         8.6 0.24            118            245 335 
 CHI  HZ EP       2039 54.02                             118    0.20 8  250 196 
 CHI  HN ES       2040 24.44                             118    0.84 8  250 196 
 CHI  HZ I        2040 28.75         3.2 0.22            118            250 196 
 GUY2CHZ EP   1   2040  0.77                             113    0.89 5  304 235 
 GUY2CHE ES       2040 33.59                             113   -0.80 7  304 235 
 GUY2CHZ I        2040 42.45         5.5 0.60                           304 235 
                                                                                
