 2016 1111 2337 16.7 L   6.787 -73.150148.8  RSN  6 0.4 1.6LRSN                1
 GAP=150        1.03       7.2     4.9  8.2 -0.1273E+02  0.9264E+01  0.5609E+01E
 Epicentro: LOS SANTOS - SANTANDER                                             3
 ACTION:UPD 17-10-26 21:07 OP:lp   STATUS:               ID:20161111233716 L   I
 OLDACT:UP  16-11-12 05:24 OP:dani STATUS:               ID:20161111232748     3
 OLDACT:UP  16-11-12 05:23 OP:dani STATUS:               ID:20161111232748     3
 OLDACT:UP  16-11-12 05:20 OP:dani STATUS:               ID:20161111232748     3
 OLDACT:REG 16-11-12 04:14 OP:dani STATUS:               ID:20161111232748     3
 2016-11-11-2328-00M.COL___340                                                 6
 STAT SP IPHASW D HRMM SECON CODA AMPLIT PERI AZIMU VELO AIN AR TRES W  DIS CAZ7
 BAR2 EZ EP       2337 36.52                             171   -0.1710 21.8 189 
 BAR2 EZ ES       2337 52.00                             171   -0.2610 21.8 189 
 BAR2 EZ I        2337 53.15        20.6 0.24            174           21.8 189 
 BRR  HZ EP       2337 38.39                             153    0.1710 71.5 300 
 BRR  HN ES       2337 55.70                             153    0.7210 71.5 300 
 BRR  HZ I        2337 59.70         7.2 0.31            152           71.5 300 
 PAM  EZ EP       2337 39.46                             151    0.1210 78.8  39 
 PAM  EN ES       2337 56.90                             151   -0.0910 78.8  39 
 PAM  EZ I        2337 58.84         6.5 0.45            152           78.8  39 
 PTB  HZ EP       2337 43.74                             133   -0.13 9  147 259 
 PTB  HN ES       2338  4.38                             133   -0.67 9  147 259 
 PTB  HZ I        2338  7.10         2.7 0.16            135            147 259 
 ZAR  HN ES       2338 14.52                             123   -0.33 9  204 293 
 NOR  HE ES       2338 21.11                             119    0.70 8  233 235 
                                                                                
