 2012  611 2053 29.9 L   6.798 -73.192131.9  RSN  4 0.2 1.4LRSN                1
 GAP=144        0.50       4.7     3.7  7.4 -0.3257E+01  0.6053E+01 -0.2145E+02E
 Epicentro: ZAPATOCA - SANTANDER                                               3
 ACTION:UPD 12-08-06 17:48 OP:ep   STATUS:               ID:20120611205328 L   I
 2012-06-11-2050-00M.COL___201                                                 6
 STAT SP IPHASW D HRMM SECON CODA AMPLIT PERI AZIMU VELO AIN AR TRES W  DIS CAZ7
 BAR2 SZ EP   1   2053 48.09                             170    0.23 7 22.8 177 
 BAR2 SZ ES   1   2054  1.65                             170   -0.22 7 22.8 177 
 BAR2 SZ I        2054  4.53         6.0 0.18            173           22.8 177 
 PAM  SZ EP       2053 50.94                             147    0.0410 80.9  42 
 RUS  HN ES       2054  9.87                             141    0.0310  101 173 
 PTB  HZ EP   1   2053 54.93                             130   -0.38 7  143 259 
 PTB  HN ES   1   2054 15.35                             130    0.23 7  143 259 
 PTB  HZ I        2054 17.48         3.1 0.35            132            143 259 
                                                                                
