 2016  811 2301 39.2 L   6.797 -73.093144.8  RSN 12 0.3 2.1LRSN                1
 GAP=143        0.84       2.9     3.2  4.3 -0.1250E+01  0.3725E+01  0.2717E+01E
 Epicentro: LOS SANTOS - SANTANDER                                             3
 ACTION:UPD 16-10-29 15:34 OP:rebc STATUS:               ID:20160811230139 L   I
 OLDACT:UP  16-08-12 03:58 OP:edw  STATUS:               ID:20160811225746d    3
 OLDACT:DUP 16-08-12 03:49 OP:edw  STATUS:               ID:20160811225746d    3
 2016-08-11-2258-00M.COL___383                                                 6
 STAT SP IPHASW D HRMM SECON CODA AMPLIT PERI AZIMU VELO AIN AR TRES W  DIS CAZ7
 BAR2 EZ EP       23 1 58.50                             170   -0.2710 24.7 204 
 BAR2 EZ ES       23 2 14.20                             170    0.1910 24.7 204 
 BAR2 EZ I        23 2 14.39        31.1 0.30                          24.7 204 
 PAM  EZ EP       23 2  1.25                             152    0.1110 74.0  36 
 PAM  EN ES       23 2 18.38                             152    0.1410 74.0  36 
 PAM  EZ I        23 2 20.35        25.5 0.52                          74.0  36 
 BRR  HZ EP       23 2  0.30                             151   -0.2810 76.5 297 
 BRR  HE ES       23 2 17.62                             151    0.3810 76.5 297 
 BRR  HZ I        23 2 21.62        23.7 0.12                          76.5 297 
 RUS  HZ EP       23 2  2.57                             144   -0.2710  100 179 
 RUS  HN ES       23 2 21.42                             144    0.1510  100 179 
 RUS  HZ I        23 2 22.96        18.7 0.36                           100 179 
 PTB  HZ EP   9   23 2  5.47                             131   -1.17 0  153 259 
 PTB  HN ES       23 2 26.34                             130   -0.51 9  153 259 
 PTB  HZ I        23 2 28.70        15.3 0.14                           153 259 
 SPBC HZ EP       23 2  8.08                             128    0.09 9  167 221 
 SPBC HN ES       23 2 29.96                             128   -0.46 9  167 221 
 SPBC HZ I        23 2 32.15        22.0 0.20                           167 221 
 ZAR  HZ EP       23 2 12.77                             121    0.59 8  210 292 
 ZAR  HN ES       23 2 36.95                             121   -0.94 8  210 292 
 ZAR  HZ I        23 2 44.62        12.9 0.18                           210 292 
 NOR  HZ EP       23 2 15.05                             118   -0.34 8  239 235 
 NOR  HN ES       23 2 43.76                             118    0.15 8  239 235 
 NOR  HZ I        23 2 48.82         9.3 0.14                           239 235 
 CHI  HZ EP       23 2 16.90                             117   -0.11 8  250 196 
 CHI  HN ES       23 2 46.23                             117   -0.26 8  250 196 
 CHI  HZ I        23 2 49.45         6.5 0.34                           250 196 
 HEL  HZ EP       23 2 20.09                             114    0.08 7  278 256 
 HEL  HE ES       23 2 52.26                             114    0.44 7  278 256 
 HEL  HZ I        23 2 57.28         7.0 0.50                           278 256 
 GUY2CHZ EP       23 2 23.55                             112    0.24 7  306 235 
 GUY2CHN ES       23 2 58.02                             112    0.32 7  306 235 
 GUY2CHZ I        23 3  3.12         5.4 0.26                           306 235 
 PRA  HZ EP       23 2 33.08                             106    0.06 6  395 210 
 PRA  HN ES       23 3 15.47                             106    0.48 6  395 210 
 PRA  HZ I        23 3 19.81         5.9 0.28                           395 210 
                                                                                
