 2014  611 2258 46.5 L   6.800 -73.114140.8  RSN 15 0.6 2.1LRSN                1
 GAP=203        1.22       3.4     5.1  5.9  0.9192E+00  0.7463E+01  0.2763E+01E
 Epicentro: LOS SANTOS - SANTANDER                                             3
 ACTION:UPD 14-07-01 22:53 OP:nd   STATUS:               ID:20140611225846 L   I
 OLDACT:REG 14-06-12 06:08 OP:stll STATUS:               ID:20140611225817     3
 2014-06-11-2258-17M.COL___254                                                 6
 STAT SP IPHASW D HRMM SECON CODA AMPLIT PERI AZIMU VELO AIN AR TRES W  DIS CAZ7
 BAR2 SZ IP     C 2259  5.87                             170    0.3210 24.2 198 
 BAR2 SZ ES       2259 20.60                             170    0.1910 24.2 198 
 BAR2 SZ I        2259 23.71        31.1 0.38            167           24.2 198 
 BRR  HZ IP     D 2259  7.93                             151    0.6310 74.3 297 
 BRR  HN ES       2259 24.18                             151    0.6710 74.3 297 
 BRR  HZ I        2259 33.05        11.4 0.20            149           74.3 297 
 RUS  HZ EP       2259  9.67                             143   -0.0910  100 178 
 RUS  HN ES       2259 27.70                             143   -0.1910  100 178 
 RUS  HZ I        2259 31.29         8.7 0.40            147            100 178 
 PTB  HZ EP       2259 12.67                             130   -0.72 9  151 259 
 PTB  HN ES       2259 33.96                             130   -0.39 9  151 259 
 PTB  HZ I        2259 41.22        18.7 0.50            131            151 259 
 SPBC HZ EP       2259 14.74                             128   -0.10 9  165 220 
 SPBC HN ES       2259 36.56                             128   -0.38 9  165 220 
 SPBC HZ I        2259 41.02        17.7 0.18            130            165 220 
 ZAR  HZ EP       2259 18.29                             121   -0.67 8  207 292 
 ZAR  HE ES       2259 44.27                             121   -0.01 8  207 292 
 ZAR  HZ I        2259 52.57        12.1 0.42            123            207 292 
 NOR  HZ EP       2259 22.12                             117   -0.14 8  238 235 
 NOR  HN ES       2259 49.80                             117   -0.35 8  238 235 
 NOR  HZ I        2259 53.57        12.2 0.24            119            238 235 
 SML  HZ EP       2259 22.48                             116   -0.53 8  245 335 
 SML  HN ES       2259 50.63                             116   -0.86 8  245 335 
 SML  HZ I        2259 55.77        21.5 0.10            119            245 335 
 CHI  HZ EP       2259 23.98                             116   -0.06 8  250 196 
 CHI  HZ I        2259 25.99         5.7 0.12            119            250 196 
 CHI  HN ES       2259 52.75                             116   -0.56 8  250 196 
 HEL  HZ EP       2259 27.54                             113    0.69 7  275 256 
 HEL  HN ES       2259 59.19                             113    0.88 7  275 256 
 HEL  HZ I        23 0  4.86         7.8 0.38            116            275 256 
 GUY2CHZ EP       2259 30.96                             111    0.75 7  304 235 
 GUY2CHE ES       23 0  3.60                             111   -0.70 7  304 235 
 GUY2CHZ I        23 0 12.72         9.9 0.78                           304 235 
 RREF HZ EP       2259 33.83                             110    1.09 7  324 230 
 RREF HE ES       23 0  9.77                             110    0.97 7  324 230 
 RREF HZ I        23 0 16.77         7.1 0.26            112            324 230 
 TOL  SZ EP       2259 35.39                             108    0.54 6  346 225 
 TOL  SE ES       23 0 12.31                             108   -0.25 6  346 225 
 TOL  SZ I        23 0 17.58        11.4 0.36            111            346 225 
 PRA  HZ EP       2259 40.26                             106    0.20 6  394 210 
 PRA  HN ES       23 0 21.39                             106   -0.45 6  394 210 
 PRA  HZ I        23 0 26.63         4.0 0.32            108            394 210 
 ORTC HZ EP       2259 41.34                             105    0.84 6  398 217 
 ORTC HN ES       23 0 21.76                             105   -0.86 6  398 217 
 ORTC HZ I        23 0 26.86         3.2 0.28            108            398 217 
                                                                                
