 2010  911 2118 18.8 L   6.804 -73.029148.0  RSN  5 0.2 1.8LRSN                1
 GAP=249        0.38       3.2     6.4  3.8  0.1026E+02  0.1076E+01  0.1820E+01E
 Epicentro: CEPITA - SANTANDER                                                 3
 ACTION:UP  11-02-18 11:02 OP:tino STATUS:               ID:20100911211818 L   I
 2010-09-11-2113-30S.COL___120                                                 6
 STAT SP IPHASW D HRMM SECON CODA AMPLIT PERI AZIMU VELO SNR AR TRES W  DIS CAZ7
 BAR2 SZ EP   1   2118 38.66                             168    -0.1 7   29 216 
 BAR2 SZ ES   1   2118 54.23                             168    -0.2 7   29 216 
 BAR2 SZ I        2118 55.30        11.7 0.24                            29 216 
 BRR  HZ EP       2118 40.91                             149     0.110   83 294 
 BRR  HE ES   1   2118 58.00                             149     0.0 7   83 294 
 BRR  HZ I        2119  0.68        15.1 0.37                            83 294 
 RUS  HZ EP   1   2118 42.80                             144     0.0 7  101 183 
 RUS  HE ES   1   2119  1.67                             144     0.2 7  101 183 
 RUS  HZ I        2119  2.80         5.9 0.28                           101 183 
 CHI  HZ EP   2   2118 56.77                             117    -0.3 4  253 198 
 CHI  HE ES   2   2119 26.57                             117    -0.3 4  253 198 
 CHI  HZ I        2119 29.49         4.0 0.54                           253 198 
 PRA  HZ EP   2   2119 13.14                             106     0.0 3  399 211 
 PRA  HN ES   2   2119 55.86                             106     0.3 3  399 211 
 PRA  HZ I        2120  2.43         2.2 0.28                           399 211 
                                                                                
