 2014  711 2121  6.3 L   6.782 -73.130139.4  RSN 13 0.4 2.2LRSN                1
 GAP=139        0.86       3.0     3.4  4.9 -0.1924E+01  0.4933E+01  0.3941E+01E
 Epicentro: LOS SANTOS - SANTANDER                                             3
 ACTION:UPD 15-03-16 20:43 OP:nd   STATUS:               ID:20140711212107dL   I
 OLDACT:DUP 14-07-12 07:20 OP:spq  STATUS:               ID:20140711211820d    3
 OLDACT:UP  14-07-12 07:07 OP:spq  STATUS:               ID:20140711211819     3
 OLDACT:REG 14-07-12 02:43 OP:spq  STATUS:               ID:20140711211819     3
 2014-07-11-2118-19M.COL___268                                                 6
 STAT SP IPHASW D HRMM SECON CODA AMPLIT PERI AZIMU VELO AIN AR TRES W  DIS CAZ7
 BAR2 SZ IP     C 2121 25.34                             171    0.1910 21.7 196 
 BAR2 SZ ES   1   2121 40.07                             171    0.23 7 21.7 196 
 BAR2 SZ I        2121 41.54        34.8 0.26            167           21.7 196 
 BRR  HZ EP       2121 27.23                             150    0.3010 73.7 299 
 BRR  HE ES       2121 43.49                             150    0.4810 73.7 299 
 BRR  HZ I        2121 48.20        13.9 0.13            148           73.7 299 
 PAM  SZ EP       2121 28.10                             149    0.2110 77.9  38 
 PAM  SN ES       2121 44.41                             149   -0.3010 77.9  38 
 PAM  SZ I        2121 47.61        20.8 0.20            156           77.9  38 
 RUS  HZ EP       2121 29.20                             143   -0.0910 98.5 177 
 RUS  HE ES       2121 47.09                             143   -0.1210 98.5 177 
 PTB  HZ EP       2121 32.05                             130   -0.85 9  149 260 
 PTB  HN ES       2121 53.21                             130   -0.42 9  149 260 
 PTB  HZ I        2122  0.97        16.9 0.34            130            149 260 
 SPBC HZ EP       2121 34.25                             128   -0.04 9  163 220 
 SPBC HN ES       2121 55.80                             128   -0.31 9  163 220 
 SPBC HZ I        2122  1.41        23.4 0.22            128            163 220 
 ZAR  HZ EP       2121 38.44                             121   -0.16 8  206 292 
 ZAR  HN ES       2122  3.69                             121   -0.10 8  206 292 
 ZAR  HZ I        2122  9.83        14.9 0.13            122            206 292 
 NOR  HZ EP       2121 41.38                             117   -0.33 8  235 235 
 NOR  HN ES       2122  9.64                             117    0.32 8  235 235 
 NOR  HZ I        2122 16.52        10.5 0.24            118            235 235 
 GUY2CHZ EP       2121 50.29                             111    0.62 7  301 235 
 GUY2CHN ES   1   2122 23.85                             111    0.37 5  301 235 
 GUY2CHZ I        2122 32.03         8.3 0.36                           301 235 
 RREF HZ EP   4   2121 53.62                             110    1.43 0  322 230 
 RREF HN ES   1   2122 28.44                             110    0.46 5  322 230 
 RREF HZ I        2122 38.00         6.7 0.44            111            322 230 
 TOL  SN ES       2122 32.26                             108    0.53 7  343 225 
 TOL  SZ I        2122 37.80        13.1 0.24            110            343 225 
 PRA  HZ EP       2121 59.67                             105    0.15 6  391 210 
 PRA  HN ES       2122 41.29                             105    0.27 6  391 210 
 PRA  HZ I        2122 47.14         8.4 0.38            107            391 210 
 ORTC HZ EP       2122  0.40                             105    0.45 6  395 217 
 ORTC HN ES       2122 40.94                             105   -0.85 6  395 217 
 ORTC HZ I        2122 50.16         5.7 0.20            107            395 217 
                                                                                
