 2016  911 2239 45.7 L   6.820 -73.103147.5  RSN 12 0.4 1.8LRSN                1
 GAP=141        0.87       2.8     4.1  5.0 -0.1596E+01  0.1758E+01  0.1005E+01E
 Epicentro: LOS SANTOS - SANTANDER                                             3
 ACTION:UPD 17-08-17 21:08 OP:lp   STATUS:               ID:20160911223945 L   I
 OLDACT:UP  16-09-12 06:32 OP:edw  STATUS:               ID:20160911223710     3
 OLDACT:UP  16-09-12 06:32 OP:edw  STATUS:               ID:20160911223710     3
 OLDACT:REG 16-09-12 03:51 OP:edw  STATUS:               ID:20160911223710     3
 2016-09-11-2238-00M.COL___303                                                 6
 STAT SP IPHASW D HRMM SECON CODA AMPLIT PERI AZIMU VELO AIN AR TRES W  DIS CAZ7
 BAR2 EZ EP       2240  5.36                             169   -0.2710 26.7 199 
 BAR2 EZ ES       2240 21.00                             169   -0.1510 26.7 199 
 BAR2 EZ I        2240 23.12        14.8 0.22            168           26.7 199 
 PAM  EZ EP       2240  8.34                             153    0.4910 72.7  38 
 PAM  EN ES       2240 25.39                             153    0.2810 72.7  38 
 PAM  EZ I        2240 27.52        10.8 0.48            154           72.7  38 
 BRR  HZ EP     C 2240  7.07                             152   -0.1710 74.5 295 
 BRR  HN ES       2240 24.23                             152    0.2110 74.5 295 
 BRR  HZ I        2240 26.67        11.1 0.16            148           74.5 295 
 RUS  HZ EP       2240  9.27                             144   -0.5110  103 179 
 RUS  HN ES       2240 28.31                             144   -0.2410  103 179 
 RUS  HZ I        2240 29.16         7.5 0.36            145            103 179 
 PTB  HZ EP   9   2240 11.80                             131   -1.49 0  153 258 
 PTB  HN ES       2240 33.16                             131   -0.15 9  153 258 
 PTB  HZ I        2240 34.17         7.6 0.16            130            153 258 
 OCA  HZ EP       2240 14.00                             130   -0.02 9  159 351 
 OCA  HN ES       2240 35.93                             130   -0.16 9  159 351 
 OCA  HZ I        2240 40.67        14.0 0.42            130            159 351 
 ZAR  HZ EP   2   2240 19.07                             122    0.42 4  208 291 
 ZAR  HN ES   2   2240 43.63                             122   -0.70 4  208 291 
 ZAR  HZ I        2240 50.50         5.7 0.14            121            208 291 
 NOR  HZ EP   4   2240 19.08                             118   -3.02 0  240 235 
 NOR  HN ES   2   2240 50.08                             118   -0.40 4  240 235 
 NOR  HZ I        2240 57.21         7.8 0.16            118            240 235 
 CHI  HZ EP       2240 23.55                             117   -0.33 8  252 196 
 CHI  HN ES       2240 54.70                             117    1.05 8  252 196 
 CHI  HZ I        2240 55.94         3.5 0.29            117            252 196 
 HEL  HZ EP   4   2240 27.66                             115    1.07 0  277 256 
 HEL  HN ES       2240 58.79                             115    0.32 7  277 256 
 HEL  HZ I        2241  4.81         3.9 0.19            114            277 256 
 GUY2CHZ EP   4   2240 31.23                             112    1.24 0  306 235 
 GUY2CHN ES   4   2241  8.25                             112    3.73 0  306 235 
 GUY2CHZ I        2241 10.51         3.2 0.32                           306 235 
 LL6C HZ EP   2   2240 31.28                             111    0.01 3  323 357 
 LL6C HE ES   4   2241  8.37                             111    1.57 0  323 357 
                                                                                
