 2011  911 2248 36.3 L   6.786 -73.149145.2  RSN 10 0.4 2.5LRSN                1
 GAP=137        0.73       3.2     4.4  5.5 -0.5195E+00  0.7663E+01  0.1945E+01E
 Epicentro: LOS SANTOS - SANTANDER                                             3
 ACTION:UPD 12-07-13 15:56 OP:ep   STATUS:               ID:20110911224836 L   I
 2011-09-11-2247-18S.COL___168                                                 6
 STAT SP IPHASW D HRMM SECON CODA AMPLIT PERI AZIMU VELO AIN AR TRES W  DIS CAZ7
 BAR2 SZ IP       2248 55.93                             171    0.0710 21.8 190 
 BAR2 SZ ES   1   2249 10.94                             171   -0.15 7 21.8 190 
 BAR2 SZ I        2249 12.09        79.5 0.17                          21.8 190 
 BRR  HZ EP       2248 57.76                             152    0.3310 71.6 300 
 BRR  HE ES   1   2249 14.70                             152    0.80 7 71.6 300 
 BRR  HZ I        2249 19.28       136.8 0.13                          71.6 300 
 PAM  SZ EP   1   2248 58.77                             150    0.21 7 78.8  39 
 PAM  SE ES   1   2249 15.69                             150   -0.22 7 78.8  39 
 RUS  HZ EP   1   2248 59.87                             144   -0.04 7 99.1 176 
 RUS  HE ES   1   2249 18.12                             144   -0.19 7 99.1 176 
 RUS  HZ I        2249 19.79        48.5 0.28                          99.1 176 
 OCA  SZ EP   1   2249  4.63                             129   -0.09 7  162 353 
 OCA  SZ ES   1   2249 26.37                             129   -0.51 7  162 353 
 OCA  SZ I        2249 29.96        68.0 0.36                           162 353 
 ZAR  HZ EP   1   2249  8.97                             122    0.21 6  204 293 
 ZAR  HN ES   1   2249 33.19                             122   -0.86 6  204 293 
 ZAR  HZ I        2249 40.31        50.4 0.44                           204 293 
 NOR  SN ES   1   2249 39.37                             118   -0.27 6  234 235 
 CHI  HZ EP   1   2249 13.51                             117   -0.31 6  247 195 
 CHI  HZ I        2249 47.51         8.1 0.28                           247 195 
 HEL  HZ EP   1   2249 16.96                             115    0.53 6  271 256 
 HEL  HZ I        2249 49.81         8.9 0.28                           271 256 
 PRA  HZ EP   1   2249 29.42                             106   -0.23 4  391 210 
 PRA  HN ES   2   2250 11.35                             106    0.11 3  391 210 
                                                                                
