 2010 1111 2342 18.3 L   6.342 -73.616107.3  RSN  9 0.4 2.0LRSN                1
 GAP=114        0.94       6.1     8.5 12.1 -0.3121E+02  0.6454E+02 -0.3160E+02E
 Epicentro: SANTA HELENA DEL OPON - SANTANDER                                  3
 ACTION:UP  10-12-17 16:51 OP:REBC STATUS:               ID:20101111234218 L   I
 2010-11-11-2340-30S.COL___129                                                 6
 STAT SP IPHASW D HRMM SECON CODA AMPLIT PERI AZIMU VELO SNR AR TRES W  DIS CAZ7
 BAR2 SZ IP       2342 34.91                             151     0.210   55  60 
 BAR2 SZ ES   1   2342 47.78                             151     0.2 7   55  60 
 BAR2 SZ I        2342 49.43        44.1 0.22                            55  60 
 BTL  SZ IP       2342 36.62                             143     0.610   75  31 
 RUS  HZ EP   2   2342 35.78                             142    -0.8 5   77 130 
 RUS  HE ES   2   2342 50.71                             142    -0.1 5   77 130 
 BRR  HZ EP       2342 36.38                             139    -0.210   85 353 
 BRR  HZ I        2342 36.73        25.7 0.09                            85 353 
 GIR2 SZ EP       2342 37.58                             136     0.110   94  30 
 GIR2 SZ ES   2   2342 51.21                             136    -1.2 5   94  30 
 NOR  SZ EP       2342 44.19                             119     0.0 9  163 238 
 NOR  SE ES   2   2343  4.08                             119    -0.2 5  163 238 
 GUE  SZ EP       2342 46.02                             116    -0.4 9  181  25 
 GRA  SZ ES   2   2343 10.88                             114     0.6 4  193  28 
 GRA  SZ I        2343 14.22         8.0 0.40                           193  28 
 OCA  SZ ES   1   2343 14.02                             112    -0.2 6  212   9 
 OCA  SZ I        2343 17.44         9.8 0.45                           212   9 
                                                                                
