 2017  111 2310 58.0 L   6.804 -73.160140.1  RSN 20 0.4 2.7LRSN                1
 GAP=102        0.98       3.3     2.7  4.8  0.4982E-01  0.3628E+01  0.3827E+01E
 Epicentro: LOS SANTOS - SANTANDER                                             3
 ACTION:UPD 17-05-22 15:58 OP:jn   STATUS:               ID:20170111231058 L   I
 OLDACT:REG 17-01-12 00:46 OP:lv   STATUS:               ID:20170111230745     3
 2017-01-11-2308-00M.COL___340                                                 6
 STAT SP IPHASW D HRMM SECON CODA AMPLIT PERI AZIMU VELO AIN AR TRES W  DIS CAZ7
 BAR2 EZ EP       2311 16.81                             170   -0.1110 23.6 186 
 BAR2 EZ ES       2311 31.73                             170    0.0210 23.6 186 
 BAR2 EZ I        2311 33.12       168.3 0.20            168           23.6 186 
 BRR  HZ IP     D 2311 18.67                             152    0.2510 69.6 299 
 BRR  HE ES       2311 35.34                             152    0.9710 69.6 299 
 BRR  HZ I        2311 38.94        88.5 0.32            149           69.6 299 
 PAM  EZ EP       2311 19.63                             150    0.0110 78.0  41 
 PAM  EN ES       2311 36.26                             150   -0.2610 78.0  41 
 PAM  EZ I        2311 38.85       131.7 0.52            154           78.0  41 
 RUS  HZ EP       2311 20.84                             142   -0.3710  101 175 
 RUS  HE ES       2311 39.15                             142   -0.1910  101 175 
 RUS  HZ I        2311 40.55       104.9 0.34            143            101 175 
 PTB  HZ EP       2311 23.79                             131   -0.56 9  146 259 
 PTB  HN ES       2311 44.49                             131   -0.43 9  146 259 
 PTB  HZ I        2311 47.02        75.0 0.22            129            146 259 
 TAM  HZ EP       2311 25.19                             129   -0.17 9  157 105 
 TAM  HE ES       2311 46.97                             129    0.25 9  157 105 
 ZAR  HZ EP       2311 29.94                             121    0.06 9  202 292 
 ZAR  HN ES       2311 54.22                             121   -0.55 9  202 292 
 ZAR  HZ I        2312  0.99        85.6 0.45            121            202 292 
 NOR  HZ EP       2311 33.22                             117   -0.04 8  234 234 
 NOR  HN ES       2312  0.46                             117   -0.34 8  234 234 
 NOR  HZ I        2312  7.62        50.5 0.18            117            234 234 
 CHI  HZ EP       2311 35.10                             116   -0.26 8  249 195 
 CHI  HN ES       2312  4.33                             116   -0.20 8  249 195 
 CHI  HZ I        2312  7.58        22.6 0.41            116            249 195 
 ROSC BZ EP   4   2311 37.07                             115    1.33 0  252 211 
 ROSC BE ES       2312  6.05                             115    0.85 8  252 211 
 ROSC BZ I        2312 11.48        55.3 0.35            116            252 211 
 URE  HZ EP   9   2311 37.01                             113   -1.58 0  282 292 
 URE  HN ES       2312  7.90                                   -0.79 7  282 292 
 URE  HZ I        2312 19.70        39.1 0.17            113            282 292 
 GUY2CHZ EP       2311 41.48                             111    0.28 7  300 235 
 GUY2CHN ES   4   2312 16.86                             111    1.93 0  300 235 
 GUY2CHZ  IAML    2312 24.73        22.0 0.38                           300 235 
 PTGC HZ EP   4   2311 40.05                             110   -1.64 0  310 158 
 PTGC HN ES   4   2312 13.28                             110   -2.51 0  310 158 
 PTGC HZ I        2312 15.92        35.9 0.42            111            310 158 
 ELA  HZ EP   4   2311 45.82                             109    1.34 0  328 229 
 ELA  HN ES   4   2312 23.71                             109    2.95 0  328 229 
 ELA  HZ I        2312 28.63        28.6 0.42            109            328 229 
 CBOC HZ EP       2311 45.11                             109    0.61 7  332 252 
 CBOC HN ES       2312 21.19                             109    0.40 7  332 252 
 CBOC HZ I        2312 26.38         8.7 0.45            109            332 252 
 DBB  EZ EP       2311 45.33                             108    0.29 7  338 274 
 DBB  HN ES   4   2312 18.77                             108   -2.98 0  338 274 
 DBB  EZ I        2312 26.14         9.9 0.28            109            338 274 
 ORTC HZ EP       2311 52.04                             105    0.41 6  395 216 
 ORTC HN ES   4   2312 36.10                             105    2.61 0  395 216 
 ORTC HZ I        2312 40.68        13.6 0.28            106            395 216 
 PAL  HZ EP       2311 52.73                             105   -0.08 6  405 239 
 PAL  HE ES   4   2312 34.46                             105   -1.13 0  405 239 
 PAL  HZ I        2312 41.34        11.8 0.39            105            405 239 
 SJC  HZ EP   4   2311 51.09                             105   -2.11 0  408 327 
 SJC  HN ES   4   2312 32.52                             105   -3.77 0  408 327 
 SJC  HZ I        2312 37.66         6.8 0.24            105            408 327 
 MACC HZ EP   4   2312  4.01                             101   -2.56 0  521 188 
 MACC HE ES   4   2312 56.36                             101   -3.72 0  521 188 
 MACC HZ I        2313  4.50        10.2 0.22            101            521 188 
                                                                                
