 2016  611 2332 21.4 L   6.767 -73.173146.9  RSN  5 0.5 1.3LRSN                1
 GAP=135        1.10       6.2     6.0  9.9 -0.5377E+01  0.1835E+01  0.1374E+00E
 Epicentro: LOS SANTOS - SANTANDER                                             3
 ACTION:UPD 16-07-21 22:17 OP:rebc STATUS:               ID:20160611233221 L   I
 OLDACT:REG 16-06-12 03:48 OP:ak   STATUS:               ID:20160611232742     3
 2016-06-11-2327-42M.COL___337                                                 6
 STAT SP IPHASW D HRMM SECON CODA AMPLIT PERI AZIMU VELO AIN AR TRES W  DIS CAZ7
 BAR2 EZ ES       2332 56.09                             172   -0.4010 19.3 183 
 BRR  HZ EP   2   2332 42.64                             153   -0.02 5 70.4 302 
 BRR  HN ES       2333  0.10                             153    0.8810 70.4 302 
 PAM  EZ EP       2332 44.14                             150    0.0810 82.2  40 
 PAM  EN ES       2333  1.34                             150   -0.3710 82.2  40 
 PAM  EZ I        2333  3.57         5.7 0.68                          82.2  40 
 RUS  HZ EP   1   2332 45.19                             145    0.13 7 97.2 174 
 RUS  HN ES       2333  3.80                             145    0.3110 97.2 174 
 RUS  HZ I        2333  4.76         1.4 0.28                          97.2 174 
 PTB  HZ EP   2   2332 48.16                             133   -0.00 5  144 260 
 PTB  HN ES       2333  8.38                             133   -0.63 9  144 260 
 PTB  HZ I        2333 16.19         3.1 0.38                           144 260 
                                                                                
