 2013 1011 2112 12.5 L   6.742 -73.130146.6  RSN  8 0.4 1.7LRSN                1
 GAP=141        1.11       4.3     5.3  6.6 -0.7750E+01 -0.6171E+00  0.4373E+01E
 Epicentro: JORDAN - SANTANDER                                                 3
 ACTION:UPD 13-11-25 09:21 OP:ep   STATUS:               ID:20131011211212 L   I
 OLDACT:REG 13-10-12 02:51 OP:stll STATUS:               ID:20131011210844     3
 2013-10-11-2108-44M.COL___236                                                 6
 STAT SP IPHASW D HRMM SECON CODA AMPLIT PERI AZIMU VELO AIN AR TRES W  DIS CAZ7
 BAR2 SZ EP       2112 32.14                             173    0.0110 17.5 199 
 BAR2 SZ ES       2112 47.39                             173   -0.0510 17.5 199 
 BAR2 SZ I        2112 49.97        15.7 0.28            169           17.5 199 
 BRR  HZ EP       2112 34.29                             151    0.2810 75.9 302 
 BRR  HN ES       2112 51.48                             151    0.6910 75.9 302 
 PAM  SZ EP       2112 35.13                             150    0.0810 81.4  36 
 PAM  SN ES       2112 52.25                             150   -0.3810 81.4  36 
 PAM  SZ I        2112 54.33         5.3 0.20            154           81.4  36 
 RUS  HZ EP       2112 36.14                             146    0.2610 94.1 177 
 RUS  HN ES       2112 54.23                             146    0.1210 94.1 177 
 RUS  HZ I        2112 55.87         3.9 0.24            145           94.1 177 
 PTB  HZ EP       2112 39.24                             132   -0.35 9  148 261 
 PTB  HN ES       2112 59.91                             132   -0.81 9  148 261 
 PTB  HZ I        2113  7.43        10.8 0.34            132            148 261 
 CAPV BZ EP       2112 39.91                             131   -0.43 9  153  36 
 SPBC HZ EP       2112 41.22                             130    0.51 9  159 221 
 SPBC HZ I        2112 41.64         9.6 0.10            130            159 221 
 SPBC HN ES       2113  2.91                             130    0.21 9  159 221 
 CHI  HZ EP       2112 50.10                             118    0.47 8  243 196 
 CHI  HN ES       2113 17.70                             118   -0.89 8  243 196 
 CHI  HZ I        2113 29.41         2.6 0.30            118            243 196 
                                                                                
