 2010  811 2112 53.1 L   6.745 -73.067147.9  RSN  8 0.3 2.3LRSN                1
 GAP=168        0.76       3.3     7.1  5.0 -0.3158E+01 -0.4713E+01  0.1185E+01E
 Epicentro: JORDAN - SANTANDER                                                 3
 ACTION:UP  10-09-07 10:54 OP:vdl  STATUS:               ID:20100811211253 L   I
 2010-08-11-2110-05S.COL___126                                                 6
 STAT SP IPHASW D HRMM SECON CODA AMPLIT PERI AZIMU VELO SNR AR TRES W  DIS CAZ7
 BAR2 SZ EP   1   2113 12.98                             171     0.0 7   21 217 
 BAR2 SZ ES       2113 28.30                             171    -0.210   21 217 
 BAR2 SZ I        2113 29.55        84.3 0.25                            21 217 
 GIR2 SZ EP   1   2113 13.12                             164    -0.2 7   39 339 
 GIR2 SZ ES       2113 29.38                             164     0.310   39 339 
 BRR  HZ IP     D 2113 14.80                             150    -0.310   82 299 
 BRR  HZ I        2113 14.98        96.8 0.14                            82 299 
 BRR  HE ES       2113 32.40                             150     0.110   82 299 
 RUS  HZ EP   1   2113 16.85                             146     0.2 7   94 181 
 RUS  HN ES       2113 34.92                             146    -0.110   94 181 
 RUS  HZ I        2113 36.65        19.2 0.46                            94 181 
 GUE  SZ EP   1   2113 19.00                             139     0.6 7  121   7 
 GRA  SZ EP   1   2113 18.73                             137    -0.1 7  129  13 
 GRA  SZ ES       2113 38.73                             137    -0.210  129  13 
 GRA  SZ I        2113 42.93        16.6 0.43                           129  13 
 CHI  HZ EP   1   2113 31.09                             118     0.5 6  245 198 
 CHI  HZ I        2113 31.81         9.6 0.28                           245 198 
 PRA  HZ EP   1   2113 46.25                             107    -0.4 4  391 211 
 PRA  HZ I        2114 31.63         7.2 0.46                           391 211 
                                                                                
