 2011  911 2131 50.9 L   6.781 -73.114146.4  RSN  5 0.3 1.7LRSN                1
 GAP=141        0.63       4.3     6.4  5.7  0.6890E+00  0.2597E+00  0.1721E+01E
 Epicentro: LOS SANTOS - SANTANDER                                             3
 ACTION:UPD 12-07-13 15:56 OP:ep   STATUS:               ID:20110911213150 L   I
 2011-09-11-2127-47S.COL___168                                                 6
 STAT SP IPHASW D HRMM SECON CODA AMPLIT PERI AZIMU VELO AIN AR TRES W  DIS CAZ7
 BAR2 SZ EP   1   2132 10.01                             171   -0.55 7 22.2 200 
 BAR2 SZ ES   1   2132 25.68                             171   -0.23 7 22.2 200 
 BAR2 SZ I        2132 26.73        13.6 0.34                          22.2 200 
 GIR2 SZ EP   1   2132 10.53                             166   -0.17 7 34.1 345 
 GIR2 SZ ES   1   2132 26.16                             166    0.00 7 34.1 345 
 BRR  HZ EP       2132 12.18                             151   -0.1510 75.2 299 
 BRR  HZ I        2132 12.38        20.8 0.11                          75.2 299 
 BRR  HE ES   1   2132 29.43                             151    0.38 7 75.2 299 
 PAM  SZ EP   1   2132 13.36                             151    0.23 7 76.9  37 
 PAM  SN ES   1   2132 30.55                             151    0.06 7 76.9  37 
 RUS  HZ EP   1   2132 15.03                             145    0.50 7 98.3 178 
 RUS  HN ES   1   2132 33.03                             145    0.05 7 98.3 178 
 RUS  HZ I        2132 34.05         4.0 0.51                          98.3 178 
                                                                                
