 2014  511 2102 43.2 L   6.772 -73.134150.4  RSN  5 0.5 1.6LRSN                1
 GAP=244        1.13       8.8     7.6 12.7  0.3282E+02 -0.6632E+01 -0.3497E+02E
 Epicentro: LOS SANTOS - SANTANDER                                             3
 OLDACT:DUP 14-05-12 06:30 OP:fm   STATUS:               ID:20140511205820d    3
 ACTION:UPD 15-03-16 16:56 OP:nd   STATUS:               ID:20140511210243 L   I
 OLDACT:UP  14-05-12 06:32 OP:fm   STATUS:               ID:20140511205820d    3
 2014-05-11-2058-19M.COL___254                                                 6
 STAT SP IPHASW D HRMM SECON CODA AMPLIT PERI AZIMU VELO AIN AR TRES W  DIS CAZ7
 RUS  HZ EP       21 3  7.43                             146    0.2310 97.4 177 
 RUS  HN ES       21 3 25.63                             146   -0.2810 97.4 177 
 RUS  HZ I        21 3 42.17         3.2 2.08            152           97.4 177 
 PTB  HZ EP       21 3 10.53                             133   -0.10 9  148 260 
 PTB  HN ES       21 3 31.63                             133   -0.38 9  148 260 
 PTB  HZ I        21 3 35.46         4.5 1.94            147            148 260 
 SPBC HZ EP       21 3 11.49                             130   -0.43 9  162 220 
 SPBC HE ES       21 3 35.31                             130    0.99 9  162 220 
 SPBC HZ I        21 3 38.68         5.1 1.22            142            162 220 
 ZAR  HE ES       21 3 42.28                             123    0.33 8  206 293 
 NOR  HZ EP   1   21 3 19.57                             120    0.43 6  234 235 
 NOR  HE ES       21 3 46.55                             120   -0.61 8  234 235 
 NOR  HZ I        21 3 49.22         4.0 3.16            132            234 235 
                                                                                
