 2014  811 2323 48.7 L   6.792 -73.162148.0  RSN  5 0.4 1.5LRSN                1
 GAP=135        1.01       5.6     5.3  7.9 -0.3722E+01  0.4313E+01  0.4469E+01E
 Epicentro: LOS SANTOS - SANTANDER                                             3
 ACTION:UPD 14-09-15 21:49 OP:nd   STATUS:               ID:20140811232348 L   I
 OLDACT:REG 14-08-12 07:38 OP:carl STATUS:               ID:20140811231819     3
 2014-08-11-2318-19M.COL___269                                                 6
 STAT SP IPHASW D HRMM SECON CODA AMPLIT PERI AZIMU VELO AIN AR TRES W  DIS CAZ7
 BAR2 SZ ES       2324 23.84                             171   -0.2610 22.2 186 
 BAR2 SZ I        2324 24.83         7.9 0.24            171           22.2 186 
 BRR  HN ES       2324 27.41                             153    0.7310 70.1 300 
 PAM  SZ EP       2324 11.51                             151    0.2310 79.2  40 
 PAM  SN ES       2324 28.43                             151   -0.4510 79.2  40 
 PAM  SZ I        2324 30.82         8.3 0.52            151           79.2  40 
 RUS  HZ EP       2324 12.65                             144    0.0110 99.9 175 
 RUS  HN ES       2324 31.56                             144    0.2610 99.9 175 
 RUS  HZ I        2324 32.54         4.3 0.32            145           99.9 175 
 PTB  HZ EP       2324 15.60                             133   -0.10 9  146 259 
 PTB  HN ES       2324 36.24                             133   -0.50 9  146 259 
 PTB  HZ I        2324 38.47         3.4 0.10            134            146 259 
                                                                                
