 2013  211 2131 50.2 L   6.760 -73.112145.8  RSN  5 0.3 1.8LRSN                1
 GAP=143        0.76       4.8     4.6  5.9 -0.4156E+01  0.4709E+01  0.7453E+00E
 Epicentro: LOS SANTOS - SANTANDER                                             3
 ACTION:UPD 13-03-12 09:32 OP:ep   STATUS:               ID:20130211213150 L   I
 2013-02-11-2130-00M.COL___240                                                 6
 STAT SP IPHASW D HRMM SECON CODA AMPLIT PERI AZIMU VELO AIN AR TRES W  DIS CAZ7
 BAR2 SZ ES       2132 24.95                             172   -0.0810 20.1 203 
 BAR2 SZ I        2132 26.29        16.8 0.18            171           20.1 203 
 BRR  HZ EP       2132 11.75                             151    0.0910 76.6 300 
 BRR  HE ES       2132 28.72                             151    0.3210 76.6 300 
 BRR  HE I        2132 33.21        17.1 0.18            150           76.6 300 
 PAM  SZ EP       2132 12.80                             150    0.3210 78.6  35 
 PAM  SZ I        2132 13.13        16.1 0.25            153           78.6  35 
 PAM  SN ES       2132 29.51                             150   -0.3610 78.6  35 
 RUS  HZ EP   1   2132 13.96                             145    0.34 7 96.0 178 
 RUS  HE ES   1   2132 31.85                             145   -0.04 7 96.0 178 
 RUS  HE I        2132 33.66         7.3 0.17            147           96.0 178 
 PTB  HZ EP       2132 16.85                             131   -0.57 9  151 261 
 PTB  HE ES   1   2132 38.71                             131    0.05 7  151 261 
 PTB  HZ I        2132 40.50         5.1 0.13            132            151 261 
                                                                                
