 2014  511 2354 53.5 L   6.818 -73.155145.8  RSN 17 0.5 2.3LRSN                1
 GAP=134        1.02       2.4     3.7  5.4 -0.1273E+01  0.4306E+01  0.2622E+01E
 Epicentro: LOS SANTOS - SANTANDER                                             3
 OLDACT:REG 14-05-12 03:52 OP:fm   STATUS:               ID:20140511234806     3
 ACTION:UPD 15-03-16 16:56 OP:nd   STATUS:               ID:20140511235453 L   I
 OLDACT:UP  14-05-12 06:18 OP:fm   STATUS:               ID:20140511234806     3
 2014-05-11-2348-06M.COL___254                                                 6
 STAT SP IPHASW D HRMM SECON CODA AMPLIT PERI AZIMU VELO AIN AR TRES W  DIS CAZ7
 BRR  HZ IP     C 2355 14.87                             153    0.3110 69.3 297 
 BRR  HN ES       2355 31.72                             153    0.7510 69.3 297 
 BRR  HZ I        2355 35.82        31.0 0.22            151           69.3 297 
 PAM  SZ IP     C 2355 15.89                             151    0.2110 76.5  41 
 PAM  SN ES       2355 33.06                             151    0.1010 76.5  41 
 PAM  HZ I        2355 34.66        21.6 0.36            156           76.5  41 
 RUS  HZ EP       2355 17.04                             143   -0.3810  103 176 
 RUS  HE ES       2355 35.65                             143   -0.4110  103 176 
 RUS  HZ I        2355 36.92        17.4 0.38            145            103 176 
 PTB  HZ EP       2355 19.68                             132   -0.74 9  147 258 
 PTB  HN ES       2355 40.76                             132   -0.65 9  147 258 
 PTB  HZ I        2355 47.41        21.4 0.46            132            147 258 
 OCA  HZ EP   1   2355 21.80                             130    0.18 7  158 353 
 OCA  HE ES       2355 43.41                             130   -0.14 9  158 353 
 OCA  HZ I        2355 51.24        24.4 0.44            132            158 353 
 SPBC HZ EP       2355 22.14                             129    0.04 9  164 218 
 SPBC HN ES       2355 43.92                             129   -0.47 9  164 218 
 SPBC HZ I        2355 45.85        24.5 0.26            130            164 218 
 ZAR  HZ EP       2355 25.23                             123   -0.55 9  202 292 
 ZAR  HE ES       2355 51.02                             123    0.08 9  202 292 
 ZAR  HZ I        2355 55.91        24.9 0.52            123            202 292 
 NOR  HZ EP       2355 29.19                             118   -0.09 8  235 234 
 NOR  HN ES       2355 57.36                             118    0.19 8  235 234 
 NOR  HZ I        2356  2.08        14.4 0.36            119            235 234 
 SML  HZ EP       2355 29.54                             118   -0.35 8  241 335 
 SML  HN ES       2355 58.69                             118    0.42 8  241 335 
 CHI  HZ EP       2355 31.47                             117    0.08 8  250 195 
 CHI  HN ES       2356  1.06                             117    0.12 8  250 195 
 CHI  HZ I        2356  7.93        10.1 1.22            119            250 195 
 ROSC BZ EP   4   2355 33.22                             116    1.46 0  254 211 
 ROSC BN ES       2356  2.35                             116    0.75 8  254 211 
 HEL  HZ EP       2355 33.58                             115   -0.09 8  272 255 
 HEL  HN ES       2356  4.47                             115   -0.51 8  272 255 
 HEL  HZ I        2356 11.29        10.8 0.40            116            272 255 
 URE  HE ES   4   2356  3.74                             114   -2.53 0  282 292 
 GUY2CHZ EP       2355 38.36                             112    1.20 7  301 234 
 GUY2CHE ES   4   2356 15.15                             112    3.95 0  301 234 
 GUY2CHZ I        2356 19.08        12.0 0.44                           301 234 
 VIL  SZ EP   1   2355 36.92                             112   -0.21 5  305 191 
 VIL  SE ES   1   2356 11.13                             112   -0.02 5  305 191 
 VIL  HZ I        2356 19.17        11.3 0.40            114            305 191 
 CBOC HZ EP   2   2355 40.91                             110    0.53 3  333 252 
 CBOC HN ES   4   2356 18.86                             110    1.92 0  333 252 
 CBOC HZ I        2356 32.91         4.8 1.38            111            333 252 
 PRA  HZ EP   1   2355 47.05                             106   -0.13 4  393 209 
 PRA  HN ES       2356 29.31                             106    0.27 6  393 209 
 ORTC HZ EP   1   2355 47.50                             106   -0.05 4  396 216 
 ORTC HN ES       2356 30.70                             106    1.00 6  396 216 
 ORTC HZ I        2356 34.34         6.2 0.68            108            396 216 
 SJC  HN ES   4   2356 26.61                             106   -5.33 0  407 327 
                                                                                
