 2017  611 2333 26.8 L   6.791 -73.164148.0  RSN 18 0.5 2.4LRSN                1
 GAP=106        1.03       3.2     3.1  6.4  0.7584E-01 -0.4859E+00  0.1066E+01E
 Epicentro: LOS SANTOS - SANTANDER                                             3
 ACTION:UPD 17-09-14 16:51 OP:jn   STATUS:               ID:20170611233326 L   I
 OLDACT:UP  17-06-12 04:57 OP:and  STATUS:               ID:20170611232728     3
 OLDACT:UP  17-06-12 04:56 OP:and  STATUS:               ID:20170611232728     3
 OLDACT:UP  17-06-12 04:54 OP:and  STATUS:               ID:20170611232728     3
 OLDACT:UP  17-06-12 04:53 OP:and  STATUS:               ID:20170611232728     3
 OLDACT:UP  17-06-12 04:53 OP:and  STATUS:               ID:20170611232728     3
 OLDACT:UP  17-06-12 04:53 OP:and  STATUS:               ID:20170611232728     3
 OLDACT:REG 17-06-12 04:22 OP:and  STATUS:               ID:20170611232728     3
 2017-06-11-2328-00M.COL___347                                                 6
 STAT SP IPHASW D HRMM SECON CODA AMPLIT PERI AZIMU VELO AIN AR TRES W  DIS CAZ7
 BRR  HZ IP     C 2333 48.24                             154    0.1010 69.9 300 
 BRR  HN ES       2334  5.45                             154    0.6810 69.9 300 
 BRR  HZ I        2334  8.47        44.9 0.28            153           69.9 300 
 PTB  HZ EP       2333 52.90                             133   -0.88 9  146 259 
 PTB  HN ES       2334 14.30                             133   -0.50 9  146 259 
 PTB  HZ I        2334 16.22        26.7 0.14            133            146 259 
 TAM  HZ IP     D 2333 54.89                             131    0.05 9  157 104 
 TAM  HE ES       2334 16.59                             131   -0.10 9  157 104 
 TAM  HZ I        2334 17.62        17.4 0.34            134            157 104 
 SPBC HZ EP       2333 55.40                             130    0.10 9  161 219 
 SPBC HN ES       2334 17.62                             130    0.10 9  161 219 
 SPBC HZ I        2334 19.89        52.1 0.10            130            161 219 
 ZAR  HZ EP   3   2334  0.20                             123    0.94 2  203 293 
 ZAR  HN ES       2334 24.38                             123   -0.18 9  203 293 
 ZAR  HZ I        2334 29.63        28.8 0.42            124            203 293 
 TABC EZ EP   3   2334  4.01                             120    1.50 2  228 210 
 TABC EZ ES       2334 29.82                             120   -0.52 8  228 210 
 TABC EZ I        2334 34.97        25.4 0.26            121            228 210 
 NOR  HZ EP       2334  2.50                             119    0.05 8  232 234 
 NOR  HE ES       2334 30.49                             119    0.26 8  232 234 
 NOR  HZ I        2334 35.16        17.2 0.22            120            232 234 
 CHI  HZ EP       2334  4.66                             118    0.17 8  247 195 
 CHI  HN ES       2334 33.93                             118    0.06 8  247 195 
 CHI  HZ I        2334 39.07        17.7 0.38            119            247 195 
 ROSC BZ EP   9   2334  6.42                             118    1.56 0  251 211 
 ROSC BN ES       2334 36.78                             117    0.69 8  251 211 
 ROSC BZ I        2334 41.26        41.6 0.45            118            251 211 
 HEL  HZ EP   3   2334  8.06                             116    1.15 2  270 256 
 HEL  HN ES       2334 38.91                             116    0.74 8  270 256 
 HEL  HZ I        2334 44.52        15.7 0.30            116            270 256 
 URE  HZ EP       2334  6.79                             114   -1.04 7  282 292 
 URE  HN ES   4   2334 37.57                             114   -2.25 0  282 292 
 URE  HZ I        2334 45.54        19.7 0.14            115            282 292 
 VIL  EZ EP       2334 10.49                             113    0.30 7  302 191 
 VIL  EE ES       2334 43.96                             113   -0.06 7  302 191 
 VIL  EZ I        2334 47.19        22.7 0.44            114            302 191 
 PTGC HZ EP   9   2334  9.69                             112   -1.08 0  309 158 
 PTGC HN ES       2334 43.43                             113   -0.53 7  309 158 
 CBOC HZ EP   3   2334 14.79                             111    1.21 2  331 252 
 CBOC HN ES       2334 49.39                             111   -0.65 7  331 252 
 CBOC HZ I        2334 55.05         4.7 0.42            111            331 252 
 DBB  EZ EP       2334 15.04                             110    0.87 7  338 274 
 DBB  EE ES   4   2334 48.78                             110   -2.31 0  338 274 
 DBB  EZ I        2334 51.15         9.1 0.40            111            338 274 
 PAL  HZ EP       2334 22.32                             107    0.53 6  403 239 
 PAL  HN ES   4   2335  6.01                             107    1.34 0  403 239 
 PAL  HZ I        2335 10.47         4.5 0.32            107            403 239 
 SJC  HZ IP   4 C 2334 20.68                             106   -1.74 0  409 327 
 SJC  HN ES   4   2335  1.43                             106   -4.36 0  409 327 
 SJC  HZ I        2335  6.60         3.8 0.17            107            409 327 
 VALLCHN ES       2335  6.25                             106    0.06 6  411 359 
                                                                                
