 2012  811 2034 59.4 L   6.787 -73.131139.7  RSN 12 0.4 2.1LRSN                1
 GAP= 72        0.69       3.4     3.0  5.2  0.1391E+01  0.3699E+01  0.5431E+01E
 Epicentro: LOS SANTOS - SANTANDER                                             3
 ACTION:UPD 12-09-10 11:55 OP:ep   STATUS:               ID:20120811203459 L   I
 2012-08-11-2030-00M.COL___219                                                 6
 STAT SP IPHASW D HRMM SECON CODA AMPLIT PERI AZIMU VELO AIN AR TRES W  DIS CAZ7
 BAR2 SZ EP       2035 18.21                             170   -0.0710 22.3 195 
 BAR2 SZ I        2035 35.45        45.2 0.22                          22.3 195 
 GIR2 SZ EP       2035 18.19                             166   -0.2110 33.0 348 
 GIR2 SZ ES   2   2035 33.32                             166    0.10 5 33.0 348 
 BRR  HZ EP       2035 19.99                             151   -0.0310 73.3 299 
 BRR  HZ I        2035 20.24        24.0 0.30                          73.3 299 
 BRR  HN ES   1   2035 36.63                             151    0.53 7 73.3 299 
 PAM  SZ EP       2035 21.11                             150    0.1310 77.5  38 
 PAM  SN ES   1   2035 37.92                             150    0.10 7 77.5  38 
 PAM  SZ I        2035 39.65        16.6 0.42                          77.5  38 
 RUS  HZ EP       2035 22.20                             143   -0.2410 99.1 177 
 RUS  HN ES   1   2035 40.63                             143    0.21 7 99.1 177 
 PTB  HN ES   2   2035 45.78                             130   -0.97 5  149 259 
 TAM  HZ EP       2035 26.58                             129    0.16 9  153 105 
 TAM  HZ I        2035 27.01        22.8 0.44                           153 105 
 TAM  HN ES   2   2035 47.14                             129   -0.36 5  153 105 
 OCA  HN ES   2   2035 48.53                             128   -0.71 5  162 353 
 OCA  HZ I        2035 52.93        26.6 0.20                           162 353 
 ZAR  HZ EP       2035 31.97                             121    0.31 8  206 292 
 ZAR  HN ES   1   2035 56.32                             121   -0.52 6  206 292 
 ZAR  HZ I        2036  2.63        11.5 0.42                           206 292 
 NOR  SZ EP       2035 34.50                             117   -0.33 8  235 235 
 NOR  SN ES   3   2036  3.00                             117    0.53 2  235 235 
 NOR  SZ I        2036  7.34        11.2 0.50                           235 235 
 CHI  HZ EP   1   2035 36.62                             116   -0.04 6  248 196 
 CHI  HN ES   3   2036  5.73                             116    0.00 2  248 196 
 CHI  HZ I        2036 12.00         3.6 0.48                           248 196 
 HEL  HZ EP       2035 40.06                             113    0.62 8  273 256 
 HEL  HN ES   3   2036 12.69                             113    2.01 2  273 256 
 HEL  HZ I        2036 18.91         6.1 0.22                           273 256 
                                                                                
