 2013  311 2117 54.7 L   6.976 -73.518 11.5  RSN  6 0.5 1.8LRSN                1
 GAP=109        1.35       3.6     3.5  9.3  0.4950E+01 -0.1756E+02 -0.1112E+02E
 Epicentro: SAN VICENTE DE CHUCURI - SANTANDER                                 3
 ACTION:UPD 13-04-09 14:01 OP:ep   STATUS:               ID:20130311211754 L   I
 2013-03-11-2108-51M.COL___210                                                 6
 STAT SP IPHASW D HRMM SECON CODA AMPLIT PERI AZIMU VELO AIN AR TRES W  DIS CAZ7
 BRR  HZ IP     D 2117 59.22                             109   -0.1510 25.8 304 
 BRR  HE ES       2118  3.69                             109    0.6610 25.8 304 
 BRR  HN I        2118  4.50       260.5 0.54            121           25.8 304 
 BAR2 SZ EP       2118  4.61                              99    0.4710 56.4 139 
 BAR2 SZ ES       2118 12.03                              99    0.5010 56.4 139 
 BAR2 SZ I        2118 13.45        61.0 0.56            104           56.4 139 
 PAM  SZ EP       2118  9.67                              95   -1.1410 99.0  66 
 PAM  SZ I        2118 25.22         7.8 0.16             97           99.0  66 
 PTB  HZ EP       2118 12.39                              94   -0.2610  114 245 
 PTB  HN ES       2118 26.38                              94   -0.2910  114 245 
 PTB  HN I        2118 27.07        19.9 0.12             97            114 245 
 RUS  HZ EP       2118 15.47                              94    0.1010  129 158 
 RUS  HE ES       2118 31.25                              94   -0.2710  129 158 
 RUS  HN I        2118 34.79        21.3 0.58             96            129 158 
 CAPV BZ ES       2118 40.57                              56    0.42 9  165  53 
                                                                                
